 2016  625 1541 51.0 L   6.804 -73.166145.7  RSN 11 0.4 2.3LRSN                1
 GAP=134        0.88       3.5     3.7  5.9 -0.1530E+01  0.5322E+01  0.2801E+01E
 Epicentro: LOS SANTOS - SANTANDER                                             3
 ACTION:UPD 16-07-21 22:22 OP:rebc STATUS:               ID:20160625154151 L   I
 OLDACT:REG 16-06-25 21:04 OP:dnl  STATUS:               ID:20160625153744     3
 2016-06-25-1537-44M.COL___333                                                 6
 STAT SP IPHASW D HRMM SECON CODA AMPLIT PERI AZIMU VELO AIN AR TRES W  DIS CAZ7
 BRR  HZ EP       1542 12.17                             153    0.1510 69.0 299 
 BRR  HN ES       1542 29.07                             153    0.6510 69.0 299 
 BRR  HZ I        1542 32.56        39.4 0.26                          69.0 299 
 PAM  EZ EP       1542 13.53                             150    0.2610 78.5  41 
 PAM  EN ES       1542 30.41                             150   -0.2410 78.5  41 
 PAM  EZ I        1542 32.96        56.2 0.70                          78.5  41 
 RUS  HZ EP       1542 14.50                             144   -0.2810  101 175 
 RUS  HN ES       1542 33.31                             144   -0.0310  101 175 
 RUS  HZ I        1542 34.13        12.4 0.30                           101 175 
 PTB  HZ EP       1542 17.34                             132   -0.43 9  146 259 
 PTB  HN ES       1542 38.01                             132   -0.64 9  146 259 
 PTB  HZ I        1542 45.49        29.3 0.46                           146 259 
 SPBC HZ EP       1542 19.47                             129    0.08 9  162 218 
 SPBC HE ES       1542 41.46                             129   -0.07 9  162 218 
 SPBC HZ I        1542 46.39        22.0 0.34                           162 218 
 ZAR  HZ EP       1542 23.29                             123    0.08 9  202 292 
 ZAR  HN ES       1542 48.08                             123   -0.25 9  202 292 
 ZAR  HZ I        1542 55.03        23.7 0.56                           202 292 
 NOR  HZ EP   2   1542 25.64                             119   -0.91 4  233 234 
 NOR  HN ES       1542 54.78                             119    0.50 8  233 234 
 NOR  HZ I        1543  2.39         8.2 0.16                           233 234 
 URE  HZ EP   2   1542 31.36                             114   -0.45 4  282 292 
 URE  HN ES   4   1543  1.46                             114   -2.19 0  282 292 
 URE  HZ I        1543 12.40        12.5 0.18                           282 292 
 GUY2CHZ EP       1542 35.17                             112    0.75 7  300 234 
 GUY2CHE ES   4   1543 10.93                             112    2.64 0  300 234 
 GUY2CHZ I        1543 18.81         5.8 0.36                           300 234 
 PRA  HZ EP   2   1542 44.71                             106    0.29 3  391 209 
 PRA  HN ES   2   1543 26.33                             106    0.23 3  391 209 
 PRA  HZ I        1543 31.50        10.4 0.52                           391 209 
 SJC  HZ EP   4   1542 44.87                             106   -1.50 0  408 327 
 SJC  HN ES   4   1543 25.81                             106   -3.76 0  408 327 
 SJC  HZ I        1543 33.52         4.1 0.32                           408 327 
                                                                                
