 2012 1125 1558  1.7 L   6.511 -73.582105.4  RSN  7 0.4 1.9LRSN                1
 GAP=120        0.85       5.4     4.0  8.1 -0.1214E+01  0.1644E+02 -0.5256E+01E
 Epicentro: SANTA HELENA DEL OPON - SANTANDER                                  3
 ACTION:UPD 12-12-05 15:36 OP:}ep  STATUS:               ID:20121125155801 L   I
 2012-11-25-1556-49M.COL___204                                                 6
 STAT SP IPHASW D HRMM SECON CODA AMPLIT PERI AZIMU VELO AIN AR TRES W  DIS CAZ7
 BAR2 SZ IP       1558 17.41                             155    0.0910 45.1  78 
 BAR2 SZ ES   1   1558 29.98                             155    0.43 7 45.1  78 
 BAR2 SZ I        1558 31.36        92.1 0.52                          45.1  78 
 GIR2 SZ EP   1   1558 18.98                             141   -0.20 7 76.1  34 
 GIR2 SZ ES   1   1558 33.09                             141    0.24 7 76.1  34 
 GIR2 SZ I        1558 33.59        27.5 0.12                          76.1  34 
 RUS  HZ EP   1   1558 20.28                             137   -0.33 7 87.9 141 
 RUS  HE ES   1   1558 35.37                             137   -0.02 7 87.9 141 
 RUS  HZ I        1558 36.34         4.6 0.28                          87.9 141 
 PTB  HZ EP   1   1558 20.19                             134   -0.52 7 96.7 272 
 PTB  HN ES   1   1558 34.94                             134   -0.63 7 96.7 272 
 PTB  HZ I        1558 36.56        26.0 0.20                          96.7 272 
 ZAR  HZ EP   1   1558 29.31                             115    0.39 7  178 308 
 ZAR  HZ I        1558 54.12        11.6 0.30                           178 308 
 HEL  HZ EP   1   1558 34.81                             110    0.90 6  218 261 
 HEL  HN ES   1   1558 59.48                             110    0.41 6  218 261 
 HEL  HZ I        1559  2.63         4.5 0.36                           218 261 
 SML  HZ EP   1   1558 37.59                             106   -0.57 6  259 348 
                                                                                
