 2013  225 1550 25.5 L   6.763 -73.187140.6  RSN  5 0.5 1.4LRSN                1
 GAP=133        0.96       6.5     6.2  9.0 -0.5974E+01  0.3514E+01 -0.1021E+01E
 Epicentro: VILLANUEVA - SANTANDER                                             3
 ACTION:UPD 13-03-12 09:35 OP:ep   STATUS:               ID:20130225155025 L   I
 2013-02-25-1550-00M.COL___228                                                 6
 STAT SP IPHASW D HRMM SECON CODA AMPLIT PERI AZIMU VELO AIN AR TRES W  DIS CAZ7
 BAR2 SZ EP   1   1550 44.46                             172    0.06 7 18.8 178 
 BAR2 SZ ES   1   1550 58.71                             172   -0.45 7 18.8 178 
 BAR2 SZ I        1551  0.62         9.8 0.18            174           18.8 178 
 BRR  HZ EP   1   1550 46.49                             152    0.53 7 69.4 303 
 BRR  HN ES   1   1551  2.81                             152    0.87 7 69.4 303 
 BRR  HZ I        1551  8.35         6.3 0.64            151           69.4 303 
 PAM  SZ EP       1550 47.54                             148    0.0110 83.5  40 
 PAM  SE ES   1   1551  4.21                             148   -0.52 7 83.5  40 
 PAM  SZ I        1551  6.63         4.4 0.52            151           83.5  40 
 RUS  HZ EP   1   1550 48.39                             144   -0.06 7 96.9 173 
 RUS  HE ES   1   1551  6.82                             144    0.45 7 96.9 173 
 RUS  HZ I        1551  7.71         2.2 0.20            150           96.9 173 
 PTB  HZ EP   1   1550 51.23                             132   -0.31 7  142 260 
 PTB  HN ES   1   1551 11.16                             132   -0.71 7  142 260 
 PTB  HZ I        1551 14.44         5.3 0.18            134            142 260 
                                                                                
