 2010 1225 1833 41.2 L   6.863 -73.257138.5  RSN  4 0.2 1.5LRSN                1
 GAP=192        0.41       4.7    21.8  7.7 -0.7646E+02  0.1147E+03 -0.1855E+02E
 Epicentro: ZAPATOCA - SANTANDER                                               3
 ACTION:UP  11-01-14 15:27 OP:pat  STATUS:               ID:20101225183341 L   I
 2010-12-25-1831-01S.COL___132                                                 6
 STAT SP IPHASW D HRMM SECON CODA AMPLIT PERI AZIMU VELO SNR AR TRES W  DIS CAZ7
 BAR2 SZ EP   2   1834  0.56                             167     0.4 5   31 165 
 BAR2 SZ ES   2   1834 14.92                             167    -0.1 5   31 165 
 BAR2 SZ I        1834 18.84         7.8 0.34                            31 165 
 RUS  HZ EP   2   1834  5.18                             140     0.2 5  109 170 
 RUS  HN ES   1   1834 23.36                             140    -0.1 7  109 170 
 RUS  HZ I        1834 24.47         3.6 0.73                           109 170 
 GRA  SZ EP   2   1834  5.56                             136    -0.1 5  124  24 
 GRA  SZ ES   2   1834 24.61                             136    -0.1 5  124  24 
 GRA  SZ I        1834 27.28         4.6 0.19                           124  24 
 CHI  HZ EP   1   1834 18.79                             115    -0.2 6  253 192 
 CHI  HZ I        1834 53.91         2.0 0.17                           253 192 
                                                                                
