 2010  925 1929 47.7 L   6.803 -73.136152.0  RSN  6 0.4 1.6LRSN                1
 GAP=160        0.90       8.4    19.1 20.4  0.7159E+00 -0.3014E+03 -0.7823E+01E
 Epicentro: LOS SANTOS - SANTANDER                                             3
 ACTION:UP  11-02-18 11:05 OP:tino STATUS:               ID:20100925192947 L   I
 2010-09-25-1927-02S.COL___122                                                 6
 STAT SP IPHASW D HRMM SECON CODA AMPLIT PERI AZIMU VELO SNR AR TRES W  DIS CAZ7
 BTL  SZ EP       1930  8.33                             173     0.310   19 311 
 BRR  HZ EP       1930  9.45                             154    -0.110   72 298 
 BRR  HZ I        1930  9.77        11.4 0.35                            72 298 
 BRR  HE ES   1   1930 26.71                             154     0.1 7   72 298 
 RUS  HZ EP   1   1930 11.96                             146    -0.1 7  101 177 
 RUS  HE ES   3   1930 30.63                             146    -0.5 2  101 177 
 RUS  HZ I        1930 31.70         2.5 0.65                           101 177 
 GUE  SZ EP       1930 12.41                             141    -0.510  116  12 
 GRA  SZ EP   1   1930 14.23                             139     0.8 7  125  17 
 OCA  SZ EP   3   1930 16.13                             132    -0.4 2  160 353 
 OCA  SZ ES   3   1930 38.73                             132    -0.2 2  160 353 
 OCA  SZ I        1930 41.90         7.3 0.18                           160 353 
                                                                                
