 2011  225 1948 26.2 L   6.771 -73.232141.2  RSN  4 0.3 2.2LRSN                1
 GAP=188        0.68       5.7    23.8  7.3 -0.1112E+03  0.8966E+02 -0.1677E+02E
 Epicentro: ZAPATOCA - SANTANDER                                               3
 ACTION:UP  11-03-28 15:11 OP:jfem STATUS:               ID:20110225194826 L   I
 2011-02-25-1947-19S.COL___136                                                 6
 STAT SP IPHASW D HRMM SECON CODA AMPLIT PERI AZIMU VELO SNR AR TRES W  DIS CAZ7
 BAR2 SZ EP       1948 44.93                             171    -0.310   21 165 
 BAR2 SZ ES   1   1949  0.07                             171     0.0 7   21 165 
 BAR2 SZ I        1949  1.13        37.1 0.23                            21 165 
 RUS  HZ EP       1948 49.15                             143    -0.210   98 170 
 RUS  HN ES   1   1949  7.65                             143     0.2 7   98 170 
 RUS  HZ I        1949  8.79        28.1 0.22                            98 170 
 GRA  SZ EP       1948 51.84                             134     0.310  132  21 
 GRA  SZ ES   1   1949 11.37                             134     0.0 7  132  21 
 GRA  SZ I        1949 12.55        25.4 0.30                           132  21 
 CHI  HZ EP       1949  3.11                             117     0.0 8  243 193 
 CHI  HN ES   2   1949 32.54                             117     0.7 4  243 193 
 CHI  HZ I        1949 35.74        10.3 0.42                           243 193 
                                                                                
