 2016  625 1826 14.6 L   6.795 -73.115152.0  RSN  5 0.2 1.8LRSN                1
 GAP=141        0.52       3.3     5.0  6.7 -0.6094E+01  0.1656E+02  0.3511E+01E
 Epicentro: LOS SANTOS - SANTANDER                                             3
 ACTION:UPD 16-07-21 22:22 OP:rebc STATUS:               ID:20160625182614 L   I
 OLDACT:UP  16-06-25 22:47 OP:mh   STATUS:               ID:20160625181740     3
 OLDACT:UP  16-06-25 22:47 OP:mh   STATUS:               ID:20160625181740     3
 OLDACT:REG 16-06-25 21:09 OP:dnl  STATUS:               ID:20160625181740     3
 2016-06-25-1817-40M.COL___333                                                 6
 STAT SP IPHASW D HRMM SECON CODA AMPLIT PERI AZIMU VELO AIN AR TRES W  DIS CAZ7
 BRR  HZ EP   1   1826 36.89                             153    0.28 7 74.4 298 
 BRR  HZ I        1827 29.11        19.1 0.38                          74.4 298 
 PAM  EE ES       1826 55.14                             153   -0.0310 75.8  37 
 RUS  HZ EP       1826 38.60                             145   -0.3210 99.8 178 
 RUS  HN ES       1826 58.06                             145    0.1710 99.8 178 
 RUS  HZ I        1826 59.73         5.4 0.36                          99.8 178 
 NOR  HN ES       1827 19.18                             120   -0.13 8  237 235 
 CHI  HZ EP   1   1826 52.98                             119    0.29 6  249 196 
 CHI  HN ES   1   1827 22.43                             119    0.03 6  249 196 
 CHI  HZ I        1827 26.71         4.1 0.24                           249 196 
                                                                                
