 2014  825 1059 25.2 L   6.774 -73.120146.0  RSN  6 0.5 1.3LRSN                1
 GAP=141        1.18       6.7     6.9  9.6 -0.2573E+01 -0.6433E+01  0.7206E+01E
 Epicentro: LOS SANTOS - SANTANDER                                             3
 ACTION:UPD 14-09-15 21:53 OP:nd   STATUS:               ID:20140825105925 L   I
 OLDACT:REG 14-08-25 21:02 OP:stll STATUS:               ID:20140825105820     3
 2014-08-25-1058-20M.COL___224                                                 6
 STAT SP IPHASW D HRMM SECON CODA AMPLIT PERI AZIMU VELO AIN AR TRES W  DIS CAZ7
 BAR2 SZ ES       1059 59.61                             171   -0.4710 21.3 199 
 BAR2 SZ I        11 0  1.35         7.8 0.46            169           21.3 199 
 BRR  HN ES       11 0  3.79                             151    0.5410 75.1 299 
 PAM  SZ EP       1059 47.43                             151   -0.0010 77.9  37 
 RUS  HZ EP       1059 48.14                             145   -0.5810 97.6 178 
 RUS  HN ES       11 0  7.60                             145    0.5010 97.6 178 
 RUS  HZ I        11 0  9.54         2.4 0.54            145           97.6 178 
 PTB  HN ES       11 0 13.05                             132   -0.52 9  150 260 
 PTB  HZ I        11 0 20.04         2.5 0.32            130            150 260 
 SPBC HZ EP       1059 54.21                             129    0.57 9  163 220 
 SPBC HE ES       11 0 15.85                             129   -0.01 9  163 220 
                                                                                
