 2010 1125 1633 58.6 L   6.673 -73.178143.1  RSN  4 0.3 1.2LRSN                1
 GAP=178        0.56       6.0    13.0  8.6  0.4722E+02 -0.4443E+02 -0.1958E+02E
 Epicentro: VILLANUEVA - SANTANDER                                             3
 ACTION:UP  10-12-17 16:55 OP:REBC STATUS:               ID:20101125163358 L   I
 2010-11-25-1630-23S.COL___131                                                 6
 STAT SP IPHASW D HRMM SECON CODA AMPLIT PERI AZIMU VELO SNR AR TRES W  DIS CAZ7
 BAR2 SZ EP   2   1634 17.66                             176     0.0 5    9 184 
 BAR2 SZ I        1634 18.03         5.3 0.27                             9 184 
 BAR2 SZ ES   2   1634 32.47                             176    -0.1 5    9 184 
 BRR  HZ EP   1   1634 19.71                             150     0.0 7   76 309 
 BRR  HN ES   1   1634 36.26                             150     0.0 7   76 309 
 RUS  HZ EP   2   1634 21.71                             147     0.6 5   87 173 
 RUS  HN ES   2   1634 38.51                             147    -0.2 5   87 173 
 RUS  HZ I        1634 41.45         2.0 0.29                            87 173 
 OCA  SZ EP   2   1634 27.31                             127    -0.7 4  174 355 
 OCA  SZ ES   2   1634 51.41                             127     0.5 4  174 355 
                                                                                
