 2010  925 1346 25.2 L   6.800 -73.143138.9  RSN 13 0.4 2.5LRSN                1
 GAP=174        0.97       4.2     6.3  5.9 -0.1538E+02  0.4008E+01  0.6219E+01E
 Epicentro: LOS SANTOS - SANTANDER                                             3
 ACTION:UP  11-02-18 11:05 OP:tino STATUS:               ID:20100925134625 L   I
 2010-09-25-1344-46S.COL___120                                                 6
 STAT SP IPHASW D HRMM SECON CODA AMPLIT PERI AZIMU VELO SNR AR TRES W  DIS CAZ7
 BAR2 SZ IP       1346 43.84                             170    -0.210   23 191 
 BAR2 SZ ES   1   1346 58.31                             170    -0.4 7   23 191 
 BAR2 SZ I        1347  0.05        87.3 0.22                            23 191 
 GIR2 SZ EP       1346 43.89                             167    -0.210   31 350 
 GIR2 SZ ES   1   1346 58.92                             167     0.1 7   31 350 
 BRR  HZ IP     D 1346 45.76                             151     0.110   72 298 
 BRR  HN ES   1   1347  2.22                             151     0.6 7   72 298 
 BRR  HZ I        1347  6.94        82.2 0.14                            72 298 
 GUE  SZ EP       1346 49.86                             138     0.510  116  12 
 GRA  SZ IP       1346 49.84                             135     0.010  126  17 
 GRA  SZ ES   1   1347  9.31                             135     0.2 7  126  17 
 GRA  SZ I        1347 10.27        51.8 0.34                           126  17 
 OCA  SZ EP       1346 52.43                             128    -0.6 9  160 353 
 OCA  SZ ES   2   1347 14.25                             128    -0.5 5  160 353 
 OCA  SZ I        1347 21.94        31.2 0.32                           160 353 
 NOR  SZ EP       1347  0.34                             117    -0.3 8  235 235 
 NOR  SN ES   1   1347 27.54                             117    -0.7 6  235 235 
 CHI  HZ EP       1347  2.12                             116    -0.4 8  249 195 
 CHI  HZ I        1347  4.63        12.2 0.35                           249 195 
 CHI  HN ES   1   1347 31.91                             116     0.2 6  249 195 
 ROSC BZ EP       1347  3.89                             115     0.9 8  253 211 
 ROSC BE ES   2   1347 32.51                             115     0.0 4  253 211 
 ROSC BZ I        1347 40.60        18.2 0.72                           253 211 
 HEL  HZ EP       1347  5.02                             113    -0.1 8  272 256 
 HEL  HN ES   1   1347 36.20                             113    -0.1 6  272 256 
 HEL  HZ I        1347 43.88        18.8 0.80                           272 256 
 RREF HZ EP   2   1347 11.55                             109     0.4 3  322 229 
 RREF HN ES   2   1347 46.96                             109     0.1 3  322 229 
 RREF HZ I        1347 51.38        17.2 0.21                           322 229 
 TOL  SZ EP       1347 13.93                             108     0.7 7  344 225 
 ANIL HZ EP       1347 14.60                             107    -0.2 6  358 225 
 ANIL HN ES   1   1347 53.62                             107     0.1 5  358 225 
 ANIL HZ I        1348  0.77        23.4 0.18                           358 225 
                                                                                
