 2017  225 1633  1.9 L   6.745 -73.148141.6  RSN  9 0.3 1.7LRSN                1
 GAP=139        0.73       2.8     3.0  4.5 -0.2100E+00  0.3345E+01  0.4678E+01E
 Epicentro: LOS SANTOS - SANTANDER                                             3
 ACTION:UPD 17-05-24 15:40 OP:jn   STATUS:               ID:20170225163301 L   I
 OLDACT:DUP 17-02-26 01:06 OP:lv   STATUS:               ID:20170225162742d    3
 2017-02-25-1628-00M.COL___376                                                 6
 STAT SP IPHASW D HRMM SECON CODA AMPLIT PERI AZIMU VELO AIN AR TRES W  DIS CAZ7
 BAR2 EZ EP       1633 20.86                             173   -0.0910 17.3 193 
 BAR2 EZ ES       1633 36.26                             173    0.4810 17.3 193 
 BAR2 EZ I        1633 37.46        17.9 0.21            170           17.3 193 
 BRR  HE ES       1633 39.07                             151   -0.0010 74.1 303 
 PAM  EZ EP       1633 23.83                             148   -0.1810 82.3  37 
 PAM  EN ES       1633 41.14                             148   -0.1010 82.3  37 
 PAM  EZ I        1633 43.62         6.9 0.52            151           82.3  37 
 RUS  HZ EP       1633 25.11                             145    0.2810 94.5 176 
 RUS  HN ES       1633 42.42                             145   -0.2810 94.5 176 
 RUS  HZ I        1633 44.88         5.5 0.24            144           94.5 176 
 PTB  HZ EP       1633 28.09                             131   -0.34 9  146 261 
 PTB  HN ES       1633 49.24                             131    0.13 9  146 261 
 PTB  HZ I        1633 51.29         4.4 0.13            131            146 261 
 ZAR  HE ES       1633 59.43                             121   -0.16 8  206 294 
 ZAR  HZ I        1634  4.21         5.9 0.29            122            206 294 
 NOR  HZ EP       1633 37.25                             118    0.24 8  231 236 
 NOR  HN ES       1634  4.37                             118   -0.01 8  231 236 
 NOR  HZ I        1634  7.86         4.3 0.32            118            231 236 
 CHI  HZ EP       1633 39.26                             117    0.51 8  243 195 
 CHI  HN ES       1634  6.79                             117   -0.68 8  243 195 
 CHI  HZ I        1634 14.50         2.7 0.40            117            243 195 
 PRA  HZ EP       1633 55.05                             106    0.38 6  387 210 
 PRA  HN ES       1634 35.87                             106    0.07 6  387 210 
 PRA  HZ I        1634 43.07         3.4 0.44            106            387 210 
                                                                                
