 2012  125 1132 53.7 L   6.329 -73.631109.4  RSN 18 0.4 2.8LRSN                1
 GAP= 69        0.86       2.5     2.7  6.0 -0.7205E-01  0.3641E+01  0.4660E+01E
 Epicentro: SANTA HELENA DEL OPON - SANTANDER                                  3
 ACTION:UP  12-02-03 08:20 OP:REBC STATUS:               ID:20120125113253 L   I
 2012-01-25-1130-00M.COL___187                                                 6
 STAT SP IPHASW D HRMM SECON CODA AMPLIT PERI AZIMU VELO SNR AR TRES W  DIS CAZ7
 BAR2 SZ IP       1133 10.72                             150     0.210   58  60 
 BAR2 SZ ES   1   1133 23.87                             150     0.2 7   58  60 
 BAR2 SZ I        1133 24.98       418.0 0.36                            58  60 
 RUS  HZ IP     D 1133 11.98                             142    -0.310   77 128 
 RUS  HZ I        1133 12.49        77.6 0.24                            77 128 
 RUS  HN ES   2   1133 27.09                             142     0.4 5   77 128 
 BRR  HZ IP     C 1133 12.31                             139     0.010   87 354 
 BRR  HE ES   1   1133 27.34                             139     0.6 7   87 354 
 BRR  HZ I        1133 33.24       140.2 0.14                            87 354 
 PTB  HZ IP     C 1133 12.45                             136    -0.510   94 284 
 PTB  HN ES   1   1133 27.32                             136    -0.6 7   94 284 
 PTB  HZ I        1133 30.33       103.2 0.10                            94 284 
 GIR2 SZ EP       1133 13.33                             135     0.110   96  30 
 PAM  SZ EP       1133 18.73                             122    -0.4 9  152  43 
 PAM  SN ES   1   1133 38.28                             122    -0.6 7  152  43 
 NOR  SZ EP       1133 19.34                             120    -0.1 9  161 238 
 NOR  SN ES   1   1133 39.48                             120    -0.1 7  161 238 
 YOP  SZ EP       1133 20.73                             118     0.0 9  172 129 
 YOP  SN ES   1   1133 42.00                             118     0.3 7  172 129 
 YOP  SZ I        1133 43.24       167.8 0.42                           172 129 
 ROSC BZ EP   3   1133 24.21                             116     2.1 2  181 205 
 ROSC BZ I        1133 53.22        49.9 0.25                           181 205 
 ZAR  HZ EP       1133 22.21                             115     0.0 9  187 314 
 ZAR  HE ES   2   1133 45.03                             115     0.6 4  187 314 
 ZAR  HZ I        1133 49.35       149.1 0.40                           187 314 
 CHI  HZ EP       1133 22.62                             115    -0.3 9  188 183 
 CHI  HN ES   1   1133 45.54                             115    -0.1 7  188 183 
 HEL  HZ EP       1133 25.64                             112     0.3 8  211 266 
 HEL  HZ I        1133 54.19        46.2 0.46                           211 266 
 OCA  SZ EP   1   1133 26.06                             112     0.6 6  214   9 
 OCA  SZ I        1133 57.78        78.9 0.40                           214   9 
 GUY  SZ EP   2   1133 27.48                             110    -0.2 4  230 238 
 GUY  SZ I        1134  1.18        88.1 0.44                           230 238 
 VIL  SZ EP   1   1133 28.80                             109    -0.2 6  245 182 
 VIL  SN ES   1   1133 56.66                             109     0.2 6  245 182 
 VIL  SZ I        1134  1.34        36.4 0.40                           245 182 
 RREF HZ EP       1133 30.32                             109     0.5 8  247 230 
 RREF HZ I        1134  5.01        50.0 0.28                           247 230 
 TOL  SZ EP   2   1133 32.30                             107     0.3 4  269 224 
 PRA  HZ EP   2   1133 37.69                             103    -0.1 3  321 206 
                                                                                
