 2016 1225 1701  9.7 L   6.784 -73.158146.4  RSN 11 0.5 2.3LRSN                1
 GAP=136        1.07       4.2     4.7  6.7  0.2152E+01  0.7763E+01  0.4892E+01E
 Epicentro: LOS SANTOS - SANTANDER                                             3
 ACTION:UPD 17-01-11 20:19 OP:rebc STATUS:               ID:20161225170109 L   I
 OLDACT:UP  16-12-25 23:30 OP:dani STATUS:               ID:20161225165744     3
 OLDACT:UP  16-12-25 23:29 OP:dani STATUS:               ID:20161225165744     3
 OLDACT:UP  16-12-25 23:29 OP:dani STATUS:               ID:20161225165744     3
 OLDACT:REG 16-12-25 20:49 OP:edw  STATUS:               ID:20161225165744     3
 2016-12-25-1658-00M.COL___384                                                 6
 STAT SP IPHASW D HRMM SECON CODA AMPLIT PERI AZIMU VELO AIN AR TRES W  DIS CAZ7
 BAR2 EZ EP       17 1 29.32                             171   -0.0310 21.4 187 
 BAR2 EZ ES       17 1 44.58                             171   -0.1110 21.4 187 
 BAR2 EZ I        17 1 45.22        75.0 0.20            170           21.4 187 
 BRR  HZ EP       17 1 31.14                             153    0.2610 70.9 300 
 BRR  HN ES       17 1 48.13                             153    0.7110 70.9 300 
 BRR  HZ I        17 1 52.10        43.6 0.15            151           70.9 300 
 PAM  EZ EP       17 1 32.21                             150    0.1210 79.6  39 
 PAM  EN ES       17 1 49.14                             150   -0.4410 79.6  39 
 PAM  EZ I        17 1 51.52        50.0 0.64            154           79.6  39 
 RUS  HZ EP       17 1 33.27                             144   -0.1010 98.9 175 
 RUS  HE ES       17 1 52.13                             144    0.2810 98.9 175 
 RUS  HZ I        17 1 52.88        16.8 0.26            145           98.9 175 
 PTB  HZ EP       17 1 35.94                             132   -0.61 9  146 259 
 PTB  HN ES       17 1 56.56                             132   -0.95 9  146 259 
 PTB  HZ I        17 1 59.62        22.6 0.12            132            146 259 
 ZAR  HZ EP       17 1 42.11                             123   -0.00 9  204 293 
 ZAR  HN ES       17 2  7.82                             123    0.41 9  204 293 
 ZAR  HZ I        17 2 13.93        39.3 0.32            123            204 293 
 CHI  HZ EP       17 1 47.63                             117    0.44 8  247 195 
 CHI  HE ES       17 2 16.43                             117   -0.02 8  247 195 
 CHI  HZ I        17 2 23.97         6.1 0.46            118            247 195 
 URE  HZ EP   4   17 1 53.46                             114    2.74 0  283 292 
 URE  HN ES   4   17 2 21.14                             114   -1.59 0  283 292 
 URE  HZ I        17 2 25.46        14.6 0.24            114            283 292 
 GUY2CHZ EP   4   17 1 56.93                             113    3.85 0  299 235 
 GUY2CHN ES   3   17 2 28.74                             113    1.81 2  299 235 
 GUY2CHZ I        17 2 35.92         7.2 0.46                           299 235 
 ELA  HE ES   3   17 2 34.74                             111    2.06 2  327 230 
 SJC  HZ EP   4   17 2  3.53                             106   -1.82 0  410 327 
 SJC  HN ES   4   17 2 45.58                             106   -3.20 0  410 327 
 SJC  HZ I        17 2 49.28         3.2 0.26            106            410 327 
                                                                                
