 2013  225 1838 54.4 L   6.786 -73.164145.6  RSN  6 0.4 1.5LRSN                1
 GAP=135        0.81       4.7     5.5  8.8  0.6463E+00 -0.2687E+01 -0.8017E+01E
 Epicentro: LOS SANTOS - SANTANDER                                             3
 ACTION:UPD 13-03-12 09:35 OP:ep   STATUS:               ID:20130225183854 L   I
 2013-02-25-1837-50M.COL___200                                                 6
 STAT SP IPHASW D HRMM SECON CODA AMPLIT PERI AZIMU VELO AIN AR TRES W  DIS CAZ7
 BAR2 SZ ES   1   1839 29.38                             171    0.13 7 21.5 185 
 BAR2 SZ I        1839 30.20         9.8 0.24            171           21.5 185 
 BRR  HN ES   1   1839 32.64                             153    0.72 7 70.2 300 
 PAM  SZ EP       1839 16.83                             150    0.0710 79.9  40 
 PAM  SN ES   1   1839 33.66                             150   -0.53 7 79.9  40 
 PAM  SZ I        1839 36.07         5.9 0.62            151           79.9  40 
 RUS  HZ EP   1   1839 18.30                             144    0.26 7 99.2 175 
 RUS  HN ES   1   1839 36.36                             144   -0.12 7 99.2 175 
 RUS  HZ I        1839 38.53         3.7 0.40            145           99.2 175 
 PTB  HN ES   1   1839 41.36                             132   -0.65 7  145 259 
 PTB  HZ I        1839 43.09         5.4 0.54            134            145 259 
 SML  HN ES   1   1839 59.65                             117   -0.04 6  244 336 
                                                                                
