 2012  125 1026 51.1 L   6.774 -73.145148.2  RSN  8 0.3 1.5LRSN                1
 GAP=138        0.77       4.6     5.6  7.4 -0.4160E+01  0.1233E+02 -0.7524E+01E
 Epicentro: LOS SANTOS - SANTANDER                                             3
 ACTION:UP  12-02-03 08:20 OP:REBC STATUS:               ID:20120125102651 L   I
 2012-01-25-1020-00M.COL___187                                                 6
 STAT SP IPHASW D HRMM SECON CODA AMPLIT PERI AZIMU VELO SNR AR TRES W  DIS CAZ7
 BAR2 SZ EP       1027 10.99                             172     0.010   21 192 
 BAR2 SZ ES   2   1027 26.22                             172    -0.3 5   21 192 
 BAR2 SZ I        1027 27.51         6.9 0.62                            21 192 
 GIR2 SZ EP       1027 11.17                             166     0.010   34 351 
 BRR  HZ EP       1027 13.08                             152     0.410   73 300 
 BRR  HZ I        1027 13.18         9.9 0.30                            73 300 
 BRR  HE ES   2   1027 30.34                             152     0.9 5   73 300 
 PAM  SZ EP       1027 13.76                             151     0.010   80  38 
 PAM  SN ES   1   1027 30.99                             151    -0.4 7   80  38 
 RUS  HZ EP       1027 15.14                             145     0.210   98 176 
 RUS  HN ES   1   1027 33.42                             145    -0.1 7   98 176 
 RUS  HZ I        1027 34.50         4.1 0.44                            98 176 
 PTB  HZ EP       1027 17.84                             133    -0.4 9  147 260 
 PTB  HN ES   2   1027 39.14                             133    -0.3 5  147 260 
 PTB  HZ I        1027 42.72         2.1 0.20                           147 260 
 OCA  SZ EP       1027 19.89                             130     0.0 9  163 353 
 OCA  SZ I        1027 48.29         5.2 0.30                           163 353 
 ZAR  HZ EP   2   1027 23.71                             123    -0.2 4  205 293 
 ZAR  HN ES   3   1027 48.74                             123    -0.7 2  205 293 
 ZAR  HZ I        1027 56.18         4.6 0.26                           205 293 
                                                                                
