 2014  825 1730 17.6 L   6.812 -73.133144.2  RSN 24 0.6 2.9LRSN                1
 GAP= 71        1.50       3.2     3.9  6.3 -0.1065E+01  0.6349E+01  0.4534E+01E
 Epicentro: LOS SANTOS - SANTANDER                                             3
 ACTION:UPD 14-09-15 21:53 OP:nd   STATUS:               ID:20140825173017 L   I
 OLDACT:DUP 14-08-26 01:14 OP:stll STATUS:               ID:20140825172820d    3
 2014-08-25-1728-19M.COL___246                                                 6
 STAT SP IPHASW D HRMM SECON CODA AMPLIT PERI AZIMU VELO AIN AR TRES W  DIS CAZ7
 BAR2 SZ IP     C 1730 37.32                             170    0.2710 24.9 193 
 BAR2 SZ ES       1730 52.34                             170    0.1010 24.9 193 
 BAR2 SZ I        1730 55.15       227.8 0.52            169           24.9 193 
 BRR  HZ EP       1730 39.27                             152    0.6710 71.9 297 
 BRR  HN ES       1730 55.96                             152    0.9710 71.9 297 
 BRR  HZ I        1731  0.88        79.6 0.18            151           71.9 297 
 PAM  SZ EP     C 1730 40.05                             151    0.5410 75.4  39 
 PAM  SZ I        1730 40.36       144.7 0.24            156           75.4  39 
 PAM  SN ES       1730 57.00                             151    0.3810 75.4  39 
 RUS  HZ IP     D 1730 41.17                             143   -0.1010  102 177 
 RUS  HZ I        1730 42.15        54.1 0.44            146            102 177 
 RUS  HN ES       1730 59.26                             143   -0.4810  102 177 
 PTB  HZ EP       1730 43.88                             131   -0.69 9  149 258 
 PTB  HE ES       1731  5.01                             131   -0.62 9  149 258 
 PTB  HZ I        1731 11.15       111.0 0.18            132            149 258 
 TAM  HZ IP     D 1730 45.47                             130    0.43 9  154 106 
 TAM  HN ES       1731  5.65                             130   -0.80 9  154 106 
 TAM  HZ I        1731  6.24        62.2 0.40            136            154 106 
 OCA  HZ EP       1730 45.41                             129   -0.25 9  159 353 
 OCA  HN ES       1731  7.34                             129   -0.23 9  159 353 
 OCA  HZ I        1731 12.67        60.7 0.16            132            159 353 
 SPBC HZ EP       1730 46.23                             128    0.09 9  165 219 
 SPBC HN ES       1731  8.73                             128    0.31 9  165 219 
 SPBC HZ I        1731 13.37       135.9 0.40            130            165 219 
 ZAR  HZ EP       1730 50.20                             122    0.19 9  205 292 
 ZAR  HN ES       1731 14.94                             122   -0.37 9  205 292 
 ZAR  HZ I        1731 26.19        80.0 0.34            123            205 292 
 NOR  HZ EP     C 1730 53.27                             118   -0.16 8  237 234 
 SML  HZ EP       1730 53.26                             117   -0.80 8  243 335 
 SML  HN ES       1731 22.00                             117   -0.51 8  243 335 
 SML  HZ I        1731 25.80        96.5 0.24            119            243 335 
 CHI  HZ EP       1730 55.17                             116   -0.20 8  250 195 
 CHI  HZ I        1730 56.20        28.4 0.46            119            250 195 
 CHI  HN ES       1731 24.33                             116   -0.52 8  250 195 
 ROSC BZ EP       1730 57.06                             116    1.24 8  255 211 
 ROSC BE ES       1731 25.66                             116    0.02 8  255 211 
 ROSC BZ I        1731 35.04        90.2 0.45            118            255 211 
 HEL  HZ EP       1730 58.53                             114    0.62 8  274 256 
 HEL  HE ES       1731 28.57                             114   -0.79 8  274 256 
 HEL  HZ I        1731 35.99        40.9 0.36            116            274 256 
 URE  HZ EP   9   1730 57.20                             113   -1.47 0  285 292 
 URE  HN ES       1731 27.33                                   -1.92 7  285 292 
 GUY2CHZ EP       1731  1.47                             112    0.13 7  303 235 
 GUY2CHN ES       1731 36.12                             112    0.65 7  303 235 
 GUY2CHZ I        1731 44.17        78.0 0.76                           303 235 
 VIL  SZ EP       1731  0.74                             111   -0.37 7  305 192 
 VIL  SN ES       1731 33.40                             111   -1.65 7  305 192 
 CBOC HZ EP       1731  5.05                             109    0.42 7  335 252 
 CBOC HZ I        1731  5.83        16.1 0.16            111            335 252 
 CBOC HE ES       1731 41.68                             109    0.34 7  335 252 
 DBB  SZ EP       1731  4.35                             109   -0.80 7  341 274 
 TOL  SZ EP       1731  6.62                             109    0.62 6  345 225 
 TOL  SN ES       1731 44.00                             109    0.24 6  345 225 
 MON  HZ EP   9   1731  4.48                             108   -2.08 0  354 308 
 MON  HN ES       1731 40.79                                   -1.89 6  354 308 
 MON  HZ I        1731 45.67        15.6 0.44            110            354 308 
 ANIL HZ EP       1731  7.91                             108    0.36 6  359 225 
 ANIL HN ES       1731 47.78                             108    1.25 6  359 225 
 ANIL HZ I        1731 51.39        12.2 0.42            110            359 225 
 PRA  HZ EP       1731 10.29                             106   -0.97 6  394 210 
 PRA  HN ES       1731 52.58                             106   -0.56 6  394 210 
 PRA  HZ I        1731 58.68        44.8 0.62            108            394 210 
 ORTC HZ EP       1731 11.73                             106    0.06 6  397 216 
 ORTC HN ES       1731 54.24                             106    0.38 6  397 216 
 ORTC HZ I        1732  1.94        32.0 0.56            108            397 216 
                                                                                
