 2013  825 1216 24.4 L   6.691 -73.149135.9  RSN  5 0.4 1.5LRSN                1
 GAP=164        1.03       8.2     4.8  7.5 -0.9166E+01  0.1053E+02 -0.2661E+01E
 Epicentro: VILLANUEVA - SANTANDER                                             3
 ACTION:UPD 14-01-14 09:06 OP:ep   STATUS:               ID:20130825121624 L   I
 OLDACT:REG 13-08-25 14:37 OP:nd   STATUS:               ID:20130825120959     3
 2013-08-25-1209-59M.COL___270                                                 6
 STAT SP IPHASW D HRMM SECON CODA AMPLIT PERI AZIMU VELO AIN AR TRES W  DIS CAZ7
 BAR2 SZ EP       1216 43.15                             175    0.4510 11.5 199 
 BAR2 SZ ES       1216 56.93                             175   -0.0210 11.5 199 
 BAR2 SZ I        1216 59.31         9.1 0.18            174           11.5 199 
 BRR  HZ IP     C 1216 44.86                             149   -0.0710 77.4 307 
 BRR  HN ES       1217  1.43                             149    0.5310 77.4 307 
 BRR  HZ I        1217  5.75         5.1 0.12            146           77.4 307 
 PAM  SZ IP     D 1216 45.99                             146   -0.2910 87.3  35 
 PAM  SN ES       1217  3.05                             146   -0.2610 87.3  35 
 PAM  SZ I        1217  4.96         8.3 0.56            146           87.3  35 
 PTB  HZ EP       1216 50.05                             130   -0.37 9  146 263 
 PTB  HN ES       1217 10.33                             130   -0.35 9  146 263 
 PTB  HZ I        1217 12.40         3.3 0.30            131            146 263 
 ZAR  HZ EP       1216 57.56                             119    0.81 8  209 295 
 ZAR  HN ES       1217 21.53                             119   -0.42 8  209 295 
 ZAR  HZ I        1217 27.76         4.1 0.38            121            209 295 
                                                                                
