 2017  825 1914 21.1 L   6.801 -73.102147.7  RSN  7 0.5 1.6LRSN                1
 GAP=142        0.95       4.7     5.3  6.6 -0.4492E+01  0.1109E+02  0.4306E+01E
 Epicentro: LOS SANTOS - SANTANDER                                             3
 ACTION:UPD 17-09-04 20:24 OP:rebc STATUS:               ID:20170825191421 L   I
 OLDACT:UP  17-08-25 22:44 OP:edw  STATUS:               ID:20170825190743     3
 OLDACT:REG 17-08-25 20:38 OP:edw  STATUS:               ID:20170825190743     3
 2017-08-25-1908-00M.COL___408                                                 6
 STAT SP IPHASW D HRMM SECON CODA AMPLIT PERI AZIMU VELO AIN AR TRES W  DIS CAZ7
 BAR2 EZ EP       1914 40.63                             170   -0.3110 24.7 201 
 BAR2 EZ ES       1914 56.54                             170    0.0910 24.7 201 
 BAR2 EZ I        1914 57.16         9.5 0.22            168           24.7 201 
 PAM  EZ EP       1914 43.65                             152    0.3610 74.3  37 
 PAM  EN ES       1915  1.00                             152    0.3610 74.3  37 
 PAM  EZ I        1915  2.35         4.3 0.20            155           74.3  37 
 BRR  HZ EP       1914 42.56                             152   -0.0910 75.4 297 
 BRR  HN ES       1914 58.80                             152   -0.6910 75.4 297 
 RUS  HZ EP       1914 45.06                             144    0.0810  100 179 
 RUS  HN ES       1915  3.54                             144   -0.1110  100 179 
 RUS  HZ I        1915  5.28         3.2 0.42            145            100 179 
 ZAR  HZ EP   2   1914 54.87                             122    0.79 4  208 292 
 ZAR  HN ES   2   1915 20.44                             122    0.60 4  208 292 
 ZAR  HZ I        1915 23.46         6.1 0.48            122            208 292 
 NOR  HZ EP   2   1914 56.87                             118   -0.45 4  239 235 
 NOR  HE ES   2   1915 26.12                             118    0.51 4  239 235 
 NOR  HZ I        1915 32.48         3.4 0.20            118            239 235 
 GUY2CHZ EP       1915  4.49                             112   -0.71 7  305 235 
 GUY2CHN ES       1915 40.47                             112    0.83 7  305 235 
 GUY2CHZ I        1915 48.59         2.5 0.68                           305 235 
                                                                                
