 2015  525 1049  8.1 L   6.799 -73.084141.9  RSN 16 0.5 2.5LRSN                1
 GAP=166        1.18       2.7     4.9  5.8  0.6734E+00  0.8617E+00 -0.2317E+00E
 Epicentro: LOS SANTOS - SANTANDER                                             3
 ACTION:UPD 15-09-10 22:06 OP:cam  STATUS:               ID:20150525104908 L   I
 OLDACT:REG 15-05-25 20:18 OP:ar   STATUS:               ID:20150525104749     3
 2015-05-25-1047-49M.COL___288                                                 6
 STAT SP IPHASW D HRMM SECON CODA AMPLIT PERI AZIMU VELO AIN AR TRES W  DIS CAZ7
 BAR2 EZ EP       1049 27.81                             169    0.4710 25.3 205 
 BAR2 EZ ES       1049 41.83                             169   -0.4910 25.3 205 
 BAR2 EZ I        1049 43.43        29.0 0.28            173           25.3 205 
 BRR  HZ EP       1049 29.81                             150    0.5810 77.3 296 
 BRR  HN ES       1049 46.39                             150    0.7110 77.3 296 
 BRR  HZ I        1049 49.50        50.5 0.30            147           77.3 296 
 RUS  HZ EP       1049 31.76                             143    0.2910  100 180 
 RUS  HN ES       1049 49.81                             143    0.1210  100 180 
 RUS  HZ I        1049 51.14        47.3 0.34            142            100 180 
 OCA  HZ EP       1049 36.14                             128   -0.10 9  161 351 
 OCA  HN ES       1049 57.79                             128   -0.39 9  161 351 
 OCA  HZ I        1050  1.10        95.1 0.44            123            161 351 
 SPBC HZ EP       1049 36.72                             127   -0.02 9  167 221 
 SPBC HN ES       1049 58.99                             127   -0.08 9  167 221 
 SPBC HZ I        1050  1.88        47.2 0.22            125            167 221 
 ZAR  HZ EP       1049 41.66                             121    0.67 8  210 291 
 ZAR  HE ES       1050  5.65                             121   -0.98 8  210 291 
 ZAR  HZ I        1050 14.03        37.8 0.44            117            210 291 
 NOR  HZ EP       1049 44.41                             117    0.18 8  240 235 
 NOR  HE ES       1050 12.57                             117    0.17 8  240 235 
 NOR  HZ I        1050 13.56        15.4 0.44            114            240 235 
 SML  HZ EP       1049 44.23                             116   -0.64 8  247 334 
 SML  HE ES       1050 12.91                             116   -0.62 8  247 334 
 SML  HZ I        1050 20.53        31.4 0.28            112            247 334 
 CHI  HZ EP       1049 46.52                             116    0.72 8  250 197 
 CHI  HN ES       1050 14.65                             116   -0.54 8  250 197 
 CHI  HZ I        1050 21.72         9.3 0.34            113            250 197 
 ROSC BN ES   4   1050 16.41                             115    0.12 0  256 212 
 URE  HZ EP   4   1049 48.56                             112   -1.17 0  290 291 
 URE  HN ES   4   1050 20.49                             112   -1.70 0  290 291 
 URE  HZ I        1050 22.35        20.6 0.44            109            290 291 
 PTGC HZ EP       1049 50.80                             111   -0.72 7  306 160 
 PTGC HN ES       1050 24.68                             111   -0.69 7  306 160 
 PTGC HZ I        1050 29.65        21.0 0.30            108            306 160 
 GUY2CHZ I        1050 36.40        11.1 0.44                           307 236 
 LL2C HZ EP       1049 51.90                             111    0.26 7  307 353 
 LL2C HE ES   4   1050 28.75                             111    3.17 0  307 353 
 LL2C HZ I        1050 33.79        19.8 0.32            107            307 353 
 GUY2CHZ EP       1049 52.72                             111    0.53 7  307 236 
 GUY2CHN ES       1050 26.54                             111   -0.01 7  307 236 
 LL3C HZ EP       1049 54.03                             110    0.27 7  326 354 
 LL3C HN ES   4   1050 31.99                             110    2.64 0  326 354 
 LL3C HZ I        1050 39.26        16.3 0.59            106            326 354 
 MON  HZ EP   4   1049 55.88                             108   -1.73 0  359 308 
 MON  HE ES   4   1050 34.85                             108   -1.37 0  359 308 
 MON  HZ I        1050 36.59         5.9 0.20            104            359 308 
 ORTC HZ EP   4   1050  2.87                             105    0.49 0  399 217 
 ORTC HN ES       1050 43.73                             105   -0.97 6  399 217 
 ORTC HZ I        1050 50.69        11.5 0.36            103            399 217 
                                                                                
