 2017  925 1953  8.4 L   6.819 -73.120146.6  RSN 19 0.6 2.4LRSN                1
 GAP= 67        1.23       3.5     3.4  5.9  0.3583E+00  0.5756E+01  0.5278E+01E
 Epicentro: LOS SANTOS - SANTANDER                                             3
 ACTION:UPD 17-10-05 19:16 OP:rebc STATUS:               ID:20170925195308 L   I
 OLDACT:UP  17-09-26 00:54 OP:osc  STATUS:               ID:20170925194737d    3
 OLDACT:DUP 17-09-26 00:41 OP:osc  STATUS:               ID:20170925194737d    3
 2017-09-25-1948-00M.COL___437                                                 6
 STAT SP IPHASW D HRMM SECON CODA AMPLIT PERI AZIMU VELO AIN AR TRES W  DIS CAZ7
 BAR2 EZ EP       1953 27.80                             169   -0.4310 26.0 195 
 BAR2 HN ES       1953 43.27                             169   -0.3910 26.0 195 
 BAR2 EZ I        1953 44.29        66.4 0.20            165           26.0 195 
 BRR  HZ EP       1953 29.73                             152   -0.0410 72.8 296 
 BRR  HE ES       1953 46.93                             152    0.5310 72.8 296 
 BRR  HZ I        1953 50.75        37.0 0.14            151           72.8 296 
 PAM  EZ EP       1953 30.63                             152    0.0810 74.0  39 
 PAM  EE ES       1953 48.07                             152    0.2810 74.0  39 
 PAM  EZ I        1953 49.96        34.2 0.56            158           74.0  39 
 RUS  HZ EP       1953 31.79                             143   -0.6210  102 178 
 RUS  HN ES       1953 50.53                             143   -0.5810  102 178 
 RUS  HZ I        1953 51.84        33.3 0.32            143            102 178 
 TAM  HZ IP     D 1953 36.19                             131    0.21 9  153 106 
 TAM  HN ES       1953 58.02                             131    0.55 9  153 106 
 YPLC HZ EP       1953 38.10                             127   -0.24 9  177 152 
 YPLC HE ES       1954  2.10                             127    0.43 9  177 152 
 YPLC HZ I        1954  4.98        28.4 0.26            128            177 152 
 ZAR  HZ EP       1953 41.77                             122    0.64 8  206 291 
 ZAR  HE ES       1954  5.99                             122   -0.64 8  206 291 
 ZAR  HZ I        1954 12.02        16.8 0.34            123            206 291 
 TABC EZ EP       1953 45.41                             119    0.83 8  233 211 
 TABC EZ ES       1954 13.58                             119    0.81 8  233 211 
 TABC EZ I        1954 19.31        18.5 0.34            119            233 211 
 NOR  HZ EP       1953 44.05                             118   -0.54 8  238 234 
 NOR  HE ES   3   1954 11.57                             118   -1.22 2  238 234 
 NOR  HZ I        1954 14.66        16.0 0.24            118            238 234 
 CHI  HZ EP       1953 46.01                             117   -0.47 8  251 196 
 CHI  HN ES       1954 15.36                             117   -0.79 8  251 196 
 CHI  HZ I        1954 25.20        10.2 0.42            117            251 196 
 ROSC BZ EP   4   1953 48.44                             116    1.48 0  256 211 
 ROSC BN ES   4   1954 21.04                             116    4.04 0  256 211 
 ROSC BZ I        1954 22.48        21.9 0.40            117            256 211 
 HEL  HZ EP   2   1953 50.94                             115    1.89 4  275 256 
 HEL  HE ES       1954 20.29                             115   -0.44 7  275 256 
 HEL  HZ I        1954 27.99         7.5 0.26            115            275 256 
 URE  HN ES   2   1954 23.73                             114    1.74 4  286 291 
 GUY2CHZ EP       1953 53.00                             112    0.52 7  305 235 
 GUY2CHE ES       1954 27.34                             112    0.51 7  305 235 
 GUY2CHZ I        1954 34.03        10.1 0.26                           305 235 
 VIL  EZ EP       1953 51.90                             112   -0.29 7  306 192 
 VIL  EE ES       1954 26.94                             112    0.63 7  306 192 
 LL6C HZ EP       1953 52.98                             111   -0.97 7  323 357 
 LL6C HE ES   4   1954 27.41                             111   -2.05 0  323 357 
 ELA  HZ EP   4   1953 57.06                             110    1.34 0  333 230 
 ELA  HE ES       1954 32.70                             110    0.10 7  333 230 
 ELA  HZ I        1954 47.30         7.9 0.52            111            333 230 
 PRA  HZ EP       1954  1.58                             106   -0.78 6  395 210 
 PRA  HE ES   4   1954 43.70                             106   -0.72 0  395 210 
 PRA  HZ I        1954 50.02        11.6 0.42            107            395 210 
 ORTC HZ EP       1954  2.82                             106    0.04 6  399 216 
 ORTC HE ES       1954 45.66                             106    0.50 6  399 216 
 ORTC HZ I        1954 51.66         7.6 0.46            107            399 216 
                                                                                
