 2010  325 1645 41.2 L   7.058 -72.918145.6  RSN  5 0.3 2.2LRSN                1
 GAP=207        0.53       4.0    11.7  7.7  0.1416E+02 -0.3485E+02 -0.4366E+01E
 Epicentro: SANTA BARBARA - SANTANDER                                          3
 ACTION:UP  10-08-24 09:56 OP:vdl  STATUS:               ID:20100325164541 L   I
 2010-03-25-1644-06S.COL___098                                                 6
 STAT SP IPHASW D HRMM SECON CODA AMPLIT PERI AZIMU VELO SNR AR TRES W  DIS CAZ7
 BAR2 SZ EP   1   1646  2.10                             157     0.1 7   59 210 
 BAR2 SZ ES   2   1646 17.70                             157    -0.6 5   59 210 
 BRR  HZ EP   1   1646  3.37                             147     0.1 7   88 274 
 BRR  HZ I        1646 18.29        20.5 0.57                            88 274 
 BRR  HN ES   2   1646 20.74                             147     0.2 5   88 274 
 RUS  HZ EP   1   1646  7.49                             136     0.3 7  130 188 
 RUS  HE ES   2   1646 27.60                             136     0.1 5  130 188 
 OCA  SZ EP   1   1646  7.11                             134    -0.3 7  138 341 
 OCA  SZ ES   2   1646 28.26                             134     0.4 5  138 341 
 OCA  SZ I        1646 38.54        66.6 0.18                           138 341 
 PRA  HZ EP   1   1646 38.75                             105    -0.3 4  429 211 
 PRA  HZ I        1647 17.26         1.7 0.50                           429 211 
                                                                                
