 2014  925 1830  6.4 L   6.824 -73.316124.5  RSN  7 0.5 1.9LRSN                1
 GAP=171        1.15       4.5     7.8  7.2  0.2079E+02  0.1722E+02  0.3373E+01E
 Epicentro: ZAPATOCA - SANTANDER                                               3
 ACTION:UPD 14-10-03 23:08 OP:nd   STATUS:               ID:20140925183006 L   I
 OLDACT:UP  14-09-26 09:33 OP:carl STATUS:               ID:20140925182819     3
 OLDACT:REG 14-09-25 22:06 OP:spq  STATUS:               ID:20140925182819     3
 2014-09-25-1828-19M.COL___289                                                 6
 STAT SP IPHASW D HRMM SECON CODA AMPLIT PERI AZIMU VELO AIN AR TRES W  DIS CAZ7
 BAR2 SZ EP       1830 23.71                             166    0.0910 29.6 150 
 BAR2 SZ ES       1830 36.94                             166   -0.1410 29.6 150 
 BRR  HZ EP       1830 24.11                             155   -0.1510 53.8 306 
 BRR  HN ES       1830 38.11                             155   -0.1010 53.8 306 
 BRR  HZ I        1830 38.84        25.0 0.34            151           53.8 306 
 RUS  HZ EP       1830 28.50                             137   -0.0610  106 166 
 RUS  HN ES       1830 45.99                             137    0.1310  106 166 
 RUS  HZ I        1830 47.26         7.1 0.30            137            106 166 
 PTB  HZ IP     C 1830 28.93                             131   -1.0710  130 256 
 PTB  HN ES   4   1830 46.07                             131   -2.35 0  130 256 
 PTB  HZ I        1830 52.66        13.7 0.36            127            130 256 
 ZAR  HZ EP       1830 35.37                             120   -0.19 9  186 294 
 ZAR  HN ES       1830 58.81                             120    0.49 9  186 294 
 ZAR  HZ I        1831  2.68        12.5 0.28            118            186 294 
 SML  HZ EP       1830 40.38                             114   -0.43 8  234 339 
 SML  HN ES       1831  8.60                             114    0.93 8  234 339 
 SML  HZ I        1831 15.05        14.4 0.10            113            234 339 
 CHI  HZ EP       1830 43.20                             112    0.40 8  247 191 
 CHI  HN ES       1831 11.85                             112    0.64 8  247 191 
 CHI  HZ I        1831 15.42         3.9 0.38            112            247 191 
                                                                                
