 2014 1025 1034 32.0 L   6.773 -73.138146.7  RSN  7 0.4 1.4LRSN                1
 GAP=139        0.99       5.0     5.2  7.4 -0.3935E+01  0.1165E+01  0.1325E+02E
 Epicentro: LOS SANTOS - SANTANDER                                             3
 ACTION:UPD 14-11-29 23:56 OP:nd   STATUS:               ID:20141025103432 L   I
 OLDACT:REG 14-10-28 18:44 OP:spq  STATUS:               ID:20141025102747     3
 2014-10-25-1027-47M.COL___283                                                 6
 STAT SP IPHASW D HRMM SECON CODA AMPLIT PERI AZIMU VELO AIN AR TRES W  DIS CAZ7
 BAR2 SZ EP       1034 51.46                             172   -0.2410 20.5 194 
 BAR2 SZ ES   1   1035  6.70                             172   -0.36 7 20.5 194 
 BAR2 SZ I        1035  8.38         4.2 0.32            169           20.5 194 
 BRR  HZ EP       1034 53.69                             152    0.3110 73.4 300 
 BRR  HN ES       1035 10.77                             152    0.7110 73.4 300 
 BRR  HZ I        1035 12.83         6.3 0.46            153           73.4 300 
 PAM  SZ EP       1034 54.49                             150    0.0610 79.2  38 
 PAM  SE ES       1035 11.55                             150   -0.3810 79.2  38 
 PAM  SZ I        1035 13.73         6.5 0.58            156           79.2  38 
 RUS  HZ EP       1034 55.98                             145    0.3510 97.5 176 
 RUS  HE ES   1   1035 14.26                             145    0.20 7 97.5 176 
 RUS  HZ I        1035 16.79         2.5 0.56            145           97.5 176 
 PTB  HZ EP       1034 58.45                             132   -0.62 9  148 260 
 PTB  HN ES       1035 19.83                             132   -0.36 9  148 260 
 PTB  HZ I        1035 25.54         2.0 0.18            133            148 260 
 CHI  HZ EP       1035  9.84                             118    0.38 8  246 196 
 CHI  HN ES   1   1035 38.40                             118   -0.28 6  246 196 
 CHI  HZ I        1035 43.03         1.6 0.38            119            246 196 
 GUY2CHZ EP   4   1035 14.06                             113   -1.48 0  300 235 
 GUY2CHN ES   4   1035 47.82                             113   -1.67 0  300 235 
 GUY2CHZ I        1035 58.22         2.1 0.78                           300 235 
                                                                                
