 2016  325 1335  3.7 L   6.795 -73.158142.0  RSN  9 0.4 1.5LRSN                1
 GAP=135        0.65       4.1     3.7  5.0  0.9383E+00  0.6450E+01 -0.4151E-01E
 Epicentro: LOS SANTOS - SANTANDER                                             3
 ACTION:UPD 16-05-13 21:27 OP:cam  STATUS:               ID:20160325133503 L   I
 OLDACT:REG 16-03-25 21:35 OP:dnl  STATUS:               ID:20160325132746     3
 2016-03-25-1327-46M.COL___297                                                 6
 STAT SP IPHASW D HRMM SECON CODA AMPLIT PERI AZIMU VELO AIN AR TRES W  DIS CAZ7
 BAR2 EZ EP       1335 22.85                             171    0.0410 22.5 187 
 BAR2 EZ ES       1335 37.80                             171    0.0410 22.5 187 
 BAR2 EZ I        1335 39.33         7.7 0.18            168           22.5 187 
 PAM  EZ EP   2   1335 25.72                             150    0.17 5 78.7  40 
 PAM  EN ES   2   1335 42.71                             150    0.08 5 78.7  40 
 PAM  EZ I        1335 43.45         5.3 0.16            154           78.7  40 
 RUS  HZ EP       1335 26.94                             143   -0.0610  100 175 
 RUS  HN ES       1335 45.15                             143   -0.0610  100 175 
 RUS  HZ I        1335 47.25         2.2 0.32            143            100 175 
 PTB  HZ EP       1335 29.74                             131   -0.44 9  146 259 
 PTB  HN ES       1335 50.59                             131   -0.28 9  146 259 
 PTB  HZ I        1335 52.05         3.7 0.13            130            146 259 
 SPBC HZ EP   2   1335 32.14                             128    0.41 5  162 219 
 SPBC HN ES   2   1335 54.45                             128    0.81 5  162 219 
 SPBC HZ I        1335 57.32         5.0 0.14            128            162 219 
 ZAR  HZ EP   2   1335 36.71                             122    0.97 4  203 292 
 ZAR  HN ES   2   1336  0.82                             122    0.05 4  203 292 
 ZAR  HZ I        1336  7.10         4.2 0.22            121            203 292 
 NOR  HZ EP       1335 39.37                             118    0.37 8  233 234 
 NOR  HE ES   2   1336  7.12                             118    0.54 4  233 234 
 NOR  HZ I        1336 12.98         3.9 0.16            118            233 234 
 CHI  HZ EP   2   1335 40.12                             116   -0.92 4  248 195 
 CHI  HN ES   2   1336 10.07                             116   -0.13 4  248 195 
 CHI  HZ I        1336 14.42         1.6 0.34            117            248 195 
 GUY2CHZ EP   4   1335 48.60                             112    1.68 0  300 235 
 GUY2CHE ES   4   1336 23.98                             112    3.31 0  300 235 
 GUY2CHZ I        1336 29.68         1.7 0.32                           300 235 
                                                                                
