 2016 1225 1108 45.4 L   6.971 -73.103149.0  RSN  7 0.3 1.5LRSN                1
 GAP=131        0.86       4.2     6.1  5.7 -0.6487E+01 -0.5787E+01  0.7247E+01E
 Epicentro: PIEDECUESTA - SANTANDER                                            3
 ACTION:UPD 17-01-11 20:18 OP:rebc STATUS:               ID:20161225110845 L   I
 OLDACT:UP  16-12-25 22:14 OP:edw  STATUS:               ID:20161225110741     3
 OLDACT:UP  16-12-25 22:13 OP:edw  STATUS:               ID:20161225110741     3
 OLDACT:REG 16-12-25 20:10 OP:edw  STATUS:               ID:20161225110741     3
 2016-12-25-1108-00M.COL___369                                                 6
 STAT SP IPHASW D HRMM SECON CODA AMPLIT PERI AZIMU VELO AIN AR TRES W  DIS CAZ7
 BAR2 EZ IP     C 11 9  5.64                             163   -0.3210 42.8 192 
 BAR2 EZ ES       11 9 21.47                             163   -0.5210 42.8 192 
 BAR2 EZ I        11 9 22.35         7.4 0.42            160           42.8 192 
 PAM  EZ EP       11 9  7.02                             157   -0.0410 60.4  48 
 PAM  EN ES       11 9 24.37                             157    0.4210 60.4  48 
 PAM  EZ I        11 9 25.84        11.9 0.38            161           60.4  48 
 BRR  HZ EP       11 9  6.43                             154   -0.3510 68.9 283 
 BRR  HN ES       11 9 23.85                             154    0.4010 68.9 283 
 BRR  HZ I        11 9 25.89         9.5 0.12            151           68.9 283 
 RUS  HZ EP       11 9 10.81                             139   -0.0710  119 179 
 RUS  HN ES       11 9 30.72                             139   -0.0310  119 179 
 RUS  HZ I        11 9 33.12         4.4 0.30            138            119 179 
 PTB  HZ EP   9   11 9 12.48                             131   -1.00 0  157 252 
 PTB  HN ES       11 9 34.19                             132   -0.19 9  157 252 
 PTB  HZ I        11 9 39.61         3.1 0.12            129            157 252 
 CHI  HZ EP       11 9 25.74                             116    0.34 8  268 195 
 CHI  HE ES       11 9 57.13                             116    0.52 8  268 195 
 CHI  HZ I        1110  4.60         1.1 0.32            115            268 195 
 GUY2CHZ EP   4   11 9 32.35                             112    1.50 0  316 232 
 GUY2CHN ES   4   1110  6.73                             112    0.42 0  316 232 
 GUY2CHZ I        1110 15.09         1.6 0.30                           316 232 
 SJC  HZ EP   4   11 9 37.29                             107   -2.25 0  396 325 
 SJC  HN ES   4   1110 17.40                             107   -4.37 0  396 325 
                                                                                
