 2014  525 1217 35.0 L   6.905 -73.332155.6  RSN  5 0.2 1.5LRSN                1
 GAP=273        0.56       3.7     4.6  6.0 -0.7274E+00  0.2650E+01 -0.3191E+01E
 Epicentro: BETULIA - SANTANDER                                                3
 ACTION:UPD 15-03-16 17:00 OP:nd   STATUS:               ID:20140525121735 L   I
 OLDACT:UP  14-05-25 23:38 OP:spq  STATUS:               ID:20140525120820     3
 OLDACT:REG 14-05-25 20:17 OP:spq  STATUS:               ID:20140525120820     3
 2014-05-25-1208-20M.COL___224                                                 6
 STAT SP IPHASW D HRMM SECON CODA AMPLIT PERI AZIMU VELO AIN AR TRES W  DIS CAZ7
 BRR  HZ IP     D 1217 56.36                             162    0.2310 47.5 298 
 BRR  HN ES       1218 12.48                             162   -0.1410 47.5 298 
 BRR  HZ I        1218 14.42         3.6 0.38            151           47.5 298 
 PTB  HZ EP       1218  1.15                             138   -0.1710  131 252 
 PTB  HN ES       1218 21.84                             138   -0.0310  131 252 
 PTB  HZ I        1218 27.51         2.6 0.18            133            131 252 
 ZAR  HN ES       1218 30.18                             128    0.38 9  181 291 
 ZAR  HZ I        1218 40.33         2.5 0.11            124            181 291 
 SML  HN ES       1218 37.57                             122   -0.11 8  225 339 
 SML  HZ I        1218 42.91         4.1 0.24            120            225 339 
 URE  HN ES       1218 44.18                             118   -0.23 8  260 291 
 URE  HZ I        1218 50.98         2.4 0.22            115            260 291 
                                                                                
