 2016 1225 1252  1.2 L   6.648 -73.283148.0  RSN  5 0.3 0.9LRSN                1
 GAP=162        0.67       5.1     4.6  5.4  0.1208E+02  0.4444E+01  0.2112E+01E
 Epicentro: GALAN - SANTANDER                                                  3
 ACTION:UPD 17-01-11 20:19 OP:rebc STATUS:               ID:20161225125201 L   I
 OLDACT:UP  16-12-25 22:52 OP:edw  STATUS:               ID:20161225124742     3
 OLDACT:REG 16-12-25 20:24 OP:edw  STATUS:               ID:20161225124742     3
 2016-12-25-1248-00M.COL___375                                                 6
 STAT SP IPHASW D HRMM SECON CODA AMPLIT PERI AZIMU VELO AIN AR TRES W  DIS CAZ7
 BAR2 EZ EP       1252 20.79                             175   -0.1910 12.7 119 
 BAR2 EZ ES       1252 36.14                             175   -0.2310 12.7 119 
 BAR2 EZ I        1252 39.79         1.7 0.23            175           12.7 119 
 BRR  HZ EP       1252 22.30                             153   -0.2310 69.4 317 
 BRR  HN ES       1252 39.57                             153    0.4310 69.4 317 
 RUS  HZ EP       1252 24.38                             148    0.1310 86.4 165 
 RUS  HE ES       1252 42.30                             148    0.1010 86.4 165 
 RUS  HZ I        1252 44.08         1.3 0.56            149           86.4 165 
 PTB  HZ EP       1252 27.18                             136    0.3110  130 265 
 PTB  HN ES       1252 46.64                             136   -0.2210  130 265 
 PTB  HZ I        1252 49.00         0.9 0.26            138            130 265 
 ZAR  HN ES   2   1252 57.63                             124   -0.43 4  197 298 
                                                                                
