 2014 1125 1052  5.0 L   6.788 -73.093136.7  RSN  8 0.5 1.9LRSN                1
 GAP=242        1.22       6.0     6.2  7.4  0.1085E+02  0.1896E+02  0.8749E+01E
 Epicentro: LOS SANTOS - SANTANDER                                             3
 ACTION:UPD 14-12-19 15:47 OP:nd   STATUS:               ID:20141125105205 L   I
 OLDACT:UP  14-11-25 22:38 OP:cam  STATUS:               ID:20141125104746     3
 OLDACT:REG 14-11-25 19:47 OP:fm   STATUS:               ID:20141125104746     3
 2014-11-25-1047-46M.COL___306                                                 6
 STAT SP IPHASW D HRMM SECON CODA AMPLIT PERI AZIMU VELO AIN AR TRES W  DIS CAZ7
 BAR2 SZ EP       1052 23.62                             170    0.1010 23.8 205 
 BAR2 SZ ES       1052 38.31                             170    0.3310 23.8 205 
 BAR2 SZ I        1052 39.90        18.0 0.18            167           23.8 205 
 BRR  HZ EP       1052 25.56                             149    0.0610 77.0 297 
 BRR  HN ES       1052 41.95                             149    0.4410 77.0 297 
 BRR  HZ I        1052 45.66        14.2 0.70            147           77.0 297 
 RUS  HZ EP       1052 27.23                             142   -0.4910 99.0 179 
 RUS  HN ES       1052 45.38                             142   -0.0810 99.0 179 
 PTB  HZ EP       1052 30.71                             129   -1.02 9  153 260 
 PTB  HN ES       1052 51.78                             129   -0.82 9  153 260 
 PTB  HZ I        1052 54.60         8.8 0.18            129            153 260 
 ZAR  HZ EP       1052 37.94                             119    0.48 8  210 292 
 ZAR  HN ES       1053  2.67                             119   -0.14 8  210 292 
 ZAR  HZ I        1053  7.26         8.5 0.36            120            210 292 
 HEL  HZ EP       1052 45.86                             112    0.53 7  277 256 
 HEL  HN ES       1053 16.92                             112    0.10 7  277 256 
 HEL  HZ I        1053 20.62         3.4 0.70            113            277 256 
 GUY2CHZ EP       1052 48.76                             110    0.13 7  305 236 
 GUY2CHE ES       1053 22.28                             110   -0.41 7  305 236 
 GUY2CHZ I        1053 29.43         2.4 0.26                           305 236 
 TOL  SZ EP       1052 53.84                             107    0.60 6  347 225 
 TOL  SN ES       1053 32.11                             107    1.21 6  347 225 
 TOL  SZ I        1053 38.10         6.5 0.44            109            347 225 
                                                                                
