 2010  325 1802 23.0 L   6.785 -73.039141.8  RSN  6 0.4 1.7LRSN                1
 GAP=194        0.64       3.9    11.9  7.1  0.7617E+01 -0.4246E+01  0.2652E+01E
 Epicentro: CEPITA - SANTANDER                                                 3
 ACTION:UP  10-08-24 09:56 OP:vdl  STATUS:               ID:20100325180223 L   I
 2010-03-25-1758-44S.COL___098                                                 6
 STAT SP IPHASW D HRMM SECON CODA AMPLIT PERI AZIMU VELO SNR AR TRES W  DIS CAZ7
 BAR2 SZ IP       18 2 42.19                             169     0.010   27 217 
 BAR2 SZ ES   2   18 2 56.87                             169    -0.4 5   27 217 
 BRR  HZ EP   1   18 2 44.17                             148    -0.3 7   82 296 
 BRR  HN ES   2   18 3  1.18                             148     0.1 5   82 296 
 BRR  HZ I        18 3  1.19        18.8 0.42                            82 296 
 RUS  HZ EP   1   18 2 46.15                             144    -0.1 7   99 183 
 RUS  HZ I        18 2 47.28         5.2 0.22                            99 183 
 RUS  HE ES   2   18 3  4.67                             144     0.3 5   99 183 
 OCA  SZ EP   1   18 2 51.91                             128     0.6 7  164 349 
 OCA  SZ ES   2   18 3 13.45                             128     0.0 5  164 349 
 CHI  HZ EP   1   18 3  0.35                             116    -0.3 6  250 198 
 CHI  HE ES   2   18 3 31.03                             116     1.0 4  250 198 
 CHI  HZ I        18 3 36.32         2.6 0.78                           250 198 
 PRA  HZ EP   1   18 3 16.63                             106    -0.3 4  396 211 
                                                                                
