 2012 1225 1020 20.7 L   6.634 -73.262152.5  RSN  4 0.2 1.2LRSN                1
 GAP=210        0.46       5.0     4.7  5.9  0.9416E+01  0.4277E+01  0.2149E+01E
 Epicentro: GALAN - SANTANDER                                                  3
 ACTION:UPD 13-01-04 14:30 OP:ep   STATUS:               ID:20121225102020 L   I
 2012-12-25-1020-00M.COL___242                                                 6
 STAT SP IPHASW D HRMM SECON CODA AMPLIT PERI AZIMU VELO AIN AR TRES W  DIS CAZ7
 BRR  HZ EP       1020 42.73                             153    0.1410 72.2 316 
 BRR  HE ES       1020 59.53                             153   -0.1710 72.2 316 
 BRR  HZ I        1021 11.26         2.8 0.55                          72.2 316 
 RUS  HE ES   2   1021  2.38                             150    0.15 5 84.4 166 
 RUS  HE I        1021  3.45         3.6 0.20                          84.4 166 
 PTB  HZ EP   1   1020 46.56                             137   -0.31 7  133 266 
 PTB  HE ES   1   1021  7.35                             137    0.04 7  133 266 
 ZAR  HE ES       1021 18.69                             124    0.17 9  200 298 
 ZAR  HZ I        1021 21.82         1.0 0.28                           200 298 
                                                                                
