 2017  125 1554 50.0 L   6.763 -73.143149.1  RSN 27 0.6 3.1LRSN 3.6WRSN        1
 SPEC AVERAGE  MO 14.5 ST  1.6 OM  2.6 f0 1.85 R1.5630 AL 0.00 WI 40.0 MW  3.6 3
 SPEC SD       MO  0.3 ST  2.0 OM  0.4 f0 1.20 R0.9023 AL      WI      MW  0.2 3
 GAP= 66        1.25       3.4     3.6  5.4  0.3880E+00  0.5009E+01 -0.4761E+00E
 Epicentro: LOS SANTOS - SANTANDER                                             3
 SPEC BRR HH Z MO 14.2 ST  3.4 OM  2.3 f0 3.19 R0.6031 AL-0.00 WI 40.0 MW  3.4 3
 SPEC BRR HH Z T155527 K 0.000 GD  166 VS 5.20 DE 3.50 Q0750.0 QA 1.50 VS 5.20 3
 SPEC RUS HH Z MO 14.3 ST  1.6 OM  2.3 f0 2.44 R0.7885 AL-0.00 WI 40.0 MW  3.5 3
 SPEC RUS HH Z T155531 K 0.000 GD  177 VS 5.20 DE 3.50 Q0750.0 QA 1.50 VS 5.20 3
 SPEC ZAR HH Z MO 14.1 ST  6.3 OM  2.0 f0 4.26 R0.4516 AL-0.00 WI 40.0 MW  3.4 3
 SPEC ZAR HH Z T155546 K 0.000 GD  254 VS 5.20 DE 3.50 Q0750.0 QA 1.50 VS 5.20 3
 SPEC CHI HH Z MO 14.8 ST0.123 OM  2.6 f00.696 R2.7644 AL-0.00 WI 40.0 MW  3.8 3
 SPEC CHI HH Z T155555 K 0.000 GD  286 VS 5.20 DE 3.50 Q0750.0 QA 1.50 VS 5.20 3
 SPEC ROSCBH Z MO 15.0 ST0.188 OM  2.8 f00.686 R2.8047 AL-0.00 WI 40.0 MW  3.9 3
 SPEC ROSCBH Z T155558 K 0.000 GD  290 VS 5.20 DE 3.50 Q0750.0 QA 1.50 VS 5.20 3
 SPEC ELA HH Z MO 14.9 ST0.188 OM  2.6 f00.745 R2.5826 AL-0.00 WI 40.0 MW  3.9 3
 SPEC ELA HH Z T155616 K 0.000 GD  359 VS 5.20 DE 3.50 Q0750.0 QA 1.50 VS 5.20 3
 SPEC ORTCHH Z MO 14.6 ST0.364 OM  2.3 f0 1.11 R1.7333 AL-0.00 WI 40.0 MW  3.7 3
 SPEC ORTCHH Z T155625 K 0.000 GD  419 VS 5.20 DE 3.50 Q0750.0 QA 1.50 VS 5.20 3
 SPEC SJC HH Z MO 14.4 ST0.300 OM  2.0 f0 1.29 R1.4915 AL-0.00 WI 40.0 MW  3.5 3
 SPEC SJC HH Z T155623 K 0.000 GD  439 VS 5.20 DE 3.50 Q0750.0 QA 1.50 VS 5.20 3
 SPEC CRJCHH Z MO 14.3 ST  1.5 OM  1.9 f0 2.27 R0.8476 AL-0.00 WI 40.0 MW  3.5 3
 SPEC CRJCHH Z T155637 K 0.000 GD  494 VS 5.20 DE 3.50 Q0750.0 QA 1.50 VS 5.20 3
 OLDACT:UP  17-01-25 23:58 OP:dnl  STATUS:               ID:20170125154747     3
 OLDACT:UP  17-01-25 23:56 OP:dnl  STATUS:               ID:20170125154747     3
 OLDACT:UP  17-01-25 23:55 OP:dnl  STATUS:               ID:20170125154747     3
 OLDACT:UP  17-01-25 23:55 OP:dnl  STATUS:               ID:20170125154747     3
 OLDACT:UP  17-01-25 23:54 OP:dnl  STATUS:               ID:20170125154747     3
 OLDACT:UP  17-01-25 23:53 OP:dnl  STATUS:               ID:20170125154747     3
 OLDACT:REG 17-01-25 21:33 OP:dnl  STATUS:               ID:20170125154747     3
 ACTION:UPD 17-05-22 16:03 OP:jn   STATUS:               ID:20170125155450 L   I
 OLDACT:UP  17-01-25 23:59 OP:dnl  STATUS:               ID:20170125154747     3
 2017-01-25-1548-00M.COL___355                                                 6
 STAT SP IPHASW D HRMM SECON CODA AMPLIT PERI AZIMU VELO AIN AR TRES W  DIS CAZ7
 BAR2 EZ IP     D 1555  9.90                             172   -0.1010 19.4 193 
 BAR2 EZ ES       1555 25.16                             172   -0.4010 19.4 193 
 BAR2 EZ I        1555 26.49       783.1 0.18            169           19.4 193 
 BRR  HZ IP     C 1555 11.73                             152    0.0510 73.5 301 
 BRR  HE ES       1555 29.16                             152    0.6110 73.5 301 
 BRR  HZ I        1555 32.15       285.2 0.30            152           73.5 301 
 PAM  EZ IP     C 1555 12.68                             151   -0.1110 80.4  38 
 PAM  EE ES       1555 30.04                             151   -0.4910 80.4  38 
 PAM  EZ I        1555 32.15       196.3 0.46            150           80.4  38 
 RUS  HZ IP     D 1555 13.74                             146   -0.0910 96.5 176 
 RUS  HE ES       1555 32.67                             146    0.2810 96.5 176 
 RUS  HZ I        1555 33.66       154.2 0.46            142           96.5 176 
 PTB  HZ EP       1555 16.36                             133   -0.88 9  147 260 
 PTB  HN ES       1555 38.30                             133   -0.16 9  147 260 
 PTB  HZ I        1555 40.78       184.4 0.18            131            147 260 
 TAM  HZ IP     D 1555 18.12                             132    0.26 9  154 104 
 TAM  HZ I        1555 39.04        97.3 0.34            129            154 104 
 TAM  HE ES       1555 39.91                             132    0.34 9  154 104 
 ZAR  HZ EP       1555 22.38                             123   -0.51 8  206 293 
 ZAR  HN ES       1555 48.08                             123   -0.44 8  206 293 
 ZAR  HZ I        1555 53.21       211.2 0.40            121            206 293 
 CHI  HZ EP       1555 27.78                             118    0.27 8  245 195 
 CHI  HN ES       1555 57.20                             118    0.47 8  245 195 
 CHI  HZ I        1556  5.79        71.7 0.56            116            245 195 
 ROSC BZ EP   9   1555 29.62                             118    1.64 0  249 212 
 ROSC BN ES       1556  0.05                             118    0.84 8  249 212 
 ROSC BZ I        1556  3.82       167.7 0.70            115            249 212 
 URE  HZ EP       1555 30.02                             114   -1.46 7  286 293 
 URE  HE ES   4   1556  0.98                             114   -2.81 0  286 293 
 URE  HZ I        1556 12.38       114.8 0.18            112            286 293 
 PTGC HZ IP     D 1555 32.77                             113   -0.84 7  305 158 
 PTGC HN ES   4   1556  6.20                             113   -1.39 0  305 158 
 PTGC HZ I        1556  9.75        33.7 0.36            110            305 158 
 LL1C HZ EP       1555 34.74                             112    0.49 7  311 352 
 LL1C HN ES       1556 10.37                             112    1.64 7  311 352 
 ELA  HZ EP   4   1555 39.23                             111    2.47 0  327 230 
 ELA  HN ES   4   1556 17.76                             111    4.56 0  327 230 
 ELA  HZ I        1556 21.16        81.2 0.40            109            327 230 
 CBOC HZ EP       1555 37.77                             111    0.78 7  333 253 
 CBOC HN ES       1556 14.64                             111    1.04 7  333 253 
 CBOC HZ I        1556 20.02        33.8 0.10            109            333 253 
 DBB  EZ EP       1555 37.81                             110    0.09 7  340 275 
 DBB  EN ES   4   1556 13.82                             110   -1.10 0  340 275 
 DBB  EZ I        1556 14.74        44.1 0.20            108            340 275 
 ARGC HZ EP       1555 39.98                             109   -0.30 6  363 341 
 ARGC HN ES       1556 19.97                             109    0.50 6  363 341 
 ARGC HZ I        1556 22.08        24.8 0.32            107            363 341 
 ORTC HZ EP   2   1555 44.07                             107    0.36 3  392 217 
 ORTC HN ES   4   1556 27.27                             107    1.70 0  392 217 
 ORTC HZ I        1556 34.40        51.3 0.50            105            392 217 
 APAC HZ EP       1555 44.96                             107    0.43 6  400 289 
 APAC HN ES   4   1556 25.48                             107   -1.54 0  400 289 
 APAC HZ I        1556 27.78        26.6 0.64            105            400 289 
 PAL  HZ EP       1555 45.25                             106    0.15 6  404 240 
 PAL  HZ ES       1556 28.16                             106    0.12 6  404 240 
 PAL  HZ I        1556 33.70        22.9 0.52            105            404 240 
 SJC  HZ EP   4   1555 43.51                             106   -2.62 0  413 327 
 SJC  HN ES   4   1556 25.29                             106   -4.60 0  413 327 
 SJC  HZ I        1556 30.40        28.1 0.24            105            413 327 
 YOT  HZ EP       1555 52.23                             104   -0.66 5  469 229 
 YOT  HN ES   4   1556 44.78                             104    2.87 0  469 229 
 CRJC HZ EP   9   1555 50.21                             104   -2.91 0  472   3 
 CRJC HE ES       1556 38.72                             105   -0.69 5  472   3 
 CRJC HZ I        1556 43.86        50.3 0.38            102            472   3 
 SMAR HZ EP   4   1555 54.70                             103   -1.78 0  501 346 
 SMAR HN ES   4   1556 43.55                             103   -4.75 0  501 346 
 SMAR HZ I        1556 48.84        18.5 0.32            101            501 346 
 MACC HZ EP   4   1555 56.88                             102   -1.48 0  517 189 
 MACC HN ES   4   1556 49.02                             102   -2.62 0  517 189 
 MACC HZ I        1556 54.36        14.8 0.44            101            517 189 
 MARO HZ EP       1556  0.67                             102   -0.10 4  534 216 
 MARO HE ES   4   1556 54.54                             102   -1.39 0  534 216 
 MARO HZ I        1557  4.48         7.6 0.38            100            534 216 
 URI  HZ EP   4   1556  0.35                             101   -3.24 0  561  13 
 URI  HN ES   4   1556 53.94                             101   -7.02 0  561  13 
 URI  HZ I        1557  2.59         6.7 0.32            100            561  13 
 GARC HZ EP   4   1556  3.75                             101   -1.20 0  569 207 
 GARC HN ES   4   1556 59.70                             101   -3.67 0  569 207 
 GARC HZ I        1557  5.42        23.3 0.24             99            569 207 
                                                                                
