 2011 1225 2309 50.1 L   6.813 -73.079146.0  RSN  4 0.3 1.2LRSN                1
 GAP=144        0.45       3.7     6.5  7.1 -0.6747E+00  0.7617E+01  0.8793E+01E
 Epicentro: LOS SANTOS - SANTANDER                                             3
 ACTION:UPD 12-07-13 16:18 OP:ep   STATUS:               ID:20111225230950 L   I
 2011-12-25-2308-59S.COL___190                                                 6
 STAT SP IPHASW D HRMM SECON CODA AMPLIT PERI AZIMU VELO AIN AR TRES W  DIS CAZ7
 GIR2 SZ EP   2   2310  9.34                             167   -0.47 5 32.0 337 
 GIR2 SZ ES   2   2310 24.77                             167   -0.42 5 32.0 337 
 PAM  SE ES   1   2310 29.28                             152    0.18 7 71.8  36 
 BRR  HZ EP   2   2310 11.71                             151    0.10 5 77.1 295 
 BRR  HN ES   2   2310 28.64                             151    0.25 5 77.1 295 
 BRR  HZ I        2310 32.90         4.8 0.23                          77.1 295 
 RUS  HZ EP   1   2310 14.06                             143    0.11 7  102 180 
 RUS  HN ES   1   2310 32.52                             143   -0.04 7  102 180 
 RUS  HZ I        2310 32.83         1.4 0.28                           102 180 
                                                                                
