 2016 1225 2341 16.3 L   6.792 -73.161152.0  RSN  4 0.1 1.1LRSN                1
 GAP=135        0.32       2.2     2.3  3.7  0.1273E+01 -0.3188E+01 -0.1733E+01E
 Epicentro: LOS SANTOS - SANTANDER                                             3
 ACTION:UPD 17-01-11 20:19 OP:rebc STATUS:               ID:20161225234116 L   I
 OLDACT:UP  16-12-26 05:52 OP:and  STATUS:               ID:20161225233746     3
 OLDACT:REG 16-12-26 03:29 OP:and  STATUS:               ID:20161225233746     3
 2016-12-25-2338-00M.COL___378                                                 6
 STAT SP IPHASW D HRMM SECON CODA AMPLIT PERI AZIMU VELO AIN AR TRES W  DIS CAZ7
 BRR  HZ EP       2341 38.22                             154    0.1310 70.1 300 
 BRR  HN ES       2341 55.03                             154   -0.0310 70.1 300 
 PAM  EZ IP     C 2341 39.26                             151   -0.0410 79.2  40 
 RUS  HZ EP       2341 40.56                             145   -0.0810 99.8 175 
 RUS  HN ES       2341 59.65                             145    0.0510 99.8 175 
 RUS  HZ I        2342  0.24         2.1 0.34            145           99.8 175 
 PTB  HZ EP   2   2341 43.66                             134    0.02 5  146 259 
 PTB  HN ES       2342  4.90                             134   -0.04 9  146 259 
                                                                                
