 2011  325 2215 31.2 L   6.079 -73.730105.0  RSN  5 0.1 1.8LRSN                1
 GAP=133        0.32       2.7     2.2  5.2 -0.3419E+01  0.4005E+01  0.1428E+01E
 Epicentro: BOLIVAR - SANTANDER                                                3
 ACTION:UP  11-06-16 14:35 OP:jfem STATUS:               ID:20110325221531 L   I
 2011-03-25-2212-14S.COL___136                                                 6
 STAT SP IPHASW D HRMM SECON CODA AMPLIT PERI AZIMU VELO SNR AR TRES W  DIS CAZ7
 BAR2 SZ EP   1   2215 49.37                             139     0.0 7   83  47 
 BAR2 SZ ES   1   2216  3.65                             139     0.1 7   83  47 
 BAR2 SZ I        2216  5.63        34.7 0.27                            83  47 
 BRR  HZ EP   1   2215 51.70                             129    -0.1 7  114   1 
 BRR  HZ I        2216  6.72        18.9 0.33                           114   1 
 BRR  HN ES   1   2216  7.80                             129     0.0 7  114   1 
 NOR  SZ EP   2   2215 54.57                             123     0.2 5  139 246 
 NOR  SN ES   1   2216 12.22                             123    -0.1 7  139 246 
 CHI  HN ES   3   2216 17.27                             119     0.0 2  160 180 
 HEL  HZ EP   1   2216  1.33                             113     0.0 6  199 274 
 HEL  HZ I        2216 11.39         2.7 0.52                           199 274 
 HEL  HN ES   1   2216 24.97                             113     0.1 6  199 274 
                                                                                
