 2010  825 2219 36.1 L   6.823 -73.064141.7  RSN  5 0.3 1.5LRSN                1
 GAP=167        0.60       4.7     8.3  8.6 -0.2195E+01 -0.3379E+02  0.6590E+01E
 Epicentro: LOS SANTOS - SANTANDER                                             3
 ACTION:UP  10-09-07 10:58 OP:vdl  STATUS:               ID:20100825221936 L   I
 2010-08-25-2216-55S.COL___121                                                 6
 STAT SP IPHASW D HRMM SECON CODA AMPLIT PERI AZIMU VELO SNR AR TRES W  DIS CAZ7
 BAR2 SZ EP   1   2219 55.39                             168     0.0 7   29 207 
 BAR2 SZ ES   2   2220  9.83                             168    -0.6 5   29 207 
 BAR2 SZ I        2220 14.77         5.7 0.44                            29 207 
 BRR  HZ EP       2219 57.06                             150    -0.210   78 294 
 BRR  HZ I        2220 10.96        11.8 0.37                            78 294 
 BRR  HN ES   1   2220 13.89                             150     0.2 7   78 294 
 RUS  HZ EP       2219 59.84                             142     0.210  103 181 
 RUS  HZ I        2220  0.56         1.9 0.23                           103 181 
 GUE  SZ EP   1   2219 59.98                             140    -0.1 7  112   8 
 GRA  SZ EP   2   2220  0.37                             137    -0.2 5  121  14 
 GRA  SZ ES   2   2220 20.11                             137     0.4 5  121  14 
 GRA  SZ I        2220 21.25         6.3 0.23                           121  14 
                                                                                
