 2015  825 2012 33.0 L   6.810 -73.011147.2  RSN 17 0.6 2.5LRSN                1
 GAP=131        1.27       3.2     6.4  6.5 -0.5796E+01  0.1297E+02  0.2253E+01E
 Epicentro: CEPITA - SANTANDER                                                 3
 ACTION:UPD 15-09-15 23:05 OP:cam  STATUS:               ID:20150825201233 L   I
 OLDACT:REG 15-08-26 02:39 OP:ar   STATUS:               ID:20150825200748     3
 2015-08-25-2007-48M.COL___358                                                 6
 STAT SP IPHASW D HRMM SECON CODA AMPLIT PERI AZIMU VELO AIN AR TRES W  DIS CAZ7
 BAR2 EZ EP       2012 52.80                             168   -0.1810 30.6 218 
 BAR2 EZ ES       2013  8.02                             168   -0.5410 30.6 218 
 BAR2 EZ I        2013 10.62        41.3 0.34            166           30.6 218 
 PAM  EZ EP       2012 55.69                             154    0.8510 67.9  30 
 PAM  EE ES       2013 12.85                             154    0.9710 67.9  30 
 PAM  EZ I        2013 14.78        23.5 0.50            157           67.9  30 
 BRR  HZ EP       2012 54.75                             149   -0.3310 84.1 293 
 BRR  HN ES       2013 12.14                             149   -0.1610 84.1 293 
 BRR  HZ I        2013 14.47        33.4 0.16            147           84.1 293 
 RUS  HZ EP       2012 57.13                             144    0.1510  102 184 
 RUS  HN ES       2013 15.61                             144   -0.0810  102 184 
 RUS  HZ I        2013 16.25        35.0 0.30            145            102 184 
 OCA  HZ EP       2013  1.43                             130   -0.12 9  162 348 
 OCA  HN ES       2013 23.32                             130   -0.50 9  162 348 
 OCA  HZ I        2013 28.26        72.8 0.54            131            162 348 
 SPBC HZ EP   2   2013  1.78                             128   -0.84 4  174 223 
 SPBC HN ES       2013 25.54                             128   -0.19 9  174 223 
 SPBC HZ I        2013 29.71        69.9 0.80            128            174 223 
 ZAR  HZ EP   4   2012 55.07                             121   -11.9 0  217 290 
 ZAR  HN ES   4   2013 30.56                             121   -2.84 0  217 290 
 ZAR  HZ I        2013 36.71        42.4 0.32            121            217 290 
 NOR  HZ EP       2013  9.36                             117   -0.84 8  248 236 
 NOR  HN ES   4   2013 37.62                             117   -1.59 0  248 236 
 NOR  HZ I        2013 40.98        24.8 0.18            118            248 236 
 SML  HZ EP       2013  9.73                             117   -0.58 8  249 332 
 SML  HN ES       2013 39.45                             117    0.04 8  249 332 
 SML  HZ I        2013 40.52        42.3 0.10            118            249 332 
 CHI  HZ EP       2013 10.92                             117   -0.44 8  254 198 
 CHI  HN ES       2013 40.95                             117   -0.34 8  254 198 
 CHI  HZ I        2013 46.29        11.4 0.52            118            254 198 
 ROSC BZ EP       2013 12.91                             116    0.74 8  262 214 
 ROSC BN ES       2013 43.71                             116    0.98 8  262 214 
 ROSC BZ I        2013 45.60        24.9 0.35            117            262 214 
 HEL  HN ES   4   2013 46.47                             114   -1.15 0  287 256 
 HEL  HZ I        2013 51.79        20.7 0.40            115            287 256 
 URE  HZ EP   4   2013 12.94                             113   -2.71 0  297 291 
 URE  HN ES   4   2013 43.96                             113   -4.95 0  297 291 
 PTGC HE ES   2   2013 48.70                             112   -1.67 4  305 161 
 GUY2CHZ EP       2013 18.81                             112    0.68 7  314 236 
 GUY2CHN ES       2013 54.09                             112    0.75 7  314 236 
 GUY2CHZ I        2013 58.85        17.1 0.28                           314 236 
 DBB  SZ EP   4   2013 57.63                             109   35.40 0  354 274 
 DBB  SZ ES   4   2014 14.05                             109   13.42 0  354 274 
 DBB  SZ I    4   2014 15.87        39.0 0.58            110            354 274 
 TOL  SZ EP       2013 23.13                             109    0.50 6  355 226 
 TOL  SE ES       2014  1.28                             109   -0.05 6  355 226 
 TOL  SZ I        2014  5.03        11.8 0.36            110            355 226 
 ORTC HN ES       2014 10.46                             106   -0.66 6  405 218 
 SJC  HZ EP   4   2013 26.98                             106   -2.49 0  417 325 
 SJC  HN ES   4   2014 10.21                             106   -3.31 0  417 325 
 SJC  HZ I        2014 16.04         5.7 0.42            107            417 325 
                                                                                
