 2012  925 2230 29.5 L   6.752 -73.118140.2  RSN  5 0.2 2.0LRSN                1
 GAP=142        0.40       2.5     2.7  3.9  0.2193E+00  0.1855E+01 -0.1328E+00E
 Epicentro: LOS SANTOS - SANTANDER                                             3
 ACTION:UPD 12-10-22 14:20 OP:ep   STATUS:               ID:20120925223029 L   I
 2012-09-25-2230-00M.COL___214                                                 6
 STAT SP IPHASW D HRMM SECON CODA AMPLIT PERI AZIMU VELO AIN AR TRES W  DIS CAZ7
 BAR2 SZ EP   1   2230 48.44                             172    0.10 7 19.1 202 
 BAR2 SZ ES   1   2231  3.03                             172   -0.03 7 19.1 202 
 BAR2 SZ I        2231  4.08        23.7 0.28                          19.1 202 
 BRR  HZ EP       2230 50.27                             150   -0.0510 76.5 301 
 BRR  HZ I        2230 50.84        25.4 0.14                          76.5 301 
 BRR  HN ES   1   2231  6.93                             150    0.33 7 76.5 301 
 PAM  SZ EP       2230 51.26                             149    0.0310 79.7  35 
 PAM  SE ES       2231  8.10                             149   -0.1010 79.7  35 
 PAM  SZ I        2231 10.74        19.8 0.71                          79.7  35 
 RUS  HZ EP   1   2230 52.43                             144    0.16 7 95.1 178 
 RUS  HN ES   1   2231  9.90                             144   -0.16 7 95.1 178 
 ZAR  HE ES   1   2231 27.23                             120   -0.25 6  209 293 
 ZAR  HZ I        2231 29.62         6.0 0.23                           209 293 
                                                                                
