 2013  525 2246 46.4 L   6.811 -73.159145.1  RSN 15 0.5 2.4LRSN                1
 GAP=134        0.91       3.0     3.5  5.5  0.9243E-01  0.6978E+01  0.3029E+01E
 Epicentro: LOS SANTOS - SANTANDER                                             3
 ACTION:UPD 13-06-20 09:53 OP:ep   STATUS:               ID:20130525224646 L   I
 2013-05-25-2240-00M.COL___261                                                 6
 STAT SP IPHASW D HRMM SECON CODA AMPLIT PERI AZIMU VELO AIN AR TRES W  DIS CAZ7
 BAR2 SZ IP       2247  5.83                             170   -0.1010 24.3 186 
 BAR2 SZ ES   1   2247 20.91                             170   -0.28 7 24.3 186 
 BAR2 SZ I        2247 23.28        61.0 0.28            167           24.3 186 
 GIR2 SZ EP       2247  6.00                             168    0.0810 29.9 353 
 GIR2 SZ ES   1   2247 21.00                             168   -0.17 7 29.9 353 
 GIR2 SZ I        2247 22.86        33.8 0.10            166           29.9 353 
 BRR  HZ IP     D 2247  7.69                             153    0.3610 69.3 298 
 BRR  HN ES   1   2247 24.48                             153    0.79 7 69.3 298 
 BRR  HZ I        2247 28.53        38.7 0.20            149           69.3 298 
 PAM  SZ EP       2247  8.79                             151    0.2810 77.5  41 
 PAM  SN ES   1   2247 25.85                             151    0.07 7 77.5  41 
 PAM  SZ I        2247 27.42        34.9 0.40            156           77.5  41 
 RUS  HZ IP     D 2247  9.93                             143   -0.2110  102 175 
 RUS  HN ES   1   2247 28.76                             143    0.08 7  102 175 
 RUS  HZ I        2247 29.52        30.3 0.28            145            102 175 
 PTB  HZ EP       2247 12.38                             132   -0.78 9  147 258 
 PTB  HN ES   1   2247 33.29                             132   -0.77 7  147 258 
 PTB  HN I        2247 38.99        64.5 0.28            131            147 258 
 ZAR  HZ EP   1   2247 18.61                             122    0.04 6  202 292 
 ZAR  HN ES       2247 43.60                             122   -0.10 9  202 292 
 ZAR  HZ I        2247 49.99        31.7 0.58            122            202 292 
 NOR  HZ EP   1   2247 21.97                             118   -0.02 6  234 234 
 NOR  HN ES   1   2247 49.13                             118   -0.66 6  234 234 
 NOR  HZ I        2247 53.86        17.6 0.18            119            234 234 
 SML  HZ EP   1   2247 22.25                             117   -0.52 6  242 335 
 SML  HN ES       2247 50.80                             117   -0.36 8  242 335 
 SML  HZ I        2247 58.09        26.8 0.10            119            242 335 
 CHI  HZ EP   1   2247 24.30                             117    0.20 6  249 195 
 CHI  HE ES   1   2247 53.87                             117    0.33 6  249 195 
 CHI  HZ I        2247 59.61         6.3 0.54            118            249 195 
 HEL  HZ EP   1   2247 26.72                             115    0.31 6  271 255 
 HEL  HN ES       2247 58.91                             115    1.26 8  271 255 
 HEL  HZ I        2248  5.57        10.4 0.22            115            271 255 
 URE  HE ES       2247 59.15                             114    0.11 7  282 292 
 URE  HZ I        2248  7.93        15.2 0.24            114            282 292 
 GUY2CHZ EP   1   2247 30.38                             112    0.50 5  301 234 
 GUY2CHE ES   1   2248  3.06                             112   -0.76 5  301 234 
 GUY2CHZ I        2248 10.99        10.3 0.70                           301 234 
 RREF HZ EP   1   2247 32.86                             111    0.43 5  321 229 
 RREF HN ES   1   2248  8.39                             111    0.03 5  321 229 
 RREF HZ I        2248 18.18         9.2 0.28            112            321 229 
 PRA  HZ EP   1   2247 39.84                             106   -0.05 4  392 209 
 PRA  HN ES   1   2248 21.57                             106   -0.07 4  392 209 
 PRA  HZ I        2248 26.72         6.6 0.30            108            392 209 
                                                                                
