 2012 1125 2336 41.3 L   6.797 -73.181137.2  RSN  8 0.4 1.8LRSN                1
 GAP=132        0.90       2.6     4.0  5.8  0.3047E+00  0.8656E+01 -0.7040E+00E
 Epicentro: LOS SANTOS - SANTANDER                                             3
 ACTION:UPD 12-12-05 15:36 OP:}ep  STATUS:               ID:20121125233641 L   I
 2012-11-25-2330-00M.COL___233                                                 6
 STAT SP IPHASW D HRMM SECON CODA AMPLIT PERI AZIMU VELO AIN AR TRES W  DIS CAZ7
 BAR2 SZ ES       2337 13.89                             170   -0.5010 22.7 180 
 PAM  SZ EP       2337  3.04                             148    0.2510 80.1  42 
 PAM  SZ I        2337  3.27         6.1 0.20                          80.1  42 
 PAM  SN ES       2337 19.59                             148    0.0410 80.1  42 
 RUS  HZ EP       2337  4.18                             142   -0.0510  101 174 
 RUS  HN ES       2337 22.72                             142    0.6210  101 174 
 RUS  HN I        2337 25.79         5.4 0.36                           101 174 
 PTB  HZ EP       2337  7.38                             131    0.15 9  144 259 
 PTB  HN ES       2337 27.44                             131   -0.01 9  144 259 
 PTB  HN I        2337 30.95         8.2 0.22                           144 259 
 OCA  HE ES       2337 30.23                             128   -0.29 9  160 355 
 ZAR  HZ EP       2337 13.43                             121    0.59 9  201 293 
 ZAR  HN ES       2337 37.37                             121   -0.07 9  201 293 
 ZAR  HN I        2337 43.95         7.0 0.24                           201 293 
 SML  HZ EP       2337 16.69                             116   -0.63 8  242 336 
 SML  HN ES       2337 45.74                             116    0.33 8  242 336 
 SML  HN I        2337 48.02        13.2 0.10                           242 336 
 CHI  HZ EP       2337 18.06                             115   -0.34 8  247 194 
 CHI  HN ES       2337 46.99                             115   -0.34 8  247 194 
                                                                                
