 2016 1025 2046  0.5 L   6.784 -73.144143.9  RSN 19 0.5 2.7LRSN                1
 GAP= 99        1.09       3.9     3.2  5.2 -0.2902E+01  0.3073E+01  0.5754E+01E
 Epicentro: LOS SANTOS - SANTANDER                                             3
 ACTION:UPD 16-11-09 19:22 OP:rebc STATUS:               ID:20161025204600 L   I
 OLDACT:UP  16-10-26 03:34 OP:ar   STATUS:               ID:20161025203750     3
 OLDACT:UP  16-10-26 03:33 OP:ar   STATUS:               ID:20161025203750     3
 OLDACT:REG 16-10-26 02:55 OP:ar   STATUS:               ID:20161025203750     3
 2016-10-25-2038-00M.COL___349                                                 6
 STAT SP IPHASW D HRMM SECON CODA AMPLIT PERI AZIMU VELO AIN AR TRES W  DIS CAZ7
 BAR2 EZ IP     D 2046 19.60                             171   -0.2910 21.6 191 
 BAR2 EZ ES       2046 35.12                             171    0.1210 21.6 191 
 BAR2 EZ I        2046 36.09       180.5 0.26            170           21.6 191 
 BRR  HZ EP       2046 21.39                             152   -0.1310 72.2 300 
 BRR  HN ES       2046 38.43                             152    0.5210 72.2 300 
 BRR  HZ I        2046 42.31       105.6 0.28            149           72.2 300 
 PAM  EZ EP       2046 22.47                             150   -0.1410 78.6  39 
 PAM  EE ES       2046 39.63                             150   -0.2210 78.6  39 
 PAM  EZ I        2046 41.71        96.2 0.50            153           78.6  39 
 RUS  HZ IP     D 2046 23.52                             144   -0.4410 98.8 176 
 RUS  HN ES       2046 42.58                             144    0.3410 98.8 176 
 RUS  HZ I        2046 43.19        34.7 0.24            145           98.8 176 
 PTB  HZ EP   2   2046 26.23                             132   -1.08 5  148 260 
 PTB  HN ES       2046 47.28                             132   -0.94 9  148 260 
 PTB  HZ I        2046 53.68        52.5 0.46            130            148 260 
 TAM  HZ EP       2046 27.92                             130   -0.07 9  155 104 
 TAM  HN ES       2046 49.64                             130    0.22 9  155 104 
 TAM  HZ I        2046 51.04        32.9 0.54            134            155 104 
 OCA  HZ EP   4   2046 31.22                             129    2.37 0  162 353 
 OCA  HE ES   4   2046 49.70                             129   -1.25 0  162 353 
 OCA  HZ I        2046 58.20       108.5 0.28            129            162 353 
 SPBC HZ EP       2046 28.80                             129    0.05 9  162 219 
 SPBC HN ES       2046 50.90                             129    0.12 9  162 219 
 SPBC HZ I        2046 55.32       112.5 0.24            129            162 219 
 NOR  HZ EP       2046 35.73                             118   -0.31 8  234 235 
 NOR  HN ES       2047  4.15                             118    0.40 8  234 235 
 NOR  HZ I        2047 12.98        32.0 0.42            118            234 235 
 CHI  HZ EP       2046 37.80                             117   -0.13 8  247 195 
 CHI  HN ES       2047  6.90                             117   -0.22 8  247 195 
 CHI  HZ I        2047 10.78        37.4 0.50            118            247 195 
 ROSC BZ EP       2046 39.62                             116    1.24 8  251 211 
 ROSC BN ES   4   2047 10.00                             116    2.09 0  251 211 
 ROSC BZ I        2047 13.89        83.0 0.45            117            251 211 
 HEL  HZ EP       2046 41.67                             114    1.07 8  272 256 
 HEL  HN ES       2047 11.90                             114    0.03 8  272 256 
 HEL  HZ I        2047 17.35        23.0 0.26            114            272 256 
 GUY2CHZ EP       2046 44.73                             112    0.79 7  300 235 
 GUY2CHE ES   4   2047 21.81                             112    4.00 0  300 235 
 GUY2CHZ I        2047 25.70        32.9 0.34                           300 235 
 PTGC HZ EP   9   2046 42.64                             111   -1.46 0  307 159 
 PTGC HN ES       2047 16.18                             111   -0.45 7  307 159 
 ELA  HZ EP   4   2046 48.96                             110    1.79 0  328 230 
 ELA  HE ES   4   2047 26.59                             110    3.03 0  328 230 
 ELA  HZ I        2047 35.95        25.6 0.46            110            328 230 
 ANIL HZ EP   9   2046 52.34                             108    2.23 0  356 225 
 ANIL HN ES       2047 30.34                             108   -0.69 6  356 225 
 PRA  HZ EP       2046 53.34                             106   -0.46 6  391 210 
 PRA  HN ES       2047 35.02                             106   -0.34 6  391 210 
 PRA  HZ I        2047 41.75        35.2 0.34            107            391 210 
 ORTC HZ EP       2046 53.96                             106   -0.25 6  394 216 
 ORTC HN ES       2047 35.73                             106   -0.37 6  394 216 
 ORTC HZ I        2047 40.83        18.4 0.26            107            394 216 
 PAL  HZ EP       2046 55.13                             105   -0.39 6  405 239 
 PAL  HN ES   4   2047 37.48                             105   -0.95 0  405 239 
 PAL  HZ I        2047 40.93         6.8 0.30            106            405 239 
                                                                                
