 2016 1125 2007 37.3 L   6.782 -73.145145.2  RSN  7 0.4 1.8LRSN                1
 GAP=153        1.06       6.2     4.9  7.1 -0.1440E+01  0.7471E+01  0.1057E+02E
 Epicentro: LOS SANTOS - SANTANDER                                             3
 ACTION:UPD 17-10-26 21:11 OP:lp   STATUS:               ID:20161125200737 L   I
 OLDACT:UP  16-11-26 03:23 OP:ar   STATUS:               ID:20161125195745     3
 OLDACT:UP  16-11-26 03:21 OP:ar   STATUS:               ID:20161125195745     3
 OLDACT:REG 16-11-26 02:52 OP:ar   STATUS:               ID:20161125195745     3
 2016-11-25-1958-00M.COL___349                                                 6
 STAT SP IPHASW D HRMM SECON CODA AMPLIT PERI AZIMU VELO AIN AR TRES W  DIS CAZ7
 BAR2 EZ EP       20 7 56.60                             171   -0.2010 21.4 191 
 BAR2 EZ ES       20 8 11.76                             171   -0.2710 21.4 191 
 BAR2 EZ I        20 8 14.45         9.4 0.38            145           21.4 191 
 BRR  HZ EP       20 7 58.45                             152    0.0310 72.2 300 
 BRR  HN ES       20 8 15.59                             152    0.6810 72.2 300 
 PAM  EZ EP       20 7 59.23                             150   -0.2810 78.8  39 
 PAM  EN ES       20 8 16.97                             150    0.1110 78.8  39 
 PAM  EZ I        20 8 18.69         7.6 0.52            161           78.8  39 
 PTB  HZ EP       20 8  3.45                             132   -0.71 9  147 260 
 PTB  HE ES       20 8 24.74                             132   -0.41 9  147 260 
 PTB  HZ I        20 8 31.20         4.1 0.34            132            147 260 
 ZAR  HZ EP       20 8 10.10                             122    0.34 9  205 293 
 ZAR  HN ES       20 8 35.15                             122    0.04 9  205 293 
 ZAR  HZ I        20 8 40.60         5.9 0.34            132            205 293 
 CHI  HZ EP       20 8 15.56                             117    0.83 8  247 195 
 CHI  HN ES   2   20 8 44.66                             117    0.70 4  247 195 
 SJC  HZ I        20 8 28.42         9.3 0.10            117            411 327 
                                                                                
