 2016  625 2209 33.5 L   6.901 -73.122134.7  RSN  5 0.2 1.9LRSN                1
 GAP=283        0.45       6.2     3.3  6.5  0.8892E+01 -0.1130E+01 -0.2047E+02E
 Epicentro: PIEDECUESTA - SANTANDER                                            3
 ACTION:UPD 16-07-21 22:22 OP:rebc STATUS:               ID:20160625220933 L   I
 OLDACT:UP  16-06-26 05:18 OP:dani STATUS:               ID:20160625220743     3
 OLDACT:UP  16-06-26 05:18 OP:dani STATUS:               ID:20160625220743     3
 OLDACT:UP  16-06-26 05:18 OP:dani STATUS:               ID:20160625220743     3
 OLDACT:REG 16-06-26 03:26 OP:dani STATUS:               ID:20160625220743     3
 2016-06-25-2207-43M.COL___333                                                 6
 STAT SP IPHASW D HRMM SECON CODA AMPLIT PERI AZIMU VELO AIN AR TRES W  DIS CAZ7
 RUS  HZ EP       22 9 57.27                             138    0.2010  112 178 
 RUS  HE ES       2210 15.32                             138   -0.1210  112 178 
 RUS  HZ I        2210 16.77         4.6 0.22                           112 178 
 PTB  HZ EP       2210  0.10                             128    0.01 9  153 255 
 PTB  HN ES       2210 20.82                             128    0.00 9  153 255 
 PTB  HZ I        2210 23.49        10.2 0.16                           153 255 
 ZAR  HZ EP   4   2210  2.90                             120   -2.22 0  203 289 
 ZAR  HN ES   4   2210 31.75                             120    1.99 0  203 289 
 ZAR  HZ I        2210 37.13        12.3 0.46                           203 289 
 NOR  HZ EP       2210  9.33                             115   -0.27 8  243 233 
 NOR  HE ES       2210 37.88                             115    0.15 8  243 233 
 NOR  HZ I        2210 43.30         8.8 0.18                           243 233 
 CHI  HN ES   4   2210 40.45                             114   -1.40 0  260 195 
 GUY2CHZ EP   4   2210 18.95                             109    1.31 0  310 233 
 GUY2CHE ES   4   2210 55.57                             109    3.52 0  310 233 
 GUY2CHZ I        2211  1.43         3.4 0.60                           310 233 
                                                                                
