 2015 1225 2303 48.9 L   6.794 -73.128145.0  RSN 18 0.5 2.4LRSN                1
 GAP=139        1.19       2.7     4.1  5.4 -0.2103E+01  0.4338E+01  0.2327E+01E
 Epicentro: LOS SANTOS - SANTANDER                                             3
 ACTION:UPD 16-02-04 15:07 OP:cam  STATUS:               ID:20151225230348 L   I
 OLDACT:UP  15-12-26 04:05 OP:ar   STATUS:               ID:20151225225748     3
 OLDACT:UP  15-12-26 04:04 OP:ar   STATUS:               ID:20151225225748     3
 OLDACT:REG 15-12-26 03:00 OP:ar   STATUS:               ID:20151225225748     3
 2015-12-25-2257-48M.COL___337                                                 6
 STAT SP IPHASW D HRMM SECON CODA AMPLIT PERI AZIMU VELO AIN AR TRES W  DIS CAZ7
 BAR2 EZ EP       23 4  8.27                             170   -0.1710 23.1 195 
 BAR2 EZ ES       23 4 23.31                             170   -0.3610 23.1 195 
 BAR2 EZ I        23 4 24.57       103.7 0.22            168           23.1 195 
 BRR  HZ IP     C 23 4 10.19                             152    0.1010 73.2 298 
 BRR  HN ES       23 4 27.45                             152    0.8410 73.2 298 
 BRR  HZ I        23 4 30.57        46.7 0.34            148           73.2 298 
 PAM  EZ EP       23 4 11.23                             151    0.2410 76.7  38 
 PAM  EN ES       23 4 28.64                             151    0.4110 76.7  38 
 PAM  EZ I        23 4 30.59        31.2 0.36            155           76.7  38 
 RUS  HZ EP       23 4 12.24                             144   -0.2810 99.8 177 
 RUS  HN ES       23 4 31.23                             144    0.2810 99.8 177 
 RUS  HZ I        23 4 31.64        17.4 0.30            146           99.8 177 
 PTB  HZ EP       23 4 15.19                             132   -0.78 9  150 259 
 PTB  HN ES       23 4 36.46                             132   -0.62 9  150 259 
 PTB  HZ I        23 4 43.61        34.9 0.40            130            150 259 
 OCA  HZ EP       23 4 16.38                             129   -0.86 9  161 352 
 OCA  HN ES       23 4 39.30                             129   -0.04 9  161 352 
 OCA  HZ I        23 4 48.24        34.4 0.40            130            161 352 
 SPBC HZ EP       23 4 17.33                             129   -0.08 9  164 220 
 SPBC HN ES       23 4 39.05                             129   -0.60 9  164 220 
 SPBC HZ I        23 4 45.39        34.2 0.20            129            164 220 
 ZAR  HZ EP   4   23 4 24.14                             122    2.63 0  206 292 
 ZAR  HE ES       23 4 46.45                             122   -0.49 8  206 292 
 ZAR  HZ I        23 4 51.93        16.5 0.22            122            206 292 
 NOR  HZ EP       23 4 24.71                             118   -0.01 8  236 235 
 NOR  HN ES       23 4 52.02                             118   -0.63 8  236 235 
 NOR  HZ I        23 4 58.62        15.0 0.18            118            236 235 
 SML  HZ EP       23 4 25.10                             117   -0.54 8  245 335 
 SML  HE ES       23 4 54.94                             117    0.65 8  245 335 
 SML  HZ I        23 4 57.12        25.9 0.10            118            245 335 
 CHI  HZ EP       23 4 26.48                             117   -0.06 8  249 196 
 CHI  HN ES       23 4 56.22                             117    0.31 8  249 196 
 CHI  HZ I        23 4 58.22         9.4 0.32            118            249 196 
 ROSC BZ EP   9   23 4 29.09                             116    2.06 0  253 211 
 ROSC BN ES       23 4 58.66                             116   -0.17 8  253 211 
 ROSC BZ I        23 5  3.16        16.3 0.30            117            253 211 
 HEL  HZ EP       23 4 30.01                             114    0.74 8  274 256 
 HEL  HN ES       23 5  1.61                             114    0.86 8  274 256 
 HEL  HZ I        23 5  7.27        11.0 0.28            115            274 256 
 URE  HN ES   4   23 4 59.38                             113   -2.97 0  286 292 
 GUY2CHZ EP       23 4 33.81                             112    1.20 7  302 235 
 GUY2CHN ES       23 5  6.81                             112    0.10 7  302 235 
 GUY2CHZ I        23 5 14.30         9.3 0.30                           302 235 
 VIL  SZ EP       23 4 32.36                             112    0.10 7  303 192 
 VIL  SN ES       23 5  6.08                             112    0.01 7  303 192 
 ELA  HZ EP   9   23 4 38.85                             110    3.01 0  330 230 
 ELA  HN ES       23 5 15.78                                    0.32 7  330 230 
 ELA  HZ I        23 5 23.26         7.8 0.58            111            330 230 
 PRA  HZ EP       23 4 41.72                             106   -0.72 6  392 210 
 PRA  HN ES       23 5 24.85                             106    0.65 6  392 210 
 PRA  HZ I        23 5 30.40         9.9 0.32            107            392 210 
 ORTC HZ EP       23 4 43.37                             106    0.50 6  396 216 
 ORTC HN ES       23 5 25.69                             106    0.73 6  396 216 
 ORTC HZ I        23 5 31.73         7.7 0.44            107            396 216 
                                                                                
