 2016  925 2154 36.6 L   6.846 -73.115148.0  RSN  5 0.4 1.4LRSN                1
 GAP=248        0.90       5.1     6.4  7.8  0.1211E+02  0.2182E+02  0.1749E+01E
 Epicentro: LOS SANTOS - SANTANDER                                             3
 ACTION:UPD 17-08-17 21:16 OP:lp   STATUS:               ID:20160925215436 L   I
 OLDACT:REG 16-09-26 02:46 OP:lv   STATUS:               ID:20160925214740     3
 2016-09-25-2148-00M.COL___330                                                 6
 STAT SP IPHASW D HRMM SECON CODA AMPLIT PERI AZIMU VELO AIN AR TRES W  DIS CAZ7
 BAR2 EZ EP       2154 57.06                             168    0.4010 29.0 195 
 BAR2 EZ ES       2155 12.07                             168   -0.2110 29.0 195 
 BAR2 EZ I        2155 13.12         4.9 0.08            162           29.0 195 
 RUS  HZ EP       2155  1.25                             143    0.2910  105 178 
 RUS  HE ES       2155 19.85                             143   -0.0910  105 178 
 RUS  HZ I        2155 20.66         2.9 0.27            142            105 178 
 ZAR  HZ EP       2155  8.69                             123   -0.67 8  205 290 
 ZAR  HN ES       2155 34.95                             123    0.06 8  205 290 
 ZAR  HZ I        2155 40.14         1.9 0.18            121            205 290 
 NOR  HZ EP       2155 13.26                             118    0.15 8  240 234 
 NOR  HN ES       2155 42.05                             118    0.50 8  240 234 
 NOR  HZ I        2155 50.17         2.4 0.14            117            240 234 
 CHI  HN ES       2155 44.49                             117   -0.59 8  254 196 
                                                                                
