 2015  625 2155 41.5 L   6.804 -73.103147.7  RSN  6 0.5 1.8LRSN                1
 GAP=204        1.06       6.4     7.7  9.4  0.1559E+02  0.1367E+02 -0.1920E+02E
 Epicentro: LOS SANTOS - SANTANDER                                             3
 ACTION:UPD 15-09-10 22:15 OP:cam  STATUS:               ID:20150625215541 L   I
 OLDACT:UP  15-07-03 16:33 OP:cam  STATUS:               ID:20150625215541 L   3
 OLDACT:UP  15-07-01 05:41 OP:DRIO STATUS:               ID:20150625215541 L   3
 OLDACT:DUP 15-06-26 06:45 OP:stll STATUS:               ID:20150625214750d    3
 2015-06-25-2147-49M.COL___328                                                 6
 STAT SP IPHASW D HRMM SECON CODA AMPLIT PERI AZIMU VELO AIN AR TRES W  DIS CAZ7
 BAR2 EZ EP       2156  2.14                             170    0.7910 25.0 200 
 BAR2 EZ ES       2156 17.10                             170    0.2310 25.0 200 
 BAR2 EZ I        2156 18.60        12.3 0.14            164           25.0 200 
 RUS  HZ EP       2156  4.81                             144   -0.6010  101 179 
 RUS  HE ES       2156 23.69                             144   -0.4110  101 179 
 RUS  HZ I        2156 26.22         8.5 0.42            143            101 179 
 ZAR  HN ES       2156 39.93                             122   -0.26 8  208 292 
 ZAR  HZ I        2156 46.21         5.9 0.32            121            208 292 
 NOR  HZ EP   1   2156 18.58                             118    0.85 6  239 235 
 NOR  HN ES   1   2156 46.21                             118    0.18 6  239 235 
 NOR  HZ I        2156 52.14         5.0 0.18            117            239 235 
 SML  HZ EP       2156 18.11                             118   -0.24 8  245 334 
 SML  HN ES   2   2156 46.93                             118   -0.21 4  245 334 
 GUY2CHZ EP   9   2156 27.69                             112    2.08 0  305 235 
 GUY2CHN ES   2   2157  2.20                                    0.06 4  305 235 
 GUY2CHZ I        2157  8.15         3.2 0.46                           305 235 
                                                                                
