 2012 1225 2345 33.0 L   6.738 -73.196150.9  RSN  6 0.4 1.7LRSN                1
 GAP=172        1.08       7.6     6.9  9.6  0.2814E+02 -0.5764E+01 -0.1539E+02E
 Epicentro: VILLANUEVA - SANTANDER                                             3
 ACTION:UPD 13-01-04 14:30 OP:ep   STATUS:               ID:20121225234533 L   I
 2012-12-25-2340-00M.COL___242                                                 6
 STAT SP IPHASW D HRMM SECON CODA AMPLIT PERI AZIMU VELO AIN AR TRES W  DIS CAZ7
 BAR2 SZ EP       2345 52.43                             174   -0.6910 16.2 175 
 GIR2 SZ EP       2345 53.42                             165   -0.0310 37.6   0 
 GIR2 SZ I        2346  9.52         4.4 0.12                          37.6   0 
 BRR  HZ EP       2345 55.24                             154    0.6110 70.1 306 
 BRR  HN ES       2346 11.48                             154   -0.0310 70.1 306 
 BRR  HN I        2346 16.01        11.7 0.16                          70.1 306 
 RUS  HZ EP       2345 57.28                             147    0.4610 94.4 172 
 RUS  HN ES       2346 15.39                             147   -0.0110 94.4 172 
 RUS  HN I        2346 16.49         5.5 0.20                          94.4 172 
 PTB  HZ EP       2345 59.94                             134    0.15 9  141 261 
 PTB  HN ES       2346 20.44                             134   -0.25 9  141 261 
 PTB  HN I        2346 26.67         8.0 0.28                           141 261 
 ZAR  HZ EP       2346  4.82                             124   -0.70 9  202 295 
 ZAR  HN ES       2346 31.31                             124    0.41 9  202 295 
 ZAR  HN I        2346 33.33         7.7 0.12                           202 295 
                                                                                
