 2013 1025 2320  2.8 L   6.785 -73.186153.3  RSN  7 0.4 1.8LRSN                1
 GAP=197        0.83       4.2     5.0  6.8  0.7654E+01 -0.6883E+00 -0.4620E+01E
 Epicentro: LOS SANTOS - SANTANDER                                             3
 ACTION:UPD 13-11-25 09:23 OP:ep   STATUS:               ID:20131025232002 L   I
 OLDACT:UP  13-10-26 00:45 OP:mh   STATUS:               ID:20131025231848     3
 OLDACT:REG 13-10-25 22:03 OP:y    STATUS:               ID:20131025231848     3
 2013-10-25-2318-48M.COL___230                                                 6
 STAT SP IPHASW D HRMM SECON CODA AMPLIT PERI AZIMU VELO AIN AR TRES W  DIS CAZ7
 BAR2 SZ EP   1   2320 23.19                             172   -0.07 7 21.3 179 
 BRR  HZ EP       2320 24.79                             155    0.2210 68.2 302 
 BRR  HN ES       2320 42.01                             155    0.4310 68.2 302 
 BRR  HZ I        2320 43.29        10.7 0.24            153           68.2 302 
 RUS  HZ EP       2320 27.38                             146    0.2110 99.3 173 
 RUS  HN ES       2320 45.89                             146   -0.3210 99.3 173 
 RUS  HZ I        2320 47.50         6.6 0.23            149           99.3 173 
 PTB  HZ EP       2320 29.90                             135   -0.05 9  143 259 
 PTB  HN ES       2320 50.53                             135   -0.62 9  143 259 
 PTB  HZ I        2320 52.99         7.8 0.17            135            143 259 
 ZAR  HZ EP   1   2320 34.63                             124   -0.74 6  201 293 
 ZAR  HN ES       2321  0.95                             124    0.16 9  201 293 
 ZAR  HZ I        2321  6.40         5.9 0.12            125            201 293 
 NOR  HZ EP   1   2320 38.98                             121    0.52 6  230 234 
 NOR  HN ES   1   2321  6.85                             121    0.55 6  230 234 
 SML  HZ EP   1   2320 39.75                             119   -0.05 6  243 336 
 SML  HN ES   1   2321  8.41                             119   -0.27 6  243 336 
 SML  HZ I        2321 12.60         6.2 0.10            119            243 336 
                                                                                
