 2012  225 2050  2.6 L   6.787 -73.129150.0  RSN 20 0.4 3.2LRSN                1
 GAP=104        0.79       3.1     3.8  4.4 -0.3313E+01  0.1976E+01  0.1232E+01E
 ACTION:UP  12-03-07 16:34 OP:epov STATUS:               ID:20120225205002 L   I
 2012-02-25-2050-00M.COL___196                                                 6
 STAT SP IPHASW D HRMM SECON CODA AMPLIT PERI AZIMU VELO AIN AR TRES W  DIS CAZ7
 BAR2 SZ IP       2050 22.77                             171    0.0510 22.3 195 
 BAR2 SZ ES   1   2050 38.22                             171   -0.20 7 22.3 195 
 BAR2 SZ I        2050 39.52       607.5 0.20                          22.3 195 
 GIR2 SZ EP       2050 22.88                             167    0.0510 33.1 348 
 BRR  HZ EP       2050 24.62                             152    0.2810 73.5 299 
 BRR  HE ES   1   2050 41.96                             152    0.66 7 73.5 299 
 BRR  HZ I        2050 43.76       236.5 0.15                          73.5 299 
 PAM  SZ EP       2050 25.55                             151    0.2810 77.4  38 
 PAM  SN ES   1   2050 42.80                             151   -0.15 7 77.4  38 
 RUS  HZ IP     D 2050 26.60                             145   -0.0610 99.0 177 
 RUS  HN ES   1   2050 45.00                             145   -0.43 7 99.0 177 
 RUS  HZ I        2050 46.74       130.7 0.29                          99.0 177 
 PTB  HZ EP   1   2050 29.18                             133   -0.88 7  149 260 
 PTB  HN ES   1   2050 50.74                             133   -0.73 7  149 260 
 OCA  SZ EP       2050 31.54                             130    0.13 9  162 353 
 YOP  SZ EP   1   2050 33.26                             128    0.51 7  177 154 
 YOP  SZ I        2051  0.40        60.8 0.33                           177 154 
 NOR  SZ EP   1   2050 38.57                             119   -0.08 6  235 235 
 NOR  SN ES   1   2051  6.48                             119   -0.29 6  235 235 
 CHI  HZ EP   1   2050 40.38                             118   -0.06 6  248 196 
 CHI  HN ES   1   2051 10.45                             118    0.50 6  248 196 
 CHI  HZ I        2051 18.40        66.4 0.58                           248 196 
 HEL  HZ EP   1   2050 43.19                             115    0.00 6  273 256 
 HEL  HZ I        2051 22.32        83.2 0.23                           273 256 
 VIL  SZ EP   1   2050 46.15                             113    0.05 5  302 192 
 VIL  SZ I        2051 29.88        49.6 0.53                           302 192 
 GUY  SZ EP   1   2050 47.19                             113    0.44 5  304 236 
 GUY  SZ I        2051 30.09       130.5 0.31                           304 236 
 RREF HZ EP   1   2050 49.70                             112    0.72 5  322 230 
 RREF HZ I        2051 33.39        83.3 0.27                           322 230 
 DBB  SZ EP       2050 50.64                             110    0.16 7  341 274 
 TOL  SZ EP   1   2050 51.62                             110    0.56 5  344 225 
 COD  HZ EP   1   2050 50.59                             109   -0.75 5  350 354 
 COD  HZ I        2051 37.43        71.2 0.43                           350 354 
 SDV  BZ EP       2050 52.24                             109   -0.52 6  360  50 
 PRA  HZ EP   1   2050 56.03                             107   -0.20 4  392 210 
 SJA  SZ EP   1   2050 56.07                             107   -1.11 4  399 193 
 SJA  SZ I        2051 45.97        98.5 0.30                           399 193 
                                                                                
