 2012 1225 2316 38.4 L   6.800 -73.186152.8  RSN  7 0.4 2.0LRSN                1
 GAP=179        1.00       3.5     6.2  9.5  0.5929E+01  0.1095E+01  0.6672E+00E
 Epicentro: LOS SANTOS - SANTANDER                                             3
 ACTION:UPD 13-01-04 14:30 OP:ep   STATUS:               ID:20121225231638 L   I
 2012-12-25-2310-00M.COL___242                                                 6
 STAT SP IPHASW D HRMM SECON CODA AMPLIT PERI AZIMU VELO AIN AR TRES W  DIS CAZ7
 BRR  HZ EP       2317  0.83                             155    0.7410 67.3 300 
 BRR  HN ES       2317 17.56                             155    0.5410 67.3 300 
 BRR  HN I        2317 18.59        24.5 0.18                          67.3 300 
 RUS  HZ EP       2317  3.01                             145    0.1510  101 174 
 RUS  HN ES       2317 21.58                             145   -0.3710  101 174 
 RUS  HN I        2317 23.49         7.5 0.44                           101 174 
 PTB  HZ EP       2317  5.52                             134   -0.03 9  143 258 
 PTB  HN ES       2317 26.41                             134   -0.33 9  143 258 
 PTB  HN I        2317 32.04         9.8 0.38                           143 258 
 OCA  HN ES       2317 29.25                             131   -0.43 9  160 355 
 OCA  HN I        2317 31.88        14.3 0.24                           160 355 
 ZAR  HN ES       2317 36.20                             124   -0.02 9  200 293 
 ZAR  HN I        2317 42.96         5.4 0.32                           200 293 
 SML  HN ES       2317 43.50                             119   -0.44 8  242 336 
 SML  HN I        2317 50.33        12.7 0.10                           242 336 
 CHI  HN ES       2317 45.82                             119   -0.16 8  248 194 
                                                                                
