 2013  425 2337 47.0 L   7.614 -73.682 90.8  RSN 10 0.5 2.2LRSN                1
 GAP= 78        1.19       3.7     3.5  8.4 -0.1729E+01  0.3534E+01 -0.2967E+01E
 Epicentro: SABANA DE TORRES - SANTANDER                                       3
 ACTION:UPD 13-05-22 14:40 OP:EP   STATUS:               ID:20130425233747 L   I
 2013-04-25-2328-35M.COL___204                                                 6
 STAT SP IPHASW D HRMM SECON CODA AMPLIT PERI AZIMU VELO AIN AR TRES W  DIS CAZ7
 BRR  HZ EP       2338  1.30                             146   -0.1410 56.2 183 
 BRR  HN ES       2338 12.97                             146    0.2710 56.2 183 
 BRR  HN I        2338 13.33       121.0 0.14            146           56.2 183 
 OCA  HZ EP       2338  2.98                             136   -0.5310 79.8  30 
 OCA  HN ES       2338 16.14                             136   -0.2510 79.8  30 
 OCA  HN I        2338 16.84       260.1 0.28            137           79.8  30 
 GIR2 SZ EP       2338  3.21                             135   -0.3010 80.1 138 
 PAM  SZ EP       2338  6.98                             125   -0.0710  113 106 
 PAM  SN ES       2338 22.94                             125    0.2510  113 106 
 PAM  SN I        2338 23.45        24.1 0.18            126            113 106 
 BAR2 SZ ES       2338 24.58                             122    0.0610  126 154 
 BAR2 SZ I        2338 24.99        10.0 0.46            123            126 154 
 ZAR  HZ EP       2338  8.44                             120    0.1610  130 264 
 ZAR  HN ES       2338 25.70                             120    0.8310  130 264 
 SML  HZ EP       2338  9.17                             119    0.10 9  138 342 
 PTB  HZ EP       2338  9.30                             117   -0.71 9  146 216 
 PTB  HE ES       2338 27.20                             117   -0.76 9  146 216 
 PTB  HE I        2338 30.67        10.5 0.32            118            146 216 
 CAPV BZ EP       2338 11.54                             116    0.49 9  153  80 
 RUS  HZ EP       2338 17.66                             110    0.79 9  202 161 
                                                                                
