 2013  725 2131 11.4 L   6.785 -73.166152.0  RSN  5 0.5 1.7LRSN                1
 GAP=199        1.14       4.8     8.4  9.6  0.1023E+02 -0.1333E+02 -0.1252E+02E
 Epicentro: LOS SANTOS - SANTANDER                                             3
 ACTION:UPD 13-08-12 10:40 OP:ep   STATUS:               ID:20130725213111 L   I
 OLDACT:REG 13-07-25 23:09 OP:nd   STATUS:               ID:20130725212959     3
 2013-07-25-2129-59M.COL___267                                                 6
 STAT SP IPHASW D HRMM SECON CODA AMPLIT PERI AZIMU VELO AIN AR TRES W  DIS CAZ7
 BRR  HZ EP       2131 33.55                             154    0.3610 70.1 301 
 BRR  HN ES       2131 50.89                             154    0.7310 70.1 301 
 BRR  HZ I        2131 54.74         9.9 0.38            150           70.1 301 
 RUS  HZ EP       2131 35.68                             146   -0.0110 99.1 175 
 RUS  HN ES       2131 54.08                             146   -0.5410 99.1 175 
 RUS  HZ I        2131 55.60         4.0 0.30            147           99.1 175 
 PTB  HZ EP       2131 38.68                             134   -0.01 9  145 259 
 PTB  HN ES       2131 59.35                             134   -0.60 9  145 259 
 PTB  HZ I        2132  5.66         6.3 0.40            132            145 259 
 SPBC HZ EP       2131 40.34                             131    0.18 9  160 219 
 SPBC HN ES       2132  2.84                             131    0.27 9  160 219 
 SPBC HZ I        2132 10.03         6.6 0.30            131            160 219 
 SML  HZ EP       2131 48.71                             119    0.24 8  244 336 
 SML  HN ES       2132 16.52                             119   -0.85 8  244 336 
 SML  HZ I        2132 21.65         6.9 0.30            120            244 336 
                                                                                
