 2010  825 2325 28.2 L   7.373 -73.138135.2  RSN  4 0.1 1.7LRSN                1
 GAP=150        0.47       4.5     6.0  5.1 -0.1878E+02  0.3175E+01 -0.2909E+01E
 Epicentro: RIONEGRO - SANTANDER                                               3
 ACTION:UP  10-09-07 10:58 OP:vdl  STATUS:               ID:20100825232528 L   I
 2010-08-25-2323-49S.COL___121                                                 6
 STAT SP IPHASW D HRMM SECON CODA AMPLIT PERI AZIMU VELO SNR AR TRES W  DIS CAZ7
 GUE  SZ EP       2325 48.10                             156     0.210   56  25 
 GUE  SZ ES   1   2326  3.13                             156     0.0 7   56  25 
 GRA  SZ EP       2325 48.03                                    -0.210   68  33 
 GRA  SZ ES   1   2326  3.92                                     0.0 7   68  33 
 GRA  SZ I        2326  5.98         7.0 0.39                            68  33 
 BRR  HZ EP       2325 48.15                             151     0.010   70 245 
 BRR  HE ES   1   2326  3.69                             151     0.0 7   70 245 
 BRR  HZ I        2326  4.26         9.1 0.16                            70 245 
 BAR2 SZ ES   1   2326  6.23                             145     0.0 7   87 183 
 BAR2 SZ I        2326  7.49        13.5 0.09                            87 183 
                                                                                
