 2012 1025 2345 14.3 L   6.814 -73.120145.1  RSN  5 0.4 1.6LRSN                1
 GAP=139        0.74       5.0     5.3  7.6  0.3906E+01  0.1572E+01 -0.2632E+01E
 Epicentro: LOS SANTOS - SANTANDER                                             3
 ACTION:UPD 12-11-22 17:05 OP:ep   STATUS:               ID:20121025234514 L   I
 2012-10-25-2340-00M.COL___228                                                 6
 STAT SP IPHASW D HRMM SECON CODA AMPLIT PERI AZIMU VELO AIN AR TRES W  DIS CAZ7
 BAR2 SZ EP   1   2345 33.65                             170   -0.20 7 25.5 196 
 BAR2 SZ ES   1   2345 49.43                             170    0.30 7 25.5 196 
 BAR2 SZ I        2345 50.59        10.6 0.21                          25.5 196 
 BRR  HZ EP   1   2345 35.76                             152    0.32 7 73.0 296 
 BRR  HE ES   1   2345 52.22                             152    0.26 7 73.0 296 
 PAM  SZ EP       2345 36.59                             152    0.3710 74.4  39 
 PAM  SZ I        2345 36.78        12.7 0.20                          74.4  39 
 PAM  SN ES   1   2345 52.78                             152   -0.58 7 74.4  39 
 PAM  SN I        2345 54.69        13.7 0.26                          74.4  39 
 RUS  HZ EP   1   2345 37.73                             143   -0.31 7  102 178 
 RUS  HZ I        2345 39.05         3.1 0.17                           102 178 
 RUS  HN ES   1   2345 56.50                             143   -0.09 7  102 178 
 RUS  HN I        2345 57.59         3.5 0.22                           102 178 
 ZAR  HE ES   1   2346 11.81                             122   -0.50 6  206 291 
                                                                                
