 2015  225 2141 38.1 L   6.817 -73.162148.0  RSN 19 0.4 2.3LRSN                1
 GAP= 70        1.01       2.5     3.0  5.0 -0.1668E+01  0.3829E+01  0.7229E+00E
 Epicentro: LOS SANTOS - SANTANDER                                             3
 ACTION:UPD 15-04-30 21:29 OP:nd   STATUS:               ID:20150225214138 L   I
 OLDACT:REG 15-02-26 02:55 OP:fm   STATUS:               ID:20150225213747     3
 2015-02-25-2137-47M.COL___299                                                 6
 STAT SP IPHASW D HRMM SECON CODA AMPLIT PERI AZIMU VELO AIN AR TRES W  DIS CAZ7
 BAR2 EZ EP       2141 58.14                             170    0.1110 24.9 185 
 BAR2 EZ ES   1   2142 13.83                             170    0.25 7 24.9 185 
 BAR2 EZ I        2142 16.66        30.3 0.28            170           24.9 185 
 BRR  HZ IP     C 2142  0.19                             154    0.8310 68.8 298 
 BRR  HN ES       2142 16.17                             154    0.2310 68.8 298 
 BRR  HZ I        2142 19.31        35.1 0.14            152           68.8 298 
 PAM  SZ EP     D 2142  1.02                             151    0.4810 77.1  41 
 PAM  SN ES       2142 17.90                             151   -0.1410 77.1  41 
 PAM  SZ I        2142 20.76        58.1 0.64            155           77.1  41 
 RUS  HZ EP       2142  2.04                             143   -0.1710  103 175 
 RUS  HE ES       2142 20.11                             143   -0.9110  103 175 
 RUS  HZ I        2142 23.28        18.8 0.56            146            103 175 
 PTB  HZ EP       2142  5.10                             132   -0.03 9  146 258 
 PTB  HN ES       2142 25.76                             132   -0.45 9  146 258 
 PTB  HZ I        2142 31.93        30.9 0.42            133            146 258 
 TAM  HZ EP     D 2142  6.35                             130    0.19 9  157 105 
 OCA  HN ES       2142 28.20                             130   -0.26 9  158 354 
 OCA  HZ I        2142 32.36        21.3 0.22            133            158 354 
 SPBC HZ EP       2142  7.14                             129    0.34 9  164 218 
 SPBC HE ES       2142 28.69                             129   -0.50 9  164 218 
 SPBC HZ I        2142 37.27        27.7 0.22            131            164 218 
 NOR  HZ EP       2142 14.25                             119    0.33 8  234 234 
 NOR  HE ES       2142 41.89                             119    0.03 8  234 234 
 NOR  HZ I        2142 46.31        16.7 0.20            120            234 234 
 SML  HZ EP       2142 14.83                             118    0.24 8  241 335 
 SML  HE ES       2142 43.00                             118   -0.05 8  241 335 
 SML  HZ I        2142 52.31        31.3 0.26            120            241 335 
 ROSC BE ES       2142 46.97                             117    0.67 8  253 210 
 ROSC BZ I        2142 52.96        13.9 0.40            119            253 210 
 URE  HE ES       2142 50.37                             114   -0.56 7  281 292 
 URE  HZ I        2142 56.77        27.0 0.80            115            281 292 
 GUY2CHZ EP       2142 21.81                             112    0.04 7  301 234 
 GUY2CHN ES       2142 55.94                             112    0.11 7  301 234 
 GUY2CHZ I        2143  4.92        12.5 0.80                           301 234 
 RREF HZ EP       2142 23.36                             111   -0.96 7  322 229 
 RREF HN ES       2143  0.63                             111    0.25 7  322 229 
 RREF HZ I        2143  9.62        10.4 0.28            113            322 229 
 DBB  SZ EP       2142 25.75                             110    0.30 7  338 274 
 DBB  SZ ES       2143  2.40                             110    0.02 7  338 274 
 TOL  SZ EP   1   2142 25.90                             109   -0.55 5  344 224 
 TOL  SE ES       2143  4.18                             109    0.01 7  344 224 
 TOL  SZ I        2143  9.74         6.8 0.38            111            344 224 
 MON  HN ES       2143  4.47                             109   -0.48 6  351 308 
 MON  HZ I        2143  7.24         6.6 0.22            110            351 308 
 ANIL HN ES       2143  7.66                             109    0.74 6  357 224 
 ANIL HZ I        2143 13.27         2.4 0.24            110            357 224 
 SDV  BZ EP       2142 27.45                             108   -0.80 6  361  51 
 SDV  BE ES   4   2143  3.00                             108   -4.36 0  361  51 
 SDV  BZ I        2143  7.26         4.1 0.65            111            361  51 
                                                                                
