 2011  525 2311 21.0 L   6.808 -73.081141.8  RSN  6 0.2 1.7LRSN                1
 GAP=166        0.65       4.5     9.1  7.0  0.1505E+02 -0.3125E+02 -0.1233E+02E
 Epicentro: LOS SANTOS - SANTANDER                                             3
 ACTION:UP  11-06-29 08:56 OP:tino STATUS:               ID:20110525231121 L   I
 2011-05-25-2309-55S.COL___114                                                 6
 STAT SP IPHASW D HRMM SECON CODA AMPLIT PERI AZIMU VELO SNR AR TRES W  DIS CAZ7
 BTL  SZ EP       2311 40.38                             170     0.210   24 301 
 BTL  SZ ES   2   2311 55.07                             170    -0.1 5   24 301 
 BAR2 SZ EP       2311 40.25                             169     0.010   26 205 
 BAR2 SZ ES   1   2311 54.77                             169    -0.5 7   26 205 
 BAR2 SZ I        2311 57.59        11.3 0.16                            26 205 
 GIR2 SZ EP       2311 40.32                             166     0.110   32 338 
 BRR  HZ EP       2311 41.98                             150    -0.110   77 295 
 BRR  HN ES   1   2311 58.67                             150     0.1 7   77 295 
 BRR  HZ I        2312  0.77        16.8 0.18                            77 295 
 RUS  HZ EP       2311 44.19                             143    -0.310  101 180 
 RUS  HN ES   1   2312  3.18                             143     0.5 7  101 180 
 RUS  HZ I        2312  3.99         8.3 0.20                           101 180 
 GRA  SZ EP       2311 45.75                             137     0.110  123  14 
 GRA  SZ I        2312  6.93         4.3 0.26                           123  14 
                                                                                
