 2015  625 2025 29.3 L   6.809 -73.119144.6  RSN 20 0.5 2.6LRSN                1
 GAP=121        1.09       2.5     3.8  4.8 -0.2721E+01  0.5434E+01 -0.4171E+00E
 Epicentro: LOS SANTOS - SANTANDER                                             3
     138.0      78.0      78.0 18.0 10.0 42.0  0.0  0.1           RSN FPFIT    F
 ACTION:UPD 15-09-10 22:15 OP:cam  STATUS:               ID:20150625202529 L   I
 OLDACT:DUP 15-06-26 05:14 OP:stll STATUS:               ID:20150625201750d    3
 2015-06-25-2017-49M.COL___328                                                 6
 STAT SP IPHASW D HRMM SECON CODA AMPLIT PERI AZIMU VELO AIN AR TRES W  DIS CAZ7
 BAR2 EZ IP     C 2025 48.95                             170    0.1610 24.9 196 
 BAR2 EZ ES       2026  3.59                             170   -0.4310 24.9 196 
 BAR2 EZ I        2026  4.52        56.0 0.18            164           24.9 196 
 BRR  HZ IP     C 2025 50.88                             152    0.4710 73.3 297 
 BRR  HZ I        2025 51.03        68.2 0.24            142           73.3 297 
 BRR  HN ES       2026  7.73                             152    0.8210 73.3 297 
 PAM  SZ IP     D 2025 52.03                             151    0.8210 74.8  38 
 PAM  SZ I        2025 52.19       154.2 0.24            152           74.8  38 
 PAM  SN ES       2026  8.18                             151   -0.1410 74.8  38 
 RUS  HZ EP       2025 52.97                             143    0.0110  101 178 
 RUS  HE ES       2026 10.85                             143   -0.5910  101 178 
 RUS  HZ I        2026 12.14        26.7 0.22            142            101 178 
 OCA  HZ EP       2025 57.31                             129   -0.13 9  160 352 
 OCA  HN ES       2026 19.08                             129   -0.32 9  160 352 
 OCA  HZ I        2026 24.03       125.0 0.20            125            160 352 
 ZAR  HZ EP       2026  1.79                             122   -0.09 8  206 292 
 ZAR  HN ES       2026 27.53                             122    0.21 8  206 292 
 ZAR  HZ I        2026 35.79        41.6 0.38            116            206 292 
 NOR  HZ EP       2026  5.47                             118    0.22 8  238 235 
 NOR  HE ES       2026 33.60                             118    0.29 8  238 235 
 NOR  HZ I        2026 36.27        15.6 0.24            114            238 235 
 SML  HZ EP       2026  5.33                             117   -0.54 8  244 335 
 SML  HN ES       2026 33.79                             117   -0.63 8  244 335 
 SML  HZ I        2026 41.05        58.0 0.28            113            244 335 
 HEL  HZ EP       2026 10.32                             114    0.56 8  275 256 
 HEL  HN ES       2026 41.14                             114   -0.21 8  275 256 
 HEL  HZ I        2026 48.61        17.1 0.26            110            275 256 
 URE  HZ EP   4   2026  9.36                             113   -1.19 0  286 292 
 URE  HN ES   4   2026 41.13                             113   -1.61 0  286 292 
 URE  HZ I        2026 53.95        23.1 0.22            109            286 292 
 SOCV BZ EP     D 2026 12.10                             112    0.17 7  298  57 
 SOCV BN ES   4   2026 42.98                             112   -2.22 0  298  57 
 GUY2CHZ EP       2026 13.60                             112    0.44 7  304 235 
 GUY2CHN ES       2026 46.85                             112   -0.54 7  304 235 
 GUY2CHZ I        2026 56.45        10.7 0.70                           304 235 
 LL2C HZ EP       2026 12.75                             111    0.02 7  306 353 
 LL2C HE ES       2026 46.88                             111    0.26 7  306 353 
 PTGC HZ EP   4   2026 12.02                             111   -1.04 0  309 159 
 PTGC HN ES   4   2026 44.07                             111   -3.14 0  309 159 
 LL4C HE ES       2026 49.38                             110   -0.69 7  323 352 
 DBB  SZ EP     C 2026 17.08                             109    0.05 7  342 274 
 DBB  SZ I        2027  0.53        37.4 0.70            106            342 274 
 TOL  SZ EP       2026 17.48                             109   -0.31 6  346 225 
 TOL  SN ES       2026 55.74                             109    0.10 6  346 225 
 TOL  SZ I        2027  3.99         7.3 0.56            106            346 225 
 MON  HZ EP   9 C 2026 16.90                             108   -1.52 0  355 308 
 MON  HN ES       2026 55.22                                   -0.02 6  355 308 
 MON  HZ I        2027 12.32        10.7 0.70            105            355 308 
 PRA  HZ EP       2026 23.36                             106    0.34 6  394 210 
 PRA  HE ES       2027  3.16                             106   -1.78 6  394 210 
 PRA  HZ I        2027 10.79         7.4 0.30            104            394 210 
 ORTC HZ EP       2026 24.01                             106    0.57 6  398 216 
 ORTC HE ES       2027  6.22                             106    0.52 6  398 216 
 ORTC HZ I        2027 16.50         5.2 0.42            104            398 216 
 SJC  HZ EP       2026 23.96                             105   -0.93 6  410 327 
 SJC  HN ES   4   2027  3.53                             105   -4.74 0  410 327 
 SJC  HZ I        2027  9.04        13.3 0.38            103            410 327 
                                                                                
