 2016  725 2026  6.6 L   7.283 -74.015 22.0  RSN  5 0.5 1.3LRSN                1
 GAP=196        1.10       4.8     2.8  4.8  0.5611E+01 -0.2221E+01  0.2251E+01E
 Epicentro: PUERTO WILCHES - SANTANDER                                         3
 ACTION:UPD 17-03-29 16:55 OP:lp   STATUS:               ID:20160725202606 L   I
 OLDACT:REG 16-07-26 02:39 OP:dnl  STATUS:               ID:20160725201759     3
 2016-07-25-2017-59S.COL___334                                                 6
 STAT SP IPHASW D HRMM SECON CODA AMPLIT PERI AZIMU VELO AIN AR TRES W  DIS CAZ7
 BRR  HZ EP       2026 13.29                             118   -0.4610 38.7 120 
 BRR  HE ES       2026 19.83                             118    0.5310 38.7 120 
 BRR  HZ I        2026 20.31        20.5 0.22             47           38.7 120 
 PTB  HZ EP       2026 22.05                             102    0.0510 95.7 211 
 PTB  HE ES       2026 33.84                             102   -0.1510 95.7 211 
 PTB  HZ I        2026 34.62         7.5 0.50             47           95.7 211 
 ZAR  HZ EP       2026 21.41                             102   -0.6210 95.9 284 
 ZAR  HN ES       2026 34.62                             102    0.5710 95.9 284 
 ZAR  HZ I        2026 36.71         7.0 0.30             47           95.9 284 
 BAR2 EZ EP   2   2026 25.76                              56    0.18 5  120 130 
 BAR2 EZ ES       2026 40.03                              56   -0.3310  120 130 
 BAR2 EZ I        2026 40.71         6.6 0.16             47            120 130 
 RUS  HZ EP   2   2026 35.03                              56    0.95 4  185 146 
 RUS  HN ES   2   2026 56.42                              56    0.93 4  185 146 
 RUS  HZ I        2026 59.17         4.8 0.44             47            185 146 
                                                                                
