 2016 1225 2335 24.4 L   6.819 -73.118143.5  RSN 32 0.6 3.1LRSN                1
 GAP= 67        1.03       2.6     2.8  4.3 -0.6714E+00  0.4034E+01  0.8666E+00E
 Epicentro: LOS SANTOS - SANTANDER                                             3
 ACTION:UPD 17-01-11 20:19 OP:rebc STATUS:               ID:20161225233524 L   I
 OLDACT:UP  16-12-26 05:48 OP:and  STATUS:               ID:20161225232746     3
 OLDACT:UP  16-12-26 05:46 OP:and  STATUS:               ID:20161225232746     3
 OLDACT:UP  16-12-26 05:44 OP:and  STATUS:               ID:20161225232746     3
 OLDACT:UP  16-12-26 05:40 OP:and  STATUS:               ID:20161225232746     3
 OLDACT:UP  16-12-26 05:39 OP:and  STATUS:               ID:20161225232746     3
 OLDACT:UP  16-12-26 05:38 OP:and  STATUS:               ID:20161225232746     3
 OLDACT:UP  16-12-26 05:36 OP:and  STATUS:               ID:20161225232746     3
 OLDACT:UP  16-12-26 05:35 OP:and  STATUS:               ID:20161225232746     3
 OLDACT:UP  16-12-26 05:32 OP:and  STATUS:               ID:20161225232746     3
 OLDACT:REG 16-12-26 03:29 OP:and  STATUS:               ID:20161225232746     3
 2016-12-25-2328-00M.COL___378                                                 6
 STAT SP IPHASW D HRMM SECON CODA AMPLIT PERI AZIMU VELO AIN AR TRES W  DIS CAZ7
 BAR2 EZ EP       2335 43.76                             169   -0.0610 26.0 196 
 BAR2 HN ES       2335 58.59                             169   -0.3710 26.0 196 
 BAR2 EZ I        2335 59.36       266.9 0.34            165           26.0 196 
 BRR  HZ IP     D 2335 45.50                             151    0.0910 73.0 296 
 BRR  HE ES       2336  2.26                             151    0.4710 73.0 296 
 BRR  HZ I        2336  6.44       317.1 0.14            148           73.0 296 
 PAM  EZ IP     D 2335 46.44                             152    0.2710 73.9  39 
 PAM  EN ES       2336  3.05                             152   -0.1010 73.9  39 
 PAM  EZ I        2336  5.42       356.2 0.50            155           73.9  39 
 RUS  HZ EP       2335 47.76                             143   -0.3110  102 178 
 RUS  HN ES       2336  6.13                             143   -0.4010  102 178 
 RUS  HZ I        2336  8.05       216.4 0.24            140            102 178 
 PTB  HZ EP       2335 50.61                             131   -0.89 9  151 258 
 PTB  HN ES       2336 12.10                             131   -0.53 9  151 258 
 PTB  HZ I        2336 16.74       148.1 0.19            127            151 258 
 TAM  HZ IP     C 2335 52.15                             130    0.47 9  153 106 
 TAM  HE ES       2336 13.24                             130    0.28 9  153 106 
 TAM  HZ I        2336 14.16        93.2 0.27            132            153 106 
 ZAR  HZ EP       2335 56.30                             122   -0.61 8  206 291 
 ZAR  HE ES       2336 22.50                             122    0.23 8  206 291 
 ZAR  HZ I        2336 28.14       173.5 0.13            119            206 291 
 CHI  HZ EP       2336  2.09                             116   -0.19 8  251 196 
 CHI  HN ES       2336 30.92                             116   -0.90 8  251 196 
 CHI  HZ I        2336 34.72        45.9 0.31            115            251 196 
 ROSC BZ EP       2336  3.44                             116    0.68 8  256 211 
 ROSC BN ES       2336 33.96                             116    1.27 8  256 211 
 ROSC BZ I        2336 41.21       104.1 0.35            114            256 211 
 URE  HZ EP   4   2336  3.82                             113   -1.77 0  286 291 
 URE  HE ES   4   2336 35.36                             113   -2.36 0  286 291 
 URE  HZ I        2336 44.20        91.6 0.24            111            286 291 
 LL1C HZ EP       2336  8.19                             111    0.47 7  305 351 
 LL1C HN ES   4   2336 43.88                             111    2.38 0  305 351 
 GUY2CHZ EP       2336  8.40                             112    0.08 7  305 235 
 GUY2CHE ES       2336 43.02                             112    0.44 7  305 235 
 GUY2CHZ I        2336 49.14        54.7 0.33                           305 235 
 PTGC HZ EP   2   2336  7.03                             111   -1.22 4  310 159 
 PTGC HE ES   4   2336 39.82                             111   -2.64 0  310 159 
 PTGC HZ I        2336 44.10        79.2 0.22            110            310 159 
 LL6C HZ EP   9   2335 48.68                             110   -21.1 0  323 357 
 LL6C HZ ES       2336 24.39                                    0.31 7  323 357 
 LL6C HZ I        2336 36.49        21.0 0.33            110            323 357 
 ELA  HZ EP   4   2336 13.66                             110    2.08 0  333 230 
 ELA  HN ES       2336 49.37                             110    1.00 7  333 230 
 ELA  HZ I        2337  2.89        48.0 0.45            108            333 230 
 CBOC HZ EP       2336 11.73                             109    0.10 7  337 252 
 CBOC HE ES       2336 48.35                             109   -0.12 7  337 252 
 CBOC HZ I        2336 53.22        29.6 0.27            108            337 252 
 DBB  EZ EP       2336 11.69                             109   -0.43 7  342 274 
 DBB  EN ES   4   2336 46.66                             109   -2.68 0  342 274 
 DBB  EZ I        2336 54.27        35.1 0.20            108            342 274 
 ARGC HZ EP       2336 14.43                             108    0.56 6  358 340 
 ARGC HE ES       2336 52.77                             108    0.32 6  358 340 
 ARGC HZ I        2337  0.50        25.9 0.24            107            358 340 
 ANIL HZ EP       2336 15.29                             108    0.75 6  361 225 
 ANIL HE ES   4   2336 55.79                             108    2.15 0  361 225 
 ANIL HZ I        2337  2.75       112.1 0.32            107            361 225 
 ORTC HZ EP       2336 18.62                             106   -0.03 6  399 216 
 ORTC HN ES       2337  1.53                             106    0.57 6  399 216 
 ORTC HZ I        2337  8.79        40.1 0.36            105            399 216 
 APAC HZ IP     C 2336 17.98                             106   -0.80 6  401 288 
 APAC HE ES   2   2337  1.43                             106    0.23 3  401 288 
 APAC HZ I        2337  9.76        18.7 0.32            105            401 288 
 SJC  HZ EP   4   2336 17.80                             105   -2.08 0  409 326 
 SJC  HN ES   4   2336 59.14                             105   -4.02 0  409 326 
 SJC  HZ I        2337  3.07        55.6 0.40            105            409 326 
 PAL  HZ EP       2336 19.81                             105   -0.11 6  409 239 
 PAL  HN ES       2337  2.97                             105   -0.25 6  409 239 
 PAL  HZ I        2337  4.42        28.6 0.38            104            409 239 
 CRJC HZ EP   3   2336 24.14                             103   -2.43 1  465   3 
 CRJC HN ES   4   2337  9.61                             103   -5.46 0  465   3 
 CRJC HZ I        2337 16.82        26.8 0.38            103            465   3 
 YOT  HZ EP   2   2336 27.09                             103   -0.73 2  476 229 
 YOT  HN ES       2337 17.72                             103    0.44 5  476 229 
 YOT  HZ I        2337 23.96         6.3 0.34            102            476 229 
 SMAR HZ EP       2336 29.38                             102   -0.69 4  496 346 
 SMAR HN ES   4   2337 17.67                             102   -3.61 0  496 346 
 PTA  HZ EP       2336 31.82                             101   -1.08 4  520 274 
 MACC HZ EP   4   2336 31.20                             101   -2.16 0  523 189 
 MACC HN ES   4   2337 23.50                             101   -3.64 0  523 189 
 MACC HZ I        2337 29.98        19.1 0.62            101            523 189 
 URI  HZ EP   4   2336 34.47                             100   -2.56 0  554  13 
 URI  HE ES   4   2337 30.21                             100   -3.48 0  554  13 
 GARC HZ EP   3   2336 38.35                             100   -1.64 1  576 207 
 GARC HN ES   4   2337 35.34                             100   -3.61 0  576 207 
 GARC HZ I        2337 41.89        27.3 0.29             99            576 207 
 CONO HZ EP       2336 45.26                              99    0.11 3  616 216 
 CONO HE ES   4   2337 51.75                              99    3.63 0  616 216 
 FLO2 HZ EP       2336 47.03                              98   -0.84 2  644 206 
 SOTO HZ EP       2336 48.97                              98    0.17 2  647 217 
                                                                                
