 2012  125 2034 58.3 L   6.759 -73.110155.6  RSN  7 0.3 2.0LRSN                1
 GAP=143        0.61       5.2     4.0  6.3 -0.8211E+00 -0.8615E-01  0.3570E+01E
 Epicentro: LOS SANTOS - SANTANDER                                             3
 ACTION:UP  12-02-03 08:20 OP:REBC STATUS:               ID:20120125203458 L   I
 2012-01-25-2030-00M.COL___188                                                 6
 STAT SP IPHASW D HRMM SECON CODA AMPLIT PERI AZIMU VELO SNR AR TRES W  DIS CAZ7
 BAR2 SZ EP   1   2035 19.03                             172     0.0 7   20 203 
 BAR2 SZ I        2035 19.36        11.7 0.37                            20 203 
 GIR2 SZ EP   1   2035 19.27                             166     0.0 7   36 345 
 GIR2 SZ ES   2   2035 35.02                             166    -0.6 5   36 345 
 BRR  HZ EP   1   2035 20.95                             152     0.1 7   77 300 
 BRR  HZ I        2035 21.92        24.4 0.33                            77 300 
 BRR  HN ES   1   2035 38.96                             152     0.5 7   77 300 
 PAM  SZ EP       2035 21.82                             152     0.210   79  35 
 PAM  SE ES   2   2035 39.29                             152    -0.6 5   79  35 
 RUS  HZ EP   1   2035 22.88                             147     0.2 7   96 178 
 RUS  HN ES   2   2035 41.85                             147     0.1 5   96 178 
 PTB  HZ EP   1   2035 26.15                             134    -0.2 7  151 261 
 PTB  HE ES   1   2035 47.98                             134    -0.3 7  151 261 
 ZAR  HZ EP   1   2035 31.70                             124    -0.3 6  209 293 
 ZAR  HE ES   2   2035 58.32                             124     0.1 4  209 293 
 ZAR  HZ I        2036  3.48         8.8 0.37                           209 293 
                                                                                
