 2017  325 2351 48.4 L   6.805 -73.185142.7  RSN  4 0.3 1.1LRSN                1
 GAP=131        0.73       3.9     3.4  8.0 -0.2041E+00  0.8913E+01 -0.2468E+00E
 Epicentro: ZAPATOCA - SANTANDER                                               3
 *PAM-RUS                                                                      3
 ACTION:UPD 17-05-25 18:45 OP:jn   STATUS:               ID:20170325235148 L   I
 OLDACT:DUP 17-03-26 03:31 OP:cara STATUS:               ID:20170325233712d    3
 2017-03-25-2348-00M.COL___367                                                 6
 STAT SP IPHASW D HRMM SECON CODA AMPLIT PERI AZIMU VELO AIN AR TRES W  DIS CAZ7
 PAM  EZ EP       2352 10.68                             149    0.2310 79.8  42 
 PAM  EN ES       2352 27.41                             149   -0.2310 79.8  42 
 PAM  EZ I        2352 31.00         2.4 0.50            151           79.8  42 
 RUS  HZ EP       2352 11.90                             143   -0.0410  102 174 
 RUS  HN ES       2352 30.53                             143    0.2510  102 174 
 RUS  HZ I        2352 31.65         1.0 0.18            146            102 174 
 PTB  HZ EP       2352 14.41                             132   -0.34 9  144 258 
 PTB  HN ES       2352 35.02                             132   -0.28 9  144 258 
 PTB  HZ I        2352 36.69         2.4 0.12            135            144 258 
 ZAR  HN ES       2352 45.49                             122    0.46 9  200 292 
                                                                                
