 2011  725 2110 58.3 L   7.301 -73.688 10.2  RSN  5 0.3 1.5LRSN                1
 GAP=230        0.66       3.0     5.0  4.8 -0.1095E+02 -0.6277E+01  0.3311E+01E
 Epicentro: SABANA DE TORRES - SANTANDER                                       3
 ACTION:UPD 12-07-25 14:03 OP:epov STATUS:               ID:20110725211058 L   I
 2011-07-25-2104-55S.COL___143                                                 6
 STAT SP IPHASW D HRMM SECON CODA AMPLIT PERI AZIMU VELO AIN AR TRES W  DIS CAZ7
 BRR  HZ EP   1   2111  1.82                             109   -0.55 7 21.6 187 
 BRR  HE ES   1   2111  5.86                             109    0.34 7 21.6 187 
 BRR  HZ I        2111  6.04        37.2 0.13                          21.6 187 
 BAR2 SZ EP   1   2111 14.31                              94    0.51 7 96.3 144 
 BAR2 SZ ES   1   2111 25.59                              94   -0.28 7 96.3 144 
 BAR2 SZ I        2111 27.16         7.1 0.23                          96.3 144 
 BRI  SZ EP   1   2111 15.27                              93   -0.33 7  109  65 
 BRI  SZ ES   1   2111 28.93                              93   -0.13 7  109  65 
 BRI  SZ I        2111 31.73        13.4 0.25                           109  65 
 GRA  SZ EP   1   2111 17.10                              93    0.25 7  117  56 
 GRA  SZ ES   1   2111 31.48                              93    0.19 7  117  56 
 GRA  SZ I        2111 32.90        25.7 0.32                           117  56 
 RUS  HZ EP   1   2111 24.79                              56   -0.06 7  170 157 
 RUS  HE ES   1   2111 45.58                              56    0.06 7  170 157 
 RUS  HZ I        2111 47.62         6.3 0.33                           170 157 
                                                                                
