 2017  725 2353 24.7 L   6.711 -73.168149.4  RSN  6 0.2 1.8LRSN                1
 GAP=211        0.61       4.2     4.3  3.9  0.1320E+02  0.1451E+01  0.1624E+01E
 Epicentro: VILLANUEVA - SANTANDER                                             3
 ACTION:UPD 17-08-30 15:36 OP:rebc STATUS:               ID:20170725235324 L   I
 OLDACT:REG 17-07-26 04:50 OP:lv   STATUS:               ID:20170725234747     3
 2017-07-25-2348-00M.COL___395                                                 6
 STAT SP IPHASW D HRMM SECON CODA AMPLIT PERI AZIMU VELO AIN AR TRES W  DIS CAZ7
 BAR2 EZ EP       2353 44.73                             175    0.1010 13.2 187 
 BAR2 EZ ES       2353 59.68                             175   -0.4810 13.2 187 
 BRR  HZ EP       2353 46.53                             152    0.0910 74.4 306 
 BRR  HN ES       2354  3.67                             152    0.2910 74.4 306 
 BRR  HZ I        2354  7.64        15.4 0.16            151           74.4 306 
 RUS  HN ES       2354  6.75                             147    0.2910 91.0 174 
 PTB  HZ EP       2353 51.81                             134    0.18 9  144 263 
 PTB  HN ES       2354 12.48                             134   -0.14 9  144 263 
 ZAR  HZ EP       2353 57.39                             123   -0.18 8  206 295 
 ZAR  HE ES       2354 23.08                             123   -0.12 8  206 295 
 ZAR  HZ I        2354 28.56         4.5 0.46            123            206 295 
 PTGC HZ EP       2354  7.65                             113   -0.16 7  300 158 
 PTGC HN ES       2354 41.34                             113   -0.08 7  300 158 
                                                                                
