 2010  425 2133 15.8 L   6.906 -73.140148.9  RSN  5 0.2 2.1LRSN                1
 GAP=267        0.52       6.7     6.6  6.0 -0.2925E+02 -0.1663E+02  0.1950E+02E
 Epicentro: PIEDECUESTA - SANTANDER                                            3
 ACTION:UPD 10-08-24 10:01 OP:vdl  STATUS:               ID:20100425213315 L   I
 2010-04-25-2128-34S.COL___104                                                 6
 STAT SP IPHASW D HRMM SECON CODA AMPLIT PERI AZIMU VELO AIN AR TRES W  DIS CAZ7
 BRR  HZ EP       2133 37.01                             154    -0.110   67 289 
 BRR  HZ I        2133 37.44        18.3 0.13                            67 289 
 BRR  HE ES   1   2133 53.76                             154     0.1 7   67 289 
 BRI  SZ EP       2133 39.32                             145     0.110   97  23 
 BRI  SZ ES   2   2133 57.84                             145     0.4 5   97  23 
 GUE  SZ EP       2133 39.66                             143    -0.310  105  13 
 GUE  SZ ES   2   2133 58.18                             143    -0.6 5  105  13 
 GRA  SZ EP       2133 40.53                             140     0.110  114  19 
 GRA  SZ ES       2133 59.66                             140     0.010  114  19 
 OCA  SZ EP       2133 43.48                             133     0.2 9  149 352 
 OCA  SZ ES   1   2134  4.74                             133     0.0 7  149 352 
 OCA  SZ I        2134  9.82        16.8 0.36                           149 352 
                                                                                
