 2011  325 2133  4.7 L   6.731 -73.103147.9  RSN  9 0.3 2.0LRSN                1
 GAP=163        0.50       3.8     3.9  5.1 -0.9411E+01  0.1123E+01  0.6691E+01E
 Epicentro: JORDAN - SANTANDER                                                 3
 ACTION:UP  11-06-16 14:35 OP:jfem STATUS:               ID:20110325213304 L   I
 2011-03-25-2131-27S.COL___136                                                 6
 STAT SP IPHASW D HRMM SECON CODA AMPLIT PERI AZIMU VELO SNR AR TRES W  DIS CAZ7
 BAR2 SZ EP   1   2133 24.21                             173    -0.2 7   18 210 
 BAR2 SZ ES   2   2133 40.13                             173     0.2 5   18 210 
 BAR2 SZ I        2133 42.16        25.9 0.30                            18 210 
 BRR  HZ EP   2   2133 26.23                             150    -0.3 5   79 302 
 BRR  HN ES   1   2133 43.53                             150     0.0 7   79 302 
 BRR  HZ I        2133 46.58        25.4 0.24                            79 302 
 PAM  SZ EP   1   2133 27.13                             150    -0.2 7   81  33 
 PAM  SZ I        2133 27.45         9.3 0.20                            81  33 
 PAM  SN ES   1   2133 44.75                             150    -0.2 7   81  33 
 GRA  SZ EP   1   2133 30.94                             136     0.3 7  132  15 
 GRA  SZ ES   1   2133 51.15                             136     0.3 7  132  15 
 GRA  SZ I        2133 52.05        10.6 0.41                           132  15 
 NOR  SN ES   1   2134  8.17                             119    -0.3 6  234 237 
 CHI  HZ EP   3   2133 41.91                             118     0.1 2  243 197 
 CHI  HE ES   2   2134 10.90                             118     0.1 4  243 197 
 CHI  HZ I        2134 16.96         7.0 0.31                           243 197 
 HEL  HZ EP   1   2133 44.97                             115    -0.3 6  275 258 
 HEL  HN ES   1   2134 17.09                             115     0.1 6  275 258 
 HEL  HZ I        2134 23.28         6.3 0.46                           275 258 
 RREF HZ EP   1   2133 50.87                             111     0.1 5  320 231 
 RREF HN ES   1   2134 27.08                             111     0.4 5  320 231 
 RREF HZ I        2134 35.56         6.4 0.51                           320 231 
 PRA  HZ EP   3   2133 58.71                             107     0.9 1  388 211 
 PRA  HE ES   2   2134 39.67                             107     0.5 3  388 211 
                                                                                
