 2016  325 2141 38.6 L   6.856 -73.150142.4  RSN 13 0.5 1.9LRSN                1
 GAP= 69        1.09       3.3     3.4  6.2 -0.7713E+00  0.7176E+01  0.1862E+01E
 Epicentro: LOS SANTOS - SANTANDER                                             3
 ACTION:UPD 16-05-13 21:27 OP:cam  STATUS:               ID:20160325214138 L   I
 OLDACT:UP  16-03-26 09:33 OP:mh   STATUS:               ID:20160325213746     3
 OLDACT:UP  16-03-26 08:12 OP:mh   STATUS:               ID:20160325213746     3
 OLDACT:UP  16-03-26 08:12 OP:mh   STATUS:               ID:20160325213746     3
 OLDACT:UP  16-03-26 07:11 OP:mh   STATUS:               ID:20160325213746     3
 OLDACT:UP  16-03-26 07:10 OP:mh   STATUS:               ID:20160325213746     3
 OLDACT:UP  16-03-26 07:05 OP:mh   STATUS:               ID:20160325213746     3
 OLDACT:REG 16-03-26 03:38 OP:mh   STATUS:               ID:20160325213746     3
 2016-03-25-2137-46M.COL___298                                                 6
 STAT SP IPHASW D HRMM SECON CODA AMPLIT PERI AZIMU VELO AIN AR TRES W  DIS CAZ7
 BAR2 EZ ES       2142 12.86                             168   -0.1810 29.3 187 
 BAR2 EZ I        2142 16.42        12.1 0.12            167           29.3 187 
 PAM  EZ EP       2142  0.41                             151    0.2310 73.1  43 
 PAM  EN ES       2142 17.44                             151    0.4110 73.1  43 
 PAM  EZ I        2142 19.28        13.1 0.56            156           73.1  43 
 RUS  HZ EP       2142  2.20                             141   -0.2610  107 176 
 RUS  HN ES       2142 21.00                             141   -0.0810  107 176 
 PTB  HZ EP       2142  4.56                             131   -0.79 9  149 256 
 PTB  HN ES       2142 25.98                             131   -0.24 9  149 256 
 PTB  HZ I        2142 28.29        10.3 0.16            132            149 256 
 OCA  HZ EP   1   2142  4.51                             130   -1.54 7  154 353 
 OCA  HN ES       2142 27.51                             130    0.04 9  154 353 
 OCA  HZ I        2142 30.62        21.1 0.26            133            154 353 
 TAM  HZ EP   1   2142  6.02                             129   -0.18 7  157 107 
 TAM  HN ES       2142 27.85                             129    0.11 9  157 107 
 SPBC HZ EP       2142  7.45                             127    0.20 9  168 218 
 SPBC HN ES   1   2142 30.03                             127    0.41 7  168 218 
 SPBC HZ I        2142 35.15         8.6 0.25            129            168 218 
 ZAR  HZ EP       2142 11.17                             122    0.65 9  201 291 
 ZAR  HE ES       2142 35.70                             122    0.26 9  201 291 
 ZAR  HZ I        2142 41.15        12.1 0.49            124            201 291 
 NOR  HZ EP       2142 14.70                             117    0.24 8  238 233 
 NOR  HN ES       2142 42.09                             117   -0.36 8  238 233 
 NOR  HZ I        2142 44.62         5.9 0.10            119            238 233 
 CHI  HZ EP       2142 16.34                             116   -0.39 8  254 195 
 CHI  HN ES       2142 46.96                             116    0.48 8  254 195 
 CHI  HZ I        2142 51.80         3.5 0.36            118            254 195 
 HEL  HZ EP   4   2142 20.93                             114    2.19 0  273 255 
 HEL  HN ES   1   2142 49.56                             114   -0.51 6  273 255 
 HEL  HZ I        2142 56.78         4.8 0.52            116            273 255 
 URE  HZ EP   1   2142 20.02                             113    0.84 6  281 291 
 URE  HN ES   4   2142 47.96                             113   -2.89 0  281 291 
 URE  HZ I        2142 50.44         5.6 0.12            115            281 291 
 GUY2CHZ EP       2142 23.14                             111    0.75 7  304 234 
 GUY2CHN ES   4   2142 57.98                             111    1.42 0  304 234 
 GUY2CHZ I        2143  6.38         4.6 0.40                           304 234 
 DBB  SZ ES   4   2143  0.81                             109   -1.85 0  339 273 
                                                                                
