 2012  825 2037 47.2 L   6.798 -73.167150.8  RSN  6 0.3 1.2LRSN                1
 GAP=134        0.66       5.0     4.4  8.2  0.5080E+01  0.1014E+02  0.9746E+01E
 Epicentro: LOS SANTOS - SANTANDER                                             3
 ACTION:UPD 12-09-10 11:58 OP:ep   STATUS:               ID:20120825203747 L   I
 2012-08-25-2030-00M.COL___218                                                 6
 STAT SP IPHASW D HRMM SECON CODA AMPLIT PERI AZIMU VELO AIN AR TRES W  DIS CAZ7
 BAR2 SZ EP   1   2038  7.42                             171   -0.02 7 22.9 184 
 BRR  HZ EP   1   2038  9.19                             154    0.39 7 69.2 300 
 BRR  HN ES   1   2038 26.15                             154    0.52 7 69.2 300 
 BRR  HZ I        2038 27.64         4.9 0.22                          69.2 300 
 PAM  SN ES   1   2038 27.45                             151   -0.44 7 79.1  41 
 PAM  SZ I        2038 29.01         2.4 0.10                          79.1  41 
 RUS  HZ EP   1   2038 11.60                             145    0.14 7  101 175 
 RUS  HN ES   1   2038 30.44                             145    0.06 7  101 175 
 RUS  HZ I        2038 31.44         1.6 0.19                           101 175 
 PTB  HZ EP   1   2038 14.15                             134   -0.23 7  145 259 
 PTB  HN ES   1   2038 35.07                             134   -0.50 7  145 259 
 PTB  HZ I        2038 37.97         2.0 0.15                           145 259 
 ZAR  HN ES   1   2038 45.15                             124   -0.01 6  202 292 
                                                                                
