 2014  225 2329 49.3 L   6.799 -73.134145.0  RSN 17 0.5 2.2LRSN                1
 GAP= 72        1.11       2.5     3.0  5.0 -0.9465E+00  0.3920E+01  0.5277E+00E
 Epicentro: LOS SANTOS - SANTANDER                                             3
 ACTION:UPD 14-03-10 08:13 OP:ep   STATUS:               ID:20140225232949 L   I
 OLDACT:REG 14-02-26 00:43 OP:carl STATUS:               ID:20140225232943     3
 2014-02-25-2329-43M.COL___245                                                 6
 STAT SP IPHASW D HRMM SECON CODA AMPLIT PERI AZIMU VELO AIN AR TRES W  DIS CAZ7
 BAR2 SZ EP       2330  9.03                             170    0.2010 23.5 193 
 BAR2 SZ ES       2330 23.16                             170   -0.9110 23.5 193 
 BAR2 SZ I        2330 26.67        53.5 0.38            170           23.5 193 
 BRR  HZ EP       2330 10.90                             152    0.4810 72.4 298 
 BRR  HN ES       2330 27.69                             152    0.7910 72.4 298 
 BRR  HZ I        2330 31.31        14.6 0.38            152           72.4 298 
 PAM  SZ EP       2330 11.75                             151    0.3810 76.6  39 
 PAM  SN ES       2330 29.19                             151    0.5910 76.6  39 
 PAM  SZ I        2330 31.03        27.3 0.52            150           76.6  39 
 RUS  HZ EP       2330 12.84                             144   -0.1110  100 177 
 RUS  HN ES       2330 31.80                             144    0.4010  100 177 
 RUS  HZ I        2330 33.19        17.6 0.24            142            100 177 
 PTB  HZ EP       2330 15.82                             132   -0.49 9  149 259 
 PTB  HN ES       2330 36.81                             132   -0.57 9  149 259 
 PTB  HZ I        2330 42.94        16.6 0.42            131            149 259 
 TAM  HZ EP       2330 17.17                             131    0.39 9  154 105 
 TAM  HZ I        2330 37.82        10.6 0.32            129            154 105 
 TAM  HN ES       2330 37.88                             131   -0.34 9  154 105 
 OCA  HE ES       2330 39.33                             129   -0.28 9  161 353 
 OCA  HZ I        2330 43.71        25.6 0.34            129            161 353 
 SPBC HZ EP       2330 17.96                             129    0.16 9  164 219 
 SPBC HN ES       2330 39.57                             129   -0.47 9  164 219 
 SPBC HZ I        2330 42.69        30.1 0.18            128            164 219 
 ZAR  HZ EP       2330 21.61                             122   -0.20 8  205 292 
 ZAR  HN ES       2330 47.47                             122    0.29 8  205 292 
 ZAR  HZ I        2330 53.14        15.9 0.32            121            205 292 
 NOR  HZ EP       2330 24.96                             118   -0.12 8  236 235 
 NOR  HN ES       2330 53.22                             118    0.22 8  236 235 
 NOR  HZ I        2330 56.36        18.9 0.20            117            236 235 
 SML  HZ EP       2330 25.59                             117   -0.35 8  244 335 
 SML  HN ES       2330 53.53                             117   -0.99 8  244 335 
 SML  HZ I        2330 58.97        18.0 0.10            117            244 335 
 CHI  HZ EP       2330 26.98                             117    0.01 8  249 195 
 CHI  HN ES       2330 55.78                             117   -0.58 8  249 195 
 CHI  HZ I        2331  4.56         6.4 0.38            116            249 195 
 HEL  HZ EP       2330 30.25                             114    0.65 8  273 256 
 HEL  HN ES       2331  1.07                             114    0.03 8  273 256 
 HEL  HZ I        2331  9.42         9.6 0.40            114            273 256 
 URE  HN ES   4   2331  0.25                             113   -2.33 0  285 292 
 GUY2CHZ EP   1   2330 33.27                             112    0.29 5  302 235 
 GUY2CHN ES       2331  7.91                             112    0.86 7  302 235 
 GUY2CHZ I        2331 13.83         9.6 0.30                           302 235 
 CBOC HZ EP       2330 36.63                             110    0.32 7  335 252 
 CBOC HN ES       2331 13.09                             110    0.10 7  335 252 
 CBOC HZ I        2331 19.34         2.1 0.22            109            335 252 
 COD  HZ EP       2330 37.19                             109   -0.46 6  348 354 
 COD  HE ES       2331 15.40                             109    0.02 6  348 354 
 PRA  HZ EP       2330 42.51                             106   -0.34 6  393 210 
 PRA  HE ES       2331 24.13                             106   -0.49 6  393 210 
 PRA  HZ I        2331 33.17         6.0 0.60            106            393 210 
                                                                                
