 2016  925 2305 31.6 L   6.712 -73.259150.7  RSN  4 0.4 1.1LRSN                1
 GAP=196        0.95       7.7     7.5  8.0  0.2996E+02  0.1311E+02  0.7763E+01E
 Epicentro: GALAN - SANTANDER                                                  3
 ACTION:UPD 17-08-17 21:16 OP:lp   STATUS:               ID:20160925230531 L   I
 OLDACT:UP  16-09-26 04:42 OP:lv   STATUS:               ID:20160925225745d    3
 2016-09-25-2258-00M.COL___327                                                 6
 STAT SP IPHASW D HRMM SECON CODA AMPLIT PERI AZIMU VELO AIN AR TRES W  DIS CAZ7
 BAR2 EZ ES       23 6  6.83                             174   -0.5710 15.7 147 
 BRR  HZ EP       23 5 53.27                             155    0.2210 66.5 311 
 BRR  HN ES       23 6 10.08                             155    0.3110 66.5 311 
 RUS  HZ EP       23 5 55.55                             147    0.2410 92.6 168 
 RUS  HE ES       23 6 14.03                             147    0.2310 92.6 168 
 RUS  HZ I        23 6 15.78         1.8 0.32            146           92.6 168 
 PTB  HZ EP       23 5 57.19                             136   -0.5910  134 262 
 PTB  HN ES       23 6 18.31                             136    0.1210  134 262 
 PTB  HZ I        23 6 20.41         1.6 0.28            135            134 262 
                                                                                
