 2015 1025 2241 27.7 L   6.806 -73.165140.0  RSN  6 0.4 1.5LRSN                1
 GAP=134        0.87       3.1     4.5  8.4 -0.2080E+01  0.2236E+02 -0.2072E+01E
 Epicentro: LOS SANTOS - SANTANDER                                             3
 ACTION:UPD 15-12-22 20:43 OP:cam  STATUS:               ID:20151025224127 L   I
 OLDACT:UP  15-10-26 08:33 OP:ak   STATUS:               ID:20151025223747     3
 OLDACT:REG 15-10-26 04:16 OP:ak   STATUS:               ID:20151025223747     3
 2015-10-25-2237-47M.COL___310                                                 6
 STAT SP IPHASW D HRMM SECON CODA AMPLIT PERI AZIMU VELO AIN AR TRES W  DIS CAZ7
 PAM  EZ EP       2241 49.59                             149    0.2510 78.2  41 
 PAM  EN ES       2242  6.36                             149    0.1310 78.2  41 
 PAM  EZ I        2242  8.37         8.8 0.42            154           78.2  41 
 RUS  HZ EP       2241 50.66                             142   -0.2710  101 175 
 RUS  HE ES       2242  9.05                             142   -0.0210  101 175 
 RUS  HZ I        2242 11.05         5.4 0.28            147            101 175 
 ZAR  HZ EP       2241 59.96                             121    0.44 9  202 292 
 ZAR  HN ES       2242 24.70                             121    0.35 9  202 292 
 ZAR  HZ I        2242 30.93         3.7 0.30            124            202 292 
 NOR  HZ EP       2242  2.61                             117   -0.32 8  233 234 
 NOR  HE ES       2242 29.94                             117   -0.49 8  233 234 
 NOR  HZ I        2242 32.96         2.0 0.15            121            233 234 
 SML  HZ EP   1   2242  3.70                             116   -0.12 6  242 336 
 SML  HN ES       2242 31.24                             116   -0.76 8  242 336 
 GUY2CHZ EP   1   2242 11.62                             111    0.75 5  300 234 
 GUY2CHN ES       2242 44.90                             111    0.34 7  300 234 
 GUY2CHZ I        2242 57.40         1.3 0.68                           300 234 
                                                                                
