 2011  525 2115 14.5 L   6.789 -73.111147.5  RSN 17 0.5 2.7LRSN                1
 GAP=141        1.00       4.6     6.8  6.2 -0.1601E+02  0.9786E+01  0.3494E+01E
 Epicentro: LOS SANTOS - SANTANDER                                             3
 ACTION:UP  11-06-29 08:56 OP:tino STATUS:               ID:20110525211514 L   I
 2011-05-25-2112-58S.COL___115                                                 6
 STAT SP IPHASW D HRMM SECON CODA AMPLIT PERI AZIMU VELO SNR AR TRES W  DIS CAZ7
 BTL  SZ EP       2115 34.51                             171     0.210   22 310 
 BAR2 SZ EP       2115 34.24                             171    -0.110   23 200 
 BAR2 SZ ES   2   2115 49.47                             171    -0.4 5   23 200 
 BAR2 SZ I        2115 51.08        52.2 0.19                            23 200 
 GIR2 SZ EP       2115 34.24                             167    -0.210   33 344 
 GIR2 SZ ES   1   2115 49.57                             167    -0.4 7   33 344 
 BRR  HZ IP     C 2115 36.16                             152     0.110   75 298 
 BRR  HZ I        2115 36.62       124.6 0.10                            75 298 
 BRR  HN ES   1   2115 53.78                             152     0.9 7   75 298 
 PAM  SZ EP       2115 37.06                             152     0.210   76  37 
 PAM  SN ES   1   2115 54.45                             152     0.2 7   76  37 
 RUS  HZ EP       2115 38.25                             145    -0.110   99 178 
 RUS  HN ES   1   2115 57.17                             145     0.2 7   99 178 
 RUS  HZ I        2115 57.87        30.0 0.32                            99 178 
 BRI  SZ EP       2115 38.82                             142     0.310  108  19 
 BRI  SZ ES   2   2115 56.52                             142    -0.8 5  108  19 
 GRA  SZ IP       2115 40.06                             137     0.110  126  16 
 GRA  SZ ES   1   2115 59.55                             137    -0.2 7  126  16 
 GRA  SZ I        2116  2.63        51.7 0.32                           126  16 
 OCA  SZ EP       2115 42.57                             130    -0.6 9  162 352 
 OCA  SZ I        2116  9.71        46.8 0.35                           162 352 
 NOR  SZ EP       2115 50.12                             119    -0.5 8  237 235 
 NOR  SN ES   1   2116 18.03                             119    -0.7 6  237 235 
 ROSC BZ EP   3   2115 50.89                             117    -1.9 2  254 212 
 ROSC BZ I        2116 27.80        28.8 0.51                           254 212 
 HEL  HZ EP   2   2115 55.87                             115     0.7 4  275 256 
 HEL  HZ I        2116 32.61        30.2 0.29                           275 256 
 GUY  SZ EP   3   2115 57.92                             112    -0.8 2  306 236 
 GUY  SZ I        2116 40.48        24.9 0.50                           306 236 
 RREF HZ EP       2116  1.46                             111     0.5 7  324 230 
 RREF HZ I        2116 43.81        16.5 0.26                           324 230 
 DBB  SZ EP   3   2116  2.67                             110     0.2 2  343 274 
 TOL  SZ EP       2116  3.96                             109     0.9 7  345 225 
 PRA  HZ EP       2116  7.87                             107    -0.3 6  393 210 
 PRA  HZ I        2116 52.86        38.5 0.24                           393 210 
                                                                                
