 2010  125 2012 38.1 L   6.778 -72.992151.0  RSN  7 0.4 2.2LRSN                1
 GAP=198        0.80       4.8    12.9  9.0 -0.1626E+02  0.4507E+02  0.4912E+01E
 Epicentro: CEPITA - SANTANDER                                                 3
 ACTION:UP  10-08-24 09:45 OP:vdl  STATUS:               ID:20100125201237 L   I
 2010-01-25-2009-48S.COL___095                                                 6
 STAT SP IPHASW D HRMM SECON CODA AMPLIT PERI AZIMU VELO SNR AR TRES W  DIS CAZ7
 BAR2 SZ EP       2012 58.46                             169    -0.110   30 226 
 BAR2 SZ ES   2   2013 13.81                             169    -0.6 5   30 226 
 GIR2 SZ EP   1   2012 59.60                             165     0.9 7   40 326 
 GIR2 SZ ES   3   2013 14.83                             165     0.1 2   40 326 
 RUS  BZ EP       2013  2.33                             145     0.110   98 186 
 RUS  BE ES   2   2013 21.26                             145     0.2 5   98 186 
 RUS  BZ I        2013 22.33        12.2 0.44                            98 186 
 OCA  SZ EP   1   2013  7.01                             130    -0.4 7  166 347 
 OCA  SZ ES   2   2013 29.75                             130    -0.4 5  166 347 
 OCA  SZ I        2013 32.30        30.4 0.13                           166 347 
 CHI  HZ EP       2013 16.42                             118     0.0 8  251 199 
 CHI  HN ES   2   2013 45.87                             118    -0.4 4  251 199 
 CHI  HZ I        2013 54.49         6.5 0.55                           251 199 
 RREF BZ EP       2013 25.77                             111    -0.1 7  333 232 
 RREF BE ES   2   2014  3.96                             111     0.9 3  333 232 
 RREF BZ I        2014  9.29         6.3 0.29                           333 232 
 PRA  HZ EP   1   2013 32.19                             107    -0.4 4  399 212 
 PRA  HN ES   2   2014 14.36                             107    -0.7 3  399 212 
 PRA  HZ I        2014 20.15         9.0 0.36                           399 212 
                                                                                
