 2012  925 2339  5.7 L   6.773 -73.157137.0  RSN  4 0.2 1.4LRSN                1
 GAP=136        0.42       4.3     4.8  8.2 -0.8673E+01  0.9673E+01  0.4952E+00E
 Epicentro: LOS SANTOS - SANTANDER                                             3
 ACTION:UPD 12-10-22 14:20 OP:ep   STATUS:               ID:20120925233905 L   I
 2012-09-25-2334-50M.COL___221                                                 6
 STAT SP IPHASW D HRMM SECON CODA AMPLIT PERI AZIMU VELO AIN AR TRES W  DIS CAZ7
 BRR  HZ EP   2   2339 26.32                             151    0.41 5 71.6 301 
 BRR  HZ I        2339 30.03        15.7 0.41                          71.6 301 
 PAM  SZ EP   1   2339 27.19                             148    0.02 7 80.5  39 
 PAM  SE ES   1   2339 43.85                             148   -0.08 7 80.5  39 
 PAM  SZ I        2339 46.78         3.6 0.14                          80.5  39 
 RUS  HZ EP   2   2339 28.04                             143   -0.32 5 97.7 175 
 RUS  HZ I        2339 29.16         1.8 0.32                          97.7 175 
 RUS  HE ES   2   2339 46.27                             143    0.22 5 97.7 175 
 PTB  HN ES   2   2339 51.94                             130   -0.19 5  146 260 
                                                                                
