 2014  625 2332  4.8 L   6.793 -73.064130.5  RSN  4 0.4 1.8LRSN                1
 GAP=246        0.73       7.2    10.7 17.3 -0.5674E+02 -0.9150E+02  0.8619E+02E
 Epicentro: LOS SANTOS - SANTANDER                                             3
 ACTION:UPD 14-07-01 22:56 OP:nd   STATUS:               ID:20140625233204 L   I
 OLDACT:REG 14-06-26 02:36 OP:mh   STATUS:               ID:20140625232820     3
 2014-06-25-2328-20M.COL___259                                                 6
 STAT SP IPHASW D HRMM SECON CODA AMPLIT PERI AZIMU VELO AIN AR TRES W  DIS CAZ7
 PTB  HZ EP   1   2332 30.88                             126   -0.55 8  157 260 
 PTB  HN ES   1   2332 52.15                             126   -0.04 8  157 260 
 PTB  HZ I        2332 57.01         9.2 0.06            139            157 260 
 OCA  HE ES       2332 53.60                             125    0.0610  162 350 
 OCA  HZ I        2332 58.46         8.0 0.10            139            162 350 
 ZAR  HZ EP   1   2332 37.90                             118    0.66 7  213 291 
 ZAR  HN ES   1   2333  2.22                             118   -0.32 7  213 291 
 NOR  HZ EP       2332 40.30                             114   -0.18 9  242 236 
 NOR  HN ES   1   2333  8.87                             114    0.57 7  242 236 
 NOR  HZ I        2333 12.17         4.7 0.24            125            242 236 
                                                                                
