 2015  325 2114 24.9 L   6.862 -73.306122.0  RSN 10 0.5 2.2LRSN                1
 GAP=104        1.10       3.3     4.8  6.5 -0.3632E+01  0.1510E+02 -0.1733E+01E
 Epicentro: BETULIA - SANTANDER                                                3
 ACTION:UPD 15-04-30 16:29 OP:nd   STATUS:               ID:20150325211424 L   I
 OLDACT:UP  15-03-26 05:53 OP:cam  STATUS:               ID:20150325210750     3
 OLDACT:REG 15-03-26 05:18 OP:cam  STATUS:               ID:20150325210750     3
 2015-03-25-2107-50M.COL___287                                                 6
 STAT SP IPHASW D HRMM SECON CODA AMPLIT PERI AZIMU VELO AIN AR TRES W  DIS CAZ7
 BAR2 EZ EP       2114 42.18                             164    0.2110 32.8 155 
 BAR2 EZ ES       2114 54.82                             164   -0.4510 32.8 155 
 BAR2 EZ I        2114 56.37       104.1 0.46            168           32.8 155 
 BRR  HZ EP       2114 42.69                             155    0.2410 52.4 301 
 BRR  HE ES       2114 56.59                             155    0.4610 52.4 301 
 BRR  HE I        2114 57.32        51.6 0.22            152           52.4 301 
 PAM  SZ EP       2114 45.27                             143    0.0510 85.3  52 
 PAM  SN ES       2115  0.91                             143   -0.1510 85.3  52 
 PAM  SZ I        2115  4.13        16.1 0.34            148           85.3  52 
 RUS  HZ EP       2114 47.06                             135   -0.1410  110 167 
 RUS  HN ES       2115  4.98                             135    0.4010  110 167 
 RUS  HE I        2115  5.39        34.6 0.26            140            110 167 
 PTB  HZ EP       2114 47.60                             129   -0.9410  132 254 
 PTB  HN ES   4   2115  4.74                             129   -2.24 0  132 254 
 PTB  HZ I        2115 11.12        19.5 0.16            130            132 254 
 SPBC HZ EP       2114 50.90                             124   -0.32 9  158 212 
 SPBC HN ES       2115 11.65                             124   -0.10 9  158 212 
 SPBC HZ I        2115 15.77        20.3 0.38            126            158 212 
 ZAR  HZ EP       2114 54.28                             119    0.40 9  185 292 
 ZAR  HN ES   4   2115 17.39                             119    0.91 0  185 292 
 ZAR  HZ I        2115 22.17        16.6 0.28            120            185 292 
 NOR  HZ EP       2114 58.48                             114    0.20 8  225 230 
 NOR  HN ES       2115 24.96                             114    0.65 8  225 230 
 NOR  HZ I        2115 30.19         9.0 0.14            116            225 230 
 SML  HZ EP       2114 59.03                             113    0.20 8  230 339 
 SML  HN ES       2115 24.88                             113   -0.40 8  230 339 
 SML  HZ I        2115 31.46        38.2 0.26            115            230 339 
 GUY2CHZ EP       2115  7.04                             108    0.67 7  291 232 
 GUY2CHN ES       2115 37.74                             108   -0.97 7  291 232 
 GUY2CHZ I        2115 42.06         4.2 0.26                           291 232 
                                                                                
