 2012  825 2215 39.0 L   6.819 -73.188150.7  RSN  6 0.4 1.8LRSN                1
 GAP=130        0.71       4.1     5.7  7.1 -0.4378E+01  0.5530E+01  0.3542E+00E
 Epicentro: ZAPATOCA - SANTANDER                                               3
 ACTION:UP  12-09-10 11:58 OP:ep   STATUS:               ID:20120825221540dL   I
 2012-08-25-2210-00M.COL___218                                                 6
 STAT SP IPHASW D HRMM SECON CODA AMPLIT PERI AZIMU VELO AIN AR TRES W  DIS CAZ7
 BAR2 SZ EP   1   2215 59.09                             170   -0.16 7 25.0 179 
 BAR2 SZ ES   1   2216 15.00                             170   -0.05 7 25.0 179 
 BAR2 SZ I        2216 15.93        28.3 0.21                          25.0 179 
 GIR2 SZ EP   1   2215 59.68                             169    0.50 7 28.8 359 
 GIR2 SZ ES   1   2216 15.49                             169    0.55 7 28.8 359 
 PAM  SZ EP   1   2216  2.24                             151    0.42 7 78.9  43 
 PAM  SZ I        2216  2.63        15.5 0.24                          78.9  43 
 PAM  SE ES   1   2216 19.16                             151   -0.47 7 78.9  43 
 RUS  HZ EP   1   2216  3.40                             144    0.00 7  103 174 
 RUS  HN ES   1   2216 22.16                             144   -0.29 7  103 174 
 RUS  HZ I        2216 23.31         5.6 0.34                           103 174 
 PTB  HZ EP   2   2216  5.52                             134   -0.47 5  144 258 
 PTB  HN ES   1   2216 27.10                             134    0.04 7  144 258 
 PTB  HZ I        2216 30.56         3.9 0.15                           144 258 
 OCA  HE ES   1   2216 29.22                             131   -0.43 7  158 355 
                                                                                
