 2012  425 2035 42.2 L   6.781 -73.123142.0  RSN 11 0.4 2.1LRSN                1
 GAP=140        0.91       3.2     4.2  5.7 -0.2683E+01  0.4705E+01  0.4643E+01E
 Epicentro: LOS SANTOS - SANTANDER                                             3
 ACTION:UPD 12-07-05 11:55 OP:tino STATUS:               ID:20120425203542 L   I
 2012-04-25-2030-00M.COL___186                                                 6
 STAT SP IPHASW D HRMM SECON CODA AMPLIT PERI AZIMU VELO AIN AR TRES W  DIS CAZ7
 BAR2 SZ EP       2036  1.34                             171     0.010   22 198 
 BAR2 SZ ES   1   2036 15.73                             171    -0.5 7   22 198 
 BAR2 SZ I        2036 19.83        28.1 0.54                            22 198 
 BRR  HZ EP       2036  3.12                             151     0.010   74 299 
 BRR  HN ES       2036 20.03                             151     0.610   74 299 
 BRR  HZ I        2036 24.72        34.8 0.19                            74 299 
 PAM  SZ EP       2036  3.91                             150    -0.110   77  37 
 PAM  SN ES       2036 20.71                             150    -0.310   77  37 
 RUS  HZ EP       2036  5.31                             144    -0.110   98 177 
 RUS  HE ES   1   2036 23.90                             144     0.4 7   98 177 
 RUS  HZ I        2036 25.84        13.2 0.44                            98 177 
 PTB  HE ES   1   2036 29.62                             131    -0.3 7  150 260 
 OCA  SZ EP       2036 10.65                             128     0.2 9  163 352 
 OCA  SZ ES   1   2036 33.02                             128     0.6 7  163 352 
 ZAR  HZ EP   1   2036 13.90                             121    -0.8 6  207 292 
 ZAR  HE ES   1   2036 39.24                             121    -0.8 6  207 292 
 ZAR  HZ I        2036 46.24        18.1 0.29                           207 292 
 NOR  SZ EP   1   2036 17.72                             118     0.0 6  236 235 
 NOR  SE ES   1   2036 45.52                             118     0.0 6  236 235 
 CHI  HZ EP   1   2036 19.54                             117     0.0 6  247 196 
 CHI  HZ I        2036 20.55         5.1 0.33                           247 196 
 CHI  HN ES   1   2036 48.61                             117     0.0 6  247 196 
 RREF HZ EP   1   2036 28.67                             110     0.5 5  322 230 
 RREF HN ES   1   2037  5.00                             110     0.9 5  322 230 
 RREF HZ I        2037 13.92         7.8 0.26                           322 230 
 PRA  HZ EP       2036 35.39                             106    -0.1 6  391 210 
 PRA  HN ES       2037 16.81                             106    -0.3 6  391 210 
                                                                                
