 2010  525 2247 42.6 L   6.590 -74.159  3.8  RSN  7 0.4 2.2LRSN                1
 GAP=133        0.77       4.3     2.9  6.0 -0.7603E+01  0.1583E+01 -0.3039E+01E
 Epicentro: PUERTO PARRA - SANTANDER                                           3
 ACTION:UP  10-08-24 10:06 OP:vdl  STATUS:               ID:20100525224742 L   I
 2010-05-25-2245-19S.COL___108                                                 6
 STAT SP IPHASW D HRMM SECON CODA AMPLIT PERI AZIMU VELO SNR AR TRES W  DIS CAZ7
 BAR2 SZ EP       2247 59.79                              47     0.010  108  90 
 BAR2 SZ ES   2   2248 12.53                              47    -0.7 5  108  90 
 HEL  HZ EP       2248  7.79                              47     0.3 9  158 254 
 HEL  HN ES   1   2248 26.18                              47    -0.7 7  158 254 
 GUE  SZ EP       2248 12.38                              37     0.0 9  193  45 
 GUE  SZ ES   2   2248 35.58                              37    -0.1 4  193  45 
 OCA  SZ EP       2248 13.27                              37    -0.3 9  205  27 
 OCA  SZ ES   2   2248 38.34                              37     0.5 4  205  27 
 OCA  SZ I        2248 53.93        26.2 0.12                           205  27 
 GRA  SZ EP       2248 13.84                              37    -0.1 9  207  46 
 GRA  SZ ES   2   2248 39.32                              37     0.9 4  207  46 
 CHI  HZ EP   3   2248 16.10                              37     0.0 2  222 168 
 CHI  HZ I        2248 40.20        12.1 0.66                           222 168 
 CHI  HE ES   3   2248 42.59                              37     0.3 2  222 168 
 RREF BZ EP       2248 17.67                              37     0.5 8  229 215 
 RREF BE ES   2   2248 44.21                              37     0.0 4  229 215 
 RREF BZ I        2248 46.49        18.3 0.44                           229 215 
                                                                                
