 2011  725 2234 17.6 L   6.755 -73.130144.3  RSN  6 0.3 1.8LRSN                1
 GAP=158        0.67       3.6     6.4  6.6 -0.7830E+01 -0.3344E+01 -0.1081E+01E
 Epicentro: LOS SANTOS - SANTANDER                                             3
 ACTION:UPD 12-07-25 14:03 OP:epov STATUS:               ID:20110725223417 L   I
 2011-07-25-2230-18S.COL___143                                                 6
 STAT SP IPHASW D HRMM SECON CODA AMPLIT PERI AZIMU VELO AIN AR TRES W  DIS CAZ7
 BAR2 SZ EP   1   2234 36.88                             172   -0.13 7 18.9 198 
 BAR2 SZ I        2234 37.13        18.6 0.20                          18.9 198 
 BAR2 SZ ES   1   2234 51.80                             172   -0.32 7 18.9 198 
 BRR  HZ EP   1   2234 38.31                             151   -0.55 7 75.2 301 
 BRR  HZ I        2234 39.14        25.1 0.08                          75.2 301 
 BRR  HE ES   1   2234 55.84                             151    0.43 7 75.2 301 
 RUS  HZ EP   1   2234 40.91                             145    0.03 7 95.5 177 
 RUS  HE ES   1   2234 59.28                             145    0.27 7 95.5 177 
 RUS  HZ I        2235  0.47         5.7 0.25                          95.5 177 
 BRI  SZ EP   1   2234 41.53                             140   -0.17 7  113  19 
 BRI  SZ ES   1   2235  0.30                             140   -0.18 7  113  19 
 BRI  SZ I        2235  1.90        10.6 0.26                           113  19 
 GRA  SZ EP   1   2234 43.75                             136    0.64 7  130  16 
 GRA  SZ ES   1   2235  3.01                             136    0.03 7  130  16 
 GRA  SZ I        2235  4.23         8.5 0.33                           130  16 
 NOR  SE ES   2   2235 20.73                             118   -0.07 4  233 236 
                                                                                
