 2017  525 2332 31.5 L   6.708 -73.272158.5  RSN  4 0.2 1.5LRSN                1
 GAP=215        0.58       4.9     4.8  5.7  0.1543E+02 -0.3303E+00 -0.1187E+01E
 Epicentro: GALAN - SANTANDER                                                  3
 ACTION:UPD 17-06-16 13:38 OP:jn   STATUS:               ID:20170525233231 L   I
 OLDACT:REG 17-05-26 05:11 OP:edw  STATUS:               ID:20170525232729     3
 2017-05-25-2328-00M.COL___338                                                 6
 STAT SP IPHASW D HRMM SECON CODA AMPLIT PERI AZIMU VELO AIN AR TRES W  DIS CAZ7
 BRR  HZ EP       2332 53.81                             156    0.0210 65.7 312 
 BRR  HN ES       2333 11.19                             156    0.0410 65.7 312 
 BRR  HZ I        2333 18.33        10.9 0.40            156           65.7 312 
 RUS  HZ EP       2332 56.33                             148    0.3010 92.5 167 
 RUS  HN ES       2333 14.90                             148   -0.2310 92.5 167 
 RUS  HZ I        2333 16.45         4.6 0.36            154           92.5 167 
 PTB  HZ EP       2332 57.98                             138   -0.2910  132 262 
 PTB  HN ES       2333 19.36                             138    0.2510  132 262 
 PTB  HZ I        2333 26.83         2.6 0.36            140            132 262 
 ZAR  HE ES       2333 29.18                             126   -0.13 9  196 296 
                                                                                
