 2016  725 2218  0.6 L   6.734 -73.188144.0  RSN  5 0.4 1.7LRSN                1
 GAP=227        1.02       8.0     7.6  8.5  0.2885E+02  0.1313E+02 -0.4427E+01E
 Epicentro: VILLANUEVA - SANTANDER                                             3
 ACTION:UPD 17-03-29 16:55 OP:lp   STATUS:               ID:20160725221800 L   I
 OLDACT:REG 16-07-26 02:59 OP:dnl  STATUS:               ID:20160725220759     3
 2016-07-25-2207-59S.COL___334                                                 6
 STAT SP IPHASW D HRMM SECON CODA AMPLIT PERI AZIMU VELO AIN AR TRES W  DIS CAZ7
 BAR2 EZ EP       2218 19.61                             174   -0.3010 15.7 178 
 BAR2 EZ ES       2218 34.41                             174   -0.5510 15.7 178 
 BAR2 EZ I        2218 35.52        19.0 0.30            174           15.7 178 
 BRR  HZ EP       2218 21.50                             152   -0.0710 71.0 305 
 BRR  HE ES       2218 38.54                             152    0.6310 71.0 305 
 BRR  HZ I        2218 41.46         8.7 0.26            151           71.0 305 
 RUS  HZ EP   2   2218 24.08                             146    0.36 5 93.8 173 
 RUS  HN ES       2218 42.28                             146    0.5410 93.8 173 
 RUS  HZ I        2218 43.05         4.7 0.18            148           93.8 173 
 PTB  HZ EP       2218 26.55                             133   -0.36 9  142 261 
 PTB  HN ES       2218 47.17                             133   -0.25 9  142 261 
 PTB  HZ I        2218 49.30         7.4 0.46            133            142 261 
 ZAR  HZ EP   2   2218 33.64                             122    0.84 4  203 295 
 ZAR  HN ES   2   2218 58.20                             122    0.30 4  203 295 
 ZAR  HZ I        2219  1.48         5.4 0.52            123            203 295 
                                                                                
