 2012  825 2312 44.4 L   6.770 -73.179151.0  RSN  4 0.3 1.3LRSN                1
 GAP=176        0.55       4.8     5.2  6.4  0.4870E+01  0.5542E+01  0.4329E+01E
 Epicentro: LOS SANTOS - SANTANDER                                             3
 ACTION:UPD 12-09-10 11:58 OP:ep   STATUS:               ID:20120825231244 L   I
 2012-08-25-2310-00M.COL___218                                                 6
 STAT SP IPHASW D HRMM SECON CODA AMPLIT PERI AZIMU VELO AIN AR TRES W  DIS CAZ7
 GIR2 SZ EP   1   2313  4.77                             167   -0.05 7 34.2 357 
 GIR2 SZ ES   1   2313 20.32                             167   -0.39 7 34.2 357 
 BRR  HZ EP   1   2313  6.44                             154    0.36 7 69.7 302 
 BRR  HZ I        2313  6.68         9.4 0.12                          69.7 302 
 BRR  HN ES   1   2313 23.29                             154    0.34 7 69.7 302 
 RUS  HZ EP   2   2313  8.27                             146   -0.24 5 97.6 174 
 RUS  HN ES   1   2313 27.46                             146    0.18 7 97.6 174 
 RUS  HZ I        2313 28.45         2.1 0.34                          97.6 174 
 PTB  HZ EP   1   2313 11.30                             134   -0.17 7  144 260 
 PTB  HN ES   1   2313 32.34                             134   -0.21 7  144 260 
 PTB  HZ I        2313 34.68         1.6 0.26                           144 260 
                                                                                
