 2011  525 2232 18.1 L   6.778 -73.124145.2  RSN 20 0.4 2.9LRSN                1
 GAP=128        1.00       3.8     5.4  5.5 -0.9905E+01  0.8788E+01  0.3498E+01E
 Epicentro: LOS SANTOS - SANTANDER                                             3
 ACTION:UP  11-06-29 08:56 OP:tino STATUS:               ID:20110525223218 L   I
 2011-05-25-2230-16S.COL___116                                                 6
 STAT SP IPHASW D HRMM SECON CODA AMPLIT PERI AZIMU VELO SNR AR TRES W  DIS CAZ7
 BAR2 SZ EP       2232 37.69                             171     0.010   22 197 
 BAR2 SZ ES   1   2232 52.36                             171    -0.5 7   22 197 
 BAR2 SZ I        2232 56.18       121.1 0.57                            22 197 
 BTL  SZ EP       2232 37.87                             171     0.210   22 314 
 GIR2 SZ EP       2232 37.74                             166    -0.110   34 347 
 GIR2 SZ ES   1   2232 53.19                             166     0.0 7   34 347 
 BRR  HZ EP       2232 39.55                             151     0.110   74 299 
 BRR  HN ES   1   2232 57.10                             151     1.1 7   74 299 
 BRR  HZ I        2233  0.80        83.5 0.22                            74 299 
 PAM  SZ EP       2232 40.40                             151     0.110   78  37 
 PAM  SN ES   1   2232 57.65                             151     0.0 7   78  37 
 RUS  HZ EP       2232 41.43                             144    -0.210   98 177 
 RUS  HN ES   1   2233  0.10                             144     0.1 7   98 177 
 RUS  HZ I        2233  1.83        86.1 0.25                            98 177 
 BRI  SZ EP       2232 42.16                             141     0.110  110  19 
 BRI  SZ ES   1   2233  0.14                             141    -0.6 7  110  19 
 GRA  SZ EP       2232 43.49                             136     0.010  127  16 
 GRA  SZ ES   1   2233  3.17                             136    -0.1 7  127  16 
 GRA  SZ I        2233  4.38        91.6 0.24                           127  16 
 OCA  SZ EP       2232 46.88                             129     0.2 9  163 352 
 OCA  SZ ES   1   2233  8.20                             129    -0.7 7  163 352 
 OCA  SZ I        2233 13.15        83.2 0.35                           163 352 
 NOR  SZ EP       2232 53.37                             118    -0.5 8  235 235 
 NOR  SN ES   1   2233 21.33                             118    -0.5 6  235 235 
 ROSC BZ EP       2232 57.23                             116     1.1 8  252 212 
 ROSC BZ I        2233 33.37        63.1 0.49                           252 212 
 HEL  HZ EP       2232 58.83                             114     0.3 8  274 256 
 HEL  HN ES   1   2233 29.47                             114    -0.5 6  274 256 
 HEL  HZ I        2233 36.73        43.7 0.37                           274 256 
 GUY  SZ EP       2233  1.86                             112    -0.2 7  304 236 
 GUY  SN ES   3   2233 36.07                             112    -0.2 2  304 236 
 GUY  SZ I        2233 43.54        80.9 0.37                           304 236 
 RREF HZ EP       2233  4.31                             111     0.0 7  322 230 
 RREF HN ES   2   2233 40.23                             111    -0.1 3  322 230 
 RREF HZ I        2233 49.46        34.2 0.61                           322 230 
 DBB  SZ EP   2   2233  5.50                             109    -0.4 3  342 275 
 TOL  SZ EP       2233  6.78                             109     0.4 7  343 225 
 MON  HZ EP   4   2233  4.79                             108    -2.7 0  357 308 
 SDV  BZ EP   3   2233  7.51                             108    -0.6 2  360  50 
 PRA  HZ EP       2233 11.04                             106    -0.5 6  391 210 
 PRA  HN ES   2   2233 52.73                             106    -0.5 3  391 210 
 PRA  HZ I        2233 58.84        44.3 0.05                           391 210 
 SJA  SZ EP   3   2233 11.00                             106    -1.5 1  398 193 
 SJC  HZ EP   4   2233 11.48                             105    -2.6 0  413 327 
 SJC  HZ I        2233 57.43        15.9 0.44                           413 327 
 CAP2 HZ EP   4   2233 22.32                             102    -3.4 0  511 294 
 URI  HZ EP   4   2233 27.67                             100    -3.7 0  559  13 
                                                                                
