 2010 1225 2050 12.9 L   6.832 -73.163136.0  RSN  9 0.3 2.0LRSN                1
 GAP=135        0.55       2.1     4.4  5.7 -0.2193E+01  0.9351E+01 -0.6558E+00E
 Epicentro: LOS SANTOS - SANTANDER                                             3
 ACTION:UP  11-01-14 15:27 OP:pat  STATUS:               ID:20101225205012 L   I
 2010-12-25-2048-08S.COL___133                                                 6
 STAT SP IPHASW D HRMM SECON CODA AMPLIT PERI AZIMU VELO SNR AR TRES W  DIS CAZ7
 BAR2 SZ EP       2050 31.61                             168     0.110   27 185 
 BAR2 SZ ES   2   2050 45.66                             168    -0.3 5   27 185 
 BAR2 SZ I        2050 47.41        21.6 0.26                            27 185 
 RUS  HZ EP       2050 35.87                             141    -0.210  104 175 
 RUS  HN ES   1   2050 54.31                             141     0.3 7  104 175 
 RUS  HZ I        2050 55.69        10.9 0.46                           104 175 
 GRA  SZ IP       2050 36.81                             136    -0.310  123  19 
 GRA  SZ I        2050 37.92        20.2 0.34                           123  19 
 GRA  SZ ES   1   2050 55.85                             136    -0.1 7  123  19 
 OCA  SZ EP       2050 40.16                             128     0.0 9  157 354 
 OCA  SZ ES   1   2051  1.80                             128     0.4 7  157 354 
 OCA  SZ I        2051  6.34        22.6 0.17                           157 354 
 YOP  SZ EP   2   2050 42.55                             124    -0.2 4  183 153 
 YOP  SN ES   2   2051  5.85                             124    -0.1 4  183 153 
 YOP  SZ I        2051  6.88         8.8 0.34                           183 153 
 NOR  SZ EP       2050 48.46                             116     0.3 8  235 234 
 NOR  SN ES   2   2051 15.48                             116    -0.2 4  235 234 
 CHI  HZ EP   2   2050 51.16                             115     0.7 4  252 195 
 CHI  HN ES   2   2051 19.21                             115    -0.5 4  252 195 
 CHI  HZ I        2051 22.26         4.2 0.25                           252 195 
 HEL  HZ EP   3   2050 52.91                             113     0.3 2  271 255 
 HEL  HN ES   2   2051 23.01                             113    -0.5 4  271 255 
 HEL  HZ I        2051 30.49         4.5 0.38                           271 255 
 GUY  SZ EP   3   2050 56.44                             110     0.2 2  302 234 
 GUY  SN ES   3   2051 29.59                             110    -0.3 2  302 234 
                                                                                
