 2012  525 2249 57.7 L   6.770 -73.171146.0  RSN  6 0.3 2.1LRSN                1
 GAP=135        0.77       3.8     4.6  6.7 -0.2411E+01  0.1064E+02 -0.6127E+01E
 Epicentro: LOS SANTOS - SANTANDER                                             3
 ACTION:UP  12-07-05 12:08 OP:pat  STATUS:               ID:20120525224957 L   I
 2012-05-25-2250-00M.COL___198                                                 6
 STAT SP IPHASW D HRMM SECON CODA AMPLIT PERI AZIMU VELO SNR AR TRES W  DIS CAZ7
 BAR2 SZ IP       2250 17.44                             172     0.110   20 184 
 BAR2 SZ ES   1   2250 32.79                             172     0.2 7   20 184 
 BAR2 SZ I        2250 34.32        39.4 0.20                            20 184 
 PAM  SZ EP       2250 20.45                             149     0.210   82  40 
 PAM  SN ES   1   2250 37.70                             149    -0.1 7   82  40 
 PAM  SZ I        2250 41.73        12.5 0.86                            82  40 
 RUS  HZ EP       2250 21.19                             145    -0.110   97 174 
 RUS  HN ES   1   2250 39.46                             145    -0.2 7   97 174 
 PTB  HZ EP       2250 23.97                             133    -0.4 9  144 260 
 PTB  HN ES   1   2250 45.37                             133     0.2 7  144 260 
 PTB  HZ I        2250 50.84        21.1 0.40                           144 260 
 OCA  HZ EP       2250 26.66                             129     0.3 9  163 354 
 OCA  HN ES   1   2250 47.82                             129    -0.8 7  163 354 
 ZAR  HZ EP       2250 29.95                             123    -0.1 9  203 293 
 ZAR  HN ES   2   2250 55.74                             123     0.5 4  203 293 
                                                                                
