 2011  625 2031 33.6 L   6.748 -73.110140.8  RSN  5 0.1 1.7LRSN                1
 GAP=187        0.38       3.7     3.9  3.7 -0.8544E+01 -0.6578E+00 -0.7290E+00E
 Epicentro: LOS SANTOS - SANTANDER                                             3
 ACTION:UP  11-07-14 19:08 OP:ep   STATUS:               ID:20110625203133 L   I
 2011-06-25-2030-22S.COL___140                                                 6
 STAT SP IPHASW D HRMM SECON CODA AMPLIT PERI AZIMU VELO SNR AR TRES W  DIS CAZ7
 BAR2 SZ EP       2031 52.64                             172     0.110   19 205 
 BAR2 SZ ES   1   2032  7.35                             172     0.0 7   19 205 
 BAR2 SZ I        2032  8.64        21.6 0.27                            19 205 
 BRR  HZ EP       2031 54.68                             150     0.010   78 301 
 BRR  HE ES   1   2032 11.04                             150     0.0 7   78 301 
 BRR  HZ I        2032 14.64        13.4 0.24                            78 301 
 BRI  SZ EP   1   2031 57.41                             139     0.0 7  113  18 
 BRI  SZ I        2032 17.06         5.4 0.46                           113  18 
 GRA  SZ EP       2031 58.69                             135    -0.110  130  15 
 GRA  SZ I        2032 24.02         5.1 0.28                           130  15 
 NOR  SZ EP   1   2032  9.32                             117     0.2 6  235 236 
 NOR  SN ES   1   2032 36.48                             117    -0.2 6  235 236 
                                                                                
