 2016  425 2207 57.6 L   6.793 -73.130141.0  RSN  6 0.5 1.8LRSN                1
 GAP=139        1.18       5.2     5.4  8.6 -0.3892E+01  0.1761E+02 -0.4852E+01E
 Epicentro: LOS SANTOS - SANTANDER                                             3
 ACTION:UPD 16-05-05 14:24 OP:rebc STATUS:               ID:20160425220757 L   I
 OLDACT:REG 16-04-26 05:52 OP:ar   STATUS:               ID:20160425220748     3
 2016-04-25-2207-48M.COL___317                                                 6
 STAT SP IPHASW D HRMM SECON CODA AMPLIT PERI AZIMU VELO AIN AR TRES W  DIS CAZ7
 BAR2 EZ I        22 8 15.94         6.0 0.26            167           23.0 194 
 BAR2 EZ EP       22 8 16.64                             170    0.0210 23.0 194 
 BAR2 EZ ES       22 8 31.65                             170    0.1710 23.0 194 
 PAM  EZ EP       22 8 19.25                             150    0.0010 76.9  38 
 PAM  EN ES       22 8 36.06                             150   -0.1010 76.9  38 
 PAM  EZ I        22 8 38.42        13.6 0.50            139           76.9  38 
 RUS  HZ EP       22 8 20.60                             143   -0.1910 99.7 177 
 RUS  HE ES       22 8 38.95                             143    0.0510 99.7 177 
 RUS  HZ I        22 8 39.87         7.2 0.28            133           99.7 177 
 PTB  HZ EP       22 8 23.86                             131   -0.43 9  149 259 
 PTB  HN ES       22 8 44.19                             131   -0.94 9  149 259 
 PTB  HZ I        22 8 48.78         5.6 0.44            119            149 259 
 SPBC HZ EP       22 8 25.37                             128   -0.38 9  164 220 
 SPBC HN ES       22 8 48.56                             128    0.83 9  164 220 
 SPBC HZ I        22 8 53.07        13.4 0.24            117            164 220 
 ZAR  HZ EP       22 8 30.76                             121    0.86 8  206 292 
 ZAR  HN ES       22 8 55.45                             121    0.33 8  206 292 
 ZAR  HZ I        22 9  0.66         9.1 0.44            111            206 292 
                                                                                
