 2012 1125 2008  0.6 L   6.825 -73.203139.5  RSN  9 0.4 1.8LRSN                1
 GAP=128        0.97       3.1     4.0  6.0 -0.9245E+00  0.8582E+01  0.2871E+01E
 Epicentro: ZAPATOCA - SANTANDER                                               3
 ACTION:UPD 12-12-05 15:36 OP:}ep  STATUS:               ID:20121125200800 L   I
 2012-11-25-2000-00M.COL___233                                                 6
 STAT SP IPHASW D HRMM SECON CODA AMPLIT PERI AZIMU VELO AIN AR TRES W  DIS CAZ7
 BAR2 SZ EP       20 8 19.24                             169   -0.2810 25.9 175 
 BAR2 SZ ES       20 8 34.26                             169   -0.0310 25.9 175 
 BAR2 SZ I        20 8 35.31        21.4 0.20                          25.9 175 
 GIR2 SZ EP       20 8 19.55                             168    0.1310 28.0   2 
 GIR2 SZ ES       20 8 34.55                             168    0.4310 28.0   2 
 GIR2 SZ I        20 8 36.48         9.6 0.44                          28.0   2 
 PAM  SZ EP       20 8 22.38                             149    0.1110 79.6  44 
 PAM  SE ES       20 8 39.29                             149    0.1010 79.6  44 
 RUS  HZ EP       20 8 23.46                             141   -0.5210  104 173 
 RUS  HE ES       20 8 42.21                             141   -0.0210  104 173 
 RUS  HN I        20 8 43.42         9.2 0.26                           104 173 
 PTB  HZ EP       20 8 26.30                             132   -0.23 9  142 257 
 PTB  HN ES       20 8 46.20                             132   -0.56 9  142 257 
 PTB  HN I        20 8 49.36        12.8 0.24                           142 257 
 OCA  HN ES       20 8 48.99                             129   -0.55 9  157 355 
 ZAR  HZ EP       20 8 32.44                             122    0.54 9  197 292 
 ZAR  HN ES       20 8 56.94                             122    0.61 9  197 292 
 ZAR  HN I        20 9  4.34        11.4 0.30                           197 292 
 NOR  HN ES       20 9  2.60                             117   -0.27 8  231 233 
 CHI  HZ EP       20 8 38.29                             116    0.23 8  250 194 
 CHI  HN ES       20 9  7.99                             116    0.69 8  250 194 
 CHI  HN I        20 9 11.80         3.1 0.24                           250 194 
                                                                                
