 2013  225 2026  9.2 L   6.795 -73.159151.1  RSN  5 0.3 1.5LRSN                1
 GAP=135        0.72       4.0     3.8  5.5 -0.1732E+01  0.2594E+01  0.1251E+01E
 Epicentro: LOS SANTOS - SANTANDER                                             3
 ACTION:UPD 13-03-12 09:35 OP:ep   STATUS:               ID:20130225202609 L   I
 2013-02-25-2020-00M.COL___228                                                 6
 STAT SP IPHASW D HRMM SECON CODA AMPLIT PERI AZIMU VELO AIN AR TRES W  DIS CAZ7
 BAR2 SZ ES       2026 45.40                             171    0.2010 22.5 186 
 BRR  HZ EP   1   2026 31.58                             154    0.75 7 70.2 300 
 BRR  HN ES       2026 47.90                             154    0.1710 70.2 300 
 PAM  SZ EP       2026 31.96                             151   -0.0610 78.8  40 
 PAM  SE ES       2026 49.57                             151   -0.2910 78.8  40 
 PAM  SE I        2026 54.85         4.1 0.42            151           78.8  40 
 RUS  HZ EP       2026 33.48                             145    0.0810  100 175 
 RUS  HN ES       2026 52.25                             145   -0.0610  100 175 
 PTB  HZ EP       2026 36.19                             134   -0.23 9  146 259 
 PTB  HN ES       2026 57.38                             134   -0.30 9  146 259 
 PTB  HN I        2027  1.89         4.8 0.28            135            146 259 
                                                                                
