 2014  425 2126 15.4 L   6.802 -73.129143.0  RSN 19 0.5 2.4LRSN                1
 GAP= 72        1.11       2.6     2.8  5.3 -0.1608E+01  0.1905E+01  0.2329E+01E
 Epicentro: LOS SANTOS - SANTANDER                                             3
 ACTION:UPD 14-05-13 23:11 OP:nd   STATUS:               ID:20140425212615 L   I
 OLDACT:REG 14-04-26 05:07 OP:stll STATUS:               ID:20140425211816     3
 2014-04-25-2118-16M.COL___251                                                 6
 STAT SP IPHASW D HRMM SECON CODA AMPLIT PERI AZIMU VELO AIN AR TRES W  DIS CAZ7
 BRR  HZ IP     D 2126 36.96                             152    0.6510 72.7 298 
 BRR  HN ES       2126 53.47                             152    0.8310 72.7 298 
 BRR  HZ I        2126 56.78        36.9 0.18            151           72.7 298 
 PAM  SZ IP     D 2126 37.87                             151    0.6510 76.0  39 
 PAM  SN ES       2126 54.47                             151    0.2210 76.0  39 
 PAM  HZ I        2126 56.85        20.2 0.30            150           76.0  39 
 RUS  HZ EP       2126 38.88                             143    0.0110  101 177 
 RUS  HN ES       2126 56.66                             143   -0.5310  101 177 
 RUS  HZ I        2126 58.55        17.6 0.42            144            101 177 
 PTB  HZ EP       2126 41.67                             131   -0.62 9  150 259 
 PTB  HE ES       2127  2.74                             131   -0.54 9  150 259 
 PTB  HZ I        2127  7.54        27.1 0.10            131            150 259 
 TAM  HZ EP       2126 43.24                             130    0.56 9  153 105 
 TAM  HZ I        2127  3.65        27.3 0.28            130            153 105 
 TAM  HN ES       2127  3.91                             130   -0.06 9  153 105 
 OCA  HZ EP   1   2126 43.79                             129    0.32 7  160 352 
 OCA  HN ES       2127  4.66                             129   -0.72 9  160 352 
 OCA  HZ I        2127  9.67        25.3 0.30            128            160 352 
 SPBC HZ EP       2126 43.85                             128    0.06 9  165 219 
 SPBC HN ES       2127  5.84                             128   -0.12 9  165 219 
 SPBC HZ I        2127 12.63        38.6 0.26            128            165 219 
 ZAR  HZ EP       2126 48.22                             122    0.41 8  206 292 
 ZAR  HN ES       2127 13.18                             122    0.08 8  206 292 
 ZAR  HZ I        2127 19.27        21.2 0.10            121            206 292 
 NOR  HZ EP       2126 50.30                             118   -0.82 8  236 235 
 NOR  HN ES       2127 18.76                             118   -0.24 8  236 235 
 NOR  HZ I        2127 21.57        20.1 0.54            118            236 235 
 SML  HZ EP       2126 51.46                             117   -0.45 8  244 335 
 SML  HE ES       2127 20.07                             117   -0.33 8  244 335 
 SML  HZ I        2127 33.51        29.0 0.08            116            244 335 
 CHI  HZ EP       2126 53.27                             116    0.27 8  249 196 
 CHI  HN ES       2127 21.75                             116   -0.60 8  249 196 
 CHI  HZ I        2127 28.37        13.4 0.20            116            249 196 
 HEL  HZ EP       2126 56.46                             114    0.81 8  274 256 
 HEL  HN ES       2127 26.76                             114   -0.31 8  274 256 
 HEL  HZ I        2127 38.93        11.0 0.26            114            274 256 
 SOCV BZ EP       2126 57.29                             112   -0.82 7  300  57 
 SOCV BN ES   4   2127 29.27                             112   -2.17 0  300  57 
 GUY2CHZ EP       2126 59.39                             112    0.35 7  303 235 
 GUY2CHN ES       2127 32.65                             112   -0.45 7  303 235 
 GUY2CHZ I        2127 41.45        17.0 0.48                           303 235 
 RREF HZ EP       2127  2.10                             110    0.52 7  323 230 
 RREF HN ES       2127 37.56                             110   -0.05 7  323 230 
 RREF HZ I        2127 46.76        15.8 0.26            110            323 230 
 TOL  SZ EP       2127  4.10                             109    0.41 7  345 225 
 TOL  SZ ES       2127 41.88                             109    0.51 7  345 225 
 TOL  HZ I        2127 44.93         5.7 1.25            109            345 225 
 SDV  BZ EP       2127  4.60                             108   -0.53 6  359  50 
 PRA  HZ EP       2127  8.67                             106   -0.26 6  393 210 
 PRA  HE ES       2127 50.63                             106   -0.08 6  393 210 
 PRA  HZ I        2127 54.09        12.1 0.74            106            393 210 
 ORTC HZ EP       2127  9.26                             106   -0.09 6  397 216 
 ORTC HN ES       2127 52.11                             106    0.66 6  397 216 
 ORTC HZ I        2127 57.33         7.1 0.54            106            397 216 
                                                                                
