 2011  925 2228  2.6 L   6.821 -73.082146.2  RSN 15 0.3 2.8LRSN                1
 GAP=162        0.47       2.0     3.0  4.2  0.1393E+00  0.2844E+01  0.1166E+01E
 Epicentro: LOS SANTOS - SANTANDER                                             3
 ACTION:UPD 12-07-13 15:59 OP:ep   STATUS:               ID:20110925222802 L   I
 2011-09-25-2224-46S.COL___165                                                 6
 STAT SP IPHASW D HRMM SECON CODA AMPLIT PERI AZIMU VELO AIN AR TRES W  DIS CAZ7
 BTL  SZ EP   1   2228 22.49                             171    0.24 7 23.1 298 
 BAR2 SZ IP       2228 22.23                             169   -0.1210 27.6 204 
 BAR2 SZ ES   2   2228 37.55                             169   -0.23 5 27.6 204 
 BAR2 SZ I        2228 39.78       147.2 0.35                          27.6 204 
 BRR  HZ IP     C 2228 24.17                             151    0.1010 76.4 294 
 BRR  HZ I        2228 40.71       117.9 0.12                          76.4 294 
 BRR  HE ES   2   2228 41.21                             151    0.37 5 76.4 294 
 RUS  HZ EP   1   2228 26.03                             143   -0.49 7  103 180 
 RUS  HZ I        2228 27.28        42.9 0.12                           103 180 
 RUS  HN ES   2   2228 44.97                             143   -0.23 5  103 180 
 OCA  SZ EP   1   2228 31.18                             130    0.39 7  159 351 
 OCA  SZ ES   2   2228 52.83                             130    0.03 5  159 351 
 OCA  SZ I        2228 56.85        57.9 0.22                           159 351 
 YOP  SZ EP   1   2228 32.76                             126    0.20 7  178 156 
 YOP  SE ES   2   2228 56.17                             126    0.22 4  178 156 
 ZAR  HZ EP   2   2228 35.56                             122   -0.07 4  210 291 
 ZAR  HN ES   2   2229  1.28                             122   -0.14 4  210 291 
 ZAR  HZ I        2229  6.43        74.5 0.31                           210 291 
 NOR  SZ EP   2   2228 38.66                             118   -0.43 4  242 235 
 NOR  SN ES   2   2229  7.18                             118   -0.39 4  242 235 
 CHI  HZ EP   2   2228 40.57                             117   -0.18 4  253 197 
 CHI  HE ES   2   2229 11.10                             117    0.57 4  253 197 
 CHI  HZ I        2229 15.57        20.1 0.36                           253 197 
 ROSC BZ EP   1   2228 41.93                             116    0.59 6  258 212 
 ROSC BZ ES   2   2229 11.34                             116   -0.23 4  258 212 
 ROSC BZ I        2229 17.96        51.1 0.22                           258 212 
 HEL  HZ EP   1   2228 43.38                             114   -0.25 6  279 256 
 HEL  HN ES   2   2229 15.32                             114   -0.33 4  279 256 
 HEL  HZ I        2229 21.45        28.7 0.64                           279 256 
 GUY  SZ EP   2   2228 47.46                             112    0.19 3  311 235 
 GUY  SN ES   2   2229 22.78                             112    0.65 3  311 235 
 GUY  SZ I        2229 30.01        74.5 0.78                           311 235 
 RREF HZ EP   1   2228 49.25                             110   -0.27 5  329 230 
 RREF HN ES   2   2229 26.31                             110    0.18 3  329 230 
 RREF HZ I        2229 33.82        34.9 0.44                           329 230 
 COD  HZ EP   2   2228 50.51                             109   -0.27 3  347 353 
 COD  HN ES   2   2229 27.79                             109   -0.59 3  347 353 
 COD  HZ I        2229 39.32        23.0 0.78                           347 353 
 PRA  HZ EP   1   2228 56.42                             106   -0.34 4  398 210 
 PRA  HN ES   2   2229 39.23                             106    0.21 3  398 210 
                                                                                
