 2014 1225 2213 58.8 L   6.823 -73.166142.7  RSN 18 0.5 2.3LRSN                1
 GAP=124        1.11       2.5     3.7  4.9 -0.1704E+01  0.3325E+01  0.1753E+01E
 Epicentro: LOS SANTOS - SANTANDER                                             3
 ACTION:UPD 15-02-10 17:07 OP:nd   STATUS:               ID:20141225221358 L   I
 OLDACT:REG 14-12-26 03:37 OP:fm   STATUS:               ID:20141225220750     3
 2014-12-25-2207-50M.COL___286                                                 6
 STAT SP IPHASW D HRMM SECON CODA AMPLIT PERI AZIMU VELO AIN AR TRES W  DIS CAZ7
 BAR2 EZ EP       2214 18.41                             169    0.2510 25.6 184 
 BAR2 EZ ES       2214 33.42                             169    0.2010 25.6 184 
 BAR2 EZ I        2214 34.59        37.0 0.18            169           25.6 184 
 BRR  HZ EP       2214 20.20                             153    0.7110 68.0 298 
 BRR  HE ES       2214 36.27                             153    0.6810 68.0 298 
 BRR  HZ I        2214 43.42        19.3 0.14            151           68.0 298 
 PAM  SZ EP       2214 21.34                             150    0.6310 76.9  42 
 PAM  SN ES       2214 37.65                             150   -0.1110 76.9  42 
 PAM  SZ I        2214 40.55        41.1 0.40            154           76.9  42 
 RUS  HZ EP       2214 22.57                             142    0.0710  103 175 
 RUS  HN ES       2214 40.62                             142   -0.3310  103 175 
 RUS  HZ I        2214 42.16        25.6 0.24            145            103 175 
 PTB  HZ EP       2214 25.14                             132   -0.27 9  146 258 
 PTB  HN ES       2214 45.75                             132   -0.39 9  146 258 
 PTB  HZ I        2214 48.19        23.9 0.16            132            146 258 
 OCA  HZ EP       2214 26.52                             130   -0.13 9  157 354 
 OCA  HE ES       2214 47.54                             130   -0.81 9  157 354 
 OCA  HZ I        2214 55.45        15.8 0.32            131            157 354 
 SPBC HZ EP       2214 27.62                             128    0.45 9  164 218 
 SPBC HE ES       2214 49.05                             128   -0.22 9  164 218 
 SPBC HZ I        2214 51.95        33.2 0.38            129            164 218 
 ZAR  HZ EP       2214 30.53                             122   -0.25 9  201 292 
 ZAR  HN ES       2214 55.60                             122   -0.09 9  201 292 
 ZAR  HZ I        2215  1.70        15.0 0.44            123            201 292 
 NOR  HZ EP       2214 34.62                             118    0.25 8  234 234 
 NOR  HN ES       2215  1.93                             118   -0.14 8  234 234 
 NOR  HZ I        2215  8.32        18.0 0.18            119            234 234 
 SML  HZ EP       2214 33.99                             117   -0.96 8  240 336 
 SML  HN ES       2215  3.29                             117    0.19 8  240 336 
 SML  HZ I        2215  6.76        25.8 0.26            119            240 336 
 CHI  HZ EP       2214 36.64                             116    0.05 8  251 195 
 CHI  HN ES       2215  5.43                             116   -0.59 8  251 195 
 CHI  HZ I        2215  9.25        13.0 0.36            118            251 195 
 ROSC BZ EP       2214 37.09                             116    0.17 8  254 210 
 ROSC BE ES       2215  6.44                             116   -0.17 8  254 210 
 ROSC BZ I        2215 12.95        18.1 0.45            118            254 210 
 HEL  HZ EP       2214 39.71                             114    0.98 8  271 255 
 HEL  HN ES       2215  9.07                             114   -0.78 8  271 255 
 HEL  HZ I        2215 16.42        10.7 0.30            115            271 255 
 VIL  SZ EP       2214 41.98                             111   -0.38 7  305 191 
 VIL  SE ES       2215 15.64                             111   -0.66 7  305 191 
 VIL  SZ I        2215 19.14        15.4 0.54            113            305 191 
 TOL  SZ EP       2214 47.89                             109    0.88 7  344 224 
 TOL  SN ES       2215 25.26                             109    0.68 7  344 224 
 TOL  SZ I        2215 31.98        18.8 0.54            110            344 224 
 ANIL HZ EP   1   2214 48.58                             108    0.01 5  358 224 
 SDV  BZ EP       2214 48.41                             108   -0.37 6  360  51 
 SDV  BN ES   4   2215 25.85                             108   -1.88 0  360  51 
 SDV  BZ I        2215 27.37         3.8 0.25            110            360  51 
 ORTC HZ EP       2214 52.12                             106   -0.63 6  396 216 
 ORTC HN ES       2215 35.31                             106    0.51 6  396 216 
 ORTC HZ I        2215 42.38         4.2 0.20            107            396 216 
                                                                                
