 2017  225 2253 27.3 L   6.727 -73.100149.2  RSN  5 0.2 1.2LRSN                1
 GAP=146        0.54       3.0     3.9  4.6 -0.3529E+00  0.3357E+01  0.1213E+01E
 Epicentro: JORDAN - SANTANDER                                                 3
 ACTION:UPD 17-05-24 15:40 OP:jn   STATUS:               ID:20170225225327 L   I
 OLDACT:REG 17-02-26 09:22 OP:ar   STATUS:               ID:20170225224746     3
 2017-02-25-2248-00M.COL___382                                                 6
 STAT SP IPHASW D HRMM SECON CODA AMPLIT PERI AZIMU VELO AIN AR TRES W  DIS CAZ7
 BAR2 EZ EP   2   2253 47.06                             173   -0.20 5 17.5 211 
 BAR2 EZ ES   2   2254  3.12                             173    0.31 5 17.5 211 
 BAR2 EZ I        2254  3.28         4.1 0.10            163           17.5 211 
 BRR  HZ EP       2253 48.97                             150   -0.3610 79.6 302 
 BRR  HN ES       2254  6.44                             150   -0.0510 79.6 302 
 PAM  EZ EP       2253 50.23                             150    0.1210 80.8  33 
 PAM  EN ES       2254  7.93                             150    0.0510 80.8  33 
 PAM  EZ I        2254 10.18         2.9 0.40            146           80.8  33 
 RUS  HZ EP       2253 50.79                             147   -0.0510 92.3 179 
 RUS  HN ES       2254  9.14                             147   -0.0510 92.3 179 
 RUS  HZ I        2254 10.63         2.5 0.32            139           92.3 179 
 PTB  HZ EP       2253 55.28                             132    0.37 9  151 262 
 PTB  HZ I        2254 16.34         2.5 0.28            120            151 262 
                                                                                
