 2010  725 2009  9.9 L   6.798 -73.066142.8  RSN  7 0.4 1.7LRSN                1
 GAP=168        1.15       4.8     9.2 10.1 -0.6095E+01 -0.1848E+02 -0.7486E+01E
 Epicentro: LOS SANTOS - SANTANDER                                             3
 ACTION:UPD 10-12-01 15:20 OP:pat  STATUS:               ID:20100725200909 L   I
 2010-07-25-2006-59S.COL___123                                                 6
 STAT SP IPHASW D HRMM SECON CODA AMPLIT PERI AZIMU VELO AIN AR TRES W  DIS CAZ7
 BAR2 SZ EP   1   20 9 28.84                             169    -0.4 7   26 210 
 BAR2 SZ ES   2   20 9 43.45                             169    -0.9 5   26 210 
 BAR2 SZ I        20 9 46.91        11.7 0.75                            26 210 
 BRR  HZ EP       20 9 30.72                             150    -0.510   79 296 
 BRR  HN ES       20 9 48.08                             150     0.310   79 296 
 RUS  HZ EP       20 9 33.31                             144     0.010  100 181 
 RUS  HN ES       20 9 51.77                             144     0.210  100 181 
 RUS  HZ I        20 9 52.66         5.1 0.81                           100 181 
 GUE  SZ EP       20 9 34.92                             139     0.710  115   8 
 GUE  SZ I        20 9 36.77         3.1 0.57                           115   8 
 GRA  SZ EP       20 9 34.69                             137     0.010  124  14 
 GRA  SZ ES   1   20 9 54.33                             137     0.3 7  124  14 
 GRA  SZ I        20 9 56.61         9.6 0.81                           124  14 
 OCA  SZ EP   1   20 9 37.31                             129    -0.8 7  162 350 
 OCA  SZ ES   2   20 9 59.90                             129    -0.2 5  162 350 
 OCA  SZ I        2010  5.18        13.6 0.72                           162 350 
 RREF HN ES   1   2010 33.57                             110     0.4 5  328 230 
 RREF HZ I        2010 41.09         4.0 1.58                           328 230 
                                                                                
