 2017  525 2243 58.8 L   6.827 -73.169153.8  RSN 15 0.5 2.2LRSN                1
 GAP=184        1.07       4.1     4.4  6.7  0.7227E+01 -0.7481E-01  0.1481E+01E
 Epicentro: LOS SANTOS - SANTANDER                                             3
 ACTION:UPD 17-06-16 13:38 OP:jn   STATUS:               ID:20170525224358 L   I
 OLDACT:UP  17-05-26 05:52 OP:edw  STATUS:               ID:20170525223740d    3
 OLDACT:UP  17-05-26 05:51 OP:edw  STATUS:               ID:20170525223740d    3
 OLDACT:UP  17-05-26 05:49 OP:edw  STATUS:               ID:20170525223740d    3
 OLDACT:DUP 17-05-26 05:43 OP:edw  STATUS:               ID:20170525223740d    3
 2017-05-25-2238-00M.COL___344                                                 6
 STAT SP IPHASW D HRMM SECON CODA AMPLIT PERI AZIMU VELO AIN AR TRES W  DIS CAZ7
 BRR  HZ EP       2244 21.24                             155    0.5710 67.5 297 
 BRR  HN ES       2244 38.31                             155    0.6110 67.5 297 
 BRR  HZ I        2244 45.40        19.4 0.38            151           67.5 297 
 RUS  HZ EP       2244 23.24                             145   -0.3710  104 175 
 RUS  HN ES       2244 42.56                             145   -0.3810  104 175 
 RUS  HZ I        2244 43.59        26.5 0.44            145            104 175 
 PTB  HZ EP       2244 26.16                             134   -0.15 9  146 257 
 PTB  HN ES       2244 46.95                             134   -0.78 9  146 257 
 PTB  HZ I        2244 53.39        15.4 0.26            132            146 257 
 SPBC HZ EP       2244 28.39                             131    0.35 9  164 218 
 SPBC HN ES       2244 50.65                             131   -0.16 9  164 218 
 SPBC HZ I        2244 57.88        26.3 0.10            130            164 218 
 YPLC HZ IP     D 2244 29.73                             128    0.13 9  181 151 
 YPLC HN ES       2244 53.68                             128    0.09 9  181 151 
 YPLC HZ I        2244 54.66        11.2 0.28            131            181 151 
 ZAR  HZ EP   1   2244 30.12                             125   -1.35 6  201 292 
 ZAR  HN ES       2244 56.81                             125   -0.11 9  201 292 
 ZAR  HZ I        2245  2.48        16.2 0.40            124            201 292 
 NOR  HZ EP       2244 35.45                             120    0.44 8  234 233 
 NOR  HN ES       2245  3.54                             120    0.31 8  234 233 
 NOR  HZ I        2245 10.37         8.9 0.28            120            234 233 
 CHI  HZ EP       2244 37.54                             118    0.31 8  251 194 
 CHI  HN ES       2245  6.81                             118   -0.37 8  251 194 
 CHI  HZ I        2245 10.30        11.9 0.54            120            251 194 
 ROSC BZ EP   4   2244 39.35                             118    1.80 0  254 210 
 ROSC BN ES   2   2245  7.06                             118   -0.68 4  254 210 
 ROSC BZ I        2245 13.98        22.1 0.40            119            254 210 
 HEL  HZ EP   4   2244 41.16                             116    1.88 0  270 255 
 HEL  HN ES       2245 11.59                             116    0.76 8  270 255 
 HEL  HZ I        2245 17.38         9.1 0.30            117            270 255 
 VIL  EN ES       2245 17.39                             113    0.11 7  306 191 
 PTGC HZ EP   4   2244 42.43                             113   -1.05 0  312 158 
 CBOC HZ EP   4   2244 47.43                             111    1.50 0  332 251 
 CBOC HN ES   2   2245 22.00                             111   -0.65 3  332 251 
 CBOC HZ I        2245 28.87         2.9 0.40            112            332 251 
 ORTC HZ EP       2244 53.71                             108    0.56 6  396 216 
 ORTC HN ES   4   2245 37.39                             108    1.88 0  396 216 
 ORTC HZ I        2245 40.67         5.8 0.22            109            396 216 
 SJC  HZ EP     C 2244 53.51                             107   -0.71 6  405 327 
 SJC  HN ES   4   2245 34.70                             107   -2.71 0  405 327 
 SJC  HZ I        2245 43.31         2.6 0.38            109            405 327 
 PAL  HZ EP   2   2244 53.61                             107   -0.59 3  405 239 
 PAL  HN ES   4   2245 39.98                             107    2.60 0  405 239 
 PAL  HZ I        2245 49.43         5.5 0.10            108            405 239 
                                                                                
