 2014 1225 2318 58.5 L   6.796 -73.178120.0  RSN  6 0.5 1.5LRSN                1
 GAP=133        1.22       5.4     5.1 11.2 -0.1863E+01  0.2187E+02  0.1247E+02E
 Epicentro: LOS SANTOS - SANTANDER                                             3
 ACTION:UPD 15-02-10 17:07 OP:nd   STATUS:               ID:20141225231858 L   I
 OLDACT:UP  14-12-26 04:53 OP:fm   STATUS:               ID:20141225231750d    3
 OLDACT:UP  14-12-26 04:51 OP:fm   STATUS:               ID:20141225231750d    3
 OLDACT:UP  14-12-26 04:50 OP:fm   STATUS:               ID:20141225231750d    3
 OLDACT:DUP 14-12-26 04:45 OP:fm   STATUS:               ID:20141225231750d    3
 2014-12-25-2317-49M.COL___283                                                 6
 STAT SP IPHASW D HRMM SECON CODA AMPLIT PERI AZIMU VELO AIN AR TRES W  DIS CAZ7
 PAM  SZ EP       2319 18.07                             145   -0.1710 80.0  41 
 PAM  SE ES       2319 33.86                             145    0.2310 80.0  41 
 PAM  SZ I        2319 37.44         6.4 0.54            152           80.0  41 
 RUS  HZ EP       2319 19.56                             138   -0.2610  100 174 
 RUS  HE ES       2319 36.45                             138    0.0110  100 174 
 RUS  HZ I        2319 40.44         4.4 0.54            144            100 174 
 PTB  HZ EP       2319 22.22                             126   -0.94 9  144 259 
 PTB  HN ES       2319 42.89                             126    0.50 9  144 259 
 PTB  HZ I        2319 46.63         5.6 0.16            130            144 259 
 ZAR  HN ES       2319 52.94                             117    0.01 9  201 293 
 ZAR  HZ I        2320  0.89         3.1 0.22            121            201 293 
 NOR  HZ EP       2319 33.52                             113    0.98 8  232 234 
 NOR  HE ES       2319 58.58                             113   -0.50 8  232 234 
 NOR  HZ I        2320  5.39         6.4 0.18            117            232 234 
 CHI  HZ EP   4   2319 33.18                             112   -1.60 0  247 194 
 VIL  SZ EP       2319 41.29                             107    0.53 7  302 191 
                                                                                
