 2017  125 2043  0.6 L   6.765 -73.140147.2  RSN  4 0.2 1.1LRSN                1
 GAP=235        0.60       5.0     5.0  5.0  0.1362E+02  0.4085E+01  0.1583E+01E
 Epicentro: LOS SANTOS - SANTANDER                                             3
 ACTION:UPD 17-05-22 16:03 OP:jn   STATUS:               ID:20170125204300 L   I
 OLDACT:REG 17-01-26 02:29 OP:edw  STATUS:               ID:20170125203744     3
 2017-01-25-2038-00M.COL___360                                                 6
 STAT SP IPHASW D HRMM SECON CODA AMPLIT PERI AZIMU VELO AIN AR TRES W  DIS CAZ7
 BAR2 EZ ES       2043 35.40                             172   -0.3610 19.7 194 
 BAR2 EZ I        2043 36.72         4.8 0.08            170           19.7 194 
 BRR  HZ EP       2043 21.97                             152   -0.1010 73.7 301 
 BRR  HN ES       2043 39.14                             152    0.3410 73.7 301 
 RUS  HZ EP       2043 24.34                             145    0.0910 96.7 176 
 RUS  HN ES       2043 42.85                             145    0.1810 96.7 176 
 RUS  HZ I        2043 43.79         1.6 0.20            145           96.7 176 
 PTB  HZ EP       2043 27.65                             132   -0.06 9  148 260 
 PTB  HN ES       2043 48.72                             132   -0.11 9  148 260 
 PTB  HZ I        2043 50.76         1.4 0.09            132            148 260 
                                                                                
