 2016 1125 2323 10.4 L   6.800 -73.140146.8  RSN 13 0.5 2.2LRSN                1
 GAP=101        1.02       4.2     3.0  5.6 -0.1103E+01  0.3105E+01  0.8904E+01E
 Epicentro: LOS SANTOS - SANTANDER                                             3
 ACTION:UPD 17-10-26 21:11 OP:lp   STATUS:               ID:20161125232310 L   I
 OLDACT:UP  16-11-26 04:05 OP:ar   STATUS:               ID:20161125231749     3
 OLDACT:REG 16-11-26 03:17 OP:ar   STATUS:               ID:20161125231749     3
 2016-11-25-2318-00M.COL___349                                                 6
 STAT SP IPHASW D HRMM SECON CODA AMPLIT PERI AZIMU VELO AIN AR TRES W  DIS CAZ7
 BAR2 EZ EP       2323 29.99                             171   -0.1710 23.4 191 
 BAR2 EZ ES       2323 45.00                             171   -0.5710 23.4 191 
 BAR2 EZ I        2323 47.51        38.3 0.46            165           23.4 191 
 BRR  HZ EP       2323 31.89                             152    0.1910 71.7 298 
 BRR  HN ES       2323 49.25                             152    0.9510 71.7 298 
 BRR  HZ I        2323 51.68        13.7 0.14            153           71.7 298 
 PAM  EZ IP     C 2323 32.74                             151    0.0310 77.0  39 
 PAM  EN ES       2323 50.05                             151   -0.0510 77.0  39 
 PAM  EZ I        2323 52.11        20.5 0.22            152           77.0  39 
 PTB  HZ EP       2323 37.06                             132   -0.45 9  148 259 
 PTB  HN ES       2323 58.22                             132   -0.43 9  148 259 
 PTB  HZ I        2324  5.29        19.9 0.44            130            148 259 
 TAM  HZ EP       2323 37.94                             131   -0.17 9  155 105 
 TAM  HZ I        2323 58.96        16.6 0.38            128            155 105 
 TAM  HN ES       2324  0.14                             131    0.42 9  155 105 
 ZAR  HZ EP       2323 42.48                             122   -0.50 9  205 292 
 ZAR  HN ES       2324  8.17                             122   -0.21 9  205 292 
 ZAR  HZ I        2324 14.40        14.4 0.22            121            205 292 
 NOR  HZ EP       2323 46.29                             119    0.05 8  235 235 
 NOR  HN ES       2324 14.47                             119    0.27 8  235 235 
 NOR  HZ I        2324 17.49        14.0 0.30            116            235 235 
 CHI  HZ EP       2323 48.44                             117    0.27 8  249 195 
 CHI  HN ES       2324 17.01                             117   -0.62 8  249 195 
 CHI  HZ I        2324 23.40         5.4 0.36            114            249 195 
 ROSC BZ EP   4   2323 51.52                             117    2.91 0  253 211 
 ROSC BN ES   4   2324 22.53                             117    4.12 0  253 211 
 ROSC BZ I        2324 27.99        19.7 0.40            114            253 211 
 ELA  HZ EP   9   2323 59.47                             110    2.12 0  330 230 
 ELA  HE ES       2324 36.27                             110    0.19 7  330 230 
 ELA  HZ I        2324 49.44         7.4 0.70            108            330 230 
 CBOC HZ EP       2323 57.70                             110    0.27 7  334 252 
 CBOC HE ES       2324 34.33                             110    0.23 7  334 252 
 CBOC HZ I        2324 43.27         3.7 0.08            108            334 252 
 PRA  HZ EP       2324  3.63                             107   -0.36 6  392 210 
 PRA  HN ES   4   2324 45.44                             107   -0.35 0  392 210 
 PRA  HZ I        2324 51.52         7.4 0.58            105            392 210 
 ORTC HZ EP       2324  5.06                             106    0.66 6  396 216 
 ORTC HN ES       2324 47.59                             106    1.08 6  396 216 
 ORTC HZ I        2324 53.79         5.9 0.46            104            396 216 
                                                                                
