 2017  225 2326  8.2 L   6.773 -73.123144.4  RSN  5 0.3 1.2LRSN                1
 GAP=141        0.72       4.2     4.1  7.4 -0.4194E+01  0.6603E+01  0.1472E+01E
 Epicentro: LOS SANTOS - SANTANDER                                             3
 ACTION:UPD 17-05-24 15:40 OP:jn   STATUS:               ID:20170225232607 L   I
 OLDACT:UP  17-04-19 15:26 OP:nlst STATUS:               ID:20170225232607 L   3
 OLDACT:DUP 17-02-26 10:28 OP:ar   STATUS:               ID:20170225231748d    3
 OLDACT:REG 17-02-26 09:23 OP:ar   STATUS:               ID:20170225231747     3
 2017-02-25-2318-00M.COL___382                                                 6
 STAT SP IPHASW D HRMM SECON CODA AMPLIT PERI AZIMU VELO AIN AR TRES W  DIS CAZ7
 BAR2 EZ EP   1   2326 27.44                             171   -0.13 7 21.0 198 
 BRR  HN ES   2   2326 46.60                             151    0.69 5 74.9 300 
 PAM  EZ EP       2326 30.17                             150   -0.1010 78.2  37 
 PAM  EE ES       2326 47.49                             150   -0.0310 78.2  37 
 PAM  EZ I        2326 49.36         4.5 0.50            152           78.2  37 
 RUS  HZ EP       2326 31.48                             144   -0.0610 97.4 177 
 RUS  HN ES       2326 49.87                             144    0.0910 97.4 177 
 RUS  HZ I        2326 50.88         2.1 0.26            146           97.4 177 
 PTB  HZ EP       2326 35.67                             131    0.49 9  150 260 
 PTB  HE ES       2326 55.79                             131   -0.48 9  150 260 
 PTB  HZ I        2326 57.82         2.0 0.12            133            150 260 
                                                                                
