 2013  125 2306 27.0 L   6.695 -73.145139.6  RSN  6 0.5 1.2LRSN                1
 GAP=161        0.88       6.1     5.7 10.4 -0.6000E+01  0.9037E+01  0.1732E+02E
 Epicentro: VILLANUEVA - SANTANDER                                             3
 ACTION:UPD 13-02-15 09:16 OP:ep   STATUS:               ID:20130125230627 L   I
 2013-01-25-2300-00M.COL___240                                                 6
 STAT SP IPHASW D HRMM SECON CODA AMPLIT PERI AZIMU VELO AIN AR TRES W  DIS CAZ7
 BAR2 SZ ES   2   23 6 59.59                             175   -0.69 5 12.1 200 
 BRR  HZ EP       23 6 48.01                             149    0.1710 77.5 306 
 BRR  HN ES   1   23 7  5.04                             149    0.92 7 77.5 306 
 PAM  SZ EP   1   23 6 49.12                             147   -0.02 7 86.6  35 
 PAM  SN ES   1   23 7  6.13                             147   -0.29 7 86.6  35 
 PAM  SZ I        23 7  9.81         1.9 0.18            150           86.6  35 
 PTB  HZ EP   1   23 6 53.09                             131   -0.20 7  146 263 
 PTB  HN ES   1   23 7 13.19                             131   -0.62 7  146 263 
 PTB  HZ I        23 7 17.59         3.4 0.14            134            146 263 
 ZAR  HN ES   1   23 7 24.71                             120   -0.20 6  209 295 
 CHI  HN ES   1   23 7 31.71                             117    0.41 6  237 196 
                                                                                
