 2011  725 2256 54.1 L   6.839 -73.006145.0  RSN  5 0.3 1.8LRSN                1
 GAP=174        0.54       3.2     5.7  6.0 -0.3704E+01 -0.4641E+01 -0.5353E+00E
 Epicentro: CEPITA - SANTANDER                                                 3
 ACTION:UPD 12-07-25 14:03 OP:epov STATUS:               ID:20110725225654 L   I
 2011-07-25-2253-40S.COL___143                                                 6
 STAT SP IPHASW D HRMM SECON CODA AMPLIT PERI AZIMU VELO AIN AR TRES W  DIS CAZ7
 BAR2 SZ EP   1   2257 13.69                             166   -0.22 7 33.5 216 
 BAR2 SZ ES   1   2257 29.17                             166   -0.17 7 33.5 216 
 BAR2 SZ I        2257 29.95        15.4 0.28                          33.5 216 
 BRR  HZ EP   1   2257 16.19                             148    0.27 7 83.4 291 
 BRR  HN ES   1   2257 33.09                             148    0.16 7 83.4 291 
 BRR  HZ I        2257 37.55        17.6 0.11                          83.4 291 
 RUS  HZ EP   1   2257 18.56                             142    0.44 7  105 185 
 RUS  HN ES   1   2257 36.79                             142   -0.05 7  105 185 
 RUS  HZ I        2257 37.70         4.1 0.36                           105 185 
 GRA  SZ EP   1   2257 18.38                             139   -0.26 7  118  11 
 GRA  SZ ES   1   2257 37.77                             139    0.00 7  118  11 
 GRA  SZ I        2257 39.74        13.9 0.30                           118  11 
 NOR  SN ES   2   2257 59.87                             116   -0.67 4  250 236 
                                                                                
