 2016 1025 2332 57.3 L   6.787 -73.156144.9  RSN  6 0.4 1.7LRSN                1
 GAP=136        0.92       4.0     4.7  6.2 -0.1942E+01  0.3066E+01  0.6505E+01E
 Epicentro: LOS SANTOS - SANTANDER                                             3
 ACTION:UPD 16-11-09 19:22 OP:rebc STATUS:               ID:20161025233257 L   I
 OLDACT:REG 16-10-26 03:17 OP:ar   STATUS:               ID:20161025232749     3
 2016-10-25-2328-00M.COL___343                                                 6
 STAT SP IPHASW D HRMM SECON CODA AMPLIT PERI AZIMU VELO AIN AR TRES W  DIS CAZ7
 BAR2 EZ EP       2333 16.90                             171    0.0610 21.8 188 
 BAR2 EZ ES       2333 31.70                             171   -0.3510 21.8 188 
 BAR2 EZ I        2333 32.92        18.3 0.28            171           21.8 188 
 BRR  HZ EP       2333 18.60                             152    0.2210 70.9 300 
 BRR  HN ES       2333 35.35                             152    0.5610 70.9 300 
 BRR  HZ I        2333 40.30         7.7 0.32            152           70.9 300 
 PAM  EZ EP       2333 19.77                             150    0.2010 79.1  40 
 PAM  EN ES       2333 36.40                             150   -0.5110 79.1  40 
 PAM  EZ I        2333 38.83        13.2 0.52            153           79.1  40 
 RUS  HZ EP       2333 20.79                             144   -0.1310 99.3 175 
 RUS  HN ES       2333 39.88                             144    0.5810 99.3 175 
 RUS  HZ I        2333 40.49         6.1 0.26            146           99.3 175 
 PTB  HZ EP       2333 24.05                             132   -0.07 9  146 259 
 PTB  HN ES       2333 44.55                             132   -0.45 9  146 259 
 PTB  HZ I        2333 46.46         6.6 0.16            133            146 259 
 CHI  HZ EP       2333 34.87                             117    0.05 8  247 195 
 CHI  HE ES       2334  3.72                             117   -0.33 8  247 195 
 CHI  HZ I        2334  7.86         3.6 0.50            119            247 195 
                                                                                
