 2013 1225 2111  0.9 L   6.789 -73.149151.4  RSN  9 0.5 1.8LRSN                1
 GAP=137        1.15       4.6     5.6  8.0 -0.5081E+01  0.6119E+01  0.2538E+01E
 Epicentro: LOS SANTOS - SANTANDER                                             3
 ACTION:UPD 14-01-13 10:21 OP:ep   STATUS:               ID:20131225211100 L   I
 OLDACT:UP  13-12-25 21:31 OP:cam  STATUS:               ID:20131225211000     3
 OLDACT:REG 13-12-25 21:10 OP:cam  STATUS:               ID:20131225211000     3
 2013-12-25-2110-00M.COL___285                                                 6
 STAT SP IPHASW D HRMM SECON CODA AMPLIT PERI AZIMU VELO AIN AR TRES W  DIS CAZ7
 BAR2 SZ EP       2111 21.17                             171   -0.0210 22.0 190 
 BAR2 SZ ES   2   2111 37.30                             171    0.28 5 22.0 190 
 BAR2 SZ I        2111 40.24        12.5 0.38            170           22.0 190 
 BRR  HZ EP       2111 23.11                             153    0.4310 71.5 300 
 BRR  HN ES       2111 40.54                             153    0.8710 71.5 300 
 BRR  HZ I        2111 44.22         8.9 0.18            151           71.5 300 
 PAM  SZ EP       2111 24.05                             151    0.2510 78.6  39 
 PAM  SN ES       2111 41.43                             151   -0.2210 78.6  39 
 PAM  SZ I        2111 43.31        12.0 0.56            156           78.6  39 
 RUS  HZ EP       2111 25.03                             145   -0.1010 99.3 176 
 RUS  HN ES       2111 43.46                             145   -0.5710 99.3 176 
 RUS  HZ I        2111 46.61         3.3 0.42            148           99.3 176 
 PTB  HZ EP       2111 27.72                             133   -0.56 9  147 259 
 PTB  HN ES       2111 48.75                             133   -0.89 9  147 259 
 PTB  HZ I        2111 54.89         6.9 0.30            134            147 259 
 SPBC HZ EP       2111 30.06                             131    0.33 9  162 219 
 SPBC HN ES       2111 52.67                             131    0.46 9  162 219 
 SPBC HZ I        2111 54.83         9.9 0.34            132            162 219 
 NOR  HZ EP   2   2111 37.31                             120    0.45 4  234 235 
 NOR  HN ES   2   2112  5.13                             120    0.23 4  234 235 
 NOR  HZ I        2112 12.56         4.0 0.18            121            234 235 
 SML  HZ EP   2   2111 37.92                             118   -0.04 4  245 336 
 SML  HN ES   1   2112  6.00                             118   -0.86 6  245 336 
 SML  HZ I        2112 11.40         6.6 0.24            121            245 336 
 CHI  HZ EP   2   2111 39.44                             118    0.66 4  247 195 
                                                                                
