 2015  425 2107 37.4 L   6.806 -73.141149.5  RSN 13 0.5 2.5LRSN                1
 GAP= 71        1.18       4.2     3.6  6.4 -0.3603E+00  0.4174E+01  0.4642E+00E
 Epicentro: LOS SANTOS - SANTANDER                                             3
 ACTION:UPD 15-06-03 16:57 OP:cam  STATUS:               ID:20150425210737 L   I
 OLDACT:DUP 15-04-26 05:04 OP:drio STATUS:               ID:20150425205749d    3
 OLDACT:REG 15-04-26 03:08 OP:drio STATUS:               ID:20150425205748     3
 2015-04-25-2057-48M.COL___280                                                 6
 STAT SP IPHASW D HRMM SECON CODA AMPLIT PERI AZIMU VELO AIN AR TRES W  DIS CAZ7
 BAR2 EZ IP     D 21 7 57.56                             170    0.0210 24.1 191 
 BAR2 EZ ES       21 8 12.40                             170   -0.8110 24.1 191 
 BAR2 EZ I        21 8 15.30        48.1 0.32            167           24.1 191 
 BRR  HN EP       21 7 59.57                             153    0.5710 71.3 298 
 BRR  HN ES       21 8 16.87                             153    1.0510 71.3 298 
 BRR  HZ I        21 8 21.80        35.3 0.14            146           71.3 298 
 PAM  SZ EP       21 8  0.42                             152    0.4210 76.5  40 
 PAM  SN ES       21 8 17.31                             152   -0.2910 76.5  40 
 PAM  SZ I        21 8 19.44        57.4 0.50            142           76.5  40 
 RUS  HZ EP       21 8  1.41                             144   -0.2010  101 176 
 RUS  HZ I        21 8 21.19        21.6 0.26            134            101 176 
 PTB  HZ EP       21 8  4.17                             133   -0.61 9  148 259 
 PTB  HN ES       21 8 25.70                             133   -0.40 9  148 259 
 PTB  HZ I        21 8 32.76        55.7 0.32            123            148 259 
 TAM  HZ EP       21 8  5.33                             131   -0.06 9  155 105 
 TAM  HZ I        21 8 26.54        25.6 0.28            120            155 105 
 TAM  HN ES       21 8 27.49                             131    0.31 9  155 105 
 SPBC HZ EP       21 8  6.38                             130    0.07 9  164 219 
 SPBC HN ES       21 8 28.97                             130    0.14 9  164 219 
 SPBC HZ I        21 8 32.93        49.2 0.16            120            164 219 
 ZAR  HZ EP       21 8 10.73                             123    0.57 9  204 292 
 ZAR  HN ES       21 8 35.91                             123    0.24 9  204 292 
 ZAR  HZ I        21 8 41.32        52.3 0.28            114            204 292 
 NOR  HZ EP       21 8 13.64                             119    0.16 8  236 234 
 NOR  HN ES       21 8 41.50                             119   -0.09 8  236 234 
 SML  HZ EP       21 8 13.84                             118   -0.39 8  243 335 
 SML  HN ES       21 8 42.23                             118   -0.70 8  243 335 
 SML  HZ I        21 8 50.10        31.5 0.30            109            243 335 
 HEL  HZ EP   4   21 8 19.32                             115    1.40 0  273 256 
 HEL  HN ES   4   21 8 50.59                             115    1.09 0  273 256 
 HEL  HZ I        21 8 56.26        14.9 0.34            107            273 256 
 URE  HZ EP       21 8 18.33                             114   -0.39 7  284 292 
 URE  HZ I        21 9  1.55        24.3 0.18            106            284 292 
 GUY2CHZ EP   4   21 8 22.46                             113    1.14 0  302 235 
 GUY2CHN ES   4   21 8 56.54                             113    1.00 0  302 235 
 GUY2CHZ I        21 9  4.22        15.4 0.58                           302 235 
                                                                                
