 2016  325 2144 41.5 L   6.550 -73.522111.2  RSN 22 0.5 2.6LRSN                1
 GAP= 53        1.22       2.7     2.8  5.8 -0.2176E+01  0.5577E+01 -0.9858E+00E
 Epicentro: EL CARMEN - SANTANDER                                              3
 ACTION:UPD 16-05-13 21:27 OP:cam  STATUS:               ID:20160325214441 L   I
 OLDACT:DUP 16-03-26 07:11 OP:mh   STATUS:               ID:20160325213747d    3
 OLDACT:UP  16-03-26 07:10 OP:mh   STATUS:               ID:20160325213746     3
 OLDACT:UP  16-03-26 07:05 OP:mh   STATUS:               ID:20160325213746     3
 OLDACT:REG 16-03-26 03:38 OP:mh   STATUS:               ID:20160325213746     3
 2016-03-25-2137-46M.COL___298                                                 6
 STAT SP IPHASW D HRMM SECON CODA AMPLIT PERI AZIMU VELO AIN AR TRES W  DIS CAZ7
 BAR2 EZ IP     D 2144 57.86                             160    0.3210 37.8  83 
 BAR2 EZ ES       2145 10.34                             160    0.3310 37.8  83 
 RUS  HZ IP     D 2145  0.73                             139   -0.2710 87.5 146 
 RUS  HN ES       2145 16.29                             139    0.1210 87.5 146 
 PTB  HZ IP   9 D 2145  0.64                             133   -1.03 0  103 269 
 PTB  HN ES       2145 15.56                             134   -0.7810  103 269 
 PTB  HZ I        2145 16.77       106.3 0.20            126            103 269 
 SPBC HZ EP       2145  2.61                             130   -0.3610  117 212 
 SPBC HN ES       2145 19.06                             130   -0.6310  117 212 
 SPBC HZ I        2145 20.76       149.7 0.32            123            117 212 
 PAM  EZ IP     C 2145  4.31                             128   -0.0910  126  46 
 PAM  EN ES       2145 22.28                             128    0.0410  126  46 
 PAM  EZ I        2145 23.72        87.2 0.26            122            126  46 
 ZAR  HZ EP       2145  9.79                             117    0.37 9  181 305 
 ZAR  HE ES       2145 31.73                             117    0.57 9  181 305 
 ZAR  HZ I        2145 34.11        78.7 0.50            111            181 305 
 NOR  HZ EP       2145  9.30                             116   -0.63 9  185 234 
 NOR  HE ES       2145 31.00                             116   -1.07 9  185 234 
 NOR  HZ I        2145 32.98        55.4 0.16            111            185 234 
 OCA  HZ EP       2145  9.98                             115   -0.43 9  188   7 
 OCA  HN ES       2145 33.14                             115    0.20 9  188   7 
 OCA  HZ I        2145 40.51        99.0 0.20            110            188   7 
 TAM  HZ EP     C 2145 10.62                             115   -0.07 9  192  94 
 TAM  HN ES       2145 32.95                             115   -0.48 9  192  94 
 TAM  HZ I        2145 35.60        33.2 0.16            111            192  94 
 ROSC BZ EP       2145 13.91                             113    0.89 8  209 205 
 ROSC BN ES       2145 39.25                             113    1.68 8  209 205 
 ROSC BZ I        2145 44.25        40.2 0.45            109            209 205 
 CHI  HZ EP       2145 13.61                             112    0.01 8  214 186 
 CHI  HN ES       2145 38.54                             112   -0.06 8  214 186 
 CHI  HZ I        2145 42.65        16.8 0.26            108            214 186 
 HEL  HE EP       2145 14.94                             111    0.06 8  226 260 
 HEL  HZ ES       2145 40.40                             111   -0.49 8  226 260 
 HEL  HE I        2145 44.50        48.9 0.34            107            226 260 
 GUY2CHZ EP       2145 17.66                             108   -0.31 8  251 234 
 GUY2CHN ES   4   2145 47.99                             108    1.61 0  251 234 
 GUY2CHZ I        2145 50.12        40.3 0.32                           251 234 
 URE  HZ EP   4   2145 17.70                             108   -0.56 0  259 301 
 URE  HN ES   4   2145 44.79                             108   -2.11 0  259 301 
 VIL  SZ EP   2   2145 19.38                             107   -0.37 4  270 184 
 VIL  SN ES   1   2145 48.93                             107   -0.62 6  270 184 
 CBOC HZ EP       2145 22.21                             105    0.59 7  286 255 
 CBOC HN ES       2145 52.38                             105   -0.49 7  286 255 
 CBOC HZ I        2145 57.88        11.3 0.30            103            286 255 
 DBB  SZ EP   1   2145 23.58                             104    0.22 5  302 280 
 DBB  SZ I        2145 59.68        61.8 0.23            102            302 280 
 PTGC HZ EP   4   2145 22.01                             104   -1.31 0  302 149 
 PTGC HN ES   4   2145 52.90                             104   -3.01 0  302 149 
 PTGC HZ I        2146  2.30        16.0 0.33            102            302 149 
 ANIL HZ EP   1   2145 24.98                             104    0.52 5  309 223 
 ANIL HE ES   4   2146  0.24                             104    2.31 0  309 223 
 ANIL HZ I        2146  6.26        56.0 0.34            102            309 223 
 ORTC HZ EP       2145 29.36                             101    0.42 6  349 213 
 ORTC HE ES       2146  6.42                             101    0.51 6  349 213 
 ORTC HZ I        2146 12.98        14.2 0.38            100            349 213 
 SOCV BZ EP   4   2145 27.09                             101   -2.09 0  351  57 
 SOCV BN ES   4   2146  3.39                             101   -2.96 0  351  57 
 PAL  HZ EP       2145 29.99                             101    0.20 6  356 239 
 PAL  HN ES   1   2146  7.93                             101    0.51 5  356 239 
 PAL  HZ I        2146 13.87         7.4 0.24            100            356 239 
 SDV  BZ EP       2145 36.08                              99   -0.38 6  410  51 
 SDV  BN ES   4   2146 16.92                              99   -2.38 0  410  51 
 SDV  BZ I        2146 22.27         5.7 0.45             99            410  51 
 SJC  HZ EP       2145 36.14                              99   -0.46 6  413 334 
 SJC  HN ES   4   2146 16.74                              99   -2.81 0  413 334 
 SJC  HZ I        2146 29.84        10.6 0.38             98            413 334 
                                                                                
