 2011 1225 2218 54.2 L   6.791 -73.120150.9  RSN 16 0.4 2.7LRSN                1
 GAP=140        0.64       2.1     3.0  3.7 -0.1235E+01  0.2858E+01  0.1073E+01E
 Epicentro: LOS SANTOS - SANTANDER                                             3
 ACTION:UPD 12-07-13 16:18 OP:ep   STATUS:               ID:20111225221854 L   I
 2011-12-25-2217-59S.COL___190                                                 6
 STAT SP IPHASW D HRMM SECON CODA AMPLIT PERI AZIMU VELO AIN AR TRES W  DIS CAZ7
 BAR2 SZ EP       2219 14.48                             171    0.0110 23.0 197 
 BAR2 SZ ES   1   2219 30.09                             171   -0.17 7 23.0 197 
 BAR2 SZ I        2219 31.04       131.7 0.15                          23.0 197 
 GIR2 SZ EP       2219 14.62                             167    0.0610 32.9 346 
 GIR2 SZ ES   1   2219 30.59                             167    0.18 7 32.9 346 
 BRR  HZ EP       2219 16.15                             153    0.0410 74.2 298 
 BRR  HN ES   1   2219 33.60                             153    0.43 7 74.2 298 
 BRR  HZ I        2219 37.39        69.9 0.16                          74.2 298 
 PAM  SZ EP       2219 17.31                             152    0.3710 76.4  37 
 PAM  SN ES   1   2219 34.53                             152   -0.12 7 76.4  37 
 RUS  HZ EP       2219 18.33                             145   -0.0810 99.4 178 
 RUS  HE ES   1   2219 37.10                             145   -0.17 7 99.4 178 
 RUS  HZ I        2219 38.30        45.7 0.29                          99.4 178 
 PTB  HZ EP       2219 21.31                             133   -0.55 9  150 259 
 PTB  HN ES   1   2219 42.68                             133   -0.72 7  150 259 
 OCA  SZ EP   1   2219 23.25                             130    0.18 7  162 352 
 OCA  SZ ES   1   2219 46.05                             130    0.48 7  162 352 
 OCA  SZ I        2219 50.20        64.0 0.26                           162 352 
 ZAR  HZ EP   1   2219 27.08                             123   -0.25 6  207 292 
 ZAR  HN ES   1   2219 52.95                             123   -0.19 6  207 292 
 ZAR  HZ I        2219 55.19        33.2 0.22                           207 292 
 NOR  SZ EP   1   2219 30.42                             119   -0.03 6  236 235 
 NOR  SN ES   1   2219 58.80                             119    0.10 6  236 235 
 CHI  HZ EP   1   2219 32.33                             118    0.14 6  248 196 
 CHI  HN ES   1   2220  1.64                             118   -0.17 6  248 196 
 CHI  HZ I        2220  5.37        24.1 0.59                           248 196 
 HEL  HZ EP   1   2219 35.85                             116    0.86 6  275 256 
 HEL  HN ES   2   2220  7.09                             116    0.31 4  275 256 
 HEL  HZ I        2220 13.62        22.2 0.33                           275 256 
 VIL  SN ES   1   2220 11.85                             113    0.00 5  303 192 
 VIL  SZ I        2220 21.97        15.2 0.38                           303 192 
 RREF HZ EP   1   2219 40.56                             112   -0.21 5  323 230 
 RREF HN ES   2   2220 17.18                             112    0.11 3  323 230 
 RREF HZ I        2220 26.41        36.3 0.53                           323 230 
 TOL  SZ EP   2   2219 43.52                             110    0.67 3  345 225 
 TOL  SZ ES   2   2220 21.30                             110    0.54 3  345 225 
 COD  HZ EP   1   2219 42.31                             110   -0.66 5  350 354 
 COD  HN ES   1   2220 20.22                             110   -0.76 5  350 354 
 COD  HZ I        2220 27.09        33.9 0.78                           350 354 
 PRA  HZ EP   1   2219 48.18                             107    0.19 4  393 210 
 PRA  HE ES   1   2220 30.33                             107    0.40 4  393 210 
                                                                                
