 2014  225 2244 42.2 L   6.819 -73.189141.4  RSN  8 0.5 1.6LRSN                1
 GAP=130        1.23       4.0     5.4  7.6  0.2906E+01  0.5859E+01  0.2916E+00E
 Epicentro: ZAPATOCA - SANTANDER                                               3
 ACTION:UPD 14-03-10 08:13 OP:ep   STATUS:               ID:20140225224442 L   I
 OLDACT:REG 14-02-26 00:42 OP:carl STATUS:               ID:20140225223943     3
 2014-02-25-2239-43M.COL___245                                                 6
 STAT SP IPHASW D HRMM SECON CODA AMPLIT PERI AZIMU VELO AIN AR TRES W  DIS CAZ7
 BAR2 SZ EP       2245  1.23                             169   -0.0810 25.0 178 
 BAR2 SZ ES       2245 15.28                             169   -0.9610 25.0 178 
 BAR2 SZ I        2245 22.40         8.9 0.38            169           25.0 178 
 BRR  HZ EP       2245  3.18                             154    0.6210 66.0 299 
 BRR  HN ES       2245 19.28                             154    0.8310 66.0 299 
 PAM  SZ EP       2245  4.25                             149    0.2310 79.0  43 
 PAM  SN ES       2245 21.30                             149    0.2310 79.0  43 
 PAM  SZ I        2245 21.73         8.7 0.22            154           79.0  43 
 RUS  HZ EP       2245  5.46                             142   -0.2210  103 173 
 RUS  HN ES       2245 23.95                             142   -0.0710  103 173 
 RUS  HZ I        2245 26.00         3.2 0.32            144            103 173 
 PTB  HE ES       2245 29.03                             132    0.19 9  143 258 
 PTB  HZ I        2245 31.78         5.7 0.64            132            143 258 
 ZAR  HN ES       2245 37.76                             122   -0.69 9  199 292 
 ZAR  HN I        2245 45.34         8.5 0.42            123            199 292 
 SML  HZ EP       2245 17.47                             117   -0.66 8  240 336 
 SML  HE ES       2245 46.02                             117   -0.16 8  240 336 
 SML  HZ I        2245 49.62         4.7 0.26            119            240 336 
 CHI  HZ EP       2245 19.99                             116    0.27 8  249 194 
 CHI  HN ES       2245 49.20                             116    0.20 8  249 194 
 CHI  HZ I        2245 54.43         2.1 0.26            118            249 194 
                                                                                
