 2013 1025 2234 56.4 L   6.795 -73.132146.7  RSN  5 0.4 1.6LRSN                1
 GAP=202        0.87       5.7     6.6  9.7  0.5171E+01  0.7460E+01 -0.1421E+02E
 Epicentro: LOS SANTOS - SANTANDER                                             3
 ACTION:UPD 13-11-25 09:23 OP:ep   STATUS:               ID:20131025223454 L   I
 OLDACT:UP  13-11-19 17:06 OP:ep   STATUS:               ID:20131025223454 L   3
 OLDACT:UP  13-10-25 22:57 OP:mh   STATUS:               ID:20131025222838     3
 OLDACT:UP  13-10-25 22:46 OP:mh   STATUS:               ID:20131025222838     3
 OLDACT:UP  13-10-25 22:43 OP:mh   STATUS:               ID:20131025222838     3
 OLDACT:REG 13-10-25 22:01 OP:y    STATUS:               ID:20131025222838     3
 2013-10-25-2228-38M.COL___230                                                 6
 STAT SP IPHASW D HRMM SECON CODA AMPLIT PERI AZIMU VELO AIN AR TRES W  DIS CAZ7
 BRR  HZ EP   1   2235 18.42                             152    0.71 7 72.8 298 
 BRR  HN ES   1   2235 34.53                             152    0.18 7 72.8 298 
 BRR  HZ I        2235 42.89        13.2 0.31            152           72.8 298 
 RUS  HZ EP   1   2235 19.93                             144   -0.24 7100.0 177 
 RUS  HN ES       2235 38.67                             144   -0.0610100.0 177 
 RUS  HZ I        2235 40.49         3.7 0.29            158          100.0 177 
 PTB  HZ EP   1   2235 23.37                             132   -0.17 7  149 259 
 PTB  HN ES   1   2235 43.93                             132   -0.80 7  149 259 
 PTB  HZ I        2235 46.97         3.3 0.14            139            149 259 
 NOR  HN ES       2236  0.67                             119    0.43 8  236 235 
 SML  HZ EP   1   2235 32.81                             117   -0.35 6  245 335 
 SML  HN ES   4   2236  0.69                             117   -1.18 0  245 335 
 SML  HZ I        2236 10.47         5.0 0.07            121            245 335 
                                                                                
