 2017  325 2338 31.5 L   6.793 -73.166137.5  RSN  7 0.3 2.1LRSN                1
 GAP=134        0.88       3.8     4.1  5.6 -0.2921E+01  0.5729E+01  0.2513E+00E
 Epicentro: LOS SANTOS - SANTANDER                                             3
 ACTION:UPD 17-05-25 18:45 OP:jn   STATUS:               ID:20170325233832dL   I
 OLDACT:REG 17-03-26 03:20 OP:edw  STATUS:               ID:20170325233710     3
 2017-03-25-2338-00M.COL___367                                                 6
 STAT SP IPHASW D HRMM SECON CODA AMPLIT PERI AZIMU VELO AIN AR TRES W  DIS CAZ7
 BAR2 EZ IP       2338 50.15                             170    0.0010 22.3 185 
 BAR2 EZ ES       2339  4.40                             170   -0.2610 22.3 185 
 BAR2 EZ I        2339  6.03        24.2 0.28            168           22.3 185 
 BRR  HZ EP       2338 51.86                             152    0.1610 69.6 300 
 BRR  HN ES       2339  7.76                             152    0.3310 69.6 300 
 BRR  HZ I        2339  9.40        31.6 0.30            152           69.6 300 
 PAM  EZ EP       2338 52.87                             149   -0.1410 79.5  40 
 PAM  EN ES       2339  9.67                             149   -0.0810 79.5  40 
 PAM  EZ I        2339 11.41        16.3 0.36            153           79.5  40 
 RUS  HZ EP       2338 54.20                             142   -0.2410100.0 175 
 RUS  HN ES       2339 12.72                             142    0.4210100.0 175 
 RUS  HZ I        2339 14.70        13.9 0.20            143          100.0 175 
 PTB  HZ EP       2338 56.98                             131   -0.64 9  145 259 
 PTB  HN ES       2339 17.55                             131   -0.41 9  145 259 
 PTB  HZ I        2339 20.99        11.0 0.40            131            145 259 
 SPBC HZ EP       2338 59.40                             127    0.19 9  161 219 
 SPBC HN ES       2339 20.87                             127    0.07 9  161 219 
 SPBC HZ I        2339 28.35        14.7 0.44            128            161 219 
 ZAR  HZ EP       2339  3.95                             121    0.68 9  202 293 
 URE  HZ EP   4   2339 25.98                             112   13.97 0  282 292 
 URE  HN ES   4   2339 42.35                             112   -1.23 0  282 292 
 URE  HZ I    4   2339 44.31        21.9 0.32            114            282 292 
                                                                                
