 2011  225 2052 40.4 L   7.307 -73.921 16.9  RSN  6 0.3 2.8LRSN                1
 GAP=157        0.82       3.5     3.7  5.7 -0.5448E+01  0.2576E+01  0.9554E+01E
 Epicentro: PUERTO WILCHES - SANTANDER                                         3
 ACTION:UP  11-03-28 15:11 OP:jfem STATUS:               ID:20110225205240 L   I
 2011-02-25-2049-17S.COL___136                                                 6
 STAT SP IPHASW D HRMM SECON CODA AMPLIT PERI AZIMU VELO SNR AR TRES W  DIS CAZ7
 BAR2 SZ EP   1   2052 58.01                              96    -0.5 8  114 134 
 BAR2 SZ I        2053 11.50        90.0 0.23                           114 134 
 OCA  SZ EP   1   2052 59.56                              96    -0.3 7  123  33 
 OCA  SZ ES       2053 14.80                              96    -0.210  123  33 
 OCA  SZ I        2053 16.80       255.3 0.18                           123  33 
 GUE  SZ EP       2053  0.82                              96     0.610  124  62 
 GUE  SZ ES   2   2053 15.62                              96    -0.1 5  124  62 
 GRA  SZ EP   1   2053  2.09                              56     0.0 7  139  63 
 GRA  SZ ES   1   2053 18.91                              56    -0.1 7  139  63 
 GRA  SZ I        2053 19.98       353.3 0.28                           139  63 
 RUS  HZ EP   1   2053  8.07                              56     0.2 7  182 149 
 RUS  HZ I        2053  8.54       109.8 0.27                           182 149 
 RUS  HN ES   1   2053 29.29                              56     0.0 7  182 149 
 HEL  HZ EP       2053 12.35                              56     0.3 9  216 235 
 HEL  HN ES   1   2053 36.35                              56    -0.4 6  216 235 
 HEL  HZ I        2053 44.21        29.0 0.26                           216 235 
                                                                                
