 2010  725 2123 37.5 L   6.837 -72.964144.8  RSN  4 0.1 1.5LRSN                1
 GAP=257        0.35       4.0     7.9  4.8  0.2520E+02 -0.1750E+02 -0.7226E+01E
 Epicentro: CEPITA - SANTANDER                                                 3
 ACTION:UPD 10-12-01 15:20 OP:pat  STATUS:               ID:20100725212337 L   I
 2010-07-25-2119-37S.COL___123                                                 6
 STAT SP IPHASW D HRMM SECON CODA AMPLIT PERI AZIMU VELO AIN AR TRES W  DIS CAZ7
 BAR2 SZ EP   2   2123 57.48                             165     0.2 5   36 222 
 BAR2 SZ ES   2   2124 12.91                             165     0.1 5   36 222 
 BAR2 SZ I        2124 14.03         9.9 0.19                            36 222 
 BRR  HZ EP       2123 59.63                             147     0.110   88 290 
 BRR  HN ES       2124 16.71                             147    -0.110   88 290 
 BRR  HZ I        2124 21.17         7.8 1.16                            88 290 
 RUS  HZ EP   1   2124  1.31                             142    -0.2 7  105 187 
 RUS  HN ES       2124 20.21                             142     0.010  105 187 
 RUS  HZ I        2124 21.89         2.9 0.08                           105 187 
 CHI  HN ES   2   2124 46.50                             116     0.1 4  259 199 
 CHI  HZ I        2124 50.59         1.7 0.57                           259 199 
                                                                                
