 2014  825 2151 30.9 L   6.867 -73.196150.3  RSN  4 0.3 2.0LRSN                1
 GAP=209        0.87       6.1     5.1  7.2 -0.1180E+02  0.6587E+01 -0.6155E+01E
 Epicentro: ZAPATOCA - SANTANDER                                               3
 ACTION:UPD 14-09-15 21:53 OP:nd   STATUS:               ID:20140825215130 L   I
 OLDACT:UP  14-08-26 08:22 OP:cam  STATUS:               ID:20140825215000     3
 OLDACT:REG 14-08-26 02:33 OP:cam  STATUS:               ID:20140825215000     3
 2014-08-25-2150-00M.COL___288                                                 6
 STAT SP IPHASW D HRMM SECON CODA AMPLIT PERI AZIMU VELO AIN AR TRES W  DIS CAZ7
 BRR  HZ EP       2151 51.88                             156   -0.2310 62.9 295 
 BRR  HN ES       2152  9.24                             156    0.5910 62.9 295 
 BRR  HN I        2152 10.15        42.6 0.34            153           62.9 295 
 PAM  SZ EP       2151 53.86                             152    0.3510 75.8  46 
 PAM  SN ES       2152 10.74                             152   -0.4010 75.8  46 
 PAM  SZ I        2152 12.79         8.0 0.54            152           75.8  46 
 PTB  HZ EP       2151 57.90                             134   -0.00 9  144 256 
 PTB  HN ES       2152 18.64                             134   -0.33 9  144 256 
 PTB  HZ I        2152 21.23         7.3 0.16            134            144 256 
 SML  HZ EP       2152  6.98                             119    0.16 8  235 336 
 SML  HN ES       2152 34.63                             119   -0.20 8  235 336 
 SML  HZ I        2152 40.60         7.9 0.10            119            235 336 
                                                                                
