 2016  425 2012 39.8 L   6.071 -73.721111.3  RSN 16 0.4 2.5LRSN                1
 GAP= 77        0.96       2.3     2.6  5.1 -0.8742E+00  0.3387E+01 -0.7754E+00E
 Epicentro: VELEZ - SANTANDER                                                  3
 ACTION:UPD 16-05-05 14:24 OP:rebc STATUS:               ID:20160425201239 L   I
 OLDACT:UP  16-04-26 06:05 OP:ar   STATUS:               ID:20160425200743     3
 OLDACT:UP  16-04-26 06:03 OP:ar   STATUS:               ID:20160425200743     3
 OLDACT:REG 16-04-26 05:49 OP:ar   STATUS:               ID:20160425200743     3
 2016-04-25-2007-43M.COL___318                                                 6
 STAT SP IPHASW D HRMM SECON CODA AMPLIT PERI AZIMU VELO AIN AR TRES W  DIS CAZ7
 SPBC HZ EP       2012 56.74                             149   -0.0610 60.5 220 
 SPBC HN ES       2013 10.10                             149    0.0710 60.5 220 
 SPBC HZ I        2013 12.47       127.8 0.18            148           60.5 220 
 RUS  HZ EP       2012 58.00                             145   -0.2210 73.3 106 
 RUS  HN ES       2013 12.58                             145    0.0110 73.3 106 
 RUS  HZ I        2013 13.68        43.1 0.26            147           73.3 106 
 BAR2 EZ EP       2012 58.51                             141   -0.0710 82.9  46 
 BAR2 EZ ES       2013 13.57                             141    0.3710 82.9  46 
 BAR2 EZ I        2013 14.82       230.4 0.34            143           82.9  46 
 PTB  HZ EP       2012 58.55                             136   -0.8210 96.5 303 
 PTB  HN ES       2013 14.27                             136   -0.3410 96.5 303 
 PTB  HZ I        2013 15.95        58.7 0.48            136           96.5 303 
 NOR  HZ EP       2013  3.22                             125   -0.18 9  139 246 
 NOR  HN ES       2013 21.71                             125   -0.07 9  139 246 
 NOR  HZ I        2013 23.99        63.2 0.20            124            139 246 
 ROSC BZ EP   9   2013  7.13                             122    2.02 0  151 206 
 ROSC BN ES       2013 26.83                             122   -0.02 9  151 206 
 ROSC BZ I        2013 29.03        22.6 0.40            122            151 206 
 CHI  HZ EP       2013  5.38                             121   -0.58 9  159 180 
 CHI  HN ES       2013 26.13                             121   -0.21 9  159 180 
 CHI  HZ I        2013 31.75        21.7 0.44            121            159 180 
 PAM  EZ EP       2013  8.19                             117   -0.08 9  180  39 
 PAM  EN ES       2013 30.95                             117    0.50 9  180  39 
 ZAR  HZ EP       2013  9.72                             114   -0.26 9  201 321 
 ZAR  HN ES       2013 33.73                             114    0.23 9  201 321 
 ZAR  HZ I        2013 34.99        49.7 0.34            115            201 321 
 GUY2CHZ EP       2013 11.61                             114    0.64 9  205 243 
 GUY2CHN ES   4   2013 37.65                             114    2.39 0  205 243 
 GUY2CHZ I        2013 42.35        30.4 0.70                           205 243 
 VIL  SE ES       2013 37.48                             112    0.63 8  217 179 
 ANIL HZ EP   4   2013 17.78                             108    1.26 0  255 227 
 ANIL HN ES       2013 45.66                             108    0.53 8  255 227 
 ANIL HZ I        2013 49.10        41.5 0.26            109            255 227 
 PTGC HZ EP   9   2013 15.74                             107   -2.30 0  272 140 
 PTGC HN ES   2   2013 45.86                             107    0.32 4  272 140 
 PTGC HZ I        2013 48.79        26.5 0.30            108            272 140 
 URE  HZ EP   4   2013 16.90                             107   -1.33 0  273 313 
 URE  HE ES   4   2013 45.80                             107   -2.38 0  273 313 
 URE  HZ I        2013 57.06        18.4 0.16            107            273 313 
 ORTC HZ EP       2013 20.62                             105    0.06 7  293 215 
 ORTC HN ES   4   2013 55.18                             105    2.84 0  293 215 
 ORTC HZ I        2013 56.49         8.7 0.50            106            293 215 
 DBB  SZ EP       2013 20.55                             105   -0.26 7  294 291 
 DBB  SZ ES       2013 53.77                             105    0.99 7  294 291 
                                                                                
