 2014 1125 2118 18.3 L   6.800 -73.170142.8  RSN  5 0.4 1.5LRSN                1
 GAP=133        1.01       5.3     5.2  7.5 -0.2786E+01  0.5778E+01  0.1469E+01E
 Epicentro: LOS SANTOS - SANTANDER                                             3
 ACTION:UPD 14-12-19 15:47 OP:nd   STATUS:               ID:20141125211818 L   I
 OLDACT:REG 14-11-26 07:08 OP:stll STATUS:               ID:20141125210746     3
 2014-11-25-2107-46M.COL___306                                                 6
 STAT SP IPHASW D HRMM SECON CODA AMPLIT PERI AZIMU VELO AIN AR TRES W  DIS CAZ7
 BAR2 SZ ES       2118 52.04                             170   -0.5210 23.1 183 
 BAR2 SZ I        2118 53.46         7.5 0.20            169           23.1 183 
 BRR  HZ EP       2118 39.32                             153    0.3710 68.8 300 
 BRR  HN ES       2118 55.70                             153    0.6010 68.8 300 
 PAM  SZ EP       2118 40.36                             150    0.1010 79.1  41 
 PAM  SZ I        2118 40.58         7.3 0.22            151           79.1  41 
 PAM  SE ES       2118 57.12                             150   -0.3110 79.1  41 
 RUS  HZ EP       2118 41.78                             143    0.0410  101 175 
 RUS  HN ES       2119  0.44                             143    0.3810  101 175 
 RUS  HZ I        2119  1.80         3.9 0.30            143            101 175 
 PTB  HZ EP       2118 44.29                             132   -0.46 9  145 259 
 PTB  HN ES       2119  5.11                             132   -0.30 9  145 259 
 PTB  HZ I        2119  6.98         2.8 0.14            132            145 259 
                                                                                
