 2013  525 2124 15.7 L   6.780 -73.119145.1  RSN 11 0.4 2.0LRSN                1
 GAP=141        0.76       3.1     3.9  5.1 -0.1278E+01  0.6261E+01  0.3008E+01E
 Epicentro: LOS SANTOS - SANTANDER                                             3
 ACTION:UPD 13-06-20 09:53 OP:ep   STATUS:               ID:20130525212415 L   I
 2013-05-25-2120-00M.COL___261                                                 6
 STAT SP IPHASW D HRMM SECON CODA AMPLIT PERI AZIMU VELO AIN AR TRES W  DIS CAZ7
 BAR2 SZ EP   1   2124 35.25                             171    0.08 7 21.9 199 
 BAR2 SZ ES   1   2124 50.17                             171   -0.22 7 21.9 199 
 BAR2 SZ I        2124 51.36        19.1 0.14            169           21.9 199 
 GIR2 SZ EP   1   2124 35.43                             166    0.11 7 34.1 346 
 GIR2 SZ ES   1   2124 50.50                             166   -0.16 7 34.1 346 
 GIR2 SZ I        2124 51.42        10.4 0.18            165           34.1 346 
 BRR  HZ EP   1   2124 36.66                             151   -0.28 7 74.9 299 
 BRR  HN ES   1   2124 54.16                             151    0.62 7 74.9 299 
 BRR  HN I        2124 54.76        49.6 0.20            149           74.9 299 
 PAM  SZ EP   1   2124 38.29                             151    0.50 7 77.3  37 
 PAM  SN ES   1   2124 55.11                             151    0.06 7 77.3  37 
 PAM  SZ I        2124 57.88         8.9 0.72            153           77.3  37 
 RUS  HZ EP       2124 39.18                             144    0.0210 98.2 178 
 RUS  HN ES   1   2124 57.40                             144   -0.10 7 98.2 178 
 RUS  HZ I        2124 58.83         9.8 0.32            145           98.2 178 
 PTB  HZ EP   1   2124 42.22                             131   -0.57 7  150 260 
 PTB  HN ES   1   2125  3.20                             131   -0.76 7  150 260 
 PTB  HZ I        2125  6.88        10.6 0.26            130            150 260 
 ZAR  HE ES   1   2125 14.62                             122    0.64 6  208 292 
 ZAR  HZ I        2125 19.68        11.2 0.52            121            208 292 
 NOR  HZ EP   1   2124 51.86                             118    0.40 6  236 235 
 NOR  HE ES   1   2125 19.87                             118    0.48 6  236 235 
 NOR  HZ I        2125 24.66        10.6 0.22            118            236 235 
 SML  HZ EP   1   2124 52.20                             117   -0.39 6  247 335 
 SML  HN ES   1   2125 20.78                             117   -0.63 6  247 335 
 SML  HZ I        2125 24.02        14.4 0.26            117            247 335 
 GUY2CHZ EP   1   2124 59.98                             112    0.62 5  302 235 
 GUY2CHE ES   1   2125 33.54                             112    0.09 5  302 235 
 GUY2CHZ I        2125 42.70         6.7 0.28                           302 235 
 PRA  HZ EP   1   2125  8.95                             106   -0.14 4  392 210 
 PRA  HE ES       2125 50.40                             106   -0.37 6  392 210 
 PRA  HZ I        2125 57.49         4.4 0.30            107            392 210 
                                                                                
