 2010  725 2254 17.5 L   6.819 -73.025146.2  RSN 13 0.7 3.0LRSN                1
 GAP=172        1.55       4.9     9.6  9.0 -0.1850E+02  0.1182E+02  0.6588E+01E
 Epicentro: CEPITA - SANTANDER                                                 3
 ACTION:UPD 10-12-01 15:20 OP:pat  STATUS:               ID:20100725225417 L   I
 2010-07-25-2250-10S.COL___123                                                 6
 STAT SP IPHASW D HRMM SECON CODA AMPLIT PERI AZIMU VELO AIN AR TRES W  DIS CAZ7
 BAR2 SZ EP       2254 37.42                             167     0.010   31 215 
 BAR2 SZ ES   1   2254 53.34                             167     0.5 7   31 215 
 BAR2 SZ I        2254 54.01       379.1 0.03                            31 215 
 BRR  HZ IP       2254 39.27                             149    -0.110   82 293 
 BRR  HN ES       2254 56.37                             149    -0.110   82 293 
 BRR  HZ I        2254 58.45       181.8 0.09                            82 293 
 RUS  HZ EP       2254 41.25                             143    -0.210  103 184 
 RUS  HN ES       2254 59.59                             143    -0.610  103 184 
 RUS  HZ I        2255  1.46       107.2 0.61                           103 184 
 GUE  SZ EP       2254 42.48                             140     0.510  112   6 
 GUE  SZ I        2255  1.87        27.9 0.43                           112   6 
 GRA  SZ EP       2254 42.26                             138    -0.110  120  12 
 GRA  SZ ES   1   2255  1.16                             138    -0.6 7  120  12 
 GRA  SZ I        2255  3.56        68.9 0.62                           120  12 
 OCA  SZ EP       2254 46.24                             130     0.4 9  160 348 
 OCA  SZ ES   1   2255  7.90                             130    -0.1 7  160 348 
 OCA  SZ I        2255 12.55       112.0 0.27                           160 348 
 CHI  HZ EP   1   2254 55.34                             116    -0.5 6  255 198 
 CHI  HN ES   1   2255 26.05                             116     0.3 6  255 198 
 CHI  HZ I        2255 30.63        47.6 0.30                           255 198 
 ROSC BZ EP       2254 57.25                             116     0.6 8  262 213 
 ROSC BN ES       2255 28.28                             116     1.1 8  262 213 
 ROSC BZ I        2255 32.04        88.2 0.94                           262 213 
 CVER SZ EP   1   2254 59.64                             114     0.9 6  279 205 
 HEL  HZ EP       2254 58.66                             113    -0.6 7  286 256 
 HEL  HN ES   2   2255 29.39                             113    -2.4 4  286 256 
 HEL  HZ I        2255 37.14        48.4 0.86                           286 256 
 RREF HZ EP       2255  4.32                             110    -0.7 7  333 231 
 RREF HN ES   1   2255 43.16                             110     1.1 5  333 231 
 RREF HZ I        2255 46.73        60.4 0.71                           333 231 
 ANIL HZ EP   1   2255  9.48                             108     0.9 5  368 226 
 ANIL HN ES   1   2255 49.19                             108     0.7 5  368 226 
 ANIL HZ I        2255 54.19       141.1 1.95                           368 226 
 PRA  HZ EP       2255 10.86                             106    -1.2 6  401 211 
 PRA  HN ES   1   2255 53.02                             106    -1.6 4  401 211 
 PRA  HZ I        2255 59.25        73.8 0.64                           401 211 
                                                                                
