 2012  725 2121 51.3 L   6.779 -73.134145.2  RSN  8 0.4 2.1LRSN                1
 GAP=139        0.97       5.5     5.2  7.4  0.7131E-01  0.1277E+02  0.5183E+01E
 Epicentro: LOS SANTOS - SANTANDER                                             3
 ACTION:UPD 12-08-14 11:45 OP:ep   STATUS:               ID:20120725212151 L   I
 2012-07-25-2120-00M.COL___215                                                 6
 STAT SP IPHASW D HRMM SECON CODA AMPLIT PERI AZIMU VELO AIN AR TRES W  DIS CAZ7
 BAR2 SZ EP       2122 10.67                             171    -0.110   21 194 
 BAR2 SZ ES   1   2122 25.93                             171    -0.1 7   21 194 
 BAR2 SZ I        2122 28.36        45.8 0.35            168             21 194 
 BRR  HZ EP       2122 12.59                             152     0.110   73 300 
 BRR  HZ I        2122 13.05        50.7 0.08            150             73 300 
 BRR  HN ES   1   2122 29.60                             152     0.6 7   73 300 
 PAM  SZ EP   1   2122 13.62                             150     0.1 7   78  38 
 PAM  SZ I        2122 13.99        31.1 0.26            155             78  38 
 PAM  SN ES   1   2122 30.69                             150    -0.1 7   78  38 
 RUS  HZ EP       2122 14.64                             144    -0.210   98 177 
 RUS  HN ES   1   2122 33.45                             144     0.3 7   98 177 
 RUS  HZ I        2122 35.06        24.2 0.42            145             98 177 
 PTB  HZ EP   1   2122 17.44                             132    -0.8 7  149 260 
 PTB  HN ES   1   2122 38.56                             132    -0.8 7  149 260 
 PTB  HZ I        2122 40.90        14.3 0.12            131            149 260 
 ZAR  HZ EP   1   2122 24.54                             122     0.6 6  206 293 
 ZAR  HE ES   1   2122 49.19                             122    -0.2 6  206 293 
 ZAR  HZ I        2122 54.95        22.4 0.28            122            206 293 
 NOR  SZ EP       2122 27.18                             118     0.2 8  234 235 
 NOR  SN ES   1   2122 55.38                             118     0.6 6  234 235 
 NOR  SZ I        2123  1.86         1.3 0.28            119            234 235 
 HEL  HZ EP   1   2122 31.58                             115     0.0 6  273 256 
