 2011  925 2212 33.3 L   6.748 -73.148141.4  RSN  6 0.2 2.1LRSN                1
 GAP=211        0.39       4.0     4.4  5.5  0.7212E+01  0.3597E+01 -0.7830E+00E
 Epicentro: LOS SANTOS - SANTANDER                                             3
 ACTION:UPD 12-07-13 15:59 OP:ep   STATUS:               ID:20110925221233 L   I
 2011-09-25-2209-36S.COL___165                                                 6
 STAT SP IPHASW D HRMM SECON CODA AMPLIT PERI AZIMU VELO AIN AR TRES W  DIS CAZ7
 BAR2 SZ EP   1   2212 52.10                             172   -0.17 7 17.7 192 
 BAR2 SZ ES   2   2213  6.73                             172   -0.36 5 17.7 192 
 BAR2 SZ I        2213  8.60        28.7 0.32                          17.7 192 
 BTL  SZ EP   1   2212 52.41                             170    0.04 7 23.0 325 
 BRR  HZ EP   1   2212 54.01                             151   -0.09 7 73.9 303 
 BRR  HZ I        2212 54.36        38.7 0.11                          73.9 303 
 BRR  HE ES   2   2213 10.81                             151    0.46 5 73.9 303 
 RUS  HZ EP   1   2212 56.36                             144    0.18 7 94.9 176 
 RUS  HN ES   2   2213 14.18                             144    0.13 5 94.9 176 
 RUS  HZ I        2213 15.75         9.7 0.43                          94.9 176 
 ZAR  HZ EP   2   2213  5.78                             121    0.14 4  206 294 
 ZAR  HN ES   2   2213 30.72                             121   -0.17 4  206 294 
 ZAR  HZ I        2213 36.65        11.2 0.58                           206 294 
 NOR  SN ES   2   2213 35.62                             118   -0.13 4  231 236 
                                                                                
