 2015  125 2037 50.9 L   6.792 -73.153137.1  RSN  9 0.4 1.9LRSN                1
 GAP=136        0.88       3.5     3.8  5.9 -0.1599E+01  0.8154E+01  0.1378E+01E
 Epicentro: LOS SANTOS - SANTANDER                                             3
 ACTION:UPD 15-03-02 15:42 OP:nd   STATUS:               ID:20150125203750 L   I
 OLDACT:UP  15-01-26 06:29 OP:mh   STATUS:               ID:20150125202745     3
 OLDACT:REG 15-01-26 05:57 OP:mh   STATUS:               ID:20150125202745     3
 2015-01-25-2027-45M.COL___274                                                 6
 STAT SP IPHASW D HRMM SECON CODA AMPLIT PERI AZIMU VELO AIN AR TRES W  DIS CAZ7
 BAR2 EZ EP   1   2038  8.98                             170   -0.49 7 22.4 188 
 BAR2 EZ ES   1   2038 24.32                             170    0.36 7 22.4 188 
 BAR2 EZ I        2038 26.86        78.0 0.04            170           22.4 188 
 BRR  HZ EP       2038 11.19                             151    0.0810 70.9 299 
 BRR  HN ES       2038 26.59                             151   -0.2710 70.9 299 
 BRR  HZ I        2038 32.22        14.8 0.20            152           70.9 299 
 PAM  SZ EP       2038 12.54                             149    0.2610 78.6  40 
 PAM  SN ES       2038 29.03                             149    0.0810 78.6  40 
 PAM  SZ I        2038 30.00         9.8 0.20            154           78.6  40 
 RUS  HZ EP   1   2038 13.76                             142    0.00 7 99.8 176 
 RUS  HN ES       2038 31.72                             142    0.1410 99.8 176 
 PTB  HZ EP       2038 16.62                             130   -0.47 9  147 259 
 PTB  HN ES   1   2038 37.17                             130   -0.34 7  147 259 
 PTB  HZ I        2038 39.88         7.6 0.28            132            147 259 
 OCA  HN ES   4   2038 35.83                             127   -4.42 0  161 353 
 OCA  HZ I        2038 42.70         8.6 0.24            131            161 353 
 SPBC HZ EP       2038 18.28                             127   -0.36 9  162 219 
 SPBC HN ES       2038 40.00                             127   -0.27 9  162 219 
 SPBC HZ I        2038 46.38        10.6 0.16            130            162 219 
 ZAR  HZ EP       2038 22.52                             120   -0.23 9  204 292 
 ZAR  HN ES       2038 48.08                             120    0.49 9  204 292 
 GUY2CHZ EP   1   2038 34.74                             111    0.75 5  300 235 
 GUY2CHN ES       2039  8.55                             111    0.95 7  300 235 
 GUY2CHZ I        2039 15.72         4.4 0.40                           300 235 
                                                                                
