 2016 1125 2335 36.5 L   6.837 -73.136145.2  RSN 10 0.3 2.1LRSN                1
 GAP=106        0.77       4.1     2.5  5.0  0.4584E+00  0.1548E+01  0.6140E+01E
 Epicentro: LOS SANTOS - SANTANDER                                             3
 ACTION:UPD 17-10-26 21:11 OP:lp   STATUS:               ID:20161125233536 L   I
 OLDACT:UP  16-11-26 04:13 OP:ar   STATUS:               ID:20161125232746     3
 OLDACT:UP  16-11-26 04:13 OP:ar   STATUS:               ID:20161125232746     3
 OLDACT:UP  16-11-26 04:10 OP:ar   STATUS:               ID:20161125232746     3
 OLDACT:UP  16-11-26 04:08 OP:ar   STATUS:               ID:20161125232746     3
 OLDACT:REG 16-11-26 03:18 OP:ar   STATUS:               ID:20161125232746     3
 2016-11-25-2328-00M.COL___349                                                 6
 STAT SP IPHASW D HRMM SECON CODA AMPLIT PERI AZIMU VELO AIN AR TRES W  DIS CAZ7
 BAR2 EZ EP       2335 55.80                             169   -0.3610 27.5 191 
 BAR2 EZ ES       2336 11.47                             169   -0.0210 27.5 191 
 BAR2 EZ I        2336 14.31        16.0 0.68            166           27.5 191 
 BRR  HZ EP       2335 57.39                             153   -0.1610 70.3 295 
 BRR  HN ES       2336 14.47                             153    0.5210 70.3 295 
 BRR  HZ I        2336 17.42        17.9 0.12            154           70.3 295 
 PAM  EZ EP       2335 58.29                             152   -0.1510 73.6  41 
 PAM  EN ES       2336 15.17                             152   -0.3710 73.6  41 
 PAM  EZ I        2336 17.35        19.9 0.50            156           73.6  41 
 PTB  HZ EP   2   2336  2.97                             131   -0.63 5  150 257 
 PTB  HE ES       2336 24.35                             131   -0.38 9  150 257 
 PTB  HZ I        2336 27.37        10.0 0.26            132            150 257 
 TAM  HZ EP       2336  4.28                             130    0.13 9  155 107 
 TAM  HN ES       2336 26.17                             130    0.47 9  155 107 
 TAM  HZ I        2336 30.29        17.0 0.36            132            155 107 
 ZAR  HZ EP       2336  9.06                             122    0.19 9  204 291 
 ZAR  HN ES       2336 34.40                             122    0.30 9  204 291 
 ZAR  HZ I        2336 40.01        18.1 0.50            124            204 291 
 CHI  HZ EP       2336 14.68                             116    0.05 8  253 195 
 CHI  HN ES   2   2336 43.99                             116   -0.38 4  253 195 
 CHI  HZ I        2336 49.44         4.2 0.42            117            253 195 
 ROSC BZ EP   4   2336 16.78                             116    1.74 0  257 211 
 ROSC BN ES   4   2336 49.58                             116    4.49 0  257 211 
 ROSC BZ I        2336 49.87        25.5 0.35            117            257 211 
 ELA  HZ EP   4   2336 31.61                             110    7.88 0  333 229 
 ELA  HN ES       2337  0.93                             110    0.36 7  333 229 
 ELA  HZ I        2337  1.90        17.1 0.34            111            333 229 
 SJC  HZ EP   4   2336 29.67                             106   -2.05 0  406 327 
 SJC  HN ES   4   2337 11.37                             106   -3.42 0  406 327 
 SJC  HZ I        2337 15.17         1.9 0.28            107            406 327 
                                                                                
