 2012 1125 2233 31.0 L   6.834 -73.177143.4  RSN 20 0.6 2.6LRSN 3.4WRSN        1
 SPEC AVERAGE  MO 14.2 ST  8.6 OM  2.8 f0 3.17 R0.4920 AL 2.02 WI 24.4 MW  3.4 3
 SPEC SD       MO  0.2 ST  5.7 OM  0.6 f00.757 R0.1222 AL      WI      MW  0.1 3
 GAP=131        1.22       3.1     4.3  5.8 -0.1311E+01  0.1132E+02  0.1294E+01E
 Epicentro: ZAPATOCA - SANTANDER                                               3
 SPEC ZAR HH N MO 14.3 ST  8.3 OM  2.5 f0 3.22 R0.4565 AL 1.92 WI 37.7 MW  3.4 3
 SPEC ZAR HH N T223428 K 0.000 GD  245 VS 4.20 DE 3.00 Q0230.0 QA 0.60 VS 4.20 3
 SPEC SJC HH E MO 14.1 ST 17.2 OM  2.1 f0 4.62 R0.3182 AL 2.87 WI 18.3 MW  3.3 3
 SPEC SJC HH E T2235 5 K 0.000 GD  428 VS 4.20 DE 3.00 Q0230.0 QA 0.60 VS 4.20 3
 SPEC PRA HH N MO 13.9 ST  4.4 OM  1.9 f0 3.44 R0.4273 AL 2.00 WI 16.5 MW  3.2 3
 SPEC PRA HH N T2235 5 K 0.000 GD  419 VS 4.20 DE 3.00 Q0230.0 QA 0.60 VS 4.20 3
 SPEC HEL HH N MO 14.4 ST  7.5 OM  1.8 f0 2.73 R0.5385 AL 1.46 WI 24.5 MW  3.6 3
 SPEC HEL HH N T223440 K 0.000 GD  305 VP 7.60 DE 3.00 Q0230.0 QA 0.60 VS 4.20 3
 SPEC NOR HH N MO 14.4 ST 18.3 OM  2.6 f0 3.73 R0.3941 AL 2.53 WI 24.6 MW  3.5 3
 SPEC NOR HH N T223433 K 0.000 GD  274 VS 4.20 DE 3.00 Q0230.0 QA 0.60 VS 4.20 3
 SPEC OCA HH N MO 14.2 ST  6.9 OM  2.5 f0 3.17 R0.4637 AL 1.85 WI 21.9 MW  3.4 3
 SPEC OCA HH N T223419 K 0.000 GD  211 VS 4.20 DE 3.00 Q0230.0 QA 0.60 VS 4.20 3
 SPEC ANILHH N MO 14.5 ST  5.7 OM  2.5 f0 2.44 R0.6025 AL 1.87 WI 32.4 MW  3.6 3
 SPEC ANILHH N T223459 K 0.000 GD  385 VS 4.20 DE 3.00 Q0230.0 QA 0.60 VS 4.20 3
 SPEC CHI HH N MO 13.9 ST0.939 OM  2.1 f0 2.00 R0.7350 AL 1.66 WI 19.3 MW  3.2 3
 SPEC CHI HH N T223437 K 0.000 GD  289 VS 4.20 DE 3.00 Q0230.0 QA 0.60 VS 4.20 3
 ACTION:UPD 12-12-05 15:36 OP:}ep  STATUS:               ID:20121125223331 L   I
 2012-11-25-2230-00M.COL___233                                                 6
 STAT SP IPHASW D HRMM SECON CODA AMPLIT PERI AZIMU VELO AIN AR TRES W  DIS CAZ7
 BAR2 SZ EP       2233 50.44                             169   -0.0210 26.7 181 
 BAR2 SZ ES       2234  5.39                             169   -0.2110 26.7 181 
 BAR2 SZ I        2234  6.92        57.6 0.56                          26.7 181 
 GIR2 SZ EP       2233 50.52                             169    0.2010 27.1 356 
 GIR2 SZ ES       2234  5.83                             169    0.4710 27.1 356 
 GIR2 SZ I        2234  7.92        48.9 0.14                          27.1 356 
 PAM  SZ EP     D 2233 53.24                             150    0.2710 76.8  43 
 PAM  SN ES       2234 10.51                             150    0.4410 76.8  43 
 PAM  SN I        2234 11.72        40.2 0.44                          76.8  43 
 RUS  HZ EP       2233 54.34                             142   -0.5110  105 174 
 RUS  HN ES       2234 12.87                             142   -0.5610  105 174 
 RUS  HN I        2234 13.76        39.8 0.32                           105 174 
 PTB  HZ EP   1   2233 57.17                             132   -0.41 7  145 257 
 PTB  HN ES       2234 18.07                             132   -0.21 9  145 257 
 PTB  HN I        2234 21.14        50.1 0.18                           145 257 
 OCA  HZ EP       2233 58.61                             130   -0.17 9  156 354 
 OCA  HN I        2234 24.39       133.4 0.30                           156 354 
 ZAR  HZ EP       2234  3.14                             122    0.28 9  199 292 
 ZAR  HN ES       2234 28.16                             122    0.48 9  199 292 
 CTAB SZ EP   1   2234  7.84                             119    1.03 6  231 210 
 CTAB SZ I        2234 40.65        24.8 0.42                           231 210 
 NOR  HZ EP       2234  6.30                             118   -0.27 8  234 233 
 NOR  HN ES       2234 33.45                             118   -0.84 8  234 233 
 NOR  HN I        2234 41.30        50.0 0.14                           234 233 
 SML  HZ EP   1   2234  6.99                             117   -0.02 6  239 336 
 SML  HN I        2234 47.35        67.1 0.10                           239 336 
 CHI  HZ EP       2234  8.47                             116   -0.44 8  251 194 
 CHI  HN ES       2234 38.19                             116   -0.25 8  251 194 
 CHI  HN I        2234 42.77        26.4 0.52                           251 194 
 ROSC BZ EP       2234 10.29                             116    1.10 8  254 210 
 ROSC BN ES       2234 38.96                             116    0.01 8  254 210 
 HEL  HZ EP       2234 11.76                             114    0.89 8  270 255 
 HEL  HN I        2234 48.93        14.1 0.38                           270 255 
 RREF HZ EP       2234 17.51                             110    0.45 7  322 228 
 RREF HE ES       2234 52.97                             110    0.01 7  322 228 
 RREF HZ I        2235  1.60        20.1 0.32                           322 228 
 DBB  SZ ES       2234 54.79                             109    0.17 7  336 274 
 TOL  SZ EP   1   2234 20.43                             109    1.20 5  344 224 
 MON  HN ES       2234 56.63                             108   -0.44 6  349 308 
 ANIL HN ES       2235  0.49                             108    0.90 6  358 224 
 ANIL HN I        2235  5.92        42.2 0.40                           358 224 
 PRA  HZ EP       2234 24.54                             106   -0.12 6  394 209 
 PRA  HN ES       2235  5.57                             106   -0.92 6  394 209 
 PRA  HN I        2235 11.38        14.6 0.32                           394 209 
 SJC  HN EP       2234 24.45                             105   -1.48 6  404 327 
 SJC  HE ES       2235  7.35                             105   -1.40 6  404 327 
 SJC  HN I        2235 10.77         5.9 0.42                           404 327 
                                                                                
