 2015  225 2257 35.0 L   6.781 -73.156141.9  RSN 14 0.4 2.2LRSN                1
 GAP=136        1.06       3.0     4.4  5.3 -0.3725E+01  0.6953E+01  0.2315E+01E
 Epicentro: LOS SANTOS - SANTANDER                                             3
 ACTION:UPD 15-04-30 21:29 OP:nd   STATUS:               ID:20150225225735 L   I
 OLDACT:REG 15-02-26 02:58 OP:fm   STATUS:               ID:20150225224747     3
 2015-02-25-2247-47M.COL___299                                                 6
 STAT SP IPHASW D HRMM SECON CODA AMPLIT PERI AZIMU VELO AIN AR TRES W  DIS CAZ7
 BAR2 EZ EP       2257 54.22                             171    0.1110 21.1 188 
 BAR2 EZ ES       2258  9.49                             171    0.4610 21.1 188 
 BAR2 EZ I        2258 10.63        56.3 0.16            168           21.1 188 
 BRR  HZ EP       2257 56.33                             152    0.6010 71.3 300 
 BRR  HN ES       2258 12.78                             152    0.8710 71.3 300 
 BRR  HZ I        2258 14.44        25.5 0.40            150           71.3 300 
 PAM  SZ EP       2257 57.25                             149    0.3110 79.7  39 
 PAM  SN ES       2258 13.64                             149   -0.4210 79.7  39 
 PAM  SZ I        2258 14.92        13.5 0.18            154           79.7  39 
 RUS  HZ EP       2257 58.17                             144   -0.0510 98.6 175 
 RUS  HE ES       2258 15.67                             144   -0.6610 98.6 175 
 PTB  HZ EP       2258  0.94                             131   -0.57 9  146 260 
 PTB  HE ES       2258 21.66                             131   -0.54 9  146 260 
 PTB  HZ I        2258 25.97        13.8 0.26            130            146 260 
 SPBC HZ EP       2258  3.19                             129    0.21 9  161 219 
 SPBC HN ES       2258 24.30                             129   -0.50 9  161 219 
 SPBC HZ I        2258 31.15        27.6 0.20            128            161 219 
 NOR  HZ EP       2258 10.65                             118    0.38 8  233 235 
 NOR  HE ES       2258 37.99                             118    0.20 8  233 235 
 NOR  HZ I        2258 46.01        12.3 0.12            118            233 235 
 SML  HZ EP       2258 11.03                             116   -0.54 8  245 336 
 SML  HE ES       2258 39.44                             116   -0.65 8  245 336 
 SML  HZ I        2258 43.31        16.0 0.10            118            245 336 
 CHI  HZ EP       2258 12.33                             117    0.10 8  246 195 
 CHI  HN ES       2258 41.20                             117   -0.07 8  246 195 
 CHI  HZ I        2258 48.96         6.0 0.36            117            246 195 
 ROSC BE ES       2258 42.27                             116    0.26 8  250 211 
 GUY2CHZ EP       2258 18.79                             112    0.60 7  299 235 
 GUY2CHE ES       2258 51.92                             112    0.04 7  299 235 
 GUY2CHZ I        2259  0.82        12.6 0.38                           299 235 
 TOL  SZ EP       2258 22.86                             109    0.03 7  341 225 
 TOL  SE ES       2258 59.53                             109   -0.62 7  341 225 
 TOL  SZ I        2259 11.04         6.5 0.56            109            341 225 
 PRA  HE ES       2259  9.61                             106    0.08 6  390 210 
 PRA  HZ I        2259 17.31        10.8 0.28            106            390 210 
 ORTC HZ EP       2258 28.65                             106    0.14 6  393 216 
 ORTC HN ES       2259 10.34                             106    0.09 6  393 216 
 ORTC HZ I        2259 17.20         5.8 0.56            106            393 216 
                                                                                
