 2016  525 2132  8.3 L   6.814 -73.147147.8  RSN  9 0.4 1.9LRSN                1
 GAP=136        0.99       4.7     4.7  6.0 -0.5713E+01  0.4436E+01  0.1076E+02E
 Epicentro: LOS SANTOS - SANTANDER                                             3
 ACTION:UPD 16-08-18 17:49 OP:cam  STATUS:               ID:20160525213208 L   I
 OLDACT:REG 16-05-26 04:13 OP:dani STATUS:               ID:20160525212743     3
 2016-05-25-2127-43M.COL___319                                                 6
 STAT SP IPHASW D HRMM SECON CODA AMPLIT PERI AZIMU VELO AIN AR TRES W  DIS CAZ7
 BAR2 EZ ES       2132 43.23                             170   -0.5210 24.8 189 
 BRR  HE ES       2132 47.12                             153    0.8410 70.3 298 
 BRR  HZ I        2133  1.77        20.7 0.30            148           70.3 298 
 PAM  EZ EP     D 2132 30.90                             151    0.2010 76.3  40 
 PAM  EE ES       2132 48.11                             151   -0.0410 76.3  40 
 PAM  EZ I        2132 50.11        13.6 0.50            156           76.3  40 
 RUS  HZ EP       2132 32.15                             144   -0.2410  102 176 
 RUS  HN ES       2132 51.27                             144    0.1210  102 176 
 RUS  HZ I        2132 51.71         8.4 0.28            149            102 176 
 PTB  HZ EP       2132 34.99                             132   -0.48 9  148 258 
 PTB  HN ES       2132 55.89                             132   -0.75 9  148 258 
 PTB  HZ I        2133  2.05         6.3 0.20            132            148 258 
 SPBC HZ EP       2132 37.29                             129    0.21 9  164 219 
 SPBC HE ES   2   2133  0.04                             129    0.53 5  164 219 
 SPBC HZ I        2133  3.33        17.8 0.18            131            164 219 
 NOR  HZ EP       2132 44.25                             119   -0.00 8  235 234 
 NOR  HE ES       2133 12.52                             119    0.25 8  235 234 
 NOR  HZ I        2133 18.18         3.6 0.20            120            235 234 
 CHI  HZ EP       2132 46.16                             117   -0.13 8  250 195 
 CHI  HN ES   2   2133 16.07                             117    0.17 4  250 195 
 CHI  HZ I        2133 18.93         4.3 0.35            121            250 195 
 PRA  HZ EP       2133  2.42                             107    0.36 6  393 209 
 PRA  HN ES       2133 44.59                             107    0.62 6  393 209 
 PRA  HZ I        2133 50.40         3.0 0.16            109            393 209 
                                                                                
