 2011  525 2352 40.9 L   6.138 -73.713107.7  RSN  5 0.1 1.7LRSN                1
 GAP=249        0.31       4.0     7.2  6.4  0.2161E+02  0.2148E+02  0.1315E+02E
 Epicentro: LANDAZURI - SANTANDER                                              3
 ACTION:UP  11-06-29 08:56 OP:tino STATUS:               ID:20110525235240 L   I
 2011-05-25-2348-11S.COL___114                                                 6
 STAT SP IPHASW D HRMM SECON CODA AMPLIT PERI AZIMU VELO SNR AR TRES W  DIS CAZ7
 RUS  HZ EP       2352 59.04                             143     0.010   75 111 
 RUS  HZ I        2353 16.34         3.0 0.37                            75 111 
 BAR2 SZ EP       2352 58.85                             142     0.010   77  49 
 BAR2 SZ ES   2   2353 12.88                             142     0.0 5   77  49 
 BAR2 SZ I        2353 13.68        27.3 0.25                            77  49 
 BTL  SZ EP       2353  0.80                             134     0.110   99  30 
 BRR  HZ EP       2353  1.04                             131     0.010  107   0 
 BRR  HZ I        2353  1.37        23.5 0.11                           107   0 
 BRR  HN ES   1   2353 16.78                             131     0.0 7  107   0 
 GIR2 SZ EP       2353  2.27                             128    -0.110  119  29 
                                                                                
