 2011 1125 2351 12.6 L   6.782 -73.169146.6  RSN  5 0.5 1.9LRSN                1
 GAP=134        0.91       6.3     6.6  8.7  0.1031E+02  0.1349E+02 -0.2212E+01E
 Epicentro: LOS SANTOS - SANTANDER                                             3
 ACTION:UPD 12-07-13 16:12 OP:ep   STATUS:               ID:20111125235112 L   I
 2011-11-25-2349-20S.COL___160                                                 6
 STAT SP IPHASW D HRMM SECON CODA AMPLIT PERI AZIMU VELO AIN AR TRES W  DIS CAZ7
 BAR2 SZ EP   1   2351 32.45                             171    0.13 7 21.0 184 
 BAR2 SZ I        2351 32.89        18.9 0.09                          21.0 184 
 BAR2 SZ ES   1   2351 47.06                             171   -0.62 7 21.0 184 
 BRR  HZ EP   1   2351 34.37                             153    0.57 7 69.9 301 
 BRR  HZ I        2351 34.71        33.2 0.11                          69.9 301 
 BRR  HN ES   1   2351 51.12                             153    0.81 7 69.9 301 
 PAM  SZ EP   1   2351 35.33                             150    0.20 7 80.6  40 
 PAM  SZ I        2351 35.63        12.5 0.19                          80.6  40 
 PAM  SN ES   1   2351 52.31                             150   -0.37 7 80.6  40 
 RUS  HZ EP   1   2351 36.35                             144    0.01 7 98.8 174 
 RUS  HN ES   1   2351 54.89                             144    0.06 7 98.8 174 
 RUS  HZ I        2351 56.81         7.7 0.28                          98.8 174 
 ZAR  HZ EP   1   2351 44.40                             123   -0.56 6  202 293 
 ZAR  HN ES   1   2352  9.65                             123   -0.53 6  202 293 
                                                                                
