 2017  725 2252 13.2 L   6.832 -73.233141.6  RSN  5 0.5 1.5LRSN                1
 GAP=228        1.10       8.3     7.7  8.5  0.1314E+01  0.1717E+02 -0.8937E+01E
 Epicentro: ZAPATOCA - SANTANDER                                               3
 ACTION:UPD 17-08-30 15:36 OP:rebc STATUS:               ID:20170725225213 L   I
 OLDACT:DUP 17-07-26 04:35 OP:lv   STATUS:               ID:20170725224737d    3
 2017-07-25-2248-00M.COL___395                                                 6
 STAT SP IPHASW D HRMM SECON CODA AMPLIT PERI AZIMU VELO AIN AR TRES W  DIS CAZ7
 BAR2 EZ ES       2252 47.39                             169   -0.0410 27.1 168 
 BAR2 EZ I        2252 48.31         7.6 0.09            171           27.1 168 
 BRR  HZ EP       2252 32.78                             155   -0.5910 61.0 300 
 BRR  HE ES       2252 49.55                             155    0.4610 61.0 300 
 PTB  HZ EP   9   2252 38.26                             133   -0.81 0  139 257 
 PTB  HN ES       2252 58.61                                    0.20 9  139 257 
 PTB  HZ I        2253  1.39         2.4 0.11            132            139 257 
 ZAR  HZ EP       2252 45.10                             123    0.76 9  194 292 
 ZAR  HE ES       2253  8.10                             123   -0.51 9  194 292 
 ZAR  HZ I        2253 14.22         6.9 0.42            122            194 292 
 NOR  HN ES       2253 15.29                             118   -0.03 8  229 232 
                                                                                
