 2014 1125 2137 55.3 L   6.742 -73.160139.2  RSN  6 0.5 1.7LRSN                1
 GAP=137        1.35       6.1     8.1  9.3 -0.1398E+02  0.1586E+02  0.4434E+01E
 Epicentro: LOS SANTOS - SANTANDER                                             3
 ACTION:UPD 14-12-19 15:47 OP:nd   STATUS:               ID:20141125213755 L   I
 OLDACT:REG 14-11-26 07:09 OP:stll STATUS:               ID:20141125212744     3
 2014-11-25-2127-44M.COL___306                                                 6
 STAT SP IPHASW D HRMM SECON CODA AMPLIT PERI AZIMU VELO AIN AR TRES W  DIS CAZ7
 BAR2 SZ EP       2138 14.31                             173    0.2810 16.8 189 
 BAR2 SZ I        2138 14.39        14.5 0.40            171           16.8 189 
 BAR2 SZ ES       2138 28.80                             173    0.1710 16.8 189 
 BRR  HZ EP       2138 16.18                             151    0.3110 73.2 303 
 BRR  HN ES       2138 32.47                             151    0.5710 73.2 303 
 PAM  SZ EP       2138 17.24                             148    0.0310 83.3  38 
 PAM  SZ I        2138 17.47         5.8 0.24            148           83.3  38 
 PAM  SN ES       2138 33.43                             148   -0.8610 83.3  38 
 RUS  HZ EP       2138 18.17                             144    0.2110 94.3 175 
 RUS  HN ES       2138 35.95                             144    0.3110 94.3 175 
 RUS  HZ I        2138 37.69         5.9 0.24            143           94.3 175 
 PTB  HZ EP       2138 20.92                             131   -0.58 9  145 261 
 SPBC HZ EP       2138 23.19                             129    0.45 9  157 220 
 SPBC HN ES       2138 43.09                             129   -1.05 9  157 220 
 SPBC HZ I        2138 44.64        12.5 0.10            129            157 220 
                                                                                
