 2011 1025 2232 59.0 L   6.733 -73.125146.2  RSN  7 0.3 2.0LRSN                1
 GAP=142        0.65       3.5     4.9  6.2  0.1598E+00  0.8384E+01 -0.1406E+01E
 Epicentro: JORDAN - SANTANDER                                                 3
 ACTION:UPD 12-07-13 16:06 OP:ep   STATUS:               ID:20111025223259 L   I
 2011-10-25-2230-38S.COL___176                                                 6
 STAT SP IPHASW D HRMM SECON CODA AMPLIT PERI AZIMU VELO AIN AR TRES W  DIS CAZ7
 BAR2 SZ EP   1   2233 18.71                             173    0.12 7 16.8 202 
 BAR2 SZ ES   1   2233 33.90                             173    0.05 7 16.8 202 
 BAR2 SZ I        2233 35.56        17.7 0.34                          16.8 202 
 BRR  HZ EP       2233 20.74                             151    0.2010 76.9 303 
 BRR  HZ I        2233 20.95        46.7 0.13                          76.9 303 
 BRR  HN ES   1   2233 37.93                             151    0.60 7 76.9 303 
 PAM  SZ EP   1   2233 21.53                             150   -0.02 7 81.9  35 
 PAM  SN ES   1   2233 38.88                             150   -0.25 7 81.9  35 
 RUS  HZ EP   1   2233 22.61                             146    0.33 7 93.1 177 
 RUS  HN ES   1   2233 40.00                             146   -0.43 7 93.1 177 
 RUS  HZ I        2233 42.64         7.6 0.27                          93.1 177 
 OCA  SZ ES   1   2233 50.25                             128   -0.50 7  168 353 
 OCA  SZ I        2233 55.27        18.4 0.36                           168 353 
 ZAR  HZ EP   1   2233 31.94                             122   -0.06 6  209 294 
 ZAR  HE ES   2   2233 57.21                             122   -0.52 4  209 294 
 ZAR  HZ I        2234  5.09         8.3 0.40                           209 294 
 NOR  SN ES   2   2234  1.75                             119   -0.46 4  232 236 
                                                                                
