 2013 1225 2300  6.0 L   6.772 -73.158142.0  RSN  8 0.3 1.8LRSN                1
 GAP= 71        0.84       4.2     4.1  5.7 -0.1427E+01  0.2106E+01  0.7054E+00E
 Epicentro: LOS SANTOS - SANTANDER                                             3
 ACTION:UPD 14-01-13 10:21 OP:ep   STATUS:               ID:20131225230006 L   I
 OLDACT:REG 13-12-25 21:13 OP:cam  STATUS:               ID:20131225230000     3
 2013-12-25-2300-00M.COL___285                                                 6
 STAT SP IPHASW D HRMM SECON CODA AMPLIT PERI AZIMU VELO AIN AR TRES W  DIS CAZ7
 BAR2 SZ EP       23 0 25.14                             172    0.0410 20.1 188 
 BAR2 SZ ES       23 0 39.86                             172   -0.1510 20.1 188 
 BAR2 SZ I        23 0 42.06        29.1 0.20            171           20.1 188 
 BRR  HZ EP       23 0 26.97                             152    0.2210 71.5 301 
 BRR  HN ES       23 0 43.63                             152    0.6910 71.5 301 
 BRR  HZ I        23 0 44.05        10.7 0.12            153           71.5 301 
 PAM  SZ EP       23 0 28.06                             149    0.0610 80.6  39 
 PAM  SN ES       23 0 44.72                             149   -0.4510 80.6  39 
 PAM  SZ I        23 0 46.95        10.1 0.46            151           80.6  39 
 RUS  HZ EP       23 0 29.19                             144    0.0310 97.6 175 
 RUS  HN ES       23 0 47.40                             144    0.1710 97.6 175 
 RUS  HZ I        23 0 49.23         5.9 0.38            145           97.6 175 
 PTB  HZ EP       23 0 32.05                             132   -0.43 9  146 260 
 PTB  HN ES       23 0 52.65                             132   -0.49 9  146 260 
 PTB  HZ I        23 0 54.79         7.7 0.18            133            146 260 
 TAM  HZ EP   2   23 0 33.63                             130    0.21 5  156 104 
 SPBC HZ EP   2   23 0 34.38                             129    0.49 5  160 219 
 SML  HZ EP   2   23 0 42.90                             116    0.25 4  246 336 
                                                                                
