 2016  625 2314 14.5 L   6.817 -73.162151.9  RSN 27 0.5 2.9LRSN                1
 GAP= 64        1.00       2.6     3.1  4.7 -0.1661E+01  0.6548E+00  0.1608E+01E
 Epicentro: LOS SANTOS - SANTANDER                                             3
 ACTION:UPD 16-07-21 22:22 OP:rebc STATUS:               ID:20160625231414 L   I
 OLDACT:UP  16-06-26 06:34 OP:dani STATUS:               ID:20160625230743d    3
 OLDACT:UP  16-06-26 06:33 OP:dani STATUS:               ID:20160625230743d    3
 OLDACT:UP  16-06-26 06:27 OP:dani STATUS:               ID:20160625230743d    3
 OLDACT:DUP 16-06-26 06:20 OP:dani STATUS:               ID:20160625230743d    3
 OLDACT:UP  16-06-26 06:20 OP:dani STATUS:               ID:20160625230742     3
 OLDACT:REG 16-06-26 03:35 OP:dani STATUS:               ID:20160625230742     3
 2016-06-25-2307-42M.COL___333                                                 6
 STAT SP IPHASW D HRMM SECON CODA AMPLIT PERI AZIMU VELO AIN AR TRES W  DIS CAZ7
 BRR  HZ IP     C 2314 36.65                             154    0.4510 68.8 298 
 BRR  HN ES       2314 53.81                             154    0.6910 68.8 298 
 BRR  HZ I        2314 57.72       118.1 0.30                          68.8 298 
 PAM  EZ EP       2314 37.67                             152    0.2910 77.1  41 
 PAM  EN ES       2314 54.87                             152   -0.3410 77.1  41 
 PAM  EZ I        2314 57.03       103.7 0.50                          77.1  41 
 RUS  HZ EP     D 2314 38.73                             144   -0.2910  103 175 
 RUS  HE ES       2314 57.62                             144   -0.5010  103 175 
 RUS  HZ I        2314 58.92        68.0 0.24                           103 175 
 PTB  HZ EP       2314 41.40                             134   -0.47 9  146 258 
 PTB  HN ES       2315  2.70                             134   -0.51 9  146 258 
 PTB  HZ I        2315  9.25        58.1 0.16                           146 258 
 TAM  HZ IP     D 2314 43.26                             131    0.37 9  157 105 
 TAM  HN ES   4   2315  3.01                             131   -2.01 0  157 105 
 TAM  HZ I        2315  6.31        40.6 0.48                           157 105 
 SPBC HZ EP       2314 43.77                             130    0.25 9  163 218 
 SPBC HN ES       2315  6.13                             130   -0.02 9  163 218 
 SPBC HZ I        2315 10.72       131.5 0.20                           163 218 
 ZAR  HZ EP       2314 47.59                             124    0.46 9  202 292 
 ZAR  HE ES       2315 12.91                             124    0.34 9  202 292 
 ZAR  HZ I        2315 18.23        85.3 0.42                           202 292 
 NOR  HZ EP       2314 50.91                             120    0.34 8  234 234 
 NOR  HN ES       2315 18.44                             120   -0.25 8  234 234 
 NOR  HZ I        2315 28.40        44.8 0.42                           234 234 
 CHI  HZ EP       2314 53.11                             118    0.41 8  250 195 
 CHI  HN ES       2315 22.40                             118   -0.09 8  250 195 
 CHI  HZ I        2315 25.83        51.3 0.62                           250 195 
 ROSC BZ EP   4   2314 54.84                             118    1.79 0  253 210 
 ROSC BE ES       2315 23.76                             118    0.65 8  253 210 
 ROSC BZ I        2315 29.50       124.5 0.40                           253 210 
 HEL  HZ EP   4   2314 56.79                             116    1.88 0  271 255 
 HEL  HE ES       2315 25.92                             116   -0.50 8  271 255 
 HEL  HZ I        2315 33.81        26.9 0.52                           271 255 
 URE  HZ EP       2314 54.78                             115   -0.85 7  281 292 
 URE  HE ES   4   2315 26.36                             115   -1.34 0  281 292 
 URE  HZ I        2315 38.71        44.0 0.20                           281 292 
 GUY2CHZ EP       2314 58.90                             113    0.53 7  301 234 
 GUY2CHN ES       2315 32.30                             113   -0.28 7  301 234 
 GUY2CHZ I        2315 41.07        43.0 0.34                           301 234 
 LL1C HN ES   4   2315 35.28                             113    3.07 0  305 352 
 VIL  SZ EP       2314 58.82                             113    0.44 7  305 191 
 PTGC HZ EP       2314 57.95                             112   -0.97 7  311 158 
 PTGC HZ I        2315 37.02        28.4 0.46                           311 158 
 LL6C HZ EP       2314 59.35                             112   -0.92 7  323 358 
 LL6C HE ES       2315 35.91                             112   -0.05 7  323 358 
 LL6C HZ I        2315 40.89        21.5 0.40                           323 358 
 ELA  HZ EP   9   2315  3.48                             111    1.86 0  329 229 
 ELA  HN ES       2315 40.27                             111    0.05 7  329 229 
 ELA  HZ I        2315 47.54        35.9 0.52                           329 229 
 CBOC HZ EP   4   2315  3.10                             111    1.54 0  332 252 
 CBOC HN ES   4   2315 35.28                             111   -2.98 0  332 252 
 CBOC HZ I        2315 44.60        11.5 0.74                           332 252 
 ANIL HZ EP   4   2315  6.13                             109    1.56 0  357 224 
 ANIL HE ES   4   2315 46.80                             109    3.19 0  357 224 
 PRA  HZ EP       2315  8.46                             107    0.12 6  393 209 
 PRA  HN ES       2315 50.58                             107    0.26 6  393 209 
 PRA  HZ I        2315 57.06        52.9 0.34                           393 209 
 ORTC HZ EP       2315  9.06                             107    0.36 6  396 216 
 ORTC HE ES   4   2315 52.42                             107    1.45 0  396 216 
 ORTC HZ I        2315 56.18        23.9 0.26                           396 216 
 PAL  HZ EP       2315 10.41                             107    0.59 6  405 239 
 PAL  HN ES   4   2315 52.04                             107   -0.91 0  405 239 
 PAL  HZ I        2316  4.01         9.2 0.68                           405 239 
 SJC  HZ EP   4   2315  8.43                             107   -1.57 0  407 327 
 SJC  HN ES   4   2315 50.16                             107   -3.11 0  407 327 
 SJC  HZ I        2315 57.94        17.0 0.40                           407 327 
 CRJC HZ EP   4   2315 15.19                             104   -1.80 0  466   4 
 CRJC HN ES   4   2316  1.27                             104   -4.45 0  466   4 
 CRJC HZ I        2316 10.14        27.6 0.28                           466   4 
 YOT  HZ EP       2315 17.47                             104   -0.25 5  472 229 
 YOT  HE ES       2316  6.26                             104   -0.76 5  472 229 
 SMAR HZ EP       2315 20.23                             103   -0.06 4  495 346 
 SMAR HN ES   4   2316  8.91                             103   -2.69 0  495 346 
 SMAR HZ I        2316 10.54        16.9 0.40                           495 346 
 URI  HZ EP   4   2315 25.08                             101   -2.42 0  555  13 
 URI  HN ES   4   2316 22.80                             101   -1.63 0  555  13 
 URI  HZ I        2316 26.95         3.9 0.48                           555  13 
 GARC HZ EP       2315 29.33                             101   -0.68 3  574 207 
 GARC HE ES   4   2316 26.88                             101   -2.01 0  574 207 
 GARC HZ I        2316 31.20        13.2 0.36                           574 207 
                                                                                
