 2016  325 2345  6.6 L   6.774 -73.151146.2  RSN 10 0.6 1.9LRSN                1
 GAP=137        1.32       4.0     5.4  8.6 -0.5146E+01  0.1593E+02 -0.2868E+01E
 Epicentro: LOS SANTOS - SANTANDER                                             3
 ACTION:UPD 16-05-13 21:27 OP:cam  STATUS:               ID:20160325234506 L   I
 OLDACT:UP  16-03-26 09:55 OP:mh   STATUS:               ID:20160325233743     3
 OLDACT:UP  16-03-26 09:54 OP:mh   STATUS:               ID:20160325233743     3
 OLDACT:REG 16-03-26 03:40 OP:mh   STATUS:               ID:20160325233743     3
 2016-03-25-2337-43M.COL___298                                                 6
 STAT SP IPHASW D HRMM SECON CODA AMPLIT PERI AZIMU VELO AIN AR TRES W  DIS CAZ7
 BAR2 EZ EP   1   2345 26.41                             172    0.18 7 20.4 190 
 BAR2 EZ ES       2345 41.34                             172   -0.2010 20.4 190 
 BAR2 EZ I        2345 42.93        27.1 0.18            169           20.4 190 
 PAM  EZ EP       2345 29.25                             150    0.2210 80.0  39 
 PAM  EN ES       2345 45.88                             150   -0.6310 80.0  39 
 PAM  EZ I        2345 48.94        17.3 0.18            153           80.0  39 
 RUS  HZ EP       2345 30.48                             145    0.2810 97.8 176 
 RUS  HN ES       2345 48.87                             145    0.2710 97.8 176 
 PTB  HZ EP       2345 32.79                             132   -0.72 9  147 260 
 PTB  HN ES       2345 53.85                             132   -0.64 9  147 260 
 PTB  HZ I        2345 56.32        11.4 0.18            131            147 260 
 SPBC HZ EP   4   2345 32.70                             129   -2.19 0  161 219 
 SPBC HN ES       2345 56.88                             129   -0.07 9  161 219 
 SPBC HZ I        2345 59.63        13.2 0.09            129            161 219 
 OCA  HZ EP       2345 34.68                             129   -0.53 9  163 353 
 OCA  HN ES       2345 58.39                             129    0.87 9  163 353 
 ZAR  HZ EP       2345 39.65                             122    0.51 9  205 293 
 ZAR  HN ES       2346  5.12                             122    0.62 9  205 293 
 NOR  HZ EP   1   2345 41.63                             119   -0.50 6  233 235 
 NOR  HE ES       2346 10.74                             119    0.90 8  233 235 
 NOR  HZ I        2346 14.78                             118            233 235 
 CHI  HZ EP   1   2345 43.04                             117   -0.98 6  246 195 
 CHI  HN ES       2346 13.75                             117    0.56 8  246 195 
 CHI  HZ I        2346 20.69         2.2 0.44            117            246 195 
 HEL  HZ EP   4   2345 48.47                             115    1.77 0  271 256 
 HEL  HN ES   1   2346 17.02                             115   -0.95 6  271 256 
 HEL  HZ I        2346 26.80         2.8 0.28            115            271 256 
 GUY2CHZ EP   4   2345 53.30                             112    3.30 0  299 235 
 GUY2CHN ES   4   2346 28.31                             112    4.48 0  299 235 
                                                                                
