 2014  425 2322 37.6 L   6.840 -73.127140.2  RSN  9 0.5 1.8LRSN                1
 GAP=137        1.11       3.9     5.2  7.3 -0.3825E+01  0.1159E+02  0.2936E+01E
 Epicentro: LOS SANTOS - SANTANDER                                             3
 ACTION:UPD 14-05-13 23:11 OP:nd   STATUS:               ID:20140425232237 L   I
 OLDACT:REG 14-04-26 05:09 OP:stll STATUS:               ID:20140425231812     3
 2014-04-25-2318-12M.COL___248                                                 6
 STAT SP IPHASW D HRMM SECON CODA AMPLIT PERI AZIMU VELO AIN AR TRES W  DIS CAZ7
 BRR  HZ IP     C 2322 58.65                             152    0.5610 71.1 295 
 BRR  HZ I        2322 58.97        23.1 0.24            140           71.1 295 
 BRR  HE ES       2323 14.14                             152    0.0310 71.1 295 
 PAM  SZ EP   1   2322 59.31                             151    0.42 7 72.6  40 
 PAM  SZ I        2322 59.92        13.2 0.24            146           72.6  40 
 PAM  SN ES       2323 15.96                             151    0.4310 72.6  40 
 RUS  HZ EP       2323  1.03                             141   -0.0510  105 177 
 RUS  HN ES       2323 18.77                             141   -0.6610  105 177 
 RUS  HZ I        2323 20.51         6.8 0.26            132            105 177 
 PTB  HZ EP   2   2323  3.79                             130   -0.55 5  151 257 
 PTB  HE ES       2323 25.19                             130   -0.05 9  151 257 
 PTB  HZ I        2323 26.86         8.2 0.14            119            151 257 
 NOR  HE ES       2323 41.27                             117   -0.15 8  239 234 
 SML  HZ EP       2323 12.64                             117   -0.89 8  241 334 
 SML  HN ES       2323 40.94                             117   -0.65 8  241 334 
 HEL  HZ EP   1   2323 18.71                             113    0.87 6  275 255 
 HEL  HZ I        2323 55.23         3.7 0.42            105            275 255 
 GUY2CHZ EP       2323 22.11                             111    0.71 7  305 234 
 GUY2CHE ES       2323 56.17                             111    0.58 7  305 234 
 GUY2CHZ I        2324  4.63         2.6 0.54                           305 234 
 PRA  HZ EP       2323 31.12                             105   -0.34 6  397 210 
 PRA  HZ I        2323 32.35         2.4 0.22             98            397 210 
 PRA  HN ES   1   2324 12.84                             105   -0.67 4  397 210 
                                                                                
