 2016  326 0727 12.1 L   6.823 -73.169137.5  RSN  8 0.4 1.1LRSN                1
 GAP=181        0.84       4.3     5.2  7.4  0.5346E+01  0.1384E+02 -0.5957E+01E
 Epicentro: LOS SANTOS - SANTANDER                                             3
 ACTION:UPD 16-05-13 21:27 OP:cam  STATUS:               ID:20160326072712 L   I
 OLDACT:DUP 16-03-26 16:34 OP:ak   STATUS:               ID:20160326071747d    3
 OLDACT:DUP 16-03-26 16:29 OP:ak   STATUS:               ID:20160326071746d    3
 OLDACT:REG 16-03-26 13:03 OP:ak   STATUS:               ID:20160326071745     3
 2016-03-26-0717-45M.COL___292                                                 6
 STAT SP IPHASW D HRMM SECON CODA AMPLIT PERI AZIMU VELO AIN AR TRES W  DIS CAZ7
 BAR2 EZ EP        727 30.80                             169   -0.0110 25.5 183 
 BAR2 EZ ES        727 45.44                             169    0.0610 25.5 183 
 BAR2 EZ I         727 46.64         2.8 0.19            169           25.5 183 
 RUS  HZ EP   2    727 35.37                             141    0.10 5  103 175 
 RUS  HN ES        727 53.48                             141    0.1510  103 175 
 RUS  HZ I         727 55.37         1.7 0.30            144            103 175 
 PTB  HZ EP        727 37.61                             131   -0.63 9  146 258 
 PTB  HN ES        727 58.09                             131   -0.52 9  146 258 
 PTB  HZ I         728  1.08         2.1 0.11            131            146 258 
 OCA  HE ES   2    728  0.45                             128   -0.47 5  157 354 
 SPBC HZ EP   2    727 39.69                             127   -0.35 5  164 218 
 SPBC HN ES        728  1.88                             127    0.07 9  164 218 
 SPBC HZ I         728  4.63         1.7 0.13            128            164 218 
 ZAR  HZ EP        727 44.04                             121    0.35 9  201 292 
 ZAR  HN ES        728  9.07                             121    0.75 9  201 292 
 ZAR  HZ I         728 14.01         1.4 0.21            122            201 292 
 CHI  HN ES   2    728 18.92                             115    0.14 4  250 194 
 GUY2CHZ EP   2    727 55.80                             111    0.51 4  301 234 
                                                                                
