 2010 1026 0404 55.6 L   6.191 -73.671114.6  RSN  5 0.3 1.3LRSN                1
 GAP=115        0.67       4.0     5.7 10.3 -0.2917E+00  0.2498E+02  0.1402E+02E
 Epicentro: LA PAZ - SANTANDER                                                 3
 ACTION:UP  11-02-18 11:12 OP:tino STATUS:               ID:20101026040455 L   I
 2010-10-26-0401-16S.COL___125                                                 6
 STAT SP IPHASW D HRMM SECON CODA AMPLIT PERI AZIMU VELO SNR AR TRES W  DIS CAZ7
 BAR2 SZ EP   1    4 5 13.91                             146     0.2 7   70  51 
 BAR2 SZ ES   1    4 5 28.12                             146     0.3 7   70  51 
 BAR2 SZ I         4 5 29.07        16.7 0.14                            70  51 
 RUS  HZ EP   1    4 5 13.74                             145    -0.5 7   73 117 
 RUS  HZ I         4 5 14.26         2.1 0.11                            73 117 
 RUS  HE ES   2    4 5 28.60                             145    -0.2 5   73 117 
 BRR  HZ EP   1    4 5 15.99                             135     0.2 7  101 357 
 BRR  HN ES   1    4 5 31.32                             135    -0.2 7  101 357 
 BRR  HZ I         4 5 43.97         6.9 0.23                           101 357 
 NOR  SZ EP   2    4 5 20.67                             123     0.2 5  150 243 
 NOR  SN ES   2    4 5 39.64                             123    -0.2 5  150 243 
 CHI  HZ EP   2    4 5 23.15                             119    -0.2 4  173 182 
 CHI  HE ES   2    4 5 45.57                             119     0.6 4  173 182 
 CHI  HZ I         4 5 48.19         1.7 0.37                           173 182 
                                                                                
