 2016 1026 0945 16.6 L   6.792 -73.175139.0  RSN  4 0.3 0.9LRSN                1
 GAP=234        0.87       6.9     7.0  7.2  0.2688E+02  0.9531E+01  0.5001E+01E
 Epicentro: LOS SANTOS - SANTANDER                                             3
 ACTION:UPD 16-11-09 19:23 OP:rebc STATUS:               ID:20161026094516 L   I
 OLDACT:REG 16-10-26 14:56 OP:cog  STATUS:               ID:20161026093738     3
 2016-10-26-0938-00M.COL___322                                                 6
 STAT SP IPHASW D HRMM SECON CODA AMPLIT PERI AZIMU VELO AIN AR TRES W  DIS CAZ7
 BAR2 EZ ES        945 49.53                             171   -0.4910 22.1 182 
 BRR  HZ EP        945 37.18                             152    0.3210 68.8 300 
 BRR  HN ES        945 52.88                             152    0.2010 68.8 300 
 RUS  HZ EP        945 39.68                             142    0.0610100.0 174 
 RUS  HN ES        945 57.88                             142    0.2910100.0 174 
 RUS  HZ I         946  0.11         1.2 0.18            139          100.0 174 
 PTB  HZ EP        945 42.15                             131   -0.54 9  144 259 
 PTB  HN ES        946  3.16                             131    0.10 9  144 259 
 PTB  HZ I         946  7.41         1.0 0.09            128            144 259 
                                                                                
