 2013  426 0327 37.8 L   6.752 -73.158137.6  RSN  9 0.4 1.8LRSN                1
 GAP=137        0.90       3.9     5.0  8.0  0.2302E+00  0.9940E+01 -0.3265E+01E
 Epicentro: LOS SANTOS - SANTANDER                                             3
 ACTION:UPD 13-05-22 14:40 OP:EP   STATUS:               ID:20130426032737 L   I
 2013-04-26-0318-37M.COL___211                                                 6
 STAT SP IPHASW D HRMM SECON CODA AMPLIT PERI AZIMU VELO AIN AR TRES W  DIS CAZ7
 BAR2 SZ EP   1    327 56.39                             172    0.09 7 17.9 189 
 BAR2 SZ ES   1    328 10.85                             172    0.09 7 17.9 189 
 BAR2 SZ I         328 11.96        10.6 0.28            171           17.9 189 
 GIR2 SZ EP        327 56.59                             165   -0.0210 36.4 354 
 BRR  HZ IP     C  327 58.39                             151    0.2710 72.8 303 
 BRR  HN ES   1    328 14.58                             151    0.58 7 72.8 303 
 BRR  HN I         328 18.86        27.5 0.16            149           72.8 303 
 PAM  SZ EP   1    327 59.36                             148   -0.06 7 82.4  38 
 PAM  SN ES   1    328 16.00                             148   -0.32 7 82.4  38 
 PAM  SN I         328 17.37        17.1 0.50            152           82.4  38 
 RUS  HZ EP   1    328  1.01                             143    0.69 7 95.4 175 
 RUS  HN ES   1    328 17.87                             143   -0.06 7 95.4 175 
 RUS  HN I         328 19.37         5.2 0.24            147           95.4 175 
 PTB  HZ EP        328  3.34                             131   -0.52 9  146 261 
 PTB  HN ES   1    328 23.44                             131   -0.78 7  146 261 
 PTB  HN I         328 26.34         9.1 0.20            131            146 261 
 OCA  HE ES        328 27.46                             127   -0.46 9  165 354 
 ZAR  HN ES   1    328 35.18                             120    0.44 6  205 294 
 ZAR  HN I         328 41.59         9.2 0.20            122            205 294 
 SML  HN ES   1    328 43.59                             115    0.59 6  248 336 
                                                                                
