 2012 1226 0643 11.2 L   6.827 -73.153144.9  RSN 12 0.5 2.1LRSN                1
 GAP= 70        0.98       3.6     3.9  6.2  0.1152E+01  0.4270E+01  0.1534E+01E
 Epicentro: LOS SANTOS - SANTANDER                                             3
 ACTION:UPD 13-01-04 14:30 OP:ep   STATUS:               ID:20121226064311 L   I
 2012-12-26-0640-00M.COL___242                                                 6
 STAT SP IPHASW D HRMM SECON CODA AMPLIT PERI AZIMU VELO AIN AR TRES W  DIS CAZ7
 BAR2 SZ IP        643 30.83                             169    0.0310 26.1 187 
 BAR2 SZ ES   1    643 45.35                             169   -0.73 7 26.1 187 
 BAR2 SZ I         643 49.71        27.6 0.38                          26.1 187 
 GIR2 SZ EP   1    643 30.73                             168    0.02 7 28.2 351 
 GIR2 SZ ES   1    643 46.15                             168    0.24 7 28.2 351 
 GIR2 SZ I         643 48.62        11.9 0.64                          28.2 351 
 BRR  HZ IP     C  643 32.51                             153    0.3510 69.1 297 
 BRR  HN ES   1    643 49.31                             153    0.82 7 69.1 297 
 BRR  HZ I         643 52.94        31.6 0.14                          69.1 297 
 PAM  SZ EP   1    643 33.52                             151    0.28 7 75.6  41 
 PAM  SN ES   1    643 50.55                             151    0.14 7 75.6  41 
 PAM  SZ I         643 52.61        27.5 0.58                          75.6  41 
 RUS  HZ EP   1    643 34.98                             143   -0.12 7  104 176 
 RUS  HN ES   1    643 53.24                             143   -0.49 7  104 176 
 RUS  HZ I         643 54.96         8.0 0.40                           104 176 
 PTB  HZ EP   1    643 37.22                             132   -0.88 7  148 258 
 PTB  HN ES   1    643 58.79                             132   -0.28 7  148 258 
 PTB  HZ I         644  1.32        15.5 0.28                           148 258 
 TAM  HZ EP   1    643 39.09                             130    0.12 7  157 106 
 TAM  HZ I         643 52.33        12.2 0.34                           157 106 
 TAM  HN ES   1    644  0.98                             130    0.36 7  157 106 
 OCA  HZ EP   1    643 38.67                             130   -0.50 7  157 353 
 OCA  HN ES   1    644  0.85                             130   -0.13 7  157 353 
 OCA  HZ I         644  4.75        18.7 0.20                           157 353 
 ZAR  HN ES   1    644  9.28                             122    0.75 6  202 291 
 ZAR  HZ I         644 14.06        18.7 0.32                           202 291 
 SML  HZ EP   1    643 46.88                             118   -0.59 6  241 335 
 SML  HN ES   1    644 14.75                             118   -0.99 6  241 335 
 SML  HZ I         644 20.67        25.8 0.10                           241 335 
 CHI  HZ EP   1    643 50.02                             117    0.86 6  251 195 
 CHI  HN ES   1    644 18.29                             117   -0.46 6  251 195 
 CHI  HZ I         644 24.13         3.3 0.46                           251 195 
 HEL  HZ EP   1    643 52.17                             115    0.79 6  272 255 
 HEL  HN ES   1    644 22.78                             115    0.07 6  272 255 
 HEL  HZ I         644 30.37         6.1 0.48                           272 255 
 URE  HZ EP   4    643 54.64                             114    2.60 0  282 291 
 URE  HN ES   4    644 21.99                             114   -1.89 0  282 291 
 MON  HZ EP   4    643 58.08                             109   -1.82 0  351 308 
 MON  HN ES   4    644 36.05                             109   -1.82 0  351 308 
                                                                                
