 2012  126 0652  8.1 L   6.819 -73.154146.4  RSN  5 0.4 1.3LRSN                1
 GAP=135        0.74       6.0     5.6  9.4 -0.9293E+00 -0.9830E+00 -0.8924E+00E
 Epicentro: LOS SANTOS - SANTANDER                                             3
 ACTION:UP  12-02-03 08:20 OP:REBC STATUS:               ID:20120126065208 L   I
 2012-01-26-0650-00M.COL___188                                                 6
 STAT SP IPHASW D HRMM SECON CODA AMPLIT PERI AZIMU VELO SNR AR TRES W  DIS CAZ7
 BAR2 SZ EP   1    652 27.56                             170    -0.3 7   25 187 
 BAR2 SZ I         652 41.52         6.1 0.51                            25 187 
 BRR  HZ EP   1    652 29.59                             153     0.4 7   69 297 
 BRR  HE ES   1    652 45.98                             153     0.3 7   69 297 
 BRR  HZ I         652 50.81         5.9 0.42                            69 297 
 PAM  SZ EP   1    652 30.57                             151     0.3 7   76  41 
 PAM  SN ES   2    652 46.94                             151    -0.7 5   76  41 
 RUS  HZ EP   2    652 31.97                             143    -0.1 5  103 176 
 RUS  HZ I         652 32.58         1.7 0.38                           103 176 
 RUS  HE ES   1    652 51.01                             143     0.3 7  103 176 
 PTB  HZ EP   1    652 34.84                             132    -0.2 7  147 258 
 PTB  HN ES   1    652 55.67                             132    -0.4 7  147 258 
                                                                                
