 2010 1226 0716 21.6 L   6.798 -73.130154.2  RSN  5 0.2 1.5LRSN                1
 GAP=160        0.64       3.1    14.7  7.7 -0.1442E+02  0.2315E+02 -0.6465E+01E
 Epicentro: LOS SANTOS - SANTANDER                                             3
 ACTION:UP  11-01-14 15:27 OP:pat  STATUS:               ID:20101226071621 L   I
 2010-12-26-0714-53S.COL___133                                                 6
 STAT SP IPHASW D HRMM SECON CODA AMPLIT PERI AZIMU VELO SNR AR TRES W  DIS CAZ7
 BAR2 SZ IP        716 42.14                             171    -0.110   24 195 
 BAR2 SZ ES   2    716 58.29                             171    -0.1 5   24 195 
 BAR2 SZ I         716 59.47         6.4 0.20                            24 195 
 RUS  HZ EP   1    716 46.05                             145    -0.1 7  100 177 
 RUS  HZ I         716 47.15         2.6 0.44                           100 177 
 RUS  HN ES   1    717  5.61                             145     0.3 7  100 177 
 GRA  SZ IP        716 47.93                             139     0.310  125  17 
 GRA  SZ ES   1    717  7.43                             139    -0.4 7  125  17 
 GRA  SZ I         717  8.79         5.5 0.36                           125  17 
 OCA  SZ IP        716 50.49                             131    -0.1 9  161 353 
 OCA  SZ ES   1    717 13.52                             131     0.3 7  161 353 
 OCA  SZ I         717 17.71         4.9 0.37                           161 353 
 CHI  HN ES   2    717 29.41                             119    -0.2 4  249 196 
                                                                                
