 2016 1226 0046 14.4 L   6.749 -73.134143.7  RSN 15 0.4 2.1LRSN                1
 GAP= 94        0.84       3.2     2.9  4.2  0.1295E+01  0.2810E+01  0.2378E+01E
 Epicentro: LOS SANTOS - SANTANDER                                             3
 ACTION:UPD 17-01-11 20:19 OP:rebc STATUS:               ID:20161226004614 L   I
 OLDACT:UP  16-12-26 14:03 OP:edw  STATUS:               ID:20161226003746d    3
 OLDACT:UP  16-12-26 14:02 OP:edw  STATUS:               ID:20161226003746d    3
 OLDACT:DUP 16-12-26 13:53 OP:edw  STATUS:               ID:20161226003746d    3
 OLDACT:UP  16-12-26 13:51 OP:edw  STATUS:               ID:20161226003745     3
 OLDACT:REG 16-12-26 12:18 OP:edw  STATUS:               ID:20161226003745     3
 2016-12-26-0038-00M.COL___378                                                 6
 STAT SP IPHASW D HRMM SECON CODA AMPLIT PERI AZIMU VELO AIN AR TRES W  DIS CAZ7
 BAR2 EZ EP        046 33.56                             172   -0.1310 18.2 197 
 BAR2 EZ ES        046 48.16                             172   -0.5710 18.2 197 
 BAR2 EZ I         046 49.53        24.9 0.22            169           18.2 197 
 BRR  HZ EP     C  046 35.58                             151    0.0210 75.2 302 
 BRR  HN ES        046 52.65                             151    0.5910 75.2 302 
 BRR  HZ I         046 55.74        19.7 0.36            150           75.2 302 
 PAM  EZ IP     C  046 36.60                             149   -0.0210 81.0  36 
 PAM  EN ES        046 53.68                             149   -0.2710 81.0  36 
 PAM  EZ I         046 56.04        29.4 0.68            152           81.0  36 
 RUS  HZ EP        046 37.47                             145   -0.0810 94.9 177 
 RUS  HN ES        046 55.54                             145   -0.0610 94.9 177 
 RUS  HZ I         046 57.08        23.6 0.32            142           94.9 177 
 PTB  HZ EP   9    046 40.46                             131   -0.77 0  148 261 
 PTB  HN ES        047  1.53                                    0.15 9  148 261 
 PTB  HZ I         047  2.89        12.9 0.26            129            148 261 
 TAM  HZ IP     D  046 41.79                             131    0.12 9  152 103 
 TAM  HN ES        047  3.44                             131    0.50 9  152 103 
 TAM  HZ I         047 12.99         5.7 0.42            131            152 103 
 ZAR  HZ EP        046 47.29                             121    0.22 8  207 293 
 ZAR  HE ES        047 12.71                             121    0.17 8  207 293 
 ZAR  HZ I         047 18.65        22.9 0.28            121            207 293 
 CHI  HZ EP        046 51.57                             117    0.13 8  244 196 
 CHI  HN ES        047 20.37                             117    0.04 8  244 196 
 CHI  HZ I         047 26.55         4.6 0.32            116            244 196 
 ROSC BZ EP   4    046 53.23                             117    1.26 0  249 212 
 ROSC BN ES   4    047 23.54                             117    2.28 0  249 212 
 ROSC BZ I         047 28.74         7.8 0.35            115            249 212 
 URE  HZ EP        046 54.81                             113   -0.94 7  287 293 
 URE  HN ES   4    047 25.12                             113   -2.88 0  287 293 
 URE  HZ I         047 37.51         9.1 0.16            112            287 293 
 VIL  EE ES   4    047 32.66                             112    2.19 0  298 192 
 GUY2CHZ EP        046 58.04                             112    0.36 7  299 236 
 GUY2CHN ES   4    047 33.85                             112    2.42 0  299 236 
 GUY2CHZ I         047 39.81         6.2 0.48                           299 236 
 CBOC HZ EP        047  1.48                             109    0.29 7  333 253 
 CBOC HN ES   4    047 31.40                             109   -6.28 0  333 253 
 CBOC HZ I         047 44.81         2.4 0.56            109            333 253 
 ANIL HN ES   4    047 43.96                             108    1.67 0  354 225 
 ANIL HZ I         047 55.30        11.3 0.34            107            354 225 
 ORTC HZ EP        047  7.26                             106   -0.56 6  392 217 
 ORTC HN ES   4    047 52.61                             106    3.13 0  392 217 
 ORTC HZ I         047 55.05         3.3 0.42            105            392 217 
 SJC  HZ EP   4    047  8.26                             105   -2.28 0  415 327 
 SJC  HN ES   4    047 49.67                             105   -4.65 0  415 327 
 SJC  HZ I         047 53.94         2.0 0.33            105            415 327 
 CRJC HN ES   4    048  1.72                             103   -5.00 0  473   3 
                                                                                
