 2017  826 0430 59.4 L   6.794 -73.081151.4  RSN  4 0.2 1.1LRSN                1
 GAP=244        0.59       3.7     5.5  4.7  0.4117E+01  0.5369E+00  0.1729E+01E
 Epicentro: LOS SANTOS - SANTANDER                                             3
 ACTION:UPD 17-09-04 20:24 OP:rebc STATUS:               ID:20170826043059 L   I
 OLDACT:REG 17-08-26 12:58 OP:osc  STATUS:               ID:20170826042743     3
 2017-08-26-0428-00M.COL___405                                                 6
 STAT SP IPHASW D HRMM SECON CODA AMPLIT PERI AZIMU VELO AIN AR TRES W  DIS CAZ7
 BAR2 EZ EP        431 19.75                             170   -0.0110 25.0 207 
 BAR2 EZ ES        431 35.33                             170   -0.3010 25.0 207 
 BAR2 EZ I         431 37.57         2.8 0.22            169           25.0 207 
 BRR  HZ EP        431 21.83                             151    0.2710 77.9 296 
 BRR  HE ES        431 38.85                             151    0.0210 77.9 296 
 RUS  HZ EP        431 23.50                             145   -0.1710 99.7 180 
 RUS  HN ES        431 42.93                             145    0.3510 99.7 180 
 RUS  HZ I         431 43.63         1.3 0.34            145           99.7 180 
 SPBC HZ EP        431 28.58                             129   -0.16 9  167 221 
 SPBC HE ES        431 51.58                             129   -0.03 9  167 221 
 SPBC HZ I         431 53.46         2.2 0.14            130            167 221 
                                                                                
