 2016  726 0739 41.0 L   6.726 -73.180155.7  RSN  4 0.4 1.3LRSN                1
 GAP=228        0.95      10.8    12.0  7.5  0.1089E+03  0.1117E+02 -0.1735E+01E
 Epicentro: VILLANUEVA - SANTANDER                                             3
 ACTION:UPD 17-03-29 16:55 OP:lp   STATUS:               ID:20160726073941 L   I
 OLDACT:REG 16-07-26 13:54 OP:ar   STATUS:               ID:20160726073759     3
 2016-07-26-0737-59S.COL___328                                                 6
 STAT SP IPHASW D HRMM SECON CODA AMPLIT PERI AZIMU VELO AIN AR TRES W  DIS CAZ7
 BAR2 EZ EP        740  2.08                             174    0.3610 14.7 181 
 BAR2 EZ ES        740 17.70                             174   -0.1610 14.7 181 
 BAR2 EZ I         740 18.23         8.9 0.30            173           14.7 181 
 BRR  HZ EP        740  3.79                             154    0.4610 72.4 306 
 BRR  HN ES        740 20.41                             154   -0.3010 72.4 306 
 BRR  HZ I         740 25.72         3.1 0.14            153           72.4 306 
 RUS  HZ EP        740  4.63                             148   -0.6210 92.7 173 
 RUS  HN ES        740 24.46                             148    0.3310 92.7 173 
 RUS  HZ I         740 25.56         1.6 0.28            150           92.7 173 
 ZAR  HZ EP        740 13.87                             124   -0.25 9  204 295 
 ZAR  HN ES        740 40.10                             124    0.17 9  204 295 
 ZAR  HZ I         740 42.50         2.0 0.15            125            204 295 
                                                                                
