 2011 1026 0340 59.7 L   6.764 -73.086144.6  RSN 18 0.3 2.9LRSN                1
 GAP=121        0.38       1.7     2.2  3.1 -0.7380E+00  0.1898E+01  0.1518E+01E
 Epicentro: LOS SANTOS - SANTANDER                                             3
 ACTION:UPD 12-07-13 16:06 OP:ep   STATUS:               ID:20111026034059 L   I
 2011-10-26-0340-00M.COL___177                                                 6
 STAT SP IPHASW D HRMM SECON CODA AMPLIT PERI AZIMU VELO AIN AR TRES W  DIS CAZ7
 BAR2 SZ IP        341 19.13                             171   -0.0210 21.8 209 
 BAR2 SZ I         341 19.72       178.8 0.37                          21.8 209 
 BAR2 SZ ES   2    341 33.97                             171   -0.36 5 21.8 209 
 BTL  SZ EP   1    341 19.44                             169    0.19 7 26.4 310 
 GIR2 SZ EP   1    341 19.22                             165   -0.16 7 36.8 341 
 GIR2 SZ ES   2    341 34.64                             165   -0.11 5 36.8 341 
 PAM  SZ IP        341 21.90                             151    0.1710 76.6  34 
 PAM  SN ES   2    341 39.10                             151    0.17 5 76.6  34 
 BRR  HZ IP        341 21.03                             150   -0.1410 78.9 299 
 BRR  HE ES   2    341 38.45                             150    0.52 5 78.9 299 
 BRR  HZ I         341 40.68       171.9 0.15                          78.9 299 
 RUS  HZ IP     C  341 22.97                             145   -0.0510 96.3 180 
 RUS  HN ES   2    341 40.99                             145   -0.24 5 96.3 180 
 RUS  HZ I         341 44.54        50.9 0.45                          96.3 180 
 BRI  SZ EP   1    341 23.70                             141    0.11 7  110  17 
 BRI  SZ ES   2    341 41.79                             141   -0.45 5  110  17 
 OCA  SZ EP   2    341 28.15                             128   -0.22 5  165 351 
 OCA  SZ ES   2    341 50.84                             128    0.10 5  165 351 
 OCA  SZ I         341 54.21        76.7 0.19                           165 351 
 YOP  SZ EP   2    341 29.55                             127    0.54 4  172 155 
 YOP  SE ES   2    341 52.09                             127    0.21 4  172 155 
 ZAR  HZ EP   2    341 32.43                             121   -0.42 4  212 292 
 ZAR  HN ES   2    341 58.74                             121    0.02 4  212 292 
 ZAR  HZ I         342  3.80        92.6 0.37                           212 292 
 NOR  SZ EP   2    341 35.24                             118   -0.45 4  238 236 
 NOR  SN ES   2    342  3.74                             118   -0.03 4  238 236 
 ROSC BZ EP   2    341 37.97                             116    0.22 4  253 213 
 ROSC BE ES   2    342  7.36                             116   -0.09 4  253 213 
 ROSC BZ I         342 15.29        57.4 0.25                           253 213 
 HEL  HZ EP   2    341 40.74                             114    0.29 4  278 257 
 HEL  HN ES   2    342 12.76                             114    0.51 4  278 257 
 HEL  HZ I         342 17.43        32.7 0.60                           278 257 
 VIL  SZ EP   2    341 42.83                             112    0.06 4  301 193 
 VIL  SZ I         342 20.67        20.0 0.44                           301 193 
 GUY  SZ EP   1    341 43.89                             112    0.02 5  307 236 
 GUY  SN ES   2    342 18.85                             112    0.51 4  307 236 
 GUY  SZ I         342 26.79        63.8 0.43                           307 236 
 RREF HZ EP   1    341 46.16                             110    0.10 5  324 231 
 RREF HN ES   2    342 22.23                             110   -0.01 3  324 231 
 RREF HZ I         342 30.80        52.4 0.41                           324 231 
 TOL  SZ EP   2    341 48.29                             109    0.18 3  345 226 
 TOL  SZ ES   2    342 25.53                             109   -0.36 3  345 226 
 PRA  HZ EP   1    341 52.65                             106   -0.50 4  392 211 
 PRA  HE ES   2    342 34.65                             106   -0.20 3  392 211 
                                                                                
