 2013 1226 0226 54.0 L   6.766 -73.107150.1  RSN  9 0.4 1.5LRSN                1
 GAP=143        0.96       3.2     4.7  6.5 -0.2372E+01  0.5671E+01  0.3974E+01E
 Epicentro: LOS SANTOS - SANTANDER                                             3
 ACTION:UPD 14-01-13 10:21 OP:ep   STATUS:               ID:20131226022654 L   I
 OLDACT:UP  13-12-26 10:09 OP:mh   STATUS:               ID:20131226022000     3
 OLDACT:REG 13-12-26 08:43 OP:mh   STATUS:               ID:20131226022000     3
 2013-12-26-0220-00M.COL___285                                                 6
 STAT SP IPHASW D HRMM SECON CODA AMPLIT PERI AZIMU VELO AIN AR TRES W  DIS CAZ7
 BRR  HZ EP        227 16.14                             151    0.1910 76.8 299 
 BRR  HN ES        227 33.34                             151    0.2810 76.8 299 
 BRR  HZ I         227 35.75         5.4 0.12            151           76.8 299 
 PAM  SZ EP   1    227 17.10                             151    0.39 7 77.8  35 
 PAM  SE ES        227 34.37                             151   -0.0510 77.8  35 
 PAM  SZ I         227 36.39         4.7 0.22            158           77.8  35 
 RUS  HZ EP        227 18.04                             146    0.1310 96.6 178 
 RUS  HN ES        227 35.87                             146   -0.6810 96.6 178 
 RUS  HZ I         227 38.33         1.3 0.18            146           96.6 178 
 PTB  HZ EP   1    227 21.05                             132   -0.61 7  151 261 
 PTB  HN ES   1    227 42.40                             132   -0.82 7  151 261 
 PTB  HZ I         227 48.08         6.4 0.26            132            151 261 
 SPBC HZ EP        227 23.14                             130    0.31 9  163 221 
 SPBC HN ES        227 46.00                             130    0.69 9  163 221 
 SPBC HZ I         227 52.52         7.9 0.35            130            163 221 
 OCA  HZ EP   1    227 22.89                             130   -0.17 7  165 352 
 OCA  HN ES        227 45.96                             130    0.24 9  165 352 
 ZAR  HZ EP   1    227 26.86                             122   -0.44 6  209 293 
 ZAR  HN ES   1    227 52.70                             122   -0.56 6  209 293 
 ZAR  HZ I         227 58.64         5.2 0.18            124            209 293 
 NOR  HZ EP        227 30.27                             119    0.13 8  236 236 
 NOR  HN ES   1    227 58.72                             119    0.40 6  236 236 
 NOR  HZ I         228  1.91         3.7 0.18            120            236 236 
 CHI  HZ EP        227 31.17                             118   -0.52 8  246 196 
 CHI  HN ES   1    228  1.52                             118    0.45 6  246 196 
 CHI  HZ I         228  9.38         1.1 0.25            120            246 196 
                                                                                
