 2013  126 0623 19.5 L   6.746 -73.170146.0  RSN  5 0.5 1.4LRSN                1
 GAP=230        1.13       9.2     8.6  9.0  0.4067E+02  0.1116E+02  0.1160E+02E
 Epicentro: VILLANUEVA - SANTANDER                                             3
 ACTION:UPD 13-02-15 09:16 OP:ep   STATUS:               ID:20130126062319 L   I
 2013-01-26-0618-41M.COL___186                                                 6
 STAT SP IPHASW D HRMM SECON CODA AMPLIT PERI AZIMU VELO AIN AR TRES W  DIS CAZ7
 BAR2 SZ EP        623 38.88                             173   -0.2110 17.0 185 
 BAR2 SZ ES        623 53.71                             173   -0.6310 17.0 185 
 BAR2 SZ I         623 54.92         5.5 0.30            168           17.0 185 
 BRR  HZ EP   1    623 40.81                             152    0.05 7 72.0 304 
 BRR  HN ES        623 58.02                             152    0.7110 72.0 304 
 BRR  HN I         623 58.40        10.1 0.26            150           72.0 304 
 RUS  HZ EP        623 43.24                             146    0.3310 94.8 174 
 RUS  HZ I         623 44.30         1.7 0.14            144           94.8 174 
 RUS  HN ES        624  1.40                             146    0.2610 94.8 174 
 PTB  HZ EP        623 45.54                             133   -0.66 9  144 261 
 PTB  HE ES        624  6.94                             133   -0.05 9  144 261 
 PTB  HN I         624 11.99         4.3 0.46            130            144 261 
 CHI  HZ EP   2    623 57.48                             118    0.93 4  242 195 
                                                                                
