 2016  726 0504 46.8 L   6.685 -73.251156.6  RSN  5 0.5 1.4LRSN                1
 GAP=191        1.26       9.9     8.7 10.1  0.5259E+02  0.1354E+02  0.3056E+01E
 Epicentro: BARICHARA - SANTANDER                                              3
 ACTION:UPD 17-03-29 16:55 OP:lp   STATUS:               ID:20160726050446 L   I
 OLDACT:UP  16-07-26 17:08 OP:ar   STATUS:               ID:20160726045760d    3
 OLDACT:UP  16-07-26 17:08 OP:ar   STATUS:               ID:20160726045760d    3
 OLDACT:DUP 16-07-26 16:56 OP:ar   STATUS:               ID:20160726045760d    3
 OLDACT:UP  16-07-26 16:52 OP:ar   STATUS:               ID:20160726045759     3
 OLDACT:REG 16-07-26 13:40 OP:ar   STATUS:               ID:20160726045759     3
 2016-07-26-0457-59S.COL___334                                                 6
 STAT SP IPHASW D HRMM SECON CODA AMPLIT PERI AZIMU VELO AIN AR TRES W  DIS CAZ7
 BAR2 EZ EP        5 5  7.36                             175   -0.1710 12.8 144 
 BAR2 EZ ES        5 5 22.99                             175   -0.7410 12.8 144 
 BAR2 EZ I         5 5 24.03         8.6 0.30            172           12.8 144 
 BRR  HZ EP        5 5  9.28                             155    0.3110 69.1 313 
 BRR  HN ES        5 5 26.53                             155    0.2310 69.1 313 
 BRR  HZ I         5 5 31.53         5.4 0.26            152           69.1 313 
 RUS  HZ EP        5 5 11.11                             149    0.2510 89.6 168 
 RUS  HN ES        5 5 30.28                             149    0.6210 89.6 168 
 RUS  HZ I         5 5 31.08         1.9 0.28            150           89.6 168 
 PTB  HZ EP        5 5 12.67                             137   -0.8110  134 263 
 PTB  HN ES        5 5 34.11                             137   -0.2110  134 263 
 PTB  HZ I         5 5 41.90         2.0 0.18            135            134 263 
 ZAR  HE ES        5 5 45.42                             125    0.57 9  199 297 
 ZAR  HZ I         5 5 50.76         2.6 0.02            125            199 297 
                                                                                
