 2011  726 0935 47.2 L   6.799 -73.046141.5  RSN  9 0.4 1.6LRSN                1
 GAP=167        0.75       3.6     5.0  5.2 -0.5403E+01  0.4005E+01 -0.8599E+00E
 Epicentro: LOS SANTOS - SANTANDER                                             3
 ACTION:UPD 12-07-25 14:03 OP:epov STATUS:               ID:20110726093547 L   I
 2011-07-26-0934-37S.COL___142                                                 6
 STAT SP IPHASW D HRMM SECON CODA AMPLIT PERI AZIMU VELO AIN AR TRES W  DIS CAZ7
 BAR2 SZ EP   1    936  5.97                             169   -0.41 7 27.4 213 
 BAR2 SZ ES        936 21.59                             169    0.2310 27.4 213 
 BAR2 SZ I         936 23.52        13.3 0.35                          27.4 213 
 GIR2 SZ EP   1    936  6.22                             165   -0.23 7 35.0 332 
 GIR2 SZ ES   1    936 21.93                             165    0.45 7 35.0 332 
 BRR  HZ EP   1    936  7.91                             149   -0.56 7 81.1 295 
 BRR  HN ES   1    936 24.66                             149   -0.41 7 81.1 295 
 BRR  HZ I         936 27.46         9.7 0.15                          81.1 295 
 RUS  HZ EP   1    936 10.09                             143   -0.40 7  100 182 
 RUS  HE ES   1    936 28.80                             143    0.13 7  100 182 
 RUS  HZ I         936 29.51         3.5 0.21                           100 182 
 BRI  SZ IPg  1    936 10.65                             141    0.24 7  105  15 
 BRI  SZ EP        936 10.65                             141    0.2410  105  15 
 OCA  SZ ES   1    936 37.07                             128   -0.22 7  162 349 
 OCA  SZ I         936 42.53         4.9 0.29                           162 349 
 NOR  SZ EP   2    936 23.76                             117    0.12 4  244 236 
 NOR  SN ES   1    936 51.52                             117   -0.55 6  244 236 
 HEL  HZ EP   1    936 29.07                             113    0.70 6  283 256 
 HEL  HN ES   1    937  1.30                             113    0.80 6  283 256 
 HEL  HZ I         937  5.82         2.2 0.24                           283 256 
 PRA  HZ EP   2    936 41.32                             106    0.13 3  397 211 
 PRA  HN ES   2    937 23.38                             106    0.06 3  397 211 
                                                                                
