 2013 1226 0131 55.7 L   6.759 -73.152150.3  RSN  5 0.4 1.3LRSN                1
 GAP=138        1.01       4.4     5.8  7.8  0.1315E+01  0.8303E+01 -0.4899E+01E
 Epicentro: LOS SANTOS - SANTANDER                                             3
 ACTION:UPD 14-01-13 10:21 OP:ep   STATUS:               ID:20131226013155 L   I
 OLDACT:REG 13-12-26 08:41 OP:mh   STATUS:               ID:20131226013000     3
 2013-12-26-0130-00M.COL___285                                                 6
 STAT SP IPHASW D HRMM SECON CODA AMPLIT PERI AZIMU VELO AIN AR TRES W  DIS CAZ7
 BRR  HZ EP        132 18.28                             153    0.8110 72.9 302 
 BRR  HN ES        132 34.84                             153    0.4210 72.9 302 
 BRR  HZ I         132 38.05         3.3 0.24            151           72.9 302 
 PAM  SZ EP        132 18.85                             150    0.1910 81.3  38 
 PAM  SN ES        132 36.25                             150   -0.3010 81.3  38 
 RUS  HZ EP        132 19.46                             146   -0.1610 96.1 175 
 RUS  HN ES        132 38.08                             146   -0.1710 96.1 175 
 RUS  HZ I         132 40.30         1.5 0.32            147           96.1 175 
 PTB  HZ EP        132 22.62                             133   -0.32 9  146 261 
 PTB  HN ES   1    132 43.86                             133   -0.31 7  146 261 
 PTB  HZ I         132 50.26         2.0 0.25            133            146 261 
 SML  HZ EP        132 33.08                             118    0.05 8  248 336 
 SML  HN ES        133  1.49                             118   -0.63 8  248 336 
 SML  HZ I         133  3.25         3.7 0.11            120            248 336 
                                                                                
