 2017  826 0350 42.6 L   6.813 -73.119141.7  RSN  7 0.3 1.2LRSN                1
 GAP=139        0.76       3.4     3.9  5.7  0.7065E+00  0.2383E+01  0.2404E+00E
 Epicentro: LOS SANTOS - SANTANDER                                             3
 ACTION:UPD 17-09-04 20:24 OP:rebc STATUS:               ID:20170826035042 L   I
 OLDACT:UP  17-08-26 16:02 OP:osc  STATUS:               ID:20170826034742d    3
 OLDACT:DUP 17-08-26 15:59 OP:osc  STATUS:               ID:20170826034742d    3
 OLDACT:REG 17-08-26 12:50 OP:osc  STATUS:               ID:20170826034741     3
 2017-08-26-0348-00M.COL___405                                                 6
 STAT SP IPHASW D HRMM SECON CODA AMPLIT PERI AZIMU VELO AIN AR TRES W  DIS CAZ7
 BAR2 EZ EP        351  1.53                             169   -0.2910 25.4 196 
 BAR2 EZ ES        351 16.74                             169   -0.0410 25.4 196 
 BAR2 EZ I         351 17.64         2.7 0.32            168           25.4 196 
 BRR  HZ EP        351  3.37                             151   -0.0810 73.1 296 
 BRR  HE ES        351 19.71                             151    0.0110 73.1 296 
 PAM  EZ EP        351  4.31                             151    0.0710 74.4  38 
 RUS  HZ EP        351  6.67                             143    0.5910  102 178 
 RUS  HN ES        351 24.42                             143    0.0510  102 178 
 RUS  HZ I         351 24.82         1.3 0.30            142            102 178 
 SPBC HZ EP        351 10.56                             128   -0.55 9  166 219 
 SPBC HE ES        351 33.07                             128   -0.25 9  166 219 
 SPBC HZ I         351 36.49         5.5 0.12            127            166 219 
 ZAR  HE ES        351 40.48                             121    0.16 8  206 291 
 NOR  HE ES        351 46.78                             117    0.34 8  238 235 
                                                                                
