 2014  126 0954 26.7 L   6.496 -73.612101.8  RSN  5 0.5 1.4LRSN                1
 GAP=134        0.96       6.1     5.9  9.5  0.1336E+02  0.2655E+02 -0.1299E+02E
 Epicentro: SANTA HELENA DEL OPON - SANTANDER                                  3
 ACTION:UPD 14-03-13 09:58 OP:ep   STATUS:               ID:20140126095426 L   I
 OLDACT:DUP 14-01-26 11:26 OP:nd   STATUS:               ID:20140126095001d    3
 2014-01-26-0950-00M.COL___285                                                 6
 STAT SP IPHASW D HRMM SECON CODA AMPLIT PERI AZIMU VELO AIN AR TRES W  DIS CAZ7
 BAR2 SZ EP        954 41.86                             153   -0.3310 48.7  77 
 BAR2 SZ ES        954 54.39                             153    0.1310 48.7  77 
 BAR2 SZ I         954 55.82        35.3 0.36            159           48.7  77 
 RUS  HZ EP        954 45.81                             136    0.3810 88.8 139 
 RUS  HN ES        954 59.96                             136   -0.0710 88.8 139 
 RUS  HZ I         955  2.33         1.5 0.34            148           88.8 139 
 PTB  HZ EP        954 44.93                             134   -0.2610 93.5 273 
 PTB  HN ES   2    954 59.10                             134   -0.50 5 93.5 273 
 PTB  HZ I         955  3.74         3.5 0.14            136           93.5 273 
 ZAR  HZ EP        954 54.34                             114    0.71 9  176 309 
 ZAR  HN ES   2    955 15.05                             114    0.44 4  176 309 
 ZAR  HZ I         955 22.10         2.6 0.28            118            176 309 
 SML  HZ EP        955  2.44                             105   -0.78 8  260 349 
 SML  HN ES   2    955 32.33                             105    0.64 4  260 349 
 SML  HZ I         955 38.77         2.8 0.10            109            260 349 
                                                                                
