 2017  326 0206 37.8 L   6.729 -73.134128.8  RSN  6 0.3 1.1LRSN                1
 GAP=141        0.52       4.6     4.5  6.7 -0.8073E+01 -0.3721E+01  0.1443E+02E
 Epicentro: JORDAN - SANTANDER                                                 3
 ACTION:UPD 17-05-25 18:45 OP:jn   STATUS:               ID:20170326020637 L   I
 OLDACT:UP  17-03-26 13:17 OP:cog  STATUS:               ID:20170326015743d    3
 OLDACT:UP  17-03-26 13:17 OP:cog  STATUS:               ID:20170326015743d    3
 OLDACT:DUP 17-03-26 13:12 OP:cog  STATUS:               ID:20170326015743d    3
 2017-03-26-0158-00M.COL___361                                                 6
 STAT SP IPHASW D HRMM SECON CODA AMPLIT PERI AZIMU VELO AIN AR TRES W  DIS CAZ7
 BAR2 EZ EP        2 6 55.37                             172    0.1110 16.1 200 
 BRR  HZ EP        2 6 57.48                             147   -0.0010 76.3 303 
 PAM  EZ EP        2 6 58.82                             146    0.2110 82.8  35 
 PAM  EN ES        2 7 14.58                             146   -0.2610 82.8  35 
 PAM  EZ I         2 7 15.91         3.0 0.32            155           82.8  35 
 RUS  HZ EP        2 6 59.32                             142   -0.0110 92.7 177 
 RUS  HN ES   4    2 7 18.61                             142    2.50 0 92.7 177 
 RUS  HZ I         2 7 20.18         1.3 0.32            144           92.7 177 
 PTB  HZ EP   9    2 7  1.98                             128   -1.47 0  148 262 
 PTB  HE ES        2 7 22.20                             131    0.22 9  148 262 
 PTB  HZ I         2 7 27.23         2.2 0.22            132            148 262 
 ZAR  HN ES   3    2 7 33.48                             118   -1.04 2  208 294 
                                                                                
