 2014  826 0906 51.1 L   6.824 -73.157147.3  RSN  8 0.5 1.7LRSN                1
 GAP=145        1.05       4.6     5.0  8.5 -0.5253E+01  0.8097E+01  0.2704E+01E
 Epicentro: LOS SANTOS - SANTANDER                                             3
 ACTION:UPD 14-09-15 21:53 OP:nd   STATUS:               ID:20140826090651 L   I
 OLDACT:REG 14-08-26 13:11 OP:fm   STATUS:               ID:20140826085814     3
 2014-08-26-0858-14M.COL___254                                                 6
 STAT SP IPHASW D HRMM SECON CODA AMPLIT PERI AZIMU VELO AIN AR TRES W  DIS CAZ7
 BAR2 SZ EP        9 7 10.86                             170   -0.0610 25.8 186 
 BAR2 SZ I         9 7 30.04         7.6 0.20            166           25.8 186 
 BRR  HZ EP        9 7 12.72                             154    0.4810 68.9 297 
 BRR  HN ES   1    9 7 28.68                             154   -0.08 7 68.9 297 
 BRR  HZ I         9 7 32.55         6.9 0.36            157           68.9 297 
 PAM  SZ EP        9 7 13.66                             151    0.3010 76.1  42 
 PAM  SE ES        9 7 30.73                             151   -0.0210 76.1  42 
 PAM  SZ I         9 7 32.94         6.8 0.56            154           76.1  42 
 PTB  HZ EP        9 7 17.96                             132   -0.13 9  147 258 
 PTB  HN ES        9 7 38.91                             132   -0.26 9  147 258 
 PTB  HZ I         9 7 43.50         6.5 0.18            134            147 258 
 SPBC HZ EP        9 7 19.86                             129    0.07 9  165 218 
 SPBC HN ES        9 7 41.82                             129   -0.39 9  165 218 
 SPBC HZ I         9 7 49.16         5.0 0.52            129            165 218 
 ZAR  HZ EP   1    9 7 22.55                             123   -0.83 6  202 292 
 ZAR  HE ES        9 7 49.48                             123    0.89 9  202 292 
 ZAR  HZ I         9 7 55.43         5.7 0.38            125            202 292 
 SML  HZ EP   1    9 7 26.43                             118   -1.02 6  241 335 
 SML  HN ES        9 7 55.44                             118   -0.39 8  241 335 
 SML  HZ I         9 7 58.26         3.9 0.24            121            241 335 
 GUY2CHZ EP   1    9 7 35.71                             113    0.92 5  302 234 
                                                                                
