 2011  426 0730 13.6 L   6.760 -73.123142.0  RSN  6 0.4 1.8LRSN                1
 GAP=141        0.85       6.0     7.0  9.5 -0.2255E+01  0.1125E+02  0.1557E+01E
 Epicentro: LOS SANTOS - SANTANDER                                             3
 ACTION:UP  11-06-22 15:33 OP:REBC STATUS:               ID:20110426073013 L   I
 2011-04-26-0729-01S.COL___137                                                 6
 STAT SP IPHASW D HRMM SECON CODA AMPLIT PERI AZIMU VELO SNR AR TRES W  DIS CAZ7
 BAR2 SZ EP   1    730 32.51                             172    -0.2 7   20 200 
 BAR2 SZ I         730 48.88        18.0 0.13                            20 200 
 BRR  HZ EP        730 34.33                             151    -0.210   76 301 
 BRR  HE ES   1    730 51.20                             151     0.3 7   76 301 
 BRR  HZ I         730 54.35        20.7 0.16                            76 301 
 PAM  SZ EP   1    730 35.43                             150    -0.1 7   79  36 
 PAM  SZ I         730 35.68         8.6 0.10                            79  36 
 RUS  HZ EP   1    730 36.62                             144     0.0 7   96 177 
 RUS  HN ES   1    730 54.84                             144     0.2 7   96 177 
 RUS  HZ I         730 56.31         8.2 0.21                            96 177 
 NOR  SZ EP   1    730 48.80                             118    -0.2 6  234 236 
 NOR  SN ES   1    731 16.19                             118    -0.5 6  234 236 
 HEL  HZ EP   1    730 54.73                             114     1.0 6  274 257 
 HEL  HZ I         731 30.77         4.9 0.61                           274 257 
                                                                                
