 2015  326 0542  6.2 L   6.818 -73.178144.4  RSN 10 0.5 1.5LRSN                1
 GAP=132        0.99       3.9     3.9  6.3 -0.1353E+01  0.9071E+01  0.9204E+00E
 Epicentro: ZAPATOCA - SANTANDER                                               3
 ACTION:UPD 15-04-30 16:29 OP:nd   STATUS:               ID:20150326054206 L   I
 OLDACT:REG 15-03-26 12:55 OP:fm   STATUS:               ID:20150326053743     3
 2015-03-26-0537-43M.COL___281                                                 6
 STAT SP IPHASW D HRMM SECON CODA AMPLIT PERI AZIMU VELO AIN AR TRES W  DIS CAZ7
 BAR2 EZ EP        542 25.90                             170    0.1610 25.0 181 
 BAR2 EZ ES        542 41.35                             170    0.4010 25.0 181 
 BAR2 EZ I         542 43.02         4.0 0.14            170           25.0 181 
 BRR  HZ EP        542 27.50                             154    0.4910 67.2 298 
 BRR  HN ES        542 43.50                             154    0.2810 67.2 298 
 BRR  HZ I         542 49.19         7.7 0.26            153           67.2 298 
 PAM  SZ EP        542 28.54                             150    0.1910 78.2  42 
 PAM  SE ES        542 45.19                             150   -0.4210 78.2  42 
 PAM  SZ I         542 47.48         9.8 0.36            155           78.2  42 
 RUS  HZ EP   1    542 29.30                             143   -0.72 7  103 174 
 RUS  HN ES        542 48.01                             143   -0.5610  103 174 
 RUS  HZ I         542 51.25         2.2 0.42            146            103 174 
 PTB  HZ EP        542 32.66                             132   -0.15 9  145 258 
 PTB  HE ES        542 53.26                             132   -0.29 9  145 258 
 PTB  HZ I         542 56.21         6.2 0.60            133            145 258 
 SPBC HZ EP        542 34.87                             129    0.30 9  163 218 
 SPBC HE ES        542 56.72                             129    0.05 9  163 218 
 SPBC HZ I         543  0.47         4.5 0.30            131            163 218 
 ZAR  HZ EP   1    542 38.81                             123    0.63 6  200 292 
 ZAR  HN ES        543  2.96                             123   -0.13 9  200 292 
 ZAR  HZ I         543  9.16         6.8 0.68            125            200 292 
 HEL  HN ES   1    543 17.07                             115   -0.04 6  269 255 
 HEL  HZ I         543 24.81         1.9 0.52            117            269 255 
 GUY2CHZ EP   1    542 49.47                             112   -0.11 5  299 234 
 GUY2CHE ES        543 23.82                             112    0.42 7  299 234 
 GUY2CHZ I         543 34.26         2.0 0.38                           299 234 
 MON  HN ES   1    543 30.93                             108   -1.61 5  350 308 
 MON  HZ I         543 31.85         1.2 0.16            111            350 308 
 SJC  HZ EP   4    542 59.71                             106   -1.62 0  406 327 
 SJC  HN ES   4    543 40.88                             106   -3.42 0  406 327 
                                                                                
