 2010 1026 0522 47.3 L   6.741 -73.154138.0  RSN  6 0.3 1.5LRSN                1
 GAP=158        0.68       3.8     7.6  7.0 -0.9921E+01 -0.9152E+01  0.6884E+01E
 Epicentro: JORDAN - SANTANDER                                                 3
 ACTION:UP  11-02-18 11:12 OP:tino STATUS:               ID:20101026052247 L   I
 2010-10-26-0518-23S.COL___125                                                 6
 STAT SP IPHASW D HRMM SECON CODA AMPLIT PERI AZIMU VELO SNR AR TRES W  DIS CAZ7
 BAR2 SZ ES   2    523 20.33                             173     0.0 5   17 191 
 BAR2 SZ I         523 21.86        11.7 0.24                            17 191 
 BRR  HZ IP     D  523  7.43                             150    -0.310   74 303 
 BRR  HZ I         523  7.83         7.7 0.12                            74 303 
 BRR  HE ES   1    523 23.89                             150     0.2 7   74 303 
 RUS  HZ EP   1    523  9.47                             144    -0.3 7   94 175 
 RUS  HN ES   2    523 27.23                             144    -0.1 5   94 175 
 RUS  HZ I         523 29.49         2.8 0.50                            94 175 
 GRA  SZ IP        523 12.42                             134     0.010  132  17 
 GRA  SZ I         523 13.71         4.4 0.18                           132  17 
 GRA  SZ ES   1    523 32.26                             134     0.3 7  132  17 
 CHI  HZ EP   2    523 24.29                             116     0.5 4  242 195 
 CHI  HZ I         523 30.99         0.9 0.75                           242 195 
 CHI  HE ES   2    523 53.30                             116     1.0 4  242 195 
 PRA  HZ EP   1    523 39.52                             106    -0.3 4  386 210 
 PRA  HN ES   2    524 21.25                             106     0.5 3  386 210 
 PRA  HZ I         524 26.74         5.1 0.20                           386 210 
                                                                                
