 2015  326 0455 16.8 L   6.629 -73.249138.0  RSN  4 0.4 1.1LRSN                1
 GAP=163        0.96       7.4     7.1  9.2  0.2034E+02  0.1553E+02 -0.4255E+01E
 Epicentro: BARICHARA - SANTANDER                                              3
 ACTION:UPD 15-04-30 16:29 OP:nd   STATUS:               ID:20150326045516 L   I
 OLDACT:REG 15-03-26 12:52 OP:fm   STATUS:               ID:20150326044743     3
 2015-03-26-0447-43M.COL___281                                                 6
 STAT SP IPHASW D HRMM SECON CODA AMPLIT PERI AZIMU VELO AIN AR TRES W  DIS CAZ7
 BAR2 EZ EP        455 35.37                             176    0.0610 8.46 119 
 BAR2 EZ ES        455 50.29                             176    0.5710 8.46 119 
 BAR2 EZ I         455 58.90         5.4 0.48            173           8.46 119 
 BRR  HZ EP        455 36.84                             150   -0.4510 73.5 316 
 BRR  HN ES        455 53.06                             150   -0.1810 73.5 316 
 BRR  HZ I         455 54.67         2.9 0.12            154           73.5 316 
 RUS  HN ES        455 55.27                             148   -0.3510 83.5 167 
 RUS  HZ I         455 59.15         1.3 0.32            150           83.5 167 
 PTB  HZ EP   1    455 42.61                             133    0.70 7  134 266 
 PTB  HN ES        456  1.46                             133   -0.0110  134 266 
 PTB  HZ I         456  9.48         1.7 0.12            136            134 266 
                                                                                
