 2011  326 0353 16.5 L   6.798 -73.123142.4  RSN  5 0.3 1.4LRSN                1
 GAP=158        0.58       5.0     7.5  6.6 -0.1505E+02  0.1099E+02 -0.9378E+01E
 Epicentro: LOS SANTOS - SANTANDER                                             3
 *BAR2-BRR-GRA                                                                 3
 ACTION:UP  11-06-16 14:35 OP:jfem STATUS:               ID:20110326035316 L   I
 2011-03-26-0351-42S.COL___139                                                 6
 STAT SP IPHASW D HRMM SECON CODA AMPLIT PERI AZIMU VELO SNR AR TRES W  DIS CAZ7
 BAR2 SZ EP   1    353 35.67                             170     0.0 7   24 196 
 BAR2 SZ I         353 35.80         6.2 0.20                            24 196 
 BAR2 SZ ES   1    353 50.44                             170    -0.3 7   24 196 
 BRR  HZ EP        353 37.47                             151     0.110   74 298 
 BRR  HN ES   2    353 54.25                             151     0.5 5   74 298 
 BRR  HZ I         353 58.54         6.6 0.13                            74 298 
 PAM  SZ EP   2    353 38.73                             151     0.5 5   76  38 
 PAM  SE ES   2    353 55.29                             151     0.1 5   76  38 
 PAM  SZ I         353 57.48         3.4 0.56                            76  38 
 GRA  SZ EP   2    353 41.48                             136     0.1 5  125  16 
 GRA  SZ ES   1    354  0.93                             136     0.1 7  125  16 
 GRA  SZ I         354  2.02         4.4 0.51                           125  16 
 OCA  SZ EP   1    353 44.30                             129    -0.3 7  161 352 
 OCA  SZ ES   2    354  6.03                             129    -0.5 5  161 352 
 OCA  SZ I         354  7.57         3.1 0.54                           161 352 
                                                                                
