 2012  426 0230  7.5 L   6.791 -73.159143.1  RSN 11 0.3 2.2LRSN                1
 GAP=135        0.75       3.0     4.1  6.0 -0.2434E+01  0.8358E+01  0.2218E+01E
 Epicentro: LOS SANTOS - SANTANDER                                             3
 ACTION:UPD 12-07-05 11:56 OP:tino STATUS:               ID:20120426023007 L   I
 2012-04-26-0230-00M.COL___186                                                 6
 STAT SP IPHASW D HRMM SECON CODA AMPLIT PERI AZIMU VELO AIN AR TRES W  DIS CAZ7
 BAR2 SZ EP   1    230 25.99                             171    -0.8 7   22 187 
 BAR2 SZ ES   1    230 42.11                             171     0.3 7   22 187 
 BAR2 SZ I         230 43.72        83.2 0.19                            22 187 
 BRR  HZ EP   1    230 28.82                             152     0.5 7   70 300 
 BRR  HZ I         230 48.78        35.6 0.18                            70 300 
 PAM  SZ EP   1    230 29.75                             150     0.2 7   79  40 
 PAM  SZ I         230 30.03        26.9 0.19                            79  40 
 PAM  SN ES   1    230 46.92                             150     0.2 7   79  40 
 RUS  HZ EP   1    230 30.85                             143    -0.1 7  100 175 
 RUS  HN ES   1    230 48.86                             143    -0.3 7  100 175 
 RUS  HZ I         230 50.84        16.5 0.37                           100 175 
 PTB  HZ EP   1    230 34.35                             132     0.3 7  146 259 
 PTB  HN ES   1    230 54.87                             132     0.0 7  146 259 
 PTB  HZ I         230 58.44         8.3 0.09                           146 259 
 OCA  SZ EP   1    230 35.25                             129    -0.4 7  161 354 
 OCA  SZ ES   1    230 57.50                             129    -0.1 7  161 354 
 ZAR  HN ES   1    231  4.52                             122    -0.2 6  203 293 
 ZAR  HZ I         231 11.39         9.4 0.21                           203 293 
 NOR  SZ EP   1    230 42.68                             118    -0.2 6  233 234 
 NOR  SN ES   1    231 10.09                             118    -0.4 6  233 234 
 CHI  HZ EP   1    230 44.95                             117     0.1 6  247 195 
 CHI  HN ES   1    231 14.13                             117     0.1 6  247 195 
 CHI  HZ I         231 17.88         8.7 0.50                           247 195 
 RREF HZ EP   1    230 53.65                             110     0.3 5  320 229 
 RREF HN ES   1    231 29.48                             110     0.4 5  320 229 
 RREF HZ I         231 39.48        12.2 0.31                           320 229 
 PRA  HZ EP   1    231  1.11                             106     0.4 4  390 209 
                                                                                
