 2013 1026 0822  9.5 L   6.793 -73.161139.0  RSN  8 0.3 1.7LRSN                1
 GAP=135        0.90       3.0     3.7  5.6 -0.1140E+01  0.5142E+01 -0.8030E+00E
 Epicentro: LOS SANTOS - SANTANDER                                             3
 ACTION:UPD 13-11-25 09:23 OP:ep   STATUS:               ID:20131026082209 L   I
 OLDACT:REG 13-10-26 08:43 OP:carl STATUS:               ID:20131026081848     3
 2013-10-26-0818-48M.COL___227                                                 6
 STAT SP IPHASW D HRMM SECON CODA AMPLIT PERI AZIMU VELO AIN AR TRES W  DIS CAZ7
 BAR2 SZ EP        822 28.44                             170    0.1310 22.3 186 
 BAR2 SZ ES        822 42.58                             170   -0.3910 22.3 186 
 BAR2 SZ I         822 44.66        29.2 0.20            170           22.3 186 
 BRR  HZ IP     C  822 30.24                             152    0.3710 70.1 300 
 BRR  HN ES        822 46.47                             152    0.7210 70.1 300 
 BRR  HZ I         822 50.24        12.2 0.34            151           70.1 300 
 PAM  SZ EP        822 31.34                             149    0.2210 79.0  40 
 PAM  SN ES        822 48.05                             149    0.0910 79.0  40 
 PAM  SZ I         822 50.23        12.4 0.48            154           79.0  40 
 RUS  HZ EP        822 32.46                             142   -0.1010 99.9 175 
 RUS  HN ES        822 50.56                             142    0.0310 99.9 175 
 RUS  HZ I         822 52.74         2.4 0.26            145           99.9 175 
 PTB  HZ EP        822 35.41                             131   -0.37 9  146 259 
 PTB  HN ES        822 55.97                             131   -0.29 9  146 259 
 PTB  HZ I         822 59.38         7.5 0.16            131            146 259 
 OCA  HZ EP   1    822 37.19                             128   -0.17 7  161 354 
 OCA  HE ES        822 58.35                             128   -0.73 9  161 354 
 OCA  HZ I         823  2.47         5.2 0.20            131            161 354 
 SPBC HZ EP        822 37.70                             128    0.35 9  162 219 
 SPBC HN ES        822 58.75                             128   -0.30 9  162 219 
 SPBC HZ I         823  7.47         4.5 0.22            129            162 219 
 ZAR  HZ EP        822 41.47                             121    0.07 9  203 293 
 ZAR  HN ES        823  6.41                             121    0.14 9  203 293 
 ZAR  HZ I         823 12.69         7.7 0.34            122            203 293 
                                                                                
