 2016 1126 0723 33.3 L   6.812 -73.344127.4  RSN  4 0.5 1.0LRSN                1
 GAP=113        0.81       7.4     5.5  7.7 -0.7818E+01  0.1496E+02  0.7626E+01E
 Epicentro: ZAPATOCA - SANTANDER                                               3
 ACTION:UPD 17-10-26 21:12 OP:lp   STATUS:               ID:20161126072333 L   I
 OLDACT:UP  16-11-26 15:19 OP:dani STATUS:               ID:20161126071741     3
 OLDACT:REG 16-11-26 12:11 OP:dani STATUS:               ID:20161126071741     3
 2016-11-26-0718-00M.COL___349                                                 6
 STAT SP IPHASW D HRMM SECON CODA AMPLIT PERI AZIMU VELO AIN AR TRES W  DIS CAZ7
 BAR2 EZ EP        723 51.29                             166    0.3510 30.2 144 
 BAR2 EZ ES        724  4.42                             166   -0.2610 30.2 144 
 BAR2 EZ I         724  5.52        10.8 0.38            168           30.2 144 
 BRR  HZ EP        723 51.59                             156    0.1310 52.1 309 
 BRR  HN ES        724  5.53                             156   -0.0610 52.1 309 
 BRR  HZ I         724  6.21         1.6 0.17            155           52.1 309 
 PAM  EZ EP   4    723 46.09                             142   -8.57 0 92.0  51 
 PAM  EE ES        724 11.36                             142    0.0610 92.0  51 
 PAM  EZ I         724 13.60         1.1 0.24            144           92.0  51 
 PTB  HZ EP        723 56.51                             132   -0.3810  127 256 
 PTB  HE ES   3    724 17.48                             132    2.21 2  127 256 
 PTB  HZ I         724 19.62         0.8 0.20            132            127 256 
                                                                                
