 2010  326 0406 46.3 L   6.793 -73.055140.1  RSN  5 0.2 1.7LRSN                1
 GAP=208        0.41       3.8     8.0  4.8  0.7719E+01 -0.9621E+01 -0.4023E+00E
 Epicentro: LOS SANTOS - SANTANDER                                             3
 ACTION:UP  10-08-24 09:56 OP:vdl  STATUS:               ID:20100326040646 L   I
 2010-03-26-0404-41S.COL___098                                                 6
 STAT SP IPHASW D HRMM SECON CODA AMPLIT PERI AZIMU VELO SNR AR TRES W  DIS CAZ7
 BAR2 SZ EP   1    4 7  5.49                             169     0.2 7   26 213 
 BAR2 SZ ES   1    4 7 20.04                             169    -0.1 7   26 213 
 BRR  HZ EP   2    4 7  7.61                             148     0.2 5   81 296 
 BRR  HE ES   1    4 7 23.82                             148    -0.1 7   81 296 
 BRR  HZ I         4 7 29.62         6.4 0.11                            81 296 
 OCA  SZ EP   2    4 7 13.97                             128    -0.4 5  163 350 
 OCA  SZ ES   2    4 7 36.49                             128     0.2 5  163 350 
 OCA  SZ I         4 7 38.73        11.3 0.28                           163 350 
 CHI  HZ EP   2    4 7 23.83                             116    -0.1 4  251 197 
 CHI  HZ I         4 7 56.70         1.8 0.41                           251 197 
 PRA  HZ EP   2    4 7 40.15                             105     0.0 3  396 211 
 PRA  HZ I         4 8 26.15         2.6 0.78                           396 211 
                                                                                
