 2011  626 0612 55.0 L   6.789 -73.010145.4  RSN  7 0.2 1.7LRSN                1
 GAP=174        0.52       4.7     8.8  7.1  0.6952E+00 -0.8713E+01  0.4923E+01E
 Epicentro: CEPITA - SANTANDER                                                 3
 ACTION:UP  11-07-14 19:08 OP:ep   STATUS:               ID:20110626061255 L   I
 2011-06-26-0609-57S.COL___140                                                 6
 STAT SP IPHASW D HRMM SECON CODA AMPLIT PERI AZIMU VELO SNR AR TRES W  DIS CAZ7
 BAR2 SZ EP        613 14.61                             168    -0.110   29 221 
 BAR2 SZ ES   2    613 30.08                             168     0.0 5   29 221 
 BAR2 SZ I         613 30.69        13.1 0.24                            29 221 
 BTL  SZ EP        613 15.02                             167     0.210   32 297 
 BTL  SZ ES   2    613 30.17                             167    -0.1 5   32 297 
 GIR2 SZ EP        613 15.02                             165     0.210   38 328 
 BRR  HZ EP        613 16.74                             148    -0.210   85 294 
 BRR  HN ES   2    613 34.16                             148     0.1 5   85 294 
 BRR  HZ I         613 35.09        10.4 0.18                            85 294 
 RUS  HZ EP   2    613 18.67                             144     0.0 5   99 185 
 GRA  SZ ES   2    613 39.06                             137    -0.5 5  123  11 
 GRA  SZ I         613 43.15         7.9 0.25                           123  11 
 OCA  SZ ES   2    613 46.32                             129     0.3 5  164 348 
 OCA  SZ I         613 49.38         5.1 0.28                           164 348 
                                                                                
