 2017  826 0513 55.4 L   6.781 -73.126142.8  RSN  5 0.4 1.3LRSN                1
 GAP=238        0.90       5.2     6.6  7.1  0.1700E+02  0.7140E+01 -0.3620E+01E
 Epicentro: LOS SANTOS - SANTANDER                                             3
 ACTION:UPD 17-09-04 20:24 OP:rebc STATUS:               ID:20170826051355 L   I
 OLDACT:DUP 17-08-26 16:32 OP:osc  STATUS:               ID:20170826050743d    3
 2017-08-26-0508-00M.COL___405                                                 6
 STAT SP IPHASW D HRMM SECON CODA AMPLIT PERI AZIMU VELO AIN AR TRES W  DIS CAZ7
 BAR2 EZ EP        514 14.40                             171   -0.2510 21.8 197 
 BAR2 EZ ES        514 29.28                             171   -0.3810 21.8 197 
 BAR2 EZ I         514 30.90         3.8 0.16            171           21.8 197 
 BRR  HZ EP        514 16.28                             151   -0.1310 74.1 299 
 BRR  HE ES        514 33.36                             151    0.5810 74.1 299 
 BRR  HZ I         514 34.78         3.7 0.18            149           74.1 299 
 RUS  HZ EP        514 18.77                             144    0.0610 98.4 177 
 RUS  HE ES        514 37.11                             144    0.2210 98.4 177 
 SPBC HN ES        514 45.65                             128   -0.04 9  163 220 
 ZAR  HZ EP        514 28.42                             121    0.47 8  207 292 
 ZAR  HE ES        514 52.78                             121   -0.55 8  207 292 
 ZAR  HZ I         514 58.58         2.8 0.35            121            207 292 
                                                                                
