 2010  426 0242 29.6 L   6.784 -73.020142.0  RSN 11 0.6 2.6LRSN                1
 GAP=150        1.08       6.5    10.5  8.0 -0.1357E+02 -0.5620E+01  0.1009E+02E
 Epicentro: CEPITA - SANTANDER                                                 3
 ACTION:UPD 10-08-24 10:01 OP:vdl  STATUS:               ID:20100426024229 L   I
 2010-04-26-0240-27S.COL___104                                                 6
 STAT SP IPHASW D HRMM SECON CODA AMPLIT PERI AZIMU VELO AIN AR TRES W  DIS CAZ7
 BAR2 SZ EP        242 49.13                             168     0.310   28 221 
 BAR2 SZ ES   1    243  3.01                             168    -0.9 7   28 221 
 BRR  HZ EP        242 51.52                             147     0.410   85 295 
 BRR  HN ES   1    243  8.44                             147     0.5 7   85 295 
 BRR  HZ I         243 12.54       111.0 0.13                            85 295 
 OCA  SZ EP        242 57.66                             128    -0.3 9  164 348 
 CHI  HZ EP        243  7.45                             116     0.1 8  251 198 
 CHI  HE ES   2    243 37.14                             116     0.4 4  251 198 
 CHI  HZ I         243 43.19        18.5 0.27                           251 198 
 ROSC BZ EP   2    243  9.32                             115     1.2 4  259 214 
 ROSC BZ I         243 44.84        27.5 0.33                           259 214 
 HEL  HZ EP   1    243 11.27                             113     0.2 6  285 257 
 HEL  HZ I         243 48.44        25.8 0.51                           285 257 
 RREF BZ EP   1    243 16.91                             109     0.2 5  331 231 
 SDV  BZ EP   1    243 18.70                             108     0.3 5  351  49 
 TOL  SZ EP   1    243 17.82                             108    -0.9 5  352 226 
 DBB  SZ EP   1    243 17.40                             108    -1.1 5  354 274 
 PRA  HZ EP   1    243 22.89                             105    -0.7 4  398 211 
                                                                                
