 2017  426 0714 19.2 L   6.769 -73.161147.1  RSN 11 0.5 2.0LRSN                1
 GAP=111        0.99       4.1     3.5  6.5  0.1326E+01  0.2674E+01  0.8330E+01E
 Epicentro: LOS SANTOS - SANTANDER                                             3
 ACTION:UPD 17-05-30 21:16 OP:jn   STATUS:               ID:20170426071419 L   I
 OLDACT:UP  17-04-26 15:03 OP:dani STATUS:               ID:20170426070644     3
 OLDACT:UP  17-04-26 15:03 OP:dani STATUS:               ID:20170426070644     3
 OLDACT:UP  17-04-26 15:02 OP:dani STATUS:               ID:20170426070644     3
 OLDACT:UP  17-04-26 15:02 OP:dani STATUS:               ID:20170426070644     3
 OLDACT:REG 17-04-26 12:37 OP:dani STATUS:               ID:20170426070644     3
 2017-04-26-0707-00M.COL___369                                                 6
 STAT SP IPHASW D HRMM SECON CODA AMPLIT PERI AZIMU VELO AIN AR TRES W  DIS CAZ7
 BAR2 EZ EP        714 38.90                             172   -0.0310 19.7 187 
 BAR2 EZ ES        714 53.95                             172   -0.3610 19.7 187 
 BAR2 EZ I         714 56.63        21.8 0.26            167           19.7 187 
 BRR  HZ EP        714 40.74                             153    0.2310 71.4 302 
 BRR  HN ES        714 57.85                             153    0.7210 71.4 302 
 BRR  HZ I         715  1.91        13.4 0.16            153           71.4 302 
 PAM  EZ EP        714 41.91                             150    0.1210 81.1  39 
 PAM  EN ES        714 58.98                             150   -0.4210 81.1  39 
 PAM  EZ I         715  1.09        19.5 0.50            157           81.1  39 
 PTB  HZ EP        714 45.78                             133   -0.29 9  145 260 
 PTB  HN ES        715  6.67                             133   -0.36 9  145 260 
 PTB  HZ I         715 12.33         7.5 0.24            133            145 260 
 SPBC HN ES        715  9.74                             130    0.25 9  159 219 
 YPLC HN ES        715 12.47                             127    0.43 9  175 150 
 ZAR  HZ EP   3    714 53.20                             123    1.49 2  204 293 
 ZAR  HN ES        715 17.16                             123    0.09 9  204 293 
 ZAR  HZ I         715 22.61        10.5 0.26            124            204 293 
 CHI  HZ EP        714 57.06                             118    0.49 8  245 195 
 CHI  HN ES   3    715 26.91                             118    1.20 2  245 195 
 CHI  HZ I         715 36.32         4.1 0.40            118            245 195 
 ROSC BZ EP   9    714 59.81                             117    2.83 0  249 211 
 ROSC BN ES   2    715 27.99                                   -1.28 4  249 211 
 ROSC BZ I         715 33.80         8.1 0.40            118            249 211 
 HEL  HN ES        715 29.83                             115   -0.58 8  270 256 
 PTGC HZ EP        715  2.11                             112   -0.72 7  306 158 
 PTGC HN ES   3    715 35.69                             112   -1.17 2  306 158 
 PTGC HZ I         715 40.35         5.5 0.32            113            306 158 
                                                                                
