 2013  326 0108 25.0 L   6.767 -73.116146.3  RSN  7 0.2 1.5LRSN                1
 GAP=142        0.50       2.9     2.7  4.1 -0.1042E+01  0.3153E+01 -0.3739E-02E
 Epicentro: LOS SANTOS - SANTANDER                                             3
 ACTION:UPD 13-04-09 14:04 OP:ep   STATUS:               ID:20130326010825 L   I
 2013-03-26-0100-00M.COL___244                                                 6
 STAT SP IPHASW D HRMM SECON CODA AMPLIT PERI AZIMU VELO AIN AR TRES W  DIS CAZ7
 BAR2 SZ ES   1    1 8 59.87                             172   -0.06 7 20.7 201 
 BAR2 SZ I         1 9  1.67         9.9 0.28            170           20.7 201 
 BRR  HZ EP   1    1 8 46.52                             151    0.08 7 75.9 300 
 BRR  HN ES   1    1 9  3.44                             151    0.25 7 75.9 300 
 BRR  HZ I         1 9  7.33         4.1 0.12            149           75.9 300 
 PAM  SZ EP        1 8 47.24                             151   -0.0510 78.2  36 
 PAM  SN ES   1    1 9  4.64                             151   -0.06 7 78.2  36 
 PAM  SZ I         1 9  6.57         5.1 0.66            154           78.2  36 
 RUS  HZ EP   1    1 8 48.69                             145    0.19 7 96.8 178 
 RUS  HN ES   1    1 9  6.87                             145    0.02 7 96.8 178 
 RUS  HZ I         1 9  8.01         2.5 0.30            148           96.8 178 
 PTB  HZ EP   1    1 8 51.53                             132   -0.69 7  150 260 
 PTB  HN ES   1    1 9 13.23                             132   -0.24 7  150 260 
 PTB  HZ I         1 9 16.22         3.6 0.12            132            150 260 
 ZAR  HZ EP   1    1 8 58.15                             122    0.24 6  209 293 
 ZAR  HN ES   1    1 9 23.70                             122    0.10 6  209 293 
 ZAR  HZ I         1 9 29.13         4.6 0.36            123            209 293 
 NOR  HZ EP   1    1 9  1.04                             119    0.24 6  235 236 
 NOR  HN ES   1    1 9 28.84                             119    0.10 6  235 236 
 NOR  HZ I         1 9 34.29         2.0 0.40            120            235 236 
                                                                                
