 2011  226 0728 16.1 L   6.773 -72.962146.0  RSN  6 0.4 1.4LRSN                1
 GAP=180        0.78       3.9    17.0  9.3 -0.1517E+02  0.3251E+02 -0.7349E+00E
 Epicentro: CEPITA - SANTANDER                                                 3
 ACTION:UP  11-03-28 15:11 OP:jfem STATUS:               ID:20110226072816 L   I
 2011-02-26-0725-24S.COL___136                                                 6
 STAT SP IPHASW D HRMM SECON CODA AMPLIT PERI AZIMU VELO SNR AR TRES W  DIS CAZ7
 BAR2 SZ EP        728 35.92                             167    -0.110   32 231 
 BAR2 SZ ES   2    728 51.63                             167     0.2 5   32 231 
 BAR2 SZ I         728 53.65         3.7 0.12                            32 231 
 RUS  HZ EP   1    728 40.06                             145     0.3 7   98 188 
 RUS  HN ES   2    728 57.57                             145    -0.6 5   98 188 
 RUS  HZ I         729  1.10         3.9 0.40                            98 188 
 GRA  SZ EP   2    728 41.71                             138     0.5 5  124   8 
 GRA  SZ ES   2    729  0.75                             138    -0.1 5  124   8 
 GRA  SZ I         729  5.73         2.5 0.30                           124   8 
 OCA  SZ EP        728 44.57                             129    -0.5 9  167 346 
 OCA  SZ ES   1    729  8.18                             129     0.5 7  167 346 
 OCA  SZ I         729 10.57         5.0 0.08                           167 346 
 CHI  HZ EP   1    728 54.41                             117     0.2 6  252 200 
 CHI  HZ I         728 56.31         1.1 0.08                           252 200 
 CHI  HE ES   2    729 24.07                             117     0.2 4  252 200 
 HEL  HZ EP   2    728 58.19                             113    -0.3 4  291 257 
 HEL  HZ I         729 34.72         1.9 0.54                           291 257 
                                                                                
