 2011  926 0244 57.9 L   6.744 -73.099131.0  RSN  7 0.4 2.4LRSN                1
 GAP=192        0.68       5.2     5.4  5.9 -0.1270E+02  0.4702E+01  0.9053E+01E
 Epicentro: LOS SANTOS - SANTANDER                                             3
 ACTION:UPD 12-07-13 15:59 OP:ep   STATUS:               ID:20110926024457 L   I
 2011-09-26-0240-00M.COL___161                                                 6
 STAT SP IPHASW D HRMM SECON CODA AMPLIT PERI AZIMU VELO AIN AR TRES W  DIS CAZ7
 BAR2 SZ IP        245 16.03                             171    0.3710 19.2 209 
 BAR2 SZ ES   1    245 29.13                             171   -0.39 7 19.2 209 
 BAR2 SZ I         245 31.85        80.3 0.27                          19.2 209 
 BRR  HZ EP        245 17.83                             147   -0.1210 78.8 301 
 BRR  HN ES   1    245 34.03                             147    0.44 7 78.8 301 
 BRR  HZ I         245 38.96        90.3 0.12                          78.8 301 
 BRI  SZ EP   1    245 20.51                             137   -0.24 7  113  17 
 NOR  SZ EP   1    245 32.62                             115   -0.28 6  235 236 
 NOR  SN ES   1    245 59.57                             115   -0.62 6  235 236 
 NOR  SZ I         246  8.75         1.9 0.16                           235 236 
 HEL  HZ EP   1    245 37.74                             111   -0.07 6  276 257 
 HEL  HN ES   1    246  8.69                             111   -0.25 6  276 257 
 HEL  HZ I         246 15.33        13.7 0.28                           276 257 
 RREF HZ EP   1    245 43.98                             108    0.54 5  322 231 
 RREF HN ES   1    246 19.50                             108    0.54 5  322 231 
 PRA  HZ EP   1    245 50.24                             104   -0.38 4  389 211 
 PRA  HN ES   1    246 32.11                             104    0.37 4  389 211 
 PRA  HZ I         246 38.56        40.3 0.33                           389 211 
                                                                                
