 2013 1126 0831 35.2 L   6.820 -73.138150.8  RSN  5 0.5 1.4LRSN                1
 GAP=151        1.19       8.5     6.9 11.4 -0.1827E+02  0.7781E+01  0.1075E+02E
 Epicentro: LOS SANTOS - SANTANDER                                             3
 ACTION:UP  14-01-09 16:31 OP:ep   STATUS:               ID:20131126083135 L   I
 OLDACT:UPD 14-01-08 11:02 OP:EP   STATUS:               ID:20131126083135 L   3
 OLDACT:DUP 13-11-26 10:49 OP:mh   STATUS:               ID:20131126083001d    3
 2013-11-26-0830-00M.COL___282                                                 6
 STAT SP IPHASW D HRMM SECON CODA AMPLIT PERI AZIMU VELO AIN AR TRES W  DIS CAZ7
 BAR2 SZ EP   1    831 54.79                             170   -0.70 7 25.7 191 
 BAR2 SZ  IAML     832 11.75         7.7 0.29                          25.7 191 
 BRR  HZ EP        831 57.38                             153    0.4910 70.9 297 
 BRR  HN ES        832 14.46                             153    0.6610 70.9 297 
 PAM  SZ EP        831 58.10                             152    0.2710 75.1  40 
 PAM  SN ES        832 15.11                             152   -0.3610 75.1  40 
 PTB  HZ EP        832  2.87                             133    0.17 9  149 258 
 PTB  HN ES     C  832 23.53                             133   -0.63 9  149 258 
 PTB  HZ  IAML     832 24.95         1.9 0.14                           149 258 
 SML  HN ES        832 40.16                             119   -0.43 8  242 335 
                                                                                
