 2015  326 0137 22.3 L   6.737 -73.145142.0  RSN  7 0.3 1.5LRSN                1
 GAP=139        0.66       3.2     3.0  4.4 -0.2752E+01  0.3304E+01  0.2279E+01E
 Epicentro: LOS SANTOS - SANTANDER                                             3
 ACTION:UPD 15-04-30 16:29 OP:nd   STATUS:               ID:20150326013722 L   I
 OLDACT:REG 15-03-26 12:44 OP:fm   STATUS:               ID:20150326012742     3
 2015-03-26-0127-42M.COL___281                                                 6
 STAT SP IPHASW D HRMM SECON CODA AMPLIT PERI AZIMU VELO AIN AR TRES W  DIS CAZ7
 BAR2 EZ EP        137 41.69                             173    0.3710 16.5 195 
 BAR2 EZ ES        137 56.07                             173   -0.1110 16.5 195 
 BAR2 EZ I         137 58.37         5.3 0.44            171           16.5 195 
 BRR  HZ EP        137 43.32                             151    0.1010 74.9 303 
 BRR  HN ES        137 59.97                             151    0.4010 74.9 303 
 BRR  HZ I         138  3.76        11.4 0.36            151           74.9 303 
 PAM  SZ EP        137 44.27                             148   -0.1410 82.8  36 
 PAM  SN ES        138  1.47                             148   -0.2210 82.8  36 
 PAM  SZ I         138  3.75         4.6 0.56            154           82.8  36 
 RUS  HZ EP        137 45.06                             145   -0.0810 93.6 176 
 RUS  HN ES        138  3.10                             145    0.1110 93.6 176 
 RUS  HZ I         138  6.78         3.2 0.44            147           93.6 176 
 PTB  HZ EP   1    137 48.31                             131   -0.51 7  147 262 
 PTB  HN ES        138  9.30                             131   -0.24 9  147 262 
 PTB  HZ I         138 12.94         4.3 0.12            133            147 262 
 NOR  HZ EP   1    137 57.25                             118   -0.10 6  231 236 
 NOR  HN ES   1    138 24.41                             118   -0.32 6  231 236 
 NOR  HZ I         138 32.81         3.1 0.18            120            231 236 
 GUY2CHZ EP   1    138  5.92                             112    0.66 5  297 236 
 GUY2CHE ES        138 38.79                             112   -0.01 7  297 236 
 GUY2CHZ I         138 48.12         1.6 0.76                           297 236 
                                                                                
