 2014  826 0825 51.8 L   6.322 -73.643109.7  RSN  6 0.5 1.5LRSN                1
 GAP= 89        1.11       5.0     5.5 11.6 -0.1600E+01 -0.4452E+01 -0.1102E+02E
 Epicentro: SANTA HELENA DEL OPON - SANTANDER                                  3
 ACTION:UPD 14-09-15 21:53 OP:nd   STATUS:               ID:20140826082551 L   I
 OLDACT:REG 14-08-26 13:09 OP:fm   STATUS:               ID:20140826081818     3
 2014-08-26-0818-18M.COL___254                                                 6
 STAT SP IPHASW D HRMM SECON CODA AMPLIT PERI AZIMU VELO AIN AR TRES W  DIS CAZ7
 RUS  HZ EP   1    826  9.81                             142   -0.60 7 78.1 127 
 SPBC HZ EP   1    826 10.35                             138   -0.27 7 88.0 213 
 SPBC HE ES        826 25.73                             138    0.4410 88.0 213 
 SPBC HZ I         826 28.12         6.3 0.16            149           88.0 213 
 PTB  HZ EP        826 10.39                             137   -0.5510 93.1 285 
 PTB  HN ES        826 25.43                             137   -0.4210 93.1 285 
 PTB  HZ I         826 27.99         7.2 0.10            145           93.1 285 
 PAM  SN ES   1    826 37.93                             122    0.71 7  153  43 
 PAM  SZ I         826 46.08         5.2 0.50            124            153  43 
 ZAR  HZ EP   1    826 19.85                             116   -0.40 7  186 314 
 ZAR  HN ES        826 42.98                             116    0.55 9  186 314 
 ZAR  HZ I         826 45.69         4.4 0.18            121            186 314 
 GUY2CHZ EP   1    826 25.91                             111    0.62 6  226 238 
 GUY2CHN ES   1    826 51.91                             111    0.51 6  226 238 
 GUY2CHZ I         826 59.98         1.7 0.36                           226 238 
                                                                                
