 2012 1026 0828 16.5 L   6.806 -73.126150.4  RSN 25 0.5 3.7LRSN 4.0WRSN        1
 SPEC AVERAGE  MO 15.1 ST 45.3 OM  3.4 f0 2.66 R0.6387 AL 2.02 WI 33.2 MW  4.0 3
 SPEC SD       MO  0.2 ST 34.9 OM  0.5 f00.896 R0.2759 AL      WI      MW  0.1 3
 GAP= 55        0.87       3.0     3.3  4.5  0.7424E-01  0.4280E+01  0.2704E+01E
 Epicentro: LOS SANTOS - SANTANDER                                             3
 SPEC ZAR HH E MO 15.2 ST 47.8 OM  3.4 f0 2.85 R0.5158 AL 1.45 WI 34.9 MW  4.1 3
 SPEC ZAR HH E T 82915 K 0.000 GD  255 VS 4.20 DE 3.00 Q0230.0 QA 0.60 VS 4.20 3
 SPEC TAM HH N MO 15.0 ST  2.2 OM  3.3 f0 1.16 R1.2672 AL 1.85 WI 27.9 MW  3.9 3
 SPEC TAM HH N T 829 5 K 0.000 GD  214 VS 4.20 DE 3.00 Q0230.0 QA 0.60 VS 4.20 3
 SPEC RREFHH Z MO 15.1 ST 72.9 OM  2.4 f0 3.49 R0.4212 AL 2.57 WI 37.2 MW  4.0 3
 SPEC RREFHH Z T 829 3 K 0.000 GD  357 VP 7.60 DE 3.00 Q0230.0 QA 0.60 VS 4.20 3
 SPEC OCA HH N MO 15.3 ST 58.6 OM  3.6 f0 2.75 R0.5345 AL 1.94 WI 27.3 MW  4.2 3
 SPEC OCA HH N T 829 6 K 0.000 GD  219 VS 4.20 DE 3.00 Q0230.0 QA 0.60 VS 4.20 3
 SPEC ANILHH Z MO 15.4 ST106.8 OM  2.7 f0 3.06 R0.4804 AL 2.30 WI 35.8 MW  4.2 3
 SPEC ANILHH Z T 829 7 K 0.000 GD  389 VP 7.60 DE 3.00 Q0230.0 QA 0.60 VS 4.20 3
 SPEC HEL HH N MO 14.8 ST  6.5 OM  2.9 f0 2.01 R0.7313 AL 1.95 WI 39.0 MW  3.8 3
 SPEC HEL HH N T 82928 K 0.000 GD  312 VS 4.20 DE 3.00 Q0230.0 QA 0.60 VS 4.20 3
 SPEC CHI HH N MO 14.9 ST  7.3 OM  3.1 f0 1.83 R0.8033 AL 1.77 WI 31.3 MW  3.9 3
 SPEC CHI HH N T 82924 K 0.000 GD  291 VS 4.20 DE 3.00 Q0230.0 QA 0.60 VS 4.20 3
 SPEC BRR HH N MO 14.8 ST 60.1 OM  3.2 f0 4.13 R0.3559 AL 2.30 WI 32.2 MW  3.8 3
 SPEC BRR HH N T 82855 K 0.000 GD  167 VS 4.20 DE 3.00 Q0230.0 QA 0.60 VS 4.20 3
 ACTION:UPD 12-11-22 17:06 OP:ep   STATUS:               ID:20121026082816 L   I
 2012-10-26-0826-41M.COL___199                                                 6
 STAT SP IPHASW D HRMM SECON CODA AMPLIT PERI AZIMU VELO AIN AR TRES W  DIS CAZ7
 BAR2 SZ IP        828 36.76                             170    0.0210 24.5 195 
 BAR2 SZ ES   1    828 51.75                             170   -0.75 7 24.5 195 
 BAR2 SZ I         828 54.67       764.2 0.42                          24.5 195 
 GIR2 SZ IP        828 36.86                             168    0.1110 31.0 346 
 GIR2 SZ ES   2    828 52.61                             168    0.09 5 31.0 346 
 BRR  HZ IP     C  828 38.64                             153    0.3710 72.8 297 
 BRR  HN ES   1    828 55.91                             153    0.69 7 72.8 297 
 BRR  HN I         828 59.08       942.2 0.54                          72.8 297 
 PAM  SZ IP     D  828 39.51                             152    0.3810 75.5  39 
 PAM  SZ I         828 39.80       635.9 0.20                          75.5  39 
 PAM  SN ES   1    828 56.84                             152    0.08 7 75.5  39 
 RUS  HZ IP     D  828 40.61                             145   -0.1810  101 177 
 RUS  HN ES   1    828 59.01                             145   -0.69 7  101 177 
 RUS  HN I         829  1.08       833.2 0.36                           101 177 
 TAM  HZ IP     C  828 44.90                             132    0.49 9  153 105 
 TAM  HZ I         828 45.02       467.1 0.34                           153 105 
 TAM  HN ES   1    829  6.53                             132    0.38 7  153 105 
 OCA  HZ EP        828 44.82                             131   -0.35 9  160 352 
 OCA  HN ES   2    829  6.64                             131   -0.86 5  160 352 
 OCA  HN I         829 10.30      1443.2 0.32                           160 352 
 YOP  SZ EP        828 47.20                             127    0.31 9  179 154 
 YOP  SN ES   2    829 10.13                             127   -0.43 4  179 154 
 YOP  SN I         829 14.49       429.5 0.34                           179 154 
 ZAR  HZ EP        828 49.10                             123   -0.36 8  206 292 
 ZAR  HN I         829 20.99       511.0 0.52                           206 292 
 AGZ  SZ IP        828 50.74                             121   -0.14 8  219 161 
 CHI  HZ EP        828 54.43                             118   -0.20 8  250 196 
 CHI  HN ES   1    829 24.01                             118   -0.33 6  250 196 
 CHI  HN I         829 26.67       237.9 0.32                           250 196 
 HEL  HZ EP        828 57.30                             115    0.06 8  274 256 
 HEL  HN ES   2    829 29.33                             115    0.35 4  274 256 
 GUY  SZ EP        829  1.14                             113    0.27 7  306 235 
 GUY  SN ES   2    829 35.27                             113   -0.18 4  306 235 
 RREF HZ EP        829  3.57                             111    0.45 7  324 230 
 DBB  SZ EP        829  4.17                             110   -0.28 7  342 274 
 SDV  BZ EP        829  5.76                             109   -0.75 6  358  50 
 ANIL HZ EP        829  7.99                             109    1.23 6  359 225 
 ANIL HZ I         829 50.38       402.8 0.32                           359 225 
 PRA  HZ EP        829  9.60                             107   -0.82 6  394 210 
 PAL  HZ EP   1    829 12.45                             106    0.34 4  408 239 
 YOT  HZ EP        829 19.36                             104   -0.60 5  474 229 
 SMAR HZ EP        829 21.63                             103   -0.88 4  497 346 
 HORQ SZ EP   1    829 28.05                             102    0.72 3  534 227 
 POP2 HZ EP        829 36.70                             100   -0.18 3  614 220 
 FLO2 HZ EP        829 39.13                              99   -0.81 2  642 206 
 GCUF HZ EP        829 57.34                              97    0.81 0  775 217 
                                                                                
