 2011 1226 0627 57.0 L   6.769 -73.175146.0  RSN  7 0.3 1.7LRSN                1
 GAP=177        0.68       5.2     5.1  5.8  0.1096E+02  0.9981E+01  0.6423E+01E
 Epicentro: LOS SANTOS - SANTANDER                                             3
 ACTION:UPD 12-07-13 16:18 OP:ep   STATUS:               ID:20111226062757 L   I
 2011-12-26-0620-00M.COL___187                                                 6
 STAT SP IPHASW D HRMM SECON CODA AMPLIT PERI AZIMU VELO AIN AR TRES W  DIS CAZ7
 BAR2 SZ EP   1    628 16.48                             172   -0.08 7 19.6 182 
 BAR2 SZ ES   1    628 31.32                             172   -0.52 7 19.6 182 
 BAR2 SZ I         628 32.55        13.3 0.27                          19.6 182 
 GIR2 SZ EP   1    628 16.56                             166   -0.19 7 34.3 357 
 GIR2 SZ ES   1    628 32.12                             166   -0.07 7 34.3 357 
 BRR  HZ EP   1    628 18.25                             153    0.17 7 70.1 302 
 BRR  HZ I         628 18.50        24.1 0.13                          70.1 302 
 BRR  HE ES   1    628 35.26                             153    0.71 7 70.1 302 
 RUS  HZ EP   1    628 20.64                             145    0.12 7 97.5 174 
 RUS  HN ES   1    628 39.21                             145    0.31 7 97.5 174 
 RUS  HZ I         628 40.30         3.8 0.27                          97.5 174 
 PTB  HZ EP   1    628 23.17                             133   -0.44 7  144 260 
 PTB  HN ES   1    628 44.04                             133   -0.35 7  144 260 
 PTB  HZ I         628 46.09         3.4 0.16                           144 260 
 ZAR  HZ EP   2    628 29.17                             123   -0.09 4  202 293 
 ZAR  HE ES   1    628 54.44                             123    0.00 6  202 293 
 NOR  SZ EP   1    628 32.63                             119    0.41 6  230 235 
                                                                                
