 2013  326 0401 40.2 L   6.804 -73.140148.5  RSN 11 0.4 2.0LRSN                1
 GAP=137        0.70       2.8     3.5  5.2 -0.1023E+01  0.5392E+01 -0.1267E+01E
 Epicentro: LOS SANTOS - SANTANDER                                             3
 ACTION:UPD 13-04-09 14:04 OP:ep   STATUS:               ID:20130326040140 L   I
 2013-03-26-0400-00M.COL___244                                                 6
 STAT SP IPHASW D HRMM SECON CODA AMPLIT PERI AZIMU VELO AIN AR TRES W  DIS CAZ7
 BAR2 SZ EP        4 2  0.19                             171    0.0210 23.9 191 
 BAR2 SZ ES   1    4 2 15.62                             171   -0.13 7 23.9 191 
 BAR2 SZ I         4 2 16.90        44.3 0.38            166           23.9 191 
 BRR  HZ IP     C  4 2  2.04                             153    0.3810 71.5 298 
 BRR  HE ES   2    4 2 18.93                             153    0.53 5 71.5 298 
 BRR  HZ I         4 2 24.24        14.0 0.12            150           71.5 298 
 PAM  SZ IP     C  4 2  2.96                             151    0.2910 76.7  39 
 PAM  SN ES   1    4 2 20.47                             151    0.28 7 76.7  39 
 PAM  SZ I         4 2 22.38        13.0 0.56            159           76.7  39 
 RUS  HZ EP   1    4 2  4.09                             144   -0.16 7  101 176 
 RUS  HN ES   1    4 2 22.33                             144   -0.68 7  101 176 
 RUS  HZ I         4 2 24.01        10.4 0.24            145            101 176 
 PTB  HZ EP   1    4 2  6.97                             132   -0.48 7  148 259 
 PTB  HN ES   1    4 2 28.24                             132   -0.47 7  148 259 
 PTB  HZ I         4 2 35.42        21.8 0.40            131            148 259 
 OCA  HZ EP   1    4 2  8.56                             130   -0.13 7  160 353 
 ZAR  HZ EP   1    4 2 12.78                             123   -0.09 6  204 292 
 ZAR  HE ES   1    4 2 38.33                             123   -0.01 6  204 292 
 ZAR  HZ I         4 2 45.26        15.2 0.36            124            204 292 
 NOR  HZ EP   1    4 2 16.07                             119   -0.10 6  235 234 
 NOR  HN ES   1    4 2 44.10                             119   -0.12 6  235 234 
 NOR  HZ I         4 2 50.26         7.6 0.14            120            235 234 
 SML  HZ EP   1    4 2 16.52                             118   -0.45 6  244 335 
 SML  HE ES   1    4 2 45.35                             118   -0.29 6  244 335 
 CHI  HZ EP   1 D  4 2 18.14                             117    0.02 6  249 195 
 CHI  HN ES   1    4 2 48.39                             117    0.70 6  249 195 
 CHI  HZ I         4 2 58.51         2.6 0.40            119            249 195 
 HEL  HZ EP   2    4 2 21.33                             115    0.70 4  273 256 
 HEL  HE ES   2    4 2 53.02                             115    0.86 4  273 256 
 HEL  HZ I         4 2 58.48         7.2 0.30            116            273 256 
 SJC  HZ EP   4    4 2 34.11                             106   -1.74 0  409 327 
 SJC  HN ES   4    4 3 16.02                             106   -3.23 0  409 327 
                                                                                
