 2016  326 0050 55.9 L   6.833 -73.191146.0  RSN  6 0.2 1.3LRSN                1
 GAP=129        0.46       2.1     2.0  4.7 -0.8944E+00  0.3047E+01  0.6840E-02E
 Epicentro: ZAPATOCA - SANTANDER                                               3
 ACTION:UPD 16-05-13 21:27 OP:cam  STATUS:               ID:20160326005055 L   I
 OLDACT:UP  16-03-26 14:30 OP:ak   STATUS:               ID:20160326004747     3
 OLDACT:REG 16-03-26 12:30 OP:ak   STATUS:               ID:20160326004747     3
 2016-03-26-0047-47M.COL___299                                                 6
 STAT SP IPHASW D HRMM SECON CODA AMPLIT PERI AZIMU VELO AIN AR TRES W  DIS CAZ7
 PAM  EZ EP        051 18.54                             150    0.3310 78.0  44 
 PAM  EE ES        051 35.45                             150   -0.1310 78.0  44 
 PAM  EZ I         051 37.69         4.0 0.48            152           78.0  44 
 RUS  HZ EP        051 20.01                             142    0.0010  105 173 
 RUS  HN ES        051 38.64                             142   -0.1410  105 173 
 RUS  HZ I         051 39.33         2.7 0.28            147            105 173 
 PTB  HZ EP   2    051 22.26                             133   -0.29 5  144 257 
 PTB  HE ES        051 43.22                             133   -0.09 9  144 257 
 PTB  HZ I         051 46.36         2.4 0.07            133            144 257 
 SPBC HZ EP   2    051 24.13                             129   -0.30 5  163 217 
 SPBC HE ES        051 46.73                             129    0.07 9  163 217 
 ZAR  HZ EP   2    051 27.44                             123   -0.34 4  198 292 
 ZAR  HE ES        051 52.59                             123   -0.03 9  198 292 
 ZAR  HZ I         051 59.14         2.1 0.50            123            198 292 
 NOR  HZ EP   2    051 31.35                             118   -0.13 4  233 233 
 NOR  HN ES        051 59.49                             118    0.29 8  233 233 
 NOR  HZ I         052  2.23         1.2 0.12            120            233 233 
                                                                                
