 2012  226 0619 24.4 L   6.785 -73.436117.0  RSN  5 0.3 1.3LRSN                1
 GAP= 98        0.60       6.0     5.3  6.7  0.1207E+02  0.7053E+01  0.1134E+02E
 ACTION:UP  12-03-07 16:34 OP:epov STATUS:               ID:20120226061924 L   I
 2012-02-26-0618-59S.COL___195                                                 6
 STAT SP IPHASW D HRMM SECON CODA AMPLIT PERI AZIMU VELO AIN AR TRES W  DIS CAZ7
 BAR2 SZ EP   1    619 41.06                             162    0.11 7 35.2 127 
 BAR2 SZ ES   1    619 53.57                             162   -0.29 7 35.2 127 
 BAR2 SZ I         619 54.50         6.4 0.22                          35.2 127 
 GIR2 SZ EP   1    619 40.79                             159   -0.29 7 42.1  39 
 BRR  HZ EP   2    619 41.05                             157   -0.05 5 46.9 319 
 BRR  HZ I         619 41.43         4.7 0.24                          46.9 319 
 BRR  HN ES   1    619 54.51                             157    0.38 7 46.9 319 
 RUS  HZ EP   1    619 46.43                             135    0.52 7  106 158 
 RUS  HN ES   2    620  2.56                             135   -0.14 5  106 158 
 PTB  HZ EP   1    619 45.80                             132   -0.34 7  116 257 
 PTB  HE ES   2    620  3.10                             132   -0.01 5  116 257 
                                                                                
