 2016  426 0604 38.8 L   6.840 -73.182122.0  RSN  7 0.6 1.1LRSN                1
 GAP=130        1.06       5.5     5.8 10.0 -0.1155E+02  0.3143E+02 -0.1004E+02E
 Epicentro: ZAPATOCA - SANTANDER                                               3
 ACTION:UPD 16-05-05 14:24 OP:rebc STATUS:               ID:20160426060438 L   I
 OLDACT:REG 16-04-26 13:01 OP:dnl  STATUS:               ID:20160426055749     3
 2016-04-26-0557-49M.COL___306                                                 6
 STAT SP IPHASW D HRMM SECON CODA AMPLIT PERI AZIMU VELO AIN AR TRES W  DIS CAZ7
 BAR2 EZ EP   2    6 4 55.65                             167    0.01 5 27.4 180 
 BAR2 EZ ES        6 5  9.27                             167    0.4610 27.4 180 
 BAR2 EZ I         6 5 11.89         1.5 0.19            168           27.4 180 
 PAM  EZ EP     D  6 4 58.75                             147    0.2910 76.7  44 
 PAM  EN ES        6 5 13.47                             147   -0.3510 76.7  44 
 PAM  EZ I         6 5 17.57         3.9 0.52            152           76.7  44 
 RUS  HZ EP   2    6 5  0.04                             138   -0.60 5  105 174 
 RUS  HN ES   2    6 5 18.19                             138    0.47 5  105 174 
 RUS  HZ I         6 5 20.53         1.9 0.30            142            105 174 
 PTB  HZ EP        6 5  2.67                             127   -0.93 9  145 257 
 PTB  HN ES   2    6 5 22.49                             127   -0.50 5  145 257 
 PTB  HZ I         6 5 25.20         2.5 0.16            129            145 257 
 SPBC HZ EP   4    6 5  3.66                             124   -1.99 0  164 217 
 SPBC HE ES        6 5 26.55                             124   -0.08 9  164 217 
 SPBC HZ I         6 5 32.15         2.4 0.09            127            164 217 
 ZAR  HZ EP   2    6 5 10.69                             118    1.50 4  199 291 
 ZAR  HE ES        6 5 33.23                             118    0.30 9  199 291 
 ZAR  HZ I         6 5 39.48         2.5 0.12            120            199 291 
 GUY2CHZ EP   3    6 5 21.99                             108    0.69 2  301 234 
 GUY2CHE ES   2    6 5 55.35                             108    0.86 4  301 234 
 GUY2CHZ I         6 6  1.95         0.5 0.10                           301 234 
                                                                                
