 2010 1226 0853 53.4 L   6.808 -73.153145.0  RSN 10 0.5 2.0LRSN                1
 GAP=135        0.86       4.0     7.1  7.9 -0.1156E+02  0.2104E+02 -0.4001E+01E
 Epicentro: LOS SANTOS - SANTANDER                                             3
 ACTION:UP  11-01-14 15:27 OP:pat  STATUS:               ID:20101226085353 L   I
 2010-12-26-0840-00M.COL___132                                                 6
 STAT SP IPHASW D HRMM SECON CODA AMPLIT PERI AZIMU VELO SNR AR TRES W  DIS CAZ7
 BAR2 SZ IP        854 12.99                             170     0.110   24 188 
 BAR2 SZ ES   1    854 28.26                             170     0.1 7   24 188 
 BAR2 SZ I         854 29.68        35.1 0.18                            24 188 
 RUS  HZ EP   1    854 16.84                             143    -0.3 7  102 176 
 RUS  HZ I         854 17.64         8.9 0.35                           102 176 
 RUS  HE ES   1    854 35.37                             143    -0.2 7  102 176 
 GRA  SZ IP        854 18.87                             137     0.410  125  18 
 GRA  SZ ES   1    854 38.24                             137     0.2 7  125  18 
 GRA  SZ I         854 39.69        10.8 0.30                           125  18 
 OCA  SZ EP   1    854 20.32                             130    -1.2 7  159 353 
 OCA  SZ I         854 47.32        14.6 0.31                           159 353 
 YOP  SZ EP   2    854 23.69                             126     0.2 4  180 153 
 YOP  SN ES   2    854 47.29                             126     0.3 4  180 153 
 YOP  SZ I         854 49.99         6.9 0.31                           180 153 
 NOR  SZ EP   2    854 29.05                             118     0.0 4  235 234 
 NOR  SN ES   2    854 56.57                             118    -0.3 4  235 234 
 CHI  HZ EP   2    854 31.29                             117     0.2 4  249 195 
 CHI  HE ES   2    854 59.93                             117    -0.6 4  249 195 
 CHI  HZ I         855  3.69         5.2 0.27                           249 195 
 HEL  HZ EP   2    854 34.32                             115     0.9 4  271 256 
 HEL  HE ES   2    855  5.52                             115     0.8 4  271 256 
 HEL  HZ I         855 12.93         6.3 0.52                           271 256 
 RREF HE ES   2    855 15.10                             111    -0.3 3  322 229 
 RREF HZ I         855 24.92         5.0 0.30                           322 229 
 PRA  HZ EP   1    854 47.00                             106     0.1 4  392 209 
 PRA  HN ES   1    855 28.81                             106     0.2 4  392 209 
                                                                                
