 2012  826 0800 30.0 L   6.821 -73.147144.8  RSN 16 0.5 3.0LRSN 3.5WRSN        1
 SPEC AVERAGE  MO 14.3 ST 30.5 OM  3.2 f0 4.23 R0.4043 AL 2.62 WI 19.0 MW  3.5 3
 SPEC SD       MO  0.1 ST 27.9 OM  0.7 f0 1.44 R0.1783 AL      WI      MW  0.1 3
 GAP= 65        1.00       3.4     3.0  5.6  0.5978E+00  0.2656E+01  0.6239E+01E
 Epicentro: LOS SANTOS - SANTANDER                                             3
 SPEC ROSCBH Z MO 14.3 ST  2.3 OM  2.5 f0 1.98 R0.7424 AL 2.17 WI 31.0 MW  3.5 3
 SPEC ROSCBH Z T 8 134 K 0.000 GD  293 VS 4.20 DE 3.00 Q0230.0 QA 0.60 VS 4.20 3
 SPEC RUS HH N MO 14.3 ST 70.8 OM  2.7 f0 6.27 R0.2344 AL 2.97 WI  6.9 MW  3.5 3
 SPEC RUS HH N T 8 111 K 0.000 GD  177 VS 4.20 DE 3.00 Q0230.0 QA 0.60 VS 4.20 3
 SPEC HEL HH N MO 14.2 ST 10.9 OM  2.3 f0 3.80 R0.3868 AL 2.77 WI 25.2 MW  3.4 3
 SPEC HEL HH N T 8 140 K 0.000 GD  309 VS 4.20 DE 3.00 Q0230.0 QA 0.60 VS 4.20 3
 SPEC CHI HH N MO 14.1 ST 11.3 OM  2.3 f0 3.93 R0.3740 AL 2.83 WI 13.5 MW  3.4 3
 SPEC CHI HH N T 8 136 K 0.000 GD  289 VS 4.20 DE 3.00 Q0230.0 QA 0.60 VS 4.20 3
 SPEC BRR HH N MO 14.5 ST 57.2 OM  2.9 f0 5.18 R0.2838 AL 2.35 WI 18.6 MW  3.6 3
 SPEC BRR HH N T 8 1 5 K 0.000 GD  160 VS 4.20 DE 3.00 Q0230.0 QA 0.60 VS 4.20 3
 ACTION:UP  12-09-10 11:58 OP:ep   STATUS:               ID:20120826080029 L   I
 2012-08-26-0800-00M.COL___218                                                 6
 STAT SP IPHASW D HRMM SECON CODA AMPLIT PERI AZIMU VELO AIN AR TRES W  DIS CAZ7
 BAR2 SZ IP        8 0 49.40                             169   -0.1210 25.6 189 
 BAR2 SZ I         8 0 49.83       263.0 0.11                          25.6 189 
 BAR2 SZ ES   1    8 1  4.23                             169   -0.55 7 25.6 189 
 GIR2 SZ EP        8 0 49.42                             168   -0.0410 29.0 350 
 GIR2 SZ ES   1    8 1  4.33                             168   -0.34 7 29.0 350 
 BRR  HZ IP     C  8 0 51.22                             153    0.2810 70.0 297 
 BRR  HN ES        8 1  8.08                             153    0.7810 70.0 297 
 BRR  HZ I         8 1 12.33       230.2 0.14                          70.0 297 
 PAM  SZ EP   1    8 0 52.18                             151    0.21 7 75.7  41 
 PAM  SN ES   1    8 1  9.34                             151    0.20 7 75.7  41 
 PAM  SZ I         8 1 11.74       124.7 0.32                          75.7  41 
 RUS  HZ EP   1    8 0 53.44                             143   -0.34 7  103 176 
 RUS  HN ES   1    8 1 12.32                             143   -0.05 7  103 176 
 RUS  HZ I         8 1 13.90        82.9 0.30                           103 176 
 PTB  HZ EP   1    8 0 55.91                             132   -0.97 7  148 258 
 PTB  HN ES   1    8 1 17.10                             132   -0.78 7  148 258 
 PTB  HZ I         8 1 20.50        70.4 0.30                           148 258 
 TAM  HZ IP     C  8 0 57.79                             130    0.16 9  156 106 
 TAM  HZ I         8 0 58.11       104.0 0.40                           156 106 
 TAM  HE ES        8 1 19.35                             130    0.14 9  156 106 
 OCA  HZ EP   1    8 0 57.80                             130   -0.17 7  158 353 
 OCA  HN ES   1    8 1 19.18                             130   -0.65 7  158 353 
 OCA  HZ I         8 1 22.53       241.4 0.23                           158 353 
 YOP  SZ EP   1    8 1  0.19                             126    0.05 7  181 154 
 YOP  SZ I         8 1  2.17        65.2 0.20                           181 154 
 YOP  SN ES   2    8 1 24.87                             126    1.18 4  181 154 
 ZAR  HZ EP   1    8 1  1.97                             122   -0.27 6  203 292 
 ZAR  HN ES        8 1 27.35                             122   -0.07 9  203 292 
 ZAR  HZ I         8 1 33.59       100.8 0.25                           203 292 
 NOR  SZ EP   1    8 1  5.49                             118   -0.27 6  236 234 
 NOR  SN ES        8 1 34.23                             118    0.54 8  236 234 
 NOR  SZ I         8 1 38.63        65.0 0.19                           236 234 
 CHI  HZ EP   1    8 1  7.69                             117   -0.15 6  251 195 
 CHI  HN ES        8 1 36.65                             117   -0.74 8  251 195 
 CHI  HZ I         8 1 44.14        42.5 0.48                           251 195 
 ROSC BZ EP   1    8 1  9.33                             116    1.10 6  255 211 
 ROSC BZ I         8 1 43.81        88.2 0.47                           255 211 
 HEL  HZ EP   1    8 1 11.25                             114    1.08 6  273 255 
 HEL  HN ES   1    8 1 42.03                             114    0.49 6  273 255 
 HEL  HZ I         8 1 48.49        55.8 0.30                           273 255 
 VIL  SZ EP   1    8 1 13.23                             112   -0.36 5  306 191 
 VIL  SZ I         8 1 55.21        52.1 0.51                           306 191 
 PRA  HZ EP   1    8 1 23.07                             106   -0.60 4  394 209 
 PRA  HN ES   1    8 2  6.02                             106    0.45 4  394 209 
 PRA  HZ I         8 2 11.80        49.2 0.33                           394 209 
                                                                                
