 2011  526 0216 23.9 L   6.590 -73.549115.6  RSN  8 0.3 2.0LRSN                1
 GAP=110        0.69       3.3     4.7  7.0 -0.5183E+01  0.4573E+01 -0.2932E+01E
 Epicentro: EL CARMEN DE CHUCURI - SANTANDER                                   3
 ACTION:UP  11-06-29 08:56 OP:tino STATUS:               ID:20110526021623 L   I
 2011-05-26-0211-58S.COL___115                                                 6
 STAT SP IPHASW D HRMM SECON CODA AMPLIT PERI AZIMU VELO SNR AR TRES W  DIS CAZ7
 BAR2 SZ EP   1    216 40.72                             159     0.3 7   41  90 
 BAR2 SZ ES   1    216 52.93                             159    -0.5 7   41  90 
 BAR2 SZ I         216 54.34        59.6 0.41                            41  90 
 BTL  SZ EP        216 40.97                             156     0.210   48  41 
 BRR  HZ EP   1    216 41.18                             151     0.1 7   60 343 
 BRR  HZ I         216 41.51        23.0 0.08                            60 343 
 BRR  HN ES   1    216 54.70                             151     0.1 7   60 343 
 GIR2 SZ EP   1    216 41.83                             148     0.1 7   67  36 
 RUS  HZ EP   1    216 44.31                             139     0.2 7   93 146 
 RUS  HN ES   1    217  0.01                             139     0.1 7   93 146 
 RUS  HZ I         217  0.97        10.7 0.28                            93 146 
 BRI  SZ ES   1    217  8.68                             124     0.1 7  150  34 
 GRA  SZ EP   1    216 49.73                             121    -0.8 7  165  30 
 GRA  SZ ES   1    217 11.46                             121     0.1 7  165  30 
 GRA  SZ I         217 13.27         9.9 0.29                           165  30 
 NOR  SN ES   1    217 14.70                             117    -0.2 7  185 232 
                                                                                
