 2013  626 0755 39.7 L   7.330 -74.038  4.0  RSN  9 0.5 1.7LRSN                1
 GAP= 77        1.15       2.3     2.8  5.8 -0.3313E+00 -0.3369E+01  0.1316E+01E
 Epicentro: PUERTO WILCHES - SANTANDER                                         3
 ACTION:UPD 14-01-08 09:57 OP:ep   STATUS:               ID:20130626075539 L   I
 OLDACT:REG 13-06-26 07:48 OP:jn   STATUS:               ID:20130626074959     3
 2013-06-26-0749-59M.COL___267                                                 6
 STAT SP IPHASW D HRMM SECON CODA AMPLIT PERI AZIMU VELO AIN AR TRES W  DIS CAZ7
 BRR  HZ EP        755 46.72                              47   -0.1310 43.6 124 
 BRR  HE ES        755 52.51                              47    0.0410 43.6 124 
 BRR  HZ I         755 54.18        23.6 0.22            103           43.6 124 
 ZAR  HZ EP     C  755 54.42                              47    0.1810 92.3 281 
 ZAR  HZ I         756  6.42        49.0 0.28             95           92.3 281 
 GIR2 SZ EP        755 55.62                              47    0.4910 97.3 107 
 PTB  HZ EP     D  755 54.96                              47   -0.2910 98.9 208 
 PTB  HE ES   1    756  6.75                              47   -0.67 7 98.9 208 
 PTB  HZ I         756  7.16        11.3 0.24             95           98.9 208 
 OCA  HZ EP        756  0.26                              47    0.4710  128  38 
 OCA  HN ES        756 15.64                              47    0.1410  128  38 
 OCA  HZ I         756 19.14        19.0 0.46             94            128  38 
 PAM  SZ EP   4    756  3.92                              47    0.78 0  148  90 
 PAM  SE ES   1    756 19.90                              47   -1.56 7  148  90 
 PAM  SZ I         756 24.85        13.2 0.18             93            148  90 
 SML  HZ EP        756  4.83                              47   -0.06 9  163 359 
 SML  HE ES        756 24.14                              47   -0.43 9  163 359 
 RUS  HZ EP        756  9.92                              37    0.56 9  191 146 
 RUS  HN ES        756 32.77                              37    0.25 9  191 146 
 RUS  HZ I         756 33.50        15.2 0.30             56            191 146 
 HEL  HN ES   1    756 36.21                              37    0.24 6  208 233 
 HEL  HZ I         756 39.14         5.2 0.40             56            208 233 
                                                                                
