 2010 1126 0825 26.9 L   6.816 -73.095150.1  RSN  6 0.3 1.6LRSN                1
 GAP=164        0.59       3.9     8.9  7.3  0.5681E+01 -0.2275E+02  0.4233E+00E
 Epicentro: LOS SANTOS - SANTANDER                                             3
 ACTION:UP  10-12-17 16:55 OP:REBC STATUS:               ID:20101126082526 L   I
 2010-11-26-0823-34S.COL___131                                                 6
 STAT SP IPHASW D HRMM SECON CODA AMPLIT PERI AZIMU VELO SNR AR TRES W  DIS CAZ7
 BAR2 SZ EP   1    825 46.86                             170    -0.3 7   27 202 
 BAR2 SZ I         826  3.51        11.7 0.23                            27 202 
 BRR  HZ EP   1    825 48.75                             152     0.0 7   75 295 
 BRR  HE ES   1    826  5.76                             152     0.0 7   75 295 
 BRR  HZ I         826  8.12         7.7 0.26                            75 295 
 RUS  HZ EP   1    825 51.03                             144    -0.2 7  102 179 
 RUS  HN ES   1    826 10.22                             144     0.1 7  102 179 
 RUS  HZ I         826 10.80         5.1 0.28                           102 179 
 GRA  SZ EP   1    825 52.61                             139     0.3 7  122  15 
 GRA  SZ I         826 13.27         2.6 0.36                           122  15 
 CHI  HZ EP   1    826  5.03                             118    -0.2 6  252 196 
 CHI  HZ I         826  5.77         1.8 0.08                           252 196 
 CHI  HE ES   2    826 35.87                             118     0.8 4  252 196 
 PRA  HZ EP   2    826 20.99                             107    -0.1 3  396 210 
 PRA  HZ I         826 40.42         2.5 0.26                           396 210 
                                                                                
