 2010 1026 0351 13.3 L   6.766 -73.121139.3  RSN  5 0.3 1.4LRSN                1
 GAP=162        0.63       3.5     7.2  7.1 -0.7548E+00 -0.8545E+01 -0.7720E+00E
 Epicentro: LOS SANTOS - SANTANDER                                             3
 ACTION:UP  11-02-18 11:12 OP:tino STATUS:               ID:20101026035113 L   I
 2010-10-26-0349-10S.COL___125                                                 6
 STAT SP IPHASW D HRMM SECON CODA AMPLIT PERI AZIMU VELO SNR AR TRES W  DIS CAZ7
 BAR2 SZ ES   2    351 46.06                             171    -0.7 5   20 200 
 BAR2 SZ I         351 48.30        10.8 0.21                            20 200 
 BRR  HZ IP     C  351 34.03                             150     0.110   76 300 
 BRR  HE ES   1    351 50.14                             150     0.0 7   76 300 
 BRR  HZ I         351 55.04         7.8 0.36                            76 300 
 RUS  HZ EP   1    351 36.03                             144    -0.1 7   97 178 
 RUS  HN ES   1    351 54.15                             144     0.2 7   97 178 
 RUS  HZ I         351 55.82         3.1 0.34                            97 178 
 GRA  SZ EP   1    351 37.87                             135    -0.3 7  129  16 
 GRA  SZ ES   1    351 57.91                             135     0.3 7  129  16 
 GRA  SZ I         351 59.88         3.4 0.33                           129  16 
 CHI  HZ EP   2    351 50.32                             116     0.0 4  246 196 
 CHI  HZ I         352 29.77         1.4 0.32                           246 196 
                                                                                
