 2013  426 0056 21.2 L   6.843 -73.192125.2  RSN  4 0.4 1.5LRSN                1
 GAP=198        0.71       6.9     5.4  7.7  0.9103E+01  0.1045E+02 -0.9271E+01E
 Epicentro: ZAPATOCA - SANTANDER                                               3
 ACTION:UPD 13-05-22 14:40 OP:EP   STATUS:               ID:20130426005621 L   I
 2013-04-26-0048-48M.COL___211                                                 6
 STAT SP IPHASW D HRMM SECON CODA AMPLIT PERI AZIMU VELO AIN AR TRES W  DIS CAZ7
 BAR2 SZ EP   1    056 38.95                             167    0.52 7 27.7 178 
 BAR2 SZ ES        056 51.94                             167    0.0410 27.7 178 
 BAR2 SZ I         056 55.34         5.7 0.46            173           27.7 178 
 RUS  HZ EP   1    056 43.38                             137    0.02 7  106 173 
 RUS  HN ES   2    056 59.70                             137   -0.98 5  106 173 
 RUS  HZ I         057  1.96         2.5 0.46            145            106 173 
 PTB  HZ EP   1    056 46.16                             128    0.02 7  144 257 
 PTB  HN ES        057  5.61                             128   -0.01 9  144 257 
 PTB  HN I         057  9.16         6.3 0.34            131            144 257 
 SML  HN ES   2    057 22.52                             113   -0.64 4  237 336 
 SML  HN I         057 28.37         8.4 0.10            115            237 336 
                                                                                
