 2012 1126 0112  4.2 L   6.790 -73.182145.3  RSN  5 0.5 1.7LRSN                1
 GAP=133        1.23       5.4     6.8 12.0 -0.3941E+01  0.2822E+02 -0.1827E+02E
 Epicentro: LOS SANTOS - SANTANDER                                             3
 ACTION:UPD 12-12-05 15:36 OP:}ep  STATUS:               ID:20121126011204 L   I
 2012-11-26-0110-00M.COL___233                                                 6
 STAT SP IPHASW D HRMM SECON CODA AMPLIT PERI AZIMU VELO AIN AR TRES W  DIS CAZ7
 BAR2 SZ EP        112 23.60                             171   -0.1610 21.9 180 
 PAM  SZ EP        112 26.80                             150    0.2210 80.8  41 
 PAM  SN ES        112 43.67                             150   -0.3710 80.8  41 
 PAM  SN I         112 44.85         4.5 0.22                          80.8  41 
 RUS  HZ EP        112 28.35                             144    0.4910 99.8 174 
 RUS  HN ES        112 46.44                             144    0.1310 99.8 174 
 RUS  HN I         112 48.01         4.6 0.36                          99.8 174 
 PTB  HZ EP        112 30.62                             133   -0.15 9  144 259 
 PTB  HN ES        112 51.28                             133   -0.20 9  144 259 
 PTB  HN I         112 56.67         7.9 0.58                           144 259 
 SML  HZ EP        112 39.68                             117   -1.06 8  243 336 
 SML  HN ES        113 10.30                             117    1.06 8  243 336 
 SML  HN I         113 17.19         6.7 0.12                           243 336 
                                                                                
