 2016 1026 0917  1.4 L   6.811 -73.146142.4  RSN  7 0.4 1.3LRSN                1
 GAP=136        0.92       4.2     4.3  6.2 -0.5538E+01  0.5334E+01  0.3769E+01E
 Epicentro: LOS SANTOS - SANTANDER                                             3
 ACTION:UPD 16-11-09 19:23 OP:rebc STATUS:               ID:20161026091701 L   I
 OLDACT:UP  16-10-26 17:18 OP:cog  STATUS:               ID:20161026090741     3
 OLDACT:UP  16-10-26 17:15 OP:cog  STATUS:               ID:20161026090741     3
 OLDACT:REG 16-10-26 14:17 OP:cog  STATUS:               ID:20161026090741     3
 2016-10-26-0908-00M.COL___322                                                 6
 STAT SP IPHASW D HRMM SECON CODA AMPLIT PERI AZIMU VELO AIN AR TRES W  DIS CAZ7
 BAR2 EZ EP        917 20.56                             170   -0.1010 24.6 189 
 BAR2 EZ ES        917 35.63                             170   -0.0510 24.6 189 
 BAR2 EZ I         917 39.00         7.7 0.52            168           24.6 189 
 BRR  HZ EP        917 22.39                             152    0.2310 70.6 298 
 BRR  HN ES        917 38.81                             152    0.4610 70.6 298 
 PAM  EZ EP        917 23.54                             150    0.3310 76.4  40 
 PAM  EN ES        917 40.02                             150   -0.2010 76.4  40 
 RUS  HZ EP        917 24.96                             143    0.0310  102 176 
 RUS  HN ES        917 43.24                             143   -0.0310  102 176 
 RUS  HZ I         917 44.27         1.8 0.30            143            102 176 
 PTB  HZ EP        917 27.50                             131   -0.63 9  148 258 
 PTB  HN ES        917 48.34                             131   -0.62 9  148 258 
 PTB  HZ I         917 50.21         2.1 0.42            133            148 258 
 SPBC HZ EP        917 29.72                             128   -0.02 9  164 219 
 SPBC HN ES        917 51.86                             128    0.01 9  164 219 
 SPBC HZ I         917 55.70         2.4 0.11            129            164 219 
 GUY2CHE ES        918 19.74                             112    0.84 7  302 235 
                                                                                
