 2011 1226 0502 33.8 L   6.763 -73.161149.5  RSN  7 0.4 1.6LRSN                1
 GAP=136        0.82       5.4     4.8  7.1  0.1516E+01  0.6475E+01  0.3172E+01E
 Epicentro: LOS SANTOS - SANTANDER                                             3
 ACTION:UPD 12-07-13 16:18 OP:ep   STATUS:               ID:20111226050233 L   I
 2011-12-26-0500-00M.COL___187                                                 6
 STAT SP IPHASW D HRMM SECON CODA AMPLIT PERI AZIMU VELO AIN AR TRES W  DIS CAZ7
 BAR2 SZ EP   1    5 2 53.81                             172    0.06 7 19.0 187 
 BAR2 SZ I         5 2 54.09         9.2 0.20                          19.0 187 
 BAR2 SZ ES   1    5 3  8.80                             172   -0.55 7 19.0 187 
 GIR2 SZ EP   1    5 2 53.91                             166   -0.06 7 35.1 354 
 GIR2 SZ ES   1    5 3 10.05                             166    0.30 7 35.1 354 
 BRR  HZ EP   1    5 2 55.64                             153    0.30 7 71.8 302 
 BRR  HE ES   1    5 3 12.75                             153    0.58 7 71.8 302 
 BRR  HZ I         5 3 16.82         8.6 0.14                          71.8 302 
 PAM  SZ EP   1    5 2 56.64                             150    0.02 7 81.6  39 
 PAM  SE ES   1    5 3 13.93                             150   -0.52 7 81.6  39 
 PAM  SZ I         5 3 16.25         6.0 0.31                          81.6  39 
 RUS  HZ EP   1    5 2 57.83                             146    0.23 7 96.7 175 
 RUS  HE ES   1    5 3 16.63                             146    0.43 7 96.7 175 
 RUS  HZ I         5 3 18.21         3.2 0.41                          96.7 175 
 PTB  HZ EP   1    5 3  0.29                             133   -0.52 7  145 260 
 PTB  HN ES   1    5 3 21.26                             133   -0.65 7  145 260 
 ZAR  HN ES   1    5 3 32.26                             123    0.32 6  204 293 
 ZAR  HZ I         5 3 37.78         6.4 0.41                           204 293 
                                                                                
