 2012  926 0222 25.2 L   6.828 -73.142147.6  RSN 18 0.5 4.1LRSN 4.1WRSN        1
 SPEC AVERAGE  MO 15.3 ST 52.2 OM  3.9 f0 2.60 R0.6403 AL 2.71 WI  8.6 MW  4.1 3
 SPEC SD       MO  0.3 ST 42.7 OM  0.5 f0 1.03 R0.1967 AL      WI      MW  0.2 3
 GAP= 65        1.04       3.5     3.4  5.4 -0.2419E-01  0.4551E+01  0.6538E+01E
 Epicentro: LOS SANTOS - SANTANDER                                             3
 SPEC VIL SH N MO 15.7 ST 77.7 OM  3.8 f0 2.24 R0.6562 AL 3.53 WI 13.9 MW  4.4 3
 SPEC VIL SH N T 22342 K 0.000 GD  339 VS 4.20 DE 3.00 Q0230.0 QA 0.60 VS 4.20 3
 SPEC YOP SH N MO 15.3 ST 17.8 OM  3.6 f0 1.81 R0.8122 AL 2.61 WI 10.5 MW  4.2 3
 SPEC YOP SH N T 22319 K 0.000 GD  233 VS 4.20 DE 3.00 Q0230.0 QA 0.60 VS 4.20 3
 SPEC TAM HH N MO 15.3 ST 24.4 OM  3.6 f0 2.07 R0.7101 AL 3.32 WI  3.9 MW  4.1 3
 SPEC TAM HH N T 22315 K 0.000 GD  214 VS 4.20 DE 3.00 Q0230.0 QA 0.60 VS 4.20 3
 SPEC PRA HH N MO 15.8 ST 48.4 OM  3.8 f0 1.78 R0.8258 AL 2.51 WI  8.3 MW  4.5 3
 SPEC PRA HH N T 224 1 K 0.000 GD  421 VS 4.20 DE 3.00 Q0230.0 QA 0.60 VS 4.20 3
 SPEC ROSCBH Z MO 15.1 ST 14.8 OM  3.3 f0 1.98 R0.7424 AL 2.37 WI  9.0 MW  4.0 3
 SPEC ROSCBH Z T 22334 K 0.000 GD  295 VS 4.20 DE 3.00 Q0230.0 QA 0.60 VS 4.20 3
 SPEC PTB HH N MO 15.0 ST 38.7 OM  3.3 f0 3.06 R0.4804 AL 1.69 WI  6.9 MW  3.9 3
 SPEC PTB HH N T 22312 K 0.000 GD  209 VS 4.20 DE 3.00 Q0230.0 QA 0.60 VS 4.20 3
 SPEC PAM SH N MO 15.3 ST 10.5 OM  3.7 f0 1.58 R0.9304 AL 2.71 WI  7.6 MW  4.1 3
 SPEC PAM SH N T 223 4 K 0.000 GD  165 VS 4.20 DE 3.00 Q0230.0 QA 0.60 VS 4.20 3
 SPEC HEL HH N MO 14.8 ST 85.7 OM  2.9 f0 4.76 R0.3088 AL 3.69 WI  9.6 MW  3.8 3
 SPEC HEL HH N T 22336 K 0.000 GD  310 VS 4.20 DE 3.00 Q0230.0 QA 0.60 VS 4.20 3
 SPEC CHI HH N MO 15.3 ST 46.5 OM  3.5 f0 2.50 R0.5880 AL 2.09 WI 12.5 MW  4.2 3
 SPEC CHI HH N T 22331 K 0.000 GD  292 VS 4.20 DE 3.00 Q0230.0 QA 0.60 VS 4.20 3
 SPEC BRR HH N MO 15.2 ST157.7 OM  3.6 f0 4.22 R0.3483 AL 2.58 WI  3.4 MW  4.1 3
 SPEC BRR HH N T 223 3 K 0.000 GD  163 VS 4.20 DE 3.00 Q0230.0 QA 0.60 VS 4.20 3
 ACTION:UPD 12-10-22 14:20 OP:ep   STATUS:               ID:20120926022225 L   I
 2012-09-26-0220-00M.COL___217                                                 6
 STAT SP IPHASW D HRMM SECON CODA AMPLIT PERI AZIMU VELO AIN AR TRES W  DIS CAZ7
 BAR2 SZ IP     D  222 45.08                             170   -0.0310 26.4 190 
 BAR2 SZ ES   1    223  0.27                             170   -0.37 7 26.4 190 
 BAR2 SZ I         223  1.83      4636.5 0.12                          26.4 190 
 GIR2 SZ EP        222 45.09                             168    0.0810 28.3 348 
 GIR2 SZ ES   1    223  0.80                             168    0.34 7 28.3 348 
 BRR  HZ IP     C  222 46.93                             153    0.4510 70.2 296 
 BRR  HN ES   1    223  3.75                             153    0.66 7 70.2 296 
 BRR  HN I         223  4.45      6526.7 0.16                          70.2 296 
 BRR  HZ I         223  6.55      1821.2 0.19                          70.2 296 
 PAM  SZ IP        222 47.83                             152    0.3810 74.8  41 
 PAM  SN ES        223  4.67                             152   -0.1410 74.8  41 
 PAM  SN I         223  6.44      4486.4 0.38                          74.8  41 
 PAM  SZ I         223  7.62      1144.8 0.58                          74.8  41 
 RUS  HZ IP     C  222 49.00                             143   -0.3410  104 176 
 RUS  HN ES   1    223  7.42                             143   -0.76 7  104 176 
 RUS  HZ I         223  9.56       971.2 0.23                           104 176 
 PTB  HZ EP   1    222 51.93                             132   -0.47 7  149 258 
 PTB  HN ES   1    223 12.88                             132   -0.74 7  149 258 
 TAM  HZ IP     D  222 53.46                             131    0.41 9  156 106 
 TAM  HE ES   1    223 13.97                             131   -0.81 7  156 106 
 TAM  HZ I         223 25.00       839.6 0.46                           156 106 
 YOP  SZ IP        222 55.92                             126    0.30 9  181 154 
 YOP  SN ES   1    223 19.91                             126    0.56 7  181 154 
 YOP  SZ I         223 20.67      1305.1 0.36                           181 154 
 ZAR  HZ EP   1    222 57.38                             123   -0.30 6  203 291 
 ZAR  HN ES   1    223 23.19                             123    0.17 6  203 291 
 ZAR  HZ I         223 28.89      1384.8 0.48                           203 291 
 NOR  SZ EP   1    223  1.11                             119   -0.14 6  237 234 
 NOR  SN ES   1    223 29.12                             119   -0.26 6  237 234 
 CHI  HZ IP     C  223  3.06                             117   -0.26 8  252 195 
 CHI  HN ES   1    223 32.34                             117   -0.73 6  252 195 
 CHI  HZ I         223 39.92       980.2 0.48                           252 195 
 ROSC BZ IP     C  223  4.86                             117    1.14 8  256 211 
 ROSC BN ES   1    223 35.35                             117    1.58 6  256 211 
 HEL  HZ EP        223  5.18                             115   -0.45 8  273 255 
 HEL  HN ES   2    223 37.12                             115   -0.05 4  273 255 
 HEL  HZ I         223 44.83       541.4 0.51                           273 255 
 VIL  SZ EP        223  8.42                             112   -0.62 7  306 192 
 VIL  SN ES   1    223 42.95                             112   -0.29 5  306 192 
 VIL  SZ I         223 47.17      1114.9 0.50                           306 192 
 RREF HZ EP   1    223 11.99                             111    0.31 5  324 229 
 RREF HN ES   1    223 48.24                             111    0.31 5  324 229 
 DBB  SZ IP     D  223 12.67                             110   -0.10 7  340 274 
 DBB  SZ I         223 50.57       324.6 0.46                           340 274 
 COD  HZ EP   1    223 12.58                             109   -0.71 5  345 354 
 COD  HZ I         224  1.86       181.4 0.54                           345 354 
 PRA  HZ EP        223 18.50                             107   -0.61 6  395 209 
 PRA  HN ES   1    224  1.66                             107    0.49 4  395 209 
                                                                                
