 2011 1126 0623 24.8 L   6.822 -73.102155.7  RSN  7 0.5 1.5LRSN                1
 GAP=141        0.65       5.6     6.8 12.2 -0.8169E+01  0.1860E+02  0.1314E+02E
 Epicentro: LOS SANTOS - SANTANDER                                             3
 ACTION:UPD 12-07-13 16:12 OP:ep   STATUS:               ID:20111126062325 L   I
 2011-11-26-0622-33S.COL___160                                                 6
 STAT SP IPHASW D HRMM SECON CODA AMPLIT PERI AZIMU VELO AIN AR TRES W  DIS CAZ7
 BAR2 SZ EP   2    623 45.62                             170   -0.09 5 26.9 199 
 BAR2 SZ I         623 47.86         7.6 0.77                          26.9 199 
 PAM  SZ EP   2    623 48.35                             154    0.52 5 72.5  38 
 PAM  SN ES   2    624  5.73                             154   -0.05 5 72.5  38 
 BRR  HZ EP   2    623 47.63                             153    0.41 5 74.4 295 
 BRR  HN ES   2    624  5.24                             153    0.54 5 74.4 295 
 BRR  HZ I         624  9.37         5.9 0.22                          74.4 295 
 RUS  HZ EP   2    623 49.59                             145   -0.12 5  103 179 
 RUS  HN ES   2    624  8.99                             145   -0.13 5  103 179 
 RUS  HZ I         624 11.23         4.0 0.60                           103 179 
 OCA  SZ ES   2    624 15.40                             132   -0.94 5  159 351 
 OCA  SZ I         624 25.01         3.5 0.21                           159 351 
 NOR  SN ES   2    624 29.56                             120   -0.91 4  240 235 
 HEL  HN ES   2    624 38.86                             116    0.51 4  277 256 
 HEL  HZ I         624 43.71         1.8 0.27                           277 256 
                                                                                
