 2015  326 0307 10.9 L   6.839 -73.177142.8  RSN 20 0.5 2.4LRSN                1
 GAP=107        1.16       2.6     3.5  5.2 -0.8998E+00  0.5365E+01  0.5895E+00E
 Epicentro: ZAPATOCA - SANTANDER                                               3
 ACTION:UPD 15-04-30 16:29 OP:nd   STATUS:               ID:20150326030710 L   I
 OLDACT:DUP 15-03-26 13:50 OP:fm   STATUS:               ID:20150326025741d    3
 2015-03-26-0257-40M.COL___281                                                 6
 STAT SP IPHASW D HRMM SECON CODA AMPLIT PERI AZIMU VELO AIN AR TRES W  DIS CAZ7
 BAR2 EZ EP     C  3 7 30.52                             169    0.2410 27.3 181 
 BAR2 EZ ES        3 7 45.47                             169    0.0910 27.3 181 
 BAR2 EZ I         3 7 46.92        61.1 0.18            167           27.3 181 
 BRR  HZ IP     C  3 7 32.31                             154    0.8510 66.2 297 
 BRR  HN ES        3 7 48.10                             154    0.6110 66.2 297 
 BRR  HZ I         3 7 53.47        44.9 0.12            152           66.2 297 
 PAM  SZ EP        3 7 33.22                             150    0.4610 76.4  44 
 PAM  SE ES        3 7 49.65                             150   -0.1510 76.4  44 
 PAM  SZ I         3 7 52.05        32.8 0.16            151           76.4  44 
 RUS  HZ EP        3 7 34.65                             142   -0.0710  105 174 
 RUS  HN ES        3 7 53.07                             142   -0.2110  105 174 
 RUS  HZ I         3 7 54.65        27.9 0.20            140            105 174 
 PTB  HZ EP        3 7 37.16                             132   -0.26 9  145 257 
 PTB  HN ES        3 7 57.11                             132   -0.98 9  145 257 
 PTB  HZ I         3 8  0.79        47.0 0.26            129            145 257 
 OCA  HZ EP        3 7 38.30                             130   -0.26 9  156 354 
 OCA  HE ES        3 7 59.39                             130   -0.73 9  156 354 
 OCA  HZ I         3 8  4.94        87.1 0.16            129            156 354 
 SPBC HZ EP        3 7 39.38                             128    0.07 9  164 217 
 SPBC HN ES        3 8  0.57                             128   -0.89 9  164 217 
 SPBC HZ I         3 8  8.59        43.2 0.30            126            164 217 
 ZAR  HZ EP        3 7 43.59                             122    0.91 9  199 291 
 ZAR  HN ES        3 8  8.14                             122    0.70 9  199 291 
 ZAR  HZ I         3 8 15.52        33.2 0.38            120            199 291 
 NOR  HE ES        3 8 14.09                             118   -0.08 8  234 233 
 NOR  HZ I         3 8 20.42        19.8 0.16            116            234 233 
 SML  HZ EP        3 7 46.78                             117   -0.02 8  238 336 
 SML  HE ES        3 8 14.47                             117   -0.31 8  238 336 
 SML  HZ I         3 8 20.36        34.5 0.26            116            238 336 
 ROSC BZ EP   1    3 7 49.98                             116    0.89 6  255 210 
 ROSC BE ES        3 8 19.73                             116    0.86 8  255 210 
 ROSC BZ I         3 8 24.59        13.1 0.25            114            255 210 
 HEL  HZ EP   1    3 7 50.50                             114   -0.23 6  270 255 
 HEL  HE ES        3 8 21.57                             114   -0.22 8  270 255 
 HEL  HZ I         3 8 28.93        20.3 0.50            113            270 255 
 URE  HZ EP        3 7 50.44                             113   -0.87 7  279 291 
 URE  HE ES        3 8 22.90                             113    0.09 7  279 291 
 URE  HZ I         3 8 34.08        14.8 0.24            112            279 291 
 GUY2CHZ EP        3 7 54.34                             112   -0.02 7  301 234 
 GUY2CHN ES        3 8 28.27                             112    0.03 7  301 234 
 GUY2CHZ I         3 8 37.07        15.4 0.56                           301 234 
 VIL  SZ EP   1    3 7 54.48                             111   -0.13 5  307 191 
 VIL  SN ES        3 8 28.49                             111   -0.19 7  307 191 
 VIL  SZ I         3 8 32.93        14.4 0.54            109            307 191 
 PTGC HZ EP   1    3 7 54.64                             110   -0.60 5  314 158 
 PTGC HZ I         3 8 27.92        17.4 0.42            109            314 158 
 CBOC HZ EP        3 7 58.41                             109    0.92 7  332 251 
 CBOC HN ES        3 8 33.64                             109   -0.18 7  332 251 
 CBOC HZ I         3 8 44.13         4.8 0.52            108            332 251 
 MON  HZ EP   1    3 7 59.02                             108   -0.16 5  348 308 
 MON  HN ES        3 8 36.75                             108   -0.08 6  348 308 
 MON  HZ I         3 8 39.23         4.0 0.40            107            348 308 
 SDV  BZ EP   1    3 8  0.15                             108   -0.69 5  360  51 
 SDV  BE ES   4    3 8 36.42                             108   -3.36 0  360  51 
 SDV  BZ I         3 8 39.88         4.2 0.30            107            360  51 
 ORTC HZ EP        3 8  5.12                             106    0.21 6  397 215 
 ORTC HN ES        3 8 46.34                             106   -0.69 6  397 215 
 ORTC HZ I         3 8 55.08         7.9 0.70            104            397 215 
 SJC  HN ES   4    3 8 43.01                             105   -5.49 0  404 327 
 MACC HZ EP   4    3 8 16.17                             101   -3.84 0  524 188 
 MACC HN ES   4    3 9  8.27                             101   -5.63 0  524 188 
                                                                                
