 2013 1226 0349 20.5 L   6.823 -73.171141.6  RSN 12 0.4 2.2LRSN                1
 GAP=132        0.92       2.5     3.8  4.9 -0.1017E+01  0.4614E+01  0.3178E+00E
 Epicentro: LOS SANTOS - SANTANDER                                             3
 ACTION:UPD 14-01-13 10:21 OP:ep   STATUS:               ID:20131226034920 L   I
 OLDACT:UP  13-12-26 13:44 OP:mh   STATUS:               ID:20131226034841     3
 OLDACT:UP  13-12-26 13:43 OP:mh   STATUS:               ID:20131226034841     3
 OLDACT:UP  13-12-26 13:43 OP:mh   STATUS:               ID:20131226034841     3
 OLDACT:UP  13-12-26 13:34 OP:mh   STATUS:               ID:20131226034841     3
 OLDACT:UP  13-12-26 13:33 OP:mh   STATUS:               ID:20131226034841     3
 OLDACT:REG 13-12-26 13:22 OP:mh   STATUS:               ID:20131226034841     3
 2013-12-26-0348-41M.COL___235                                                 6
 STAT SP IPHASW D HRMM SECON CODA AMPLIT PERI AZIMU VELO AIN AR TRES W  DIS CAZ7
 BAR2 SZ EP        349 39.77                             169    0.1010 25.6 183 
 BAR2 SZ ES        349 54.25                             169   -0.3810 25.6 183 
 BAR2 SZ I         349 57.21        36.3 0.28            169           25.6 183 
 BRR  HZ EP     C  349 41.57                             153    0.5810 67.5 298 
 BRR  HN ES        349 57.68                             153    0.7110 67.5 298 
 PAM  SZ EP        349 42.54                             150    0.2810 77.3  42 
 PAM  SN ES        349 59.56                             150    0.3110 77.3  42 
 PAM  SZ I         350  0.79        13.5 0.21            153           77.3  42 
 RUS  HZ EP        349 44.06                             142    0.0210  103 175 
 RUS  HN ES        350  1.96                             142   -0.4510  103 175 
 RUS  HZ I         350  4.12        17.2 0.31            144            103 175 
 PTB  HZ EP        349 46.45                             131   -0.47 9  146 258 
 PTB  HN ES        350  7.11                             131   -0.42 9  146 258 
 PTB  HZ I         350 10.10        27.3 0.16            132            146 258 
 OCA  HZ EP   1    349 48.27                             129    0.06 7  157 354 
 OCA  HN ES   1    350  8.99                             129   -0.85 7  157 354 
 OCA  HZ I         350 12.83        24.4 0.26            131            157 354 
 SPBC HZ EP        349 48.70                             128   -0.00 9  163 218 
 SPBC HN ES        350 10.54                             128   -0.16 9  163 218 
 SPBC HZ I         350 14.89        14.7 0.21            129            163 218 
 ZAR  HZ EP   1    349 52.42                             122    0.12 6  200 292 
 ZAR  HN ES   1    350 17.63                             122    0.52 6  200 292 
 ZAR  HZ I         350 23.45        31.1 0.28            123            200 292 
 NOR  HZ EP        349 56.29                             118    0.39 8  234 234 
 NOR  HN ES   1    350 23.84                             118    0.32 6  234 234 
 NOR  HZ I         350 25.97        10.8 0.15            118            234 234 
 SML  HZ EP        349 56.20                             117   -0.31 8  240 336 
 SML  HN ES        350 24.13                             117   -0.47 8  240 336 
 SML  HZ I         350 26.64        30.1 0.10            118            240 336 
 CHI  HZ EP        349 58.24                             116    0.08 8  250 194 
 CHI  HN ES        350 27.54                             116    0.01 8  250 194 
 CHI  HZ I         350 35.00         8.4 0.42            117            250 194 
 ROSC BZ EP   4    350  0.11                             116    1.64 0  254 210 
 ROSC BN ES   4    350 29.17                             116    1.07 0  254 210 
 GUY2CHZ EP   1    350  3.57                             112   -0.25 5  300 234 
 GUY2CHN ES   4    350 41.19                             112    3.58 0  300 234 
                                                                                
