 2014  626 0941 20.9 L   6.851 -73.103142.1  RSN  6 0.5 1.6LRSN                1
 GAP=206        1.05       5.0     7.7 14.1 -0.4127E+01 -0.1829E+02 -0.9915E+01E
 Epicentro: LOS SANTOS - SANTANDER                                             3
 ACTION:UPD 14-07-01 22:57 OP:nd   STATUS:               ID:20140626094120 L   I
 OLDACT:REG 14-06-26 13:04 OP:spq  STATUS:               ID:20140626093813     3
 2014-06-26-0938-13M.COL___250                                                 6
 STAT SP IPHASW D HRMM SECON CODA AMPLIT PERI AZIMU VELO AIN AR TRES W  DIS CAZ7
 BAR2 SZ EP        941 40.83                             168    0.5410 29.9 197 
 BAR2 SZ I         942  0.00         3.6 0.26            168           29.9 197 
 PTB  HZ EP        941 47.50                             130   -0.65 9  154 257 
 PTB  HN ES        942  8.92                             130   -0.45 9  154 257 
 PTB  HZ I         942 16.03         4.9 0.40            150            154 257 
 OCA  HE ES   1    942  9.61                             130   -0.39 7  155 351 
 OCA  HZ I         942 20.62         3.2 0.28            140            155 351 
 SPBC HZ EP   1    941 49.62                             127   -0.26 7  171 219 
 SPBC HE ES   1    942 12.52                             127    0.08 7  171 219 
 ZAR  HZ EP        941 53.61                             121    0.21 8  206 290 
 ZAR  HN ES        942 19.48                             121    0.77 8  206 290 
 ZAR  HZ I         942 24.85         5.7 0.44            138            206 290 
 SML  HZ EP        941 57.29                             117    0.26 8  241 334 
 SML  HN ES   1    942 24.64                             117   -0.54 6  241 334 
 SML  HZ I         942 33.08         3.7 0.34            129            241 334 
                                                                                
