 2011 1126 0829 55.4 L   6.766 -73.091143.9  RSN  4 0.3 1.3LRSN                1
 GAP=145        0.43       4.5     6.7  7.0 -0.7012E+00 -0.3268E+01  0.1028E+01E
 Epicentro: LOS SANTOS - SANTANDER                                             3
 ACTION:UPD 12-07-13 16:12 OP:ep   STATUS:               ID:20111126082955 L   I
 2011-11-26-0827-41S.COL___160                                                 6
 STAT SP IPHASW D HRMM SECON CODA AMPLIT PERI AZIMU VELO AIN AR TRES W  DIS CAZ7
 BAR2 SZ EP   2    830 14.25                             171   -0.50 5 21.7 208 
 BAR2 SZ I         830 22.63         9.1 0.77                          21.7 208 
 BAR2 SZ ES   2    830 29.78                             171   -0.08 5 21.7 208 
 PAM  SZ EP   2    830 17.47                             151    0.12 5 76.7  34 
 PAM  SN ES   2    830 34.52                             151    0.03 5 76.7  34 
 BRR  HZ EP   2    830 16.54                             150   -0.20 5 78.3 299 
 BRR  HN ES   2    830 33.64                             150    0.23 5 78.3 299 
 BRR  HZ I         830 37.11         4.7 0.52                          78.3 299 
 RUS  HZ EP   2    830 19.10                             145    0.44 5 96.6 179 
 RUS  HN ES   2    830 36.77                             145   -0.05 5 96.6 179 
 RUS  HZ I         830 38.86         1.7 0.48                          96.6 179 
                                                                                
