 2016  826 0232 58.7 L   6.791 -73.143150.1  RSN  6 0.4 1.5LRSN                1
 GAP=237        0.85       4.5     6.6  6.7  0.1310E+02  0.9660E+01  0.8019E+01E
 Epicentro: LOS SANTOS - SANTANDER                                             3
 ACTION:UPD 16-10-29 15:39 OP:rebc STATUS:               ID:20160826023258 L   I
 OLDACT:REG 16-08-26 12:45 OP:ak   STATUS:               ID:20160826022732     3
 2016-08-26-0228-00M.COL___374                                                 6
 STAT SP IPHASW D HRMM SECON CODA AMPLIT PERI AZIMU VELO AIN AR TRES W  DIS CAZ7
 BRR  HZ EP        233 20.57                             153    0.2110 71.9 299 
 BRR  HN ES        233 37.50                             153    0.2610 71.9 299 
 BRR  HZ I         233 40.08         3.3 0.25                          71.9 299 
 RUS  HZ EP        233 23.01                             145    0.2010 99.6 176 
 RUS  HN ES        233 41.19                             145   -0.4210 99.6 176 
 RUS  HZ I         233 42.44         2.5 0.48                          99.6 176 
 SPBC HZ EP        233 27.71                             130    0.23 9  163 219 
 SPBC HE ES        233 49.68                             130   -0.25 9  163 219 
 SPBC HZ I         233 55.82         3.5 0.07                           163 219 
 ZAR  HZ EP   2    233 29.87                             123   -1.62 4  205 292 
 ZAR  HN ES        233 57.02                             123   -0.05 9  205 292 
 ZAR  HZ I         234  1.86         5.0 0.10                           205 292 
 GUY2CHZ EP        233 42.16                             113   -0.32 7  301 235 
 GUY2CHN ES   4    234 19.13                             113    2.51 0  301 235 
 GUY2CHZ I         234 24.89         1.8 0.34                           301 235 
 PRA  HZ EP        233 52.73                             107    0.44 6  391 210 
 PRA  HE ES        234 34.42                             107    0.33 6  391 210 
 PRA  HZ I         234 41.04         1.7 0.28                           391 210 
                                                                                
