 2012  626 0631 21.3 L   6.814 -73.110140.6  RSN  8 0.4 1.9LRSN                1
 GAP=140        0.92       4.2     5.2  8.1 -0.4584E+01  0.1098E+02 -0.2117E+01E
 Epicentro: LOS SANTOS - SANTANDER                                             3
 ACTION:UPD 12-08-06 17:52 OP:ep   STATUS:               ID:20120626063121 L   I
 2012-06-26-0630-00M.COL___201                                                 6
 STAT SP IPHASW D HRMM SECON CODA AMPLIT PERI AZIMU VELO AIN AR TRES W  DIS CAZ7
 BAR2 SZ EP   1    631 40.44                             169    0.08 7 25.8 198 
 BAR2 SZ I         631 40.81        20.5 0.12                          25.8 198 
 BAR2 SZ ES   1    631 54.62                             169   -0.61 7 25.8 198 
 PAM  SZ EP        631 43.39                             151    0.6510 73.7  38 
 PAM  SZ I         631 43.79        10.4 0.16                          73.7  38 
 PAM  SN ES   1    631 59.56                             151    0.09 7 73.7  38 
 BRR  HZ EP   1    631 42.26                             151    0.20 7 74.0 296 
 BRR  HN ES   1    631 58.66                             151    0.41 7 74.0 296 
 BRR  HZ I         632  3.37        23.8 0.14                          74.0 296 
 RUS  HZ EP   1    631 44.49                             142   -0.15 7  102 178 
 RUS  HN ES   1    632  2.94                             142    0.09 7  102 178 
 RUS  HZ I         632  4.72         8.5 0.33                           102 178 
 PTB  HZ EP   1    631 47.34                             130   -0.90 7  152 259 
 PTB  HZ I         632 11.53         8.7 0.13                           152 259 
 OCA  HZ EP   1    631 48.71                             129   -0.41 7  159 352 
 OCA  HN ES   1    632 10.20                             129   -0.62 7  159 352 
 ZAR  HN ES   1    632 19.42                             121    0.38 6  207 291 
 NOR  SN ES        632 25.26                             117    0.09 8  239 235 
                                                                                
