 2017  526 0237 34.5 L   6.799 -73.159144.0  RSN 11 0.6 1.9LRSN                1
 GAP=212        1.42       6.5     6.1  9.0  0.2069E+02  0.3796E+01  0.3762E+01E
 Epicentro: LOS SANTOS - SANTANDER                                             3
 ACTION:UPD 17-06-16 13:38 OP:jn   STATUS:               ID:20170526023734 L   I
 OLDACT:UP  17-05-26 15:54 OP:ar   STATUS:               ID:20170526022740d    3
 OLDACT:UP  17-05-26 15:52 OP:ar   STATUS:               ID:20170526022740d    3
 OLDACT:DUP 17-05-26 15:49 OP:ar   STATUS:               ID:20170526022740d    3
 OLDACT:REG 17-05-26 12:42 OP:ar   STATUS:               ID:20170526022739     3
 2017-05-26-0228-00M.COL___344                                                 6
 STAT SP IPHASW D HRMM SECON CODA AMPLIT PERI AZIMU VELO AIN AR TRES W  DIS CAZ7
 BRR  HZ EP   3 C  237 55.03                             153   -0.32 2 70.0 299 
 BRR  HE ES        238 12.47                             153    0.8310 70.0 299 
 BRR  HZ I         238 13.11        13.1 0.26            151           70.0 299 
 RUS  HZ EP        237 57.49                             144   -0.5510  101 175 
 RUS  HE ES        238 16.22                             144   -0.2110  101 175 
 RUS  HZ I         238 16.78         8.7 0.24            143            101 175 
 PTB  HZ EP   1    237 59.90                             132   -1.26 7  146 259 
 PTB  HN ES        238 20.96                             132   -1.02 9  146 259 
 PTB  HZ I         238 28.05         9.6 0.26            131            146 259 
 SPBC HZ EP        238  2.71                             129   -0.03 9  162 219 
 SPBC HN ES        238 24.70                             129   -0.08 9  162 219 
 SPBC HZ I         238 29.29        15.6 0.16            128            162 219 
 YPLC HZ EP        238  3.78                             126   -0.41 9  177 151 
 YPLC HE ES        238 28.16                             126    0.78 9  177 151 
 YPLC HZ I         238 31.12         3.9 0.36            128            177 151 
 ZAR  HZ EP        238  7.33                             122    0.67 9  203 292 
 ZAR  HN ES        238 31.17                             122   -0.60 9  203 292 
 ZAR  HZ I         238 37.52        10.4 0.32            123            203 292 
 NOR  HZ EP        238  9.44                             118   -0.52 8  233 234 
 NOR  HN ES        238 38.22                             118    0.58 8  233 234 
 NOR  HZ I         238 42.25         5.7 0.18            118            233 234 
 CHI  HZ EP        238 12.43                             117    0.41 8  248 195 
 CHI  HN ES        238 41.23                             117   -0.07 8  248 195 
 CHI  HZ I         238 43.18         7.0 0.38            117            248 195 
 ROSC BE ES   4    238 44.09                             116    2.10 0  252 211 
 ROSC BZ I         238 47.82        15.0 0.35            117            252 211 
 HEL  HZ EP        238 15.25                             115    0.82 8  271 256 
 HEL  HN ES        238 46.36                             115    0.76 8  271 256 
 HEL  HZ I         238 51.80         4.1 0.34            115            271 256 
 CBOC HZ EP        238 21.30                             110    0.15 7  332 252 
 CBOC HE ES   4    238 55.82                             110   -1.74 0  332 252 
 CBOC HZ I         238 58.12         1.1 0.22            110            332 252 
                                                                                
