 2010 1226 0703  9.5 L   6.834 -73.154140.1  RSN 11 0.4 2.3LRSN                1
 GAP=157        0.86       3.4     6.9  8.1 -0.1016E+02  0.2183E+02  0.6124E-01E
 Epicentro: LOS SANTOS - SANTANDER                                             3
 ACTION:UP  11-01-14 15:27 OP:pat  STATUS:               ID:20101226070309 L   I
 2010-12-26-0659-03S.COL___133                                                 6
 STAT SP IPHASW D HRMM SECON CODA AMPLIT PERI AZIMU VELO SNR AR TRES W  DIS CAZ7
 BAR2 SZ IP        7 3 28.61                             168     0.110   27 187 
 BAR2 SZ ES   2    7 3 43.73                             168     0.4 5   27 187 
 BAR2 SZ I         7 3 46.17        32.0 0.34                            27 187 
 RUS  HZ EP        7 3 32.68                             141    -0.310  104 176 
 RUS  HE ES   1    7 3 51.11                             141    -0.2 7  104 176 
 RUS  HZ I         7 3 53.17        17.8 0.36                           104 176 
 GRA  SZ IP        7 3 34.18                             136     0.210  122  18 
 GRA  SZ ES   1    7 3 53.50                             136     0.5 7  122  18 
 GRA  SZ I         7 3 56.59        16.3 0.38                           122  18 
 OCA  SZ EP        7 3 36.81                             129    -0.2 9  156 353 
 OCA  SZ ES   1    7 3 57.75                             129    -0.7 7  156 353 
 OCA  SZ I         7 4  4.16        23.3 0.32                           156 353 
 NOR  SZ EP   1    7 3 44.76                             117    -0.3 6  236 234 
 NOR  SE ES   1    7 4 12.94                             117     0.1 6  236 234 
 CHI  HZ EP   1    7 3 47.18                             115    -0.1 6  252 195 
 CHI  HZ I         7 3 49.59         9.6 0.39                           252 195 
 CHI  HN ES   2    7 4 16.40                             115    -0.3 4  252 195 
 ROSC BZ EP   1    7 3 48.69                             115     1.1 6  256 210 
 ROSC BZ I         7 3 50.48        16.7 0.20                           256 210 
 HEL  HZ EP   2    7 3 50.13                             113     0.7 4  272 255 
 HEL  HN ES   2    7 4 20.15                             113    -0.4 4  272 255 
 HEL  HZ I         7 4 28.00         9.7 0.20                           272 255 
 RREF HZ EP   2    7 3 56.39                             110     0.8 3  324 229 
 RREF HE ES   2    7 4 32.08                             110     0.5 3  324 229 
 RREF HZ I         7 4 41.88         9.8 0.57                           324 229 
 PRA  HZ EP   1    7 4  2.79                             105    -0.4 4  395 209 
 PRA  HZ I         7 4  6.32        24.5 0.21                           395 209 
 PRA  HE ES   1    7 4 44.77                             105    -0.2 4  395 209 
 SJA  SZ EP   2    7 4  3.68                             105    -0.6 3  404 193 
 SJA  SZ I         7 4  4.84         9.1 0.38                           404 193 
                                                                                
