 2016 1026 0957 13.4 L   6.765 -73.117147.7  RSN  9 0.3 1.4LRSN                1
 GAP=123        0.80       3.6     5.3  5.0 -0.1329E+01 -0.3727E+01  0.5180E+01E
 Epicentro: LOS SANTOS - SANTANDER                                             3
 ACTION:UPD 16-11-09 19:23 OP:rebc STATUS:               ID:20161026095713 L   I
 OLDACT:UP  16-10-26 16:39 OP:cog  STATUS:               ID:20161026094751d    3
 OLDACT:DUP 16-10-26 16:35 OP:cog  STATUS:               ID:20161026094751d    3
 OLDACT:UP  16-10-26 16:34 OP:cog  STATUS:               ID:20161026094750     3
 OLDACT:REG 16-10-26 14:57 OP:cog  STATUS:               ID:20161026094750     3
 2016-10-26-0948-00M.COL___322                                                 6
 STAT SP IPHASW D HRMM SECON CODA AMPLIT PERI AZIMU VELO AIN AR TRES W  DIS CAZ7
 BAR2 EZ EP        957 32.98                             172   -0.2410 20.4 201 
 BAR2 EZ ES        957 48.70                             172    0.0310 20.4 201 
 BAR2 EZ I         957 49.81         7.0 0.58            170           20.4 201 
 BRR  HZ EP        957 34.83                             152   -0.2110 75.9 300 
 BRR  HN ES        957 52.10                             152    0.2010 75.9 300 
 PAM  EZ EP   2    957 36.01                             150    0.10 5 78.5  36 
 PAM  EN ES   2    957 53.12                             150   -0.32 5 78.5  36 
 PAM  EZ I         957 55.11         3.4 0.54            153           78.5  36 
 RUS  HZ EP        957 37.12                             145    0.0510 96.5 178 
 RUS  HN ES        957 55.92                             145    0.4010 96.5 178 
 RUS  HZ I         957 56.67         2.3 0.26            145           96.5 178 
 PTB  HZ EP   9    957 39.86                             132   -0.90 0  150 261 
 PTB  HN ES        958  0.34                             131   -0.84 9  150 261 
 PTB  HZ I         958  6.44         2.4 0.40            131            150 261 
 SPBC HZ EP        957 41.83                             130   -0.14 9  162 221 
 SPBC HN ES        958  4.16                             130   -0.08 9  162 221 
 SPBC HZ I         958  6.33         4.8 0.28            129            162 221 
 NOR  HN ES   4    958 16.73                             119   -0.55 0  235 236 
 CHI  HZ EP        957 51.15                             118    0.24 8  246 196 
 CHI  HN ES        958 19.99                             118   -0.16 8  246 196 
 CHI  HZ I         958 25.50         1.8 0.40            118            246 196 
 GUY2CHZ EP   2    957 58.30                             113    1.14 4  302 236 
 GUY2CHN ES   4    958 33.71                             113    2.44 0  302 236 
 GUY2CHZ I         958 39.34         0.9 0.42                           302 236 
 PTGC HZ EP   2    957 55.93                             112   -0.89 4  304 159 
 PTGC HN ES   2    958 30.14                             112   -0.53 4  304 159 
 URI  HZ EP   4    959 30.07                             101   63.23 0  560  13 
 URI  HE ES   4   10 0 40.42                             101   76.32 0  560  13 
                                                                                
