 2012  726 0344 11.5 L   6.603 -73.174140.0  RSN  4 0.5 1.2LRSN                1
 GAP=266        0.99      15.1    10.8 11.6  0.1064E+02  0.1833E+02  0.6453E+01E
 Epicentro: SAN GIL - SANTANDER                                                3
 ACTION:UPD 12-08-14 11:45 OP:ep   STATUS:               ID:20120726034411 L   I
 2012-07-26-0340-00M.COL___215                                                 6
 STAT SP IPHASW D HRMM SECON CODA AMPLIT PERI AZIMU VELO AIN AR TRES W  DIS CAZ7
 BAR2 SZ ES   2    344 43.92                             179    -0.9 5    1 219 
 BRR  HZ EP        344 32.75                             148     0.010   82 313 
 BRR  HN ES   1    344 49.88                             148     0.7 7   82 313 
 BRR  HZ I         344 52.67         4.8 0.08            148             82 313 
 PTB  HZ EP   1    344 37.88                             132     0.4 7  142 267 
 PTB  HN ES   1    344 57.88                             132     0.1 7  142 267 
 PTB  HZ I         345  5.57         1.6 0.37            131            142 267 
 ZAR  HZ EP   1    344 43.83                             120    -0.5 6  210 298 
 ZAR  HE ES   1    345  9.22                             120    -0.6 6  210 298 
