 2010 1026 0313 11.9 L   6.745 -73.084147.1  RSN  6 0.4 1.5LRSN                1
 GAP=166        0.78       6.0     9.7  8.4  0.5372E+01 -0.3662E+01  0.3199E+01E
 Epicentro: JORDAN - SANTANDER                                                 3
 ACTION:UP  11-02-18 11:12 OP:tino STATUS:               ID:20101026031311 L   I
 2010-10-26-0308-17S.COL___125                                                 6
 STAT SP IPHASW D HRMM SECON CODA AMPLIT PERI AZIMU VELO SNR AR TRES W  DIS CAZ7
 BAR2 SZ EP   1    313 31.51                             172    -0.1 7   20 213 
 BAR2 SZ ES   1    313 47.39                             172     0.3 7   20 213 
 BAR2 SZ I         313 48.04        10.9 0.21                            20 213 
 BRR  HZ IP     C  313 33.40                             150    -0.310   80 300 
 BRR  HZ I         313 33.61        15.5 0.14                            80 300 
 BRR  HN ES   1    313 50.77                             150     0.0 7   80 300 
 RUS  HZ EP   2    313 34.89                             146    -0.5 5   94 180 
 RUS  HE ES   2    313 53.63                             146     0.0 5   94 180 
 RUS  HZ I         313 55.39         4.2 0.39                            94 180 
 GRA  SZ EP   2    313 38.48                             137     0.9 5  130  14 
 GRA  SZ I         313 57.83         2.2 0.59                           130  14 
 NOR  SN ES   2    314 16.82                             119     0.7 4  237 237 
 CHI  HZ EP   2    313 49.68                             118     0.4 4  245 197 
 CHI  HZ I         314 10.45         1.0 0.65                           245 197 
 CHI  HE ES   2    314 18.18                             118    -0.2 4  245 197 
                                                                                
