 2014  426 0300 31.8 L   6.812 -73.109150.3  RSN  8 0.4 1.8LRSN                1
 GAP=242        0.72       4.0     4.7  6.3  0.5051E+01  0.4610E+01  0.2620E+01E
 Epicentro: LOS SANTOS - SANTANDER                                             3
 OLDACT:REG 14-04-26 13:37 OP:spq  STATUS:               ID:20140426025812     3
 ACTION:UPD 14-05-13 23:11 OP:nd   STATUS:               ID:20140426030031 L   I
 OLDACT:UP  14-04-26 16:08 OP:fm   STATUS:               ID:20140426025812     3
 2014-04-26-0258-12M.COL___245                                                 6
 STAT SP IPHASW D HRMM SECON CODA AMPLIT PERI AZIMU VELO AIN AR TRES W  DIS CAZ7
 BRR  HZ EP        3 0 53.87                             152    0.2910 74.2 296 
 BRR  HN ES        3 1 10.99                             152    0.4110 74.2 296 
 BRR  HZ I         3 1 26.70         7.9 0.50            153           74.2 296 
 RUS  HZ EP        3 0 55.97                             145   -0.0810  102 178 
 RUS  HN ES        3 1 14.86                             145   -0.1310  102 178 
 RUS  HZ I         3 1 15.57         7.7 0.90            156            102 178 
 PTB  HE ES   1    3 1 20.41                             132   -0.70 7  152 259 
 SPBC HZ EP   1    3 1  0.86                             130   -0.10 7  167 220 
 SPBC HE ES   1    3 1 23.33                             130   -0.40 7  167 220 
 SPBC HZ I         3 1 29.38         8.0 1.20            138            167 220 
 ZAR  HZ EP   1    3 1  4.47                             123   -0.38 6  207 291 
 ZAR  HN ES   1    3 1 30.29                             123   -0.36 6  207 291 
 ZAR  HZ I         3 1 35.72         5.2 0.42            128            207 291 
 NOR  HN ES   1    3 1 36.85                             119    0.23 6  239 235 
 HEL  HN ES   4    3 1 46.38                             115    1.78 0  276 256 
 GUY2CHZ EP   1    3 1 16.48                             113    0.43 5  305 235 
 GUY2CHN ES   1    3 1 51.15                             113    0.56 5  305 235 
 GUY2CHZ I         3 1 58.13         3.5 0.42                           305 235 
 RREF HN ES   2    3 1 55.30                             111    0.24 3  326 230 
 PRA  HZ EP   4    3 1 23.56                             107   -2.27 0  395 210 
 PRA  HN ES   4    3 2  6.23                             107   -1.76 0  395 210 
                                                                                
