 2011 1026 0620 34.5 L   6.802 -73.157139.3  RSN 11 0.2 2.0LRSN                1
 GAP=135        0.35       2.1     2.5  3.8 -0.7963E+00  0.3258E+01  0.9063E+00E
 Epicentro: LOS SANTOS - SANTANDER                                             3
 ACTION:UPD 12-07-13 16:06 OP:ep   STATUS:               ID:20111026062034 L   I
 2011-10-26-0617-39S.COL___175                                                 6
 STAT SP IPHASW D HRMM SECON CODA AMPLIT PERI AZIMU VELO AIN AR TRES W  DIS CAZ7
 BTL  SZ EP   2    620 53.47                             172    0.26 5 17.8 317 
 BAR2 SZ EP   1    620 53.29                             170   -0.02 7 23.3 187 
 BAR2 SZ ES   2    621  8.05                             170    0.03 5 23.3 187 
 BAR2 SZ I         621  9.18        30.6 0.45                          23.3 187 
 BRR  HZ IP     C  620 54.97                             152    0.1310 70.0 299 
 BRR  HZ I         620 55.25        36.5 0.14                          70.0 299 
 BRR  HN ES   2    621 11.03                             152    0.29 5 70.0 299 
 PAM  SZ EP   1    620 56.00                             150   -0.03 7 78.1  40 
 PAM  SN ES   2    621 12.92                             150    0.06 5 78.1  40 
 RUS  HZ EP   1    620 57.45                             142   -0.15 7  101 175 
 RUS  HN ES   2    621 15.56                             142   -0.09 5  101 175 
 RUS  HZ I         621 17.79         8.3 0.56                           101 175 
 OCA  SZ EP   2    621  1.86                             128   -0.38 5  160 354 
 OCA  SZ ES   2    621 23.42                             128   -0.49 5  160 354 
 OCA  SZ I         621 27.40        14.1 0.05                           160 354 
 ZAR  HZ EP   2    621  6.88                             121    0.52 4  203 292 
 ZAR  HN ES   2    621 31.05                             121   -0.19 4  203 292 
 ZAR  HZ I         621 33.00        11.8 0.11                           203 292 
 NOR  SN ES   2    621 37.02                             117   -0.20 4  234 234 
 HEL  HZ EP   2    621 14.17                             114   -0.04 4  271 256 
 HEL  HN ES   2    621 44.93                             114   -0.29 4  271 256 
 HEL  HZ I         621 51.62         4.6 0.38                           271 256 
 RREF HZ EP   2    621 20.63                             110    0.40 3  321 229 
 RREF HN ES   2    621 56.07                             110    0.14 3  321 229 
 RREF HZ I         622  6.70         4.1 0.39                           321 229 
 PRA  HZ EP   2    621 27.75                             105    0.05 3  392 209 
 PRA  HN ES   2    622  8.96                             105   -0.28 3  392 209 
                                                                                
