 2011  926 0637 23.6 L   7.384 -73.505105.4  RSN  8 0.3 2.2LRSN                1
 GAP=146        0.62       2.1     3.1  4.9 -0.4766E+00  0.3600E+01 -0.5366E+00E
 Epicentro: SABANA DE TORRES - SANTANDER                                       3
 ACTION:UPD 12-07-13 15:59 OP:ep   STATUS:               ID:20110926063723 L   I
 2011-09-26-0634-50S.COL___165                                                 6
 STAT SP IPHASW D HRMM SECON CODA AMPLIT PERI AZIMU VELO AIN AR TRES W  DIS CAZ7
 BRR  HZ EP   1    637 38.62                             158    0.03 7 38.2 217 
 BRR  HN ES   1    637 50.15                             158   -0.13 7 38.2 217 
 BRR  HZ I         637 51.14        50.9 0.15                          38.2 217 
 BAR2 SZ EP   1    637 43.22                             135    0.46 7 94.5 158 
 BAR2 SZ ES   1    637 57.70                             135   -0.02 7 94.5 158 
 BAR2 SZ I         637 59.66        60.7 0.16                          94.5 158 
 OCA  SZ EP   1    637 43.07                             134    0.23 7 96.7  12 
 OCA  SZ ES   1    637 57.97                             134    0.12 7 96.7  12 
 OCA  SZ I         637 59.10        46.1 0.13                          96.7  12 
 ZAR  HZ EP   1    637 47.69                             120   -0.14 7  150 275 
 ZAR  HN ES   1    638  6.81                             120    0.08 7  150 275 
 ZAR  HZ I         638  9.51        23.0 0.14                           150 275 
 RUS  HZ EP   1    637 50.84                             117    0.07 7  171 164 
 RUS  HN ES   1    638 11.49                             117   -0.47 7  171 164 
 RUS  HZ I         638 14.94         7.6 0.18                           171 164 
 NOR  SZ EP   1    638  0.03                             107    0.72 6  252 217 
 NOR  SN ES   1    638 26.54                             107   -0.63 6  252 217 
 HEL  HZ EP   1    638  0.48                             106   -0.18 6  260 240 
 HEL  HN ES   1    638 29.85                             106    0.29 6  260 240 
 HEL  HZ I         638 35.87         6.0 0.41                           260 240 
 COD  HZ EP   1    638  2.68                             104   -0.16 6  282   1 
 COD  HN ES   1    638 32.79                             104   -0.65 6  282   1 
 COD  HZ I         638 41.60        19.5 0.51                           282   1 
                                                                                
