 2016  726 0224 41.0 L   6.821 -73.195155.4  RSN  4 0.3 1.2LRSN                1
 GAP=234        0.75       6.2     5.7  6.0  0.1723E+02  0.1645E+01 -0.6970E-01E
 Epicentro: ZAPATOCA - SANTANDER                                               3
 ACTION:UPD 17-03-29 16:55 OP:lp   STATUS:               ID:20160726022441 L   I
 OLDACT:REG 16-07-26 13:31 OP:ar   STATUS:               ID:20160726021759     3
 2016-07-26-0217-59S.COL___334                                                 6
 STAT SP IPHASW D HRMM SECON CODA AMPLIT PERI AZIMU VELO AIN AR TRES W  DIS CAZ7
 BAR2 EZ EP        225  2.19                             170    0.4010 25.4 177 
 BAR2 EZ ES        225 17.72                             170   -0.3110 25.4 177 
 BAR2 EZ I         225 18.12         4.4 0.46            166           25.4 177 
 BRR  HZ EP        225  2.80                             156   -0.0510 65.3 299 
 BRR  HN ES        225 20.02                             156    0.1010 65.3 299 
 RUS  HZ EP        225  5.41                             145   -0.4610  103 173 
 RUS  HN ES        225 25.61                             145    0.3210  103 173 
 RUS  HZ I         225 26.33         1.4 0.26            143            103 173 
 PTB  HZ EP        225  8.41                             135    0.10 9  143 257 
 PTB  HN ES        225 29.54                             135   -0.09 9  143 257 
 PTB  HZ I         225 33.86         2.5 0.16            132            143 257 
 ZAR  HN ES   4    225 42.77                             125    3.97 0  198 292 
                                                                                
