 2017  726 0952 10.3 L   6.695 -73.199142.5  RSN  5 0.4 1.3LRSN                1
 GAP=199        0.63       7.0     4.7  5.5  0.2187E+02  0.5022E+01  0.1213E+02E
 Epicentro: VILLANUEVA - SANTANDER                                             3
 ACTION:UPD 17-08-30 15:36 OP:rebc STATUS:               ID:20170726095210 L   I
 OLDACT:UP  17-07-26 17:13 OP:and  STATUS:               ID:20170726094741     3
 OLDACT:UP  17-07-26 17:13 OP:and  STATUS:               ID:20170726094741     3
 OLDACT:REG 17-07-26 13:01 OP:and  STATUS:               ID:20170726094741     3
 2017-07-26-0948-00M.COL___371                                                 6
 STAT SP IPHASW D HRMM SECON CODA AMPLIT PERI AZIMU VELO AIN AR TRES W  DIS CAZ7
 BAR2 EZ EP   2    952 28.91                             175   -0.48 5 11.5 171 
 BAR2 EZ ES        952 44.20                             175   -0.0510 11.5 171 
 BAR2 EZ I         952 45.63         6.4 0.32            171           11.5 171 
 BRR  HZ EP   2    952 30.63                             152   -0.59 5 72.7 309 
 BRR  HN ES        952 47.72                             152    0.2210 72.7 309 
 BRR  HZ I         952 50.73         5.3 0.36            149           72.7 309 
 PTB  HZ EP   2    952 35.98                             133   -0.36 5  140 263 
 PTB  HN ES        952 56.68                             133    0.06 9  140 263 
 PTB  HZ I         953  2.34         1.0 0.42            130            140 263 
 YPLC HZ EP        952 39.37                             127    0.16 9  170 148 
 ZAR  HZ EP   2    952 43.45                             122    0.95 4  203 296 
 ZAR  HN ES        953  7.33                             122   -0.25 9  203 296 
 ZAR  HZ I         953 13.13         2.6 0.28            121            203 296 
                                                                                
