 2015 1026 0318 38.4 L   6.816 -73.125143.0  RSN 20 0.5 2.5LRSN                1
 GAP= 72        1.13       2.7     3.2  5.3 -0.6889E+00  0.5400E+01  0.1750E+01E
 Epicentro: LOS SANTOS - SANTANDER                                             3
 ACTION:UPD 15-12-22 20:43 OP:cam  STATUS:               ID:20151026031838 L   I
 OLDACT:UP  15-10-26 14:15 OP:mh   STATUS:               ID:20151026031748     3
 OLDACT:UP  15-10-26 13:24 OP:mh   STATUS:               ID:20151026031748     3
 OLDACT:REG 15-10-26 12:28 OP:mh   STATUS:               ID:20151026031748     3
 2015-10-26-0317-48M.COL___313                                                 6
 STAT SP IPHASW D HRMM SECON CODA AMPLIT PERI AZIMU VELO AIN AR TRES W  DIS CAZ7
 BAR2 EZ IP     C  318 57.70                             169    0.0010 25.5 194 
 BAR2 EZ ES        319 12.36                             169   -0.4210 25.5 194 
 BAR2 EZ I         319 16.17        33.3 0.32            168           25.5 194 
 BRR  HZ IP     C  318 59.49                             152    0.2210 72.4 296 
 BRR  HN ES        319 16.45                             152    0.8610 72.4 296 
 BRR  HZ I         319 20.40        56.5 0.14            146           72.4 296 
 PAM  EZ IP     C  319  0.41                             151    0.3010 74.6  39 
 PAM  EN ES        319 17.21                             151    0.1310 74.6  39 
 PAM  EZ I         319 19.25        43.6 0.44            151           74.6  39 
 RUS  HZ EP   1    319  1.79                             143   -0.16 7  102 177 
 RUS  HN ES        319 20.16                             143   -0.1910  102 177 
 RUS  HZ I         319 21.69        29.2 0.20            143            102 177 
 TAM  HZ EP        319  5.96                             130    0.31 9  153 106 
 TAM  HN ES        319 27.48                             130    0.54 9  153 106 
 TAM  HZ I         319 27.93        28.8 0.58            132            153 106 
 OCA  HZ EP        319  6.58                             129    0.27 9  159 352 
 OCA  HN ES        319 27.38                             129   -0.75 9  159 352 
 OCA  HZ I         319 32.27        63.7 0.46            126            159 352 
 SPBC HZ EP        319  6.78                             128   -0.13 9  166 219 
 SPBC HN ES        319 28.39                             128   -0.79 9  166 219 
 SPBC HZ I         319 34.64        45.9 0.10            125            166 219 
 ZAR  HZ EP   1    319 10.11                             121   -0.66 6  206 291 
 ZAR  HN ES        319 36.55                             121    0.49 8  206 291 
 ZAR  HZ I         319 41.83        51.0 0.28            118            206 291 
 NOR  HZ EP   1    319 13.95                             118   -0.28 6  238 234 
 NOR  HN ES        319 41.50                             118   -0.71 8  238 234 
 NOR  HZ I         319 43.59        24.2 0.20            115            238 234 
 SML  HZ EP        319 13.99                             117   -0.77 8  243 335 
 SML  HN ES        319 42.37                             117   -0.79 8  243 335 
 SML  HZ I         319 51.43        35.9 0.10            114            243 335 
 CHI  HZ EP        319 16.24                             116    0.10 8  251 196 
 CHI  HN ES   1    319 45.09                             116   -0.53 6  251 196 
 CHI  HZ I         319 50.34         6.5 0.32            115            251 196 
 ROSC BZ EP   4    319 18.02                             116    1.41 0  255 211 
 ROSC BN ES   4    319 48.13                             116    1.68 0  255 211 
 ROSC BZ I         319 51.24        19.3 0.35            114            255 211 
 HEL  HZ EP        319 19.15                             114    0.43 8  275 256 
 HEL  HN ES        319 50.96                             114    0.76 8  275 256 
 HEL  HZ I         319 55.73        23.6 0.34            112            275 256 
 URE  HZ EP   4    319 17.24                             113   -2.22 0  285 291 
 URE  HN ES   4    319 48.04                             113   -3.48 0  285 291 
 URE  HZ I         319 59.03        26.3 0.16            110            285 291 
 GUY2CHZ EP        319 22.34                             112    0.18 7  304 235 
 GUY2CHN ES        319 57.01                             112    0.69 7  304 235 
 GUY2CHZ I         320  4.39        10.6 0.32                           304 235 
 VIL  SN ES        319 55.18                             111   -0.67 7  306 192 
 CBOC HZ EP        319 26.25                             109    0.79 7  336 252 
 CBOC HN ES        320  2.65                             109    0.44 7  336 252 
 CBOC HZ I         320 18.83         5.2 0.58            107            336 252 
 DBB  SZ EP        319 25.40                             109   -0.57 7  342 274 
 DBB  SZ I         320  9.34        39.3 0.45            107            342 274 
 MON  HZ EP   9    319 24.51                             108   -2.82 0  354 308 
 MON  HN ES        320  2.97                             108    0.26 6  354 308 
 MON  HZ I         320  9.75         5.6 0.30            106            354 308 
 ORTC HZ EP        319 32.54                             106    0.04 6  398 216 
 ORTC HN ES        320 15.11                             106    0.38 6  398 216 
 ORTC HZ I         320 19.90         7.5 0.46            104            398 216 
                                                                                
