 2011 1026 0855 41.3 L   6.553 -73.524112.6  RSN 16 0.3 2.8LRSN                1
 GAP= 54        0.41       1.6     1.9  3.8 -0.1840E+00  0.2933E+01  0.1612E+01E
 Epicentro: EL CARMEN DE CHUCURI - SANTANDER                                   3
 ACTION:UPD 12-07-13 16:06 OP:ep   STATUS:               ID:20111026085541 L   I
 2011-10-26-0852-40S.COL___176                                                 6
 STAT SP IPHASW D HRMM SECON CODA AMPLIT PERI AZIMU VELO AIN AR TRES W  DIS CAZ7
 BAR2 SZ IP     C  855 57.61                             160    0.1410 38.0  84 
 BAR2 SZ ES   2    856  9.79                             160   -0.28 5 38.0  84 
 BAR2 SZ I         856 11.45       364.7 0.23                          38.0  84 
 BTL  SZ EP   1    855 58.12                             155    0.12 7 49.3  35 
 BRR  HZ EP   1    855 58.38                             148   -0.17 7 64.7 341 
 BRR  HN ES   2    856 12.53                             148    0.53 5 64.7 341 
 BRR  HZ I         856 18.21       161.0 0.18                          64.7 341 
 RUS  HZ EP   1    856  0.65                             140   -0.27 7 87.8 146 
 RUS  HN ES   2    856 16.26                             140    0.04 5 87.8 146 
 RUS  HZ I         856 17.63        62.1 0.44                          87.8 146 
 PAM  SZ EP   1    856  4.19                             128   -0.07 7  126  46 
 PAM  SN ES   2    856 21.80                             128   -0.37 5  126  46 
 ZAR  HZ EP   1    856  9.35                             117    0.12 7  180 305 
 ZAR  HZ I         856 34.83        94.7 0.27                           180 305 
 YOP  SZ EP   1    856  9.69                             117    0.34 7  180 137 
 YOP  SE ES   2    856 31.31                             117    0.08 4  180 137 
 ZAR  HN ES   2    856 31.22                             117    0.22 4  180 305 
 NOR  SZ EP   1    856  9.22                             117   -0.56 7  185 234 
 NOR  SN ES   2    856 31.68                             117   -0.30 4  185 234 
 OCA  SZ EP   1    856 10.03                             116   -0.19 7  188   7 
 OCA  SZ ES   2    856 32.97                             116    0.20 4  188   7 
 OCA  SZ I         856 37.99       116.2 0.26                           188   7 
 HEL  HZ EP   1    856 14.60                             112   -0.10 6  225 260 
 HEL  HN ES   2    856 40.46                             112   -0.29 4  225 260 
 HEL  HZ I         856 45.41        36.7 0.28                           225 260 
 GUY  SZ EP   2    856 18.52                             109    0.45 4  254 235 
 GUY  SN ES   2    856 47.05                             109    0.32 4  254 235 
 GUY  SZ I         856 53.40        75.1 0.47                           254 235 
 VIL  SZ EP   1    856 19.79                             107    0.19 6  271 184 
 VIL  SN ES   2    856 49.50                             107    0.03 4  271 184 
 VIL  SZ I         856 58.20        23.1 0.40                           271 184 
 RREF HZ EP   1    856 20.70                             107    0.27 6  272 228 
 RREF HN ES   2    856 51.04                             107    0.09 4  272 228 
 RREF HZ I         856 56.42        30.5 0.39                           272 228 
 TOL  SZ EP   2    856 23.00                             105    0.30 4  295 223 
 TOL  SZ ES   2    856 54.69                             105   -0.30 4  295 223 
 DBB  SZ EP   2    856 23.20                             105    0.06 4  301 280 
 PRA  HZ EP   1    856 28.44                             102   -0.23 5  348 206 
 PRA  HN ES   2    857  5.79                             102    0.17 3  348 206 
                                                                                
