 2014  626 0412 36.4 L   6.854 -73.391109.6  RSN  5 0.4 1.4LRSN                1
 GAP=161        0.99       4.0     5.3  9.6  0.4767E+00  0.9557E+01 -0.1516E+02E
 Epicentro: SAN VICENTE DE CHUCURI - SANTANDER                                 3
 ACTION:UPD 14-07-01 22:56 OP:nd   STATUS:               ID:20140626041236 L   I
 OLDACT:REG 14-06-26 12:23 OP:spq  STATUS:               ID:20140626040819     3
 2014-06-26-0408-19M.COL___256                                                 6
 STAT SP IPHASW D HRMM SECON CODA AMPLIT PERI AZIMU VELO AIN AR TRES W  DIS CAZ7
 BAR2 SZ EP        412 52.17                             160    0.0410 37.1 141 
 BAR2 SZ ES   1    413  4.53                             160    0.10 7 37.1 141 
 BAR2 SZ I         413  6.78         7.3 0.20            166           37.1 141 
 PTB  HZ IP     C  412 57.51                             128   -0.6510  123 254 
 PTB  HN ES        413 14.71                             128   -0.4510  123 254 
 PTB  HZ I         413 20.65         3.1 0.12            130            123 254 
 SPBC HZ EP        413  1.78                             121    0.51 9  153 210 
 SPBC HN ES        413 20.79                             121    0.08 9  153 210 
 SPBC HZ I         413 27.55         3.2 0.32            125            153 210 
 ZAR  HZ EP        413  4.10                             117    0.38 9  177 294 
 ZAR  HN ES        413 25.57                             117    0.52 9  177 294 
 ZAR  HZ I         413 29.77         2.5 0.11            120            177 294 
 SML  HZ EP        413  8.89                             110   -0.54 8  228 341 
 SML  HN ES        413 35.34                             110    0.11 8  228 341 
 SML  HZ I         413 39.27         5.2 0.10            115            228 341 
                                                                                
