 2010 1126 0155 16.9 L   6.748 -73.072139.8  RSN 10 0.4 2.3LRSN                1
 GAP=168        0.96       4.6     6.2  7.2 -0.1002E+02  0.7614E+01  0.8730E+01E
 Epicentro: LOS SANTOS - SANTANDER                                             3
 ACTION:UP  10-12-17 16:55 OP:REBC STATUS:               ID:20101126015516 L   I
 2010-11-26-0152-15S.COL___128                                                 6
 STAT SP IPHASW D HRMM SECON CODA AMPLIT PERI AZIMU VELO SNR AR TRES W  DIS CAZ7
 BAR2 SZ IP        155 35.60                             171    -0.210   21 216 
 BAR2 SZ ES   1    155 50.40                             171    -0.1 7   21 216 
 BAR2 SZ I         155 51.87        77.4 0.22                            21 216 
 BRR  HZ IP     C  155 37.44                             148    -0.610   81 299 
 BRR  HE ES   1    155 54.30                             148    -0.2 7   81 299 
 BRR  HZ I         155 56.23        46.0 0.08                            81 299 
 RUS  HZ EP        155 39.57                             144    -0.110   95 181 
 RUS  HZ I         155 40.27        17.9 0.21                            95 181 
 RUS  HN ES   2    155 57.60                             144     0.2 5   95 181 
 GRA  SZ IP        155 42.47                             134     0.610  129  13 
 GRA  SZ ES   1    156  2.01                             134     0.6 7  129  13 
 GRA  SZ I         156  4.23        22.0 0.47                           129  13 
 OCA  SZ EP   3    155 44.36                             127    -1.1 2  167 351 
 OCA  SZ I         156 11.78        17.7 0.35                           167 351 
 NOR  SZ EP        155 52.15                             117    -0.5 8  238 237 
 NOR  SE ES   2    156 20.13                             117    -0.5 4  238 237 
 NOR  SZ I         156 23.40         3.2 0.35                           238 237 
 CHI  HZ EP   1    155 53.74                             116    -0.2 6  245 197 
 CHI  HE ES   2    156 23.03                             116     0.2 4  245 197 
 CHI  HZ I         156 30.65         7.1 0.28                           245 197 
 HEL  HZ EP   1    155 57.76                             113     0.2 6  279 257 
 HEL  HN ES   1    156 29.96                             113     0.7 6  279 257 
 HEL  HZ I         156 34.03        13.4 0.34                           279 257 
 RREF HZ EP   1    156  3.27                             109     0.2 5  324 231 
 RREF HE ES   1    156 39.82                             109     0.7 5  324 231 
 RREF HZ I         156 48.03        10.6 0.45                           324 231 
 PRA  HZ EP        156 10.36                             105     0.2 6  391 211 
 PRA  HN ES   1    156 51.93                             105     0.3 4  391 211 
 PRA  HZ I         156 58.15        24.2 0.19                           391 211 
                                                                                
