 2013 1126 0636  6.2 L   6.799 -73.151140.2  RSN 10 0.4 1.7LRSN                1
 GAP=149        1.06       3.8     4.8  6.7 -0.3105E+01  0.9692E+01  0.6634E+01E
 Epicentro: LOS SANTOS - SANTANDER                                             3
 ACTION:UPD 14-01-09 16:31 OP:ep   STATUS:               ID:20131126063606 L   I
 OLDACT:REG 13-11-26 08:20 OP:mh   STATUS:               ID:20131126063000     3
 2013-11-26-0630-00M.COL___282                                                 6
 STAT SP IPHASW D HRMM SECON CODA AMPLIT PERI AZIMU VELO AIN AR TRES W  DIS CAZ7
 BAR2 SZ EP        636 25.21                             170    0.1010 23.1 189 
 BAR2 SZ ES        636 39.22                             170   -0.6810 23.1 189 
 BAR2 SZ I         636 42.06        11.6 0.17            169           23.1 189 
 BRR  HZ EP        636 27.04                             152    0.3610 70.8 299 
 BRR  HN ES        636 43.41                             152    0.7210 70.8 299 
 BRR  HZ I         636 47.08         6.5 0.40            146           70.8 299 
 PAM  SZ EP        636 28.11                             150    0.3010 77.9  40 
 PAM  SN ES        636 44.74                             150    0.0310 77.9  40 
 PAM  SZ I         636 47.27        10.8 0.44            149           77.9  40 
 PTB  HZ EP        636 32.27                             131   -0.35 9  147 259 
 PTB  HZ I         636 55.45         5.2 0.16            127            147 259 
 OCA  HN ES   1    636 55.23                             128   -0.58 7  160 353 
 SPBC HZ EP        636 33.84                             128   -0.35 9  163 219 
 SPBC HN ES        636 56.12                             128    0.07 9  163 219 
 SPBC HZ I         637  0.74         6.9 0.21            126            163 219 
 ZAR  HZ EP        636 38.62                             121    0.43 9  204 292 
 ZAR  HN ES        637  2.58                             121   -0.61 9  204 292 
 ZAR  HZ I         637  9.29         4.9 0.25            118            204 292 
 NOR  HZ EP        636 40.77                             117   -0.74 8  234 234 
 NOR  HN ES   1    637  9.36                             117    0.28 6  234 234 
 NOR  HZ I         637 11.32         2.9 0.26            115            234 234 
 CHI  HZ EP        636 43.67                             116    0.15 8  248 195 
 CHI  HN ES        637 12.99                             116    0.33 8  248 195 
 HEL  HN ES   1    637 17.74                             114    0.62 6  271 256 
                                                                                
