 2012 1226 0854  2.7 L   5.834 -73.882108.0  RSN  8 0.5 1.7LRSN                1
 GAP= 87        1.03       4.0     4.1 12.5 -0.3903E+00  0.2137E+02  0.3438E+01E
 Epicentro: SUCRE - SANTANDER                                                  3
 ACTION:UPD 13-01-04 14:30 OP:ep   STATUS:               ID:20121226085402 L   I
 2012-12-26-0850-00M.COL___242                                                 6
 STAT SP IPHASW D HRMM SECON CODA AMPLIT PERI AZIMU VELO AIN AR TRES W  DIS CAZ7
 RUS  HZ EP        854 22.02                             138    0.0610 88.7  86 
 RUS  HN ES   1    854 36.64                             138   -0.35 7 88.7  86 
 RUS  HZ I         854 38.08         4.7 0.22                          88.7  86 
 PTB  HZ EP        854 21.46                             134   -0.8610  101 321 
 PTB  HN ES   1    854 38.34                             134    0.72 7  101 321 
 PTB  HZ I         854 40.22        13.4 0.36                           101 321 
 BAR2 SZ EP   1    854 24.17                             130    0.31 7  114  43 
 BAR2 SZ ES   1    854 40.60                             130    0.24 7  114  43 
 BAR2 SZ I         854 42.40        32.3 0.54                           114  43 
 CHI  HE ES   1    854 44.02                             125   -0.22 7  134 173 
 CHI  HE I         854 48.70         9.1 0.26                           134 173 
 BRR  HZ EP   1    854 26.41                             123    0.13 7  142   8 
 BRR  HN ES   1    854 45.11                             123    0.43 7  142   8 
 BRR  HZ I         854 49.58         4.8 0.14                           142   8 
 HEL  HZ EP   1    854 32.28                             116    0.77 7  186 282 
 HEL  HN ES   1    854 53.65                             116   -0.33 7  186 282 
 HEL  HZ I         854 59.75         4.3 0.18                           186 282 
 RREF HZ EP   1    854 32.73                             115    0.23 7  192 238 
 RREF HN ES   1    854 56.16                             115    0.42 7  192 238 
 RREF HZ I         854 59.66         8.2 0.32                           192 238 
 ZAR  HN ES   1    854 57.55                             112   -0.85 6  213 330 
 MON  HZ EP   4    854 51.58                             100   -2.17 0  380 329 
 MON  HN ES   4    855 32.39                             100   -1.17 0  380 329 
                                                                                
