 2017  826 0321 47.6 L   6.059 -73.923 19.9  RSN 10 0.7 1.3LRSN                1
 GAP= 71        1.39       3.2     4.1  5.3 -0.6885E+01  0.8693E+01 -0.6999E+01E
 Epicentro: EL PENON - SANTANDER                                               3
 ACTION:UPD 17-09-04 20:24 OP:rebc STATUS:               ID:20170826032147 L   I
 OLDACT:UP  17-08-26 15:22 OP:osc  STATUS:               ID:20170826031737     3
 OLDACT:REG 17-08-26 12:47 OP:osc  STATUS:               ID:20170826031737     3
 2017-08-26-0318-00M.COL___405                                                 6
 STAT SP IPHASW D HRMM SECON CODA AMPLIT PERI AZIMU VELO AIN AR TRES W  DIS CAZ7
 SPBC HZ IP     C  321 55.86                             110   -0.0810 47.9 200 
 SPBC HE ES        322  2.91                             110    0.4310 47.9 200 
 SPBC HZ I         322  3.19        52.5 0.10            110           47.9 200 
 RUS  HZ EP   9    322  1.86                             100   -1.39 0 94.8 101 
 RUS  HN ES        322 13.61                             100   -0.4910 94.8 101 
 RUS  HZ I         322 14.13         9.6 0.10            100           94.8 101 
 BAR2 EZ EP        322  3.54                             100   -0.3610  101  54 
 BAR2 EZ ES        322 16.54                             100   -0.1110  101  54 
 BAR2 EZ I         322 19.40         4.9 0.05             99            101  54 
 BRR  HZ EP        322  5.98                              56   -0.2510  118  11 
 BRR  HE ES        322 21.59                              56    0.8010  118  11 
 BRR  HZ I         322 23.78         7.9 0.10             56            118  11 
 NOR  HE ES   2    322 22.37                              98    1.47 5  118 242 
 CHI  HZ EP        322 11.84                              56   -0.05 9  160 172 
 CHI  HN ES        322 30.50                              56   -0.37 9  160 172 
 CHI  HZ I         322 32.41         2.2 0.22             56            160 172 
 HEL  HZ EP        322 14.12                              56   -0.07 9  178 275 
 HEL  HE ES   4    322 33.23                              56   -1.72 0  178 275 
 GUY2CHZ EP        322 15.43                              56    0.34 9  184 240 
 GUY2CHE ES        322 36.13                              56   -0.42 9  184 240 
 GUY2CHZ I         322 43.09         1.5 0.48                           184 240 
 ZAR  HN ES        322 35.61                              56   -0.99 9  189 327 
 PAM  EN ES   2    322 41.57                              56    2.46 4  196  44 
                                                                                
