 2010  526 0821  9.0 L   6.799 -73.077144.1  RSN  6 0.5 1.9LRSN                1
 GAP=183        0.86       6.5    11.0 10.5 -0.4730E+02  0.2817E+02  0.5054E+01E
 Epicentro: LOS SANTOS - SANTANDER                                             3
 ACTION:UP  10-08-24 10:06 OP:vdl  STATUS:               ID:20100526082109 L   I
 2010-05-26-0816-47S.COL___108                                                 6
 STAT SP IPHASW D HRMM SECON CODA AMPLIT PERI AZIMU VELO SNR AR TRES W  DIS CAZ7
 BAR2 SZ EP        821 28.16                             169    -0.310   26 207 
 BAR2 SZ ES   2    821 44.26                             169     0.6 5   26 207 
 GUE  SZ EP        821 33.79                             139     0.310  115   8 
 GUE  SZ ES   1    821 52.89                             139     0.4 7  115   8 
 GRA  SZ EP        821 33.68                             137    -0.310  124  14 
 GRA  SZ ES   1    821 52.98                             137    -0.4 7  124  14 
 CHI  HZ EP   2    821 46.53                             116    -0.3 4  251 197 
 CHI  HN ES   2    822 16.32                             116     0.0 4  251 197 
 CHI  HZ I         822 25.82         3.3 0.04                           251 197 
 HEL  HZ EP   1    821 50.74                             113     0.8 6  279 256 
 HEL  HN ES   2    822 20.91                             113    -1.0 4  279 256 
 HEL  HZ I         822 28.35         4.1 0.37                           279 256 
 RREF BN ES   2    822 32.62                             110     0.4 3  327 230 
 RREF BZ I         822 39.00         4.4 0.22                           327 230 
                                                                                
