 2016 1026 0105 29.2 L   6.778 -73.165149.5  RSN  6 0.6 1.4LRSN                1
 GAP=135        1.42       7.1     9.3 12.4 -0.2180E+02 -0.3002E+02  0.1413E+02E
 Epicentro: LOS SANTOS - SANTANDER                                             3
 ACTION:UPD 16-11-09 19:22 OP:rebc STATUS:               ID:20161026010529 L   I
 OLDACT:UP  16-10-27 20:18 OP:nlst STATUS:               ID:20161026010529 L   3
 OLDACT:UP  16-10-26 16:13 OP:cog  STATUS:               ID:20161026005746     3
 OLDACT:UP  16-10-26 16:12 OP:cog  STATUS:               ID:20161026005746     3
 OLDACT:UP  16-10-26 15:42 OP:cog  STATUS:               ID:20161026005746     3
 OLDACT:REG 16-10-26 12:17 OP:cog  STATUS:               ID:20161026005746     3
 2016-10-26-0058-00M.COL___343                                                 6
 STAT SP IPHASW D HRMM SECON CODA AMPLIT PERI AZIMU VELO AIN AR TRES W  DIS CAZ7
 BRR  HZ EP        1 5 50.90                             153    0.2010 70.6 301 
 BRR  HE ES        1 6  8.06                             153    0.5810 70.6 301 
 PAM  EZ EP        1 5 51.93                             150   -0.0510 80.6  40 
 PAM  EE ES        1 6  9.12                             150   -0.6510 80.6  40 
 PAM  EZ I         1 6 10.89         6.1 0.52            153           80.6  40 
 RUS  HZ EP        1 5 53.41                             145    0.2710 98.3 175 
 RUS  HN ES        1 6 12.40                             145    0.5710 98.3 175 
 RUS  HZ I         1 6 14.65         2.2 0.36            146           98.3 175 
 PTB  HZ EP   9    1 5 56.04                             133   -0.19 0  145 260 
 PTB  HN ES        1 6 16.74                             130   -0.40 9  145 260 
 PTB  HZ I         1 6 22.58         3.7 0.14            133            145 260 
 SPBC HE ES        1 6 18.79                             130   -1.10 9  160 219 
 CHI  HZ EP   4    1 6  7.83                             118    1.06 0  246 195 
 CHI  HN ES   4    1 6 38.13                             118    2.03 0  246 195 
 GUY2CHZ EP   4    1 6 15.10                             113    2.49 0  298 235 
 GUY2CHN ES   4    1 6 50.88                             113    4.39 0  298 235 
 GUY2CHZ I         1 6 57.55         1.8 0.46                           298 235 
                                                                                
