 2013  126 0419 17.5 L   6.778 -73.192142.4  RSN  5 0.2 1.1LRSN                1
 GAP=132        0.51       3.2     3.1  5.2  0.2273E+01 -0.3813E+01 -0.2448E+01E
 Epicentro: LOS SANTOS - SANTANDER                                             3
 ACTION:UPD 13-02-15 09:16 OP:ep   STATUS:               ID:20130126041917 L   I
 2013-01-26-0418-41M.COL___186                                                 6
 STAT SP IPHASW D HRMM SECON CODA AMPLIT PERI AZIMU VELO AIN AR TRES W  DIS CAZ7
 BAR2 SZ EP        419 36.65                             171    0.0110 20.6 177 
 BRR  HZ EP        419 38.30                             153    0.2210 68.1 302 
 BRR  HN ES        419 54.19                             153    0.0410 68.1 302 
 PAM  SZ EP        419 39.46                             148   -0.1910 82.5  41 
 RUS  HZ EP        419 41.02                             144    0.2710 98.6 173 
 RUS  HN ES        419 58.78                             144   -0.1310 98.6 173 
 RUS  HN I         420  0.22         2.4 0.20            143           98.6 173 
 PTB  HZ EP        419 43.41                             132   -0.26 9  142 259 
 PTB  HE ES        420  4.10                             132    0.00 9  142 259 
 PTB  HE I         420  6.84         1.7 0.10            132            142 259 
                                                                                
