 2012  426 0716 27.1 L   6.557 -73.355 16.9  RSN  6 0.4 1.7LRSN                1
 GAP=111        0.84       2.6     2.8  4.3  0.2244E+01  0.4082E+01 -0.1899E+01E
 Epicentro: HATO - SANTANDER                                                   3
 ACTION:UPD 12-07-05 11:56 OP:tino STATUS:               ID:20120426071627 L   I
 2012-04-26-0710-00M.COL___186                                                 6
 STAT SP IPHASW D HRMM SECON CODA AMPLIT PERI AZIMU VELO AIN AR TRES W  DIS CAZ7
 BAR2 SZ EP   1    716 31.82                             130     0.2 7   19  78 
 BAR2 SZ ES   1    716 35.51                             130     0.3 7   19  78 
 BRR  HZ EP   1    716 38.60                             101    -0.3 7   73 327 
 BRR  HZ I         716 38.89        42.8 0.11                            73 327 
 BRR  HN ES        716 47.77                             101    -0.310   73 327 
 RUS  HZ EP   1    716 40.61                             100     0.2 7   79 158 
 RUS  HZ I         716 41.14        16.7 0.10                            79 158 
 RUS  HN ES   1    716 50.18                             100    -0.6 7   79 158 
 PTB  HZ EP   1    716 46.45                              96     0.1 7  122 269 
 PTB  HN ES   1    717  1.62                              96     0.4 7  122 269 
 PTB  HZ I         717  3.06        28.0 0.16                           122 269 
 OCA  SZ EP   1    716 55.36                              56     0.6 7  186   1 
 OCA  SZ ES   1    717 15.91                              56    -0.3 7  186   1 
 ZAR  HN ES   1    717 18.24                              56     0.2 6  196 302 
 ZAR  HZ I         717 21.48         5.8 0.29                           196 302 
                                                                                
