 2016 1026 0748 28.9 L   6.810 -73.130146.6  RSN 24 0.4 2.5LRSN                1
 GAP= 66        0.93       2.5     2.7  4.0 -0.1583E+01  0.2401E+01  0.1996E+01E
 Epicentro: LOS SANTOS - SANTANDER                                             3
 ACTION:UPD 16-11-09 19:23 OP:rebc STATUS:               ID:20161026074828 L   I
 OLDACT:UP  16-10-26 18:32 OP:cog  STATUS:               ID:20161026074745     3
 OLDACT:REG 16-10-26 13:59 OP:cog  STATUS:               ID:20161026074745     3
 2016-10-26-0748-00M.COL___325                                                 6
 STAT SP IPHASW D HRMM SECON CODA AMPLIT PERI AZIMU VELO AIN AR TRES W  DIS CAZ7
 BAR2 EZ EP        748 48.50                             170   -0.1310 24.7 193 
 BAR2 EZ ES        749  3.82                             170   -0.2310 24.7 193 
 BAR2 EZ I         749  4.77        76.7 0.24            167           24.7 193 
 BRR  HZ EP     C  748 50.38                             152    0.2110 72.2 297 
 BRR  HN ES        749  7.22                             152    0.4410 72.2 297 
 BRR  HZ I         749 11.41        35.9 0.28            152           72.2 297 
 PAM  EZ EP     C  748 51.27                             151    0.2110 75.5  39 
 PAM  EN ES        749  8.30                             151   -0.0810 75.5  39 
 PAM  EZ I         749 10.70        61.4 0.52            157           75.5  39 
 RUS  HZ EP        748 52.44                             144   -0.3310  102 177 
 RUS  HN ES        749 11.46                             144    0.0410  102 177 
 RUS  HZ I         749 12.82        28.3 0.46            144            102 177 
 PTB  HZ EP   9    748 55.29                             132   -0.79 0  150 259 
 PTB  HN ES        749 16.28                             132   -0.23 9  150 259 
 PTB  HZ I         749 19.24        24.4 0.12            132            150 259 
 TAM  HZ IP     D  748 56.93                             131    0.44 9  154 106 
 TAM  HN ES        749 18.62                             131    0.59 9  154 106 
 OCA  HZ EP        748 57.06                             130   -0.11 9  159 352 
 OCA  HN ES        749 18.70                             130   -0.54 9  159 352 
 OCA  HZ I         749 21.94        52.7 0.20            133            159 352 
 SPBC HZ EP        748 57.45                             129   -0.16 9  165 219 
 SPBC HN ES        749 19.62                             129   -0.41 9  165 219 
 SPBC HZ I         749 24.33        50.5 0.30            129            165 219 
 NOR  HZ EP        749  4.64                             118   -0.22 8  237 234 
 NOR  HN ES        749 32.96                             118    0.02 8  237 234 
 NOR  HZ I         749 38.42        15.1 0.37            119            237 234 
 CHI  HZ EP        749  6.71                             117   -0.06 8  250 195 
 CHI  HN ES        749 35.95                             117   -0.39 8  250 195 
 CHI  HZ I         749 39.53        23.0 0.58            118            250 195 
 ROSC BZ EP   4    749  8.33                             117    1.10 0  255 211 
 ROSC BN ES   4    749 38.74                             117    1.59 0  255 211 
 ROSC BZ I         749 42.99        46.0 0.45            118            255 211 
 HEL  HZ EP        749 10.07                             115    0.73 8  274 256 
 HEL  HN ES        749 40.77                             115   -0.13 8  274 256 
 HEL  HZ I         749 46.62        16.8 0.28            116            274 256 
 GUY2CHZ EP        749 13.24                             112    0.50 7  303 235 
 GUY2CHN ES   4    749 49.85                             112    2.89 0  303 235 
 GUY2CHZ I         749 54.79        18.8 0.34                           303 235 
 PTGC HZ IP        749 11.61                             112   -1.19 7  309 159 
 PTGC HN ES   4    749 44.74                             112   -2.33 0  309 159 
 PTGC HZ I         749 47.76        14.1 0.38            113            309 159 
 LL6C HZ EP   9    748 53.87                             110   -20.6 0  324 357 
 LL6C HN ES        749 29.23                                   -0.23 7  324 357 
 LL6C HZ I         749 36.40        11.5 0.42            113            324 357 
 ELA  HZ EP        749 16.51                             110    0.53 7  331 230 
 ELA  HN ES   4    749 54.69                             110    1.96 0  331 230 
 ELA  HZ I         750  1.26        14.0 0.48            111            331 230 
 CBOC HZ EP        749 16.42                             110    0.38 7  336 252 
 CBOC HN ES        749 52.24                             110   -0.60 7  336 252 
 ARGC HZ EP        749 18.12                             108   -0.39 6  359 340 
 ARGC HN ES   4    750  0.78                             108    3.55 0  359 340 
 ANIL HZ EP   4    749 20.03                             108    1.10 0  359 225 
 ANIL HN ES        749 59.32                             108    1.34 6  359 225 
 PRA  HZ EP        749 22.45                             106   -0.17 6  394 210 
 PRA  HN ES   4    750  3.63                             106   -0.92 0  394 210 
 PRA  HZ I         750  8.98        16.4 0.72            108            394 210 
 ORTC HZ EP        749 23.02                             106   -0.01 6  397 216 
 ORTC HN ES        750  5.14                             106   -0.14 6  397 216 
 ORTC HZ I         750  9.90        10.5 0.24            108            397 216 
 PAL  HZ EP        749 24.08                             106   -0.21 6  408 239 
 PAL  HN ES        750  7.75                             106    0.23 6  408 239 
 PAL  HZ I         750 10.10         3.7 0.26            107            408 239 
 SJC  HZ IP   4 C  749 22.69                             106   -1.77 0  409 327 
 SJC  HN ES   4    750  3.04                             106   -4.79 0  409 327 
 SJC  HZ I         750 10.60         6.0 0.60            108            409 327 
 CRJC HZ EP   9    749 28.88                             103   -2.37 0  466   3 
 CRJC HN ES        750 16.89                             104   -0.65 5  466   3 
 CRJC HZ I         750 23.66        10.8 0.40            105            466   3 
 URI  HZ EP   4    749 39.04                             101   -2.68 0  555  13 
 URI  HN ES   4    750 33.87                             101   -4.67 0  555  13 
 FLO2 HN ES   4    749 44.01                              99   -73.2 0  642 206 
 PTLC HZ EP   4    749 11.88                              96   -58.6 0  794 194 
 PTLC HN ES   4    749 50.29                              96   -99.5 0  794 194 
                                                                                
