 2017  626 0815 39.0 L   6.556 -73.523113.7  RSN 29 0.5 2.6LRSN                1
 GAP= 76        0.84       2.0     2.0  3.8 -0.1679E+00  0.2051E+01 -0.1825E-01E
 Epicentro: EL CARMEN - SANTANDER                                              3
 ACTION:UPD 17-09-14 16:55 OP:jn   STATUS:               ID:20170626081539 L   I
 OLDACT:UP  17-06-26 17:54 OP:and  STATUS:               ID:20170626080736     3
 OLDACT:UP  17-06-26 17:52 OP:and  STATUS:               ID:20170626080736     3
 OLDACT:UP  17-06-26 17:51 OP:and  STATUS:               ID:20170626080736     3
 OLDACT:UP  17-06-26 17:50 OP:and  STATUS:               ID:20170626080736     3
 OLDACT:UP  17-06-26 17:46 OP:and  STATUS:               ID:20170626080736     3
 OLDACT:REG 17-06-26 13:18 OP:and  STATUS:               ID:20170626080736     3
 2017-06-26-0808-00M.COL___340                                                 6
 STAT SP IPHASW D HRMM SECON CODA AMPLIT PERI AZIMU VELO AIN AR TRES W  DIS CAZ7
 BAR2 EZ IP     D  815 55.44                             160    0.1610 37.9  84 
 BAR2 EZ ES        816  7.68                             160   -0.3010 37.9  84 
 BRR  HZ IP     C  815 56.25                             148   -0.0910 64.4 341 
 BRR  HN ES        816 10.32                             148    0.4610 64.4 341 
 BRR  HZ I         816 19.72        80.1 0.18            148           64.4 341 
 PTB  HZ IP   3 C  815 58.23                             134   -1.11 2  103 269 
 PTB  HN ES   4    816 12.93                             134   -2.26 0  103 269 
 PTB  HZ I         816 14.52        72.1 0.10            135            103 269 
 SPBC HZ IP     C  816  0.23                             131   -0.4410  117 211 
 SPBC HN ES        816 17.13                             131   -0.4410  117 211 
 SPBC HZ I         816 23.85       167.8 0.22            133            117 211 
 YPLC HZ IP     D  816  7.14                             118    0.09 9  180 135 
 YPLC HN ES        816 29.56                             118    0.63 9  180 135 
 YPLC HZ I         816 31.56       126.1 0.26            120            180 135 
 ZAR  HZ EP        816  7.41                             118    0.44 9  180 305 
 ZAR  HN ES   3    816 30.55                             118    1.76 2  180 305 
 ZAR  HZ I         816 32.56        88.8 0.42            118            180 305 
 NOR  HZ EP        816  6.87                             117   -0.69 9  185 234 
 NOR  HN ES        816 29.14                             117   -0.69 9  185 234 
 NOR  HZ I         816 32.32        60.7 0.24            118            185 234 
 TABC EZ EP   3    816  9.38                             117    1.11 2  187 204 
 TABC EZ ES        816 31.44                             117    0.35 9  187 204 
 TABC EZ I         816 35.73        35.2 0.30            119            187 204 
 TAM  HZ IP     D  816  8.22                             116   -0.08 9  192  94 
 TAM  HN ES        816 31.05                             116   -0.10 9  192  94 
 TAM  HZ I         816 33.11        29.3 0.46            118            192  94 
 ROSC BZ IP   9 C  816 11.68                             114    1.02 0  209 205 
 ROSC BN ES        816 37.11                             114    0.74 8  209 205 
 ROSC BZ I         816 42.79        37.3 0.35            116            209 205 
 CHI  HZ EP        816 11.20                             113   -0.05 8  214 186 
 CHI  HN ES        816 36.10                             113   -0.29 8  214 186 
 CHI  HZ I         816 42.62        28.6 0.30            115            214 186 
 HEL  HZ EP        816 12.54                             112    0.08 8  226 260 
 HEL  HN ES        816 38.56                             112    0.01 8  226 260 
 HEL  HZ I         816 41.21        33.8 0.48            113            226 260 
 GUY2CHZ EP        816 16.00                             109    0.44 8  252 234 
 GUY2CHN ES   3    816 45.45                             109    1.37 2  252 234 
 GUY2CHZ I         816 48.83        33.2 0.28                           252 234 
 URE  HZ EP        816 15.31                             108   -0.46 8  258 301 
 URE  HN ES   3    816 43.00                             108   -1.44 2  258 301 
 URE  HZ I         816 52.22        37.9 0.13            109            258 301 
 VIL  EZ EP        816 17.22                             107   -0.15 8  271 184 
 VIL  EN ES   3    816 48.56                             107    1.26 2  271 184 
 VIL  EZ I         816 55.78        40.0 0.48            109            271 184 
 CBOC HZ EP        816 19.78                             106    0.61 7  286 255 
 CBOC HN ES        816 50.54                             106    0.04 7  286 255 
 CBOC HZ I         816 54.34        24.2 0.38            108            286 255 
 DBB  EZ EP        816 21.46                             105    0.58 7  301 280 
 DBB  EN ES   2    816 54.03                             105    0.50 4  301 280 
 DBB  EZ I         816 58.66        15.9 0.14            106            301 280 
 PTGC HZ IP   9 D  816 19.75                             105   -1.18 0  303 149 
 PTGC HE ES        816 52.13                             105   -0.32 7  303 149 
 PTGC HZ I         816 57.50        22.9 0.20            107            303 149 
 ORTC HZ EP        816 26.90                             102    0.37 6  349 213 
 ORTC HN ES        817  4.20                             102    0.61 6  349 213 
 ORTC HZ I         817  8.96        14.7 0.28            104            349 213 
 LL6C HZ EP        816 27.13                             102    0.27 6  353   5 
 LL6C HN ES   4    817  6.36                             102    2.18 0  353   5 
 LL6C HZ I         817 15.20         9.6 0.58            103            353   5 
 PAL  HZ IP     C  816 27.67                             102    0.33 6  356 239 
 PAL  HN ES   3    817  3.71                             102   -1.33 2  356 239 
 PAL  HZ I         817  8.83        19.1 0.28            103            356 239 
 APAC HZ EP        816 28.93                             101    0.15 6  369 294 
 APAC HN ES        817  7.63                             101    0.02 6  369 294 
 APAC HZ I         817 15.05         8.6 0.32            102            369 294 
 ARGC HZ EP   3    816 30.94                             101    1.56 2  374 348 
 ARGC HN ES   4    817 12.73                             101    4.07 0  374 348 
 ARGC HZ I         817 24.57        10.2 0.28            102            374 348 
 SJC  HZ EP   3    816 32.50                              99   -1.55 1  412 334 
 SJC  HN ES   4    817 14.93                              99   -2.05 0  412 334 
 SJC  HZ I         817 19.31         8.3 0.42            100            412 334 
 YOT  HZ EP        816 34.55                              99   -0.86 5  423 228 
 YOT  HN ES   4    817 21.25                              99    1.84 0  423 228 
 PIZC HZ EP   4    816 37.24                              98   -2.48 0  460 248 
 MACC HZ EP   3    816 41.73                              97   -1.56 1  489 184 
 MACC HN ES   4    817 29.49                              97   -3.93 0  489 184 
 MACC HZ I         817 36.36         6.8 0.58             98            489 184 
 CRJC HZ EP        816 43.85                              97   -0.70 4  499   8 
 CRJC HN ES        817 35.09                              97   -0.59 4  499   8 
 CRJC HZ I         817 43.79        19.7 0.20             98            499   8 
 SMAR HZ EP        816 46.59                              96    0.13 4  515 351 
 SMAR HN ES   2    817 38.27                              96   -0.80 2  515 351 
 SMAR HZ I         817 46.80         6.5 0.54             97            515 351 
 FLO2 HZ EP   2    816 55.49                              94   -1.10 1  599 203 
 FLO2 HN ES        817 56.50                              94   -0.61 3  599 203 
 FLO2 HZ I         817 58.68         1.9 0.30             96            599 203 
                                                                                
