 2011  226 0642 37.1 L   6.630 -73.180164.0  RSN  6 0.2 2.0LRSN                1
 GAP=156        0.54       2.5     8.3  5.3 -0.7896E+01  0.1795E+02 -0.3918E+01E
 Epicentro: BARICHARA - SANTANDER                                              3
 ACTION:UP  11-03-28 15:11 OP:jfem STATUS:               ID:20110226064237 L   I
 2011-02-26-0640-56S.COL___136                                                 6
 STAT SP IPHASW D HRMM SECON CODA AMPLIT PERI AZIMU VELO SNR AR TRES W  DIS CAZ7
 BAR2 SZ EP   1    642 58.86                             178     0.1 7    4 186 
 BAR2 SZ ES   1    643 15.53                             178    -0.1 7    4 186 
 BAR2 SZ I         643 17.76        26.6 0.39                             4 186 
 RUS  HZ EP        643  1.55                             152     0.010   82 173 
 RUS  HE ES   1    643 20.83                             152     0.2 7   82 173 
 RUS  HZ I         643 22.19        26.1 0.28                            82 173 
 GRA  SZ IP     D  643  5.63                             137     0.1 9  145  17 
 GRA  SZ I         643  6.90        10.7 0.36                           145  17 
 GRA  SZ ES   1    643 27.29                             137    -0.5 7  145  17 
 OCA  SZ EP        643  8.53                             130     0.0 9  179 355 
 OCA  SZ ES   1    643 33.49                             130     0.4 7  179 355 
 OCA  SZ I         643 37.86         8.4 0.40                           179 355 
 CHI  HZ EP   2    643 14.17                             123     0.3 4  230 195 
 CHI  HZ I         643 14.82         3.7 0.35                           230 195 
 CHI  HN ES   1    643 42.34                             123    -0.3 6  230 195 
 DBB  SZ EP   1    643 24.96                             113    -0.2 5  338 277 
                                                                                
