 2016 1026 0506 12.8 L   6.397 -73.684107.2  RSN  9 0.4 1.4LRSN                1
 GAP= 77        0.93       3.2     3.0  6.1 -0.3021E+01  0.9471E+00  0.2090E+01E
 Epicentro: SANTA HELENA DEL OPON - SANTANDER                                  3
 ACTION:UPD 16-11-09 19:22 OP:rebc STATUS:               ID:20161026050612 L   I
 OLDACT:UP  16-10-26 20:42 OP:dani STATUS:               ID:20161026045652d    3
 OLDACT:UP  16-10-26 20:42 OP:dani STATUS:               ID:20161026045652d    3
 OLDACT:UP  16-10-26 20:42 OP:dani STATUS:               ID:20161026045652d    3
 OLDACT:UP  16-10-26 20:41 OP:dani STATUS:               ID:20161026045652d    3
 OLDACT:DUP 16-10-26 20:34 OP:dani STATUS:               ID:20161026045652d    3
 OLDACT:DUP 16-10-26 20:25 OP:dani STATUS:               ID:20161026045650d    3
 OLDACT:UP  16-10-26 20:19 OP:dani STATUS:               ID:20161026045649     3
 OLDACT:UP  16-10-26 20:14 OP:dani STATUS:               ID:20161026045649     3
 OLDACT:UP  16-10-26 20:13 OP:dani STATUS:               ID:20161026045649     3
 OLDACT:UP  16-10-26 20:13 OP:dani STATUS:               ID:20161026045649     3
 OLDACT:UP  16-10-26 20:12 OP:dani STATUS:               ID:20161026045649     3
 OLDACT:UP  16-10-26 20:12 OP:dani STATUS:               ID:20161026045649     3
 OLDACT:REG 16-10-26 13:14 OP:cog  STATUS:               ID:20161026045649     3
 2016-10-26-0457-00M.COL___328                                                 6
 STAT SP IPHASW D HRMM SECON CODA AMPLIT PERI AZIMU VELO AIN AR TRES W  DIS CAZ7
 BAR2 EZ EP     D  5 6 29.58                             149    0.1310 59.5  69 
 BAR2 EZ ES        5 6 42.33                             149   -0.1410 59.5  69 
 BAR2 EZ I         5 6 43.79        25.2 0.58            152           59.5  69 
 BRR  HZ EP        5 6 30.56                             141    0.1110 78.5 358 
 BRR  HE ES        5 6 44.71                             141    0.4610 78.5 358 
 BRR  HZ I         5 6 51.23         5.4 0.14            142           78.5 358 
 RUS  HZ EP        5 6 31.45                             138   -0.3410 86.8 130 
 RUS  HE ES        5 6 46.50                             138   -0.1310 86.8 130 
 RUS  HZ I         5 6 48.49         2.4 0.17            142           86.8 130 
 PTB  HZ EP     C  5 6 30.58                             138   -0.5610 86.9 280 
 PTB  HE ES        5 6 45.02                             138   -0.4510 86.9 280 
 PTB  HZ I         5 6 47.39        10.9 0.10            138           86.9 280 
 SPBC HN ES        5 6 46.95                             136    0.4010 92.9 208 
 SPBC HZ I         5 6 48.83        13.4 0.27            138           92.9 208 
 PAM  EZ EP        5 6 38.40                             121    0.58 9  151  46 
 PAM  EE ES        5 6 57.10                             121   -0.26 9  151  46 
 PAM  EZ I         5 7  1.98         2.6 0.16            123            151  46 
 NOR  HZ EP        5 6 38.08                             119   -0.20 9  160 235 
 NOR  HN ES        5 6 58.64                             119    0.45 9  160 235 
 NOR  HZ I         5 7  2.09         3.7 0.19            121            160 235 
 CHI  HZ EP        5 6 42.62                             114    0.03 9  196 182 
 CHI  HN ES   4    5 7  7.56                             114    1.71 0  196 182 
 CHI  HZ I         5 7  8.80         1.8 0.18            116            196 182 
 CBOC HZ EP   4    5 6 57.58                             106    7.40 0  264 257 
 CBOC HN ES   4    5 7 14.29                             106   -5.08 0  264 257 
 CBOC HZ I         5 7 24.29         1.0 0.44            108            264 257 
                                                                                
