 2014  426 0449 10.5 L   6.851 -73.268117.6  RSN  4 0.5 1.4LRSN                1
 GAP=171        1.04       7.6     7.1 18.2  0.2935E+02 -0.6634E+01 -0.6574E+02E
 Epicentro: ZAPATOCA - SANTANDER                                               3
 OLDACT:DUP 14-04-26 16:53 OP:fm   STATUS:               ID:20140426043816d    3
 ACTION:UPD 14-05-13 23:11 OP:nd   STATUS:               ID:20140426044910 L   I
 OLDACT:UP  14-04-26 16:57 OP:fm   STATUS:               ID:20140426043816d    3
 2014-04-26-0438-15M.COL___242                                                 6
 STAT SP IPHASW D HRMM SECON CODA AMPLIT PERI AZIMU VELO AIN AR TRES W  DIS CAZ7
 RUS  HZ EP   1    449 33.03                             135    0.86 7  108 169 
 RUS  HN ES        449 48.89                             135   -0.2310  108 169 
 PTB  HZ EP   1    449 33.06                             127   -1.04 7  136 255 
 PTB  HN ES        449 52.64                             127    0.0910  136 255 
 PTB  HZ I         450  9.09         4.3 2.30            126            136 255 
 OCA  HN ES   2    449 55.79                             123   -0.23 5  154 358 
 ZAR  HZ EP   1    449 39.66                             117    0.03 7  189 292 
 ZAR  HE ES        450  2.69                             117    0.30 9  189 292 
 ZAR  HZ I         450  6.83         2.1 0.36            120            189 292 
                                                                                
