 2012  326 0354 21.4 L   6.789 -73.143143.8  RSN  4 0.5 0.7LRSN                1
 GAP=137        0.62       8.6     9.1 16.3  0.3539E+02  0.6017E+02  0.5268E+02E
 ACTION:UP  12-03-31 23:22 OP:EP   STATUS:               ID:20120326035421 L   I
 2012-03-26-0350-00M.COL___196                                                 6
 STAT SP IPHASW D HRMM SECON CODA AMPLIT PERI AZIMU VELO SNR AR TRES W  DIS CAZ7
 BRR  HZ EP        354 42.49                             152     0.110   72 299 
 BRR  HE ES   3    354 59.90                             152     1.1 2   72 299 
 PAM  SZ EP   3    354 43.74                             150     0.3 2   78  39 
 PAM  SE ES   3    354 59.62                             150    -1.1 2   78  39 
 RUS  HZ EP        354 44.87                             144     0.010   99 176 
 RUS  HN ES   3    355  3.81                             144     0.6 2   99 176 
 RUS  HZ I         355  7.64         0.7 0.74                            99 176 
 PTB  HZ EP        354 48.24                             132     0.0 9  148 259 
 PTB  HN ES   3    355  7.63                             132    -1.5 2  148 259 
 PTB  HZ I         355 14.55         0.8 0.22                           148 259 
                                                                                
