 2016  326 0505  3.1 L   7.425 -73.169128.5  RSN 13 0.5 1.7LRSN                1
 GAP= 77        1.03       3.0     3.0  6.1 -0.6485E+00  0.4338E+01  0.3647E+01E
 Epicentro: EL PLAYON - SANTANDER                                              3
 ACTION:UPD 16-05-13 21:27 OP:cam  STATUS:               ID:20160326050503 L   I
 OLDACT:DUP 16-03-26 15:44 OP:ak   STATUS:               ID:20160326045745d    3
 OLDACT:UP  16-03-26 15:44 OP:ak   STATUS:               ID:20160326045744     3
 OLDACT:REG 16-03-26 12:54 OP:ak   STATUS:               ID:20160326045744     3
 2016-03-26-0457-44M.COL___292                                                 6
 STAT SP IPHASW D HRMM SECON CODA AMPLIT PERI AZIMU VELO AIN AR TRES W  DIS CAZ7
 PAM  EZ EP        5 5 22.61                             157    0.5710 52.6 100 
 PAM  EN ES        5 5 37.56                             157    0.7110 52.6 100 
 PAM  EZ I         5 5 40.05        10.2 0.20            147           52.6 100 
 OCA  HZ EP        5 5 23.83                             142   -0.1510 91.5 350 
 OCA  HN ES        5 5 40.22                             142   -0.0910 91.5 350 
 OCA  HZ I         5 5 43.56        20.0 0.18            130           91.5 350 
 BAR2 EZ EP        5 5 24.22                             142    0.0810 92.1 181 
 BAR2 EZ ES        5 5 40.36                             142   -0.2310 92.1 181 
 BAR2 EZ I         5 5 41.66         8.5 0.11            135           92.1 181 
 RUS  HZ EP        5 5 30.84                             124   -0.63 9  170 177 
 RUS  HE ES        5 5 52.71                             124   -0.93 9  170 177 
 PTB  HZ EP        5 5 30.94                             123   -0.21 9  173 236 
 PTB  HN ES        5 5 52.81                             123   -0.26 9  173 236 
 PTB  HZ I         5 5 54.85         4.7 0.45            115            173 236 
 TAM  HZ EP        5 5 33.18                             121    0.47 9  187 126 
 TAM  HN ES        5 5 55.16                             121   -0.69 9  187 126 
 TAM  HZ I         5 5 56.57         2.9 0.32            112            187 126 
 ZAR  HZ EP        5 5 32.41                             121   -0.17 9  187 272 
 ZAR  HN ES        5 5 55.42                             121   -0.20 9  187 272 
 ZAR  HZ I         5 5 58.89         8.6 0.22            112            187 272 
 SPBC HZ EP        5 5 36.63                             116    0.36 8  220 207 
 SPBC HN ES        5 6  2.73                             116    0.55 8  220 207 
 SPBC HZ I         5 6 10.13         8.7 0.05            109            220 207 
 SOCV BZ EP   4    5 5 40.05                             111   -1.97 0  272  69 
 SOCV BN ES   4    5 6 10.97                             111   -1.45 0  272  69 
 NOR  HZ EP   2    5 5 42.60                             110   -0.21 4  279 223 
 NOR  HE ES        5 6 14.24                             110    0.41 7  279 223 
 HEL  HZ EP   2    5 5 45.20                             109    0.20 4  294 243 
 HEL  HN ES        5 6 17.38                             109   -0.34 7  294 243 
 HEL  HZ I         5 6 24.29         1.7 0.20            104            294 243 
 CHI  HZ EP   2    5 5 47.11                             108   -0.36 3  315 191 
 CHI  HN ES        5 6 22.92                             108    0.79 7  315 191 
 CHI  HZ I         5 6 29.05         1.0 0.40            103            315 191 
 SDV  BZ EP        5 5 48.03                             107   -0.05 7  323  60 
 SDV  BN ES   4    5 6 21.46                             107   -1.74 0  323  60 
 GUY2CHZ EP   2    5 5 51.60                             106    0.71 3  344 225 
 GUY2CHN ES        5 6 28.56                             106    0.36 7  344 225 
 GUY2CHZ I         5 6 42.97         1.5 0.58                           344 225 
                                                                                
