 2011 1126 0705 57.2 L   6.803 -73.084152.7  RSN 10 0.4 2.2LRSN                1
 GAP=144        0.47       2.9     5.3  5.2 -0.4819E+01  0.7597E+01  0.1110E+01E
 Epicentro: LOS SANTOS - SANTANDER                                             3
 *BRR-PAM                                                                      3
 ACTION:UPD 12-07-13 16:12 OP:ep   STATUS:               ID:20111126070557 L   I
 2011-11-26-0703-42S.COL___159                                                 6
 STAT SP IPHASW D HRMM SECON CODA AMPLIT PERI AZIMU VELO AIN AR TRES W  DIS CAZ7
 BAR2 SZ EP   2    7 6 17.14                             170   -0.61 5 25.7 205 
 BAR2 SZ ES   2    7 6 33.43                             170   -0.31 5 25.7 205 
 BAR2 SZ I         7 6 35.24        25.1 0.28                          25.7 205 
 PAM  SZ EP   2    7 6 20.38                             153    0.44 5 72.9  36 
 PAM  SN ES   2    7 6 37.86                             153    0.20 5 72.9  36 
 BRR  HZ EP   2    7 6 19.48                             152    0.01 5 77.2 296 
 BRR  HN ES   2    7 6 37.18                             152    0.37 5 77.2 296 
 BRR  HZ I         7 6 38.73        18.8 0.10                          77.2 296 
 RUS  HZ EP   2    7 6 21.83                             145    0.15 5  101 180 
 RUS  HN ES   2    7 6 40.36                             145   -0.38 5  101 180 
 RUS  HZ I         7 6 41.06        15.1 0.38                           101 180 
 OCA  SZ ES   2    7 6 48.90                             131    0.19 5  161 351 
 OCA  SZ I         7 6 53.51        12.0 0.16                           161 351 
 NOR  SZ EP   2    7 6 33.79                             119   -0.20 4  240 235 
 NOR  SN ES   2    7 7  2.31                             119   -0.35 4  240 235 
 CHI  HZ EP   2    7 6 35.73                             118    0.17 4  251 197 
 CHI  HZ I         7 6 59.72        17.5 0.60                           251 197 
 CHI  HN ES   2    7 7  6.13                             118    0.68 4  251 197 
 RREF HZ EP   2    7 6 44.93                             112    0.63 3  327 230 
 RREF HN ES   2    7 7 21.02                             112    0.01 3  327 230 
 COD  HZ EP   2    7 6 45.19                             110   -0.75 3  349 353 
 COD  HN ES   2    7 7 23.61                             110   -0.32 3  349 353 
 COD  HZ I         7 7 28.74        18.3 0.75                           349 353 
 PRA  HZ EP   2    7 6 51.28                             107   -0.15 3  396 210 
                                                                                
