 2011  726 0607 33.3 L   6.346 -73.682103.3  RSN 11 0.3 2.1LRSN                1
 GAP= 92        0.57       1.8     2.6  4.6 -0.1067E+01  0.5481E+01  0.9657E+00E
 Epicentro: SANTA HELENA DEL OPON - SANTANDER                                  3
 ACTION:UPD 12-07-25 14:03 OP:epov STATUS:               ID:20110726060733 L   I
 2011-07-26-0600-00M.COL___139                                                 6
 STAT SP IPHASW D HRMM SECON CODA AMPLIT PERI AZIMU VELO AIN AR TRES W  DIS CAZ7
 BAR2 SZ IP        6 7 49.63                             147   -0.1210 61.6  64 
 BAR2 SZ ES   1    6 8  2.81                             147    0.25 7 61.6  64 
 BAR2 SZ I         6 8  4.48        75.4 0.27                          61.6  64 
 RUS  HZ EP   1    6 7 51.71                             138    0.00 7 83.1 127 
 RUS  HN ES        6 8  5.90                             138   -0.1410 83.1 127 
 RUS  HZ I         6 8  9.33        22.0 0.54                          83.1 127 
 BRR  HZ EP   1    6 7 50.73                             137   -0.38 7 84.2 358 
 BRR  HN ES   1    6 8  5.05                             137    0.07 7 84.2 358 
 BRR  HZ I         6 8 11.77        22.0 0.09                          84.2 358 
 NOR  SZ EP   1    6 7 57.82                             118   -0.49 7  157 237 
 NOR  SN ES   1    6 8 17.78                             118   -0.01 7  157 237 
 BRI  SZ EP   1    6 8  1.01                             115    0.04 7  180  33 
 BRI  SZ ES   1    6 8 22.92                             115    0.39 7  180  33 
 CHI  HZ EP   1    6 8  1.91                             113   -0.43 7  190 182 
 CHI  HN ES   1    6 8 25.61                             113    0.64 7  190 182 
 CHI  HZ I         6 8 29.40         9.4 0.26                           190 182 
 HEL  HZ EP   1    6 8  4.59                             111    0.59 6  205 265 
 HEL  HN ES   2    6 8 27.75                             111   -0.17 4  205 265 
 HEL  HZ I         6 8 32.19        12.2 0.35                           205 265 
 OCA  SZ EP   1    6 8  4.79                             110    0.15 6  213  11 
 OCA  SZ ES   2    6 8 28.48                             110   -0.58 4  213  11 
 OCA  SZ I         6 8 36.58        18.1 0.35                           213  11 
 RREF HZ EP   2    6 8  9.22                             107    0.39 4  244 229 
 RREF HN ES   2    6 8 36.56                             107    0.05 4  244 229 
 PRA  HZ EP   2    6 8 17.73                             101    0.63 3  320 205 
 PRA  HN ES   2    6 8 51.42                             101    0.18 3  320 205 
 SJA  SZ EP        6 8 19.74                             100    0.05 7  341 185 
 SJA  SZ ES        6 8 55.61                             100   -0.24 7  341 185 
                                                                                
