 2012 1226 0142 33.8 L   6.322 -73.639108.0  RSN  9 0.4 1.8LRSN                1
 GAP=103        0.88       3.7     3.5  7.7 -0.1316E+01  0.1212E+02  0.2628E+01E
 Epicentro: SANTA HELENA DEL OPON - SANTANDER                                  3
 ACTION:UPD 13-01-04 14:30 OP:ep   STATUS:               ID:20121226014233 L   I
 2012-12-26-0140-00M.COL___242                                                 6
 STAT SP IPHASW D HRMM SECON CODA AMPLIT PERI AZIMU VELO AIN AR TRES W  DIS CAZ7
 BAR2 SZ IP        142 50.53                             150    0.0310 58.7  59 
 BAR2 SZ ES   1    143  3.81                             150    0.27 7 58.7  59 
 BAR2 SZ I         143  5.24        48.3 0.40                          58.7  59 
 RUS  HZ EP   1    142 51.79                             142   -0.38 7 77.8 128 
 RUS  HN ES   1    143  6.30                             142   -0.22 7 77.8 128 
 RUS  HZ I         143  8.70        15.3 0.26                          77.8 128 
 BRR  HZ EP        142 52.07                             138   -0.1510 87.2 355 
 BRR  HN ES   1    143  7.14                             138    0.52 7 87.2 355 
 PTB  HZ EP   1    142 51.99                             136   -0.79 7 93.5 285 
 PTB  HN ES   1    143  7.28                             136   -0.32 7 93.5 285 
 GIR2 SZ EP     D  142 53.12                             135   -0.1410 97.1  30 
 GIR2 SZ ES   1    143  8.94                             135    0.49 7 97.1  30 
 GIR2 SZ I         143  9.37         7.6 0.36                          97.1  30 
 ZAR  HZ EP   1    143  2.11                             115   -0.04 7  187 314 
 ZAR  HN ES   1    143 23.61                             115   -0.67 7  187 314 
 ZAR  HZ I         143 30.03         7.5 0.14                           187 314 
 HEL  HZ EP   1    143  5.88                             112    0.72 6  210 266 
 HEL  HN ES   1    143 30.29                             112    0.65 6  210 266 
 HEL  HZ I         143 34.24         4.3 0.22                           210 266 
 OCA  HN ES   1    143 30.18                             111   -0.05 6  215   9 
 OCA  HZ I         143 35.48         9.6 0.50                           215   9 
 RREF HZ EP   1    143 10.54                             108    0.88 6  246 230 
 RREF HN ES   1    143 37.55                             108   -0.10 6  246 230 
 RREF HZ I         143 44.18         6.3 0.28                           246 230 
                                                                                
