 2012  326 0156 12.5 L   7.416 -73.446106.0  RSN  4 0.2 1.2LRSN                1
 GAP=183        0.33      11.0     5.4  7.0  0.3762E+01 -0.7406E+01 -0.4393E+02E
 ACTION:UP  12-03-31 23:22 OP:EP   STATUS:               ID:20120326015612 L   I
 2012-03-26-0150-00M.COL___196                                                 6
 STAT SP IPHASW D HRMM SECON CODA AMPLIT PERI AZIMU VELO SNR AR TRES W  DIS CAZ7
 BRR  HZ EP        156 27.80                             155    -0.110   45 221 
 BRR  HZ I         156 28.14         5.9 0.12                            45 221 
 BRR  HN ES   1    156 39.93                             155     0.0 7   45 221 
 PAM  SZ EP   3    156 31.50                             139     0.4 2   83  96 
 PAM  SE ES   3    156 45.50                             139    -0.1 2   83  96 
 BAR2 SZ EP   3    156 31.87                             135     0.1 2   96 162 
 BAR2 SZ ES   3    156 46.97                             135     0.1 2   96 162 
 ZAR  HZ EP   3    156 37.87                             119     0.4 2  156 273 
 ZAR  HZ I         157  2.06         1.9 0.28                           156 273 
                                                                                
