 2012 1026 0731 31.0 L   6.799 -73.119144.9  RSN  9 0.3 2.1LRSN                1
 GAP=140        0.55       2.9     4.9  4.9  0.3142E+00  0.6410E+01  0.1364E+01E
 Epicentro: LOS SANTOS - SANTANDER                                             3
 ACTION:UPD 12-11-22 17:05 OP:ep   STATUS:               ID:20121026073131 L   I
 2012-10-26-0730-00M.COL___228                                                 6
 STAT SP IPHASW D HRMM SECON CODA AMPLIT PERI AZIMU VELO AIN AR TRES W  DIS CAZ7
 BAR2 SZ EP   1    731 50.39                             170   -0.11 7 23.9 197 
 BAR2 SZ ES   1    732  5.52                             170   -0.22 7 23.9 197 
 BAR2 SZ I         732  6.97        24.2 0.21                          23.9 197 
 GIR2 SZ EP   1    731 50.51                             167   -0.04 7 32.0 345 
 BRR  HZ EP        731 52.31                             151    0.1510 73.9 298 
 BRR  HN ES   2    732  9.43                             151    0.72 5 73.9 298 
 BRR  HN I         732  9.96        49.3 0.35                          73.9 298 
 PAM  SZ EP   1    731 53.37                             151    0.39 7 75.6  38 
 PAM  SN ES   2    732 10.33                             151    0.18 5 75.6  38 
 PAM  SN I         732 11.66        19.0 0.46                          75.6  38 
 RUS  HZ EP   1    731 54.26                             144   -0.34 7  100 178 
 RUS  HN ES   2    732 12.93                             144   -0.12 5  100 178 
 RUS  HN I         732 14.58        10.5 0.32                           100 178 
 OCA  HZ EP   1    731 58.81                             129   -0.44 7  161 352 
 OCA  HN ES   2    732 21.42                             129    0.11 5  161 352 
 OCA  HN I         732 24.30        26.4 0.14                           161 352 
 ZAR  HZ EP   1    732  3.50                             122   -0.13 6  207 292 
 ZAR  HN ES   2    732 28.49                             122   -0.63 4  207 292 
 ZAR  HN I         732 36.37        13.1 0.20                           207 292 
 CHI  HZ EP   1    732  8.68                             117    0.00 6  249 196 
 CHI  HN ES   2    732 38.10                             117    0.00 4  249 196 
 CHI  HN I         732 39.51         6.9 0.62                           249 196 
 PRA  HZ EP   1    732 25.30                             106    0.70 4  393 210 
 PRA  HE ES   2    733  7.05                             106    0.60 3  393 210 
 PRA  HN I         733 12.10         2.4 0.32                           393 210 
                                                                                
