 2013  226 0741 16.5 L   6.785 -73.159147.9  RSN  5 0.3 1.5LRSN                1
 GAP=136        0.86       4.8     4.5  7.5 -0.2278E+01  0.2089E+01  0.5200E+01E
 Epicentro: LOS SANTOS - SANTANDER                                             3
 ACTION:UPD 13-03-12 09:35 OP:ep   STATUS:               ID:20130226074116 L   I
 2013-02-26-0738-49M.COL___194                                                 6
 STAT SP IPHASW D HRMM SECON CODA AMPLIT PERI AZIMU VELO AIN AR TRES W  DIS CAZ7
 BAR2 SZ EP        741 36.30                             171    0.0010 21.4 187 
 BAR2 SZ I         741 36.58         6.9 0.30            170           21.4 187 
 BRR  HZ EP        741 38.04                             153    0.2410 70.7 300 
 BRR  HN ES        741 55.03                             153    0.5710 70.7 300 
 BRR  HN I         741 58.19         5.8 0.16            152           70.7 300 
 PAM  SZ EP        741 39.17                             150    0.1410 79.7  40 
 PAM  SN ES        741 56.15                             150   -0.4910 79.7  40 
 RUS  HZ EP        741 40.41                             145    0.1110 99.0 175 
 RUS  HN ES        741 58.96                             145    0.0610 99.0 175 
 RUS  HN I         742  0.50         3.2 0.32            147           99.0 175 
 PTB  HZ EP        741 43.20                             133   -0.23 9  146 259 
 PTB  HN ES        742  3.98                             133   -0.49 9  146 259 
 PTB  HN I         742  9.39         4.6 0.22            133            146 259 
                                                                                
