 2010  326 0654  2.9 L   6.919 -73.464103.2  RSN  4 0.3 1.6LRSN                1
 GAP=133        0.64       4.1     7.0  6.4  0.5428E+01 -0.1121E+01 -0.9286E+01E
 Epicentro: SAN VICENTE DE CHUCURI - SANTANDER                                 3
 ACTION:UP  10-08-24 09:56 OP:vdl  STATUS:               ID:20100326065402 L   I
 2010-03-26-0640-00S.COL___097                                                 6
 STAT SP IPHASW D HRMM SECON CODA AMPLIT PERI AZIMU VELO SNR AR TRES W  DIS CAZ7
 BRR  HZ IP        654 17.13                             160    -0.410   34 307 
 BRR  HE ES   1    654 29.07                             160     0.2 7   34 307 
 BRR  HZ I         654 29.82        15.4 0.12                            34 307 
 BAR2 SZ IP        654 18.66                             153     0.210   48 139 
 BAR2 SZ ES   1    654 30.56                             153    -0.1 7   48 139 
 OCA  SZ IP        654 26.86                             120     0.0 9  147   6 
 OCA  SZ ES   1    654 45.88                             120     0.3 7  147   6 
 HEL  HZ EP   2    654 38.39                             107     0.5 4  242 251 
 HEL  HZ I         655  8.03         2.4 0.19                           242 251 
                                                                                
