 2014 1226 0043 43.2 L   6.750 -73.145144.7  RSN  5 0.4 1.0LRSN                1
 GAP=139        0.97       5.3     5.4  9.4 -0.9681E+01  0.4920E+01  0.8734E+01E
 Epicentro: LOS SANTOS - SANTANDER                                             3
 ACTION:UPD 15-02-10 17:07 OP:nd   STATUS:               ID:20141226004343 L   I
 OLDACT:REG 14-12-26 12:24 OP:mh   STATUS:               ID:20141226003751     3
 2014-12-26-0037-51M.COL___283                                                 6
 STAT SP IPHASW D HRMM SECON CODA AMPLIT PERI AZIMU VELO AIN AR TRES W  DIS CAZ7
 BRR  HZ EP        044  4.57                             151    0.1510 74.1 302 
 BRR  HN ES        044 21.62                             151    0.6610 74.1 302 
 BRR  HZ I         044 22.63         2.1 0.23            153           74.1 302 
 PAM  SZ EP   1    044  5.56                             149   -0.03 7 81.7  37 
 PAM  SN ES        044 22.63                             149   -0.4010 81.7  37 
 PAM  SZ I         044 24.86         1.5 0.56            151           81.7  37 
 RUS  HZ EP   1    044  6.51                             145    0.04 7 95.0 176 
 RUS  HN ES   1    044 24.77                             145    0.16 7 95.0 176 
 RUS  HZ I         044 26.12         1.6 0.36            147           95.0 176 
 PTB  HZ EP        044 10.19                             132    0.17 9  147 261 
 PTB  HN ES        044 30.16                             132   -0.77 9  147 261 
 PTB  HZ I         044 31.31         1.9 0.12            134            147 261 
 SPBC HN ES        044 33.11                             130    0.02 9  159 220 
                                                                                
