 2011  226 0916 46.5 L   6.812 -73.234138.0  RSN  5 0.3 1.4LRSN                1
 GAP=164        0.60       3.7    17.8  7.1 -0.2528E+02  0.3480E+02 -0.2005E+01E
 Epicentro: ZAPATOCA - SANTANDER                                               3
 ACTION:UP  11-03-28 15:11 OP:jfem STATUS:               ID:20110226091646 L   I
 2011-02-26-0912-04S.COL___136                                                 6
 STAT SP IPHASW D HRMM SECON CODA AMPLIT PERI AZIMU VELO SNR AR TRES W  DIS CAZ7
 BAR2 SZ EP        917  5.33                             169     0.110   25 167 
 BAR2 SZ I         917  5.71         8.5 0.04                            25 167 
 BAR2 SZ ES   1    917 19.84                             169     0.0 7   25 167 
 RUS  HZ EP        917  9.42                             142    -0.210  103 171 
 RUS  HE ES   2    917 27.60                             142    -0.1 5  103 171 
 RUS  HZ I         917 30.43         4.0 0.29                           103 171 
 GRA  SZ EP   2    917 11.87                             135     0.7 5  128  22 
 GRA  SZ ES   2    917 30.50                             135     0.0 5  128  22 
 GRA  SZ I         917 31.87         2.9 0.20                           128  22 
 OCA  SZ EP   2    917 13.82                             128    -0.2 5  158 357 
 OCA  SZ ES   2    917 35.11                             128    -0.3 5  158 357 
 CHI  HZ EP   2    917 23.16                             116    -0.5 4  248 193 
 CHI  HE ES   2    917 53.34                             116     0.7 4  248 193 
 CHI  HZ I         918  3.80         2.1 0.47                           248 193 
                                                                                
