 2016  426 0053 25.6 L   6.799 -73.168138.1  RSN  7 0.4 1.7LRSN                1
 GAP=134        0.62       3.8     3.6  5.0 -0.7131E+01  0.6222E+01 -0.6204E+00E
 Epicentro: LOS SANTOS - SANTANDER                                             3
 ACTION:UPD 16-05-05 14:24 OP:rebc STATUS:               ID:20160426005325 L   I
 OLDACT:REG 16-04-26 12:26 OP:dnl  STATUS:               ID:20160426004749     3
 2016-04-26-0047-49M.COL___314                                                 6
 STAT SP IPHASW D HRMM SECON CODA AMPLIT PERI AZIMU VELO AIN AR TRES W  DIS CAZ7
 BAR2 EZ EP   2    053 44.13                             170   -0.17 5 22.9 184 
 BAR2 EZ ES        053 58.84                             170   -0.0410 22.9 184 
 BAR2 EZ I         054  0.65        18.0 0.20            171           22.9 184 
 PAM  EZ EP        053 47.31                             148    0.2010 79.1  41 
 PAM  EN ES        054  4.06                             148    0.1710 79.1  41 
 PAM  EZ I         054  6.58         7.1 0.48            152           79.1  41 
 RUS  HZ EP   2    053 48.37                             142   -0.24 5  101 175 
 RUS  HN ES   2    054  6.96                             142    0.41 5  101 175 
 RUS  HZ I         054  8.78         5.3 0.34            146            101 175 
 PTB  HZ EP        053 51.28                             131   -0.44 9  145 259 
 PTB  HN ES        054 11.77                             131   -0.33 9  145 259 
 PTB  HZ I         054 14.92         6.4 0.22            131            145 259 
 SPBC HZ EP        053 53.46                             127    0.10 9  161 218 
 SPBC HN ES        054 14.92                             127   -0.09 9  161 218 
 SPBC HZ I         054 21.12         9.8 0.22            129            161 218 
 ZAR  HZ EP   3    053 58.24                             121    0.92 2  202 292 
 ZAR  HN ES   2    054 22.45                             121    0.39 4  202 292 
 ZAR  HZ I         054 28.58         6.0 0.34            122            202 292 
 GUY2CHZ EP   2    054  9.48                             111    0.86 4  299 235 
 GUY2CHE ES   2    054 43.06                             111    0.89 4  299 235 
 GUY2CHZ I         054 49.79         2.6 0.40                           299 235 
                                                                                
