 2013  126 0153 16.4 L   6.715 -73.183145.4  RSN  5 0.4 1.5LRSN                1
 GAP=227        0.98       7.1     7.2  7.1  0.2550E+02  0.9078E+01  0.1171E+02E
 Epicentro: VILLANUEVA - SANTANDER                                             3
 ACTION:UPD 13-02-15 09:16 OP:ep   STATUS:               ID:20130126015316 L   I
 2013-01-26-0148-50M.COL___183                                                 6
 STAT SP IPHASW D HRMM SECON CODA AMPLIT PERI AZIMU VELO AIN AR TRES W  DIS CAZ7
 BAR2 SZ EP        153 35.62                             174   -0.1710 13.6 180 
 BAR2 SZ ES        153 50.76                             174   -0.1910 13.6 180 
 BAR2 SZ I         153 53.07         5.3 0.26            175           13.6 180 
 BRR  HZ EP        153 37.44                             152   -0.1210 72.8 307 
 BRR  HN ES        153 54.71                             152    0.6110 72.8 307 
 BRR  HN I         153 55.21         8.1 0.28            153           72.8 307 
 RUS  HZ EP        153 39.52                             146    0.0710 91.6 173 
 RUS  HN ES        153 57.32                             146   -0.1410 91.6 173 
 PTB  HZ EP        153 42.25                             133   -0.55 9  142 262 
 PTB  HN ES        154  3.29                             133   -0.12 9  142 262 
 CHI  HZ EP        153 53.77                             118    0.82 8  239 195 
                                                                                
