 2017  526 0934  8.4 L   6.615 -73.273145.4  RSN  4 0.4 1.2LRSN                1
 GAP=207        1.12       8.7     8.7  9.8  0.4966E+02  0.3634E+01 -0.9997E+01E
 Epicentro: GALAN - SANTANDER                                                  3
 ACTION:UPD 17-06-16 13:38 OP:jn   STATUS:               ID:20170526093408 L   I
 OLDACT:DUP 17-06-02 19:37 OP:nlst STATUS:               ID:20170526093408 L   3
 OLDACT:DUP 17-05-26 17:19 OP:ar   STATUS:               ID:20170526092734d    3
 OLDACT:REG 17-05-26 12:57 OP:ar   STATUS:               ID:20170526092733     3
 2017-05-26-0928-00M.COL___326                                                 6
 STAT SP IPHASW D HRMM SECON CODA AMPLIT PERI AZIMU VELO AIN AR TRES W  DIS CAZ7
 BRR  HZ EP        934 30.26                             152    0.6510 72.9 318 
 BRR  HN ES        934 45.77                             152   -0.3810 72.9 318 
 RUS  HZ EP        934 30.60                             149   -0.3110 82.6 165 
 RUS  HN ES        934 48.65                             149    0.1910 82.6 165 
 RUS  HZ I         934 49.82         1.5 0.28            146           82.6 165 
 PTB  HZ EP        934 33.17                             136   -0.7110  131 266 
 PTB  HN ES        934 54.12                             136    0.3710  131 266 
 PTB  HZ I         935  1.48         3.2 0.56            130            131 266 
 ZAR  HZ EP        934 40.83                             123    0.40 9  200 299 
 ZAR  HN ES        935  5.23                             123   -0.18 9  200 299 
 ZAR  HZ I         935 10.39         2.2 0.28            121            200 299 
                                                                                
