 2013  226 0208 38.7 L   6.806 -73.149145.0  RSN  7 0.3 1.9LRSN                1
 GAP=102        0.86       4.4     3.9  5.4 -0.1437E+01 -0.1315E+01  0.5057E+01E
 Epicentro: LOS SANTOS - SANTANDER                                             3
 ACTION:UPD 13-03-12 09:35 OP:ep   STATUS:               ID:20130226020838 L   I
 2013-02-26-0158-44M.COL___194                                                 6
 STAT SP IPHASW D HRMM SECON CODA AMPLIT PERI AZIMU VELO AIN AR TRES W  DIS CAZ7
 BAR2 SZ EP        2 8 58.16                             170   -0.0610 23.9 189 
 BAR2 SZ ES        2 9 13.18                             170   -0.2910 23.9 189 
 BAR2 SZ I         2 9 16.01        12.6 0.42            159           23.9 189 
 BRR  HZ EP        2 9  0.05                             153    0.3510 70.5 298 
 BRR  HN ES        2 9 16.65                             153    0.5510 70.5 298 
 BRR  HN I         2 9 19.85        21.9 0.16            147           70.5 298 
 PAM  SZ EP        2 9  0.85                             151    0.0610 77.1  40 
 PAM  SN ES        2 9 17.73                             151   -0.3110 77.1  40 
 RUS  HZ EP        2 9  2.58                             143    0.1810  101 176 
 RUS  HN ES        2 9 21.01                             143    0.1110  101 176 
 RUS  HN I         2 9 22.48        12.0 0.30            132            101 176 
 PTB  HZ EP        2 9  4.82                             132   -0.73 9  147 259 
 PTB  HN ES        2 9 26.35                             132   -0.16 9  147 259 
 PTB  HN I         2 9 27.20        13.0 0.26            123            147 259 
 TAM  HZ IP     D  2 9  6.41                             130    0.07 9  156 105 
 CHI  HZ EP        2 9 16.58                             117    0.19 8  249 195 
 CHI  HN I         2 9 51.27         4.6 0.28            109            249 195 
                                                                                
