 2015  226 0532 38.8 L   7.395 -73.215130.6  RSN  7 0.4 1.8LRSN                1
 GAP=103        0.95       4.3     3.3  7.1  0.2021E+01  0.4240E+01  0.2500E+01E
 Epicentro: EL PLAYON - SANTANDER                                              3
 ACTION:UPD 15-04-30 21:29 OP:nd   STATUS:               ID:20150226053238 L   I
 OLDACT:REG 15-02-26 12:43 OP:mher STATUS:               ID:20150226052738     3
 2015-02-26-0527-38M.COL___299                                                 6
 STAT SP IPHASW D HRMM SECON CODA AMPLIT PERI AZIMU VELO AIN AR TRES W  DIS CAZ7
 PAM  SZ EP        532 58.50                             155    0.2310 57.2  96 
 PAM  SN ES        533 13.44                             155    0.0010 57.2  96 
 PAM  SZ I         533 15.10         8.6 0.38            158           57.2  96 
 BAR2 EZ EP   1    533  0.13                             144    0.25 7 88.9 178 
 BAR2 EZ ES        533 16.51                             144    0.2110 88.9 178 
 BAR2 EZ I         533 17.97        13.8 0.24            144           88.9 178 
 OCA  HZ EP        533  0.13                             142   -0.0110 94.0 353 
 OCA  HN ES   1    533 16.21                             142   -0.55 7 94.0 353 
 OCA  HZ I         533 17.68        10.5 0.30            145           94.0 353 
 PTB  HZ EP        533  5.76                             125   -0.69 9  167 235 
 PTB  HN ES        533 27.43                             125   -0.57 9  167 235 
 PTB  HZ I         533 32.99         5.1 0.20            125            167 235 
 ZAR  HZ EP   1    533  8.11                             122    0.14 7  182 273 
 ZAR  HN ES        533 31.56                             122    0.85 9  182 273 
 ZAR  HZ I         533 34.36         7.6 0.50            123            182 273 
 SML  HZ EP   9    533  5.98                             122   -2.00 0  182 329 
 SML  HN ES   1    533 28.57                                   -0.15 7  182 329 
 SML  HZ I         533 29.74        21.3 0.05            124            182 329 
 TAM  HZ EP        533  9.07                             121    0.21 9  190 124 
 TAM  HN ES        533 32.12                             121   -0.17 9  190 124 
 TAM  HZ I         533 34.72         5.5 0.30            123            190 124 
                                                                                
