 2017  526 0234  1.2 L   5.896 -73.842118.4  RSN  6 0.4 1.4LRSN                1
 GAP=133        1.04       4.7     4.2  8.3  0.9052E+00  0.2814E+01 -0.1157E+02E
 Epicentro: SUCRE - SANTANDER                                                  3
 ACTION:UPD 17-06-16 13:38 OP:jn   STATUS:               ID:20170526023401 L   I
 OLDACT:UP  17-06-02 17:18 OP:nlst STATUS:               ID:20170526023401 L   3
 OLDACT:REG 17-05-26 12:42 OP:ar   STATUS:               ID:20170526022739     3
 2017-05-26-0228-00M.COL___344                                                 6
 STAT SP IPHASW D HRMM SECON CODA AMPLIT PERI AZIMU VELO AIN AR TRES W  DIS CAZ7
 SPBC HN ES        234 30.73                             161   -0.0010 37.1 223 
 RUS  HZ EP        234 20.90                             142   -0.2110 84.0  90 
 RUS  HN ES        234 36.38                             142   -0.2210 84.0  90 
 PTB  HZ EP        234 21.18                             137   -0.3910 98.4 316 
 PTB  HN ES        234 37.13                             137   -0.2910 98.4 316 
 PTB  HZ I         234 38.38         3.2 0.20            138           98.4 316 
 NOR  HZ EP        234 23.86                             131    0.3910  120 252 
 NOR  HN ES   1    234 41.21                             131    0.40 7  120 252 
 NOR  HZ I         234 44.52         6.6 0.18            133            120 252 
 BRR  HZ EP        234 25.00                             128    0.1810  135   6 
 BRR  HN ES        234 44.06                             128    0.8610  135   6 
 BRR  HZ I         234 48.22         3.2 0.12            129            135   6 
 ZAR  HN ES        234 56.53                             115   -0.58 8  209 328 
                                                                                
