 2016  926 0502 38.7 L   6.792 -73.156149.7  RSN 15 0.4 2.2LRSN                1
 GAP=119        0.91       3.3     3.2  4.7 -0.1908E+00  0.3207E+01  0.1965E+01E
 Epicentro: LOS SANTOS - SANTANDER                                             3
 ACTION:UPD 17-08-17 21:16 OP:lp   STATUS:               ID:20160926050238 L   I
 OLDACT:UP  16-09-26 17:06 OP:dani STATUS:               ID:20160926045643     3
 OLDACT:UP  16-09-26 17:04 OP:dani STATUS:               ID:20160926045643     3
 OLDACT:REG 16-09-26 13:04 OP:dani STATUS:               ID:20160926045643     3
 2016-09-26-0457-00M.COL___327                                                 6
 STAT SP IPHASW D HRMM SECON CODA AMPLIT PERI AZIMU VELO AIN AR TRES W  DIS CAZ7
 BAR2 EZ EP     C  5 2 58.71                             171   -0.0310 22.3 187 
 BAR2 EZ ES        5 3 14.21                             171   -0.1910 22.3 187 
 BAR2 EZ I         5 3 16.52        34.8 0.22            171           22.3 187 
 BRR  HZ EP     C  5 3  0.49                             153    0.2910 70.6 300 
 BRR  HN ES        5 3 17.58                             153    0.5810 70.6 300 
 BRR  HZ I         5 3 20.86        22.1 0.26            138           70.6 300 
 PAM  EZ EP        5 3  1.69                             151    0.3110 78.8  40 
 PAM  EE ES        5 3 18.75                             151   -0.3410 78.8  40 
 PAM  EZ I         5 3 21.18        24.3 0.72            138           78.8  40 
 RUS  HZ EP        5 3  2.65                             145   -0.0910 99.8 175 
 RUS  HN ES        5 3 21.76                             145    0.2310 99.8 175 
 RUS  HZ I         5 3 22.47        18.4 0.26            137           99.8 175 
 PTB  HZ EP        5 3  5.21                             133   -0.62 9  146 259 
 PTB  HE ES        5 3 26.48                             133   -0.55 9  146 259 
 PTB  HZ I         5 3 28.05        19.4 0.44            119            146 259 
 SPBC HZ EP        5 3  7.49                             130    0.16 9  162 219 
 SPBC HN ES        5 3 29.91                             130    0.22 9  162 219 
 SPBC HZ I         5 3 36.00        32.9 0.22            118            162 219 
 ZAR  HZ EP        5 3 11.03                             123   -0.26 9  203 292 
 ZAR  HE ES        5 3 36.36                             123   -0.37 9  203 292 
 ZAR  HZ I         5 3 47.21        15.6 0.27            110            203 292 
 NOR  HZ EP        5 3 14.83                             119    0.36 8  233 234 
 NOR  HZ I         5 3 47.40        13.8 0.20            108            233 234 
 CHI  HZ EP        5 3 16.33                             118   -0.13 8  247 195 
 CHI  HN ES   2    5 3 46.85                             118    0.92 4  247 195 
 CHI  HZ I         5 3 48.58        10.0 0.39            108            247 195 
 ROSC BZ EP   4    5 3 18.60                             118    1.75 0  251 211 
 ROSC BN ES   4    5 3 50.91                             118    4.27 0  251 211 
 ROSC BZ I         5 3 55.00        14.7 0.31            107            251 211 
 HEL  HZ EP   4    5 3 20.73                             116    1.80 0  271 256 
 HEL  HN ES        5 3 50.36                             116    0.03 8  271 256 
 HEL  HZ I         5 3 58.50         7.4 0.39            104            271 256 
 GUY2CHZ EP   4    5 3 24.12                             113    1.83 0  300 235 
 GUY2CHZ I         5 4  4.06         7.6 0.28                           300 235 
 PTGC HZ EP        5 3 21.97                             112   -0.68 7  308 158 
 PTGC HN ES   4    5 3 55.49                             112   -1.47 0  308 158 
 PTGC HZ I         5 4  0.10         9.8 0.25            103            308 158 
 CBOC HZ EP   4    5 3 26.98                             111    1.40 0  332 252 
 CBOC HE ES        5 4  2.41                             111    0.23 7  332 252 
 CBOC HZ I         5 4 20.07         3.1 0.52            100            332 252 
 ARGC HZ EP        5 3 29.34                             109    0.82 6  360 341 
 ARGC HZ I         5 4 19.22         3.1 0.22             98            360 341 
                                                                                
