 2013  226 0322 13.4 L   6.730 -73.158148.0  RSN  5 0.4 1.4LRSN                1
 GAP=138        1.02       7.0     9.3 10.3  0.2463E+02 -0.1687E+02 -0.1335E+02E
 Epicentro: VILLANUEVA - SANTANDER                                             3
 ACTION:UPD 13-03-12 09:35 OP:ep   STATUS:               ID:20130226032213 L   I
 2013-02-26-0318-51M.COL___194                                                 6
 STAT SP IPHASW D HRMM SECON CODA AMPLIT PERI AZIMU VELO AIN AR TRES W  DIS CAZ7
 BAR2 SZ EP        322 33.01                             174   -0.2010 15.5 190 
 BRR  HZ EP        322 35.62                             152    0.6310 74.1 304 
 BRR  HN ES        322 51.83                             152    0.0310 74.1 304 
 BRR  HN I         322 55.44        10.8 0.14             47           74.1 304 
 PAM  SZ EP        322 36.00                             149   -0.3110 84.3  37 
 RUS  HZ EP        322 37.37                             146    0.4810 93.0 175 
 RUS  HN ES        322 55.02                             146   -0.1510 93.0 175 
 RUS  HN I         322 57.27         1.7 0.34             47           93.0 175 
 PTB  HZ EP        322 39.82                             133   -0.54 9  145 262 
 PTB  HN I         323  5.93         3.4 0.26             37            145 262 
                                                                                
