 2011  926 0504 20.0 L   6.808 -73.049146.2  RSN  6 0.4 2.1LRSN                1
 GAP=221        0.78       4.8     7.5  7.3  0.5341E+00  0.7808E+01  0.5371E+01E
 Epicentro: LOS SANTOS - SANTANDER                                             3
 ACTION:UPD 12-07-13 15:59 OP:ep   STATUS:               ID:20110926050420 L   I
 2011-09-26-0503-30S.COL___165                                                 6
 STAT SP IPHASW D HRMM SECON CODA AMPLIT PERI AZIMU VELO AIN AR TRES W  DIS CAZ7
 BAR2 SZ EP        5 4 39.85                             169    0.1010 28.0 212 
 BAR2 SZ ES   1    5 4 54.69                             169   -0.50 7 28.0 212 
 BAR2 SZ I         5 4 57.98        12.3 0.32                          28.0 212 
 BRR  HZ EP   1    5 4 41.75                             150    0.05 7 80.3 294 
 BRR  HZ I         5 4 43.45        18.6 0.13                          80.3 294 
 BRR  HN ES   1    5 4 59.06                             150    0.40 7 80.3 294 
 OCA  SZ EP   1    5 4 47.81                             129   -0.57 7  161 349 
 OCA  SZ ES   1    5 5 11.15                             129    0.61 7  161 349 
 OCA  SZ I         5 5 15.50        13.0 0.36                           161 349 
 ZAR  HN ES   1    5 5 18.93                             121   -0.61 6  214 291 
 HEL  HZ EP   1    5 5  1.59                             114    0.22 6  283 256 
 HEL  HZ I         5 5 39.67         4.6 0.22                           283 256 
 PRA  HZ EP   1    5 5 14.02                             106   -0.20 4  398 211 
 PRA  HZ I         5 5 15.61        10.5 0.14                           398 211 
 PRA  HN ES   1    5 5 57.20                             106    0.66 4  398 211 
                                                                                
