 2015  826 0023 11.1 L   6.843 -73.104144.4  RSN 17 0.6 2.1LRSN                1
 GAP=140        1.30       3.3     5.2  6.6  0.1592E+01  0.1260E+02  0.3844E+01E
 Epicentro: LOS SANTOS - SANTANDER                                             3
 ACTION:UPD 15-09-15 23:05 OP:cam  STATUS:               ID:20150826002311 L   I
 OLDACT:UP  15-09-01 11:27 OP:ar   STATUS:               ID:20150826002311 L   3
 OLDACT:UP  15-08-26 16:56 OP:ak   STATUS:               ID:20150826001748     3
 OLDACT:REG 15-08-26 12:52 OP:ak   STATUS:               ID:20150826001748     3
 2015-08-26-0017-48M.COL___355                                                 6
 STAT SP IPHASW D HRMM SECON CODA AMPLIT PERI AZIMU VELO AIN AR TRES W  DIS CAZ7
 BAR2 EZ EP     C  023 31.33                             168    0.6210 29.0 197 
 BAR2 EZ ES        023 45.98                             168   -0.0210 29.0 197 
 BAR2 EZ I         023 48.30        21.3 0.30            168           29.0 197 
 PAM  EZ EP   9    023 34.38                             153    1.57 0 70.8  39 
 PAM  EN ES   1    023 51.20                             152   -0.10 7 70.8  39 
 PAM  EZ I         023 54.06        22.5 0.62            155           70.8  39 
 BRR  HZ EP        023 33.20                             152    0.9610 73.2 294 
 BRR  HN ES        023 50.02                             152    1.3110 73.2 294 
 BRR  HZ I         023 54.25                             148           73.2 294 
 RUS  HZ EP        023 35.36                             142    0.2910  105 179 
 RUS  HN ES        023 52.79                             142   -0.9610  105 179 
 RUS  HZ I         023 54.54        10.3 0.31            146            105 179 
 OCA  HZ EP   2    023 39.11                             130    0.17 5  156 351 
 OCA  HN ES        023 59.62                             130   -1.02 9  156 351 
 OCA  HZ I         024  3.67        28.8 0.22            131            156 351 
 SPBC HZ EP        023 40.25                             128    0.11 9  170 219 
 SPBC HN ES        024  2.35                             128   -0.42 9  170 219 
 SPBC HZ I         024  5.84        15.8 0.10            129            170 219 
 ZAR  HZ EP   4    023 44.67                             122    0.93 0  207 290 
 ZAR  HN ES        024  9.35                             122    0.17 8  207 290 
 ZAR  HZ I         024 18.48        15.7 0.25            122            207 290 
 SML  HZ EP   1    023 46.71                             117   -0.71 6  241 334 
 SML  HN ES        024 14.99                             117   -0.74 8  241 334 
 SML  HZ I         024 25.30        12.9 0.06            118            241 334 
 NOR  HZ EP        023 47.90                             117    0.44 8  241 234 
 NOR  HN ES        024 15.79                             117   -0.02 8  241 234 
 NOR  HZ I         024 17.35        12.5 0.20            119            241 234 
 CHI  HZ EP        023 48.95                             116   -0.42 8  254 196 
 CHI  HN ES        024 18.67                             116   -0.53 8  254 196 
 CHI  HZ I         024 23.01         3.0 0.24            119            254 196 
 HEL  HZ EP   1    023 51.83                             114   -0.05 6  278 255 
 HEL  HN ES        024 23.45                             114   -0.23 7  278 255 
 HEL  HZ I         024 30.36        10.9 0.28            115            278 255 
 URE  HZ EP   4    023 55.51                             113    3.10 0  286 291 
 URE  HN ES        024 24.29                             113   -0.32 7  286 291 
 URE  HZ I         024 37.17         8.9 0.22            114            286 291 
 GUY2CHZ EP        023 55.38                             112   -0.01 7  308 235 
 GUY2CHN ES        024 29.97                             112    0.04 7  308 235 
 GUY2CHZ I         024 38.77         5.5 0.49                           308 235 
 CBOC HZ EP        023 59.29                             109    0.65 7  339 252 
 CBOC HN ES        024 35.65                             109   -0.06 7  339 252 
 CBOC HZ I         024 39.15         3.8 0.28            110            339 252 
 DBB  SZ EP        023 59.23                             109    0.20 7  344 273 
 DBB  SZ ES        024 35.37                             109   -1.03 7  344 273 
 TOL  SZ EP   1    024  0.61                             109    0.54 5  350 225 
 TOL  SN ES        024 38.39                             109    0.13 6  350 225 
 TOL  SZ I         024 46.49         4.5 0.48            110            350 225 
 PRA  HZ EP        024  5.60                             106    0.27 6  398 210 
 PRA  HE ES        024 47.36                             106   -0.26 6  398 210 
 PRA  HZ I         024 55.03         3.7 0.37            108            398 210 
                                                                                
