 2012  926 0912 27.7 L   6.775 -73.143141.0  RSN 10 0.3 2.1LRSN                1
 GAP= 72        0.65       3.2     3.3  4.6  0.6801E+00  0.1386E+01  0.3991E+01E
 Epicentro: LOS SANTOS - SANTANDER                                             3
 ACTION:UPD 12-10-22 14:20 OP:ep   STATUS:               ID:20120926091227 L   I
 2012-09-26-0910-00M.COL___217                                                 6
 STAT SP IPHASW D HRMM SECON CODA AMPLIT PERI AZIMU VELO AIN AR TRES W  DIS CAZ7
 BAR2 SZ EP   1    912 46.59                             171   -0.07 7 20.6 192 
 BAR2 SZ ES   1    913  1.21                             171   -0.28 7 20.6 192 
 BAR2 SZ I         913  2.85        51.4 0.18                          20.6 192 
 GIR2 SZ EP   1    912 46.63                             166   -0.21 7 34.1 351 
 GIR2 SZ ES   1    913  1.57                             166   -0.24 7 34.1 351 
 BRR  HZ EP   1    912 48.42                             151    0.03 7 72.9 300 
 BRR  HN ES   1    913  5.24                             151    0.68 7 72.9 300 
 BRR  HN I         913  7.04        29.1 0.19                          72.9 300 
 PAM  SZ EP   1    912 49.50                             149    0.01 7 79.4  38 
 PAM  SZ I         912 49.74        29.4 0.22                          79.4  38 
 PAM  SE ES   1    913  6.54                             149    0.02 7 79.4  38 
 RUS  HZ EP   1    912 50.51                             144   -0.22 7 97.8 176 
 RUS  HN ES   1    913  9.05                             144    0.31 7 97.8 176 
 RUS  HZ I         913 10.43        12.1 0.34                          97.8 176 
 PTB  HN ES   1    913 14.35                             131   -0.59 7  148 260 
 PTB  HN I         913 19.91         7.4 0.17                           148 260 
 TAM  HZ EP   1    912 54.89                             130    0.03 7  154 104 
 TAM  HZ I         912 55.04         9.2 0.18                           154 104 
 ZAR  HZ EP   1    913  0.53                             121    0.59 6  205 293 
 ZAR  HN ES   1    913 25.02                             121   -0.10 6  205 293 
 ZAR  HZ I         913 31.29        11.1 0.28                           205 293 
 CHI  HZ EP   1    913  4.86                             116    0.05 6  246 195 
 CHI  HN ES   1    913 34.23                             116    0.44 6  246 195 
 CHI  HN I         913 40.65         6.8 0.42                           246 195 
 PRA  HZ EP   1    913 20.14                             106   -0.61 4  390 210 
 PRA  HN I         914  8.39         4.9 0.26                           390 210 
                                                                                
