 2016  926 0045  9.1 L   6.813 -73.152142.8  RSN 20 0.5 2.5LRSN                1
 GAP= 70        1.10       3.0     3.0  5.1 -0.9448E+00  0.4378E+01  0.2122E+01E
 Epicentro: LOS SANTOS - SANTANDER                                             3
 ACTION:UPD 17-08-17 21:16 OP:lp   STATUS:               ID:20160926004509 L   I
 OLDACT:UP  16-09-26 14:07 OP:dani STATUS:               ID:20160926003741     3
 OLDACT:UP  16-09-26 14:06 OP:dani STATUS:               ID:20160926003741     3
 OLDACT:UP  16-09-26 14:06 OP:dani STATUS:               ID:20160926003741     3
 OLDACT:UP  16-09-26 14:05 OP:dani STATUS:               ID:20160926003741     3
 OLDACT:REG 16-09-26 12:36 OP:dani STATUS:               ID:20160926003741     3
 2016-09-26-0038-00M.COL___327                                                 6
 STAT SP IPHASW D HRMM SECON CODA AMPLIT PERI AZIMU VELO AIN AR TRES W  DIS CAZ7
 BAR2 EZ EP     C  045 28.33                             170   -0.0410 24.7 188 
 BAR2 EZ ES        045 43.10                             170   -0.3310 24.7 188 
 BAR2 EZ I         045 47.04        61.3 0.18            169           24.7 188 
 BRR  HZ IP     C  045 30.12                             152    0.2910 69.9 298 
 BRR  HN ES        045 47.10                             152    1.0910 69.9 298 
 BRR  HZ I         045 49.54        90.7 0.18            151           69.9 298 
 PAM  EZ EP        045 31.07                             151    0.1410 76.7  41 
 PAM  EN ES        045 48.14                             151    0.1610 76.7  41 
 PAM  EZ I         045 48.86        37.3 0.18            154           76.7  41 
 RUS  HZ EP     C  045 32.38                             143   -0.2610  102 176 
 RUS  HN ES        045 51.00                             143   -0.0310  102 176 
 RUS  HZ I         045 52.25        37.5 0.34            145            102 176 
 PTB  HZ EP        045 35.15                             131   -0.61 9  147 258 
 PTB  HN ES        045 56.08                             131   -0.50 9  147 258 
 PTB  HZ I         045 59.42        47.6 0.60            132            147 258 
 TAM  HZ EP        045 36.75                             130    0.13 9  156 105 
 TAM  HN ES        045 58.42                             130    0.32 9  156 105 
 TAM  HZ I         046  0.66        25.9 0.31            133            156 105 
 OCA  HZ EP        045 36.41                             129   -0.60 9  159 353 
 OCA  HN ES        045 57.89                             129   -0.91 9  159 353 
 OCA  HZ I         046  2.90        88.0 0.58            131            159 353 
 SPBC HZ EP        045 37.33                             128   -0.08 9  164 218 
 SPBC HN ES        045 59.62                             128    0.10 9  164 218 
 SPBC HZ I         046  5.22        40.0 0.24            129            164 218 
 ZAR  HZ EP        045 40.95                             122   -0.25 9  203 292 
 ZAR  HE ES        046  6.59                             122    0.33 9  203 292 
 ZAR  HZ I         046 12.09        62.2 0.66            123            203 292 
 NOR  HZ EP        045 44.77                             118    0.11 8  235 234 
 NOR  HE ES        046 12.62                             118    0.20 8  235 234 
 NOR  HZ I         046 16.10        25.4 0.40            119            235 234 
 CHI  HZ EP        045 47.06                             116    0.32 8  250 195 
 CHI  HE ES        046 15.47                             116   -0.65 8  250 195 
 CHI  HZ I         046 23.75        13.3 0.41            118            250 195 
 ROSC BZ EP   4    045 48.81                             116    1.68 0  254 211 
 HEL  HZ EP        045 48.89                             114   -0.21 8  272 255 
 HEL  HN ES        046 20.33                             114    0.01 8  272 255 
 HEL  HZ I         046 26.61        23.2 0.34            115            272 255 
 URE  HZ EP   4    045 48.10                             113   -1.76 0  283 292 
 URE  HE ES   4    046 18.63                             113   -3.05 0  283 292 
 URE  HZ I         046 31.18        38.8 0.22            114            283 292 
 GUY2CHZ EP        045 52.89                             112    0.31 7  301 234 
 GUY2CHN ES   4    046 28.17                             112    1.66 0  301 234 
 GUY2CHZ I         046 35.15        14.5 0.26                           301 234 
 PTGC HZ EP   4    045 51.72                             111   -1.26 0  310 159 
 PTGC HE ES   4    046 24.29                             111   -2.94 0  310 159 
 PTGC HZ I         046 27.71        20.3 0.45            113            310 159 
 ELA  HZ EP   4    045 57.36                             110    1.51 0  330 229 
 CBOC HZ EP        045 57.05                             109    1.21 7  333 252 
 DBB  HZ EP        045 57.01                             109    0.67 7  339 274 
 ANIL HE ES        046 37.21                             108   -0.43 6  358 224 
 PAL  HZ EP        046  4.33                             105    0.18 6  406 239 
 SJC  HZ EP   4    046  2.59                             105   -1.76 0  408 327 
 SJC  HE ES   4    046 43.54                             105   -3.92 0  408 327 
 SJC  HZ I         046 52.18         6.2 0.28            107            408 327 
                                                                                
