 2012  526 0001 43.5 L   6.785 -73.180140.4  RSN  6 0.2 1.7LRSN                1
 GAP=133        0.49       3.3     2.9  6.1  0.3744E+00  0.6607E+01  0.2661E+01E
 Epicentro: LOS SANTOS - SANTANDER                                             3
 ACTION:UP  12-07-05 12:08 OP:pat  STATUS:               ID:20120526000143 L   I
 2012-05-26-0000-00M.COL___198                                                 6
 STAT SP IPHASW D HRMM SECON CODA AMPLIT PERI AZIMU VELO SNR AR TRES W  DIS CAZ7
 BAR2 SZ EP   2    0 2  2.09                             171    -0.3 5   21 181 
 BAR2 SZ I         0 2 25.84        11.0 0.26                            21 181 
 PAM  SZ EP   1    0 2  5.34                             148     0.0 7   81  41 
 PAM  SN ES   1    0 2 22.42                             148     0.0 7   81  41 
 RUS  HZ EP        0 2  6.86                             143     0.310   99 174 
 RUS  HN ES   1    0 2 24.43                             143    -0.2 7   99 174 
 RUS  HZ I         0 2 27.92         7.6 0.30                            99 174 
 PTB  HZ EP        0 2  9.45                             131    -0.2 9  144 259 
 PTB  HN ES   1    0 2 30.23                             131     0.2 7  144 259 
 PTB  HZ I         0 2 33.04         6.5 0.16                           144 259 
 ZAR  HN ES   1    0 2 40.06                             121     0.0 6  201 293 
 ZAR  HZ I         0 2 47.21         7.7 0.24                           201 293 
 NOR  SZ EP   1    0 2 18.41                             118     0.0 6  231 234 
                                                                                
