 2012  126 0907  6.8 L   6.956 -73.465  9.6  RSN  7 0.3 1.9LRSN                1
 GAP=105        0.92       2.8     2.1  6.8  0.1523E+01  0.4540E+01  0.6510E+00E
 Epicentro: SAN VICENTE DE CHUCURI - SANTANDER                                 3
 ACTION:UP  12-02-03 08:21 OP:REBC STATUS:               ID:20120126090706 L   I
 2012-01-26-0900-00M.COL___188                                                 6
 STAT SP IPHASW D HRMM SECON CODA AMPLIT PERI AZIMU VELO SNR AR TRES W  DIS CAZ7
 BRR  HZ IP     D  9 7 12.11                             101    -0.210   32 302 
 BRR  HZ I         9 7 12.26       212.6 0.12                            32 302 
 BRR  HN ES        9 7 16.39                             101    -0.210   32 302 
 GIR2 SZ IP        9 7 12.77                             101     0.210   33  66 
 GIR2 SZ ES   1    9 7 17.17                             101     0.0 7   33  66 
 BAR2 SZ EP        9 7 15.95                              97     0.510   51 142 
 BAR2 SZ ES        9 7 21.54                              97    -0.610   51 142 
 BAR2 SZ I         9 7 26.65        33.6 0.44                            51 142 
 PAM  SZ EP   1    9 7 22.30                              94     0.1 7   95  63 
 PAM  SN ES   1    9 7 34.00                              94    -0.3 7   95  63 
 PTB  HZ EP        9 7 25.76                              93     0.310  119 247 
 OCA  SZ EP   1    9 7 29.49                              92     0.3 7  143   6 
 OCA  SZ I         9 7 51.89        17.7 0.06                           143   6 
 ZAR  HZ EP   1    9 7 32.38                              56     0.2 7  165 291 
 ZAR  HE ES   1    9 7 51.68                              56    -0.3 7  165 291 
 ZAR  HZ I         9 7 53.48        15.9 0.31                           165 291 
                                                                                
