 2016  726 0501 18.5 L   6.803 -73.197160.8  RSN  5 0.3 1.2LRSN                1
 GAP=232        0.75       6.5     6.5  7.2  0.1950E+02  0.1292E+02 -0.2192E+01E
 Epicentro: ZAPATOCA - SANTANDER                                               3
 ACTION:UPD 17-03-29 16:55 OP:lp   STATUS:               ID:20160726050118 L   I
 OLDACT:UP  16-07-26 17:09 OP:ar   STATUS:               ID:20160726045760d    3
 OLDACT:UP  16-07-26 17:08 OP:ar   STATUS:               ID:20160726045760d    3
 OLDACT:UP  16-07-26 17:08 OP:ar   STATUS:               ID:20160726045760d    3
 OLDACT:DUP 16-07-26 16:56 OP:ar   STATUS:               ID:20160726045760d    3
 OLDACT:UP  16-07-26 16:52 OP:ar   STATUS:               ID:20160726045759     3
 OLDACT:REG 16-07-26 13:40 OP:ar   STATUS:               ID:20160726045759     3
 2016-07-26-0457-59S.COL___334                                                 6
 STAT SP IPHASW D HRMM SECON CODA AMPLIT PERI AZIMU VELO AIN AR TRES W  DIS CAZ7
 BAR2 EZ EP   2    5 1 39.61                             171   -0.30 5 23.3 176 
 BAR2 EZ ES        5 1 56.30                             171   -0.3410 23.3 176 
 BAR2 EZ I         5 1 57.24         2.0 0.38            169           23.3 176 
 BRR  HZ EP        5 1 41.33                             157    0.3210 66.1 301 
 BRR  HZ I         5 1 58.17         6.3 0.38            146           66.1 301 
 BRR  HN ES        5 1 58.61                             157    0.0210 66.1 301 
 RUS  HN ES        5 2  3.91                             146    0.3810  101 173 
 PTB  HZ EP        5 1 45.85                             136   -0.39 9  142 258 
 PTB  HN ES        5 2  7.80                             136   -0.10 9  142 258 
 PTB  HZ I         5 2 10.58         1.3 0.07            130            142 258 
 ZAR  HE ES   2    5 2 17.78                             126    0.67 4  199 293 
                                                                                
