 2011  626 0950 47.3 L   6.747 -73.078150.8  RSN  5 0.3 1.4LRSN                1
 GAP=201        0.62       7.3    10.1  7.0 -0.2540E+02 -0.1701E+02 -0.2076E+01E
 Epicentro: LOS SANTOS - SANTANDER                                             3
 ACTION:UP  11-07-14 19:08 OP:ep   STATUS:               ID:20110626095047 L   I
 2011-06-26-0946-21S.COL___140                                                 6
 STAT SP IPHASW D HRMM SECON CODA AMPLIT PERI AZIMU VELO SNR AR TRES W  DIS CAZ7
 BAR2 SZ EP        951  7.57                             172     0.110   21 214 
 BAR2 SZ ES   2    951 22.76                             172    -0.4 5   21 214 
 BAR2 SZ I         951 25.50         7.9 0.35                            21 214 
 BTL  SZ ES   2    951 24.22                             169     0.7 5   28 312 
 GIR2 SZ EP        951  7.57                             165    -0.210   39 341 
 GIR2 SZ ES   2    951 23.76                             165     0.0 5   39 341 
 BRR  HZ EP        951  9.42                             151    -0.110   81 300 
 BRR  HN ES   2    951 26.78                             151    -0.1 5   81 300 
 BRR  HZ I         951 27.91         4.2 0.08                            81 300 
 GRA  SZ EP        951 13.46                             137     0.210  129  14 
 GRA  SZ ES   2    951 33.10                             137    -0.4 5  129  14 
 GRA  SZ I         951 34.10         3.0 0.38                           129  14 
                                                                                
