 2010 1026 0324 15.3 L   6.780 -73.094145.9  RSN  6 0.2 1.4LRSN                1
 GAP=165        0.41       2.7     4.4  4.9 -0.3898E+01 -0.1992E+01 -0.4124E+00E
 Epicentro: LOS SANTOS - SANTANDER                                             3
 ACTION:UP  11-02-18 11:12 OP:tino STATUS:               ID:20101026032415 L   I
 2010-10-26-0320-47S.COL___125                                                 6
 STAT SP IPHASW D HRMM SECON CODA AMPLIT PERI AZIMU VELO SNR AR TRES W  DIS CAZ7
 BAR2 SZ EP   2    324 34.99                             171     0.0 5   23 205 
 BAR2 SZ ES   2    324 49.99                             171    -0.3 5   23 205 
 BAR2 SZ I         324 51.30         8.6 0.24                            23 205 
 BRR  HZ EP        324 36.70                             151    -0.110   77 298 
 BRR  HZ I         324 37.29        11.1 0.13                            77 298 
 BRR  HE ES   1    324 53.67                             151     0.0 7   77 298 
 RUS  HZ EP   2    324 39.26                             145     0.4 5   98 179 
 RUS  HE ES   2    324 57.39                             145     0.1 5   98 179 
 RUS  HZ I         324 58.40         1.2 0.17                            98 179 
 GRA  SZ EP   1    324 40.59                             137     0.0 7  126  15 
 GRA  SZ I         324 42.25         3.3 0.20                           126  15 
 GRA  SZ ES   1    325  0.49                             137     0.1 7  126  15 
 OCA  SZ EP   2    324 43.62                             129    -0.3 5  163 351 
 OCA  SZ ES   2    325  6.56                             129     0.3 5  163 351 
 OCA  SZ I         325 12.98         3.6 0.37                           163 351 
 NOR  SE ES   2    325 19.80                             118     0.2 4  238 236 
                                                                                
