 2013 1026 0146 56.2 L   6.750 -73.170146.0  RSN  7 0.4 1.9LRSN                1
 GAP=231        1.09       5.4     5.7  7.4  0.7698E+01  0.1099E+02  0.6048E+01E
 Epicentro: VILLANUEVA - SANTANDER                                             3
 ACTION:UPD 13-11-25 09:23 OP:ep   STATUS:               ID:20131026014656 L   I
 OLDACT:DUP 13-10-26 09:44 OP:carl STATUS:               ID:20131026013850d    3
 2013-10-26-0138-49M.COL___230                                                 6
 STAT SP IPHASW D HRMM SECON CODA AMPLIT PERI AZIMU VELO AIN AR TRES W  DIS CAZ7
 BAR2 SZ EP        147 15.56                             173   -0.1810 17.5 184 
 BAR2 SZ ES        147 30.72                             173   -0.2710 17.5 184 
 BAR2 SZ I         147 32.39        19.1 0.26            173           17.5 184 
 BRR  HZ EP        147 17.42                             152    0.0310 71.7 303 
 BRR  HN ES        147 34.81                             152    0.8910 71.7 303 
 BRR  HZ I         147 38.61         7.9 0.22            149           71.7 303 
 RUS  HZ EP        147 19.42                             145   -0.1710 95.3 174 
 RUS  HN ES        147 37.90                             145    0.0610 95.3 174 
 PTB  HZ EP        147 22.52                             133   -0.32 9  144 261 
 PTB  HN ES        147 42.85                             133   -0.79 9  144 261 
 PTB  HZ I         147 45.27         5.8 0.22            132            144 261 
 SPBC HZ EP        147 24.27                             130    0.13 9  157 219 
 SPBC HN ES        147 45.88                             130   -0.07 9  157 219 
 SPBC HZ I         147 48.81         9.5 0.44            131            157 219 
 ZAR  HE ES        147 53.59                             122   -0.31 9  204 294 
 ZAR  HE I         148  2.06        21.4 0.18            122            204 294 
 NOR  HZ EP        147 32.04                             119    0.69 8  229 235 
 NOR  HE ES        147 59.28                             119    0.49 8  229 235 
 NOR  HZ I         148  1.34         5.8 0.20            120            229 235 
                                                                                
