 2017  126 0347 19.5 L   6.792 -73.158153.8  RSN  6 0.4 1.4LRSN                1
 GAP=236        1.02       6.3     5.7  8.1  0.1342E+02  0.9936E+01  0.3389E+01E
 Epicentro: LOS SANTOS - SANTANDER                                             3
 ACTION:UPD 17-05-22 16:03 OP:jn   STATUS:               ID:20170126034719 L   I
 OLDACT:DUP 17-01-26 15:29 OP:lv   STATUS:               ID:20170126033743d    3
 2017-01-26-0338-00M.COL___355                                                 6
 STAT SP IPHASW D HRMM SECON CODA AMPLIT PERI AZIMU VELO AIN AR TRES W  DIS CAZ7
 BAR2 EZ EP        347 39.92                             171   -0.1810 22.2 187 
 BAR2 EZ ES        347 55.89                             171   -0.2610 22.2 187 
 BAR2 EZ I         347 56.81         5.3 0.28            166           22.2 187 
 BRR  HZ EP        347 41.88                             154    0.3710 70.4 300 
 BRR  HN ES        347 59.06                             154    0.4110 70.4 300 
 BRR  HZ I         348  3.11         4.0 0.09            151           70.4 300 
 RUS  HZ EP        347 43.81                             146   -0.2110 99.8 175 
 RUS  HN ES        348  3.44                             146    0.3210 99.8 175 
 RUS  HZ I         348  4.23         2.2 0.30            145           99.8 175 
 PTB  HZ EP        347 46.83                             134   -0.20 9  146 259 
 PTB  HE ES        348  7.65                             134   -0.83 9  146 259 
 PTB  HZ I         348 13.82         3.8 0.18            132            146 259 
 ZAR  HN ES        348 18.14                             124    0.07 9  203 293 
 NOR  HN ES        348 24.28                             120    0.61 8  233 234 
 NOR  HZ I         348 31.21         2.7 0.21            120            233 234 
                                                                                
