 2012  126 0142 33.4 L   6.781 -73.137140.2  RSN  7 0.2 1.7LRSN                1
 GAP=139        0.46       2.4     3.8  3.9 -0.1445E+01  0.2249E+01  0.1471E+01E
 Epicentro: LOS SANTOS - SANTANDER                                             3
 ACTION:UP  12-02-03 08:20 OP:REBC STATUS:               ID:20120126014233 L   I
 2012-01-26-0140-00M.COL___188                                                 6
 STAT SP IPHASW D HRMM SECON CODA AMPLIT PERI AZIMU VELO SNR AR TRES W  DIS CAZ7
 BAR2 SZ EP        142 52.20                             171    -0.110   22 194 
 BAR2 SZ ES   1    143  7.16                             171     0.1 7   22 194 
 BAR2 SZ I         143  8.81        20.1 0.38                            22 194 
 GIR2 SZ EP        142 52.35                             166    -0.110   33 349 
 BRR  HZ IP     C  142 54.15                             151     0.110   73 300 
 BRR  HZ I         142 54.42        16.6 0.18                            73 300 
 BRR  HE ES   1    143 10.21                             151     0.1 7   73 300 
 PAM  SZ EP        142 55.17                             149     0.110   78  38 
 PAM  SN ES   1    143 11.90                             149    -0.1 7   78  38 
 RUS  HZ EP   1    142 56.43                             143     0.0 7   98 177 
 RUS  HE ES   1    143 14.10                             143    -0.3 7   98 177 
 RUS  HZ I         143 15.85         6.1 0.20                            98 177 
 PTB  HZ EP   1    142 59.60                             130    -0.3 7  148 260 
 CHI  HZ EP   1    143 10.54                             116     0.0 6  247 196 
 CHI  HN ES   1    143 39.97                             116     0.4 6  247 196 
 CHI  HZ I         143 47.38         2.2 0.44                           247 196 
                                                                                
