 2016  826 0552 18.4 L   6.771 -73.215134.7  RSN  6 0.5 1.4LRSN                1
 GAP=128        1.18       4.5     6.2  9.2 -0.1043E+02  0.1388E+02 -0.3623E+01E
 Epicentro: ZAPATOCA - SANTANDER                                               3
 ACTION:UPD 16-10-29 15:39 OP:rebc STATUS:               ID:20160826055218 L   I
 OLDACT:REG 16-08-26 12:57 OP:ak   STATUS:               ID:20160826054732     3
 2016-08-26-0548-00M.COL___374                                                 6
 STAT SP IPHASW D HRMM SECON CODA AMPLIT PERI AZIMU VELO AIN AR TRES W  DIS CAZ7
 BAR2 EZ EP        552 36.54                             171   -0.0910 20.1 170 
 BAR2 EZ ES        552 49.99                             171   -0.8610 20.1 170 
 BAR2 EZ I         552 52.55         9.4 0.75                          20.1 170 
 PAM  EZ EP        552 40.01                             146    0.0710 84.8  42 
 PAM  EN ES        552 57.41                             146    0.6810 84.8  42 
 PAM  EZ I         552 59.41         5.4 0.48                          84.8  42 
 RUS  HZ EP        552 40.17                             142   -0.7310 98.2 171 
 RUS  HN ES        552 58.85                             142    0.4010 98.2 171 
 RUS  HZ I         553  0.05         1.5 0.24                          98.2 171 
 PTB  HZ EP   2    552 43.43                             131   -0.30 5  140 260 
 PTB  HN ES        553  3.46                             131   -0.03 9  140 260 
 PTB  HZ I         553  5.21         3.0 0.14                           140 260 
 SPBC HZ EP        552 45.61                             128    0.24 9  156 218 
 SPBC HN ES        553  6.99                             128    0.59 9  156 218 
 SPBC HZ I         553  9.74         2.7 0.33                           156 218 
 OCA  HZ EP   2    552 45.98                             126   -0.13 5  163 356 
 OCA  HN ES        553  7.65                             126   -0.08 9  163 356 
 OCA  HZ I         553 12.51         7.8 0.38                           163 356 
                                                                                
