 2016  226 0133 55.7 L   6.819 -73.108144.6  RSN 22 0.5 2.4LRSN                1
 GAP= 60        1.03       2.9     2.8  5.1 -0.1762E+01  0.3872E+01  0.1225E+01E
 Epicentro: LOS SANTOS - SANTANDER                                             3
 ACTION:UPD 16-03-04 21:29 OP:rebc STATUS:               ID:20160226013355 L   I
 OLDACT:UP  16-02-26 15:14 OP:mh   STATUS:               ID:20160226012750d    3
 OLDACT:UP  16-02-26 15:13 OP:mh   STATUS:               ID:20160226012750d    3
 OLDACT:UP  16-02-26 15:11 OP:mh   STATUS:               ID:20160226012750d    3
 OLDACT:DUP 16-02-26 15:00 OP:mh   STATUS:               ID:20160226012750d    3
 2016-02-26-0127-49M.COL___310                                                 6
 STAT SP IPHASW D HRMM SECON CODA AMPLIT PERI AZIMU VELO AIN AR TRES W  DIS CAZ7
 BAR2 EZ EP     C  134 15.17                             169   -0.0610 26.3 198 
 BAR2 EZ ES        134 29.83                             169   -0.6510 26.3 198 
 BAR2 EZ I         134 31.03        75.2 0.15            167           26.3 198 
 PAM  EZ EP     D  134 18.18                             152    0.6610 73.2  38 
 PAM  EN ES        134 34.91                             152    0.3610 73.2  38 
 PAM  EZ I         134 36.99       102.1 0.54            154           73.2  38 
 RUS  HZ EP        134 19.10                             143   -0.3510  102 178 
 RUS  HN ES        134 37.75                             143   -0.2410  102 178 
 RUS  HZ I         134 37.97        15.9 0.24            142            102 178 
 TAM  HZ IP     D  134 23.55                             131    0.61 9  152 106 
 TAM  HE ES        134 44.75                             131    0.54 9  152 106 
 TAM  HZ I         134 45.39        13.5 0.30            132            152 106 
 PTB  HZ EP   1    134 21.86                             131   -1.10 7  152 258 
 PTB  HE ES        134 43.71                             131   -0.52 9  152 258 
 PTB  HZ I         134 45.29        58.7 0.14            129            152 258 
 OCA  HZ EP   1    134 23.46                             129   -0.29 7  159 352 
 OCA  HN ES        134 45.50                             129   -0.15 9  159 352 
 SPBC HZ EP   1    134 24.21                             128   -0.28 7  167 220 
 SPBC HE ES        134 47.28                             128    0.32 9  167 220 
 SPBC HZ I         134 50.62        24.0 0.20            127            167 220 
 ZAR  HZ EP   1    134 28.53                             121    0.17 6  207 291 
 ZAR  HN ES        134 54.13                             121    0.27 8  207 291 
 ZAR  HZ I         134 58.70        39.8 0.10            121            207 291 
 NOR  HZ EP   1    134 31.76                             118   -0.07 6  239 235 
 NOR  HE ES        135  0.27                             118    0.24 8  239 235 
 NOR  HZ I         135  5.34        15.7 0.20            117            239 235 
 CHI  HZ EP   1    134 33.42                             116   -0.23 6  252 196 
 CHI  HN ES        135  2.70                             116   -0.56 8  252 196 
 CHI  HZ I         135  9.12         7.9 0.36            116            252 196 
 ROSC BZ EP   4    134 34.52                             116    0.36 0  257 212 
 ROSC BN ES   4    135  3.95                             116   -0.22 0  257 212 
 ROSC BZ I         135 12.48        10.1 0.40            115            257 212 
 HEL  HZ EP   1    134 35.58                             114   -0.75 6  277 256 
 HEL  HE ES   1    135  7.90                             114   -0.14 6  277 256 
 HEL  HZ I         135 14.19        13.4 0.37            113            277 256 
 URE  HZ EP   4    134 36.40                             113   -0.63 0  287 291 
 URE  HN ES   4    135  7.24                             113   -2.05 0  287 291 
 URE  HZ I         135 18.72        21.9 0.16            112            287 291 
 GUY2CHN EP   1    134 39.78                             112    0.03 5  306 235 
 GUY2CHE ES        135 14.76                             112    0.64 7  306 235 
 GUY2CHN I         135 20.78        13.9 0.48                           306 235 
 PTGC HZ EP   1    134 38.41                             111   -1.12 5  309 160 
 PTGC HN ES   4    135 10.69                             111   -3.05 0  309 160 
 ELA  HZ EP   1    134 43.80                             110    0.81 5  334 230 
 ELA  HN ES   1    135 20.52                             110    0.62 5  334 230 
 ELA  HZ I         135 30.67         4.7 0.25            109            334 230 
 CBOC HZ EP   1    134 42.64                             109   -0.43 5  338 252 
 CBOC HN ES        135 20.80                             109    0.77 7  338 252 
 CBOC HZ I         135 23.63         5.2 0.24            109            338 252 
 DBB  SZ EP        134 43.39                             109   -0.17 7  343 274 
 MON  HZ EP   4    134 42.82                             108   -2.04 0  356 308 
 MON  HN ES   4    135 21.13                             108   -2.09 0  356 308 
 MON  HZ I         135 22.17        13.9 0.18            108            356 308 
 SDV  BZ EP        134 44.74                             108   -0.41 6  356  50 
 SDV  BN ES   4    135 21.91                             108   -1.83 0  356  50 
 SDV  BZ I         135 26.53         7.1 0.50            108            356  50 
 ANIL HZ EP   4    134 50.36                             108    4.42 0  362 225 
 ANIL HE ES   4    135 28.33                             108    3.18 0  362 225 
 ORTC HZ EP        134 50.38                             106    0.34 6  400 216 
 ORTC HN ES        135 33.30                             106    0.86 6  400 216 
 PAL  HZ EP        134 51.12                             105   -0.22 6  410 239 
                                                                                
