 2015  926 0740 56.3 L   6.813 -73.134149.4  RSN 25 0.5 2.5LRSN                1
 GAP=137        0.95       2.4     3.3  4.6 -0.1304E+01  0.4710E+01  0.2961E+00E
 Epicentro: LOS SANTOS - SANTANDER                                             3
 ACTION:UPD 15-10-28 16:28 OP:cam  STATUS:               ID:20150926074056 L   I
 OLDACT:REG 15-09-26 13:43 OP:ar   STATUS:               ID:20150926073747     3
 2015-09-26-0737-47M.COL___352                                                 6
 STAT SP IPHASW D HRMM SECON CODA AMPLIT PERI AZIMU VELO AIN AR TRES W  DIS CAZ7
 BAR2 EZ EP     D  741 16.33                             170   -0.1010 25.0 192 
 BAR2 EZ ES        741 31.60                             170   -0.5110 25.0 192 
 BAR2 EZ I         741 32.68        78.4 0.18            167           25.0 192 
 BRR  HZ EP        741 18.22                             153    0.3210 71.6 297 
 BRR  HE ES        741 35.53                             153    0.8110 71.6 297 
 BRR  HZ I         741 36.20        35.2 0.30            149           71.6 297 
 PAM  EZ EP        741 19.29                             152    0.4610 75.5  39 
 PAM  EN ES        741 36.61                             152    0.2410 75.5  39 
 PAM  EZ I         741 38.50        33.8 0.50            155           75.5  39 
 RUS  HZ EP        741 20.33                             144   -0.2110  102 177 
 RUS  HN ES        741 39.51                             144    0.0910  102 177 
 RUS  HZ I         741 40.67        36.1 0.40            143            102 177 
 PTB  HZ EP        741 23.01                             132   -0.73 9  149 258 
 PTB  HN ES        741 44.25                             132   -0.86 9  149 258 
 PTB  HZ I         741 45.91        28.2 0.24            130            149 258 
 OCA  HZ EP        741 24.45                             131   -0.36 9  159 353 
 OCA  HN ES        741 46.87                             131   -0.15 9  159 353 
 OCA  HZ I         741 49.63        56.0 0.22            130            159 353 
 SPBC HZ EP        741 25.33                             129    0.04 9  165 219 
 SPBC HE ES        741 47.72                             129   -0.16 9  165 219 
 SPBC HZ I         741 51.75        54.5 0.12            127            165 219 
 ZAR  HZ EP        741 29.74                             123    0.66 9  205 292 
 ZAR  HE ES        741 54.52                             123   -0.10 9  205 292 
 ZAR  HZ I         741 59.53        32.3 0.38            121            205 292 
 NOR  HZ EP        741 32.33                             119   -0.15 8  237 234 
 NOR  HE ES        742  1.26                             119    0.60 8  237 234 
 NOR  HZ I         742 10.02        16.4 0.16            117            237 234 
 SML  HZ EP        741 32.59                             118   -0.49 8  243 335 
 SML  HN ES        742  1.59                             118   -0.15 8  243 335 
 SML  HZ I         742  6.85        37.0 0.26            118            243 335 
 CHI  HZ EP        741 34.37                             118   -0.05 8  250 195 
 CHI  HN ES        742  3.81                             118   -0.32 8  250 195 
 CHI  HZ I         742  7.84        11.6 0.34            117            250 195 
 ROSC BZ EP   2    741 35.79                             117    0.93 4  255 211 
 ROSC BE ES   2    742  5.85                             117    0.94 4  255 211 
 ROSC BZ I         742 13.88        32.5 0.40            116            255 211 
 HEL  HZ EP   4    741 38.02                             115    1.11 0  274 256 
 HEL  HN ES        742  8.89                             115    0.34 8  274 256 
 HEL  HZ I         742 14.21        17.4 0.32            114            274 256 
 URE  HZ EP   4    741 35.71                             114   -1.94 0  284 292 
 URE  HN ES   4    742  6.78                             114   -3.10 0  284 292 
 URE  HZ I         742 18.68        16.0 0.20            113            284 292 
 GUY2CHZ EP   2    741 41.20                             113    0.88 4  303 235 
 GUY2CHE ES   2    742 13.92                             113   -0.71 4  303 235 
 GUY2CHZ I         742 19.28        10.6 0.34                           303 235 
 VIL  SN ES   4    742  9.04                             113   -5.21 0  305 192 
 VIL  SZ I         742 18.69        16.5 0.64            112            305 192 
 CBOC HZ EP        741 44.18                             110    0.59 7  335 252 
 CBOC HN ES        742 20.43                             110   -0.02 7  335 252 
 CBOC HZ I         742 33.83         3.9 0.62            109            335 252 
 DBB  SZ EP        741 44.17                             110    0.08 7  341 274 
 DBB  SZ ES   2    742 20.50                             110   -0.84 3  341 274 
 DBB  SZ I         742 24.01        37.9 0.52            109            341 274 
 ANIL HZ EP   2    741 47.07                             109    0.57 3  359 224 
 ANIL HN ES   4    742 27.67                             109    2.04 0  359 224 
 ORTC HZ EP   2    741 50.48                             107   -0.12 3  397 216 
 ORTC HN ES   2    742 33.41                             107    0.48 3  397 216 
 ORTC HZ I         742 39.48         7.5 0.26            106            397 216 
 SJC  HZ EP   9    741 50.37                             106   -1.59 0  409 327 
 SJC  HN ES   2    742 33.93                                    0.18 3  409 327 
 SJC  HZ I         742 38.96         3.3 0.24            106            409 327 
 GUA  SN ES   4    742 48.48                             104   -0.72 0  475 173 
 GUA  SZ I         742 55.62        13.3 0.10            103            475 173 
 MACC HZ EP   4    742  2.82                             102   -2.51 0  522 189 
 MACC HN ES   4    742 54.54                             102   -4.60 0  522 189 
 MACC HZ I         743  0.87         2.5 0.50            102            522 189 
 URI  HZ EP   4    742  6.67                             101   -2.55 0  555  13 
 URI  HE ES   2    743  4.73                             101   -1.34 2  555  13 
 FLO2 HN ES   4    743 15.00                              99   -9.81 0  642 206 
 FLO2 HZ I         743 37.27         6.2 0.64             99            642 206 
                                                                                
