 2017  226 0639 50.0 L   6.772 -73.174146.3  RSN  5 0.3 1.3LRSN                1
 GAP=134        0.87       4.7     4.5  6.4 -0.1911E+01  0.3361E+01  0.1182E+01E
 Epicentro: LOS SANTOS - SANTANDER                                             3
 ACTION:UPD 17-05-24 15:40 OP:jn   STATUS:               ID:20170226063950 L   I
 OLDACT:REG 17-02-26 12:05 OP:lv   STATUS:               ID:20170226063740     3
 2017-02-26-0638-00M.COL___363                                                 6
 STAT SP IPHASW D HRMM SECON CODA AMPLIT PERI AZIMU VELO AIN AR TRES W  DIS CAZ7
 BAR2 EZ EP        640  9.50                             172   -0.1110 19.9 183 
 BAR2 EZ ES        640 24.79                             172   -0.1410 19.9 183 
 BAR2 EZ I         640 25.92         6.6 0.19            172           19.9 183 
 BRR  HZ EP        640 11.44                             153    0.3110 70.0 302 
 BRR  HN ES        640 28.20                             153    0.5810 70.0 302 
 BRR  HZ I         640 31.73         5.6 0.30            152           70.0 302 
 PAM  EZ EP        640 12.55                             149    0.0310 81.8  40 
 PAM  EN ES        640 29.72                             149   -0.3910 81.8  40 
 PAM  EZ I         640 30.36         3.1 0.19            152           81.8  40 
 RUS  HZ EP        640 13.96                             145    0.3810 97.7 174 
 RUS  HN ES        640 32.01                             145    0.0210 97.7 174 
 RUS  HZ I         640 33.23         2.4 0.20            147           97.7 174 
 PTB  HZ EP        640 16.26                             133   -0.40 9  144 260 
 PTB  HN ES        640 37.10                             133   -0.37 9  144 260 
 PTB  HZ I         640 39.38         3.0 0.18            134            144 260 
                                                                                
