 2013  626 0939 50.9 L   6.314 -73.613109.2  RSN  7 0.4 1.6LRSN                1
 GAP=111        0.98       5.1     4.3 10.0  0.4677E+01  0.1773E+02  0.4378E+01E
 Epicentro: SANTA HELENA DEL OPON - SANTANDER                                  3
 ACTION:UPD 14-01-08 09:57 OP:ep   STATUS:               ID:20130626093950 L   I
 OLDACT:REG 13-06-26 09:37 OP:jn   STATUS:               ID:20130626093848     3
 2013-06-26-0938-48M.COL___226                                                 6
 STAT SP IPHASW D HRMM SECON CODA AMPLIT PERI AZIMU VELO AIN AR TRES W  DIS CAZ7
 BAR2 SZ EP        940  7.83                             150    0.1810 56.7  57 
 BAR2 SZ ES        940 20.74                             150    0.0410 56.7  57 
 BAR2 SZ I         940 22.28        22.8 0.38            153           56.7  57 
 RUS  HZ EP        940  9.19                             143   -0.0310 74.9 128 
 RUS  HN ES        940 23.38                             143   -0.1110 74.9 128 
 RUS  HZ I         940 26.48         3.5 0.36            148           74.9 128 
 BRR  HN ES   1    940 24.59                             138    0.46 7 88.4 353 
 GIR2 SZ EP   1    940 10.68                             135    0.23 7 96.5  29 
 PTB  HZ EP     C  940  9.65                             135   -0.6310 96.6 285 
 PTB  HN ES   1    940 24.69                             135   -0.70 7 96.6 285 
 PTB  HZ I         940 27.66        10.9 0.10            135           96.6 285 
 NOR  HE ES   1    940 37.80                             119    0.95 7  162 239 
 ZAR  HE ES   1    940 42.36                             115    0.28 7  190 314 
 ZAR  HZ I         940 49.83         7.2 0.44            116            190 314 
                                                                                
