 2012  926 0320 41.5 L   6.771 -73.152146.2  RSN  6 0.3 1.4LRSN                1
 GAP=137        0.62       4.2     3.6  6.5  0.5356E+00  0.1127E+01 -0.3007E+01E
 Epicentro: LOS SANTOS - SANTANDER                                             3
 ACTION:UPD 12-10-22 14:20 OP:ep   STATUS:               ID:20120926032041 L   I
 2012-09-26-0320-00M.COL___217                                                 6
 STAT SP IPHASW D HRMM SECON CODA AMPLIT PERI AZIMU VELO AIN AR TRES W  DIS CAZ7
 BAR2 SZ ES   1    321 16.69                             172    0.23 7 20.0 190 
 BAR2 SZ I         321 17.91         5.7 0.16                          20.0 190 
 BRR  HZ EP   1    321  2.92                             152    0.13 7 72.2 301 
 BRR  HN ES   1    321 19.78                             152    0.41 7 72.2 301 
 BRR  HZ I         321 23.35         7.1 0.35                          72.2 301 
 PAM  SZ EP        321  4.04                             150    0.0610 80.3  38 
 PAM  SN ES   1    321 21.01                             150   -0.47 7 80.3  38 
 PAM  SZ I         321 22.53         2.3 0.18                          80.3  38 
 RUS  HZ EP   1    321  5.17                             145    0.06 7 97.4 176 
 RUS  HN ES   1    321 23.47                             145   -0.02 7 97.4 176 
 PTB  HE ES   1    321 28.81                             132   -0.59 7  147 260 
 ZAR  HN ES   1    321 39.55                             122    0.09 6  205 293 
 ZAR  HZ I         321 44.91         2.1 0.15                           205 293 
                                                                                
