 2016  326 0457 30.4 L   6.825 -73.174141.2  RSN  4 0.2 1.0LRSN                1
 GAP=277        0.62       5.8     4.3  5.4  0.5516E+01  0.5867E+01 -0.2008E+01E
 Epicentro: ZAPATOCA - SANTANDER                                               3
 ACTION:UPD 16-05-13 21:27 OP:cam  STATUS:               ID:20160326045730 L   I
 OLDACT:REG 16-03-26 12:54 OP:ak   STATUS:               ID:20160326044746     3
 2016-03-26-0447-46M.COL___292                                                 6
 STAT SP IPHASW D HRMM SECON CODA AMPLIT PERI AZIMU VELO AIN AR TRES W  DIS CAZ7
 BAR2 EZ EP   2    457 49.52                             169   -0.05 5 25.8 182 
 BAR2 EZ ES        458  4.70                             169    0.2110 25.8 182 
 BAR2 EZ I         458  5.85         3.6 0.36            168           25.8 182 
 RUS  HZ EP        457 53.80                             142   -0.1710  104 174 
 RUS  HE ES        458 12.12                             142   -0.2010  104 174 
 RUS  HZ I         458 13.36         1.0 0.25            142            104 174 
 PTB  HZ EP        457 57.09                             131    0.29 9  145 258 
 PTB  HN ES        458 16.99                             131   -0.38 9  145 258 
 PTB  HZ I         458 19.05         1.0 0.08            132            145 258 
 SPBC HZ EP        457 58.59                             128   -0.02 9  163 218 
 SPBC HE ES        458 20.90                             128    0.32 9  163 218 
 SPBC HZ I         458 23.00         2.2 0.38            128            163 218 
                                                                                
