 2013  726 0235 24.6 L   6.800 -73.185161.7  RSN  4 0.3 1.5LRSN                1
 GAP=197        0.54       4.6     6.2  6.3  0.1383E+02 -0.6245E+01 -0.2127E+01E
 Epicentro: LOS SANTOS - SANTANDER                                             3
 ACTION:UPD 13-08-12 10:40 OP:ep   STATUS:               ID:20130726023524 L   I
 OLDACT:UP  13-07-26 09:14 OP:cam  STATUS:               ID:20130726022959     3
 OLDACT:REG 13-07-26 08:13 OP:cam  STATUS:               ID:20130726022959     3
 2013-07-26-0229-59M.COL___266                                                 6
 STAT SP IPHASW D HRMM SECON CODA AMPLIT PERI AZIMU VELO AIN AR TRES W  DIS CAZ7
 BRR  HZ EP        235 47.59                             156    0.2610 67.4 300 
 BRR  HN ES        236  5.12                             156    0.0810 67.4 300 
 BRR  HZ I         236 12.79         7.1 0.32            155           67.4 300 
 RUS  HZ EP   1    235 50.04                             147    0.04 7  101 174 
 RUS  HN ES   1    236  9.53                             147   -0.27 7  101 174 
 PTB  HZ EP   1    235 52.63                             136    0.05 7  144 258 
 PTB  HN ES   1    236 14.14                             136   -0.24 7  144 258 
 PTB  HZ I         236 19.44         2.8 0.18            138            144 258 
 SML  HN ES   2    236 30.40                             121   -0.76 4  242 336 
                                                                                
