 2013  126 0401 31.0 L   6.793 -73.152145.7  RSN  6 0.4 1.5LRSN                1
 GAP=136        1.09       6.0     5.8  8.5 -0.8744E+01  0.2499E+00  0.1809E+02E
 Epicentro: LOS SANTOS - SANTANDER                                             3
 ACTION:UPD 13-02-15 09:16 OP:ep   STATUS:               ID:20130126040131 L   I
 2013-01-26-0358-41M.COL___186                                                 6
 STAT SP IPHASW D HRMM SECON CODA AMPLIT PERI AZIMU VELO AIN AR TRES W  DIS CAZ7
 BAR2 SZ EP        4 1 50.43                             171   -0.1310 22.5 189 
 BAR2 SZ I         4 1 50.59         7.5 0.40            172           22.5 189 
 BAR2 SZ ES        4 2  5.61                             171   -0.2510 22.5 189 
 BRR  HZ EP        4 1 52.45                             153    0.3710 70.9 299 
 BRR  HN ES        4 2  9.26                             153    0.7010 70.9 299 
 BRR  HN I         4 2 13.74         8.1 0.20            151           70.9 299 
 PAM  SZ EP        4 1 53.51                             150    0.2810 78.4  40 
 PAM  SN ES        4 2 10.16                             150   -0.4410 78.4  40 
 PAM  SN I         4 2 11.18         4.3 0.26            152           78.4  40 
 RUS  HZ EP        4 1 54.84                             144    0.1910 99.9 176 
 PTB  HZ EP        4 1 57.10                             132   -0.74 9  147 259 
 PTB  HE ES        4 2 18.49                             132   -0.32 9  147 259 
 CHI  HN ES        4 2 38.22                             117    0.34 8  248 195 
                                                                                
