 2016 1226 0644 32.5 L   6.562 -73.305148.0  RSN  4 0.4 0.8LRSN                1
 GAP=198        0.88       6.9     6.9  7.7  0.3099E+02  0.3215E+01 -0.5718E+01E
 Epicentro: HATO - SANTANDER                                                   3
 ACTION:UPD 17-01-11 20:19 OP:rebc STATUS:               ID:20161226064432 L   I
 OLDACT:UP  16-12-26 18:06 OP:edw  STATUS:               ID:20161226063744d    3
 OLDACT:DUP 16-12-26 18:04 OP:edw  STATUS:               ID:20161226063744d    3
 OLDACT:REG 16-12-26 12:53 OP:edw  STATUS:               ID:20161226063743     3
 2016-12-26-0638-00M.COL___366                                                 6
 STAT SP IPHASW D HRMM SECON CODA AMPLIT PERI AZIMU VELO AIN AR TRES W  DIS CAZ7
 BRR  HZ EP        644 53.66                             152   -0.4310 75.2 323 
 BRR  HE ES        645 11.14                             152    0.1910 75.2 323 
 BRR  HZ I         645 16.26         3.1 0.46            153           75.2 323 
 RUS  HZ EP        644 54.80                             151   -0.1610 78.0 162 
 RUS  HN ES        645 12.70                             151    0.1910 78.0 162 
 RUS  HZ I         645 14.49         0.6 0.21            156           78.0 162 
 PTB  HZ EP        644 57.63                             137   -0.2210  127 269 
 PTB  HN ES        645 17.65                             137    0.0110  127 269 
 PTB  HZ I         645 20.99         0.8 0.16            141            127 269 
 ZAR  HZ EP        645  5.46                             123    0.81 9  200 301 
 ZAR  HN ES        645 29.49                             123   -0.26 9  200 301 
                                                                                
