 2010  626 0809 46.6 L   6.785 -73.085132.8  RSN  7 0.4 1.8LRSN                1
 GAP=190        0.82       6.2    10.2  9.5 -0.3375E+02 -0.1811E+02  0.4259E+01E
 Epicentro: LOS SANTOS - SANTANDER                                             3
 ACTION:UP  10-08-24 10:13 OP:vdl  STATUS:               ID:20100626080946 L   I
 2010-06-26-0807-55S.COL___118                                                 6
 STAT SP IPHASW D HRMM SECON CODA AMPLIT PERI AZIMU VELO SNR AR TRES W  DIS CAZ7
 BAR2 SZ EP        810  4.83                             169     0.210   24 207 
 BAR2 SZ ES   2    810 17.84                             169    -0.9 5   24 207 
 BRR  HZ EP        810  6.80                             148     0.010   78 297 
 BRR  HE ES   2    810 23.12                             148     0.6 5   78 297 
 BRR  HZ I         810 24.44        19.4 0.07                            78 297 
 BRI  SZ EP        810  9.55                             138     0.410  108  17 
 BRI  SZ ES   2    810 27.14                             138     0.3 5  108  17 
 BRI  SZ I         810 33.08         7.9 0.40                           108  17 
 GUE  SZ EP        810  9.99                             136    -0.110  117   9 
 GRA  SZ EP        810 10.72                             134     0.110  125  14 
 GRA  SZ ES   2    810 29.00                             134    -0.4 5  125  14 
 OCA  SZ EP   2    810 13.05                             126    -1.1 5  163 351 
 OCA  SZ ES   2    810 35.16                             126    -0.5 5  163 351 
 OCA  SZ I         810 38.28         8.0 0.16                           163 351 
 PRA  HZ EP   2    810 39.71                             104    -0.2 3  394 211 
 PRA  HE ES   2    811 21.01                             104    -0.5 3  394 211 
 PRA  HZ I         811 26.59         2.2 0.71                           394 211 
                                                                                
