 2016 1126 0402 27.0 L   6.701 -73.169150.5  RSN  4 0.2 1.3LRSN                1
 GAP=151        0.56       6.8     3.7  4.7 -0.5813E+01 -0.1043E+01 -0.1647E+01E
 Epicentro: VILLANUEVA - SANTANDER                                             3
 ACTION:UPD 17-10-26 21:11 OP:lp   STATUS:               ID:20161126040227 L   I
 OLDACT:UP  16-11-26 13:31 OP:dani STATUS:               ID:20161126035744     3
 OLDACT:REG 16-11-26 11:54 OP:dani STATUS:               ID:20161126035744     3
 2016-11-26-0358-00M.COL___349                                                 6
 STAT SP IPHASW D HRMM SECON CODA AMPLIT PERI AZIMU VELO AIN AR TRES W  DIS CAZ7
 BAR2 EZ EP        4 2 47.05                             175    0.0410 12.1 187 
 BAR2 EZ ES        4 3  2.68                             175    0.0510 12.1 187 
 BAR2 EZ I         4 3  2.86         5.8 0.16            175           12.1 187 
 BRR  HZ EP        4 2 49.04                             152    0.1910 74.9 307 
 BRR  HN ES        4 3  6.00                             152    0.1010 74.9 307 
 BRR  HZ I         4 3 10.24         4.0 0.34            148           74.9 307 
 PAM  EZ EP        4 2 50.03                             148   -0.2910 87.6  36 
 PTB  HZ EP        4 2 54.15                             134    0.20 9  143 263 
 PTB  HN ES        4 3 14.68                             134   -0.31 9  143 263 
 PTB  HZ I         4 3 17.34         2.1 0.23            134            143 263 
                                                                                
