 2010  526 0546 49.9 L   7.274 -73.385120.0  RSN  7 0.7 2.0LRSN                1
 GAP=121        1.53       9.0    11.1 13.4 -0.6942E+02  0.4404E+02 -0.1826E+02E
 Epicentro: SABANA DE TORRES - SANTANDER                                       3
 ACTION:UP  10-08-24 10:06 OP:vdl  STATUS:               ID:20100526054649 L   I
 2010-05-26-0542-05S.COL___108                                                 6
 STAT SP IPHASW D HRMM SECON CODA AMPLIT PERI AZIMU VELO SNR AR TRES W  DIS CAZ7
 BAR2 SZ EP        547  8.93                             145    -0.210   79 164 
 BAR2 SZ ES   1    547 23.49                             145    -0.7 7   79 164 
 GUE  SZ EP        547  9.35                             145     0.010   80  40 
 GUE  SZ ES   2    547 23.83                             145    -0.7 5   80  40 
 GRA  SZ EP        547 10.94                             140     0.810   93  44 
 GRA  SZ ES        547 26.68                             140     0.810   93  44 
 OCA  SZ EP        547 10.21                             136    -1.010  107   4 
 HEL  HZ EP   2    547 28.12                             110     0.0 4  266 243 
 HEL  HN ES   2    547 57.34                             110    -0.7 4  266 243 
 HEL  HZ I         548  1.23         6.2 0.45                           266 243 
 RREF BZ EP   2    547 37.47                             104     0.2 3  341 220 
 RREF BN ES        548 15.17                             104     1.0 7  341 220 
 RREF BZ I         548 21.41         4.8 1.00                           341 220 
 SDV  BZ EP        547 38.05                             104     0.0 6  352  59 
 SDV  BN ES        548 14.95                             104    -0.6 6  352  59 
 SDV  BZ I         548 18.38         3.0 0.04                           352  59 
                                                                                
