 2014 1026 0706 54.7 L   6.758 -73.168153.8  RSN  5 0.6 1.3LRSN                1
 GAP=136        1.40       7.8     8.6 14.0  0.2101E+01 -0.2701E+02 -0.1823E+02E
 Epicentro: LOS SANTOS - SANTANDER                                             3
 ACTION:UPD 14-11-29 23:57 OP:nd   STATUS:               ID:20141026070654 L   I
 OLDACT:UP  14-10-29 16:55 OP:cam  STATUS:               ID:20141026065810     3
 OLDACT:REG 14-10-29 13:44 OP:cam  STATUS:               ID:20141026065810     3
 2014-10-26-0658-10M.COL___277                                                 6
 STAT SP IPHASW D HRMM SECON CODA AMPLIT PERI AZIMU VELO AIN AR TRES W  DIS CAZ7
 BRR  HZ EP        7 7 17.08                             154    0.3610 71.4 303 
 BRR  HN ES        7 7 34.30                             154    0.4010 71.4 303 
 BRR  HN I         7 7 37.06         4.4 0.22            152           71.4 303 
 PAM  SZ EP        7 7 17.90                             151   -0.1710 82.5  39 
 RUS  HZ EP        7 7 19.44                             147    0.5010 96.2 174 
 RUS  HN ES        7 7 37.19                             147   -0.6610 96.2 174 
 RUS  HZ I         7 7 38.79         1.0 0.34            148           96.2 174 
 PTB  HZ EP        7 7 21.36                             134   -0.68 9  144 260 
 PTB  HN ES        7 7 42.76                             134   -0.60 9  144 260 
 PTB  HZ I         7 7 48.83         2.1 0.42            133            144 260 
 SPBC HE ES        7 7 46.52                             132    0.82 9  158 219 
 SPBC HE I         7 7 50.02         4.2 0.16            132            158 219 
                                                                                
