 2013  126 0122 46.2 L   6.783 -73.167144.7  RSN  9 0.5 2.2LRSN                1
 GAP= 99        1.17       4.7     4.5  6.9  0.1357E+01  0.3245E+01  0.7241E+01E
 Epicentro: LOS SANTOS - SANTANDER                                             3
 ACTION:UPD 13-02-15 09:16 OP:ep   STATUS:               ID:20130126012246 L   I
 2013-01-26-0118-48M.COL___183                                                 6
 STAT SP IPHASW D HRMM SECON CODA AMPLIT PERI AZIMU VELO AIN AR TRES W  DIS CAZ7
 BAR2 SZ EP        123  5.55                             171   -0.1510 21.1 185 
 BAR2 SZ ES        123 20.38                             171   -0.5010 21.1 185 
 BAR2 SZ I         123 21.88        28.4 0.20            171           21.1 185 
 BRR  HZ EP        123  7.42                             153    0.2110 70.1 301 
 BRR  HN ES        123 24.52                             153    0.9510 70.1 301 
 BRR  HE I         123 25.30        51.4 0.24            150           70.1 301 
 PAM  SZ EP        123  8.71                             150    0.1910 80.4  40 
 PAM  SN ES        123 25.82                             150   -0.0810 80.4  40 
 PAM  SN I         123 26.68         9.6 0.50            152           80.4  40 
 RUS  HZ EP        123  9.68                             144   -0.0810 98.9 175 
 RUS  HN ES        123 28.12                             144    0.0110 98.9 175 
 PTB  HZ EP        123 12.05                             132   -0.83 9  145 259 
 PTB  HN ES        123 33.61                             132   -0.04 9  145 259 
 PTB  HN I         123 38.86        27.2 0.28            131            145 259 
 TAM  HZ IP        123 13.95                             130   -0.05 9  157 104 
 ZAR  HN ES        123 42.87                             122   -0.73 9  203 293 
 ZAR  HN I         123 49.85        13.9 0.18            122            203 293 
 CHI  HZ EP        123 23.74                             117    0.13 8  246 195 
 CHI  HN ES        123 53.04                             117    0.28 8  246 195 
 CHI  HN I         123 55.46        10.1 0.52            118            246 195 
 HEL  HZ EP        123 27.00                             115    0.91 8  269 256 
                                                                                
