 2014 1026 0452 58.5 L   6.589 -73.267141.0  RSN  4 0.2 1.3LRSN                1
 GAP=129        0.63       6.6     4.8  6.0  0.1088E+02  0.7109E+01  0.1618E+02E
 Epicentro: CABRERA - SANTANDER                                                3
 ACTION:UPD 14-11-29 23:57 OP:nd   STATUS:               ID:20141026045258 L   I
 OLDACT:REG 14-10-29 13:10 OP:cam  STATUS:               ID:20141026044818     3
 2014-10-26-0448-18M.COL___280                                                 6
 STAT SP IPHASW D HRMM SECON CODA AMPLIT PERI AZIMU VELO AIN AR TRES W  DIS CAZ7
 BAR2 SZ ES        453 31.79                             176   -0.2610 9.36  88 
 BRR  HZ EP        453 19.19                             150   -0.1910 75.5 319 
 BRR  HN ES        453 35.98                             150    0.3110 75.5 319 
 BRR  HN I         453 40.18         6.0 0.16            148           75.5 319 
 RUS  HZ EP        453 20.63                             149    0.2910 79.7 165 
 PTB  HZ EP        453 23.46                             134   -0.1610  132 268 
 PTB  HN ES        453 43.23                             134   -0.0010  132 268 
 PTB  HZ I         453 45.58         1.5 0.12            135            132 268 
                                                                                
