 2011 1226 0344 41.0 L   6.759 -73.169143.0  RSN  6 0.4 1.4LRSN                1
 GAP=135        0.82       5.4     5.4  6.9 -0.2608E+01  0.4919E+01  0.3637E+01E
 Epicentro: LOS SANTOS - SANTANDER                                             3
 ACTION:UPD 12-07-13 16:18 OP:ep   STATUS:               ID:20111226034441 L   I
 2011-12-26-0340-00M.COL___187                                                 6
 STAT SP IPHASW D HRMM SECON CODA AMPLIT PERI AZIMU VELO AIN AR TRES W  DIS CAZ7
 BAR2 SZ EP        345  0.28                             172    0.0510 18.5 185 
 BAR2 SZ I         345  0.59         6.6 0.10                          18.5 185 
 BAR2 SZ ES   1    345 14.54                             172   -0.66 7 18.5 185 
 GIR2 SZ EP   1    345  0.42                             165   -0.06 7 35.5 356 
 GIR2 SZ ES   1    345 15.72                             165    0.06 7 35.5 356 
 BRR  HZ EP        345  2.20                             152    0.3210 71.3 303 
 BRR  HZ I         345  2.56        12.4 0.11                          71.3 303 
 BRR  HN ES   1    345 18.76                             152    0.62 7 71.3 303 
 PAM  SZ EP   1    345  3.34                             149    0.08 7 82.5  39 
 PAM  SE ES   1    345 20.21                             149   -0.39 7 82.5  39 
 PAM  SZ I         345 20.60         2.8 0.22                          82.5  39 
 RUS  HZ EP   1    345  4.32                             144    0.13 7 96.2 174 
 RUS  HN ES   1    345 22.64                             144    0.39 7 96.2 174 
 RUS  HZ I         345 24.85         2.2 0.30                          96.2 174 
 PTB  HZ EP   1    345  6.70                             132   -0.76 7  144 260 
 PTB  HN ES   1    345 27.90                             132   -0.18 7  144 260 
                                                                                
