 2017  826 0713  8.7 L   6.841 -73.268123.8  RSN  4 0.3 1.3LRSN                1
 GAP=220        0.72       7.5     8.3  5.6  0.5423E+02  0.1112E+02  0.4708E+01E
 Epicentro: ZAPATOCA - SANTANDER                                               3
 ACTION:UPD 17-09-04 20:24 OP:rebc STATUS:               ID:20170826071308 L   I
 OLDACT:REG 17-08-26 13:40 OP:osc  STATUS:               ID:20170826070636     3
 2017-08-26-0707-00M.COL___401                                                 6
 STAT SP IPHASW D HRMM SECON CODA AMPLIT PERI AZIMU VELO AIN AR TRES W  DIS CAZ7
 BAR2 EZ EP        713 25.94                             166    0.1010 29.1 161 
 BAR2 EZ ES        713 39.52                             166    0.3010 29.1 161 
 BAR2 EZ I         713 40.26         5.4 0.36            167           29.1 161 
 BRR  HZ EP        713 26.40                             154   -0.2810 57.2 301 
 BRR  HE ES        713 40.52                             154   -0.1910 57.2 301 
 RUS  HZ EP        713 31.19                             137    0.3210  107 169 
 RUS  HE ES        713 47.83                             137   -0.3410  107 169 
 ZAR  HZ EP        713 38.07                             119   -0.21 9  190 292 
 ZAR  HE ES        714  1.69                             119    0.33 9  190 292 
                                                                                
