 2016 1126 0747 46.4 L   6.821 -73.171145.9  RSN 15 0.5 2.2LRSN                1
 GAP= 75        0.84       3.3     2.6  4.7 -0.6345E+00  0.1609E+01  0.5385E+01E
 Epicentro: LOS SANTOS - SANTANDER                                             3
 ACTION:UPD 17-10-26 21:12 OP:lp   STATUS:               ID:20161126074746 L   I
 OLDACT:UP  16-11-26 15:46 OP:dani STATUS:               ID:20161126073744     3
 OLDACT:UP  16-11-26 15:45 OP:dani STATUS:               ID:20161126073744     3
 OLDACT:UP  16-11-26 15:44 OP:dani STATUS:               ID:20161126073744     3
 OLDACT:REG 16-11-26 12:12 OP:dani STATUS:               ID:20161126073744     3
 2016-11-26-0738-00M.COL___349                                                 6
 STAT SP IPHASW D HRMM SECON CODA AMPLIT PERI AZIMU VELO AIN AR TRES W  DIS CAZ7
 BAR2 EZ EP     C  748  5.92                             170   -0.1710 25.3 183 
 BAR2 EZ ES        748 21.11                             170   -0.3310 25.3 183 
 BAR2 EZ I         748 22.18        89.8 0.30            169           25.3 183 
 BRR  HZ EP     C  748  7.73                             154    0.3610 67.6 298 
 BRR  HN ES        748 24.13                             154    0.4110 67.6 298 
 BRR  HZ I         748 29.25        27.2 0.26            151           67.6 298 
 PAM  EZ EP        748  8.78                             151    0.1410 77.5  42 
 PAM  EN ES        748 26.10                             151    0.1210 77.5  42 
 PAM  EZ I         748 28.42        32.5 0.64            153           77.5  42 
 PTB  HZ EP        748 12.45                             132   -0.72 9  145 258 
 PTB  HN ES        748 33.61                             132   -0.44 9  145 258 
 PTB  HZ I         748 39.32        26.1 0.14            131            145 258 
 TAM  HZ EP        748 14.38                             130   -0.02 9  158 106 
 TAM  HN ES        748 36.19                             130   -0.04 9  158 106 
 TAM  HZ I         748 37.34         7.2 0.31            132            158 106 
 ZAR  HZ EP        748 18.51                             123    0.01 9  201 292 
 ZAR  HN ES        748 43.58                             123    0.05 9  201 292 
 ZAR  HZ I         748 50.55        19.8 0.36            122            201 292 
 NOR  HZ EP        748 22.53                             119    0.49 8  234 234 
 NOR  HN ES        748 49.88                             119    0.04 8  234 234 
 NOR  HZ I         748 56.31         9.8 0.16            118            234 234 
 CHI  HZ EP        748 24.32                             117    0.05 8  250 194 
 CHI  HN ES        748 53.69                             117   -0.12 8  250 194 
 CHI  HZ I         748 55.83         6.7 0.26            117            250 194 
 ROSC BZ EP   9    748 26.01                             117    1.42 0  253 210 
 ROSC BN ES        748 56.71                             117    0.92 8  253 210 
 ROSC BZ I         749  0.83        19.4 0.36            117            253 210 
 URE  HZ EP   4    748 28.32                             114    1.23 0  280 292 
 URE  HE ES   3    748 57.30                             114   -1.53 2  280 292 
 PTGC HZ EP   3    748 29.18                             111   -1.44 2  312 158 
 PTGC HN ES   4    749  2.68                             111   -2.43 0  312 158 
 PTGC HZ I         749  8.98         5.6 0.27            112            312 158 
 CBOC HZ EP   3    748 34.69                             110    1.59 2  332 252 
 PRA  HZ EP        748 39.99                             106   -0.01 6  393 209 
 PRA  HE ES        749 21.80                             106   -0.01 6  393 209 
 PRA  HZ I         749 26.31         6.2 0.33            107            393 209 
 ORTC HZ EP        748 41.08                             106    0.73 6  396 216 
 ORTC HN ES   3    749 24.00                             106    1.57 1  396 216 
 ORTC HZ I         749 28.75         4.0 0.42            106            396 216 
 SJC  HZ EP   4    748 37.66                             106   -3.90 0  406 327 
 SJC  HN ES   3    749 22.67                             106   -1.92 1  406 327 
 SJC  HZ I         749 35.71         4.3 0.40            106            406 327 
                                                                                
