 2016 1026 0520 24.6 L   6.778 -73.093152.0  RSN 14 0.4 1.9LRSN                1
 GAP=125        1.06       4.7     5.3  6.0 -0.5475E+01  0.2355E+01  0.8732E+01E
 Epicentro: LOS SANTOS - SANTANDER                                             3
 ACTION:UPD 16-11-09 19:23 OP:rebc STATUS:               ID:20161026052024 L   I
 OLDACT:UP  16-10-26 21:10 OP:dani STATUS:               ID:20161026051745     3
 OLDACT:UP  16-10-26 21:05 OP:dani STATUS:               ID:20161026051745     3
 OLDACT:UP  16-10-26 21:05 OP:dani STATUS:               ID:20161026051745     3
 OLDACT:UP  16-10-26 21:04 OP:dani STATUS:               ID:20161026051745     3
 OLDACT:UP  16-10-26 21:04 OP:dani STATUS:               ID:20161026051745     3
 OLDACT:REG 16-10-26 13:19 OP:cog  STATUS:               ID:20161026051745     3
 2016-10-26-0518-00M.COL___328                                                 6
 STAT SP IPHASW D HRMM SECON CODA AMPLIT PERI AZIMU VELO AIN AR TRES W  DIS CAZ7
 BAR2 EZ EP        520 44.95                             171   -0.0510 22.8 206 
 BAR2 EZ ES        521  0.58                             171   -0.3010 22.8 206 
 BAR2 EZ I         521  1.54        31.3 0.16            164           22.8 206 
 PAM  EZ EP        520 47.83                             153    0.4110 75.8  35 
 PAM  EN ES        521  5.29                             153    0.0910 75.8  35 
 PAM  EZ I         521  7.46         8.3 0.54            161           75.8  35 
 BRR  HZ EP     C  520 46.81                             152    0.0010 77.5 298 
 BRR  HN ES        521  4.28                             152    0.1710 77.5 298 
 BRR  HZ I         521  7.74        10.8 0.62            154           77.5 298 
 RUS  HZ EP        520 48.85                             146    0.0410 97.9 179 
 RUS  HN ES        521  7.97                             146    0.3010 97.9 179 
 RUS  HZ I         521  9.25        10.9 0.26            143           97.9 179 
 PTB  HZ EP        520 51.51                             133   -1.07 9  153 260 
 PTB  HN ES   4    521 12.97                             133   -1.42 0  153 260 
 PTB  HZ I         521 15.00        10.4 0.18            133            153 260 
 SPBC HZ EP        520 53.83                             130    0.04 9  165 221 
 SPBC HE ES        521 16.47                             130   -0.06 9  165 221 
 SPBC HZ I         521 18.65        20.5 0.28            130            165 221 
 CHI  HZ EP        521  3.03                             119    0.44 8  248 197 
 CHI  HN ES   4    521 33.78                             119    1.57 0  248 197 
 CHI  HZ I         521 42.10         2.8 0.46            119            248 197 
 HEL  HZ EP   4    521  6.61                             116    0.89 0  277 257 
 HEL  HN ES   4    521 33.57                             116   -4.21 0  277 257 
 HEL  HZ I         521 42.64         4.0 0.34            117            277 257 
 PTGC HZ EP        521  7.78                             113   -0.50 7  304 160 
 PTGC HN ES   4    521 41.25                             113   -1.07 0  304 160 
 PTGC HZ I         521 47.90         3.1 0.24            114            304 160 
 GUY2CHZ EP   9    521 10.81                             113    1.90 0  305 236 
 GUY2CHN ES        521 46.49                             114    1.14 7  305 236 
 GUY2CHZ I         521 49.70         3.9 0.49                           305 236 
 LL6C HZ EP   9    520 50.25                             112   -20.7 0  328 357 
 LL6C HN ES        521 27.03                             115    0.68 7  328 357 
 LL6C HZ I         521 32.73         1.7 0.62            115            328 357 
 ELA  HZ EP   4    521 10.64                             111   -1.44 0  332 230 
 CBOC HZ EP   4    521  6.22                             111   -6.14 0  338 253 
 CBOC HN ES        521 49.87                             111    0.29 7  338 253 
 CBOC HZ I         521 53.00         1.2 0.18            112            338 253 
 PRA  HZ EP        521 18.83                             108    0.37 6  393 210 
 PRA  HE ES   4    522  1.98                             108    1.53 0  393 210 
 PRA  HZ I         522  6.98         3.6 0.37            109            393 210 
 SJC  HZ EP   4    521 19.11                             107   -1.91 0  415 326 
 SJC  HN ES   4    522  0.89                             107   -4.11 0  415 326 
 SJC  HZ I         522  5.46         2.0 0.40            109            415 326 
                                                                                
