 2011  626 0928  9.6 L   6.781 -73.055142.0  RSN  4 0.2 1.4LRSN                1
 GAP=239        0.54      15.4    14.0  9.8  0.1600E+03 -0.7923E+02 -0.6453E+02E
 Epicentro: LOS SANTOS - SANTANDER                                             3
 ACTION:UP  11-07-14 19:08 OP:ep   STATUS:               ID:20110626092809 L   I
 2011-06-26-0925-44S.COL___140                                                 6
 STAT SP IPHASW D HRMM SECON CODA AMPLIT PERI AZIMU VELO SNR AR TRES W  DIS CAZ7
 BAR2 SZ EP        928 28.87                             170     0.110   25 214 
 BAR2 SZ ES   2    928 43.52                             170    -0.3 5   25 214 
 BAR2 SZ I         928 44.92         5.2 0.27                            25 214 
 BTL  SZ EP        928 29.04                             169     0.210   28 303 
 GIR2 SZ EP        928 28.88                             165    -0.110   36 335 
 BRR  HZ EP        928 30.66                             149    -0.310   81 296 
 BRR  HZ I         928 30.79         6.1 0.19                            81 296 
 BRR  HN ES   1    928 47.76                             149     0.2 7   81 296 
                                                                                
