 2016  926 0005  4.2 L   6.802 -73.173150.8  RSN  9 0.4 1.7LRSN                1
 GAP=133        0.92       4.1     4.7  6.0  0.5386E+01  0.1183E+01 -0.1092E+01E
 Epicentro: LOS SANTOS - SANTANDER                                             3
 ACTION:UPD 17-08-17 21:16 OP:lp   STATUS:               ID:20160926000504 L   I
 OLDACT:REG 16-09-26 12:19 OP:dani STATUS:               ID:20160926000001     3
 2016-09-26-0000-15M.COL___327                                                 6
 STAT SP IPHASW D HRMM SECON CODA AMPLIT PERI AZIMU VELO AIN AR TRES W  DIS CAZ7
 BAR2 EZ EP        0 5 24.35                             171   -0.0410 23.3 183 
 BAR2 EZ ES        0 5 39.92                             171   -0.2610 23.3 183 
 BAR2 EZ I         0 5 40.67        14.8 0.12            174           23.3 183 
 BRR  HZ EP        0 5 26.24                             154    0.5410 68.4 300 
 BRR  HN ES        0 5 42.97                             154    0.4610 68.4 300 
 BRR  HZ I         0 5 44.45         9.9 0.14            150           68.4 300 
 PAM  EZ EP        0 5 27.18                             151    0.1710 79.1  41 
 PAM  EZ I         0 5 46.16         5.0 0.38            140           79.1  41 
 RUS  HZ EP        0 5 28.35                             145   -0.0910  101 174 
 RUS  HN ES        0 5 47.04                             145   -0.3510  101 174 
 RUS  HZ I         0 5 48.17         4.3 0.32            147            101 174 
 PTB  HZ EP        0 5 31.12                             134   -0.16 9  145 258 
 PTB  HN ES        0 5 52.01                             134   -0.43 9  145 258 
 PTB  HZ I         0 5 58.20         5.3 0.26            133            145 258 
 SPBC HZ EP        0 5 33.15                             131    0.26 9  162 218 
 ZAR  HN ES        0 6  1.95                             124   -0.03 9  201 292 
 ZAR  HZ I         0 6  8.51         9.5 0.49            120            201 292 
 CHI  HN ES        0 6 12.07                             118    0.40 8  248 194 
 SJC  HZ EP        0 5 58.53                             107   -1.14 6  407 327 
                                                                                
