 2016  226 0937 16.2 L   6.790 -73.152140.6  RSN  5 0.3 1.4LRSN                1
 GAP=136        0.65       3.0     4.6  5.6 -0.7541E+00  0.1119E+02 -0.4708E+01E
 Epicentro: LOS SANTOS - SANTANDER                                             3
 ACTION:UPD 16-03-04 21:29 OP:rebc STATUS:               ID:20160226093716 L   I
 OLDACT:UP  16-02-26 19:13 OP:mh   STATUS:               ID:20160226092750     3
 OLDACT:UP  16-02-26 19:13 OP:mh   STATUS:               ID:20160226092750     3
 OLDACT:REG 16-02-26 13:20 OP:mh   STATUS:               ID:20160226092750     3
 2016-02-26-0927-50M.COL___300                                                 6
 STAT SP IPHASW D HRMM SECON CODA AMPLIT PERI AZIMU VELO AIN AR TRES W  DIS CAZ7
 BAR2 EZ EP        937 35.10                             171   -0.0310 22.1 189 
 BAR2 EZ ES        937 50.09                             171    0.1510 22.1 189 
 BAR2 EZ I         937 52.43         3.4 0.48            171           22.1 189 
 PAM  EE EP        937 38.07                             149    0.1710 78.7  39 
 PAM  EZ ES        937 55.03                             149    0.1710 78.7  39 
 PAM  EE I         937 57.03         6.6 0.56            153           78.7  39 
 RUS  HZ EP   1    937 39.08                             143   -0.24 7 99.5 176 
 RUS  HN ES        937 57.20                             143   -0.1910 99.5 176 
 RUS  HZ I         937 58.64         3.3 0.36            147           99.5 176 
 OCA  HZ EP   1    937 44.33                             128    0.17 7  161 353 
 OCA  HN ES   1    938  5.15                             128   -0.85 7  161 353 
 OCA  HZ I         938  8.59         5.8 0.18            130            161 353 
 ZAR  HZ EP        937 48.42                             121    0.18 9  204 292 
 ZAR  HN ES   1    938 13.40                             121    0.14 6  204 292 
 ZAR  HZ I         938 17.92         2.4 0.24            122            204 292 
                                                                                
