 2016  326 0730 37.0 L   6.839 -73.148148.6  RSN 26 0.5 2.1LRSN                1
 GAP= 52        0.99       2.4     2.5  4.4 -0.1350E+01  0.2425E+01 -0.1471E+01E
 Epicentro: LOS SANTOS - SANTANDER                                             3
 ACTION:UPD 16-05-13 21:27 OP:cam  STATUS:               ID:20160326073037 L   I
 OLDACT:REG 16-03-26 13:04 OP:ak   STATUS:               ID:20160326072744     3
 2016-03-26-0727-44M.COL___289                                                 6
 STAT SP IPHASW D HRMM SECON CODA AMPLIT PERI AZIMU VELO AIN AR TRES W  DIS CAZ7
 BAR2 EZ EP        730 57.18                             169    0.1110 27.6 188 
 BAR2 EZ ES        731 12.51                             169   -0.2110 27.6 188 
 BAR2 EZ I         731 13.79        49.7 0.30            169           27.6 188 
 PAM  EZ EP        731  0.15                             152    0.8110 74.2  42 
 PAM  EN ES        731 17.34                             152    0.5810 74.2  42 
 PAM  EZ I         731 19.38        19.6 0.50            152           74.2  42 
 RUS  HZ EP        731  1.27                             143   -0.0810  105 176 
 RUS  HN ES        731 19.92                             143   -0.4210  105 176 
 RUS  HZ I         731 21.30        11.1 0.22            143            105 176 
 PTB  HZ EP        731  4.03                             132   -0.23 9  148 257 
 PTB  HE ES        731 24.96                             132   -0.57 9  148 257 
 PTB  HZ I         731 31.88        10.8 0.08            131            148 257 
 OCA  HZ EP        731  4.96                             131   -0.17 9  156 353 
 OCA  HN ES        731 27.70                             131    0.63 9  156 353 
 OCA  HZ I         731 30.52        26.4 0.28            130            156 353 
 TAM  HZ EP        731  5.58                             131    0.54 9  157 107 
 TAM  HZ I         731 26.45         6.1 0.44            130            157 107 
 TAM  HE ES        731 26.59                             131   -0.31 9  157 107 
 SPBC HZ EP        731  6.13                             129    0.10 9  166 218 
 SPBC HN ES        731 28.32                             129   -0.35 9  166 218 
 SPBC HZ I         731 33.11        29.2 0.18            128            166 218 
 ZAR  HZ EP        731  9.59                             123    0.14 9  202 291 
 ZAR  HN ES        731 34.65                             123   -0.11 9  202 291 
 ZAR  HZ I         731 40.46        14.9 0.20            122            202 291 
 NOR  HZ EP        731 13.29                             119    0.14 8  237 234 
 NOR  HN ES        731 41.12                             119   -0.23 8  237 234 
 NOR  HZ I         731 49.06         9.8 0.14            118            237 234 
 CHI  HZ EP        731 15.45                             117    0.14 8  253 195 
 CHI  HN ES        731 44.58                             117   -0.61 8  253 195 
 CHI  HZ I         731 48.23         8.9 0.62            116            253 195 
 ROSC BZ EP   9    731 17.65                             117    1.98 0  256 210 
 ROSC BN ES        731 47.52                                   -0.29 8  256 210 
 ROSC BZ I         731 51.71        20.3 0.40            116            256 210 
 HEL  HZ EP   2    731 17.94                             115    0.48 4  273 255 
 HEL  HN ES        731 49.58                             115    0.57 8  273 255 
 HEL  HZ I         731 55.34         5.3 0.30            114            273 255 
 URE  HZ EP        731 18.00                             114   -0.01 7  282 291 
 URE  HE ES   4    731 48.37                             114   -1.62 0  282 291 
 URE  HZ I         731 56.48         4.8 0.34            113            282 291 
 SOCV BZ EP        731 18.88                             113   -1.06 7  299  58 
 SOCV BN ES   4    731 51.07                             113   -2.36 0  299  58 
 GUY2CHZ EP   2    731 21.46                             113    0.45 4  304 234 
 GUY2CHE ES        731 55.81                             113    0.48 7  304 234 
 GUY2CHZ I         732  3.48         8.2 0.36                           304 234 
 PTGC HZ EP   9    731 20.00                             112   -1.46 0  313 159 
 PTGC HN ES        731 53.95                                   -0.72 7  313 159 
 PTGC HZ I         731 56.47         5.6 0.32            111            313 159 
 LL6C HZ EP        731 21.92                             111   -0.41 7  321 358 
 LL6C HE ES   2    731 56.79                             111   -0.89 3  321 358 
 CBOC HE ES        732  1.18                             110    0.23 7  335 251 
 DBB  SZ ES   2    732  1.19                             110   -0.42 3  339 274 
 MON  HZ EP   9    731 24.30                             109   -1.48 0  351 308 
 MON  HN ES        732  2.52                                    0.17 6  351 308 
 MON  HZ I         732 18.18         3.1 0.38            108            351 308 
 SDV  BZ EP        731 26.93                             109    0.08 6  358  51 
 SDV  BN ES   4    732  4.16                             109   -1.58 0  358  51 
 ANIL HZ EP   9    731 30.21                             109    2.95 0  360 224 
 ANIL HE ES        732  8.99                                   -0.42 6  360 224 
 ORTC HZ EP        731 31.76                             107    0.35 6  399 216 
 ORTC HE ES        732 14.81                             107    0.95 6  399 216 
 ORTC HZ I         732 18.61         4.5 0.28            106            399 216 
 SJC  HZ EP        731 31.41                             106   -0.81 6  405 327 
 SJC  HN ES        732 14.11                             106   -1.17 6  405 327 
 SJC  HZ I         732 20.28         3.0 0.52            105            405 327 
 PAL  HZ EP        731 32.84                             106    0.34 6  408 239 
 PAL  HN ES   4    732 14.63                             106   -1.15 0  408 239 
 PAL  HZ I         732 18.67         1.5 0.24            105            408 239 
 CRJC HZ EP   9    731 37.67                             104   -1.40 0  463   4 
 CRJC HE ES        732 26.17                                    0.09 5  463   4 
 CRJC HZ I         732 27.06         3.3 0.22            103            463   4 
                                                                                
