 2012 1126 0445 35.8 L   6.820 -73.151138.0  RSN  9 0.5 1.9LRSN                1
 GAP=135        1.22       3.6     5.2  9.6 -0.5983E+00  0.1961E+02  0.3131E+01E
 Epicentro: LOS SANTOS - SANTANDER                                             3
 ACTION:UPD 12-12-05 15:36 OP:}ep  STATUS:               ID:20121126044535 L   I
 2012-11-26-0440-00M.COL___233                                                 6
 STAT SP IPHASW D HRMM SECON CODA AMPLIT PERI AZIMU VELO AIN AR TRES W  DIS CAZ7
 BAR2 SZ EP        445 54.67                             169    0.1710 25.4 188 
 PAM  SZ EP        445 57.09                             150    0.0210 76.1  41 
 PAM  SN ES        446 14.02                             150    0.3310 76.1  41 
 PAM  SN I         446 15.06         9.2 0.26                          76.1  41 
 RUS  HZ EP        445 59.12                             141    0.2010  103 176 
 RUS  HN ES        446 17.02                             141    0.0310  103 176 
 RUS  HN I         446 19.19         4.8 0.42                           103 176 
 PTB  HZ EP        446  1.12                             130   -0.96 9  148 258 
 PTB  HN ES        446 22.51                             130   -0.12 9  148 258 
 PTB  HN I         446 24.10        12.7 0.18                           148 258 
 OCA  HN ES        446 23.56                             128   -1.14 9  158 353 
 ZAR  HZ EP        446  8.36                             121    0.80 9  203 292 
 ZAR  HE ES        446 32.70                             121    0.33 9  203 292 
 ZAR  HN I         446 37.07        13.8 0.54                           203 292 
 NOR  HZ EP        446 11.01                             117   -0.12 8  236 234 
 NOR  HN ES        446 38.65                             117   -0.08 8  236 234 
 NOR  HN I         446 47.00         9.0 0.16                           236 234 
 SML  HZ EP   1    446 11.33                             116   -0.37 6  241 335 
 SML  HN ES        446 40.65                             116    0.90 8  241 335 
 SML  HN I         446 41.94        10.7 0.10                           241 335 
 CHI  HZ EP        446 13.29                             115    0.04 8  251 195 
 CHI  HN ES   1    446 42.47                             115   -0.03 6  251 195 
 CHI  HN I         446 45.22         3.5 0.30                           251 195 
                                                                                
