 2013  426 0639 28.3 L   6.822 -73.204133.0  RSN  5 0.3 1.7LRSN                1
 GAP=128        0.55       3.3     4.1  8.7 -0.1497E+01  0.1074E+02 -0.5061E+01E
 Epicentro: ZAPATOCA - SANTANDER                                               3
 ACTION:UPD 13-05-22 14:41 OP:EP   STATUS:               ID:20130426063928 L   I
 2013-04-26-0628-44M.COL___202                                                 6
 STAT SP IPHASW D HRMM SECON CODA AMPLIT PERI AZIMU VELO AIN AR TRES W  DIS CAZ7
 PAM  SZ EP   1    639 49.61                             147    0.27 8 79.9  44 
 PAM  SN ES   2    640  6.01                             147    0.27 5 79.9  44 
 PAM  SN I         640  7.43        11.0 0.46            150           79.9  44 
 RUS  HN EP   1    639 51.15                             140    0.09 8  104 173 
 RUS  HZ ES   1    640  8.44                             140   -0.37 8  104 173 
 RUS  HZ I         640 11.21         2.0 0.40            145            104 173 
 PTB  HZ EP        639 53.63                             130   -0.0810  142 257 
 PTB  HN ES   1    640 13.87                             130    0.34 7  142 257 
 PTB  HN I         640 15.46         3.6 0.38            133            142 257 
 OCA  HN ES   2    640 16.16                             127   -0.29 5  157 355 
 OCA  HN I         640 19.23        17.0 0.20            129            157 355 
 SML  HN ES   2    640 30.66                             115   -0.66 4  239 336 
 SML  HN I         640 35.95         6.7 0.10            117            239 336 
                                                                                
