 2012  726 0202 48.9 L   6.605 -73.634 99.9  RSN  6 0.3 1.4LRSN                1
 GAP=123        0.67       3.4     3.5  6.5  0.3378E+01  0.7730E+01 -0.5811E+00E
 Epicentro: EL CARMEN DE CHUCURI - SANTANDER                                   3
 ACTION:UPD 12-08-14 11:45 OP:ep   STATUS:               ID:20120726020248 L   I
 2012-07-26-0200-00M.COL___215                                                 6
 STAT SP IPHASW D HRMM SECON CODA AMPLIT PERI AZIMU VELO AIN AR TRES W  DIS CAZ7
 BAR2 SZ ES   1    2 3 16.21                             152     0.0 7   50  92 
 BAR2 SZ I         2 3 18.17        10.6 0.26            156             50  92 
 BRR  HZ EP   1    2 3  3.95                             149    -0.3 7   56 351 
 BRR  HN ES   1    2 3 16.53                             149     0.2 7   56 351 
 BRR  HZ I         2 3 20.61         7.3 0.35            151             56 351 
 PTB  HZ EP        2 3  6.88                             135    -0.110   91 265 
 PTB  HZ I         2 3  7.04         4.9 0.16            139             91 265 
 PTB  HN ES   1    2 3 20.87                             135    -0.3 7   91 265 
 RUS  HZ EP   1    2 3  8.27                             132    -0.2 7  100 142 
 RUS  HN ES   1    2 3 23.95                             132     0.3 7  100 142 
 RUS  HZ I         2 3 26.21         7.1 0.46            138            100 142 
 ZAR  HZ EP        2 3 15.08                             117     0.4 9  167 306 
 ZAR  HN ES   1    2 3 34.99                             117     0.2 7  167 306 
 ZAR  HZ I         2 3 37.84         5.1 0.23            120            167 306 
 OCA  HN ES   1    2 3 38.26                             114    -0.2 7  184  11 
