 2017  726 0218 47.5 L   6.808 -73.120149.8  RSN 12 0.6 1.7LRSN                1
 GAP=215        1.02       4.8     4.3  6.8  0.7595E+01  0.4170E+01  0.4656E+01E
 Epicentro: LOS SANTOS - SANTANDER                                             3
 ACTION:UPD 17-08-30 15:36 OP:rebc STATUS:               ID:20170726021847 L   I
 OLDACT:UP  17-07-26 14:05 OP:and  STATUS:               ID:20170726021740     3
 OLDACT:UP  17-07-26 14:03 OP:and  STATUS:               ID:20170726021740     3
 OLDACT:UP  17-07-26 14:03 OP:and  STATUS:               ID:20170726021740     3
 OLDACT:UP  17-07-26 14:02 OP:and  STATUS:               ID:20170726021740     3
 OLDACT:REG 17-07-26 12:43 OP:and  STATUS:               ID:20170726021740     3
 2017-07-26-0218-00M.COL___386                                                 6
 STAT SP IPHASW D HRMM SECON CODA AMPLIT PERI AZIMU VELO AIN AR TRES W  DIS CAZ7
 BAR2 EZ IP     D  219  7.51                             170   -0.1610 24.8 196 
 BAR2 EZ ES   2    219 23.57                             170    0.19 5 24.8 196 
 BAR2 EZ I         219 25.27         8.5 0.32            167           24.8 196 
 BRR  HZ EP        219  9.42                             153    0.1910 73.3 297 
 BRR  HE ES        219 26.66                             153    0.5010 73.3 297 
 BRR  HZ I         219 31.69         7.5 0.16            151           73.3 297 
 RUS  HZ EP        219 11.63                             144   -0.0910  101 178 
 RUS  HN ES   2    219 30.14                             144   -0.46 5  101 178 
 RUS  HZ I         219 31.12         5.2 0.30            146            101 178 
 PTB  HZ EP        219 14.12                             132   -0.97 9  151 259 
 PTB  HN ES        219 36.03                             132   -0.56 9  151 259 
 PTB  HZ I         219 42.72         6.0 0.40            132            151 259 
 SPBC HZ EP        219 16.47                             130   -0.10 9  166 220 
 SPBC HN ES        219 39.04                             130   -0.18 9  166 220 
 SPBC HZ I         219 41.93         5.9 0.14            130            166 220 
 YPLC HZ EP   2    219 17.67                             127    0.12 4  176 152 
 YPLC HN ES        219 41.65                             127    0.67 9  176 152 
 YPLC HZ I         219 43.88         4.8 0.24            131            176 152 
 ZAR  HZ EP        219 20.24                             123   -0.23 8  206 292 
 ZAR  HN ES        219 45.80                             123   -0.37 8  206 292 
 ZAR  HZ I         219 51.62         9.7 0.34            124            206 292 
 NOR  HZ EP        219 24.01                             119    0.22 8  238 235 
 NOR  HN ES        219 52.20                             119    0.12 8  238 235 
 NOR  HZ I         219 57.23         3.8 0.46            120            238 235 
 HEL  HZ EP   2    219 29.95                             115    1.68 4  275 256 
 HEL  HE ES        220  0.50                             115    0.44 8  275 256 
 HEL  HZ I         220  8.44         3.4 0.22            117            275 256 
 GUY2CHZ EP        219 32.29                             113    0.65 7  304 235 
 GUY2CHN ES   2    220  5.22                             113   -0.83 4  304 235 
 GUY2CHZ I         220 14.44         1.9 0.68                           304 235 
 PTGC HZ EP   3    219 30.38                             112   -1.16 2  308 159 
 PTGC HN ES   3    220  3.68                             112   -2.19 2  308 159 
 CBOC HZ EP        219 35.43                             110    0.48 7  337 252 
 CBOC HN ES   4    220  9.62                             110   -2.32 0  337 252 
 CBOC HZ I         220 19.90         1.0 0.24            112            337 252 
                                                                                
