 2012  626 0603  4.7 L   6.706 -73.197144.7  RSN  5 0.3 1.3LRSN                1
 GAP=224        0.63       6.5     6.0  7.5  0.2043E+02  0.1221E+02 -0.3282E+01E
 Epicentro: VILLANUEVA - SANTANDER                                             3
 ACTION:UPD 12-08-06 17:52 OP:ep   STATUS:               ID:20120626060304 L   I
 2012-06-26-0600-00M.COL___201                                                 6
 STAT SP IPHASW D HRMM SECON CODA AMPLIT PERI AZIMU VELO AIN AR TRES W  DIS CAZ7
 BAR2 SZ EP   1    6 3 23.98                             175   -0.03 7 12.7 173 
 BAR2 SZ ES   1    6 3 38.53                             175   -0.57 7 12.7 173 
 BAR2 SZ I         6 3 42.28         5.4 0.18                          12.7 173 
 BRR  HZ EP   1    6 3 25.98                             152    0.22 7 72.1 308 
 BRR  HN ES   1    6 3 42.63                             152    0.41 7 72.1 308 
 BRR  HZ I         6 3 45.46         7.8 0.26                          72.1 308 
 RUS  HN ES   1    6 3 45.86                             146    0.30 7 90.9 172 
 RUS  HZ I         6 3 47.89         2.4 0.39                          90.9 172 
 PTB  HZ EP   1    6 3 30.67                             133   -0.23 7  140 263 
 PTB  HN ES   1    6 3 51.38                             133    0.02 7  140 263 
 PTB  HZ I         6 3 54.33         2.1 0.14                           140 263 
 ZAR  HN ES   1    6 4  1.93                             122   -0.19 6  203 295 
                                                                                
