 2013  626 0111 50.5 L   6.753 -73.165150.1  RSN  5 0.4 1.3LRSN                1
 GAP=136        1.08       6.9     6.6  8.9  0.8247E+01  0.1212E+02  0.1012E+02E
 Epicentro: LOS SANTOS - SANTANDER                                             3
 ACTION:UPD 14-01-08 09:57 OP:ep   STATUS:               ID:20130626011150 L   I
 OLDACT:REG 13-06-26 07:28 OP:jn   STATUS:               ID:20130626010959     3
 2013-06-26-0109-59M.COL___267                                                 6
 STAT SP IPHASW D HRMM SECON CODA AMPLIT PERI AZIMU VELO AIN AR TRES W  DIS CAZ7
 BAR2 SZ EP        112 10.79                             173    0.1910 17.9 186 
 BAR2 SZ ES        112 26.72                             173    0.4710 17.9 186 
 BAR2 SZ I         112 26.97         3.0 0.16            172           17.9 186 
 BRR  HZ EP   1    112 12.36                             153    0.15 7 72.0 303 
 BRR  HN ES        112 29.48                             153    0.3710 72.0 303 
 BRR  HZ I         112 32.56         8.6 0.32            152           72.0 303 
 PAM  SN ES   1    112 30.56                             150   -0.92 7 82.8  38 
 RUS  HZ EP        112 14.80                             146    0.4310 95.6 175 
 RUS  HN ES        112 32.51                             146   -0.4610 95.6 175 
 RUS  HZ I         112 34.70         1.9 0.24            148           95.6 175 
 PTB  HZ EP        112 17.39                             134   -0.21 9  145 261 
 PTB  HN ES        112 38.26                             134   -0.45 9  145 261 
 PTB  HZ I         112 41.49         1.7 0.26            134            145 261 
                                                                                
