 2011 1126 0216 37.2 L   6.788 -73.114140.5  RSN 17 0.3 2.8LRSN                1
 GAP=117        0.39       1.5     2.4  3.1 -0.7506E+00  0.1970E+01  0.4605E+00E
 Epicentro: LOS SANTOS - SANTANDER                                             3
 ACTION:UPD 12-07-13 16:12 OP:ep   STATUS:               ID:20111126021637 L   I
 2011-11-26-0200-00M.COL___181                                                 6
 STAT SP IPHASW D HRMM SECON CODA AMPLIT PERI AZIMU VELO AIN AR TRES W  DIS CAZ7
 BAR2 SZ IP        216 56.08                             170   -0.1110 22.9 199 
 BAR2 SZ ES   2    217 10.59                             170   -0.41 5 22.9 199 
 BAR2 SZ I         217 12.02       227.0 0.29                          22.9 199 
 GIR2 SZ IP        216 56.11                             166   -0.2010 33.4 345 
 GIR2 SZ ES   2    217 11.49                             166    0.28 5 33.4 345 
 BRR  HZ IP     C  216 57.92                             150   -0.0910 74.9 298 
 BRR  HZ I         217  0.16       216.9 0.12                          74.9 298 
 BRR  HE ES   2    217 14.74                             150    0.51 5 74.9 298 
 PAM  SZ IP        216 58.83                             150    0.0410 76.3  37 
 PAM  SN ES   2    217 15.57                             150   -0.06 5 76.3  37 
 RUS  HZ EP        217  0.15                             143   -0.1810 99.0 178 
 RUS  HE ES   2    217 18.46                             143    0.10 5 99.0 178 
 RUS  HZ I         217 20.49       126.8 0.46                          99.0 178 
 BRI  SZ EP   2    217  0.72                             140    0.12 5  109  19 
 OCA  SZ EP        217  5.56                             128    0.28 9  162 352 
 OCA  SZ ES   2    217 27.39                             128    0.21 5  162 352 
 OCA  SZ I         217 35.06        48.3 0.14                           162 352 
 YOP  SZ EP   2    217  6.91                             125    0.31 4  176 154 
 YOP  SN ES   2    217 29.81                             125    0.29 4  176 154 
 YOP  SZ I         217 34.73        47.5 0.21                           176 154 
 NOR  SZ EP   2    217 12.70                             117   -0.16 4  237 235 
 NOR  SN ES   2    217 40.45                             117   -0.22 4  237 235 
 CHI  HZ EP   2    217 14.67                             116    0.09 4  248 196 
 CHI  HE ES   2    217 44.04                             116    0.32 4  248 196 
 CHI  HZ I         217 47.09        31.6 0.44                           248 196 
 HEL  HZ EP   2    217 17.64                             113    0.14 4  275 256 
 HEL  HN ES   2    217 48.29                             113   -0.64 4  275 256 
 HEL  HZ I         217 53.88        36.0 0.54                           275 256 
 VIL  SZ EP   2    217 20.29                             111   -0.03 4  303 192 
 VIL  SN ES   2    217 54.19                             111    0.25 4  303 192 
 VIL  SZ I         218  5.49        26.3 0.49                           303 192 
 GUY  SZ EP   2    217 20.88                             111   -0.20 4  306 236 
 GUY  SN ES   2    217 55.81                             111    0.51 4  306 236 
 GUY  SZ I         218  3.03        76.3 0.29                           306 236 
 RREF HZ EP   2    217 23.17                             110   -0.16 3  324 230 
 RREF HN ES   2    217 59.36                             110    0.05 3  324 230 
 RREF HZ I         218  5.14        37.9 0.86                           324 230 
 DBB  SZ EP   2    217 25.21                             108    0.32 3  343 274 
 COD  HZ EP   2    217 24.90                             108   -0.67 3  350 354 
 COD  HN ES   2    218  3.29                             108   -0.01 3  350 354 
 COD  HZ I         218 24.80        19.4 0.67                           350 354 
 PRA  HZ EP   2    217 30.72                             106    0.11 3  393 210 
 PRA  HN ES   2    218 12.86                             106    0.59 3  393 210 
                                                                                
