 2016  926 0842 15.4 L   6.774 -73.182153.3  RSN  6 0.3 1.3LRSN                1
 GAP=231        0.79       5.9     5.7  7.1  0.2053E+02  0.5736E-01  0.2294E+01E
 Epicentro: LOS SANTOS - SANTANDER                                             3
 ACTION:UPD 17-08-17 21:16 OP:lp   STATUS:               ID:20160926084215 L   I
 OLDACT:REG 16-09-26 13:42 OP:dani STATUS:               ID:20160926083746     3
 2016-09-26-0838-00M.COL___327                                                 6
 STAT SP IPHASW D HRMM SECON CODA AMPLIT PERI AZIMU VELO AIN AR TRES W  DIS CAZ7
 BAR2 EZ EP        842 35.51                             172   -0.3410 20.1 180 
 BAR2 EZ I         842 51.69         5.1 0.22            165           20.1 180 
 BRR  HZ EP        842 37.31                             154    0.0810 69.2 302 
 BRR  HN ES        842 54.57                             154    0.2910 69.2 302 
 BRR  HZ I         842 56.25         3.8 0.31            144           69.2 302 
 RUS  HZ EP        842 39.72                             146    0.0210 98.1 174 
 RUS  HE ES        842 58.62                             146   -0.0610 98.1 174 
 RUS  HZ I         842 59.21         2.6 0.25            130           98.1 174 
 PTB  HZ EP        842 42.19                             135   -0.38 9  143 260 
 PTB  HE ES        843  3.55                             135   -0.24 9  143 260 
 PTB  HZ I         843  8.45         1.8 0.18            120            143 260 
 SPBC HZ EP        842 44.68                             132    0.66 9  158 218 
 SPBC HZ I         843 12.91         3.4 0.12            117            158 218 
 ZAR  HN ES        843 13.57                             124    0.02 9  201 293 
 ZAR  HZ I         843 20.09         1.5 0.26            112            201 293 
                                                                                
