 2014 1026 0503 55.6 L   6.825 -73.155148.7  RSN  5 0.5 1.5LRSN                1
 GAP=239        1.39       8.4     9.0 10.2  0.1714E+02  0.9314E+01  0.7230E+01E
 Epicentro: LOS SANTOS - SANTANDER                                             3
 ACTION:UPD 14-11-29 23:57 OP:nd   STATUS:               ID:20141026050355 L   I
 OLDACT:UP  14-10-29 16:18 OP:cam  STATUS:               ID:20141026045817     3
 OLDACT:UP  14-10-29 16:18 OP:cam  STATUS:               ID:20141026045817     3
 OLDACT:REG 14-10-29 13:12 OP:cam  STATUS:               ID:20141026045817     3
 2014-10-26-0458-17M.COL___277                                                 6
 STAT SP IPHASW D HRMM SECON CODA AMPLIT PERI AZIMU VELO AIN AR TRES W  DIS CAZ7
 BAR2 SZ EP        5 4 14.80                             170   -0.8410 25.9 187 
 BAR2 SZ ES        5 4 30.67                             170   -0.5910 25.9 187 
 BAR2 SZ I         5 4 33.81         5.9 0.40            164           25.9 187 
 BRR  HZ EP        5 4 17.39                             154    0.4410 69.0 297 
 BRR  HN ES        5 4 34.36                             154    0.7710 69.0 297 
 BRR  HZ I         5 4 34.93         7.9 0.32            151           69.0 297 
 RUS  HZ EP        5 4 20.12                             144    0.2710  103 176 
 RUS  HN ES        5 4 39.10                             144    0.3510  103 176 
 RUS  HZ I         5 4 40.25         3.0 0.30            142            103 176 
 PTB  HZ EP        5 4 22.25                             133   -0.52 9  147 258 
 PTB  HN ES        5 4 43.42                             133   -0.53 9  147 258 
 PTB  HZ I         5 4 50.61         4.1 0.42            131            147 258 
 SPBC HZ EP        5 4 24.96                             129    0.49 9  165 218 
 SPBC HN ES        5 4 47.12                             129    0.14 9  165 218 
 SPBC HZ I         5 4 52.83         4.9 0.26            128            165 218 
                                                                                
