 2016  326 0257 19.7 L   6.822 -73.143147.7  RSN 14 0.5 1.9LRSN                1
 GAP=118        1.02       2.9     3.5  5.7 -0.2066E+01  0.5959E+01  0.1533E+01E
 Epicentro: LOS SANTOS - SANTANDER                                             3
 ACTION:UPD 16-05-13 21:27 OP:cam  STATUS:               ID:20160326025719 L   I
 OLDACT:DUP 16-03-26 15:01 OP:ak   STATUS:               ID:20160326024745d    3
 2016-03-26-0247-44M.COL___293                                                 6
 STAT SP IPHASW D HRMM SECON CODA AMPLIT PERI AZIMU VELO AIN AR TRES W  DIS CAZ7
 BAR2 EZ EP        257 39.59                             170   -0.0610 25.8 190 
 BAR2 EZ ES        257 55.65                             170    0.4710 25.8 190 
 BAR2 EZ I         257 56.24        21.6 0.18            170           25.8 190 
 PAM  EZ EP        257 42.70                             152    0.6710 75.3  41 
 PAM  EN ES        257 59.21                             152   -0.2210 75.3  41 
 PAM  EZ I         258  2.12        12.8 0.54            154           75.3  41 
 RUS  HZ EP        257 43.35                             143   -0.5010  103 176 
 RUS  HN ES        258  2.63                             143   -0.0310  103 176 
 RUS  HZ I         258  3.61        10.8 0.28            146            103 176 
 PTB  HZ EP        257 46.39                             132   -0.53 9  149 258 
 PTB  HN ES        258  7.63                             132   -0.51 9  149 258 
 PTB  HZ I         258 10.91         6.2 0.12            132            149 258 
 OCA  HZ EP        257 48.43                             130    0.46 9  158 353 
 OCA  HN ES        258  9.88                             130   -0.11 9  158 353 
 OCA  HZ I         258 13.03        17.1 0.16            131            158 353 
 SPBC HZ EP        257 48.64                             129    0.06 9  165 219 
 SPBC HN ES        258 10.89                             129   -0.19 9  165 219 
 SPBC HZ I         258 13.46        20.2 0.22            130            165 219 
 ZAR  HZ EP        257 51.95                             123   -0.28 9  203 291 
 ZAR  HN ES        258 17.60                             123    0.02 9  203 291 
 ZAR  HZ I         258 23.99         6.3 0.16            123            203 291 
 NOR  HZ EP   2    257 55.24                             119   -0.51 4  236 234 
 NOR  HN ES        258 23.34                             119   -0.51 8  236 234 
 NOR  HZ I         258 25.05         8.3 0.14            119            236 234 
 CHI  HZ EP        257 58.10                             117    0.30 8  251 195 
 CHI  HN ES        258 27.66                             117    0.16 8  251 195 
 CHI  HZ I         258 31.25         2.9 0.70            119            251 195 
 ROSC BN ES        258 28.91                             117    0.70 8  255 211 
 HEL  HZ EP   2    257 59.76                             115   -0.38 4  273 255 
 HEL  HN ES        258 31.24                             115   -0.42 8  273 255 
 HEL  HZ I         258 40.10         3.8 0.28            116            273 255 
 GUY2CHZ EP        258  4.41                             112    0.79 7  303 234 
 GUY2CHE ES        258 38.47                             112    0.63 7  303 234 
 GUY2CHZ I         258 46.15         4.4 0.32                           303 234 
 PTGC HZ EP        258  2.95                             112   -0.98 7  311 159 
 PTGC HN ES   4    258 36.16                             112   -2.24 0  311 159 
 CBOC HZ EP   2    258  7.37                             110    0.53 3  335 252 
 CBOC HE ES        258 44.19                             110    0.60 7  335 252 
 CBOC HZ I         258 50.54         1.4 0.65            111            335 252 
 MON  HN ES   4    258 44.82                             109   -1.99 0  352 308 
 SJC  HN ES   4    258 55.52                             106   -2.82 0  407 327 
                                                                                
