 2012  326 0930 40.3 L   6.743 -73.164145.4  RSN  5 0.3 1.8LRSN                1
 GAP=137        0.84       6.3     5.9  7.9  0.5313E+01 -0.3202E+01 -0.7769E+01E
 ACTION:UP  12-03-31 23:23 OP:EP   STATUS:               ID:20120326093040 L   I
 2012-03-26-0930-00M.COL___196                                                 6
 STAT SP IPHASW D HRMM SECON CODA AMPLIT PERI AZIMU VELO SNR AR TRES W  DIS CAZ7
 BAR2 SZ EP        930 59.82                             173     0.110   17 187 
 BAR2 SZ ES   1    931 14.55                             173    -0.4 7   17 187 
 BAR2 SZ I         931 15.84        12.7 0.38                            17 187 
 BRR  HZ EP        931  1.69                             152     0.210   73 304 
 BRR  HZ I         931  1.97        25.2 0.26                            73 304 
 BRR  HN ES   1    931 18.49                             152     0.5 7   73 304 
 PAM  SZ EP        931  2.58                             149    -0.310   84  38 
 RUS  HZ EP        931  3.94                             145     0.410   94 175 
 RUS  HN ES   1    931 21.64                             145    -0.1 7   94 175 
 RUS  HZ I         931 23.52         6.7 0.24                            94 175 
 PTB  HZ EP        931  6.59                             133    -0.4 9  145 261 
 PTB  HN ES   1    931 27.56                             133    -0.2 7  145 261 
 PTB  HZ I         931 33.59         9.3 0.30                           145 261 
                                                                                
