 2010 1026 0553 43.3 L   6.766 -73.113147.3  RSN 10 0.5 2.3LRSN                1
 GAP=129        1.13       4.4     7.9  8.0 -0.1012E+02  0.2289E+01  0.1300E+01E
 Epicentro: LOS SANTOS - SANTANDER                                             3
 ACTION:UP  11-02-18 11:12 OP:tino STATUS:               ID:20101026055343 L   I
 2010-10-26-0550-18S.COL___125                                                 6
 STAT SP IPHASW D HRMM SECON CODA AMPLIT PERI AZIMU VELO SNR AR TRES W  DIS CAZ7
 BAR2 SZ IP        554  2.96                             172    -0.110   21 202 
 BAR2 SZ ES   1    554 17.98                             172    -0.5 7   21 202 
 BAR2 SZ I         554 19.74        52.3 0.37                            21 202 
 BRR  HZ IP     C  554  4.88                             151    -0.110   76 300 
 BRR  HZ I         554  5.16       107.3 0.15                            76 300 
 BRR  HE ES   1    554 22.04                             151     0.3 7   76 300 
 RUS  HZ EP        554  6.88                             145    -0.110   97 178 
 RUS  HN ES   1    554 25.59                             145     0.2 7   97 178 
 RUS  HZ I         554 26.84        18.0 0.44                            97 178 
 GRA  SZ IP        554  9.76                             137     0.810  128  15 
 GRA  SZ ES   1    554 29.36                             137     0.5 7  128  15 
 GRA  SZ I         554 30.74        31.8 0.36                           128  15 
 OCA  SZ IP        554 11.49                             129    -0.7 9  164 352 
 OCA  SZ ES   1    554 34.44                             129    -0.2 7  164 352 
 OCA  SZ I         554 39.25        28.6 0.19                           164 352 
 NOR  SZ EP   2    554 18.77                             119    -0.5 4  236 236 
 NOR  SE ES   2    554 46.69                             119    -0.6 4  236 236 
 CHI  HZ EP   1    554 20.95                             118     0.1 6  246 196 
 CHI  HZ I         554 23.63         4.5 0.32                           246 196 
 CHI  HE ES   2    554 49.86                             118    -0.2 4  246 196 
 HEL  HZ EP   1    554 24.79                             115     0.9 6  275 257 
 HEL  HN ES   2    554 54.93                             115    -0.6 4  275 257 
 HEL  HZ I         555  1.36        12.9 0.34                           275 257 
 SDV  BZ EP   1    554 32.17                             108    -1.2 5  360  49 
 SDV  BZ I         554 33.05         2.6 0.19                           360  49 
 PRA  HZ EP   1    554 37.16                             107     0.4 4  391 210 
 PRA  HZ I         554 38.64        20.0 0.12                           391 210 
 PRA  HN ES   2    555 19.14                             107     0.8 3  391 210 
                                                                                
