 2011 1226 0522 48.8 L   6.813 -73.480116.5  RSN  4 0.3 1.2LRSN                1
 GAP=165        0.71       6.5     5.3  7.9  0.1599E+02  0.9236E+01  0.1409E+02E
 Epicentro: SAN VICENTE DE CHUCURI - SANTANDER                                 3
 ACTION:UPD 12-07-13 16:18 OP:ep   STATUS:               ID:20111226052248 L   I
 2011-12-26-0520-00M.COL___187                                                 6
 STAT SP IPHASW D HRMM SECON CODA AMPLIT PERI AZIMU VELO AIN AR TRES W  DIS CAZ7
 BAR2 SZ EP   1    523  5.49                             159   -0.03 7 40.9 127 
 BAR2 SZ ES   1    523 17.95                             159   -0.62 7 40.9 127 
 BAR2 SZ I         523 19.48         4.6 0.26                          40.9 127 
 BRR  HZ EP   1    523  5.23                             159    0.04 7 41.5 322 
 BRR  HZ I         523  5.47         4.8 0.12                          41.5 322 
 BRR  HE ES   1    523 18.42                             159    0.44 7 41.5 322 
 RUS  HZ EP   1    523 10.52                             134   -0.16 7  111 157 
 RUS  HN ES   1    523 28.30                             134    0.56 7  111 157 
 PTB  HZ EP   1    523 10.15                             133    0.00 7  112 254 
 PTB  HN ES   1    523 26.58                             133   -0.22 7  112 254 
                                                                                
