 2011  326 0311 26.3 L   6.791 -73.171144.0  RSN 10 0.3 2.4LRSN                1
 GAP=112        0.67       3.7     4.8  6.0 -0.7594E+01 -0.4531E+01  0.8205E+01E
 Epicentro: LOS SANTOS - SANTANDER                                             3
 ACTION:UP  11-06-16 14:35 OP:jfem STATUS:               ID:20110326031126 L   I
 2011-03-26-0309-23S.COL___139                                                 6
 STAT SP IPHASW D HRMM SECON CODA AMPLIT PERI AZIMU VELO SNR AR TRES W  DIS CAZ7
 BTL  SZ IP        311 45.78                             173     0.210   18 323 
 BTL  SZ ES   2    312  0.60                             173    -0.1 5   18 323 
 BAR2 SZ IP        311 45.68                             171     0.010   22 184 
 BAR2 SZ ES   2    312  0.30                             171    -0.5 5   22 184 
 BAR2 SZ I         312  1.88        82.2 0.39                            22 184 
 BRR  HZ IP     D  311 47.41                             153     0.310   69 300 
 BRR  HZ I         311 47.82        70.3 0.12                            69 300 
 BRR  HN ES   2    312  4.23                             153     0.8 5   69 300 
 PAM  SZ EP   2    311 48.59                             150     0.1 5   80  41 
 PAM  SZ I         311 48.78        11.5 0.20                            80  41 
 PAM  SE ES   2    312  5.74                             150     0.0 5   80  41 
 GRA  SZ EP        311 51.31                             136    -0.210  128  19 
 GRA  SZ ES   2    312 10.90                             136    -0.3 5  128  19 
 GRA  SZ I         312 12.90        18.8 0.31                           128  19 
 OCA  SZ EP   1    311 54.11                             129    -0.4 7  161 354 
 OCA  SZ ES   2    312 16.73                             129     0.2 5  161 354 
 OCA  SZ I         312 19.12        36.6 0.22                           161 354 
 YOP  SZ EP        311 56.43                             126     0.2 9  179 152 
 YOP  SZ I         311 56.86        17.3 0.36                           179 152 
 NOR  SN ES        312 28.77                             118    -0.4 8  232 234 
 PRA  HZ EP   2    312 19.38                             106    -0.1 3  390 209 
 PRA  HE ES   2    313  0.95                             106     0.0 3  390 209 
 PRA  HZ I         313  8.70        30.2 0.18                           390 209 
 SJA  SZ EP        312 20.91                             106     0.3 6  398 193 
 SJA  SZ I         313 14.92        10.6 0.40                           398 193 
                                                                                
