 2011  526 0145 15.3 L   6.753 -73.084145.3  RSN 11 0.4 2.1LRSN                1
 GAP=147        0.77       4.1     5.8  5.4 -0.1103E+02  0.4406E+01  0.2024E+01E
 Epicentro: LOS SANTOS - SANTANDER                                             3
 ACTION:UP  11-06-29 08:56 OP:tino STATUS:               ID:20110526014515 L   I
 2011-05-26-0143-42S.COL___115                                                 6
 STAT SP IPHASW D HRMM SECON CODA AMPLIT PERI AZIMU VELO SNR AR TRES W  DIS CAZ7
 BAR2 SZ EP   1    145 34.44                             171    -0.4 7   21 212 
 BAR2 SZ ES   1    145 49.97                             171    -0.1 7   21 212 
 BAR2 SZ I         145 51.74        36.7 0.28                            21 212 
 BTL  SZ EP   1    145 35.08                             169     0.1 7   27 312 
 GIR2 SZ EP   1    145 35.14                             165     0.0 7   38 341 
 GIR2 SZ ES   1    145 50.02                             165    -0.5 7   38 341 
 PAM  SZ EP   1    145 37.05                             151    -0.4 7   78  33 
 PAM  SZ I         145 38.20         6.8 0.23                            78  33 
 PAM  SN ES   2    145 54.74                             151     0.0 5   78  33 
 BRR  HZ EP   1    145 36.84                             150    -0.1 7   80 299 
 BRR  HZ I         145 37.22        42.6 0.09                            80 299 
 BRR  HN ES   1    145 54.23                             150     0.5 7   80 299 
 RUS  HZ EP   1    145 38.68                             145     0.1 7   95 180 
 RUS  HN ES   1    145 57.29                             145     0.5 7   95 180 
 RUS  HZ I         145 58.86        17.5 0.23                            95 180 
 BRI  SZ EP   1    145 39.30                             141    -0.1 7  111  17 
 BRI  SZ ES   2    145 58.89                             141     0.8 5  111  17 
 BRI  SZ I         146  0.34        11.4 0.44                           111  17 
 GRA  SZ EP   1    145 40.94                             136     0.2 7  129  14 
 GRA  SZ ES   1    146  0.47                             136    -0.2 7  129  14 
 GRA  SZ I         146  3.16        10.2 0.46                           129  14 
 NOR  SZ EP   1    145 51.46                             118     0.2 6  237 236 
 NOR  SN ES   1    146 18.68                             118    -0.7 6  237 236 
 HEL  HZ EP   1    145 56.59                             114     0.5 6  277 257 
 PRA  HZ EP   1    146  8.60                             106    -0.1 4  391 211 
 PRA  HZ I         146 53.22        11.8 0.21                           391 211 
                                                                                
