 2016 1026 0731  9.6 L   6.777 -73.089136.2  RSN 10 0.4 1.5LRSN                1
 GAP=145        1.14       4.8     5.4  6.6 -0.8028E+01  0.5033E+01  0.8094E+01E
 Epicentro: LOS SANTOS - SANTANDER                                             3
 ACTION:UPD 16-11-09 19:23 OP:rebc STATUS:               ID:20161026073109 L   I
 OLDACT:UP  16-10-26 18:45 OP:cog  STATUS:               ID:20161026072747d    3
 OLDACT:DUP 16-10-26 18:41 OP:cog  STATUS:               ID:20161026072747d    3
 2016-10-26-0728-00M.COL___325                                                 6
 STAT SP IPHASW D HRMM SECON CODA AMPLIT PERI AZIMU VELO AIN AR TRES W  DIS CAZ7
 BAR2 EZ EP        731 27.89                             170   -0.2110 22.9 207 
 BAR2 EZ ES        731 42.36                             170   -0.1510 22.9 207 
 BAR2 EZ I         731 43.63         9.3 0.34            168           22.9 207 
 PAM  EZ EP        731 30.95                             149    0.2310 75.6  35 
 PAM  EN ES        731 46.91                             149   -0.2710 75.6  35 
 PAM  EZ I         731 49.77         8.5 0.44            153           75.6  35 
 BRR  HZ EP        731 29.89                             148   -0.2810 77.9 298 
 BRR  HN ES        731 46.64                             148    0.4510 77.9 298 
 BRR  HZ I         731 48.19         4.1 0.11            150           77.9 298 
 RUS  HZ EP        731 32.07                             142   -0.1710 97.8 180 
 RUS  HN ES        731 50.32                             142    0.4410 97.8 180 
 RUS  HZ I         731 52.25         3.1 0.42            142           97.8 180 
 PTB  HZ EP   9    731 35.76                             128   -0.61 0  153 260 
 PTB  HN ES        731 55.32                             128   -1.30 9  153 260 
 PTB  HZ I         731 58.45         3.9 0.14            129            153 260 
 SPBC HZ EP        731 37.35                             126   -0.27 9  165 221 
 SPBC HN ES        731 59.00                             126   -0.45 9  165 221 
 SPBC HZ I         732  6.70         4.8 0.20            127            165 221 
 NOR  HN ES   4    732 11.83                             115   -1.16 0  238 236 
 CHI  HZ EP   4    731 47.83                             115    1.10 0  248 197 
 CHI  HN ES   2    732 15.18                             115   -0.50 4  248 197 
 CHI  HZ I         732 19.06         1.1 0.30            116            248 197 
 HEL  HN ES        732 22.18                             112    0.71 7  278 257 
 GUY2CHZ EP        731 53.55                             110    0.31 7  305 236 
 GUY2CHN ES   4    732 30.13                             110    2.88 0  305 236 
 PRA  HZ EP        732  3.42                             104    0.48 6  393 211 
 PRA  HN ES        732 44.31                             104   -0.22 6  393 211 
 PRA  HZ I         732 48.54         1.2 0.24            105            393 211 
                                                                                
