 2011 1226 0102  7.3 L   6.770 -73.174150.7  RSN  7 0.4 1.6LRSN                1
 GAP=134        0.79       5.1     5.4  6.3 -0.2413E+01  0.4054E+01  0.7225E+01E
 Epicentro: LOS SANTOS - SANTANDER                                             3
 ACTION:UPD 12-07-13 16:18 OP:ep   STATUS:               ID:20111226010207 L   I
 2011-12-26-0100-00M.COL___188                                                 6
 STAT SP IPHASW D HRMM SECON CODA AMPLIT PERI AZIMU VELO AIN AR TRES W  DIS CAZ7
 BAR2 SZ EP   1    1 2 27.37                             172   -0.06 7 19.6 183 
 BAR2 SZ ES   1    1 2 42.76                             172   -0.39 7 19.6 183 
 BAR2 SZ I         1 2 44.03        11.8 0.19                          19.6 183 
 GIR2 SZ EP   1    1 2 27.64                             167    0.03 7 34.3 356 
 GIR2 SZ ES   1    1 2 43.87                             167    0.39 7 34.3 356 
 BRR  HZ EP        1 2 29.15                             154    0.2510 70.2 302 
 BRR  HZ I         1 2 29.41        14.6 0.14                          70.2 302 
 BRR  HN ES   1    1 2 46.45                             154    0.68 7 70.2 302 
 PAM  SZ EP   1    1 2 30.17                             150   -0.11 7 81.9  40 
 PAM  SZ I         1 2 30.35         4.3 0.17                          81.9  40 
 PAM  SN ES   1    1 2 47.61                             150   -0.62 7 81.9  40 
 RUS  HZ EP   1    1 2 31.61                             146    0.32 7 97.5 174 
 RUS  HN ES   1    1 2 50.18                             146    0.15 7 97.5 174 
 RUS  HZ I         1 2 51.18         2.8 0.42                          97.5 174 
 PTB  HZ EP   1    1 2 34.00                             134   -0.32 7  144 260 
 PTB  HN ES   1    1 2 54.74                             134   -0.68 7  144 260 
 CHI  HZ EP   1    1 2 44.91                             118    0.10 6  245 195 
                                                                                
