 2010  526 0847 36.9 L   6.822 -73.080138.7  RSN  6 0.6 1.7LRSN                1
 GAP=190        1.24       8.2    12.2 13.1 -0.6425E+02  0.5605E+02 -0.2676E+02E
 Epicentro: LOS SANTOS - SANTANDER                                             3
 ACTION:UP  10-08-24 10:06 OP:vdl  STATUS:               ID:20100526084736 L   I
 2010-05-26-0843-59S.COL___108                                                 6
 STAT SP IPHASW D HRMM SECON CODA AMPLIT PERI AZIMU VELO SNR AR TRES W  DIS CAZ7
 BAR2 SZ EP        847 55.33                             168    -0.510   28 204 
 BAR2 SZ ES   1    848 10.52                             168     0.0 7   28 204 
 GUE  SZ EP   1    848  1.60                             139     0.9 7  113   9 
 GUE  SZ ES   2    848 19.90                             139     0.7 5  113   9 
 GRA  SZ EP        848  1.32                             136     0.210  121  15 
 GRA  SZ ES   1    848 20.58                             136     0.5 7  121  15 
 OCA  SZ EP        848  4.13                             128    -0.4 9  159 350 
 OCA  SZ ES   1    848 25.06                             128    -1.0 7  159 350 
 HEL  HN ES   1    848 50.15                             113     0.8 6  280 256 
 HEL  HZ I         848 54.02         2.2 0.14                           280 256 
 RREF BN ES   1    848 59.90                             109    -0.1 5  329 230 
 RREF BZ I         849  3.72         2.6 0.56                           329 230 
                                                                                
