 2017  426 0532 39.0 L   6.743 -73.200146.0  RSN  4 0.3 1.0LRSN                1
 GAP=228        0.87       9.8     7.4  8.6  0.1972E+02  0.2594E+02  0.4379E+00E
 Epicentro: VILLANUEVA - SANTANDER                                             3
 ACTION:UPD 17-05-30 21:16 OP:jn   STATUS:               ID:20170426053239 L   I
 OLDACT:REG 17-04-26 12:31 OP:dani STATUS:               ID:20170426052738     3
 2017-04-26-0528-00M.COL___374                                                 6
 STAT SP IPHASW D HRMM SECON CODA AMPLIT PERI AZIMU VELO AIN AR TRES W  DIS CAZ7
 BAR2 EZ ES        533 13.46                             173   -0.3310 16.8 173 
 BRR  HZ EP        533  0.04                             153   -0.0410 69.4 305 
 BRR  HN ES        533 17.02                             153    0.5010 69.4 305 
 BRR  HZ I         533 19.21         2.1 0.24            152           69.4 305 
 PTB  HZ EP        533  5.62                             134    0.26 9  141 261 
 PTB  HN ES        533 25.98                             134    0.06 9  141 261 
 PTB  HZ I         533 30.87         1.4 0.22            133            141 261 
 ZAR  HN ES        533 35.68                             123   -0.55 9  201 294 
                                                                                
