 2014  226 0551 42.8 L   6.799 -73.145143.8  RSN 18 0.3 2.4LRSN                1
 GAP= 71        0.79       2.0     2.9  4.4 -0.8462E+00  0.5598E+01  0.2164E-01E
 Epicentro: LOS SANTOS - SANTANDER                                             3
 2014-02-26-0549-35M.COL___230                                                 6
 OLDACT:REG 14-02-26 08:23 OP:fm   STATUS:               ID:20140226054935     3
 ACTION:UPD 14-03-10 08:13 OP:ep   STATUS:               ID:20140226055142 L   I
 OLDACT:UP  14-02-26 15:10 OP:fm   STATUS:               ID:20140226054935     3
 STAT SP IPHASW D HRMM SECON CODA AMPLIT PERI AZIMU VELO AIN AR TRES W  DIS CAZ7
 BAR2 SZ IP     C  552  2.44                             170    0.2210 23.2 190 
 BAR2 SZ ES        552 17.48                             170    0.1310 23.2 190 
 BAR2 SZ I         552 19.96        66.2 0.26            169           23.2 190 
 PAM  SZ EP        552  5.17                             150    0.3310 77.4  39 
 PAM  SN ES        552 22.15                             150    0.1410 77.4  39 
 PAM  SZ I         552 24.39        32.1 0.28            150           77.4  39 
 RUS  HZ IP     D  552  6.30                             143   -0.0810  100 176 
 RUS  HN ES        552 24.28                             143   -0.4710  100 176 
 RUS  SZ I         552 26.19        16.4 0.44            142            100 176 
 PTB  HZ EP        552  8.95                             132   -0.69 9  148 259 
 PTB  SZ I         552 36.00        30.6 0.48            128            148 259 
 PTB  HZ I         552 36.19        30.5 0.41                           148 259 
 TAM  HZ EP   1    552 10.55                             130    0.21 7  155 105 
 TAM  HN ES   1    552 31.85                             130    0.04 7  155 105 
 TAM  SZ I         552 41.39        14.3 0.78            129            155 105 
 OCA  HZ EP   1    552 10.79                             129   -0.21 7  160 353 
 OCA  HN ES        552 32.87                             129   -0.10 9  160 353 
 OCA  SZ I         552 38.51        26.3 0.38            127            160 353 
 SPBC HZ EP        552 11.32                             129    0.15 9  163 219 
 SPBC HN ES        552 33.59                             129    0.31 9  163 219 
 SPBC SZ I         552 38.30        39.1 0.26            126            163 219 
 ZAR  HZ EP        552 15.64                             122    0.48 9  204 292 
 ZAR  HN ES   1    552 40.34                             122   -0.03 6  204 292 
 ZAR  SZ I         552 46.57        27.6 0.30            119            204 292 
 NOR  HZ EP        552 18.22                             118   -0.22 8  235 234 
 NOR  HN ES        552 46.22                             118   -0.00 8  235 234 
 NOR  HZ I         552 50.40        17.6 0.27            116            235 234 
 NOR  SZ I         552 53.54        16.1 0.18                           235 234 
 SML  HZ EP        552 18.69                             117   -0.67 8  244 335 
 SML  HN ES        552 47.64                             117   -0.21 8  244 335 
 SML  SZ I         552 53.73        36.2 0.10            115            244 335 
 CHI  HZ EP        552 20.41                             117    0.00 8  249 195 
 CHI  HN ES        552 49.46                             117   -0.26 8  249 195 
 CHI  SZ I         552 58.05         7.1 0.40            115            249 195 
 ROSC BZ EP   4    552 21.80                             116    0.97 0  253 211 
 ROSC BN ES   4    552 52.62                             116    2.14 0  253 211 
 ROSC SZ I         553  0.29        26.3 0.50            114            253 211 
 HEL  HZ EP        552 23.76                             114    0.82 8  272 256 
 HEL  HN ES   1    552 54.30                             114    0.06 6  272 256 
 HEL  SZ I         553  1.08        11.3 0.40            112            272 256 
 URE  HZ EP   4    552 22.56                             113   -1.25 0  284 292 
 URE  HN ES   4 C  552 53.31                             113   -2.47 0  284 292 
 URE  SZ I         552 56.13        11.5 0.12            111            284 292 
 GUY2CHZ EP        552 26.81                             112    0.47 7  301 235 
 GUY2CHN ES   4    553  3.70                             112    3.41 0  301 235 
 GUY2CSZ I         553  8.61        14.6 0.62                           301 235 
 RREF HZ EP   4    552 29.68                             110    0.80 0  322 229 
 RREF HN ES   4    553  7.36                             110    2.55 0  322 229 
 RREF SZ I         553 11.73        12.1 0.30            109            322 229 
 PRA  HZ EP        552 35.81                             106   -0.46 6  392 210 
 PRA  HN ES   1    553 17.90                             106   -0.06 4  392 210 
 PRA  SZ I         553 23.69        11.9 0.70            105            392 210 
 SJC  HZ EP   4    552 36.60                             105   -1.74 0  409 327 
 SJC  HN ES   4    553 17.50                             105   -4.14 0  409 327 
 SJC  SZ I         553 41.85        13.3 2.40            104            409 327 
                                                                                
