 2010  726 0712 55.6 L   6.795 -73.092138.8  RSN  6 0.2 1.7LRSN                1
 GAP=165        0.55       4.0     7.8  7.0  0.1196E+02 -0.2624E+02 -0.1517E+02E
 Epicentro: LOS SANTOS - SANTANDER                                             3
 ACTION:UPD 10-12-01 15:20 OP:pat  STATUS:               ID:20100726071255 L   I
 2010-07-26-0709-45S.COL___123                                                 6
 STAT SP IPHASW D HRMM SECON CODA AMPLIT PERI AZIMU VELO AIN AR TRES W  DIS CAZ7
 BAR2 SZ IP        713 14.39                             170    -0.110   25 204 
 BAR2 SZ ES   1    713 29.01                             170    -0.1 7   25 204 
 BRR  HZ EP        713 16.24                             150    -0.110   77 297 
 BRR  HZ I         713 16.59        21.3 0.12                            77 297 
 BRR  HE ES   1    713 32.80                             150     0.3 7   77 297 
 RUS  HZ EP   2    713 18.44                             143    -0.2 5  100 179 
 RUS  HN ES   1    713 36.71                             143     0.1 7  100 179 
 RUS  HZ I         713 39.19         3.6 0.22                           100 179 
 GUE  SZ EP   1    713 20.11                             138     0.4 7  116   9 
 GRA  SZ EP   1    713 20.20                             136     0.0 7  125  15 
 GRA  SZ I         713 40.70         7.4 0.04                           125  15 
 OCA  SZ EP   2    713 23.40                             128    -0.1 5  162 351 
 OCA  SZ ES   2    713 44.77                             128    -0.5 5  162 351 
 OCA  SZ I         713 47.79         6.9 0.56                           162 351 
                                                                                
