 2012  826 0933 52.2 L   6.758 -73.143154.0  RSN  6 0.4 1.6LRSN                1
 GAP=185        0.82       7.3     5.8  8.1  0.2116E+02  0.2092E+01 -0.7251E+01E
 Epicentro: LOS SANTOS - SANTANDER                                             3
 ACTION:UPD 12-09-10 11:58 OP:ep   STATUS:               ID:20120826093352 L   I
 2012-08-26-0930-00M.COL___218                                                 6
 STAT SP IPHASW D HRMM SECON CODA AMPLIT PERI AZIMU VELO AIN AR TRES W  DIS CAZ7
 BAR2 SZ EP   1    934 12.71                             173   -0.02 8 18.8 193 
 BAR2 SZ ES   1    934 28.39                             173   -0.36 8 18.8 193 
 BAR2 SZ I         934 29.45        10.7 0.20                          18.8 193 
 GIR2 SZ EP   1    934 12.32                             166   -0.65 8 35.9 351 
 BRR  HZ EP   1    934 14.61                             153    0.24 8 73.8 302 
 BRR  HZ I         934 16.21         8.9 0.10                          73.8 302 
 BRR  HN ES   1    934 32.15                             153    0.47 8 73.8 302 
 RUS  HZ EP   1    934 16.88                             147    0.44 8 95.9 176 
 RUS  HN ES   1    934 35.70                             147    0.35 8 95.9 176 
 RUS  HZ I         934 36.45         3.8 0.22                          95.9 176 
 PTB  HZ EP        934 19.60                             134   -0.1910  147 261 
 PTB  HN ES        934 40.92                             134   -0.4010  147 261 
 PTB  HZ I         934 44.08         4.1 0.19                           147 261 
 ZAR  HN ES        934 51.63                             124    0.34 9  206 293 
                                                                                
