 2012 1226 0143 49.2 L   6.812 -73.114145.3  RSN  7 0.5 2.3LRSN                1
 GAP=195        0.90       5.4     6.8  7.5  0.1241E+02  0.1162E+02 -0.6371E+01E
 Epicentro: LOS SANTOS - SANTANDER                                             3
 ACTION:UPD 13-01-04 14:30 OP:ep   STATUS:               ID:20121226014349 L   I
 2012-12-26-0140-00M.COL___242                                                 6
 STAT SP IPHASW D HRMM SECON CODA AMPLIT PERI AZIMU VELO AIN AR TRES W  DIS CAZ7
 BAR2 SZ EP   1    144  9.03                             170    0.23 7 25.4 197 
 BAR2 SZ ES   1    144 23.27                             170   -0.84 7 25.4 197 
 BAR2 SZ I         144 25.16       113.6 0.22                          25.4 197 
 GIR2 SZ EP        144  9.10                             167    0.3110 30.8 343 
 GIR2 SZ ES   1    144 23.63                             167   -0.45 7 30.8 343 
 GIR2 SZ I         144 26.09        27.5 0.36                          30.8 343 
 BRR  HZ EP   1    144 10.88                             151    0.46 7 73.7 296 
 BRR  HE ES   1    144 27.64                             151    0.65 7 73.7 296 
 RUS  HZ EP   1    144 12.66                             143   -0.31 7  102 178 
 RUS  HN ES   1    144 31.86                             143    0.33 7  102 178 
 RUS  HZ I         144 33.16        16.2 0.28                           102 178 
 ZAR  HZ EP   1    144 21.99                             122    0.11 6  207 291 
 ZAR  HN ES   1    144 47.57                             122    0.18 6  207 291 
 ZAR  HZ I         144 54.05        26.6 0.26                           207 291 
 SML  HZ EP   1    144 25.06                             117   -0.75 6  244 334 
 SML  HN ES   1    144 54.30                             117   -0.08 6  244 334 
 HEL  HE ES   1    145  0.88                             114   -0.57 6  276 256 
 HEL  HZ I         145  8.84         6.4 0.28                           276 256 
 MON  HZ EP   4    144 42.29                             108    3.90 0  356 308 
 MON  HN ES   4    145 15.07                             108   -1.70 0  356 308 
                                                                                
