 2016  126 0335 53.9 L   7.375 -73.181124.0  RSN  6 0.2 1.6LRSN                1
 GAP=103        0.55       2.0     3.0  4.3  0.8978E+00  0.3098E+01  0.1055E+01E
 Epicentro: EL PLAYON - SANTANDER                                              3
 ACTION:UPD 16-03-09 23:28 OP:cam  STATUS:               ID:20160126033553 L   I
 OLDACT:DUP 16-01-26 17:25 OP:cara STATUS:               ID:20160126032750d    3
 2016-01-26-0327-49M.COL___331                                                 6
 STAT SP IPHASW D HRMM SECON CODA AMPLIT PERI AZIMU VELO AIN AR TRES W  DIS CAZ7
 PAM  EZ IP   9    336 13.24                             156    0.78 0 53.3  94 
 PAM  EE ES        336 27.95                                    0.2710 53.3  94 
 PAM  EZ I         336 29.64         5.0 0.42            159           53.3  94 
 BAR2 EZ IP     C  336 14.45                             143    0.2710 86.5 180 
 BAR2 EZ ES        336 29.76                             143   -0.2110 86.5 180 
 BAR2 EZ I         336 31.25        13.2 0.36            145           86.5 180 
 OCA  HZ EP        336 14.86                             140    0.0110 96.8 351 
 OCA  HN ES        336 31.10                             140   -0.0610 96.8 351 
 OCA  HZ I         336 32.48        17.8 0.28            142           96.8 351 
 RUS  HZ EP        336 21.67                             124    0.17 9  164 176 
 RUS  HN ES        336 42.90                             124   -0.10 9  164 176 
 RUS  HZ I         336 46.18         1.7 0.60            126            164 176 
 PTB  HZ EP        336 20.95                             123   -0.36 9  168 237 
 PTB  HN ES        336 42.88                             123    0.22 9  168 237 
 PTB  HZ I         336 44.90         2.5 0.20            125            168 237 
 ZAR  HE ES        336 45.88                             120    0.06 9  186 274 
 ZAR  HZ I         336 49.63         7.7 0.46            122            186 274 
                                                                                
