 2016  526 0714 52.3 L   6.849 -73.404122.5  RSN  7 0.5 1.6LRSN                1
 GAP= 84        1.41       4.5     5.9  9.1 -0.6295E+01  0.8055E+01 -0.6824E+00E
 Epicentro: SAN VICENTE DE CHUCURI - SANTANDER                                 3
 ACTION:UPD 16-08-18 17:49 OP:cam  STATUS:               ID:20160526071452 L   I
 OLDACT:UP  16-05-26 17:52 OP:mher STATUS:               ID:20160526070747     3
 OLDACT:REG 16-05-26 12:52 OP:mh   STATUS:               ID:20160526070747     3
 2016-05-26-0707-47M.COL___307                                                 6
 STAT SP IPHASW D HRMM SECON CODA AMPLIT PERI AZIMU VELO AIN AR TRES W  DIS CAZ7
 BAR2 EZ EP        715 10.16                             162    0.6210 37.5 139 
 BAR2 EZ ES        715 23.21                             162    0.1910 37.5 139 
 BAR2 EZ I         715 24.88        24.0 0.24            164           37.5 139 
 BRR  HZ EP        715 10.02                             159    0.5510 44.4 310 
 BRR  HN ES        715 23.71                             159    0.8110 44.4 310 
 BRR  HZ I         715 26.93         7.2 0.12            159           44.4 310 
 PAM  EZ EP   1    715 12.75                             140   -0.59 7 94.9  55 
 PAM  EE ES        715 29.53                             140   -0.2610 94.9  55 
 PAM  EZ I         715 31.48         5.0 0.22            146           94.9  55 
 RUS  HZ EP        715 15.38                             135    0.6610  112 161 
 RUS  HN ES        715 31.44                             135   -0.7910  112 161 
 RUS  HZ I         715 33.82         3.2 0.40            138            112 161 
 PTB  HZ IP     C  715 14.90                             132   -0.0210  121 254 
 PTB  HN ES        715 31.89                             132   -0.7210  121 254 
 PTB  HZ I         715 36.42         8.6 0.32            133            121 254 
 SPBC HZ EP        715 18.12                             125    0.21 9  152 209 
 SPBC HN ES        715 37.56                             125   -0.36 9  152 209 
 SPBC HZ I         715 44.70         7.4 0.16            127            152 209 
 OCA  HZ EP        715 18.29                             125    0.05 9  154   3 
 OCA  HN ES        715 37.73                             125   -0.78 9  154   3 
                                                                                
