 2016  526 0958 48.2 L   6.781 -73.173154.2  RSN  7 0.5 1.6LRSN                1
 GAP=134        1.12       4.1     5.8  7.7 -0.1218E+01  0.1354E+02 -0.3405E+01E
 Epicentro: LOS SANTOS - SANTANDER                                             3
 ACTION:UPD 16-08-18 17:49 OP:cam  STATUS:               ID:20160526095848 L   I
 OLDACT:REG 16-05-26 13:05 OP:mh   STATUS:               ID:20160526094743     3
 2016-05-26-0947-43M.COL___307                                                 6
 STAT SP IPHASW D HRMM SECON CODA AMPLIT PERI AZIMU VELO AIN AR TRES W  DIS CAZ7
 BAR2 EZ EP        959  8.74                             172   -0.0610 20.9 183 
 BAR2 EZ ES        959 24.48                             172   -0.3910 20.9 183 
 BAR2 EZ I         959 27.33        11.0 0.20            172           20.9 183 
 BRR  HZ EP        959 10.62                             154    0.4310 69.6 301 
 BRR  HN ES        959 28.16                             154    0.8310 69.6 301 
 PAM  EZ EP        959 11.66                             151    0.1310 80.9  40 
 PAM  EN ES        959 29.23                             151   -0.4910 80.9  40 
 PAM  EZ I         959 31.28         5.9 0.19            153           80.9  40 
 RUS  HZ EP        959 13.31                             146    0.6410 98.7 174 
 RUS  HN ES        959 31.38                             146   -0.3710 98.7 174 
 RUS  HZ I         959 32.46         3.1 0.32            148           98.7 174 
 SPBC HZ EP   2    959 17.55                             131    0.51 5  160 219 
 SPBC HE ES        959 39.37                             131   -0.16 9  160 219 
 SPBC HZ I         959 43.15         5.1 0.13            133            160 219 
 OCA  HZ EP   2    959 16.56                             131   -0.78 5  162 354 
 OCA  HN ES        959 40.17                             131    0.10 9  162 354 
 OCA  HZ I         959 42.83         6.9 0.12            133            162 354 
 URE  HZ EP        959 28.90                             115   -0.58 7  282 293 
 URE  HN ES       10 0  1.10                             115   -0.56 7  282 293 
 URE  HZ I        10 0  2.75         2.7 0.20            116            282 293 
                                                                                
