 2011  726 0509  5.0 L   6.766 -73.074144.7  RSN  9 0.3 1.9LRSN                1
 GAP=164        0.61       3.4     5.1  4.9 -0.3626E+01  0.1738E+01 -0.3410E+00E
 Epicentro: LOS SANTOS - SANTANDER                                             3
 ACTION:UPD 12-07-25 14:03 OP:epov STATUS:               ID:20110726050904 L   I
 2011-07-26-0500-00M.COL___138                                                 6
 STAT SP IPHASW D HRMM SECON CODA AMPLIT PERI AZIMU VELO AIN AR TRES W  DIS CAZ7
 BAR2 SZ EP   1    5 9 24.25                             171   -0.26 7 22.6 212 
 BAR2 SZ ES   1    5 9 39.39                             171   -0.32 7 22.6 212 
 BAR2 SZ I         5 9 40.66        19.2 0.27                          22.6 212 
 BTL  SZ EP        5 9 24.86                             169    0.2410 27.2 308 
 BTL  SZ ES   2    5 9 39.83                             169   -0.06 5 27.2 308 
 GIR2 SZ EP        5 9 24.51                             165   -0.2310 37.0 339 
 GIR2 SZ ES   2    5 9 40.37                             165    0.25 5 37.0 339 
 BRR  HZ EP   1    5 9 26.11                             149   -0.47 7 79.9 298 
 BRR  HZ I         5 9 26.30        20.4 0.18                          79.9 298 
 BRR  HN ES   1    5 9 43.98                             149    0.59 7 79.9 298 
 RUS  HZ EP   1    5 9 28.57                             145    0.18 7 96.6 181 
 RUS  HE ES   2    5 9 46.94                             145    0.34 5 96.6 181 
 RUS  HZ I         5 9 47.78         7.2 0.24                          96.6 181 
 BRI  SZ EP   1    5 9 28.93                             141    0.03 7  110  16 
 BRI  SZ ES   2    5 9 47.50                             141   -0.02 5  110  16 
 OCA  SZ EP   1    5 9 34.00                             128    0.28 7  165 351 
 OCA  SZ ES   1    5 9 55.83                             128   -0.26 7  165 351 
 OCA  SZ I         510  1.12         7.5 0.54                           165 351 
 NOR  SN ES   2    510  8.73                             118   -0.62 4  239 236 
 HEL  HZ EP   1    5 9 46.36                             114    0.42 6  279 257 
 HEL  HN ES   2    510 17.54                             114   -0.31 4  279 257 
                                                                                
