 2010  926 0105 22.9 L   6.773 -73.104154.0  RSN  9 0.2 1.8LRSN                1
 GAP=164        0.53       3.2     7.3  6.0 -0.2971E+00 -0.1221E+02 -0.3821E+00E
 Epicentro: LOS SANTOS - SANTANDER                                             3
 ACTION:UP  11-02-18 11:05 OP:tino STATUS:               ID:20100926010522 L   I
 2010-09-26-0103-50S.COL___122                                                 6
 STAT SP IPHASW D HRMM SECON CODA AMPLIT PERI AZIMU VELO SNR AR TRES W  DIS CAZ7
 BAR2 SZ EP        1 5 43.45                             172    -0.110   22 204 
 BAR2 SZ ES   2    1 5 59.55                             172     0.0 5   22 204 
 BAR2 SZ I         1 6  0.19        27.7 0.20                            22 204 
 BTL  SZ EP   1    1 5 44.12                             171     0.5 7   24 312 
 GIR2 SZ EP   2    1 5 43.51                             166    -0.2 5   35 344 
 BRR  HZ IP     C  1 5 45.30                             152     0.010   77 299 
 BRR  HZ I         1 5 45.57        18.1 0.18                            77 299 
 BRR  HN ES   1    1 6  2.70                             152     0.0 7   77 299 
 RUS  HZ EP   1    1 5 47.35                             146     0.1 7   97 179 
 RUS  HZ I         1 5 48.14         4.3 0.28                            97 179 
 RUS  HE ES   2    1 6  6.01                             146    -0.3 5   97 179 
 GUE  SZ EP   1    1 5 48.49                             141    -0.1 7  119  10 
 GUE  SZ I         1 5 49.90         3.7 0.18                           119  10 
 GRA  SZ ES   2    1 6  9.64                             138     0.2 5  127  15 
 GRA  SZ I         1 6 11.53         8.1 0.31                           127  15 
 OCA  SZ EP   1    1 5 51.91                             131    -0.3 7  164 352 
 OCA  SZ I         1 6 17.86         6.4 0.15                           164 352 
 CHI  HZ EP   2    1 6  1.22                             119     0.3 4  247 196 
 CHI  HN ES   2    1 6 30.41                             119    -0.2 4  247 196 
 CHI  HZ I         1 6 40.32         4.7 0.61                           247 196 
                                                                                
