 2013  626 0943 49.3 L   6.793 -73.167144.0  RSN  9 0.4 1.4LRSN                1
 GAP=134        1.03       3.8     5.5  8.9  0.2253E+00  0.2032E+02 -0.4700E+01E
 Epicentro: LOS SANTOS - SANTANDER                                             3
 ACTION:UPD 14-01-08 09:57 OP:ep   STATUS:               ID:20130626094349 L   I
 OLDACT:REG 13-06-26 07:56 OP:jn   STATUS:               ID:20130626093959     3
 2013-06-26-0939-59M.COL___267                                                 6
 STAT SP IPHASW D HRMM SECON CODA AMPLIT PERI AZIMU VELO AIN AR TRES W  DIS CAZ7
 BAR2 SZ EP        944  8.94                             171    0.2510 22.2 184 
 BAR2 SZ ES        944 24.06                             171    0.2510 22.2 184 
 BAR2 SZ I         944 25.33         9.2 0.14            173           22.2 184 
 GIR2 SZ EP        944  8.90                             167    0.1310 31.8 355 
 BRR  HZ EP     C  944 10.79                             153    0.6310 69.6 300 
 BRR  HN ES   4    944 27.87                             153    1.44 0 69.6 300 
 BRR  HZ I         944 29.63         5.3 0.40            154           69.6 300 
 PAM  SN ES        944 29.03                             150    0.3010 79.5  40 
 PAM  SZ I         944 35.26         3.0 0.44            154           79.5  40 
 RUS  HZ EP        944 12.81                             144   -0.0110100.0 175 
 RUS  HN ES        944 30.49                             144   -0.6910100.0 175 
 RUS  HZ I         944 32.72         2.6 0.50            149          100.0 175 
 PTB  HZ EP        944 15.64                             132   -0.25 9  145 259 
 PTB  HN ES        944 36.67                             132    0.03 9  145 259 
 PTB  HZ I         944 42.77         3.5 0.25            136            145 259 
 OCA  HE ES        944 38.72                             129   -0.81 9  161 354 
 ZAR  HE ES   1    944 46.73                             122    0.23 6  202 293 
 SML  HE ES        944 54.10                             117   -0.16 8  243 336 
                                                                                
