 2017  826 0543 35.8 L   6.726 -73.145143.0  RSN  5 0.3 1.2LRSN                1
 GAP=216        0.72       5.5     4.9  8.6  0.1469E+02 -0.8566E+01 -0.2240E+02E
 Epicentro: JORDAN - SANTANDER                                                 3
 ACTION:UPD 17-09-04 20:24 OP:rebc STATUS:               ID:20170826054335 L   I
 OLDACT:REG 17-08-26 13:20 OP:osc  STATUS:               ID:20170826053739     3
 2017-08-26-0538-00M.COL___405                                                 6
 STAT SP IPHASW D HRMM SECON CODA AMPLIT PERI AZIMU VELO AIN AR TRES W  DIS CAZ7
 BAR2 EZ EP        543 54.67                             174   -0.3210 15.3 195 
 BAR2 EZ I         544 10.46         4.3 0.24            177           15.3 195 
 RUS  HZ EP        543 58.76                             146    0.0310 92.4 176 
 RUS  HN ES        544 16.65                             146    0.0610 92.4 176 
 RUS  HZ I         544 18.00         1.6 0.38            154           92.4 176 
 SPBC HZ EP        544  3.56                             130    0.03 9  157 221 
 SPBC HE ES        544 24.95                             130   -0.18 9  157 221 
 SPBC HZ I         544 30.91         2.2 0.00            138            157 221 
 YPLC HZ EP        544  5.10                             127    0.38 9  170 150 
 ZAR  HZ EP        544  8.02                             121   -0.42 8  207 294 
 ZAR  HE ES        544 34.36                             121    0.49 8  207 294 
                                                                                
