 2012 1226 0433 19.7 L   6.823 -73.073148.2  RSN 10 0.5 1.8LRSN                1
 GAP=145        1.07       4.8     5.7  7.1 -0.9690E+00  0.1125E+02 -0.3665E+01E
 Epicentro: LOS SANTOS - SANTANDER                                             3
 ACTION:UPD 13-01-04 14:30 OP:ep   STATUS:               ID:20121226043319 L   I
 2012-12-26-0430-00M.COL___242                                                 6
 STAT SP IPHASW D HRMM SECON CODA AMPLIT PERI AZIMU VELO AIN AR TRES W  DIS CAZ7
 BAR2 SZ IP        433 39.75                             169    0.0010 28.2 205 
 BAR2 SZ ES   1    433 55.77                             169    0.39 7 28.2 205 
 BAR2 SZ I         433 57.62        13.0 0.28                          28.2 205 
 GIR2 SZ EP        433 39.76                             167    0.0710 31.3 335 
 GIR2 SZ ES        433 54.63                             167   -0.6310 31.3 335 
 GIR2 SZ I         433 57.33        11.7 0.18                          31.3 335 
 PAM  SZ EP   1    433 42.67                             153    0.86 7 70.5  36 
 PAM  SN ES   1    433 59.37                             153    0.33 7 70.5  36 
 PAM  SZ I         434  2.09        16.0 0.60                          70.5  36 
 BRR  HZ EP   1    433 41.69                             151    0.20 7 77.3 294 
 BRR  HN ES   1    433 59.30                             151    0.84 7 77.3 294 
 BRR  HZ I         434  2.03        12.3 0.36                          77.3 294 
 RUS  HZ EP   1    433 43.25                             144   -0.63 7  103 181 
 RUS  HN ES   1    434  2.12                             144   -0.60 7  103 181 
 RUS  HZ I         434  3.19         4.1 0.50                           103 181 
 PTB  HZ EP   4    433 46.37                             131   -1.28 0  156 259 
 PTB  HN ES   1    434  9.15                             131   -0.28 7  156 259 
 PTB  HZ I         434 13.60         8.9 0.16                           156 259 
 OCA  HZ EP   1    433 48.65                             130    0.55 7  159 350 
 OCA  HE ES   1    434 10.03                             130   -0.21 7  159 350 
 OCA  HZ I         434 14.82         7.8 0.26                           159 350 
 ZAR  HZ EP   1    433 52.39                             122   -0.61 6  211 291 
 ZAR  HN ES   1    434 18.76                             122   -0.20 6  211 291 
 ZAR  HZ I         434 24.89         8.6 0.28                           211 291 
 SML  HZ EP   1    433 56.07                             118   -0.55 6  245 333 
 SML  HN ES   1    434 24.65                             118   -0.75 6  245 333 
 HEL  HZ EP   1    434  1.77                             114    0.78 6  280 256 
 HEL  HN ES   1    434 34.08                             114    0.90 6  280 256 
 HEL  HZ I         434 39.20         2.7 0.24                           280 256 
 MON  HZ EP   4    434  7.10                             109   -2.28 0  358 307 
 MON  HN ES   4    434 45.61                             109   -2.49 0  358 307 
                                                                                
