 2010 1026 0428 30.8 L   6.780 -73.071151.9  RSN  7 0.4 1.5LRSN                1
 GAP=167        0.89       3.9    10.0  8.4 -0.8311E+01 -0.1002E+02  0.1519E+01E
 Epicentro: LOS SANTOS - SANTANDER                                             3
 ACTION:UP  11-02-18 11:12 OP:tino STATUS:               ID:20101026042830 L   I
 2010-10-26-0424-19S.COL___125                                                 6
 STAT SP IPHASW D HRMM SECON CODA AMPLIT PERI AZIMU VELO SNR AR TRES W  DIS CAZ7
 BAR2 SZ EP   2    428 51.22                             171     0.0 5   24 211 
 BAR2 SZ ES   2    429  6.93                             171    -0.2 5   24 211 
 BAR2 SZ I         429  8.97         6.6 0.33                            24 211 
 BRR  HZ IP     C  428 53.08                             151     0.010   80 297 
 BRR  HZ I         428 53.39         6.2 0.10                            80 297 
 BRR  HN ES   1    429 10.45                             151    -0.1 7   80 297 
 RUS  HZ EP   1    428 55.26                             146     0.2 7   98 181 
 RUS  HE ES   1    429 13.84                             146     0.0 7   98 181 
 RUS  HZ I         429 14.85         2.7 0.26                            98 181 
 GRA  SZ IP        428 56.90                             138     0.310  126  14 
 GRA  SZ ES   1    429 16.55                             138    -0.2 7  126  14 
 GRA  SZ I         429 18.19         4.3 0.31                           126  14 
 OCA  SZ EP   1    428 58.79                             130    -1.1 7  164 350 
 OCA  SZ ES   1    429 23.32                             130     0.7 7  164 350 
 OCA  SZ I         429 27.80         5.3 0.23                           164 350 
 CHI  HZ EP   2    429  8.79                             118    -0.1 4  249 197 
 CHI  HN ES   2    429 38.34                             118    -0.2 4  249 197 
 CHI  HZ I         429 44.21         1.9 0.37                           249 197 
 PRA  HZ EP   2    429 25.52                             107     0.7 3  394 211 
 PRA  HN ES   2    430  7.36                             107     0.4 3  394 211 
                                                                                
