 2014  826 0937 19.8 L   6.815 -73.110151.6  RSN 14 0.5 1.8LRSN                1
 GAP=140        1.25       3.5     5.6  7.2 -0.8352E+00  0.9547E+01  0.4109E+01E
 Epicentro: LOS SANTOS - SANTANDER                                             3
 ACTION:UPD 14-09-15 21:53 OP:nd   STATUS:               ID:20140826093719 L   I
 OLDACT:REG 14-08-26 13:14 OP:fm   STATUS:               ID:20140826092818     3
 2014-08-26-0928-18M.COL___254                                                 6
 STAT SP IPHASW D HRMM SECON CODA AMPLIT PERI AZIMU VELO AIN AR TRES W  DIS CAZ7
 BAR2 SZ EP        937 40.25                             170    0.1010 26.0 198 
 BAR2 SZ ES   1    937 56.00                             170   -0.05 7 26.0 198 
 BAR2 SZ I         937 56.94        16.7 0.28            168           26.0 198 
 PAM  SZ EP   1    937 41.17                             153   -1.22 7 73.5  38 
 PAM  SN ES        938  0.43                             153    0.4010 73.5  38 
 PAM  SZ I         938  2.45         5.7 0.20            157           73.5  38 
 BRR  HZ EP        937 42.23                             153    0.5310 74.0 296 
 BRR  HN ES        937 59.60                             153    0.7910 74.0 296 
 BRR  HZ I         938  1.89         8.8 0.16            150           74.0 296 
 RUS  HZ EP        937 44.67                             145    0.4710  102 178 
 RUS  HN ES   1    938  2.19                             145   -1.07 7  102 178 
 RUS  HZ I         938  6.19         4.1 0.18            147            102 178 
 PTB  HZ EP        937 47.16                             132   -0.44 9  152 258 
 PTB  HN ES        938  8.39                             132   -0.91 9  152 258 
 PTB  HZ I         938 14.25         9.1 0.38            132            152 258 
 OCA  HN ES        938 10.00                             131   -0.79 9  159 352 
 OCA  HZ I         938 16.76         6.1 0.30            133            159 352 
 SPBC HZ EP        937 49.24                             130    0.16 9  167 220 
 SPBC HN ES        938 12.22                             130    0.28 9  167 220 
 SPBC HZ I         938 18.28        13.3 0.26            130            167 220 
 ZAR  HZ EP        937 52.88                             123   -0.03 8  207 291 
 ZAR  HN ES        938 18.65                             123   -0.12 8  207 291 
 ZAR  HZ I         938 24.79         8.0 0.46            124            207 291 
 SML  HZ EP        937 56.58                             119   -0.16 8  244 334 
 SML  HN ES        938 26.16                             119    0.58 8  244 334 
 SML  HZ I         938 29.97         9.7 0.10            120            244 334 
 CHI  HZ EP   1    937 58.26                             118    0.17 6  251 196 
 CHI  HN ES        938 28.19                             118    0.21 8  251 196 
 CHI  HZ I         938 31.73         3.1 0.30            120            251 196 
 URE  HN ES   4    938 30.15                             114   -3.85 0  287 291 
 URE  HZ I         938 41.07         4.8 0.32            115            287 291 
 GUY2CHZ EP        938  4.49                             113    0.36 7  305 235 
 GUY2CHE ES   4    938 41.72                             113    2.99 0  305 235 
 GUY2CHZ I         938 47.52         3.6 0.58                           305 235 
 MON  HZ EP   4    938  6.68                             109   -2.56 0  356 308 
 MON  HN ES   4    938 45.22                             109   -2.61 0  356 308 
 MON  HZ I         938 48.44         1.5 0.44            111            356 308 
 PRA  HZ EP   1    938 14.06                             107    0.16 4  395 210 
 PRA  HN ES        938 55.93                             107   -0.19 6  395 210 
 PRA  HZ I         939  1.72         3.1 0.58            109            395 210 
                                                                                
