 2017  226 0816 40.9 L   6.815 -73.168140.3  RSN  5 0.4 0.8LRSN                1
 GAP=133        1.12       5.8     5.6  8.2 -0.3075E+01  0.5876E+01  0.2635E+01E
 Epicentro: LOS SANTOS - SANTANDER                                             3
 ACTION:UPD 17-05-24 15:40 OP:jn   STATUS:               ID:20170226081640 L   I
 OLDACT:REG 17-02-26 12:10 OP:lv   STATUS:               ID:20170226080103     3
 2017-02-26-0808-00M.COL___363                                                 6
 STAT SP IPHASW D HRMM SECON CODA AMPLIT PERI AZIMU VELO AIN AR TRES W  DIS CAZ7
 BAR2 EZ EP        817  0.17                             169    0.2610 24.7 184 
 BAR2 EZ ES        817 13.79                             169   -0.9410 24.7 184 
 BAR2 EZ I         817 16.05         1.3 0.18            169           24.7 184 
 BRR  HZ EP        817  1.19                             153   -0.1010 68.3 298 
 BRR  HN ES        817 17.56                             153    0.3610 68.3 298 
 PAM  EZ EP        817  2.07                             150   -0.4910 77.7  42 
 PAM  EN ES        817 19.90                             150    0.4610 77.7  42 
 PAM  EZ I         817 20.30         1.0 0.25            152           77.7  42 
 RUS  HZ EP        817  4.47                             142    0.2110  102 175 
 RUS  HN ES        817 22.83                             142    0.3510  102 175 
 RUS  HZ I         817 23.50         0.8 0.29            143            102 175 
 PTB  HZ EP        817  7.04                             131   -0.20 9  146 258 
 PTB  HN ES        817 27.86                             131    0.07 9  146 258 
 PTB  HZ I         817 30.22         1.2 0.14            132            146 258 
                                                                                
