 2013 1126 0442 22.0 L   6.748 -73.227152.1  RSN  4 0.5 1.0LRSN                1
 GAP=217        1.06      10.7    10.8 11.9  0.5731E+02  0.5437E+00  0.1933E+02E
 Epicentro: VILLANUEVA - SANTANDER                                             3
 ACTION:UPD 14-01-09 16:31 OP:ep   STATUS:               ID:20131126044222 L   I
 OLDACT:UP  13-11-26 09:24 OP:mh   STATUS:               ID:20131126044000     3
 OLDACT:REG 13-11-26 08:08 OP:mh   STATUS:               ID:20131126044000     3
 2013-11-26-0440-00M.COL___282                                                 6
 STAT SP IPHASW D HRMM SECON CODA AMPLIT PERI AZIMU VELO AIN AR TRES W  DIS CAZ7
 BAR2 SZ EP   1    442 42.30                             173   -0.01 7 18.0 164 
 BAR2 SZ I         442 58.93         3.8 0.29            158           18.0 164 
 BRR  HZ EP   1    442 44.14                             155    0.53 7 66.7 307 
 BRR  HZ I         442 59.39         2.2 0.54            140           66.7 307 
 BRR  HN ES        443  0.29                             155   -0.1710 66.7 307 
 RUS  HZ EP   1    442 46.72                             146    0.65 7 96.0 170 
 RUS  HN ES   1    443  4.51                             146   -0.33 7 96.0 170 
 RUS  HZ I         443  6.24         1.0 0.28            142           96.0 170 
 PTB  HZ EP        442 47.93                             136   -0.71 9  138 260 
 PTB  HN ES   1    443 10.06                             136    0.65 7  138 260 
 PTB  HZ I         443 13.10         1.4 0.13            131            138 260 
                                                                                
