 2017  626 0553 48.2 L   6.826 -73.136141.7  RSN 12 0.5 1.7LRSN                1
 GAP=170        0.84       4.1     3.4  5.6  0.1861E+01 -0.1706E+01  0.5063E+01E
 Epicentro: LOS SANTOS - SANTANDER                                             3
 ACTION:UPD 17-09-14 16:55 OP:jn   STATUS:               ID:20170626055348 L   I
 OLDACT:UP  17-06-26 16:00 OP:and  STATUS:               ID:20170626054737d    3
 OLDACT:DUP 17-06-26 15:57 OP:and  STATUS:               ID:20170626054737d    3
 OLDACT:UP  17-06-26 15:56 OP:and  STATUS:               ID:20170626054736     3
 OLDACT:UP  17-06-26 15:52 OP:and  STATUS:               ID:20170626054736     3
 OLDACT:UP  17-06-26 15:48 OP:and  STATUS:               ID:20170626054736     3
 OLDACT:REG 17-06-26 13:06 OP:and  STATUS:               ID:20170626054736     3
 2017-06-26-0548-00M.COL___358                                                 6
 STAT SP IPHASW D HRMM SECON CODA AMPLIT PERI AZIMU VELO AIN AR TRES W  DIS CAZ7
 BAR2 EZ EP        554  7.25                             169   -0.1710 26.4 191 
 BAR2 EZ ES        554 22.61                             169    0.2110 26.4 191 
 BAR2 EZ I         554 26.46         8.0 0.20            163           26.4 191 
 BRR  HZ IP     C  554  8.74                             152   -0.1610 70.9 296 
 BRR  HN ES        554 25.52                             152    0.4910 70.9 296 
 BRR  HZ I         554 27.77        12.3 0.32            153           70.9 296 
 PTB  HZ EP   2    554 13.74                             131   -1.26 5  149 258 
 PTB  HN ES        554 35.51                             131   -0.39 9  149 258 
 PTB  HZ I         554 37.76         6.4 0.12            127            149 258 
 TAM  HZ IP     D  554 15.71                             130    0.17 9  155 106 
 SPBC HN ES        554 38.75                             128   -0.15 9  166 219 
 SPBC HZ I         554 43.72         9.1 0.20            122            166 219 
 YPLC HZ IP     D  554 18.07                             125    0.16 9  179 152 
 YPLC HZ I         554 45.86         4.8 0.36            118            179 152 
 ZAR  HZ EP   2    554 20.62                             122    0.23 4  204 291 
 ZAR  HN ES        554 44.98                             122   -0.50 9  204 291 
 ZAR  HZ I         554 50.28        11.5 0.30            118            204 291 
 NOR  HZ EP        554 23.88                             118   -0.11 8  237 234 
 NOR  HN ES   2    554 52.40                             118    0.51 4  237 234 
 NOR  HZ I         554 57.24         5.3 0.22            113            237 234 
 CHI  HN ES        554 55.45                             116   -0.07 8  252 195 
 CHI  HZ I         555  0.97         2.2 0.30            111            252 195 
 ROSC BZ EP   4    554 29.70                             116    3.25 0  256 211 
 ROSC BN ES   4    555  1.11                             116    4.84 0  256 211 
 HEL  HZ EP   2    554 29.90                             114    1.48 4  274 255 
 HEL  HN ES   2    555  0.40                             114    0.62 4  274 255 
 HEL  HZ I         555  5.93         4.2 0.34            110            274 255 
 GUY2CHZ EP   4    554 33.55                             112    1.62 0  304 234 
 GUY2CHN ES   4    555  8.77                             112    2.74 0  304 234 
 GUY2CHZ I         555 14.08         2.8 0.40                           304 234 
 CBOC HZ EP   2    554 36.43                             109    1.25 3  336 252 
 CBOC HN ES   2    555 11.88                             109    0.06 3  336 252 
 CBOC HZ I         555 15.82         1.0 0.46            105            336 252 
                                                                                
