 2013  426 0751  6.8 L   6.733 -73.136144.0  RSN  7 0.5 1.4LRSN                1
 GAP=186        1.01       8.8     8.0  8.0  0.7301E+01  0.2484E+02  0.2119E+02E
 Epicentro: JORDAN - SANTANDER                                                 3
 ACTION:UPD 13-05-22 14:41 OP:EP   STATUS:               ID:20130426075106 L   I
 2013-04-26-0748-42M.COL___202                                                 6
 STAT SP IPHASW D HRMM SECON CODA AMPLIT PERI AZIMU VELO AIN AR TRES W  DIS CAZ7
 BAR2 SZ EP   1    751 25.99                             173   -0.11 7 16.4 198 
 BAR2 SZ ES        751 41.33                             173    0.1810 16.4 198 
 BAR2 SZ I         751 42.17         7.3 0.24            162           16.4 198 
 GIR2 SZ EP   1    751 26.20                             164   -0.29 7 38.7 351 
 GIR2 SZ ES   1    751 41.56                             164   -0.29 7 38.7 351 
 GIR2 SZ I         751 44.79         4.9 0.50            155           38.7 351 
 BRR  HZ EP   1    751 28.19                             151    0.15 7 75.9 303 
 BRR  HN ES   1    751 45.46                             151    0.86 7 75.9 303 
 RUS  HZ EP   1    751 29.73                             146   -0.13 7 93.1 176 
 RUS  HE ES   2    751 48.19                             146    0.35 5 93.1 176 
 RUS  HZ I         751 49.84         3.6 0.34            134           93.1 176 
 PTB  HZ EP        751 32.85                             132   -0.76 9  148 262 
 PTB  HN ES   1    751 53.97                             132   -0.55 7  148 262 
 PTB  HZ I         751 57.87         3.7 0.12            117            148 262 
 HEL  HZ EP   1    751 47.93                             115    1.08 6  271 257 
 HEL  HZ I         752 26.18         1.4 0.38            103            271 257 
 GUY  HZ EP   1    751 50.99                             112    0.76 5  300 236 
 GUY  HN ES   2    752 24.05                             112   -0.04 4  300 236 
 GUY  HZ I         752 32.19         1.8 0.52            102            300 236 
                                                                                
