 2014 1126 0611 59.0 L   6.818 -73.188149.4  RSN  7 0.5 1.9LRSN                1
 GAP=130        1.08       3.8     5.3  8.0 -0.3762E+01  0.5863E+01  0.5486E+01E
 Epicentro: ZAPATOCA - SANTANDER                                               3
 ACTION:UPD 14-12-19 15:47 OP:nd   STATUS:               ID:20141126061159 L   I
 OLDACT:UP  14-11-26 19:42 OP:mh   STATUS:               ID:20141126060639     3
 OLDACT:UP  14-11-26 19:41 OP:mh   STATUS:               ID:20141126060639     3
 OLDACT:REG 14-11-26 19:27 OP:mh   STATUS:               ID:20141126060639     3
 2014-11-26-0606-39M.COL___306                                                 6
 STAT SP IPHASW D HRMM SECON CODA AMPLIT PERI AZIMU VELO AIN AR TRES W  DIS CAZ7
 BRR  HZ EP   1    612 20.86                             155    0.62 7 66.1 299 
 BRR  HN ES        612 37.70                             155    0.8710 66.1 299 
 BRR  HZ I         612 41.36        12.1 0.08            154           66.1 299 
 PAM  SZ EP        612 22.21                             151    0.5410 79.0  43 
 PAM  SN ES        612 39.04                             151   -0.3310 79.0  43 
 PAM  SZ I         612 41.43        11.8 0.07            152           79.0  43 
 RUS  HZ EP   1    612 23.23                             144   -0.03 7  103 174 
 RUS  HN ES        612 41.93                             144   -0.2710  103 174 
 RUS  HZ I         612 43.06         6.9 0.07            147            103 174 
 PTB  HZ EP   1    612 25.58                             134   -0.29 7  144 258 
 PTB  HN ES   1    612 46.25                             134   -0.59 7  144 258 
 OCA  HZ EP        612 27.19                             131   -0.15 9  158 355 
 OCA  HN ES        612 48.83                             131   -0.63 9  158 355 
 OCA  HZ I         612 57.00         7.9 0.40            132            158 355 
 CHI  HZ EP        612 37.19                             118    0.23 8  249 194 
 CHI  HN ES        613  6.46                             118   -0.13 8  249 194 
 CHI  HZ I         613 11.04        13.7 0.89            120            249 194 
 HEL  HZ EP   4    612 40.86                             116    1.93 0  268 255 
 HEL  HN ES        613  9.87                             116   -0.23 8  268 255 
                                                                                
