 2016 1226 0040  6.8 L   6.807 -73.143149.6  RSN 16 0.4 2.2LRSN                1
 GAP= 73        0.77       2.6     2.5  4.0  0.3177E+00  0.2173E+01  0.2105E+01E
 Epicentro: LOS SANTOS - SANTANDER                                             3
 ACTION:UPD 17-01-11 20:19 OP:rebc STATUS:               ID:20161226004006 L   I
 OLDACT:UP  16-12-26 13:51 OP:edw  STATUS:               ID:20161226003745     3
 OLDACT:REG 16-12-26 12:18 OP:edw  STATUS:               ID:20161226003745     3
 2016-12-26-0038-00M.COL___378                                                 6
 STAT SP IPHASW D HRMM SECON CODA AMPLIT PERI AZIMU VELO AIN AR TRES W  DIS CAZ7
 BAR2 EZ EP        040 26.59                             170   -0.3410 24.2 190 
 BAR2 EZ ES        040 42.51                             170   -0.1010 24.2 190 
 BAR2 EZ I         040 43.38        41.5 0.14            167           24.2 190 
 BRR  HZ IP     D  040 28.57                             153    0.1910 71.1 298 
 BRR  HN ES        040 45.54                             153    0.3510 71.1 298 
 BRR  HZ I         040 49.56        29.7 0.40            150           71.1 298 
 PAM  EZ EP     C  040 29.70                             152    0.3010 76.5  40 
 PAM  EN ES        040 46.96                             152   -0.0410 76.5  40 
 PAM  EZ I         040 48.89        21.5 0.56            156           76.5  40 
 RUS  HZ IP     C  040 30.65                             144   -0.3610  101 176 
 RUS  HN ES        040 49.49                             144   -0.3810  101 176 
 RUS  HZ I         040 50.84        14.2 0.26            144            101 176 
 PTB  HZ EP   9    040 33.30                             133   -0.85 0  148 259 
 PTB  HE ES        040 54.43                             133   -0.18 9  148 259 
 PTB  HZ I         041  1.65        12.1 0.20            130            148 259 
 TAM  HZ IP     C  040 35.19                             131    0.40 9  155 105 
 TAM  HN ES        040 56.71                             131    0.10 9  155 105 
 ZAR  HZ EP        040 39.19                             123   -0.33 9  204 292 
 ZAR  HN ES        041  5.35                             123    0.33 9  204 292 
 ZAR  HZ I         041 11.55         9.5 0.20            122            204 292 
 CHI  HZ EP        040 44.94                             118    0.11 8  250 195 
 CHI  HN ES        041 14.25                             118   -0.22 8  250 195 
 CHI  HZ I         041 17.78         7.3 0.58            118            250 195 
 ROSC BZ EP   4    040 46.69                             117    1.44 0  254 211 
 ROSC BN ES   4    041 17.48                             117    2.26 0  254 211 
 ROSC BZ I         041 23.01        15.4 0.75            117            254 211 
 URE  HZ EP        040 47.49                             114   -0.59 7  284 292 
 URE  HN ES   4    041 18.45                             114   -1.81 0  284 292 
 URE  HZ I         041 29.11         5.0 0.14            114            284 292 
 GUY2CHZ EP   4    040 52.09                             113    1.40 0  302 235 
 GUY2CHE ES   4    041 23.93                             113   -0.98 0  302 235 
 GUY2CHZ I         041 34.18         5.1 0.30                           302 235 
 VIL  EZ EP   4    040 49.35                             113   -1.16 0  304 192 
 VIL  EN ES        041 24.93                             113    0.34 7  304 192 
 VIL  EZ I         041 29.98        11.8 0.56            113            304 192 
 CBOC HZ EP   4    040 54.84                             110    0.88 0  334 252 
 CBOC HN ES        041 30.72                             110   -0.01 7  334 252 
 ANIL HZ EP   4    040 49.98                             109   -6.89 0  358 224 
 ANIL HN ES   2    041 36.74                             109    0.83 3  358 224 
 ANIL HZ I         041 41.41        15.6 0.32            109            358 224 
 ORTC HZ EP        041  0.84                             107   -0.13 6  396 216 
 ORTC HN ES        041 44.00                             107    0.79 6  396 216 
 ORTC HZ I         041 48.16         3.7 0.24            107            396 216 
 SJC  HZ EP   2    041  1.01                             106   -1.44 3  409 327 
 SJC  HN ES   4    041 42.80                             106   -3.04 0  409 327 
 CRJC HZ EP   4    041  7.16                             104   -2.17 0  467   4 
 CRJC HE ES   4    041 55.54                             104   -2.55 0  467   4 
 MACC HN ES   4    042  5.67                             102   -3.81 0  521 189 
                                                                                
