 2017  926 0253 46.0 L   6.792 -73.092150.8  RSN 10 0.4 1.7LRSN                1
 GAP=144        0.75       3.2     3.5  4.9 -0.1116E+01  0.4954E+01  0.4979E+01E
 Epicentro: LOS SANTOS - SANTANDER                                             3
 ACTION:UPD 17-10-05 19:16 OP:rebc STATUS:               ID:20170926025346 L   I
 OLDACT:UP  17-09-26 15:59 OP:osc  STATUS:               ID:20170926024742d    3
 OLDACT:DUP 17-09-26 15:50 OP:osc  STATUS:               ID:20170926024742d    3
 OLDACT:REG 17-09-26 12:45 OP:osc  STATUS:               ID:20170926024741     3
 2017-09-26-0248-00M.COL___437                                                 6
 STAT SP IPHASW D HRMM SECON CODA AMPLIT PERI AZIMU VELO AIN AR TRES W  DIS CAZ7
 BAR2 EZ EP        254  6.28                             170    0.0310 24.3 204 
 BAR2 EZ ES        254 21.69                             170   -0.3510 24.3 204 
 BAR2 EZ I         254 23.98         6.4 0.34            166           24.3 204 
 PAM  EZ EP        254  8.94                             153    0.3710 74.4  36 
 PAM  EE ES        254 26.02                             153   -0.1710 74.4  36 
 PAM  EZ I         254 28.23        18.2 0.52            158           74.4  36 
 BRR  HZ EP        254  8.05                             152    0.0410 76.9 297 
 BRR  HE ES        254 25.40                             152    0.2210 76.9 297 
 BRR  HZ I         254 29.68        11.0 0.12            152           76.9 297 
 RUS  HZ EP        254 10.32                             145    0.1510 99.5 179 
 RUS  HE ES        254 29.22                             145    0.2010 99.5 179 
 RUS  HZ I         254 30.32         5.4 0.30            144           99.5 179 
 ZAR  HZ EP   4    254 21.45                             123    2.08 0  210 292 
 ZAR  HE ES        254 45.11                             123   -0.29 8  210 292 
 NOR  HZ EP        254 21.85                             119   -0.64 8  239 235 
 NOR  HE ES        254 50.90                             119   -0.05 8  239 235 
 NOR  HZ I         254 58.23         3.6 0.38            120            239 235 
 CHI  HZ EP        254 23.84                             118   -0.22 8  249 197 
 CHI  HE ES   3    254 52.82                             118   -0.94 2  249 197 
 CHI  HZ I         255  4.11         2.1 0.40            119            249 197 
 GUY2CHZ EP   4    254 32.65                             113    2.32 0  306 236 
 GUY2CHE ES        255  5.73                             113    0.81 7  306 236 
 GUY2CHZ I         255 11.73         2.3 0.40                           306 236 
 PRA  HZ EP   3    254 40.92                             107    0.97 1  394 210 
 PRA  HE ES        255 21.76                             107   -0.28 6  394 210 
 PRA  HZ I         255 27.34         1.6 0.34            108            394 210 
 SJC  HZ EP   4    254 40.32                             106   -1.87 0  413 326 
 SJC  HE ES   4    255 19.05                             106   -6.97 0  413 326 
 SJC  HZ I         255 25.72         1.1 0.38            108            413 326 
                                                                                
