 2016 1226 0545 31.5 L   6.814 -73.120147.7  RSN 20 0.5 2.2LRSN                1
 GAP= 67        1.16       3.9     4.1  5.6 -0.2596E+00  0.6016E+01  0.5475E+01E
 Epicentro: LOS SANTOS - SANTANDER                                             3
 ACTION:UPD 17-01-11 20:19 OP:rebc STATUS:               ID:20161226054531 L   I
 OLDACT:UP  16-12-26 17:28 OP:edw  STATUS:               ID:20161226053744     3
 OLDACT:REG 16-12-26 12:48 OP:edw  STATUS:               ID:20161226053744     3
 2016-12-26-0538-00M.COL___366                                                 6
 STAT SP IPHASW D HRMM SECON CODA AMPLIT PERI AZIMU VELO AIN AR TRES W  DIS CAZ7
 BAR2 EZ IP     D  545 51.23                             170   -0.1910 25.5 196 
 BAR2 EZ ES        546  6.17                             170   -0.7810 25.5 196 
 BAR2 EZ I         546  8.35        39.1 0.30            170           25.5 196 
 BRR  HZ EP     D  545 53.07                             152    0.0910 73.0 296 
 BRR  HN ES        546 10.27                             152    0.5610 73.0 296 
 BRR  HZ I         546 11.17        20.3 0.16            150           73.0 296 
 PAM  EZ EP     C  545 54.27                             152    0.5110 74.4  39 
 PAM  EN ES        546 11.18                             152    0.0710 74.4  39 
 PAM  EZ I         546 13.43        46.9 0.50            151           74.4  39 
 RUS  HZ EP        545 55.28                             144   -0.2810  102 178 
 RUS  HN ES        546 14.12                             144   -0.1910  102 178 
 RUS  HZ I         546 15.15        45.4 0.30            144            102 178 
 PTB  HZ EP   9    545 58.05                             132   -0.87 0  151 258 
 PTB  HN ES        546 18.94                             131   -0.48 9  151 258 
 PTB  HZ I         546 20.16        10.8 0.26            130            151 258 
 TAM  HZ IP     D  545 59.64                             131    0.51 9  153 106 
 ZAR  HZ EP        546  3.85                             122   -0.45 8  206 291 
 ZAR  HE ES        546 29.13                             122   -0.74 8  206 291 
 ZAR  HZ I         546 35.53         8.7 0.11            121            206 291 
 CHI  HZ EP        546  9.46                             117   -0.11 8  251 196 
 CHI  HN ES        546 38.99                             117   -0.26 8  251 196 
 CHI  HZ I         546 42.27        10.2 0.48            117            251 196 
 GUY2CHZ EP        546 16.57                             112    0.99 7  304 235 
 GUY2CHN ES        546 50.89                             112    0.94 7  304 235 
 GUY2CHZ I         546 57.41         8.7 0.26                           304 235 
 VIL  EZ EP   2    546 15.00                             112   -0.26 4  305 192 
 VIL  EN ES   2    546 49.33                             112   -0.05 4  305 192 
 VIL  EZ I         546 51.95        14.8 0.44            111            305 192 
 PTGC HZ IP   9 C  546 14.50                             112   -1.01 0  309 159 
 PTGC HN ES        546 48.09                             112   -0.72 7  309 159 
 PTGC HZ I         546 52.72        15.2 0.28            111            309 159 
 LL6C HZ EP   9    545 56.27                             111   -20.9 0  323 357 
 LL6C HZ ES        546 32.52                                    0.67 7  323 357 
 ELA  HZ EP   4    546 21.24                             110    2.43 0  332 230 
 ELA  HN ES   4    546 57.50                             110    1.80 0  332 230 
 ELA  HZ I         547  3.07         6.4 0.40            110            332 230 
 CBOC HZ EP        546 19.25                             110    0.37 7  337 252 
 CBOC HE ES        546 55.83                             110    0.01 7  337 252 
 DBB  EZ EP        546 18.40                             110   -0.99 7  342 274 
 DBB  EN ES   4    546 54.54                             110   -2.18 0  342 274 
 DBB  EZ I         546 57.37         4.8 0.26            109            342 274 
 ARGC HZ EP   4    546 23.25                             109    2.06 0  359 340 
 ARGC HE ES   4    547  1.25                             109    1.32 0  359 340 
 ARGC HZ I         547  9.77         2.2 0.26            108            359 340 
 ANIL HZ EP        546 21.18                             109   -0.58 6  360 225 
 ANIL HE ES   4    547  3.86                             109    2.92 0  360 225 
 ORTC HZ EP        546 25.97                             106    0.12 6  398 216 
 ORTC HN ES        547  9.34                             106    1.11 6  398 216 
 ORTC HZ I         547 12.60         5.3 0.32            106            398 216 
 SJC  HZ EP   4    546 25.48                             106   -1.69 0  409 326 
 SJC  HN ES   4    547  6.66                             106   -3.92 0  409 326 
 SJC  HZ I         547 13.37         3.4 0.52            105            409 326 
 CRJC HZ EP   9    546 31.69                             104   -2.18 0  466   3 
 CRJC HN ES        547 20.56                             104    0.24 5  466   3 
 MACC HZ EP   4    546 38.38                             102   -2.13 0  523 189 
 MACC HE ES   4    547 30.80                             102   -3.53 0  523 189 
                                                                                
