 2016  126 0308 12.4 L   5.942 -73.782108.6  RSN  6 0.2 1.3LRSN                1
 GAP=131        0.60       3.5     2.3  5.2 -0.3297E+01  0.1469E+01 -0.2186E+01E
 Epicentro: SUCRE - SANTANDER                                                  3
 ACTION:UPD 16-03-09 23:28 OP:cam  STATUS:               ID:20160126030812 L   I
 OLDACT:DUP 16-01-26 17:01 OP:cara STATUS:               ID:20160126025740d    3
 OLDACT:REG 16-01-26 14:10 OP:cara STATUS:               ID:20160126025738     3
 2016-01-26-0257-38M.COL___330                                                 6
 STAT SP IPHASW D HRMM SECON CODA AMPLIT PERI AZIMU VELO AIN AR TRES W  DIS CAZ7
 SPBC HZ IP        3 8 27.91                             156   -0.3010 45.4 225 
 SPBC HN ES        3 8 40.54                             156   -0.0110 45.4 225 
 SPBC HZ I         3 8 41.52         9.2 0.28            156           45.4 225 
 RUS  HN ES        3 8 45.09                             142   -0.1210 77.6  94 
 RUS  HZ I         3 8 45.84         2.1 0.34            144           77.6  94 
 BAR2 EZ IP        3 8 32.07                             135   -0.0410 97.8  43 
 BAR2 EZ ES        3 8 47.84                             135    0.3410 97.8  43 
 BAR2 EZ I         3 8 49.01        13.4 0.30            136           97.8  43 
 PTB  HN ES        3 8 46.98                             134   -0.2610 99.7 312 
 PTB  HZ I         3 8 47.99         4.1 0.40            135           99.7 312 
 NOR  HZ IP        3 8 34.69                             126    0.0810  127 251 
 NOR  HN ES        3 8 52.30                             126    0.3510  127 251 
 NOR  HZ I         3 8 54.95         5.2 0.38            127            127 251 
 GUY2CHZ EP   9    3 8 43.07                             115    1.05 0  192 246 
 GUY2CHE ES        3 9  6.16                                   -0.03 9  192 246 
 GUY2CHZ I         3 9  9.90         1.2 0.30                           192 246 
                                                                                
