 2013  526 0319 53.5 L   6.818 -73.127146.0  RSN  9 0.5 2.3LRSN                1
 GAP=138        1.05       4.2     5.7  7.2  0.2835E+01  0.2654E+01 -0.6612E+01E
 Epicentro: LOS SANTOS - SANTANDER                                             3
 ACTION:UPD 13-06-20 09:53 OP:ep   STATUS:               ID:20130526031953 L   I
 2013-05-26-0319-50M.COL___211                                                 6
 STAT SP IPHASW D HRMM SECON CODA AMPLIT PERI AZIMU VELO AIN AR TRES W  DIS CAZ7
 BAR2 SZ EP     D  320 13.54                             170    0.3410 25.7 194 
 BAR2 SZ ES   1    320 28.47                             170   -0.10 7 25.7 194 
 BAR2 SZ I         320 30.11        15.0 0.38            169           25.7 194 
 GIR2 SZ E         320 13.59                                           29.8 346 
 GIR2 SZ EP   1    320 13.59                             168    0.44 7 29.8 346 
 GIR2 SZ ES   1    320 28.59                             168    0.10 7 29.8 346 
 GIR2 SZ I         320 30.99        11.8 0.12            164           29.8 346 
 BRR  HZ IP     C  320 15.41                             152    0.6910 72.2 296 
 BRR  HN ES        320 31.65                             152    0.3710 72.2 296 
 BRR  HN I         320 33.72        55.2 0.20            149           72.2 296 
 PAM  SE EP   1    320 16.06                             152    0.49 7 74.5  39 
 RUS  HZ EP   1    320 17.44                             143    0.04 7  102 177 
 RUS  HN ES        320 35.53                             143   -0.5110  102 177 
 RUS  HN I         320 36.58        18.1 0.36            146            102 177 
 PTB  HZ EP        320 20.36                             132   -0.34 9  150 258 
 PTB  HN ES        320 41.55                             132   -0.37 9  150 258 
 PTB  HN I         320 46.60        38.2 0.28            131            150 258 
 OCA  HZ EP   1    320 20.52                             130   -1.14 7  159 352 
 OCA  HE ES        320 43.06                             130   -0.58 9  159 352 
 OCA  HE I         320 46.51        54.7 0.18            130            159 352 
 ZAR  HZ EP   1    320 26.14                             122    0.06 6  205 291 
 ZAR  HN ES   1    320 51.87                             122    0.37 6  205 291 
 ZAR  HN I         320 58.39        30.8 0.32            122            205 291 
 SML  HZ EP   1    320 30.42                             118    0.38 6  243 335 
 SML  HN ES   1    320 58.26                             118   -0.28 6  243 335 
 SML  HN I         321  3.02        33.5 0.10            118            243 335 
                                                                                
