 2011  426 0612 11.1 L   6.806 -73.123142.4  RSN 13 0.4 2.3LRSN                1
 GAP=116        0.98       3.1     5.8  6.7 -0.2487E+01  0.3658E+01  0.2221E+01E
 Epicentro: LOS SANTOS - SANTANDER                                             3
 ACTION:UP  11-06-22 15:33 OP:REBC STATUS:               ID:20110426061211 L   I
 2011-04-26-0608-25S.COL___137                                                 6
 STAT SP IPHASW D HRMM SECON CODA AMPLIT PERI AZIMU VELO SNR AR TRES W  DIS CAZ7
 BAR2 SZ EP   1    612 30.35                             170     0.0 7   25 196 
 BAR2 SZ ES   1    612 45.03                             170    -0.4 7   25 196 
 BAR2 SZ I         612 46.72        47.5 0.21                            25 196 
 BRR  HZ IP     D  612 32.19                             151     0.110   73 297 
 BRR  HN ES   1    612 49.12                             151     0.8 7   73 297 
 BRR  HZ I         612 53.25        38.9 0.17                            73 297 
 PAM  SZ EP   1    612 33.21                             151     0.3 7   75  38 
 RUS  HZ EP        612 34.40                             143    -0.210  101 178 
 RUS  HN ES   1    612 52.63                             143    -0.3 7  101 178 
 RUS  HZ I         612 54.48        24.2 0.25                           101 178 
 BRI  SZ EP   1    612 34.84                             141     0.2 7  107  20 
 GRA  SZ EP        612 36.12                             137     0.110  124  16 
 GRA  SZ ES   1    612 55.27                             137    -0.1 7  124  16 
 GRA  SZ I         612 57.68        14.8 0.29                           124  16 
 OCA  SZ EP        612 38.52                             129    -0.6 9  160 352 
 OCA  SZ ES   1    613  0.66                             129    -0.4 7  160 352 
 OCA  SZ I         613  3.53        32.6 0.21                           160 352 
 YOP  SZ EP   1    612 41.01                             126     0.1 7  178 154 
 YOP  SN ES   1    613  4.69                             126     0.6 7  178 154 
 YOP  SZ I         613  8.37        11.0 0.39                           178 154 
 NOR  SZ EP   1    612 46.78                             117    -0.2 6  237 235 
 NOR  SN ES   1    613 14.46                             117    -0.4 6  237 235 
 CHI  HZ EP   1    612 48.23                             116    -0.6 6  250 196 
 CHI  HE ES   1    613 17.83                             116    -0.3 6  250 196 
 ROSC BZ EP   1    612 50.26                             116     1.0 6  255 211 
 HEL  HZ EP   1    612 52.14                             114     0.7 6  275 256 
 HEL  HZ I         613 30.49         6.9 0.33                           275 256 
 PRA  HZ EP   1    613  4.42                             106    -0.3 4  394 210 
 PRA  HZ I         613 52.72        22.0 0.22                           394 210 
                                                                                
