 2013 1026 0451 17.0 L   6.781 -73.143145.8  RSN  5 0.5 1.4LRSN                1
 GAP=236        1.18       6.7     8.4  8.5  0.2235E+02  0.1035E+02  0.1528E+02E
 Epicentro: LOS SANTOS - SANTANDER                                             3
 ACTION:UPD 13-11-25 09:23 OP:ep   STATUS:               ID:20131026045117 L   I
 OLDACT:REG 13-10-26 08:39 OP:carl STATUS:               ID:20131026044845     3
 2013-10-26-0448-45M.COL___227                                                 6
 STAT SP IPHASW D HRMM SECON CODA AMPLIT PERI AZIMU VELO AIN AR TRES W  DIS CAZ7
 BAR2 SZ EP        451 36.53                             171   -0.1010 21.3 192 
 BAR2 SZ ES        451 51.23                             171   -0.6810 21.3 192 
 BAR2 SZ I         451 52.84        11.3 0.28            167           21.3 192 
 BRR  HZ EP        451 38.52                             152    0.2610 72.5 300 
 BRR  HN ES        451 55.68                             152    0.8710 72.5 300 
 RUS  HZ EP        451 40.61                             144   -0.0210 98.4 176 
 RUS  HN ES        451 59.16                             144    0.1210 98.4 176 
 RUS  HZ I         452  0.43         2.6 0.24            142           98.4 176 
 PTB  HZ EP        451 43.60                             132   -0.39 9  148 260 
 PTB  HN ES        452  4.50                             132   -0.52 9  148 260 
 PTB  HZ I         452  6.32         2.7 0.40            131            148 260 
 CHI  HZ EP        451 54.43                             117   -0.09 8  247 195 
 CHI  HN ES        452 24.40                             117    0.64 8  247 195 
 CHI  HZ I         452 29.29         1.7 0.44            117            247 195 
                                                                                
