 2015  326 0544 43.6 L   6.348 -73.572104.0  RSN  7 0.2 1.1LRSN                1
 GAP=106        0.63       2.9     2.3  6.4  0.9359E+00  0.4629E+01 -0.5541E+01E
 Epicentro: SANTA HELENA DEL OPON - SANTANDER                                  3
 ACTION:UPD 15-04-30 16:29 OP:nd   STATUS:               ID:20150326054443 L   I
 OLDACT:DUP 15-03-26 15:34 OP:fm   STATUS:               ID:20150326053744d    3
 2015-03-26-0537-43M.COL___281                                                 6
 STAT SP IPHASW D HRMM SECON CODA AMPLIT PERI AZIMU VELO AIN AR TRES W  DIS CAZ7
 BAR2 EZ EP        544 59.36                             152   -0.1110 50.9  58 
 RUS  HZ EP        545  1.76                             142    0.4010 74.0 133 
 RUS  HN ES        545 14.90                             142   -0.2910 74.0 133 
 RUS  HZ I         545 17.15         1.6 0.38            149           74.0 133 
 SPBC HZ EP        545  2.65                             134    0.1510 94.8 216 
 SPBC HE ES        545 17.35                             134    0.1310 94.8 216 
 SPBC HZ I         545 19.83         4.0 0.38            140           94.8 216 
 PTB  HZ EP        545  2.49                             132   -0.3810  100 282 
 PTB  HN ES        545 18.03                             132    0.1610  100 282 
 PTB  HZ I         545 19.87         3.3 0.12            136            100 282 
 ZAR  HZ EP   1    545 12.14                             113   -0.05 7  190 312 
 ZAR  HN ES        545 34.69                             113    0.22 9  190 312 
 ZAR  HZ I         545 40.48         2.1 0.30            117            190 312 
 HEL  HN ES        545 40.45                             110   -0.28 8  217 266 
 GUY2CHN ES        545 44.45                             108   -0.01 8  234 238 
 GUY2CHZ I         545 55.11         1.1 0.46                           234 238 
                                                                                
