 2014  726 0244 27.1 L   6.660 -73.247146.2  RSN  5 0.2 1.1LRSN                1
 GAP=182        0.50       3.8     3.5  5.3  0.2478E+01  0.1783E+01  0.2249E+00E
 Epicentro: BARICHARA - SANTANDER                                              3
 ACTION:UPD 15-03-16 20:47 OP:nd   STATUS:               ID:20140726024427 L   I
 OLDACT:REG 14-07-26 13:30 OP:fm   STATUS:               ID:20140726023819     3
 2014-07-26-0238-19M.COL___263                                                 6
 STAT SP IPHASW D HRMM SECON CODA AMPLIT PERI AZIMU VELO AIN AR TRES W  DIS CAZ7
 BAR2 SZ EP   1    244 46.47                             176   -0.15 8 10.4 136 
 BAR2 SZ ES   1    245  2.13                             176    0.30 8 10.4 136 
 BAR2 SZ I         245  2.50         3.6 0.38            176           10.4 136 
 BRR  HZ EP   1    244 48.35                             152    0.02 8 71.3 314 
 BRR  HE ES   1    245  4.52                             152   -0.35 8 71.3 314 
 BRR  HZ I         245  9.23         3.4 0.64            153           71.3 314 
 RUS  HZ EP   1    244 50.19                             148    0.21 8 86.7 168 
 RUS  HN ES   1    245  7.66                             148   -0.14 8 86.7 168 
 RUS  HZ I         245  9.57         1.3 0.18            150           86.7 168 
 PTB  HZ EP   1    244 52.92                             135   -0.03 7  134 264 
 PTB  HN ES        245 13.31                             135    0.2210  134 264 
 PTB  HZ I         245 15.32         1.9 0.28            135            134 264 
 SPBC HN ES   1    245 14.52                             133   -0.26 7  144 219 
 SPBC HZ I         245 19.33         2.2 0.30            134            144 219 
                                                                                
