 2017  526 0904 45.5 L   6.776 -73.182157.8  RSN  5 0.4 1.5LRSN                1
 GAP=232        0.93       5.5     6.5  7.6  0.1742E+02 -0.2812E+01 -0.5491E+01E
 Epicentro: LOS SANTOS - SANTANDER                                             3
 ACTION:UPD 17-06-16 13:38 OP:jn   STATUS:               ID:20170526090445 L   I
 OLDACT:REG 17-05-26 12:56 OP:ar   STATUS:               ID:20170526085741     3
 2017-05-26-0858-00M.COL___326                                                 6
 STAT SP IPHASW D HRMM SECON CODA AMPLIT PERI AZIMU VELO AIN AR TRES W  DIS CAZ7
 BRR  HZ EP        9 5  7.81                             155   -0.0110 69.0 302 
 BRR  HE ES        9 5 25.58                             155    0.3310 69.0 302 
 RUS  HZ EP        9 5 10.21                             147   -0.0610 98.3 174 
 RUS  HN ES        9 5 29.32                             147   -0.2910 98.3 174 
 RUS  HZ I         9 5 30.22         2.9 0.38            147           98.3 174 
 PTB  HZ EP        9 5 12.49                             136   -0.57 9  143 260 
 PTB  HN ES        9 5 34.02                             136   -0.55 9  143 260 
 PTB  HZ I         9 5 35.78         2.8 0.36            134            143 260 
 SPBC HZ EP        9 5 14.91                             132    0.41 9  159 218 
 SPBC HE ES        9 5 37.70                             132    0.56 9  159 218 
 SPBC HZ I         9 5 39.56         6.0 0.38            132            159 218 
 ZAR  HZ EP        9 5 18.69                             125    0.23 9  201 293 
 ZAR  HN ES        9 5 44.21                             125    0.03 9  201 293 
 ZAR  HZ I         9 5 50.45         2.2 0.32            125            201 293 
                                                                                
