 2013  226 0624  0.0 L   6.806 -73.145147.7  RSN  8 0.5 2.3LRSN                1
 GAP=136        1.28       4.3     5.7  8.1  0.1452E+01  0.9708E+01  0.6361E+01E
 Epicentro: LOS SANTOS - SANTANDER                                             3
 ACTION:UPD 13-03-12 09:35 OP:ep   STATUS:               ID:20130226062400 L   I
 2013-02-26-0618-48M.COL___193                                                 6
 STAT SP IPHASW D HRMM SECON CODA AMPLIT PERI AZIMU VELO AIN AR TRES W  DIS CAZ7
 BAR2 SZ IP        624 19.83                             170   -0.0510 24.0 190 
 BAR2 SZ ES        624 35.29                             170   -0.1010 24.0 190 
 BAR2 SZ I         624 35.93        38.0 0.26            170           24.0 190 
 BRR  HZ IP     C  624 21.64                             153    0.2910 70.9 298 
 BRR  HZ I         624 22.00        22.9 0.16            149           70.9 298 
 BRR  HN ES        624 39.03                             153    1.0410 70.9 298 
 PAM  SZ EP        624 22.60                             151    0.2110 76.8  40 
 PAM  SZ I         624 22.87        31.0 0.24            153           76.8  40 
 PAM  SN ES        624 39.81                             151   -0.0410 76.8  40 
 RUS  HZ EP        624 23.71                             144   -0.2910  101 176 
 RUS  HN ES        624 42.52                             144   -0.1910  101 176 
 RUS  HN I         624 44.09        17.4 0.42            145            101 176 
 PTB  HZ EP        624 26.67                             132   -0.48 9  148 259 
 PTB  HN ES        624 47.33                             132   -0.99 9  148 259 
 PTB  HN I         624 53.38        39.3 0.44            131            148 259 
 OCA  HE ES        624 49.91                             130   -0.64 9  160 353 
 OCA  HN I         624 55.28        51.8 0.26            130            160 353 
 ZAR  HZ EP   1    624 33.50                             123    0.94 6  204 292 
 ZAR  HN ES        624 58.09                             123    0.15 9  204 292 
 ZAR  HN I         625  5.12        18.4 0.18            122            204 292 
 CHI  HZ EP        624 38.02                             117    0.13 8  249 195 
 CHI  HE ES        625  8.05                             117    0.61 8  249 195 
 CHI  HN I         625  9.81         7.2 0.28            118            249 195 
                                                                                
