 2017  326 0507 35.6 L   6.791 -73.165149.4  RSN  6 0.4 1.5LRSN                1
 GAP=134        1.04       4.9     5.1  8.9  0.2273E+01  0.1255E+02  0.1076E+02E
 Epicentro: LOS SANTOS - SANTANDER                                             3
 ACTION:UPD 17-05-25 18:45 OP:jn   STATUS:               ID:20170326050735 L   I
 OLDACT:REG 17-03-26 12:43 OP:cog  STATUS:               ID:20170326045641     3
 2017-03-26-0457-00M.COL___355                                                 6
 STAT SP IPHASW D HRMM SECON CODA AMPLIT PERI AZIMU VELO AIN AR TRES W  DIS CAZ7
 BRR  HZ EP        5 7 57.40                             154    0.3610 69.7 300 
 BRR  HN ES        5 8 14.53                             154    0.7510 69.7 300 
 BRR  HZ I         5 8 17.68         9.1 0.30            155           69.7 300 
 PAM  EN ES        5 8 15.52                             151   -0.5110 79.5  40 
 RUS  HZ EP        5 7 59.99                             145    0.3610 99.8 175 
 RUS  HN ES        5 8 18.29                             145   -0.1110 99.8 175 
 RUS  HZ I         5 8 20.68         2.8 0.50            147           99.8 175 
 PTB  HZ EP        5 8  2.13                             133   -0.51 9  145 259 
 PTB  HN ES        5 8 23.40                             133   -0.34 9  145 259 
 PTB  HZ I         5 8 26.88         3.1 0.14            135            145 259 
 SPBC HZ EP        5 8  4.36                             130    0.20 9  161 219 
 SPBC HN ES        5 8 26.32                             130   -0.13 9  161 219 
 SPBC HZ I         5 8 27.28         5.5 0.12            133            161 219 
 ZAR  HN ES        5 8 33.24                             123   -0.21 9  202 293 
                                                                                
