 2017  226 0001 56.1 L   6.768 -73.142144.9  RSN  7 0.3 1.5LRSN                1
 GAP=138        0.83       3.2     4.1  5.0  0.1685E+01  0.2800E+01  0.2333E+01E
 Epicentro: LOS SANTOS - SANTANDER                                             3
 ACTION:UPD 17-05-24 15:40 OP:jn   STATUS:               ID:20170226000156 L   I
 OLDACT:UP  17-02-26 12:22 OP:edw  STATUS:               ID:20170226000004d    3
 OLDACT:UP  17-02-26 12:21 OP:edw  STATUS:               ID:20170226000004d    3
 OLDACT:DUP 17-02-26 12:13 OP:edw  STATUS:               ID:20170226000004d    3
 2017-02-26-0000-15M.COL___382                                                 6
 STAT SP IPHASW D HRMM SECON CODA AMPLIT PERI AZIMU VELO AIN AR TRES W  DIS CAZ7
 BAR2 EZ EP        0 2 15.43                             172   -0.1710 19.9 193 
 BAR2 EZ ES        0 2 30.70                             172   -0.0810 19.9 193 
 BAR2 EZ I         0 2 33.28         9.9 0.26            171           19.9 193 
 BRR  HZ EP        0 2 17.47                             151    0.1510 73.3 301 
 BRR  HN ES        0 2 34.42                             151    0.5910 73.3 301 
 BRR  HZ I         0 2 38.27         7.8 0.28            151           73.3 301 
 PAM  EZ EP     C  0 2 18.44                             149    0.0210 79.9  38 
 PAM  EN ES        0 2 35.74                             149   -0.0610 79.9  38 
 PAM  EZ I         0 2 38.02         2.5 0.44            153           79.9  38 
 RUS  HZ EP        0 2 19.57                             144    0.0210 97.0 176 
 RUS  HN ES        0 2 37.35                             144   -0.4710 97.0 176 
 RUS  HZ I         0 2 39.58         5.6 0.26            146           97.0 176 
 PTB  HZ EP   9    0 2 22.47                             132   -0.54 0  147 260 
 PTB  HN ES        0 2 42.85                             132   -0.58 9  147 260 
 PTB  HZ I         0 2 45.85         3.4 0.12            132            147 260 
 ZAR  HZ EP        0 2 28.67                             122   -0.04 8  206 293 
 ZAR  HN ES        0 2 53.66                             122   -0.45 8  206 293 
 ZAR  HZ I         0 2 58.69         4.4 0.26            123            206 293 
 CHI  HZ EP        0 2 33.53                             117    0.10 8  245 195 
 CHI  HN ES        0 3  2.98                             117    0.46 8  245 195 
 CHI  HZ I         0 3  6.84         2.1 0.52            119            245 195 
                                                                                
