 2016 1226 0352 38.8 L   6.773 -73.112143.2  RSN  9 0.3 1.5LRSN                1
 GAP=142        0.69       2.7     3.0  3.8  0.5029E+00  0.3388E+01  0.2021E+01E
 Epicentro: LOS SANTOS - SANTANDER                                             3
 ACTION:UPD 17-01-11 20:19 OP:rebc STATUS:               ID:20161226035238 L   I
 OLDACT:UP  16-12-26 16:14 OP:edw  STATUS:               ID:20161226034744     3
 OLDACT:REG 16-12-26 12:37 OP:edw  STATUS:               ID:20161226034744     3
 2016-12-26-0348-00M.COL___378                                                 6
 STAT SP IPHASW D HRMM SECON CODA AMPLIT PERI AZIMU VELO AIN AR TRES W  DIS CAZ7
 BAR2 EZ EP     D  352 57.91                             171   -0.2110 21.5 201 
 BAR2 EZ ES        353 13.20                             171    0.0310 21.5 201 
 BAR2 EZ I         353 14.52         3.7 0.17            166           21.5 201 
 BRR  HZ EP        352 59.89                             150   -0.0910 75.9 299 
 BRR  HN ES        353 16.92                             150    0.4410 75.9 299 
 BRR  HZ I         353 17.46         8.0 0.70            148           75.9 299 
 PAM  EZ EP        353  0.85                             150    0.0710 77.4  36 
 PAM  EN ES        353 17.83                             150   -0.0710 77.4  36 
 PAM  EZ I         353 19.94         7.5 0.54            156           77.4  36 
 RUS  HZ EP        353  1.82                             144   -0.2910 97.5 178 
 RUS  HN ES        353 20.19                             144   -0.0810 97.5 178 
 RUS  HZ I         353 21.99         5.9 0.42            142           97.5 178 
 PTB  HZ EP   9    353  4.53                             131   -1.35 0  151 260 
 PTB  HN ES        353 25.71                             131    0.08 9  151 260 
 PTB  HZ I         353 31.10         4.0 0.40            128            151 260 
 ZAR  HZ EP        353 11.65                             121    0.06 8  209 293 
 ZAR  HE ES        353 36.81                             121   -0.32 8  209 293 
 ZAR  HZ I         353 40.79         2.9 0.14            120            209 293 
 CHI  HZ EP        353 16.25                             117    0.06 8  247 196 
 CHI  HN ES        353 45.70                             117    0.37 8  247 196 
 CHI  HZ I         353 53.76         1.3 0.60            116            247 196 
 GUY2CHZ EP        353 22.56                             112    0.08 7  303 236 
 GUY2CHN ES   4    353 58.78                             112    2.26 0  303 236 
 GUY2CHZ I         354  3.08         1.6 0.31                           303 236 
 CBOC HZ EP        353 26.75                             109    0.80 7  336 253 
 CBOC HN ES        354  2.07                             109   -0.63 7  336 253 
 CBOC HZ I         354 19.28         1.0 0.16            109            336 253 
 SJC  HZ EP   4    353 32.62                             105   -2.22 0  414 327 
 SJC  HN ES   4    354 15.92                             105   -2.61 0  414 327 
                                                                                
