 2011  826 0844 46.7 L   6.875 -72.960137.7  RSN  4 0.1 1.3LRSN                1
 GAP=236        0.33       4.1     7.5  4.3  0.2253E+02 -0.1317E+02 -0.4973E+01E
 Epicentro: CEPITA - SANTANDER                                                 3
 ACTION:UPD 12-07-13 15:53 OP:ep   STATUS:               ID:20110826084446 L   I
 2011-08-26-0840-00M.COL___168                                                 6
 STAT SP IPHASW D HRMM SECON CODA AMPLIT PERI AZIMU VELO AIN AR TRES W  DIS CAZ7
 GIR2 SZ EP   2    845  5.80                             165    0.31 5 34.3 311 
 GIR2 SZ ES   2    845 19.88                             165   -0.27 5 34.3 311 
 BAR2 SZ EP   1    845  5.83                             163    0.02 7 39.7 218 
 BAR2 SZ ES   1    845 20.84                             163    0.11 7 39.7 218 
 BAR2 SZ I         845 22.58         5.1 0.29                          39.7 218 
 BRR  HZ EP   1    845  7.91                             146   -0.06 7 86.9 287 
 BRR  HZ I         845  8.06         5.9 0.13                          86.9 287 
 BRR  HN ES   1    845 24.59                             146    0.01 7 86.9 287 
 RUS  HZ EP   1    845 10.27                             140   -0.06 7  109 187 
 RUS  HZ I         845 10.99         1.7 0.45                           109 187 
 RUS  HN ES   1    845 28.74                             140   -0.04 7  109 187 
                                                                                
