 2012  726 0602 59.3 L   6.214 -73.913 40.0  RSN  5 0.3 1.3LRSN                1
 GAP=190        0.72       4.7     2.8 11.8  0.7146E+01 -0.7429E+01 -0.3165E+02E
 Epicentro: CIMITARRA - SANTANDER                                              3
 ACTION:UPD 12-08-14 11:45 OP:ep   STATUS:               ID:20120726060259 L   I
 2012-07-26-0600-00M.COL___215                                                 6
 STAT SP IPHASW D HRMM SECON CODA AMPLIT PERI AZIMU VELO AIN AR TRES W  DIS CAZ7
 PTB  HZ EP   1    6 3 11.04                             106    -0.1 7   70 301 
 PTB  HN ES   1    6 3 20.33                             106    -0.1 7   70 301 
 PTB  HZ I         6 3 20.82        11.7 0.08             61             70 301 
 BAR2 SZ EP   1    6 3 13.91                             100    -0.1 7   91  63 
 BAR2 SZ ES   1    6 3 24.93                             100    -0.5 7   91  63 
 BAR2 SZ I         6 3 26.28         9.9 0.36             61             91  63 
 RUS  HZ EP        6 3 15.43                              99     0.210   99 111 
 RUS  HN ES   1    6 3 27.54                              99    -0.1 7   99 111 
 RUS  HZ I         6 3 28.31         6.9 0.31             61             99 111 
 BRR  HZ EP   1    6 3 15.45                              81     0.5 7  101  13 
 BRR  HZ I         6 3 25.04         5.6 0.20             61            101  13 
 BRR  HN ES   1    6 3 27.51                              81     0.3 7  101  13 
 ZAR  HZ EP   1    6 3 24.12                              81     0.0 7  176 324 
 ZAR  HN ES   1    6 3 43.26                              81    -0.3 7  176 324 
