 2012  426 0545 10.6 L   6.291 -73.084177.5  RSN 14 0.3 2.4LRSN                1
 GAP=160        0.73       2.9     3.9  4.9 -0.2071E+01  0.3943E+01  0.1336E+01E
 Epicentro: COROMORO - SANTANDER                                               3
 ACTION:UPD 12-07-05 11:56 OP:tino STATUS:               ID:20120426054510 L   I
 2012-04-26-0540-00M.COL___186                                                 6
 STAT SP IPHASW D HRMM SECON CODA AMPLIT PERI AZIMU VELO AIN AR TRES W  DIS CAZ7
 BAR2 SZ EP   1    545 34.33                             168     0.0 9   35 342 
 BAR2 SZ ES   1    545 52.47                             168    -0.4 9   35 342 
 RUS  HZ EP   1    545 35.23                             166     0.3 9   44 180 
 RUS  HN ES   1    545 54.01                             166     0.1 9   44 180 
 RUS  HZ I         545 55.43        70.8 0.21                            44 180 
 BRR  HZ EP   1    545 38.28                             146     0.5 9  114 322 
 BRR  HZ I         545 38.65       100.6 0.16                           114 322 
 BRR  HN ES   1    545 59.75                             146     0.8 9  114 322 
 PAM  SZ EP   1    545 39.14                             144     0.0 9  124  20 
 PAM  SN ES   1    546  0.96                             144    -0.5 9  124  20 
 PAM  SZ I         546  3.52        20.3 0.50                           124  20 
 PTB  HZ EP   1    545 40.26                             137    -0.6 9  154 280 
 PTB  HN ES   1    546  4.58                             137     0.1 9  154 280 
 PTB  HZ I         546  5.71        12.4 0.12                           154 280 
 CHI  HZ EP   1    545 45.56                             130     0.3 8  197 201 
 CHI  HN ES   1    546 12.24                             130     0.0 8  197 201 
 CHI  HZ I         546 15.08         9.5 0.30                           197 201 
 NOR  SZ EP   1    545 46.88                             127     0.6 8  213 248 
 NOR  SN ES   1    546 13.86                             127    -0.3 8  213 248 
 OCA  SZ EP   1    545 46.64                             127    -0.1 8  217 353 
 OCA  SZ ES   1    546 15.11                             127     0.1 8  217 353 
 ZAR  HZ EP   1    545 48.08                             124    -0.5 7  237 304 
 ZAR  HN ES        546 18.08                             124    -0.110  237 304 
 ZAR  HZ I         546 19.31        13.8 0.18                           237 304 
 HEL  HZ EP   1    545 52.57                             121     0.0 7  271 268 
 HEL  HN ES   1    546 24.97                             121    -0.2 7  271 268 
 HEL  HZ I         546 28.34         9.3 0.20                           271 268 
 RREF HZ EP   1    545 55.53                             119     0.2 7  294 239 
 PRA  HZ EP   1    546  0.35                             114    -0.1 6  348 215 
 PRA  HN ES   1    546 38.75                             114    -0.6 6  348 215 
 DBB  SZ EP   1    546  1.51                             114     0.2 6  355 283 
 COD  HZ EP   1    546  6.56                             111    -0.3 5  405 354 
 COD  HZ I         546  7.10         5.2 0.21                           405 354 
                                                                                
