 2013  926 0127  1.9 L   6.771 -73.122140.6  RSN  9 0.4 1.7LRSN                1
 GAP=141        0.94       4.5     4.5  7.6 -0.5936E+01  0.2893E+01  0.1262E+02E
 Epicentro: LOS SANTOS - SANTANDER                                             3
 ACTION:UPD 13-10-22 09:25 OP:ep   STATUS:               ID:20130926012702dL   I
 OLDACT:REG 13-09-26 08:43 OP:mh   STATUS:               ID:20130926011959     3
 2013-09-26-0119-59M.COL___272                                                 6
 STAT SP IPHASW D HRMM SECON CODA AMPLIT PERI AZIMU VELO AIN AR TRES W  DIS CAZ7
 BRR  HZ EP   1    127 23.18                             150    0.42 7 75.0 300 
 BRR  HN ES        127 39.31                             150    0.3110 75.0 300 
 BRR  HZ I         127 42.74        11.4 0.14            149           75.0 300 
 PAM  SZ EP        127 24.17                             149    0.5010 78.4  37 
 PAM  SN ES        127 40.16                             149   -0.4610 78.4  37 
 PAM  SZ I         127 42.79         5.0 0.48            154           78.4  37 
 RUS  HZ EP   1    127 24.57                             144   -0.36 7 97.2 177 
 RUS  HN ES   1    127 43.19                             144    0.32 7 97.2 177 
 RUS  HZ I         127 45.14         4.5 0.24            145           97.2 177 
 PTB  HZ EP   1    127 27.74                             130   -0.93 7  150 260 
 PTB  HN ES   1    127 48.92                             130   -0.60 7  150 260 
 PTB  HZ I         127 52.32         8.5 0.18            130            150 260 
 SPBC HZ EP   1    127 30.25                             128    0.29 7  162 220 
 SPBC HN ES        127 51.61                             128   -0.21 9  162 220 
 SPBC HZ I         127 57.02         8.7 0.26            128            162 220 
 ZAR  HZ EP   4    127 32.73                             121   -1.70 0  208 293 
 ZAR  HN ES   1    127 59.65                             121   -0.12 6  208 293 
 ZAR  HZ I         128 10.41        10.9 0.12            121            208 293 
 NOR  HZ EP   1    127 37.39                             117   -0.01 6  235 235 
 NOR  HN ES        128  5.62                             117    0.57 8  235 235 
 NOR  HZ I         128  8.10         7.6 0.24            118            235 235 
 CHI  HZ EP   1    127 38.61                             116   -0.47 6  246 196 
 CHI  HN ES   4    128  9.25                             116    1.19 0  246 196 
 CHI  HZ I         128 16.40         2.2 0.34            117            246 196 
 PRA  HZ EP   1    127 55.39                             106    0.29 4  390 210 
                                                                                
