 2012  926 0943 20.8 L   6.783 -73.136138.6  RSN 11 0.4 2.2LRSN                1
 GAP= 72        0.72       3.4     3.6  5.0  0.3664E+00  0.2863E+01  0.4788E+01E
 Epicentro: LOS SANTOS - SANTANDER                                             3
 ACTION:UPD 12-10-22 14:20 OP:ep   STATUS:               ID:20120926094321dL   I
 2012-09-26-0940-00M.COL___217                                                 6
 STAT SP IPHASW D HRMM SECON CODA AMPLIT PERI AZIMU VELO AIN AR TRES W  DIS CAZ7
 BAR2 SZ EP   1    943 39.38                             171   -0.11 7 21.7 194 
 BAR2 SZ ES   1    943 53.83                             171   -0.27 7 21.7 194 
 BAR2 SZ I         943 55.54        47.8 0.20                          21.7 194 
 GIR2 SZ EP   1    943 39.51                             166   -0.13 7 33.4 349 
 GIR2 SZ ES   2    943 53.92                             166   -0.44 5 33.4 349 
 BRR  HZ EP   1    943 41.30                             151    0.05 7 73.1 299 
 BRR  HN ES   1    943 57.98                             151    0.76 7 73.1 299 
 BRR  HN I         944  2.06       142.0 0.18                          73.1 299 
 PAM  SZ EP   1    943 42.30                             149    0.04 7 78.2  38 
 PAM  SE ES   1    943 58.98                             149   -0.06 7 78.2  38 
 PAM  SZ I         944  1.15        34.4 0.46                          78.2  38 
 RUS  HZ EP   1    943 43.48                             143   -0.18 7 98.6 177 
 RUS  HE ES   1    944  2.06                             143    0.54 7 98.6 177 
 RUS  HZ I         944  3.50        13.9 0.30                          98.6 177 
 PTB  HN ES   1    944  7.13                             130   -0.72 7  148 260 
 PTB  HN I         944  9.38        15.8 0.18                           148 260 
 TAM  HZ EP   1    943 47.74                             129    0.01 7  154 104 
 TAM  HZ I         943 47.85        22.3 0.11                           154 104 
 ZAR  HZ EP   1    943 52.35                             121   -0.58 6  206 293 
 ZAR  HN ES   1    944 18.29                             121    0.27 6  206 293 
 ZAR  HZ I         944 20.08         9.5 0.10                           206 293 
 CHI  HZ EP   1    943 58.29                             116    0.39 6  247 196 
 CHI  HN ES   1    944 26.41                             116   -0.45 6  247 196 
 CHI  HN I         944 29.31        10.4 0.24                           247 196 
 HEL  HZ EP   1    944  1.21                             113    0.53 6  273 256 
 HEL  HZ I         944 36.41         4.1 0.24                           273 256 
 PRA  HZ EP   1    944 14.00                             105    0.09 4  391 210 
 PRA  HN ES   1    944 55.62                             105    0.26 4  391 210 
                                                                                
