 2012  326 0600 58.8 L   6.774 -73.161134.0  RSN  5 0.1 1.5LRSN                1
 GAP=136        0.42       4.4     4.8  6.2 -0.7097E+01  0.1353E+02  0.2752E+01E
 ACTION:UP  12-03-31 23:23 OP:EP   STATUS:               ID:20120326060058 L   I
 2012-03-26-0600-00M.COL___196                                                 6
 STAT SP IPHASW D HRMM SECON CODA AMPLIT PERI AZIMU VELO SNR AR TRES W  DIS CAZ7
 BAR2 SZ EP        6 1 16.92                             171    -0.110   20 187 
 BAR2 SZ ES   2    6 1 30.99                             171    -0.2 5   20 187 
 BAR2 SZ I         6 1 33.51         7.8 0.54                            20 187 
 BRR  HZ EP        6 1 18.83                             150     0.110   71 301 
 BRR  HZ I         6 1 40.32         7.6 0.14                            71 301 
 PAM  SZ EP        6 1 19.88                             148    -0.210   81  39 
 PAM  SN ES   1    6 1 36.74                             148     0.2 7   81  39 
 RUS  HZ EP   1    6 1 21.43                             142     0.2 7   98 175 
 PTB  HZ EP   1    6 1 24.60                             130    -0.1 7  146 260 
                                                                                
