 2017  426 0910 51.4 L   6.835 -73.134145.9  RSN 18 0.7 2.4LRSN                1
 GAP=112        1.44       4.3     4.4  6.9  0.4900E+00  0.8419E+01  0.5679E+01E
 Epicentro: LOS SANTOS - SANTANDER                                             3
 ACTION:UPD 17-05-30 21:16 OP:jn   STATUS:               ID:20170426091051 L   I
 OLDACT:UP  17-04-26 16:52 OP:dani STATUS:               ID:20170426090741     3
 OLDACT:UP  17-04-26 16:52 OP:dani STATUS:               ID:20170426090741     3
 OLDACT:UP  17-04-26 16:52 OP:dani STATUS:               ID:20170426090741     3
 OLDACT:UP  17-04-26 14:15 OP:ods  STATUS:               ID:20170426090741     3
 OLDACT:REG 17-04-26 12:43 OP:dani STATUS:               ID:20170426090741     3
 2017-04-26-0908-00M.COL___360                                                 6
 STAT SP IPHASW D HRMM SECON CODA AMPLIT PERI AZIMU VELO AIN AR TRES W  DIS CAZ7
 BAR2 EZ EP        911 10.84                             169   -0.2710 27.3 191 
 BAR2 EZ ES        911 25.88                             169   -0.6210 27.3 191 
 BAR2 EZ I         911 27.28        53.2 0.46            167           27.3 191 
 BRR  HZ EP        911 11.69                             153   -0.8110 70.6 295 
 BRR  HN ES        911 29.61                             153    0.6310 70.6 295 
 BRR  HZ I         911 34.08        56.3 0.14            149           70.6 295 
 PAM  EZ EP     C  911 13.79                             152    0.4010 73.6  41 
 PAM  EN ES        911 30.80                             152    0.2410 73.6  41 
 PAM  EZ I         911 32.73        45.0 0.52            158           73.6  41 
 PTB  HZ EP        911 17.87                             132   -0.66 9  150 257 
 PTB  HN ES   3    911 38.39                             132   -1.33 2  150 257 
 PTB  HZ I         911 40.65        20.1 0.44            132            150 257 
 SPBC HZ EP        911 20.12                             128   -0.12 9  167 218 
 SPBC HN ES        911 42.59                             128   -0.17 9  167 218 
 SPBC HZ I         911 48.10        31.2 0.34            131            167 218 
 YPLC HZ EP     C  911 21.43                             126   -0.02 9  180 152 
 YPLC HN ES        911 45.49                             126    0.57 9  180 152 
 YPLC HZ I         911 48.24        38.4 0.26            133            180 152 
 ZAR  HZ EP        911 24.14                             122    0.34 9  204 291 
 ZAR  HN ES        911 49.15                             122    0.06 9  204 291 
 ZAR  HZ I         911 54.43        37.4 0.30            124            204 291 
 TABC EZ EP        911 27.98                             119    0.43 8  234 210 
 TABC EZ ES        911 56.21                             119    0.44 8  234 210 
 NOR  HZ EP        911 27.40                             118   -0.06 8  238 234 
 NOR  HN ES        911 54.56                             118   -1.05 8  238 234 
 NOR  HZ I         912  1.20        16.6 0.34            120            238 234 
 CHI  HZ EP        911 29.43                             117   -0.09 8  253 195 
 CHI  HN ES        911 59.96                             117    0.69 8  253 195 
 CHI  HZ I         912  2.15        11.8 0.38            121            253 195 
 ROSC BZ EP   9    911 31.10                             116    1.17 0  257 211 
 ROSC BN ES        912  0.14                                   -1.04 8  257 211 
 ROSC BZ I         912  7.88        26.5 0.35            120            257 211 
 HEL  HZ EP        911 32.71                             114    0.88 8  274 255 
 HEL  HN ES        912  5.22                             114    1.83 8  274 255 
 HEL  HZ I         912 11.15         9.6 0.28            117            274 255 
 PTGC HZ IP     D  911 34.31                             111   -1.28 7  312 159 
 PTGC HN ES   4    912  8.09                             111   -1.99 0  312 159 
 PTGC HZ I         912 10.34        13.0 0.46            116            312 159 
 CBOC HZ EP        911 39.12                             110    0.55 7  336 252 
 CBOC HN ES        912 14.83                             110   -0.55 7  336 252 
 CBOC HZ I         912 22.16         3.1 0.52            112            336 252 
 DBB  EZ EP        911 38.54                             109   -0.43 7  340 274 
 DBB  EN ES        912 14.94                             109   -1.15 7  340 274 
 DBB  EZ I         912 16.45         6.3 0.43            111            340 274 
 ARGC HZ EP        911 41.21                             108    0.55 6  356 340 
 SJC  HZ EP   3    911 44.98                             106   -1.66 1  407 327 
 SJC  HN ES   4    912 25.99                             106   -3.76 0  407 327 
 SJC  HZ I         912 29.58         5.6 0.34            108            407 327 
 PAL  HZ EP        911 46.69                             106   -0.20 6  409 239 
 PAL  HN ES        912 30.31                             106    0.11 6  409 239 
 PAL  HZ I         912 35.02         3.8 0.28            108            409 239 
                                                                                
