 2013  326 0918 35.4 L   6.767 -73.142144.6  RSN  7 0.5 1.6LRSN                1
 GAP=138        1.15       5.8     6.2  9.2  0.2157E+01  0.1409E+02 -0.9312E+00E
 Epicentro: LOS SANTOS - SANTANDER                                             3
 ACTION:UPD 13-04-09 14:05 OP:ep   STATUS:               ID:20130326091835 L   I
 2013-03-26-0910-00M.COL___244                                                 6
 STAT SP IPHASW D HRMM SECON CODA AMPLIT PERI AZIMU VELO AIN AR TRES W  DIS CAZ7
 BAR2 SZ EP        918 54.84                             172    0.0610 19.8 193 
 BAR2 SZ ES   1    919 10.10                             172    0.17 7 19.8 193 
 BAR2 SZ I         919 10.83        22.3 0.20            172           19.8 193 
 BRR  HZ EP        918 57.19                             152    0.6910 73.3 301 
 BRR  HN ES   1    919 13.67                             152    0.67 7 73.3 301 
 BRR  HZ I         919 17.42         4.9 0.18            150           73.3 301 
 PAM  SZ EP        918 57.78                             150    0.1710 80.0  38 
 PAM  SN ES   1    919 14.59                             150   -0.37 7 80.0  38 
 PAM  SZ I         919 16.95         7.2 0.64            153           80.0  38 
 RUS  HZ EP        918 58.81                             145    0.0810 96.9 176 
 RUS  HN ES   1    919 16.76                             145   -0.21 7 96.9 176 
 RUS  HZ I         919 18.48         3.7 0.26            149           96.9 176 
 PTB  HZ EP        919  1.50                             132   -0.70 9  147 260 
 PTB  HN ES   1    919 22.25                             132   -0.89 7  147 260 
 PTB  HZ I         919 25.87         5.2 0.16            133            147 260 
 OCA  HN ES   1    919 25.19                             129   -1.02 7  164 353 
 ZAR  HZ EP        919  8.07                             122    0.16 8  206 293 
 ZAR  HN ES   1    919 33.95                             122    0.65 6  206 293 
 ZAR  HZ I         919 39.42         3.9 0.50            123            206 293 
                                                                                
