 2010  926 0605 48.7 L   6.764 -73.136148.0  RSN 13 0.5 2.8LRSN                1
 GAP=160        1.03       4.3     7.4  8.2 -0.1090E+02  0.7435E+01 -0.1779E+00E
 Epicentro: LOS SANTOS - SANTANDER                                             3
 ACTION:UP  11-02-18 11:05 OP:tino STATUS:               ID:20100926060548 L   I
 2010-09-26-0602-58S.COL___122                                                 6
 STAT SP IPHASW D HRMM SECON CODA AMPLIT PERI AZIMU VELO SNR AR TRES W  DIS CAZ7
 BAR2 SZ IP        6 6  8.42                             172    -0.110   20 196 
 BAR2 SZ ES   2    6 6 23.10                             172    -0.9 5   20 196 
 BAR2 SZ I         6 6 25.25       191.4 0.37                            20 196 
 BTL  SZ EP   1    6 6  8.71                             171     0.1 7   22 320 
 GIR2 SZ EP   1    6 6  8.55                             166    -0.2 7   35 350 
 BRR  HZ IP     C  6 6 10.36                             152     0.110   74 301 
 BRR  HZ I         6 6 10.65       299.5 0.14                            74 301 
 BRR  HN ES   1    6 6 27.49                             152     0.4 7   74 301 
 RUS  HZ IP     D  6 6 12.24                             146    -0.210   97 177 
 RUS  HZ I         6 6 13.96        45.9 0.51                            97 177 
 RUS  HN ES   1    6 6 31.19                             146     0.3 7   97 177 
 GUE  SZ EP        6 6 13.51                             139    -0.410  120  11 
 GRA  SZ IP        6 6 15.23                             137     0.810  129  16 
 GRA  SZ ES   1    6 6 35.19                             137     0.7 7  129  16 
 GRA  SZ I         6 6 37.22       141.9 0.32                           129  16 
 OCA  SZ EP        6 6 16.76                             130    -0.8 9  164 353 
 OCA  SZ ES   2    6 6 40.02                             130    -0.1 5  164 353 
 OCA  SZ I         6 6 42.27       102.7 0.19                           164 353 
 NOR  SZ EP   2    6 6 24.04                             119    -0.4 4  233 236 
 NOR  SE ES   2    6 6 52.44                             119     0.1 4  233 236 
 CHI  HZ EP   1    6 6 26.18                             118     0.0 6  245 196 
 CHI  HE ES   2    6 6 55.41                             118     0.0 4  245 196 
 CHI  HZ I         6 7  5.36        41.1 0.59                           245 196 
 HEL  HZ EP   2    6 6 29.80                             115     0.7 4  272 257 
 HEL  HN ES   2    6 7  0.22                             115    -0.3 4  272 257 
 HEL  HZ I         6 7  7.12        49.7 0.32                           272 257 
 DBB  SZ I         6 7 20.63         8.6 0.58                           341 275 
 TOL  SZ EP   1    6 6 37.65                             110     0.8 5  341 225 
 TOL  SZ ES   2    6 7 14.43                             110     0.1 3  341 225 
 DBB  SZ EP   2    6 6 36.07                             110    -0.4 3  341 275 
                                                                                
