 2013 1026 0845 43.0 L   6.794 -73.148143.5  RSN 11 0.5 2.1LRSN                1
 GAP=137        1.18       3.4     4.4  6.2 -0.2446E+01  0.7792E+01  0.1937E+01E
 Epicentro: LOS SANTOS - SANTANDER                                             3
 ACTION:UPD 13-11-25 09:23 OP:ep   STATUS:               ID:20131026084543 L   I
 OLDACT:DUP 13-10-26 12:12 OP:carl STATUS:               ID:20131026083842d    3
 2013-10-26-0838-41M.COL___227                                                 6
 STAT SP IPHASW D HRMM SECON CODA AMPLIT PERI AZIMU VELO AIN AR TRES W  DIS CAZ7
 BAR2 SZ IP     C  846  2.35                             171   -0.0110 22.7 190 
 BAR2 SZ ES        846 17.56                             171    0.1110 22.7 190 
 BAR2 SZ I         846 18.30        75.9 0.22            170           22.7 190 
 BRR  HZ IP     D  846  4.23                             152    0.3010 71.3 299 
 BRR  HN ES        846 21.27                             152    1.0310 71.3 299 
 BRR  HZ I         846 25.50        20.8 0.44            149           71.3 299 
 PAM  SZ EP        846  5.18                             150    0.1510 78.0  39 
 PAM  SN ES        846 22.13                             150   -0.0710 78.0  39 
 PAM  SZ I         846 24.35        23.6 0.50            153           78.0  39 
 RUS  HZ EP        846  6.32                             144   -0.1810100.0 176 
 RUS  HN ES        846 24.92                             144    0.1010100.0 176 
 RUS  HZ I         846 25.85        22.7 0.24            147          100.0 176 
 PTB  HZ EP        846  9.03                             132   -0.74 9  147 259 
 PTB  HN ES        846 29.93                             132   -0.71 9  147 259 
 PTB  HZ I         846 35.27        17.3 0.24            131            147 259 
 OCA  HZ EP        846 11.17                             129   -0.04 9  161 353 
 OCA  HN ES        846 32.13                             129   -1.07 9  161 353 
 OCA  HZ I         846 38.43        12.2 0.28            130            161 353 
 SPBC HZ EP        846 11.31                             129    0.02 9  163 219 
 SPBC HN ES        846 33.14                             129   -0.19 9  163 219 
 SPBC HZ I         846 35.90        27.0 0.18            130            163 219 
 ZAR  HZ EP        846 16.16                             122    0.84 9  204 292 
 ZAR  HN ES        846 40.71                             122    0.19 9  204 292 
 ZAR  HZ I         846 47.27        16.1 0.38            122            204 292 
 NOR  HZ EP        846 18.82                             118    0.26 8  234 235 
 NOR  HN ES        846 45.77                             118   -0.51 8  234 235 
 NOR  HZ I         846 51.94        10.0 0.36            119            234 235 
 CHI  HZ EP        846 20.75                             117    0.23 8  248 195 
 CHI  HN ES        846 49.64                             117   -0.13 8  248 195 
 CBOC HZ EP        846 30.38                             109    0.58 7  333 252 
 CBOC HN ES        847  6.33                             109    0.05 7  333 252 
 CBOC HZ I         847 11.89         2.5 0.26            111            333 252 
                                                                                
