 2013  526 0650  2.9 L   6.778 -73.149142.8  RSN 11 0.3 2.3LRSN                1
 GAP= 72        0.69       2.7     2.3  4.4  0.1242E+01  0.8978E+00  0.7672E+00E
 Epicentro: LOS SANTOS - SANTANDER                                             3
 ACTION:UPD 13-06-20 09:53 OP:ep   STATUS:               ID:20130526065002 L   I
 2013-05-26-0648-50M.COL___211                                                 6
 STAT SP IPHASW D HRMM SECON CODA AMPLIT PERI AZIMU VELO AIN AR TRES W  DIS CAZ7
 BAR2 SZ EP        650 22.19                             171    0.0810 20.9 190 
 BAR2 SZ ES   1    650 36.55                             171   -0.56 7 20.9 190 
 BAR2 SZ I         650 38.37        38.9 0.18            172           20.9 190 
 GIR2 SZ EP        650 22.28                             166    0.0110 33.6 352 
 GIR2 SZ I         650 38.18        11.9 0.10            163           33.6 352 
 BRR  HZ EP     C  650 24.06                             152    0.3010 72.1 300 
 BRR  HN ES        650 40.66                             152    0.6110 72.1 300 
 BRR  HN I         650 41.22        78.4 0.22            149           72.1 300 
 PAM  SZ EP   1    650 24.95                             150    0.03 7 79.5  39 
 PAM  SN ES   1    650 41.83                             150   -0.27 7 79.5  39 
 PAM  SN I         650 44.14        42.9 0.66            148           79.5  39 
 RUS  HZ EP     C  650 26.20                             144    0.0310 98.2 176 
 RUS  HN ES        650 44.37                             144    0.0310 98.2 176 
 RUS  HN I         650 45.85        21.7 0.18            144           98.2 176 
 PTB  HZ EP   1    650 28.76                             132   -0.78 7  147 260 
 PTB  HN ES        650 50.30                             132   -0.02 9  147 260 
 PTB  HN I         650 52.37        29.4 0.24            129            147 260 
 TAM  HZ IP     D  650 30.54                             130    0.23 9  155 104 
 TAM  HN ES        650 51.61                             130   -0.09 9  155 104 
 TAM  HN I         650 52.73        18.9 0.40            130            155 104 
 OCA  HZ EP   2    650 31.54                             129    0.35 5  163 353 
 OCA  HN ES        650 53.01                             129   -0.26 9  163 353 
 OCA  HN I         650 57.02        53.5 0.32            126            163 353 
 ZAR  HZ EP   1    650 35.04                             122   -0.16 6  205 293 
 ZAR  HN ES        651  0.32                             122   -0.08 9  205 293 
 ZAR  HN I         651  6.27        26.9 0.26            120            205 293 
 CHI  HZ EP   1    650 40.35                             117    0.20 6  246 195 
 HEL  HZ EP        650 42.61                             114   -0.23 8  271 256 
 HEL  HN ES   4    651 12.21                             114   -1.80 0  271 256 
 HEL  HN I         651 22.68         6.8 0.36            113            271 256 
                                                                                
