 2013 1026 0444 39.1 L   6.810 -73.176147.3  RSN 12 0.3 2.3LRSN                1
 GAP=132        0.85       2.1     3.3  4.3 -0.9008E+00  0.3288E+01  0.5476E+00E
 Epicentro: LOS SANTOS - SANTANDER                                             3
 ACTION:UPD 13-11-25 09:23 OP:ep   STATUS:               ID:20131026044439 L   I
 OLDACT:REG 13-10-26 08:39 OP:carl STATUS:               ID:20131026043837     3
 2013-10-26-0438-37M.COL___227                                                 6
 STAT SP IPHASW D HRMM SECON CODA AMPLIT PERI AZIMU VELO AIN AR TRES W  DIS CAZ7
 BAR2 SZ EP        444 58.89                             170   -0.0210 24.1 182 
 BAR2 SZ ES        445 14.30                             170   -0.0810 24.1 182 
 BAR2 SZ I         445 16.68        63.1 0.28            168           24.1 182 
 BRR  HZ IP     C  445  0.67                             154    0.4710 67.7 299 
 BRR  HN ES        445 17.57                             154    0.8910 67.7 299 
 BRR  HZ I         445 21.69        28.6 0.30            150           67.7 299 
 PAM  SZ IP     C  445  1.87                             151    0.3310 78.7  42 
 PAM  SN ES        445 18.83                             151   -0.2310 78.7  42 
 PAM  SZ I         445 21.08        24.8 0.42            157           78.7  42 
 RUS  HZ IP     C  445  2.87                             144   -0.2210  102 174 
 RUS  HN ES        445 21.74                             144   -0.0710  102 174 
 RUS  HZ I         445 22.78        22.2 0.30            146            102 174 
 PTB  HZ EP        445  5.39                             133   -0.51 9  145 258 
 PTB  HN ES        445 26.47                             133   -0.34 9  145 258 
 PTB  HZ I         445 33.87        24.5 0.32            132            145 258 
 OCA  HZ EP        445  7.37                             130   -0.00 9  159 354 
 OCA  HN ES        445 28.80                             130   -0.64 9  159 354 
 OCA  HZ I         445 33.63        13.4 0.50            133            159 354 
 SPBC HZ EP        445  7.86                             130    0.28 9  162 218 
 SPBC HN ES        445 29.70                             130   -0.12 9  162 218 
 SPBC HZ I         445 36.09        30.7 0.26            130            162 218 
 ZAR  HZ EP        445 11.18                             123   -0.08 9  200 292 
 ZAR  HE ES        445 36.60                             123    0.24 9  200 292 
 ZAR  HZ I         445 47.45        10.1 0.16            124            200 292 
 NOR  HZ EP        445 14.91                             119    0.23 8  233 234 
 NOR  HE ES        445 42.03                             119   -0.41 8  233 234 
 NOR  HZ I         445 50.76        16.4 0.18            120            233 234 
 SML  HZ EP        445 15.70                             118    0.17 8  241 336 
 SML  HN ES        445 43.70                             118   -0.26 8  241 336 
 SML  HZ I         445 46.06        22.1 0.10            120            241 336 
 CHI  HZ EP        445 17.16                             117    0.27 8  249 194 
 CHI  HN ES        445 46.38                             117   -0.00 8  249 194 
 CHI  HZ I         445 52.67         7.5 0.32            120            249 194 
 GUY2CHZ EP   4    445 24.56                             113    2.03 0  299 234 
 GUY2CHN ES   4    445 57.80                             113    1.39 0  299 234 
 PRA  HZ EP        445 32.62                             107    0.04 6  391 209 
 PRA  HN ES        446 14.23                             107   -0.07 6  391 209 
 PRA  HZ I         446 19.06         6.4 0.26            109            391 209 
                                                                                
