 2012  926 0613 40.2 L   6.764 -73.165142.8  RSN  5 0.4 1.2LRSN                1
 GAP=136        0.83       6.3     5.8  9.5 -0.6849E+01 -0.5933E+00 -0.1247E+02E
 Epicentro: LOS SANTOS - SANTANDER                                             3
 ACTION:UPD 12-10-22 14:20 OP:ep   STATUS:               ID:20120926061340 L   I
 2012-09-26-0610-00M.COL___217                                                 6
 STAT SP IPHASW D HRMM SECON CODA AMPLIT PERI AZIMU VELO AIN AR TRES W  DIS CAZ7
 BAR2 SZ EP   1    613 59.28                             172   -0.12 7 19.1 186 
 BAR2 SZ ES   1    614 14.01                             172   -0.36 7 19.1 186 
 BAR2 SZ I         614 15.24         5.9 0.16                          19.1 186 
 BRR  HZ EP   1    614  1.26                             152    0.22 7 71.3 302 
 BRR  HN ES   1    614 18.03                             152    0.74 7 71.3 302 
 BRR  HZ I         614 20.50         2.7 0.14                          71.3 302 
 PAM  SZ EP        614  2.41                             149    0.0310 81.8  39 
 PAM  SN ES   1    614 19.34                             149   -0.33 7 81.8  39 
 RUS  HN ES   1    614 21.86                             144    0.38 7 96.8 175 
 RUS  HZ I         614 23.00         2.4 0.17                          96.8 175 
 PTB  HN ES   1    614 26.68                             132   -0.64 7  145 260 
                                                                                
