 2012  326 0059 21.1 L   6.825 -73.160139.9  RSN  8 0.4 1.9LRSN                1
 GAP=134        0.90       7.1     6.5 11.4 -0.1099E+02  0.2989E+02  0.2732E+02E
 ACTION:UP  12-03-31 23:22 OP:EP   STATUS:               ID:20120326005921 L   I
 2012-03-26-0057-36M.COL___175                                                 6
 STAT SP IPHASW D HRMM SECON CODA AMPLIT PERI AZIMU VELO SNR AR TRES W  DIS CAZ7
 BAR2 SZ EP        059 40.01                             169    -0.110   26 186 
 BAR2 SZ ES   2    059 54.97                             169     0.1 5   26 186 
 BAR2 SZ I         059 57.94        11.0 0.34                            26 186 
 BRR  HZ EP        059 41.99                             152     0.510   69 297 
 BRR  HZ I         059 44.03        15.4 0.10                            69 297 
 PAM  SZ EP        059 42.63                             150     0.010   76  42 
 PAM  SN ES   1    059 59.18                             150    -0.2 7   76  42 
 RUS  HZ EP        059 44.39                             142    -0.110  103 175 
 RUS  HZ I         1 0  5.09         8.6 0.38                           103 175 
 PTB  HZ EP        059 47.04                             131    -0.5 9  147 258 
 PTB  HZ I         1 0 10.37        11.4 0.46                           147 258 
 ZAR  HN ES   2    1 0 17.61                             121    -0.1 4  202 292 
 ZAR  HZ I         1 0 23.70        11.9 0.48                           202 292 
 NOR  SZ EP        059 56.34                             117    -0.2 8  235 234 
 NOR  SN ES   1    1 0 24.33                             117     0.2 6  235 234 
 CHI  HZ EP   2    059 59.93                             116     1.2 4  251 195 
 CHI  HZ I         1 0  0.53         4.2 0.32                           251 195 
                                                                                
