 2011  826 0430  1.8 L   6.795 -73.129151.6  RSN 25 0.5 4.2LRSN                1
 GAP= 69        0.91       2.8     4.5  4.2 -0.4690E+01  0.4581E+01  0.1706E+01E
 Epicentro: LOS SANTOS - SANTANDER                                             3
 ACTION:UPD 12-07-13 15:53 OP:ep   STATUS:               ID:20110826043001 L   I
 2011-08-26-0420-00M.COL___168                                                 6
 STAT SP IPHASW D HRMM SECON CODA AMPLIT PERI AZIMU VELO AIN AR TRES W  DIS CAZ7
 SAN  SZ EP        430 22.72                             177    0.8510 7.03 118 
 SAN  SZ ES   1    430 37.81                             177    0.29 7 7.03 118 
 BAR2 SZ IP        430 22.18                             171    0.0610 23.2 195 
 BAR2 SZ ES   1    430 37.27                             171   -0.71 7 23.2 195 
 BAR2 SZ I         430 40.05      2762.3 0.23                          23.2 195 
 GIR2 SZ IP        430 22.20                             167    0.0110 32.2 347 
 GIR2 SZ ES   1    430 37.08                             167   -1.01 7 32.2 347 
 BRR  HZ EP        430 23.89                             153    0.2110 73.0 298 
 BRR  HE ES   1    430 41.06                             153    0.31 7 73.0 298 
 BRR  HZ I         430 43.46      1249.0 0.23                          73.0 298 
 PAM  SZ EP        430 24.98                             152    0.3910 76.7  38 
 PAM  SN ES   1    430 42.19                             152   -0.18 7 76.7  38 
 RUS  HZ EP   1    430 26.05                             145   -0.03 7 99.9 177 
 RUS  HN ES   1    430 44.90                             145   -0.12 7 99.9 177 
 RUS  HZ I         430 46.54      1129.5 0.38                          99.9 177 
 BRI  SZ EP        430 26.70                             142    0.4610  108  20 
 BRI  SZ ES   1    430 44.91                             142   -0.39 7  108  20 
 GUE  SZ EP   1    430 26.57                             140   -0.50 7  117  11 
 OCA  SZ EP        430 30.88                             131    0.24 9  161 353 
 OCA  SZ ES   1    430 53.40                             131    0.27 7  161 353 
 OCA  SZ I         431  1.17      1964.8 0.31                           161 353 
 NOR  SZ EP        430 37.90                             119   -0.09 8  236 235 
 NOR  SN ES   1    431  5.90                             119   -0.32 6  236 235 
 CHI  HZ EP        430 39.95                             118    0.13 8  249 196 
 CHI  HN ES   1    431  9.68                             118    0.20 6  249 196 
 CHI  HZ I         431 13.45      1021.6 0.62                           249 196 
 HEL  HZ EP        430 42.02                             116   -0.47 8  274 256 
 HEL  HN ES   1    431 14.43                             116    0.20 6  274 256 
 HEL  HZ I         431 20.74       768.5 0.32                           274 256 
 VIL  SZ EP        430 45.41                             113   -0.06 7  303 192 
 VIL  SE ES   1    431 19.26                             113   -0.27 5  303 192 
 VIL  SZ I         431 22.92       765.6 0.39                           303 192 
 GUY  SZ EP   1    430 47.20                             113    1.13 5  305 235 
 GUY  SZ I         431 29.85      1449.4 0.46                           305 235 
 RREF HZ EP   1    430 48.21                             112   -0.10 5  323 230 
 DBB  SZ EP   1    430 50.14                             110    0.41 5  341 274 
 TOL  SZ EP   1    430 50.17                             110   -0.23 5  344 225 
 COD  HZ EP   1    430 49.58                             110   -0.91 5  349 354 
 COD  HZ I         431 39.25       890.7 0.72                           349 354 
 ANIL HZ EP   1    430 52.19                             109    0.26 5  358 225 
 ANIL HZ I         431 43.45      1484.0 0.35                           358 225 
 SDV  BZ EP        430 51.50                             109   -0.45 6  359  50 
 SDV  BZ I         430 52.78       378.5 0.33                           359  50 
 PRA  HZ EP   1    430 55.67                             107    0.10 4  392 210 
 PRA  HN ES   1    431 37.33                             107   -0.19 4  392 210 
 SJA  SZ EP   1    430 56.03                             107   -0.51 4  400 193 
 SJA  SZ ES   1    431 38.55                             107   -0.69 4  400 193 
 SJC  HZ EP        430 56.38                             106   -1.34 6  411 327 
 SJC  HZ I         431 52.21       230.6 0.70                           411 327 
 GUA  SZ EP   1    431  4.27                             104   -0.76 4  473 173 
 MARA HZ EP   1    431 13.93                             102    0.90 3  538 216 
                                                                                
