 2016 1126 0737 16.8 L   6.075 -73.614127.6  RSN  4 0.4 1.1LRSN                1
 GAP=259        0.92       9.6     5.2  9.1  0.9515E+01  0.1537E+02  0.2776E+02E
 Epicentro: CHIPATA - SANTANDER                                                3
 ACTION:UPD 17-10-26 21:12 OP:lp   STATUS:               ID:20161126073716 L   I
 OLDACT:UP  16-11-26 15:35 OP:dani STATUS:               ID:20161126072745d    3
 OLDACT:UP  16-11-26 15:34 OP:dani STATUS:               ID:20161126072745d    3
 OLDACT:DUP 16-11-26 15:32 OP:dani STATUS:               ID:20161126072745d    3
 OLDACT:UP  16-11-26 15:32 OP:dani STATUS:               ID:20161126072744     3
 OLDACT:UP  16-11-26 15:29 OP:dani STATUS:               ID:20161126072744     3
 OLDACT:UP  16-11-26 15:27 OP:dani STATUS:               ID:20161126072744     3
 OLDACT:UP  16-11-26 15:27 OP:dani STATUS:               ID:20161126072744     3
 OLDACT:REG 16-11-26 12:12 OP:dani STATUS:               ID:20161126072744     3
 2016-11-26-0728-00M.COL___349                                                 6
 STAT SP IPHASW D HRMM SECON CODA AMPLIT PERI AZIMU VELO AIN AR TRES W  DIS CAZ7
 BAR2 EZ EP        737 37.00                             148    0.4010 74.5  40 
 BAR2 EZ ES        737 51.64                             148   -0.3810 74.5  40 
 BAR2 EZ I         737 52.57         6.6 0.51            145           74.5  40 
 PTB  HZ EP        737 38.06                             137   -0.5910  106 299 
 PTB  HN ES        737 56.07                             137    0.4010  106 299 
 PTB  HZ I         737 57.11         1.5 0.12            136            106 299 
 BRR  HZ EP        737 39.66                             135    0.3410  115 355 
 BRR  HN ES        737 56.90                             135    0.0310  115 355 
 BRR  HZ I         738  1.17         1.1 0.15            132            115 355 
 ZAR  HZ EP        737 48.55                             117   -0.09 8  209 319 
 ZAR  HN ES        738 13.29                             117   -0.17 8  209 319 
 ZAR  HZ I         738 15.86         1.8 0.41            117            209 319 
                                                                                
