 2012  326 0413  6.3 L   6.564 -73.554108.6  RSN 22 0.5 3.3LRSN                1
 GAP= 51        1.25       4.1     4.1  7.1 -0.1670E+01  0.1004E+02  0.4544E+01E
 ACTION:UP  12-03-31 23:22 OP:EP   STATUS:               ID:20120326041306 L   I
 2012-03-26-0410-00M.COL___196                                                 6
 STAT SP IPHASW D HRMM SECON CODA AMPLIT PERI AZIMU VELO SNR AR TRES W  DIS CAZ7
 BAR2 SZ IP     D  413 22.50                             157     0.410   41  86 
 BAR2 SZ ES   1    413 34.68                             157     0.2 7   41  86 
 BAR2 SZ I         413 36.24      1992.2 0.24                            41  86 
 BRR  HZ IP     D  413 23.25                             148     0.310   62 344 
 BRR  HE ES   2    413 36.71                             148     0.7 5   62 344 
 BRR  HZ I         413 43.02       720.7 0.12                            62 344 
 RUS  HZ IP     C  413 25.50                             137    -0.310   91 145 
 RUS  HZ I         413 25.95       152.2 0.30                            91 145 
 RUS  HN ES   1    413 41.37                             137     0.4 7   91 145 
 PTB  HZ IP     D  413 25.33                             134    -0.610  100 268 
 PTB  HN ES   1    413 39.92                             134    -1.3 7  100 268 
 PTB  HZ I         413 41.46       478.7 0.44                           100 268 
 PAM  SZ EP        413 28.84                             126    -0.310  128  48 
 PAM  SN ES   1    413 46.85                             126    -0.1 7  128  48 
 ZAR  HZ EP        413 34.22                             116     0.6 9  177 306 
 ZAR  HZ I         413 59.00       346.0 0.38                           177 306 
 NOR  SZ EP        413 34.00                             116    -0.3 9  183 233 
 NOR  SN ES   2    413 55.61                             116    -0.6 4  183 233 
 YOP  SZ IP        413 34.53                             115     0.0 9  184 137 
 YOP  SN ES   2    413 56.20                             115    -0.3 4  184 137 
 OCA  SZ EP        413 34.99                             115     0.1 9  187   8 
 ROSC BZ EP   2    413 38.87                             112     1.2 4  209 204 
 ROSC BZ I         414  9.20       234.2 0.50                           209 204 
 CHI  HZ EP        413 38.11                             111    -0.3 8  215 185 
 CHI  HZ I         414  9.37        44.9 0.22                           215 185 
 HEL  HZ EP        413 38.99                             111    -0.2 8  222 259 
 HEL  HZ I         414  9.44       171.9 0.50                           222 259 
 GUY  SZ EP        413 43.38                             108     0.7 8  252 234 
 GUY  SZ I         414 16.33       199.2 0.30                           252 234 
 RREF HZ EP        413 45.54                             106     0.4 8  271 227 
 RREF HZ I         414 21.75       126.8 0.26                           271 227 
 VIL  SZ EP        413 44.66                             106     0.1 8  272 183 
 VIL  SZ I         414 29.65        52.0 0.38                           272 183 
 TOL  SZ EP        413 47.95                             104     0.5 7  294 222 
 DBB  SZ EP        413 48.13                             104     0.5 7  298 280 
 PRA  HZ EP        413 53.05                             101    -0.5 6  348 205 
 PAL  HZ EP        413 54.88                             101     0.7 6  354 239 
 COD  HZ EP        413 56.35                             100    -0.1 6  373   2 
 COD  HZ I         414 48.05       106.7 0.44                           373   2 
 SDV  BZ EP        414  0.29                              98    -1.1 6  412  51 
 YOT  HZ EP        414  1.52                              98    -0.9 5  421 227 
                                                                                
