 2013  926 0831 19.8 L   5.896 -73.762105.3  RSN  4 0.3 1.3LRSN                1
 GAP=163        0.65       5.3     2.8 11.2 -0.5008E+01 -0.6906E+01  0.2755E+02E
 Epicentro: JESUS MARIA - SANTANDER                                            3
 ACTION:UPD 13-10-22 09:25 OP:ep   STATUS:               ID:20130926083119 L   I
 OLDACT:REG 13-09-26 08:56 OP:mh   STATUS:               ID:20130926083000     3
 2013-09-26-0830-00M.COL___271                                                 6
 STAT SP IPHASW D HRMM SECON CODA AMPLIT PERI AZIMU VELO AIN AR TRES W  DIS CAZ7
 RUS  HZ EP        831 37.45                             142   -0.2810 75.1  90 
 RUS  HN ES   2    831 51.61                             142   -0.12 5 75.1  90 
 RUS  HZ I         831 58.01         1.3 0.40            148           75.1  90 
 BAR2 SZ EP   1    831 39.48                             133    0.03 7  100  40 
 BAR2 SZ ES   1    831 55.31                             133    0.52 7  100  40 
 BAR2 SZ I         831 56.41        11.4 0.30            146            100  40 
 PTB  HN ES        831 54.70                             132   -0.2910  105 313 
 PTB  HZ I         831 55.15         3.5 0.18            148            105 313 
 NOR  HZ EP   1    831 42.05                             125    0.21 7  128 253 
 NOR  HN ES        831 59.24                             125    0.1910  128 253 
 NOR  HZ I         832  2.10         4.8 0.12            136            128 253 
                                                                                
