 2011  626 0018 43.8 L   6.714 -73.127150.0  RSN  5 0.4 1.5LRSN                1
 GAP=187        0.63      13.4    16.4 14.2  0.1248E+03 -0.6983E+02 -0.1982E+02E
 Epicentro: JORDAN - SANTANDER                                                 3
 ACTION:UP  11-07-14 19:08 OP:ep   STATUS:               ID:20110626001843 L   I
 2011-06-26-0016-17S.COL___140                                                 6
 STAT SP IPHASW D HRMM SECON CODA AMPLIT PERI AZIMU VELO SNR AR TRES W  DIS CAZ7
 BAR2 SZ EP        019  3.67                             174    -0.110   15 204 
 BTL  SZ EP        019  4.45                             169     0.410   27 326 
 GIR2 SZ EP        019  4.21                             164    -0.110   41 350 
 GIR2 SZ ES   3    019 19.34                             164    -0.9 2   41 350 
 BRR  HZ EP        019  5.62                             152    -0.210   78 304 
 BRR  HZ I         019  5.84         5.4 0.24                            78 304 
 BRR  HN ES   2    019 23.22                             152     0.3 5   78 304 
 RUS  HZ EP   3    019  6.55                             148    -0.8 2   91 177 
 RUS  HN ES   3    019 26.28                             148     0.6 2   91 177 
                                                                                
