 2016  126 0259  6.8 L   6.795 -73.153144.0  RSN 10 0.3 2.1LRSN                1
 GAP=136        0.83       3.2     3.2  5.4 -0.9228E+00  0.4136E+01  0.3067E+01E
 Epicentro: LOS SANTOS - SANTANDER                                             3
 ACTION:UPD 16-03-09 23:28 OP:cam  STATUS:               ID:20160126025906 L   I
 OLDACT:REG 16-01-26 14:10 OP:cara STATUS:               ID:20160126025738     3
 2016-01-26-0257-38M.COL___330                                                 6
 STAT SP IPHASW D HRMM SECON CODA AMPLIT PERI AZIMU VELO AIN AR TRES W  DIS CAZ7
 BAR2 EZ IP     D  259 26.12                             171   -0.0910 22.6 188 
 BAR2 EZ ES        259 40.89                             171   -0.4510 22.6 188 
 BAR2 EZ I         259 42.80        34.9 0.20            170           22.6 188 
 PAM  EZ EP     D  259 29.09                             150    0.2010 78.4  40 
 PAM  EN ES        259 46.29                             150    0.1810 78.4  40 
 PAM  EZ I         259 48.26        39.4 0.52            153           78.4  40 
 RUS  HZ EP        259 30.08                             143   -0.2610  100 176 
 RUS  HN ES        259 49.23                             143    0.5310  100 176 
 RUS  HZ I         259 49.86         8.7 0.30            146            100 176 
 PTB  HZ EP        259 33.22                             132   -0.33 9  147 259 
 PTB  HN ES        259 53.91                             132   -0.49 9  147 259 
 PTB  HZ I         3 0  1.09        15.4 0.44            130            147 259 
 SPBC HZ EP        259 35.02                             129   -0.06 9  162 219 
 SPBC HN ES        259 57.51                             129    0.39 9  162 219 
 SPBC HZ I         3 0  0.34        14.5 0.10            129            162 219 
 ZAR  HZ EP   4    259 40.90                             122    1.82 0  204 292 
 ZAR  HE ES        3 0  4.35                             122    0.10 9  204 292 
 ZAR  HZ I         3 0 10.86        15.4 0.32            121            204 292 
 SML  HZ EP   9    259 42.46                             117   -0.89 0  244 336 
 SML  HE ES        3 0 10.99                                    0.02 8  244 336 
 SML  HZ I         3 0 14.47        19.6 0.26            117            244 336 
 CHI  HZ EP        259 44.46                             117    0.14 8  248 195 
 CHI  HN ES        3 0 13.23                             117   -0.35 8  248 195 
 CHI  HZ I         3 0 17.17         7.8 0.42            118            248 195 
 HEL  HN ES        3 0 18.71                             114    0.67 8  271 256 
 HEL  HZ I         3 0 26.54         3.4 0.26            114            271 256 
 GUY2CHZ EP   9    259 52.20                             112    1.98 0  300 235 
 GUY2CHN ES        3 0 25.77                                   -0.29 7  300 235 
 GUY2CHZ I         3 0 30.13         3.5 0.38                           300 235 
                                                                                
