 2013 1126 0755 30.1 L   6.834 -73.116156.0  RSN  9 0.4 1.6LRSN                1
 GAP=156        0.87       4.2     5.6  7.4 -0.8064E+01  0.6489E+01  0.1063E+02E
 Epicentro: LOS SANTOS - SANTANDER                                             3
 ACTION:UPD 14-01-09 16:31 OP:ep   STATUS:               ID:20131126075530 L   I
 OLDACT:REG 13-11-26 08:24 OP:mh   STATUS:               ID:20131126075000     3
 2013-11-26-0750-00M.COL___282                                                 6
 STAT SP IPHASW D HRMM SECON CODA AMPLIT PERI AZIMU VELO AIN AR TRES W  DIS CAZ7
 BAR2 SZ EP        755 51.07                             169    0.0210 27.7 195 
 BAR2 SZ I         756  8.05         6.8 0.21            166           27.7 195 
 PAM  SN ES        756 10.89                             154   -0.2210 72.4  39 
 BRR  HZ EP   1    755 52.99                             154    0.56 7 72.5 295 
 BRR  HN ES        756 10.42                             154    0.5710 72.5 295 
 BRR  HZ I         756 13.34         3.3 0.16            161           72.5 295 
 PTB  HZ EP        755 57.95                             134   -0.32 9  152 258 
 PTB  HN ES   1    756 19.44                             134   -0.80 7  152 258 
 PTB  HZ I         756 25.26         6.3 0.37            138            152 258 
 SPBC HZ EP        755 59.67                             130   -0.19 9  168 219 
 SPBC HN ES        756 22.93                             130   -0.14 9  168 219 
 SPBC HZ I         756 29.12         8.4 0.24            132            168 219 
 NOR  HN ES        756 35.78                             120    0.08 8  240 234 
 NOR  HZ I         756 39.25         3.1 0.26            122            240 234 
 SML  HN ES        756 35.88                             120   -0.10 8  242 334 
 GUY2CHZ EP   4    756 16.10                             114    1.36 0  306 235 
 GUY2CHN ES   4    756 52.38                             114    2.82 0  306 235 
 GUY2CHZ I         756 58.14         2.0 0.38                           306 235 
 PRA  HZ EP        756 24.71                             108    0.16 6  397 210 
 PRA  HN ES   1    757  8.09                             108    1.06 4  397 210 
                                                                                
