 2015  326 0837  6.7 L   6.807 -73.137142.9  RSN 13 0.4 1.8LRSN                1
 GAP=137        0.85       2.4     3.0  4.4 -0.1250E+01  0.5331E+01 -0.7315E+00E
 Epicentro: LOS SANTOS - SANTANDER                                             3
 ACTION:UPD 15-04-30 16:29 OP:nd   STATUS:               ID:20150326083706 L   I
 OLDACT:UP  15-03-26 16:23 OP:akv  STATUS:               ID:20150326082747     3
 OLDACT:REG 15-03-26 12:59 OP:fm   STATUS:               ID:20150326082747     3
 2015-03-26-0827-47M.COL___275                                                 6
 STAT SP IPHASW D HRMM SECON CODA AMPLIT PERI AZIMU VELO AIN AR TRES W  DIS CAZ7
 BAR2 EZ EP        837 26.09                             170    0.1010 24.2 192 
 BAR2 EZ ES        837 41.17                             170    0.1210 24.2 192 
 BAR2 EZ I         837 43.86        17.5 0.24            169           24.2 192 
 BRR  HZ EP     D  837 28.02                             152    0.4610 71.7 298 
 BRR  HN ES        837 44.26                             152    0.4210 71.7 298 
 BRR  HZ I         837 49.66         9.9 0.28            148           71.7 298 
 PAM  SZ EP     D  837 28.92                             151    0.3910 76.2  39 
 PAM  SE ES        837 45.29                             151   -0.2710 76.2  39 
 PAM  SZ I         837 48.53        10.1 0.46            155           76.2  39 
 RUS  HZ EP        837 29.99                             143   -0.2110  101 177 
 RUS  HN ES        837 48.44                             143   -0.1110  101 177 
 RUS  HZ I         837 51.85         3.5 0.30            148            101 177 
 PTB  HZ EP        837 32.99                             131   -0.53 9  149 259 
 PTB  HE ES        837 53.86                             131   -0.60 9  149 259 
 PTB  HZ I         838  1.30        13.8 0.40            132            149 259 
 OCA  HZ EP   1    837 34.41                             129   -0.31 7  160 353 
 OCA  HN ES        837 56.68                             129    0.09 9  160 353 
 OCA  HZ I         838  0.25        20.6 0.16            131            160 353 
 SPBC HZ EP        837 35.08                             128    0.00 9  164 219 
 SPBC HN ES        837 57.07                             128   -0.16 9  164 219 
 SPBC HZ I         838  1.74        11.7 0.18            131            164 219 
 ZAR  HZ EP        837 39.71                             122    0.70 9  205 292 
 ZAR  HN ES        838  4.49                             122    0.26 9  205 292 
 ZAR  HZ I         838 12.48         6.1 0.56            123            205 292 
 SML  HZ EP        837 42.42                             117   -0.70 8  243 335 
 SML  HE ES        838 11.11                             117   -0.44 8  243 335 
 SML  HZ I         838 21.13         7.5 0.10            119            243 335 
 HEL  HZ EP   1    837 46.76                             114   -0.12 6  273 256 
 HEL  HE ES        838 18.19                             114   -0.04 8  273 256 
 HEL  HZ I         838 25.21         3.0 0.36            116            273 256 
 URE  HZ EP   1    837 47.44                             113   -0.25 6  284 292 
 URE  HN ES   1    838 19.51                             113   -0.16 6  284 292 
 URE  HZ I         838 29.50         4.1 0.18            115            284 292 
 GUY2CHZ EP        837 50.66                             112    0.36 7  302 235 
 GUY2CHN ES        838 24.43                             112    0.11 7  302 235 
 GUY2CHZ I         838 34.90         3.5 0.52                           302 235 
 CBOC HZ EP        837 54.20                             109    0.59 7  335 252 
 CBOC HN ES        838 30.20                             109   -0.02 7  335 252 
 CBOC HZ I         838 39.40         1.5 0.42            111            335 252 
                                                                                
