 2010  326 0408 55.5 L   6.767 -73.039145.2  RSN  6 0.2 2.0LRSN                1
 GAP=209        0.42       2.3     6.8  4.0 -0.9741E+00 -0.4466E+01  0.2591E+01E
 Epicentro: CEPITA - SANTANDER                                                 3
 ACTION:UP  10-08-24 09:56 OP:vdl  STATUS:               ID:20100326040855 L   I
 2010-03-26-0407-23S.COL___098                                                 6
 STAT SP IPHASW D HRMM SECON CODA AMPLIT PERI AZIMU VELO SNR AR TRES W  DIS CAZ7
 BAR2 SZ IP        4 9 15.03                             170    -0.110   25 219 
 BAR2 SZ ES   1    4 9 30.51                             170     0.1 7   25 219 
 BRR  HZ EP        4 9 17.09                             149    -0.210   83 297 
 BRR  HE ES   1    4 9 34.28                             149    -0.1 7   83 297 
 BRR  HZ I         4 9 36.44        14.9 0.08                            83 297 
 OCA  SZ EP   1    4 9 24.35                             129     0.1 7  166 349 
 OCA  SZ ES   1    4 9 47.04                             129     0.3 7  166 349 
 OCA  SZ I         4 9 50.78        15.8 0.11                           166 349 
 CHI  HZ EP        4 9 33.19                             117     0.0 8  249 198 
 CHI  HE ES   2    410  2.75                             117     0.2 4  249 198 
 CHI  HZ I         410 11.30         3.8 0.68                           249 198 
 TOL  SZ EP   3    4 9 45.21                             109     0.8 2  349 226 
 PRA  HZ EP   2    4 9 49.17                             106    -0.2 3  395 211 
 PRA  HE ES   2    410 31.57                             106     0.2 3  395 211 
 PRA  HZ I         410 36.93         5.7 0.36                           395 211 
                                                                                
