 2010  426 0305 38.7 L   7.271 -73.062161.4  RSN  4 0.3 2.1LRSN                1
 GAP=222        0.62      13.1    30.8 13.0 -0.3548E+03 -0.3046E+03  0.1281E+03E
 Epicentro: MATANZA - SANTANDER                                                3
 ACTION:UP  10-08-24 10:01 OP:vdl  STATUS:               ID:20100426030539 L   I
 2010-04-26-0304-03S.COL___104                                                 6
 STAT SP IPHASW D HRMM SECON CODA AMPLIT PERI AZIMU VELO AIN AR TRES W  DIS CAZ7
 BRR  HZ EP        3 6  1.56                             154    -0.210   74 256 
 BRR  HN ES   1    3 6 19.86                             154     0.2 7   74 256 
 BRR  HZ I         3 6 22.08        23.3 0.10                            74 256 
 OCA  SZ EP   1    3 6  4.68                             144     0.4 7  111 345 
 OCA  SZ ES   1    3 6 23.91                             144    -0.3 7  111 345 
 HEL  HZ EP   2    3 6 22.59                             115     0.0 4  298 246 
 HEL  HZ I         3 7  6.14         6.6 0.39                           298 246 
 PRA  HZ EP   2    3 6 38.37                             107    -0.3 3  442 207 
 PRA  HZ I         3 7 27.85         2.3 0.21                           442 207 
                                                                                
