 2016  626 0451  4.3 L   6.772 -73.135144.0  RSN 17 0.5 2.2LRSN                1
 GAP=139        1.20       4.1     4.4  6.8 -0.3242E+01  0.9469E+01  0.6681E+01E
 Epicentro: LOS SANTOS - SANTANDER                                             3
 ACTION:UPD 16-07-21 22:23 OP:rebc STATUS:               ID:20160626045104 L   I
 OLDACT:DUP 16-06-26 15:19 OP:ak   STATUS:               ID:20160626044745d    3
 OLDACT:REG 16-06-26 13:35 OP:ak   STATUS:               ID:20160626044744     3
 2016-06-26-0447-44M.COL___327                                                 6
 STAT SP IPHASW D HRMM SECON CODA AMPLIT PERI AZIMU VELO AIN AR TRES W  DIS CAZ7
 BRR  HZ IP     C  451 25.36                             151    0.0110 73.7 300 
 BRR  HN ES        451 42.86                             151    1.0510 73.7 300 
 BRR  HZ I         451 46.81        21.4 0.12                          73.7 300 
 PAM  EZ EP        451 26.35                             150   -0.0310 79.1  37 
 PAM  EN ES        451 43.72                             150    0.0810 79.1  37 
 PAM  EZ I         451 46.35        18.1 0.38                          79.1  37 
 RUS  HZ EP        451 27.69                             144    0.0910 97.4 177 
 RUS  HN ES        451 45.80                             144   -0.0110 97.4 177 
 RUS  HZ I         451 47.79        16.8 0.42                          97.4 177 
 PTB  HZ EP        451 30.08                             131   -1.05 9  148 260 
 PTB  HN ES        451 51.52                             131   -0.57 9  148 260 
 PTB  HZ I         451 53.14        21.3 0.16                           148 260 
 SPBC HZ EP        451 32.38                             129   -0.08 9  162 220 
 SPBC HE ES        451 53.74                             129   -0.72 9  162 220 
 SPBC HZ I         451 57.35        21.2 0.11                           162 220 
 ZAR  HZ EP        451 36.98                             122    0.17 8  206 293 
 ZAR  HN ES        452  1.33                             122   -0.88 8  206 293 
 ZAR  HZ I         452  8.40        34.1 0.34                           206 293 
 NOR  HZ EP        451 39.32                             118   -0.47 8  234 235 
 NOR  HN ES        452  6.90                             118   -0.61 8  234 235 
 NOR  HZ I         452 15.43        13.7 0.13                           234 235 
 HEL  HZ EP        451 44.81                             114    0.39 8  272 256 
 HEL  HN ES        452 16.44                             114    0.70 8  272 256 
 HEL  HZ I         452 22.77         8.2 0.26                           272 256 
 URE  HZ EP   4    451 47.75                             113    2.27 0  286 292 
 URE  HN ES   4    452 14.91                             113   -2.74 0  286 292 
 URE  HZ I         452 27.63        15.4 0.28                           286 292 
 GUY2CHZ EP        451 48.10                             112    0.41 7  300 235 
 GUY2CHN ES        452 22.46                             112    0.90 7  300 235 
 GUY2CHZ I         452 32.23         7.1 0.32                           300 235 
 CBOC HZ EP        451 51.75                             109    0.64 7  334 253 
 CBOC HN ES        452 27.70                             109    0.04 7  334 253 
 CBOC HZ I         452 40.02         3.3 0.50                           334 253 
 DBB  SZ EP        451 52.28                             109    0.46 7  341 275 
 DBB  SZ ES   4    452 27.05                             109   -1.87 0  341 275 
 ANIL HN ES        452 32.88                             108    0.38 6  356 225 
 PRA  HZ EP        451 57.03                             106   -0.43 6  390 210 
 PRA  HN ES        452 39.40                             106    0.43 6  390 210 
 PRA  HZ I         452 42.69         5.4 0.30                           390 210 
 ORTC HZ EP        451 57.83                             106   -0.07 6  394 217 
 ORTC HN ES        452 40.23                             106    0.49 6  394 217 
 ORTC HZ I         452 51.06         3.8 0.38                           394 217 
 PAL  HN ES   4    452 40.53                             106   -1.68 0  405 240 
 SJC  HZ EP   4    451 57.70                             105   -2.43 0  412 327 
 SJC  HE ES   4    452 38.97                             105   -4.75 0  412 327 
 SJC  HZ I         452 43.17         2.7 0.44                           412 327 
 CRJC HZ EP   9    452  3.74                             103   -3.32 0  471   3 
 CRJC HN ES        452 52.36                                   -0.37 5  471   3 
                                                                                
