 2016  126 0159 33.2 L   6.812 -73.144146.1  RSN 10 0.4 1.9LRSN                1
 GAP=136        0.93       2.8     3.9  5.5 -0.1129E+01  0.7712E+01 -0.6871E+00E
 Epicentro: LOS SANTOS - SANTANDER                                             3
 ACTION:UPD 16-03-09 23:28 OP:cam  STATUS:               ID:20160126015933 L   I
 OLDACT:REG 16-01-26 13:50 OP:cara STATUS:               ID:20160126015749     3
 2016-01-26-0157-49M.COL___331                                                 6
 STAT SP IPHASW D HRMM SECON CODA AMPLIT PERI AZIMU VELO AIN AR TRES W  DIS CAZ7
 BAR2 EZ IP     D  159 52.78                             170   -0.1310 24.7 190 
 BAR2 EZ ES        2 0  8.40                             170    0.1210 24.7 190 
 BAR2 EZ I         2 0 10.62        14.2 0.24            169           24.7 190 
 PAM  EZ IP     C  159 55.66                             151    0.2610 76.3  40 
 PAM  EN ES        2 0 13.11                             151    0.4110 76.3  40 
 PAM  EZ I         2 0 15.11        12.9 0.62            156           76.3  40 
 RUS  HZ EP        159 56.74                             143   -0.3510  102 176 
 RUS  HN ES        2 0 15.56                             143   -0.1610  102 176 
 RUS  HZ I         2 0 18.28         8.4 0.28            147            102 176 
 PTB  HZ EP        159 59.80                             132   -0.44 9  148 258 
 PTB  HE ES        2 0 20.95                             132   -0.38 9  148 258 
 PTB  HZ I         2 0 28.25         8.6 0.30            133            148 258 
 SPBC HZ EP        2 0  1.40                             129   -0.44 9  164 219 
 SPBC HN ES        2 0 24.06                             129   -0.12 9  164 219 
 SPBC HZ I         2 0 26.48        20.5 0.36            131            164 219 
 ZAR  HZ EP        2 0  6.15                             122    0.51 9  204 292 
 ZAR  HE ES        2 0 31.37                             122    0.43 9  204 292 
 ZAR  HZ I         2 0 37.25         7.2 0.22            124            204 292 
 NOR  HZ EP        2 0  9.27                             118    0.22 8  236 234 
 NOR  HE ES        2 0 37.33                             118    0.31 8  236 234 
 NOR  HZ I         2 0 42.47         5.5 0.32            120            236 234 
 SML  HZ EP        2 0  9.61                             118   -0.12 8  243 335 
 SML  HN ES        2 0 37.44                             118   -0.78 8  243 335 
 SML  HZ I         2 0 42.32        11.7 0.26            120            243 335 
 CHI  HZ EP        2 0 11.03                             117   -0.04 8  250 195 
 CHI  HE ES        2 0 40.75                             117    0.15 8  250 195 
 CHI  HZ I         2 0 45.91         3.0 0.36            120            250 195 
 GUY2CHZ EP        2 0 17.91                             112    0.98 7  302 235 
 GUY2CHN ES   4    2 0 52.57                             112    1.53 0  302 235 
 GUY2CHZ I         2 1  3.52         3.5 0.50                           302 235 
                                                                                
