 2017  126 0123 54.0 L   6.814 -73.137146.0  RSN 11 0.5 2.0LRSN                1
 GAP=222        1.22       5.1     6.8  7.2  0.5458E+01  0.1431E+02  0.8098E+01E
 Epicentro: LOS SANTOS - SANTANDER                                             3
 ACTION:UPD 17-05-22 16:03 OP:jn   STATUS:               ID:20170126012354 L   I
 OLDACT:REG 17-01-26 13:20 OP:lv   STATUS:               ID:20170126011748     3
 2017-01-26-0118-00M.COL___355                                                 6
 STAT SP IPHASW D HRMM SECON CODA AMPLIT PERI AZIMU VELO AIN AR TRES W  DIS CAZ7
 BAR2 EZ EP        124 13.77                             170    0.0510 25.0 192 
 BAR2 EZ ES        124 28.83                             170   -0.2510 25.0 192 
 BAR2 EZ I         124 31.20        23.3 0.22            166           25.0 192 
 BRR  HZ IP     C  124 15.55                             152    0.3410 71.4 297 
 BRR  HE ES        124 32.70                             152    0.9710 71.4 297 
 BRR  HZ I         124 33.83        15.7 0.17            147           71.4 297 
 RUS  HZ EP        124 17.88                             144   -0.0310  102 177 
 RUS  HN ES        124 36.27                             144   -0.2610  102 177 
 RUS  HZ I         124 37.41        11.2 0.29            144            102 177 
 PTB  HZ EP        124 20.55                             132   -0.58 9  149 258 
 PTB  HN ES        124 41.75                             132   -0.52 9  149 258 
 PTB  HZ I         124 43.38        10.2 0.06            128            149 258 
 ZAR  HZ I         124 57.47         7.9 0.14            120            204 292 
 NOR  HZ EP        124 30.40                             118    0.45 8  236 234 
 NOR  HE ES        124 57.40                             118   -0.57 8  236 234 
 NOR  HZ I         125  0.91         5.6 0.39            117            236 234 
 CHI  HZ EP        124 32.16                             117    0.23 8  250 195 
 CHI  HN ES        125  1.31                             117   -0.18 8  250 195 
 CHI  HZ I         125  3.73         5.7 0.34            117            250 195 
 ROSC BZ EP   4    124 34.42                             117    2.06 0  255 211 
 ROSC BN ES        125  2.59                             117    0.33 8  255 211 
 ROSC BZ I         125  8.71        12.9 0.35            116            255 211 
 URE  HZ EP        124 34.16                             113   -0.99 7  284 292 
 URE  HN ES   4    125  4.92                             113   -2.30 0  284 292 
 URE  HZ I         125 18.16         9.6 0.22            112            284 292 
 PTGC HZ EP   9    124 37.04                             111   -0.98 0  310 159 
 PTGC HE ES        125 10.55                                   -0.80 7  310 159 
 ORTC HZ EP        124 48.88                             106    0.71 6  397 216 
 ORTC HN ES        125 31.23                             106    0.83 6  397 216 
 ORTC HZ I         125 38.75         2.8 0.12            106            397 216 
 SJC  HZ EP   4    124 48.01                             106   -1.50 0  408 327 
 SJC  HN ES   4    125 30.31                             106   -2.48 0  408 327 
                                                                                
