 2012 1026 0631 13.7 L   6.799 -73.124145.3  RSN 13 0.5 2.9LRSN 3.1WRSN        1
 SPEC AVERAGE  MO 13.8 ST 15.2 OM  3.0 f0 5.37 R0.2753 AL 3.66 WI 25.0 MW  3.1 3
 SPEC SD       MO  0.2 ST  9.9 OM  0.9 f00.407 R0.0202 AL      WI      MW  0.1 3
 GAP= 72        0.85       3.6     4.9  5.9 -0.4700E+00  0.7521E+01  0.3294E+01E
 Epicentro: LOS SANTOS - SANTANDER                                             3
 SPEC RUS HH N MO 13.6 ST  7.4 OM  2.0 f0 4.95 R0.2970 AL 3.36 WI 39.3 MW  3.0 3
 SPEC RUS HH N T 63150 K 0.000 GD  176 VS 4.20 DE 3.20 Q0230.0 QA 0.60 VS 4.20 3
 SPEC CHI HH N MO 13.7 ST  9.0 OM  1.8 f0 5.24 R0.2805 AL 3.81 WI 14.7 MW  3.0 3
 SPEC CHI HH N T 63220 K 0.000 GD  288 VS 4.20 DE 3.20 Q0230.0 QA 0.60 VS 4.20 3
 SPEC BRR HH N MO 14.0 ST 29.2 OM  2.4 f0 5.92 R0.2483 AL 3.80 WI 20.9 MW  3.3 3
 SPEC BRR HH N T 63150 K 0.000 GD  162 VS 4.20 DE 3.20 Q0230.0 QA 0.60 VS 4.20 3
 ACTION:UPD 12-11-22 17:05 OP:ep   STATUS:               ID:20121026063113 L   I
 2012-10-26-0630-00M.COL___228                                                 6
 STAT SP IPHASW D HRMM SECON CODA AMPLIT PERI AZIMU VELO AIN AR TRES W  DIS CAZ7
 BAR2 SZ EP        631 33.25                             170   -0.0710 23.8 196 
 BAR2 SZ ES   1    631 47.87                             170   -0.72 7 23.8 196 
 BAR2 SZ I         631 50.00       174.0 0.28                          23.8 196 
 GIR2 SZ EP   1    631 33.34                             167   -0.03 7 31.9 346 
 GIR2 SZ ES   2    631 49.46                             167    0.78 5 31.9 346 
 BRR  HZ IP     C  631 35.16                             152    0.2010 73.4 298 
 BRR  HE ES   2    631 52.38                             152    0.87 5 73.4 298 
 BRR  HN I         631 52.83       323.7 0.24                          73.4 298 
 PAM  SZ EP        631 36.03                             151    0.2210 75.9  38 
 PAM  SZ I         631 36.20       102.1 0.44                          75.9  38 
 PAM  SN ES   2    631 53.43                             151    0.40 5 75.9  38 
 RUS  HZ EP   1    631 37.11                             144   -0.31 7  100 177 
 RUS  HE ES   1    631 55.75                             144   -0.15 7  100 177 
 RUS  HN I         631 56.44        91.5 0.42                           100 177 
 TAM  HZ EP   1    631 41.34                             131    0.18 7  153 105 
 TAM  HN ES   2    632  2.82                             131    0.28 5  153 105 
 OCA  HZ EP   1    631 41.44                             129   -0.61 7  161 352 
 OCA  HN ES   2    632  3.52                             129   -0.61 5  161 352 
 OCA  HN I         632  7.30       269.8 0.22                           161 352 
 ZAR  HZ EP   1    631 45.72                             122   -0.67 6  206 292 
 ZAR  HN ES   2    632 11.44                             122   -0.42 4  206 292 
 CHI  HZ EP        631 51.27                             117   -0.20 8  249 196 
 CHI  HZ I         631 53.69        13.6 0.26                           249 196 
 CHI  HN ES   1    632 20.70                             117   -0.20 6  249 196 
 ROSC BZ EP   1    631 52.99                             116    1.03 6  254 212 
 ROSC BN ES   2    632 21.74                             116   -0.03 4  254 212 
 ROSC BZ I         632 32.85        28.0 0.75                           254 212 
 HEL  HZ EP   1    631 55.15                             114    0.96 6  274 256 
 HEL  HN I         632 31.00       112.4 0.98                           274 256 
 RREF HZ EP   1    632  0.49                             110    0.42 5  324 230 
 PRA  HZ EP   1    632  6.63                             106   -0.75 4  393 210 
                                                                                
