 2010  826 0446 56.5 L   6.521 -73.988  2.0  RSN  7 0.4 1.8LRSN                1
 GAP=256        0.72       4.3    10.9  8.8  0.3769E+02 -0.7555E+02 -0.2706E+02E
 Epicentro: PUERTO PARRA - SANTANDER                                           3
 ACTION:UP  10-09-07 10:58 OP:vdl  STATUS:               ID:20100826044656 L   I
 2010-08-26-0442-06S.COL___121                                                 6
 STAT SP IPHASW D HRMM SECON CODA AMPLIT PERI AZIMU VELO SNR AR TRES W  DIS CAZ7
 BRR  HZ IP     C  447  7.97                              47    -0.210   72  25 
 BRR  HN ES   1    447 17.65                              47     0.3 7   72  25 
 BRR  HZ I         447 18.70        27.6 0.05                            72  25 
 BAR2 SZ EP   2    447 11.04                              47    -0.1 5   89  85 
 BAR2 SZ ES   2    447 21.95                              47    -0.6 5   89  85 
 BAR2 SZ I         447 24.32        15.9 0.43                            89  85 
 GIR2 SZ EP   2    447 14.05                              47     0.3 5  107  55 
 RUS  HZ IP     D  447 16.37                              47     0.110  122 125 
 RUS  HZ I         447 16.54        16.4 0.23                           122 125 
 RUS  HN ES   1    447 31.86                              47     0.1 7  122 125 
 GUE  SZ EP   1    447 25.84                              37     0.1 7  186  39 
 GUE  SZ I         447 50.41         6.1 0.12                           186  39 
 GRA  SZ EP   1    447 27.34                              37     0.1 6  200  41 
 GRA  SZ ES   1    447 51.52                              37     0.4 6  200  41 
 GRA  SZ I         447 53.80        24.7 0.34                           200  41 
 OCA  SZ ES   2    447 51.06                              37    -1.0 4  204  21 
 OCA  SZ I         448  5.60        12.0 0.33                           204  21 
                                                                                
