 2017  126 0447 16.1 L   6.655 -73.239148.5  RSN  5 0.4 1.2LRSN                1
 GAP=184        0.92       7.1     6.4  8.2  0.2352E+02  0.1478E+02 -0.3481E+01E
 Epicentro: BARICHARA - SANTANDER                                              3
 ACTION:UPD 17-05-22 16:03 OP:jn   STATUS:               ID:20170126044716 L   I
 OLDACT:REG 17-01-26 13:35 OP:lv   STATUS:               ID:20170126043744     3
 2017-01-26-0438-00M.COL___349                                                 6
 STAT SP IPHASW D HRMM SECON CODA AMPLIT PERI AZIMU VELO AIN AR TRES W  DIS CAZ7
 BAR2 EZ EP        447 35.69                             176   -0.1410 9.39 138 
 BAR2 EZ ES        447 50.68                             176   -0.5610 9.39 138 
 BAR2 EZ I         447 51.99         2.9 0.29            175           9.39 138 
 BRR  HZ EP        447 37.64                             153    0.0710 72.3 314 
 BRR  HE ES        447 54.69                             153    0.3410 72.3 314 
 BRR  HZ I         447 56.51         4.0 0.16            151           72.3 314 
 RUS  HN ES        447 57.61                             149    0.5310 86.1 168 
 RUS  HZ I         447 58.81         1.9 0.26            150           86.1 168 
 PTB  HZ EP        447 41.98                             135   -0.18 9  135 265 
 PTB  HN ES        448  2.18                             135   -0.33 9  135 265 
 PTB  HZ I         448  5.95         2.2 0.16            134            135 265 
 ZAR  HN ES        448 13.96                             123    0.31 9  201 297 
 ZAR  HZ I         448 20.55         2.8 0.24            123            201 297 
                                                                                
