 2015  126 0838 21.5 L   6.265 -73.916 92.0  RSN  5 0.3 1.2LRSN                1
 GAP=128        0.86       3.6     3.6  7.5 -0.5567E+01  0.2059E+01  0.6038E+01E
 Epicentro: CIMITARRA - SANTANDER                                              3
 ACTION:UPD 15-03-02 15:42 OP:nd   STATUS:               ID:20150126083821 L   I
 OLDACT:REG 15-01-26 17:24 OP:cam  STATUS:               ID:20150126083540     3
 2015-01-26-0835-40M.COL___274                                                 6
 STAT SP IPHASW D HRMM SECON CODA AMPLIT PERI AZIMU VELO AIN AR TRES W  DIS CAZ7
 PTB  HZ EP        838 36.28                             141   -0.5910 67.1 297 
 PTB  HN ES        838 48.72                             141   -0.1510 67.1 297 
 PTB  HZ I         838 53.50         4.0 0.28            143           67.1 297 
 SPBC HZ EP        838 36.96                             140   -0.2310 69.9 194 
 SPBC HN ES        838 49.52                             140    0.0810 69.9 194 
 SPBC HZ I         838 50.55         9.3 0.18            145           69.9 194 
 BAR2 EZ EP        838 38.82                             133   -0.1910 88.8  66 
 BAR2 EZ ES        838 52.75                             133    0.0710 88.8  66 
 BAR2 EZ I         838 54.18         3.8 0.22            138           88.8  66 
 BRR  HN ES        838 53.74                             130    0.4810 95.9  14 
 BRR  HZ I         838 54.56         3.7 0.12            134           95.9  14 
 GUY2CHZ EP        838 51.20                             111    0.29 9  197 234 
 GUY2CHN ES        839 14.30                             111    0.44 9  197 234 
                                                                                
