 2017  626 0618 44.4 L   6.707 -73.147140.3  RSN 11 0.4 1.6LRSN                1
 GAP=156        0.80       4.7     2.5  5.1  0.2143E+01  0.2663E+01  0.6765E+01E
 Epicentro: VILLANUEVA - SANTANDER                                             3
 ACTION:UPD 17-09-14 16:55 OP:jn   STATUS:               ID:20170626061844 L   I
 OLDACT:UP  17-06-26 16:21 OP:and  STATUS:               ID:20170626061742     3
 OLDACT:UP  17-06-26 16:20 OP:and  STATUS:               ID:20170626061742     3
 OLDACT:UP  17-06-26 16:20 OP:and  STATUS:               ID:20170626061742     3
 OLDACT:UP  17-06-26 16:19 OP:and  STATUS:               ID:20170626061742     3
 OLDACT:REG 17-06-26 13:07 OP:and  STATUS:               ID:20170626061742     3
 2017-06-26-0618-00M.COL___358                                                 6
 STAT SP IPHASW D HRMM SECON CODA AMPLIT PERI AZIMU VELO AIN AR TRES W  DIS CAZ7
 BAR2 EZ EP        619  3.15                             174   -0.0810 13.3 197 
 BAR2 EZ ES        619 17.75                             174   -0.1510 13.3 197 
 BAR2 EZ I         619 18.72         9.5 0.14            171           13.3 197 
 BRR  HZ EP        619  5.13                             150   -0.1710 76.6 305 
 BRR  HN ES        619 21.74                             150    0.1510 76.6 305 
 BRR  HZ I         619 22.44        13.9 0.14            149           76.6 305 
 PTB  HZ EP        619 10.44                             131   -0.35 9  146 263 
 PTB  HN ES   3    619 30.39                             131   -0.96 2  146 263 
 PTB  HZ I         619 33.09         4.3 0.22            130            146 263 
 TAM  HZ EP        619 11.82                             130    0.36 9  153 101 
 TAM  HE ES        619 32.66                             130    0.11 9  153 101 
 SPBC HN ES   2    619 34.33                             129    1.26 5  155 221 
 SPBC HZ I         619 38.77         5.8 0.10            128            155 221 
 ZAR  HZ EP        619 16.55                             121   -0.38 8  208 295 
 ZAR  HN ES        619 42.49                             121    0.20 8  208 295 
 ZAR  HZ I         619 49.75         4.5 0.46            120            208 295 
 NOR  HE ES        619 46.00                             118   -0.33 8  229 237 
 HEL  HZ EP   4    619 26.06                             114    1.97 0  270 258 
 HEL  HE ES        619 55.30                             114    0.27 8  270 258 
 GUY2CHZ EP   4    619 29.27                             112    2.16 0  295 236 
 GUY2CHN ES   4    620  5.52                             112    5.11 0  295 236 
 GUY2CHZ I         620 11.97         0.8 0.50                           295 236 
 PTGC HZ EP        619 26.78                             111   -0.17 7  299 158 
 PTGC HN ES   3    619 58.61                             111   -1.52 2  299 158 
 CBOC HZ EP        619 31.64                             109    0.89 7  330 254 
 CBOC HN ES        620  6.61                             109   -0.28 7  330 254 
 CBOC HZ I         620 12.90         1.0 0.50            109            330 254 
 SJC  HZ EP   4    619 37.15                             104   -3.67 0  418 328 
 SJC  HN ES   4    620 21.74                             104   -3.07 0  418 328 
                                                                                
