 2014 1026 0623 49.3 L   6.790 -73.156152.9  RSN  4 0.5 1.2LRSN                1
 GAP=136        1.18       6.7     8.5 10.5 -0.1179E+01  0.1727E+02  0.1038E+02E
 Epicentro: LOS SANTOS - SANTANDER                                             3
 ACTION:UPD 14-11-29 23:57 OP:nd   STATUS:               ID:20141026062349 L   I
 OLDACT:REG 14-10-29 13:20 OP:cam  STATUS:               ID:20141026061815     3
 2014-10-26-0618-15M.COL___280                                                 6
 STAT SP IPHASW D HRMM SECON CODA AMPLIT PERI AZIMU VELO AIN AR TRES W  DIS CAZ7
 BRR  HZ EP        624 11.42                             154    0.2410 70.7 300 
 BRR  HE ES        624 28.65                             154    0.3910 70.7 300 
 BRR  HE I         624 28.98         7.4 0.16            155           70.7 300 
 PAM  SZ EP        624 12.45                             152    0.1010 78.9  40 
 PAM  SN ES        624 29.96                             152   -0.3810 78.9  40 
 PAM  SN I         624 30.75         2.9 0.46            153           78.9  40 
 RUS  HZ EP        624 14.31                             145    0.6410 99.6 175 
 RUS  HN ES        624 32.44                             145   -0.2610 99.6 175 
 RUS  HZ I         624 34.17         1.0 0.30            146           99.6 175 
 PTB  HZ EP        624 15.90                             134   -0.83 9  146 259 
                                                                                
