 2014  926 0708  7.9 L   6.808 -73.142149.8  RSN 11 0.4 1.8LRSN                1
 GAP=137        0.84       2.4     3.7  5.7 -0.7562E+00  0.3126E+01  0.1069E+01E
 Epicentro: LOS SANTOS - SANTANDER                                             3
 ACTION:UPD 14-10-03 23:08 OP:nd   STATUS:               ID:20140926070807 L   I
 OLDACT:DUP 14-09-26 18:17 OP:mh   STATUS:               ID:20140926065820d    3
 OLDACT:UP  14-09-26 18:16 OP:mh   STATUS:               ID:20140926065819     3
 OLDACT:REG 14-09-26 15:29 OP:mh   STATUS:               ID:20140926065819     3
 2014-09-26-0658-19M.COL___286                                                 6
 STAT SP IPHASW D HRMM SECON CODA AMPLIT PERI AZIMU VELO AIN AR TRES W  DIS CAZ7
 BRR  HZ EP        7 8 29.82                             153    0.3910 71.2 298 
 BRR  HN ES   1    7 8 46.87                             153    0.60 7 71.2 298 
 BRR  HZ I         7 8 51.61         6.2 0.12            149           71.2 298 
 PAM  SZ EP        7 8 30.75                             152    0.3110 76.5  40 
 PAM  SN ES        7 8 47.96                             152   -0.1010 76.5  40 
 PAM  SZ I         7 8 50.08        11.1 0.58            155           76.5  40 
 RUS  HZ EP        7 8 31.69                             144   -0.3710  101 176 
 RUS  HN ES   1    7 8 50.67                             144   -0.27 7  101 176 
 RUS  HZ I         7 8 51.54         6.3 0.36            146            101 176 
 PTB  HZ EP        7 8 35.16                             133   -0.04 9  148 259 
 PTB  HN ES        7 8 55.81                             133   -0.72 9  148 259 
 PTB  HZ I         7 9  3.50         7.6 0.44            131            148 259 
 OCA  HZ EP   1    7 8 35.65                             131   -0.75 7  159 353 
 OCA  HN ES        7 8 58.75                             131    0.08 9  159 353 
 OCA  HZ I         7 9  2.07        12.5 0.22            131            159 353 
 SPBC HZ EP        7 8 37.19                             130    0.44 9  164 219 
 SPBC HN ES        7 8 59.32                             130    0.03 9  164 219 
 SPBC HZ I         7 9  1.19        10.1 0.38            129            164 219 
 ZAR  HZ EP        7 8 40.75                             123    0.18 9  204 292 
 ZAR  HN ES        7 9  6.21                             123    0.12 9  204 292 
 ZAR  HZ I         7 9  8.77         6.3 0.30            122            204 292 
 SML  HZ EP        7 8 44.30                             118   -0.34 8  243 335 
 SML  HN ES        7 9 13.33                             118   -0.01 8  243 335 
 SML  HZ I         7 9 19.96         8.2 0.22            118            243 335 
 CHI  HZ EP        7 8 46.09                             118    0.21 8  250 195 
 CHI  HN ES        7 9 15.56                             118    0.03 8  250 195 
 CHI  HZ I         7 9 21.67         2.3 0.66            119            250 195 
 MON  HZ EP   4    7 9  2.01                             109    5.02 0  353 308 
 MON  HN ES   4    7 9 33.23                             109   -2.08 0  353 308 
 MON  HZ I         7 9 50.58         1.7 0.38            109            353 308 
 PRA  HZ EP   4    7 8 59.25                             107   -2.37 0  393 210 
 PRA  HN ES   4    7 9 45.14                             107    1.57 0  393 210 
 PRA  HZ I         7 9 52.12         3.5 0.32            108            393 210 
                                                                                
