 2012  726 0725 18.4 L   6.775 -73.070149.8  RSN  9 0.5 1.6LRSN                1
 GAP=148        1.04       5.3     7.6  9.7  0.3858E+00  0.3459E+02  0.8085E+01E
 Epicentro: LOS SANTOS - SANTANDER                                             3
 ACTION:UPD 12-08-14 11:45 OP:ep   STATUS:               ID:20120726072518 L   I
 2012-07-26-0720-00M.COL___215                                                 6
 STAT SP IPHASW D HRMM SECON CODA AMPLIT PERI AZIMU VELO AIN AR TRES W  DIS CAZ7
 BAR2 SZ EP   1    725 38.89                             170     0.4 7   24 212 
 BAR2 SZ ES   1    725 54.45                             170     0.2 7   24 212 
 BAR2 SZ I         725 58.29         9.0 0.34            169             24 212 
 PAM  SN ES        725 57.94                             153    -0.510   75  33 
 BRR  HZ EP        725 40.96                             150     0.510   80 297 
 BRR  HZ I         725 42.56         9.5 0.15            150             80 297 
 BRR  HN ES   1    725 58.52                             150     0.8 7   80 297 
 RUS  HZ EP   1    725 42.74                             145     0.4 7   98 181 
 RUS  HN ES   1    726  0.70                             145    -0.3 7   98 181 
 RUS  HZ I         726  2.89         3.1 0.17            148             98 181 
 PTB  HZ EP   1    725 45.98                             131    -0.4 7  156 260 
 PTB  HN ES   2    726  7.28                             131    -1.0 5  156 260 
 PTB  HZ I         726  8.66         4.3 0.29            132            156 260 
 OCA  HN ES   2    726  9.34                             130    -0.7 5  164 350 
 ZAR  HZ EP   1    725 51.78                             122    -0.2 6  213 292 
 ZAR  HN ES   2    726 17.94                             122    -0.3 4  213 292 
 ZAR  HZ I         726 23.49         4.1 0.24            123            213 292 
 CHI  HN ES   1    726 25.59                             118    -0.3 6  248 197 
 HEL  HN ES   2    726 32.16                             115     0.3 4  280 257 
