 2017  726 0007  2.8 L   6.723 -73.167148.3  RSN  5 0.5 1.4LRSN                1
 GAP=137        0.86       8.0     7.5  7.2  0.5632E+01  0.1951E+01 -0.5713E+01E
 Epicentro: VILLANUEVA - SANTANDER                                             3
 ACTION:UPD 17-08-30 15:36 OP:rebc STATUS:               ID:20170726000702 L   I
 OLDACT:UP  17-07-26 13:03 OP:and  STATUS:               ID:20170726000000     3
 OLDACT:REG 17-07-26 12:34 OP:and  STATUS:               ID:20170726000000     3
 2017-07-26-0000-15M.COL___395                                                 6
 STAT SP IPHASW D HRMM SECON CODA AMPLIT PERI AZIMU VELO AIN AR TRES W  DIS CAZ7
 BAR2 EZ ES        0 7 38.02                             175   -0.0310 14.5 187 
 BRR  HZ EP        0 7 24.73                             152    0.3510 73.7 305 
 BRR  HN ES        0 7 41.48                             152    0.2810 73.7 305 
 BRR  HZ I         0 7 44.42         8.6 0.46            152           73.7 305 
 PAM  EZ IP     D  0 7 25.64                             149   -0.1610 85.6  37 
 PAM  EN ES   3    0 7 42.55                             149   -1.18 2 85.6  37 
 RUS  HZ EP   2    0 7 27.11                             147    0.87 5 92.3 174 
 RUS  HN ES   2    0 7 44.48                             147   -0.03 5 92.3 174 
 RUS  HZ I         0 7 45.95         5.3 0.28            148           92.3 174 
 PTB  HZ EP        0 7 29.06                             134   -0.59 9  144 262 
 PTB  HN ES   3    0 7 49.28                             134   -1.30 2  144 262 
 PTB  HZ I         0 7 52.89         1.8 0.17            134            144 262 
                                                                                
