 2011  426 0438 45.8 L   6.840 -73.049143.7  RSN  4 0.0 1.2LRSN                1
 GAP=213        0.29       4.6     8.9  6.5  0.3432E+02 -0.4096E+02 -0.1945E+02E
 Epicentro: LOS SANTOS - SANTANDER                                             3
 ACTION:UP  11-06-22 15:33 OP:REBC STATUS:               ID:20110426043845 L   I
 2011-04-26-0436-52S.COL___139                                                 6
 STAT SP IPHASW D HRMM SECON CODA AMPLIT PERI AZIMU VELO SNR AR TRES W  DIS CAZ7
 BTL  SZ EP        439  5.24                             169     0.010   26 290 
 GIR2 SZ EP   2    439  5.30                             167     0.1 5   31 329 
 BRR  HZ EP        439  7.22                             150     0.010   79 292 
 BRR  HN ES   1    439 23.90                             150     0.0 7   79 292 
 BRR  HZ I         439 27.99         5.9 0.20                            79 292 
 RUS  HZ EP   1    439  9.70                             142     0.0 7  105 182 
 RUS  HN ES   1    439 28.31                             142     0.0 7  105 182 
 RUS  HZ I         439 30.10         1.6 0.26                           105 182 
                                                                                
