 2011  126 0126 12.9 L   6.808 -73.118132.1  RSN  6 0.3 1.8LRSN                1
 GAP=162        0.59       3.5     8.7  7.3 -0.1728E+02  0.2476E+02 -0.3354E+01E
 Epicentro: LOS SANTOS - SANTANDER                                             3
 ACTION:UP  11-02-08 08:42 OP:pat  STATUS:               ID:20110126012612 L   I
 2011-01-26-0122-58S.COL___138                                                 6
 STAT SP IPHASW D HRMM SECON CODA AMPLIT PERI AZIMU VELO SNR AR TRES W  DIS CAZ7
 BAR2 SZ EP   2    126 31.32                             169     0.4 5   25 197 
 BAR2 SZ ES   2    126 45.10                             169     0.1 5   25 197 
 BAR2 SZ I         126 47.62        23.9 0.35                            25 197 
 RUS  HZ EP   1    126 35.42                             140     0.0 7  101 178 
 RUS  HZ I         126 36.76         8.2 0.17                           101 178 
 RUS  HN ES   1    126 53.08                             140     0.1 7  101 178 
 GRA  SZ EP   1    126 37.24                             134     0.4 7  124  16 
 GRA  SZ ES   1    126 55.07                             134    -0.4 7  124  16 
 GRA  SZ I         126 57.92         6.8 0.30                           124  16 
 NOR  SN ES   2    127 15.69                             115    -0.1 4  238 235 
 CHI  HZ EP   1    126 49.73                             114    -0.4 6  250 196 
 CHI  HE ES   1    127 18.96                             114    -0.1 6  250 196 
 CHI  HZ I         127 27.02         4.4 0.45                           250 196 
 HEL  HZ EP   2    126 53.17                             112     0.3 4  275 256 
 HEL  HZ I         127 29.28         4.2 0.37                           275 256 
                                                                                
