 2017  226 0218 14.5 L   6.798 -73.122143.7  RSN  5 0.4 1.1LRSN                1
 GAP=140        0.78       4.1     5.4  6.6 -0.1082E+01 -0.1298E+01  0.7984E+00E
 Epicentro: LOS SANTOS - SANTANDER                                             3
 ACTION:UPD 17-05-24 15:40 OP:jn   STATUS:               ID:20170226021814 L   I
 OLDACT:DUP 17-02-26 13:36 OP:edw  STATUS:               ID:20170226020742d    3
 OLDACT:UP  17-02-26 13:32 OP:edw  STATUS:               ID:20170226020741     3
 OLDACT:REG 17-02-26 11:51 OP:lv   STATUS:               ID:20170226020741     3
 2017-02-26-0208-00M.COL___373                                                 6
 STAT SP IPHASW D HRMM SECON CODA AMPLIT PERI AZIMU VELO AIN AR TRES W  DIS CAZ7
 BAR2 HZ ES        218 48.86                             170   -0.1410 23.8 196 
 BRR  HZ EP        218 35.51                             151   -0.0410 73.6 298 
 BRR  HN ES        218 52.39                             151    0.4010 73.6 298 
 PAM  EZ IP     C  218 36.59                             151    0.2010 75.8  38 
 PAM  EN ES        218 53.20                             151   -0.2810 75.8  38 
 PAM  EZ I         218 55.77         3.3 0.42            151           75.8  38 
 RUS  HZ EP        218 37.99                             143   -0.0210  100 178 
 RUS  HN ES        218 56.51                             143    0.1510  100 178 
 RUS  HZ I         218 57.88         1.3 0.40            144            100 178 
 PTB  HN ES   2    219  1.37                             131   -1.24 5  150 259 
                                                                                
