 2016  626 0253 45.9 L   6.779 -73.169139.9  RSN  8 0.4 1.6LRSN                1
 GAP=233        0.85       4.0     5.7  6.5  0.8794E+01  0.7137E+01  0.2447E+01E
 Epicentro: LOS SANTOS - SANTANDER                                             3
 ACTION:UPD 16-07-21 22:23 OP:rebc STATUS:               ID:20160626025345 L   I
 OLDACT:REG 16-06-26 13:28 OP:ak   STATUS:               ID:20160626024747     3
 2016-06-26-0247-47M.COL___333                                                 6
 STAT SP IPHASW D HRMM SECON CODA AMPLIT PERI AZIMU VELO AIN AR TRES W  DIS CAZ7
 BRR  HZ IP     C  254  6.45                             152    0.1210 70.1 301 
 BRR  HN ES        254 22.56                             152    0.2810 70.1 301 
 BRR  HZ I         254 27.92         6.5 0.18                          70.1 301 
 RUS  HZ EP   2    254  8.52                             143   -0.37 5 98.4 174 
 RUS  HN ES        254 26.99                             143    0.1410 98.4 174 
 RUS  HZ I         254 28.17         4.5 0.40                          98.4 174 
 PTB  HZ EP        254 11.45                             131   -0.64 9  145 260 
 PTB  HN ES        254 32.38                             131   -0.16 9  145 260 
 PTB  HZ I         254 37.20         4.8 0.11                           145 260 
 SPBC HZ EP        254 13.50                             128   -0.09 9  160 219 
 SPBC HE ES        254 34.88                             128   -0.33 9  160 219 
 SPBC HZ I         254 38.23         7.7 0.17                           160 219 
 ZAR  HZ EP        254 18.21                             121    0.43 9  203 293 
 ZAR  HN ES        254 42.34                             121   -0.34 9  203 293 
 ZAR  HZ I         254 49.69         7.1 0.13                           203 293 
 HEL  HN ES   2    254 57.18                             114    0.87 4  269 256 
 GUY2CHZ EP   1    254 29.65                             111    0.83 5  298 235 
 GUY2CHE ES   4    255  5.97                             111    3.66 0  298 235 
 GUY2CHZ I         255 12.48         2.1 0.46                           298 235 
 PRA  HN ES        255 20.58                             106    0.49 6  389 209 
                                                                                
