 2010  426 0824 14.3 L   6.739 -72.966141.4  RSN  6 0.2 1.9LRSN                1
 GAP=213        0.37       2.9    12.2  5.6 -0.1562E+02  0.2097E+02 -0.1671E+00E
 Epicentro: CEPITA - SANTANDER                                                 3
 ACTION:UPD 10-08-24 10:01 OP:vdl  STATUS:               ID:20100426082414 L   I
 2010-04-26-0822-08S.COL___104                                                 6
 STAT SP IPHASW D HRMM SECON CODA AMPLIT PERI AZIMU VELO AIN AR TRES W  DIS CAZ7
 BAR2 SZ EP   1    824 33.67                             168     0.2 7   29 236 
 BAR2 SZ ES   2    824 48.30                             168    -0.2 5   29 236 
 OCA  SZ EP   1    824 43.05                             127    -0.2 7  170 347 
 OCA  SZ ES   1    825  5.92                             127     0.1 7  170 347 
 CHI  HZ EP   3    824 51.95                             116     0.3 2  248 200 
 CHI  HE ES   3    825 20.55                             116    -0.3 2  248 200 
 CHI  HZ I         825 25.41         2.9 0.10                           248 200 
 HEL  HZ EP   3    824 55.76                             112    -0.5 2  290 258 
 HEL  HZ I         825 33.70         4.4 0.74                           290 258 
 RREF BZ EP   2    825  1.68                             109     0.2 3  333 233 
 RREF BZ I         825 46.23         2.9 0.34                           333 233 
 PRA  HZ EP   2    825  7.75                             106    -0.4 3  396 213 
 PRA  HN ES   2    825 50.50                             106     0.3 3  396 213 
 PRA  HZ I         825 56.31         3.7 0.24                           396 213 
                                                                                
