 2012  426 0702 28.9 L   6.814 -73.135143.5  RSN  8 0.4 1.8LRSN                1
 GAP=137        0.94       5.4     5.6  8.3 -0.8067E+00  0.1292E+02 -0.5742E+01E
 Epicentro: LOS SANTOS - SANTANDER                                             3
 ACTION:UPD 12-07-05 11:56 OP:tino STATUS:               ID:20120426070228 L   I
 2012-04-26-0700-00M.COL___186                                                 6
 STAT SP IPHASW D HRMM SECON CODA AMPLIT PERI AZIMU VELO AIN AR TRES W  DIS CAZ7
 BAR2 SZ EP   1    7 2 48.48                             170     0.2 9   25 192 
 BAR2 SZ ES   1    7 3  3.55                             170     0.1 9   25 192 
 BAR2 SZ I         7 3  5.38        14.1 0.23                            25 192 
 BRR  HZ EP   1    7 2 50.16                             152     0.3 9   71 297 
 BRR  HZ I         7 2 50.41        22.8 0.15                            71 297 
 BRR  HN ES   1    7 3  6.11                             152     0.0 9   71 297 
 PAM  SN ES   2    7 3  7.75                             151    -0.1 6   75  40 
 RUS  HZ EP   1    7 2 52.00                             143    -0.5 9  102 177 
 RUS  HN ES   1    7 3 11.13                             143     0.2 9  102 177 
 RUS  HZ I         7 3 13.06         3.1 0.31                           102 177 
 PTB  HZ EP   1    7 2 55.16                             131    -0.6 9  149 258 
 PTB  HN ES   1    7 3 16.34                             131    -0.5 9  149 258 
 PTB  HZ I         7 3 18.83         8.8 0.16                           149 258 
 OCA  SZ EP   1    7 2 56.62                             129    -0.3 9  159 353 
 ZAR  HZ EP   1    7 3  2.28                             122     1.0 8  205 292 
 ZAR  HN ES   1    7 3 26.29                             122    -0.2 8  205 292 
 ZAR  HZ I         7 3 31.87        11.1 0.22                           205 292 
 NOR  SN ES        7 3 32.88                             118     0.310  237 234 
                                                                                
