 2010  726 0511 30.3 L   6.805 -73.012146.0  RSN  7 0.3 1.7LRSN                1
 GAP=174        0.63       3.6     6.9  6.6 -0.3061E+01 -0.5715E+01 -0.4715E+01E
 Epicentro: CEPITA - SANTANDER                                                 3
 ACTION:UPD 10-12-01 15:20 OP:pat  STATUS:               ID:20100726051130 L   I
 2010-07-26-0508-02S.COL___123                                                 6
 STAT SP IPHASW D HRMM SECON CODA AMPLIT PERI AZIMU VELO AIN AR TRES W  DIS CAZ7
 BAR2 SZ EP   1    511 50.22                             168     0.1 7   30 219 
 BAR2 SZ ES   2    512  5.33                             168    -0.2 5   30 219 
 BAR2 SZ I         512  6.48        13.8 0.39                            30 219 
 BRR  HZ IP     C  511 52.12                             148    -0.110   84 293 
 BRR  HZ I         511 52.40        24.9 0.20                            84 293 
 BRR  HE ES   1    512  9.31                             148    -0.1 7   84 293 
 RUS  HZ EP   1    511 53.69                             144    -0.4 7  101 184 
 RUS  HN ES   1    512 12.95                             144     0.3 7  101 184 
 RUS  HZ I         512 14.10         4.1 0.41                           101 184 
 GUE  SZ EP   1    511 55.20                             140     0.4 7  114   5 
 GRA  SZ EP   1    511 54.83                             138    -0.4 7  122  11 
 GRA  SZ ES   1    512 14.68                             138     0.0 7  122  11 
 GRA  SZ I         512 15.98         6.6 0.44                           122  11 
 OCA  SZ EP   1    511 58.96                             129     0.2 7  162 348 
 OCA  SZ I         512 26.49         6.5 0.19                           162 348 
 HEL  HZ EP   2    512 12.44                             114     0.3 4  287 256 
 HEL  HZ I         512 49.24         2.6 0.34                           287 256 
                                                                                
