 2014  226 0636 34.3 L   6.826 -73.160141.7  RSN  4 0.5 1.3LRSN                1
 GAP=278        1.24      12.8    10.1 11.8  0.5038E+02  0.3074E+02  0.6746E+02E
 Epicentro: LOS SANTOS - SANTANDER                                             3
 ACTION:UPD 14-03-10 08:13 OP:ep   STATUS:               ID:20140226063634 L   I
 OLDACT:REG 14-02-26 10:51 OP:stll STATUS:               ID:20140226062945     3
 2014-02-26-0629-45M.COL___230                                                 6
 STAT SP IPHASW D HRMM SECON CODA AMPLIT PERI AZIMU VELO AIN AR TRES W  DIS CAZ7
 BAR2 SZ ES        637  7.79                             169   -0.6710 26.0 185 
 BAR2 SZ I         637 12.29         4.9 0.50            171           26.0 185 
 RUS  HZ EP        636 58.05                             142    0.1910  104 175 
 RUS  HE ES        637 17.00                             142    0.7510  104 175 
 RUS  HN I         637 18.32         3.5 0.36            145            104 175 
 PTB  HN ES        637 21.80                             131    0.26 9  147 258 
 PTB  HZ I         637 25.90         2.1 0.16            132            147 258 
 CHI  HZ EP        637 11.95                             116   -0.07 8  251 195 
 CHI  HZ I         637 12.89         1.1 0.48            118            251 195 
 CHI  HN ES        637 40.75                             116   -0.71 8  251 195 
                                                                                
