 2012  526 0424 36.7 L   6.272 -73.579104.0  RSN  4 0.2 1.4LRSN                1
 GAP=124        0.61       5.5     3.0  8.7  0.9313E-02  0.7960E+01  0.1247E+02E
 Epicentro: LA PAZ - SANTANDER                                                 3
 ACTION:UP  12-07-05 12:08 OP:pat  STATUS:               ID:20120526042436 L   I
 2012-05-26-0420-00M.COL___198                                                 6
 STAT SP IPHASW D HRMM SECON CODA AMPLIT PERI AZIMU VELO SNR AR TRES W  DIS CAZ7
 BAR2 SZ EP        424 53.05                             150     0.210   56  51 
 BAR2 SZ ES   1    425  5.56                             150     0.1 7   56  51 
 BAR2 SZ I         425  8.15        31.6 0.43                            56  51 
 RUS  HZ EP        424 53.98                             144    -0.110   69 127 
 RUS  HZ I         424 54.36         6.3 0.16                            69 127 
 RUS  HN ES   2    425  7.18                             144    -0.4 5   69 127 
 PTB  HZ EP        424 55.78                             132    -0.310  101 287 
 PTB  HE ES   1    425 11.08                             132    -0.1 7  101 287 
 PTB  HZ I         425 16.29         2.2 0.26                           101 287 
 NOR  SN ES   1    425 22.61                             118     0.4 7  163 241 
                                                                                
