 2011  226 0256 49.4 L   6.832 -73.511 10.7  RSN  5 0.3 1.0LRSN                1
 GAP=115        0.78       2.8     8.3 13.3 -0.4038E+01  0.8524E+02 -0.1716E+02E
 Epicentro: SAN VICENTE DE CHUCURI - SANTANDER                                 3
 ACTION:UP  11-03-28 15:11 OP:jfem STATUS:               ID:20110226025649 L   I
 2011-02-26-0253-19S.COL___136                                                 6
 STAT SP IPHASW D HRMM SECON CODA AMPLIT PERI AZIMU VELO SNR AR TRES W  DIS CAZ7
 BAR2 SZ EP   2    256 57.16                             103     0.0 5   45 126 
 BAR2 SZ ES        257  3.00                             103    -0.210   45 126 
 BAR2 SZ I         257  4.21         7.1 0.26                            45 126 
 RUS  HZ EP   1    257  8.14                              95     0.3 7  114 155 
 RUS  HN ES   2    257 22.16                              95    -0.1 5  114 155 
 RUS  HZ I         257 24.38         1.4 0.23                           114 155 
 GRA  SZ EP        257 11.93                              94     0.5 9  140  34 
 GRA  SZ ES   1    257 28.15                              94    -0.5 7  140  34 
 GRA  SZ I         257 33.57         6.5 0.20                           140  34 
 OCA  SZ EP   2    257 13.93                              56     0.0 5  157   8 
 OCA  SZ ES   2    257 33.16                              56     0.1 5  157   8 
 OCA  SZ I         257 38.53         2.9 0.53                           157   8 
 HEL  HZ EP   2    257 23.15                              56    -0.7 4  234 253 
 HEL  HZ I         258  0.04         1.5 0.41                           234 253 
                                                                                
