 2013  326 0530 37.9 L   6.782 -73.142151.0  RSN  8 0.4 1.7LRSN                1
 GAP=138        0.72       3.6     3.9  5.9  0.1233E+00  0.5474E+01  0.3145E+01E
 Epicentro: LOS SANTOS - SANTANDER                                             3
 ACTION:UPD 13-04-09 14:04 OP:ep   STATUS:               ID:20130326053037 L   I
 2013-03-26-0530-00M.COL___244                                                 6
 STAT SP IPHASW D HRMM SECON CODA AMPLIT PERI AZIMU VELO AIN AR TRES W  DIS CAZ7
 BAR2 SZ EP        530 58.03                             172   -0.0810 21.5 192 
 BAR2 SZ ES   1    531 13.37                             172   -0.52 7 21.5 192 
 BAR2 SZ I         531 15.49        12.5 0.18            170           21.5 192 
 BRR  HZ EP        530 59.95                             153    0.2710 72.5 300 
 BRR  HN ES   1    531 17.54                             153    0.86 7 72.5 300 
 BRR  HZ I         531 20.40         8.1 0.28            153           72.5 300 
 PAM  SZ EP   1    531  0.88                             151    0.15 7 78.6  38 
 PAM  SN ES   1    531 18.36                             151   -0.19 7 78.6  38 
 PAM  SZ I         531 20.30        13.9 0.58            156           78.6  38 
 RUS  HZ EP   1    531  1.93                             145   -0.09 7 98.6 176 
 RUS  HN ES   1    531 21.00                             145    0.16 7 98.6 176 
 RUS  HZ I         531 23.15         4.2 0.26            147           98.6 176 
 PTB  HZ EP   1    531  5.03                             133   -0.26 7  148 260 
 PTB  HN ES   1    531 26.20                             133   -0.47 7  148 260 
 PTB  HZ I         531 28.95         7.9 0.10            134            148 260 
 ZAR  HZ EP   1    531 10.78                             123   -0.02 6  205 293 
 ZAR  HN ES   1    531 35.98                             123   -0.49 6  205 293 
 ZAR  HZ I         531 40.89         5.2 0.24            125            205 293 
 NOR  HE ES   1    531 42.25                             120    0.36 6  234 235 
 CHI  HZ EP   1    531 15.65                             118   -0.04 6  247 195 
 CHI  HN ES   1    531 45.30                             118    0.12 6  247 195 
 CHI  HZ I         531 50.80         2.3 0.28            120            247 195 
                                                                                
