 2015 1226 0730 11.8 L   6.859 -73.151145.9  RSN  6 0.5 1.6LRSN                1
 GAP=194        1.15       4.8     8.6  8.0 -0.1418E+02  0.1721E+00 -0.5707E+01E
 Epicentro: LOS SANTOS - SANTANDER                                             3
 ACTION:UPD 16-02-04 15:07 OP:cam  STATUS:               ID:20151226073011 L   I
 OLDACT:REG 15-12-26 13:31 OP:dnl  STATUS:               ID:20151226072750     3
 2015-12-26-0727-50M.COL___334                                                 6
 STAT SP IPHASW D HRMM SECON CODA AMPLIT PERI AZIMU VELO AIN AR TRES W  DIS CAZ7
 BAR2 EZ EP        730 31.68                             168    0.0810 29.7 187 
 BAR2 EZ ES        730 46.73                             168   -0.3110 29.7 187 
 BAR2 EZ I         730 49.44         8.6 0.25            168           29.7 187 
 BRR  HZ EP     C  730 33.52                             154    0.7310 67.8 294 
 BRR  HE ES        730 49.85                             154    0.7010 67.8 294 
 BRR  HZ I         730 54.53         3.8 0.12            148           67.8 294 
 PTB  HZ EP   1    730 38.23                             132   -0.64 7  149 256 
 PTB  HN ES        730 59.49                             132   -0.48 9  149 256 
 PTB  HZ I         731  7.01         4.2 0.37            131            149 256 
 OCA  HZ EP        730 39.70                             131    0.17 9  154 353 
 OCA  HE ES        731  0.33                             131   -0.82 9  154 353 
 OCA  HZ I         731  5.86        10.1 0.35            131            154 353 
 SPBC HZ EP        730 40.59                             128   -0.18 9  168 217 
 SPBC HN ES        731  3.46                             128    0.10 9  168 217 
 SPBC HZ I         731  5.18         3.9 0.16            130            168 217 
 SML  HZ EP        730 47.91                             118    0.12 8  238 335 
 SML  HN ES   2    731 16.27                             118    0.42 4  238 335 
 SML  HZ I         731 22.57         4.5 0.12            119            238 335 
                                                                                
