 2013 1126 0913 52.5 L   6.829 -73.143147.7  RSN 10 0.5 1.8LRSN                1
 GAP=135        1.02       4.0     6.6  7.5 -0.7863E+01  0.4926E+01  0.4928E+01E
 Epicentro: LOS SANTOS - SANTANDER                                             3
 ACTION:UPD 14-01-09 16:31 OP:ep   STATUS:               ID:20131126091352 L   I
 OLDACT:REG 13-11-26 08:27 OP:mh   STATUS:               ID:20131126091000     3
 2013-11-26-0910-00M.COL___282                                                 6
 STAT SP IPHASW D HRMM SECON CODA AMPLIT PERI AZIMU VELO AIN AR TRES W  DIS CAZ7
 BAR2 SZ EP   1    914 12.31                             169   -0.08 7 26.6 189 
 BAR2 SZ ES   1    914 27.55                             169   -0.39 7 26.6 189 
 BAR2 SZ I         914 29.96        15.3 0.49            156           26.6 189 
 BRR  HZ EP        914 14.22                             153    0.4710 70.0 296 
 BRR  HN ES        914 30.89                             153    0.5310 70.0 296 
 BRR  HZ I         914 32.31         8.2 0.24            157           70.0 296 
 PAM  SZ EP        914 15.10                             152    0.3710 74.7  41 
 PAM  SZ I         914 34.65        12.6 0.63            131           74.7  41 
 RUS  HZ EP   1    914 16.19                             143   -0.44 7  104 176 
 RUS  HZ I         914 36.00         5.1 0.31            128            104 176 
 PTB  HZ EP   1    914 19.05                             132   -0.62 7  149 258 
 PTB  HZ I         914 42.87         6.7 0.12            127            149 258 
 OCA  HZ I         914 40.30         6.1 0.35            118            157 353 
 OCA  HN ES   1    914 41.72                             131   -0.87 7  157 353 
 NOR  HN ES        914 56.05                             119   -0.61 8  237 234 
 NOR  HZ I         915  0.04         3.8 0.14            110            237 234 
 SML  HZ EP        914 29.17                             118    0.28 8  241 335 
 SML  HN ES        914 56.98                             118   -0.33 8  241 335 
 SML  HZ I         915  3.07        11.1 0.07            108            241 335 
 GUY2CHZ EP        914 36.12                             113   -0.28 7  303 234 
 GUY2CHN ES   1    915 11.65                             113    0.98 5  303 234 
 GUY2CHZ I         915 17.44         3.0 0.19                           303 234 
 PRA  HZ EP   1    914 46.81                             107    0.42 4  395 209 
 PRA  HN ES        915 28.64                             107    0.18 6  395 209 
 PRA  HZ I         915 35.06         1.7 0.16             97            395 209 
                                                                                
