 2014  626 0836 12.1 L   6.827 -73.148143.8  RSN  7 0.4 1.4LRSN                1
 GAP=195        0.91       3.8     6.4  8.7 -0.4604E+01  0.1119E+02 -0.2514E+01E
 Epicentro: LOS SANTOS - SANTANDER                                             3
 ACTION:UPD 14-07-01 22:56 OP:nd   STATUS:               ID:20140626083612 L   I
 OLDACT:REG 14-06-26 12:58 OP:spq  STATUS:               ID:20140626082813     3
 2014-06-26-0828-13M.COL___250                                                 6
 STAT SP IPHASW D HRMM SECON CODA AMPLIT PERI AZIMU VELO AIN AR TRES W  DIS CAZ7
 BAR2 SZ EP   1    836 31.62                             169    0.09 8 26.2 188 
 BAR2 SZ ES   1    836 47.05                             169    0.34 8 26.2 188 
 BAR2 SZ I         836 47.53         4.6 0.28            172           26.2 188 
 PTB  HZ EP        836 38.73                             131   -0.1810  148 258 
 PTB  HN ES        836 59.36                             131   -0.4910  148 258 
 PTB  HZ I         837  2.12         2.5 0.22            129            148 258 
 OCA  HN ES        837  1.56                             130   -0.1310  157 353 
 OCA  HZ I         837  7.19         3.0 0.12            126            157 353 
 SPBC HZ EP   1    836 40.75                             128    0.12 7  165 218 
 SPBC HN ES   1    837  2.48                             128   -0.42 7  165 218 
 SPBC HZ I         837  3.73         4.0 0.18            128            165 218 
 ZAR  HZ EP   1    836 43.92                             122   -0.33 7  203 291 
 ZAR  HE ES        837 10.32                             122    0.97 9  203 291 
 ZAR  HZ I         837 15.80         2.6 0.30            119            203 291 
 SML  HZ EP   1    836 48.56                             117    0.28 6  241 335 
 SML  HE ES   1    837 15.97                             117   -0.56 6  241 335 
 SML  HZ I         837 27.49         2.3 0.22            115            241 335 
 PRA  HN ES   1    837 48.34                             106    0.61 5  394 209 
 PRA  HZ I         837 54.24         0.9 0.36            105            394 209 
                                                                                
