 2013  826 0516 22.6 L   6.811 -73.123147.5  RSN  8 0.3 1.7LRSN                1
 GAP=185        0.77       2.8     4.5  6.7  0.4577E+00  0.7701E+01  0.2717E+01E
 Epicentro: LOS SANTOS - SANTANDER                                             3
 ACTION:UPD 14-01-14 09:06 OP:ep   STATUS:               ID:20130826051622 L   I
 OLDACT:DUP 13-08-26 13:18 OP:carl STATUS:               ID:20130826050960d    3
 2013-08-26-0509-59M.COL___270                                                 6
 STAT SP IPHASW D HRMM SECON CODA AMPLIT PERI AZIMU VELO AIN AR TRES W  DIS CAZ7
 BAR2 SZ EP        516 42.48                             170    0.0210 25.1 195 
 BAR2 SZ ES   1    516 57.45                             170   -0.52 7 25.1 195 
 BAR2 SZ I         516 59.10         7.0 0.20            165           25.1 195 
 BRR  HZ EP        516 44.51                             152    0.4910 72.9 297 
 BRR  HN ES   1    517  1.37                             152    0.63 7 72.9 297 
 BRR  HZ I         517  2.14         5.2 0.14            147           72.9 297 
 RUS  HZ EP        516 46.36                             144   -0.2310  102 178 
 RUS  HE ES        517  5.46                             144    0.1510  102 178 
 RUS  HZ I         517  7.21         4.3 0.34            144            102 178 
 OCA  HN ES        517 12.71                             130   -0.36 9  159 352 
 OCA  HN I         517 15.87        16.7 0.26            131            159 352 
 SPBC HZ EP        516 51.68                             129    0.22 9  166 219 
 SPBC HN ES        517 13.97                             129   -0.01 9  166 219 
 SPBC HZ I         517 20.73         4.3 0.20            127            166 219 
 ZAR  HN ES        517 20.69                             122   -0.20 8  206 292 
 ZAR  HN I         517 28.05         8.1 0.32            121            206 292 
 NOR  HE ES        517 26.65                             118   -0.24 8  237 235 
 NOR  HZ I         517 33.93         3.2 0.38            117            237 235 
 PRA  HN ES        517 58.23                             107   -0.21 6  394 210 
 PRA  HN I         518  3.19         1.5 0.38            107            394 210 
                                                                                
