 2016  326 0053 34.6 L   6.790 -73.195138.8  RSN  4 0.3 0.9LRSN                1
 GAP=131        0.64       3.3     3.0  7.4 -0.1389E+00  0.6514E+01 -0.1723E+01E
 Epicentro: ZAPATOCA - SANTANDER                                               3
 ACTION:UPD 16-05-13 21:27 OP:cam  STATUS:               ID:20160326005334 L   I
 OLDACT:DUP 16-03-26 14:31 OP:ak   STATUS:               ID:20160326004748d    3
 OLDACT:UP  16-03-26 14:30 OP:ak   STATUS:               ID:20160326004747     3
 OLDACT:REG 16-03-26 12:30 OP:ak   STATUS:               ID:20160326004747     3
 2016-03-26-0047-47M.COL___299                                                 6
 STAT SP IPHASW D HRMM SECON CODA AMPLIT PERI AZIMU VELO AIN AR TRES W  DIS CAZ7
 PAM  EZ EP        053 56.27                             148   -0.0610 81.8  42 
 PAM  EN ES        054 13.22                             148   -0.0810 81.8  42 
 PAM  EZ I         054 15.55         2.0 0.44            151           81.8  42 
 RUS  HZ EP        053 57.76                             142    0.1510  100 173 
 RUS  HN ES        054 15.68                             142    0.1110  100 173 
 RUS  HZ I         054 17.12         1.2 0.28            146            100 173 
 PTB  HZ EP   2    053 59.74                             131   -0.73 5  142 259 
 PTB  HN ES        054 20.34                             131   -0.33 9  142 259 
 PTB  HZ I         054 23.79         0.9 0.08            134            142 259 
 ZAR  HZ EP   2    054  6.09                             121   -0.00 4  199 293 
 ZAR  HE ES        054 31.13                             121    0.46 9  199 293 
 ZAR  HZ I         054 33.14         0.9 0.09            124            199 293 
                                                                                
