 2014  826 0926 49.9 L   6.565 -73.114166.4  RSN 18 0.6 2.2LRSN                1
 GAP=149        1.21       3.4     4.6  6.7 -0.3270E+01  0.8467E+01 -0.2501E+01E
 Epicentro: SAN GIL - SANTANDER                                                3
 ACTION:UPD 14-09-15 21:53 OP:nd   STATUS:               ID:20140826092649 L   I
 OLDACT:UP  14-08-26 17:56 OP:fm   STATUS:               ID:20140826091819d    3
 OLDACT:UP  14-08-26 17:56 OP:fm   STATUS:               ID:20140826091819d    3
 OLDACT:DUP 14-08-26 17:42 OP:fm   STATUS:               ID:20140826091819d    3
 2014-08-26-0918-18M.COL___254                                                 6
 STAT SP IPHASW D HRMM SECON CODA AMPLIT PERI AZIMU VELO AIN AR TRES W  DIS CAZ7
 BAR2 SZ EP     C  927 11.87                             177    0.0710 8.12 291 
 BAR2 SZ ES   1    927 28.80                             177   -0.11 7 8.12 291 
 RUS  HZ EP        927 14.36                             155    0.2010 74.5 177 
 RUS  HN ES        927 32.97                             155   -0.1510 74.5 177 
 RUS  HZ I         927 34.35        27.5 0.24            156           74.5 177 
 BRR  HZ EP     D  927 15.11                             150    0.8410 89.2 312 
 BRR  HN ES        927 33.83                             150    0.5210 89.2 312 
 BRR  HZ I         927 38.02        28.8 0.34            150           89.2 312 
 PAM  SZ EP        927 15.67                             149    0.2110 97.1  28 
 PAM  SE ES        927 35.21                             149   -0.2210 97.1  28 
 PAM  SZ I         927 36.94        11.8 0.28            151           97.1  28 
 SPBC HZ EP   1    927 18.63                             137    0.05 7  146 226 
 SPBC HN ES        927 41.24                             137    0.26 9  146 226 
 SPBC HZ I         927 47.45        13.1 0.28            137            146 226 
 PTB  HZ EP        927 18.21                             136   -0.43 9  148 269 
 PTB  HN ES        927 40.70                             136   -0.40 9  148 269 
 PTB  HZ I         927 42.58        17.4 0.14            136            148 269 
 OCA  HZ EP        927 22.83                             129    0.59 9  186 353 
 OCA  HN ES        927 47.18                             129   -0.31 9  186 353 
 OCA  HZ  AMP      927 51.53       177.2 0.24                           186 353 
 ZAR  HZ EP        927 24.98                             125   -0.16 8  218 298 
 ZAR  HN ES        927 52.94                             125    0.28 8  218 298 
 ZAR  HZ I         927 55.20        21.6 0.10            126            218 298 
 NOR  HE ES   1    927 53.01                             124   -0.72 6  224 240 
 NOR  HZ I         927 57.80         6.3 0.24            125            224 240 
 CHI  HN ES   1    927 53.88                             124   -0.89 6  225 198 
 SML  HZ EP        927 29.89                             119   -0.49 8  269 337 
 SML  HN ES        928  1.16                             119   -0.82 8  269 337 
 SML  HZ I         928  9.45        17.2 0.26            120            269 337 
 HEL  HZ EP   4    927 34.45                             119    3.43 0  270 261 
 HEL  HN ES        928  2.80                             119   -0.33 8  270 261 
 HEL  HZ I         928  7.23         6.2 0.28            120            270 261 
 GUY2CHZ EP   4    927 35.99                             117    2.71 0  290 239 
 GUY2CHE ES   4    928  8.18                             117    1.03 0  290 239 
 GUY2CHZ I         928 18.18         2.8 0.70                           290 239 
 URE  HZ EP   4    927 32.48                             116   -1.04 0  298 296 
 URE  HE ES   4    928  5.57                             116   -2.00 0  298 296 
 URE  HZ I         928  8.42        24.4 0.14            117            298 296 
 CBOC HZ EP   1    927 38.25                             114    0.95 5  330 257 
 CBOC HN ES        928 16.09                             114    1.79 7  330 257 
 DBB  SZ EP   1    927 38.45                             113   -0.51 5  346 278 
 DBB  SZ ES   4    928 18.55                             113    1.29 0  346 278 
 PRA  HZ EP   1    927 41.78                             111   -0.04 5  372 212 
 PRA  HN ES        928 21.53                             111   -0.82 6  372 212 
 PRA  HZ I         928 26.88         3.9 0.36            112            372 212 
 MON  HZ EP   4    927 40.39                             111   -1.54 0  373 311 
 MON  HN ES        928 21.72                             111   -0.82 6  373 311 
 MON  HZ I         928 23.62         2.1 0.22            112            373 311 
                                                                                
