 2011  426 0944 12.6 L   6.763 -73.086144.9  RSN  7 0.4 1.9LRSN                1
 GAP=163        0.77       4.4     7.9  7.3 -0.8780E+01 -0.1160E+02  0.3503E+01E
 Epicentro: LOS SANTOS - SANTANDER                                             3
 ACTION:UP  11-06-22 15:33 OP:REBC STATUS:               ID:20110426094412 L   I
 2011-04-26-0940-00M.COL___137                                                 6
 STAT SP IPHASW D HRMM SECON CODA AMPLIT PERI AZIMU VELO SNR AR TRES W  DIS CAZ7
 BAR2 SZ EP   1    944 32.17                             171     0.0 7   22 209 
 BAR2 SZ ES   1    944 46.86                             171    -0.5 7   22 209 
 BAR2 SZ I         944 48.47        24.1 0.25                            22 209 
 BRR  HZ IP     D  944 34.02                             150    -0.110   79 299 
 BRR  HZ I         944 34.23        45.0 0.10                            79 299 
 BRR  HN ES   1    944 51.29                             150     0.4 7   79 299 
 RUS  HZ EP   1    944 36.53                             145     0.5 7   96 180 
 RUS  HN ES   2    944 54.45                             145     0.2 5   96 180 
 RUS  HZ I         944 56.38         6.9 0.27                            96 180 
 BRI  SZ EP   1    944 36.76                             141     0.2 7  110  17 
 GRA  SZ EP   1    944 38.05                             136     0.1 7  128  14 
 GRA  SZ ES   2    944 57.28                             136    -0.5 5  128  14 
 GRA  SZ I         945  0.26         6.6 0.26                           128  14 
 NOR  SN ES   2    945 16.59                             118    -0.1 4  238 236 
 CHI  HZ EP   1    944 49.34                             117    -0.7 6  247 197 
 CHI  HN ES   2    945 19.51                             117     0.3 4  247 197 
 CHI  HZ I         945 30.77         4.0 0.32                           247 197 
                                                                                
