 2017  226 0314 40.0 L   6.892 -72.943141.5  RSN  4 0.4 1.1LRSN                1
 GAP=159        1.06       5.8     8.3  8.7 -0.3706E+01 -0.5114E+01  0.4937E+01E
 Epicentro: GUACA - SANTANDER                                                  3
 ACTION:UPD 17-05-24 15:40 OP:jn   STATUS:               ID:20170226031440 L   I
 OLDACT:REG 17-02-26 11:54 OP:lv   STATUS:               ID:20170226030746     3
 2017-02-26-0308-00M.COL___367                                                 6
 STAT SP IPHASW D HRMM SECON CODA AMPLIT PERI AZIMU VELO AIN AR TRES W  DIS CAZ7
 BAR2 EZ EP        315  0.01                             162    0.3010 42.4 219 
 BAR2 EZ ES        315 14.65                             162   -0.4010 42.4 219 
 BAR2 EZ I         315 16.34         4.0 0.22            162           42.4 219 
 PAM  EZ EP        314 59.85                             157   -0.8110 56.3  29 
 PAM  EE ES        315 17.26                             157    0.5110 56.3  29 
 BRR  HZ EP        315  1.92                             146    0.1210 88.2 286 
 BRR  HN ES        315 18.79                             146    0.0110 88.2 286 
 RUS  HZ EP        315  4.52                             140    0.3110  112 188 
 RUS  HN ES        315 23.04                             140   -0.0310  112 188 
 RUS  HZ I         315 23.65         1.5 0.26            140            112 188 
                                                                                
