 2011  326 0347 20.9 L   6.793 -73.146148.6  RSN 12 0.3 2.6LRSN                1
 GAP=114        0.62       2.5     3.9  4.7 -0.3608E+01  0.2269E+01  0.4560E+01E
 Epicentro: LOS SANTOS - SANTANDER                                             3
 ACTION:UP  11-06-16 14:35 OP:jfem STATUS:               ID:20110326034720 L   I
 2011-03-26-0345-47S.COL___139                                                 6
 STAT SP IPHASW D HRMM SECON CODA AMPLIT PERI AZIMU VELO SNR AR TRES W  DIS CAZ7
 BTL  SZ IP        347 40.94                             172     0.110   19 316 
 BAR2 SZ IP        347 40.72                             171    -0.210   23 191 
 BAR2 SZ ES   1    347 55.99                             171    -0.5 7   23 191 
 BAR2 SZ I         347 57.28       170.7 0.21                            23 191 
 BRR  HZ IP     D  347 42.55                             153     0.110   72 299 
 BRR  HN ES   2    347 59.99                             153     0.8 5   72 299 
 BRR  HZ I         348  2.08        92.2 0.13                            72 299 
 PAM  SZ EP   1    347 43.55                             151     0.1 7   78  39 
 PAM  SZ I         347 43.86        19.2 0.19                            78  39 
 PAM  SN ES   1    348  0.84                             151    -0.2 7   78  39 
 GRA  SZ IP        347 46.48                             137     0.010  127  17 
 GRA  SZ ES   1    348  6.41                             137     0.0 7  127  17 
 GRA  SZ I         348  7.36        31.2 0.37                           127  17 
 OCA  SZ EP   1    347 49.60                             130     0.1 7  161 353 
 OCA  SZ ES   2    348 11.91                             130     0.1 5  161 353 
 OCA  SZ I         348 15.93        55.4 0.28                           161 353 
 YOP  SZ EP        347 51.39                             127     0.3 9  178 153 
 YOP  SN ES   2    348 15.44                             127     0.8 4  178 153 
 NOR  SZ EP   1    347 56.69                             119    -0.1 6  234 235 
 NOR  SN ES   1    348 24.44                             119    -0.3 6  234 235 
 CHI  HZ EP        347 58.50                             118    -0.2 8  248 195 
 CHI  HE ES   2    348 27.73                             118    -0.4 4  248 195 
 CHI  HZ I         348 33.89        19.9 0.58                           248 195 
 VIL  SZ EP   1    348  3.85                             113    -0.5 5  303 192 
 VIL  SN ES   2    348 38.29                             113     0.0 4  303 192 
 RREF HZ EP   2    348  7.35                             111     0.2 3  321 229 
 RREF HN ES   2    348 43.62                             111     0.4 3  321 229 
 RREF HZ I         348 51.51        24.1 0.24                           321 229 
 PRA  HZ EP        348 14.28                             107    -0.2 6  391 210 
 PRA  HE ES        348 56.65                             107     0.4 6  391 210 
                                                                                
