 2017  126 0436 11.4 L   6.775 -73.170147.9  RSN  5 0.4 1.3LRSN                1
 GAP=233        0.99       7.7     7.0  7.9  0.3356E+02  0.6914E+01 -0.3073E+00E
 Epicentro: LOS SANTOS - SANTANDER                                             3
 ACTION:UPD 17-05-22 16:03 OP:jn   STATUS:               ID:20170126043611 L   I
 OLDACT:REG 17-01-26 13:35 OP:lv   STATUS:               ID:20170126042739     3
 2017-01-26-0428-00M.COL___349                                                 6
 STAT SP IPHASW D HRMM SECON CODA AMPLIT PERI AZIMU VELO AIN AR TRES W  DIS CAZ7
 BAR2 EZ EP        436 31.28                             172    0.0910 20.3 184 
 BAR2 EZ ES        436 46.13                             172   -0.5210 20.3 184 
 BAR2 EZ I         436 47.40         5.4 0.17            170           20.3 184 
 BRR  HZ EP        436 33.19                             153    0.5010 70.3 302 
 BRR  HN ES        436 49.59                             153    0.2710 70.3 302 
 BRR  HZ I         436 50.76         2.9 0.10            153           70.3 302 
 RUS  HZ EP        436 34.60                             145   -0.5410 98.0 174 
 RUS  HN ES        436 54.11                             145    0.4210 98.0 174 
 RUS  HZ I         436 55.48         2.7 0.38            145           98.0 174 
 PTB  HZ EP        436 38.29                             133    0.07 9  145 260 
 PTB  HN ES        436 59.21                             133    0.04 9  145 260 
 PTB  HZ I         437  1.47         2.4 0.22            133            145 260 
 ZAR  HN ES        437  8.67                             123   -0.44 9  203 293 
                                                                                
