 2013  826 0153 34.9 L   6.826 -73.159147.3  RSN 16 0.4 2.6LRSN                1
 GAP=134        0.77       2.1     3.1  4.2 -0.9588E+00  0.1928E+01  0.8506E+00E
 Epicentro: LOS SANTOS - SANTANDER                                             3
 ACTION:UPD 14-01-14 09:06 OP:ep   STATUS:               ID:20130826015334 L   I
 OLDACT:REG 13-08-26 07:35 OP:carl STATUS:               ID:20130826014959     3
 2013-08-26-0149-59M.COL___270                                                 6
 STAT SP IPHASW D HRMM SECON CODA AMPLIT PERI AZIMU VELO AIN AR TRES W  DIS CAZ7
 BAR2 SZ EP        153 54.84                             170    0.0610 26.0 186 
 BAR2 SZ ES   1    154  9.81                             170   -0.46 7 26.0 186 
 BAR2 SZ I         154 11.53        79.8 0.34            169           26.0 186 
 BRR  HZ IP     C  153 56.64                             154    0.5610 68.6 297 
 BRR  HN ES        154 12.84                             154    0.2510 68.6 297 
 BRR  HZ I         154 16.82        54.3 0.34            150           68.6 297 
 PAM  SZ EP        153 57.70                             151    0.4910 76.1  42 
 PAM  SN ES   1    154 14.72                             151    0.11 7 76.1  42 
 PAM  SZ I         154 16.98        65.9 0.48            155           76.1  42 
 RUS  HZ EP        153 58.82                             143   -0.2010  104 175 
 RUS  HN ES   1    154 17.61                             143   -0.22 7  104 175 
 RUS  HZ I         154 18.59        37.9 0.26            145            104 175 
 PTB  HZ EP        154  1.41                             133   -0.52 9  147 258 
 PTB  HN ES   1    154 22.44                             133   -0.56 7  147 258 
 PTB  HZ I         154 24.64        30.9 0.18            131            147 258 
 OCA  HZ EP   1    154  2.94                             131   -0.12 7  157 354 
 OCA  HN ES   1    154 24.77                             131   -0.24 7  157 354 
 OCA  HZ I         154 33.33        36.5 0.22            131            157 354 
 SPBC HZ EP        154  3.80                             129    0.15 9  165 218 
 SPBC HN ES   1    154 26.14                             129    0.07 7  165 218 
 SPBC HZ I         154 30.15        51.0 0.44            129            165 218 
 ZAR  HZ EP        154  7.47                             123    0.26 9  202 292 
 ZAR  HN ES        154 32.68                             123    0.28 9  202 292 
 ZAR  HZ I         154 38.08        31.7 0.14            122            202 292 
 NOR  HZ EP   1    154 11.06                             119    0.28 6  235 234 
 NOR  HN ES   1    154 39.24                             119    0.48 6  235 234 
 NOR  HZ I         154 48.23        24.5 0.44            119            235 234 
 SML  HZ EP   1    154 11.24                             118   -0.03 6  240 335 
 SML  HN ES   1    154 39.26                             118   -0.38 6  240 335 
 CHI  HZ EP        154 12.87                             117   -0.08 8  251 195 
 CHI  HN ES   1    154 42.39                             117   -0.23 6  251 195 
 CHI  HZ I         154 46.18        23.7 0.50            118            251 195 
 ROSC BZ EP   4    154 14.67                             117    1.37 0  254 210 
 ROSC BN ES   4    154 44.99                             117    1.75 0  254 210 
 HEL  HZ EP   4    154 16.20                             115    1.08 0  271 255 
 HEL  HN ES        154 46.05                             115   -0.44 8  271 255 
 HEL  HZ I         154 52.95        20.2 0.28            115            271 255 
 URE  HN ES   4    154 45.15                             114   -2.52 0  281 291 
 RREF HZ EP   4    154 22.82                             111    1.61 0  323 229 
 RREF HN ES   4    155  0.30                             111    2.98 0  323 229 
 RREF HZ I         155  6.85        24.9 0.40            111            323 229 
 COD  HZ EP        154 22.33                             109   -0.67 7  345 355 
 COD  HN ES   1    155  0.15                             109   -0.36 5  345 355 
 COD  HZ I         155  6.65         5.8 0.48            110            345 355 
 PRA  HZ EP        154 28.81                             107    0.12 6  394 209 
 PRA  HN ES        155 10.28                             107   -0.36 6  394 209 
 PRA  HZ I         155 16.97        21.8 0.74            107            394 209 
 ORTC HZ EP   1    154 28.93                             106   -0.12 4  397 216 
 ORTC HN ES   1    155 12.55                             106    1.26 4  397 216 
 ORTC HZ I         155 16.24        14.5 0.28            107            397 216 
 SJC  HZ EP   4    154 29.10                             106   -1.05 0  406 327 
 SJC  HN ES   4    155 10.06                             106   -3.17 0  406 327 
                                                                                
