 2010 1226 0126 17.0 L   6.782 -73.124140.0  RSN  9 0.3 2.1LRSN                1
 GAP=138        0.59       2.4     5.7  5.2 -0.4904E+01  0.1068E+02  0.7834E-01E
 Epicentro: LOS SANTOS - SANTANDER                                             3
 ACTION:UP  11-01-14 15:27 OP:pat  STATUS:               ID:20101226012617 L   I
 2010-12-26-0122-18S.COL___132                                                 6
 STAT SP IPHASW D HRMM SECON CODA AMPLIT PERI AZIMU VELO SNR AR TRES W  DIS CAZ7
 BAR2 SZ IP        126 36.09                             171     0.210   22 197 
 BAR2 SZ I         126 36.46        44.9 0.10                            22 197 
 BAR2 SZ ES   1    126 50.87                             171     0.2 7   22 197 
 RUS  HZ EP   1    126 39.86                             143    -0.2 7   98 177 
 RUS  HN ES   1    126 57.63                             143    -0.3 7   98 177 
 RUS  HZ I         126 59.73        13.4 0.28                            98 177 
 GRA  SZ EP   1    126 41.92                             135     0.1 7  127  16 
 GRA  SZ ES   1    127  1.20                             135     0.0 7  127  16 
 GRA  SZ I         127  2.72        19.6 0.30                           127  16 
 OCA  SZ EP   1    126 44.71                             128    -0.4 7  163 352 
 OCA  SZ ES   1    127  7.02                             128     0.0 7  163 352 
 OCA  SZ I         127 13.50        13.5 0.66                           163 352 
 YOP  SZ EP   2    126 45.94                             125    -0.4 4  176 154 
 YOP  SZ I         127 11.83         9.7 0.45                           176 154 
 CHI  HZ EP   1    126 54.49                             116     0.3 6  247 196 
 CHI  HN ES   1    127 23.24                             116     0.0 6  247 196 
 CHI  HZ I         127 33.00         4.0 0.45                           247 196 
 HEL  HZ EP   2    126 57.67                             113     0.6 4  274 256 
 HEL  HE ES   2    127 27.53                             113    -0.9 4  274 256 
 HEL  HZ I         127 35.14         7.5 0.33                           274 256 
 RREF HZ EP   2    127  2.83                             110    -0.1 3  322 230 
 RREF HN ES   2    127 39.16                             110     0.4 3  322 230 
 RREF HZ I         127 47.46         7.4 0.45                           322 230 
 PRA  HZ EP   1    127 10.20                             106     0.0 4  391 210 
 PRA  HZ I         127 11.98        15.6 0.38                           391 210 
 PRA  HN ES   1    127 52.19                             106     0.4 4  391 210 
                                                                                
