 2014  826 0503  8.5 L   7.422 -73.199130.4  RSN  6 0.2 1.4LRSN                1
 GAP=187        0.50       2.9     4.4  5.1 -0.5711E+01 -0.4864E+01  0.6679E+01E
 Epicentro: EL PLAYON - SANTANDER                                              3
 ACTION:UPD 14-09-15 21:53 OP:nd   STATUS:               ID:20140826050308 L   I
 OLDACT:DUP 14-08-26 15:07 OP:fm   STATUS:               ID:20140826045808d    3
 OLDACT:UP  14-08-26 15:07 OP:fm   STATUS:               ID:20140826045807d    3
 OLDACT:DUP 14-08-26 14:59 OP:fm   STATUS:               ID:20140826045807d    3
 2014-08-26-0458-06M.COL___260                                                 6
 STAT SP IPHASW D HRMM SECON CODA AMPLIT PERI AZIMU VELO AIN AR TRES W  DIS CAZ7
 BRR  HZ EP        5 3 27.92                             151    0.1910 66.5 238 
 BRR  HN ES        5 3 42.91                             151    0.1810 66.5 238 
 BRR  HZ I         5 3 46.21         3.4 0.48            154           66.5 238 
 OCA  HZ EP   1    5 3 29.42                             143   -0.18 7 91.3 352 
 OCA  HN ES        5 3 45.92                             143   -0.1310 91.3 352 
 OCA  HZ I         5 3 48.44         4.3 0.16            148           91.3 352 
 BAR2 SZ EP   1    5 3 29.78                             143    0.02 7 91.8 179 
 BAR2 SZ I         5 3 47.41         5.2 0.48            138           91.8 179 
 PTB  HZ EP        5 3 36.60                             124    0.16 9  170 235 
 PTB  HN ES   1    5 3 57.72                             124   -0.51 7  170 235 
 PTB  HZ I         5 4  1.58         2.2 0.28            126            170 235 
 ZAR  HN ES   1    5 4  0.79                             122    0.12 7  183 273 
 ZAR  HZ I         5 4  4.12         3.4 0.54            126            183 273 
 SPBC HZ EP   1    5 3 41.73                             117    0.09 6  218 206 
 SPBC HN ES   1    5 4  7.16                             117   -0.32 6  218 206 
 SPBC HZ I         5 4 10.45         2.3 0.22            117            218 206 
                                                                                
