 2012  926 0804 14.4 L   6.616 -73.194157.3  RSN  4 0.3 1.2LRSN                1
 GAP=200        0.49       8.8     5.0  7.0  0.1203E+02  0.2978E+01 -0.3139E+01E
 Epicentro: BARICHARA - SANTANDER                                              3
 ACTION:UPD 12-10-22 14:20 OP:ep   STATUS:               ID:20120926080414 L   I
 2012-09-26-0800-00M.COL___217                                                 6
 STAT SP IPHASW D HRMM SECON CODA AMPLIT PERI AZIMU VELO AIN AR TRES W  DIS CAZ7
 BAR2 SZ EP   1    8 4 35.31                             179    0.10 7 2.91 154 
 BAR2 SZ I         8 4 36.05         2.7 0.08                          2.91 154 
 BAR2 SZ ES   1    8 4 51.61                             179    0.18 7 2.91 154 
 BRR  HZ EP   1    8 4 37.09                             152   -0.14 7 78.9 314 
 BRR  HN ES   1    8 4 54.84                             152   -0.21 7 78.9 314 
 BRR  HN I         8 4 56.66         4.7 0.26                          78.9 314 
 PTB  HN ES   1    8 5  2.76                             136   -0.15 7  140 267 
 PTB  HN I         8 5  4.47         1.0 0.27                           140 267 
 ZAR  HN ES   2    8 5 14.87                             124    0.66 4  208 298 
                                                                                
