 2016  226 0820 20.5 L   5.887 -74.066 88.4  RSN  7 0.5 0.9LRSN                1
 GAP=121        1.21       5.1     3.6  8.0 -0.5361E+00  0.3579E+01  0.1106E+01E
 Epicentro: LA BELLEZA - SANTANDER                                             3
 ACTION:UPD 16-03-04 21:29 OP:rebc STATUS:               ID:20160226082020 L   I
 OLDACT:UP  16-02-26 18:30 OP:mh   STATUS:               ID:20160226081751     3
 OLDACT:UP  16-02-26 18:30 OP:mh   STATUS:               ID:20160226081751     3
 OLDACT:UP  16-02-26 18:28 OP:mh   STATUS:               ID:20160226081751     3
 OLDACT:REG 16-02-26 13:18 OP:mh   STATUS:               ID:20160226081751     3
 2016-02-26-0817-51M.COL___303                                                 6
 STAT SP IPHASW D HRMM SECON CODA AMPLIT PERI AZIMU VELO AIN AR TRES W  DIS CAZ7
 SPBC HE EP   1    820 33.56                             162    0.45 7 26.0 182 
 SPBC HZ ES        820 43.72                             162    0.7510 26.0 182 
 PTB  HZ EP        820 36.73                             133   -0.2110 84.1 329 
 PTB  HN ES        820 49.56                             133   -0.2410 84.1 329 
 PTB  HZ I         820 54.61         2.2 0.10            128           84.1 329 
 NOR  HZ EP        820 38.22                             129    0.1210 95.9 248 
 NOR  HN ES        820 51.15                             129   -0.7110 95.9 248 
 NOR  HZ I         820 53.74         4.8 0.12            124           95.9 248 
 RUS  HZ EP        820 40.40                             125    0.4510  109  90 
 RUS  HN ES        820 54.57                             125   -0.5910  109  90 
 RUS  HZ I         820 57.59         1.1 0.42            120            109  90 
 CHI  HZ EP   1    820 42.67                             117   -0.89 7  144 165 
 CHI  HZ I         820 55.91         0.7 0.54            112            144 165 
 CHI  HN ES   2    821  1.38                             117   -0.21 5  144 165 
 GUY2CHZ EP        820 46.30                             114    0.70 9  161 243 
 GUY2CHN ES        821  4.95                             114   -0.26 9  161 243 
 GUY2CHZ I         821 10.00         1.1 0.22                           161 243 
 HEL  HZ EP        820 46.25                             113    0.35 9  165 282 
 HEL  HE ES   2    821  5.81                             113    0.06 5  165 282 
 HEL  HZ I         821 10.64         4.1 0.22            110            165 282 
                                                                                
