 2011  826 0903  9.7 L   6.804 -73.082146.3  RSN  5 0.3 1.4LRSN                1
 GAP=145        0.59       5.6     8.7  6.4  0.1442E+02 -0.1954E+02 -0.1953E+01E
 Epicentro: LOS SANTOS - SANTANDER                                             3
 ACTION:UPD 12-07-13 15:53 OP:ep   STATUS:               ID:20110826090309 L   I
 2011-08-26-0900-00M.COL___168                                                 6
 STAT SP IPHASW D HRMM SECON CODA AMPLIT PERI AZIMU VELO AIN AR TRES W  DIS CAZ7
 BAR2 SZ EP   2    9 3 29.61                             169    0.18 5 25.9 205 
 BAR2 SZ ES   1    9 3 44.34                             169   -0.50 7 25.9 205 
 BAR2 SZ I         9 3 46.99         7.4 0.34                          25.9 205 
 GIR2 SZ EP   1    9 3 29.21                             167   -0.25 7 32.8 338 
 GIR2 SZ ES   1    9 3 44.98                             167    0.09 7 32.8 338 
 PAM  SZ EP   1    9 3 31.94                             152    0.25 7 72.8  35 
 BRR  HZ EP   1    9 3 30.94                             151   -0.30 7 77.3 296 
 BRR  HZ I         9 3 31.32         7.5 0.13                          77.3 296 
 BRR  HE ES   1    9 3 48.40                             151    0.34 7 77.3 296 
 RUS  HZ EP   1    9 3 33.60                             144    0.10 7  101 180 
 RUS  HN ES   2    9 3 52.51                             144    0.43 5  101 180 
 RUS  HZ I         9 3 54.46         2.2 0.36                           101 180 
                                                                                
