 2013  726 0635 36.8 L   6.697 -73.157150.0  RSN  4 0.2 1.2LRSN                1
 GAP=199        0.45       7.8     4.2  5.9 -0.1081E+02 -0.5298E+01  0.7304E+01E
 Epicentro: VILLANUEVA - SANTANDER                                             3
 ACTION:UPD 13-08-12 10:40 OP:ep   STATUS:               ID:20130726063536 L   I
 OLDACT:UP  13-07-26 10:13 OP:cam  STATUS:               ID:20130726062959     3
 OLDACT:REG 13-07-26 08:23 OP:cam  STATUS:               ID:20130726062959     3
 2013-07-26-0629-59M.COL___266                                                 6
 STAT SP IPHASW D HRMM SECON CODA AMPLIT PERI AZIMU VELO AIN AR TRES W  DIS CAZ7
 BAR2 SZ EP   1    635 56.97                             175    0.24 7 11.9 194 
 BAR2 SZ ES   2    636 12.22                             175   -0.08 5 11.9 194 
 BAR2 SZ I         636 13.20         3.5 0.26            173           11.9 194 
 GIR2 SZ EP   1    635 56.94                             163   -0.33 7 42.4 354 
 BRR  HZ EP        635 58.67                             152    0.0110 76.3 306 
 BRR  HE ES   1    636 15.90                             152    0.17 7 76.3 306 
 BRR  HZ I         636 19.58         2.9 0.25            148           76.3 306 
 PTB  HZ EP   1    636  3.95                             134    0.14 7  145 263 
 PTB  HN ES        636 24.79                             134   -0.12 9  145 263 
 PTB  HZ I         636 29.50         2.3 0.18            133            145 263 
                                                                                
