 2011  626 0106 49.8 L   6.806 -73.147144.7  RSN 20 0.4 2.8LRSN                1
 GAP=113        0.88       3.0     4.6  5.3 -0.1403E+01  0.8333E+01  0.3408E+01E
 Epicentro: LOS SANTOS - SANTANDER                                             3
 ACTION:UP  11-07-14 19:08 OP:ep   STATUS:               ID:20110626010649 L   I
 2011-06-26-0105-07S.COL___140                                                 6
 STAT SP IPHASW D HRMM SECON CODA AMPLIT PERI AZIMU VELO SNR AR TRES W  DIS CAZ7
 BTL  SZ IP        1 7  9.38                             172     0.210   18 313 
 BTL  SZ ES   2    1 7 24.51                             172     0.2 5   18 313 
 BAR2 SZ IP     D  1 7  9.00                             170    -0.310   24 189 
 BAR2 SZ ES   2    1 7 24.09                             170    -0.4 5   24 189 
 BAR2 SZ I         1 7 26.65       117.8 0.41                            24 189 
 GIR2 SZ IP        1 7  9.03                             167    -0.310   31 350 
 BRR  HZ EP        1 7 10.68                             152    -0.110   71 298 
 BRR  HZ I         1 7 11.03       194.4 0.12                            71 298 
 BRR  HN ES   1    1 7 27.50                             152     0.3 7   71 298 
 PAM  SZ EP        1 7 11.98                             151     0.110   77  40 
 PAM  SN ES   1    1 7 29.10                             151     0.0 7   77  40 
 RUS  HZ EP        1 7 12.93                             143    -0.510  101 176 
 RUS  HN ES   1    1 7 31.93                             143     0.0 7  101 176 
 RUS  HZ I         1 7 32.81        73.5 0.35                           101 176 
 BRI  SZ EP        1 7 13.61                             141     0.110  108  21 
 GRA  SZ EP        1 7 14.83                             137     0.010  125  18 
 GRA  SZ I         1 7 38.83        40.9 0.42                           125  18 
 OCA  SZ EP        1 7 17.68                             129    -0.2 9  160 353 
 OCA  SZ ES   2    1 7 40.31                             129     0.4 5  160 353 
 OCA  SZ I         1 7 43.99        74.6 0.36                           160 353 
 YOP  SZ EP        1 7 19.79                             126     0.0 9  180 153 
 YOP  SN ES   1    1 7 43.70                             126     0.5 7  180 153 
 NOR  SZ EP        1 7 25.11                             118    -0.3 8  235 234 
 NOR  SN ES   2    1 7 52.26                             118    -1.0 4  235 234 
 CHI  HZ EP        1 7 27.22                             117    -0.2 8  249 195 
 CHI  HN ES   2    1 7 57.21                             117     0.3 4  249 195 
 CHI  HZ I         1 7 59.78        47.0 0.40                           249 195 
 ROSC BZ EP        1 7 28.84                             116     1.0 8  253 211 
 HEL  HZ EP        1 7 29.98                             114     0.1 8  272 256 
 HEL  HZ I         1 8  8.59        32.2 0.32                           272 256 
 VIL  SZ EP   3    1 7 33.02                             112    -0.2 2  304 192 
 RREF HZ EP        1 7 36.72                             111     0.8 7  322 229 
 RREF HZ I         1 8 21.00        27.2 0.30                           322 229 
 DBB  SZ EP        1 7 37.18                             109     0.0 7  339 274 
 TOL  SZ EP        1 7 38.49                             109     0.5 7  344 225 
 PRA  HZ EP        1 7 42.78                             106    -0.5 6  393 210 
 SJA  SZ EP   3    1 7 42.81                             106    -1.5 1  401 193 
 SJA  SZ I         1 8 25.85        65.9 0.45                           401 193 
                                                                                
