 2016 1026 0856 30.7 L   6.632 -73.617  4.0  RSN  4 0.4 0.4LRSN                1
 GAP=120        0.98       2.6     2.2  6.2  0.1938E+01 -0.4926E+00 -0.1470E+00E
 Epicentro: EL CARMEN - SANTANDER                                              3
 ACTION:UPD 16-11-09 19:23 OP:rebc STATUS:               ID:20161026085630 L   I
 OLDACT:REG 16-10-26 14:11 OP:cog  STATUS:               ID:20161026084738     3
 2016-10-26-0848-00M.COL___322                                                 6
 STAT SP IPHASW D HRMM SECON CODA AMPLIT PERI AZIMU VELO AIN AR TRES W  DIS CAZ7
 BAR2 EZ EP        856 38.49                              47   -0.3410 48.2  95 
 BAR2 EZ ES        856 45.26                              47    0.0710 48.2  95 
 BAR2 EZ I         856 46.02         3.7 0.18             47           48.2  95 
 BRR  HZ EP        856 39.40                              47    0.0010 53.6 349 
 BRR  HN ES        856 46.16                              47   -0.0310 53.6 349 
 PTB  HZ EP        856 45.56                              47    0.1010 93.4 264 
 PTB  HN ES        856 56.80                              47   -0.1710 93.4 264 
 PTB  HZ I         856 59.18         1.4 0.10             47           93.4 264 
 RUS  HZ EP        856 47.91                              47    0.8410  101 144 
 RUS  HN ES        856 59.38                              47   -0.4710  101 144 
 RUS  HZ I         857  1.48         0.5 0.11             47            101 144 
                                                                                
