 2012 1126 0625 21.3 L   6.740 -73.192144.2  RSN  7 0.1 1.7LRSN                1
 GAP=173        0.38       1.3     2.4  3.6  0.2524E-01  0.1072E+01 -0.6312E+00E
 Epicentro: VILLANUEVA - SANTANDER                                             3
 ACTION:UPD 12-12-05 15:36 OP:}ep  STATUS:               ID:20121126062521 L   I
 2012-11-26-0620-00M.COL___233                                                 6
 STAT SP IPHASW D HRMM SECON CODA AMPLIT PERI AZIMU VELO AIN AR TRES W  DIS CAZ7
 BAR2 SZ I         625 40.59        10.9 0.22                          16.3 176 
 BAR2 SZ EP        625 40.61                             173    0.0310 16.3 176 
 GIR2 SZ EP        625 40.92                             165   -0.0110 37.5 360 
 RUS  HZ EP        625 44.45                             145    0.0310 94.4 173 
 RUS  HN ES        626  2.57                             145    0.0910 94.4 173 
 RUS  HN I         626  3.22         3.7 0.32                          94.4 173 
 PTB  HZ EP        625 47.40                             133   -0.14 9  142 261 
 PTB  HN ES        626  8.07                             133    0.03 9  142 261 
 PTB  HN I         626 11.05         9.0 0.24                           142 261 
 OCA  HZ EP        625 50.21                             128    0.18 9  166 355 
 OCA  HE ES        626 12.24                             128   -0.23 9  166 355 
 OCA  HN I         626 19.49         9.8 0.30                           166 355 
 ZAR  HZ EP        625 53.58                             122    0.19 9  202 294 
 ZAR  HN I         626 24.46         7.4 0.18                           202 294 
 CHI  HZ EP        625 57.86                             118   -0.16 8  241 194 
 CHI  HN ES        626 26.61                             118   -0.10 8  241 194 
 CHI  HN I         626 31.81         2.3 0.54                           241 194 
                                                                                
