 2016  926 0915 42.3 L   6.831 -73.136144.3  RSN  8 0.4 1.7LRSN                1
 GAP=184        0.87       3.4     4.8  6.0  0.2356E+01  0.9749E+01 -0.2046E+00E
 Epicentro: LOS SANTOS - SANTANDER                                             3
 ACTION:UPD 17-08-17 21:16 OP:lp   STATUS:               ID:20160926091542 L   I
 OLDACT:UP  16-09-26 19:42 OP:dani STATUS:               ID:20160926090746     3
 OLDACT:UP  16-09-26 19:33 OP:dani STATUS:               ID:20160926090746     3
 OLDACT:REG 16-09-26 13:44 OP:dani STATUS:               ID:20160926090746     3
 2016-09-26-0908-00M.COL___327                                                 6
 STAT SP IPHASW D HRMM SECON CODA AMPLIT PERI AZIMU VELO AIN AR TRES W  DIS CAZ7
 BAR2 EZ EP        916  2.04                             169    0.2410 26.9 191 
 BAR2 EZ ES        916 16.77                             169   -0.2610 26.9 191 
 BAR2 EZ I         916 18.20        11.1 0.23            162           26.9 191 
 RUS  HZ EP        916  6.19                             143    0.0710  104 177 
 RUS  HN ES        916 24.82                             143    0.1010  104 177 
 RUS  HZ I         916 25.74         5.2 0.26            132            104 177 
 PTB  HZ EP        916  8.50                             131   -0.77 9  149 258 
 PTB  HN ES        916 30.48                             131    0.15 9  149 258 
 PTB  HZ I         916 31.68         6.3 0.42            121            149 258 
 OCA  HE ES        916 31.99                             130    0.09 9  157 353 
 SPBC HZ EP        916 10.91                             128   -0.06 9  167 219 
 SPBC HN ES        916 33.54                             128    0.18 9  167 219 
 SPBC HZ I         916 35.44         9.5 0.07            118            167 219 
 ZAR  HZ EP        916 14.75                             122    0.17 9  204 291 
 ZAR  HN ES        916 39.89                             122    0.10 9  204 291 
 ZAR  HZ I         916 45.15         4.8 0.30            113            204 291 
 NOR  HZ EP        916 17.61                             118   -0.61 8  238 234 
 NOR  HZ I         916 51.51         3.9 0.16            109            238 234 
 GUY2CHZ EP        916 26.94                             112    0.81 7  304 234 
 GUY2CHZ I         917  8.23         2.3 0.35                           304 234 
                                                                                
