 2013  626 0051 44.3 L   6.681 -73.208150.7  RSN  4 0.1 1.2LRSN                1
 GAP=214        0.38       3.2     3.6  3.8  0.6642E+01 -0.6956E+00 -0.6735E+00E
 Epicentro: VILLANUEVA - SANTANDER                                             3
 ACTION:UPD 14-01-08 09:57 OP:ep   STATUS:               ID:20130626005144 L   I
 OLDACT:REG 13-06-26 07:28 OP:jn   STATUS:               ID:20130626004959     3
 2013-06-26-0049-59M.COL___267                                                 6
 STAT SP IPHASW D HRMM SECON CODA AMPLIT PERI AZIMU VELO AIN AR TRES W  DIS CAZ7
 BAR2 SZ EP        052  4.09                             176   -0.2310 10.3 164 
 BAR2 SZ I         052 20.85         3.3 0.24            172           10.3 164 
 BRR  HZ EP        052  6.16                             153    0.1010 72.9 310 
 BRR  HN ES        052 23.08                             153    0.0410 72.9 310 
 BRR  HZ I         052 28.20         5.6 0.54            150           72.9 310 
 RUS  HZ EP        052  7.79                             148    0.1010 88.3 171 
 RUS  HN ES        052 25.98                             148    0.0310 88.3 171 
 RUS  HZ I         052 27.35         1.5 0.54            152           88.3 171 
 PTB  HZ EP        052 10.89                             135    0.01 9  139 264 
 PTB  HN ES   1    052 31.54                             135   -0.08 7  139 264 
 PTB  HZ I         052 35.97         1.9 0.10            138            139 264 
                                                                                
