 2014 1226 0015 51.4 L   6.787 -73.128145.2  RSN 11 0.4 1.7LRSN                1
 GAP=139        0.94       2.6     3.7  5.1 -0.7488E+00  0.4742E+01  0.6935E+00E
 Epicentro: LOS SANTOS - SANTANDER                                             3
 ACTION:UPD 15-02-10 17:07 OP:nd   STATUS:               ID:20141226001551 L   I
 OLDACT:UP  14-12-26 14:10 OP:mh   STATUS:               ID:20141226000748     3
 OLDACT:UP  14-12-26 14:09 OP:mh   STATUS:               ID:20141226000748     3
 OLDACT:REG 14-12-26 12:23 OP:mh   STATUS:               ID:20141226000748     3
 2014-12-26-0007-48M.COL___283                                                 6
 STAT SP IPHASW D HRMM SECON CODA AMPLIT PERI AZIMU VELO AIN AR TRES W  DIS CAZ7
 BAR2 EZ ES        016 25.82                             171   -0.3810 22.3 196 
 BAR2 EZ I         016 28.96        12.7 0.05            169           22.3 196 
 BRR  HZ EP     C  016 13.29                             152    0.6410 73.6 299 
 BRR  HN ES        016 29.52                             152    0.3210 73.6 299 
 BRR  HZ I         016 33.75         7.5 0.24            150           73.6 299 
 PAM  SZ EP        016 13.69                             151    0.1210 77.3  38 
 PAM  SN ES        016 31.40                             151    0.5510 77.3  38 
 PAM  SZ I         016 33.90         3.4 0.46            155           77.3  38 
 RUS  HZ EP        016 14.77                             144   -0.2410 99.0 177 
 RUS  HN ES   1    016 33.17                             144   -0.23 7 99.0 177 
 RUS  HZ I         016 35.05         3.5 0.28            146           99.0 177 
 PTB  HZ EP   1    016 18.24                             132   -0.25 7  149 260 
 PTB  HN ES        016 39.58                             132   -0.02 9  149 260 
 PTB  HZ I         016 46.72         9.3 0.46            132            149 260 
 OCA  HZ EP   1    016 20.02                             129    0.17 7  162 353 
 OCA  HN ES        016 41.55                             129   -0.47 9  162 353 
 OCA  HZ I         016 46.90         9.6 0.46            132            162 353 
 SPBC HZ EP        016 20.18                             129    0.29 9  163 220 
 SPBC HN ES   1    016 42.15                             129    0.06 7  163 220 
 SPBC HZ I         016 45.51        16.2 0.10            130            163 220 
 ZAR  HZ EP        016 23.84                             122   -0.23 8  206 292 
 ZAR  HN ES        016 49.16                             122   -0.38 8  206 292 
 ZAR  HZ I         016 54.82         5.7 0.42            123            206 292 
 SML  HZ EP        016 28.11                             117   -0.14 8  246 335 
 SML  HN ES        016 56.32                             117   -0.65 8  246 335 
 SML  HZ I         017  1.03        10.5 0.48            119            246 335 
 CHI  HZ EP        016 28.97                             117   -0.03 8  248 196 
 CHI  HN ES        016 57.66                             117   -0.64 8  248 196 
 CHI  HZ I         017  7.07         1.6 0.34            119            248 196 
 HEL  HZ EP        016 32.21                             114    0.43 8  274 256 
 HEL  HN ES        017  3.95                             114    0.70 8  274 256 
 HEL  HZ I         017 10.80         2.9 0.32            116            274 256 
                                                                                
