 2012  826 0058 21.4 L   6.788 -73.139138.1  RSN  8 0.4 1.7LRSN                1
 GAP=138        0.83       4.9     5.3 12.8 -0.1834E+01  0.1970E+02 -0.1087E+02E
 Epicentro: LOS SANTOS - SANTANDER                                             3
 ACTION:UPD 12-09-10 11:58 OP:ep   STATUS:               ID:20120826005821 L   I
 2012-08-26-0056-50M.COL___217                                                 6
 STAT SP IPHASW D HRMM SECON CODA AMPLIT PERI AZIMU VELO AIN AR TRES W  DIS CAZ7
 BAR2 SZ EP   1    058 40.43                             170    0.32 8 22.2 193 
 BAR2 SZ I         058 56.61        15.9 0.21                          22.2 193 
 GIR2 SZ EP   1    058 40.62                             166    0.39 8 32.7 349 
 BRR  HZ EP   1    058 41.93                             151    0.10 8 72.5 299 
 BRR  HZ I         058 42.88        21.9 0.09                          72.5 299 
 BRR  HE ES   2    058 58.03                             151    0.29 5 72.5 299 
 PAM  SE ES   2    058 59.55                             149   -0.03 5 77.9  38 
 RUS  HN ES   1    059  2.22                             142    0.03 8 99.2 176 
 RUS  HZ I         059  3.60         4.5 0.26                          99.2 176 
 PTB  HZ EP   1    058 47.38                             130   -0.44 7  148 259 
 PTB  HN ES        059  7.95                             130   -0.4610  148 259 
 PTB  HZ I         059 10.47         4.0 0.18                           148 259 
 OCA  HN ES   1    059 10.43                             127   -0.59 7  162 353 
 ZAR  HN ES   1    059 19.39                             120    0.86 7  205 292 
                                                                                
