 2016  326 0723 34.7 L   6.808 -73.165141.5  RSN 10 0.4 1.7LRSN                1
 GAP=134        0.94       2.7     3.9  5.6 -0.2024E+01  0.7514E+01 -0.8153E+00E
 Epicentro: LOS SANTOS - SANTANDER                                             3
 ACTION:UPD 16-05-13 21:27 OP:cam  STATUS:               ID:20160326072334 L   I
 OLDACT:DUP 16-03-26 16:29 OP:ak   STATUS:               ID:20160326071746d    3
 OLDACT:REG 16-03-26 13:03 OP:ak   STATUS:               ID:20160326071745     3
 2016-03-26-0717-45M.COL___292                                                 6
 STAT SP IPHASW D HRMM SECON CODA AMPLIT PERI AZIMU VELO AIN AR TRES W  DIS CAZ7
 BAR2 EZ EP        723 53.98                             170    0.1310 23.9 185 
 BAR2 EZ ES        724  8.93                             170    0.1610 23.9 185 
 BAR2 EZ I         724 10.17         9.3 0.22            170           23.9 185 
 PAM  EZ EP        723 56.62                             150    0.0910 78.1  41 
 PAM  EN ES        724 13.61                             150    0.0710 78.1  41 
 PAM  EZ I         724 16.10         8.2 0.20            152           78.1  41 
 RUS  HZ EP        723 58.14                             143    0.0110  102 175 
 RUS  HE ES        724 16.48                             143    0.0910  102 175 
 RUS  HZ I         724 17.02         7.7 0.46            144            102 175 
 PTB  HZ EP        724  0.71                             131   -0.46 9  146 258 
 PTB  HN ES        724 20.98                             131   -0.82 9  146 258 
 PTB  HZ I         724 24.54         4.9 0.11            131            146 258 
 OCA  HZ EP        724  2.45                             129   -0.15 9  159 354 
 OCA  HN ES        724 24.01                             129   -0.33 9  159 354 
 OCA  HZ I         724 29.39        11.1 0.22            130            159 354 
 SPBC HZ EP        724  3.11                             128    0.27 9  163 218 
 SPBC HN ES        724 24.59                             128   -0.17 9  163 218 
 SPBC HZ I         724 26.47        15.6 0.05            129            163 218 
 ZAR  HZ EP        724  7.29                             122    0.63 9  202 292 
 ZAR  HE ES        724 32.44                             122    0.88 9  202 292 
 ZAR  HZ I         724 38.47         7.8 0.33            122            202 292 
 CHI  HZ EP        724 12.25                             116    0.03 8  249 195 
 CHI  HN ES        724 41.27                             116   -0.20 8  249 195 
 CHI  HZ I         724 51.06         1.7 0.38            117            249 195 
 GUY2CHZ EP   2    724 18.73                             111    0.73 4  300 234 
 GUY2CHN ES        724 51.89                             111    0.14 7  300 234 
 GUY2CHZ I         724 59.43         2.3 0.32                           300 234 
 MON  HZ EP   4    724 21.84                             108   -1.47 0  351 308 
 SJC  HZ EP        724 29.11                             105   -0.82 6  407 327 
                                                                                
