 2013  126 0816 43.6 L   6.782 -73.161140.7  RSN  5 0.4 1.4LRSN                1
 GAP=135        1.11       5.8     5.7  8.4 -0.2963E+01  0.3625E+01  0.2182E+01E
 Epicentro: LOS SANTOS - SANTANDER                                             3
 ACTION:UPD 13-02-15 09:16 OP:ep   STATUS:               ID:20130126081643 L   I
 2013-01-26-0808-41M.COL___186                                                 6
 STAT SP IPHASW D HRMM SECON CODA AMPLIT PERI AZIMU VELO AIN AR TRES W  DIS CAZ7
 BAR2 SZ EP        817  2.59                             171    0.0510 21.1 186 
 BAR2 SZ ES        817 17.18                             171   -0.1610 21.1 186 
 BAR2 SZ I         817 20.20         5.6 0.28            172           21.1 186 
 BRR  HZ EP        817  4.53                             152    0.3910 70.7 301 
 BRR  HN ES        817 20.99                             152    0.8010 70.7 301 
 BRR  HN I         817 25.44         4.9 0.30            153           70.7 301 
 PAM  SZ EP        817  5.25                             149   -0.1510 80.0  40 
 PAM  SN ES        817 21.97                             149   -0.4710 80.0  40 
 RUS  HZ EP        817  6.89                             143    0.2110 98.7 175 
 RUS  HN ES        817 24.85                             143    0.1310 98.7 175 
 RUS  HN I         817 26.81         5.2 0.22            147           98.7 175 
 PTB  HZ EP   1    817  9.73                             131   -0.20 7  146 259 
 PTB  HE ES        817 29.70                             131   -0.80 9  146 259 
 PTB  HN I         817 31.92         3.3 0.34            134            146 259 
                                                                                
