 2014  126 0222 21.5 L   6.817 -73.168144.8  RSN 12 0.3 2.0LRSN                1
 GAP=133        0.78       2.5     3.3  4.7 -0.1839E+01  0.5382E+01 -0.5627E+00E
 Epicentro: LOS SANTOS - SANTANDER                                             3
 ACTION:UPD 14-03-13 09:58 OP:ep   STATUS:               ID:20140126022221 L   I
 OLDACT:REG 14-01-26 09:32 OP:nd   STATUS:               ID:20140126022000     3
 2014-01-26-0220-00M.COL___285                                                 6
 STAT SP IPHASW D HRMM SECON CODA AMPLIT PERI AZIMU VELO AIN AR TRES W  DIS CAZ7
 BAR2 SZ EP        222 41.04                             170   -0.0210 24.9 184 
 BAR2 SZ ES        222 55.93                             170   -0.3810 24.9 184 
 BAR2 SZ I         222 57.47        26.3 0.28            168           24.9 184 
 BRR  HZ EP        222 43.18                             153    0.8010 68.1 298 
 BRR  HN ES   2    222 59.06                             153    0.40 5 68.1 298 
 BRR  HZ I         223  4.15        14.9 0.54            150           68.1 298 
 PAM  SZ EP        222 43.91                             151    0.2810 77.5  42 
 PAM  SN ES        223  0.95                             151    0.0610 77.5  42 
 PAM  SZ I         223  3.46        19.7 0.48            156           77.5  42 
 RUS  HZ EP     D  222 45.07                             143   -0.2510  103 175 
 RUS  HN ES        223  3.84                             143   -0.0510  103 175 
 RUS  HZ I         223  5.32         8.6 0.36            146            103 175 
 PTB  HZ EP        222 47.91                             132   -0.31 9  146 258 
 PTB  HN ES        223  8.99                             132   -0.05 9  146 258 
 PTB  HZ I         223 15.25        14.8 0.52            132            146 258 
 SPBC HZ EP        222 50.22                             129    0.29 9  163 218 
 SPBC HN ES        223 12.48                             129    0.38 9  163 218 
 SPBC HZ I         223 17.30        19.9 0.22            130            163 218 
 NOR  HZ EP        222 56.95                             118   -0.14 8  234 234 
 NOR  HN ES        223 25.08                             118    0.24 8  234 234 
 NOR  HZ I         223 32.45         8.5 0.24            119            234 234 
 SML  HZ EP        222 57.52                             117   -0.26 8  241 336 
 SML  HN ES        223 25.65                             117   -0.42 8  241 336 
 SML  HZ I         223 31.00        21.4 0.10            119            241 336 
 CHI  HZ EP        222 59.28                             117   -0.01 8  250 195 
 CHI  HN ES        223 28.34                             117   -0.42 8  250 195 
 CHI  HZ I         223 37.32         4.1 0.54            119            250 195 
 HEL  HZ EP   2    223  1.67                             115    0.21 4  270 255 
 HEL  HN ES        223 32.35                             115   -0.27 8  270 255 
 HEL  HZ I         223 40.00         5.5 0.36            116            270 255 
 GUY2CHZ EP   4    223  6.09                             112    1.11 0  300 234 
 GUY2CHN ES   4    223 41.88                             112    3.00 0  300 234 
 GUY2CHZ I         223 48.18         8.9 0.74                           300 234 
 SJC  HZ EP   4 C  223 15.32                             106   -1.37 0  406 327 
 SJC  HN ES   4    223 55.78                             106   -3.96 0  406 327 
 SJC  HZ I         224  2.40         2.0 0.46            107            406 327 
                                                                                
