 2017  726 0305 47.2 L   6.785 -73.161147.9  RSN 10 0.5 1.4LRSN                1
 GAP=210        1.05       5.5     5.0  6.7  0.1460E+02  0.3107E+00  0.4285E+01E
 Epicentro: LOS SANTOS - SANTANDER                                             3
 ACTION:UPD 17-08-30 15:36 OP:rebc STATUS:               ID:20170726030547 L   I
 OLDACT:UP  17-07-26 14:26 OP:and  STATUS:               ID:20170726025741     3
 OLDACT:UP  17-07-26 14:25 OP:and  STATUS:               ID:20170726025741     3
 OLDACT:UP  17-07-26 14:25 OP:and  STATUS:               ID:20170726025741     3
 OLDACT:UP  17-07-26 14:23 OP:and  STATUS:               ID:20170726025741     3
 OLDACT:REG 17-07-26 12:46 OP:and  STATUS:               ID:20170726025741     3
 2017-07-26-0258-00M.COL___386                                                 6
 STAT SP IPHASW D HRMM SECON CODA AMPLIT PERI AZIMU VELO AIN AR TRES W  DIS CAZ7
 BAR2 EZ EP        3 6  6.78                             172   -0.2810 21.4 186 
 BAR2 EZ ES        3 6 22.05                             172   -0.4910 21.4 186 
 BAR2 EZ I         3 6 24.58         8.8 0.28            167           21.4 186 
 BRR  HZ EP        3 6  8.62                             153    0.0710 70.5 300 
 BRR  HN ES        3 6 25.88                             153    0.6910 70.5 300 
 RUS  HN ES        3 6 29.31                             145   -0.3510 99.0 175 
 PTB  HZ EP        3 6 14.11                             133   -0.06 9  146 259 
 PTB  HN ES        3 6 34.59                             133   -0.60 9  146 259 
 PTB  HZ I         3 6 41.53         1.5 0.22            131            146 259 
 SPBC HZ EP        3 6 15.98                             130    0.34 9  161 219 
 SPBC HN ES        3 6 37.97                             130    0.15 9  161 219 
 SPBC HZ I         3 6 40.53         4.0 0.10            128            161 219 
 YPLC HZ EP        3 6 17.20                             127    0.11 9  176 151 
 YPLC HN ES        3 6 41.22                             127    0.81 9  176 151 
 YPLC HZ I         3 6 42.52         3.6 0.24            128            176 151 
 ZAR  HZ EP   4    3 6 22.87                             123    3.18 0  203 293 
 ZAR  HN ES        3 6 45.17                             123    0.14 9  203 293 
 ZAR  HZ I         3 6 50.00         2.4 0.22            122            203 293 
 NOR  HE ES   2    3 6 50.52                             119   -0.05 4  232 235 
 NOR  HZ I         3 6 56.31         1.8 0.16            118            232 235 
 GUY2CHZ EP   4    3 6 33.48                             113    2.84 0  299 235 
 GUY2CHN ES   3    3 7  6.03                             113    1.51 2  299 235 
 GUY2CHZ I         3 7 16.98         1.4 0.50                           299 235 
 PTGC HZ EP     C  3 6 30.35                             112   -0.70 7  308 158 
                                                                                
