 2014  826 0429 46.7 L   6.796 -73.144153.1  RSN 11 0.4 1.7LRSN                1
 GAP=201        0.94       3.9     5.1  6.7  0.3707E+01  0.6830E+01  0.4232E+01E
 Epicentro: LOS SANTOS - SANTANDER                                             3
 ACTION:UPD 14-09-15 21:53 OP:nd   STATUS:               ID:20140826042946 L   I
 OLDACT:REG 14-08-26 12:58 OP:fm   STATUS:               ID:20140826042816     3
 2014-08-26-0428-16M.COL___260                                                 6
 STAT SP IPHASW D HRMM SECON CODA AMPLIT PERI AZIMU VELO AIN AR TRES W  DIS CAZ7
 BAR2 SZ EP        430  7.36                             171    0.1110 22.9 191 
 BAR2 SZ ES   1    430 23.28                             171    0.03 7 22.9 191 
 BAR2 SZ I         430 24.10        13.5 0.40            168           22.9 191 
 BRR  HZ EP        430  9.26                             154    0.5510 71.6 299 
 BRR  HN ES        430 26.51                             154    0.6610 71.6 299 
 BRR  HZ I         430 28.87         6.2 0.12            152           71.6 299 
 RUS  HZ EP   1    430 10.65                             146   -0.54 7  100 176 
 RUS  HN ES   1    430 29.78                             146   -0.49 7  100 176 
 RUS  HZ I         430 32.58         4.3 0.26            145            100 176 
 PTB  HZ EP        430 14.06                             134   -0.27 9  148 259 
 PTB  HN ES        430 35.22                             134   -0.63 9  148 259 
 PTB  HZ I         430 37.37         9.1 0.12            132            148 259 
 SPBC HZ EP        430 16.22                             131    0.42 9  163 219 
 SPBC HN ES        430 38.49                             131    0.03 9  163 219 
 SPBC HZ I         430 42.77         6.0 0.22            130            163 219 
 ZAR  HN ES        430 45.08                             124   -0.35 9  204 292 
 ZAR  HZ I         430 50.92         5.0 0.32            124            204 292 
 SML  HE ES   1    430 51.95                             119   -0.83 6  244 335 
 CHI  HN ES   1    430 54.41                             119   -0.11 6  248 195 
 CHI  HZ I         430 57.46         2.2 0.16            119            248 195 
 HEL  HZ EP   1    430 27.48                             116    0.13 6  272 256 
 HEL  HE ES   1    430 59.46                             116    0.44 6  272 256 
 HEL  HZ I         431  5.70         2.4 0.28            116            272 256 
 GUY2CHZ EP   1    430 30.82                             114    0.13 5  301 235 
 GUY2CHN ES   1    431  5.33                             114    0.36 5  301 235 
 GUY2CHZ I         431 15.94         2.5 0.46                           301 235 
 PRA  HN ES   1    431 21.93                             108   -0.49 4  392 210 
 PRA  HZ I         431 27.42         2.0 0.30            108            392 210 
 SJC  HZ EP   4    430 41.39                             107   -1.22 0  410 327 
                                                                                
