 2015  526 0749 38.4 L   6.833 -73.062146.6  RSN  9 0.4 1.9LRSN                1
 GAP=192        0.95       3.0     4.7  5.6 -0.8693E+00  0.8345E+01 -0.1430E+01E
 Epicentro: LOS SANTOS - SANTANDER                                             3
 ACTION:UPD 15-09-10 22:07 OP:cam  STATUS:               ID:20150526074938 L   I
 OLDACT:UP  15-05-27 10:54 OP:Mher STATUS:               ID:20150526074938 L   3
 OLDACT:REG 15-05-26 13:40 OP:ar   STATUS:               ID:20150526074741     3
 2015-05-26-0747-41M.COL___282                                                 6
 STAT SP IPHASW D HRMM SECON CODA AMPLIT PERI AZIMU VELO AIN AR TRES W  DIS CAZ7
 BAR2 EZ EP        749 58.59                             168    0.2710 29.7 207 
 BAR2 EZ ES        750 13.46                             168   -0.3710 29.7 207 
 BAR2 EZ I         750 14.54        14.8 0.14            167           29.7 207 
 BRR  HZ EP        750  0.49                             150    0.4110 78.0 293 
 BRR  HE ES        750 17.59                             150    0.6310 78.0 293 
 BRR  HZ I         750 21.58        11.0 0.18            148           78.0 293 
 RUS  HZ EP        750  2.64                             143    0.1110  104 181 
 RUS  HN ES        750 21.05                             143   -0.2610  104 181 
 RUS  HZ I         750 22.13        11.9 0.28            146            104 181 
 OCA  HZ EP        750  6.78                             130    0.16 9  158 350 
 OCA  HN ES        750 28.59                             130   -0.01 9  158 350 
 OCA  HZ I         750 32.90        19.7 0.16            131            158 350 
 ZAR  HZ EP        750 11.71                             122    0.00 8  211 290 
 ZAR  HE ES        750 37.74                             122    0.09 8  211 290 
 ZAR  HZ I         750 42.29         9.6 0.26            122            211 290 
 NOR  HZ EP        750 14.87                             118   -0.39 8  244 235 
 NOR  HN ES        750 43.30                             118   -0.68 8  244 235 
 NOR  HZ I         750 47.32         5.8 0.14            119            244 235 
 SML  HZ EP        750 15.14                             118   -0.07 8  245 333 
 SML  HN ES        750 42.91                             118   -0.97 8  245 333 
 HEL  HZ EP        750 19.42                             114   -0.38 7  282 256 
 HEL  HN ES        750 52.24                             114    0.18 7  282 256 
 HEL  HZ I         750 57.29         3.3 0.24            115            282 256 
 GUY2CHZ EP        750 23.74                             112    0.55 7  311 235 
 GUY2CHN ES        750 58.45                             112    0.37 7  311 235 
 GUY2CHZ I         751  3.52         4.3 0.32                           311 235 
                                                                                
