 2013  726 0504 19.1 L   6.804 -73.125150.6  RSN  7 0.4 1.8LRSN                1
 GAP=203        0.92       5.9     7.0  7.8  0.1755E+02  0.1270E+01 -0.1283E+02E
 Epicentro: LOS SANTOS - SANTANDER                                             3
 ACTION:UPD 13-08-12 10:40 OP:ep   STATUS:               ID:20130726050419 L   I
 OLDACT:UP  13-07-26 09:59 OP:cam  STATUS:               ID:20130726045959     3
 OLDACT:UP  13-07-26 09:59 OP:cam  STATUS:               ID:20130726045959     3
 OLDACT:REG 13-07-26 08:20 OP:cam  STATUS:               ID:20130726045959     3
 2013-07-26-0459-59M.COL___266                                                 6
 STAT SP IPHASW D HRMM SECON CODA AMPLIT PERI AZIMU VELO AIN AR TRES W  DIS CAZ7
 BAR2 SZ EP   1    5 4 39.26                             171   -0.09 7 24.2 195 
 BAR2 SZ ES        5 4 54.66                             171   -0.4710 24.2 195 
 BAR2 SZ I         5 4 56.16         9.9 0.25            166           24.2 195 
 BRR  HZ EP        5 4 41.11                             153    0.2210 73.0 297 
 BRR  HN ES        5 4 58.60                             153    0.7310 73.0 297 
 BRR  HZ I         5 5  1.01         6.3 0.16            149           73.0 297 
 RUS  HZ EP   1    5 4 43.74                             145    0.37 7  101 177 
 RUS  HN ES   1    5 5  2.31                             145    0.03 7  101 177 
 RUS  HZ I         5 5  4.66         6.5 0.38            144            101 177 
 PTB  HZ EP   2    5 4 46.32                             133   -0.37 5  150 259 
 PTB  HN ES   1    5 5  7.37                             133   -0.82 7  150 259 
 PTB  HZ I         5 5 14.70         7.7 0.40            130            150 259 
 ZAR  HE ES   1    5 5 17.74                             123   -0.05 6  206 292 
 SML  HZ EP   1    5 4 55.91                             118   -0.17 6  244 335 
 SML  HN ES   1    5 5 24.42                             118   -0.49 6  244 335 
 SML  HZ I         5 5 27.12         8.7 0.10            119            244 335 
 HEL  HN ES   2    5 5 32.10                             116    0.52 4  274 256 
                                                                                
