 2016 1026 0501  0.5 L   6.381 -73.631109.2  RSN 28 0.4 2.6LRSN                1
 GAP= 66        1.03       2.3     2.5  4.5 -0.1771E+01  0.2880E+01  0.8281E+00E
 Epicentro: SANTA HELENA DEL OPON - SANTANDER                                  3
 ACTION:UPD 16-11-09 19:22 OP:rebc STATUS:               ID:20161026050100 L   I
 OLDACT:UP  16-10-26 20:19 OP:dani STATUS:               ID:20161026045649     3
 OLDACT:UP  16-10-26 20:14 OP:dani STATUS:               ID:20161026045649     3
 OLDACT:UP  16-10-26 20:13 OP:dani STATUS:               ID:20161026045649     3
 OLDACT:UP  16-10-26 20:13 OP:dani STATUS:               ID:20161026045649     3
 OLDACT:UP  16-10-26 20:12 OP:dani STATUS:               ID:20161026045649     3
 OLDACT:UP  16-10-26 20:12 OP:dani STATUS:               ID:20161026045649     3
 OLDACT:REG 16-10-26 13:14 OP:cog  STATUS:               ID:20161026045649     3
 2016-10-26-0457-00M.COL___328                                                 6
 STAT SP IPHASW D HRMM SECON CODA AMPLIT PERI AZIMU VELO AIN AR TRES W  DIS CAZ7
 BAR2 HZ EP     D  5 1 17.19                             151    0.0610 54.8  65 
 BAR2 HE ES        5 1 30.51                             151    0.4210 54.8  65 
 BRR  HZ EP     C  5 1 18.22                             140   -0.3410 80.7 354 
 BRR  HN ES        5 1 32.43                             140   -0.2110 80.7 354 
 BRR  HZ I         5 1 33.15       103.2 0.18            141           80.7 354 
 RUS  HZ EP     D  5 1 18.99                             140   -0.3010 81.3 132 
 RUS  HE ES        5 1 34.07                             140    0.1410 81.3 132 
 RUS  HZ I         5 1 36.65        46.9 0.64            129           81.3 132 
 PTB  HZ EP   9 D  5 1 18.24                             136   -1.33 0 92.9 281 
 PTB  HN ES        5 1 32.49                             136   -0.6210 92.9 281 
 PTB  HZ I         5 1 35.04       113.1 0.20            132           92.9 281 
 SPBC HZ EP     D  5 1 19.36                             136   -0.4210 94.3 211 
 SPBC HN ES        5 1 33.96                             136   -0.8610 94.3 211 
 SPBC HZ I         5 1 36.44       171.7 0.30            126           94.3 211 
 PAM  HZ EP     C  5 1 25.39                             122   -0.00 9  148  44 
 PAM  EE ES        5 1 44.94                             122    0.13 9  148  44 
 PAM  HZ I         5 1 50.56        58.3 0.54            118            148  44 
 NOR  HZ EP        5 1 25.67                             119   -0.89 9  164 237 
 NOR  HN ES        5 1 47.27                             119    0.40 9  164 237 
 NOR  HZ I         5 1 49.80        66.1 0.42            113            164 237 
 ROSC BZ EP        5 1 30.10                             115    0.66 9  187 204 
 ROSC BE ES   4    5 1 54.33                             115    2.33 0  187 204 
 ROSC BZ I         5 1 59.12        47.9 0.35            109            187 204 
 CHI  HZ EP     C  5 1 30.09                             114   -0.18 9  194 183 
 CHI  HE ES        5 1 53.87                             114    0.39 9  194 183 
 CHI  HZ I         5 1 57.03        55.6 0.26            108            194 183 
 TAM  HZ EP     D  5 1 31.12                             113    0.25 9  204  88 
 TAM  HE ES   4    5 1 53.44                             113   -1.11 0  204  88 
 TAM  HZ I         5 1 57.04        33.9 0.22            108            204  88 
 OCA  HZ EP     C  5 1 31.33                             112   -0.20 8  208  10 
 OCA  HE ES        5 1 56.12                             112    0.39 8  208  10 
 HEL  HZ EP        5 1 31.99                             112   -0.12 8  211 264 
 HEL  HN ES        5 1 56.72                             112   -0.04 8  211 264 
 HEL  HZ I         5 1 59.30        39.5 0.30            108            211 264 
 GUY2CHZ EP     D  5 1 35.10                             110    0.61 8  231 236 
 GUY2CHE ES        5 2  1.74                             110    0.75 8  231 236 
 GUY2CHZ I         5 2  7.88        30.7 0.32                           231 236 
 VIL  HE ES        5 2  5.05                             108    0.66 8  251 182 
 ELA  HZ EP        5 1 38.12                             107    0.39 8  258 229 
 ELA  HE ES   4    5 2  9.19                             107    2.42 0  258 229 
 ELA  HZ I         5 2 15.40        29.3 0.36            104            258 229 
 CBOC HZ EP        5 1 38.37                             106   -0.25 8  270 258 
 CBOC HN ES        5 2  8.31                             106   -0.04 8  270 258 
 CBOC HZ I         5 2  9.91        12.4 0.56            104            270 258 
 ANIL HZ EP        5 1 40.66                             105   -0.12 7  287 223 
 ANIL HE ES   4    5 2 13.86                             105    1.67 0  287 223 
 ANIL HZ I         5 2 17.17        76.9 0.24            102            287 223 
 PTGC HZ EP     C  5 1 40.18                             104   -0.96 7  293 145 
 PTGC HE ES   4    5 2 11.11                             104   -1.72 0  293 145 
 PTGC HZ I         5 2 13.48        24.6 0.16            101            293 145 
 DBB  HZ EP        5 1 41.61                             104    0.29 7  294 284 
 PRA  HZ EP   4    5 1 41.79                             102   -3.34 0  326 205 
 PRA  HN ES   4    5 2 18.09                             102   -1.84 0  326 205 
 ORTC HZ EP        5 1 45.10                             102   -0.10 7  327 213 
 PAL  HZ EP        5 1 46.53                             102    0.19 7  336 241 
 PAL  HE ES   4    5 2 24.03                             102    1.93 0  336 241 
 PAL  HZ I         5 2 26.23         9.7 0.22            100            336 241 
 LL1C HZ EP   4    5 1 49.15                             101    1.29 0  350   1 
 LL1C HN ES   4    5 2 28.53                             101    3.74 0  350   1 
 LL6C HZ EP   4    5 1 30.92                             100   -19.8 0  373   6 
 LL6C HN ES   4    5 2 12.07                             100   -17.8 0  373   6 
 LL6C HZ I         5 2 19.28        14.2 0.40            100            373   6 
 ARGC HZ EP        5 1 53.10                              99    0.33 6  390 350 
 ARGC HN ES   4    5 2 35.19                              99    1.65 0  390 350 
 ARGC HZ I         5 2 47.53        11.5 0.32             99            390 350 
 LCBC HZ EP   4    5 1 53.20                              98   -1.63 0  408 312 
 SJC  HZ EP   4    5 1 54.90                              97   -2.07 0  425 336 
 SJC  HN ES   4    5 2 37.74                              97   -3.26 0  425 336 
 SJC  HZ I         5 2 44.95         8.8 0.48             98            425 336 
 GUA  EZ EP        5 1 57.92                              97   -0.68 5  439 165 
 GUA  EN ES   4    5 2 41.97                              97   -1.95 0  439 165 
 GUA  EZ I         5 2 44.40        19.4 0.27             97            439 165 
 MACC HZ EP   9 D  5 5  1.83                              96   179.5 0  469 183 
 MACC HN ES   2    5 5 49.01                              93   -1.02 2  469 183 
 MACC HZ I         5 5 54.43        11.0 0.50             97            469 183 
 CRJC HZ EP   9    5 2  7.13                              94   -1.40 0  520   9 
 CRJC HN ES        5 2 59.36                              95   -0.83 4  520   9 
 CRJC HZ I         5 3  5.90        20.5 0.21             97            520   9 
 URI  HZ EP   9    5 2 18.12                              93   -1.93 0  615  17 
 URI  HN ES        5 3 19.60                              93   -0.57 3  615  17 
 URI  HZ I         5 3 28.88         3.4 0.42             95            615  17 
                                                                                
