 2014 1226 0823 43.7 L   6.820 -73.104152.4  RSN  7 0.4 1.7LRSN                1
 GAP=208        0.84       3.7     5.8  6.1 -0.3141E+01  0.7850E+01  0.2951E+01E
 Epicentro: LOS SANTOS - SANTANDER                                             3
 ACTION:UPD 15-02-10 17:07 OP:nd   STATUS:               ID:20141226082343 L   I
 OLDACT:UP  14-12-26 18:09 OP:mh   STATUS:               ID:20141226081751     3
 OLDACT:REG 14-12-26 13:07 OP:mh   STATUS:               ID:20141226081751     3
 2014-12-26-0817-51M.COL___280                                                 6
 STAT SP IPHASW D HRMM SECON CODA AMPLIT PERI AZIMU VELO AIN AR TRES W  DIS CAZ7
 BAR2 EZ EP   1    824  3.53                             170   -0.69 7 26.6 199 
 BAR2 EZ ES        824 20.00                             170   -0.2010 26.6 199 
 BAR2 EZ I         824 21.39         6.0 0.11            165           26.6 199 
 BRR  HZ EP        824  6.30                             153    0.5310 74.3 295 
 BRR  HN ES        824 22.91                             153   -0.0510 74.3 295 
 BRR  HZ I         824 28.85         6.2 0.69            148           74.3 295 
 PTB  HZ EP   1    824 11.35                             132   -0.34 7  153 258 
 PTB  HN ES   1    824 33.16                             132   -0.33 7  153 258 
 PTB  HZ I         824 34.59         7.7 0.40            131            153 258 
 OCA  HN ES        824 35.17                             131    0.38 9  159 351 
 SPBC HZ EP        824 13.12                             130   -0.05 9  168 220 
 SPBC HN ES        824 36.53                             130    0.39 9  168 220 
 SPBC HZ I         824 40.89         7.7 0.18            129            168 220 
 ZAR  HZ EP   1    824 16.96                             123   -0.01 6  208 291 
 ZAR  HN ES        824 42.50                             123   -0.39 8  208 291 
 ZAR  HZ I         824 48.76         6.4 0.32            123            208 291 
 NOR  HZ EP        824 20.21                             119   -0.17 8  240 235 
 NOR  HN ES   1    824 49.59                             119    0.62 6  240 235 
 NOR  HZ I         824 57.79         3.6 0.18            119            240 235 
                                                                                
