 2017  226 0434 13.1 L   6.781 -73.137151.1  RSN  5 0.4 1.1LRSN                1
 GAP=138        1.07       5.9     5.7  7.8 -0.3210E+01  0.5052E+01  0.1841E+01E
 Epicentro: LOS SANTOS - SANTANDER                                             3
 ACTION:UPD 17-05-24 15:40 OP:jn   STATUS:               ID:20170226043413 L   I
 OLDACT:DUP 17-02-26 14:12 OP:edw  STATUS:               ID:20170226042743d    3
 OLDACT:DUP 17-02-26 14:06 OP:edw  STATUS:               ID:20170226042742d    3
 OLDACT:UP  17-02-26 14:06 OP:edw  STATUS:               ID:20170226042741     3
 OLDACT:UP  17-02-26 14:05 OP:edw  STATUS:               ID:20170226042741     3
 OLDACT:REG 17-02-26 11:58 OP:lv   STATUS:               ID:20170226042741     3
 2017-02-26-0428-00M.COL___367                                                 6
 STAT SP IPHASW D HRMM SECON CODA AMPLIT PERI AZIMU VELO AIN AR TRES W  DIS CAZ7
 BAR2 EZ EP        434 32.62                             172   -0.7510 21.4 193 
 BAR2 EZ ES        434 48.83                             172   -0.3210 21.4 193 
 BRR  HZ EP        434 35.17                             153    0.2110 73.0 300 
 BRR  HN ES        434 52.64                             153    0.6510 73.0 300 
 PAM  EZ EP        434 36.00                             151    0.0210 78.5  38 
 PAM  EN ES        434 53.67                             151   -0.1310 78.5  38 
 PAM  EZ I         434 55.33         2.4 0.52            152           78.5  38 
 RUS  HZ EP        434 37.68                             145    0.4210 98.4 176 
 RUS  HN ES        434 56.34                             145    0.2610 98.4 176 
 RUS  HZ I         434 56.88         2.2 0.28            147           98.4 176 
 PTB  HZ EP        434 40.60                             133    0.02 9  148 260 
 PTB  HN ES        435  1.54                             133   -0.45 9  148 260 
 PTB  HZ I         435  4.48         1.3 0.14            133            148 260 
                                                                                
