 2016  326 0526  0.7 L   6.848 -73.321124.3  RSN  7 0.4 1.0LRSN                1
 GAP=100        1.04       3.5     4.7  8.0 -0.5286E+01  0.1053E+02 -0.4883E+01E
 Epicentro: ZAPATOCA - SANTANDER                                               3
 ACTION:UPD 16-05-13 21:27 OP:cam  STATUS:               ID:20160326052600 L   I
 OLDACT:REG 16-03-26 12:55 OP:ak   STATUS:               ID:20160326051747     3
 2016-03-26-0517-47M.COL___292                                                 6
 STAT SP IPHASW D HRMM SECON CODA AMPLIT PERI AZIMU VELO AIN AR TRES W  DIS CAZ7
 BAR2 EZ IP        526 18.12                             165    0.1610 32.2 151 
 BAR2 EZ ES        526 31.43                             165   -0.0310 32.2 151 
 PAM  EZ EP        526 21.67                             143    0.3110 87.6  52 
 PAM  EE ES        526 37.95                             143    0.4410 87.6  52 
 PAM  EZ I         526 39.92         1.2 0.18            146           87.6  52 
 RUS  HZ EP        526 23.40                             136    0.3610  109 166 
 RUS  HE ES        526 39.79                             136   -0.7210  109 166 
 RUS  HZ I         526 41.72         0.9 0.20            140            109 166 
 PTB  HZ EP   2    526 23.26                             130   -1.01 5  130 255 
 PTB  HN ES        526 43.04                             130    0.3410  130 255 
 PTB  HZ I         526 46.01         1.2 0.20            131            130 255 
 OCA  HZ EP        526 26.35                             125   -0.40 9  154   0 
 OCA  HN ES        526 46.53                             125   -0.57 9  154   0 
 OCA  HZ I         526 52.35         3.5 0.42            127            154   0 
 SPBC HZ EP        526 27.24                             125    0.34 9  156 212 
 SPBC HE ES        526 47.14                             125   -0.22 9  156 212 
 SPBC HZ I         526 53.35         1.6 0.28            127            156 212 
 ZAR  HE ES   2    526 52.86                             120    0.57 4  184 293 
                                                                                
