 2012  726 0533 57.7 L   6.642 -73.183151.2  RSN  4 0.4 1.2LRSN                1
 GAP=227        0.70      11.8     8.5  8.9 -0.9840E+01  0.4634E+01  0.2446E+02E
 Epicentro: BARICHARA - SANTANDER                                              3
 ACTION:UPD 12-08-14 11:45 OP:ep   STATUS:               ID:20120726053357 L   I
 2012-07-26-0530-00M.COL___215                                                 6
 STAT SP IPHASW D HRMM SECON CODA AMPLIT PERI AZIMU VELO AIN AR TRES W  DIS CAZ7
 BAR2 SZ ES   2    534 32.89                             178    -0.5 5    5 179 
 BRR  HZ EP        534 19.72                             151    -0.110   78 311 
 BRR  HZ I         534 22.03         3.5 0.12            150             78 311 
 BRR  HN ES   1    534 37.41                             151     0.4 7   78 311 
 PTB  HZ EP        534 24.64                             135     0.1 9  141 265 
 PTB  HN ES   1    534 45.44                             135     0.0 7  141 265 
 PTB  HZ I         534 51.70         1.7 0.17            131            141 265 
 ZAR  HN ES   2    534 55.85                             123    -0.8 4  208 297 
