 2016  326 0639  9.3 L   6.808 -73.112140.0  RSN  5 0.4 1.1LRSN                1
 GAP=247        0.85       5.9     5.9  7.8  0.1249E+02  0.1567E+02 -0.5839E+01E
 Epicentro: LOS SANTOS - SANTANDER                                             3
 ACTION:UPD 16-05-13 21:27 OP:cam  STATUS:               ID:20160326063909 L   I
 OLDACT:REG 16-03-26 13:00 OP:ak   STATUS:               ID:20160326063745     3
 2016-03-26-0637-45M.COL___292                                                 6
 STAT SP IPHASW D HRMM SECON CODA AMPLIT PERI AZIMU VELO AIN AR TRES W  DIS CAZ7
 BAR2 EZ EP        639 28.38                             169    0.1310 25.0 198 
 BAR2 EZ ES        639 43.06                             169    0.0110 25.0 198 
 RUS  HN ES        639 50.56                             142   -0.0810  101 178 
 PTB  HZ EP        639 35.44                             130   -0.69 9  152 259 
 PTB  HE ES        639 56.73                             130   -0.35 9  152 259 
 PTB  HZ I         639 58.25         1.1 0.13            128            152 259 
 SPBC HZ EP        639 37.73                             127    0.10 9  166 220 
 SPBC HE ES        640  0.15                             127    0.41 9  166 220 
 SPBC HZ I         640  4.24         1.7 0.14            126            166 220 
 ZAR  HZ EP   2    639 42.47                             121    0.79 4  207 292 
 ZAR  HN ES        640  7.32                             121    0.37 8  207 292 
 ZAR  HZ I         640 12.91         1.8 0.24            120            207 292 
                                                                                
