 2016  226 0845 20.9 L   6.787 -73.131146.2  RSN 13 0.5 1.9LRSN                1
 GAP=121        1.04       3.2     3.9  5.7 -0.2815E+01  0.7353E+01  0.1013E+01E
 Epicentro: LOS SANTOS - SANTANDER                                             3
 ACTION:UPD 16-03-04 21:29 OP:rebc STATUS:               ID:20160226084520 L   I
 OLDACT:UP  16-02-26 18:54 OP:mh   STATUS:               ID:20160226083749     3
 OLDACT:UP  16-02-26 18:51 OP:mh   STATUS:               ID:20160226083749     3
 OLDACT:REG 16-02-26 13:18 OP:mh   STATUS:               ID:20160226083749     3
 2016-02-26-0837-49M.COL___303                                                 6
 STAT SP IPHASW D HRMM SECON CODA AMPLIT PERI AZIMU VELO AIN AR TRES W  DIS CAZ7
 BAR2 EZ EP        845 40.63                             171    0.0710 22.3 195 
 BAR2 EZ ES        845 55.63                             171   -0.2710 22.3 195 
 BAR2 EZ I         845 58.90         8.8 0.24            170           22.3 195 
 PAM  EZ EP        845 43.38                             151    0.2210 77.5  38 
 PAM  EN ES        846  0.56                             151    0.0310 77.5  38 
 PAM  EZ I         846  2.74         5.3 0.60            151           77.5  38 
 RUS  HZ EP     D  845 44.62                             144    0.0410 99.1 177 
 RUS  HN ES        846  3.40                             144    0.3410 99.1 177 
 RUS  HZ I         846  3.90         7.4 0.30            143           99.1 177 
 PTB  HZ EP        845 47.15                             132   -0.87 9  149 259 
 PTB  HN ES        846  8.79                             132   -0.38 9  149 259 
 PTB  HZ I         846 10.33        11.9 0.16            131            149 259 
 OCA  HZ EP        845 49.60                             129    0.21 9  162 353 
 OCA  HN ES        846 11.67                             129    0.05 9  162 353 
 OCA  HZ I         846 14.65        16.2 0.16            129            162 353 
 SPBC HZ EP        845 49.43                             129    0.01 9  163 220 
 SPBC HN ES        846 12.04                             129    0.37 9  163 220 
 SPBC HZ I         846 16.53        10.6 0.24            128            163 220 
 ZAR  HZ EP        845 53.04                             122   -0.54 8  206 292 
 ZAR  HN ES        846 19.43                             122    0.36 8  206 292 
 ZAR  HZ I         846 24.28        12.1 0.42            122            206 292 
 NOR  HZ EP        845 56.78                             118    0.08 8  235 235 
 NOR  HN ES        846 23.93                             118   -0.70 8  235 235 
 NOR  HZ I         846 28.49         5.8 0.20            118            235 235 
 URE  HZ EP   4    846  0.50                             113   -1.71 0  286 292 
 URE  HN ES   4    846 32.43                             113   -2.01 0  286 292 
 URE  HZ I         846 36.25         5.5 0.14            113            286 292 
 GUY2CHZ EP        846  5.68                             112    1.10 7  302 235 
 GUY2CHN ES   4    846 41.36                             112    2.71 0  302 235 
 GUY2CHZ I         846 46.30         3.4 0.28                           302 235 
 PTGC HZ EP        846  3.61                             112   -0.94 7  307 159 
 PTGC HZ I         846 16.54         6.4 0.56            111            307 159 
 PTGC HN ES   4    846 36.65                             112   -1.96 0  307 159 
 CBOC HZ EP        846  8.52                             110    0.57 7  335 252 
 CBOC HN ES        846 44.91                             110    0.25 7  335 252 
 CBOC HZ I         846 45.85         1.2 0.60            109            335 252 
 ORTC HZ EP   1    846 14.71                             106   -0.09 4  395 216 
 ORTC HN ES        846 57.47                             106    0.62 6  395 216 
 ORTC HZ I         847  3.89         2.0 0.66            106            395 216 
                                                                                
