 2011  626 0620 56.4 L   6.774 -73.114154.5  RSN  9 0.2 2.3LRSN                1
 GAP=142        0.61       3.8     7.1  4.5 -0.5535E+01 -0.1047E+02 -0.1329E+00E
 Epicentro: LOS SANTOS - SANTANDER                                             3
 ACTION:UP  11-07-14 19:08 OP:ep   STATUS:               ID:20110626062056 L   I
 2011-06-26-0618-56S.COL___140                                                 6
 STAT SP IPHASW D HRMM SECON CODA AMPLIT PERI AZIMU VELO SNR AR TRES W  DIS CAZ7
 BAR2 SZ EP        621 17.04                             172    -0.110   21 201 
 BAR2 SZ ES   1    621 32.96                             172    -0.2 7   21 201 
 BAR2 SZ I         621 33.30        33.9 0.42                            21 201 
 BTL  SZ EP        621 17.31                             171     0.210   23 313 
 BTL  SZ ES   1    621 33.16                             171    -0.1 7   23 313 
 GIR2 SZ EP        621 17.08                             167    -0.210   35 345 
 GIR2 SZ ES   1    621 33.55                             167     0.1 7   35 345 
 BRR  HZ EP        621 18.92                             153     0.110   76 299 
 BRR  HZ I         621 19.18        50.9 0.16                            76 299 
 BRR  HN ES   1    621 36.46                             153     0.2 7   76 299 
 PAM  SZ EP   2    621 19.89                             152     0.3 5   78  36 
 RUS  HZ EP        621 20.85                             146     0.010   98 178 
 BRI  SZ EP        621 21.58                             143     0.310  110  19 
 GRA  SZ EP        621 22.75                             138     0.110  128  16 
 GRA  SZ I         621 23.97        18.3 0.33                           128  16 
 GRA  SZ ES   1    621 43.00                             138     0.0 7  128  16 
 OCA  SZ EP        621 25.19                             131    -0.6 9  164 352 
                                                                                
