 2015  226 0329 28.4 L   6.813 -73.161142.0  RSN 10 0.5 1.9LRSN                1
 GAP=134        1.23       3.5     6.4  7.4 -0.1670E+01  0.8497E+01  0.1678E+01E
 Epicentro: LOS SANTOS - SANTANDER                                             3
 ACTION:UPD 15-04-30 21:29 OP:nd   STATUS:               ID:20150226032928 L   I
 OLDACT:UP  15-02-26 17:13 OP:mh   STATUS:               ID:20150226032747     3
 OLDACT:REG 15-02-26 12:37 OP:mher STATUS:               ID:20150226032747     3
 2015-02-26-0327-47M.COL___297                                                 6
 STAT SP IPHASW D HRMM SECON CODA AMPLIT PERI AZIMU VELO AIN AR TRES W  DIS CAZ7
 BAR2 EZ EP        329 47.78                             170    0.1410 24.6 186 
 BAR2 EZ ES   1    330  2.14                             170   -0.48 7 24.6 186 
 BAR2 EZ I         330  4.35        16.5 0.20            167           24.6 186 
 BRR  HZ EP        329 49.61                             153    0.5510 69.0 298 
 BRR  HN ES        330  6.04                             153    0.9010 69.0 298 
 BRR  HZ I         330  7.52         9.8 0.20            149           69.0 298 
 PAM  SZ EP        329 50.74                             150    0.4910 77.3  41 
 PAM  SN ES        330  7.34                             150    0.0810 77.3  41 
 PAM  SZ I         330  9.74        17.6 0.50            155           77.3  41 
 RUS  HZ EP        329 51.82                             143   -0.1210  102 175 
 RUS  HN ES   1    330 10.17                             143   -0.10 7  102 175 
 RUS  HZ I         330 11.41         9.3 0.28            144            102 175 
 OCA  HZ EP        329 55.69                             129   -0.61 9  159 354 
 OCA  HN ES        330 17.29                             129   -0.74 9  159 354 
 OCA  HZ I         330 23.07         5.8 0.12            130            159 354 
 SPBC HZ EP        329 57.14                             128    0.48 9  163 218 
 SPBC HN ES        330 17.74                             128   -0.94 9  163 218 
 SPBC HZ I         330 27.31        11.2 0.36            128            163 218 
 ZAR  HN ES   1    330 25.20                             122   -0.17 6  202 292 
 SML  HZ EP        330  4.05                             117   -0.58 8  242 335 
 SML  HN ES        330 33.00                             117    0.13 8  242 335 
 SML  HZ I         330 39.67        10.5 0.10            118            242 335 
 CHI  HZ EP        330  6.05                             116    0.01 8  250 195 
 CHI  HN ES   1    330 35.18                             116   -0.19 6  250 195 
 CHI  HZ I         330 38.33         5.5 0.60            117            250 195 
 RREF HZ EP   1    330 15.20                             110    0.81 5  321 229 
 RREF HN ES   4    330 52.34                             110    2.11 0  321 229 
 RREF HZ I         330 59.58         5.7 0.40            110            321 229 
                                                                                
