 2016  526 0737 31.0 L   6.849 -73.369122.6  RSN  6 0.4 1.2LRSN                1
 GAP=107        1.10       5.3     4.9  8.3 -0.1204E+01  0.9545E+01  0.1253E+02E
 Epicentro: SAN VICENTE DE CHUCURI - SANTANDER                                 3
 ACTION:UPD 16-08-18 17:49 OP:cam  STATUS:               ID:20160526073731 L   I
 OLDACT:UP  16-05-26 18:21 OP:*PRA STATUS:               ID:20160526072750d    3
 OLDACT:DUP 16-05-26 18:17 OP:*PRA STATUS:               ID:20160526072750d    3
 2016-05-26-0727-48M.COL___307                                                 6
 STAT SP IPHASW D HRMM SECON CODA AMPLIT PERI AZIMU VELO AIN AR TRES W  DIS CAZ7
 BAR2 EZ EP        737 48.35                             163    0.1710 35.1 144 
 BAR2 EZ ES        738  1.64                             163    0.0410 35.1 144 
 BRR  HZ EP        737 48.60                             157    0.2610 47.4 307 
 BRR  HN ES        738  2.36                             157    0.4810 47.4 307 
 BRR  HZ I         738  5.72         3.5 0.50            161           47.4 307 
 PAM  EN ES        738  7.74                             141   -0.3610 91.8  54 
 PAM  EZ I         738 10.44         4.2 0.26            149           91.8  54 
 RUS  HZ EP        737 52.95                             136   -0.4010  110 163 
 RUS  HN ES        738 10.81                             136    0.0210  110 163 
 RUS  HZ I         738 16.34         1.3 0.32            138            110 163 
 PTB  HZ EP        737 53.50                             131   -0.4910  125 254 
 PTB  HN ES        738 11.43                             131   -0.5110  125 254 
 PTB  HZ I         738 15.34         3.8 0.38            134            125 254 
 SPBC HZ EP        737 57.77                             125    0.94 9  153 210 
 SPBC HN ES   1    738 16.84                             125   -0.16 7  153 210 
 SPBC HZ I         738 24.44         3.0 0.20            128            153 210 
                                                                                
