 2011  126 0039 10.4 L   6.807 -73.135136.5  RSN  9 0.4 2.4LRSN                1
 GAP=127        0.72       3.7     7.9  7.7 -0.1296E+02  0.1227E+02 -0.8150E+01E
 Epicentro: LOS SANTOS - SANTANDER                                             3
 ACTION:UP  11-02-08 08:42 OP:pat  STATUS:               ID:20110126003910 L   I
 2011-01-26-0037-06S.COL___138                                                 6
 STAT SP IPHASW D HRMM SECON CODA AMPLIT PERI AZIMU VELO SNR AR TRES W  DIS CAZ7
 BAR2 SZ IP     D  039 29.18                             169     0.210   24 193 
 BAR2 SZ I         039 29.75        53.6 0.37                            24 193 
 BAR2 SZ ES   2    039 43.14                             169    -0.3 5   24 193 
 GIR2 SZ EP        039 29.21                             167     0.210   31 348 
 GIR2 SZ I         039 29.73      2781.1 0.13                            31 348 
 RUS  HZ EP   1    039 33.31                             142     0.0 7  101 177 
 RUS  HN ES   1    039 51.03                             142    -0.2 7  101 177 
 RUS  HZ I         039 53.59        18.8 0.28                           101 177 
 GRA  SZ IP     C  039 35.03                             135     0.310  125  17 
 GRA  SZ ES   2    039 53.77                             135     0.0 5  125  17 
 GRA  SZ I         039 56.54        23.4 0.32                           125  17 
 OCA  SZ EP   1    039 37.68                             128    -0.3 7  160 353 
 OCA  SZ ES   2    039 58.96                             128    -0.5 5  160 353 
 OCA  SZ I         040  2.55        18.6 0.42                           160 353 
 NOR  SZ EP   2    039 45.85                             116     0.0 4  236 235 
 NOR  SN ES   2    040 12.72                             116    -0.7 4  236 235 
 CHI  HZ EP   2    039 48.07                             115     0.3 4  250 195 
 CHI  HE ES   2    040 16.49                             115    -0.4 4  250 195 
 CHI  HZ I         040 24.64         5.4 0.52                           250 195 
 HEL  HZ EP   2    039 50.70                             113     0.4 4  273 256 
 HEL  HZ I         040 27.63         9.6 0.48                           273 256 
 SDV  BZ EP   1    039 58.95                             107    -1.0 5  359  50 
 SDV  BZ I         039 59.72         4.2 0.39                           359  50 
                                                                                
