 2015  626 0021 38.8 L   6.444 -73.657100.2  RSN  5 0.3 1.7LRSN                1
 GAP=100        0.83       3.6     4.3  9.3  0.2202E+01  0.2706E+02  0.7890E+01E
 Epicentro: SANTA HELENA DEL OPON - SANTANDER                                  3
 ACTION:UPD 15-09-10 22:15 OP:cam  STATUS:               ID:20150626002138 L   I
 OLDACT:UP  15-06-26 13:57 OP:mh   STATUS:               ID:20150626001749     3
 OLDACT:REG 15-06-26 12:57 OP:mh   STATUS:               ID:20150626001749     3
 2015-06-26-0017-49M.COL___331                                                 6
 STAT SP IPHASW D HRMM SECON CODA AMPLIT PERI AZIMU VELO AIN AR TRES W  DIS CAZ7
 BAR2 EZ EP        021 54.84                             149    0.3110 55.0  73 
 BAR2 EZ ES        022  6.82                             149    0.0610 55.0  73 
 BAR2 EZ I         022  8.69        32.8 0.36            159           55.0  73 
 BRR  HZ EP        021 55.17                             141   -0.3310 73.6 355 
 BRR  HN ES        022  8.14                             141   -0.3510 73.6 355 
 BRR  HZ I         022 44.90         9.5 0.36            144           73.6 355 
 RUS  HN ES   1    022 11.96                             136    0.16 7 88.1 134 
 RUS  HZ I         022 13.99         7.2 0.34            165           88.1 134 
 NOR  HZ EP        022  4.59                             117    0.03 9  166 234 
 NOR  HE ES        022 24.43                             117   -0.18 9  166 234 
 NOR  HZ I         022 27.64         4.7 0.12            134            166 234 
 ZAR  HZ EP   1    022  5.20                             115   -0.46 7  176 311 
 ZAR  HN ES        022 27.26                             115    0.69 9  176 311 
 ZAR  HZ I         022 29.94        10.0 0.22            126            176 311 
                                                                                
