 2012  526 0034 33.4 L   7.447 -73.288119.5  RSN  8 0.3 1.9LRSN                1
 GAP=103        0.75       3.3     3.9  6.9  0.1012E+01  0.1297E+02  0.3045E+01E
 Epicentro: EL PLAYON - SANTANDER                                              3
 ACTION:UP  12-07-05 12:08 OP:pat  STATUS:               ID:20120526003433 L   I
 2012-05-26-0030-00M.COL___197                                                 6
 STAT SP IPHASW D HRMM SECON CODA AMPLIT PERI AZIMU VELO SNR AR TRES W  DIS CAZ7
 PAM  SZ EP        034 52.19                             149     0.010   66 100 
 PAM  SE ES   1    035  7.28                             149     0.5 7   66 100 
 OCA  HZ EP   1    034 52.99                             141    -0.2 7   88 358 
 OCA  HN ES   1    035  8.16                             141    -0.5 7   88 358 
 BAR2 SZ EP        034 53.97                             139     0.110   95 173 
 BAR2 SZ ES        035  9.90                             139     0.010   95 173 
 BAR2 SZ I         035 10.94        50.0 0.18                            95 173 
 PTB  HZ EP        034 59.61                             122    -0.4 9  163 232 
 PTB  HE ES   1    035 20.52                             122    -0.2 7  163 232 
 ZAR  HZ EP   1    035  1.73                             120     0.7 7  173 272 
 ZAR  HE ES   1    035 22.82                             120     0.3 7  173 272 
 RUS  HZ EP   1    035  1.79                             121     0.2 7  173 172 
 RUS  HE ES   1    035 23.17                             121    -0.5 7  173 172 
 RUS  HZ I         035 26.06         3.0 0.29                           173 172 
 ZAR  HZ I         035 31.29         9.6 0.40                           173 272 
 NOR  SZ EP   1    035 12.10                             109     0.1 6  272 220 
 HEL  HZ EP   1    035 13.81                             108     0.0 6  284 241 
 HEL  HZ I         035 54.61         4.1 0.50                           284 241 
                                                                                
