 2013  526 0715 20.9 L   7.315 -74.315  4.0  RSN  8 0.5 2.3LRSN                1
 GAP= 81        1.04       2.3     2.4  5.6 -0.6095E+00  0.7639E+00  0.4601E+00E
 Epicentro: PUERTO WILCHES - SANTANDER                                         3
 ACTION:UPD 13-06-20 09:53 OP:ep   STATUS:               ID:20130526071520 L   I
 2013-05-26-0710-00M.COL___261                                                 6
 STAT SP IPHASW D HRMM SECON CODA AMPLIT PERI AZIMU VELO AIN AR TRES W  DIS CAZ7
 ZAR  HZ EP     C  715 31.51                              47    0.4210 63.0 288 
 ZAR  HN ES   1    715 39.23                              47    0.22 7 63.0 288 
 ZAR  HN I         715 40.71       193.4 0.12             47           63.0 288 
 BRR  HZ IP     C  715 32.32                              47    0.1110 70.5 109 
 BRR  HN ES   1    715 40.87                              47   -0.14 7 70.5 109 
 BRR  HN I         715 41.92        67.9 0.16             47           70.5 109 
 PTB  HZ EP        715 34.78                              47    0.0210 87.2 190 
 PTB  HN ES        715 44.75                              47   -0.7810 87.2 190 
 PTB  HZ I         715 44.94        47.2 0.40             47           87.2 190 
 URE  HZ EP   4    715 43.65                              47    0.47 0  143 290 
 URE  HN ES   4    715 59.93                              47   -0.60 0  143 290 
 BAR2 SZ EP   1    715 45.12                              47    0.83 7  149 122 
 OCA  HZ EP   1    715 43.97                              47   -0.46 7  150  47 
 OCA  HN ES   1    716  3.01                              47    0.27 7  150  47 
 OCA  HN I         716  5.57        70.0 0.16             47            150  47 
 SML  HN ES        716  6.24                              47   -0.66 9  167   9 
 SML  HN I         716  7.89        78.7 0.10             47            167   9 
 HEL  HZ IP     D  715 49.67                              37    0.17 9  183 227 
 HEL  HE ES        716 11.79                              37    0.01 9  183 227 
 HEL  HE I         716 12.96        18.2 0.40             47            183 227 
 NOR  HZ EP   4    715 48.94                              37   -2.72 0  203 198 
 RUS  HZ EP   4    715 54.31                              37    1.51 0  208 139 
 RUS  HN ES   1    716 18.37                              37    0.71 6  208 139 
 RUS  HN I         716 19.80        52.1 0.34             37            208 139 
                                                                                
