 2016  126 0858 52.4 L   6.798 -73.111141.3  RSN  7 0.4 1.5LRSN                1
 GAP=204        1.05       3.8     6.1  7.0  0.6758E+00  0.1097E+02 -0.3761E+01E
 Epicentro: LOS SANTOS - SANTANDER                                             3
 ACTION:UPD 16-03-09 23:28 OP:cam  STATUS:               ID:20160126085852 L   I
 OLDACT:UP  16-01-26 19:45 OP:ak   STATUS:               ID:20160126085747     3
 OLDACT:REG 16-01-26 15:48 OP:cara STATUS:               ID:20160126085747     3
 2016-01-26-0857-47M.COL___327                                                 6
 STAT SP IPHASW D HRMM SECON CODA AMPLIT PERI AZIMU VELO AIN AR TRES W  DIS CAZ7
 BAR2 EZ EP        859 11.83                             170    0.3610 24.1 199 
 BAR2 EZ ES        859 27.12                             170    0.7510 24.1 199 
 BAR2 EZ I         859 28.23         4.2 0.22            166           24.1 199 
 RUS  HZ EP        859 15.28                             143   -0.3610  100 178 
 RUS  HE ES        859 33.21                             143   -0.6010  100 178 
 RUS  HZ I         859 36.07         3.6 0.28            144            100 178 
 PTB  HZ EP        859 18.94                             130   -0.37 9  151 259 
 PTB  HN ES        859 39.70                             130   -0.62 9  151 259 
 PTB  HZ I         859 45.81         2.9 0.46            130            151 259 
 SPBC HZ EP        859 20.82                             128    0.09 9  165 220 
 SPBC HN ES        859 42.91                             128    0.04 9  165 220 
 SPBC HZ I         859 49.85         5.6 0.32            128            165 220 
 SML  HZ EP        859 28.80                             116   -0.13 8  246 335 
 SML  HN ES        859 57.43                             116   -0.03 8  246 335 
 SML  HZ I         9 0  1.10         6.0 0.10            118            246 335 
 CHI  HZ EP        859 30.13                             116    0.23 8  249 196 
 CHI  HE ES        859 59.04                             116   -0.15 8  249 196 
 CHI  HZ I         9 0  5.17         0.9 0.25            117            249 196 
 GUY2CHZ EP        859 36.73                             111    0.63 7  304 235 
 GUY2CHN ES        9 0 10.88                             111    0.66 7  304 235 
 GUY2CHZ I         9 0 18.18         1.8 0.28                           304 235 
                                                                                
