 2010  926 0512  3.9 L   6.843 -73.053152.7  RSN  4 0.4 1.4LRSN                1
 GAP=250        0.64       8.3    17.4 10.0  0.6736E+02 -0.8537E+01  0.1712E+02E
 Epicentro: LOS SANTOS - SANTANDER                                             3
 ACTION:UP  11-02-18 11:05 OP:tino STATUS:               ID:20100926051203 L   I
 2010-09-26-0510-26S.COL___122                                                 6
 STAT SP IPHASW D HRMM SECON CODA AMPLIT PERI AZIMU VELO SNR AR TRES W  DIS CAZ7
 BAR2 SZ EP   2    512 24.39                             168    -0.1 5   31 208 
 BAR2 SZ I         512 29.64         5.0 0.70                            31 208 
 BAR2 SZ ES   2    512 40.04                             168    -0.6 5   31 208 
 BRR  HZ EP   2    512 26.45                             151     0.2 5   79 292 
 BRR  HE ES   2    512 43.75                             151     0.1 5   79 292 
 BRR  HZ I         512 47.91         8.8 0.43                            79 292 
 RUS  HZ EP   2    512 28.48                             144    -0.2 5  105 182 
 RUS  HN ES   2    512 48.75                             144     0.8 5  105 182 
 CHI  HZ EP   2    512 42.78                             118     0.0 4  256 197 
 CHI  HE ES   2    513 12.70                             118    -0.4 4  256 197 
 CHI  HZ I         513 20.78         1.1 0.23                           256 197 
                                                                                
