 2017  226 0102 56.4 L   6.790 -73.179146.8  RSN  6 0.4 1.0LRSN                1
 GAP=133        0.97       5.2     4.8  7.3 -0.1099E+01  0.5733E+01  0.8049E+00E
 Epicentro: LOS SANTOS - SANTANDER                                             3
 ACTION:UPD 17-05-24 15:40 OP:jn   STATUS:               ID:20170226010256 L   I
 OLDACT:UP  17-02-26 12:45 OP:edw  STATUS:               ID:20170226005741     3
 OLDACT:REG 17-02-26 11:47 OP:lv   STATUS:               ID:20170226005741     3
 2017-02-26-0058-00M.COL___382                                                 6
 STAT SP IPHASW D HRMM SECON CODA AMPLIT PERI AZIMU VELO AIN AR TRES W  DIS CAZ7
 BAR2 EZ ES        1 3 31.41                             171   -0.1010 21.9 181 
 BAR2 EZ I         1 3 32.69         2.8 0.30            170           21.9 181 
 BRR  HZ EP        1 3 17.76                             154    0.2510 68.5 301 
 BRR  HN ES        1 3 34.43                             154    0.4510 68.5 301 
 PAM  EZ IP     C  1 3 18.81                             150   -0.1010 80.6  41 
 PAM  EN ES        1 3 36.18                             150   -0.3010 80.6  41 
 RUS  HZ EP        1 3 20.36                             144    0.1710 99.8 174 
 RUS  HN ES        1 3 38.99                             144    0.2310 99.8 174 
 RUS  HZ I         1 3 39.66         0.7 0.58            144           99.8 174 
 PTB  HZ EP        1 3 22.90                             133   -0.20 9  144 259 
 PTB  HN ES        1 3 43.18                             133   -0.75 9  144 259 
 PTB  HZ I         1 3 46.26         1.8 0.30            133            144 259 
 ZAR  HN ES   2    1 3 55.02                             123    1.30 4  201 293 
                                                                                
