 2016  926 0836  1.1 L   6.817 -73.138147.3  RSN 11 0.8 2.0LRSN                1
 GAP=137        1.78       5.3     6.9  9.8 -0.3779E+01  0.1598E+02  0.5052E+01E
 Epicentro: LOS SANTOS - SANTANDER                                             3
 ACTION:UPD 17-08-17 21:16 OP:lp   STATUS:               ID:20160926083601 L   I
 OLDACT:DUP 16-09-26 18:57 OP:dani STATUS:               ID:20160926082747d    3
 OLDACT:UP  16-09-26 18:55 OP:dani STATUS:               ID:20160926082746     3
 OLDACT:REG 16-09-26 13:40 OP:dani STATUS:               ID:20160926082746     3
 2016-09-26-0828-00M.COL___327                                                 6
 STAT SP IPHASW D HRMM SECON CODA AMPLIT PERI AZIMU VELO AIN AR TRES W  DIS CAZ7
 BAR2 EZ EP     D  836 20.91                             170   -0.0610 25.3 191 
 BAR2 HN ES        836 36.12                             170   -0.3410 25.3 191 
 BAR2 EZ I         836 36.93        18.1 0.44            166           25.3 191 
 BRR  HZ EP        836 22.76                             153    0.3410 71.1 297 
 BRR  HE ES        836 39.45                             153    0.4010 71.1 297 
 BRR  HZ I         836 42.94        20.5 0.26            147           71.1 297 
 PAM  EZ EP        836 24.01                             151    0.6310 75.4  40 
 PAM  EE ES        836 41.20                             151    0.4610 75.4  40 
 PAM  EZ I         836 43.84        11.6 0.58            151           75.4  40 
 RUS  HZ EP        836 24.94                             143   -0.2110  102 177 
 RUS  HE ES        836 43.82                             143   -0.0710  102 177 
 RUS  HZ I         836 45.74         7.0 0.24            139            102 177 
 PTB  HZ EP        836 27.65                             132   -0.67 9  149 258 
 PTB  HE ES        836 48.43                             132   -1.11 9  149 258 
 PTB  HZ I         836 53.84        12.2 0.46            126            149 258 
 OCA  HZ EP        836 29.19                             130   -0.19 9  159 353 
 OCA  HE ES        836 51.41                             130   -0.02 9  159 353 
 OCA  HZ I         836 56.49        24.1 0.42            126            159 353 
 SPBC HZ EP        836 29.84                             129   -0.08 9  165 219 
 SPBC HN ES        836 52.34                             129   -0.05 9  165 219 
 SPBC HZ I         836 57.89        15.8 0.42            124            165 219 
 ZAR  HZ EP        836 33.09                             123   -0.58 9  204 292 
 ZAR  HE ES        836 58.05                             123   -1.02 9  204 292 
 ZAR  HZ I         837  3.80        10.8 0.24            118            204 292 
 NOR  HZ EP        836 37.32                             119    0.20 8  236 234 
 NOR  HZ I         837 10.26         8.1 0.44            114            236 234 
 CHI  HZ EP        836 39.11                             117   -0.01 8  251 195 
 CHI  HE ES        837  8.78                             117    0.02 8  251 195 
 CHI  HZ I         837 14.87         4.8 0.27            113            251 195 
 HEL  HE ES        837 16.08                             115    2.99 8  273 255 
 HEL  HZ I         837 19.66         7.7 0.44            111            273 255 
                                                                                
