 2017  926 0631 55.7 L   6.782 -73.133144.3  RSN  8 0.3 1.4LRSN                1
 GAP=139        0.85       3.2     4.0  5.4  0.4657E+00  0.7770E+01  0.4036E+01E
 Epicentro: LOS SANTOS - SANTANDER                                             3
 ACTION:UPD 17-10-05 19:16 OP:rebc STATUS:               ID:20170926063155 L   I
 OLDACT:DUP 17-09-26 17:16 OP:osc  STATUS:               ID:20170926062733d    3
 2017-09-26-0628-00M.COL___438                                                 6
 STAT SP IPHASW D HRMM SECON CODA AMPLIT PERI AZIMU VELO AIN AR TRES W  DIS CAZ7
 BAR2 EZ EP        632 15.32                             171    0.2210 21.7 194 
 BAR2 EZ ES        632 30.70                             171    0.4510 21.7 194 
 BAR2 EZ I         632 32.04         6.5 0.16            170           21.7 194 
 BRR  HZ EP        632 16.23                             152   -0.5610 73.3 299 
 BRR  HE ES        632 33.22                             152   -0.0410 73.3 299 
 BRR  HZ I         632 39.19         4.1 0.16            152           73.3 299 
 PAM  EZ EP        632 17.54                             150   -0.2410 78.1  38 
 PAM  EN ES        632 34.97                             150   -0.0510 78.1  38 
 PAM  EZ I         632 37.61         4.3 0.48            154           78.1  38 
 RUS  HZ EP        632 19.62                             144    0.4910 98.5 177 
 RUS  HE ES        632 36.95                             144   -0.4810 98.5 177 
 RUS  HZ I         632 39.34         4.7 0.34            147           98.5 177 
 ZAR  HZ EP        632 28.57                             122    0.34 8  206 293 
 ZAR  HE ES        632 53.69                             122    0.06 8  206 293 
 ZAR  HZ I         632 57.59         3.0 0.33            124            206 293 
 NOR  HE ES   2    632 59.29                             118    0.17 4  235 235 
 CHI  HZ EP        632 32.86                             117   -0.26 8  247 196 
 CHI  HN ES        633  2.52                             117    0.19 8  247 196 
 CHI  HZ I         633  7.29         1.0 0.16            119            247 196 
 GUY2CHZ EP        632 39.57                             112    0.36 7  301 235 
 GUY2CHE ES        633 12.67                             112   -0.50 7  301 235 
 GUY2CHZ I         633 25.67         1.3 0.42                           301 235 
                                                                                
