 2011  726 0531  2.9 L   6.775 -73.083146.9  RSN 16 0.3 3.0LRSN                1
 GAP=146        0.46       2.0     2.9  2.7 -0.2192E+01  0.1215E+01  0.1526E+01E
 Epicentro: LOS SANTOS - SANTANDER                                             3
 ACTION:UPD 12-07-25 14:03 OP:epov STATUS:               ID:20110726053102 L   I
 2011-07-26-0529-29S.COL___141                                                 6
 STAT SP IPHASW D HRMM SECON CODA AMPLIT PERI AZIMU VELO AIN AR TRES W  DIS CAZ7
 BAR2 SZ IP        531 22.56                             171   -0.0610 23.0 209 
 BAR2 SZ ES   1    531 37.85                             171   -0.18 7 23.0 209 
 BAR2 SZ I         531 38.87       271.5 0.44                          23.0 209 
 BTL  SZ EP   1    531 22.88                             169    0.20 7 25.9 308 
 BTL  SZ ES   1    531 38.29                             169    0.15 7 25.9 308 
 GIR2 SZ IP        531 22.74                             166   -0.0510 35.8 340 
 GIR2 SZ ES   1    531 37.95                             166   -0.39 7 35.8 340 
 PAM  SZ EP        531 25.39                             152    0.3110 75.5  34 
 PAM  SE ES   1    531 42.42                             152    0.00 7 75.5  34 
 BRR  HZ IP     C  531 24.45                             150   -0.1110 78.6 298 
 BRR  HZ I         531 24.79       529.4 0.20                          78.6 298 
 BRR  HN ES   1    531 41.96                             150    0.47 7 78.6 298 
 RUS  HZ EP        531 26.38                             145   -0.1210 97.5 180 
 RUS  HN ES   2    531 44.88                             145   -0.07 5 97.5 180 
 RUS  HZ I         531 46.48        81.1 0.27                          97.5 180 
 BRI  SZ IP        531 27.12                             141    0.2310  109  17 
 BRI  SZ ES   1    531 45.58                             141   -0.05 7  109  17 
 OCA  SZ EP   1    531 31.09                             129   -0.52 7  164 351 
 OCA  SZ ES   2    531 53.56                             129   -0.47 5  164 351 
 OCA  SZ I         531 59.63       118.2 0.39                           164 351 
 NOR  SZ EP   2    531 38.91                             118   -0.18 4  239 236 
 NOR  SN ES   2    532  7.59                             118    0.24 4  239 236 
 CHI  HZ EP   1    531 40.42                             117   -0.11 6  248 197 
 CHI  HN ES   2    532 10.33                             117    0.41 4  248 197 
 CHI  HZ I         532 17.76        41.5 0.44                           248 197 
 HEL  HZ EP   1    531 43.89                             114    0.09 6  278 257 
 HEL  HN ES   2    532 15.58                             114   -0.16 4  278 257 
 VIL  SZ EP   1    531 46.33                             112    0.15 5  302 193 
 VIL  SN ES   2    532 19.49                             112   -0.49 4  302 193 
 VIL  SZ I         532 24.29        27.0 0.34                           302 193 
 RREF HZ EP   1    531 49.58                             111    0.13 5  325 231 
 RREF HN ES   2    532 25.74                             111   -0.05 3  325 231 
 RREF HZ I         532 34.75        49.8 0.42                           325 231 
 TOL  SZ EP   1    531 51.99                             109    0.49 5  346 226 
 TOL  SZ ES   2    532 29.08                             109   -0.36 3  346 226 
 DBB  SZ EP   1    531 51.13                             109   -0.07 5  347 275 
 PRA  HZ EP   2    531 56.17                             107   -0.37 3  393 211 
 PRA  HN ES   2    532 38.14                             107   -0.27 3  393 211 
                                                                                
