 2010  626 0910 10.2 L   6.811 -73.102127.5  RSN  5 0.5 1.6LRSN                1
 GAP=182        0.96      10.0    16.6 15.4 -0.5622E+02 -0.1023E+03 -0.2952E+02E
 Epicentro: LOS SANTOS - SANTANDER                                             3
 ACTION:UP  10-08-24 10:13 OP:vdl  STATUS:               ID:20100626091010 L   I
 2010-06-26-0906-41S.COL___118                                                 6
 STAT SP IPHASW D HRMM SECON CODA AMPLIT PERI AZIMU VELO SNR AR TRES W  DIS CAZ7
 BAR2 SZ EP        910 27.11                             169    -0.510   26 200 
 BAR2 SZ ES   2    910 41.79                             169     0.5 5   26 200 
 BRR  HZ EP   2    910 29.21                             147    -0.4 5   75 296 
 BRR  HZ I         910 29.54         9.6 0.09                            75 296 
 BRR  HE ES   2    910 44.87                             147     0.1 5   75 296 
 BRI  SZ EP        910 32.09                             137     0.010  106  19 
 BRI  SZ ES   3    910 49.40                             137     0.1 2  106  19 
 GUE  SZ EP        910 33.73                             135     0.710  114  10 
 GRA  SZ ES   2    910 51.29                             132    -0.6 5  123  15 
                                                                                
