 2011  226 0132 23.4 L   6.842 -73.417  0.0  RSN  4 0.3 1.2LRSN                1
 GAP=203        0.71       2.5     9.3  8.1  0.1056E+02 -0.3318E+02  0.8816E+00E
 Epicentro: SAN VICENTE DE CHUCURI - SANTANDER                                 3
 ACTION:UP  11-03-28 15:11 OP:jfem STATUS:               ID:20110226013223 L   I
 2011-02-26-0129-22S.COL___136                                                 6
 STAT SP IPHASW D HRMM SECON CODA AMPLIT PERI AZIMU VELO SNR AR TRES W  DIS CAZ7
 BAR2 SZ EP   1    132 30.57                              47     0.0 7   38 137 
 BAR2 SZ ES   1    132 36.06                              47    -0.1 7   38 137 
 BAR2 SZ I         132 38.54        13.0 0.50                            38 137 
 RUS  HZ EP   2    132 41.53                              47    -0.4 5  111 161 
 RUS  HZ I         132 49.27         3.0 0.19                           111 161 
 RUS  HN ES   1    132 56.56                              47     0.2 7  111 161 
 GRA  SZ EP   1    132 45.41                              47     0.4 7  134  30 
 GRA  SZ ES   2    133  1.34                              47    -0.5 5  134  30 
 GRA  SZ I         133  7.13        10.8 0.29                           134  30 
 OCA  SZ EP   1    132 47.79                              47    -0.4 7  155   4 
 OCA  SZ ES   2    133  8.10                              47     0.6 5  155   4 
 OCA  SZ I         133 10.62         4.1 0.54                           155   4 
                                                                                
