 2012  226 0630 45.5 L   6.752 -73.179152.1  RSN  5 0.3 1.2LRSN                1
 GAP=230        0.58       7.6     7.9  7.1  0.3026E+02  0.1036E+02  0.2253E+02E
 ACTION:UP  12-03-07 16:34 OP:epov STATUS:               ID:20120226063045 L   I
 2012-02-26-0630-00M.COL___192                                                 6
 STAT SP IPHASW D HRMM SECON CODA AMPLIT PERI AZIMU VELO AIN AR TRES W  DIS CAZ7
 BAR2 SZ EP   1    631  5.42                             173   -0.40 7 17.6 181 
 BAR2 SZ ES   2    631 21.79                             173    0.14 5 17.6 181 
 BAR2 SZ I         631 21.94         4.4 0.16                          17.6 181 
 BRR  HZ EP   2    631  7.50                             154    0.16 5 70.8 304 
 BRR  HE ES   1    631 24.66                             154    0.30 7 70.8 304 
 RUS  HZ EP   2    631  9.45                             146   -0.11 5 95.6 174 
 RUS  HN ES   2    631 28.13                             146   -0.17 5 95.6 174 
 RUS  HZ I         631 29.29         2.4 0.24                          95.6 174 
 PTB  HZ EP   1    631 12.43                             134   -0.19 7  143 261 
 PTB  HN ES   2    631 33.34                             134   -0.41 5  143 261 
 CHI  HZ EP   1    631 23.57                             119    0.64 6  243 195 
 CHI  HZ I         631 58.22         1.0 0.46                           243 195 
                                                                                
