 2012  126 0601  5.3 L   6.784 -73.123142.0  RSN 16 0.4 2.7LRSN                1
 GAP=140        0.90       3.0     4.1  4.9 -0.1793E+01  0.7365E+01  0.4011E+01E
 Epicentro: LOS SANTOS - SANTANDER                                             3
 ACTION:UP  12-02-03 08:20 OP:REBC STATUS:               ID:20120126060105 L   I
 2012-01-26-0600-00M.COL___188                                                 6
 STAT SP IPHASW D HRMM SECON CODA AMPLIT PERI AZIMU VELO SNR AR TRES W  DIS CAZ7
 BAR2 SZ IP     C  6 1 24.54                             171     0.110   22 197 
 BAR2 SZ ES   1    6 1 39.39                             171     0.0 7   22 197 
 BAR2 SZ I         6 1 40.91       183.0 0.31                            22 197 
 GIR2 SZ EP        6 1 24.63                             166     0.010   34 347 
 GIR2 SZ ES   1    6 1 39.36                             166    -0.3 7   34 347 
 BRR  HZ IP     C  6 1 26.41                             151     0.210   74 299 
 BRR  HZ I         6 1 28.41       253.1 0.03                            74 299 
 BRR  HN ES        6 1 43.25                             151     0.710   74 299 
 PAM  SZ IP     C  6 1 27.38                             151     0.310   77  37 
 PAM  SE ES        6 1 44.17                             151     0.010   77  37 
 RUS  HZ EP        6 1 28.49                             144    -0.110   99 177 
 RUS  HE ES   1    6 1 46.71                             144     0.0 7   99 177 
 RUS  HZ I         6 1 48.08        50.1 0.32                            99 177 
 PTB  HZ EP        6 1 31.30                             131    -0.9 9  150 260 
 OCA  SZ EP        6 1 33.10                             129    -0.4 9  162 352 
 OCA  SZ ES   1    6 1 55.12                             129    -0.4 7  162 352 
 OCA  SZ I         6 1 58.15        83.1 0.18                           162 352 
 ZAR  HZ EP        6 1 37.45                             121    -0.4 8  207 292 
 ZAR  HN ES   1    6 2  3.13                             121     0.0 6  207 292 
 NOR  SZ EP   1    6 1 40.54                             118    -0.4 6  236 235 
 NOR  SN ES   1    6 2  8.31                             118    -0.4 6  236 235 
 CHI  HZ EP        6 1 42.70                             117     0.0 8  248 196 
 CHI  HN ES   1    6 2 11.72                             117    -0.1 6  248 196 
 CHI  HZ I         6 2 18.91        18.6 0.48                           248 196 
 HEL  HZ EP   1    6 1 46.32                             114     0.8 6  274 256 
 HEL  HE ES   1    6 2 16.90                             114     0.0 6  274 256 
 HEL  HZ I         6 2 23.81        27.5 0.34                           274 256 
 GUY  SZ EP   1    6 1 49.59                             112     0.5 5  305 236 
 GUY  SN ES   2    6 2 23.26                             112     0.0 4  305 236 
 GUY  SZ I         6 2 30.00        27.0 0.40                           305 236 
 RREF HZ EP   1    6 1 51.32                             110     0.0 5  322 230 
 RREF HE ES   2    6 2 27.49                             110     0.2 3  322 230 
 RREF HZ I         6 2 36.49        18.3 0.23                           322 230 
 DBB  SZ EP        6 1 53.62                             109     0.7 7  342 275 
 TOL  SZ EP   1    6 1 54.34                             109     0.9 5  344 225 
 PRA  HZ EP        6 1 58.48                             106    -0.2 6  392 210 
 PRA  HE ES        6 2 40.13                             106    -0.1 6  392 210 
                                                                                
