 2010  226 0550 11.2 L   6.797 -73.016148.8  RSN  9 0.3 2.2LRSN                1
 GAP=196        0.67       3.3     6.0  4.7  0.3744E+00  0.2718E+01  0.3815E+01E
 Epicentro: CEPITA - SANTANDER                                                 3
 ACTION:UP  10-08-24 09:50 OP:vdl  STATUS:               ID:20100226055011 L   I
 2010-02-26-0548-58S.COL___094                                                 6
 STAT SP IPHASW D HRMM SECON CODA AMPLIT PERI AZIMU VELO SNR AR TRES W  DIS CAZ7
 BAR2 SZ IP        550 31.44                             168     0.110   29 219 
 BAR2 SZ ES   1    550 46.58                             168    -0.4 7   29 219 
 BRR  HZ EP        550 33.38                             149     0.010   84 294 
 BRR  HN ES        550 50.91                             149     0.110   84 294 
 BRR  HZ I         550 53.06        28.8 0.12                            84 294 
 RUS  BZ EP        550 35.32                             144     0.110  100 184 
 RUS  BE ES   2    550 54.32                             144     0.4 5  100 184 
 RUS  BZ I         550 55.38        12.8 0.22                           100 184 
 OCA  SZ EP        550 39.70                             130    -0.3 9  163 348 
 OCA  SZ ES   2    551  3.11                             130     0.7 5  163 348 
 CHI  HZ EP   1    550 49.04                             117    -0.4 6  252 198 
 CHI  HE ES   2    551 19.01                             117    -0.3 4  252 198 
 CHI  HZ I         551 27.53         7.0 0.56                           252 198 
 RREF BZ EP   1    550 59.38                             111     0.7 5  333 231 
 RREF BN ES   2    551 36.07                             111     0.4 3  333 231 
 RREF BZ I         551 43.01        11.3 0.25                           333 231 
 TOL  SZ EP        551  0.80                             109     0.1 6  353 226 
 TOL  SZ ES   2    551 39.37                             109     0.0 3  353 226 
 DBB  SZ EP        550 59.77                             109    -0.6 6  354 274 
 PRA  HZ EP        551  5.87                             107     0.3 6  399 211 
 PRA  HN ES   2    551 47.66                             107    -0.4 3  399 211 
 PRA  HZ I         551 53.17        10.3 0.30                           399 211 
                                                                                
