 2011  226 0003 35.6 L   7.404 -73.268128.6  RSN  5 0.2 1.8LRSN                1
 GAP=129        0.51       2.7     7.1  6.1 -0.1877E+01  0.2149E+02  0.3292E+01E
 Epicentro: EL PLAYON - SANTANDER                                              3
 ACTION:UP  11-03-28 15:11 OP:jfem STATUS:               ID:20110226000335 L   I
 2011-02-26-0000-31S.COL___136                                                 6
 STAT SP IPHASW D HRMM SECON CODA AMPLIT PERI AZIMU VELO SNR AR TRES W  DIS CAZ7
 GRA  SZ EP        0 3 55.60                             148     0.310   74  44 
 GRA  SZ ES        0 4 10.52                             148    -0.210   74  44 
 GRA  SZ I         0 4 13.15        42.3 0.34                            74  44 
 BAR2 SZ EP   1    0 3 56.63                             143     0.0 7   90 174 
 BAR2 SZ ES   1    0 4 13.08                             143     0.1 7   90 174 
 BAR2 SZ I         0 4 14.49        13.4 0.14                            90 174 
 OCA  SZ EP        0 3 56.60                             142     0.010   92 356 
 OCA  SZ ES   1    0 4 13.05                             142     0.0 7   92 356 
 OCA  SZ I         0 4 15.43        14.7 0.15                            92 356 
 RUS  HZ EP   1    0 4  3.69                             124    -0.2 7  168 173 
 RUS  HZ I         0 4 31.22         2.9 0.15                           168 173 
 HEL  HZ EP   2    0 4 16.28                             110    -0.1 4  284 242 
 HEL  HZ I         0 5  0.58         3.4 0.49                           284 242 
                                                                                
