 2015  826 0854 26.2 L   6.812 -73.124146.1  RSN 19 0.4 2.6LRSN                1
 GAP=185        0.86       1.9     3.3  4.1 -0.1852E+00  0.4069E+01  0.9759E+00E
 Epicentro: LOS SANTOS - SANTANDER                                             3
 ACTION:UPD 15-09-15 23:05 OP:cam  STATUS:               ID:20150826085426 L   I
 OLDACT:UP  15-08-26 15:33 OP:ak   STATUS:               ID:20150826084743     3
 OLDACT:REG 15-08-26 15:10 OP:ak   STATUS:               ID:20150826084743     3
 2015-08-26-0847-43M.COL___337                                                 6
 STAT SP IPHASW D HRMM SECON CODA AMPLIT PERI AZIMU VELO AIN AR TRES W  DIS CAZ7
 BAR2 EZ IP     C  854 46.04                             170    0.1210 25.2 195 
 BAR2 EZ ES        855  0.90                             170   -0.3910 25.2 195 
 BAR2 EZ I         855  2.33        66.7 0.11            166           25.2 195 
 BRR  HZ IP     C  854 47.99                             152    0.5110 72.7 297 
 BRR  HN ES        855  4.67                             152    0.6110 72.7 297 
 BRR  HZ I         855  8.48        55.2 0.16            148           72.7 297 
 RUS  HZ EP        854 49.89                             143   -0.1910  102 177 
 RUS  HN ES        855  8.45                             143   -0.2510  102 177 
 RUS  HZ I         855  9.54        27.4 0.20            145            102 177 
 OCA  HZ EP        854 54.55                             130    0.10 9  159 352 
 OCA  HN ES        855 16.30                             130   -0.17 9  159 352 
 OCA  HZ I         855 21.13        91.5 0.34            131            159 352 
 SPBC HZ EP        854 54.89                             129   -0.09 9  166 219 
 SPBC HN ES        855 17.14                             129   -0.27 9  166 219 
 SPBC HZ I         855 22.51        50.6 0.23            128            166 219 
 ZAR  HZ EP        854 58.81                             122   -0.04 8  206 292 
 ZAR  HN ES        855 24.63                             122    0.32 8  206 292 
 ZAR  HZ I         855 31.28        46.3 0.48            121            206 292 
 NOR  HZ EP        855  1.95                             118   -0.30 8  237 235 
 NOR  HN ES        855 30.50                             118    0.14 8  237 235 
 NOR  HZ I         855 35.62        32.6 0.31            118            237 235 
 SML  HZ EP        855  2.93                             117    0.10 8  243 335 
 SML  HN ES        855 30.89                             117   -0.50 8  243 335 
 SML  HZ I         855 35.52        38.7 0.07            118            243 335 
 CHI  HZ EP        855  4.10                             117   -0.04 8  251 196 
 CHI  HN ES        855 33.28                             117   -0.44 8  251 196 
 CHI  HZ I         855 38.87        12.5 0.22            118            251 196 
 ROSC BZ EP   1    855  5.51                             116    0.90 6  255 211 
 ROSC BN ES        855 34.84                             116    0.28 8  255 211 
 ROSC BZ I         855 43.68        31.1 0.35            117            255 211 
 HEL  HZ EP        855  6.71                             114   -0.02 8  275 256 
 HEL  HN ES        855 38.81                             114    0.47 8  275 256 
 HEL  HZ I         855 44.94        20.8 0.24            114            275 256 
 URE  HZ EP   4    855  6.07                             113   -1.42 0  286 291 
 URE  HE ES   4    855 36.96                             113   -2.72 0  286 291 
 URE  HZ I         855 49.48        20.1 0.28            114            286 291 
 GUY2CHZ EP        855 10.67                             112    0.53 7  304 235 
 GUY2CHN ES        855 44.17                             112   -0.24 7  304 235 
 GUY2CHZ I         855 52.54        26.5 0.64                           304 235 
 VIL  SZ EP   1    855  9.93                             112    0.08 5  305 192 
 VIL  SE ES        855 43.77                             112   -0.12 7  305 192 
 VIL  SZ I         855 47.53        13.3 0.52            113            305 192 
 CBOC HZ EP        855 13.85                             110    0.40 7  336 252 
 CBOC HN ES        855 49.51                             110   -0.78 7  336 252 
 CBOC HZ I         855 58.27         6.9 0.48            110            336 252 
 DBB  SZ EP        855 13.75                             109   -0.21 7  342 274 
 DBB  SZ ES        855 50.21                             109   -1.00 7  342 274 
 DBB  SZ I         855 54.44        29.5 0.33            110            342 274 
 TOL  SZ EP        855 15.46                             109    0.67 6  346 225 
 TOL  SN ES        855 52.82                             109    0.15 6  346 225 
 TOL  SZ I         856  2.51        14.0 0.46            110            346 225 
 PRA  HZ EP        855 19.51                             106   -0.51 6  394 210 
 PRA  HN ES        856  1.61                             106   -0.38 6  394 210 
 PRA  HZ I         856  8.42        11.8 0.21            107            394 210 
 ORTC HZ EP   1    855 19.98                             106   -0.46 4  398 216 
 ORTC HE ES        856  3.61                             106    0.88 6  398 216 
 ORTC HZ I         856  9.58         8.5 0.52            107            398 216 
 CRJC HZ EP   4    855 26.66                             103   -1.88 0  466   3 
 CRJC HN ES   4    856 15.24                             103   -1.92 0  466   3 
                                                                                
