 2010  826 0620  2.4 L   6.809 -73.041140.5  RSN  7 0.4 1.4LRSN                1
 GAP=170        0.93       5.7    10.8  8.8 -0.2168E+02 -0.1727E+02  0.2017E+01E
 Epicentro: LOS SANTOS - SANTANDER                                             3
 ACTION:UP  10-09-07 10:58 OP:vdl  STATUS:               ID:20100826062002 L   I
 2010-08-26-0616-05S.COL___121                                                 6
 STAT SP IPHASW D HRMM SECON CODA AMPLIT PERI AZIMU VELO SNR AR TRES W  DIS CAZ7
 BTL  SZ IP        620 21.72                             168     0.210   28 296 
 BAR2 SZ EP   1    620 21.32                             168    -0.2 7   29 213 
 BAR2 SZ ES   1    620 36.07                             168    -0.4 7   29 213 
 BAR2 SZ I         620 39.32         7.8 0.24                            29 213 
 BRR  HZ EP   1    620 23.09                             147    -0.5 7   81 294 
 BRR  HN ES   1    620 40.50                             147     0.4 7   81 294 
 BRR  HZ I         620 42.74         5.1 0.24                            81 294 
 RUS  HZ EP   2    620 25.73                             142     0.0 5  101 183 
 RUS  HN ES   2    620 44.41                             142     0.5 5  101 183 
 RUS  HZ I         620 45.83         2.1 0.40                           101 183 
 GRA  SZ IP        620 27.26                             136     0.410  122  12 
 GRA  SZ ES   1    620 45.19                             136    -0.7 7  122  12 
 GRA  SZ I         620 51.05         3.1 0.64                           122  12 
 OCA  SZ EP   2    620 30.86                             128     0.5 5  161 349 
 PRA  HZ EP   1    620 56.07                             105    -0.5 4  399 211 
 PRA  HE ES   2    621 38.19                             105    -0.6 3  399 211 
 PRA  HZ I         621 42.20         1.9 0.76                           399 211 
                                                                                
