 2012  126 0927 30.1 L   6.824 -73.170141.0  RSN  5 0.3 1.6LRSN                1
 GAP=132        0.58       5.6     5.1  8.8 -0.3624E+01  0.2314E+01  0.9406E+01E
 Epicentro: LOS SANTOS - SANTANDER                                             3
 ACTION:UP  12-02-03 08:21 OP:REBC STATUS:               ID:20120126092730 L   I
 2012-01-26-0920-00M.COL___188                                                 6
 STAT SP IPHASW D HRMM SECON CODA AMPLIT PERI AZIMU VELO SNR AR TRES W  DIS CAZ7
 BAR2 SZ EP        927 48.87                             169    -0.310   26 183 
 BAR2 SZ I         928 30.32         6.3 0.71                            26 183 
 BRR  HZ EP   2    927 50.97                             153     0.5 5   68 298 
 BRR  HN ES   2    928  6.73                             153     0.3 5   68 298 
 BRR  HN I         928  8.67        13.7 0.42                            68 298 
 PAM  SZ EP   1    927 52.02                             150     0.3 7   77  42 
 PAM  SN ES   2    928  8.31                             150    -0.4 5   77  42 
 RUS  HZ EP   1    927 53.77                             142     0.2 7  103 175 
 RUS  HN ES   2    928 12.11                             142     0.2 5  103 175 
 PTB  HZ EP   1    927 56.28                             131    -0.2 7  146 258 
 PTB  HN ES   2    928 16.93                             131    -0.1 5  146 258 
                                                                                
