 2010  626 0018 50.1 L   6.788 -73.062134.1  RSN 11 0.4 2.1LRSN                1
 GAP=165        0.85       3.3     6.7  6.3 -0.6903E+01 -0.1280E+00 -0.1159E+01E
 Epicentro: LOS SANTOS - SANTANDER                                             3
 ACTION:UP  10-08-24 10:13 OP:vdl  STATUS:               ID:20100626001850 L   I
 2010-06-26-0017-16S.COL___118                                                 6
 STAT SP IPHASW D HRMM SECON CODA AMPLIT PERI AZIMU VELO SNR AR TRES W  DIS CAZ7
 BAR2 SZ IP        019  8.66                             169     0.310   26 212 
 BAR2 SZ ES   1    019 22.05                             169    -0.6 7   26 212 
 BRR  HZ IP     D  019 10.40                             147    -0.210   80 296 
 BRR  HN ES   1    019 27.04                             147     0.5 7   80 296 
 BRR  HZ I         019 28.07        40.4 0.10                            80 296 
 RUS  HZ EP        019 12.65                             141     0.110   99 181 
 RUS  HZ I         019 13.87        11.8 0.18                            99 181 
 RUS  HN ES   1    019 30.05                             141    -0.1 7   99 181 
 BRI  SZ EP        019 12.65                             139    -0.110  107  16 
 BRI  SZ I         019 36.66        13.4 0.40                           107  16 
 GUE  SZ EP        019 14.32                             137     0.610  116   7 
 GRA  SZ IP        019 14.38                             134     0.210  125  13 
 GRA  SZ ES   1    019 33.00                             134     0.0 7  125  13 
 OCA  SZ IP        019 17.31                             126    -0.5 9  163 350 
 OCA  SZ ES   1    019 38.85                             126    -0.5 7  163 350 
 OCA  SZ I         019 43.42        21.6 0.27                           163 350 
 CHI  HZ EP   2    019 26.94                             114    -0.4 4  250 197 
 CHI  HE ES   3    019 55.03                             114    -1.3 2  250 197 
 CHI  HZ I         020  2.86         4.8 0.37                           250 197 
 HEL  HZ EP   2    019 30.37                             111    -0.3 4  281 257 
 HEL  HN ES   3    020  1.71                             111    -0.7 2  281 257 
 RREF HZ EP   1    019 36.84                             108     0.4 5  328 231 
 RREF HE ES   2    020 13.37                             108     0.7 3  328 231 
 RREF HZ I         020 19.21         6.5 0.48                           328 231 
 PRA  HZ EP   2    019 42.89                             104    -0.8 3  395 211 
 PRA  HE ES   2    020 25.32                             104    -0.1 3  395 211 
 PRA  HZ I         020 31.99         5.6 0.34                           395 211 
                                                                                
