 2017  226 0636 46.7 L   6.789 -73.173146.4  RSN  5 0.2 1.2LRSN                1
 GAP=134        0.56       3.0     2.9  4.1 -0.8039E+00  0.1381E+01  0.5417E+00E
 Epicentro: LOS SANTOS - SANTANDER                                             3
 ACTION:UPD 17-05-24 15:40 OP:jn   STATUS:               ID:20170226063646 L   I
 OLDACT:DUP 17-02-26 13:20 OP:lv   STATUS:               ID:20170226062741d    3
 2017-02-26-0628-00M.COL___363                                                 6
 STAT SP IPHASW D HRMM SECON CODA AMPLIT PERI AZIMU VELO AIN AR TRES W  DIS CAZ7
 BAR2 EZ EP        637  6.41                             171    0.0510 21.8 183 
 BAR2 EZ ES        637 21.59                             171   -0.1210 21.8 183 
 BAR2 EZ I         637 22.98        10.3 0.19            172           21.8 183 
 BRR  HZ EP        637  7.32                             153   -0.4710 69.1 301 
 BRR  HE ES        637 24.53                             153    0.2810 69.1 301 
 BRR  HZ I         637 26.05         3.3 0.09            153           69.1 301 
 PAM  EZ EP        637  9.33                             150    0.1910 80.3  41 
 PAM  EN ES        637 26.59                             150   -0.0710 80.3  41 
 PAM  EZ I         637 29.80         2.0 0.14            152           80.3  41 
 RUS  HZ EP        637 10.55                             144    0.1210 99.6 174 
 RUS  HN ES        637 28.94                             144   -0.0110 99.6 174 
 RUS  HZ I         637 30.43         2.9 0.28            147           99.6 174 
 PTB  HZ EP        637 13.49                             133    0.08 9  145 259 
 PTB  HN ES        637 34.23                             133   -0.03 9  145 259 
 PTB  HZ I         637 39.60         1.2 0.12            134            145 259 
                                                                                
