 2014  326 1103 42.9 L   6.813 -73.142139.2  RSN 14 0.5 2.3LRSN                1
 GAP=136        1.00       2.7     5.4  6.6 -0.4500E+01  0.1816E+02 -0.1130E+01E
 Epicentro: LOS SANTOS - SANTANDER                                             3
 OLDACT:UP  14-03-26 15:18 OP:mh   STATUS:               ID:20140326105813     3
 OLDACT:UP  14-03-26 15:15 OP:mh   STATUS:               ID:20140326105813     3
 OLDACT:REG 14-03-26 14:51 OP:mh   STATUS:               ID:20140326105813     3
 ACTION:UPD 14-04-09 23:20 OP:nd   STATUS:               ID:20140326110342 L   I
 OLDACT:UP  14-03-26 15:23 OP:mh   STATUS:               ID:20140326105813     3
 OLDACT:UP  14-03-26 15:18 OP:mh   STATUS:               ID:20140326105813     3
 2014-03-26-1058-13M.COL___238                                                 6
 STAT SP IPHASW D HRMM SECON CODA AMPLIT PERI AZIMU VELO AIN AR TRES W  DIS CAZ7
 BAR2 SZ IP       11 4  1.96                             169    0.2010 24.8 190 
 BAR2 SZ ES   1   11 4 16.91                             169    0.43 7 24.8 190 
 BAR2 SZ I        11 4 19.30        43.7 0.34            164           24.8 190 
 PAM  SZ EP       11 4  4.92                             150    0.5910 76.0  40 
 PAM  SN ES       11 4 21.57                             150    0.5210 76.0  40 
 PAM  SZ I        11 4 23.44        33.8 0.56            157           76.0  40 
 RUS  HZ EP     C 11 4  5.90                             142   -0.2110  102 176 
 RUS  HN ES       11 4 24.00                             142   -0.2210  102 176 
 RUS  SZ I        11 4 26.16         8.1 0.32            146            102 176 
 OCA  HZ EP   1   11 4  9.91                             128   -0.65 7  159 353 
 OCA  HN ES       11 4 31.32                             128   -0.83 9  159 353 
 OCA  SZ I        11 4 36.53        23.9 0.36            130            159 353 
 SPBC HZ EP       11 4 10.90                             127   -0.12 9  165 219 
 SPBC HN ES       11 4 32.59                             127   -0.38 9  165 219 
 SPBC SZ I        11 4 39.84        25.9 0.22            128            165 219 
 NOR  HZ EP   1   11 4 18.02                             117   -0.35 6  236 234 
 NOR  HE ES       11 4 46.15                             117    0.10 8  236 234 
 NOR  SZ I        11 4 52.20        21.8 0.24            118            236 234 
 SML  HZ EP       11 4 19.59                             116    0.56 8  243 335 
 SML  HN ES       11 4 46.74                             116   -0.47 8  243 335 
 SML  SZ I        11 4 53.11        25.8 0.08            118            243 335 
 CHI  HZ EP       11 4 20.12                             116   -0.28 8  250 195 
 CHI  HN ES       11 4 49.30                             116   -0.35 8  250 195 
 CHI  SZ I        11 4 55.22         8.4 0.34            119            250 195 
 HEL  HZ EP   1   11 4 23.77                             113    0.91 6  273 256 
 HEL  HE ES   1   11 4 54.75                             113    0.72 6  273 256 
 HEL  SZ I        11 5  0.15        13.1 0.30            114            273 256 
 URE  HZ EP   4   11 4 22.36                             112   -1.26 0  284 292 
 URE  HN ES   4   11 4 52.64                             112   -2.76 0  284 292 
 URE  SZ I        11 5  6.52        10.4 0.20            113            284 292 
 GUY2CHZ EP       11 4 26.45                             111    0.12 7  302 235 
 GUY2CHN ES   4   11 5  1.96                             111    1.74 0  302 235 
 GUY2CSZ I        11 5  8.40        17.5 0.48                           302 235 
 RREF HZ EP       11 4 29.20                             109    0.30 7  323 229 
 RREF HN ES   4   11 5  6.52                             109    1.74 0  323 229 
 RREF SZ I        11 5 12.97        10.5 0.22            111            323 229 
 ORTC HZ EP       11 4 36.60                             105   -0.16 6  397 216 
 ORTC HN ES   4   11 5 14.25                             105   -4.52 0  397 216 
 ORTC SZ I        11 5 26.22         6.9 0.32            107            397 216 
 SJC  HZ EP   4   11 4 34.04                             105   -4.08 0  408 327 
 SJC  HN ES   4   11 5 17.67                             105   -3.53 0  408 327 
 SJC  SZ I        11 5 30.38        10.1 4.66            106            408 327 
                                                                                
