 2012  726 1518  0.2 L   6.707 -73.148141.6  RSN  4 0.5 1.9LRSN                1
 GAP=162        0.93      12.3     8.3 10.7 -0.1985E+02 -0.1345E+02 -0.1441E+02E
 Epicentro: VILLANUEVA - SANTANDER                                             3
 ACTION:UPD 12-08-14 11:45 OP:ep   STATUS:               ID:20120726151800 L   I
 2012-07-26-1510-00M.COL___215                                                 6
 STAT SP IPHASW D HRMM SECON CODA AMPLIT PERI AZIMU VELO AIN AR TRES W  DIS CAZ7
 BAR2 SZ EP       1518 19.51                             174     0.310   13 197 
 BAR2 SZ ES   1   1518 34.00                             174     0.0 7   13 197 
 BAR2 SZ I        1518 35.63        10.7 0.18            172             13 197 
 BRR  HZ EP       1518 21.38                             150     0.110   76 305 
 BRR  HZ I        1518 21.79        23.7 0.30            152             76 305 
 BRR  HN ES   1   1518 38.03                             150     0.4 7   76 305 
 PAM  SZ EP       1518 22.32                             148    -0.210   86  35 
 PAM  SN ES   2   1518 39.11                             148    -0.8 5   86  35 
 PTB  HN ES   2   1518 46.27                             131    -1.1 5  146 263 
