 2013 1026 1537 33.4 L   6.701 -73.193152.0  RSN  4 0.2 1.3LRSN                1
 GAP=224        0.59       5.5     5.4  5.1  0.1541E+02  0.5064E+01  0.6407E+00E
 Epicentro: VILLANUEVA - SANTANDER                                             3
 ACTION:UPD 13-11-25 09:23 OP:ep   STATUS:               ID:20131026153733 L   I
 OLDACT:REG 13-10-26 15:57 OP:cam  STATUS:               ID:20131026152849     3
 2013-10-26-1528-49M.COL___230                                                 6
 STAT SP IPHASW D HRMM SECON CODA AMPLIT PERI AZIMU VELO AIN AR TRES W  DIS CAZ7
 BAR2 SZ EP       1537 53.28                             175   -0.3610 12.1 174 
 BAR2 SZ ES       1538  9.37                             175   -0.0410 12.1 174 
 BAR2 SZ I        1538  9.45         4.9 0.62            170           12.1 174 
 BRR  HZ EP   1   1537 55.42                             153    0.08 7 72.8 308 
 BRR  HN ES   1   1538 12.71                             153    0.27 7 72.8 308 
 RUS  HZ EP       1537 57.48                             148    0.3910 90.2 172 
 RUS  HN ES       1538 15.49                             148   -0.0710 90.2 172 
 RUS  HZ I        1538 16.72         2.0 0.24            146           90.2 172 
 PTB  HZ EP       1538  0.17                             135   -0.13 9  141 263 
 PTB  HN ES   1   1538 21.24                             135   -0.02 7  141 263 
 PTB  HZ I        1538 25.06         2.9 0.10            132            141 263 
                                                                                
