 2014  526 1828 53.5 L   6.606 -74.145 20.1  RSN  4 0.5 1.5LRSN                1
 GAP=143        1.21       6.6     4.1  8.8 -0.1684E+02 -0.2632E+02  0.4104E+02E
 Epicentro: PUERTO PARRA - SANTANDER                                           3
 ACTION:UPD 15-03-16 17:00 OP:nd   STATUS:               ID:20140526182853 L   I
 OLDACT:REG 14-05-26 23:38 OP:stll STATUS:               ID:20140526182807     3
 2014-05-26-1828-07M.COL___268                                                 6
 STAT SP IPHASW D HRMM SECON CODA AMPLIT PERI AZIMU VELO AIN AR TRES W  DIS CAZ7
 PTB  HZ EP       1828 59.92                             117   -0.1110 35.2 258 
 PTB  HN ES       1829  4.96                             117   -0.1710 35.2 258 
 PTB  HZ I        1829  5.29        38.8 0.26             90           35.2 258 
 BRR  HZ EP       1829  6.06                             103    0.6010 73.2  41 
 BRR  HN ES       1829 14.26                             103   -0.5410 73.2  41 
 BAR2 SZ EP       1829 10.76                              99    0.1110  106  91 
 BAR2 SZ I        1829 10.93        17.4 0.10             90            106  91 
 BAR2 SZ ES       1829 24.07                              99    0.0310  106  91 
 RUS  HZ EP       1829 16.43                              56    0.79 9  141 124 
 RUS  HZ I        1829 16.55         6.6 0.16             90            141 124 
 RUS  HN ES       1829 32.21                              56   -0.71 9  141 124 
                                                                                
