 2016  326 1639 33.4 L   6.825 -73.176141.9  RSN  6 0.2 1.5LRSN                1
 GAP=132        0.40       4.8     4.4  5.3 -0.1454E+02  0.3635E+01  0.4025E+01E
 Epicentro: ZAPATOCA - SANTANDER                                               3
 ACTION:UPD 16-05-13 21:27 OP:cam  STATUS:               ID:20160326163933 L   I
 OLDACT:DUP 16-03-26 22:03 OP:dnl  STATUS:               ID:20160326163744d    3
 2016-03-26-1637-42M.COL___295                                                 6
 STAT SP IPHASW D HRMM SECON CODA AMPLIT PERI AZIMU VELO AIN AR TRES W  DIS CAZ7
 BAR2 EZ EP   3   1639 52.55                             169   -0.02 2 25.7 182 
 BAR2 EZ ES   2   1640  7.65                             169    0.10 5 25.7 182 
 BAR2 EZ I        1640  9.03        11.6 0.22            169           25.7 182 
 PAM  EZ EP       1639 55.37                             150    0.2110 77.5  43 
 PAM  EN ES       1640 12.05                             150   -0.1310 77.5  43 
 PAM  EZ I        1640 13.15         3.7 0.18            153           77.5  43 
 RUS  HZ EP   2   1639 56.56                             142   -0.39 5  104 174 
 RUS  HE ES   4   1640 13.36                             142   -1.99 0  104 174 
 RUS  HZ I        1640 16.58         4.5 0.27            146            104 174 
 PTB  HZ EP   2   1639 59.50                             131   -0.25 5  145 258 
 PTB  HE ES   2   1640 20.11                             131   -0.24 5  145 258 
 PTB  HZ I        1640 22.78         3.4 0.09            130            145 258 
 SPBC HZ EP   2   1640  1.59                             128    0.03 5  163 217 
 SPBC HN ES   2   1640 23.92                             128    0.35 5  163 217 
 SPBC HZ I        1640 26.09         7.2 0.09            129            163 217 
 ZAR  HZ EP   4   1640  8.28                             122    3.17 0  200 292 
 ZAR  HN ES   3   1640 30.31                             122    0.42 2  200 292 
 ZAR  HZ I        1640 36.33         3.5 0.11            121            200 292 
                                                                                
