 2011 1026 1247 59.7 L   6.777 -73.065144.7  RSN 11 0.4 2.1LRSN                1
 GAP=148        0.64       4.1     5.7  5.0  0.1575E+01  0.1371E+02  0.6927E+01E
 Epicentro: LOS SANTOS - SANTANDER                                             3
 ACTION:UPD 12-07-13 16:06 OP:ep   STATUS:               ID:20111026124759 L   I
 2011-10-26-1240-00M.COL___177                                                 6
 STAT SP IPHASW D HRMM SECON CODA AMPLIT PERI AZIMU VELO AIN AR TRES W  DIS CAZ7
 BAR2 SZ EP       1248 19.01                             170   -0.2410 24.2 212 
 BAR2 SZ ES   1   1248 34.11                             170   -0.36 7 24.2 212 
 BAR2 SZ I        1248 35.28        21.2 0.42                          24.2 212 
 BTL  SZ EP       1248 19.47                             169    0.1510 27.3 305 
 BTL  SZ ES   3   1248 35.21                             169    0.61 2 27.3 305 
 GIR2 SZ EP       1248 19.44                             165    0.0210 36.2 337 
 GIR2 SZ ES   2   1248 35.33                             165    0.56 5 36.2 337 
 PAM  SN ES   1   1248 38.87                             152    0.14 7 74.1  33 
 BRR  HZ EP       1248 20.91                             149   -0.3910 80.2 297 
 BRR  HE ES   1   1248 38.26                             149    0.14 7 80.2 297 
 BRR  HZ I        1248 40.60        19.9 0.26                          80.2 297 
 RUS  HZ EP       1248 22.90                             144   -0.2810 97.8 181 
 RUS  HN ES   1   1248 41.80                             144    0.33 7 97.8 181 
 RUS  HZ I        1248 42.87         9.2 0.40                          97.8 181 
 ZAR  HE ES   3   1248 57.60                             121   -1.46 2  213 292 
 ZAR  HZ I        1249  3.25        15.8 0.34                           213 292 
 HEL  HZ EP       1248 40.93                             114    0.15 7  280 257 
 HEL  HZ I        1249 18.67         7.2 0.28                           280 257 
 GUY  SZ EP       1248 44.70                             111    0.47 7  309 236 
 GUY  SZ I        1249 29.88         9.1 0.38                           309 236 
 RREF HZ EP       1248 46.84                             110    0.42 7  327 231 
 RREF HZ I        1249 28.15         5.7 0.30                           327 231 
 PRA  HZ EP   2   1248 53.54                             106    0.05 3  394 211 
 PRA  HE ES   3   1249 34.24                             106   -1.17 1  394 211 
                                                                                
