 2017  126 1700 44.5 L   6.810 -73.140145.2  RSN 19 0.5 2.8LRSN                1
 GAP=102        1.17       4.3     3.5  5.9  0.8225E+00  0.6029E+01  0.6727E+01E
 Epicentro: LOS SANTOS - SANTANDER                                             3
 ACTION:UPD 17-05-22 16:03 OP:jn   STATUS:               ID:20170126170044 L   I
 OLDACT:UP  17-01-26 22:23 OP:dnl  STATUS:               ID:20170126165741     3
 OLDACT:UP  17-01-26 22:23 OP:dnl  STATUS:               ID:20170126165741     3
 OLDACT:UP  17-01-26 22:22 OP:dnl  STATUS:               ID:20170126165741     3
 OLDACT:REG 17-01-26 20:19 OP:dnl  STATUS:               ID:20170126165741     3
 2017-01-26-1658-00M.COL___355                                                 6
 STAT SP IPHASW D HRMM SECON CODA AMPLIT PERI AZIMU VELO AIN AR TRES W  DIS CAZ7
 BAR2 EZ EP     D 17 1  3.84                             170   -0.2110 24.5 191 
 BAR2 EZ ES       17 1 19.12                             170   -0.2110 24.5 191 
 BAR2 EZ I        17 1 21.67       236.6 0.32            169           24.5 191 
 BRR  HZ IP     C 17 1  5.64                             152    0.0810 71.2 298 
 BRR  HN ES       17 1 22.76                             152    0.7610 71.2 298 
 BRR  HZ I        17 1 26.70       109.3 0.28            150           71.2 298 
 PAM  EZ EP     C 17 1  6.70                             151    0.1510 76.2  40 
 PAM  EN ES       17 1 23.91                             151    0.1410 76.2  40 
 PAM  EZ I        17 1 27.13        72.3 0.46            150           76.2  40 
 RUS  HZ IP     D 17 1  7.80                             143   -0.4410  102 176 
 RUS  HE ES       17 1 26.61                             143   -0.1710  102 176 
 RUS  HZ I        17 1 27.95        69.6 0.28            142            102 176 
 PTB  HZ EP       17 1 10.77                             132   -0.69 9  149 258 
 PTB  HE ES       17 1 31.98                             132   -0.54 9  149 258 
 PTB  HZ I        17 1 38.04        73.2 0.44            129            149 258 
 TAM  HZ IP     C 17 1 12.26                             130    0.19 9  155 105 
 TAM  HZ I        17 1 33.13        38.2 0.44            129            155 105 
 TAM  HN ES       17 1 33.82                             130    0.22 9  155 105 
 ZAR  HZ EP       17 1 15.97                             122   -0.92 9  204 292 
 ZAR  HE ES       17 1 41.93                             122   -0.25 9  204 292 
 ZAR  HZ I        17 1 47.18        89.3 0.42            120            204 292 
 CHI  HZ EP       17 1 22.14                             117   -0.13 8  250 195 
 CHI  HN ES       17 1 51.39                             117   -0.36 8  250 195 
 CHI  HZ I        17 1 54.82        44.1 0.66            115            250 195 
 ROSC BZ EP       17 1 23.69                             116    1.00 8  254 211 
 ROSC BN ES   4   17 1 54.68                             116    2.17 0  254 211 
 ROSC BZ I        17 1 58.53       126.3 0.40            115            254 211 
 URE  HZ EP   4   17 1 23.73                             113   -1.80 0  284 292 
 URE  HE ES   4   17 1 55.01                             113   -2.54 0  284 292 
 URE  HZ I        17 2  5.15        37.7 0.18            112            284 292 
 PTGC HZ EP   9 D 17 1 26.97                             111   -1.42 0  309 159 
 PTGC HN ES       17 2  0.69                             112   -0.54 7  309 159 
 PTGC HZ I        17 2  2.51        22.4 0.34            110            309 159 
 LL6C HZ EP   4   17 1  9.78                             110   -20.2 0  324 357 
 LL6C HE ES   4   17 1 44.80                             110   -20.8 0  324 357 
 LL6C HZ I        17 1 59.04        16.8 0.42            109            324 357 
 ELA  HZ EP       17 1 32.37                             110    0.94 7  330 229 
 ELA  HN ES       17 2  9.07                             110    1.01 7  330 229 
 ELA  HZ I        17 2 16.54        33.6 0.56            108            330 229 
 CBOC HZ EP       17 1 31.67                             110    0.20 7  335 252 
 CBOC HN ES       17 2  8.95                             110    0.83 7  335 252 
 CBOC HZ I        17 2 18.58         8.8 0.48            108            335 252 
 ORTC HZ EP       17 1 38.26                             106   -0.26 6  397 216 
 ORTC HE ES   4   17 2 22.56                             106    1.89 0  397 216 
 ORTC HZ I        17 2 25.26        23.5 0.22            105            397 216 
 PAL  HZ EP       17 1 39.45                             106   -0.29 6  407 239 
 PAL  HN ES   4   17 2 20.66                             106   -2.18 0  407 239 
 PAL  HZ I        17 2 27.37         9.1 0.22            104            407 239 
 SJC  HZ EP   4   17 1 37.51                             106   -2.44 0  409 327 
 SJC  HE ES   4   17 2 19.44                             106   -3.78 0  409 327 
 SJC  HZ I        17 2 33.66        14.2 0.68            104            409 327 
 CRJC HZ EP   4   17 1 44.17                             103   -2.65 0  467   3 
 CRJC HE ES   4   17 2 32.07                             103   -3.38 0  467   3 
 CRJC HZ I        17 2 39.19        20.2 0.28            102            467   3 
 GARC HZ EP   4   17 1 57.82                             100   -2.04 0  574 207 
 GARC HN ES   4   17 2 54.88                             100   -3.78 0  574 207 
 GARC HZ I        17 3  2.14        15.3 0.20             99            574 207 
                                                                                
