 2011 1026 1914 40.6 L   6.795 -73.123146.6  RSN  5 0.4 1.6LRSN                1
 GAP=140        0.97       8.0    10.7 13.9  0.1806E+01 -0.4247E+02  0.2215E+02E
 Epicentro: LOS SANTOS - SANTANDER                                             3
 ACTION:UPD 12-07-13 16:06 OP:ep   STATUS:               ID:20111026191440 L   I
 2011-10-26-1900-00M.COL___177                                                 6
 STAT SP IPHASW D HRMM SECON CODA AMPLIT PERI AZIMU VELO AIN AR TRES W  DIS CAZ7
 BTL  SZ EP   3   1915  0.44                             172    0.15 2 21.0 310 
 GIR2 SZ EP       1914 59.50                             167   -0.9010 32.3 346 
 BRR  HZ EP       1915  2.24                             152    0.2610 73.6 298 
 BRR  HZ I        1915  9.58        14.5 0.40                          73.6 298 
 BRR  HN ES   1   1915 18.76                             152    0.11 7 73.6 298 
 PAM  SZ EP       1915  3.13                             151    0.2910 76.2  38 
 PAM  SN ES   2   1915 20.48                             151    0.30 5 76.2  38 
 RUS  HZ EP       1915  4.64                             144    0.2510 99.9 177 
 RUS  HE ES   2   1915 22.77                             144   -0.17 5 99.9 177 
 RUS  HZ I        1915 24.31         3.7 0.46                          99.9 177 
                                                                                
