 2013  126 1816 38.4 L   6.570 -73.512112.1  RSN  7 0.4 1.8LRSN                1
 GAP= 86        0.87       4.3     4.3  8.6 -0.2751E+00  0.1584E+02  0.4800E+01E
 Epicentro: EL CARMEN DE CHUCURI - SANTANDER                                   3
 ACTION:UPD 13-02-15 09:17 OP:ep   STATUS:               ID:20130126181638 L   I
 2013-01-26-1810-00M.COL___241                                                 6
 STAT SP IPHASW D HRMM SECON CODA AMPLIT PERI AZIMU VELO AIN AR TRES W  DIS CAZ7
 BAR2 SZ EP   1   1816 54.88                             161    0.44 8 36.6  86 
 BAR2 SZ ES   1   1817  7.13                             161    0.18 8 36.6  86 
 BRR  HZ EP   1   1816 55.49                             148   -0.01 8 63.4 340 
 BRR  HN ES   1   1817  8.72                             148   -0.12 8 63.4 340 
 BRR  HZ I        1817  9.65        32.6 0.12            144           63.4 340 
 RUS  HZ EP   1   1816 58.53                             139    0.50 8 88.7 148 
 RUS  HN ES   1   1817 13.26                             139   -0.08 8 88.7 148 
 RUS  HZ I        1817 16.12        13.0 0.36            135           88.7 148 
 PTB  HZ EP       1816 57.92                             134   -0.7710  104 268 
 PTB  HZ I        1817 17.22        15.0 0.16            126            104 268 
 PAM  SZ EP   1   1817  1.22                             129    0.12 7  124  47 
 PAM  SN ES   1   1817 18.47                             129   -0.35 7  124  47 
 PAM  SZ I        1817 20.64         6.3 0.16            127            124  47 
 ZAR  HN ES   1   1817 28.77                             117    0.74 7  180 305 
 NOR  HZ EP   1   1817  7.23                             116    0.17 7  187 234 
 NOR  HE ES   1   1817 29.36                             116   -0.06 7  187 234 
 NOR  HZ I        1817 34.74         6.6 0.28            112            187 234 
                                                                                
