 2013 1126 1637  4.7 L   6.745 -73.150144.9  RSN  5 0.5 2.0LRSN                1
 GAP=155        0.94      10.2     6.5  8.4 -0.2389E+02 -0.1801E+01  0.6485E+01E
 Epicentro: JORDAN - SANTANDER                                                 3
 ACTION:UPD 14-01-09 16:31 OP:ep   STATUS:               ID:20131126163704 L   I
 OLDACT:UP  13-11-26 15:52 OP:cam  STATUS:               ID:20131126163000     3
 OLDACT:REG 13-11-26 15:14 OP:cam  STATUS:               ID:20131126163000     3
 2013-11-26-1630-00M.COL___282                                                 6
 STAT SP IPHASW D HRMM SECON CODA AMPLIT PERI AZIMU VELO AIN AR TRES W  DIS CAZ7
 BAR2 SZ EP       1637 24.34                             173    0.2310 17.3 192 
 BAR2 SZ ES   1   1637 38.87                             173   -0.39 7 17.3 192 
 BAR2 SZ I        1637 39.97        21.0 0.34            173           17.3 192 
 BRR  HZ EP       1637 26.13                             151    0.2210 73.9 303 
 BRR  HN ES       1637 42.96                             151    0.5110 73.9 303 
 PAM  SZ EP       1637 27.26                             149    0.1310 82.4  37 
 PAM  SN ES   1   1637 44.10                             149   -0.52 7 82.4  37 
 PAM  SZ I        1637 46.17        23.1 0.80            150           82.4  37 
 PTB  HZ EP   1   1637 31.32                             132   -0.14 7  146 261 
 PTB  HN ES   1   1637 51.70                             132   -0.63 7  146 261 
 PTB  HZ I        1637 55.48         8.6 0.42            132            146 261 
 SML  HZ EP   2   1637 40.54                             117   -1.31 4  249 336 
 SML  HE ES   4   1638  8.83                             117   -2.00 0  249 336 
                                                                                
