 2010  926 1645 19.9 L   6.786 -73.158151.3  RSN  5 0.4 1.4LRSN                1
 GAP=157        1.03      10.9    22.6 13.1  0.1671E+03 -0.7973E+02 -0.1007E+02E
 Epicentro: LOS SANTOS - SANTANDER                                             3
 ACTION:UP  11-02-18 11:05 OP:tino STATUS:               ID:20100926164519 L   I
 2010-09-26-1642-27S.COL___122                                                 6
 STAT SP IPHASW D HRMM SECON CODA AMPLIT PERI AZIMU VELO SNR AR TRES W  DIS CAZ7
 BTL  SZ EP       1645 40.46                             173     0.410   19 320 
 BRR  HZ EP       1645 40.90                             154    -0.710   71 300 
 BRR  HE ES   1   1645 58.96                             154     0.4 7   71 300 
 RUS  HZ EP       1645 44.19                             146     0.110   99 175 
 RUS  HN ES   1   1646  2.57                             146    -0.4 7   99 175 
 RUS  HZ I        1646  3.67         2.9 0.70                            99 175 
 GRA  SZ EP   3   1645 45.71                             138     0.0 2  128  18 
 CHI  HZ EP   1   1645 57.96                             119     0.3 6  247 195 
 CHI  HZ I        1646 33.19         2.1 0.29                           247 195 
                                                                                
