 2014  526 1219 38.2 L   6.801 -73.170145.6  RSN 10 0.5 2.1LRSN                1
 GAP=133        1.26       3.3     5.5  6.7 -0.4204E+01  0.7655E+01  0.3400E-01E
 Epicentro: LOS SANTOS - SANTANDER                                             3
 ACTION:UPD 15-03-16 17:00 OP:nd   STATUS:               ID:20140526121938 L   I
 OLDACT:REG 14-05-26 23:28 OP:stll STATUS:               ID:20140526121817     3
 2014-05-26-1218-17M.COL___274                                                 6
 STAT SP IPHASW D HRMM SECON CODA AMPLIT PERI AZIMU VELO AIN AR TRES W  DIS CAZ7
 BAR2 SZ IP     C 1219 57.95                             171    0.1410 23.1 183 
 BAR2 SZ ES       1220 12.36                             171   -0.7410 23.1 183 
 BAR2 SZ I        1220 14.10        55.0 0.20            170           23.1 183 
 BRR  HZ IP     D 1219 59.86                             153    0.6610 68.8 300 
 BRR  HN ES       1220 16.75                             153    1.1710 68.8 300 
 BRR  HZ I        1220 20.28        31.4 0.30            151           68.8 300 
 PAM  SZ EP       1220  0.79                             150    0.2810 79.1  41 
 PAM  SZ I        1220  1.13        28.2 0.22            154           79.1  41 
 PAM  SN ES       1220 17.73                             150   -0.1710 79.1  41 
 RUS  HZ EP       1220  1.96                             144   -0.0010  101 175 
 RUS  HN ES       1220 20.20                             144   -0.2910  101 175 
 RUS  HZ I        1220 21.65        13.5 0.28            145            101 175 
 PTB  HZ EP       1220  4.75                             132   -0.17 9  145 259 
 PTB  HN ES       1220 25.37                             132   -0.39 9  145 259 
 PTB  HZ I        1220 31.18        11.2 0.30            132            145 259 
 OCA  HZ EP       1220  6.50                             130    0.03 9  160 354 
 OCA  HN ES       1220 28.43                             130   -0.09 9  160 354 
 OCA  HZ I        1220 31.39        15.6 0.20            131            160 354 
 SPBC HZ EP       1220  7.08                             129    0.54 9  162 218 
 SPBC HN ES       1220 28.80                             129    0.17 9  162 218 
 SPBC HZ I        1220 33.83        19.5 0.40            130            162 218 
 NOR  HZ EP       1220 13.93                             119    0.23 8  233 234 
 NOR  HN ES       1220 40.71                             119   -0.66 8  233 234 
 NOR  HZ I        1220 43.43         9.2 0.20            119            233 234 
 SML  HZ EP       1220 13.58                             117   -1.12 8  243 336 
 SML  HN ES       1220 42.78                             117   -0.38 8  243 336 
 SML  HZ I        1220 46.65        17.9 0.10            119            243 336 
 CHI  HZ EP       1220 16.08                             117    0.25 8  248 195 
 CHI  HE ES       1220 45.13                             117   -0.04 8  248 195 
 CHI  HZ I        1220 51.96         3.1 0.46            118            248 195 
                                                                                
