 2012  226 1640  5.6 L   6.748 -73.121136.1  RSN  9 0.4 2.1LRSN                1
 GAP=142        0.82       3.9     5.2  5.9 -0.5669E+01  0.6958E+01  0.2376E+00E
 ACTION:UP  12-03-07 16:34 OP:epov STATUS:               ID:20120226164005 L   I
 2012-02-26-1640-00M.COL___192                                                 6
 STAT SP IPHASW D HRMM SECON CODA AMPLIT PERI AZIMU VELO AIN AR TRES W  DIS CAZ7
 BAR2 SZ IP       1640 23.97                             172   -0.0510 18.5 201 
 BAR2 SZ ES   1   1640 38.22                             172   -0.14 7 18.5 201 
 BAR2 SZ I        1640 39.99        29.7 0.24                          18.5 201 
 GIR2 SZ IP       1640 24.09                             164   -0.2710 37.4 348 
 GIR2 SZ ES   1   1640 39.54                             164    0.57 7 37.4 348 
 BRR  HZ EP       1640 25.90                             149   -0.1810 76.4 301 
 BRR  HE ES   1   1640 42.61                             149    0.59 7 76.4 301 
 BRR  HZ I        1640 46.92        43.1 0.13                          76.4 301 
 PAM  SZ EP       1640 26.86                             148   -0.1610 80.3  35 
 PAM  SZ I        1640 27.25        39.8 0.17                          80.3  35 
 PAM  SE ES   1   1640 43.70                             148    0.00 7 80.3  35 
 RUS  HZ EP   1   1640 27.90                             144   -0.12 7 94.7 177 
 RUS  HE ES   1   1640 45.60                             144    0.12 7 94.7 177 
 RUS  HZ I        1640 47.18        15.5 0.25                          94.7 177 
 PTB  HN ES   2   1640 51.58                             129   -0.98 5  149 261 
 OCA  SZ EP   1   1640 34.21                             126    0.40 7  166 352 
 OCA  SZ ES   1   1640 55.34                             126   -0.44 7  166 352 
 NOR  SZ EP   1   1640 41.68                             117    0.96 6  234 236 
 NOR  SN ES   1   1641  7.57                             117   -0.50 6  234 236 
 HEL  HZ EP   1   1640 45.98                             113    0.45 6  273 257 
 HEL  HZ I        1641 23.59         5.4 0.38                           273 257 
                                                                                
