 2015  926 1101 11.1 L   6.807 -73.083146.8  RSN  7 0.5 1.9LRSN                1
 GAP=214        1.03       5.3     6.7  8.9 -0.6697E+01 -0.9833E+00 -0.1248E+02E
 Epicentro: LOS SANTOS - SANTANDER                                             3
 ACTION:UPD 15-10-28 16:28 OP:cam  STATUS:               ID:20150926110111 L   I
 OLDACT:REG 15-09-26 20:15 OP:spq  STATUS:               ID:20150926105746     3
 2015-09-26-1057-46M.COL___355                                                 6
 STAT SP IPHASW D HRMM SECON CODA AMPLIT PERI AZIMU VELO AIN AR TRES W  DIS CAZ7
 BAR2 EZ EP     C 11 1 31.04                             169    0.1310 26.2 205 
 BAR2 EZ ES   1   11 1 45.98                             169   -0.38 7 26.2 205 
 BAR2 EZ I        11 1 48.04        12.3 0.20            166           26.2 205 
 BRR  HZ EP       11 1 33.00                             151    0.3110 77.0 296 
 BRR  HN ES       11 1 50.03                             151    0.4910 77.0 296 
 BRR  HZ I        11 1 54.53        10.2 0.46            146           77.0 296 
 PTB  HE ES   1   11 1 59.87                             131   -0.51 7  155 259 
 PTB  HZ I        11 2  2.51         8.3 0.20            129            155 259 
 OCA  HZ EP       11 1 39.88                             130    0.38 9  160 351 
 OCA  HN ES       11 2  1.13                             130   -0.53 9  160 351 
 OCA  HZ I        11 2  3.28        10.8 0.56            130            160 351 
 ZAR  HE ES       11 2 10.62                             122    0.52 8  210 291 
 ZAR  HZ I        11 2 17.99         5.8 0.25            121            210 291 
 NOR  HN ES   1   11 2 15.11                             118   -0.87 6  241 235 
 NOR  HZ I        11 2 20.67         4.9 0.20            118            241 235 
 SML  HZ EP       11 1 47.80                             117   -0.23 8  246 334 
 SML  HE ES   1   11 2 16.10                             117   -0.73 6  246 334 
 SML  HZ I        11 2 21.47         6.4 0.10            118            246 334 
                                                                                
