 2011 1026 1952 54.9 L   6.785 -73.120140.0  RSN  6 0.3 1.7LRSN                1
 GAP=141        0.52       3.8     4.9  5.3 -0.1214E+01 -0.2438E+01  0.4979E+01E
 Epicentro: LOS SANTOS - SANTANDER                                             3
 ACTION:UPD 12-07-13 16:06 OP:ep   STATUS:               ID:20111026195254 L   I
 2011-10-26-1940-00M.COL___177                                                 6
 STAT SP IPHASW D HRMM SECON CODA AMPLIT PERI AZIMU VELO AIN AR TRES W  DIS CAZ7
 BTL  SZ EP   2   1953 13.94                             171    0.13 5 22.0 312 
 BAR2 SZ EP   2   1953 13.62                             170   -0.20 5 22.4 198 
 BAR2 SZ ES   2   1953 27.81                             170   -0.76 5 22.4 198 
 GIR2 SZ EP       1953 13.85                             166   -0.1010 33.5 346 
 GIR2 SZ ES   2   1953 28.69                             166   -0.12 5 33.5 346 
 BRR  HZ EP       1953 15.43                             150   -0.1910 74.5 299 
 BRR  HE ES   1   1953 32.18                             150    0.39 7 74.5 299 
 BRR  HZ I        1953 33.37        18.8 0.12                          74.5 299 
 PAM  SZ EP       1953 16.55                             150    0.0710 76.9  37 
 PAM  SN ES   1   1953 33.41                             150    0.11 7 76.9  37 
 RUS  HZ EP       1953 18.04                             143    0.0910 98.7 178 
 RUS  HZ I        1953 18.90         4.4 0.12                          98.7 178 
 RUS  HE ES   2   1953 36.28                             143    0.35 5 98.7 178 
                                                                                
