 2010 1026 1949 41.9 L   6.828 -73.141139.7  RSN  6 0.4 1.6LRSN                1
 GAP=184        0.72       4.5     9.7 10.4 -0.5364E+01  0.5793E+01  0.2885E+01E
 Epicentro: LOS SANTOS - SANTANDER                                             3
 ACTION:UP  11-02-18 11:12 OP:tino STATUS:               ID:20101026194941 L   I
 2010-10-26-1946-14S.COL___128                                                 6
 STAT SP IPHASW D HRMM SECON CODA AMPLIT PERI AZIMU VELO SNR AR TRES W  DIS CAZ7
 BTL  SZ EP   1   1950  1.17                             173     0.5 7   17 305 
 BRR  HZ EP       1950  2.28                             152     0.010   70 296 
 BRR  HE ES   2   1950 18.37                             152     0.1 5   70 296 
 BRR  HZ I        1950 22.43        15.6 0.08                            70 296 
 RUS  HZ EP   2   1950  5.35                             142     0.1 5  104 176 
 RUS  HN ES   2   1950 22.68                             142    -0.8 5  104 176 
 RUS  HZ I        1950 24.86         3.8 0.40                           104 176 
 OCA  SZ EP   1   1950  9.10                             129    -0.3 7  157 353 
 OCA  SZ I        1950 34.52        19.4 0.10                           157 353 
 NOR  SZ EP   1   1950 17.20                             117    -0.3 6  237 234 
 NOR  SN ES   2   1950 45.12                             117    -0.2 4  237 234 
 NOR  SZ I        1950 50.32         0.8 0.29                           237 234 
 CHI  HZ EP   2   1950 19.80                             115     0.2 4  252 195 
 CHI  HN ES   1   1950 49.34                             115     0.4 6  252 195 
 CHI  HZ I        1950 55.55         3.2 0.53                           252 195 
                                                                                
