 2011  526 1342 26.1 L   6.784 -73.075148.7  RSN  7 0.4 1.6LRSN                1
 GAP=167        0.73       5.2     7.9  9.3 -0.2060E+02 -0.1563E+02  0.1478E+02E
 Epicentro: LOS SANTOS - SANTANDER                                             3
 ACTION:UP  11-06-29 08:56 OP:tino STATUS:               ID:20110526134226 L   I
 2011-05-26-1340-00M.COL___116                                                 6
 STAT SP IPHASW D HRMM SECON CODA AMPLIT PERI AZIMU VELO SNR AR TRES W  DIS CAZ7
 BAR2 SZ EP   1   1342 45.74                             170    -0.3 7   24 209 
 BTL  SZ EP       1342 46.49                             169     0.410   26 305 
 BRR  HZ EP   1   1342 47.68                             150    -0.3 7   79 297 
 BRR  HE ES   1   1343  5.14                             150     0.1 7   79 297 
 BRR  HZ I        1343  8.41        12.7 0.17                            79 297 
 RUS  HZ EP   2   1342 50.22                             145     0.3 5   99 181 
 RUS  HN ES   2   1343  8.43                             145    -0.2 5   99 181 
 RUS  HZ I        1343 10.31         4.6 0.31                            99 181 
 GRA  SZ EP       1342 51.87                             137     0.310  125  14 
 GRA  SZ ES   1   1343 10.79                             137    -0.6 7  125  14 
 GRA  SZ I        1343 13.38         5.8 0.26                           125  14 
 NOR  SZ EP   2   1343  2.22                             118    -0.3 4  240 236 
 NOR  SN ES   2   1343 31.13                             118     0.1 4  240 236 
 PRA  HZ EP   2   1343 19.11                             107    -0.9 3  394 211 
 PRA  HN ES   2   1344  1.87                             107    -0.1 3  394 211 
                                                                                
