 2013  626 1553 47.4 L   6.746 -73.141155.7  RSN  5 0.5 1.7LRSN                1
 GAP=234        0.88       7.8     7.2  9.4  0.1010E+02  0.1231E+02  0.5807E+01E
 Epicentro: JORDAN - SANTANDER                                                 3
 ACTION:UPD 14-01-08 09:57 OP:ep   STATUS:               ID:20130626155347 L   I
 OLDACT:REG 13-06-26 15:50 OP:carl STATUS:               ID:20130626154959     3
 2013-06-26-1549-59M.COL___265                                                 6
 STAT SP IPHASW D HRMM SECON CODA AMPLIT PERI AZIMU VELO AIN AR TRES W  DIS CAZ7
 BAR2 SZ EP   1   1554  8.01                             173   -0.10 7 17.6 195 
 BAR2 SZ ES   1   1554 23.84                             173   -0.44 7 17.6 195 
 BAR2 SZ I        1554 25.95         4.9 0.18            166           17.6 195 
 BRR  HZ EP   1   1554 10.06                             153    0.26 7 74.7 302 
 BRR  HN ES   1   1554 27.94                             153    0.65 7 74.7 302 
 BRR  HN I        1554 30.62        20.9 0.22            150           74.7 302 
 RUS  HZ EP   1   1554 11.88                             147    0.17 7 94.6 176 
 RUS  HN ES   1   1554 30.80                             147    0.10 7 94.6 176 
 RUS  HZ I        1554 33.42         2.3 0.30            147           94.6 176 
 PTB  HZ EP   1   1554 14.61                             134   -0.52 7  147 261 
 PTB  HN ES   1   1554 36.05                             134   -0.72 7  147 261 
 PTB  HZ I        1554 43.60         7.3 0.36            132            147 261 
 NOR  HE ES   1   1554 52.14                             121    0.66 6  232 236 
 NOR  HE I        1554 57.33         6.6 0.46            121            232 236 
                                                                                
