 2014 1126 1009 59.6 L   6.852 -73.175147.3  RSN 16 0.5 1.9LRSN                1
 GAP=130        1.23       3.1     4.1  6.0 -0.8988E+00  0.9090E+01  0.2007E+01E
 Epicentro: ZAPATOCA - SANTANDER                                               3
 ACTION:UPD 14-12-19 15:47 OP:nd   STATUS:               ID:20141126100959 L   I
 OLDACT:REG 14-11-26 20:01 OP:fm   STATUS:               ID:20141126100749     3
 2014-11-26-1007-49M.COL___303                                                 6
 STAT SP IPHASW D HRMM SECON CODA AMPLIT PERI AZIMU VELO AIN AR TRES W  DIS CAZ7
 BAR2 SZ EP       1010 19.78                             168    0.2410 28.7 182 
 BAR2 SZ ES       1010 34.70                             168   -0.3910 28.7 182 
 BAR2 SZ I        1010 35.93        17.1 0.24            169           28.7 182 
 BRR  HZ EP       1010 21.38                             155    0.7610 65.7 295 
 BRR  HN ES       1010 37.38                             155    0.3610 65.7 295 
 BRR  HZ I        1010 39.80        13.1 0.12            151           65.7 295 
 PAM  SZ EP       1010 22.60                             152    0.7410 75.2  44 
 PAM  SN ES       1010 39.47                             152    0.2610 75.2  44 
 PAM  SZ I        1010 41.85        23.8 0.48            155           75.2  44 
 RUS  HZ EP       1010 23.66                             142   -0.2810  107 175 
 RUS  HN ES       1010 42.17                             142   -0.7610  107 175 
 RUS  HZ I        1010 43.42        10.1 0.26            145            107 175 
 PTB  HZ EP       1010 26.60                             133    0.07 9  146 256 
 PTB  HE ES       1010 47.58                             133    0.05 9  146 256 
 PTB  HZ I        1010 49.47         8.5 0.16            132            146 256 
 OCA  HZ EP       1010 26.31                             131   -1.16 9  154 354 
 OCA  HN ES       1010 49.32                             131    0.12 9  154 354 
 OCA  HZ I        1010 55.29         8.9 0.16            132            154 354 
 SPBC HZ EP       1010 29.23                             129    0.77 9  166 217 
 SPBC HN ES       1010 50.29                             129   -0.68 9  166 217 
 SPBC HZ I        1010 55.33        14.2 0.18            130            166 217 
 ZAR  HZ EP       1010 31.67                             123    0.04 9  199 291 
 ZAR  HN ES       1010 56.83                             123    0.22 9  199 291 
 ZAR  HZ I        1011  6.63         6.8 0.52            123            199 291 
 CHI  HZ EP       1010 37.96                             117    0.06 8  253 194 
 CHI  HN ES       1011  7.53                             117   -0.25 8  253 194 
 CHI  HZ I        1011 10.70         6.4 0.46            119            253 194 
 HEL  HZ EP       1010 39.83                             115    0.11 8  270 254 
 HEL  HN ES       1011 10.86                             115   -0.14 8  270 254 
 HEL  HZ I        1011 17.28         4.0 0.32            116            270 254 
 URE  HE ES       1011 11.15                             114   -0.68 7  279 291 
 URE  HZ I        1011 22.41         6.2 0.18            114            279 291 
 GUY2CHZ EP       1010 43.58                             112    0.21 7  302 234 
 GUY2CHN ES       1011 17.68                             112    0.17 7  302 234 
 GUY2CHZ I        1011 23.91         4.0 0.34                           302 234 
 PTGC HZ EP   4   1010 42.57                             111   -1.70 0  315 158 
 PTGC HE ES   4   1011 15.88                             111   -3.23 0  315 158 
 RREF HZ EP       1010 46.01                             111    0.04 7  323 228 
 RREF HN ES       1011 22.77                             111    0.63 7  323 228 
 RREF HZ I        1011 28.63         5.1 0.26            112            323 228 
 TOL  SZ EP       1010 47.90                             109   -0.24 6  345 224 
 TOL  SN ES       1011 26.82                             109    0.82 6  345 224 
 TOL  SZ I        1011 33.29         9.9 0.46            110            345 224 
 MON  HZ EP       1010 46.76                             109   -1.20 6  348 308 
 MON  HN ES       1011 25.28                             109   -0.41 6  348 308 
 MON  HZ I        1011 26.80         1.4 0.64            110            348 308 
 SJC  HZ EP   4   1010 53.84                             106   -0.61 0  403 327 
 SJC  HN ES   4   1011 34.89                             106   -2.33 0  403 327 
 SJC  HZ I        1011 41.46         1.5 0.16            107            403 327 
                                                                                
