 2011  726 1251 20.2 L   6.743 -73.106139.2  RSN  4 0.3 1.5LRSN                1
 GAP=237        0.57       5.7     7.5  6.1  0.2055E+02  0.5158E+01  0.8721E+01E
 Epicentro: JORDAN - SANTANDER                                                 3
 ACTION:UPD 12-07-25 14:03 OP:epov STATUS:               ID:20110726125120 L   I
 2011-07-26-1250-10S.COL___142                                                 6
 STAT SP IPHASW D HRMM SECON CODA AMPLIT PERI AZIMU VELO AIN AR TRES W  DIS CAZ7
 BAR2 SZ EP   2   1251 38.94                             172   -0.05 5 18.7 207 
 BAR2 SZ ES   1   1251 53.37                             172   -0.25 7 18.7 207 
 BAR2 SZ I        1251 55.40         8.8 0.25                          18.7 207 
 BRR  HZ EP       1251 40.80                             149   -0.3010 78.2 301 
 BRR  HZ I        1251 41.00         9.0 0.18                          78.2 301 
 BRR  HE ES       1251 57.63                             149    0.2510 78.2 301 
 RUS  HZ EP   1   1251 43.33                             144    0.46 7 94.1 178 
 RUS  HN ES   2   1252  0.40                             144   -0.13 5 94.1 178 
 RUS  HZ I        1252  3.26         3.8 0.24                          94.1 178 
 NOR  SZ EP   2   1251 55.62                             117    0.03 4  235 236 
 NOR  SN ES   2   1252 22.99                             117   -0.19 4  235 236 
                                                                                
