 2015  326 1834 39.1 L   5.811 -74.030 40.0  RSN  5 0.5 1.2LRSN                1
 GAP=199        0.92       5.7     5.2 11.6 -0.2055E+02 -0.1421E+02  0.2336E+02E
 Epicentro: FLORIAN - SANTANDER                                                3
 ACTION:UPD 15-04-30 16:29 OP:nd   STATUS:               ID:20150326183439 L   I
 OLDACT:UP  15-03-27 00:22 OP:stll STATUS:               ID:20150326182750     3
 OLDACT:REG 15-03-26 21:07 OP:stll STATUS:               ID:20150326182750     3
 2015-03-26-1827-50M.COL___281                                                 6
 STAT SP IPHASW D HRMM SECON CODA AMPLIT PERI AZIMU VELO AIN AR TRES W  DIS CAZ7
 PTB  HZ EP       1834 56.71                             131   -0.1210 93.3 330 
 PTB  HE ES       1835 10.23                             131   -0.4510 93.3 330 
 PTB  HZ I        1835 17.95         2.8 0.30            129           93.3 330 
 NOR  HZ EP       1834 56.89                             129   -0.3310 96.9 254 
 NOR  HN ES       1835 11.49                             129    0.1110 96.9 254 
 NOR  HZ I        1835 14.04        11.1 0.14            132           96.9 254 
 BAR2 EZ ES       1835 17.55                             121    0.2310  128  47 
 BAR2 EZ I        1835 20.46         6.5 0.34            124            128  47 
 GUY2CHZ EP       1835  4.44                             115   -0.15 9  162 246 
 GUY2CHN ES       1835 24.93                             115    0.43 9  162 246 
 GUY2CHZ I        1835 29.12         1.9 0.54                           162 246 
 ZAR  HZ EP   2   1835 10.89                             109    1.61 4  207 334 
 ZAR  HN ES   2   1835 33.17                             109    0.33 4  207 334 
 ZAR  HZ I        1835 38.44         3.0 0.30            109            207 334 
                                                                                
