 2012  226 1706 30.2 L   6.768 -73.155150.0  RSN  7 0.4 1.6LRSN                1
 GAP=137        0.81       5.7     5.6  7.2 -0.3968E+01  0.5578E+01  0.7005E+01E
 ACTION:UP  12-03-07 16:34 OP:epov STATUS:               ID:20120226170630 L   I
 2012-02-26-1700-00M.COL___193                                                 6
 STAT SP IPHASW D HRMM SECON CODA AMPLIT PERI AZIMU VELO AIN AR TRES W  DIS CAZ7
 BAR2 SZ EP   1   17 6 50.18                             172   -0.07 7 19.6 189 
 BAR2 SZ ES   2   17 7  5.26                             172   -0.65 5 19.6 189 
 BAR2 SZ I        17 7  7.05         8.3 0.36                          19.6 189 
 GIR2 SZ EP   1   17 6 50.63                             166    0.18 7 34.7 353 
 GIR2 SZ ES   1   17 7  6.52                             166    0.26 7 34.7 353 
 BRR  HZ EP   1   17 6 52.10                             153    0.26 7 72.1 301 
 BRR  HN ES   1   17 7  9.44                             153    0.71 7 72.1 301 
 BRR  HZ I        17 7 11.96        10.0 0.20                          72.1 301 
 PAM  SZ EP   1   17 6 53.05                             150    0.00 7 80.8  39 
 PAM  SZ I        17 6 53.19         3.6 0.20                          80.8  39 
 PAM  SN ES   1   17 7 10.29                             150   -0.60 7 80.8  39 
 RUS  HZ EP   1   17 6 54.10                             146   -0.01 7 97.1 175 
 RUS  HN ES   1   17 7 13.10                             146    0.33 7 97.1 175 
 RUS  HZ I        17 7 15.52         5.4 0.42                          97.1 175 
 PTB  HZ EP   1   17 6 57.09                             133   -0.26 7  146 260 
 PTB  HN ES   1   17 7 17.76                             133   -0.78 7  146 260 
 HEL  HZ EP   2   17 7 10.96                             116    0.55 4  270 256 
 HEL  HZ I        17 7 46.34         3.4 0.42                           270 256 
                                                                                
