 2010  226 1327  8.6 L   6.783 -73.053148.7  RSN  8 0.4 2.1LRSN                1
 GAP=246        0.70       5.5     6.8  6.2  0.4802E+01  0.2094E+02  0.6140E+01E
 Epicentro: LOS SANTOS - SANTANDER                                             3
 ACTION:UP  10-08-24 09:50 OP:vdl  STATUS:               ID:20100226132708 L   I
 2010-02-26-1324-50S.COL___093                                                 6
 STAT SP IPHASW D HRMM SECON CODA AMPLIT PERI AZIMU VELO SNR AR TRES W  DIS CAZ7
 BAR2 SZ IP       1327 28.67                             170     0.010   26 214 
 BAR2 SZ ES   1   1327 44.06                             170    -0.2 7   26 214 
 BRR  HZ IP       1327 30.61                             150    -0.110   81 296 
 BRR  HZ I        1327 32.14        24.7 0.09                            81 296 
 BRR  HN ES   2   1327 48.06                             150     0.2 5   81 296 
 RUS  BZ IP       1327 32.53                             145     0.010   99 182 
 RUS  BN ES   1   1327 51.22                             145     0.1 7   99 182 
 CHI  HZ EP   3   1327 45.66                             117    -1.0 2  250 198 
 CHI  HE ES   3   1328 15.76                             117    -0.5 2  250 198 
 CHI  HZ I        1328 23.71         4.8 0.07                           250 198 
 HEL  HZ EP       1327 50.59                             114     0.5 7  282 257 
 HEL  HN ES   2   1328 21.22                             114    -1.1 4  282 257 
 HEL  HZ I        1328 28.36         6.5 0.31                           282 257 
 RREF BZ EP       1327 55.14                             111    -0.5 7  328 231 
 RREF BN ES   1   1328 32.94                             111     0.6 5  328 231 
 RREF BZ I        1328 37.07         6.5 0.54                           328 231 
 TOL  SZ EP       1327 58.06                             109     0.4 6  349 226 
 PRA  HZ EP   2   1328  2.45                             107    -0.2 3  396 211 
 PRA  HN ES   3   1328 43.77                             107    -1.0 1  396 211 
 PRA  HZ I        1328 49.96         5.8 0.26                           396 211 
                                                                                
