 2016  426 1823  2.6 L   6.780 -73.160138.9  RSN  6 0.3 1.7LRSN                1
 GAP=136        0.79       3.1     3.6  6.1 -0.1086E+01  0.6327E+01 -0.4136E+01E
 Epicentro: LOS SANTOS - SANTANDER                                             3
 ACTION:UPD 16-05-05 14:24 OP:rebc STATUS:               ID:20160426182302 L   I
 OLDACT:REG 16-04-26 19:56 OP:cara STATUS:               ID:20160426181747     3
 2016-04-26-1817-47M.COL___322                                                 6
 STAT SP IPHASW D HRMM SECON CODA AMPLIT PERI AZIMU VELO AIN AR TRES W  DIS CAZ7
 BAR2 EZ IP       1823 21.55                             171    0.2210 20.9 187 
 BAR2 EZ ES       1823 35.93                             171   -0.0310 20.9 187 
 BAR2 EZ I        1823 37.56         8.5 0.22            172           20.9 187 
 PAM  EZ IP       1823 24.70                             149    0.4710 80.1  39 
 PAM  EN ES       1823 41.07                             149   -0.0510 80.1  39 
 PAM  EZ I        1823 43.36        12.4 0.42            151           80.1  39 
 RUS  HZ EP       1823 25.52                             143    0.0210 98.5 175 
 RUS  HN ES       1823 43.34                             143   -0.0410 98.5 175 
 RUS  HZ I        1823 44.70         4.2 0.24            147           98.5 175 
 PTB  HZ EP       1823 28.36                             131   -0.44 9  146 260 
 PTB  HN ES       1823 49.05                             131   -0.21 9  146 260 
 PTB  HZ I        1823 52.82         5.8 0.20            132            146 260 
 OCA  HZ IP       1823 30.27                             128   -0.28 9  162 354 
 OCA  HN ES       1823 52.07                             128   -0.31 9  162 354 
 OCA  HZ I        1823 56.54        12.6 0.16            129            162 354 
 ZAR  HE ES       1824  0.06                             121    0.63 9  203 293 
 ZAR  HZ I        1824  5.48         8.9 0.44            122            203 293 
                                                                                
