 2016  526 1128 14.7 L   6.773 -73.134145.6  RSN  6 0.5 1.6LRSN                1
 GAP=237        1.37       7.6     7.7 10.0  0.4346E+01  0.1420E+02  0.9419E+01E
 Epicentro: LOS SANTOS - SANTANDER                                             3
 ACTION:UPD 16-08-18 17:49 OP:cam  STATUS:               ID:20160526112814 L   I
 OLDACT:DUP 16-05-26 22:21 OP:ar   STATUS:               ID:20160526112743d    3
 OLDACT:REG 16-05-26 20:46 OP:ar   STATUS:               ID:20160526112742     3
 2016-05-26-1127-42M.COL___313                                                 6
 STAT SP IPHASW D HRMM SECON CODA AMPLIT PERI AZIMU VELO AIN AR TRES W  DIS CAZ7
 BAR2 EZ EP       1128 34.13                             172   -0.1710 20.7 195 
 BAR2 EZ ES       1128 49.07                             172   -0.4910 20.7 195 
 BAR2 EZ I        1128 50.23         9.7 0.22            169           20.7 195 
 BRR  HZ EP       1128 36.00                             152   -0.0210 73.8 300 
 BRR  HN ES       1128 53.26                             152    0.6410 73.8 300 
 BRR  HZ I        1129  3.81         5.7 0.48            147           73.8 300 
 RUS  HZ EP       1128 37.78                             145   -0.4810 97.5 177 
 RUS  HN ES       1128 57.00                             145    0.4010 97.5 177 
 RUS  HZ I        1128 58.04         3.4 0.22            150           97.5 177 
 PTB  HZ EP       1128 42.54                             132    0.77 9  149 260 
 PTB  HN ES       1129  1.86                             132   -0.98 9  149 260 
 PTB  HZ I        1129  9.47         4.1 0.44            132            149 260 
 SPBC HZ EP       1128 43.04                             129   -0.05 9  162 220 
 SPBC HN ES       1129  5.89                             129    0.68 9  162 220 
 SPBC HZ I        1129  7.60         9.1 0.32            132            162 220 
 NOR  HN ES       1129 17.89                             118   -0.32 8  234 235 
 NOR  HZ I        1129 24.08         3.5 0.24            121            234 235 
                                                                                
