 2014  426 1720 19.4 L   6.815 -73.179140.4  RSN 10 0.4 2.5LRSN                1
 GAP=132        0.72       2.4     2.9  5.0 -0.9504E+00  0.4759E+01  0.1531E+01E
 Epicentro: LOS SANTOS - SANTANDER                                             3
 ACTION:UPD 14-05-13 23:11 OP:nd   STATUS:               ID:20140426172019 L   I
 OLDACT:REG 14-04-26 20:37 OP:nd   STATUS:               ID:20140426172000     3
 2014-04-26-1720-00M.COL___270                                                 6
 STAT SP IPHASW D HRMM SECON CODA AMPLIT PERI AZIMU VELO AIN AR TRES W  DIS CAZ7
 PAM  SZ EP       1720 41.16                             149    0.0510 78.6  42 
 PAM  SN ES       1720 58.04                             149   -0.0110 78.6  42 
 PAM  SZ I        1720 58.91        51.0 0.18            154           78.6  42 
 RUS  HZ EP     C 1720 42.49                             142   -0.2710  103 174 
 RUS  HN ES       1721  0.92                             142   -0.0710  103 174 
 RUS  HZ I        1721  2.99        27.3 0.28            146            103 174 
 PTB  HZ EP       1720 45.37                             131   -0.25 9  144 258 
 PTB  HN ES       1721  6.16                             131    0.08 9  144 258 
 PTB  HZ I        1721 11.42        50.8 0.20            132            144 258 
 SPBC HZ EP       1720 47.47                             128    0.09 9  162 218 
 SPBC HN ES       1721  9.01                             128   -0.21 9  162 218 
 SPBC HZ I        1721 12.15        46.5 0.16            130            162 218 
 ZAR  HZ EP       1720 50.98                             121   -0.08 9  200 292 
 ZAR  HN ES       1721 16.49                             121    0.72 9  200 292 
 ZAR  HZ I        1721 22.75        51.3 0.40            123            200 292 
 NOR  HZ EP       1720 54.95                             117    0.36 8  233 234 
 NOR  HN ES       1721 21.72                             117   -0.33 8  233 234 
 NOR  HZ I        1721 24.62        28.2 0.22            119            233 234 
 SML  HZ EP   2   1720 54.82                             116   -0.56 4  241 336 
 SML  HN ES   2   1721 22.35                             116   -1.11 4  241 336 
 SML  HZ I        1721 26.11        31.9 0.10            119            241 336 
 CHI  HZ EP       1720 57.31                             116    0.44 8  249 194 
 CHI  HN ES       1721 26.13                             116    0.03 8  249 194 
 GUY2CHZ EP       1721  2.95                             111    0.43 7  299 234 
 GUY2CHN ES       1721 35.63                             111   -0.53 7  299 234 
 GUY2CHZ I        1721 47.57        12.9 0.56                           299 234 
 PRA  HZ EP       1721 12.88                             105    0.20 6  392 209 
 PRA  HN ES       1721 54.24                             105   -0.01 6  392 209 
 PRA  HZ I        1721 59.06        10.9 0.30            108            392 209 
                                                                                
