 2012  326 1636 27.4 L   6.784 -73.098140.0  RSN 12 0.4 2.3LRSN                1
 GAP=143        0.74       3.8     4.6  5.6 -0.1428E+01  0.6765E+01  0.5324E+01E
 ACTION:UP  12-03-31 23:23 OP:EP   STATUS:               ID:20120326163001dL   I
 2012-03-26-1630-00M.COL___196                                                 6
 STAT SP IPHASW D HRMM SECON CODA AMPLIT PERI AZIMU VELO SNR AR TRES W  DIS CAZ7
 BAR2 SZ IP       1636 46.36                             170     0.010   23 204 
 BAR2 SZ I        1636 46.82        31.0 0.15                            23 204 
 BAR2 SZ ES   1   1637  1.27                             170     0.1 7   23 204 
 PAM  SZ EP   1   1636 49.11                             150     0.2 7   76  36 
 PAM  SE ES   2   1637  5.31                             150    -0.4 5   76  36 
 BRR  HZ EP   1   1636 48.28                             150     0.0 7   77 298 
 BRR  HE ES   1   1637  5.09                             150     0.5 7   77 298 
 BRR  HZ I        1637  9.27        75.4 0.17                            77 298 
 RUS  HZ EP   1   1636 50.39                             143    -0.1 7   99 179 
 RUS  HN ES   2   1637  7.95                             143    -0.5 5   99 179 
 RUS  HZ I        1637 13.27         9.9 0.22                            99 179 
 PTB  HZ EP   2   1636 53.45                             130    -0.9 5  153 260 
 PTB  HN ES   2   1637 14.87                             130    -0.6 5  153 260 
 PTB  HZ I        1637 16.88        24.5 0.17                           153 260 
 OCA  SZ EP   2   1636 56.27                             128     0.7 5  163 351 
 OCA  SZ ES   2   1637 17.04                             128    -0.4 5  163 351 
 ZAR  HZ EP   1   1636 59.42                             120    -0.7 6  210 292 
 ZAR  HN ES   2   1637 25.86                             120     0.3 4  210 292 
 ZAR  HZ I        1637 32.82        29.9 0.13                           210 292 
 NOR  SZ EP   1   1637  3.12                             117    -0.1 6  238 236 
 NOR  SN ES   2   1637 31.12                             117     0.0 4  238 236 
 CHI  HZ EP   1   1637  4.94                             116     0.1 6  248 196 
 CHI  HN ES   2   1637 33.96                             116     0.0 4  248 196 
 CHI  HZ I        1637 38.37         6.7 0.28                           248 196 
 HEL  HZ EP   2   1637  8.05                             113     0.2 4  277 256 
 HEL  HN ES   2   1637 39.09                             113    -0.4 4  277 256 
 HEL  HZ I        1637 46.67        17.5 0.50                           277 256 
 RREF HZ EP       1637 14.46                             110     0.8 7  325 230 
 RREF HN ES   2   1637 50.03                             110     0.3 3  325 230 
 RREF HZ I        1638  0.69         9.3 0.42                           325 230 
 PRA  HZ EP   2   1637 20.20                             105    -0.7 3  393 210 
 PRA  HN ES   2   1638  2.56                             105     0.0 3  393 210 
                                                                                
