 2013  626 1806 24.5 L   6.815 -73.184149.2  RSN  4 0.1 1.5LRSN                1
 GAP=131        0.34       2.1     3.2  4.2 -0.7452E+00 -0.2885E+01  0.2443E+01E
 Epicentro: ZAPATOCA - SANTANDER                                               3
 ACTION:UPD 14-01-08 09:57 OP:ep   STATUS:               ID:20130626180624 L   I
 OLDACT:DUP 13-06-26 19:11 OP:carl STATUS:               ID:20130626175960d    3
 2013-06-26-1759-59M.COL___267                                                 6
 STAT SP IPHASW D HRMM SECON CODA AMPLIT PERI AZIMU VELO AIN AR TRES W  DIS CAZ7
 BAR2 SZ EP       18 6 44.45                             170   -0.1410 24.6 180 
 BRR  HN ES       18 7  2.42                             155    0.0210 66.7 299 
 PAM  SZ EP   1   18 6 47.24                             151    0.05 7 78.9  43 
 PAM  SN ES       18 7  4.88                             151    0.0110 78.9  43 
 PAM  SZ I        18 7  6.61         6.1 0.54            152           78.9  43 
 RUS  HZ EP   1   18 6 48.90                             144    0.15 7  103 174 
 RUS  HN ES       18 7  7.65                             144   -0.0010  103 174 
 RUS  HZ I        18 7  9.89         3.8 0.38            145            103 174 
                                                                                
