 2016  526 1336 30.8 L   6.816 -73.159144.0  RSN 18 0.4 2.4LRSN                1
 GAP= 70        1.01       2.7     2.8  4.6 -0.1457E+01  0.3512E+01  0.1831E+01E
 Epicentro: LOS SANTOS - SANTANDER                                             3
 ACTION:UPD 16-08-18 17:49 OP:cam  STATUS:               ID:20160526133630 L   I
 OLDACT:UP  16-05-26 23:03 OP:ar   STATUS:               ID:20160526132749     3
 OLDACT:REG 16-05-26 21:08 OP:ar   STATUS:               ID:20160526132749     3
 2016-05-26-1327-49M.COL___314                                                 6
 STAT SP IPHASW D HRMM SECON CODA AMPLIT PERI AZIMU VELO AIN AR TRES W  DIS CAZ7
 BAR2 EZ EP       1336 50.00                             170   -0.2210 24.9 186 
 BAR2 EZ ES       1337  5.34                             170   -0.0510 24.9 186 
 BRR  HZ EP       1336 51.87                             153    0.2610 69.1 298 
 BRR  HN ES       1337  8.84                             153    0.9810 69.1 298 
 BRR  HZ I        1337 10.69        37.6 0.32            152           69.1 298 
 PAM  EZ EP       1336 53.00                             151    0.2310 76.9  41 
 PAM  EN ES       1337  9.94                             151    0.0110 76.9  41 
 PAM  EZ I        1337 12.16        46.6 0.50            151           76.9  41 
 RUS  HZ EP       1336 54.17                             143   -0.3110  102 175 
 RUS  HN ES       1337 12.74                             143   -0.2410  102 175 
 RUS  HZ I        1337 13.78        28.6 0.34            141            102 175 
 PTB  HZ EP       1336 56.75                             132   -0.74 9  147 258 
 PTB  HN ES       1337 18.11                             132   -0.23 9  147 258 
 PTB  HZ I        1337 24.69        25.2 0.40            130            147 258 
 TAM  HZ EP       1336 58.44                             130   -0.04 9  157 105 
 TAM  HZ I        1337 14.89        15.5 0.40            130            157 105 
 TAM  HE ES       1337 20.38                             130    0.29 9  157 105 
 OCA  HZ EP       1336 59.20                             130    0.44 9  158 354 
 OCA  HN ES       1337 19.88                             130   -0.71 9  158 354 
 OCA  HZ I        1337 24.56        42.5 0.38            129            158 354 
 SPBC HZ EP       1336 59.26                             129    0.08 9  164 218 
 SPBC HN ES       1337 21.01                             129   -0.33 9  164 218 
 SPBC HZ I        1337 27.15        46.9 0.24            127            164 218 
 NOR  HZ EP       1337  6.24                             118   -0.14 8  235 234 
 NOR  HN ES       1337 34.06                             118   -0.10 8  235 234 
 NOR  HZ I        1337 41.84        23.0 0.14            117            235 234 
 CHI  HZ EP       1337  8.25                             117   -0.26 8  250 195 
 CHI  HN ES       1337 37.91                             117   -0.05 8  250 195 
 CHI  HZ I        1337 41.46        10.5 0.66            115            250 195 
 ROSC BZ EP   9   1337 10.49                             116    1.61 0  254 211 
 ROSC BN ES       1337 40.66                             117    0.44 8  254 211 
 ROSC BZ I        1337 48.23        16.1 0.30            115            254 211 
 HEL  HZ EP       1337 11.50                             115    0.72 8  271 255 
 HEL  HN ES       1337 41.68                             115   -0.32 8  271 255 
 HEL  HZ I        1337 50.01        11.8 0.28            113            271 255 
 URE  HZ EP       1337 10.64                             113   -0.89 7  282 292 
 URE  HN ES   4   1337 41.59                             113   -1.73 0  282 292 
 URE  HZ I        1337 52.61        10.6 0.18            112            282 292 
 PTGC HZ EP   4   1337 13.29                             111   -1.50 0  311 159 
 PTGC HN ES   4   1337 46.31                             111   -2.82 0  311 159 
 DBB  SZ EP       1337 18.24                             109    0.25 7  338 274 
 DBB  SZ ES       1337 55.15                             109    0.32 7  338 274 
 DBB  SZ I        1337 57.53        28.9 0.74            108            338 274 
 ANIL HZ EP       1337 21.45                             108    0.92 6  358 224 
 ANIL HN ES       1337 59.40                             108    0.05 6  358 224 
 ANIL HZ I        1338  6.83        30.5 0.26            107            358 224 
 PRA  HZ EP       1337 23.99                             106   -0.34 6  393 209 
 PRA  HN ES       1338  6.31                             106    0.21 6  393 209 
 PRA  HZ I        1338  9.99         9.0 0.22            105            393 209 
 ORTC HZ EP       1337 24.97                             106    0.27 6  396 216 
 ORTC HN ES       1338  7.69                             106    0.93 6  396 216 
 ORTC HZ I        1338 13.82         6.0 0.26            105            396 216 
 CRJC HZ EP   4   1337 30.42                             103   -2.60 0  466   4 
 CRJC HN ES   4   1338 18.11                             103   -3.46 0  466   4 
 CRJC HZ I        1338 20.59         6.0 0.42            103            466   4 
                                                                                
