 2014  126 1817 33.0 L   6.794 -73.182137.9  RSN  6 0.5 1.6LRSN                1
 GAP=143        1.26       7.2     7.4  9.1 -0.1774E+02  0.1435E+02  0.9645E+01E
 Epicentro: LOS SANTOS - SANTANDER                                             3
 ACTION:UPD 14-03-13 09:58 OP:ep   STATUS:               ID:20140126181733 L   I
 OLDACT:REG 14-01-26 16:10 OP:stll STATUS:               ID:20140126180812     3
 2014-01-26-1808-12M.COL___243                                                 6
 STAT SP IPHASW D HRMM SECON CODA AMPLIT PERI AZIMU VELO AIN AR TRES W  DIS CAZ7
 BAR2 SZ ES       1818  7.14                             170    0.8810 22.3 180 
 BAR2 SZ I        1818  9.78        16.6 0.26            149           22.3 180 
 PAM  SZ EP       1817 55.01                             148    0.3910 80.4  41 
 PAM  SZ I        1817 55.18        13.4 0.22            138           80.4  41 
 PAM  SN ES       1818 10.82                             148   -0.6310 80.4  41 
 RUS  HZ EP       1817 56.02                             142    0.0110  100 174 
 RUS  HN ES       1818 13.35                             142   -0.5710  100 174 
 RUS  HZ I        1818 16.13         3.5 0.34            118            100 174 
 PTB  HN ES       1818 19.13                             131   -0.13 9  144 259 
 NOR  HZ EP       1818  7.60                             117   -0.34 8  231 234 
 NOR  HZ I        1818 43.43         2.8 0.12            101            231 234 
 CHI  HZ EP       1818 10.53                             116    0.39 8  247 194 
 CHI  HZ I        1818 45.49         2.4 0.44            100            247 194 
                                                                                
