 2011  526 1252  3.7 L   6.314 -73.586113.0  RSN 17 0.3 3.0LRSN                1
 GAP= 77        0.64       2.4     2.8  4.4 -0.3834E+01  0.5078E+01 -0.3849E+00E
 Epicentro: SANTA HELENA DEL OPON - SANTANDER                                  3
 ACTION:UP  11-06-29 08:56 OP:tino STATUS:               ID:20110526125203 L   I
 2011-05-26-1250-27S.COL___115                                                 6
 STAT SP IPHASW D HRMM SECON CODA AMPLIT PERI AZIMU VELO SNR AR TRES W  DIS CAZ7
 BAR2 SZ IP       1252 21.02                             153     0.310   54  55 
 BAR2 SZ ES       1252 33.79                             153    -0.110   54  55 
 BAR2 SZ I        1252 35.68       470.9 0.24                            54  55 
 RUS  HZ IP     D 1252 22.28                             145     0.110   73 130 
 RUS  HZ I        1252 22.96       140.3 0.28                            73 130 
 RUS  HN ES   2   1252 36.24                             145    -0.4 5   73 130 
 BTL  SZ IP       1252 22.36                             144     0.310   76  28 
 BRR  HZ EP       1252 22.58                             139    -0.110   89 351 
 BRR  HN ES   1   1252 37.77                             139     0.2 7   89 351 
 BRR  HZ I        1252 43.63       132.0 0.12                            89 351 
 GIR2 SZ EP       1252 23.75                             137     0.310   95  27 
 PAM  SZ EP   1   1252 28.97                             123    -0.1 7  150  41 
 PAM  SN ES   1   1252 48.48                             123    -0.3 7  150  41 
 NOR  SZ EP       1252 29.67                             120    -0.3 9  164 240 
 NOR  SN ES   1   1252 50.07                             120    -0.4 7  164 240 
 BRI  SZ EP   1   1252 31.93                             118     0.3 7  178  29 
 ROSC BZ EP   2   1252 31.68                             117    -0.6 4  182 207 
 ROSC BE ES   2   1252 55.26                             117     0.6 4  182 207 
 ROSC BZ I        1253  3.59       124.7 0.20                           182 207 
 GRA  SZ EP       1252 33.03                             116    -0.3 9  194  26 
 GRA  SZ ES   1   1252 56.38                             116     0.0 6  194  26 
 GRA  SZ I        1253  0.55        92.5 0.36                           194  26 
 OCA  SZ EP   1   1252 35.22                             113    -0.4 6  215   8 
 OCA  SZ I        1253  8.20        90.5 0.32                           215   8 
 HEL  HZ EP   1   1252 35.66                             113    -0.3 6  215 266 
 HEL  HN ES   1   1253  1.43                             113     0.3 6  215 266 
 HEL  HZ I        1253  5.83        89.4 0.54                           215 266 
 OCA  SZ ES   1   1253  0.35                             113    -0.2 6  215   8 
 RREF HZ EP       1252 40.16                             109    -0.1 8  250 231 
 RREF HN ES   2   1253  8.93                             109     0.2 4  250 231 
 RREF HZ I        1253 15.43       114.1 0.32                           250 231 
 TOL  SZ EP   1   1252 42.28                             107     0.0 6  271 225 
 ANIL HZ EP   1   1252 43.88                             106     0.0 6  285 225 
 ANIL HN ES   2   1253 14.58                             106    -0.6 4  285 225 
 DBB  SZ EP       1252 45.62                             105     0.2 7  300 285 
 PRA  HZ EP   1   1252 48.06                             104     0.2 5  322 207 
 PRA  HN ES   2   1253 22.88                             104     0.6 3  322 207 
                                                                                
