 2014  926 1051 22.5 L   6.831 -73.184148.2  RSN 19 0.5 2.8LRSN                1
 GAP= 68        1.03       2.6     3.0  4.7  0.2348E+00  0.4079E+01 -0.6345E-01E
 Epicentro: ZAPATOCA - SANTANDER                                               3
 ACTION:UPD 14-10-03 23:08 OP:nd   STATUS:               ID:20140926105122 L   I
 OLDACT:UP  14-09-26 21:18 OP:cam  STATUS:               ID:20140926105000     3
 OLDACT:UP  14-09-26 21:18 OP:cam  STATUS:               ID:20140926105000     3
 OLDACT:UP  14-09-26 21:17 OP:cam  STATUS:               ID:20140926105000     3
 OLDACT:REG 14-09-26 20:18 OP:cam  STATUS:               ID:20140926105000     3
 2014-09-26-1050-00M.COL___252                                                 6
 STAT SP IPHASW D HRMM SECON CODA AMPLIT PERI AZIMU VELO AIN AR TRES W  DIS CAZ7
 BAR2 SZ IP     C 1051 42.54                             170    0.0210 26.4 180 
 BAR2 SZ ES       1051 57.86                             170   -0.2610 26.4 180 
 BAR2 SZ I        1052  0.29       244.5 0.28            170           26.4 180 
 BRR  HZ IP     C 1051 44.35                             155    0.6910 65.8 298 
 BRR  HN ES       1052  0.88                             155    0.7410 65.8 298 
 BRR  HZ I        1052  5.44       103.8 0.28            152           65.8 298 
 PAM  SZ EP     C 1051 45.32                             151    0.2910 77.7  44 
 PAM  SN ES       1052  2.52                             151   -0.0510 77.7  44 
 PAM  SZ I        1052  5.64        56.9 0.50            154           77.7  44 
 RUS  HZ EP     D 1051 46.47                             143   -0.3310  104 174 
 RUS  HN ES       1052  5.54                             143   -0.1910  104 174 
 RUS  HZ I        1052  6.47        54.9 0.28            146            104 174 
 PTB  HZ EP       1051 49.11                             133   -0.29 9  144 257 
 PTB  HN ES       1052  9.98                             133   -0.37 9  144 257 
 PTB  HZ I        1052 12.72        58.6 0.12            132            144 257 
 TAM  HZ EP     C 1051 50.97                             130    0.10 9  160 106 
 TAM  HE ES       1052 12.69                             130   -0.28 9  160 106 
 TAM  HZ I        1052 13.95        34.1 0.28            134            160 106 
 SPBC HZ EP       1051 51.46                             130    0.23 9  163 217 
 SPBC HN ES       1052 13.38                             130   -0.23 9  163 217 
 SPBC HZ I        1052 19.73        87.5 0.20            130            163 217 
 ZAR  HZ EP       1051 55.04                             124    0.43 9  199 292 
 ZAR  HN ES       1052 19.80                             124    0.17 9  199 292 
 ZAR  HZ I        1052 25.55        68.5 0.36            123            199 292 
 CTAB SZ EP   4   1052  0.18                             120    1.66 0  231 209 
 CTAB SZ ES       1052 26.11                             120   -0.47 8  231 209 
 CTAB SZ I        1052 34.28        79.4 0.41            121            231 209 
 SML  HZ EP       1051 58.49                             118   -0.29 8  239 336 
 SML  HN ES       1052 26.86                             118   -0.19 8  239 336 
 SML  HZ I        1052 29.35        76.4 0.34            119            239 336 
 CHI  HZ EP   1   1052  0.67                             117    0.06 6  251 194 
 CHI  HN ES       1052 30.17                             117   -0.14 8  251 194 
 CHI  HZ I        1052 35.39        38.5 0.30            119            251 194 
 ROSC BZ EP       1052  2.08                             117    1.21 8  254 210 
 ROSC BE ES   4   1052 32.95                             117    2.17 0  254 210 
 URE  HZ EP       1052  3.13                             114   -0.01 7  279 292 
 URE  HN ES   4   1052 32.94                             114   -1.88 0  279 292 
 URE  HZ I        1052 43.67        29.2 0.14            115            279 292 
 GUY2CHZ EP       1052  6.78                             113    0.69 7  300 234 
 GUY2CHN ES       1052 40.05                             113   -0.02 7  300 234 
 GUY2CHZ I        1052 48.85        35.0 0.60                           300 234 
 PTGC HZ EP   4   1052  5.63                             112   -1.41 0  313 158 
 PTGC HZ I        1052  7.01        77.3 0.30            114            313 158 
 PTGC HN ES   4   1052 39.53                             112   -2.22 0  313 158 
 CBOC HZ EP   4   1052 10.17                             110    0.96 0  331 251 
 DBB  SZ EP       1052  9.87                             110    0.27 7  335 274 
 DBB  SZ ES   4   1052 42.94                             110   -3.37 0  335 274 
 DBB  SZ I        1052 50.14        81.2 0.46            111            335 274 
 MON  HZ EP       1052  9.62                             109   -1.38 6  348 308 
 MON  HN ES       1052 48.38                             109   -0.43 6  348 308 
 MON  HZ I        1053  3.25        15.6 0.46            110            348 308 
 PRA  HZ EP       1052 16.00                             107   -0.24 6  393 209 
 PRA  HN ES       1052 58.02                             107   -0.12 6  393 209 
 PRA  HZ I        1053  4.89        39.2 0.24            108            393 209 
 SJC  HZ EP     C 1052 16.73                             106   -0.84 6  404 327 
 SJC  HN ES   4   1052 57.71                             106   -2.79 0  404 327 
 SJC  HZ I        1053 12.35         8.8 0.26            107            404 327 
                                                                                
