 2012  226 1127  5.9 L   6.869 -73.124144.4  RSN  5 0.2 1.2LRSN                1
 GAP=136        0.44       3.1     4.5  4.3 -0.4763E+00 -0.1516E+01  0.2293E+01E
 ACTION:UP  12-03-07 16:34 OP:epov STATUS:               ID:20120226112705 L   I
 2012-02-26-1120-00M.COL___192                                                 6
 STAT SP IPHASW D HRMM SECON CODA AMPLIT PERI AZIMU VELO AIN AR TRES W  DIS CAZ7
 GIR2 SZ ES   1   1127 40.24                             170   -0.07 7 24.4 342 
 BAR2 SZ EP   1   1127 25.38                             167   -0.16 7 31.3 192 
 BAR2 SZ ES   1   1127 40.58                             167   -0.29 7 31.3 192 
 BAR2 SZ I        1127 42.41         6.9 0.44                          31.3 192 
 PAM  SZ I        1127 45.59         3.4 0.25                          70.1  42 
 BRR  HZ EP   1   1127 26.62                             153   -0.20 7 70.1 292 
 BRR  HN ES   1   1127 43.42                             153    0.27 7 70.1 292 
 PAM  SZ EP   1   1127 27.72                             153    0.19 7 70.1  42 
 PAM  SE ES   1   1127 44.44                             153    0.03 7 70.1  42 
 RUS  HZ EP   1   1127 30.07                             141    0.01 7  108 178 
 RUS  HZ I        1127 30.54         1.3 0.28                           108 178 
 RUS  HN ES   1   1127 49.14                             141    0.23 7  108 178 
                                                                                
