 2014 1026 1057 51.8 L   6.804 -73.160154.0  RSN 20 0.4 2.7LRSN                1
 GAP= 64        1.03       2.7     3.0  4.6 -0.6292E+00  0.2670E+01  0.2438E+01E
 Epicentro: LOS SANTOS - SANTANDER                                             3
 ACTION:UPD 14-11-29 23:57 OP:nd   STATUS:               ID:20141026105751 L   I
 OLDACT:REG 14-10-29 14:09 OP:fm   STATUS:               ID:20141026104738     3
 2014-10-26-1047-38M.COL___277                                                 6
 STAT SP IPHASW D HRMM SECON CODA AMPLIT PERI AZIMU VELO AIN AR TRES W  DIS CAZ7
 BAR2 SZ EP     C 1058 12.54                             171    0.1410 23.6 186 
 BAR2 SZ ES       1058 28.23                             171   -0.2610 23.6 186 
 BAR2 SZ I        1058 28.72        53.9 0.24            168           23.6 186 
 BRR  HZ EP       1058 14.48                             154    0.7410 69.6 299 
 BRR  HN ES       1058 31.76                             154    0.8910 69.6 299 
 BRR  HZ I        1058 35.44        81.2 0.46            154           69.6 299 
 PAM  SZ EP       1058 15.29                             152    0.3810 78.0  41 
 PAM  SN ES       1058 32.19                             152   -0.7610 78.0  41 
 PAM  SZ I        1058 34.76        65.3 0.50            155           78.0  41 
 RUS  HZ EP       1058 16.42                             145    0.0410  101 175 
 RUS  HN ES       1058 34.99                             145   -0.5910  101 175 
 RUS  HZ I        1058 36.33        29.2 0.26            144            101 175 
 PTB  HZ EP       1058 19.19                             134   -0.11 9  146 259 
 PTB  HN ES       1058 40.30                             134   -0.47 9  146 259 
 PTB  HZ I        1058 43.52        40.5 0.12            133            146 259 
 TAM  HZ EP       1058 20.66                             132    0.40 9  157 105 
 TAM  HN ES       1058 42.42                             132   -0.06 9  157 105 
 TAM  HZ I        1058 48.92        26.6 0.50            134            157 105 
 OCA  HZ EP       1058 20.71                             131    0.03 9  160 354 
 OCA  HN ES       1058 43.14                             131   -0.09 9  160 354 
 OCA  HZ I        1058 49.72        41.7 0.50            133            160 354 
 SPBC HZ EP       1058 21.44                             131    0.58 9  163 218 
 SPBC HN ES       1058 43.27                             131   -0.28 9  163 218 
 SPBC HZ I        1058 50.42        69.9 0.20            130            163 218 
 CHI  HZ EP       1058 29.80                             119   -0.15 8  249 195 
 CHI  HN ES       1058 59.92                             119    0.20 8  249 195 
 CHI  HZ I        1059  7.92        19.9 0.56            119            249 195 
 ROSC BZ EP   4   1058 32.32                             118    2.01 0  252 211 
 ROSC BN ES   4   1058 57.52                             118   -2.85 0  252 211 
 ROSC BZ I        1059  8.59        45.4 0.50            118            252 211 
 HEL  HZ EP       1058 32.35                             116    0.08 8  271 256 
 HEL  HN ES       1059  3.54                             116   -0.31 8  271 256 
 HEL  HZ I        1059 10.82        15.7 0.34            116            271 256 
 GUY2CHZ EP       1058 35.76                             114    0.10 7  300 235 
 GUY2CHN ES       1059  9.82                             114   -0.08 7  300 235 
 GUY2CHZ I        1059 19.01        21.2 0.28                           300 235 
 VIL  SZ EP   1   1058 35.95                             113    0.36 5  303 191 
 VIL  SE ES       1059 10.29                             113    0.52 7  303 191 
 VIL  SZ I        1059 20.73        46.9 0.64            114            303 191 
 PTGC HZ EP       1058 35.40                             113   -0.72 7  310 158 
 PTGC HN ES   4   1059  9.31                             113   -1.40 0  310 158 
 PTGC HZ I        1059 11.96        19.1 0.52            113            310 158 
 TOL  SZ EP       1058 40.36                             111    0.07 7  343 224 
 TOL  SN ES   4   1059 20.04                             111    1.91 0  343 224 
 TOL  SZ I        1059 25.94        94.8 0.84            111            343 224 
 MON  HZ EP   4   1058 39.54                             110   -1.40 0  352 308 
 MON  HN ES       1059 18.57                             110   -0.71 6  352 308 
 MON  HZ I        1059 24.24         4.4 0.20            111            352 308 
 PRA  HZ EP       1058 46.00                             108    0.45 6  392 209 
 PRA  HN ES   4   1059 25.54                             108   -1.95 0  392 209 
 PRA  HZ I        1059 33.62        23.0 0.32            108            392 209 
 ORTC HZ EP       1058 45.35                             107   -0.57 6  395 216 
 ORTC HE ES   4   1059 24.88                             107   -3.28 0  395 216 
 ORTC HZ I        1059 36.07        18.0 0.44            108            395 216 
 SJC  HZ EP   1   1058 46.62                             107   -0.86 4  408 327 
 SJC  HE ES   4   1059 28.26                             107   -2.66 0  408 327 
 SJC  HZ I        1059 32.20         8.1 0.42            108            408 327 
 SMAR HZ EP   1   1058 57.36                             103   -0.41 3  496 346 
 SMAR HN ES   4   1059 45.90                             103   -3.35 0  496 346 
 SMAR HZ I        1059 50.81        16.7 0.18            104            496 346 
                                                                                
