 2012  726 1406  0.4 L   6.707 -73.225140.0  RSN  4 0.3 1.4LRSN                1
 GAP=210        0.47       8.5    14.1 11.1  0.9933E+02  0.2208E+02  0.6457E+01E
 Epicentro: VILLANUEVA - SANTANDER                                             3
 ACTION:UPD 12-08-14 11:45 OP:ep   STATUS:               ID:20120726140600 L   I
 2012-07-26-1400-00M.COL___215                                                 6
 STAT SP IPHASW D HRMM SECON CODA AMPLIT PERI AZIMU VELO AIN AR TRES W  DIS CAZ7
 BAR2 SZ ES   3   14 6 33.47                             174    -0.3 2   14 160 
 BAR2 SZ I        14 6 35.73         6.7 0.20            141             14 160 
 BRR  HZ EP   2   14 6 20.46                             152    -0.4 5   70 309 
 BRR  HZ I        14 6 34.35         7.2 0.28            118             70 309 
 BRR  HN ES   1   14 6 36.95                             152     0.2 7   70 309 
 RUS  HN ES   1   14 6 40.55                             146     0.1 7   91 170 
 PTB  HZ EP   3   14 6 26.41                             133     0.4 2  137 262 
 PTB  HN ES   3   14 6 45.33                             133    -0.6 2  137 262 
 PTB  HZ I        14 6 47.56         2.3 0.60            108            137 262 
