 2016 1126 1102  6.3 L   6.855 -73.220139.9  RSN  4 0.3 1.3LRSN                1
 GAP=125        0.75       6.4     3.7  7.3 -0.7585E+01  0.1088E+02 -0.8747E+01E
 Epicentro: ZAPATOCA - SANTANDER                                               3
 ACTION:UPD 17-10-26 21:12 OP:lp   STATUS:               ID:20161126110206 L   I
 OLDACT:REG 16-11-26 20:49 OP:cara STATUS:               ID:20161126105746     3
 2016-11-26-1058-00M.COL___352                                                 6
 STAT SP IPHASW D HRMM SECON CODA AMPLIT PERI AZIMU VELO AIN AR TRES W  DIS CAZ7
 BAR2 EZ IP       11 2 25.28                             168   -0.0610 29.3 172 
 BAR2 EZ ES       11 2 39.93                             168   -0.2810 29.3 172 
 BAR2 EZ I        11 2 42.44         5.9 0.30            172           29.3 172 
 PAM  EZ IP       11 2 28.15                             149    0.2010 78.6  47 
 PAM  EN ES       11 2 44.95                             149    0.1010 78.6  47 
 PAM  EZ I        11 2 46.92         3.2 0.56            152           78.6  47 
 PTB  HZ EP       11 2 31.93                             132   -0.23 9  141 256 
 PTB  HN ES       11 2 52.90                             132    0.55 9  141 256 
 PTB  HZ I        11 2 55.10         2.4 0.14            134            141 256 
 ZAR  HN ES       11 3  1.23                             122   -0.31 9  194 291 
 ZAR  HZ I        11 3  5.74         2.4 0.36            124            194 291 
                                                                                
