 2011  526 1818 51.6 L   6.925 -73.150135.2  RSN  6 0.3 1.7LRSN                1
 GAP=152        0.53       4.5     6.1  7.7 -0.9064E+01 -0.4323E+01 -0.3660E+01E
 Epicentro: PIEDECUESTA - SANTANDER                                            3
 ACTION:UP  11-06-29 08:56 OP:tino STATUS:               ID:20110526181851 L   I
 2011-05-26-1816-43S.COL___113                                                 6
 STAT SP IPHASW D HRMM SECON CODA AMPLIT PERI AZIMU VELO SNR AR TRES W  DIS CAZ7
 BAR2 SZ ES   2   1819 25.00                             164     0.1 5   37 186 
 BAR2 SZ I        1819 26.52        30.7 0.60                            37 186 
 BRR  HZ EP   1   1819 11.16                             153    -0.1 7   65 288 
 BRR  HE ES   1   1819 26.57                             153     0.0 7   65 288 
 BRR  HZ I        1819 30.30        14.5 0.17                            65 288 
 BRI  SZ EP   2   1819 14.14                             143     0.6 5   96  24 
 GRA  SZ EP   2   1819 14.29                             138    -0.5 5  113  20 
 GRA  SZ ES   2   1819 32.94                             138     0.0 5  113  20 
 GRA  SZ I        1819 35.41         6.5 0.33                           113  20 
 RUS  HN ES   2   1819 33.88                             138    -0.1 5  114 176 
 RUS  HZ I        1819 36.93         2.9 0.25                           114 176 
 NOR  SE ES   2   1819 55.79                             115     0.1 4  243 232 
                                                                                
