 2012  426 1813 13.3 L   6.739 -73.140138.0  RSN  5 0.3 1.1LRSN                1
 GAP=140        0.63       4.3     4.3  6.8 -0.1870E+01  0.3877E+01  0.2013E+01E
 Epicentro: JORDAN - SANTANDER                                                 3
 ACTION:UPD 12-07-05 11:56 OP:tino STATUS:               ID:20120426181313 L   I
 2012-04-26-1810-00M.COL___189                                                 6
 STAT SP IPHASW D HRMM SECON CODA AMPLIT PERI AZIMU VELO AIN AR TRES W  DIS CAZ7
 BAR2 SZ ES   2   1813 46.08                             173    -0.3 5   17 196 
 BAR2 SZ I        1813 48.34         5.1 0.23                            17 196 
 BRR  HZ EP   1   1813 33.83                             150     0.0 7   75 303 
 BRR  HE ES   1   1813 50.32                             150     0.5 7   75 303 
 PAM  SZ EP   1   1813 34.83                             148    -0.2 7   82  36 
 PAM  SN ES   1   1813 51.82                             148    -0.1 7   82  36 
 RUS  HZ EP   1   1813 35.79                             144     0.0 7   94 176 
 RUS  HN ES   1   1813 53.49                             144     0.2 7   94 176 
 RUS  HZ I        1813 54.57         1.9 0.34                            94 176 
 PTB  HZ EP   1   1813 39.84                             130     0.3 7  147 261 
 PTB  HN ES   1   1813 59.56                             130    -0.5 7  147 261 
 PTB  HZ I        1814  1.83         1.5 0.38                           147 261 
                                                                                
