 2010  726 1757 38.3 L   6.776 -73.118150.3  RSN  5 0.3 1.4LRSN                1
 GAP=162        0.56       5.3    11.1  9.5  0.1534E+02 -0.5225E+02 -0.2322E+02E
 Epicentro: LOS SANTOS - SANTANDER                                             3
 ACTION:UPD 10-12-01 15:20 OP:pat  STATUS:               ID:20100726175738 L   I
 2010-07-26-1755-17S.COL___123                                                 6
 STAT SP IPHASW D HRMM SECON CODA AMPLIT PERI AZIMU VELO AIN AR TRES W  DIS CAZ7
 BAR2 SZ EP   1   1757 58.23                             172    -0.3 7   22 200 
 BAR2 SZ ES   2   1758 13.91                             172    -0.3 5   22 200 
 BAR2 SZ I        1758 14.78         9.0 0.14                            22 200 
 BRR  HZ EP   1   1758  0.14                             152    -0.1 7   75 299 
 BRR  HE ES   2   1758 17.44                             152     0.2 5   75 299 
 RUS  HZ EP   1   1758  2.36                             146     0.0 7   98 178 
 RUS  HN ES   2   1758 21.46                             146     0.4 5   98 178 
 RUS  HZ I        1758 22.30         2.6 0.39                            98 178 
 GUE  SZ EP   1   1758  4.09                             140     0.4 7  119  10 
 GRA  SZ EP   1   1758  3.90                             138    -0.2 7  127  16 
                                                                                
