 2015 1226 1156  2.2 L   6.797 -73.172141.9  RSN  6 0.4 1.5LRSN                1
 GAP=242        0.92       5.0     4.9  7.2  0.9397E+01  0.8654E+01 -0.1302E+01E
 Epicentro: LOS SANTOS - SANTANDER                                             3
 ACTION:UPD 16-02-04 15:07 OP:cam  STATUS:               ID:20151226115602 L   I
 OLDACT:DUP 15-12-26 22:10 OP:cara STATUS:               ID:20151226114751d    3
 OLDACT:REG 15-12-26 19:54 OP:cara STATUS:               ID:20151226114750     3
 2015-12-26-1147-50M.COL___331                                                 6
 STAT SP IPHASW D HRMM SECON CODA AMPLIT PERI AZIMU VELO AIN AR TRES W  DIS CAZ7
 BAR2 EZ IP     D 1156 21.19                             170   -0.1210 22.7 183 
 BAR2 EZ ES       1156 36.17                             170   -0.0810 22.7 183 
 BAR2 EZ I        1156 37.16         6.8 0.40            163           22.7 183 
 RUS  HZ IP       1156 25.21                             143   -0.3210  101 174 
 RUS  HZ EPg      1156 25.68                             143    0.1510  101 174 
 RUS  HN ES       1156 44.15                             143    0.3910  101 174 
 RUS  HZ I        1156 49.33         3.1 0.52            139            101 174 
 PTB  HZ EP       1156 27.85                             132   -0.69 9  145 259 
 PTB  HN ES       1156 48.76                             132   -0.37 9  145 259 
 PTB  HZ I        1156 51.70         5.2 0.14            129            145 259 
 ZAR  HZ EP       1156 34.71                             122    0.63 9  201 293 
 ZAR  HN ES       1156 59.36                             122    0.37 9  201 293 
 ZAR  HZ I        1157  4.70         5.5 0.46            122            201 293 
 NOR  HE ES       1157  5.02                             118    0.15 8  232 234 
 NOR  HZ I        1157  8.10         3.9 0.22            116            232 234 
 CHI  HN ES       1157  8.79                             116    0.11 8  248 195 
 CHI  HZ I        1157 20.35         1.4 0.42            115            248 195 
                                                                                
