 2015  626 1926 15.1 L   7.151 -73.264118.6  RSN 10 0.3 2.6LRSN                1
 GAP=175        0.75       2.2     3.2  4.4 -0.2056E+00  0.4673E+01  0.7046E+00E
 Epicentro: LEBRIJA - SANTANDER                                                3
 ACTION:UPD 15-09-10 22:15 OP:cam  STATUS:               ID:20150626192615 L   I
 OLDACT:REG 15-06-26 21:14 OP:drio STATUS:               ID:20150626191748     3
 2015-06-26-1917-48M.COL___319                                                 6
 STAT SP IPHASW D HRMM SECON CODA AMPLIT PERI AZIMU VELO AIN AR TRES W  DIS CAZ7
 BRR  HZ EP     D 1926 32.11                             156   -0.0510 49.8 264 
 BRR  HE ES       1926 45.48                             156    0.0410 49.8 264 
 BRR  HZ I        1926 46.06        67.1 0.14            152           49.8 264 
 BAR2 EZ EP       1926 33.59                             150    0.3810 62.5 172 
 BAR2 EZ ES       1926 47.33                             150    0.0210 62.5 172 
 BAR2 EZ I        1926 48.53       277.5 0.26            150           62.5 172 
 OCA  HZ EP       1926 37.22                             131   -0.3810  120 357 
 OCA  HE ES       1926 55.22                             131    0.1010  120 357 
 OCA  HZ I        1926 56.54       164.9 0.28            132            120 357 
 RUS  HZ EP       1926 40.36                             127    0.40 9  141 172 
 RUS  HN ES       1926 58.94                             127   -0.39 9  141 172 
 ZAR  HZ EP       1926 43.80                             119    0.43 9  180 282 
 ZAR  HN ES       1927  5.59                             119    0.20 9  180 282 
 ZAR  HZ I        1927  7.50        37.3 0.32            118            180 282 
 SML  HZ EP       1926 45.39                             116   -0.45 9  203 334 
 SML  HN ES   4   1927  8.68                             116   -1.11 0  203 334 
 SML  HZ I        1927 10.62        42.0 0.26            116            203 334 
 NOR  HZ EP       1926 51.00                             111   -0.16 8  250 225 
 NOR  HN ES       1927 18.58                             111   -0.68 8  250 225 
 NOR  HZ I        1927 23.23        19.3 0.28            110            250 225 
 HEL  HZ EP   4   1926 55.02                             109    0.90 0  272 247 
 HEL  HN ES       1927 24.54                             109    0.02 8  272 247 
 HEL  HZ I        1927 30.68        12.6 0.28            108            272 247 
 GUY2CHZ EP       1926 59.29                             106   -0.01 7  315 228 
 GUY2CHN ES       1927 33.56                             106   -0.19 7  315 228 
 GUY2CHZ I        1927 42.96        15.3 0.64                           315 228 
 TOL  SZ EP       1927  5.18                             103    0.33 6  364 219 
 TOL  SE ES       1927 44.06                             103    0.43 6  364 219 
 TOL  SZ I        1927 50.54         7.8 0.36            103            364 219 
                                                                                
