 2016  826 1916 58.0 L   6.849 -73.140146.0  RSN 28 0.6 2.7LRSN 2.5WRSN        1
 SPEC AVERAGE  MO 12.8 ST0.007 OM  3.4 f00.959 R1.6204 AL 0.00 WI 29.2 MW  2.5 3
 SPEC SD       MO  0.0 ST0.000 OM  2.5 f00.000 R0.0000 AL      WI      MW  0.0 3
 GAP= 70        1.26       2.6     2.9  4.9 -0.1967E+01  0.2555E+01  0.9834E+00E
 Epicentro: LOS SANTOS - SANTANDER                                             3
 SPEC SOCVBH Z MO 12.8 ST0.007 OM  0.9 f00.959 R1.6204 AL 0.00 WI 29.2 MW  2.5 3
 SPEC SOCVBH Z T1917 6 K 0.000 GD  331 VS 4.20 DE 3.20 Q0  0.0 QA 0.00 VS 4.20 3
 ACTION:UPD 16-10-29 15:39 OP:rebc STATUS:               ID:20160826191658 L   I
 OLDACT:UP  16-08-26 22:58 OP:edw  STATUS:               ID:20160826190945     3
 OLDACT:UP  16-08-26 22:53 OP:edw  STATUS:               ID:20160826190945     3
 OLDACT:REG 16-08-26 20:40 OP:ar   STATUS:               ID:20160826190945     3
 2016-08-26-1910-00M.COL___377                                                 6
 STAT SP IPHASW D HRMM SECON CODA AMPLIT PERI AZIMU VELO AIN AR TRES W  DIS CAZ7
 BAR2 EZ IP     C 1917 17.57                             168   -0.1910 28.8 189 
 BAR2 EZ ES       1917 33.19                             168    0.0010 28.8 189 
 BAR2 EZ I        1917 33.65        66.9 0.14                          28.8 189 
 BRR  HZ IP     C 1917 19.34                             153    0.2910 69.3 294 
 BRR  HN ES       1917 35.48                             153    0.0010 69.3 294 
 BRR  HZ I        1917 40.13        88.9 0.16                          69.3 294 
 PAM  EZ EP       1917 20.60                             152    0.6410 72.9  42 
 PAM  EN ES       1917 37.51                             152    0.4110 72.9  42 
 PAM  EZ I        1917 39.74        29.3 0.18                          72.9  42 
 RUS  HZ EP       1917 21.63                             142   -0.5210  106 177 
 RUS  HN ES       1917 40.42                             142   -0.5810  106 177 
 RUS  HZ I        1917 42.16        60.7 0.22                           106 177 
 PTB  HZ EP   9   1917 24.12                             132   -1.00 0  149 257 
 PTB  HN ES       1917 45.44                             132    0.15 9  149 257 
 PTB  HZ I        1917 46.88        76.9 0.34                           149 257 
 OCA  HZ EP       1917 26.21                             131    0.40 9  155 353 
 OCA  HN ES       1917 48.14                             131    0.63 9  155 353 
 OCA  HZ I        1917 53.17       140.7 0.20                           155 353 
 TAM  HZ IP     D 1917 26.07                             130    0.31 9  156 107 
 TAM  HN ES       1917 47.87                             130    0.44 9  156 107 
 SPBC HZ EP       1917 26.46                             128   -0.48 9  168 218 
 SPBC HN ES       1917 49.26                             128   -0.26 9  168 218 
 SPBC HZ I        1917 53.89        67.4 0.15                           168 218 
 ZAR  HZ EP       1917 30.74                             123    0.45 9  203 291 
 ZAR  HN ES       1917 55.29                             123   -0.20 9  203 291 
 ZAR  HZ I        1918  0.92        91.4 0.34                           203 291 
 NOR  HZ EP       1917 33.64                             118   -0.48 8  238 233 
 NOR  HN ES       1918  2.15                             118   -0.15 8  238 233 
 NOR  HZ I        1918  6.47        39.9 0.32                           238 233 
 CHI  HZ EP       1917 36.02                             117   -0.26 8  254 195 
 CHI  HN ES       1918  5.76                             117   -0.40 8  254 195 
 CHI  HZ I        1918  8.50        28.3 0.30                           254 195 
 ROSC BZ EP       1917 36.95                             116    0.29 8  258 211 
 ROSC BN ES   2   1918  7.41                             116    0.59 4  258 211 
 ROSC BZ I        1918 12.49        45.3 0.45                           258 211 
 HEL  HZ EP       1917 39.66                             115    1.24 8  274 255 
 HEL  HN ES       1918  9.32                             115   -0.64 8  274 255 
 HEL  HZ I        1918 16.51        31.4 0.26                           274 255 
 URE  HZ EP   9   1917 38.28                             114   -0.62 0  282 291 
 URE  HN ES       1918  8.52                             114   -1.68 7  282 291 
 URE  HZ I        1918 17.92        50.2 0.20                           282 291 
 SOCV BZ EP       1917 40.62                             112   -0.03 7  298  58 
 SOCV BN ES       1918 12.76                             112   -1.17 7  298  58 
 GUY2CHZ EP       1917 42.17                             112    0.16 7  305 234 
 GUY2CHN ES       1918 17.41                             112    1.06 7  305 234 
 GUY2CHZ I        1918 25.56        26.5 0.46                           305 234 
 VIL  EZ EP       1917 41.83                             112   -0.20 7  309 191 
 VIL  EN ES       1918 17.03                             112    0.65 7  309 191 
 VIL  EZ I        1918 26.43        39.8 0.46                           309 191 
 PTGC HZ EP   4   1917 41.11                             111   -1.29 0  314 159 
 PTGC HN ES   4   1918 14.53                             111   -2.52 0  314 159 
 PTGC HZ I        1918 20.83        24.5 0.54                           314 159 
 LL6C HZ EP       1917 42.75                             111   -0.32 7  319 357 
 LL6C HE ES       1918 17.73                             111   -0.51 7  319 357 
 LL6C HZ I        1918 30.64         9.7 0.27                           319 357 
 ELA  HZ EP       1917 45.55                             110    0.25 7  333 229 
 ELA  HE ES       1918 22.66                             110    0.45 7  333 229 
 ELA  HZ I        1918 28.73        15.4 0.40                           333 229 
 CBOC HZ EP       1917 45.89                             110    0.73 7  336 251 
 CBOC HN ES       1918 21.66                             110   -0.30 7  336 251 
 CBOC HZ I        1918 24.69         7.9 0.17                           336 251 
 DBB  EZ EP       1917 45.76                             109    0.27 7  340 273 
 DBB  EZ ES       1918 21.28                             109   -1.27 7  340 273 
 DBB  EZ I        1918 22.33        39.6 0.52                           340 273 
 ANIL HZ EP       1917 48.41                             108    0.12 6  362 224 
 ANIL HN ES       1918 27.75                             108    0.21 6  362 224 
 ANIL HZ I        1918 34.28        47.7 0.24                           362 224 
 PRA  HZ EP       1917 51.72                             106   -0.38 6  397 209 
 PRA  HN ES       1918 32.95                             106   -1.36 6  397 209 
 PRA  HZ I        1918 40.04        28.8 0.30                           397 209 
 SJC  HZ EP   9   1917 51.29                             106   -1.76 0  405 326 
 SJC  HN ES       1918 33.54                             106   -0.70 6  405 326 
 SJC  HZ I        1918 38.77         7.6 0.26                           405 326 
 PAL  HZ EP       1917 52.93                             106   -0.61 6  409 238 
 PAL  HN ES       1918 37.49                             106    0.62 6  409 238 
 PAL  HZ I        1918 41.85         9.2 0.50                           409 238 
 CRJC HZ EP   9   1917 57.39                             104   -2.44 0  462   4 
 CRJC HN ES       1918 46.65                             104    1.01 5  462   4 
 CRJC HZ I        1918 50.11        10.1 0.22                           462   4 
 SMAR HZ EP       1918  3.10                             102   -0.14 4  492 346 
 SMAR HN ES       1918 52.16                             102   -1.98 4  492 346 
                                                                                
