 2012 1226 1253 27.3 L   6.000 -73.869  0.0  RSN  4 0.5 1.4LRSN                1
 GAP=229        1.11       8.7    10.0 15.2  0.7716E+01  0.9374E+02 -0.6375E+02E
 Epicentro: EL PEON - SANTANDER                                                3
 ACTION:UPD 13-01-04 14:30 OP:ep   STATUS:               ID:20121226125327 L   I
 2012-12-26-1250-00M.COL___242                                                 6
 STAT SP IPHASW D HRMM SECON CODA AMPLIT PERI AZIMU VELO AIN AR TRES W  DIS CAZ7
 RUS  HZ EP   1   1253 42.36                              47    0.08 8 87.8  98 
 RUS  HZ I        1254  8.80         5.1 0.18                          87.8  98 
 BAR2 SZ EP   1   1253 44.50                              47    0.59 8  100  49 
 BAR2 SZ I        1254  1.07        16.3 0.20                           100  49 
 BRR  HZ EP       1253 46.38                              47   -0.8310  124   8 
 BRR  HN ES       1254  2.87                              47    0.1410  124   8 
 BRR  HZ I        1254 10.89        10.6 0.62                           124   8 
 ZAR  HN ES       1254 22.29                              37    0.37 9  198 327 
                                                                                
