 2011  626 1116  8.7 L   6.762 -73.076151.7  RSN 13 0.3 2.3LRSN                1
 GAP=147        0.58       2.8     4.4  4.1 -0.6601E+01  0.3370E+01  0.1056E+01E
 Epicentro: LOS SANTOS - SANTANDER                                             3
 ACTION:UP  11-07-14 19:08 OP:ep   STATUS:               ID:20110626111608 L   I
 2011-06-26-1113-18S.COL___140                                                 6
 STAT SP IPHASW D HRMM SECON CODA AMPLIT PERI AZIMU VELO SNR AR TRES W  DIS CAZ7
 BAR2 SZ EP       1116 28.94                             171    -0.110   22 212 
 BAR2 SZ ES   2   1116 44.71                             171    -0.1 5   22 212 
 BAR2 SZ I        1116 45.19        42.5 0.44                            22 212 
 BTL  SZ IP   1   1116 29.51                             170     0.4 7   27 309 
 BTL  SZ ES   1   1116 45.34                             170     0.3 7   27 309 
 PAM  SZ EP   1   1116 31.80                             152     0.3 7   76  33 
 PAM  SN ES   2   1116 49.52                             152     0.3 5   76  33 
 BRR  HZ IP     C 1116 30.83                             151    -0.110   80 299 
 BRR  HZ I        1116 31.11        95.6 0.17                            80 299 
 BRR  HN ES   2   1116 48.30                             151     0.0 5   80 299 
 RUS  HZ EP   1   1116 32.60                             146    -0.1 7   96 180 
 RUS  HN ES   2   1116 51.17                             146    -0.3 5   96 180 
 RUS  HZ I        1116 52.80        14.5 0.20                            96 180 
 BRI  SZ EP       1116 33.49                             142     0.210  110  16 
 BRI  SZ ES   2   1116 52.45                             142     0.0 5  110  16 
 GRA  SZ IP       1116 34.72                             138     0.110  128  14 
 GRA  SZ ES   1   1116 54.29                             138    -0.5 7  128  14 
 GRA  SZ I        1116 56.68        27.2 0.33                           128  14 
 OCA  SZ EP       1116 37.57                             130    -0.4 9  165 351 
 OCA  SZ ES   2   1117  0.27                             130    -0.5 5  165 351 
 OCA  SZ I        1117  5.42        28.7 0.35                           165 351 
 NOR  SZ EP   1   1116 44.91                             119    -0.3 6  239 236 
 NOR  SN ES   2   1117 13.72                             119     0.1 4  239 236 
 CHI  HZ EP   2   1116 46.17                             119    -0.3 4  247 197 
 CHI  HZ I        1116 49.61         9.5 0.34                           247 197 
 CHI  HN ES   2   1117 15.75                             119    -0.3 4  247 197 
 HEL  HZ EP   1   1116 50.05                             115     0.1 6  279 257 
 HEL  HN ES   2   1117 22.19                             115     0.1 4  279 257 
 HEL  HZ I        1117 27.57        12.6 0.65                           279 257 
 RREF HZ EP   1   1116 55.92                             112     0.5 5  325 231 
 RREF HN ES   2   1117 32.32                             112     0.4 3  325 231 
 RREF HZ I        1117 41.12         9.9 0.44                           325 231 
 PRA  HZ EP   1   1117  2.14                             107    -0.3 4  392 211 
 PRA  HN ES   2   1117 44.34                             107     0.0 3  392 211 
                                                                                
