 2016  226 1255 55.6 L   6.788 -73.144144.0  RSN 10 0.4 2.0LRSN                1
 GAP=137        0.92       3.6     3.9  5.8 -0.2212E+01  0.8064E+01  0.2301E+01E
 Epicentro: LOS SANTOS - SANTANDER                                             3
 ACTION:UPD 16-03-04 21:29 OP:rebc STATUS:               ID:20160226125555 L   I
 OLDACT:UP  16-02-26 22:46 OP:drio STATUS:               ID:20160226124748     3
 OLDACT:UP  16-02-26 22:46 OP:drio STATUS:               ID:20160226124748     3
 OLDACT:REG 16-02-26 21:01 OP:drio STATUS:               ID:20160226124748     3
 2016-02-26-1247-48M.COL___318                                                 6
 STAT SP IPHASW D HRMM SECON CODA AMPLIT PERI AZIMU VELO AIN AR TRES W  DIS CAZ7
 BAR2 EZ IP     D 1256 14.87                             171   -0.0910 22.1 191 
 BAR2 EZ ES       1256 30.02                             171   -0.0610 22.1 191 
 BAR2 EZ I        1256 33.28        12.9 0.24            169           22.1 191 
 PAM  EZ EP       1256 17.59                             150   -0.0510 78.3  39 
 PAM  EE ES       1256 35.02                             150    0.1510 78.3  39 
 PAM  EZ I        1256 36.98        24.6 0.56            155           78.3  39 
 RUS  HZ EP       1256 18.53                             144   -0.5210 99.3 176 
 RUS  HN ES       1256 37.86                             144    0.5010 99.3 176 
 RUS  HZ I        1256 39.19         8.3 0.22            145           99.3 176 
 PTB  HZ EP       1256 21.75                             132   -0.63 9  148 259 
 PTB  HE ES       1256 43.00                             132   -0.30 9  148 259 
 PTB  HZ I        1256 48.82        13.0 0.28            132            148 259 
 SPBC HZ EP   4   1256 22.68                             129   -1.16 0  162 219 
 SPBC HE ES       1256 46.20                             129    0.30 9  162 219 
 SPBC HZ I        1256 48.37        18.0 0.12            130            162 219 
 ZAR  HE ES       1256 53.46                             122    0.22 9  205 292 
 NOR  HZ EP       1256 31.11                             118   -0.02 8  234 235 
 NOR  HE ES       1256 58.66                             118   -0.20 8  234 235 
 NOR  HZ I        1257  1.42         8.1 0.26            120            234 235 
 CHI  HZ EP       1256 33.10                             117    0.07 8  247 195 
 CHI  HN ES       1257  1.87                             117   -0.39 8  247 195 
 CHI  HZ I        1257  8.71         3.3 0.64            119            247 195 
 HEL  HZ EP       1256 36.29                             114    0.62 8  272 256 
 HEL  HE ES   4   1257 10.22                             114    3.26 0  272 256 
 HEL  HZ I        1257 15.44         7.5 0.42            116            272 256 
 GUY2CHZ EP       1256 39.90                             112    0.88 7  301 235 
 GUY2CHE ES   4   1257 15.41                             112    2.49 0  301 235 
 GUY2CHZ I        1257 21.76         8.3 0.70                           301 235 
                                                                                
