 2016  726 1801 36.7 L   6.535 -73.516108.7  RSN  9 0.7 2.1LRSN                1
 GAP= 99        1.84       6.2     6.4 11.6  0.3682E+01  0.3764E+02  0.1304E+02E
 Epicentro: EL CARMEN - SANTANDER                                              3
 ACTION:UPD 17-03-29 16:55 OP:lp   STATUS:               ID:20160726180136 L   I
 2016-07-26-1757-44M.COL___328                                                 6
 STAT SP IPHASW D HRMM SECON CODA AMPLIT PERI AZIMU VELO AIN AR TRES W  DIS CAZ7
 BAR2 EZ EP       18 1 52.40                             160   -0.0310 37.4  80 
 BAR2 EZ ES       18 2  5.18                             160    0.5210 37.4  80 
 BAR2 EZ I        18 2  5.99       114.4 0.42            167           37.4  80 
 BRR  HZ EP       18 1 53.25                             146   -0.4910 66.9 341 
 BRR  HE ES       18 2  7.28                             146    0.2910 66.9 341 
 BRR  HZ I        18 2 12.82        19.1 0.20            149           66.9 341 
 RUS  HZ EP       18 1 55.46                             139   -0.3610 85.6 146 
 RUS  HN ES       18 2 11.40                             139    0.7010 85.6 146 
 PTB  HZ IP     C 18 1 55.25                             133   -1.4810  104 270 
 PTB  HN ES       18 2 11.23                             133   -1.0810  104 270 
 SPBC HZ EP       18 1 57.45                             130   -0.4210  115 212 
 SPBC HN ES       18 2 13.78                             130   -0.5710  115 212 
 SPBC HZ I        18 2 19.56        25.4 0.24            133            115 212 
 ZAR  HZ EP       18 2  4.71                             116    0.05 9  182 306 
 ZAR  HN ES       18 2 27.49                             116    1.06 9  182 306 
 ZAR  HZ I        18 2 28.93        18.9 0.52            120            182 306 
 NOR  HZ EP       18 2  4.33                             116   -0.62 9  184 234 
 NOR  HN ES       18 2 27.49                             116    0.54 9  184 234 
 NOR  HZ I        18 2 29.57        12.7 0.16            120            184 234 
 HEL  HZ EP       18 2 10.61                             110    0.59 8  226 260 
 HEL  HN ES       18 2 36.40                             110    0.42 8  226 260 
 HEL  HZ I        18 2 40.58         6.0 0.22            114            226 260 
 GUY2CHZ EP       18 2 14.27                             108    1.24 8  251 235 
 GUY2CHN ES       18 2 42.31                             108    0.98 8  251 235 
 GUY2CHZ I        18 2 50.37         4.8 0.58                           251 235 
                                                                                
