 2011 1026 1017 47.6 L   6.830 -73.122146.2  RSN  7 0.3 1.1LRSN                1
 GAP=138        0.62       4.4     6.2  7.4  0.5833E+01  0.1377E+02  0.4584E+01E
 Epicentro: LOS SANTOS - SANTANDER                                             3
 ACTION:UPD 12-07-13 16:06 OP:ep   STATUS:               ID:20111026101747 L   I
 2011-10-26-1000-00M.COL___177                                                 6
 STAT SP IPHASW D HRMM SECON CODA AMPLIT PERI AZIMU VELO AIN AR TRES W  DIS CAZ7
 BTL  SZ EP       1018  7.41                             172    0.2410 18.8 301 
 BAR2 SZ EP       1018  6.81                             169   -0.5210 27.2 194 
 BAR2 SZ ES   2   1018 22.91                             169    0.17 5 27.2 194 
 BAR2 SZ I        1018 24.01         6.1 0.58                          27.2 194 
 GIR2 SZ EP       1018  7.30                             168    0.0810 28.6 344 
 BRR  HZ EP       1018  9.00                             152    0.1910 72.0 295 
 BRR  HE ES   2   1018 25.61                             152    0.23 5 72.0 295 
 PAM  SN ES   1   1018 26.53                             152   -0.22 7 73.1  40 
 RUS  HZ EP       1018 11.74                             143    0.1510  104 178 
 RUS  HZ I        1018 12.52         1.0 0.16                           104 178 
 RUS  HE ES   1   1018 30.27                             143   -0.06 7  104 178 
 ZAR  HE ES   2   1018 45.10                             122   -0.49 4  205 291 
                                                                                
