 2016  526 1510 34.9 L   6.795 -73.186148.7  RSN  6 0.4 1.8LRSN                1
 GAP=132        0.94       4.5     4.7  6.4 -0.5303E+01  0.3768E+01  0.2982E+01E
 Epicentro: ZAPATOCA - SANTANDER                                               3
 ACTION:UPD 16-08-18 17:49 OP:cam  STATUS:               ID:20160526151034 L   I
 OLDACT:REG 16-05-26 21:17 OP:ar   STATUS:               ID:20160526150747     3
 2016-05-26-1507-47M.COL___313                                                 6
 STAT SP IPHASW D HRMM SECON CODA AMPLIT PERI AZIMU VELO AIN AR TRES W  DIS CAZ7
 BAR2 EZ EP       1510 54.76                             171   -0.1510 22.5 179 
 BAR2 EZ ES       1511 10.68                             171    0.1910 22.5 179 
 BAR2 EZ I        1511 11.54        14.2 0.36            173           22.5 179 
 BRR  HZ EP       1510 56.63                             154    0.4210 67.5 301 
 BRR  HN ES       1511 13.32                             154    0.5210 67.5 301 
 BRR  HZ I        1511 18.65        14.7 0.42            152           67.5 301 
 PAM  EZ EP       1510 57.59                             150   -0.0810 80.7  42 
 PAM  EN ES       1511 15.07                             150   -0.3310 80.7  42 
 PAM  EZ I        1511 19.63         6.5 0.50            153           80.7  42 
 RUS  HZ EP       1510 58.94                             144   -0.0410  100 173 
 RUS  HN ES       1511 17.61                             144   -0.1210  100 173 
 RUS  HZ I        1511 18.54         6.8 0.30            149            100 173 
 PTB  HZ EP       1511  1.42                             134   -0.33 9  143 259 
 PTB  HN ES       1511 21.94                             134   -0.72 9  143 259 
 PTB  HZ I        1511 28.42         9.5 0.28            134            143 259 
 SPBC HZ EP       1511  3.90                             130    0.53 9  160 218 
 SPBC HN ES       1511 25.64                             130    0.10 9  160 218 
 SPBC HZ I        1511 29.68        15.1 0.30            133            160 218 
                                                                                
