 2014 1226 1741 58.9 L   6.762 -73.130152.5  RSN  6 0.4 1.9LRSN                1
 GAP=204        1.08       6.5     6.7  8.0 -0.5858E+01  0.6572E+01 -0.1062E+02E
 Epicentro: LOS SANTOS - SANTANDER                                             3
 ACTION:UPD 15-02-10 17:07 OP:nd   STATUS:               ID:20141226174158 L   I
 OLDACT:REG 14-12-26 20:35 OP:y    STATUS:               ID:20141226173751     3
 2014-12-26-1737-51M.COL___262                                                 6
 STAT SP IPHASW D HRMM SECON CODA AMPLIT PERI AZIMU VELO AIN AR TRES W  DIS CAZ7
 BAR2 EZ EP       1742 19.38                             172    0.0910 19.7 197 
 BAR2 EZ ES       1742 34.79                             172   -0.3910 19.7 197 
 BAR2 EZ I        1742 36.27        12.0 0.46            170           19.7 197 
 BRR  HZ EP       1742 21.44                             152    0.4510 74.7 301 
 BRR  HN ES       1742 38.97                             152    0.7710 74.7 301 
 BRR  HZ I        1742 42.19        13.4 0.46            149           74.7 301 
 PTB  HZ EP       1742 26.30                             133   -0.22 9  149 261 
 PTB  HN ES       1742 47.72                             133   -0.33 9  149 261 
 PTB  HZ I        1742 54.86        15.5 0.40            132            149 261 
 OCA  HZ EP       1742 28.51                             130    0.36 9  165 353 
 OCA  HN ES       1742 50.29                             130   -0.67 9  165 353 
 OCA  HZ I        1742 54.46        12.7 0.44            131            165 353 
 ZAR  HZ EP       1742 31.82                             123   -0.30 8  207 293 
 ZAR  HN ES       1742 58.07                             123    0.04 8  207 293 
 ZAR  HZ I        1743  4.05        10.2 0.44            123            207 293 
 MON  HZ EP   4   1742 46.41                             109   -2.22 0  358 309 
 MON  HE ES   4   1743 25.16                             109   -2.25 0  358 309 
 MON  HZ I        1743 29.16         1.7 0.38            110            358 309 
                                                                                
