 2010  826 1612  1.2 L   6.798 -73.084144.2  RSN  8 0.3 2.4LRSN                1
 GAP=165        0.64       3.1     8.7  5.9 -0.1324E+02  0.1936E+02 -0.3198E+01E
 Epicentro: LOS SANTOS - SANTANDER                                             3
 ACTION:UP  10-09-07 10:58 OP:vdl  STATUS:               ID:20100826161201 L   I
 2010-08-26-1607-17S.COL___120                                                 6
 STAT SP IPHASW D HRMM SECON CODA AMPLIT PERI AZIMU VELO SNR AR TRES W  DIS CAZ7
 BAR2 SZ EP       1612 20.69                             170     0.010   25 206 
 BAR2 SZ ES   1   1612 35.78                             170    -0.1 7   25 206 
 BAR2 SZ I        1612 37.53        63.9 0.06                            25 206 
 BRR  HZ IP     C 1612 22.60                             150     0.010   77 296 
 BRR  HZ I        1612 42.34        48.5 0.24                            77 296 
 RUS  HZ EP       1612 24.56                             144    -0.210  100 180 
 RUS  HN ES       1612 43.16                             144     0.010  100 180 
 RUS  HZ I        1612 44.61        17.2 0.50                           100 180 
 GRA  SZ EP       1612 26.52                             137     0.310  124  14 
 GRA  SZ ES   1   1612 45.40                                    -0.3 7  124  14 
 GRA  SZ I        1612 47.39        23.0 0.51                           124  14 
 CHI  HZ EP   1   1612 39.06                             117     0.1 6  250 197 
 CHI  HN ES   1   1613  9.09                             117     0.6 6  250 197 
 CHI  HZ I        1613 11.71        11.2 0.52                           250 197 
 TOL  SZ EP   3   1612 49.71                             109    -0.2 2  348 225 
 ANIL HN ES   2   1613 31.04                             108     0.3 3  362 225 
 ANIL HZ I        1613 34.65        20.3 0.04                           362 225 
 PRA  HZ EP   1   1612 54.39                             106    -0.7 4  395 210 
 PRA  HN ES   2   1613 36.54                             106    -0.5 3  395 210 
 PRA  HZ I        1613 42.52        19.8 0.57                           395 210 
                                                                                
