 2016 1126 1648 34.1 L   6.748 -73.575109.0  RSN  6 0.3 1.7LRSN                1
 GAP=116        0.81       3.9     2.7  5.5 -0.2942E+01  0.3877E+01  0.1993E+01E
 Epicentro: EL CARMEN - SANTANDER                                              3
 ACTION:UPD 17-10-26 21:12 OP:lp   STATUS:               ID:20161126164834 L   I
 OLDACT:UP  16-11-26 23:33 OP:cara STATUS:               ID:20161126164749d    3
 OLDACT:DUP 16-11-26 23:28 OP:cara STATUS:               ID:20161126164749d    3
 OLDACT:REG 16-11-26 21:25 OP:cara STATUS:               ID:20161126164748     3
 2016-11-26-1648-00M.COL___352                                                 6
 STAT SP IPHASW D HRMM SECON CODA AMPLIT PERI AZIMU VELO AIN AR TRES W  DIS CAZ7
 BRR  HZ EP       1648 50.09                             157    0.4310 42.5 339 
 BRR  HN ES       1649  2.21                             157    0.3810 42.5 339 
 BAR2 EZ EP       1648 50.32                             155    0.1010 46.7 112 
 BAR2 EZ ES       1649  2.63                             155   -0.1910 46.7 112 
 BAR2 EZ I        1649  4.17        35.6 0.42            159           46.7 112 
 PTB  HZ IP       1648 53.27                             134   -0.4610  100 257 
 PTB  HN ES       1649  8.94                             134   -0.1210  100 257 
 PTB  HZ I        1649 14.31         9.2 0.66            135            100 257 
 PAM  EZ EP       1648 55.80                             130   -0.0810  117  56 
 PAM  EN ES       1649 12.70                             130   -0.1910  117  56 
 PAM  EZ I        1649 17.31         4.3 0.36            133            117  56 
 ZAR  HZ EP       1649  0.46                             119    0.45 9  164 300 
 ZAR  HE ES       1649 19.76                             119   -0.49 9  164 300 
 ZAR  HZ I        1649 25.68        10.4 0.44            120            164 300 
 NOR  HZ EP       1649  3.34                             114   -0.02 9  194 228 
 NOR  HE ES       1649 26.45                             114    0.23 9  194 228 
 NOR  HZ I        1649 32.00         4.3 0.12            116            194 228 
                                                                                
