 2013 1026 1120 39.6 L   6.805 -73.151143.8  RSN  7 0.4 1.8LRSN                1
 GAP=136        1.05       4.0     5.6  7.6  0.1149E+01  0.1584E+01 -0.5262E+01E
 Epicentro: LOS SANTOS - SANTANDER                                             3
 ACTION:UPD 13-11-25 09:23 OP:ep   STATUS:               ID:20131026112039 L   I
 OLDACT:REG 13-10-26 15:46 OP:cam  STATUS:               ID:20131026111850     3
 2013-10-26-1118-50M.COL___226                                                 6
 STAT SP IPHASW D HRMM SECON CODA AMPLIT PERI AZIMU VELO AIN AR TRES W  DIS CAZ7
 BAR2 SZ EP       1120 58.96                             170   -0.0910 23.8 188 
 BAR2 SZ ES       1121 13.97                             170   -0.2210 23.8 188 
 BAR2 SZ I        1121 14.94        16.0 0.12            174           23.8 188 
 BRR  HZ EP   1   1121  1.09                             152    0.55 7 70.4 298 
 BRR  HN ES       1121 17.80                             152    0.9610 70.4 298 
 PAM  SZ EP       1121  1.89                             150    0.2410 77.3  40 
 PAM  SN ES   1   1121 18.71                             150   -0.10 7 77.3  40 
 PAM  SZ I        1121 21.11         7.5 0.54            149           77.3  40 
 RUS  HZ EP       1121  3.49                             143    0.2410  101 176 
 RUS  HN ES       1121 21.34                             143   -0.3210  101 176 
 RUS  HZ I        1121 21.67         4.5 0.44            147            101 176 
 PTB  HZ EP   1   1121  6.49                             132    0.08 7  147 259 
 PTB  HN ES       1121 26.69                             132   -0.60 9  147 259 
 PTB  HZ I        1121 29.40         8.6 0.12            131            147 259 
 OCA  HN ES       1121 29.20                             129   -0.46 9  160 353 
 OCA  HZ I        1121 33.31        11.4 0.54            127            160 353 
 SML  HZ EP   1   1121 15.86                             117   -0.22 6  243 335 
 SML  HE ES   1   1121 44.13                             117   -0.37 6  243 335 
 SML  HZ I        1121 53.77         7.3 0.26            116            243 335 
                                                                                
