 2013  226 1743 42.2 L   6.787 -73.174144.8  RSN  7 0.3 1.6LRSN                1
 GAP=134        0.71       3.8     4.2  6.2  0.1475E+01  0.4961E+01  0.5088E+01E
 Epicentro: LOS SANTOS - SANTANDER                                             3
 ACTION:UPD 13-03-12 09:36 OP:ep   STATUS:               ID:20130226174342 L   I
 2013-02-26-1740-00M.COL___228                                                 6
 STAT SP IPHASW D HRMM SECON CODA AMPLIT PERI AZIMU VELO AIN AR TRES W  DIS CAZ7
 BAR2 SZ EP   1   1744  1.13                             171   -0.52 7 21.6 182 
 BAR2 SZ ES   1   1744 16.58                             171   -0.26 7 21.6 182 
 BAR2 SZ I        1744 18.32        14.4 0.36            171           21.6 182 
 BRR  HZ EP     C 1744  3.44                             153    0.3510 69.1 301 
 BRR  HN ES   1   1744 20.13                             153    0.71 7 69.1 301 
 PAM  SZ EP   1   1744  4.55                             150    0.08 7 80.5  41 
 PAM  SE ES   1   1744 21.70                             150   -0.17 7 80.5  41 
 PAM  SZ I        1744 23.87         7.5 0.56            154           80.5  41 
 RUS  HZ EP   1   1744  5.70                             144   -0.04 7 99.5 174 
 RUS  HN ES   1 D 1744 24.15                             144    0.02 7 99.5 174 
 RUS  HZ I        1744 25.81         3.4 0.44            147           99.5 174 
 PTB  HZ EP   1   1744  8.53                             132   -0.22 7  144 259 
 PTB  HN ES   1   1744 29.01                             132   -0.47 7  144 259 
 PTB  HZ I        1744 35.45         7.1 0.32            132            144 259 
 ZAR  HN ES   1   1744 39.11                             122   -0.26 6  202 293 
 ZAR  HZ I        1744 45.98         3.7 0.28            123            202 293 
 CHI  HZ EP   1   1744 19.67                             117    0.10 6  246 195 
 CHI  HN ES   1   1744 49.23                             117    0.48 6  246 195 
                                                                                
