 2010  226 1040  6.9 L   6.826 -73.125141.5  RSN  5 0.4 1.6LRSN                1
 GAP=185        0.72       4.3    12.3  7.7  0.1428E+02 -0.2011E+01  0.2718E+01E
 Epicentro: LOS SANTOS - SANTANDER                                             3
 ACTION:UP  10-08-24 09:50 OP:vdl  STATUS:               ID:20100226104006 L   I
 2010-02-26-1038-38S.COL___093                                                 6
 STAT SP IPHASW D HRMM SECON CODA AMPLIT PERI AZIMU VELO SNR AR TRES W  DIS CAZ7
 BAR2 SZ EP       1040 25.97                             169    -0.110   27 194 
 BAR2 SZ ES   1   1040 41.16                             169     0.1 7   27 194 
 BRR  HZ EP       1040 27.83                             151     0.210   72 296 
 BRR  HE ES   2   1040 44.03                             151     0.2 5   72 296 
 BRR  HZ I        1041  7.69        10.8 0.32                            72 296 
 RUS  BZ EP       1040 30.53                             142     0.110  103 177 
 RUS  BN ES   2   1040 48.76                             142     0.0 5  103 177 
 RUS  BZ I        1040 49.81         2.8 0.16                           103 177 
 OCA  SZ EP   2   1040 34.96                             129     0.3 5  158 352 
 OCA  SZ ES   2   1040 55.20                             129    -1.1 5  158 352 
 OCA  SZ I        1040 59.84         5.3 0.18                           158 352 
 CHI  HZ EP   2   1040 44.95                             116     0.2 4  252 195 
 CHI  HN ES   1   1041 13.64                             116    -0.6 6  252 195 
 CHI  HZ I        1041 17.14         2.7 0.32                           252 195 
                                                                                
