 2017  526 1203 11.5 L   6.570 -73.245134.0  RSN  4 0.4 1.3LRSN                1
 GAP=208        0.68       5.6     6.2  8.8  0.2226E+02  0.1657E+02 -0.1563E+01E
 Epicentro: CABRERA - SANTANDER                                                3
 ACTION:UPD 17-06-16 13:39 OP:jn   STATUS:               ID:20170526120311 L   I
 OLDACT:DUP 17-05-26 23:10 OP:dnl  STATUS:               ID:20170526115729d    3
 OLDACT:UP  17-05-26 23:09 OP:dnl  STATUS:               ID:20170526115728     3
 OLDACT:REG 17-05-26 21:49 OP:dnl  STATUS:               ID:20170526115728     3
 2017-05-26-1158-00M.COL___340                                                 6
 STAT SP IPHASW D HRMM SECON CODA AMPLIT PERI AZIMU VELO AIN AR TRES W  DIS CAZ7
 RUS  HZ EP   2   12 3 33.19                             149    0.69 5 77.0 167 
 RUS  HE ES       12 3 48.74                             149   -0.1110 77.0 167 
 RUS  HZ I        12 3 54.62         1.3 0.56            163           77.0 167 
 BRR  HZ EP   2   12 3 30.91                             148   -0.99 5 78.7 319 
 BRR  HN ES       12 3 47.98                             148    0.2010 78.7 319 
 BRR  HZ I        12 4  0.83         6.3 0.36            152           78.7 319 
 PTB  HZ EP   2   12 3 36.10                             132   -0.20 5  134 269 
 PTB  HN ES       12 3 55.69                             132    0.0710  134 269 
 PTB  HZ I        12 4  3.85         3.9 0.38            141            134 269 
 ZAR  HZ EP   2   12 3 43.78                             120    0.40 4  205 300 
 ZAR  HE ES       12 4  8.07                             120   -0.15 8  205 300 
 ZAR  HZ I        12 4 14.30         3.9 0.30            128            205 300 
                                                                                
