 2010  926 1818 35.7 L   6.748 -73.131142.0  RSN  5 0.2 1.6LRSN                1
 GAP=166        0.64       5.2    10.7  8.8  0.2998E+02 -0.5192E+02 -0.2248E+02E
 Epicentro: LOS SANTOS - SANTANDER                                             3
 ACTION:UP  11-02-18 11:05 OP:tino STATUS:               ID:20100926181835 L   I
 2010-09-26-1812-54S.COL___122                                                 6
 STAT SP IPHASW D HRMM SECON CODA AMPLIT PERI AZIMU VELO SNR AR TRES W  DIS CAZ7
 BAR2 SZ EP       1818 55.03                             173     0.310   18 199 
 BAR2 SZ ES   2   1819  9.21                             173    -0.4 5   18 199 
 BAR2 SZ I        1819 10.38        11.6 0.27                            18 199 
 BTL  SZ EP       1818 54.91                             170     0.010   24 321 
 BRR  HZ EP       1818 56.35                             151    -0.310   76 302 
 BRR  HE ES   1   1819 13.35                             151     0.3 7   76 302 
 BRR  HZ I        1819 17.09         8.6 0.33                            76 302 
 RUS  HZ EP       1818 58.49                             145    -0.110   95 177 
 RUS  HE ES   1   1819 16.66                             145     0.1 7   95 177 
 RUS  HZ I        1819 17.72         6.3 0.52                            95 177 
 GUE  SZ EP       1819  0.48                             137     0.010  122  11 
                                                                                
