 2011  826 1735 37.5 L   6.806 -73.020150.4  RSN  7 0.3 2.1LRSN                1
 GAP=153        0.57       3.6     5.5  6.2 -0.2613E+01  0.1005E+02  0.1017E+02E
 Epicentro: CEPITA - SANTANDER                                                 3
 ACTION:UPD 12-07-13 15:53 OP:ep   STATUS:               ID:20110826173537 L   I
 2011-08-26-1731-14S.COL___162                                                 6
 STAT SP IPHASW D HRMM SECON CODA AMPLIT PERI AZIMU VELO AIN AR TRES W  DIS CAZ7
 GIR2 SZ EP   1   1735 58.30                             166    0.46 7 35.7 328 
 PAM  SZ I        1736  1.00         6.8 0.23                          68.8  31 
 PAM  SN ES   1   1736 17.27                             154    0.20 7 68.8  31 
 BRR  HZ EP   1   1735 59.62                             149   -0.24 7 83.4 294 
 BRR  HZ I        1736 13.18        19.8 0.32                          83.4 294 
 BRR  HN ES   1   1736 17.11                             149   -0.19 7 83.4 294 
 RUS  HZ EP   1   1736  1.86                             145    0.11 7  101 184 
 RUS  HN ES   1   1736 20.31                             145   -0.36 7  101 184 
 RUS  HZ I        1736 21.90        10.3 0.27                           101 184 
 CHI  HZ EP   1   1736 15.87                             117   -0.08 6  253 198 
 CHI  HE ES   1   1736 46.09                             117    0.14 6  253 198 
 CHI  HZ I        1736 50.96         6.2 0.33                           253 198 
 RREF HZ EP   1   1736 24.53                             111   -0.57 5  333 231 
 RREF HN ES   1   1737  2.83                             111    0.60 5  333 231 
 PRA  HZ EP   1   1736 31.71                             107   -0.35 4  400 211 
 PRA  HN ES   1   1737 14.86                             107    0.23 4  400 211 
 PRA  HZ I        1737 18.78        19.4 0.17                           400 211 
                                                                                
