 2017  826 1439 51.7 L   6.802 -73.084140.7  RSN  4 0.2 1.4LRSN                1
 GAP=144        0.61       3.2     4.7  5.0 -0.4801E+00 -0.1611E+01  0.7868E+00E
 Epicentro: LOS SANTOS - SANTANDER                                             3
 ACTION:UPD 17-09-04 20:24 OP:rebc STATUS:               ID:20170826143951 L   I
 OLDACT:REG 17-08-26 20:58 OP:edw  STATUS:               ID:20170826143741     3
 2017-08-26-1438-00M.COL___408                                                 6
 STAT SP IPHASW D HRMM SECON CODA AMPLIT PERI AZIMU VELO AIN AR TRES W  DIS CAZ7
 BAR2 EZ EP       1440 10.51                             169   -0.2810 25.6 205 
 BAR2 EZ ES       1440 25.58                             169   -0.0810 25.6 205 
 BAR2 EZ I        1440 26.56         5.2 0.18            170           25.6 205 
 PAM  EZ EP       1440 13.50                             151    0.3610 73.1  35 
 PAM  EN ES       1440 29.71                             151   -0.1410 73.1  35 
 PAM  EZ I        1440 32.46         8.7 0.32            151           73.1  35 
 BRR  HZ EP       1440 12.42                             150   -0.2610 77.2 296 
 BRR  HN ES       1440 29.26                             150    0.2310 77.2 296 
 RUS  HZ EP       1440 15.05                             143    0.0810  101 180 
 RUS  HN ES       1440 33.20                             143    0.0910  101 180 
 RUS  HZ I        1440 35.58         2.1 0.32            144            101 180 
                                                                                
