 2013  926 1037 39.4 L   6.144 -73.689100.8  RSN  8 0.5 1.3LRSN                1
 GAP= 69        1.19       3.6     3.8  8.6 -0.2882E+01  0.1083E+02  0.2885E+01E
 Epicentro: LANDAZURI - SANTANDER                                              3
 ACTION:UPD 13-10-22 09:25 OP:ep   STATUS:               ID:20130926103739 L   I
 OLDACT:REG 13-09-26 15:40 OP:stll STATUS:               ID:20130926102835     3
 2013-09-26-1028-35M.COL___238                                                 6
 STAT SP IPHASW D HRMM SECON CODA AMPLIT PERI AZIMU VELO AIN AR TRES W  DIS CAZ7
 SPBC HZ EP       1037 55.91                             143   -0.0110 69.0 218 
 SPBC HN ES       1038  9.33                             143    0.5510 69.0 218 
 RUS  HZ EP       1037 56.58                             142   -0.1610 72.6 113 
 RUS  HZ I        1037 56.77         3.1 0.14            142           72.6 113 
 RUS  HN ES       1038  9.44                             142   -0.8110 72.6 113 
 BAR2 SZ EP       1037 56.80                             141    0.2410 74.7  48 
 BAR2 SZ ES       1038 10.70                             141    0.7810 74.7  48 
 BAR2 SZ I        1038 12.30        11.7 0.26            142           74.7  48 
 PTB  HZ EP       1037 57.22                             133   -0.7710 95.5 297 
 PTB  HN ES       1038 11.92                             133   -0.5610 95.5 297 
 PTB  HZ I        1038 13.15         4.1 0.32            136           95.5 297 
 BRR  HZ EP       1037 59.03                             129    0.0510  107 359 
 BRR  HN ES       1038 14.41                             129    0.1810  107 359 
 NOR  HZ EP       1038  3.04                             120    0.04 9  146 244 
 NOR  HE ES       1038 21.27                             120   -0.12 9  146 244 
 CHI  HN ES       1038 26.38                             116   -0.05 9  168 182 
 CHI  HZ I        1038 32.18         2.2 0.32            117            168 182 
 GUY2CHZ EP       1038 11.25                             110    0.37 8  212 241 
 GUY2CHN ES       1038 35.94                             110    0.52 8  212 241 
                                                                                
