 2011  826 1758 58.9 L   6.877 -72.888127.3  RSN  5 0.4 1.7LRSN                1
 GAP=169        0.81       4.1     8.6  8.2  0.1658E+01  0.1638E+01 -0.3186E+01E
 Epicentro: GUACA - SANTANDER                                                  3
 ACTION:UPD 12-07-13 15:53 OP:ep   STATUS:               ID:20110826175858 L   I
 2011-08-26-1755-12S.COL___162                                                 6
 STAT SP IPHASW D HRMM SECON CODA AMPLIT PERI AZIMU VELO AIN AR TRES W  DIS CAZ7
 BAR2 SZ EP   1   1759 17.08                             159   -0.01 7 45.2 226 
 BAR2 SZ ES   1   1759 31.55                             159    0.31 7 45.2 226 
 BAR2 SZ I        1759 33.57        13.2 0.37                          45.2 226 
 PAM  SZ I        1759 20.28         8.9 0.16                          55.2  22 
 PAM  SN ES   1   1759 32.28                             155   -0.45 7 55.2  22 
 BRR  HZ EP   1   1759 19.02                             141   -0.75 7 94.5 286 
 BRR  HZ I        1759 22.61        15.9 0.14                          94.5 286 
 BRR  HN ES   1   1759 35.87                             141   -0.14 7 94.5 286 
 RUS  HZ EP   1   1759 21.63                             137   -0.14 7  111 191 
 RUS  HN ES   1   1759 39.91                             137    0.33 7  111 191 
 RUS  HZ I        1759 41.31         4.1 0.23                           111 191 
 OCA  SZ EP   1   1759 26.18                             125    0.52 7  158 342 
 OCA  SZ ES   1   1759 46.98                             125    0.49 7  158 342 
 OCA  SZ I        1759 48.56        10.0 0.21                           158 342 
                                                                                
