 2014  726 1703 25.4 L   6.747 -73.161140.2  RSN  8 0.4 1.8LRSN                1
 GAP=137        0.96       4.4     4.5  7.0 -0.9752E+00  0.1053E+02  0.5462E+01E
 Epicentro: LOS SANTOS - SANTANDER                                             3
 ACTION:UPD 15-03-16 20:47 OP:nd   STATUS:               ID:20140726170325 L   I
 OLDACT:UP  14-07-26 23:49 OP:mh   STATUS:               ID:20140726165818     3
 OLDACT:UP  14-07-26 23:47 OP:mh   STATUS:               ID:20140726165818     3
 OLDACT:UP  14-07-26 23:46 OP:mh   STATUS:               ID:20140726165818     3
 OLDACT:UP  14-07-26 23:46 OP:mh   STATUS:               ID:20140726165818     3
 OLDACT:REG 14-07-26 21:36 OP:mh   STATUS:               ID:20140726165818     3
 2014-07-26-1658-18M.COL___265                                                 6
 STAT SP IPHASW D HRMM SECON CODA AMPLIT PERI AZIMU VELO AIN AR TRES W  DIS CAZ7
 BRR  HZ EP       17 3 45.85                             151   -0.2310 72.8 303 
 BRR  HN ES       17 4  2.84                             151    0.6610 72.8 303 
 BRR  HZ I        17 4  6.31        16.1 0.34            151           72.8 303 
 PAM  SZ EP       17 3 47.37                             148   -0.0410 83.0  38 
 PAM  SN ES       17 4  4.19                             148   -0.3710 83.0  38 
 PAM  SZ I        17 4  6.38        15.2 0.34            155           83.0  38 
 RUS  HZ EP       17 3 48.33                             144    0.1010 94.9 175 
 RUS  HE ES       17 4  6.17                             144    0.1610 94.9 175 
 RUS  HZ I        17 4  9.02         7.0 0.26            146           94.9 175 
 PTB  HZ EP   1   17 3 51.41                             131   -0.30 7  145 261 
 PTB  HN ES   1   17 4 11.27                             131   -0.94 7  145 261 
 PTB  HZ I        17 4 15.15                             132            145 261 
 ZAR  HZ EP       17 3 57.64                             121    0.04 9  205 294 
 ZAR  HN ES   1   17 4 22.99                             121    0.30 6  205 294 
 ZAR  HZ I        17 4 26.78         7.6 0.29            123            205 294 
 NOR  HZ EP       17 4  0.13                             118   -0.21 8  230 235 
 NOR  HN ES   1   17 4 27.25                             118   -0.31 6  230 235 
 NOR  HZ I        17 4 34.45                             119            230 235 
 GUY2CHZ EP       17 4  9.10                             112    0.84 7  297 236 
 GUY2CHN ES   4   17 4 43.27                             112    1.61 0  297 236 
 RREF HZ EP   4   17 4 33.82                             110   23.05 0  317 230 
 RREF HN ES   4   17 4 50.01                             110    3.89 0  317 230 
 RREF HZ I        17 4 53.81         2.6 0.25            112            317 230 
                                                                                
