 2010  126 1937  2.3 L   6.950 -73.001147.4  RSN  6 0.6 1.7LRSN                1
 GAP=240        0.92       9.8    14.5 14.6  0.7145E+02  0.6594E+02 -0.1985E+02E
 Epicentro: PIEDECUESTA - SANTANDER                                            3
 ACTION:UP  10-08-24 09:46 OP:vdl  STATUS:               ID:20100126193702 L   I
 2010-01-26-1934-31S.COL___095                                                 6
 STAT SP IPHASW D HRMM SECON CODA AMPLIT PERI AZIMU VELO SNR AR TRES W  DIS CAZ7
 GIR2 SZ EP   2   1937 22.57                             170     0.6 5   26 304 
 BAR2 SZ EP   2   1937 23.11                             163     0.4 5   45 207 
 BAR2 SZ ES   2   1937 38.98                             163     0.3 5   45 207 
 RUS  BZ EP   1   1937 27.81                             140     0.4 7  117 184 
 RUS  BE ES   1   1937 46.31                             140    -0.8 7  117 184 
 RUS  BZ I        1937 46.97         8.2 0.42                           117 184 
 CHI  HZ EP   2   1937 41.49                             115    -0.8 4  269 198 
 RREF BE ES   2   1938 30.32                             109     1.1 3  345 229 
 MON  HE ES   1   1938 29.61                             108    -0.5 5  356 305 
                                                                                
