 2012  426 1654 51.0 L   6.819 -73.132148.9  RSN 14 0.5 3.1LRSN                1
 GAP=127        1.21       4.4     5.3  7.1 -0.4094E+01  0.2459E+01  0.5393E+01E
 Epicentro: LOS SANTOS - SANTANDER                                             3
 ACTION:UPD 12-07-05 11:56 OP:tino STATUS:               ID:20120426165451 L   I
 2012-04-26-1651-42M.COL___186                                                 6
 STAT SP IPHASW D HRMM SECON CODA AMPLIT PERI AZIMU VELO AIN AR TRES W  DIS CAZ7
 BAR2 SZ IP       1655 11.16                             170     0.110   26 192 
 BAR2 SZ ES   1   1655 26.50                             170    -0.2 7   26 192 
 BAR2 SZ I        1655 27.25       520.2 0.28                            26 192 
 BRR  HZ IP     C 1655 12.93                             153     0.410   72 296 
 BRR  HN ES       1655 30.03                             153     0.710   72 296 
 BRR  HZ I        1655 30.79       339.2 0.16                            72 296 
 PAM  SZ EP       1655 13.91                             152     0.510   75  40 
 PAM  SN ES   1   1655 30.65                             152    -0.3 7   75  40 
 RUS  HZ EP       1655 15.06                             144    -0.210  103 177 
 RUS  HE ES   1   1655 33.71                             144    -0.4 7  103 177 
 RUS  HZ I        1655 35.52       104.0 0.49                           103 177 
 PTB  HZ EP   1   1655 17.51                             132    -0.9 7  150 258 
 PTB  HN ES   1   1655 38.89                             132    -0.9 7  150 258 
 PTB  HZ I        1655 46.07       105.8 0.59                           150 258 
 ZAR  HZ EP   1   1655 23.64                             123    -0.1 6  205 291 
 ZAR  HE ES   1   1655 49.02                             123    -0.2 6  205 291 
 ZAR  HZ I        1655 54.80       108.9 0.24                           205 291 
 NOR  SZ EP       1655 27.36                             119     0.2 8  237 234 
 NOR  SN ES   1   1655 54.66                             119    -0.8 6  237 234 
 CHI  HZ EP   1   1655 29.41                             118     0.2 6  251 195 
 CHI  HN ES   1   1655 58.87                             118     0.0 6  251 195 
 CHI  HZ I        1656  6.08        53.0 0.49                           251 195 
 VIL  SZ EP   1   1655 34.28                             112    -0.6 5  306 192 
 VIL  SN ES   1   1656  9.24                             112     0.2 5  306 192 
 VIL  SZ I        1656 18.70        49.3 0.32                           306 192 
 DBB  SZ EP   1   1655 39.45                             110     0.7 5  341 274 
 COD  HE ES   1   1656 15.73                             110    -1.2 5  346 354 
 COD  HZ I        1656 20.55        44.3 0.39                           346 354 
 SDV  BZ EP       1655 40.82                             109    -0.1 6  358  50 
 ANIL HN ES       1656 21.52                             109     1.1 6  360 224 
 ANIL HZ I        1656 26.02       177.5 0.07                           360 224 
 PRA  HZ EP   1   1655 44.85                             107    -0.1 4  395 210 
                                                                                
