 2016  326 1012  3.4 L   6.756 -73.166128.8  RSN  4 0.4 1.2LRSN                1
 GAP=136        0.95       4.7     5.8  8.8  0.7022E+00  0.1487E+02 -0.4765E+01E
 Epicentro: LOS SANTOS - SANTANDER                                             3
 ACTION:UPD 16-05-13 21:27 OP:cam  STATUS:               ID:20160326101203 L   I
 OLDACT:REG 16-03-26 20:21 OP:dnl  STATUS:               ID:20160326100745     3
 2016-03-26-1007-45M.COL___292                                                 6
 STAT SP IPHASW D HRMM SECON CODA AMPLIT PERI AZIMU VELO AIN AR TRES W  DIS CAZ7
 BAR2 EZ EP       1012 20.96                             171    0.0410 18.3 186 
 BAR2 EZ ES       1012 34.90                             171    0.3410 18.3 186 
 BAR2 EZ I        1012 37.09         3.2 0.11            172           18.3 186 
 PAM  EZ EP       1012 23.89                             146   -0.3310 82.5  39 
 PAM  EN ES       1012 40.46                             146    0.0310 82.5  39 
 PAM  EZ I        1012 43.87         3.0 0.20            149           82.5  39 
 RUS  HZ EP       1012 25.78                             141    0.5810 96.0 175 
 RUS  HN ES       1012 41.60                             141   -0.5710 96.0 175 
 RUS  HZ I        1012 45.30         2.2 0.28            145           96.0 175 
 ZAR  HZ EP   4   1012 37.21                             118    2.40 0  204 294 
 ZAR  HE ES       1012 59.17                             118   -0.12 9  204 294 
 ZAR  HZ I        1013  3.88         2.4 0.08            120            204 294 
                                                                                
