 2017  926 1453 53.3 L   6.811 -73.146144.8  RSN 13 0.5 2.1LRSN                1
 GAP=111        1.08       3.5     3.8  5.9  0.1313E+01  0.7300E+01  0.6550E+01E
 Epicentro: LOS SANTOS - SANTANDER                                             3
 ACTION:UPD 17-10-05 19:16 OP:rebc STATUS:               ID:20170926145353 L   I
 OLDACT:UP  17-09-27 00:12 OP:dhb  STATUS:               ID:20170926144737d    3
 OLDACT:UP  17-09-27 00:11 OP:dhb  STATUS:               ID:20170926144737d    3
 OLDACT:DUP 17-09-27 00:06 OP:dhb  STATUS:               ID:20170926144737d    3
 OLDACT:UP  17-09-27 00:05 OP:dhb  STATUS:               ID:20170926144736     3
 OLDACT:UP  17-09-27 00:03 OP:dhb  STATUS:               ID:20170926144736     3
 OLDACT:UP  17-09-27 00:02 OP:dhb  STATUS:               ID:20170926144736     3
 OLDACT:UP  17-09-26 23:59 OP:dhb  STATUS:               ID:20170926144736     3
 OLDACT:UP  17-09-26 23:59 OP:dhb  STATUS:               ID:20170926144736     3
 OLDACT:UP  17-09-26 23:56 OP:dhb  STATUS:               ID:20170926144736     3
 OLDACT:REG 17-09-26 20:50 OP:dhb  STATUS:               ID:20170926144736     3
 2017-09-26-1448-00M.COL___450                                                 6
 STAT SP IPHASW D HRMM SECON CODA AMPLIT PERI AZIMU VELO AIN AR TRES W  DIS CAZ7
 BAR2 EZ IP     D 1454 12.66                             170   -0.1310 24.5 189 
 BAR2 EZ ES       1454 27.31                             170   -0.7210 24.5 189 
 BAR2 EZ I        1454 30.44        43.6 0.39            167           24.5 189 
 BRR  HZ IP     C 1454 14.40                             152    0.1410 70.6 298 
 BRR  HN ES       1454 31.15                             152    0.5010 70.6 298 
 BRR  HZ I        1454 32.24        27.7 0.27            150           70.6 298 
 PAM  EZ IP     C 1454 15.42                             151    0.1110 76.5  40 
 PAM  EN ES       1454 32.80                             151    0.2910 76.5  40 
 PAM  EZ I        1454 35.88        11.9 0.57            156           76.5  40 
 RUS  HZ EP       1454 16.65                             143   -0.3510  102 176 
 RUS  HN ES       1454 35.31                             143   -0.2110  102 176 
 RUS  HZ I        1454 36.65        32.5 0.29            144            102 176 
 YPLC HZ EP       1454 22.96                             126   -0.12 9  178 152 
 YPLC HN ES       1454 46.89                             126    0.54 9  178 152 
 YPLC HZ I        1454 48.02        15.9 0.30            128            178 152 
 ZAR  HZ EP       1454 25.81                             122    0.23 9  204 292 
 ZAR  HE ES       1454 50.75                             122   -0.05 9  204 292 
 ZAR  HZ I        1454 59.61        11.0 0.19            122            204 292 
 NOR  HZ EP       1454 28.73                             118   -0.27 8  235 234 
 NOR  HN ES       1454 57.15                             118    0.27 8  235 234 
 NOR  HZ I        1455  2.22         6.3 0.19            118            235 234 
 CHI  HZ EP       1454 30.65                             117   -0.37 8  250 195 
 CHI  HN ES       1455  0.42                             117   -0.07 8  250 195 
 CHI  HZ I        1455  6.25         5.7 0.35            118            250 195 
 ROSC BZ EP       1454 30.57                             116   -0.86 8  254 211 
 ROSC BN ES       1455  1.84                             116    0.63 8  254 211 
 ROSC BZ I        1455  7.20        13.4 0.75            117            254 211 
 HEL  HE ES       1455  3.80                             114   -0.99 8  272 256 
 HEL  HZ I        1455 14.96         4.4 0.38            115            272 256 
 GUY2CHZ EP       1454 37.43                             112    0.54 7  302 235 
 GUY2CHE ES   4   1455 15.09                             112    4.16 0  302 235 
 GUY2CHZ I        1455 23.04         6.6 0.74                           302 235 
 PRA  HZ EP   9   1454 45.20                             106   -1.66 0  393 209 
 PRA  HE ES       1455 26.67                                   -0.34 6  393 209 
 PRA  HZ I        1455 33.59         6.3 0.07            107            393 209 
 ORTC HZ IP     C 1454 47.91                             106    0.66 6  396 216 
 ORTC HN ES       1455 30.51                             106    1.14 6  396 216 
 ORTC HZ I        1455 36.49         3.6 0.27            107            396 216 
                                                                                
