 2016 1026 1020  8.4 L   6.801 -73.206141.0  RSN  5 0.2 1.4LRSN                1
 GAP=145        0.64       3.5     3.6  5.0 -0.5608E+01  0.5239E+01 -0.1119E+01E
 Epicentro: ZAPATOCA - SANTANDER                                               3
 ACTION:UPD 16-11-09 19:23 OP:rebc STATUS:               ID:20161026102008 L   I
 OLDACT:REG 16-10-26 20:05 OP:cara STATUS:               ID:20161026101742     3
 2016-10-26-1018-00M.COL___322                                                 6
 STAT SP IPHASW D HRMM SECON CODA AMPLIT PERI AZIMU VELO AIN AR TRES W  DIS CAZ7
 BAR2 EZ EP       1020 27.53                             170    0.0410 23.2 174 
 BAR2 EZ ES       1020 42.53                             170    0.1810 23.2 174 
 BAR2 EZ I        1020 43.64         8.2 0.40            171           23.2 174 
 BRR  HN ES   4   1020 45.19                             154    0.60 0 65.4 301 
 PAM  EZ EP       1020 30.53                             148    0.1110 81.7  43 
 PAM  EN ES       1020 47.54                             148   -0.0210 81.7  43 
 PAM  EZ I        1020 49.63         6.7 0.38            151           81.7  43 
 RUS  HZ EP       1020 31.47                             143   -0.3110  101 172 
 RUS  HN ES       1020 49.79                             143   -0.2010  101 172 
 RUS  HZ I        1020 51.13         2.2 0.24            145            101 172 
 PTB  HZ EP       1020 34.14                             132   -0.29 9  141 258 
 PTB  HN ES       1020 54.57                             132   -0.13 9  141 258 
 PTB  HZ I        1020 58.05         2.5 0.10            133            141 258 
 SPBC HZ EP       1020 36.72                             129    0.53 9  159 217 
 SPBC HN ES       1020 58.00                             129    0.16 9  159 217 
 SPBC HZ I        1021  0.80         5.8 0.26            130            159 217 
 PRA  HZ EP   4   1021  2.45                             106    1.02 0  389 209 
                                                                                
