 2011  826 1018  5.0 L   6.787 -73.063149.0  RSN  5 0.3 1.7LRSN                1
 GAP=148        0.62       3.3     8.1  8.2 -0.8773E+01  0.3408E+02 -0.7761E+00E
 Epicentro: LOS SANTOS - SANTANDER                                             3
 ACTION:UPD 12-07-13 15:53 OP:ep   STATUS:               ID:20110826101805 L   I
 2011-08-26-1014-46S.COL___130                                                 6
 STAT SP IPHASW D HRMM SECON CODA AMPLIT PERI AZIMU VELO AIN AR TRES W  DIS CAZ7
 PAM  SZ EP   1   1018 27.68                             152    0.40 7 73.1  33 
 PAM  SZ I        1018 28.03         4.4 0.17                          73.1  33 
 PAM  SN ES   1   1018 45.05                             152    0.37 7 73.1  33 
 RUS  HZ EP   1   1018 28.77                             145   -0.14 7 98.9 181 
 RUS  HN ES   1   1018 47.25                             145   -0.34 7 98.9 181 
 RUS  HZ I        1018 48.85        12.8 0.42                          98.9 181 
 OCA  SZ EP   1   1018 33.45                             130   -0.34 7  163 350 
 OCA  SZ ES   1   1018 55.98                             130   -0.29 7  163 350 
 OCA  SZ I        1019  1.86        10.2 0.32                           163 350 
 CHI  HZ EP   1   1018 43.02                             118    0.06 6  250 197 
 CHI  HZ I        1018 43.70         2.7 0.17                           250 197 
 RREF HN ES   1   1019 29.01                             111    0.43 5  328 231 
                                                                                
