 2015 1226 1047 32.2 L   6.864 -73.344113.5  RSN  4 0.3 1.4LRSN                1
 GAP=170        0.66       2.8     4.6  6.4  0.8760E+00  0.1382E+02 -0.5824E+01E
 Epicentro: SAN VICENTE DE CHUCURI - SANTANDER                                 3
 ACTION:UPD 16-02-04 15:07 OP:cam  STATUS:               ID:20151226104732 L   I
 OLDACT:REG 15-12-26 19:51 OP:cara STATUS:               ID:20151226103748     3
 2015-12-26-1037-48M.COL___334                                                 6
 STAT SP IPHASW D HRMM SECON CODA AMPLIT PERI AZIMU VELO AIN AR TRES W  DIS CAZ7
 BAR2 EZ IP       1047 47.92                             162   -0.4010 35.0 149 
 BAR2 EZ ES       1048  1.07                             162    0.1610 35.0 149 
 BAR2 EZ I        1048  1.72        10.6 0.32            168           35.0 149 
 SPBC HZ EP       1047 58.13                             122    0.41 9  156 211 
 SPBC HE ES       1048 17.57                             122   -0.07 9  156 211 
 SPBC HZ I        1048 21.61         2.3 0.24            124            156 211 
 ZAR  HZ IP       1048  0.21                             117   -0.02 9  181 293 
 ZAR  HN ES       1048 21.94                             117   -0.17 9  181 293 
 ZAR  HZ I        1048 26.45         2.9 0.48            118            181 293 
 SML  HZ IP       1048  5.33                             111   -0.18 8  229 340 
 SML  HE ES       1048 31.84                             111    0.33 8  229 340 
 SML  HZ I        1048 38.93         2.6 0.10            113            229 340 
                                                                                
