 2012 1026 1833 19.2 L   6.786 -73.127145.1  RSN 11 0.3 2.8LRSN                1
 GAP= 67        0.65       2.9     2.4  3.7  0.2532E+01  0.1680E+01  0.1443E+01E
 Epicentro: LOS SANTOS - SANTANDER                                             3
 ACTION:UPD 12-11-22 17:06 OP:ep   STATUS:               ID:20121026183319 L   I
 2012-10-26-1830-00M.COL___227                                                 6
 STAT SP IPHASW D HRMM SECON CODA AMPLIT PERI AZIMU VELO AIN AR TRES W  DIS CAZ7
 BAR2 SZ IP       1833 38.75                             171    0.0210 22.3 196 
 BAR2 SZ I        1833 39.03       162.3 0.20                          22.3 196 
 BAR2 SZ ES       1833 54.14                             171    0.1710 22.3 196 
 BRR  HZ EP       1833 40.68                             152    0.2510 73.8 299 
 BRR  HE ES       1833 57.12                             152    0.1410 73.8 299 
 BRR  HZ I        1834  0.17        92.1 0.26                          73.8 299 
 PAM  SZ EP       1833 41.51                             151    0.1710 77.2  38 
 PAM  SE ES       1833 58.56                             151   -0.0510 77.2  38 
 PAM  SZ I        1834  1.17       134.6 0.56                          77.2  38 
 RUS  HZ EP       1833 42.64                             144   -0.1310 99.0 177 
 RUS  HE ES   1   1834  0.81                             144   -0.35 7 99.0 177 
 RUS  HE I        1834  2.74        49.8 0.58                          99.0 177 
 TAM  HZ EP       1833 46.92                             131    0.32 9  153 105 
 TAM  HZ I        1833 47.37        84.9 0.24                           153 105 
 TAM  HE ES       1834  7.76                             131   -0.22 9  153 105 
 OCA  HZ EP   1   1833 47.21                             129   -0.42 7  162 352 
 YOP  SZ EP   1   1833 49.12                             126    0.15 7  177 154 
 YOP  SN ES   1   1834 11.87                             126   -0.33 7  177 154 
 YOP  SZ I        1834 16.07        40.9 0.14                           177 154 
 ZAR  HZ EP       1833 51.48                             122   -0.38 8  207 292 
 ZAR  HE ES       1834 17.17                             122   -0.17 8  207 292 
 ZAR  HZ I        1834 23.03        71.0 0.26                           207 292 
 ROSC BZ EP   1   1833 57.90                             117    0.63 6  253 212 
 ROSC BZ I        1834 36.71        52.5 0.31                           253 212 
 HEL  HZ EP   1   1834  0.09                             114    0.52 6  274 256 
 HEL  HZ I        1834 38.01        30.6 0.40                           274 256 
 DBB  SZ EP   1   1834  6.22                             109   -0.68 5  342 274 
                                                                                
