 2017  726 1606 36.4 L   6.807 -73.139150.0  RSN 20 0.5 2.7LRSN                1
 GAP=102        1.05       3.3     2.7  4.8  0.3783E+00  0.3296E+01  0.2626E+01E
 Epicentro: LOS SANTOS - SANTANDER                                             3
 ACTION:UPD 17-08-30 15:37 OP:rebc STATUS:               ID:20170726160636 L   I
 OLDACT:UP  17-07-27 02:09 OP:ar   STATUS:               ID:20170726155650     3
 OLDACT:REG 17-07-26 22:26 OP:ar   STATUS:               ID:20170726155650     3
 2017-07-26-1558-00M.COL___389                                                 6
 STAT SP IPHASW D HRMM SECON CODA AMPLIT PERI AZIMU VELO AIN AR TRES W  DIS CAZ7
 BAR2 EZ IP     C 16 6 56.30                             170   -0.2710 24.2 191 
 BAR2 EZ ES       16 7 12.42                             170    0.1310 24.2 191 
 BAR2 EZ I        16 7 12.85       193.3 0.16            166           24.2 191 
 BRR  HZ IP     C 16 6 58.15                             153    0.1110 71.5 298 
 BRR  HN ES       16 7 15.61                             153    0.7110 71.5 298 
 BRR  HZ I        16 7 19.21        71.0 0.32            151           71.5 298 
 PAM  EZ EP       16 6 58.61                             152   -0.4110 76.3  39 
 PAM  EN ES       16 7 16.91                             152    0.2610 76.3  39 
 RUS  HZ EP       16 7  0.23                             145   -0.4010  101 176 
 RUS  HN ES       16 7 18.96                             145   -0.5610  101 176 
 RUS  HZ I        16 7 20.51        72.3 0.24            143            101 176 
 PTB  HZ EP       16 7  3.28                             133   -0.53 9  149 259 
 PTB  HN ES       16 7 24.34                             133   -0.83 9  149 259 
 PTB  HZ I        16 7 31.50        58.3 0.44            131            149 259 
 TAM  HZ EP       16 7  4.51                             132    0.13 9  155 105 
 TAM  HE ES       16 7 26.59                             132    0.39 9  155 105 
 TAM  HZ I        16 7 27.05        29.5 0.50            135            155 105 
 SPBC HZ EP       16 7  5.29                             130   -0.05 9  164 219 
 SPBC HN ES       16 7 27.82                             130   -0.08 9  164 219 
 SPBC HZ I        16 7 33.44       112.8 0.20            128            164 219 
 YPLC HZ EP       16 7  6.60                             128    0.05 9  177 152 
 YPLC HN ES       16 7 30.35                             128    0.30 9  177 152 
 YPLC HZ I        16 7 34.05        48.8 0.30            129            177 152 
 ZAR  HZ EP       16 7  8.73                             123   -0.45 9  204 292 
 ZAR  HN ES       16 7 35.15                             123    0.42 9  204 292 
 ZAR  HZ I        16 7 40.41        51.8 0.30            123            204 292 
 TABC EZ EP   4   16 7 13.68                             120    1.15 0  231 211 
 TABC EZ ES   4   16 7 43.45                             120    2.76 0  231 211 
 TABC EZ I        16 7 45.63        42.1 0.32            120            231 211 
 NOR  HZ EP       16 7 12.83                             119    0.33 8  236 234 
 NOR  HN ES       16 7 40.87                             119    0.22 8  236 234 
 NOR  HZ I        16 7 45.83        44.3 0.30            119            236 234 
 ROSC BZ EP   9   16 7 17.04                             118    2.16 0  254 211 
 ROSC BN ES       16 7 47.47                             118    0.43 8  254 211 
 ROSC BZ I        16 7 52.01        53.2 0.40            117            254 211 
 HEL  HZ EP   4   16 7 19.33                             116    2.39 0  273 256 
 HEL  HN ES       16 7 48.69                             116    0.13 8  273 256 
 HEL  HZ I        16 7 55.01        27.6 0.58            115            273 256 
 URE  HZ EP       16 7 16.94                             114   -0.80 7  284 292 
 URE  HN ES   4   16 7 46.29                             114   -3.68 0  284 292 
 URE  HZ I        16 7 58.15        29.2 0.26            115            284 292 
 GUY2CHZ EP   4   16 7 22.24                             113    1.90 0  302 235 
 GUY2CHN ES   4   16 7 58.10                             113    3.51 0  302 235 
 GUY2CHZ I        16 8  1.01        29.2 0.48                           302 235 
 VIL  EZ EP       16 7 20.07                             113   -0.06 7  304 192 
 VIL  EN ES   4   16 7 52.93                             113   -1.29 0  304 192 
 VIL  EZ I        16 8  3.06        24.1 0.36            113            304 192 
 PTGC HZ EP   4   16 7 10.59                             112    -9.9 0  309 159 
 PTGC HN ES   4   16 7 51.62                             112   -3.29 0  309 159 
 CBOC HZ EP       16 7 25.11                             111    1.50 7  335 252 
 CBOC HN ES       16 8  0.69                             111    0.26 7  335 252 
 CBOC HZ I        16 8 11.39         9.2 0.42            111            335 252 
 DBB  EZ EP       16 7 24.34                             110    0.20 7  340 274 
 DBB  EN ES   4   16 7 59.03                             110   -2.34 0  340 274 
 DBB  EZ I        16 8  6.44        14.1 0.22            110            340 274 
 PRA  HZ EP       16 7 30.03                             107   -0.17 6  393 210 
 PRA  HN ES       16 8 12.06                             107   -0.09 6  393 210 
 ORTC HZ EP       16 7 30.58                             107   -0.02 6  396 216 
 ORTC HN ES       16 8 13.72                             107    0.85 6  396 216 
 ORTC HZ I        16 8 19.37        19.9 0.62            107            396 216 
                                                                                
