 2014 1026 1623 32.8 L   6.973 -73.266126.5  RSN  5 0.3 1.6LRSN                1
 GAP=130        0.84       4.4     3.8  6.2 -0.1843E+01  0.2908E+01  0.2963E+01E
 Epicentro: BETULIA - SANTANDER                                                3
 ACTION:UPD 14-11-29 23:57 OP:nd   STATUS:               ID:20141026162332 L   I
 OLDACT:DUP 14-10-29 21:02 OP:stll STATUS:               ID:20141026161747d    3
 2014-10-26-1617-46M.COL___280                                                 6
 STAT SP IPHASW D HRMM SECON CODA AMPLIT PERI AZIMU VELO AIN AR TRES W  DIS CAZ7
 BAR2 SZ EP       1623 51.12                             160    0.3110 43.1 168 
 BAR2 SZ I        1623 51.22        16.4 0.22            161           43.1 168 
 BAR2 SZ ES       1624  5.07                             160    0.2510 43.1 168 
 BRR  HZ EP       1623 51.12                             156    0.2910 51.4 287 
 BRR  HE ES       1624  5.08                             156    0.2210 51.4 287 
 BRR  HE I        1624  6.96        13.7 0.36            158           51.4 287 
 PAM  SZ EP       1623 52.76                             148   -0.1010 74.6  57 
 PAM  SE ES       1624  8.09                             148   -0.3910 74.6  57 
 PAM  SE I        1624 11.48         6.5 0.40            150           74.6  57 
 RUS  HZ EP       1623 56.88                             134    0.4010  121 170 
 RUS  HE ES       1624 14.53                             134   -0.3910  121 170 
 RUS  HE I        1624 17.32         2.8 0.28            136            121 170 
 PTB  HZ EP       1623 57.17                             129   -0.40 9  140 250 
 PTB  HE ES       1624 16.58                             129   -0.27 9  140 250 
 PTB  HE I        1624 19.66         8.2 0.24            131            140 250 
                                                                                
