 2011 1026 1746  4.0 L   6.759 -73.118147.5  RSN  6 0.4 1.6LRSN                1
 GAP=142        0.56      10.3    18.4 20.0  0.1030E+03  0.2277E+03  0.7975E+02E
 Epicentro: LOS SANTOS - SANTANDER                                             3
 ACTION:UPD 12-07-13 16:06 OP:ep   STATUS:               ID:20111026174604 L   I
 2011-10-26-1740-00M.COL___177                                                 6
 STAT SP IPHASW D HRMM SECON CODA AMPLIT PERI AZIMU VELO AIN AR TRES W  DIS CAZ7
 BAR2 SZ EP       1746 23.51                             172   -0.2110 19.8 201 
 BAR2 SZ I        1746 41.88         8.2 0.44                          19.8 201 
 BTL  SZ EP       1746 24.18                             171    0.3710 24.2 317 
 GIR2 SZ EP   3   1746 22.81                             165   -1.16 2 36.4 347 
 GIR2 SZ ES   3   1746 39.59                             165    0.00 2 36.4 347 
 BRR  HZ EP       1746 25.45                             151   -0.1210 76.1 300 
 BRR  HZ I        1746 45.02        17.1 0.34                          76.1 300 
 PAM  SE ES   3   1746 43.81                             150   -0.19 2 79.1  36 
 RUS  HZ EP   2   1746 27.74                             145    0.20 5 95.9 178 
 RUS  HE ES   3   1746 45.91                             145   -0.03 2 95.9 178 
 RUS  HZ I        1746 49.64         4.1 0.30                          95.9 178 
                                                                                
