 2016  126 1229 47.3 L   6.816 -73.054118.0  RSN  4 0.2 2.1LRSN                1
 GAP=263        0.34       3.3    10.3 13.3 -0.2964E+02 -0.1158E+03  0.3240E+02E
 Epicentro: LOS SANTOS - SANTANDER                                             3
 ACTION:UPD 16-03-09 23:28 OP:cam  STATUS:               ID:20160126122947 L   I
 OLDACT:UP  16-01-27 01:03 OP:ak   STATUS:               ID:20160126122750d    3
 OLDACT:UP  16-01-27 01:01 OP:ak   STATUS:               ID:20160126122750d    3
 OLDACT:DUP 16-01-27 00:56 OP:ak   STATUS:               ID:20160126122750d    3
 OLDACT:REG 16-01-26 21:24 OP:ak   STATUS:               ID:20160126122749     3
 2016-01-26-1227-49M.COL___334                                                 6
 STAT SP IPHASW D HRMM SECON CODA AMPLIT PERI AZIMU VELO AIN AR TRES W  DIS CAZ7
 PTB  HZ EP       1230 13.17                             122   -0.0210  158 259 
 PTB  HN ES       1230 33.37                             122   -0.0210  158 259 
 NOR  HZ EP   2   1230 22.78                             111    0.15 4  244 236 
 NOR  HN ES       1230 50.21                             111    0.02 9  244 236 
 NOR  HZ I        1230 52.45         4.9 0.26             55            244 236 
 SML  HZ EP   2   1230 23.13                             110    0.28 4  247 333 
 SML  HN ES       1230 50.56                             110   -0.02 9  247 333 
 SML  HZ I        1230 55.95        23.0 0.05             55            247 333 
 GUY2CHZ EP   2   1230 30.32                             105   -0.54 4  310 236 
 GUY2CHN ES       1231  4.92                             105    0.07 8  310 236 
 GUY2CHZ I        1231 12.89         3.5 0.74                           310 236 
                                                                                
