 2014  826 1526 54.9 L   6.733 -73.161148.5  RSN  4 0.4 1.8LRSN                1
 GAP=230        1.09       8.7     8.3  8.8  0.3550E+02  0.6953E+01  0.1248E+01E
 Epicentro: VILLANUEVA - SANTANDER                                             3
 ACTION:UPD 14-09-15 21:53 OP:nd   STATUS:               ID:20140826152654 L   I
 OLDACT:REG 14-08-26 20:53 OP:stll STATUS:               ID:20140826151817     3
 2014-08-26-1518-17M.COL___254                                                 6
 STAT SP IPHASW D HRMM SECON CODA AMPLIT PERI AZIMU VELO AIN AR TRES W  DIS CAZ7
 BAR2 SZ EP       1527 14.55                             174   -0.1910 15.7 188 
 BAR2 SZ ES       1527 29.45                             174   -0.7610 15.7 188 
 BAR2 SZ I        1527 31.63        19.9 0.20            165           15.7 188 
 BRR  HZ EP       1527 16.66                             152    0.1810 73.6 304 
 BRR  HN ES       1527 33.90                             152    0.5810 73.6 304 
 RUS  HZ EP       1527 18.62                             146    0.2010 93.3 175 
 RUS  HN ES       1527 37.21                             146    0.4410 93.3 175 
 RUS  HZ I        1527 40.65         6.3 0.44            143           93.3 175 
 PTB  HZ EP       1527 21.45                             133   -0.38 9  145 262 
 PTB  HN ES       1527 42.70                             133   -0.13 9  145 262 
 PTB  HZ I        1527 48.50        10.9 0.40            131            145 262 
                                                                                
