 2011  626 1154 44.8 L   6.850 -73.052129.7  RSN  7 0.3 1.4LRSN                1
 GAP=166        0.67       4.8     9.9  8.5 -0.1451E+01 -0.2096E+02 -0.6754E+01E
 Epicentro: LOS SANTOS - SANTANDER                                             3
 ACTION:UP  11-07-14 19:08 OP:ep   STATUS:               ID:20110626115444 L   I
 2011-06-26-1151-10S.COL___140                                                 6
 STAT SP IPHASW D HRMM SECON CODA AMPLIT PERI AZIMU VELO SNR AR TRES W  DIS CAZ7
 BTL  SZ EP   2   1155  2.58                             169     0.0 5   25 288 
 GIR2 SZ EP   2   1155  2.60                             166     0.0 5   30 328 
 BAR2 SZ EP   1   1155  2.51                             165    -0.3 7   32 207 
 BAR2 SZ ES   1   1155 16.42                             165    -0.3 7   32 207 
 BAR2 SZ I        1155 18.74         8.0 0.14                            32 207 
 BRR  HZ EP   1   1155  4.33                             147    -0.4 7   78 291 
 BRR  HN ES   2   1155 20.90                             147     0.6 5   78 291 
 BRR  HZ I        1155 24.36        12.0 0.31                            78 291 
 BRI  SZ EP   2   1155  6.59                             140     0.0 5  100  16 
 RUS  HZ EP   1   1155  7.97                             138     0.5 7  106 182 
 RUS  HN ES   2   1155 25.25                             138     0.1 5  106 182 
 RUS  HZ I        1155 27.45         2.2 0.53                           106 182 
 GRA  SZ EP   2   1155  8.04                             135     0.1 5  118  13 
 GRA  SZ ES   2   1155 26.32                             135     0.3 5  118  13 
 GRA  SZ I        1155 28.47         4.6 0.17                           118  13 
                                                                                
