 2013 1126 1658  0.2 L   6.793 -73.155143.6  RSN  9 0.5 2.0LRSN                1
 GAP=148        0.97       5.7     4.7  6.8 -0.7731E+01  0.1169E+02 -0.1831E+00E
 Epicentro: LOS SANTOS - SANTANDER                                             3
 ACTION:UPD 14-01-09 16:31 OP:ep   STATUS:               ID:20131126165800 L   I
 OLDACT:UP  13-11-26 16:04 OP:cam  STATUS:               ID:20131126165000     3
 OLDACT:REG 13-11-26 15:14 OP:cam  STATUS:               ID:20131126165000     3
 2013-11-26-1650-00M.COL___282                                                 6
 STAT SP IPHASW D HRMM SECON CODA AMPLIT PERI AZIMU VELO AIN AR TRES W  DIS CAZ7
 BAR2 SZ EP       1658 19.46                             171   -0.1110 22.4 188 
 BAR2 SZ ES       1658 34.94                             171    0.2710 22.4 188 
 BAR2 SZ I        1658 35.68        30.3 0.24            170           22.4 188 
 BRR  HZ EP       1658 21.53                             152    0.4310 70.7 300 
 BRR  HN ES   4   1658 39.05                             152    1.65 0 70.7 300 
 PAM  SZ EP       1658 22.41                             150    0.1310 78.7  40 
 PAM  SN ES       1658 39.09                             150   -0.4010 78.7  40 
 PAM  SZ I        1658 39.78         8.5 0.38            153           78.7  40 
 PTB  HZ EP   2   1658 26.24                             132   -0.66 5  147 259 
 PTB  HN ES       1658 47.11                             132   -0.60 9  147 259 
 PTB  HZ I        1658 50.02        17.0 0.16            131            147 259 
 ZAR  HZ EP       1658 32.40                             122   -0.05 9  203 292 
 ZAR  HE ES       1658 58.32                             122    0.72 9  203 292 
 ZAR  HZ I        1659  4.22        14.2 0.36            122            203 292 
 NOR  HZ EP       1658 36.13                             118    0.45 8  233 234 
 NOR  HN ES   1   1659  2.72                             118   -0.62 6  233 234 
 NOR  HZ I        1659  9.23         8.6 0.26            118            233 234 
 SML  HZ EP   1   1658 35.94                             117   -0.81 6  244 336 
 CHI  HZ EP   1   1658 37.84                             117    0.16 6  248 195 
 GUY2CHZ EP   2   1658 43.79                             112    0.22 4  300 235 
 SJC  HZ EP   4   1658 54.29                             105   -1.43 0  409 327 
                                                                                
