 2016  126 1817 49.2 L   6.787 -73.167138.0  RSN  7 0.4 1.7LRSN                1
 GAP=134        0.94       4.3     4.0  7.0 -0.3648E+01  0.1208E+02  0.9327E+00E
 Epicentro: LOS SANTOS - SANTANDER                                             3
 ACTION:UPD 16-03-09 23:28 OP:cam  STATUS:               ID:20160126181749 L   I
 OLDACT:REG 16-01-26 22:36 OP:ak   STATUS:               ID:20160126180749     3
 2016-01-26-1807-49M.COL___332                                                 6
 STAT SP IPHASW D HRMM SECON CODA AMPLIT PERI AZIMU VELO AIN AR TRES W  DIS CAZ7
 BAR2 EZ EP       1818  7.47                             171   -0.3810 21.6 184 
 BAR2 EZ ES       1818 22.51                             171    0.1110 21.6 184 
 BAR2 EZ I        1818 24.53        13.7 0.28            174           21.6 184 
 PAM  EZ EP       1818 10.86                             148    0.1210 80.0  40 
 PAM  EN ES       1818 27.81                             148    0.2510 80.0  40 
 PAM  EZ I        1818 30.45         9.8 0.44            150           80.0  40 
 RUS  HZ EP       1818 12.08                             142   -0.0110 99.3 175 
 RUS  HN ES       1818 29.79                             142   -0.1610 99.3 175 
 RUS  HZ I        1818 31.57         9.4 0.34            147           99.3 175 
 PTB  HZ EP   2   1818 14.53                             131   -0.76 5  145 259 
 PTB  HN ES       1818 34.88                             131   -0.76 9  145 259 
 PTB  HZ I        1818 36.67         6.1 0.24            132            145 259 
 ZAR  HZ EP   2   1818 20.64                             121   -0.32 4  202 293 
 ZAR  HN ES       1818 46.09                             121    0.35 9  202 293 
 ZAR  HZ I        1818 53.71         5.6 0.16            122            202 293 
 NOR  HZ EP   2   1818 23.18                             117   -0.99 4  232 234 
 NOR  HN ES       1818 51.98                             117    0.52 8  232 234 
 NOR  HZ I        1818 52.78         4.8 0.12            119            232 234 
 GUY2CHZ EP       1818 32.46                             111    0.33 7  298 235 
 GUY2CHN ES       1819  6.32                             111    0.70 7  298 235 
 GUY2CHZ I        1819 13.96         2.5 0.32                           298 235 
                                                                                
