 2011  526 1004 11.9 L   6.818 -73.040136.3  RSN  9 0.4 1.8LRSN                1
 GAP=170        0.96       4.9     8.1  8.7 -0.7384E+01 -0.3297E+01  0.6233E+00E
 Epicentro: CEPITA - SANTANDER                                                 3
 ACTION:UP  11-06-29 08:56 OP:tino STATUS:               ID:20110526100411 L   I
 2011-05-26-1000-00M.COL___116                                                 6
 STAT SP IPHASW D HRMM SECON CODA AMPLIT PERI AZIMU VELO SNR AR TRES W  DIS CAZ7
 BTL  SZ EP       10 4 30.87                             168     0.410   28 294 
 BAR2 SZ EP       10 4 30.67                             167     0.110   30 212 
 BAR2 SZ ES   1   10 4 45.06                             167     0.0 7   30 212 
 BAR2 SZ I        10 4 47.14        27.7 0.17                            30 212 
 GIR2 SZ EP   1   10 4 30.78                             165     0.3 7   33 329 
 BRR  HZ EP       10 4 32.40                             147    -0.210   81 293 
 BRR  HN ES   1   10 4 49.19                             147     0.4 7   81 293 
 BRR  HZ I        10 4 52.12        17.3 0.20                            81 293 
 RUS  HZ EP       10 4 34.57                             141    -0.310  102 183 
 RUS  HE ES   2   10 4 52.61                             141    -0.2 5  102 183 
 RUS  HZ I        10 4 54.37         6.6 0.19                           102 183 
 GRA  SZ EP       10 4 36.36                             136     0.510  121  12 
 GRA  SZ ES   1   10 4 53.71                             136    -0.9 7  121  12 
 GRA  SZ I        10 4 58.47         5.7 0.26                           121  12 
 OCA  SZ EP   2   10 4 40.05                             127     0.6 5  160 349 
 OCA  SZ ES   2   10 5  0.37                             127    -0.6 5  160 349 
 OCA  SZ I        10 5  4.48         8.1 0.19                           160 349 
 HEL  HZ EP   2   10 4 52.51                             112    -0.5 4  284 256 
 HEL  HN ES   2   10 5 24.55                             112    -0.5 4  284 256 
 HEL  HZ I        10 5 29.66         4.0 0.54                           284 256 
 RREF HZ EP   2   10 4 58.68                             108    -0.2 3  332 230 
 RREF HZ I        10 5 41.05         4.1 0.36                           332 230 
                                                                                
