 2016  926 1218  7.6 L   6.821 -73.148146.0  RSN 18 0.4 2.3LRSN                1
 GAP= 70        0.81       3.0     2.5  4.0  0.4137E+00  0.1463E+01  0.1607E+01E
 Epicentro: LOS SANTOS - SANTANDER                                             3
 ACTION:UPD 17-08-17 21:16 OP:lp   STATUS:               ID:20160926121807 L   I
 OLDACT:UP  16-09-26 23:25 OP:edw  STATUS:               ID:20160926120745     3
 OLDACT:UP  16-09-26 23:24 OP:edw  STATUS:               ID:20160926120745     3
 OLDACT:REG 16-09-26 20:05 OP:edw  STATUS:               ID:20160926120745     3
 2016-09-26-1208-00M.COL___333                                                 6
 STAT SP IPHASW D HRMM SECON CODA AMPLIT PERI AZIMU VELO AIN AR TRES W  DIS CAZ7
 BAR2 EZ EP     C 1218 26.99                             170   -0.3110 25.6 189 
 BAR2 EZ ES       1218 42.49                             170   -0.1810 25.6 189 
 BAR2 EZ I        1218 43.24        66.4 0.24            169           25.6 189 
 BRR  HZ IP     C 1218 28.76                             153    0.0710 69.9 297 
 BRR  HN ES       1218 45.48                             153    0.3310 69.9 297 
 BRR  HZ I        1218 49.82        43.4 0.36            150           69.9 297 
 PAM  EZ EP       1218 30.02                             151    0.2910 75.7  41 
 PAM  EN ES       1218 47.22                             151    0.2210 75.7  41 
 PAM  EZ I        1218 49.18        27.4 0.44            153           75.7  41 
 RUS  HZ EP       1218 31.24                             143   -0.2910  103 176 
 RUS  HN ES       1218 49.94                             143   -0.2710  103 176 
 RUS  HZ I        1218 50.75        30.9 0.28            144            103 176 
 PTB  HZ EP   9   1218 33.69                             132   -0.91 0  148 258 
 PTB  HN ES       1218 54.94                             132    0.19 9  148 258 
 PTB  HZ I        1218 55.91        19.8 0.19            130            148 258 
 TAM  HZ IP     D 1218 35.40                             130    0.03 9  156 106 
 TAM  HN ES       1218 56.91                             130   -0.12 9  156 106 
 OCA  HZ EP   9   1218 35.97                             130    0.27 0  158 353 
 OCA  HN ES       1218 57.95                             132    0.06 9  158 353 
 OCA  HZ I        1219  3.62        34.8 0.40            130            158 353 
 SPBC HZ EP       1218 36.01                             129   -0.26 9  165 218 
 SPBC HN ES       1218 59.01                             129    0.38 9  165 218 
 SPBC HZ I        1219  2.37        35.7 0.24            128            165 218 
 ZAR  HZ EP       1218 39.63                             123   -0.31 9  203 292 
 ZAR  HN ES       1219  4.78                             123   -0.38 9  203 292 
 ZAR  HZ I        1219 10.55        16.6 0.11            121            203 292 
 NOR  HZ EP       1218 43.70                             118    0.24 8  236 234 
 NOR  HN ES   4   1219 10.88                             118   -0.55 0  236 234 
 NOR  HZ I        1219 13.99        15.2 0.20            118            236 234 
 CHI  HZ EP   9   1218 45.14                             117   -0.40 0  251 195 
 CHI  HN ES       1219 14.91                             117    0.17 8  251 195 
 CHI  HZ I        1219 17.78        13.6 0.36            117            251 195 
 ROSC BZ EP       1218 46.97                             117    1.04 8  255 211 
 ROSC BN ES   4   1219 19.03                             117    3.20 0  255 211 
 ROSC BZ I        1219 22.51        21.5 0.30            116            255 211 
 HEL  HZ EP   4   1218 49.14                             115    1.29 0  272 255 
 HEL  HN ES   4   1219 18.56                             115   -0.70 0  272 255 
 HEL  HZ I        1219 25.21        10.6 0.32            114            272 255 
 GUY2CHZ EP   4   1218 53.90                             112    2.56 0  302 234 
 GUY2CHN ES   4   1219 30.18                             112    4.72 0  302 234 
 GUY2CHZ I        1219 32.36         7.7 0.25                           302 234 
 PTGC HN ES   4   1219 22.80                             111   -3.33 0  311 159 
 ELA  HZ EP   4   1218 56.80                             110    2.20 0  330 229 
 ELA  HN ES   4   1219 34.43                             110    3.16 0  330 229 
 ELA  HZ I        1219 38.69         7.6 0.26            110            330 229 
 DBB  HZ EP   4   1218 45.45                             110   -9.58 0  339 274 
 DBB  HN ES       1219 31.62                             110   -0.41 7  339 274 
 ANIL HZ EP   4   1218 58.93                             108    1.35 0  359 224 
 ANIL HN ES   4   1219 38.67                             108    2.10 0  359 224 
 SJC  HZ EP   4   1219  1.26                             106   -1.65 0  407 327 
 SJC  HN ES   4   1219 42.41                             106   -3.65 0  407 327 
 SJC  HZ I        1219 49.05         1.8 0.16            106            407 327 
 CRJC HZ EP   9   1219  6.11                             103   -3.71 0  465   4 
 CRJC HN ES       1219 55.23                             104    0.58 5  465   4 
                                                                                
