 2013  826 1533  5.2 L   6.632 -73.027186.2  RSN 15 0.5 2.3LRSN                1
 GAP=160        1.19       4.4     5.3  6.1 -0.2473E+01  0.9357E+01  0.7621E+00E
 Epicentro: CURITI - SANTANDER                                                 3
 ACTION:UPD 14-01-14 09:07 OP:ep   STATUS:               ID:20130826153305 L   I
 OLDACT:UP  13-08-26 17:57 OP:nd   STATUS:               ID:20130826152748     3
 OLDACT:UP  13-08-26 17:53 OP:nd   STATUS:               ID:20130826152748     3
 OLDACT:REG 13-08-26 17:13 OP:nd   STATUS:               ID:20130826152748     3
 2013-08-26-1527-48M.COL___232                                                 6
 STAT SP IPHASW D HRMM SECON CODA AMPLIT PERI AZIMU VELO AIN AR TRES W  DIS CAZ7
 BAR2 SZ IP     C 1533 29.77                             174    0.1210 17.7 256 
 BAR2 SZ ES       1533 49.00                             174    0.3010 17.7 256 
 BAR2 SZ I        1533 50.50        41.4 0.44            171           17.7 256 
 RUS  HZ EP     D 1533 32.09                             155    0.0010 81.9 184 
 RUS  HN ES       1533 52.76                             155   -0.2910 81.9 184 
 RUS  HZ I        1533 54.21        19.0 0.30            157           81.9 184 
 PAM  SZ EP       1533 31.84                             154   -0.4710 86.2  25 
 PAM  SN ES       1533 53.52                             154    0.0810 86.2  25 
 PAM  SZ I        1533 56.18        20.9 0.34            156           86.2  25 
 BRR  HZ EP       1533 32.88                             153    0.9610 92.2 305 
 BRR  HN ES   2   1533 52.60                             153   -0.15 5 92.2 305 
 BRR  HZ I        1533 57.75        23.7 0.26            151           92.2 305 
 PTB  HZ IP     C 1533 36.07                             138   -0.52 9  158 266 
 PTB  HN ES       1534  0.70                             138   -0.36 9  158 266 
 PTB  HZ I        1534  6.01        16.3 0.16            138            158 266 
 ZAR  HZ EP       1533 43.09                             128    0.65 8  224 295 
 ZAR  HN ES       1534 11.28                             128   -0.20 8  224 295 
 ZAR  HZ I        1534 17.16        10.5 0.24            128            224 295 
 CHI  HZ EP       1533 43.61                             126   -0.46 8  235 199 
 CHI  HN ES   4   1534 12.43                             126   -1.95 0  235 199 
 CHI  HZ I        1534 19.49         6.9 0.38            128            235 199 
 NOR  HZ EP       1533 44.05                             126    0.37 8  236 240 
 NOR  HN ES   4   1534 12.30                             126   -1.38 0  236 240 
 NOR  HZ I        1534 17.46         8.3 0.50            127            236 240 
 SML  HZ EP       1533 46.72                             122    0.04 8  266 334 
 SML  HN ES       1534 18.96                             122   -0.06 8  266 334 
 SML  HZ I        1534 22.14        30.2 0.08            124            266 334 
 HEL  HZ EP       1533 49.08                             121    0.37 7  281 260 
 HEL  HN ES       1534 21.80                             121   -0.83 7  281 260 
 HEL  HZ I        1534 25.31         8.8 0.26            122            281 260 
 GUY2CHZ EP       1533 52.41                             119    1.35 7  302 239 
 GUY2CHN ES       1534 27.59                             119    0.77 7  302 239 
 GUY2CHZ I        1534 37.53         6.6 0.56                           302 239 
 URE  HZ EP       1533 49.83                             119   -0.76 7  303 294 
 URE  HN ES   4   1534 23.70                             119   -2.28 0  303 294 
 URE  HZ I        1534 28.19        12.6 0.14            120            303 294 
 COD  HZ EP       1533 57.17                             114   -0.49 6  368 353 
 COD  HN ES   4   1534 37.61                             114   -0.97 0  368 353 
 COD  HZ I        1534 44.82         3.6 0.32            116            368 353 
 PRA  HZ EP       1533 58.66                             113   -0.70 6  383 213 
 PRA  HN ES   4   1534 38.79                             113   -2.80 0  383 213 
 PRA  HZ I        1534 43.08        12.1 0.34            115            383 213 
 ORTC HZ EP       1533 59.52                             113   -0.50 6  389 219 
 ORTC HN ES   4   1534 40.21                             113   -2.56 0  389 219 
 ORTC HZ I        1534 44.41         4.6 0.26            114            389 219 
                                                                                
