 2012  626 1948 26.3 L   6.786 -73.186144.0  RSN 10 0.5 2.9LRSN                1
 GAP=111        0.94       3.9     4.2  8.0 -0.1055E+01  0.7439E+01  0.2218E+01E
 Epicentro: LOS SANTOS - SANTANDER                                             3
 ACTION:UPD 12-08-06 17:52 OP:ep   STATUS:               ID:20120626194826 L   I
 2012-06-26-1940-00M.COL___201                                                 6
 STAT SP IPHASW D HRMM SECON CODA AMPLIT PERI AZIMU VELO AIN AR TRES W  DIS CAZ7
 BAR2 SZ IP       1948 45.78                             171    0.1510 21.4 179 
 BAR2 SZ I        1949  1.73       172.1 0.18                          21.4 179 
 BRR  HZ IP     D 1948 47.71                             153    0.6810 68.1 301 
 BRR  HN ES   3   1949  4.52                             153    1.28 2 68.1 301 
 BRR  HZ I        1949  8.82       207.7 0.44                          68.1 301 
 PAM  SZ IP       1948 48.60                             149    0.0810 81.5  41 
 PAM  SN ES   1   1949  5.52                             149   -0.38 7 81.5  41 
 RUS  HZ EP       1948 49.71                             144   -0.0310 99.4 173 
 RUS  HN ES   1   1949  7.70                             144   -0.36 7 99.4 173 
 RUS  HZ I        1949  9.54        87.6 0.30                          99.4 173 
 PTB  HZ EP       1948 52.38                             132   -0.27 9  143 259 
 PTB  HN ES   1   1949 12.59                             132   -0.64 7  143 259 
 PTB  HZ I        1949 15.84        65.4 0.14                           143 259 
 OCA  HZ EP       1948 54.05                             129   -0.47 9  161 355 
 OCA  HN ES   3   1949 15.90                             129   -0.67 2  161 355 
 OCA  HZ I        1949 20.23       217.1 0.74                           161 355 
 YOP  SZ EP       1948 56.34                             125    0.11 9  180 152 
 YOP  SN ES   2   1949 20.53                             125    0.92 4  180 152 
 YOP  SZ I        1949 21.16        31.4 0.24                           180 152 
 ZAR  HZ EP       1948 58.72                             122    0.51 9  201 293 
 ZAR  HE ES   2   1949 23.98                             122    0.84 4  201 293 
 ZAR  HZ I        1949 30.39       116.0 0.48                           201 293 
 NOR  SZ EP       1949  0.65                             118   -0.74 8  230 234 
 NOR  SE ES       1949 28.84                             118    0.05 8  230 234 
 CHI  HZ EP       1949  3.73                             117    0.17 8  246 194 
 CHI  HZ I        1949 39.02        30.0 0.36                           246 194 
                                                                                
