 2016  526 1957 12.5 L   6.861 -73.297135.2  RSN  4 0.5 1.2LRSN                1
 GAP=157        0.76       5.9     7.9  9.2 -0.1279E+02  0.5504E+01 -0.2024E+02E
 Epicentro: BETULIA - SANTANDER                                                3
 ACTION:UPD 16-08-18 17:49 OP:cam  STATUS:               ID:20160526195712 L   I
 OLDACT:REG 16-05-26 21:31 OP:ar   STATUS:               ID:20160526194742     3
 2016-05-26-1947-42M.COL___319                                                 6
 STAT SP IPHASW D HRMM SECON CODA AMPLIT PERI AZIMU VELO AIN AR TRES W  DIS CAZ7
 BAR2 EZ EP   2   1957 30.45                             166   -0.63 5 32.4 157 
 BAR2 EZ ES       1957 45.69                             166    0.1110 32.4 157 
 BAR2 EZ I        1957 47.60         6.2 0.28            169           32.4 157 
 PAM  EZ EP       1957 34.50                             146    0.4410 84.6  51 
 PAM  EN ES   2   1957 50.10                             146   -0.78 5 84.6  51 
 RUS  HZ EP   2   1957 35.43                             139   -0.49 5  110 168 
 RUS  HE ES       1957 54.11                             139   -0.0910  110 168 
 RUS  HZ I        1957 54.93         1.7 0.18            142            110 168 
 PTB  HZ EP   3   1957 36.21                             132   -1.04 2  133 255 
 PTB  HN ES   2   1957 56.87                             132    0.30 5  133 255 
 PTB  HZ I        1958  1.98         2.3 0.40            130            133 255 
                                                                                
