 2015  726 1527 46.9 L   6.818 -73.222143.8  RSN  4 0.5 1.7LRSN                1
 GAP=174        1.20       5.3     7.9 10.5  0.2553E+00  0.1167E+02 -0.1669E+02E
 Epicentro: ZAPATOCA - SANTANDER                                               3
 ACTION:UPD 15-09-08 21:50 OP:cam  STATUS:               ID:20150726152746 L   I
 OLDACT:REG 15-07-26 20:40 OP:stll STATUS:               ID:20150726151749     3
 2015-07-26-1517-49M.COL___340                                                 6
 STAT SP IPHASW D HRMM SECON CODA AMPLIT PERI AZIMU VELO AIN AR TRES W  DIS CAZ7
 BAR2 EZ EP       1528  7.04                             169    0.7110 25.4 170 
 BAR2 EZ ES       1528 21.64                             169    0.1510 25.4 170 
 BAR2 EZ I        1528 23.70        14.8 0.20            171           25.4 170 
 RUS  HZ EP       1528 10.99                             143    0.3210  104 171 
 RUS  HE ES       1528 28.55                             143   -0.6610  104 171 
 RUS  HZ I        1528 32.03         3.8 0.18            146            104 171 
 CPBEREZ EP       1528 12.32                             133   -0.67 9  140 257 
 CPBEREE ES       1528 33.71                             133    0.36 9  140 257 
 OCA  HZ EP       1528 14.79                             130    0.01 9  157 356 
 OCA  HE ES       1528 36.25                             130   -0.29 9  157 356 
 OCA  HZ I        1528 40.88        10.5 0.54            131            157 356 
                                                                                
