 2017  526 1832 15.2 L   6.810 -73.115146.8  RSN 13 0.6 2.4LRSN                1
 GAP=216        1.30       5.4     5.7  8.3  0.1026E+02 -0.3458E+01  0.5636E+01E
 Epicentro: LOS SANTOS - SANTANDER                                             3
 ACTION:UPD 17-06-16 13:39 OP:jn   STATUS:               ID:20170526183215 L   I
 OLDACT:UP  17-05-27 00:08 OP:dnl  STATUS:               ID:20170526182737     3
 OLDACT:UP  17-05-27 00:07 OP:dnl  STATUS:               ID:20170526182737     3
 OLDACT:REG 17-05-26 22:10 OP:dnl  STATUS:               ID:20170526182737     3
 2017-05-26-1828-00M.COL___343                                                 6
 STAT SP IPHASW D HRMM SECON CODA AMPLIT PERI AZIMU VELO AIN AR TRES W  DIS CAZ7
 BRR  HZ IP     C 1832 36.86                             152    0.2810 73.7 296 
 BRR  HE ES       1832 54.10                             152    0.8310 73.7 296 
 BRR  HZ I        1832 57.22        45.0 0.26            149           73.7 296 
 RUS  HZ EP       1832 39.07                             144   -0.0310  102 178 
 RUS  HN ES       1832 57.62                             144   -0.1410  102 178 
 RUS  HZ I        1832 58.72        41.3 0.17            141            102 178 
 PTB  HZ EP       1832 41.61                             132   -0.94 9  151 259 
 PTB  HN ES       1833  2.85                             132   -1.05 9  151 259 
 PTB  HZ I        1833 10.12        29.7 0.38            129            151 259 
 SPBC HZ EP       1832 44.13                             129    0.08 9  166 220 
 SPBC HN ES       1833  6.36                             129   -0.20 9  166 220 
 SPBC HZ I        1833  9.02        49.9 0.26            126            166 220 
 YPLC HZ EP       1832 45.52                             127    0.53 9  176 152 
 YPLC HE ES   4   1833 10.31                             127    2.06 0  176 152 
 YPLC HZ I        1833 11.89        22.0 0.84            127            176 152 
 ZAR  HZ EP       1832 48.00                             122    0.03 8  207 291 
 ZAR  HE ES       1833 13.12                             122   -0.43 8  207 291 
 ZAR  HZ I        1833 15.46        28.8 0.22            122            207 291 
 NOR  HZ EP       1832 51.11                             118   -0.23 8  238 235 
 NOR  HN ES       1833 19.31                             118   -0.23 8  238 235 
 NOR  HZ I        1833 24.05        18.7 0.16            117            238 235 
 CHI  HZ EP       1832 53.41                             117    0.26 8  251 196 
 CHI  HN ES       1833 22.80                             117    0.03 8  251 196 
 CHI  HZ I        1833 27.66        11.8 0.44            116            251 196 
 HEL  HZ EP   4   1832 57.39                             115    1.55 0  276 256 
 HEL  HE ES       1833 28.55                             115    1.00 7  276 256 
 HEL  HZ I        1833 35.36        13.6 0.26            114            276 256 
 PTGC HZ EP       1832 58.22                             112   -0.85 7  309 159 
 PTGC HN ES   4   1833 30.82                             112   -2.48 0  309 159 
 PTGC HZ I        1833 34.31        16.9 0.36            112            309 159 
 CBOC HZ EP       1833  3.40                             110    0.85 7  337 252 
 CBOC HN ES   4   1833 38.18                             110   -1.31 0  337 252 
 CBOC HZ I        1833 50.01         3.5 0.34            109            337 252 
 ANIL HN ES   4   1833 46.17                             108    1.61 0  361 225 
 ANIL HZ I        1833 54.36        27.7 0.28            108            361 225 
 ORTC HZ EP   2   1833  9.97                             106    0.49 3  398 216 
 ORTC HE ES       1833 52.75                             106    0.92 6  398 216 
 ORTC HZ I        1833 56.47         6.8 0.20            106            398 216 
                                                                                
