 2017  926 1932 21.2 L   6.801 -73.129146.6  RSN 12 0.3 2.3LRSN                1
 GAP=139        0.67       2.4     3.0  3.9 -0.3637E+00  0.4104E+01  0.2833E+01E
 Epicentro: LOS SANTOS - SANTANDER                                             3
 ACTION:UPD 17-10-05 19:16 OP:rebc STATUS:               ID:20170926193221 L   I
 OLDACT:UP  17-09-27 01:03 OP:edw  STATUS:               ID:20170926192743     3
 OLDACT:UP  17-09-27 00:56 OP:edw  STATUS:               ID:20170926192743     3
 OLDACT:UP  17-09-27 00:56 OP:edw  STATUS:               ID:20170926192743     3
 OLDACT:REG 17-09-26 21:08 OP:dhb  STATUS:               ID:20170926192743     3
 2017-09-26-1928-00M.COL___450                                                 6
 STAT SP IPHASW D HRMM SECON CODA AMPLIT PERI AZIMU VELO AIN AR TRES W  DIS CAZ7
 BAR2 EZ EP     C 1932 40.88                             170   -0.0710 23.8 194 
 BAR2 EZ ES       1932 55.80                             170   -0.5510 23.8 194 
 BAR2 EZ I        1932 57.10        51.7 0.30            167           23.8 194 
 BRR  HZ EP       1932 42.73                             152    0.1910 72.8 298 
 BRR  HN ES       1932 59.68                             152    0.5110 72.8 298 
 BRR  HZ I        1933  3.72        33.4 0.18            149           72.8 298 
 PAM  EZ EP       1932 43.68                             151    0.2410 76.2  39 
 PAM  EN ES       1933  0.93                             151    0.1510 76.2  39 
 PAM  EZ I        1933  3.00        27.3 0.54            156           76.2  39 
 RUS  HZ EP       1932 44.88                             144   -0.1610  101 177 
 RUS  HN ES       1933  3.62                             144   -0.0110  101 177 
 RUS  HZ I        1933  4.67        24.5 0.68            144            101 177 
 ZAR  HZ EP       1932 53.67                             122   -0.21 8  206 292 
 ZAR  HN ES       1933 18.88                             122   -0.49 8  206 292 
 ZAR  HZ I        1933 24.09        24.1 0.26            121            206 292 
 NOR  HZ EP     D 1932 57.06                             118   -0.09 8  236 235 
 NOR  HN ES       1933 25.19                             118    0.00 8  236 235 
 NOR  HZ I        1933 34.47        12.0 0.40            118            236 235 
 CHI  HZ EP       1932 59.10                             117    0.09 8  249 196 
 CHI  HN ES       1933 28.50                             117   -0.00 8  249 196 
 CHI  HZ I        1933 33.75        11.8 0.32            117            249 196 
 ROSC BZ EP   4   1933  1.39                             117    1.91 0  254 211 
 ROSC BN ES   4   1933 31.76                             117    2.42 0  254 211 
 ROSC BZ I        1933 35.61        32.2 0.45            117            254 211 
 URE  HN ES   4   1933 31.77                             113   -2.95 0  286 292 
 GUY2CHZ EP   4   1933  5.54                             112    0.51 0  303 235 
 GUY2CHE ES       1933 39.39                             112    0.18 7  303 235 
 GUY2CHZ I        1933 47.33        10.9 0.58                           303 235 
 ELA  HN ES   4   1933 40.26                             110   -4.70 0  331 230 
 PRA  HZ EP       1933 14.73                             107   -0.14 6  393 210 
 PRA  HN ES   4   1933 55.54                             107   -1.19 0  393 210 
 PRA  HZ I        1934  3.05        11.6 0.70            107            393 210 
 ORTC HZ EP       1933 15.26                             106   -0.03 6  397 216 
 ORTC HN ES       1933 57.99                             106    0.52 6  397 216 
 ORTC HZ I        1934  2.29         6.6 0.26            107            397 216 
 SJC  HZ EP   4   1933 13.33                             106   -3.58 0  410 327 
 SJC  HN ES   4   1933 55.60                             106   -4.75 0  410 327 
 SJC  HZ I        1934  8.30         4.1 0.30            106            410 327 
                                                                                
