 2012 1226 1705 48.6 L   6.770 -73.133139.4  RSN  7 0.3 1.8LRSN                1
 GAP=188        0.70       4.5     4.2  5.2  0.5515E+01  0.5556E+01  0.4655E+01E
 Epicentro: LOS SANTOS - SANTANDER                                             3
 ACTION:UPD 13-01-04 14:30 OP:ep   STATUS:               ID:20121226170548 L   I
 2012-12-26-1700-00M.COL___243                                                 6
 STAT SP IPHASW D HRMM SECON CODA AMPLIT PERI AZIMU VELO AIN AR TRES W  DIS CAZ7
 BAR2 SZ EP       17 6  7.59                             171    0.1910 20.4 195 
 BAR2 SZ ES       17 6 21.88                             171   -0.2010 20.4 195 
 BAR2 SZ I        17 6 24.19        18.0 0.28                          20.4 195 
 GIR2 SZ EP       17 6  7.67                             165    0.0510 34.8 349 
 BRR  HZ EP   1   17 6  9.48                             150    0.25 7 74.0 300 
 BRR  HZ I        17 6 13.41        12.7 0.43                          74.0 300 
 BRR  HN ES       17 6 25.62                             150    0.3010 74.0 300 
 RUS  HZ EP       17 6 11.60                             144    0.1210 97.2 177 
 RUS  HZ I        17 6 12.52         4.9 0.09                          97.2 177 
 RUS  HN ES   1   17 6 29.01                             144   -0.32 7 97.2 177 
 PTB  HZ EP       17 6 14.60                             130   -0.52 9  149 260 
 PTB  HE ES   1   17 6 35.61                             130   -0.20 7  149 260 
 PTB  HZ I        17 6 37.25         6.5 0.22                           149 260 
 ZAR  HE ES   1   17 6 45.75                             121   -0.35 6  207 293 
 ZAR  HZ I        17 6 51.79         6.5 0.36                           207 293 
 NOR  HZ EP       17 6 23.89                             117    0.01 8  234 235 
 NOR  HN ES   1   17 6 52.10                             117    0.70 6  234 235 
 NOR  HZ I        17 6 56.75         5.6 0.15                           234 235 
                                                                                
