 2017  526 1838  6.5 L   6.756 -73.175146.0  RSN 10 0.3 2.1LRSN                1
 GAP=206        0.79       3.6     4.0  6.9  0.4871E+01 -0.3238E+01  0.2408E+01E
 Epicentro: LOS SANTOS - SANTANDER                                             3
 ACTION:UPD 17-06-16 13:39 OP:jn   STATUS:               ID:20170526183806 L   I
 OLDACT:UP  17-05-27 00:12 OP:dnl  STATUS:               ID:20170526182738d    3
 OLDACT:UP  17-05-27 00:12 OP:dnl  STATUS:               ID:20170526182738d    3
 OLDACT:UP  17-05-27 00:12 OP:dnl  STATUS:               ID:20170526182738d    3
 OLDACT:DUP 17-05-27 00:08 OP:dnl  STATUS:               ID:20170526182738d    3
 OLDACT:UP  17-05-27 00:08 OP:dnl  STATUS:               ID:20170526182737     3
 OLDACT:UP  17-05-27 00:07 OP:dnl  STATUS:               ID:20170526182737     3
 OLDACT:REG 17-05-26 22:10 OP:dnl  STATUS:               ID:20170526182737     3
 2017-05-26-1828-00M.COL___343                                                 6
 STAT SP IPHASW D HRMM SECON CODA AMPLIT PERI AZIMU VELO AIN AR TRES W  DIS CAZ7
 BRR  HZ EP       1838 27.67                             153   -0.0310 70.9 303 
 BRR  HE ES       1838 44.46                             153    0.2510 70.9 303 
 BRR  HZ I        1838 47.62        18.9 0.20            150           70.9 303 
 RUS  HZ EP       1838 29.66                             145   -0.3410 96.0 174 
 RUS  HN ES       1838 48.42                             145    0.1310 96.0 174 
 RUS  HZ I        1838 49.79        20.1 0.32            142           96.0 174 
 PTB  HZ EP       1838 33.50                             133    0.33 9  144 260 
 PTB  HN ES       1838 53.31                             133   -0.62 9  144 260 
 PTB  HZ I        1838 56.61        11.6 0.46            130            144 260 
 SPBC HN ES       1838 56.34                             130    0.01 9  157 219 
 SPBC HZ I        1839  0.60        19.0 0.32            127            157 219 
 YPLC HZ IP     C 1838 36.16                             127    0.06 9  174 150 
 YPLC HE ES   4   1839  0.45                             127    1.30 0  174 150 
 YPLC HZ I        1839  2.56        18.5 0.28            126            174 150 
 ZAR  HZ EP   4   1838 40.30                             123    1.41 0  203 294 
 ZAR  HE ES       1839  4.01                             123   -0.11 9  203 294 
 ZAR  HZ I        1839 10.81        11.9 0.46            121            203 294 
 NOR  HZ EP   4   1838 43.49                             119    1.78 0  229 235 
 NOR  HN ES       1839  9.72                             119    0.59 8  229 235 
 NOR  HZ I        1839 16.93         9.7 0.16            117            229 235 
 CHI  HZ EP   4   1838 45.18                             118    1.52 0  243 195 
 CHI  HN ES       1839 12.40                             118   -0.20 8  243 195 
 CHI  HZ I        1839 16.38         5.0 0.30            116            243 195 
 HEL  HZ EP   4   1838 48.56                             115    2.27 0  268 257 
 HEL  HE ES   4   1839 16.12                             115   -1.18 0  268 257 
 HEL  HZ I        1839 23.24         5.9 0.42            113            268 257 
 PTGC HZ EP   4   1838 48.02                             112   -2.02 0  305 158 
 PTGC HN ES   4   1839 21.54                             112   -2.42 0  305 158 
 PTGC HZ I        1839 30.21        13.4 0.46            111            305 158 
                                                                                
