 2014  826 1439 46.1 L   6.801 -73.101134.5  RSN  7 0.5 2.3LRSN                1
 GAP= 76        1.29       4.2     5.1  8.1 -0.1214E+01 -0.1819E+01  0.4888E+00E
 Epicentro: LOS SANTOS - SANTANDER                                             3
 ACTION:UPD 14-09-15 21:53 OP:nd   STATUS:               ID:20140826143946 L   I
 OLDACT:DUP 14-08-26 23:38 OP:stll STATUS:               ID:20140826143819d    3
 2014-08-26-1438-18M.COL___257                                                 6
 STAT SP IPHASW D HRMM SECON CODA AMPLIT PERI AZIMU VELO AIN AR TRES W  DIS CAZ7
 BAR2 SZ IP     C 1440  4.70                             169    0.2710 24.7 201 
 BAR2 SZ ES       1440 18.61                             169   -0.1010 24.7 201 
 BAR2 SZ I        1440 20.30        72.5 0.24            167           24.7 201 
 PAM  SZ EP       1440  7.59                             150    0.6310 74.3  37 
 PAM  SZ I        1440  7.88        78.8 0.26            151           74.3  37 
 PAM  SN ES       1440 22.98                             150   -0.2310 74.3  37 
 BRR  HZ IP     D 1440  6.64                             149    0.3110 75.5 297 
 BRR  HZ I        1440  6.91        43.8 0.24            147           75.5 297 
 BRR  HE ES       1440 23.04                             149    0.9410 75.5 297 
 RUS  HZ EP       1440  8.78                             141    0.0110  100 179 
 RUS  HN ES       1440 25.88                             141   -0.5610  100 179 
 RUS  HZ I        1440 27.89        13.8 0.26            141            100 179 
 TAM  HZ IP     C 1440 13.05                             129    0.57 9  150 106 
 TAM  HZ I        1440 13.17        35.2 0.20            130            150 106 
 TAM  HE ES       1440 32.97                             129   -0.07 9  150 106 
 OCA  HZ EP       1440 12.96                             127   -0.68 9  161 351 
 OCA  HN ES       1440 34.27                             127   -0.83 9  161 351 
 OCA  HZ I        1440 40.31        34.6 0.22            127            161 351 
 SPBC HZ EP       1440 13.86                             126   -0.24 9  166 220 
 SPBC HN ES       1440 35.63                             126   -0.29 9  166 220 
 SPBC HZ I        1440 43.05        13.4 0.18            125            166 220 
                                                                                
