 2011  826 1255  5.9 L   6.770 -73.126143.1  RSN  8 0.4 2.2LRSN                1
 GAP=140        0.70       4.0     5.1  5.8 -0.6456E+01  0.7548E+01  0.7494E+01E
 Epicentro: LOS SANTOS - SANTANDER                                             3
 ACTION:UPD 12-07-13 15:53 OP:ep   STATUS:               ID:20110826125505 L   I
 2011-08-26-1254-32S.COL___161                                                 6
 STAT SP IPHASW D HRMM SECON CODA AMPLIT PERI AZIMU VELO AIN AR TRES W  DIS CAZ7
 BAR2 SZ EP   1   1255 25.13                             171   -0.05 7 20.7 198 
 BAR2 SZ ES   1   1255 39.72                             171   -0.48 7 20.7 198 
 BAR2 SZ I        1255 41.57        26.5 0.18                          20.7 198 
 BRR  HZ EP   1   1255 26.97                             151   -0.02 7 74.7 300 
 BRR  HN ES   1   1255 43.79                             151    0.37 7 74.7 300 
 BRR  HZ I        1255 44.80        24.8 0.13                          74.7 300 
 PAM  SZ EP   1   1255 28.02                             150    0.09 7 78.6  37 
 PAM  SZ I        1255 28.38        12.5 0.17                          78.6  37 
 PAM  SN ES   1   1255 44.96                             150   -0.13 7 78.6  37 
 RUS  HZ EP   1   1255 28.86                             144   -0.31 7 97.2 177 
 RUS  HN ES   1   1255 47.96                             144    0.66 7 97.2 177 
 RUS  HZ I        1255 49.30        18.1 0.25                          97.2 177 
 NOR  SZ EP   1   1255 40.76                             118   -0.73 6  235 235 
 NOR  SN ES   1   1256  9.15                             118   -0.08 6  235 235 
 CHI  HZ EP   1   1255 43.56                             117    0.36 6  246 196 
 CHI  HN ES   1   1256 12.06                             117   -0.21 6  246 196 
 RREF HZ EP   1   1255 52.80                             110    0.90 5  321 230 
 RREF HN ES   1   1256 27.76                             110   -0.01 5  321 230 
 RREF HZ I        1256 39.28         7.6 0.38                           321 230 
 PRA  HZ EP   1   1255 59.18                             106    0.03 4  390 210 
 PRA  HN ES   1   1256 40.33                             106   -0.34 4  390 210 
 PRA  HZ I        1256 47.88        17.7 0.22                           390 210 
                                                                                
