 2013  426 1918 31.9 L   7.416 -73.325124.3  RSN  6 0.4 1.9LRSN                1
 GAP=100        0.88       3.8     5.0  7.5 -0.1218E+01  0.6707E+01  0.1721E+01E
 Epicentro: EL PLAYON - SANTANDER                                              3
 ACTION:UPD 13-05-22 14:41 OP:EP   STATUS:               ID:20130426191831 L   I
 2013-04-26-1910-00M.COL___249                                                 6
 STAT SP IPHASW D HRMM SECON CODA AMPLIT PERI AZIMU VELO AIN AR TRES W  DIS CAZ7
 BRR  HZ IP     C 1918 50.20                             155    0.3710 54.7 231 
 BRR  HN ES   1   1919  3.66                             155   -0.13 7 54.7 231 
 BRR  HZ I        1919  4.82        33.1 0.20            145           54.7 231 
 PAM  SZ EP       1918 51.75                             149    0.3610 69.5  97 
 PAM  SN ES   1   1919  6.52                             149   -0.05 7 69.5  97 
 PAM  SZ I        1919 10.15         8.5 0.46            128           69.5  97 
 OCA  HZ EP       1918 51.69                             141   -0.7210 91.0   0 
 OCA  HN ES   1   1919  8.55                             141    0.16 7 91.0   0 
 OCA  HZ I        1919 14.89        25.7 0.30            130           91.0   0 
 PTB  HZ EP       1918 58.61                             124    0.35 9  158 232 
 PTB  HN ES   1   1919 18.53                             124   -0.28 7  158 232 
 PTB  HZ I        1919 21.47        12.5 0.16            113            158 232 
 RUS  HZ EP       1918 59.72                             123   -0.42 9  171 171 
 RUS  HZ I        1919 34.12         2.2 0.16            108            171 171 
 SML  HZ EP       1919  0.11                             122    0.27 9  174 332 
 SML  HN ES   1   1919 21.54                             122   -0.08 7  174 332 
 SML  HZ I        1919 25.50        32.8 0.10            112            174 332 
                                                                                
