 2017  626 1842 23.5 L   6.803 -73.129136.8  RSN 13 0.4 2.4LRSN                1
 GAP=168        0.76       3.6     2.6  4.6 -0.2429E+01 -0.1758E+00  0.7264E+01E
 Epicentro: LOS SANTOS - SANTANDER                                             3
 ACTION:UPD 17-09-14 16:55 OP:jn   STATUS:               ID:20170626184223 L   I
 OLDACT:UP  17-06-26 22:54 OP:cog  STATUS:               ID:20170626183737     3
 OLDACT:UP  17-06-26 22:53 OP:cog  STATUS:               ID:20170626183737     3
 OLDACT:REG 17-06-26 21:27 OP:cog  STATUS:               ID:20170626183737     3
 2017-06-26-1838-00M.COL___358                                                 6
 STAT SP IPHASW D HRMM SECON CODA AMPLIT PERI AZIMU VELO AIN AR TRES W  DIS CAZ7
 BAR2 EZ EP       1842 41.79                             170   -0.3210 24.1 194 
 BAR2 EZ ES       1842 56.79                             170    0.2010 24.1 194 
 BAR2 EZ I        1842 57.84        79.0 0.18            164           24.1 194 
 BRR  HZ EP       1842 43.59                             150   -0.2210 72.6 298 
 BRR  HN ES       1842 59.85                             150    0.2310 72.6 298 
 BRR  HZ I        1843  3.86        85.2 0.34            149           72.6 298 
 PTB  HZ EP   9   1842 48.89                             129   -1.07 0  150 259 
 PTB  HN ES       1843  9.42                             130   -0.08 9  150 259 
 PTB  HZ I        1843 11.19        25.1 0.28            128            150 259 
 TAM  HZ EP       1842 50.08                             129   -0.28 9  153 105 
 TAM  HE ES       1843 11.36                             129    0.08 9  153 105 
 TAM  HZ I        1843 12.26        17.6 0.20            131            153 105 
 TABC EZ EP       1842 59.58                             117    0.68 8  231 211 
 TABC EZ ES   3   1843 27.07                             117    0.58 2  231 211 
 TABC EZ I        1843 35.19        25.1 0.40            116            231 211 
 NOR  HZ EP       1842 59.03                             116    0.08 8  236 235 
 NOR  HE ES       1843 26.25                             116   -0.32 8  236 235 
 NOR  HZ I        1843 30.95        18.3 0.26            116            236 235 
 CHI  HZ EP       1843  0.48                             115   -0.36 8  249 196 
 CHI  HN ES       1843 29.59                             115   -0.36 8  249 196 
 CHI  HZ I        1843 36.18        10.9 0.40            115            249 196 
 ROSC BZ EP   3   1843  2.22                             115    0.90 2  254 211 
 ROSC BE ES       1843 30.67                             115   -0.12 8  254 211 
 ROSC BZ I        1843 38.22        25.1 0.50            114            254 211 
 HEL  HZ EP   4   1843  4.31                             113    0.79 0  274 256 
 HEL  HE ES   4   1843 30.22                             113   -4.48 0  274 256 
 HEL  HZ I        1843 40.15        20.7 0.42            112            274 256 
 GUY2CHZ EP       1843  7.02                             110    0.08 7  303 235 
 GUY2CHN ES       1843 40.84                             110    0.05 7  303 235 
 GUY2CHZ I        1843 46.66        10.2 0.24                           303 235 
 VIL  EZ EP   4   1843  5.33                             110   -1.31 0  304 192 
 VIL  HE ES       1843 40.71                             110    0.45 7  304 192 
 VIL  EZ I        1843 44.42        18.7 0.28            110            304 192 
 ELA  HZ EP       1843 11.03                             108    0.82 7  331 230 
 ELA  HN ES       1843 46.15                             108   -0.47 7  331 230 
 ELA  HZ I        1843 53.03        10.8 0.48            108            331 230 
 CBOC HZ EP   9   1843 11.05                             108    0.74 0  335 252 
 CBOC HN ES       1843 46.93                             108   -0.60 7  335 252 
 CBOC HZ I        1844  0.65         8.2 0.22            108            335 252 
 DBB  EZ EP   4   1843 11.78                             108    0.91 0  341 274 
 DBB  EN ES   4   1843 45.01                             108   -2.78 0  341 274 
                                                                                
