 2010  926 1403 22.9 L   6.655 -73.995 12.9  RSN  5 0.5 1.4LRSN                1
 GAP=139        1.18       5.8     9.9 18.3 -0.1359E+02  0.1547E+03 -0.1507E+02E
 Epicentro: PUERTO PARRA - SANTANDER                                           3
 ACTION:UP  11-02-18 11:05 OP:tino STATUS:               ID:20100926140322 L   I
 2010-09-26-1401-53S.COL___122                                                 6
 STAT SP IPHASW D HRMM SECON CODA AMPLIT PERI AZIMU VELO SNR AR TRES W  DIS CAZ7
 BRR  HZ I        14 3 32.43        17.5 0.13             96             59  32 
 BRR  HN ES   1   14 3 39.96                              96    -0.1 7   59  32 
 BAR2 SZ EP       14 3 37.26                              94    -0.210   90  94 
 BAR2 SZ I        14 3 37.46         9.7 0.10                            90  94 
 BAR2 SZ ES   2   14 3 47.74                              94    -1.1 5   90  94 
 RUS  HZ EP       14 3 44.45                              93     0.510  132 130 
 RUS  HZ I        14 4  1.04         2.2 0.73                           132 130 
 GUE  SZ EP       14 3 50.14                              56     0.4 9  176  42 
 HEL  HE ES   1   14 4 10.66                              56    -0.5 7  177 253 
 HEL  HZ I        14 4 11.72        14.2 0.24                           177 253 
                                                                                
