 2013  326 1101 30.0 L   6.822 -73.177150.8  RSN 16 0.4 4.3LRSN 4.4WRSN        1
 SPEC AVERAGE  MO 15.6 ST160.5 OM  3.9 f0 2.79 R0.8025 AL 3.01 WI 89.0 MW  4.4 3
 SPEC SD       MO  0.3 ST303.0 OM  0.4 f0 1.50 R0.3253 AL      WI      MW  0.2 3
 GAP= 69        0.90       2.4     2.5  4.0  0.6236E+00  0.2888E+01  0.2152E+01E
 Epicentro: LOS SANTOS - SANTANDER                                             3
 SPEC VIL SH N MO 16.2 ST113.1 OM  4.0 f0 2.13 R0.8545 AL 3.58 WI106.4 MW  4.7 3
 SPEC VIL SH N T11 247 K 0.050 GD  340 VS 5.20 DE 3.20 Q0750.0 QA 1.50 VS 5.20 3
 SPEC TAM HH N MO 15.1 ST 12.2 OM  3.1 f0 2.34 R0.7778 AL 2.06 WI 79.4 MW  4.0 3
 SPEC TAM HH N T11 219 K 0.050 GD  219 VS 5.20 DE 3.20 Q0750.0 QA 1.50 VS 5.20 3
 SPEC PRA HH E MO 15.6 ST 38.9 OM  3.3 f0 2.38 R0.7647 AL 2.44 WI249.5 MW  4.3 3
 SPEC PRA HH E T11 3 1 K 0.050 GD  420 VS 5.20 DE 3.20 Q0750.0 QA 1.50 VS 5.20 3
 SPEC RUS HH N MO 15.5 ST 98.3 OM  3.6 f0 3.40 R0.5353 AL 3.30 WI 45.4 MW  4.3 3
 SPEC RUS HH N T11 211 K 0.050 GD  182 VS 5.20 DE 3.20 Q0750.0 QA 1.50 VS 5.20 3
 SPEC PAM SH N MO 15.7 ST  7.2 OM  3.8 f0 1.25 R1.4560 AL 1.98 WI 56.2 MW  4.4 3
 SPEC PAM SH N T11 2 8 K 0.050 GD  169 VS 5.20 DE 3.20 Q0750.0 QA 1.50 VS 5.20 3
 SPEC HEL HH N MO 15.5 ST 37.6 OM  3.3 f0 2.61 R0.6973 AL 2.73 WI 70.0 MW  4.3 3
 SPEC HEL HH N T11 240 K 0.050 GD  308 VS 5.20 DE 3.20 Q0750.0 QA 1.50 VS 5.20 3
 SPEC CHI HH N MO 15.7 ST 20.7 OM  3.6 f0 1.73 R1.0520 AL 2.48 WI 68.2 MW  4.4 3
 SPEC CHI HH N T11 237 K 0.050 GD  291 VS 5.20 DE 3.20 Q0750.0 QA 1.50 VS 5.20 3
 SPEC BRR HH N MO 15.7 ST956.3 OM  3.8 f0 6.44 R0.2826 AL 5.54 WI 37.2 MW  4.4 3
 SPEC BRR HH N T11 2 8 K 0.050 GD  165 VS 5.20 DE 3.20 Q0750.0 QA 1.50 VS 5.20 3
 ACTION:UPD 13-04-09 14:05 OP:ep   STATUS:               ID:20130326110130 L   I
 2013-03-26-1100-00M.COL___244                                                 6
 STAT SP IPHASW D HRMM SECON CODA AMPLIT PERI AZIMU VELO AIN AR TRES W  DIS CAZ7
 BAR2 SZ IP       11 1 50.40                             170    0.1010 25.4 181 
 BAR2 SZ ES       11 2  5.52                             170   -0.5910 25.4 181 
 BAR2 SZ I        11 2  6.49      3464.4 0.30            171           25.4 181 
 GIR2 SZ IP     D 11 1 50.47                             169    0.2510 28.5 356 
 GIR2 SZ ES       11 2  6.36                             169    0.3810 28.5 356 
 GIR2 SZ I        11 2  7.38      1768.6 0.42            168           28.5 356 
 BRR  HZ IP     C 11 1 52.19                             155    0.7010 67.0 298 
 BRR  HN ES       11 2  8.79                             155    0.5510 67.0 298 
 BRR  HN I        11 2  9.87      6436.2 0.22            153           67.0 298 
 PAM  SZ IP     D 11 1 53.20                             151    0.4010 77.8  43 
 PAM  SN ES       11 2 10.21                             151   -0.3510 77.8  43 
 PAM  SN I        11 2 11.73      2814.2 0.34            152           77.8  43 
 RUS  HZ IP     C 11 1 54.29                             144   -0.1710  103 174 
 RUS  HN ES       11 2 13.18                             144   -0.3410  103 174 
 RUS  HN I        11 2 14.57      3247.3 0.36            145            103 174 
 PTB  HZ IP     C 11 1 56.77                             134   -0.38 9  145 258 
 PTB  HN ES       11 2 18.04                             134   -0.27 9  145 258 
 OCA  HZ IP     C 11 1 58.42                             131   -0.05 9  157 354 
 OCA  HN ES       11 2 20.36                             131   -0.30 9  157 354 
 OCA  HN I        11 2 27.75      3300.6 0.62            131            157 354 
 TAM  HZ IP     D 11 1 58.79                             131    0.32 9  159 106 
 TAM  HN ES       11 2 20.52                             131   -0.13 9  159 106 
 TAM  HN I        11 2 21.22       929.3 0.42            132            159 106 
 ZAR  HZ EP       11 2  2.38                             124   -0.01 9  200 292 
 ZAR  HN ES       11 2 27.90                             124    0.27 9  200 292 
 ZAR  HN I        11 2 33.61      2112.8 0.22            124            200 292 
 CHI  HZ IP     C 11 2  8.25                             118    0.09 8  250 194 
 CHI  HN ES       11 2 37.85                             118   -0.06 8  250 194 
 CHI  HN I        11 2 40.44      1622.0 0.52            118            250 194 
 HEL  HZ EP       11 2 10.23                             116    0.03 8  269 255 
 HEL  HN ES       11 2 41.73                             116    0.20 8  269 255 
 HEL  HN I        11 2 47.69       820.3 0.44            116            269 255 
 URE  HE ES       11 2 42.19                             115   -0.57 7  280 292 
 VIL  SZ EP       11 2 13.73                             113   -0.14 7  305 191 
 VIL  SN ES       11 2 48.37                             113    0.31 7  305 191 
 DBB  SZ IP     D 11 2 17.77                             110    0.47 7  336 274 
 DBB  SZ ES       11 2 53.77                             110   -0.40 7  336 274 
 DBB  SZ I        11 2 58.04       407.9 0.54            111            336 274 
 PRA  HZ EP       11 2 23.26                             107   -0.51 6  392 209 
 PRA  HE ES       11 3  6.19                             107    0.49 6  392 209 
 PRA  HE I        11 3 11.89      1007.1 0.36            108            392 209 
 SJC  HZ EP       11 2 24.21                             107   -1.09 6  405 327 
 MARA HZ EP   4   11 2 40.87                             102   -0.30 0  537 215 
 MAL  SZ EP   4   11 2 44.52                             101    1.50 0  556 236 
                                                                                
