 2014  826 1247  1.3 L   6.801 -73.164144.6  RSN 12 0.4 2.0LRSN                1
 GAP=134        1.01       2.7     4.2  5.6 -0.1348E+01  0.7551E+01 -0.8328E+00E
 Epicentro: LOS SANTOS - SANTANDER                                             3
 ACTION:UPD 14-09-15 21:53 OP:nd   STATUS:               ID:20140826124701 L   I
 OLDACT:REG 14-08-26 20:45 OP:stll STATUS:               ID:20140826123819     3
 2014-08-26-1238-19M.COL___257                                                 6
 STAT SP IPHASW D HRMM SECON CODA AMPLIT PERI AZIMU VELO AIN AR TRES W  DIS CAZ7
 BAR2 SZ IP     C 1247 20.73                             170   -0.0210 23.2 185 
 BAR2 SZ ES       1247 35.82                             170   -0.1310 23.2 185 
 BAR2 SZ I        1247 38.40        28.0 0.20            169           23.2 185 
 BRR  HZ EP       1247 22.80                             153    0.6110 69.4 299 
 BRR  HN ES       1247 38.40                             153   -0.1010 69.4 299 
 PAM  SN ES       1247 40.50                             150   -0.2110 78.6  41 
 RUS  HZ EP       1247 24.91                             143   -0.0110  101 175 
 RUS  HZ I        1247 25.80         5.5 0.34            146            101 175 
 RUS  HE ES       1247 43.47                             143    0.0910  101 175 
 PTB  HZ EP       1247 27.44                             132   -0.52 9  146 259 
 PTB  HN ES       1247 48.48                             132   -0.31 9  146 259 
 PTB  HZ I        1247 55.92        19.3 0.40            131            146 259 
 OCA  HZ EP       1247 29.53                             129    0.08 9  160 354 
 OCA  HN ES       1247 52.33                             129    0.89 9  160 354 
 SPBC HZ EP       1247 29.88                             129    0.31 9  162 218 
 SPBC HE ES       1247 51.73                             129    0.09 9  162 218 
 ZAR  HZ EP       1247 33.45                             122    0.01 9  202 292 
 ZAR  HN ES       1247 58.93                             122    0.40 9  202 292 
 ZAR  HZ I        1248  4.84        12.9 0.28            122            202 292 
 NOR  HZ EP       1247 37.11                             118    0.35 8  233 234 
 NOR  HE ES       1248  3.91                             118   -0.54 8  233 234 
 NOR  HZ I        1248 10.74         8.3 0.16            119            233 234 
 SML  HZ EP       1247 37.12                             117   -0.61 8  243 336 
 SML  HN ES       1248  5.29                             117   -0.87 8  243 336 
 SML  HZ I        1248 10.59        11.9 0.22            118            243 336 
 CHI  HN ES       1248  8.13                             117   -0.05 8  248 195 
 CBOC HN ES   2   1248 25.69                             110    1.38 3  332 252 
                                                                                
