 2010  226 1921 35.8 L   6.797 -73.041147.5  RSN  8 0.3 2.3LRSN                1
 GAP=194        0.54       3.0     6.9  5.7 -0.2708E+01  0.6279E+01  0.3393E+01E
 Epicentro: LOS SANTOS - SANTANDER                                             3
 ACTION:UP  10-08-24 09:50 OP:vdl  STATUS:               ID:20100226192135 L   I
 2010-02-26-1919-19S.COL___093                                                 6
 STAT SP IPHASW D HRMM SECON CODA AMPLIT PERI AZIMU VELO SNR AR TRES W  DIS CAZ7
 BAR2 SZ EP   1   1921 55.89                             169     0.1 7   28 215 
 BAR2 SZ ES   2   1922 11.20                             169    -0.1 5   28 215 
 BRR  HZ IP       1921 57.75                             149    -0.110   82 295 
 BRR  HZ I        1921 57.99        59.5 0.14                            82 295 
 BRR  HE ES   2   1922 14.80                             149    -0.1 5   82 295 
 RUS  BZ EP   1   1921 59.76                             144     0.0 7  100 183 
 RUS  BE ES   2   1922 18.40                             144     0.0 5  100 183 
 RUS  BZ I        1922 19.82        15.5 0.43                           100 183 
 OCA  SZ EP   1   1922  4.43                             130    -0.1 7  162 349 
 OCA  SZ ES   2   1922 27.09                             130     0.3 5  162 349 
 OCA  SZ I        1922 35.99        29.8 0.49                           162 349 
 CHI  HZ EP   1   1922 13.75                             117    -0.2 6  252 198 
 CHI  HE ES   2   1922 43.96                             117     0.3 4  252 198 
 CHI  HZ I        1922 52.73         9.3 0.50                           252 198 
 RREF BN ES   2   1922 59.08                             111    -0.8 3  330 231 
 RREF BZ I        1923  8.42         9.8 0.36                           330 231 
 TOL  SZ EP   1   1922 25.69                             109     0.6 5  352 226 
 TOL  SZ ES   2   1923  4.49                             109     1.0 3  352 226 
 PRA  HZ EP   1   1922 29.51                             106    -0.6 4  398 211 
 PRA  HE ES   2   1923 12.10                             106    -0.3 3  398 211 
 PRA  HZ I        1923 17.77         9.2 0.33                           398 211 
                                                                                
