 2010  226 1255 40.6 L   6.716 -73.181141.3  RSN  4 0.2 1.8LRSN                1
 GAP=178        0.44       4.5    10.6  6.4  0.3261E+02 -0.7553E+01 -0.6959E+01E
 Epicentro: VILLANUEVA - SANTANDER                                             3
 ACTION:UP  10-08-24 09:50 OP:vdl  STATUS:               ID:20100226125540 L   I
 2010-02-26-1252-57S.COL___093                                                 6
 STAT SP IPHASW D HRMM SECON CODA AMPLIT PERI AZIMU VELO SNR AR TRES W  DIS CAZ7
 BAR2 SZ IP       1255 59.41                             174    -0.110   14 181 
 BAR2 SZ ES   2   1256 14.04                             174    -0.3 5   14 181 
 BRR  HZ IP       1256  1.27                             151    -0.110   73 306 
 BRR  HZ I        1256  1.66        12.5 0.13                            73 306 
 BRR  HN ES   2   1256 17.85                             151     0.3 5   73 306 
 RUS  BZ EP   1   1256  3.54                             145     0.3 7   92 173 
 RUS  BN ES   1   1256 21.02                             145     0.1 7   92 173 
 OCA  SZ ES   2   1256 32.15                             127     0.2 5  169 355 
                                                                                
