 2010  426 1501 23.1 L   6.833 -72.935148.9  RSN  4 0.4 1.8LRSN                1
 GAP=283        0.53      11.0    15.3 11.9 -0.7941E+02 -0.6160E+02  0.7936E+02E
 Epicentro: CEPITA - SANTANDER                                                 3
 ACTION:UPD 10-08-24 10:01 OP:vdl  STATUS:               ID:20100426150133 L   I
 2010-04-26-1457-41S.COL___104                                                 6
 STAT SP IPHASW D HRMM SECON CODA AMPLIT PERI AZIMU VELO AIN AR TRES W  DIS CAZ7
 BAR2 SZ EP   3   15 1 43.45                             165    -0.1 2   38 226 
 BAR2 SZ ES   3   15 1 59.59                             165     0.2 2   38 226 
 BRR  HZ IP     C 15 1 45.98                             146     0.110   91 290 
 BRR  HE ES   2   15 2  3.10                             146    -0.4 5   91 290 
 BRR  HZ I        15 2  4.55         7.5 0.15                            91 290 
 RREF BZ EP   2   15 2 11.60                             110    -0.1 3  342 231 
 RREF BE ES   2   15 2 50.04                             110     0.4 3  342 231 
 RREF BZ I        15 2 50.78         2.8 0.23                           342 231 
 PRA  HZ EP   2   15 2 17.64                             106    -0.9 3  407 212 
 PRA  HZ I        15 2 18.66         1.9 0.12                           407 212 
                                                                                
