 2012  426 1318 23.7 L   6.394 -73.626109.9  RSN  9 0.5 1.8LRSN                1
 GAP= 67        1.37       5.6     5.8 13.0 -0.2672E+01  0.3936E+02  0.9070E+01E
 Epicentro: SANTA HELENA DEL OPON - SANTANDER                                  3
 ACTION:UPD 12-07-05 11:56 OP:tino STATUS:               ID:20120426131823 L   I
 2012-04-26-1315-43M.COL___186                                                 6
 STAT SP IPHASW D HRMM SECON CODA AMPLIT PERI AZIMU VELO AIN AR TRES W  DIS CAZ7
 BAR2 SZ EP       1318 40.80                             152     0.410   54  66 
 BAR2 SZ ES       1318 53.63                             152     0.310   54  66 
 BAR2 SZ I        1318 55.20        68.0 0.20                            54  66 
 BRR  HZ EP   1   1318 41.81                             141     0.1 7   79 353 
 RUS  HZ EP   1   1318 42.68                             141     0.1 7   82 133 
 RUS  HN ES   1   1318 56.68                             141    -0.7 7   82 133 
 RUS  HZ I        1318 58.54         9.0 0.43                            82 133 
 PTB  HZ EP       1318 41.81                             137    -1.110   93 280 
 PTB  HZ I        1318 58.54        13.0 0.12                            93 280 
 PAM  SZ EP   1   1318 49.27                             123     0.8 7  146  44 
 PAM  SN ES   1   1319  7.69                             123    -0.2 7  146  44 
 NOR  SZ EP   1   1318 50.25                             119     0.3 7  166 236 
 NOR  SE ES   1   1319 10.85                             119     0.4 7  166 236 
 ZAR  HN ES   1   1319 13.18                             116    -0.4 7  182 312 
 ZAR  HZ I        1319 17.88        10.0 0.01                           182 312 
 CHI  HZ EP       1318 52.98                             115    -0.7 9  195 183 
 CHI  HN ES   1   1319 17.55                             115     0.5 6  195 183 
 CHI  HZ I        1319 20.71         3.6 0.19                           195 183 
 HEL  HZ EP   1   1318 56.05                             112     0.6 6  212 264 
 HEL  HN ES   1   1319 20.72                             112     0.5 6  212 264 
                                                                                
