 2012  726 1711 17.1 L   6.595 -73.125160.2  RSN  5 0.2 1.8LRSN                1
 GAP=147        0.49       3.1     4.9  5.0  0.5240E+00 -0.3322E+00 -0.2402E+01E
 Epicentro: SAN GIL - SANTANDER                                                3
 ACTION:UPD 12-08-14 11:45 OP:ep   STATUS:               ID:20120726171117 L   I
 2012-07-26-1710-00M.COL___215                                                 6
 STAT SP IPHASW D HRMM SECON CODA AMPLIT PERI AZIMU VELO AIN AR TRES W  DIS CAZ7
 BAR2 SZ EP       1711 38.11                             178    -0.210    6 267 
 BAR2 SZ I        1711 38.28        14.5 0.26            175              6 267 
 BAR2 SZ ES   3   1711 54.66                             178    -0.2 2    6 267 
 RUS  HZ EP       1711 41.17                             153     0.210   78 177 
 RUS  HZ I        1711 41.45        11.2 0.16            157             78 177 
 RUS  HN ES       1711 59.46                             153     0.010   78 177 
 BRR  HZ EP       1711 40.82                             150     0.110   86 311 
 BRR  HN ES   1   1711 59.21                             150     0.1 7   86 311 
 BRR  HZ I        1712  3.23        18.8 0.36            149             86 311 
 PAM  SZ EP       1711 41.87                             148    -0.110   95  30 
 PAM  SE ES   1   1712  1.37                             148     0.1 7   95  30 
 PAM  SZ I        1712  2.74         6.1 0.24            149             95  30 
 PTB  HZ EP   3   1711 44.56                             135    -0.7 2  147 268 
 PTB  HN ES   3   1712  6.62                             135    -0.6 2  147 268 
 PTB  HZ I        1712  7.95         5.3 0.42            136            147 268 
