 2014  226 1740 28.5 L   6.786 -73.143144.0  RSN  8 0.4 1.6LRSN                1
 GAP=137        1.04       4.8     4.3  7.0 -0.1169E+01  0.8542E+01  0.4951E+01E
 Epicentro: LOS SANTOS - SANTANDER                                             3
 ACTION:UPD 14-03-10 08:13 OP:ep   STATUS:               ID:20140226174028 L   I
 OLDACT:UP  14-02-26 18:26 OP:cam  STATUS:               ID:20140226173820     3
 OLDACT:REG 14-02-26 17:02 OP:cam  STATUS:               ID:20140226173820     3
 2014-02-26-1738-20M.COL___238                                                 6
 STAT SP IPHASW D HRMM SECON CODA AMPLIT PERI AZIMU VELO AIN AR TRES W  DIS CAZ7
 BAR2 SZ EP       1740 47.92                             171   -0.0110 21.8 191 
 BAR2 SZ ES       1741  2.83                             171   -0.2210 21.8 191 
 BAR2 SZ I        1741  4.09        21.2 0.16            170           21.8 191 
 BRR  HZ EP   1   1740 49.91                             152    0.36 7 72.2 300 
 BRR  HN ES       1741  6.66                             152    0.7210 72.2 300 
 PAM  SZ EP       1740 50.93                             150    0.3010 78.4  39 
 PAM  SN ES       1741  7.41                             150   -0.4510 78.4  39 
 PAM  SZ I        1741  9.33         6.0 0.20            152           78.4  39 
 RUS  HZ EP       1740 51.93                             144   -0.0710 99.0 176 
 RUS  HN ES       1741 10.60                             144    0.3010 99.0 176 
 RUS  HZ I        1741 11.79         2.6 0.28            144           99.0 176 
 PTB  HZ EP       1740 54.64                             132   -0.72 9  148 259 
 PTB  HN ES       1741 15.64                             132   -0.64 9  148 259 
 ZAR  HN ES       1741 26.37                             122    0.13 9  205 293 
 NOR  HZ EP   1   1741  3.91                             118   -0.18 6  234 235 
 NOR  HE ES       1741 32.06                             118    0.24 8  234 235 
 NOR  HZ I        1741 35.71         5.6 0.60            119            234 235 
 GUY2CHZ EP   1   1741 12.72                             112    0.73 5  301 235 
                                                                                
