 2014  226 1215 35.6 L   6.832 -73.147148.2  RSN  5 0.4 1.6LRSN                1
 GAP=201        0.90       4.2     5.8  7.5 -0.4573E+00  0.1462E+02 -0.1082E+02E
 Epicentro: LOS SANTOS - SANTANDER                                             3
 ACTION:UPD 14-03-10 08:13 OP:ep   STATUS:               ID:20140226121535 L   I
 OLDACT:UP  14-02-26 17:27 OP:cam  STATUS:               ID:20140226120817     3
 OLDACT:REG 14-02-26 16:48 OP:cam  STATUS:               ID:20140226120817     3
 2014-02-26-1208-17M.COL___223                                                 6
 STAT SP IPHASW D HRMM SECON CODA AMPLIT PERI AZIMU VELO AIN AR TRES W  DIS CAZ7
 BAR2 SZ EP       1215 55.59                             169   -0.0210 26.8 188 
 BAR2 SZ ES       1216 11.69                             169    0.4810 26.8 188 
 RUS  HZ EP   1   1215 59.84                             143   -0.02 7  104 176 
 RUS  HN ES       1216 18.36                             143   -0.4110  104 176 
 RUS  HZ I        1216 19.44         2.5 0.30            146            104 176 
 PTB  HZ EP       1216  2.63                             132   -0.20 9  148 257 
 PTB  HN ES       1216 23.47                             132   -0.59 9  148 257 
 PTB  HZ I        1216 26.26         3.2 0.16            132            148 257 
 NOR  HZ EP       1216 11.82                             119    0.13 8  237 234 
 NOR  HN ES       1216 40.57                             119    0.74 8  237 234 
 NOR  HZ I        1216 42.97         3.4 0.16            119            237 234 
 SML  HZ EP       1216 12.16                             118    0.14 8  240 335 
 SML  HN ES       1216 40.41                             118   -0.01 8  240 335 
 SML  HZ I        1216 45.58         5.7 0.10            119            240 335 
                                                                                
