 2010 1126 1312 24.6 L   6.778 -73.059145.9  RSN 11 0.5 2.7LRSN                1
 GAP=192        0.96       4.0     6.7  6.8 -0.3138E+01  0.6895E+01  0.7981E+01E
 Epicentro: LOS SANTOS - SANTANDER                                             3
 ACTION:UP  10-12-17 16:55 OP:REBC STATUS:               ID:20101126131224 L   I
 2010-11-26-1308-28S.COL___132                                                 6
 STAT SP IPHASW D HRMM SECON CODA AMPLIT PERI AZIMU VELO SNR AR TRES W  DIS CAZ7
 BAR2 SZ IP       1312 44.49                             170     0.210   25 214 
 BAR2 SZ ES   1   1312 59.71                             170     0.1 7   25 214 
 BAR2 SZ I        1313  1.28       137.5 0.23                            25 214 
 BRR  HZ IP     C 1312 46.38                             149     0.010   81 297 
 BRR  HZ I        1312 46.64        72.5 0.14                            81 297 
 BRR  HE ES       1313  3.78                             149     0.510   81 297 
 RUS  HZ IP     D 1312 48.40                             145     0.210   98 182 
 RUS  HE ES   1   1313  5.97                             145    -0.6 7   98 182 
 RUS  HZ I        1313  8.40        34.3 0.32                            98 182 
 OCA  SZ EP   1   1312 52.85                             129    -0.4 7  164 350 
 OCA  SZ ES   1   1313 15.09                             129    -0.6 7  164 350 
 OCA  SZ I        1313 23.32        38.6 0.23                           164 350 
 NOR  SZ EP   1   1313  0.32                             118    -0.8 6  241 236 
 NOR  SE ES   1   1313 28.59                             118    -0.9 6  241 236 
 CHI  HZ EP   1   1313  2.42                             117     0.1 6  249 197 
 CHI  HE ES   2   1313 31.44                             117    -0.4 4  249 197 
 CHI  HZ I        1313 41.39        20.8 0.82                           249 197 
 ROSC BZ EP   1   1313  4.18                             116     1.1 6  256 213 
 ROSC BE ES   2   1313 33.11                             116     0.0 4  256 213 
 ROSC BZ I        1313 42.64        29.8 0.53                           256 213 
 HEL  HZ EP   2   1313  6.14                             114     0.3 4  281 257 
 HEL  HE ES   2   1313 38.01                             114     0.1 4  281 257 
 HEL  HZ I        1313 42.84        13.7 0.27                           281 257 
 RREF HZ EP   1   1313 11.68                             110     0.3 5  328 231 
 RREF HN ES   1   1313 47.99                             110     0.0 5  328 231 
 RREF HZ I        1313 57.06        27.9 0.34                           328 231 
 ANIL HZ EP   2   1313 15.85                             108     0.8 3  362 226 
 ANIL HN ES   2   1313 54.07                             108    -0.3 3  362 226 
 ANIL HZ I        1313 58.30        44.5 0.48                           362 226 
 PRA  HZ EP   1   1313 18.13                             106    -0.3 4  395 211 
 PRA  HE ES   1   1314  0.56                             106     0.1 4  395 211 
 PRA  HZ I        1314  3.86        50.3 0.42                           395 211 
                                                                                
