 2012  626 1902 26.7 L   6.798 -73.147148.6  RSN 19 0.5 3.8LRSN 4.1WRSN        1
 SPEC AVERAGE  MO 15.3 ST 26.9 OM  3.5 f0 2.32 R1.1560 AL 1.75 WI 39.6 MW  4.1 3
 SPEC SD       MO  0.3 ST 32.3 OM  0.7 f00.628 R0.7286 AL      WI      MW  0.2 3
 GAP=103        1.04       3.4     4.2  5.6 -0.9830E+00  0.4267E+01  0.4260E+01E
 Epicentro: LOS SANTOS - SANTANDER                                             3
 SPEC OCA HH E MO 15.5 ST 88.9 OM  3.8 f0 2.87 R0.5415 AL 1.57 WI 56.2 MW  4.3 3
 SPEC OCA HH E T19 315 K 0.000 GD  218 VS 4.20 DE 3.00 Q0230.0 QA 0.60 VS 4.20 3
 SPEC PTB HH N MO 14.9 ST  7.8 OM  3.2 f0 2.05 R0.7580 AL 1.65 WI 51.0 MW  3.9 3
 SPEC PTB HH N T19 312 K 0.000 GD  209 VS 4.20 DE 3.00 Q0230.0 QA 0.60 VS 4.20 3
 SPEC RUS HH Z MO 15.1 ST0.245 OM  2.7 f0 1.00 R2.8120 AL 1.28 WI 18.5 MW  4.0 3
 SPEC RUS HH Z T19 250 K 0.000 GD  179 VP 7.60 DE 3.00 Q0230.0 QA 0.60 VS 4.20 3
 SPEC ANILHH Z MO 15.7 ST 22.7 OM  3.0 f0 2.78 R1.0115 AL 2.09 WI 37.5 MW  4.4 3
 SPEC ANILHH Z T19 315 K 0.000 GD  386 VP 7.60 DE 3.00 Q0230.0 QA 0.60 VS 4.20 3
 SPEC HEL HH Z MO 14.9 ST  3.2 OM  2.3 f0 2.68 R1.0493 AL 1.76 WI 32.3 MW  3.9 3
 SPEC HEL HH Z T19 3 5 K 0.000 GD  309 VP 7.60 DE 3.00 Q0230.0 QA 0.60 VS 4.20 3
 SPEC CHI HH Z MO 15.3 ST  3.5 OM  2.7 f0 2.06 R1.3650 AL 2.09 WI 29.5 MW  4.1 3
 SPEC CHI HH Z T19 3 3 K 0.000 GD  289 VP 7.60 DE 3.00 Q0230.0 QA 0.60 VS 4.20 3
 SPEC BRR HH N MO 15.4 ST 62.3 OM  3.8 f0 2.80 R0.5550 AL 1.81 WI 52.4 MW  4.2 3
 SPEC BRR HH N T19 3 4 K 0.000 GD  164 VS 4.20 DE 3.00 Q0230.0 QA 0.60 VS 4.20 3
 ACTION:UPD 12-08-06 17:52 OP:ep   STATUS:               ID:20120626190226 L   I
 2012-06-26-1900-00M.COL___201                                                 6
 STAT SP IPHASW D HRMM SECON CODA AMPLIT PERI AZIMU VELO AIN AR TRES W  DIS CAZ7
 BAR2 SZ IP       19 2 46.85                             171    0.2310 23.1 190 
 BAR2 SZ ES   1   19 3  2.13                             171   -0.06 7 23.1 190 
 BAR2 SZ I        19 3  3.61       891.4 0.26                          23.1 190 
 BRR  HZ IP     C 19 2 48.74                             153    0.6310 71.2 299 
 BRR  HN ES   1   19 3  5.77                             153    0.93 7 71.2 299 
 BRR  HZ I        19 3 10.63       831.5 0.18                          71.2 299 
 PAM  SZ IP       19 2 49.62                             151    0.4410 77.6  39 
 PAM  SZ I        19 2 49.95       572.7 0.42                          77.6  39 
 PAM  SN ES   1   19 3  6.76                             151    0.01 7 77.6  39 
 RUS  HZ IP     D 19 2 50.69                             144    0.0210  100 176 
 RUS  HN ES   1   19 3  8.77                             144   -0.63 7  100 176 
 RUS  HZ I        19 3 10.64       425.2 0.42                           100 176 
 PTB  HZ IP     D 19 2 53.26                             133   -0.58 9  148 259 
 PTB  HN ES   1   19 3 14.31                             133   -0.74 7  148 259 
 PTB  HZ I        19 3 22.47       518.0 0.32                           148 259 
 OCA  HZ IP       19 2 54.85                             130   -0.36 9  160 353 
 OCA  HE ES   1   19 3 16.64                             130   -0.83 7  160 353 
 OCA  HZ I        19 3 22.10      1187.5 0.30                           160 353 
 YOP  SZ IP     D 19 2 57.34                             127    0.45 9  179 153 
 ZAR  HZ EP       19 2 59.58                             123    0.29 9  204 292 
 ZAR  HN ES   1   19 3 24.76                             123    0.02 6  204 292 
 ZAR  HZ I        19 3 32.23       592.6 0.30                           204 292 
 NOR  SZ EP       19 3  2.60                             119    0.07 8  234 234 
 NOR  SN ES   1   19 3 30.31                             119   -0.20 6  234 234 
 CHI  HZ EP       19 3  4.49                             118    0.00 8  248 195 
 CHI  HN ES   1   19 3 33.82                             118   -0.18 6  248 195 
 CHI  HZ I        19 3 40.03       221.4 0.52                           248 195 
 HEL  HZ EP       19 3  6.47                             115   -0.53 8  272 256 
 HEL  HZ I        19 3 45.42       234.8 0.32                           272 256 
 URE  HZ EP   2   19 3  6.48                             114   -1.38 4  284 292 
 URE  HZ I        19 3 46.49       515.4 0.22                           284 292 
 VIL  SZ EP       19 3  9.78                             113   -0.40 7  303 192 
 VIL  SN ES   1   19 3 43.19                             113   -0.94 5  303 192 
 VIL  SZ I        19 3 55.15       162.5 0.66                           303 192 
 GUY  SZ EP       19 3 11.41                             113    0.77 7  303 235 
 GUY  SZ I        19 3 53.27       439.2 0.32                           303 235 
 DBB  SZ EP       19 3 14.36                             110    0.12 7  339 274 
 TOL  SZ EP       19 3 15.58                             110    0.58 7  343 225 
 ANIL HZ EP       19 3 16.88                             109    0.33 6  357 225 
 ANIL HZ I        19 4  0.38       917.1 0.36                           357 225 
 SDV  BZ EP       19 3 16.01                             109   -0.82 6  361  50 
 PRA  HZ EP       19 3 20.08                             107   -0.17 6  392 210 
 PRA  HN ES   2   19 4  3.57                             107    1.52 3  392 210 
 PRA  HZ I        19 4  7.43       767.3 0.22                           392 210 
                                                                                
