 2013  126 1450 18.4 L   6.822 -73.229142.4  RSN  4 0.2 1.0LRSN                1
 GAP=149        0.42       3.5     3.5  5.3 -0.4124E+01  0.1413E+01 -0.5986E+00E
 Epicentro: ZAPATOCA - SANTANDER                                               3
 ACTION:UPD 13-02-15 09:17 OP:ep   STATUS:               ID:20130126145018 L   I
 2013-01-26-1450-00M.COL___241                                                 6
 STAT SP IPHASW D HRMM SECON CODA AMPLIT PERI AZIMU VELO AIN AR TRES W  DIS CAZ7
 BAR2 SZ EP   1   1450 37.75                             169    0.08 7 26.0 168 
 BAR2 SZ ES   1   1450 53.01                             169    0.30 7 26.0 168 
 PAM  SZ EP   1   1450 40.64                             149    0.12 7 81.8  46 
 PAM  SN ES   1   1450 57.55                             149   -0.23 7 81.8  46 
 PAM  SZ I        1451  1.78         2.1 0.68            148           81.8  46 
 RUS  HZ EP   1   1450 42.05                             142   -0.01 7  104 171 
 RUS  HN ES   1   1451  0.36                             142   -0.18 7  104 171 
 RUS  HZ I        1451  1.55         1.8 0.30            146            104 171 
 PTB  HN ES   1   1451  4.43                             133   -0.10 7  139 257 
                                                                                
