 2010 1026 1127  8.6 L   6.188 -73.907 88.2  RSN  6 0.4 2.0LRSN                1
 GAP=102        0.70       4.8     3.8 13.0 -0.4165E+01  0.1972E+02  0.1883E+02E
 Epicentro: CIMITARRA - SANTANDER                                              3
 ACTION:UP  11-02-18 11:12 OP:tino STATUS:               ID:20101026112708 L   I
 2010-10-26-1125-40S.COL___125                                                 6
 STAT SP IPHASW D HRMM SECON CODA AMPLIT PERI AZIMU VELO SNR AR TRES W  DIS CAZ7
 BAR2 SZ IP     D 1127 26.15                             130     0.110   92  61 
 BAR2 SZ ES   2   1127 39.82                             130     0.2 5   92  61 
 BAR2 SZ I        1127 41.88        38.2 0.37                            92  61 
 RUS  HZ EP   1   1127 26.58                             129    -0.3 7   97 110 
 RUS  HN ES   2   1127 41.00                             129    -0.1 5   97 110 
 BRR  HZ EP   2   1127 26.83                             126    -0.1 5  104  12 
 BRR  HE ES   2   1127 41.38                             126     0.2 5  104  12 
 BRR  HZ I        1127 42.85        23.9 0.11                           104  12 
 NOR  SZ EP   1   1127 28.75                             120    -0.6 7  127 237 
 NOR  SE ES   2   1127 45.50                             120    -0.1 5  127 237 
 HEL  HZ EP   1   1127 35.42                             111    -0.2 7  180 270 
 HEL  HE ES   2   1127 57.29                             111     0.6 4  180 270 
 HEL  HZ I        1127 59.73         7.0 0.48                           180 270 
 PRA  HZ EP   1   1127 49.38                             102     0.6 5  294 202 
 PRA  HN ES   2   1128 21.11                             102     0.9 4  294 202 
 PRA  HZ I        1128 26.85         9.6 0.15                           294 202 
                                                                                
