 2017  526 1158  0.7 L   6.222 -73.339138.0  RSN  5 0.2 1.3LRSN                1
 GAP=165        0.37       7.2     5.7  4.3  0.3721E+02 -0.1095E+02 -0.1786E+02E
 Epicentro: OIBA - SANTANDER                                                   3
 ACTION:UPD 17-06-16 13:39 OP:jn   STATUS:               ID:20170526115800 L   I
 OLDACT:UP  17-05-26 23:06 OP:dnl  STATUS:               ID:20170526114744d    3
 OLDACT:UP  17-05-26 23:05 OP:dnl  STATUS:               ID:20170526114744d    3
 OLDACT:UP  17-05-26 23:05 OP:dnl  STATUS:               ID:20170526114744d    3
 OLDACT:DUP 17-05-26 23:02 OP:dnl  STATUS:               ID:20170526114744d    3
 OLDACT:UP  17-05-26 23:01 OP:dnl  STATUS:               ID:20170526114743d    3
 OLDACT:UP  17-05-26 23:00 OP:dnl  STATUS:               ID:20170526114743d    3
 OLDACT:UP  17-05-26 23:00 OP:dnl  STATUS:               ID:20170526114743d    3
 OLDACT:DUP 17-05-26 22:58 OP:dnl  STATUS:               ID:20170526114743d    3
 OLDACT:UP  17-05-26 22:58 OP:dnl  STATUS:               ID:20170526114742     3
 OLDACT:UP  17-05-26 22:57 OP:dnl  STATUS:               ID:20170526114742     3
 OLDACT:UP  17-05-26 22:55 OP:dnl  STATUS:               ID:20170526114742     3
 OLDACT:UP  17-05-26 22:55 OP:dnl  STATUS:               ID:20170526114742     3
 OLDACT:UP  17-05-26 22:54 OP:dnl  STATUS:               ID:20170526114742     3
 OLDACT:REG 17-05-26 21:48 OP:dnl  STATUS:               ID:20170526114742     3
 2017-05-26-1148-00M.COL___341                                                 6
 STAT SP IPHASW D HRMM SECON CODA AMPLIT PERI AZIMU VELO AIN AR TRES W  DIS CAZ7
 RUS  HZ EP       1158 20.40                             161   -0.0910 46.2 142 
 RUS  HN ES       1158 35.97                             161    0.0510 46.2 142 
 RUS  HZ I        1158 37.76         2.2 0.30            166           46.2 142 
 BRR  HZ EP   2   1158 23.83                             140    0.39 5  106 337 
 BRR  HN ES   4   1158 44.28                             140    3.11 0  106 337 
 BRR  HZ I        1158 47.71         7.1 0.48            140            106 337 
 PTB  HZ EP   9   1158 23.95                             135   -1.36 0  128 286 
 PTB  HN ES       1158 43.24                             137    0.1010  128 286 
 PTB  HZ I        1158 45.39         2.5 0.32            137            128 286 
 NOR  HZ EP   4   1158 32.64                             124    1.95 0  184 247 
 NOR  HE ES   3   1158 54.18                             124    0.11 2  184 247 
 NOR  HZ I        1158 55.80         2.7 0.32            128            184 247 
 ZAR  HZ EP   2   1158 34.28                             119    0.05 4  219 310 
 ZAR  HE ES       1159  0.27                             119   -0.10 8  219 310 
 ZAR  HZ I        1159  1.36         2.3 0.24            121            219 310 
                                                                                
