 2014  926 1418 31.1 L   6.832 -73.182145.7  RSN  5 0.2 1.7LRSN                1
 GAP=130        0.55       2.5     3.1  4.9 -0.1012E+01  0.5337E+01 -0.3060E+01E
 Epicentro: ZAPATOCA - SANTANDER                                               3
 ACTION:UPD 14-10-03 23:08 OP:nd   STATUS:               ID:20140926141831 L   I
 OLDACT:UP  14-09-26 21:37 OP:cam  STATUS:               ID:20140926141000     3
 OLDACT:UP  14-09-26 21:37 OP:cam  STATUS:               ID:20140926141000     3
 OLDACT:REG 14-09-26 20:37 OP:cam  STATUS:               ID:20140926141000     3
 2014-09-26-1410-00M.COL___252                                                 6
 STAT SP IPHASW D HRMM SECON CODA AMPLIT PERI AZIMU VELO AIN AR TRES W  DIS CAZ7
 BAR2 SZ EP       1418 50.67                             169   -0.0910 26.5 180 
 BAR2 SZ ES       1419  6.40                             169    0.2810 26.5 180 
 BAR2 SZ I        1419  6.57        11.1 0.30            170           26.5 180 
 PAM  SZ EP     C 1418 53.51                             151    0.2310 77.4  43 
 PAM  SN ES       1419 10.26                             151   -0.3510 77.4  43 
 PAM  SZ I        1419 12.43        11.4 0.52            152           77.4  43 
 RUS  HZ EP   1   1418 55.17                             143    0.08 7  104 174 
 RUS  HN ES       1419 13.84                             143    0.0110  104 174 
 RUS  HZ I        1419 15.27         6.5 0.34            144            104 174 
 PTB  HZ EP       1418 57.56                             133   -0.18 9  145 257 
 PTB  HN ES       1419 18.45                             133   -0.10 9  145 257 
 PTB  HZ I        1419 20.17         4.1 0.12            134            145 257 
 SML  HE ES       1419 35.51                             118    0.19 8  239 336 
                                                                                
