 2012  626 1450 21.9 L   6.752 -73.161143.4  RSN 10 0.5 2.5LRSN                1
 GAP=137        0.96       4.2     5.2  6.4 -0.5284E+01  0.1025E+02 -0.1140E+01E
 Epicentro: LOS SANTOS - SANTANDER                                             3
 ACTION:UP  12-08-06 17:52 OP:ep   STATUS:               ID:20120626145021 L   I
 2012-06-26-1450-00M.COL___201                                                 6
 STAT SP IPHASW D HRMM SECON CODA AMPLIT PERI AZIMU VELO AIN AR TRES W  DIS CAZ7
 BAR2 SZ IP       1450 41.37                             172    0.2510 17.8 187 
 BAR2 SZ ES       1450 55.90                             172   -0.2310 17.8 187 
 BAR2 SZ I        1450 57.23        55.6 0.18                          17.8 187 
 BRR  HZ EP       1450 43.45                             152    0.6210 72.4 303 
 BRR  HN ES   2   1451  0.48                             152    1.29 5 72.4 303 
 BRR  HZ I        1451  3.66        59.1 0.24                          72.4 303 
 PAM  SZ I        1450 44.56        21.7 0.14                          82.6  38 
 PAM  SZ IP       1450 44.56                             149    0.4010 82.6  38 
 PAM  SN ES   1   1451  1.63                             149    0.09 7 82.6  38 
 RUS  HZ IP     D 1450 45.13                             145    0.1110 95.5 175 
 RUS  HZ I        1450 46.06        33.2 0.42                          95.5 175 
 RUS  HN ES   1   1451  2.59                             145   -0.49 7 95.5 175 
 PTB  HZ EP       1450 47.89                             132   -0.51 9  145 261 
 PTB  HE ES   1   1451  8.61                             132   -0.49 7  145 261 
 PTB  HZ I        1451 14.05        27.1 0.18                           145 261 
 OCA  HZ EP       1450 49.96                             128   -0.52 9  165 354 
 OCA  HE ES   1   1451 12.06                             128   -0.74 7  165 354 
 OCA  HZ I        1451 16.53        66.4 0.32                           165 354 
 ZAR  HZ EP   2   1450 53.92                             122   -0.29 4  205 294 
 ZAR  HE ES   2   1451 19.82                             122    0.38 4  205 294 
 ZAR  HZ I        1451 26.30        40.7 0.42                           205 294 
 NOR  SZ EP       1450 57.16                             118    0.18 8  230 235 
 NOR  SN ES   1   1451 24.63                             118    0.26 6  230 235 
 HEL  HN ES   3   1451 33.89                             114    1.24 2  269 257 
 HEL  HZ I        1451 40.49        20.7 0.30                           269 257 
 PRA  HZ EP       1451 14.50                             106   -0.17 6  387 210 
 PRA  HZ I        1452  0.27        44.8 0.22                           387 210 
                                                                                
