 2014  726 1450  0.0 L   6.549 -73.699 86.4  RSN  6 0.4 2.2LRSN                1
 GAP=176        0.89       6.6     3.3  8.9  0.4737E+01  0.1216E+02  0.2188E+02E
 Epicentro: SANTA HELENA DEL OPON - SANTANDER                                  3
 ACTION:UPD 15-03-16 20:47 OP:nd   STATUS:               ID:20140726145000 L   I
 OLDACT:REG 14-07-26 21:30 OP:mh   STATUS:               ID:20140726144821     3
 2014-07-26-1448-21M.COL___266                                                 6
 STAT SP IPHASW D HRMM SECON CODA AMPLIT PERI AZIMU VELO AIN AR TRES W  DIS CAZ7
 BAR2 SZ EP   1   1450 14.91                             144    0.47 7 57.3  85 
 BAR2 SZ ES   1   1450 25.83                             144    0.15 7 57.3  85 
 BAR2 SZ I        1450 29.14        45.8 0.33            144           57.3  85 
 PTB  HZ EP       1450 15.94                             132   -0.3910 83.8 269 
 PTB  HN ES       1450 29.06                             132    0.0110 83.8 269 
 RUS  HZ EP   1   1450 17.85                             127   -0.61 7 99.5 137 
 RUS  HN ES       1450 32.83                             127   -0.0110 99.5 137 
 NOR  HZ EP   1   1450 25.06                             112   -0.37 7  169 230 
 NOR  HN ES       1450 45.30                             112    0.05 9  169 230 
 GUY2CHZ EP       1450 34.60                             105    0.88 8  236 232 
 GUY2CHZ I        1450 50.01        15.3 0.49                           236 232 
 GUY2CHN ES   4   1450 58.54                             105   -1.46 0  236 232 
 RREF HZ EP   1   1450 36.38                             104   -0.21 6  258 225 
 RREF HN ES   4   1451  7.36                             104    2.25 0  258 225 
                                                                                
