 2011  526 1808 57.2 L   6.786 -73.106151.2  RSN  5 0.2 1.7LRSN                1
 GAP=142        0.42       3.3     5.6  6.8 -0.4595E+01 -0.1726E+02  0.3325E+01E
 Epicentro: LOS SANTOS - SANTANDER                                             3
 ACTION:UP  11-06-29 08:56 OP:tino STATUS:               ID:20110526180857 L   I
 2011-05-26-1806-36S.COL___113                                                 6
 STAT SP IPHASW D HRMM SECON CODA AMPLIT PERI AZIMU VELO SNR AR TRES W  DIS CAZ7
 BAR2 SZ EP   1   18 9 17.35                             171    -0.1 7   23 202 
 BAR2 SZ I        18 9 17.64         9.0 0.16                            23 202 
 BRR  HZ EP   1   18 9 19.09                             152    -0.1 7   76 298 
 BRR  HZ I        18 9 31.59        16.1 0.40                            76 298 
 BRR  HN ES   1   18 9 36.44                             152     0.1 7   76 298 
 PAM  SZ EP   1   18 9 20.12                             152     0.2 7   76  36 
 RUS  HZ EP   2   18 9 21.67                             145     0.3 5   99 179 
 RUS  HN ES   2   18 9 40.02                             145    -0.2 5   99 179 
 RUS  HZ I        18 9 42.86         3.4 0.19                            99 179 
 GRA  SZ EP   1   18 9 22.80                             138    -0.1 7  126  15 
 GRA  SZ ES   1   18 9 42.99                             138     0.0 7  126  15 
 GRA  SZ I        18 9 43.93         7.7 0.43                           126  15 
                                                                                
