 2012  226 1715 37.0 L   6.760 -73.152153.5  RSN  5 0.3 1.3LRSN                1
 GAP=138        0.60       4.4     4.3  5.9 -0.2443E+01  0.2578E+01  0.4104E+01E
 ACTION:UP  12-03-07 16:34 OP:epov STATUS:               ID:20120226171537 L   I
 2012-02-26-1710-00M.COL___193                                                 6
 STAT SP IPHASW D HRMM SECON CODA AMPLIT PERI AZIMU VELO AIN AR TRES W  DIS CAZ7
 GIR2 SZ EP   1   1715 57.84                             166    0.10 7 35.5 353 
 GIR2 SZ ES   1   1716 13.85                             166   -0.05 7 35.5 353 
 BRR  HZ EP       1715 59.31                             153    0.2010 72.8 302 
 BRR  HZ I        1715 59.51        11.9 0.17                          72.8 302 
 BRR  HN ES   1   1716 16.87                             153    0.54 7 72.8 302 
 PAM  SZ EP   1   1716  0.27                             151   -0.03 7 81.3  38 
 PAM  SN ES   1   1716 18.05                             151   -0.40 7 81.3  38 
 PAM  SZ I        1716 20.49         1.6 0.28                          81.3  38 
 RUS  HZ EP   1   1716  1.42                             147    0.16 7 96.2 175 
 RUS  HE ES   1   1716 20.14                             147   -0.01 7 96.2 175 
 RUS  HZ I        1716 20.80         2.7 0.41                          96.2 175 
 PTB  HZ EP   1   1716  4.19                             134   -0.33 7  146 260 
 PTB  HN ES   1   1716 25.53                             134   -0.42 7  146 260 
                                                                                
