 2014 1026 1649  8.3 L   6.795 -73.104144.9  RSN  4 0.2 1.7LRSN                1
 GAP=142        0.62       3.3     4.9  5.0 -0.4061E+00 -0.1659E+01  0.7275E+00E
 Epicentro: LOS SANTOS - SANTANDER                                             3
 ACTION:UPD 14-11-29 23:57 OP:nd   STATUS:               ID:20141026164908 L   I
 OLDACT:REG 14-10-29 15:39 OP:fm   STATUS:               ID:20141026164743     3
 2014-10-26-1647-43M.COL___280                                                 6
 STAT SP IPHASW D HRMM SECON CODA AMPLIT PERI AZIMU VELO AIN AR TRES W  DIS CAZ7
 BAR2 SZ EP       1649 27.53                             170   -0.2610 24.0 201 
 BAR2 SZ ES       1649 43.26                             170    0.2310 24.0 201 
 BAR2 SZ I        1649 43.57         4.9 0.28            171           24.0 201 
 PAM  SZ IP     D 1649 30.64                             151    0.4110 75.0  37 
 PAM  SE ES       1649 47.13                             151   -0.2510 75.0  37 
 PAM  SE I        1649 49.50        12.1 0.42            151           75.0  37 
 BRR  HZ EP       1649 29.62                             151    0.0610 75.6 297 
 BRR  HE ES       1649 46.12                             151   -0.0610 75.6 297 
 BRR  HE I        1649 46.92        22.7 0.30            153           75.6 297 
 RUS  HZ EP       1649 31.69                             144   -0.1710 99.8 179 
 RUS  HE ES       1649 50.32                             144    0.0510 99.8 179 
 RUS  HE I        1649 51.59         6.9 0.38            145           99.8 179 
                                                                                
