 2017  626 1452 37.7 L   6.771 -73.120151.1  RSN  5 0.4 1.7LRSN                1
 GAP=259        0.92       7.0     6.0  7.3  0.5600E+00  0.1231E+02 -0.9293E+00E
 Epicentro: LOS SANTOS - SANTANDER                                             3
 ACTION:UPD 17-09-14 16:55 OP:jn   STATUS:               ID:20170626145237 L   I
 OLDACT:DUP 17-06-26 22:16 OP:cog  STATUS:               ID:20170626144744d    3
 2017-06-26-1448-00M.COL___358                                                 6
 STAT SP IPHASW D HRMM SECON CODA AMPLIT PERI AZIMU VELO AIN AR TRES W  DIS CAZ7
 BAR2 EZ EP       1452 58.09                             172    0.1310 20.9 199 
 BAR2 EZ ES       1453 13.20                             172   -0.5310 20.9 199 
 BAR2 EZ I        1453 14.66        12.0 0.16            171           20.9 199 
 BRR  HZ EP       1452 59.97                             152    0.2810 75.2 300 
 BRR  HN ES       1453 17.44                             152    0.6310 75.2 300 
 BRR  HZ I        1453 19.97         9.2 0.46            151           75.2 300 
 PTB  HZ EP       1453  5.28                             133   -0.06 9  150 260 
 PTB  HE ES       1453 26.63                             133   -0.23 9  150 260 
 PTB  HZ I        1453 30.86         4.4 0.24            133            150 260 
 ZAR  HZ EP       1453 10.69                             123   -0.24 8  208 293 
 ZAR  HN ES       1453 36.41                             123   -0.40 8  208 293 
 NOR  HE ES       1453 42.29                             119    0.31 8  235 236 
 NOR  HZ ES       1453 42.98                             119            235 236 
                                                                                
