 2010 1226 1922 51.6 L   6.843 -73.284118.2  RSN  6 0.3 1.7LRSN                1
 GAP=133        0.72       4.3     7.5  9.1 -0.1889E+02  0.4158E+02 -0.1928E+02E
 Epicentro: ZAPATOCA - SANTANDER                                               3
 ACTION:UP  11-01-14 15:27 OP:pat  STATUS:               ID:20101226192251 L   I
 2010-12-26-1920-39S.COL___120                                                 6
 STAT SP IPHASW D HRMM SECON CODA AMPLIT PERI AZIMU VELO SNR AR TRES W  DIS CAZ7
 BAR2 SZ EP       1923  8.37                             165     0.310   30 158 
 BAR2 SZ ES   1   1923 21.19                             165     0.2 7   30 158 
 BAR2 SZ I        1923 22.68        76.8 0.36                            30 158 
 RUS  HZ EP   1   1923 13.37                             135     0.1 7  107 168 
 RUS  HN ES   1   1923 29.88                             135    -0.4 7  107 168 
 RUS  HZ I        1923 33.39         2.0 0.14                           107 168 
 GRA  SZ EP   1   1923 14.69                             130     0.1 7  127  25 
 GRA  SZ ES   1   1923 32.42                             130    -0.1 7  127  25 
 GRA  SZ I        1923 35.67         9.7 0.30                           127  25 
 OCA  SZ EP   1   1923 16.89                             124    -0.4 7  154 359 
 OCA  SZ I        1923 40.93        11.1 0.12                           154 359 
 NOR  SN ES   1   1923 50.42                             113    -0.4 6  225 231 
 HEL  HZ EP   1   1923 29.43                             110     0.4 6  259 254 
 HEL  HZ I        1924  3.29         2.6 0.17                           259 254 
                                                                                
