 2010  426 1410 30.2 L   6.777 -73.046149.6  RSN 12 0.4 3.3LRSN                1
 GAP=149        0.83       4.2     6.4  6.1 -0.1170E+02 -0.2062E+01  0.5394E+01E
 Epicentro: LOS SANTOS - SANTANDER                                             3
 ACTION:UPD 10-08-24 10:01 OP:vdl  STATUS:               ID:20100426141038 L   I
 2010-04-26-1407-41S.COL___104                                                 6
 STAT SP IPHASW D HRMM SECON CODA AMPLIT PERI AZIMU VELO AIN AR TRES W  DIS CAZ7
 BAR2 SZ IP       1410 50.43                             170     0.110   26 217 
 BAR2 SZ ES   1   1411  5.33                             170    -0.7 7   26 217 
 BRR  HZ IP     C 1410 52.83                             150     0.410   82 296 
 BRR  HZ I        1410 53.09       389.9 0.09                            82 296 
 BRR  HE ES   1   1411 10.17                             150     0.4 7   82 296 
 OCA  SZ EP   1   1410 58.71                             130    -0.5 7  164 349 
 OCA  SZ ES   1   1411 21.80                             130     0.0 7  164 349 
 OCA  SZ I        1411 26.64       391.7 0.27                           164 349 
 CHI  HZ EP   2   1411  8.34                             118     0.2 4  249 198 
 CHI  HE ES   2   1411 37.67                             118    -0.1 4  249 198 
 CHI  HZ I        1411 43.68        76.2 0.35                           249 198 
 ROSC BZ EP   2   1411  9.46                             117     0.5 4  256 213 
 ROSC BN ES   1   1411 39.44                             117     0.3 6  256 213 
 ROSC BZ I        1411 44.15       111.9 0.43                           256 213 
 HEL  HZ EP   2   1411 11.82                             115     0.1 4  282 257 
 HEL  HN ES   2   1411 44.28                             115     0.2 4  282 257 
 HEL  HZ I        1411 49.40        69.1 0.39                           282 257 
 RREF BZ EP   1   1411 17.38                             111     0.1 5  329 231 
 RREF BE ES   1   1411 53.87                             111    -0.1 5  329 231 
 RREF BZ I        1412  1.63        85.9 0.33                           329 231 
 TOL  SZ EP   2   1411 20.10                             110     0.8 3  350 226 
 DBB  SZ IP       1411 18.22                             109    -0.9 6  351 275 
 SDV  BZ IP     C 1411 19.82                             109     0.2 6  354  49 
 SDV  BZ I        1411 58.99        16.4 0.36                           354  49 
 ANIL BZ EP   2   1411 20.59                             109    -0.3 3  363 226 
 ANIL BZ I        1412  7.00       160.7 0.41                           363 226 
 PRA  HZ EP   1   1411 23.81                             107    -0.4 4  395 211 
 PRA  HE ES   2   1412  6.22                             107    -0.2 3  395 211 
 PRA  HZ I        1412 10.16        76.4 0.54                           395 211 
                                                                                
