 2012  826 1303 42.4 L   6.526 -73.505117.5  RSN  6 0.3 1.9LRSN                1
 GAP=125        0.73       3.8     4.2  6.8  0.1060E+01  0.6982E+01  0.1345E+00E
 Epicentro: EL CARMEN DE CHUCURI - SANTANDER                                   3
 ACTION:UPD 12-09-10 11:58 OP:ep   STATUS:               ID:20120826130342 L   I
 2012-08-26-1300-00M.COL___218                                                 6
 STAT SP IPHASW D HRMM SECON CODA AMPLIT PERI AZIMU VELO AIN AR TRES W  DIS CAZ7
 BAR2 SZ EP       13 3 59.17                             162    0.1010 36.4  78 
 BAR2 SZ ES   1   13 4 11.96                             162   -0.10 7 36.4  78 
 BAR2 SZ I        13 4 12.99        38.0 0.23                          36.4  78 
 BRR  HZ EP       13 4  0.56                             148    0.1710 68.2 340 
 BRR  HN ES   1   13 4 14.68                             148    0.27 7 68.2 340 
 BRR  HZ I        13 4 16.12        22.1 0.12                          68.2 340 
 GIR2 SZ EP       13 4  0.54                             147   -0.1810 70.1  29 
 GIR2 SZ ES   1   13 4 14.29                             147   -0.70 7 70.1  29 
 RUS  HZ EP   1   13 4  2.17                             142   -0.04 7 84.2 146 
 RUS  HN ES   1   13 4 18.06                             142    0.41 7 84.2 146 
 PTB  HZ EP       13 4  2.91                             135   -0.3410  105 271 
 PTB  HN ES   1   13 4 19.63                             135    0.13 7  105 271 
 PTB  HZ I        13 4 23.28         6.6 0.08                           105 271 
 OCA  HN ES   1   13 4 35.48                             117    0.59 7  190   6 
                                                                                
