 2015  726 1919 25.3 L   6.795 -73.189141.4  RSN  8 0.5 2.0LRSN                1
 GAP=131        1.13       3.7     4.8  7.6  0.3616E+00  0.1513E+02  0.1650E+01E
 Epicentro: ZAPATOCA - SANTANDER                                               3
 ACTION:UPD 15-09-08 21:50 OP:cam  STATUS:               ID:20150726191925 L   I
 OLDACT:REG 15-07-26 20:50 OP:stll STATUS:               ID:20150726191750     3
 2015-07-26-1917-50M.COL___340                                                 6
 STAT SP IPHASW D HRMM SECON CODA AMPLIT PERI AZIMU VELO AIN AR TRES W  DIS CAZ7
 BAR2 EZ EP       1919 44.35                             171   -0.0210 22.4 178 
 BAR2 EZ ES       1919 59.51                             171    0.2610 22.4 178 
 BAR2 EZ I        1920  2.22        18.3 0.24            172           22.4 178 
 PAM  EZ EP     C 1919 47.04                             149   -0.2110 80.9  42 
 PAM  EZ I        1919 47.33        32.4 0.24            151           80.9  42 
 PAM  EN ES       1920  4.61                             149    0.2210 80.9  42 
 RUS  HZ EP       1919 48.74                             143    0.1410  100 173 
 RUS  HN ES       1920  6.42                             143   -0.3610  100 173 
 RUS  HZ I        1920  9.75        10.0 0.40            147            100 173 
 CPBEREZ EP       1919 51.21                             132   -0.25 9  143 259 
 CPBEREN ES       1920 11.41                             132   -0.46 9  143 259 
 ZAR  HZ EP       1919 57.82                             122    0.82 9  200 293 
 ZAR  HN ES       1920 22.65                             122    0.90 9  200 293 
 ZAR  HZ I        1920 28.76        10.1 0.42            123            200 293 
 SML  HN ES       1920 28.77                             117   -0.99 8  242 336 
 SML  HZ I        1920 35.61         9.2 0.28            118            242 336 
 CHI  HZ EP       1920  2.45                             116   -0.10 8  247 194 
 CHI  HZ I        1920  3.12         3.6 0.40            119            247 194 
 CHI  HE ES       1920 32.05                             116    0.43 8  247 194 
 GUY2CHZ EP   1   1920  8.44                             112    0.23 5  297 234 
 GUY2CHE ES       1920 41.07                             112   -0.62 7  297 234 
 GUY2CHZ I        1920 53.01         4.1 0.50                           297 234 
                                                                                
