 2017  426 1723 11.7 L   6.682 -73.081124.7  RSN  6 0.4 1.5LRSN                1
 GAP=198        0.74       5.7     3.9  6.7 -0.9804E+01  0.1120E+02 -0.6957E+01E
 Epicentro: JORDAN - SANTANDER                                                 3
 ACTION:UPD 17-05-30 21:16 OP:jn   STATUS:               ID:20170426172311 L   I
 OLDACT:UP  17-04-26 23:28 OP:and  STATUS:               ID:20170426171745d    3
 OLDACT:UP  17-04-26 23:28 OP:and  STATUS:               ID:20170426171745d    3
 OLDACT:DUP 17-04-26 23:26 OP:and  STATUS:               ID:20170426171745d    3
 OLDACT:UP  17-04-26 23:24 OP:and  STATUS:               ID:20170426171744     3
 OLDACT:UP  17-04-26 23:24 OP:and  STATUS:               ID:20170426171744     3
 OLDACT:UP  17-04-26 23:24 OP:and  STATUS:               ID:20170426171744     3
 OLDACT:UP  17-04-26 23:23 OP:and  STATUS:               ID:20170426171744     3
 OLDACT:REG 17-04-26 20:35 OP:and  STATUS:               ID:20170426171744     3
 2017-04-26-1718-00M.COL___372                                                 6
 STAT SP IPHASW D HRMM SECON CODA AMPLIT PERI AZIMU VELO AIN AR TRES W  DIS CAZ7
 BAR2 EZ IP     C 1723 29.22                             173    0.5710 14.9 228 
 BAR2 EZ ES       1723 41.60                             173   -0.2710 14.9 228 
 BRR  HZ EP       1723 31.15                             144   -0.3610 84.1 304 
 BRR  HN ES   3   1723 48.30                             144    1.35 2 84.1 304 
 PAM  EZ IP     D 1723 32.27                             144    0.0710 84.1  30 
 PAM  EN ES       1723 48.15                             144   -0.0310 84.1  30 
 PAM  EZ I        1723 51.15         6.5 0.48            140           84.1  30 
 PTB  HZ EP   2   1723 36.93                             125   -0.62 5  153 264 
 PTB  HN ES       1723 57.56                             125   -0.15 9  153 264 
 PTB  HZ I        1723 58.57         3.8 0.28            124            153 264 
 ZAR  HN ES       1724  9.61                             115    0.15 8  216 295 
 ZAR  HZ I        1724 17.62         3.8 0.46            114            216 295 
 NOR  HZ EP   2   1723 46.31                             113    0.15 4  233 238 
 NOR  HN ES   2   1724 13.39                             113    0.36 4  233 238 
 NOR  HZ I        1724 14.68         1.8 0.18            113            233 238 
                                                                                
