 2016  726 1040  0.9 L   6.768 -73.147140.8  RSN  6 0.4 1.8LRSN                1
 GAP=138        1.05       5.1     4.6  7.1  0.2292E+01  0.8528E+01 -0.1677E+01E
 Epicentro: LOS SANTOS - SANTANDER                                             3
 ACTION:UPD 17-03-29 16:55 OP:lp   STATUS:               ID:20160726104000 L   I
 OLDACT:UP  16-07-26 18:22 OP:ar   STATUS:               ID:20160726101801d    3
 OLDACT:DUP 16-07-26 18:17 OP:ar   STATUS:               ID:20160726101801d    3
 2016-07-26-1017-59S.COL___325                                                 6
 STAT SP IPHASW D HRMM SECON CODA AMPLIT PERI AZIMU VELO AIN AR TRES W  DIS CAZ7
 BAR2 EZ IP     C 1040 19.72                             172   -0.1610 19.8 191 
 BAR2 EZ ES       1040 34.31                             172   -0.3610 19.8 191 
 BAR2 EZ I        1040 35.45        12.9 0.22            172           19.8 191 
 BRR  HZ EP       1040 21.61                             151   -0.0210 72.9 301 
 BRR  HN ES       1040 38.34                             151    0.5510 72.9 301 
 BRR  HZ I        1040 42.52        10.7 0.10            149           72.9 301 
 PAM  EZ EP       1040 22.88                             149    0.1010 80.2  38 
 PAM  EN ES       1040 39.56                             149   -0.2810 80.2  38 
 PAM  EZ I        1040 40.60        14.0 0.24            151           80.2  38 
 RUS  HZ EP       1040 24.30                             144    0.3810 97.0 176 
 RUS  HN ES       1040 42.24                             144    0.3710 97.0 176 
 RUS  HZ I        1040 42.95         5.9 0.18            147           97.0 176 
 PTB  HZ EP       1040 26.57                             131   -0.84 9  147 260 
 PTB  HN ES       1040 47.67                             131   -0.41 9  147 260 
 PTB  HZ I        1040 49.68        11.8 0.16            131            147 260 
 ZAR  HZ EP       1040 33.56                             121    0.38 8  205 293 
 ZAR  HN ES       1040 58.68                             121    0.34 8  205 293 
 ZAR  HZ I        1041  6.70         6.6 0.27            121            205 293 
                                                                                
