 2016 1026 1600 49.5 L   7.383 -73.186130.1  RSN  5 0.3 1.9LRSN                1
 GAP=213        0.84       7.6     5.0  7.0 -0.2065E+02  0.1246E+02 -0.4085E+01E
 Epicentro: EL PLAYON - SANTANDER                                              3
 ACTION:UPD 16-11-09 19:23 OP:rebc STATUS:               ID:20161026160049 L   I
 OLDACT:REG 16-10-26 20:47 OP:cara STATUS:               ID:20161026155741     3
 2016-10-26-1558-00M.COL___349                                                 6
 STAT SP IPHASW D HRMM SECON CODA AMPLIT PERI AZIMU VELO AIN AR TRES W  DIS CAZ7
 PAM  EZ EP       16 1  8.83                             156    0.1010 53.9  95 
 PAM  EN ES       16 1 24.15                             156    0.4210 53.9  95 
 PAM  EZ I        16 1 26.80        14.7 0.34            157           53.9  95 
 BRR  HZ EP       16 1  8.48                             152   -0.1710 65.6 242 
 BRR  HN ES       16 1 23.43                             152   -0.1510 65.6 242 
 BAR2 EZ EP       16 1 10.32                             144   -0.0910 87.5 180 
 BAR2 EZ ES       16 1 26.28                             144   -0.4410 87.5 180 
 BAR2 EZ I        16 1 28.50        12.1 0.42            142           87.5 180 
 PTB  HZ EP       16 1 17.00                             124   -0.29 9  169 236 
 PTB  HN ES       16 1 39.12                             124    0.16 9  169 236 
 PTB  HZ I        16 1 42.02         8.2 0.14            124            169 236 
 NOR  HN ES       16 2  0.23                             111    0.77 8  274 223 
 NOR  HZ I        16 2  5.20         6.4 0.34            111            274 223 
                                                                                
