 2010 1026 1148 37.0 L   6.552 -73.521113.1  RSN  4 0.3 1.5LRSN                1
 GAP=107        0.63       5.6     6.3 10.4  0.5568E+01  0.2700E+02  0.1851E+02E
 Epicentro: EL CARMEN DE CHUCURI - SANTANDER                                   3
 ACTION:UP  11-02-18 11:12 OP:tino STATUS:               ID:20101026114837 L   I
 2010-10-26-1147-12S.COL___125                                                 6
 STAT SP IPHASW D HRMM SECON CODA AMPLIT PERI AZIMU VELO SNR AR TRES W  DIS CAZ7
 BAR2 SZ IP     C 1148 53.39                             160     0.210   38  83 
 BAR2 SZ ES   2   1149  5.09                             160    -0.8 5   38  83 
 BAR2 SZ I        1149  7.14        27.4 0.38                            38  83 
 BRR  HZ EP   1   1148 54.23                             148    -0.1 7   65 341 
 BRR  HN ES   2   1149  8.15                             148     0.3 5   65 341 
 BRR  HZ I        1149 11.81         8.9 0.32                            65 341 
 RUS  HZ EP   1   1148 56.66                             140     0.0 7   88 146 
 RUS  HE ES   2   1149 12.21                             140     0.2 5   88 146 
 RUS  HZ I        1149 14.25         2.9 0.52                            88 146 
 NOR  SZ EP   2   1149  4.95                             117    -0.6 4  185 234 
 NOR  SN ES   2   1149 27.97                             117     0.2 4  185 234 
                                                                                
