 2012  526 1205  8.5 L   6.792 -73.182143.0  RSN 12 0.3 2.5LRSN                1
 GAP=132        0.69       2.8     3.6  5.0 -0.1643E+01  0.6490E+01  0.5302E+00E
 Epicentro: LOS SANTOS - SANTANDER                                             3
 ACTION:UP  12-07-05 12:08 OP:pat  STATUS:               ID:20120526120508 L   I
 2012-05-26-1200-00M.COL___197                                                 6
 STAT SP IPHASW D HRMM SECON CODA AMPLIT PERI AZIMU VELO SNR AR TRES W  DIS CAZ7
 BAR2 SZ EP       12 5 27.91                             171     0.110   22 180 
 BAR2 SZ ES   1   12 5 42.87                             171     0.0 7   22 180 
 BAR2 SZ I        12 5 44.21        86.1 0.39                            22 180 
 PAM  SZ EP   1   12 5 30.70                             149     0.0 7   81  41 
 PAM  SE ES   1   12 5 48.05                             149     0.1 7   81  41 
 RUS  HZ EP       12 5 31.76                             143    -0.210  100 174 
 RUS  HN ES   1   12 5 50.43                             143     0.2 7  100 174 
 RUS  HZ I        12 5 51.81        27.8 0.26                           100 174 
 PTB  HZ EP   1   12 5 34.91                             132     0.0 7  144 259 
 PTB  HN ES   1   12 5 55.29                             132    -0.2 7  144 259 
 PTB  HZ I        12 6  3.28        55.3 0.38                           144 259 
 OCA  HZ EP   1   12 5 36.29                             129    -0.4 7  161 355 
 OCA  HN ES   1   12 5 58.50                             129    -0.1 7  161 355 
 ZAR  HZ EP   1   12 5 40.49                             122     0.0 6  201 293 
 ZAR  HE ES   1   12 6  5.55                             122     0.2 6  201 293 
 ZAR  HZ I        12 6 14.23        33.1 0.45                           201 293 
 NOR  SZ EP   1   12 5 43.82                             118     0.1 6  231 234 
 NOR  SN ES   1   12 6 10.63                             118    -0.5 6  231 234 
 CHI  HZ EP   1   12 5 45.89                             117     0.0 6  247 194 
 CHI  HZ I        12 5 48.59        10.6 0.40                           247 194 
 HEL  HZ EP   1   12 5 48.80                             115     0.7 6  268 256 
 HEL  HZ I        12 6 26.58        24.9 0.35                           268 256 
 RREF HZ EP   1   12 5 55.20                             111     1.1 5  318 229 
 RREF HZ I        12 6 36.88        15.2 0.32                           318 229 
 COD  HZ EP   1   12 5 56.52                             108    -0.3 5  349 355 
 COD  HZ I        12 6 42.71        12.5 0.44                           349 355 
 PRA  HZ EP   1   12 6  1.55                             106    -0.1 4  389 209 
 PRA  HN ES   1   12 6 42.30                             106    -0.8 4  389 209 
                                                                                
