 2016 1226 1007 36.0 L   6.743 -73.103140.9  RSN  6 0.4 1.5LRSN                1
 GAP=145        1.12       5.5     5.0  7.6  0.2380E+01  0.1020E+02 -0.2172E+01E
 Epicentro: JORDAN - SANTANDER                                                 3
 ACTION:UPD 17-01-11 20:19 OP:rebc STATUS:               ID:20161226100736 L   I
 OLDACT:UP  16-12-27 01:29 OP:cog  STATUS:               ID:20161226095752d    3
 OLDACT:DUP 16-12-27 01:25 OP:cog  STATUS:               ID:20161226095752d    3
 2016-12-26-0958-00M.COL___366                                                 6
 STAT SP IPHASW D HRMM SECON CODA AMPLIT PERI AZIMU VELO AIN AR TRES W  DIS CAZ7
 BAR2 EZ EP       10 7 54.86                             172   -0.0810 18.8 208 
 BAR2 EZ ES       10 8  9.57                             172   -0.1510 18.8 208 
 BAR2 EZ I        10 8 11.93         7.8 0.20            171           18.8 208 
 BRR  HZ EP       10 7 56.97                             149   -0.0710 78.5 301 
 BRR  HN ES       10 8 13.87                             149    0.4010 78.5 301 
 BRR  HZ I        10 8 14.93         4.3 0.22            148           78.5 301 
 PAM  EZ EP       10 7 57.37                             149   -0.4510 79.6  34 
 PAM  EN ES       10 8 14.88                             149    0.0310 79.6  34 
 PAM  EZ I        10 8 15.46         4.9 0.34            151           79.6  34 
 RUS  HZ EP       10 7 58.86                             145    0.0810 94.0 179 
 RUS  HN ES       10 8 16.96                             145    0.3910 94.0 179 
 RUS  HZ I        10 8 17.91         4.2 0.54            147           94.0 179 
 PTB  HZ EP       10 8  2.31                             130   -0.58 9  151 262 
 PTB  HN ES       10 8 23.32                             130   -0.55 9  151 262 
 PTB  HZ I        10 8 25.20         5.1 0.20            130            151 262 
 ZAR  HZ EP       10 8 10.00                             120    1.17 8  211 293 
 ZAR  HN ES       10 8 34.42                             120   -0.02 8  211 293 
 ZAR  HZ I        10 8 41.89         4.0 0.28            121            211 293 
                                                                                
