 2014 1226 1010 44.2 L   6.768 -73.151147.1  RSN  7 0.3 1.4LRSN                1
 GAP=234        0.84       4.2     4.4  6.1  0.4764E+01  0.6011E+01  0.2714E+01E
 Epicentro: LOS SANTOS - SANTANDER                                             3
 ACTION:UPD 15-02-10 17:07 OP:nd   STATUS:               ID:20141226101044 L   I
 OLDACT:REG 14-12-26 20:25 OP:y    STATUS:               ID:20141226100749     3
 2014-12-26-1007-49M.COL___286                                                 6
 STAT SP IPHASW D HRMM SECON CODA AMPLIT PERI AZIMU VELO AIN AR TRES W  DIS CAZ7
 BAR2 EZ EP       1011  3.82                             172   -0.1410 19.8 190 
 BAR2 EZ ES       1011 18.91                             172   -0.4410 19.8 190 
 BAR2 EZ I        1011 22.05         3.8 0.22            169           19.8 190 
 BRR  HZ EP       1011  5.78                             152    0.1810 72.4 301 
 BRR  HN ES       1011 22.93                             152    0.6610 72.4 301 
 RUS  HZ EP       1011  8.16                             145    0.2810 97.1 176 
 RUS  HN ES       1011 26.27                             145   -0.0510 97.1 176 
 RUS  HZ I        1011 28.93         3.1 0.52            145           97.1 176 
 PTB  HZ EP       1011 10.99                             133   -0.21 9  147 260 
 PTB  HN ES       1011 31.85                             133   -0.39 9  147 260 
 PTB  HZ I        1011 33.92         3.5 0.16            134            147 260 
 SPBC HZ EP       1011 12.41                             130   -0.14 9  160 220 
 SPBC HN ES       1011 34.85                             130    0.22 9  160 220 
 SPBC HZ I        1011 38.78         5.6 0.18            131            160 220 
 ZAR  HN ES       1011 41.99                             123   -0.30 9  205 293 
 NOR  HN ES       1011 47.79                             119    0.29 8  232 235 
                                                                                
