 2017  626 1723 24.4 L   6.825 -72.955138.5  RSN  4 0.2 1.6LRSN                1
 GAP=294        0.57       5.0     5.8  4.5 -0.5633E+00  0.8318E+01  0.2685E+01E
 Epicentro: CEPITA - SANTANDER                                                 3
 ACTION:UPD 17-09-14 16:55 OP:jn   STATUS:               ID:20170626172324 L   I
 OLDACT:REG 17-06-26 21:15 OP:cog  STATUS:               ID:20170626171737     3
 2017-06-26-1718-00M.COL___352                                                 6
 STAT SP IPHASW D HRMM SECON CODA AMPLIT PERI AZIMU VELO AIN AR TRES W  DIS CAZ7
 BAR2 EZ EP       1723 43.87                             165    0.3410 36.0 224 
 BAR2 EZ ES       1723 58.25                             165   -0.1710 36.0 224 
 BAR2 EZ I        1723 59.77         7.8 0.32            164           36.0 224 
 BRR  HZ EP       1723 45.69                             145   -0.2710 89.2 290 
 BRR  HE ES       1724  2.85                             145    0.1010 89.2 290 
 BRR  HZ I        1724  5.70         9.0 0.41            144           89.2 290 
 ZAR  HZ EP       1723 58.49                             118    0.09 8  223 289 
 ZAR  HN ES   4   1724 22.35                             118   -2.54 0  223 289 
 GUY2CHZ EP       1724  9.64                             109   -0.24 7  320 237 
 GUY2CHE ES       1724 45.45                             109    0.11 7  320 237 
 GUY2CHZ I        1724 48.37         1.8 0.28                           320 237 
                                                                                
