 2012  126 1721 38.1 L   6.640 -73.372114.0  RSN  5 0.5 1.8LRSN                1
 GAP=106        1.04      13.2    13.4 18.0 -0.2910E+02  0.1743E+03 -0.5816E+02E
 Epicentro: GALAN - SANTANDER                                                  3
 ACTION:UP  12-02-03 08:21 OP:REBC STATUS:               ID:20120126172137 L   I
 2012-01-26-1720-00M.COL___188                                                 6
 STAT SP IPHASW D HRMM SECON CODA AMPLIT PERI AZIMU VELO SNR AR TRES W  DIS CAZ7
 BAR2 SZ EP       1721 53.94                             166     0.110   22 104 
 BAR2 SZ ES   1   1722  5.91                             166    -0.3 7   22 104 
 BAR2 SZ I        1722  7.33        22.3 0.44                            22 104 
 GIR2 SZ EP       1721 55.47                             152     0.510   52  22 
 GIR2 SZ ES   3   1722  8.58                             152     0.5 2   52  22 
 BRR  HZ EP       1721 54.68                             148    -0.710   64 324 
 RUS  HZ EP   3   1721 56.81                             137    -1.1 2   89 159 
 RUS  HN ES   3   1722 12.74                             137    -0.6 2   89 159 
 PTB  HZ EP       1722  0.34                             129     0.410  120 265 
                                                                                
