 2016  826 1542 39.2 L   6.769 -73.074139.1  RSN  7 0.3 2.0LRSN                1
 GAP=147        0.82       3.8     6.9  5.5  0.2325E+01  0.4103E+00  0.3925E+01E
 Epicentro: LOS SANTOS - SANTANDER                                             3
 ACTION:UPD 16-10-29 15:39 OP:rebc STATUS:               ID:20160826154239 L   I
 OLDACT:UP  16-08-27 00:31 OP:ar   STATUS:               ID:20160826153733     3
 OLDACT:REG 16-08-26 21:43 OP:ar   STATUS:               ID:20160826153733     3
 2016-08-26-1538-00M.COL___371                                                 6
 STAT SP IPHASW D HRMM SECON CODA AMPLIT PERI AZIMU VELO AIN AR TRES W  DIS CAZ7
 BAR2 EZ IP     C 1542 57.95                             170   -0.0910 22.9 212 
 BAR2 EZ ES       1543 12.44                             170   -0.2710 22.9 212 
 BAR2 EZ I        1543 13.96        34.7 0.24                          22.9 212 
 PAM  EZ EP       1543  0.85                             150    0.2410 75.4  33 
 PAM  EZ I        1543 18.35        12.8 0.38                          75.4  33 
 BRR  HZ IP     C 1542 59.88                             148   -0.3010 79.8 298 
 BRR  HN ES       1543 16.65                             148    0.1210 79.8 298 
 BRR  HZ I        1543 22.13        17.5 0.12                          79.8 298 
 RUS  HZ EP       1543  2.09                             143    0.0410 96.9 181 
 RUS  HN ES       1543 20.21                             143    0.3610 96.9 181 
 RUS  HZ I        1543 21.54        19.3 0.26                          96.9 181 
 PTB  HZ EP   4   1543  4.60                             129   -1.73 0  155 261 
 PTB  HE ES   4   1543 24.86                             129   -2.61 0  155 261 
 PTB  HZ I        1543 27.92        19.3 0.22                           155 261 
 CHI  HZ EP       1543 15.79                             116   -0.64 8  248 197 
 CHI  HN ES       1543 45.36                             116   -0.10 8  248 197 
 CHI  HZ I        1543 52.40         3.3 0.34                           248 197 
 GUY2CHZ EP       1543 23.76                             111    0.71 7  306 236 
 GUY2CHE ES   4   1543 59.07                             111    1.83 0  306 236 
 GUY2CHZ I        1544  6.66         3.5 0.44                           306 236 
                                                                                
