 2011 1226 1642 44.7 L   6.786 -73.160142.0  RSN 15 0.4 2.4LRSN                1
 GAP=135        0.66       3.3     4.2  5.7 -0.1816E+01  0.7026E+01  0.4418E+01E
 Epicentro: LOS SANTOS - SANTANDER                                             3
 ACTION:UPD 12-07-13 16:18 OP:ep   STATUS:               ID:20111226164244 L   I
 2011-12-26-1640-00M.COL___188                                                 6
 STAT SP IPHASW D HRMM SECON CODA AMPLIT PERI AZIMU VELO AIN AR TRES W  DIS CAZ7
 BAR2 SZ EP   1   1643  3.74                             171   -0.09 7 21.6 186 
 BAR2 SZ ES   2   1643 18.78                             171    0.02 5 21.6 186 
 BAR2 SZ I        1643 20.59        74.4 0.16                          21.6 186 
 GIR2 SZ EP   1   1643  3.94                             166   -0.01 7 32.6 354 
 BRR  HZ EP       1643  5.74                             152    0.3510 70.5 300 
 BRR  HZ I        1643  6.10        61.3 0.13                          70.5 300 
 BRR  HE ES   2   1643 22.27                             152    0.73 5 70.5 300 
 PAM  SZ EP   1   1643  6.65                             149    0.01 7 79.6  40 
 PAM  SZ I        1643  6.93        45.0 0.17                          79.6  40 
 PAM  SN ES   2   1643 22.98                             149   -0.78 5 79.6  40 
 RUS  HZ EP   1   1643  7.83                             143   -0.14 7 99.2 175 
 RUS  HN ES   2   1643 26.31                             143    0.19 5 99.2 175 
 RUS  HZ I        1643 27.85        16.9 0.35                          99.2 175 
 PTB  HZ EP   1   1643 10.62                             132   -0.56 7  146 259 
 PTB  HN ES   2   1643 31.48                             132   -0.36 5  146 259 
 OCA  SZ EP   1   1643 12.90                             128    0.06 7  162 354 
 OCA  SZ ES   2   1643 35.21                             128    0.42 5  162 354 
 OCA  SZ I        1643 39.22        34.4 0.24                           162 354 
 ZAR  HZ EP   1   1643 16.62                             122   -0.17 6  203 293 
 ZAR  HE ES   2   1643 41.08                             122   -0.76 4  203 293 
 NOR  SZ EP   1   1643 19.64                             118   -0.32 6  232 235 
 NOR  SN ES   2   1643 47.12                             118   -0.35 4  232 235 
 CHI  HZ EP   1   1643 22.03                             116    0.06 6  247 195 
 CHI  HN ES   2   1643 51.36                             116    0.31 4  247 195 
 CHI  HZ I        1643 57.10         8.9 0.29                           247 195 
 HEL  HN ES   2   1643 56.11                             114    0.57 4  270 256 
 GUY  SZ EP   1   1643 29.01                             112    0.87 5  301 235 
 GUY  SZ I        1644 13.88        15.3 0.30                           301 235 
 RREF HZ EP   1   1643 29.76                             110   -0.65 5  320 229 
 TOL  SZ EP   1   1643 33.19                             109    0.65 5  341 225 
 PRA  HZ EP   1   1643 37.71                             106   -0.12 4  390 209 
                                                                                
