 2012  726 1015 23.4 L   6.755 -73.234157.4  RSN  4 0.3 1.7LRSN                1
 GAP=216        0.46      11.0     7.5  7.4 -0.1327E+01  0.1364E+02  0.2702E+01E
 Epicentro: ZAPATOCA - SANTANDER                                               3
 ACTION:UPD 12-08-14 11:45 OP:ep   STATUS:               ID:20120726101523 L   I
 2012-07-26-1010-00M.COL___215                                                 6
 STAT SP IPHASW D HRMM SECON CODA AMPLIT PERI AZIMU VELO AIN AR TRES W  DIS CAZ7
 BAR2 SZ EP   3   1015 43.82                             173    -0.5 2   19 163 
 BAR2 SZ ES   2   1016  0.72                             173     0.0 5   19 163 
 BRR  HZ EP   1   1015 45.81                             156     0.3 7   66 306 
 BRR  HZ I        1015 51.96         9.0 0.34            146             66 306 
 BRR  HN ES   2   1016  2.51                             156    -0.3 5   66 306 
 PTB  HZ EP   1   1015 50.18                             137    -0.2 7  137 260 
 PTB  HN ES   2   1016 11.73                             137     0.2 5  137 260 
 ZAR  HN ES   3   1016 20.87                             126    -0.4 2  197 295 
