 2017  226 1854 54.0 L   6.799 -73.125152.0  RSN  7 0.3 2.1LRSN                1
 GAP=139        0.77       3.4     3.7  4.9 -0.2488E+01  0.2996E+01  0.4430E+01E
 Epicentro: LOS SANTOS - SANTANDER                                             3
 ACTION:UPD 17-05-24 15:41 OP:jn   STATUS:               ID:20170226185454 L   I
 OLDACT:REG 17-02-26 21:16 OP:cog  STATUS:               ID:20170226184750     3
 2017-02-26-1848-00M.COL___375                                                 6
 STAT SP IPHASW D HRMM SECON CODA AMPLIT PERI AZIMU VELO AIN AR TRES W  DIS CAZ7
 BAR2 EZ EP       1855 14.21                             171   -0.1410 23.7 196 
 BAR2 EZ ES       1855 30.17                             171   -0.0810 23.7 196 
 BAR2 EZ I        1855 31.66        28.5 0.24            169           23.7 196 
 BRR  HZ EP       1855 16.09                             153    0.1910 73.3 298 
 BRR  HE ES       1855 33.43                             153    0.4110 73.3 298 
 BRR  HZ I        1855 36.58        21.4 0.44            150           73.3 298 
 PAM  EZ EP       1855 17.13                             152    0.3610 76.1  38 
 PAM  EE ES       1855 34.37                             152   -0.1910 76.1  38 
 RUS  HZ EP       1855 18.03                             145   -0.2810  100 177 
 RUS  HN ES       1855 37.28                             145   -0.0210  100 177 
 PTB  HZ EP       1855 21.01                             133   -0.63 9  150 259 
 PTB  HN ES       1855 42.91                             133   -0.32 9  150 259 
 PTB  HZ I        1855 48.15        18.2 0.20            132            150 259 
 NOR  HZ EP       1855 30.30                             120    0.05 8  236 235 
 NOR  HN ES       1855 58.87                             120    0.32 8  236 235 
 NOR  HZ I        1856  4.18         6.2 0.70            120            236 235 
 CHI  HZ EP       1855 32.41                             118    0.35 8  249 196 
 CHI  HN ES       1856  1.99                             118    0.21 8  249 196 
                                                                                
