 2015  726 1220 43.3 L   6.476 -73.160143.4  RSN  4 0.4 2.0LRSN                1
 GAP=306        0.95       6.9     8.0  8.4  0.6290E+01  0.1874E+02 -0.2230E+02E
 Epicentro: VALLE DE SAN JOSE - SANTANDER                                      3
 ACTION:UPD 15-09-08 21:50 OP:cam  STATUS:               ID:20150726122044 L   I
 OLDACT:UP  15-08-03 18:17 OP:cam  STATUS:               ID:20150726122044 L   3
 OLDACT:UP  15-08-01 06:28 OP:AK   STATUS:               ID:20150726122044 L   3
 OLDACT:REG 15-07-26 20:37 OP:stll STATUS:               ID:20150726121748     3
 2015-07-26-1217-48M.COL___340                                                 6
 STAT SP IPHASW D HRMM SECON CODA AMPLIT PERI AZIMU VELO AIN AR TRES W  DIS CAZ7
 BAR2 EZ EP       1221  2.53                             175    0.0810 13.0 349 
 BAR2 EZ ES       1221 17.17                             175   -0.2310 13.0 349 
 BAR2 EZ I        1221 20.22         6.9 0.20            167           13.0 349 
 OCA  HZ EP       1221 14.71                             123   -0.18 9  196 355 
 OCA  HZ I        1221 15.35        24.1 0.22            124            196 355 
 OCA  HE ES       1221 40.29                             123    0.74 9  196 355 
 ZAR  HZ EP       1221 17.54                             120    0.45 8  219 301 
 ZAR  HE ES       1221 43.54                             120    0.07 8  219 301 
 ZAR  HZ I        1221 48.41         9.0 0.48            120            219 301 
 SML  HZ EP       1221 22.97                             114   -0.36 7  276 339 
 SML  HN ES       1221 53.83                             114   -0.74 7  276 339 
 SML  HZ I        1222  4.32         6.3 0.22            115            276 339 
                                                                                
