 2014 1126 1042  9.0 L   6.811 -73.113145.7  RSN 15 0.5 2.0LRSN                1
 GAP=140        1.10       3.3     4.0  5.6 -0.1935E+01  0.7398E+01  0.4138E+01E
 Epicentro: LOS SANTOS - SANTANDER                                             3
 ACTION:UPD 14-12-19 15:47 OP:nd   STATUS:               ID:20141126104209 L   I
 OLDACT:REG 14-11-26 20:03 OP:fm   STATUS:               ID:20141126103749     3
 2014-11-26-1037-49M.COL___303                                                 6
 STAT SP IPHASW D HRMM SECON CODA AMPLIT PERI AZIMU VELO AIN AR TRES W  DIS CAZ7
 BAR2 SZ EP       1042 28.94                             170    0.2610 25.4 198 
 BAR2 SZ ES       1042 44.33                             170    0.3110 25.4 198 
 BAR2 SZ I        1042 46.56        16.1 0.28            168           25.4 198 
 BRR  HZ EP       1042 30.06                             152   -0.2510 73.8 296 
 BRR  HN ES       1042 47.26                             152    0.3510 73.8 296 
 BRR  HZ I        1042 51.65        19.9 0.28            151           73.8 296 
 PAM  SZ EP       1042 31.59                             152    0.5510 74.2  38 
 PAM  SN ES       1042 48.37                             152    0.1610 74.2  38 
 PAM  SZ I        1042 51.05        14.4 0.20            157           74.2  38 
 RUS  HZ EP       1042 32.80                             143   -0.0310  102 178 
 RUS  HN ES       1042 50.48                             143   -0.9310  102 178 
 RUS  HZ I        1042 56.10         4.8 0.26            146            102 178 
 PTB  HZ EP       1042 35.87                             131   -0.45 9  152 259 
 PTB  HN ES       1042 57.18                             131   -0.44 9  152 259 
 PTB  HZ I        1043  2.68        13.2 0.16            133            152 259 
 OCA  HN ES       1042 59.12                             130   -0.16 9  160 352 
 OCA  HZ I        1043  7.38         8.2 0.24            133            160 352 
 SPBC HZ EP       1042 37.47                             128   -0.34 9  166 220 
 SPBC HN ES       1043  0.58                             128    0.30 9  166 220 
 SPBC HZ I        1043  7.08        21.4 0.24            130            166 220 
 ZAR  HZ EP       1042 41.23                             122   -0.52 8  207 291 
 ZAR  HN ES       1043  6.85                             122   -0.44 8  207 291 
 ZAR  HZ I        1043 13.27        10.3 0.40            124            207 291 
 NOR  HZ EP       1042 45.07                             118   -0.06 8  238 235 
 NOR  HN ES       1043 13.01                             118   -0.29 8  238 235 
 NOR  HZ I        1043 16.57         8.5 0.32            120            238 235 
 CHI  HZ EP       1042 47.03                             117    0.09 8  251 196 
 CHI  HN ES       1043 16.65                             117    0.13 8  251 196 
 CHI  HZ I        1043 24.92         3.3 0.62            120            251 196 
 HEL  HZ EP       1042 50.58                             114    0.94 7  276 256 
 HEL  HN ES       1043 21.66                             114    0.33 7  276 256 
 HEL  HZ I        1043 27.60         4.7 0.34            117            276 256 
 GUY2CHZ EP       1042 52.54                             112   -0.49 7  305 235 
 GUY2CHE ES       1043 28.74                             112    1.38 7  305 235 
 GUY2CHZ I        1043 35.59         6.8 0.30                           305 235 
 RREF HZ EP       1042 55.61                             111    0.06 7  325 230 
 RREF HN ES   4   1043 34.12                             111    2.27 0  325 230 
 RREF HZ I        1043 40.57         4.8 0.54            113            325 230 
 TOL  SZ EP       1042 57.65                             109   -0.01 6  347 225 
 TOL  SN ES       1043 35.84                             109    0.24 6  347 225 
 TOL  SZ I        1043 41.40        10.0 0.68            111            347 225 
 MON  HN ES   4   1043 33.02                             108   -3.64 0  356 308 
 MON  HZ I        1043 37.04         2.4 0.44            111            356 308 
 SJC  HZ EP   4   1043  2.37                             106   -2.32 0  410 326 
 SJC  HE ES   4   1043 45.55                             106   -2.56 0  410 326 
                                                                                
