 2010 1226 1032 22.7 L   5.763 -73.914104.1  RSN 10 0.4 1.7LRSN                1
 GAP= 90        0.97       4.1     3.7 10.2 -0.5583E+01  0.1021E+02  0.2126E+00E
 Epicentro: ALBANIA - SANTANDER                                                3
 ACTION:DUP 11-01-14 15:27 OP:pat  STATUS:               ID:20101226103222 L   I
 2010-12-26-1020-00M.COL___132                                                 6
 STAT SP IPHASW D HRMM SECON CODA AMPLIT PERI AZIMU VELO SNR AR TRES W  DIS CAZ7
 RUS  HZ EP   2   1032 42.02                             135     0.0 5   93  81 
 RUS  HN ES   1   1032 56.85                             135    -0.2 8   93  81 
 RUS  HZ I        1032 58.21         3.0 0.10                            93  81 
 NOR  SZ EP       1032 42.44                             130    -0.310  108 258 
 NOR  SN ES   1   1032 58.07                             130    -0.4 7  108 258 
 ROSC BZ EP   1   1032 44.61                             129     1.1 7  112 204 
 ROSC BZ I        1033  4.89        13.4 0.22                           112 204 
 BAR2 SZ EP       1032 44.58                             126     0.210  122  41 
 BAR2 SZ ES   1   1033  1.47                             126     0.2 7  122  41 
 BAR2 SZ I        1033  3.43        19.5 0.25                           122  41 
 CHI  HZ EP   1   1032 44.83                             125    -0.2 7  127 171 
 CHI  HN ES   1   1033  2.23                             125    -0.3 7  127 171 
 CHI  HZ I        1033  6.52        10.8 0.43                           127 171 
 HEL  HZ EP   2   1032 51.97                             114     0.8 4  185 285 
 RREF HZ EP   1   1032 51.62                             114     0.1 7  185 239 
 RREF HN ES   1   1033 14.24                             114     0.2 7  185 239 
 RREF HZ I        1033 18.30         7.7 0.16                           185 239 
 HEL  HN ES   1   1033 13.40                             114     0.1 7  185 285 
 HEL  HZ I        1033 17.56         5.3 0.17                           185 285 
 TOL  SZ EP   1   1032 52.93                             111    -0.2 6  203 230 
 PRA  HZ EP   1   1032 57.61                             106    -0.7 6  251 205 
 PRA  HN ES   1   1033 26.54                             106     0.5 6  251 205 
 OCA  SZ EP   1   1033  1.48                             104    -0.6 6  282  13 
 OCA  SZ I        1033 43.62         5.8 0.37                           282  13 
                                                                                
