 2010 1226 1149  5.5 L   6.856 -73.012134.0  RSN  4 0.4 1.5LRSN                1
 GAP=173        0.88       7.2    21.4 11.0 -0.8968E+02  0.2896E+02 -0.2986E+01E
 Epicentro: CEPITA - SANTANDER                                                 3
 ACTION:UP  11-01-14 15:27 OP:pat  STATUS:               ID:20101226114905 L   I
 2010-12-26-1148-44S.COL___133                                                 6
 STAT SP IPHASW D HRMM SECON CODA AMPLIT PERI AZIMU VELO SNR AR TRES W  DIS CAZ7
 BAR2 SZ EP       1149 24.02                             165     0.010   35 213 
 BAR2 SZ ES   1   1149 38.56                             165     0.1 7   35 213 
 BAR2 SZ I        1149 40.09         9.8 0.32                            35 213 
 RUS  HZ EP   1   1149 28.07                             140    -0.5 7  107 184 
 RUS  HZ I        1149 29.27         4.5 0.07                           107 184 
 RUS  HN ES   2   1149 47.07                             140     0.5 5  107 184 
 GRA  SZ EP   2   1149 29.87                             137     1.0 5  116  11 
 GRA  SZ ES   1   1149 46.84                             137    -0.3 7  116  11 
 GRA  SZ I        1149 53.87         3.6 0.62                           116  11 
 HEL  HZ EP   2   1149 46.86                             111    -0.1 4  288 255 
 HEL  HZ I        1150 24.88         2.6 0.37                           288 255 
                                                                                
