 2010  926 1616 23.7 L   6.802 -73.038140.0  RSN  5 0.3 1.5LRSN                1
 GAP=171        0.79       4.8    10.5 11.7  0.9208E+01 -0.5360E+02 -0.1169E+02E
 Epicentro: CEPITA - SANTANDER                                                 3
 ACTION:UP  11-02-18 11:05 OP:tino STATUS:               ID:20100926161623 L   I
 2010-09-26-1612-58S.COL___122                                                 6
 STAT SP IPHASW D HRMM SECON CODA AMPLIT PERI AZIMU VELO SNR AR TRES W  DIS CAZ7
 BTL  SZ EP       1616 43.30                             168     0.610   28 297 
 BRR  HZ EP       1616 44.61                             148    -0.310   82 294 
 BRR  HE ES   1   1617  1.32                             148    -0.1 7   82 294 
 BRR  HZ I        1617 13.83         7.8 0.46                            82 294 
 RUS  HZ EP       1616 46.75                             143    -0.110  101 183 
 RUS  HN ES   1   1617  4.88                             143    -0.1 7  101 183 
 RUS  HZ I        1617  6.58         4.7 0.36                           101 183 
 GUE  SZ EP       1616 47.69                             139     0.010  114   6 
 GRA  SZ ES   2   1617  6.94                             136    -0.3 5  123  12 
 GRA  SZ I        1617  9.09         3.9 0.30                           123  12 
                                                                                
