 2014  926 1914 39.9 L   6.798 -73.143150.6  RSN 11 0.4 2.3LRSN                1
 GAP=137        0.95       2.8     3.9  5.0 -0.6867E+00  0.4739E+01  0.1967E+01E
 Epicentro: LOS SANTOS - SANTANDER                                             3
 ACTION:UPD 14-10-03 23:08 OP:nd   STATUS:               ID:20140926191439 L   I
 OLDACT:UP  14-09-26 23:38 OP:cam  STATUS:               ID:20140926191000     3
 OLDACT:UP  14-09-26 23:38 OP:cam  STATUS:               ID:20140926191000     3
 OLDACT:REG 14-09-26 20:46 OP:cam  STATUS:               ID:20140926191000     3
 2014-09-26-1910-00M.COL___252                                                 6
 STAT SP IPHASW D HRMM SECON CODA AMPLIT PERI AZIMU VELO AIN AR TRES W  DIS CAZ7
 BAR2 SZ EP     C 1915  0.05                             171   -0.0410 23.2 191 
 BAR2 SZ ES       1915 15.62                             171   -0.2410 23.2 191 
 BAR2 SZ I        1915 17.08        52.6 0.22            170           23.2 191 
 BRR  HZ EP     D 1915  1.94                             153    0.3610 71.6 299 
 BRR  HN ES       1915 19.47                             153    0.9710 71.6 299 
 BRR  HZ I        1915 21.80        24.9 0.16            151           71.6 299 
 PAM  SZ EP     D 1915  2.95                             152    0.3410 77.3  39 
 PAM  SN ES       1915 20.16                             152   -0.1810 77.3  39 
 PAM  SZ I        1915 22.07        10.7 0.52            155           77.3  39 
 RUS  HZ EP       1915  3.92                             145   -0.1810  100 176 
 RUS  HN ES       1915 22.89                             145   -0.1010  100 176 
 RUS  HZ I        1915 25.08        18.5 0.50            147            100 176 
 PTB  HZ EP       1915  6.60                             133   -0.67 9  148 259 
 PTB  HN ES       1915 28.12                             133   -0.52 9  148 259 
 PTB  HZ I        1915 33.77        32.8 0.40            132            148 259 
 SPBC HZ EP       1915  8.76                             130   -0.00 9  163 219 
 SPBC HN ES       1915 31.20                             130   -0.09 9  163 219 
 SPBC HZ I        1915 36.04        27.1 0.20            130            163 219 
 ZAR  HE ES       1915 38.44                             123    0.17 9  204 292 
 ZAR  HZ I        1915 44.80        31.5 0.36            123            204 292 
 SML  HZ EP       1915 16.55                             118   -0.26 8  244 335 
 SML  HN ES       1915 45.15                             118   -0.47 8  244 335 
 SML  HZ I        1915 52.13        22.6 0.22            119            244 335 
 CHI  HZ EP       1915 18.19                             118    0.35 8  249 195 
 CHI  HN ES       1915 47.27                             118   -0.18 8  249 195 
 CHI  HZ I        1915 53.13         8.9 0.28            119            249 195 
 GUY2CHZ EP       1915 23.94                             113    0.21 7  301 235 
 GUY2CHN ES       1915 57.83                             113   -0.11 7  301 235 
 GUY2CHZ I        1916  5.68         9.2 0.48                           301 235 
 PRA  HZ EP       1915 34.19                             107    0.62 6  392 210 
 PRA  HN ES       1916 15.95                             107    0.50 6  392 210 
 PRA  HZ I        1916 19.25         9.0 0.58            108            392 210 
                                                                                
