 2011 1026 1008 54.3 L   6.825 -73.025147.0  RSN  5 0.2 1.5LRSN                1
 GAP=217        0.52      11.5    13.9 15.7  0.8753E+02 -0.8145E+02  0.1199E+02E
 Epicentro: CEPITA - SANTANDER                                                 3
 ACTION:UPD 12-07-13 16:06 OP:ep   STATUS:               ID:20111026100854 L   I
 2011-10-26-1000-00M.COL___177                                                 6
 STAT SP IPHASW D HRMM SECON CODA AMPLIT PERI AZIMU VELO AIN AR TRES W  DIS CAZ7
 BTL  SZ EP   3   10 9 14.17                             169   -0.03 2 28.8 291 
 BAR2 SZ EP       10 9 13.99                             168   -0.2710 31.1 214 
 BAR2 SZ I        10 9 22.82         6.7 0.54                          31.1 214 
 GIR2 SZ EP       10 9 14.40                             166    0.2110 33.7 326 
 BRR  HZ EP       10 9 16.17                             150   -0.0610 82.1 292 
 BRR  HN ES   2   10 9 33.34                             150    0.00 5 82.1 292 
 RUS  HZ EP   2   10 9 18.85                             144    0.48 5  103 184 
                                                                                
