 2015  526 1044 18.8 L   6.835 -73.085150.1  RSN  8 0.4 1.8LRSN                1
 GAP=189        0.79       2.9     5.2  6.1  0.2721E+01  0.5378E+01 -0.1320E+01E
 Epicentro: LOS SANTOS - SANTANDER                                             3
 ACTION:UPD 15-09-10 22:07 OP:cam  STATUS:               ID:20150526103748 L   I
 OLDACT:UPD 15-05-26 20:58 OP:Mher STATUS:               ID:20150526103748 L   3
 2015-05-26-1037-48M.COL___282                                                 6
 STAT SP IPHASW D HRMM SECON CODA AMPLIT PERI AZIMU VELO AIN AR TRES W  DIS CAZ7
 BAR2 EZ EP       1044 39.07                             169   -0.0510 28.9 202 
 BAR2 EZ ES   1   1044 55.07                             169    0.14 7 28.9 202 
 BAR2 EZ I        1044 55.99         8.1 0.24            168           28.9 202 
 BRR  HZ EP       1044 40.92                             152    0.2210 75.5 294 
 BRR  HN ES       1044 58.33                             152    0.5710 75.5 294 
 BRR  HZ I        1045  3.20         7.6 0.12            149           75.5 294 
 RUS  HZ EP   1   1044 43.37                             144    0.09 7  104 180 
 RUS  HE ES       1045  1.91                             144   -0.4410  104 180 
 RUS  HZ I        1045  2.67         5.4 0.24            147            104 180 
 OCA  HN ES       1045  9.11                             131   -0.25 9  157 351 
 OCA  HZ I        1045 15.53        12.4 0.32            132            157 351 
 SPBC HZ EP       1044 48.43                             129    0.07 9  170 220 
 SPBC HN ES   1   1045 11.58                             129    0.19 7  170 220 
 SPBC HZ I        1045 14.63        10.4 0.14            130            170 220 
 ZAR  HZ EP   1   1044 52.61                             123    0.54 6  209 290 
 ZAR  HN ES       1045 17.47                             123   -0.51 8  209 290 
 ZAR  HZ I        1045 23.12         8.9 0.36            123            209 290 
 NOR  HN ES   1   1045 24.01                             119   -0.35 6  242 235 
 NOR  HZ I        1045 28.28         4.4 0.41            120            242 235 
 SML  HZ EP   1   1044 55.93                             118    0.28 6  243 333 
 SML  HE ES   1   1045 23.81                             118   -0.55 6  243 333 
                                                                                
