 2017  926 1037 39.4 L   6.814 -73.095142.7  RSN  6 0.4 1.6LRSN                1
 GAP=244        0.96       5.1     6.5  6.9  0.1482E+02  0.1555E+02  0.5302E+01E
 Epicentro: LOS SANTOS - SANTANDER                                             3
 ACTION:UPD 17-10-05 19:16 OP:rebc STATUS:               ID:20170926103739 L   I
 OLDACT:DUP 17-09-26 21:46 OP:dhb  STATUS:               ID:20170926102749d    3
 2017-09-26-1028-00M.COL___438                                                 6
 STAT SP IPHASW D HRMM SECON CODA AMPLIT PERI AZIMU VELO AIN AR TRES W  DIS CAZ7
 BAR2 EZ IP     C 1037 58.55                             169   -0.1710 26.4 202 
 BAR2 EZ ES       1038 13.39                             169   -0.4010 26.4 202 
 BAR2 EZ I        1038 14.64         9.4 0.30            164           26.4 202 
 BRR  HZ IP     C 1038  0.39                             150   -0.0710 75.5 295 
 BRR  HN ES       1038 17.65                             150    0.7510 75.5 295 
 BRR  HZ I        1038 22.36         7.7 0.12            147           75.5 295 
 RUS  HZ EP       1038  3.09                             143    0.1610  102 179 
 RUS  HE ES       1038 21.31                             143    0.0110  102 179 
 RUS  HZ I        1038 22.62         5.6 0.36            144            102 179 
 ZAR  HZ EP       1038 12.32                             121    0.20 8  209 291 
 ZAR  HE ES       1038 36.82                             121   -0.83 8  209 291 
 ZAR  HZ I        1038 42.33         4.0 0.44            121            209 291 
 NOR  HZ EP       1038 15.74                             117    0.21 8  240 235 
 NOR  HE ES       1038 43.94                             117    0.21 8  240 235 
 NOR  HZ I        1038 49.04         2.4 0.40            118            240 235 
 CHI  HN ES   1   1038 46.49                             116   -0.29 6  252 196 
 CHI  HZ I        1038 48.72         2.6 0.19            117            252 196 
                                                                                
