 2011  426 1529 20.7 L   6.804 -73.090140.0  RSN  4 0.3 1.5LRSN                1
 GAP=144        0.67       5.4     7.1 10.0 -0.3192E+01 -0.1119E+02  0.1441E+02E
 Epicentro: LOS SANTOS - SANTANDER                                             3
 ACTION:UP  11-06-22 15:33 OP:REBC STATUS:               ID:20110426152920 L   I
 2011-04-26-1520-00M.COL___137                                                 6
 STAT SP IPHASW D HRMM SECON CODA AMPLIT PERI AZIMU VELO SNR AR TRES W  DIS CAZ7
 PAM  SZ EP   1   1529 42.33                             151     0.3 7   73  36 
 PAM  SE ES   2   1529 58.06                             151    -0.6 5   73  36 
 BRR  HZ EP       1529 41.29                             150    -0.210   76 296 
 BRR  HN ES   1   1529 58.00                             150     0.2 7   76 296 
 BRR  HZ I        1530  0.59         6.4 0.20                            76 296 
 RUS  HZ EP   1   1529 43.81                             143    -0.1 7  101 180 
 RUS  HE ES   2   1530  2.25                             143     0.3 5  101 180 
 RUS  HZ I        1530  3.37         4.0 0.16                           101 180 
 GRA  SZ ES   2   1530  4.74                             136     0.4 5  124  15 
 GRA  SZ I        1530  6.37         6.1 0.36                           124  15 
                                                                                
