 2011  626 1518 13.1 L   6.783 -73.004142.4  RSN  4 0.1 1.5LRSN                1
 GAP=175        0.35       3.5     6.1  5.0  0.9509E+01 -0.1714E+02 -0.7603E+01E
 Epicentro: CEPITA - SANTANDER                                                 3
 ACTION:UP  11-07-14 19:08 OP:ep   STATUS:               ID:20110626151813 L   I
 2011-06-26-1516-10S.COL___140                                                 6
 STAT SP IPHASW D HRMM SECON CODA AMPLIT PERI AZIMU VELO SNR AR TRES W  DIS CAZ7
 BAR2 SZ ES   1   1518 47.64                             168     0.1 7   29 223 
 BAR2 SZ I        1518 48.36         6.2 0.27                            29 223 
 BRR  HZ EP   1   1518 34.80                             147     0.0 7   86 295 
 BRR  HN ES   1   1518 51.76                             147     0.0 7   86 295 
 BRR  HZ I        1518 56.46         9.6 0.39                            86 295 
 RUS  HZ EP   1   1518 36.53                             144     0.1 7   99 185 
 RUS  HN ES   2   1518 54.37                             144    -0.2 5   99 185 
 RUS  HZ I        1518 55.70         7.2 0.61                            99 185 
 GRA  SZ EP   1   1518 37.88                             137     0.0 7  124  10 
 GRA  SZ I        1519  5.37         3.1 0.38                           124  10 
                                                                                
