 2015  726 1011 31.4 L   6.823 -73.137141.1  RSN  5 0.3 1.6LRSN                1
 GAP=136        0.79       3.4     4.7  6.3  0.2722E+01  0.1197E+02 -0.5528E+01E
 Epicentro: LOS SANTOS - SANTANDER                                             3
 ACTION:UPD 15-09-08 21:50 OP:cam  STATUS:               ID:20150726101131 L   I
 OLDACT:REG 15-07-26 20:34 OP:stll STATUS:               ID:20150726100748     3
 2015-07-26-1007-48M.COL___343                                                 6
 STAT SP IPHASW D HRMM SECON CODA AMPLIT PERI AZIMU VELO AIN AR TRES W  DIS CAZ7
 BAR2 EZ EP       1011 50.32                             169   -0.1810 26.0 191 
 BAR2 EZ I        1011 50.74         7.6 0.10            167           26.0 191 
 BAR2 EZ ES       1012  5.29                             169   -0.1410 26.0 191 
 PAM  EZ EP       1011 53.22                             151    0.2810 74.8  40 
 PAM  EZ I        1011 53.60         8.6 0.24            155           74.8  40 
 PAM  EN ES       1012  9.92                             151    0.1610 74.8  40 
 RUS  HZ EP       1011 54.57                             142   -0.2810  103 177 
 RUS  HN ES       1012 13.27                             142    0.1010  103 177 
 RUS  HZ I        1012 14.46         4.8 0.24            143            103 177 
 ZAR  HZ EP       1012  3.53                             121    0.02 9  204 291 
 ZAR  HN ES       1012 28.98                             121    0.41 9  204 291 
 ZAR  HZ I        1012 35.50         4.7 0.32            121            204 291 
 SML  HZ EP       1012  7.90                             117    0.37 8  242 335 
 SML  HN ES       1012 34.96                             117   -0.77 8  242 335 
                                                                                
