 2017  726 1032 24.0 L   6.846 -73.135141.9  RSN  5 0.5 1.5LRSN                1
 GAP=222        1.05       7.2     6.7  8.7  0.2820E+02  0.3913E+01 -0.3017E+01E
 Epicentro: LOS SANTOS - SANTANDER                                             3
 ACTION:UPD 17-08-30 15:36 OP:rebc STATUS:               ID:20170726103224 L   I
 OLDACT:REG 17-07-26 21:20 OP:ar   STATUS:               ID:20170726102739     3
 2017-07-26-1028-00M.COL___377                                                 6
 STAT SP IPHASW D HRMM SECON CODA AMPLIT PERI AZIMU VELO AIN AR TRES W  DIS CAZ7
 BAR2 EZ EP       1032 43.22                             168   -0.0310 28.5 190 
 BAR2 EZ ES       1032 58.18                             168   -0.1210 28.5 190 
 BAR2 EZ I        1032 59.44         7.4 0.24            171           28.5 190 
 RUS  HE ES       1033  5.74                             142   -0.5010  106 177 
 SPBC HZ EP       1032 52.27                             127   -0.36 9  168 218 
 SPBC HE ES       1033 15.09                             127    0.11 9  168 218 
 YPLC HZ EP       1032 53.62                             125   -0.26 9  181 152 
 YPLC HE ES       1033 18.17                             125    0.96 9  181 152 
 ZAR  HZ EP   2   1032 55.61                             122   -0.47 4  203 291 
 ZAR  HN ES       1033 21.65                             122    0.52 9  203 291 
 ZAR  HZ I        1033 27.67         3.3 0.22            121            203 291 
                                                                                
