 2016 1226 1541 41.4 L   6.786 -73.189147.6  RSN  7 0.5 1.9LRSN                1
 GAP=232        1.34       7.2     8.6  8.9  0.3400E+02  0.1675E+02  0.1092E+02E
 Epicentro: ZAPATOCA - SANTANDER                                               3
 ACTION:UPD 17-01-11 20:19 OP:rebc STATUS:               ID:20161226154141 L   I
 OLDACT:UP  16-12-26 22:25 OP:cog  STATUS:               ID:20161226153746     3
 OLDACT:REG 16-12-26 20:42 OP:cog  STATUS:               ID:20161226153746     3
 2016-12-26-1538-00M.COL___369                                                 6
 STAT SP IPHASW D HRMM SECON CODA AMPLIT PERI AZIMU VELO AIN AR TRES W  DIS CAZ7
 BAR2 EZ EP       1542  0.99                             171   -0.2410 21.5 178 
 BAR2 EZ ES       1542 16.01                             171   -0.6810 21.5 178 
 BAR2 EZ I        1542 17.27        20.0 0.24            168           21.5 178 
 BRR  HZ EP       1542  2.60                             154    0.0210 67.8 302 
 BRR  HN ES       1542 20.28                             154    1.1910 67.8 302 
 RUS  HZ EP       1542  5.26                             144   -0.0210 99.5 173 
 RUS  HE ES       1542 23.88                             144   -0.0010 99.5 173 
 RUS  HZ I        1542 24.81        10.8 0.24            143           99.5 173 
 PTB  HZ EP       1542  7.65                             133   -0.45 9  143 259 
 PTB  HN ES       1542 28.79                             133   -0.11 9  143 259 
 PTB  HZ I        1542 31.71         7.2 0.16            132            143 259 
 ZAR  HZ EP       1542 14.12                             123    0.52 9  200 293 
 ZAR  HE ES       1542 37.86                             123   -0.83 9  200 293 
 CHI  HZ EP     C 1542 19.28                             118    0.35 8  246 194 
 CHI  HN ES       1542 48.55                             118    0.36 8  246 194 
 CHI  HZ I        1542 52.03         5.3 0.50            117            246 194 
 GUY2CHZ EP   4   1542 26.44                             113    1.86 0  296 234 
 GUY2CHE ES   4   1543  1.21                             113    2.97 0  296 234 
 GUY2CHZ I        1543  7.17         4.0 0.28                           296 234 
                                                                                
