 2016  826 1216 49.7 L   6.794 -73.138142.3  RSN 19 0.5 2.7LRSN                1
 GAP=100        1.12       3.5     3.4  5.1 -0.2650E+01  0.2339E+01  0.2032E+01E
 Epicentro: LOS SANTOS - SANTANDER                                             3
 ACTION:UPD 16-10-29 15:39 OP:rebc STATUS:               ID:20160826121649 L   I
 OLDACT:UP  16-08-26 23:20 OP:ar   STATUS:               ID:20160826120735d    3
 OLDACT:DUP 16-08-26 23:13 OP:ar   STATUS:               ID:20160826120735d    3
 2016-08-26-1208-00M.COL___377                                                 6
 STAT SP IPHASW D HRMM SECON CODA AMPLIT PERI AZIMU VELO AIN AR TRES W  DIS CAZ7
 BAR2 EZ IP     C 1217  8.88                             171    0.0110 22.8 192 
 BAR2 EZ ES       1217 23.03                             171   -0.8210 22.8 192 
 BAR2 EZ I        1217 24.98       211.9 0.20                          22.8 192 
 BRR  HZ IP     C 1217 10.83                             152    0.3310 72.3 299 
 BRR  HE ES       1217 27.62                             152    0.8610 72.3 299 
 BRR  HZ I        1217 28.86       125.0 0.20                          72.3 299 
 PAM  EZ EP       1217 11.85                             150    0.3410 77.4  39 
 PAM  EE ES       1217 28.83                             150    0.2710 77.4  39 
 PAM  EZ I        1217 30.84        66.5 0.40                          77.4  39 
 RUS  HZ EP       1217 12.88                             143   -0.1410 99.8 177 
 RUS  HE ES       1217 31.18                             143   -0.0610 99.8 177 
 RUS  HZ I        1217 32.31        65.7 0.22                          99.8 177 
 PTB  HZ EP       1217 15.62                             131   -0.80 9  148 259 
 PTB  HE ES       1217 36.59                             131   -0.69 9  148 259 
 PTB  HZ I        1217 39.91        74.2 0.20                           148 259 
 TAM  HZ IP     D 1217 17.19                             130    0.22 9  154 105 
 SPBC HZ EP       1217 17.79                             128   -0.11 9  163 219 
 SPBC HN ES       1217 40.23                             128    0.31 9  163 219 
 SPBC HZ I        1217 43.49        88.2 0.18                           163 219 
 ZAR  HZ EP       1217 22.38                             121    0.39 9  205 292 
 ZAR  HN ES       1217 47.31                             121    0.09 9  205 292 
 ZAR  HZ I        1217 49.87        68.5 0.30                           205 292 
 NOR  HZ EP       1217 24.91                             118   -0.31 8  235 235 
 NOR  HE ES       1217 52.50                             118   -0.46 8  235 235 
 NOR  HZ I        1217 57.08        52.4 0.20                           235 235 
 CHI  HZ EP       1217 27.15                             116    0.03 8  248 195 
 CHI  HN ES       1217 56.57                             116    0.23 8  248 195 
 CHI  HZ I        1218  3.61        14.5 0.36                           248 195 
 HEL  HZ EP   4   1217 31.23                             114    1.46 0  273 256 
 HEL  HN ES   4   1217 58.09                             114   -2.97 0  273 256 
 HEL  HZ I        1218  8.65        23.3 0.52                           273 256 
 URE  HZ EP       1217 30.02                             113   -0.66 7  285 292 
 URE  HE ES   4   1217 59.91                             113   -2.77 0  285 292 
 URE  HZ I        1218  3.15        44.0 0.14                           285 292 
 SOCV BZ EP       1217 31.64                             111   -0.87 7  301  57 
 GUY2CHZ EP       1217 33.55                             112    0.40 7  301 235 
 GUY2CHN ES       1218  7.80                             112    0.74 7  301 235 
 GUY2CHZ I        1218 15.47        34.1 0.42                           301 235 
 ELA  HZ EP   9   1217 38.21                             110    1.82 0  329 230 
 ELA  HN ES       1218 14.50                             109   -0.16 7  329 230 
 ELA  HZ I        1218 21.12        17.7 0.44                           329 230 
 CBOC HZ EP       1217 37.16                             109    0.66 7  334 252 
 CBOC HN ES       1218 12.43                             109   -0.61 7  334 252 
 CBOC HZ I        1218 24.66        16.5 0.78                           334 252 
 ANIL HZ EP   9   1217 41.11                             108    1.76 0  357 225 
 ANIL HN ES       1218 19.68                             107   -0.18 6  357 225 
 PRA  HZ EP       1217 43.19                             106    0.15 6  392 210 
 PRA  HN ES       1218 25.56                             106    0.88 6  392 210 
 PRA  HZ I        1218 31.48        15.2 0.24                           392 210 
 SJC  HZ EP   4   1217 43.27                             105   -1.97 0  410 327 
 SJC  HN ES   4   1218 23.91                             105   -4.67 0  410 327 
 SJC  HZ I        1218 31.49         5.4 0.22                           410 327 
                                                                                
