 2013  726 1439 28.4 L   6.730 -73.168149.1  RSN  5 0.4 1.7LRSN                1
 GAP=229        0.95       7.6     7.1  8.6  0.3444E+02  0.3670E+01 -0.2977E+01E
 Epicentro: VILLANUEVA - SANTANDER                                             3
 ACTION:UPD 13-08-12 10:40 OP:ep   STATUS:               ID:20130726143928 L   I
 OLDACT:REG 13-07-26 19:17 OP:mh   STATUS:               ID:20130726143750     3
 2013-07-26-1437-50M.COL___233                                                 6
 STAT SP IPHASW D HRMM SECON CODA AMPLIT PERI AZIMU VELO AIN AR TRES W  DIS CAZ7
 BAR2 SZ EP   1   1439 47.91                             174   -0.37 7 15.3 186 
 BAR2 SZ ES   1   1440  3.17                             174   -0.63 7 15.3 186 
 BAR2 SZ I        1440  4.86         7.9 0.16            167           15.3 186 
 BRR  HZ EP       1439 49.92                             152   -0.0810 73.2 305 
 BRR  HN ES       1440  7.50                             152    0.6310 73.2 305 
 BRR  HN I        1440 10.78        27.1 0.16            150           73.2 305 
 RUS  HZ EP       1439 52.40                             147    0.4610 93.1 174 
 RUS  HN ES       1440 10.21                             147   -0.1110 93.1 174 
 RUS  HN I        1440 11.63         3.4 0.40            146           93.1 174 
 PTB  HZ EP   1   1439 55.21                             134   -0.08 7  144 262 
 PTB  HN ES       1440 16.35                             134    0.07 9  144 262 
 PTB  HZ I        1440 24.46         4.8 0.24            131            144 262 
 ZAR  HE ES       1440 26.17                             123   -0.50 9  205 294 
                                                                                
