 2015 1026 1501 25.0 L   6.783 -73.118151.6  RSN 13 0.4 2.3LRSN                1
 GAP= 68        0.79       3.1     3.3  4.4  0.2001E+01  0.3076E+01  0.2447E+01E
 Epicentro: LOS SANTOS - SANTANDER                                             3
 ACTION:UPD 15-12-22 20:43 OP:cam  STATUS:               ID:20151026150125 L   I
 OLDACT:UP  15-11-01 03:32 OP:DRIO STATUS:               ID:20151026150125 L   3
 OLDACT:REG 15-10-26 22:01 OP:cara STATUS:               ID:20151026145749     3
 2015-10-26-1457-49M.COL___313                                                 6
 STAT SP IPHASW D HRMM SECON CODA AMPLIT PERI AZIMU VELO AIN AR TRES W  DIS CAZ7
 BAR2 EZ EP     C 15 1 45.29                             171   -0.0710 22.3 199 
 BAR2 EZ ES       15 2  0.87                             171   -0.3310 22.3 199 
 BAR2 EZ I        15 2  1.91        27.3 0.36            168           22.3 199 
 BRR  HZ EP       15 1 47.27                             152    0.2410 74.8 299 
 BRR  HN ES       15 2  4.71                             152    0.5410 74.8 299 
 BRR  HZ I        15 2  8.97        27.7 0.18            155           74.8 299 
 PAM  EZ EP       15 1 48.16                             152    0.3110 76.9  37 
 PAM  EN ES       15 2  5.39                             152   -0.2610 76.9  37 
 PAM  EZ I        15 2  7.35        21.7 0.20            150           76.9  37 
 RUS  HZ EP       15 1 49.23                             145   -0.0010 98.6 178 
 RUS  HE ES   2   15 2  7.67                             145   -0.43 5 98.6 178 
 RUS  HZ I        15 2  8.92        15.6 0.42            142           98.6 178 
 TAM  HZ EP   2   15 1 53.19                             132    0.31 5  152 105 
 TAM  HE ES   2   15 2 15.38                             132    0.80 5  152 105 
 TAM  HZ I        15 2 37.05        23.0 0.40            129            152 105 
 SPBC HZ EP       15 1 54.23                             130    0.18 9  164 220 
 SPBC HN ES   2   15 2 17.08                             130    0.41 5  164 220 
 ZAR  HZ EP       15 1 57.89                             123   -0.35 8  208 292 
 ZAR  HE ES       15 2 23.67                             123   -0.46 8  208 292 
 ZAR  HZ I        15 2 29.69        27.5 0.52            123            208 292 
 NOR  HZ EP   2   15 2  1.30                             119    0.03 4  236 235 
 NOR  HE ES   2   15 2 29.47                             119   -0.06 4  236 235 
 NOR  HZ I        15 2 32.92        19.5 0.18            118            236 235 
 SML  HZ EP       15 2  2.00                             118   -0.32 8  247 335 
 SML  HN ES       15 2 31.53                             118    0.13 8  247 335 
 SML  HZ I        15 2 34.91        33.3 0.10            118            247 335 
 PTGC HZ EP     C 15 2  8.08                             113   -0.77 7  306 159 
 MON  HZ EP   9   15 2 12.60                             109   -2.09 0  357 308 
 MON  HE ES       15 2 51.00                             109   -0.32 6  357 308 
 MON  HZ I        15 2 53.84         5.4 0.27            109            357 308 
 ANIL HE ES   4   15 2 57.88                             109    3.60 0  358 225 
 ORTC HN ES   4   15 3  2.86                             107    1.40 0  396 217 
 ORTC HZ I        15 3 10.55         6.6 0.44            106            396 217 
 PAL  HZ EP       15 2 21.45                             107    0.85 6  407 240 
 PAL  HN ES   2   15 3  4.09                             107    0.15 3  407 240 
 PAL  HZ I        15 3 22.05         8.2 0.10            106            407 240 
                                                                                
