 2015 1126 1710 28.2 L   6.810 -73.135149.9  RSN  8 0.4 2.0LRSN                1
 GAP=153        0.97       4.5     4.4  6.2 -0.5901E+01  0.6688E+01 -0.2505E+01E
 Epicentro: LOS SANTOS - SANTANDER                                             3
 ACTION:UPD 15-12-28 16:13 OP:cam  STATUS:               ID:20151126171028 L   I
 OLDACT:REG 15-11-26 20:41 OP:ak   STATUS:               ID:20151126170748     3
 2015-11-26-1707-48M.COL___310                                                 6
 STAT SP IPHASW D HRMM SECON CODA AMPLIT PERI AZIMU VELO AIN AR TRES W  DIS CAZ7
 BAR2 EZ EP       1710 48.28                             170   -0.1210 24.6 192 
 BAR2 EZ ES       1711  3.72                             170   -0.3910 24.6 192 
 BAR2 EZ I        1711  5.99        16.0 0.26            171           24.6 192 
 BRR  HZ EP       1710 50.34                             153    0.4710 71.8 297 
 BRR  HN ES       1711  7.22                             153    0.4810 71.8 297 
 PAM  EZ EP       1710 51.05                             152    0.2410 75.8  39 
 PAM  EE ES       1711  8.45                             152    0.0510 75.8  39 
 PAM  EZ I        1711 10.46        12.2 0.20            154           75.8  39 
 PTB  HZ EP       1710 55.22                             133   -0.46 9  149 259 
 PTB  HN ES       1711 16.37                             133   -0.70 9  149 259 
 PTB  HZ I        1711 23.91        10.5 0.24            133            149 259 
 ZAR  HN ES       1711 27.01                             123    0.40 9  205 292 
 NOR  HZ EP       1711  4.54                             119    0.15 8  236 234 
 NOR  HE ES       1711 33.10                             119    0.52 8  236 234 
 NOR  HZ I        1711 36.13         7.2 0.22            120            236 234 
 SML  HZ EP       1711  4.75                             118   -0.30 8  243 335 
 SML  HN ES       1711 33.36                             118   -0.40 8  243 335 
 SML  HZ I        1711 39.30        16.0 0.08            119            243 335 
 GUY2CHZ EP   9   1711 14.71                             113    2.48 0  303 235 
 GUY2CHE ES       1711 49.12                                    0.10 7  303 235 
 GUY2CHZ I        1711 55.52         4.4 0.37                           303 235 
                                                                                
