 2012 1126 1204 47.5 L   6.787 -73.171145.8  RSN  8 0.2 2.0LRSN                1
 GAP=179        0.55       2.6     3.2  4.5  0.3204E+01  0.6154E+00 -0.3487E+01E
 Epicentro: LOS SANTOS - SANTANDER                                             3
 ACTION:UPD 12-12-05 15:36 OP:}ep  STATUS:               ID:20121126120447 L   I
 2012-11-26-1200-00M.COL___233                                                 6
 STAT SP IPHASW D HRMM SECON CODA AMPLIT PERI AZIMU VELO AIN AR TRES W  DIS CAZ7
 BAR2 SZ EP       12 5  7.25                             171    0.1810 21.6 183 
 BAR2 SZ ES   1   12 5 22.38                             171    0.03 7 21.6 183 
 BAR2 SZ I        12 5 24.03        27.7 0.25                          21.6 183 
 GIR2 SZ EP       12 5  7.29                             167    0.1110 32.4 356 
 RUS  HZ EP       12 5 11.20                             144    0.0610 99.4 174 
 RUS  HN ES       12 5 29.34                             144   -0.2610 99.4 174 
 RUS  HN I        12 5 30.43        16.9 0.40                          99.4 174 
 PTB  HZ EP       12 5 13.96                             133   -0.21 9  145 259 
 PTB  HN ES       12 5 35.20                             133    0.21 9  145 259 
 PTB  HZ I        12 5 40.45         9.1 0.26                           145 259 
 ZAR  HZ EP   1   12 5 19.71                             123    0.00 6  202 293 
 ZAR  HN ES       12 5 44.65                             123   -0.20 9  202 293 
 ZAR  HZ I        12 5 52.37        13.8 0.30                           202 293 
 SML  HZ EP       12 5 23.64                             117   -0.48 8  244 336 
 SML  HN ES       12 5 53.05                             117    0.35 8  244 336 
 SML  HZ I        12 5 56.23        14.0 0.07                           244 336 
 CHI  HZ EP   1   12 5 25.11                             117    0.17 6  247 195 
 CHI  HZ I        12 5 58.69         2.0 0.31                           247 195 
 PRA  HZ EP   1   12 5 41.01                             107    0.32 4  389 209 
                                                                                
