 2012  726 1111 36.2 L   6.781 -73.168140.7  RSN  5 0.3 1.5LRSN                1
 GAP=135        0.86       5.7     5.5  7.9 -0.4038E+01  0.3572E+01 -0.1410E+01E
 Epicentro: LOS SANTOS - SANTANDER                                             3
 ACTION:UPD 12-08-14 11:45 OP:ep   STATUS:               ID:20120726111136 L   I
 2012-07-26-1110-00M.COL___215                                                 6
 STAT SP IPHASW D HRMM SECON CODA AMPLIT PERI AZIMU VELO AIN AR TRES W  DIS CAZ7
 BAR2 SZ IP       1111 55.11                             171    -0.110   21 184 
 BAR2 SZ I        1111 55.28        11.4 0.40            171             21 184 
 BAR2 SZ ES   1   1112  9.46                             171    -0.5 7   21 184 
 BRR  HZ IP     C 1111 56.99                             152     0.310   70 301 
 BRR  HZ I        1111 57.48        17.1 0.12            151             70 301 
 BRR  HN ES   1   1112 13.21                             152     0.5 7   70 301 
 PAM  SZ EP       1111 58.19                             149     0.110   81  40 
 PAM  SN ES   1   1112 14.85                             149    -0.3 7   81  40 
 PAM  SZ I        1112 16.00         3.6 0.18            150             81  40 
 RUS  HZ EP   1   1111 59.38                             143     0.1 7   99 175 
 RUS  HZ I        1111 59.91         3.3 0.10            144             99 175 
 RUS  HN ES   1   1112 17.69                             143     0.4 7   99 175 
 PTB  HZ EP   1   1112  1.86                             131    -0.6 7  145 259 
 PTB  HN ES   1   1112 22.89                             131    -0.1 7  145 259 
 PTB  HZ I        1112 25.10         3.1 0.20            131            145 259 
