 2016  926 1333 41.9 L   6.886 -73.060147.4  RSN 13 0.4 2.1LRSN                1
 GAP=143        1.07       7.0     6.8  5.6  0.1588E+02  0.5073E+01  0.8079E+01E
 Epicentro: PIEDECUESTA - SANTANDER                                            3
 ACTION:UPD 17-08-17 21:16 OP:lp   STATUS:               ID:20160926133341 L   I
 OLDACT:UP  16-09-27 00:07 OP:edw  STATUS:               ID:20160926132745     3
 OLDACT:UP  16-09-27 00:06 OP:edw  STATUS:               ID:20160926132745     3
 OLDACT:UP  16-09-27 00:04 OP:edw  STATUS:               ID:20160926132745     3
 OLDACT:UP  16-09-27 00:02 OP:edw  STATUS:               ID:20160926132745     3
 OLDACT:REG 16-09-26 20:14 OP:edw  STATUS:               ID:20160926132745     3
 2016-09-26-1328-00M.COL___333                                                 6
 STAT SP IPHASW D HRMM SECON CODA AMPLIT PERI AZIMU VELO AIN AR TRES W  DIS CAZ7
 BAR2 EZ EP       1334  2.52                             167    0.5010 35.2 203 
 BAR2 EZ ES       1334 17.97                             167    0.2610 35.2 203 
 BAR2 EZ I        1334 18.70        22.6 0.22            167           35.2 203 
 PAM  EZ EP   9   1334  5.54                             154    1.98 0 64.1  38 
 PAM  EN ES       1334 22.48                             159    0.0510 64.1  38 
 PAM  EZ I        1334 24.64        30.2 0.52            154           64.1  38 
 BRR  HZ EP   9   1334  4.49                             152    0.99 0 76.0 289 
 BRR  HN ES       1334 21.48                             151    0.1410 76.0 289 
 RUS  HZ EP       1334  6.70                             142    0.2110  110 181 
 RUS  HN ES       1334 25.03                             142   -0.6510  110 181 
 RUS  HZ I        1334 26.35        14.9 0.28            145            110 181 
 OCA  HZ EP   4   1334  8.45                             131   -1.15 0  152 349 
 OCA  HN ES   4   1334 29.59                             131   -1.62 0  152 349 
 OCA  HZ I        1334 36.08        20.1 0.16            129            152 349 
 PTB  HZ EP   9   1334  9.35                             130   -0.68 0  159 256 
 PTB  HN ES       1334 30.40                             132   -0.89 9  159 256 
 PTB  HZ I        1334 35.44         9.4 0.13            129            159 256 
 SPBC HZ EP       1334 11.33                             127   -0.47 9  176 219 
 SPBC HN ES   4   1334 33.33                             127   -1.79 0  176 219 
 SPBC HZ I        1334 38.27        18.4 0.26            128            176 219 
 ZAR  HZ EP   4   1334 16.78                             122    1.76 0  210 289 
 ZAR  HN ES       1334 40.71                             122   -0.14 8  210 289 
 ZAR  HZ I        1334 47.45         7.6 0.10            121            210 289 
 NOR  HZ EP       1334 19.15                             118    0.01 8  248 234 
 NOR  HN ES   4   1334 46.65                             118   -1.54 0  248 234 
 NOR  HZ I        1334 52.10         9.5 0.16            117            248 234 
 CHI  HZ EP       1334 20.76                             116   -0.20 8  260 197 
 CHI  HN ES   4   1334 50.10                             116   -1.33 0  260 197 
 CHI  HZ I        1334 55.65         4.7 0.22            117            260 197 
 ROSC BZ EP       1334 21.25                             116   -0.28 8  266 212 
 ROSC BN ES     C 1334 53.16                             116    0.72 8  266 212 
 HEL  HZ EP   4   1334 26.65                             114    3.17 0  284 254 
 HEL  HN ES   4   1334 54.19                             114   -1.72 0  284 254 
 HEL  HZ I        1335  0.32         6.0 0.48            114            284 254 
 GUY2CHZ EP   4   1334 28.27                             112    1.20 0  314 234 
 GUY2CHN ES   4   1335  4.75                             112    2.44 0  314 234 
 GUY2CHZ I        1335  8.76         5.2 0.31                           314 234 
 SJC  HZ EP   4   1334 37.22                             106    0.01 0  407 325 
 SJC  HN ES   4   1335 17.57                             106   -2.78 0  407 325 
                                                                                
