 2011  226 1053  9.9 L   6.768 -73.053144.5  RSN  5 0.2 1.9LRSN                1
 GAP=133        0.50       2.9     9.4  5.2 -0.9901E+01 -0.1965E+02 -0.2458E+01E
 Epicentro: LOS SANTOS - SANTANDER                                             3
 ACTION:UP  11-03-28 15:11 OP:jfem STATUS:               ID:20110226105309 L   I
 2011-02-26-1050-41S.COL___136                                                 6
 STAT SP IPHASW D HRMM SECON CODA AMPLIT PERI AZIMU VELO SNR AR TRES W  DIS CAZ7
 BAR2 SZ IP       1053 29.33                             170     0.010   24 217 
 BAR2 SZ ES   1   1053 44.32                             170    -0.3 7   24 217 
 BAR2 SZ I        1053 45.47        25.2 0.41                            24 217 
 RUS  HZ EP       1053 33.22                             145     0.010   97 182 
 RUS  HN ES   1   1053 51.55                             145     0.1 7   97 182 
 RUS  HZ I        1053 53.68         8.7 0.42                            97 182 
 GRA  SZ EP       1053 35.29                             136     0.210  127  13 
 GRA  SZ ES   1   1053 54.86                             136     0.1 7  127  13 
 GRA  SZ I        1053 55.75         8.2 0.48                           127  13 
 OCA  SZ EP   1   1053 38.55                             128     0.0 7  165 350 
 OCA  SZ ES   3   1053 59.97                             128    -1.0 2  165 350 
 OCA  SZ I        1054  3.11        11.4 0.48                           165 350 
 SDV  BZ EP       1053 58.99                             108    -0.2 6  355  49 
                                                                                
