 2016  926 1955  8.3 L   6.797 -73.172126.0  RSN  6 0.3 1.6LRSN                1
 GAP=133        0.69       3.0     3.1  6.5 -0.9524E+00  0.1011E+02  0.3020E+00E
 Epicentro: LOS SANTOS - SANTANDER                                             3
 ACTION:UPD 17-08-17 21:16 OP:lp   STATUS:               ID:20160926195508 L   I
 OLDACT:DUP 16-09-27 01:31 OP:cara STATUS:               ID:20160926194325d    3
 OLDACT:REG 16-09-26 20:52 OP:edw  STATUS:               ID:20160926194324     3
 2016-09-26-1948-00M.COL___342                                                 6
 STAT SP IPHASW D HRMM SECON CODA AMPLIT PERI AZIMU VELO AIN AR TRES W  DIS CAZ7
 BRR  HZ EP       1955 27.22                             150    0.0510 68.8 300 
 PAM  EZ IP       1955 28.18                             146   -0.3810 79.5  41 
 PAM  EN ES       1955 44.75                             146    0.3610 79.5  41 
 PAM  EZ I        1955 47.27         6.1 0.32            150           79.5  41 
 RUS  HZ EP       1955 29.86                             139   -0.2710  101 174 
 RUS  HE ES       1955 47.28                             139    0.1110  101 174 
 RUS  HZ I        1955 48.62         4.2 0.48            145            101 174 
 PTB  HZ EP       1955 33.24                             128   -0.18 9  145 259 
 PTB  HN ES       1955 52.74                             128   -0.30 9  145 259 
 PTB  HZ I        1955 55.67         6.9 0.40            131            145 259 
 ZAR  HZ EP       1955 39.53                             118    0.30 9  201 293 
 ZAR  HN ES       1956  3.31                             118   -0.07 9  201 293 
 ZAR  HZ I        1956  9.11         6.6 0.34            121            201 293 
 GUY2CHZ EP       1955 50.98                             109    0.23 7  299 234 
 GUY2CHN ES       1956 24.37                             109    0.49 7  299 234 
 GUY2CHZ I        1956 29.62         1.8 0.58                           299 234 
                                                                                
