 2010  126 1324 15.3 L   6.799 -73.019145.7  RSN  4 0.3 2.0LRSN                1
 GAP=326        0.50       6.1    16.8  5.9 -0.4029E+02  0.3265E+02  0.2462E+01E
 Epicentro: LOS SANTOS - SANTANDER                                             3
 ACTION:UP  10-08-24 09:45 OP:vdl  STATUS:               ID:20100126132415 L   I
 2010-01-26-1320-20S.COL___094                                                 6
 STAT SP IPHASW D HRMM SECON CODA AMPLIT PERI AZIMU VELO SNR AR TRES W  DIS CAZ7
 BAR2 SZ EP       1324 35.18                             168     0.210   29 218 
 BAR2 SZ ES   1   1324 50.19                             168    -0.2 7   29 218 
 RUS  BZ EP   2   1324 39.14                             144     0.1 5  101 184 
 RUS  BE ES   1   1324 57.48                             144     0.0 7  101 184 
 RUS  BZ I        1324 59.12        10.6 0.23                           101 184 
 CHI  HZ EP   1   1324 53.31                             116    -0.1 6  253 198 
 CHI  HE ES   2   1325 23.17                             116     0.1 4  253 198 
 CHI  HZ I        1325 29.73         4.4 0.32                           253 198 
 PRA  HZ EP   2   1325  8.69                             106    -0.9 3  399 211 
 PRA  HN ES   2   1325 52.58                             106     0.6 3  399 211 
 PRA  HZ I        1325 57.63         5.5 0.39                           399 211 
                                                                                
