 2016 1126 1055  6.4 L   6.728 -73.132142.3  RSN  6 0.3 1.8LRSN                1
 GAP=165        0.86       5.2     4.1  6.1 -0.4237E+01  0.6749E+01  0.4740E+01E
 Epicentro: JORDAN - SANTANDER                                                 3
 ACTION:UPD 17-10-26 21:12 OP:lp   STATUS:               ID:20161126105506 L   I
 OLDACT:REG 16-11-26 20:47 OP:cara STATUS:               ID:20161126104137     3
 2016-11-26-1048-00M.COL___346                                                 6
 STAT SP IPHASW D HRMM SECON CODA AMPLIT PERI AZIMU VELO AIN AR TRES W  DIS CAZ7
 BAR2 EZ IP       1055 25.73                             173    0.2710 16.0 200 
 BAR2 EZ ES       1055 40.41                             173    0.0610 16.0 200 
 BAR2 EZ I        1055 41.42        20.8 0.20            171           16.0 200 
 BRR  HZ IP       1055 27.77                             150    0.3010 76.6 303 
 BRR  HN ES       1055 44.45                             150    0.5210 76.6 303 
 BRR  HZ I        1055 46.68        12.1 0.36            149           76.6 303 
 PAM  EZ EP     C 1055 28.56                             148   -0.0010 82.8  35 
 PAM  EN ES       1055 45.38                             148   -0.4910 82.8  35 
 PAM  EZ I        1055 47.60        11.8 0.54            151           82.8  35 
 PTB  HZ EP       1055 32.64                             131   -0.44 9  148 262 
 PTB  HN ES       1055 53.45                             131   -0.46 9  148 262 
 PTB  HZ I        1055 55.73         7.1 0.28            130            148 262 
 ZAR  HZ EP       1055 39.33                             121    0.26 8  209 294 
 ZAR  HN ES       1056  4.42                             121   -0.15 8  209 294 
 ZAR  HZ I        1056 10.34         6.6 0.28            121            209 294 
 PRA  HE ES       1056 40.21                             106    0.07 6  386 210 
 PRA  HZ I        1056 49.11         2.1 0.38            106            386 210 
                                                                                
