 2014  926 1102 53.4 L   6.824 -73.170143.9  RSN  9 0.3 1.8LRSN                1
 GAP=132        0.79       2.5     3.4  5.2 -0.6344E-01  0.6727E+01 -0.7934E+00E
 Epicentro: LOS SANTOS - SANTANDER                                             3
 ACTION:UPD 14-10-03 23:08 OP:nd   STATUS:               ID:20140926110253 L   I
 OLDACT:UP  14-09-26 21:24 OP:cam  STATUS:               ID:20140926110000     3
 OLDACT:REG 14-09-26 20:18 OP:cam  STATUS:               ID:20140926110000     3
 2014-09-26-1100-00M.COL___252                                                 6
 STAT SP IPHASW D HRMM SECON CODA AMPLIT PERI AZIMU VELO AIN AR TRES W  DIS CAZ7
 BAR2 SZ EP       11 3 12.82                             169   -0.0510 25.6 183 
 BAR2 SZ ES       11 3 28.12                             169    0.0810 25.6 183 
 BAR2 SZ I        11 3 30.57        24.7 0.30            169           25.6 183 
 BRR  HZ EP       11 3 14.70                             153    0.5410 67.6 298 
 BRR  HN ES   4   11 3 31.78                             153    1.44 0 67.6 298 
 BRR  HZ I        11 3 36.29         9.8 0.30            152           67.6 298 
 PAM  SZ EP       11 3 15.77                             150    0.3610 77.1  42 
 PAM  SN ES       11 3 32.70                             150    0.1310 77.1  42 
 PAM  SZ I        11 3 34.94         7.2 0.52            156           77.1  42 
 RUS  HZ EP       11 3 16.93                             143   -0.2610  103 175 
 RUS  HN ES       11 3 35.41                             143   -0.3210  103 175 
 RUS  HZ I        11 3 37.05         4.2 0.54            147            103 175 
 PTB  HZ EP       11 3 19.58                             132   -0.46 9  146 258 
 PTB  HN ES       11 3 40.67                             132   -0.14 9  146 258 
 PTB  HZ I        11 3 47.48         6.6 0.40            133            146 258 
 ZAR  HZ EP       11 3 25.68                             122    0.30 9  201 292 
 ZAR  HN ES       11 3 50.10                             122   -0.22 9  201 292 
 ZAR  HZ I        11 3 55.90         7.5 0.36            124            201 292 
 SML  HZ EP       11 3 29.12                             117   -0.43 8  240 336 
 SML  HE ES       11 3 57.55                             117   -0.20 8  240 336 
 SML  HZ I        11 4  1.85         8.9 0.34            120            240 336 
 CHI  HZ EP       11 3 31.29                             116    0.08 8  250 194 
 CHI  HN ES       11 4  0.63                             116   -0.06 8  250 194 
 CHI  HZ I        11 4  5.65         4.2 0.30            120            250 194 
 GUY2CHN ES       11 4 11.46                             112    0.71 7  301 234 
                                                                                
