 2013 1126 1701 24.8 L   6.778 -73.150153.6  RSN 10 0.5 2.2LRSN                1
 GAP=151        0.88       4.3     4.5  5.6 -0.3281E+01  0.7318E+01  0.2012E+01E
 Epicentro: LOS SANTOS - SANTANDER                                             3
 ACTION:UPD 14-01-09 16:31 OP:ep   STATUS:               ID:20131126170124 L   I
 OLDACT:UP  13-11-26 16:13 OP:cam  STATUS:               ID:20131126170000     3
 OLDACT:REG 13-11-26 15:15 OP:cam  STATUS:               ID:20131126170000     3
 2013-11-26-1700-00M.COL___282                                                 6
 STAT SP IPHASW D HRMM SECON CODA AMPLIT PERI AZIMU VELO AIN AR TRES W  DIS CAZ7
 BAR2 SZ EP       17 1 45.27                             172   -0.0610 20.9 190 
 BAR2 SZ ES       17 2  1.19                             172   -0.1510 20.9 190 
 BAR2 SZ I        17 2  2.11        45.2 0.18            170           20.9 190 
 BRR  HZ EP   1   17 1 47.28                             154    0.44 7 72.0 300 
 BRR  HN ES       17 2  4.57                             154    0.5310 72.0 300 
 BRR  HZ I        17 2  8.34        20.1 0.22            151           72.0 300 
 PAM  SZ EP       17 1 48.29                             151    0.3110 79.5  39 
 PAM  SN ES       17 2  5.79                             151   -0.2710 79.5  39 
 PAM  SZ I        17 2  7.70        15.2 0.66            156           79.5  39 
 PTB  HZ EP       17 1 51.90                             134   -0.44 9  147 260 
 PTB  HN ES   1   17 2 13.15                             134   -0.67 7  147 260 
 ZAR  HZ EP       17 1 57.58                             124   -0.23 9  205 293 
 ZAR  HE ES   1   17 2 24.12                             124    0.55 6  205 293 
 ZAR  HZ I        17 2 28.75        11.8 0.20            124            205 293 
 NOR  HZ EP   1   17 2  0.96                             120    0.15 6  233 235 
 NOR  HN ES   1   17 2 28.88                             120   -0.02 6  233 235 
 NOR  HZ I        17 2 35.87        12.9 0.18            121            233 235 
 SML  HZ EP   2   17 2  2.38                             119    0.29 4  246 336 
 SML  HE ES   1   17 2 30.69                             119   -0.48 6  246 336 
 SML  HZ I        17 2 34.46        28.6 0.10            120            246 336 
 CHI  HZ EP   1   17 2  3.09                             119    0.41 6  246 195 
 CHI  HN ES   2   17 2 31.66                             119   -0.57 4  246 195 
 CHI  HZ I        17 2 35.21         3.5 0.54            120            246 195 
 GUY2CHZ EP   2   17 2 10.20                             114    1.62 4  299 235 
 SJC  HZ EP   1   17 2 19.92                             107   -0.91 4  411 327 
 SJC  HN ES   4   17 3  1.44                             107   -3.10 0  411 327 
                                                                                
