 2016  926 1958 11.4 L   6.768 -73.171142.0  RSN  9 0.3 2.1LRSN                1
 GAP=135        0.66       2.5     2.6  3.8 -0.1134E+01  0.3319E+01  0.9759E+00E
 Epicentro: LOS SANTOS - SANTANDER                                             3
 ACTION:UPD 17-08-17 21:16 OP:lp   STATUS:               ID:20160926195811 L   I
 OLDACT:REG 16-09-26 20:52 OP:edw  STATUS:               ID:20160926194324     3
 2016-09-26-1948-00M.COL___342                                                 6
 STAT SP IPHASW D HRMM SECON CODA AMPLIT PERI AZIMU VELO AIN AR TRES W  DIS CAZ7
 BAR2 EZ EP       1958 30.09                             172   -0.4510 19.5 184 
 BAR2 HE ES       1958 45.44                             172   -0.0110 19.5 184 
 BAR2 EZ I        1958 46.68        34.6 0.24            171           19.5 184 
 BRR  HZ IP       1958 32.33                             152    0.1910 70.5 302 
 BRR  HN ES       1958 48.76                             152    0.4710 70.5 302 
 BRR  HZ I        1958 52.45        19.3 0.28            152           70.5 302 
 PAM  EZ IP       1958 33.59                             149    0.0510 81.9  40 
 PAM  EE ES       1958 50.61                             149   -0.1610 81.9  40 
 PAM  EZ I        1958 52.63        21.1 0.44            153           81.9  40 
 RUS  HZ EP       1958 34.44                             144   -0.1510 97.3 174 
 RUS  HE ES       1958 53.00                             144    0.3610 97.3 174 
 RUS  HZ I        1958 54.20        17.7 0.26            146           97.3 174 
 PTB  HZ EP       1958 37.59                             132   -0.20 9  144 260 
 PTB  HE ES       1958 58.24                             132   -0.10 9  144 260 
 PTB  HZ I        1959  0.28        12.5 0.16            133            144 260 
 SPBC HZ EP       1958 39.33                             129    0.11 9  159 219 
 SPBC HE ES       1959  0.50                             129   -0.39 9  159 219 
 SPBC HZ I        1959  7.95        22.7 0.24            130            159 219 
 ZAR  HZ EP       1958 43.64                             122    0.13 9  203 293 
 ZAR  HN ES       1959  8.23                             122   -0.29 9  203 293 
 ZAR  HZ I        1959 13.59        14.1 0.28            123            203 293 
 NOR  HZ EP       1958 46.60                             118    0.12 8  230 235 
 NOR  HE ES       1959 13.75                             118   -0.07 8  230 235 
 NOR  HZ I        1959 19.11        10.0 0.32            120            230 235 
 GUY2CHZ EP       1958 54.79                             112    0.41 7  297 235 
 GUY2CHE ES       1959 28.03                             112    0.15 7  297 235 
 GUY2CHZ I        1959 36.70         6.3 0.36                           297 235 
                                                                                
