 2012  726 1746 11.8 L   6.764 -73.144142.0  RSN  5 0.5 1.5LRSN                1
 GAP=138        0.58      10.2     9.6  9.5  0.1296E+02 -0.6007E+01  0.2310E+02E
 Epicentro: LOS SANTOS - SANTANDER                                             3
 ACTION:UPD 12-08-14 11:45 OP:ep   STATUS:               ID:20120726174611 L   I
 2012-07-26-1740-00M.COL___215                                                 6
 STAT SP IPHASW D HRMM SECON CODA AMPLIT PERI AZIMU VELO AIN AR TRES W  DIS CAZ7
 BAR2 SZ EP   3   1746 30.96                             172     0.1 2   19 193 
 BAR2 SZ ES   3   1746 44.84                             172    -0.9 2   19 193 
 BAR2 SZ I        1746 46.67         9.6 0.30            167             19 193 
 BRR  HZ EP       1746 32.64                             151     0.010   73 301 
 BRR  HN ES   1   1746 49.18                             151     0.3 7   73 301 
 BRR  HZ I        1746 53.42        14.2 0.20            148             73 301 
 PAM  SZ EP   3   1746 33.78                             149     0.0 2   80  38 
 PAM  SZ I        1746 34.00         5.3 0.22            155             80  38 
 PAM  SN ES   3   1746 50.18                             149    -0.8 2   80  38 
 RUS  HZ EP   3   1746 35.83                             144     1.0 2   97 176 
 RUS  HN ES   3   1746 53.37                             144     0.5 2   97 176 
 RUS  HZ I        1746 54.84         2.5 0.34            145             97 176 
 PTB  HZ EP   2   1746 37.95                             132    -0.4 5  147 260 
 PTB  HN ES   3   1746 58.37                             132    -0.8 2  147 260 
 PTB  HZ I        1747  3.89         4.5 0.18            130            147 260 
