 2011  226 1015  7.2 L   6.804 -73.176142.6  RSN  4 0.1 1.2LRSN                1
 GAP=185        0.31       2.7    13.4  3.4 -0.2516E+02  0.3443E+01 -0.2077E+01E
 Epicentro: LOS SANTOS - SANTANDER                                             3
 ACTION:UP  11-03-28 15:11 OP:jfem STATUS:               ID:20110226101507 L   I
 2011-02-26-1013-19S.COL___136                                                 6
 STAT SP IPHASW D HRMM SECON CODA AMPLIT PERI AZIMU VELO SNR AR TRES W  DIS CAZ7
 BAR2 SZ EP       1015 26.52                             170     0.110   23 182 
 BAR2 SZ ES   1   1015 41.44                             170     0.0 7   23 182 
 BAR2 SZ I        1015 44.21         6.9 0.42                            23 182 
 RUS  HZ EP       1015 30.68                             143     0.010  101 174 
 RUS  HN ES   1   1015 48.98                             143     0.0 7  101 174 
 RUS  HZ I        1015 50.11         1.4 0.39                           101 174 
 GRA  SZ EP       1015 32.21                             136     0.010  126  19 
 GRA  SZ ES   2   1015 51.61                             136    -0.1 5  126  19 
 GRA  SZ I        1015 52.80         2.5 0.41                           126  19 
 CHI  HZ EP   2   1015 44.48                             116    -0.2 4  248 194 
 CHI  HZ I        1016 16.79         1.3 0.64                           248 194 
                                                                                
