 2012  226 1325 54.2 L   6.771 -73.153140.0  RSN 12 0.4 2.5LRSN                1
 GAP=137        0.89       3.7     5.0  5.7 -0.4054E+01  0.6795E+01  0.5627E+01E
 ACTION:UP  12-03-07 16:34 OP:epov STATUS:               ID:20120226132554 L   I
 2012-02-26-1320-00M.COL___192                                                 6
 STAT SP IPHASW D HRMM SECON CODA AMPLIT PERI AZIMU VELO AIN AR TRES W  DIS CAZ7
 BAR2 SZ IP       1326 12.97                             171   -0.0910 20.1 189 
 BAR2 SZ ES   1   1326 27.44                             171   -0.34 7 20.1 189 
 BAR2 SZ I        1326 29.21        74.7 0.26                          20.1 189 
 GIR2 SZ EP       1326 13.08                             165   -0.1810 34.3 352 
 GIR2 SZ ES   1   1326 28.69                             165    0.55 7 34.3 352 
 BRR  HZ EP       1326 14.86                             151    0.0910 72.1 301 
 BRR  HE ES   1   1326 31.78                             151    0.97 7 72.1 301 
 BRR  HZ I        1326 32.78        97.6 0.15                          72.1 301 
 PAM  SZ EP   1   1326 15.84                             149   -0.14 7 80.4  39 
 PAM  SZ I        1326 16.23        83.0 0.21                          80.4  39 
 PAM  SE ES   1   1326 32.89                             149   -0.08 7 80.4  39 
 RUS  HZ EP       1326 16.99                             143   -0.1610 97.5 175 
 RUS  HN ES   1   1326 35.05                             143    0.00 7 97.5 175 
 RUS  HZ I        1326 36.81        36.4 0.38                          97.5 175 
 PTB  HZ EP       1326 19.99                             131   -0.57 9  146 260 
 PTB  HN ES   1   1326 40.29                             131   -0.84 7  146 260 
 OCA  SZ EP   1   1326 22.36                             128    0.01 7  163 354 
 OCA  SZ ES   1   1326 44.17                             128   -0.14 7  163 354 
 NOR  SZ EP   1   1326 29.92                             117    0.60 6  232 235 
 NOR  SN ES   1   1326 56.44                             117   -0.28 6  232 235 
 CHI  HZ EP   1   1326 31.09                             116   -0.13 6  245 195 
 CHI  HZ I        1327  7.04        10.5 0.35                           245 195 
 ROSC BZ EP   1   1326 32.71                             116    1.05 6  250 211 
 HEL  HZ EP   1   1326 34.35                             114    0.41 6  271 256 
 HEL  HZ I        1327 12.32        25.5 0.52                           271 256 
 PRA  HZ EP       1326 47.46                             106    0.31 6  389 210 
 PRA  HN ES   1   1327 28.94                             106    0.49 4  389 210 
                                                                                
