 2010 1026 1435 40.2 L   6.767 -73.137145.1  RSN 13 0.5 2.5LRSN                1
 GAP=137        0.90       4.1     6.9  8.1 -0.4490E+01  0.1388E+02  0.4554E+01E
 Epicentro: LOS SANTOS - SANTANDER                                             3
 ACTION:UP  11-02-18 11:12 OP:tino STATUS:               ID:20101026143540 L   I
 2010-10-26-1432-20S.COL___125                                                 6
 STAT SP IPHASW D HRMM SECON CODA AMPLIT PERI AZIMU VELO SNR AR TRES W  DIS CAZ7
 BAR2 SZ IP     C 1435 59.59                             172    -0.110   20 195 
 BAR2 SZ ES   2   1436 14.43                             172    -0.4 5   20 195 
 BAR2 SZ I        1436 15.91        82.5 0.17                            20 195 
 BRR  HZ EP   1   1436  1.40                             152     0.0 7   74 301 
 BRR  HE ES   2   1436 18.72                             152     0.7 5   74 301 
 BRR  HZ I        1436 20.83        58.0 0.19                            74 301 
 RUS  HZ IP     D 1436  3.53                             145    -0.110   97 177 
 RUS  HN ES   2   1436 22.13                             145     0.3 5   97 177 
 RUS  HZ I        1436 24.19        50.3 0.47                            97 177 
 GUE  SZ EP   1   1436  4.97                             138    -0.1 7  120  11 
 GRA  SZ EP   1   1436  6.67                             136     1.0 7  129  17 
 GRA  SZ ES   2   1436 24.84                             136    -0.6 5  129  17 
 GRA  SZ I        1436 27.37        32.8 0.27                           129  17 
 OCA  SZ EP   1   1436  8.29                             129    -0.5 7  164 353 
 OCA  SZ I        1436 34.69        33.5 0.42                           164 353 
 YOP  SZ EP   1   1436 10.23                             127     0.4 7  175 153 
 YOP  SZ ES   2   1436 32.26                             127    -0.7 4  175 153 
 NOR  SZ EP   1   1436 15.17                             118    -0.6 6  234 235 
 NOR  SN ES   2   1436 43.46                             118     0.0 4  234 235 
 CHI  HZ EP   1   1436 17.71                             117     0.2 6  245 196 
 CHI  HZ I        1436 20.40        14.6 0.48                           245 196 
 CHI  HE ES   2   1436 47.03                             117     0.4 4  245 196 
 ROSC BZ EP   1   1436 18.38                             117     0.4 6  250 212 
 ROSC BZ I        1436 55.03        18.7 0.55                           250 212 
 HEL  HZ EP   1   1436 20.27                             115    -0.1 6  272 257 
 HEL  HZ I        1436 57.06        16.0 0.73                           272 257 
 RREF HZ EP   1   1436 25.75                             111    -0.4 5  320 230 
 RREF HZ I        1437 11.80        25.7 0.36                           320 230 
 PRA  HZ EP   1   1436 32.87                             106    -0.5 4  389 210 
 PRA  HE ES   2   1437 15.89                             106     1.0 3  389 210 
                                                                                
