 2016  826 1808 49.7 L   7.007 -73.220143.4  RSN 25 0.7 2.7LRSN                1
 GAP= 61        1.34       2.6     3.0  5.2 -0.1801E+01  0.3269E+01  0.3358E+00E
 Epicentro: GIRON - SANTANDER                                                  3
 ACTION:UPD 16-10-29 15:39 OP:rebc STATUS:               ID:20160826180849 L   I
 OLDACT:UP  16-08-26 23:13 OP:edw  STATUS:               ID:20160826180735     3
 OLDACT:REG 16-08-26 21:49 OP:ar   STATUS:               ID:20160826180735     3
 2016-08-26-1808-00M.COL___371                                                 6
 STAT SP IPHASW D HRMM SECON CODA AMPLIT PERI AZIMU VELO AIN AR TRES W  DIS CAZ7
 BAR2 EZ EP       18 9  9.56                             161   -0.2010 46.1 175 
 BAR2 EZ ES       18 9 25.57                             161    0.1910 46.1 175 
 BAR2 EZ I        18 9 26.67       157.2 0.34                          46.1 175 
 BRR  HZ IP     C 18 9 10.50                             158    0.6910 55.5 282 
 BRR  HE ES       18 9 26.22                             158    0.7510 55.5 282 
 BRR  HZ I        18 9 28.29        93.9 0.16                          55.5 282 
 PAM  EZ EP       18 9 11.94                             153    0.7710 68.2  57 
 PAM  EN ES       18 9 28.15                             153    0.2610 68.2  57 
 PAM  EZ I        18 9 30.82       105.4 0.46                          68.2  57 
 RUS  HZ EP   4   18 9 12.30                             137   -2.80 0  124 173 
 RUS  HN ES       18 9 34.69                             137   -0.1910  124 173 
 RUS  HZ I        18 9 36.27        45.1 0.38                           124 173 
 OCA  HZ EP   4   18 9 11.31                             134   -4.39 0  137 355 
 OCA  HZ ES       18 9 35.63                             134   -0.32 9  137 355 
 OCA  HZ I        18 9 39.31       129.6 0.20                           137 355 
 PTB  HZ EP       18 9 16.06                             132   -0.30 9  146 249 
 PTB  HN ES       18 9 36.73                             132   -0.40 9  146 249 
 PTB  HZ I        18 9 37.98        73.0 0.22                           146 249 
 TAM  HZ EP       18 9 18.75                             127    0.10 9  170 112 
 TAM  HN ES       18 9 40.81                             127   -0.40 9  170 112 
 SPBC HZ EP       18 9 19.01                             126   -0.39 9  177 212 
 SPBC HN ES       18 9 42.19                             126   -0.35 9  177 212 
 SPBC HZ I        18 9 46.53        33.4 0.14                           177 212 
 ZAR  HZ EP       18 9 20.54                             124    0.09 9  189 287 
 ZAR  HN ES       18 9 44.49                             124    0.08 9  189 287 
 ZAR  HZ I        18 9 50.35        69.2 0.10                           189 287 
 NOR  HZ EP       18 9 25.87                             117   -0.30 8  242 229 
 NOR  HN ES       18 9 52.99                             117   -1.59 8  242 229 
 NOR  HZ I        1810  0.24        27.4 0.32                           242 229 
 URE  HZ EP       18 9 28.92                             115   -0.03 8  268 288 
 URE  HE ES       18 9 59.46                             115   -0.09 8  268 288 
 URE  HZ I        1810  8.25        50.0 0.22                           268 288 
 CHI  HZ EP       18 9 29.58                             115    0.04 8  269 192 
 CHI  HN ES       18 9 59.85                             115   -0.73 8  269 192 
 CHI  HZ I        1810  9.16        14.4 0.40                           269 192 
 ROSC BZ EP       18 9 29.38                             115   -0.11 8  269 207 
 ROSC HN ES       1810  1.07                             115    0.56 8  269 207 
 ROSC BZ I        1810  4.57        22.3 0.35                           269 207 
 HEL  HZ EP       18 9 29.82                             114    0.13 8  271 251 
 HEL  HN ES       1810  0.72                             114   -0.13 8  271 251 
 HEL  HZ I        1810  8.23        32.1 0.38                           271 251 
 SOCV BZ EP       18 9 32.05                             112   -0.09 7  297  61 
 SOCV BN ES       1810  4.38                             112   -0.83 7  297  61 
 LL6C HZ EP       18 9 32.58                             112   -0.11 7  302 359 
 LL6C HE ES       1810  7.75                             112    1.55 7  302 359 
 GUY2CHZ EP       18 9 34.24                             111    0.17 7  309 230 
 GUY2CHN ES       1810  9.01                             111    0.35 7  309 230 
 GUY2CHZ I        1810 19.48        26.9 0.60                           309 230 
 VIL  EZ EP       18 9 36.23                             110    0.79 7  324 189 
 VIL  EN ES       1810 10.45                             110   -0.64 7  324 189 
 CBOC HZ EP       18 9 37.30                             110    0.73 7  334 248 
 CBOC HN ES       1810 13.05                             110   -0.04 7  334 248 
 CBOC HZ I        1810 22.69         7.7 0.46                           334 248 
 ELA  HZ EP       18 9 39.35                             109    1.78 7  339 226 
 ELA  HN ES       1810 15.08                             109    0.20 7  339 226 
 ELA  HZ I        1810 23.30        14.8 0.58                           339 226 
 ANIL HZ EP       18 9 41.15                             107    0.40 6  369 221 
 ANIL HN ES       1810 20.83                             107    0.28 6  369 221 
 ANIL HZ I        1810 27.96        41.7 0.32                           369 221 
 SJC  HZ EP       18 9 41.96                             106   -0.48 6  386 326 
 SJC  HN ES       1810 21.20                             106   -2.36 6  386 326 
 SJC  HZ I        1810 26.39        10.0 0.36                           386 326 
 PRA  HZ EP       18 9 45.42                             105    0.33 6  408 207 
 PRA  HN ES       1810 28.00                             105   -0.26 6  408 207 
 PRA  HZ I        1810 35.50        20.9 0.36                           408 207 
 PAL  HZ EP       18 9 46.09                             105    0.64 6  411 236 
 PAL  HN ES       1810 28.71                             105   -0.21 6  411 236 
 PAL  HZ I        1810 31.96         8.1 0.28                           411 236 
 CRJC HZ EP       18 9 48.42                             104   -1.10 5  445   5 
 CRJC HN ES       1810 35.54                             104   -0.62 5  445   5 
 CRJC HZ I        1810 42.47         9.3 0.17                           445   5 
                                                                                
