 2016  126 1424 36.2 L   7.553 -73.115154.0  RSN  7 0.4 2.1LRSN                1
 GAP=134        0.88       3.4     4.3  6.5  0.1067E+01  0.9577E+01 -0.3390E+00E
 Epicentro: EL PLAYON - SANTANDER                                              3
 ACTION:UPD 16-03-09 23:28 OP:cam  STATUS:               ID:20160126142436 L   I
 OLDACT:REG 16-01-26 21:45 OP:ak   STATUS:               ID:20160126141750     3
 2016-01-26-1417-50M.COL___334                                                 6
 STAT SP IPHASW D HRMM SECON CODA AMPLIT PERI AZIMU VELO AIN AR TRES W  DIS CAZ7
 PAM  EZ EP       1424 57.89                             161   -0.1010 51.6 117 
 PAM  EN ES       1425 14.89                             161   -0.1410 51.6 117 
 PAM  EZ I        1425 16.39        14.2 0.20            163           51.6 117 
 OCA  HZ EP       1424 58.79                             152   -0.0810 79.2 344 
 OCA  HN ES       1425 17.26                             152    0.6710 79.2 344 
 OCA  HZ I        1425 18.55        30.0 0.12            152           79.2 344 
 BAR2 EZ EP       1425  0.62                             144   -0.1610  106 184 
 BAR2 EZ ES       1425 19.94                             144   -0.0510  106 184 
 BAR2 EZ I        1425 20.90        16.4 0.18            145            106 184 
 SML  HZ EP       1425  6.43                             129    0.28 9  174 323 
 SML  HN ES       1425 28.87                             129   -0.68 9  174 323 
 SML  HZ I        1425 31.72        22.5 0.09            130            174 323 
 PTB  HZ EP       1425  7.20                             127   -0.14 9  186 233 
 PTB  HN ES       1425 32.06                             127    0.39 9  186 233 
 PTB  HZ I        1425 35.09         7.9 0.18            128            186 233 
 ZAR  HZ EP       1425  8.40                             126    0.41 9  192 268 
 ZAR  HN ES       1425 32.41                             126   -0.41 9  192 268 
 GUY2CHZ EP   9   1425 29.86                             110    3.26 0  358 224 
 GUY2CHE ES       1426  9.39                                    0.18 6  358 224 
 GUY2CHZ I        1426 15.51         2.7 0.58                           358 224 
                                                                                
