 2017  126 1717 11.5 L   6.762 -73.141140.7  RSN  6 0.3 1.6LRSN                1
 GAP=139        0.85       4.4     3.9  6.6  0.1444E+00  0.6614E+01 -0.2807E+01E
 Epicentro: LOS SANTOS - SANTANDER                                             3
 ACTION:UPD 17-05-22 16:03 OP:jn   STATUS:               ID:20170126171711 L   I
 OLDACT:REG 17-01-26 20:21 OP:dnl  STATUS:               ID:20170126170748     3
 2017-01-26-1708-00M.COL___355                                                 6
 STAT SP IPHASW D HRMM SECON CODA AMPLIT PERI AZIMU VELO AIN AR TRES W  DIS CAZ7
 BAR2 EZ EP       1717 30.40                             172   -0.0710 19.3 194 
 BAR2 EZ ES       1717 45.06                             172   -0.1910 19.3 194 
 BAR2 EZ I        1717 46.53         9.8 0.24            173           19.3 194 
 BRR  HZ EP       1717 32.44                             151    0.1610 73.7 301 
 BRR  HN ES       1717 49.11                             151    0.6410 73.7 301 
 BRR  HZ I        1717 53.41        12.7 0.38            149           73.7 301 
 PAM  EZ EP       1717 33.52                             149    0.1310 80.3  37 
 PAM  EN ES       1717 50.04                             149   -0.4010 80.3  37 
 PAM  EZ I        1717 52.36         6.4 0.58            151           80.3  37 
 RUS  HZ EP   2   1717 35.09                             144    0.62 5 96.4 176 
 RUS  HN ES       1717 52.56                             144    0.1910 96.4 176 
 RUS  HZ I        1717 53.74         2.7 0.17            148           96.4 176 
 PTB  HZ EP       1717 37.68                             131   -0.38 9  148 260 
 PTB  HE ES       1717 58.34                             131   -0.42 9  148 260 
 PTB  HZ I        1718  0.47         4.6 0.26            132            148 260 
 ZAR  HZ EP   4   1717 42.15                             121   -1.72 0  206 293 
 ZAR  HE ES       1718  9.20                             121    0.11 8  206 293 
 ZAR  HZ I        1718 16.39         5.5 0.26            122            206 293 
                                                                                
