 2011 1026 1529 35.5 L   6.766 -73.143144.0  RSN  6 0.2 1.7LRSN                1
 GAP=138        0.43       5.1     5.0  4.7 -0.8838E+01  0.3720E+01 -0.3667E+01E
 Epicentro: LOS SANTOS - SANTANDER                                             3
 ACTION:UPD 12-07-13 16:06 OP:ep   STATUS:               ID:20111026152935 L   I
 2011-10-26-1520-00M.COL___177                                                 6
 STAT SP IPHASW D HRMM SECON CODA AMPLIT PERI AZIMU VELO AIN AR TRES W  DIS CAZ7
 BAR2 SZ EP       1529 54.75                             172   -0.0910 19.7 193 
 BAR2 SZ I        1529 54.88         8.9 0.40                          19.7 193 
 BAR2 SZ ES   1   1530  9.74                             172   -0.19 7 19.7 193 
 BTL  SZ EP       1529 55.12                             170    0.2410 21.7 321 
 GIR2 SZ EP       1529 54.93                             165   -0.1310 35.0 351 
 BRR  HZ EP       1529 56.68                             151    0.1110 73.3 301 
 BRR  HZ I        1530  0.98        10.2 0.66                          73.3 301 
 BRR  HN ES   2   1530 12.98                             151   -0.02 5 73.3 301 
 PAM  SZ EP       1529 57.54                             149   -0.1510 80.1  38 
 PAM  SE ES   1   1530 15.16                             149    0.17 7 80.1  38 
 RUS  HE ES   3   1530 17.36                             145    0.38 2 96.8 176 
                                                                                
