 2015  526 1334 43.0 L   6.820 -73.209144.0  RSN  4 0.3 1.4LRSN                1
 GAP=128        0.72       4.8     6.8  7.1 -0.6459E+01 -0.7013E+00  0.3021E+01E
 Epicentro: ZAPATOCA - SANTANDER                                               3
 ACTION:UPD 15-09-10 22:07 OP:cam  STATUS:               ID:20150526133443 L   I
 OLDACT:REG 15-05-26 22:36 OP:spq  STATUS:               ID:20150526132748     3
 2015-05-26-1327-48M.COL___288                                                 6
 STAT SP IPHASW D HRMM SECON CODA AMPLIT PERI AZIMU VELO AIN AR TRES W  DIS CAZ7
 BAR2 EZ EP       1335  2.33                             170   -0.1310 25.3 173 
 BAR2 EZ ES   1   1335 18.07                             170    0.43 7 25.3 173 
 BAR2 EZ I        1335 19.04         5.0 0.34            172           25.3 173 
 BRR  HZ EP   1   1335  4.24                             155    0.68 7 64.0 300 
 BRR  HE ES   1   1335 19.13                             155   -0.47 7 64.0 300 
 BRR  HZ I        1335 22.49         6.7 0.22            154           64.0 300 
 PAM  SZ EP       1335  5.16                             150   -0.0510 80.5  44 
 PAM  SN ES       1335 22.53                             150   -0.0110 80.5  44 
 PAM  SZ I        1335 24.53         5.5 0.20            152           80.5  44 
 RUS  HZ EP   1   1335  6.50                             143   -0.29 7  103 172 
 RUS  HN ES   1   1335 25.33                             143   -0.01 7  103 172 
 RUS  HZ I        1335 26.07         2.9 0.23            146            103 172 
                                                                                
