 2011  626 1750  3.9 L   6.677 -73.282157.6  RSN  6 0.3 1.6LRSN                1
 GAP=149        0.61       4.8     9.0  7.4  0.1340E+02 -0.1432E+02 -0.8362E+01E
 Epicentro: GALAN - SANTANDER                                                  3
 ACTION:UP  11-07-14 19:08 OP:ep   STATUS:               ID:20110626175003 L   I
 2011-06-26-1745-29S.COL___140                                                 6
 STAT SP IPHASW D HRMM SECON CODA AMPLIT PERI AZIMU VELO SNR AR TRES W  DIS CAZ7
 BAR2 SZ EP   2   1750 24.49                             175    -0.3 5   15 130 
 BAR2 SZ I        1750 24.68        12.6 0.09                            15 130 
 BAR2 SZ ES   2   1750 40.87                             175    -0.3 5   15 130 
 BTL  SZ EP   2   1750 24.49                             170    -0.5 5   27   3 
 BRR  HZ EP       1750 26.38                             155     0.210   67 315 
 BRR  HZ I        1750 29.48         9.5 0.20                            67 315 
 BRR  HE ES   1   1750 43.33                             155    -0.1 7   67 315 
 RUS  HZ EP   1   1750 28.34                             149     0.2 7   90 166 
 RUS  HZ I        1750 29.17         3.9 0.17                            90 166 
 RUS  HN ES   1   1750 47.02                             149     0.0 7   90 166 
 BRI  SZ EP   2   1750 30.22                             139    -0.1 5  127  25 
 GRA  SZ EP   2   1750 31.20                             135    -0.5 5  144  22 
 GRA  SZ ES   2   1750 53.89                             135     0.5 5  144  22 
 GRA  SZ I        1750 57.72         4.5 0.33                           144  22 
                                                                                
