 2010  926 1755 42.9 L   6.790 -73.084144.0  RSN 11 0.4 2.2LRSN                1
 GAP=166        1.05       4.5     7.9  8.0 -0.1435E+02  0.4884E+01  0.1477E+01E
 Epicentro: LOS SANTOS - SANTANDER                                             3
 ACTION:UP  11-02-18 11:05 OP:tino STATUS:               ID:20100926175542 L   I
 2010-09-26-1752-45S.COL___122                                                 6
 STAT SP IPHASW D HRMM SECON CODA AMPLIT PERI AZIMU VELO SNR AR TRES W  DIS CAZ7
 BAR2 SZ IP       1756  2.31                             170     0.010   25 207 
 BAR2 SZ ES   1   1756 17.01                             170    -0.5 7   25 207 
 BAR2 SZ I        1756 18.61        40.2 0.25                            25 207 
 BTL  SZ EP       1756  2.35                             170     0.010   25 305 
 GIR2 SZ EP       1756  3.30                             166     0.910   34 339 
 BRR  HZ IP     C 1756  4.10                             150    -0.110   78 297 
 BRR  HZ I        1756  4.38        49.0 0.20                            78 297 
 BRR  HE ES   1   1756 21.11                             150     0.2 7   78 297 
 RUS  HZ EP       1756  6.30                             144    -0.110   99 180 
 RUS  HN ES   2   1756 24.48                             144    -0.2 5   99 180 
 RUS  HZ I        1756 26.43        12.0 0.38                            99 180 
 GUE  SZ EP       1756  7.18                             139    -0.210  116   9 
 GRA  SZ EP       1756  7.84                             137    -0.110  125  14 
 GRA  SZ I        1756  9.48        31.7 0.21                           125  14 
 GRA  SZ ES   1   1756 27.98                             137     0.6 7  125  14 
 OCA  SZ EP       1756 10.67                             129    -0.6 9  162 351 
 OCA  SZ ES   1   1756 33.16                             129    -0.2 7  162 351 
 OCA  SZ I        1756 38.13        29.0 0.15                           162 351 
 NOR  SZ EP       1756 18.53                             118    -0.5 8  240 236 
 NOR  SN ES   1   1756 47.55                             118     0.3 6  240 236 
 NOR  SZ I        1756 48.43         2.9 0.21                           240 236 
 CHI  HZ EP   2   1756 21.30                             117     0.7 4  249 197 
 CHI  HE ES   2   1756 49.94                             117     0.0 4  249 197 
 CHI  HZ I        1756 57.48         8.2 0.60                           249 197 
 HEL  HZ EP   1   1756 24.23                             114     0.5 6  278 256 
 HEL  HZ I        1757  0.65        13.3 0.57                           278 256 
                                                                                
