 2012 1126 1907 18.5 L   6.788 -73.147147.5  RSN  6 0.4 1.9LRSN                1
 GAP=137        0.83       4.8     4.7  6.5 -0.1467E+01  0.1062E+02  0.1658E+01E
 Epicentro: LOS SANTOS - SANTANDER                                             3
 ACTION:UPD 12-12-05 15:36 OP:}ep  STATUS:               ID:20121126190718 L   I
 2012-11-26-1900-00M.COL___234                                                 6
 STAT SP IPHASW D HRMM SECON CODA AMPLIT PERI AZIMU VELO AIN AR TRES W  DIS CAZ7
 BAR2 SZ EP       19 7 38.51                             171    0.1410 22.0 190 
 BAR2 SZ ES       19 7 54.35                             171    0.5310 22.0 190 
 BAR2 SZ I        19 7 54.94        25.9 0.22                          22.0 190 
 PAM  SZ EP       19 7 41.23                             151    0.2110 78.5  39 
 PAM  SN ES       19 7 58.15                             151   -0.4010 78.5  39 
 PAM  SZ I        19 7 59.79        17.7 0.22                          78.5  39 
 RUS  HZ EP       19 7 42.56                             144    0.1810 99.3 176 
 RUS  HN ES   1   19 8  0.20                             144   -0.77 7 99.3 176 
 RUS  HN I        19 8  3.11         7.4 0.17                          99.3 176 
 PTB  HZ EP       19 7 45.25                             132   -0.37 9  147 259 
 PTB  HE ES   1   19 8  6.92                             132    0.18 7  147 259 
 PTB  HZ I        19 8  8.93        11.2 0.22                           147 259 
 ZAR  HZ EP   1   19 7 51.18                             123    0.03 6  204 293 
 ZAR  HE ES   1   19 8 16.40                             123   -0.17 6  204 293 
 ZAR  HZ I        19 8 22.29         9.5 0.33                           204 293 
 CHI  HZ EP   1   19 7 56.37                             118    0.17 6  247 195 
 CHI  HZ I        19 8 33.83         4.6 0.67                           247 195 
                                                                                
