 2010  126 1754 26.6 L   6.798 -73.129142.4  RSN  5 0.2 1.7LRSN                1
 GAP=166        0.41       3.6    18.6  5.8 -0.3990E+02  0.1621E+02 -0.3780E+01E
 Epicentro: LOS SANTOS - SANTANDER                                             3
 ACTION:UP  10-08-24 09:46 OP:vdl  STATUS:               ID:20100126175426 L   I
 2010-01-26-1739-50S.COL___089                                                 6
 STAT SP IPHASW D HRMM SECON CODA AMPLIT PERI AZIMU VELO SNR AR TRES W  DIS CAZ7
 BAR2 SZ EP   2   1754 45.72                             170    -0.1 5   24 195 
 BAR2 SZ ES   1   1755  0.71                             170    -0.1 7   24 195 
 GIR2 SZ EP   2   1754 45.63                             167    -0.2 5   32 347 
 RUS  HZ EP   2   1754 49.64                             143    -0.3 5  100 177 
 RUS  HN ES   1   1755  8.33                             143     0.1 7  100 177 
 RUS  HZ I        1755  9.46         7.9 0.20                           100 177 
 GUE  SZ EP   2   1754 51.16                             139     0.2 5  116  11 
 GUE  SZ ES   2   1755 10.25                             139     0.3 5  116  11 
 CHI  HE ES   2   1755 33.83                             116     0.4 4  249 196 
                                                                                
