 2012 1226 1519 23.8 L   6.822 -73.095147.6  RSN  4 0.3 1.5LRSN                1
 GAP=244        0.63       6.8     6.5  6.3  0.2236E+02  0.4133E+01 -0.7349E+00E
 Epicentro: LOS SANTOS - SANTANDER                                             3
 ACTION:UPD 13-01-04 14:30 OP:ep   STATUS:               ID:20121226151923 L   I
 2012-12-26-1514-36M.COL___218                                                 6
 STAT SP IPHASW D HRMM SECON CODA AMPLIT PERI AZIMU VELO AIN AR TRES W  DIS CAZ7
 BAR2 SZ EP   1   1519 43.77                             169    0.06 8 27.2 201 
 BAR2 SZ ES   1   1519 59.58                             169    0.32 8 27.2 201 
 BAR2 SZ I        1520  1.89         6.5 0.30                          27.2 201 
 BRR  HZ EP   1   1519 45.06                             152   -0.28 8 75.1 295 
 BRR  HZ I        1519 55.87         8.7 0.34                          75.1 295 
 BRR  HN ES   1   1520  2.05                             152   -0.11 8 75.1 295 
 RUS  HZ EP   1   1519 48.32                             144    0.45 8  103 179 
 RUS  HN ES   1   1520  6.17                             144   -0.49 8  103 179 
 PTB  HZ EP       1519 51.33                             131   -0.1010  154 258 
 PTB  HE ES   1   1520 13.23                             131    0.23 7  154 258 
 PTB  HZ I        1520 15.01         2.5 0.16                           154 258 
                                                                                
