 2011  526 1133  3.8 L   6.791 -73.130148.4  RSN 13 0.4 2.0LRSN                1
 GAP=139        0.75       3.9     5.4  5.5 -0.9305E+01 -0.3485E+01  0.6616E+01E
 Epicentro: LOS SANTOS - SANTANDER                                             3
 ACTION:UP  11-06-29 08:56 OP:tino STATUS:               ID:20110526113303 L   I
 2011-05-26-1127-40S.COL___115                                                 6
 STAT SP IPHASW D HRMM SECON CODA AMPLIT PERI AZIMU VELO SNR AR TRES W  DIS CAZ7
 BTL  SZ EP       1133 23.85                             172     0.210   21 313 
 BTL  SZ ES   1   1133 39.81                             172     0.6 7   21 313 
 BAR2 SZ EP       1133 23.52                             171    -0.210   23 195 
 BAR2 SZ I        1133 41.89        16.2 0.44                            23 195 
 GIR2 SZ EP   1   1133 23.76                             167     0.0 7   33 348 
 BRR  HZ EP   1   1133 25.36                             152     0.0 7   73 299 
 BRR  HZ I        1133 25.83        16.0 0.15                            73 299 
 BRR  HN ES       1133 42.12                             152     0.010   73 299 
 PAM  SZ EP   1   1133 26.32                             151     0.1 7   77  38 
 PAM  SE ES   2   1133 43.35                             151    -0.4 5   77  38 
 RUS  HZ EP       1133 27.94                             145     0.210   99 177 
 RUS  HN ES   2   1133 46.37                             145     0.0 5   99 177 
 RUS  HZ I        1133 48.99        10.8 0.33                            99 177 
 BRI  SZ EP   1   1133 27.95                             142     0.0 7  109  20 
 BRI  SZ ES   2   1133 45.93                             142    -0.9 5  109  20 
 GRA  SZ EP       1133 29.33                             138     0.010  126  17 
 GRA  SZ ES   1   1133 48.52                             138    -0.7 7  126  17 
 GRA  SZ I        1133 51.93        17.8 0.30                           126  17 
 OCA  SZ EP   1   1133 33.14                             130     0.7 7  161 353 
 OCA  SZ ES   2   1133 55.00                             130     0.3 5  161 353 
 OCA  SZ I        1133 58.12        12.8 0.27                           161 353 
 NOR  SZ EP   1   1133 39.37                             119    -0.4 6  235 235 
 NOR  SN ES   2   1134  7.29                             119    -0.5 4  235 235 
 HEL  HZ EP   2   1133 43.76                             115    -0.5 4  273 256 
 HEL  HZ I        1134 22.43         7.6 0.46                           273 256 
 RREF HZ EP   2   1133 50.27                             111     0.2 3  322 230 
 RREF HN ES   2   1134 25.65                             111    -0.6 3  322 230 
 PRA  HZ EP   1   1133 57.18                             107    -0.2 4  392 210 
                                                                                
