 2010  426 1748 48.2 L   6.923 -73.160152.0  RSN  8 0.3 2.9LRSN                1
 GAP=215        0.61       4.7     8.5  6.5 -0.2345E+02 -0.8627E+01  0.1457E+02E
 Epicentro: BETULIA - SANTANDER                                                3
 ACTION:UPD 10-08-24 10:01 OP:vdl  STATUS:               ID:20100426174849 L   I
 2010-04-26-1745-30S.COL___104                                                 6
 STAT SP IPHASW D HRMM SECON CODA AMPLIT PERI AZIMU VELO AIN AR TRES W  DIS CAZ7
 BRR  HZ IP     C 1749  9.78                             159     0.210   64 289 
 BRR  HZ I        1749 11.51       188.7 0.12                            64 289 
 BRR  HE ES   1   1749 26.44                             159     0.1 7   64 289 
 OCA  SZ IP       1749 15.57                             135    -0.2 9  147 353 
 OCA  SZ I        1749 18.28       105.7 0.04                           147 353 
 OCA  SZ ES   1   1749 37.05                             135    -0.2 7  147 353 
 ROSC BZ IP     D 1749 28.18                             117     0.4 8  264 209 
 ROSC BE ES   2   1749 58.43                             117    -0.3 4  264 209 
 ROSC BZ I        1750  4.95        29.0 0.54                           264 209 
 HEL  HZ EP   1   1749 29.41                             116     0.5 6  274 253 
 HEL  HN ES   2   1750  0.23                             116    -0.5 4  274 253 
 HEL  HZ I        1750  6.66        41.4 0.39                           274 253 
 RREF BZ EP   1   1749 35.01                             112    -0.5 5  330 227 
 RREF BZ I        1750 18.26        31.7 0.34                           330 227 
 DBB  SZ IP       1749 35.59                             111     0.0 7  337 272 
 TOL  SZ EP   2   1749 37.29                             110    -0.4 3  352 223 
 PRA  HN ES   2   1750 25.43                             107    -0.7 3  403 208 
 PRA  HZ I        1750 31.53        41.8 0.40                           403 208 
                                                                                
