 2011  926 1338 37.0 L   6.716 -73.097144.0  RSN  7 0.2 1.8LRSN                1
 GAP=187        0.52       2.9     3.8  4.3  0.2239E+01 -0.1574E+00 -0.3150E+01E
 Epicentro: JORDAN - SANTANDER                                                 3
 ACTION:UPD 12-07-13 15:59 OP:ep   STATUS:               ID:20110926133837 L   I
 2011-09-26-1334-53S.COL___165                                                 6
 STAT SP IPHASW D HRMM SECON CODA AMPLIT PERI AZIMU VELO AIN AR TRES W  DIS CAZ7
 BAR2 SZ EP       1338 56.44                             173    0.1610 16.6 215 
 BAR2 SZ ES       1339 11.20                             173   -0.1410 16.6 215 
 BAR2 SZ I        1339 12.40        14.6 0.20                          16.6 215 
 BTL  SZ EP   1   1338 56.71                             168    0.17 7 29.3 320 
 BRR  HZ EP       1338 58.72                             149    0.2210 80.5 303 
 BRR  HE ES       1339 15.14                             149   -0.1410 80.5 303 
 BRR  HZ I        1339 17.25        13.7 0.16                          80.5 303 
 RUS  HZ EP   1   1338 59.59                             146   -0.30 7 91.1 179 
 RUS  HE ES   1   1339 17.88                             146    0.12 7 91.1 179 
 RUS  HZ I        1339 19.63         3.6 0.30                          91.1 179 
 OCA  SZ EP       1339  5.82                             127   -0.29 9  170 352 
 OCA  SZ ES   2   1339 29.51                             127    0.69 4  170 352 
 OCA  SZ I        1339 32.37         9.2 0.11                           170 352 
 ZAR  HE ES   1   1339 36.04                             121   -0.08 6  213 294 
 ZAR  HZ I        1339 40.63         8.6 0.32                           213 294 
 NOR  SN ES   1   1339 40.36                             118    0.11 6  234 237 
                                                                                
