 2013  926 1013 19.4 L   6.789 -73.191148.9  RSN  4 0.3 1.2LRSN                1
 GAP=232        0.71       4.4     6.0  6.8  0.7114E+01  0.4032E+01  0.1362E+01E
 Epicentro: ZAPATOCA - SANTANDER                                               3
 ACTION:UPD 13-10-22 09:25 OP:ep   STATUS:               ID:20130926101319 L   I
 OLDACT:DUP 13-09-26 17:14 OP:stll STATUS:               ID:20130926100852d    3
 2013-09-26-1008-49M.COL___238                                                 6
 STAT SP IPHASW D HRMM SECON CODA AMPLIT PERI AZIMU VELO AIN AR TRES W  DIS CAZ7
 BRR  HZ EP       1013 40.79                             154    0.1310 67.5 302 
 BRR  HN ES       1013 57.43                             154    0.1710 67.5 302 
 RUS  HN ES       1014  1.86                             145   -0.2410 99.8 173 
 RUS  HZ I        1014  3.42         1.7 0.48            141           99.8 173 
 PTB  HZ EP       1013 45.71                             134   -0.42 9  143 259 
 PTB  HN ES       1014  6.77                             134   -0.24 9  143 259 
 PTB  HZ I        1014  8.45         2.0 0.12            131            143 259 
 SPBC HZ EP       1013 48.04                             131    0.32 9  159 218 
 SPBC HN ES       1014 10.14                             131    0.30 9  159 218 
 SPBC HZ I        1014 17.03         2.1 0.24            128            159 218 
                                                                                
