 2012  126 1122 24.7 L   6.779 -73.167140.0  RSN  6 0.3 1.4LRSN                1
 GAP=135        0.84       6.4     8.5  9.5 -0.1531E+02  0.3861E+02 -0.5782E+01E
 Epicentro: LOS SANTOS - SANTANDER                                             3
 ACTION:UP  12-02-03 08:21 OP:REBC STATUS:               ID:20120126112224 L   I
 2012-01-26-1120-00M.COL___188                                                 6
 STAT SP IPHASW D HRMM SECON CODA AMPLIT PERI AZIMU VELO SNR AR TRES W  DIS CAZ7
 BAR2 SZ EP       1122 43.40                             171    -0.110   21 185 
 BAR2 SZ ES   1   1122 58.28                             171     0.0 7   21 185 
 BAR2 SZ I        1123  4.02         8.6 0.60                            21 185 
 GIR2 SZ EP       1122 43.74                             166     0.010   33 355 
 BRR  HZ EP       1122 45.64                             152     0.510   70 301 
 BRR  HZ I        1122 45.88        11.9 0.30                            70 301 
 PAM  SZ EP       1122 46.64                             148     0.210   81  40 
 PAM  SN ES   1   1123  3.06                             148    -0.4 7   81  40 
 RUS  HZ EP       1122 47.68                             143     0.010   98 175 
 RUS  HZ I        1122 48.22         1.8 0.30                            98 175 
 RUS  HE ES   2   1123  6.00                             143     0.3 5   98 175 
 PTB  HZ EP       1122 50.47                             131    -0.4 9  145 260 
 PTB  HZ I        1123 13.64         2.5 0.32                           145 260 
                                                                                
