 2016 1226 1006 58.3 L   6.794 -73.141134.6  RSN  6 0.4 1.4LRSN                1
 GAP=137        0.97       4.6     4.3  6.6  0.1534E+01  0.8363E+01 -0.1598E+01E
 Epicentro: LOS SANTOS - SANTANDER                                             3
 ACTION:UPD 17-01-11 20:19 OP:rebc STATUS:               ID:20161226100658 L   I
 OLDACT:UP  16-12-27 01:25 OP:cog  STATUS:               ID:20161226095750d    3
 OLDACT:DUP 16-12-27 01:11 OP:cog  STATUS:               ID:20161226095750d    3
 2016-12-26-0958-00M.COL___366                                                 6
 STAT SP IPHASW D HRMM SECON CODA AMPLIT PERI AZIMU VELO AIN AR TRES W  DIS CAZ7
 BAR2 EZ EP   3   10 7 16.31                             170   -0.29 2 22.7 192 
 BAR2 EZ ES       10 7 31.02                             170    0.1610 22.7 192 
 BAR2 EZ I        10 7 32.11         4.3 0.14            170           22.7 192 
 BRR  HZ EP       10 7 18.68                             150    0.3510 72.0 299 
 BRR  HE ES       10 7 33.76                             150   -0.1710 72.0 299 
 BRR  HZ I        10 7 35.03         4.2 0.14            142           72.0 299 
 PAM  EZ EP       10 7 19.54                             149    0.1710 77.6  39 
 PAM  EE ES       10 7 35.48                             149   -0.3210 77.6  39 
 PAM  EZ I        10 7 37.85         7.1 0.38            140           77.6  39 
 RUS  HZ EP       10 7 20.78                             142   -0.1610 99.8 176 
 RUS  HN ES       10 7 38.87                             142    0.2910 99.8 176 
 RUS  HZ I        10 7 40.38         4.3 0.28            135           99.8 176 
 PTB  HZ EP       10 7 23.49                             129   -0.95 9  148 259 
 PTB  HE ES       10 7 44.68                             129   -0.14 9  148 259 
 PTB  HZ I        10 7 46.14         2.4 0.36            121            148 259 
 ZAR  HZ EP       10 7 30.76                             120    0.61 9  205 292 
 ZAR  HZ I        10 7 54.26         3.2 0.10            111            205 292 
 ZAR  HE ES       10 7 55.23                             120    0.26 9  205 292 
                                                                                
