 2011  326 1110  2.6 L   6.769 -73.136136.0  RSN 11 0.4 2.2LRSN                1
 GAP=116        0.92       4.5     5.5  6.8 -0.7576E+01  0.8462E+01  0.6778E+01E
 Epicentro: LOS SANTOS - SANTANDER                                             3
 ACTION:UP  11-06-16 14:35 OP:jfem STATUS:               ID:20110326111002 L   I
 2011-03-26-1109-00S.COL___132                                                 6
 STAT SP IPHASW D HRMM SECON CODA AMPLIT PERI AZIMU VELO SNR AR TRES W  DIS CAZ7
 BAR2 SZ EP   1   1110 20.58                             171    -0.4 7   20 195 
 BAR2 SZ ES   1   1110 35.18                             171    -0.1 7   20 195 
 BAR2 SZ I        1110 36.98        61.2 0.22                            20 195 
 BRR  HZ EP       1110 23.02                             150     0.210   74 300 
 BRR  HE ES   1   1110 39.54                             150     0.9 7   74 300 
 BRR  HZ I        1110 41.13        41.4 0.13                            74 300 
 PAM  SZ EP   1   1110 23.99                             149     0.1 7   79  37 
 PAM  SZ I        1110 24.38        24.9 0.17                            79  37 
 PAM  SE ES   1   1110 40.67                             149     0.2 7   79  37 
 OCA  SZ EP       1110 30.31                             127    -0.2 9  164 353 
 OCA  SZ ES   1   1110 51.74                             127    -0.5 7  164 353 
 OCA  SZ I        1110 59.41        25.9 0.47                           164 353 
 YOP  SZ EP   1   1110 31.50                             125    -0.1 7  175 153 
 YOP  SZ I        1110 58.78        10.7 0.40                           175 153 
 NOR  SZ EP   1   1110 37.53                             117    -0.1 6  234 235 
 NOR  SE ES   1   1111  4.69                             117    -0.3 6  234 235 
 CHI  HE ES   2   1111  7.84                             116    -0.3 4  246 196 
 CHI  HZ I        1111 14.47         5.3 0.18                           246 196 
 HEL  HZ EP   1   1110 42.64                             113     0.3 6  272 257 
 HEL  HE ES   1   1111 12.67                             113    -0.7 6  272 257 
 HEL  HZ I        1111 20.38         7.8 0.23                           272 257 
 RREF HZ EP   1   1110 48.73                             109     0.6 5  320 230 
 RREF HZ I        1111 33.28         5.8 0.30                           320 230 
 DBB  SZ EP   1   1110 49.56                             108    -0.3 5  341 275 
 PRA  HZ EP   1   1110 56.47                             105     1.0 4  390 210 
                                                                                
