 2013  626 1806 56.0 L   7.185 -73.309120.0  RSN  5 0.2 1.9LRSN                1
 GAP=177        0.53       4.5     4.0  5.6 -0.3737E+01  0.2616E+01  0.2793E+01E
 Epicentro: LEBRIJA - SANTANDER                                                3
 ACTION:UPD 14-01-08 09:57 OP:ep   STATUS:               ID:20130626180656 L   I
 OLDACT:REG 13-06-26 15:56 OP:carl STATUS:               ID:20130626175959     3
 2013-06-26-1759-59M.COL___267                                                 6
 STAT SP IPHASW D HRMM SECON CODA AMPLIT PERI AZIMU VELO AIN AR TRES W  DIS CAZ7
 GIR2 SZ EP       18 7 12.06                             171   -0.2510 17.3 133 
 BRR  HZ EP       18 7 12.88                             158   -0.1410 45.4 259 
 BRR  HN ES   1   18 7 26.34                             158    0.09 7 45.4 259 
 BAR2 SZ EP       18 7 14.82                             149    0.2710 67.0 168 
 BAR2 SZ ES   1   18 7 29.16                             149    0.18 7 67.0 168 
 BAR2 SZ I        18 7 30.52        25.4 0.38            149           67.0 168 
 PAM  SZ EP   1   18 7 15.32                             148    0.26 7 69.4  76 
 PAM  SE ES       18 7 29.79                             148   -0.1010 69.4  76 
 PAM  SZ I        18 7 31.04        12.6 0.22            149           69.4  76 
 RUS  HZ EP   2   18 7 21.61                             126    0.20 5  145 170 
 RUS  HE ES   2   18 7 40.65                             126   -0.55 5  145 170 
                                                                                
