 2012  726 1512  1.4 L   6.791 -73.155148.6  RSN  6 0.4 1.7LRSN                1
 GAP=136        0.70       6.6     6.1  8.8 -0.1191E+01  0.1835E+02 -0.3387E+01E
 Epicentro: LOS SANTOS - SANTANDER                                             3
 ACTION:UPD 12-08-14 11:45 OP:ep   STATUS:               ID:20120726151201 L   I
 2012-07-26-1510-00M.COL___215                                                 6
 STAT SP IPHASW D HRMM SECON CODA AMPLIT PERI AZIMU VELO AIN AR TRES W  DIS CAZ7
 BAR2 SZ IP       1512 21.19                             171    -0.110   22 188 
 BAR2 SZ I        1512 21.37        13.6 0.20            169             22 188 
 BAR2 SZ ES   1   1512 36.66                             171    -0.2 7   22 188 
 BRR  HZ IP     C 1512 23.17                             153     0.410   71 300 
 BRR  HE ES   2   1512 40.31                             153     0.8 5   71 300 
 BRR  HZ I        1512 42.78        23.8 0.14            153             71 300 
 PAM  SZ EP   3   1512 24.12                             151     0.1 2   79  40 
 PAM  SN ES   1   1512 41.37                             151    -0.2 7   79  40 
 PAM  SZ I        1512 43.18         6.6 0.40            158             79  40 
 RUS  HZ EP   3   1512 24.93                             145    -0.4 2  100 175 
 RUS  HN ES   2   1512 44.18                             145     0.1 5  100 175 
 RUS  HZ I        1512 46.57         4.3 0.42            147            100 175 
 PTB  HZ EP   3   1512 28.27                             133    -0.2 2  147 259 
 PTB  HN ES   2   1512 49.45                             133    -0.1 5  147 259 
 PTB  HZ I        1512 54.90         7.8 0.26            134            147 259 
 ZAR  HN ES   2   1512 58.63                             123    -0.7 4  203 293 
