 2013 1226 1039 56.5 L   6.854 -73.196142.8  RSN  4 0.2 1.4LRSN                1
 GAP=132        0.55       3.4     3.3  5.0 -0.3954E+01  0.7597E+01 -0.7412E+01E
 Epicentro: ZAPATOCA - SANTANDER                                               3
 ACTION:UPD 14-01-13 10:21 OP:ep   STATUS:               ID:20131226103956 L   I
 OLDACT:REG 13-12-26 14:33 OP:jn   STATUS:               ID:20131226104000     3
 2013-12-26-1040-00M.COL___285                                                 6
 STAT SP IPHASW D HRMM SECON CODA AMPLIT PERI AZIMU VELO AIN AR TRES W  DIS CAZ7
 BAR2 SZ EP       1040 15.96                             168    0.0610 29.0 177 
 BAR2 SZ ES       1040 30.80                             168   -0.2310 29.0 177 
 BAR2 SZ I        1040 32.64         5.4 0.28            169           29.0 177 
 PAM  SZ EP       1040 18.62                             150    0.2710 76.7  46 
 PAM  SN ES       1040 35.40                             150    0.0010 76.7  46 
 PAM  SZ I        1040 37.37         5.8 0.46            154           76.7  46 
 PTB  HZ EP       1040 22.57                             132   -0.28 9  144 256 
 PTB  HN ES       1040 43.70                             132    0.30 9  144 256 
 PTB  HZ I        1040 47.73         3.2 0.18            133            144 256 
 SML  HZ EP       1040 31.97                             118   -0.14 8  236 336 
 SML  HN ES       1040 59.84                             118   -0.05 8  236 336 
                                                                                
