 2010  426 2234 16.8 L   6.828 -72.966142.4  RSN  4 0.5 2.1LRSN                1
 GAP=237        0.81       9.1    14.6 13.2  0.2712E+02 -0.1028E+03 -0.2267E+02E
 Epicentro: CEPITA - SANTANDER                                                 3
 ACTION:UP  10-08-24 10:01 OP:vdl  STATUS:               ID:20100426223429 L   I
 2010-04-26-2233-39S.COL___104                                                 6
 STAT SP IPHASW D HRMM SECON CODA AMPLIT PERI AZIMU VELO AIN AR TRES W  DIS CAZ7
 BAR2 SZ EP   1   2234 36.26                             163    -0.1 7   36 223 
 BAR2 SZ ES   2   2234 51.13                             163    -0.5 5   36 223 
 BRR  HZ EP       2234 38.93                             144     0.310   88 291 
 BRR  HN ES       2234 55.74                             144     0.110   88 291 
 BRR  HZ I        2234 56.94        22.6 0.05                            88 291 
 OCA  SZ EP   2   2234 45.32                             128     0.4 5  161 346 
 OCA  SZ ES   2   2235  5.90                             128    -0.9 5  161 346 
 OCA  SZ I        2235 14.71        31.7 1.00                           161 346 
 RREF BN ES   3   2235 40.35                             108    -1.9 2  339 231 
 RREF BZ I        2235 48.28         2.8 0.39                           339 231 
                                                                                
