 2016 1026 2030  7.7 L   6.819 -73.158150.6  RSN 21 0.5 2.9LRSN                1
 GAP= 70        1.02       2.8     3.0  4.7 -0.2345E+01  0.2200E+01  0.1251E+01E
 Epicentro: LOS SANTOS - SANTANDER                                             3
 ACTION:UPD 16-11-09 19:23 OP:rebc STATUS:               ID:20161026203007 L   I
 OLDACT:UP  16-10-27 03:40 OP:ar   STATUS:               ID:20161026202746     3
 OLDACT:UP  16-10-27 03:33 OP:ar   STATUS:               ID:20161026202746     3
 OLDACT:REG 16-10-27 02:45 OP:ar   STATUS:               ID:20161026202746     3
 2016-10-26-2028-00M.COL___355                                                 6
 STAT SP IPHASW D HRMM SECON CODA AMPLIT PERI AZIMU VELO AIN AR TRES W  DIS CAZ7
 BAR2 EZ EP       2030 27.91                             170    0.0110 25.3 186 
 BAR2 EZ ES       2030 43.09                             170   -0.6010 25.3 186 
 BAR2 EZ I        2030 45.66       224.0 0.32            169           25.3 186 
 BRR  HZ IP     C 2030 29.67                             154    0.4710 69.0 298 
 BRR  HN ES       2030 46.92                             154    0.9110 69.0 298 
 BRR  HZ I        2030 50.60       118.9 0.24            150           69.0 298 
 PAM  EZ IP     C 2030 30.69                             152    0.3510 76.7  41 
 PAM  EN ES       2030 48.01                             152   -0.0310 76.7  41 
 PAM  EZ I        2030 50.60        67.4 0.48            154           76.7  41 
 RUS  HZ EP       2030 31.87                             144   -0.1710  103 175 
 RUS  HN ES       2030 50.55                             144   -0.5110  103 175 
 RUS  HZ I        2030 51.80        97.2 0.38            144            103 175 
 PTB  HZ EP       2030 34.44                             133   -0.49 9  147 258 
 PTB  HN ES       2030 55.70                             133   -0.51 9  147 258 
 PTB  HZ I        2031  0.80        58.9 0.15            131            147 258 
 TAM  HZ IP     C 2030 36.25                             131    0.36 9  157 106 
 TAM  HN ES       2030 58.05                             131    0.14 9  157 106 
 TAM  HZ I        2030 59.35        35.9 0.54            134            157 106 
 OCA  HZ EP       2030 35.83                             131   -0.30 9  158 354 
 OCA  HE ES       2030 58.45                             131    0.11 9  158 354 
 OCA  HZ I        2031  3.41       254.6 0.24            131            158 354 
 SPBC HZ EP       2030 36.80                             130    0.20 9  164 218 
 SPBC HE ES       2030 59.12                             130   -0.06 9  164 218 
 SPBC HZ I        2031  1.56       117.3 0.22            128            164 218 
 NOR  HZ EP       2030 44.04                             119    0.36 8  235 234 
 NOR  HN ES       2031 12.21                             119    0.43 8  235 234 
 NOR  HZ I        2031 19.73        39.2 0.42            118            235 234 
 CHI  HZ EP       2030 46.10                             118    0.30 8  250 195 
 CHI  HN ES       2031 15.42                             118   -0.14 8  250 195 
 CHI  HZ I        2031 25.39        34.7 0.42            118            250 195 
 ROSC BZ EP   9   2030 47.77                             117    1.61 0  254 211 
 ROSC BN ES       2031 18.15                             117    0.34 8  254 211 
 ROSC BZ I        2031 22.48       113.9 0.40            117            254 211 
 HEL  HZ EP   4   2030 49.53                             116    1.51 0  271 255 
 HEL  HN ES       2031 19.56                             116    0.05 8  271 255 
 HEL  HZ I        2031 26.51        34.0 0.38            115            271 255 
 PTGC HZ EP   4   2030 50.88                             112   -1.13 0  311 159 
 PTGC HN ES   4   2031 24.20                             112   -2.41 0  311 159 
 PTGC HZ I        2031 24.21        28.8 0.40            113            311 159 
 ELA  HZ EP   9   2030 57.58                             111    2.83 0  329 229 
 ELA  HE ES       2031 34.42                             111    0.10 7  329 229 
 ELA  HZ I        2031 47.07        31.3 0.48            110            329 229 
 CBOC HZ EP   4   2030 56.01                             111    1.32 0  333 252 
 CBOC HN ES       2031 31.22                             111   -0.17 7  333 252 
 CBOC HZ I        2031 37.06        52.7 0.04            110            333 252 
 ARGC HZ EP   4   2031  0.82                             109    3.61 0  357 340 
 ARGC HE ES   4   2031 36.92                             109    1.06 0  357 340 
 ANIL HZ EP   4   2031  0.06                             109    2.35 0  358 224 
 ANIL HE ES       2031 36.37                             109   -0.38 6  358 224 
 PRA  HZ EP       2031  1.58                             107    0.10 6  393 209 
 PRA  HN ES       2031 43.04                             107   -0.42 6  393 209 
 PRA  HZ I        2031 49.86        51.4 0.44            107            393 209 
 ORTC HZ EP       2031  2.94                             107    1.10 6  396 216 
 ORTC HN ES   4   2031 45.59                             107    1.47 0  396 216 
 ORTC HZ I        2031 51.49        21.8 0.46            107            396 216 
 SJC  HZ EP       2031  2.04                             107   -1.03 6  407 327 
 SJC  HN ES   4   2031 42.75                             107   -3.55 0  407 327 
 SJC  HZ I        2031 57.49        16.8 0.80            106            407 327 
 CRJC HZ EP       2031  8.79                             104   -1.26 5  466   4 
 CRJC HN ES   4   2031 55.08                             104   -3.63 0  466   4 
 CRJC HZ I        2032  3.27        16.4 0.18            104            466   4 
 URI  HZ EP   4   2031 18.52                             101   -2.03 0  555  13 
 URI  HN ES   4   2032 12.64                             101   -4.78 0  555  13 
 URI  HZ I        2032 20.80         3.4 0.34            101            555  13 
 GARC HZ EP   4   2031 21.85                             101   -1.31 0  574 207 
 GARC HN ES   4   2032 18.19                             101   -3.87 0  574 207 
                                                                                
