 2010  326 2319 49.6 L   6.882 -72.995144.7  RSN  4 0.1 1.6LRSN                1
 GAP=258        0.27       3.2     6.7  3.8  0.1348E+02 -0.7244E+01 -0.6788E+00E
 Epicentro: CEPITA - SANTANDER                                                 3
 ACTION:UP  10-08-24 09:56 OP:vdl  STATUS:               ID:20100326231949 L   I
 2010-03-26-2316-46S.COL___098                                                 6
 STAT SP IPHASW D HRMM SECON CODA AMPLIT PERI AZIMU VELO SNR AR TRES W  DIS CAZ7
 BAR2 SZ EP   2   2320  9.62                             164     0.1 5   38 213 
 BAR2 SZ ES   2   2320 25.06                             164     0.0 5   38 213 
 BRR  HZ IP       2320 11.33                             148     0.010   83 287 
 BRR  HZ I        2320 11.49        11.6 0.33                            83 287 
 BRR  HE ES   1   2320 28.35                             148     0.0 7   83 287 
 RUS  HZ EP   2   2320 13.91                             141     0.0 5  110 185 
 RUS  HE ES   2   2320 32.89                             141    -0.1 5  110 185 
 RUS  HZ I        2320 34.06         4.9 0.19                           110 185 
 CHI  HZ EP   2   2320 28.87                             115     0.1 4  262 198 
 CHI  HE ES   2   2320 59.22                             115     0.0 4  262 198 
 CHI  HZ I        2321  9.51         1.8 0.49                           262 198 
                                                                                
