 2015 1226 2315 13.5 L   6.797 -73.148137.3  RSN  5 0.6 1.8LRSN                1
 GAP=136        1.36       5.4     6.3 12.8 -0.3106E+01  0.2679E+02 -0.1267E+02E
 Epicentro: LOS SANTOS - SANTANDER                                             3
 ACTION:UPD 16-02-04 15:07 OP:cam  STATUS:               ID:20151226231513 L   I
 OLDACT:UP  15-12-27 08:31 OP:ar   STATUS:               ID:20151226230738d    3
 OLDACT:DUP 15-12-27 08:27 OP:ar   STATUS:               ID:20151226230738d    3
 OLDACT:REG 15-12-27 03:50 OP:ar   STATUS:               ID:20151226230737     3
 2015-12-26-2307-37M.COL___337                                                 6
 STAT SP IPHASW D HRMM SECON CODA AMPLIT PERI AZIMU VELO AIN AR TRES W  DIS CAZ7
 PAM  EZ EP       2315 35.06                             149    0.2410 77.7  40 
 PAM  EN ES       2315 52.01                             149    0.5410 77.7  40 
 PAM  EZ I        2315 54.28        16.4 0.62            154           77.7  40 
 RUS  HZ EP       2315 36.66                             142    0.2810  100 176 
 RUS  HE ES       2315 53.99                             142   -0.2610  100 176 
 RUS  HZ I        2315 55.82         5.1 0.28            147            100 176 
 PTB  HZ EP   2   2315 39.88                             130    0.14 5  147 259 
 PTB  HN ES       2315 59.53                             130   -0.70 9  147 259 
 PTB  HZ I        2316  6.87         5.7 0.40            132            147 259 
 OCA  HZ EP       2315 40.34                             128   -0.83 9  161 353 
 OCA  HN ES       2316  2.15                             128   -0.62 9  161 353 
 OCA  HZ I        2316  5.77        19.6 0.36            131            161 353 
 ZAR  HZ EP       2315 45.78                             120    0.41 9  204 292 
 ZAR  HN ES       2316 11.22                             120    0.96 9  204 292 
 ZAR  HZ I        2316 16.12         7.9 0.44            123            204 292 
                                                                                
