 2017  126 2135 21.2 L   6.796 -73.125144.7  RSN  6 0.2 1.6LRSN                1
 GAP=139        0.72       3.7     3.6  4.7  0.2735E+01  0.1400E+01 -0.1705E+01E
 Epicentro: LOS SANTOS - SANTANDER                                             3
 ACTION:UPD 17-05-22 16:03 OP:jn   STATUS:               ID:20170126213521 L   I
 OLDACT:UP  17-01-27 04:29 OP:edw  STATUS:               ID:20170126212745     3
 OLDACT:REG 17-01-27 03:21 OP:cara STATUS:               ID:20170126212745     3
 2017-01-26-2128-00M.COL___343                                                 6
 STAT SP IPHASW D HRMM SECON CODA AMPLIT PERI AZIMU VELO AIN AR TRES W  DIS CAZ7
 BAR2 EZ EP       2135 40.30                             170   -0.4510 23.3 196 
 BAR2 EZ ES       2135 55.66                             170   -0.3010 23.3 196 
 BAR2 EZ I        2135 56.28        12.8 0.14            171           23.3 196 
 BRR  HZ EP     D 2135 42.29                             151   -0.1210 73.4 298 
 BRR  HN ES       2135 59.31                             151    0.4010 73.4 298 
 BRR  HZ I        2136  3.76        11.1 0.36            150           73.4 298 
 PAM  EZ IP     C 2135 43.39                             151    0.1010 76.4  38 
 PAM  EN ES       2136  0.41                             151   -0.0710 76.4  38 
 PAM  EZ I        2136  2.35         9.4 0.54            153           76.4  38 
 RUS  HZ EP       2135 45.04                             143    0.1910100.0 177 
 RUS  HN ES       2136  3.46                             143    0.2110100.0 177 
 RUS  HZ I        2136  4.98         4.7 0.32            146          100.0 177 
 PTB  HZ EP   9   2135 47.60                             131   -0.72 0  150 259 
 PTB  HN ES       2136  8.28                             132   -0.44 9  150 259 
 PTB  HZ I        2136 11.39         4.1 0.28            131            150 259 
 ZAR  HZ EP       2135 54.00                             122    0.14 8  206 292 
 ZAR  HN ES       2136 19.19                             122   -0.10 8  206 292 
 ZAR  HZ I        2136 24.88         3.1 0.07            122            206 292 
                                                                                
