 2015 1126 2306 13.1 L   6.829 -73.196138.0  RSN  8 0.4 1.8LRSN                1
 GAP=197        0.92       4.2     4.7  7.1  0.3704E+01  0.1113E+02 -0.2969E+01E
 Epicentro: ZAPATOCA - SANTANDER                                               3
 ACTION:UPD 15-12-28 16:13 OP:cam  STATUS:               ID:20151126230613 L   I
 OLDACT:REG 15-11-27 08:27 OP:dnl  STATUS:               ID:20151126225750     3
 2015-11-26-2257-50M.COL___310                                                 6
 STAT SP IPHASW D HRMM SECON CODA AMPLIT PERI AZIMU VELO AIN AR TRES W  DIS CAZ7
 BAR2 EZ EP       23 6 31.82                             169   -0.0310 26.3 177 
 BAR2 EZ ES       23 6 46.95                             169    0.4610 26.3 177 
 BAR2 EZ I        23 6 48.36        17.1 0.15            169           26.3 177 
 RUS  HZ EP       23 6 35.65                             141   -0.7210  104 173 
 RUS  HN ES       23 6 54.62                             141    0.0910  104 173 
 RUS  HZ I        23 6 55.51         5.8 0.46            145            104 173 
 PTB  HZ EP   2   23 6 38.78                             131   -0.21 5  143 257 
 PTB  HE ES       23 6 59.44                             131    0.25 9  143 257 
 PTB  HZ I        23 7  3.61         6.1 0.26            131            143 257 
 SPBC HZ EP   2   23 6 40.62                             128   -0.30 5  162 217 
 SPBC HN ES       23 7  2.30                             128   -0.32 9  162 217 
 SPBC HZ I        23 7  7.98        10.9 0.15            129            162 217 
 ZAR  HZ EP   1   23 6 44.53                             122    0.16 6  198 292 
 ZAR  HN ES       23 7  8.28                             122   -0.49 9  198 292 
 ZAR  HZ I        23 7 15.88         6.2 0.35            122            198 292 
 NOR  HZ EP   1   23 6 48.97                             117    0.87 6  232 233 
 NOR  HN ES       23 7 15.32                             117   -0.08 8  232 233 
 NOR  HZ I        23 7 17.97         4.2 0.37            119            232 233 
 SML  HZ EP   4   23 6 46.65                             117   -2.06 0  238 336 
 SML  HN ES   1   23 7 16.53                             117    0.03 6  238 336 
 SML  HZ I        23 7 19.21        12.1 0.07            118            238 336 
 GUY2CHZ EP       23 6 56.81                             111    0.76 7  299 234 
 GUY2CHN ES   2   23 7 29.34                             111   -0.21 4  299 234 
 GUY2CHZ I        23 7 36.57         2.7 0.49                           299 234 
                                                                                
