 2015  526 2009 33.1 L   6.744 -73.129139.0  RSN  5 0.1 1.7LRSN                1
 GAP=141        0.33       1.9     1.9  3.2  0.1787E+00  0.1598E+01 -0.1786E+01E
 Epicentro: LOS SANTOS - SANTANDER                                             3
 ACTION:UPD 15-09-10 22:07 OP:cam  STATUS:               ID:20150526200933 L   I
 OLDACT:REG 15-05-27 05:59 OP:mh   STATUS:               ID:20150526200750     3
 2015-05-26-2007-50M.COL___294                                                 6
 STAT SP IPHASW D HRMM SECON CODA AMPLIT PERI AZIMU VELO AIN AR TRES W  DIS CAZ7
 BAR2 EZ EP   1   20 9 51.88                             172    0.09 7 17.8 199 
 BAR2 EZ ES       2010  6.25                             172   -0.1310 17.8 199 
 BAR2 EZ I        2010  7.52        14.2 0.42            172           17.8 199 
 BRR  HZ EP       20 9 53.81                             150    0.0310 75.9 302 
 BRR  HN ES   1   2010 10.11                             150    0.18 7 75.9 302 
 PAM  SZ EP       20 9 54.76                             148   -0.0610 81.2  36 
 PAM  SN ES       2010 11.80                             148    0.0310 81.2  36 
 PAM  SZ I        2010 13.62        12.9 0.50            149           81.2  36 
 RUS  HN ES       2010 13.40                             144    0.0410 94.3 177 
 RUS  HZ I        2010 15.86         5.7 0.40            144           94.3 177 
 ZAR  HN ES       2010 30.75                             120   -0.08 8  208 294 
                                                                                
