 2014  726 2204 29.0 L   6.777 -73.138132.0  RSN 19 0.5 2.7LRSN                1
 GAP= 72        1.16       2.9     3.0  5.2 -0.1601E+01  0.4534E+01  0.3507E+01E
 Epicentro: LOS SANTOS - SANTANDER                                             3
     122.0      59.0      58.0  5.0  5.0 16.0  0.0  0.1           RSN FPFIT    F
 ACTION:UPD 15-03-16 20:47 OP:nd   STATUS:               ID:20140726220429 L   I
 OLDACT:DUP 14-07-27 06:20 OP:stll STATUS:               ID:20140726215820d    3
 2014-07-26-2158-18M.COL___263                                                 6
 STAT SP IPHASW D HRMM SECON CODA AMPLIT PERI AZIMU VELO AIN AR TRES W  DIS CAZ7
 BAR2 SZ I        22 4 47.08       130.6 0.40            168           21.0 193 
 BAR2 SZ IP       22 4 47.30                             170    0.3910 21.0 193 
 BAR2 SZ ES       22 5  1.16                             170    0.2710 21.0 193 
 BRR  HZ IP     C 22 4 49.21                             149    0.4310 73.1 300 
 BRR  HN ES       22 5  4.59                             149    0.3710 73.1 300 
 BRR  HZ I        22 5  9.37       103.1 0.14            137           73.1 300 
 PAM  SZ EP       22 4 50.01                             148    0.1610 78.9  38 
 PAM  SN ES       22 5  6.26                             148    0.1410 78.9  38 
 PAM  SZ I        22 5  9.29       105.9 0.50            140           78.9  38 
 RUS  HZ IP     C 22 4 51.27                             142    0.0610 98.0 176 
 RUS  HN ES       22 5  8.46                             142   -0.0810 98.0 176 
 RUS  HZ I        22 5 10.85        40.4 0.36            136           98.0 176 
 PTB  HZ EP   4   22 4 53.97                             129   -0.92 0  148 260 
 PTB  HE ES       22 5 14.90                             129   -0.20 9  148 260 
 PTB  HZ I        22 5 20.66        49.2 0.26            119            148 260 
 TAM  HZ IP     C 22 4 55.66                             128    0.19 9  154 104 
 TAM  HZ I        22 4 55.79        51.7 0.20            122            154 104 
 TAM  HN ES       22 5 15.64                             128   -0.48 9  154 104 
 SPBC HZ IP     C 22 4 56.23                             126   -0.09 9  162 220 
 SPBC HN ES       22 5 17.43                             126   -0.21 9  162 220 
 SPBC HZ I        22 5 20.70        95.7 0.24            118            162 220 
 OCA  HZ EP       22 4 55.34                             126   -1.18 9  163 353 
 OCA  HN ES       22 5 17.11                             126   -0.88 9  163 353 
 OCA  HZ I        22 5 22.20        52.8 0.20            116            163 353 
 ZAR  HZ EP       22 5  0.84                             119    0.09 8  206 293 
 ZAR  HE ES       22 5 26.14                             119    0.61 8  206 293 
 ZAR  HZ I        22 5 31.69        64.5 0.44            110            206 293 
 NOR  HZ EP     D 22 5  3.31                             116   -0.55 8  234 235 
 NOR  HE ES       22 5 30.95                             116   -0.12 8  234 235 
 NOR  HZ I        22 5 35.19        39.6 0.38            108            234 235 
 CHI  HZ EP   1   22 5  5.54                             114   -0.17 6  246 196 
 CHI  HN ES       22 5 34.43                             114    0.08 8  246 196 
 CHI  HZ I        22 5 41.34        14.5 0.38            108            246 196 
 HEL  HZ EP     D 22 5  9.27                             112    0.72 8  272 256 
 HEL  HE ES       22 5 38.51                             112   -0.90 8  272 256 
 HEL  HZ I        22 5 47.85        16.5 0.26            104            272 256 
 GUY2CHZ EP       22 5 12.02                             110    0.12 7  300 235 
 GUY2CHN ES       22 5 45.64                             110    0.27 7  300 235 
 GUY2CHZ I        22 5 53.89        22.9 0.48                           300 235 
 RREF HZ EP       22 5 15.64                             108    1.19 7  321 230 
 RREF HE ES       22 5 49.16                             108   -0.75 7  321 230 
 RREF HZ I        22 5 58.30        23.4 0.32            101            321 230 
 DBB  SZ EP       22 5 16.31                             107    0.26 7  340 275 
 DBB  SZ I        22 6  0.42        49.0 0.84            100            340 275 
 TOL  SZ EP       22 5 17.31                             107    0.73 7  342 225 
 TOL  SN ES       22 5 53.28                             107   -0.42 7  342 225 
 TOL  SZ I        22 5 59.41        55.0 0.40            100            342 225 
 ANIL HZ EP       22 5 19.54                             106    1.39 6  356 225 
 ANIL HN ES       22 5 56.51                             106    0.02 6  356 225 
 ANIL HZ I        22 6  1.37        48.8 0.40             99            356 225 
 PRA  HZ EP       22 5 21.34                             104   -0.51 6  390 210 
 PRA  HN ES       22 6  2.36                             104   -0.72 6  390 210 
 PRA  HZ I        22 6  9.25        22.7 0.30             98            390 210 
 ORTC HZ EP     D 22 5 22.34                             104    0.06 6  394 216 
 ORTC HN ES       22 6  3.41                             104   -0.44 6  394 216 
 ORTC HZ I        22 6  9.32        16.9 0.32             98            394 216 
                                                                                
