 2011  926 2211 53.8 L   6.756 -73.144148.1  RSN  6 0.3 2.2LRSN                1
 GAP=213        0.52       4.1     4.5  5.3  0.8306E+01  0.5608E+01  0.3839E+01E
 Epicentro: LOS SANTOS - SANTANDER                                             3
 ACTION:UPD 12-07-13 16:00 OP:ep   STATUS:               ID:20110926221153 L   I
 2011-09-26-2208-58S.COL___165                                                 6
 STAT SP IPHASW D HRMM SECON CODA AMPLIT PERI AZIMU VELO AIN AR TRES W  DIS CAZ7
 BAR2 SZ EP       2212 13.55                             173   -0.1110 18.6 193 
 BAR2 SZ ES   2   2212 28.93                             173   -0.19 5 18.6 193 
 BAR2 SZ I        2212 29.96        28.0 0.22                          18.6 193 
 BTL  SZ EP       2212 13.86                             171    0.1310 22.6 323 
 BRR  HZ EP       2212 15.41                             152    0.0310 73.8 302 
 BRR  HZ I        2212 15.59        39.9 0.14                          73.8 302 
 BRR  HN ES   1   2212 32.54                             152    0.35 7 73.8 302 
 RUS  HZ EP       2212 17.49                             146    0.0210 95.7 176 
 RUS  HN ES   1   2212 35.69                             146   -0.22 7 95.7 176 
 ZAR  HZ EP   3   2212 25.29                             122   -1.35 2  206 293 
 ZAR  HE ES   1   2212 51.73                             122   -0.50 6  206 293 
 ZAR  HZ I        2212 57.66        10.0 0.20                           206 293 
 NOR  SZ EP       2212 29.63                             119    0.22 8  232 235 
 NOR  SE ES   2   2212 57.32                             119    0.15 4  232 235 
                                                                                
