 2011  426 2156 17.3 L   6.779 -73.153147.5  RSN  4 0.2 1.4LRSN                1
 GAP=146        0.45       4.1     5.9  6.9 -0.1676E+02  0.2394E+02 -0.1063E+02E
 Epicentro: LOS SANTOS - SANTANDER                                             3
 ACTION:UP  11-06-22 15:33 OP:REBC STATUS:               ID:20110426215617 L   I
 2011-04-26-2153-30S.COL___137                                                 6
 STAT SP IPHASW D HRMM SECON CODA AMPLIT PERI AZIMU VELO SNR AR TRES W  DIS CAZ7
 PAM  SZ EP   1   2156 39.76                             150     0.0 7   80  39 
 PAM  SN ES   1   2156 57.22                             150    -0.2 7   80  39 
 PAM  SZ I        2156 59.19         3.1 0.20                            80  39 
 RUS  HZ EP   1   2156 40.94                             145    -0.1 7   98 175 
 RUS  HN ES   1   2156 59.67                             145     0.1 7   98 175 
 RUS  HZ I        2157  0.83         7.1 0.30                            98 175 
 BRI  SZ EP   1   2156 41.78                             141     0.3 7  111  21 
 BRI  SZ I        2157  1.44         6.1 0.33                           111  21 
 NOR  SZ EP   1   2156 52.66                             119    -0.2 6  233 235 
 NOR  SN ES   1   2157 20.75                             119     0.1 6  233 235 
 NOR  SZ I        2157 25.23         0.7 0.17                           233 235 
                                                                                
