 2012  626 2010 42.8 L   6.435 -73.413125.5  RSN  5 0.5 1.6LRSN                1
 GAP= 93        0.88       6.5     6.0  9.8  0.1017E+02  0.2292E+02  0.1418E+02E
 Epicentro: SIMACOTA - SANTANDER                                               3
 ACTION:UPD 12-08-06 17:52 OP:ep   STATUS:               ID:20120626201042 L   I
 2012-06-26-2010-00M.COL___201                                                 6
 STAT SP IPHASW D HRMM SECON CODA AMPLIT PERI AZIMU VELO AIN AR TRES W  DIS CAZ7
 BAR2 SZ EP   1   2011  0.00                             165   -0.18 7 30.8  56 
 BAR2 SZ ES   1   2011 13.27                             165   -0.49 7 30.8  56 
 BAR2 SZ I        2011 14.51         9.1 0.32                          30.8  56 
 RUS  HZ EP   1   2011  2.44                             149    0.02 7 70.2 149 
 RUS  HE ES   1   2011 18.02                             149    0.27 7 70.2 149 
 RUS  HZ I        2011 19.68         3.6 0.37                          70.2 149 
 BRR  HZ EP   1   2011  2.74                             145    0.28 7 81.3 336 
 BRR  HZ I        2011  2.89        24.0 0.16                          81.3 336 
 BRR  HN ES   1   2011 18.56                             145    0.75 7 81.3 336 
 PTB  HZ EP   1   2011  4.80                             134   -0.43 7  116 276 
 PTB  HN ES   1   2011 22.08                             134   -0.66 7  116 276 
 PTB  HZ I        2011 23.82         6.3 0.12                           116 276 
 NOR  SZ EP   2   2011 12.68                             120    0.37 4  188 239 
 NOR  SE ES   2   2011 36.15                             120    0.80 4  188 239 
                                                                                
