 2010  226 2214 36.7 L   6.819 -73.034143.2  RSN  9 0.3 3.1LRSN                1
 GAP=194        0.52       2.9     5.2  5.2 -0.1569E+01  0.7735E+01  0.3007E+01E
 Epicentro: CEPITA - SANTANDER                                                 3
 ACTION:UP  10-08-24 09:51 OP:vdl  STATUS:               ID:20100226221436 L   I
 2010-02-26-2200-00S.COL___094                                                 6
 STAT SP IPHASW D HRMM SECON CODA AMPLIT PERI AZIMU VELO SNR AR TRES W  DIS CAZ7
 BAR2 SZ IP       2214 56.25                             168     0.110   30 213 
 BAR2 SZ ES   2   2215 10.97                             168    -0.4 5   30 213 
 BRR  HZ EP   1   2214 58.01                             149    -0.1 7   81 293 
 BRR  HN ES   2   2215 15.06                             149     0.2 5   81 293 
 BRR  HZ I        2215 15.97       270.1 0.13                            81 293 
 RUS  BZ EP   1   2215  0.29                             143     0.0 7  103 183 
 RUS  BZ I        2215  1.55        84.0 0.11                           103 183 
 RUS  BE ES   2   2215 18.96                             143     0.2 5  103 183 
 OCA  SZ EP   1   2215  4.65                             129    -0.1 7  160 349 
 OCA  SZ ES   2   2215 26.75                             129     0.1 5  160 349 
 OCA  SZ I        2215 30.91       365.5 0.21                           160 349 
 CHI  HZ EP   1   2215 14.79                             116     0.0 6  254 198 
 CHI  HE ES   2   2215 44.54                             116     0.0 4  254 198 
 HEL  HZ EP   1   2215 18.28                             113     0.2 6  285 256 
 HEL  HE ES   2   2215 49.92                             113    -0.6 4  285 256 
 HEL  HZ I        2215 54.65        72.4 0.42                           285 256 
 RREF BZ EP   1   2215 24.68                             110     0.8 5  333 230 
 RREF BE ES   2   2216  1.29                             110     0.5 3  333 230 
 RREF BZ I        2216  6.93        52.1 0.42                           333 230 
 TOL  SZ EP   1   2215 25.98                             108     0.0 5  354 226 
 TOL  SZ ES   2   2216  4.57                             108     0.1 3  354 226 
 PRA  HZ EP   1   2215 30.24                             106    -0.8 4  400 211 
 PRA  HN ES   2   2216 12.83                             106    -0.6 3  400 211 
 PRA  HZ I        2216 17.87        35.4 0.70                           400 211 
                                                                                
