 2014  626 2209  3.3 L   6.799 -73.163143.5  RSN  6 0.4 1.9LRSN                1
 GAP=145        0.90       9.1     7.1  7.7 -0.3985E+02 -0.1401E+01  0.1812E+02E
 Epicentro: LOS SANTOS - SANTANDER                                             3
 ACTION:UPD 14-07-01 22:57 OP:nd   STATUS:               ID:20140626220903 L   I
 OLDACT:UP  14-06-27 08:36 OP:mh   STATUS:               ID:20140626220848     3
 OLDACT:REG 14-06-27 08:25 OP:mh   STATUS:               ID:20140626220848     3
 2014-06-26-2208-48M.COL___262                                                 6
 STAT SP IPHASW D HRMM SECON CODA AMPLIT PERI AZIMU VELO AIN AR TRES W  DIS CAZ7
 BAR2 SZ EP   1   22 9 22.45                             170   -0.16 7 23.0 185 
 BAR2 SZ ES   1   22 9 37.78                             170    0.07 7 23.0 185 
 BRR  HZ EP       22 9 24.17                             153    0.0910 69.6 299 
 BRR  HN ES   1   22 9 40.85                             153    0.53 7 69.6 299 
 BRR  HZ I        22 9 45.07        18.3 0.26            150           69.6 299 
 PAM  SZ EP       22 9 25.21                             150   -0.1110 78.7  41 
 PTB  HZ EP       22 9 29.29                             132   -0.58 9  146 259 
 PTB  HN ES   1   22 9 50.20                             132   -0.44 7  146 259 
 PTB  HZ I        22 9 53.14        12.4 0.17            132            146 259 
 NOR  HZ EP       22 9 38.69                             118    0.00 8  233 234 
 NOR  HN ES       2210  6.28                             118   -0.04 8  233 234 
 NOR  HZ I        2210 10.28         5.5 0.16            120            233 234 
 GUY2CHZ EP       22 9 47.59                             112    1.01 7  300 235 
 GUY2CHE ES   4   2210 21.36                             112    0.98 0  300 235 
 GUY2CHZ I        2210 29.70         3.1 0.21                           300 235 
                                                                                
