 2014 1126 2051 34.5 L   6.363 -73.576103.6  RSN  4 0.2 1.1LRSN                1
 GAP=148        0.50       3.7     2.5  5.1  0.3436E+01  0.3918E+01 -0.6387E+00E
 Epicentro: SANTA HELENA DEL OPON - SANTANDER                                  3
 ACTION:UPD 14-12-19 15:47 OP:nd   STATUS:               ID:20141126205134 L   I
 OLDACT:DUP 14-11-27 06:19 OP:stll STATUS:               ID:20141126204747d    3
 2014-11-26-2047-46M.COL___309                                                 6
 STAT SP IPHASW D HRMM SECON CODA AMPLIT PERI AZIMU VELO AIN AR TRES W  DIS CAZ7
 BAR2 SZ EP       2051 50.66                             152    0.3610 50.4  60 
 BAR2 SZ I        2051 50.73         8.7 0.12            151           50.4  60 
 BAR2 SZ ES       2052  2.48                             152   -0.1110 50.4  60 
 RUS  HZ EP       2051 52.26                             141   -0.0710 75.4 134 
 RUS  HZ I        2051 53.96         1.4 0.24            139           75.4 134 
 RUS  HN ES       2052  6.19                             141   -0.0210 75.4 134 
 BRR  HZ EP       2051 52.16                             138   -0.1410 83.7 350 
 PTB  HZ EP       2051 53.54                             132   -0.1310 99.3 281 
 PTB  HZ I        2051 54.86         3.1 0.32            131           99.3 281 
 PTB  HE ES       2052  8.69                             132    0.1010 99.3 281 
                                                                                
