 2014 1026 2203  2.1 L   6.790 -73.157138.8  RSN 13 0.7 2.2LRSN                1
 GAP=136        1.55       4.6     6.1  7.8 -0.8477E+01  0.1167E+02  0.5777E+01E
 Epicentro: LOS SANTOS - SANTANDER                                             3
 ACTION:UPD 14-11-29 23:57 OP:nd   STATUS:               ID:20141026220302 L   I
 OLDACT:ARG 14-10-29 14:56 OP:stll STATUS:               ID:20141026215744     3
 2014-10-26-2157-44M.COL___274                                                 6
 STAT SP IPHASW D HRMM SECON CODA AMPLIT PERI AZIMU VELO AIN AR TRES W  DIS CAZ7
 BAR2 SZ IP     C 22 3 21.09                             171    0.2510 22.0 187 
 BAR2 SZ I        22 3 21.19        15.4 0.22            170           22.0 187 
 BAR2 SZ ES       22 3 35.53                             171    0.0510 22.0 187 
 BRR  HZ EP       22 3 23.03                             151    0.5810 70.6 300 
 BRR  HE ES       22 3 39.33                             151    1.0010 70.6 300 
 BRR  HN I        22 3 43.75        50.5 0.16            150           70.6 300 
 PAM  SZ IP     C 22 3 23.91                             149    0.2510 79.0  40 
 PAM  SN ES       22 3 40.72                             149    0.2310 79.0  40 
 PAM  SE I        22 3 42.43        27.0 0.72            153           79.0  40 
 RUS  HZ EP       22 3 24.88                             143   -0.1910 99.6 175 
 RUS  HE ES       22 3 42.60                             143   -0.4110 99.6 175 
 RUS  HN I        22 3 45.54         7.8 0.16            146           99.6 175 
 PTB  HZ EP       22 3 27.65                             131   -0.70 9  146 259 
 PTB  HN ES       22 3 47.76                             131   -1.08 9  146 259 
 PTB  HN I        22 3 54.67        46.8 0.42            131            146 259 
 OCA  HZ EP       22 3 29.21                             128   -0.74 9  161 354 
 OCA  HE ES       22 3 50.98                             128   -0.71 9  161 354 
 OCA  HE I        22 3 59.22        56.4 0.36            130            161 354 
 SPBC HZ EP       22 3 29.97                             128    0.08 9  162 219 
 SPBC HN ES       22 3 51.53                             128   -0.05 9  162 219 
 SPBC HN I        22 3 57.39        35.1 0.12            130            162 219 
 CHI  HZ EP       22 3 38.00                             116   -1.24 8  247 195 
 CHI  HN ES       22 4  8.22                             116   -0.01 8  247 195 
 CHI  HE I        22 4 15.42        12.2 0.52            118            247 195 
 ROSC BZ EP       22 3 41.28                             115    1.63 8  251 211 
 HEL  HZ EP       22 3 42.08                             113    0.30 8  271 256 
 HEL  HN ES       22 4 13.49                             113    0.75 8  271 256 
 HEL  HE I        22 4 21.25         8.2 0.42            115            271 256 
 GUY2CHZ EP       22 3 45.12                             111   -0.06 7  300 235 
 GUY2CHN ES       22 4 18.24                             111   -0.56 7  300 235 
 GUY2CHE I        22 4 28.56         8.9 0.62                           300 235 
 RREF HZ EP   9   22 3 45.21                             110   -2.52 0  320 229 
 RREF HN ES       22 4 20.32                                   -0.50 7  320 229 
 TOL  SZ EP       22 3 50.81                             108    0.94 7  342 225 
 TOL  SN ES       22 4 27.35                             108    0.21 7  342 225 
                                                                                
