 2011  126 2142 36.5 L   6.699 -73.149142.8  RSN  4 0.3 1.5LRSN                1
 GAP=204        0.74       7.3    11.6  8.6 -0.1727E+00  0.1378E+02  0.1123E+02E
 Epicentro: VILLANUEVA - SANTANDER                                             3
 ACTION:UP  11-02-08 08:42 OP:pat  STATUS:               ID:20110126214236 L   I
 2011-01-26-2138-57S.COL___138                                                 6
 STAT SP IPHASW D HRMM SECON CODA AMPLIT PERI AZIMU VELO SNR AR TRES W  DIS CAZ7
 BAR2 SZ EP   1   2142 55.26                             175    -0.3 7   12 198 
 BAR2 SZ ES   1   2143  9.96                             175    -0.6 7   12 198 
 BAR2 SZ I        2143 11.76        10.6 0.11                            12 198 
 BTL  SZ EP   1   2142 56.03                             169     0.2 7   28 332 
 BTL  SZ ES   1   2143 11.42                             169     0.4 7   28 332 
 RUS  HZ EP   1   2142 59.28                             146     0.1 7   89 175 
 RUS  HN ES   1   2143 17.12                             146     0.2 7   89 175 
 RUS  HZ I        2143 18.87         4.2 0.13                            89 175 
 NOR  SN ES   2   2143 38.51                             119    -0.1 4  228 237 
                                                                                
