 2011  826 2105 37.4 L   6.559 -73.567102.0  RSN  7 0.3 1.9LRSN                1
 GAP=113        0.58       2.6     4.8  5.4  0.1680E+01  0.1100E+02  0.3004E+01E
 Epicentro: EL CARMEN DE CHUCURI - SANTANDER                                   3
 ACTION:UPD 12-07-13 15:53 OP:ep   STATUS:               ID:20110826210537 L   I
 2011-08-26-2059-50S.COL___161                                                 6
 STAT SP IPHASW D HRMM SECON CODA AMPLIT PERI AZIMU VELO AIN AR TRES W  DIS CAZ7
 BAR2 SZ IP       21 5 52.93                             156    0.3010 42.7  85 
 BAR2 SZ ES       21 6  4.20                             156   -0.2710 42.7  85 
 BAR2 SZ I        21 6  6.84       133.0 0.31                          42.7  85 
 BRR  HZ EP   1   21 5 52.97                             146   -0.51 7 62.7 345 
 BRR  HZ I        21 5 53.95        26.9 0.14                          62.7 345 
 BRR  HE ES   1   21 6  6.33                             146    0.35 7 62.7 345 
 GIR2 SZ EP   1   21 5 54.41                             142    0.15 7 70.8  36 
 RUS  HZ EP   1   21 5 56.12                             135   -0.26 7 91.1 144 
 RUS  HZ I        21 6  5.65         5.7 0.30                          91.1 144 
 RUS  HE ES   1   21 6 11.22                             135    0.08 7 91.1 144 
 NOR  SN ES   2   21 6 26.32                             114   -0.13 4  181 233 
 OCA  SZ EP   1   21 6  5.87                             113    0.04 7  188   8 
 OCA  SZ I        21 6 33.96        19.5 0.60                           188   8 
 CHI  HZ EP   2   21 6  9.16                             110    0.02 4  214 185 
 CHI  HZ I        21 6 15.17         2.9 0.37                           214 185 
 CHI  HE ES   1   21 6 34.06                             110    0.19 6  214 185 
                                                                                
