 2015  226 2319 16.1 L   6.734 -73.129144.9  RSN  7 0.5 1.7LRSN                1
 GAP=142        1.09       5.2     5.4  8.6  0.3586E+01  0.9307E+01 -0.5103E+00E
 Epicentro: JORDAN - SANTANDER                                                 3
 ACTION:UPD 15-04-30 21:29 OP:nd   STATUS:               ID:20150226231916 L   I
 OLDACT:REG 15-02-27 03:17 OP:fm   STATUS:               ID:20150226230750     3
 2015-02-26-2307-50M.COL___295                                                 6
 STAT SP IPHASW D HRMM SECON CODA AMPLIT PERI AZIMU VELO AIN AR TRES W  DIS CAZ7
 BRR  HZ EP       2319 37.89                             151    0.4710 76.5 303 
 BRR  HZ I        2319 53.50        28.0 0.34            148           76.5 303 
 BRR  HN ES       2319 54.63                             151    0.5410 76.5 303 
 PAM  SZ EP   1   2319 38.45                             149   -0.02 7 82.1  35 
 PAM  SN ES   1   2319 55.34                             149   -0.61 7 82.1  35 
 PAM  SZ I        2319 58.19         6.8 0.62            148           82.1  35 
 RUS  HZ EP       2319 39.67                             146    0.4710 93.2 177 
 RUS  HN ES       2319 57.03                             146   -0.2210 93.2 177 
 RUS  HZ I        2319 59.27         3.7 0.22            145           93.2 177 
 PTB  HZ EP       2319 42.51                             132   -0.50 9  148 262 
 PTB  HN ES       2320  3.32                             132   -0.71 9  148 262 
 PTB  HZ I        2320  8.01         4.9 0.20            129            148 262 
 SPBC HN ES   1   2320  6.20                             130    0.28 7  159 221 
 SPBC HZ I        2320 14.04         8.2 0.22            127            159 221 
 ZAR  HZ EP       2319 48.44                             122   -0.48 8  209 294 
 ZAR  HE ES       2320 14.91                             122    0.36 8  209 294 
 ZAR  HZ I        2320 20.15         4.8 0.26            119            209 294 
 GUY2CHZ EP   1   2319 59.70                             112    0.37 5  299 236 
                                                                                
