 2015  426 2137 17.6 L   6.791 -73.140144.5  RSN  8 0.5 2.4LRSN                1
 GAP=138        1.15       4.2     4.7  6.8 -0.7948E+00  0.1024E+02 -0.3213E+01E
 Epicentro: LOS SANTOS - SANTANDER                                             3
 ACTION:UPD 15-06-03 16:57 OP:cam  STATUS:               ID:20150426213717 L   I
 OLDACT:REG 15-04-27 05:09 OP:carl STATUS:               ID:20150426212748     3
 2015-04-26-2127-48M.COL___280                                                 6
 STAT SP IPHASW D HRMM SECON CODA AMPLIT PERI AZIMU VELO AIN AR TRES W  DIS CAZ7
 BAR2 EZ IP     D 2137 36.99                             171   -0.0510 22.5 192 
 BAR2 EZ ES       2137 51.83                             171   -0.3910 22.5 192 
 BAR2 EZ I        2137 52.73        60.0 0.36            172           22.5 192 
 BRR  HZ IP     C 2137 38.92                             152    0.2710 72.3 299 
 BRR  HN ES       2137 55.76                             152    0.6810 72.3 299 
 BRR  HZ I        2138  1.43        40.9 0.14            149           72.3 299 
 PAM  SZ EP       2137 40.04                             150    0.3610 77.7  39 
 PAM  SN ES       2137 56.89                             150   -0.0210 77.7  39 
 PAM  SZ I        2137 58.82        79.1 0.58            153           77.7  39 
 RUS  HZ EP       2137 40.95                             144   -0.1810 99.6 176 
 RUS  HN ES       2137 59.63                             144    0.1310 99.6 176 
 RUS  HZ I        2138  0.36        20.0 0.30            149           99.6 176 
 PTB  HZ EP       2137 44.06                             132   -0.42 9  148 259 
 PTB  HN ES       2138  4.71                             132   -0.76 9  148 259 
 PTB  HZ I        2138 10.47        25.6 0.28            132            148 259 
 ZAR  HZ EP       2137 50.94                             122    0.90 9  205 292 
 ZAR  HN ES       2138 15.74                             122    0.38 9  205 292 
 ZAR  HZ I        2138 20.92        25.3 0.46            123            205 292 
 NOR  HZ EP       2137 53.48                             118    0.25 8  235 235 
 NOR  HE ES       2138 21.05                             118    0.01 8  235 235 
 NOR  HZ I        2138 23.45        10.0 0.16            120            235 235 
 SML  HZ EP       2137 53.53                             117   -0.73 8  245 335 
 SML  HN ES       2138 22.21                             117   -0.66 8  245 335 
 SML  HZ I        2138 30.43        29.7 0.28            118            245 335 
                                                                                
