 2013  226 2236 40.1 L   6.802 -73.142148.1  RSN  7 0.4 1.5LRSN                1
 GAP=137        0.78       3.6     4.4  7.6  0.1471E+01  0.3005E+01  0.5267E+01E
 Epicentro: LOS SANTOS - SANTANDER                                             3
 ACTION:UPD 13-03-12 09:36 OP:ep   STATUS:               ID:20130226223640 L   I
 2013-02-26-2230-00M.COL___228                                                 6
 STAT SP IPHASW D HRMM SECON CODA AMPLIT PERI AZIMU VELO AIN AR TRES W  DIS CAZ7
 BRR  HZ EP   1   2237  2.11                             153    0.60 7 71.4 298 
 BRR  HN ES   1   2237 18.96                             153    0.75 7 71.4 298 
 BRR  HZ I        2237 23.94         7.6 0.56            151           71.4 298 
 PAM  SZ EP       2237  2.60                             151    0.0710 77.0  39 
 PAM  SN ES   1   2237 19.66                             151   -0.38 7 77.0  39 
 PAM  SZ I        2237 21.83         4.2 0.52            159           77.0  39 
 RUS  HZ EP       2237  3.99                             144   -0.1010  101 176 
 RUS  HE ES   1   2237 22.68                             144   -0.13 7  101 176 
 RUS  HZ I        2237 23.70         3.8 0.24            147            101 176 
 PTB  HZ EP   1   2237  7.10                             132   -0.19 7  148 259 
 PTB  HN ES   1   2237 27.82                             132   -0.68 7  148 259 
 PTB  HZ I        2237 35.22         4.4 0.56            132            148 259 
 ZAR  HN ES   1   2237 38.26                             123    0.10 6  204 292 
 ZAR  HZ I        2237 43.84         5.1 0.56            124            204 292 
 SML  HN ES   1   2237 45.08                             118   -0.43 6  244 335 
 CHI  HZ EP   1   2237 18.20                             118    0.24 6  249 195 
 CHI  HN ES   1   2237 47.52                             118    0.03 6  249 195 
 CHI  HZ I        2237 53.43         1.0 0.30            120            249 195 
                                                                                
