 2017  926 2124 15.0 L   6.627 -74.094  4.4  RSN  8 0.4 1.8LRSN                1
 GAP= 90        0.86       2.0     1.5  7.4 -0.4849E+00  0.2189E+01  0.4566E+01E
 Epicentro: PUERTO PARRA - SANTANDER                                           3
 ACTION:UPD 17-10-05 19:16 OP:rebc STATUS:               ID:20170926212415 L   I
 OLDACT:UP  17-09-27 04:32 OP:leo  STATUS:               ID:20170926211736     3
 OLDACT:UP  17-09-27 04:31 OP:leo  STATUS:               ID:20170926211736     3
 OLDACT:UP  17-09-27 04:28 OP:leo  STATUS:               ID:20170926211736     3
 OLDACT:REG 17-09-27 03:48 OP:leo  STATUS:               ID:20170926211736     3
 2017-09-26-2118-00M.COL___453                                                 6
 STAT SP IPHASW D HRMM SECON CODA AMPLIT PERI AZIMU VELO AIN AR TRES W  DIS CAZ7
 BRR  HZ EP       2124 25.56                              90   -0.2710 67.8  38 
 BRR  HN ES       2124 33.87                              90   -0.4310 67.8  38 
 BRR  HZ I        2124 34.61        43.3 0.10             47           67.8  38 
 BAR2 EZ IP     D 2124 30.93                              90   -0.1510  101  92 
 BAR2 EZ ES   1   2124 43.01                              90   -0.64 7  101  92 
 BAR2 EZ I        2124 49.08        12.8 0.46             47            101  92 
 ZAR  HZ EP       2124 35.30                              90    0.4010  128 319 
 ZAR  HN ES       2124 50.62                              90    0.1710  128 319 
 ZAR  HZ I        2124 52.29        15.3 0.30             47            128 319 
 RUS  HZ EP   2   2124 37.72                              90    0.71 5  138 126 
 RUS  HN ES       2124 54.47                              90    0.27 9  138 126 
 RUS  HZ I        2124 57.50        13.2 0.20             47            138 126 
 NOR  HZ EP   4   2124 39.09                              90    1.41 0  146 216 
 NOR  HN ES       2124 55.32                              90   -0.07 9  146 216 
 NOR  HZ I        2124 58.36         8.5 0.12             47            146 216 
 HEL  HZ EP       2124 41.30                              90    0.22 9  166 253 
 HEL  HN ES       2125  1.02                              90   -0.43 9  166 253 
 HEL  HZ I        2125  1.77        31.2 0.28             47            166 253 
 PAM  EZ EP     C 2124 42.32                              90    0.05 9  173  63 
 PAM  EN ES       2125  4.19                              90    0.61 9  173  63 
 PAM  EZ I        2125  5.08        21.2 0.20             47            173  63 
 GUY2CHZ EP   4   2124 48.40                              56    1.45 0  209 222 
 GUY2CHN ES       2125 11.88                              56   -0.01 8  209 222 
 GUY2CHZ I        2125 17.63         5.8 0.62                           209 222 
                                                                                
