 2012  226 2255 53.3 L   6.714 -73.199144.0  RSN  5 0.4 1.7LRSN                1
 GAP=225        0.59       6.1     6.6  7.0  0.2192E+02  0.2540E+01 -0.3818E-01E
 ACTION:UP  12-03-07 16:34 OP:epov STATUS:               ID:20120226225553 L   I
 2012-02-26-2250-00M.COL___192                                                 6
 STAT SP IPHASW D HRMM SECON CODA AMPLIT PERI AZIMU VELO AIN AR TRES W  DIS CAZ7
 BRR  HZ EP   1   2256 14.18                             152   -0.12 7 71.5 307 
 BRR  HN ES   1   2256 30.87                             152    0.21 7 71.5 307 
 BRR  HZ I        2256 35.92        13.2 0.15                          71.5 307 
 RUS  HZ EP   1   2256 16.09                             146   -0.19 7 91.7 172 
 RUS  HN ES   1   2256 34.33                             146    0.14 7 91.7 172 
 RUS  HZ I        2256 35.50         5.5 0.03                          91.7 172 
 PTB  HZ EP   1   2256 19.11                             133   -0.38 7  140 262 
 PTB  HN ES   1   2256 39.76                             133   -0.14 7  140 262 
 ZAR  HZ EP   2   2256 25.92                             122    0.42 4  203 295 
 ZAR  HZ I        2256 56.30         5.1 0.30                           203 295 
 NOR  SZ EP   2   2256 28.83                             119    0.97 4  224 236 
                                                                                
