 2010  626 2241 11.2 L   6.754 -73.055144.0  RSN 10 0.4 2.2LRSN                1
 GAP=167        0.95       4.3     8.2  7.0 -0.1385E+02  0.8017E+01  0.1445E+01E
 Epicentro: LOS SANTOS - SANTANDER                                             3
 ACTION:DUP 10-08-24 10:13 OP:vdl  STATUS:               ID:20100626224112dL   I
 2010-06-26-2237-45S.COL___118                                                 6
 STAT SP IPHASW D HRMM SECON CODA AMPLIT PERI AZIMU VELO SNR AR TRES W  DIS CAZ7
 BAR2 SZ IP       2241 30.24                             170    -0.310   23 218 
 BAR2 SZ ES   1   2241 45.42                             170    -0.3 7   23 218 
 BRR  HZ IP     D 2241 32.23                             149    -0.610   82 298 
 BRR  HZ I        2241 33.75        29.1 0.06                            82 298 
 BRR  HE ES   1   2241 49.92                             149     0.2 7   82 298 
 RUS  HZ EP   1   2241 34.11                             145    -0.3 7   95 182 
 RUS  HN ES   1   2241 52.77                             145     0.3 7   95 182 
 RUS  HZ I        2241 54.08        12.1 0.42                            95 182 
 BRI  SZ EP   1   2241 35.24                             141     0.2 7  110  15 
 BRI  SZ ES   1   2241 54.50                             141     0.9 7  110  15 
 GUE  SZ EP       2241 35.86                             138    -0.110  120   7 
 GRA  SZ EP   1   2241 36.44                             136     0.0 7  128  13 
 CHI  HZ EP   1   2241 48.37                             117    -0.2 6  247 198 
 CHI  HE ES   1   2242 18.00                             117     0.3 6  247 198 
 CHI  HZ I        2242 23.66         5.3 0.35                           247 198 
 HEL  HZ EP   1   2241 52.07                             114    -0.2 6  281 257 
 HEL  HZ I        2242 29.46         9.6 0.30                           281 257 
 RREF HZ EP       2241 58.40                             110     0.7 7  326 231 
 RREF HE ES   2   2242 34.95                             110     0.9 3  326 231 
 RREF HZ I        2242 41.88         9.5 0.44                           326 231 
 PRA  HZ EP   2   2242  5.06                             106     0.4 3  393 211 
 PRA  HZ I        2242 50.92         7.5 0.23                           393 211 
                                                                                
