 2017  426 2311 31.0 L   6.794 -73.123133.9  RSN  5 0.3 1.5LRSN                1
 GAP=182        0.79       5.1     4.2  8.2 -0.9437E+01  0.9611E+01 -0.9653E+00E
 Epicentro: LOS SANTOS - SANTANDER                                             3
 ACTION:UPD 17-05-30 21:16 OP:jn   STATUS:               ID:20170426231130 L   I
 OLDACT:UP  17-05-11 20:24 OP:nlst STATUS:               ID:20170426231130 L   3
 OLDACT:REG 17-04-27 08:07 OP:lv   STATUS:               ID:20170426230748     3
 2017-04-26-2308-00M.COL___367                                                 6
 STAT SP IPHASW D HRMM SECON CODA AMPLIT PERI AZIMU VELO AIN AR TRES W  DIS CAZ7
 BRR  HZ EP       2311 50.79                             149   -0.2210 73.7 298 
 BRR  HN ES   1   2312  7.32                             149    0.69 7 73.7 298 
 PAM  EZ EP       2311 51.89                             149    0.0110 76.4  38 
 PAM  EN ES       2312  8.05                             149   -0.1310 76.4  38 
 PAM  EZ I        2312  9.37         3.4 0.13            148           76.4  38 
 PTB  HN ES       2312 17.30                             129   -0.39 9  150 259 
 SPBC HN ES       2312 20.46                             126    0.15 9  164 220 
 ZAR  HZ EP       2312  3.42                             119    0.47 8  207 292 
 ZAR  HE ES       2312 27.67                             119   -0.22 8  207 292 
 ZAR  HZ I        2312 33.71         6.0 0.09            118            207 292 
                                                                                
