 2016  126 2237 41.3 L   6.772 -73.157134.5  RSN 10 0.5 1.9LRSN                1
 GAP=136        1.07       3.9     4.5  6.7 -0.2231E+01  0.1195E+02  0.1727E+01E
 Epicentro: LOS SANTOS - SANTANDER                                             3
 ACTION:UPD 16-03-09 23:28 OP:cam  STATUS:               ID:20160126223741 L   I
 OLDACT:UP  16-01-27 09:58 OP:mh   STATUS:               ID:20160126222750     3
 OLDACT:UP  16-01-27 09:58 OP:mh   STATUS:               ID:20160126222750     3
 OLDACT:UP  16-01-27 09:56 OP:mh   STATUS:               ID:20160126222750     3
 OLDACT:REG 16-01-27 03:14 OP:mh   STATUS:               ID:20160126222750     3
 2016-01-26-2227-50M.COL___330                                                 6
 STAT SP IPHASW D HRMM SECON CODA AMPLIT PERI AZIMU VELO AIN AR TRES W  DIS CAZ7
 BAR2 EZ EP       2237 59.62                             171    0.1210 20.1 188 
 BAR2 EZ ES       2238 13.37                             171   -0.3410 20.1 188 
 BAR2 EZ I        2238 15.56        22.3 0.13            170           20.1 188 
 PAM  EZ EP     C 2238  2.49                             148   -0.0410 80.6  39 
 PAM  EN ES       2238 19.15                             148    0.0610 80.6  39 
 PAM  EZ I        2238 21.48        21.8 0.46            152           80.6  39 
 RUS  HZ EP   1   2238  2.86                             142   -0.87 7 97.6 175 
 RUS  HN ES       2238 21.97                             142    0.7410 97.6 175 
 RUS  HZ I        2238 23.16        14.9 0.26            145           97.6 175 
 PTB  HZ EP       2238  6.41                             130   -0.78 9  146 260 
 PTB  HN ES       2238 26.87                             130   -0.52 9  146 260 
 PTB  HZ I        2238 30.29         6.5 0.22            130            146 260 
 SPBC HZ EP       2238  8.57                             127   -0.07 9  160 219 
 SPBC HN ES       2238 30.20                             127    0.23 9  160 219 
 SPBC HZ I        2238 33.41        18.5 0.20            128            160 219 
 OCA  HN ES   4   2238 29.16                             126   -1.51 0  163 354 
 OCA  HZ I        2238 31.03        19.3 0.18            129            163 354 
 ZAR  HZ EP       2238 13.36                             120    0.33 9  204 293 
 ZAR  HN ES       2238 38.42                             120    0.64 9  204 293 
 ZAR  HZ I        2238 45.67         8.2 0.30            121            204 293 
 NOR  HZ EP   1   2238 16.08                             116   -0.00 6  232 235 
 NOR  HN ES   1   2238 43.16                             116   -0.06 6  232 235 
 NOR  HZ I        2238 50.76         5.2 0.22            118            232 235 
 CHI  HZ EP       2238 18.08                             115    0.05 8  245 195 
 CHI  HN ES       2238 46.45                             115   -0.23 8  245 195 
 CHI  HZ I        2238 50.15         3.6 0.56            117            245 195 
 SML  HZ EP   4   2238 15.50                             115   -2.06 0  246 336 
 GUY2CHZ EP       2238 24.81                             110    0.73 7  298 235 
 GUY2CHN ES   4   2238 58.92                             110    1.47 0  298 235 
 GUY2CHZ I        2239  5.96         3.2 0.36                           298 235 
                                                                                
