 2017  826 2203 17.4 L   6.114 -73.715111.3  RSN  4 0.2 1.3LRSN                1
 GAP=164        0.65       5.5     3.6  6.3 -0.1383E+02  0.9409E+01 -0.1049E+02E
 Epicentro: CHIPATA - SANTANDER                                                3
 ACTION:UPD 17-09-04 20:24 OP:rebc STATUS:               ID:20170826220317 L   I
 OLDACT:REG 17-08-27 03:05 OP:lv   STATUS:               ID:20170826215740     3
 2017-08-26-2158-00M.COL___411                                                 6
 STAT SP IPHASW D HRMM SECON CODA AMPLIT PERI AZIMU VELO AIN AR TRES W  DIS CAZ7
 SPBC HZ EP   1   22 3 34.38                             148   -0.21 7 64.7 218 
 SPBC HN ES       22 3 47.99                             148   -0.0410 64.7 218 
 RUS  HZ EP       22 3 36.08                             144    0.2810 74.1 109 
 RUS  HN ES       22 3 50.10                             144   -0.0910 74.1 109 
 RUS  HZ I        22 3 52.34         1.3 0.28            146           74.1 109 
 BAR2 EZ EP       22 3 36.00                             142    0.1910 79.1  48 
 BAR2 EZ ES       22 3 50.09                             142   -0.1210 79.1  48 
 BAR2 EZ I        22 3 51.29        16.0 0.50            144           79.1  48 
 NOR  HZ EP       22 3 40.75                             124   -0.44 9  142 245 
 NOR  HN ES       22 4  0.11                             124    0.34 9  142 245 
 NOR  HZ I        22 4  1.60         3.4 0.26            126            142 245 
                                                                                
