 2012  826 2238 56.1 L   6.712 -73.156152.5  RSN  6 0.3 2.0LRSN                1
 GAP=181        0.57       4.1     4.1  4.8  0.1737E+01  0.3495E+01  0.2814E+01E
 Epicentro: VILLANUEVA - SANTANDER                                             3
 ACTION:UPD 12-09-10 11:58 OP:ep   STATUS:               ID:20120826223856 L   I
 2012-08-26-2235-44M.COL___211                                                 6
 STAT SP IPHASW D HRMM SECON CODA AMPLIT PERI AZIMU VELO AIN AR TRES W  DIS CAZ7
 BAR2 SZ EP   1   2239 16.62                             175    0.21 7 13.5 192 
 BAR2 SZ ES   1   2239 31.84                             175   -0.40 7 13.5 192 
 BAR2 SZ I        2239 35.87        30.9 0.43                          13.5 192 
 GIR2 SZ EP   1   2239 16.61                             164   -0.27 7 40.8 354 
 BRR  HZ EP       2239 18.35                             152    0.1110 75.4 305 
 BRR  HZ I        2239 18.76        24.4 0.25                          75.4 305 
 BRR  HN ES       2239 35.65                             152    0.1710 75.4 305 
 RUS  HZ EP   1   2239 19.86                             148   -0.03 7 90.9 175 
 RUS  HE ES   1   2239 38.68                             148    0.24 7 90.9 175 
 PTB  HZ EP       2239 23.55                             134    0.14 9  145 263 
 PTB  HE ES   1   2239 44.35                             134   -0.34 7  145 263 
 PTB  HZ I        2239 50.52         7.4 0.36                           145 263 
 NOR  SZ EP   1   2239 31.05                             121   -0.51 6  228 236 
 NOR  SN ES   1   2239 59.47                             121    0.26 6  228 236 
 NOR  SZ I        2240  4.87         9.1 0.24                           228 236 
                                                                                
