 2016  526 2019  0.8 L   6.794 -73.141145.2  RSN  6 0.3 1.7LRSN                1
 GAP=238        0.86       4.8     4.9  5.8  0.1819E+01  0.6091E+01  0.4124E+01E
 Epicentro: LOS SANTOS - SANTANDER                                             3
 ACTION:UPD 16-08-18 17:49 OP:cam  STATUS:               ID:20160526201900 L   I
 OLDACT:REG 16-05-27 03:22 OP:drio STATUS:               ID:20160526201745     3
 2016-05-26-2017-45M.COL___317                                                 6
 STAT SP IPHASW D HRMM SECON CODA AMPLIT PERI AZIMU VELO AIN AR TRES W  DIS CAZ7
 BAR2 EZ EP       2019 20.09                             171   -0.2410 22.7 192 
 BAR2 EZ ES       2019 35.12                             171   -0.4610 22.7 192 
 BAR2 EZ I        2019 37.26         8.3 0.24            169           22.7 192 
 BRR  HZ EP       2019 22.36                             152    0.4510 72.0 299 
 BRR  HN ES       2019 38.82                             152    0.4210 72.0 299 
 RUS  HZ EP       2019 24.40                             144   -0.0210 99.8 176 
 RUS  HE ES       2019 43.10                             144    0.2410 99.8 176 
 RUS  HZ I        2019 43.85         5.3 0.26            144           99.8 176 
 PTB  HZ EP       2019 27.13                             132   -0.61 9  148 259 
 PTB  HN ES       2019 48.43                             132   -0.34 9  148 259 
 PTB  HZ I        2019 50.44         7.6 0.10            132            148 259 
 SPBC HZ EP       2019 29.35                             129    0.14 9  163 219 
 SPBC HN ES       2019 51.59                             129    0.19 9  163 219 
 NOR  HZ EP       2019 36.65                             118    0.17 8  235 235 
 NOR  HE ES       2020  4.39                             118    0.06 8  235 235 
 NOR  HZ I        2020  7.98         4.7 0.16            119            235 235 
                                                                                
