 2013  526 2139 58.4 L   6.817 -73.126143.8  RSN 14 0.5 2.3LRSN                1
 GAP= 71        0.91       2.9     2.6  5.2 -0.2268E+00  0.3228E+01  0.2050E+01E
 Epicentro: LOS SANTOS - SANTANDER                                             3
 ACTION:UPD 13-06-20 09:54 OP:ep   STATUS:               ID:20130526213958 L   I
 2013-05-26-2140-00M.COL___261                                                 6
 STAT SP IPHASW D HRMM SECON CODA AMPLIT PERI AZIMU VELO AIN AR TRES W  DIS CAZ7
 BAR2 SZ EP   1   2140 17.80                             169   -0.01 7 25.6 194 
 BAR2 SZ ES   1   2140 33.32                             169    0.34 7 25.6 194 
 BAR2 SZ I        2140 35.08        42.0 0.18            171           25.6 194 
 GIR2 SZ EP   1   2140 17.81                             168    0.04 7 29.9 346 
 GIR2 SZ ES   1   2140 32.48                             168   -0.43 7 29.9 346 
 GIR2 SZ I        2140 34.22        25.3 0.46            165           29.9 346 
 BRR  HZ EP   1   2140 19.67                             152    0.30 7 72.2 296 
 BRR  HN ES   1   2140 36.41                             152    0.66 7 72.2 296 
 BRR  HZ I        2140 39.66        24.0 0.30            149           72.2 296 
 PAM  SZ EP       2140 20.56                             151    0.3510 74.5  39 
 PAM  SN ES   1   2140 37.75                             151    0.51 7 74.5  39 
 PAM  SZ I        2140 39.89        34.1 0.66            152           74.5  39 
 RUS  HZ EP       2140 21.68                             143   -0.3810  102 177 
 RUS  HN ES   1   2140 39.72                             143   -0.82 7  102 177 
 RUS  HZ I        2140 41.27        21.8 0.30            146            102 177 
 PTB  HZ EP   1   2140 24.92                             131   -0.49 7  150 258 
 PTB  HN ES       2140 46.21                             131   -0.29 9  150 258 
 PTB  HZ I        2140 49.49        18.1 0.20            131            150 258 
 TAM  HZ EP       2140 26.04                             130    0.30 9  154 106 
 TAM  HN ES       2140 47.17                             130    0.07 9  154 106 
 OCA  HZ EP   1   2140 25.84                             129   -0.53 7  159 352 
 OCA  HN ES   1   2140 47.76                             129   -0.46 7  159 352 
 OCA  HZ I        2140 52.09        21.3 0.16            129            159 352 
 ZAR  HZ EP   1   2140 31.17                             122    0.35 6  205 291 
 ZAR  HN ES       2140 56.53                             122    0.39 8  205 291 
 ZAR  HZ I        2141  0.34        24.4 0.32            122            205 291 
 NOR  HZ EP   1   2140 34.32                             118    0.03 6  238 234 
 NOR  HN ES   1   2141  2.86                             118    0.54 6  238 234 
 NOR  HZ I        2141  6.38        12.6 0.38            118            238 234 
 SML  HZ EP   1   2140 34.43                             117   -0.37 6  243 335 
 SML  HE ES       2141  2.66                             117   -0.55 8  243 335 
 SML  HZ I        2141 13.05        25.6 0.10            117            243 335 
 HEL  HZ EP   1   2140 39.55                             114    0.78 6  275 256 
 HEL  HN ES       2141  9.72                             114   -0.56 8  275 256 
 HEL  HZ I        2141 16.21         7.2 0.54            115            275 256 
 GUY2CHZ EP   1   2140 42.94                             112    0.73 5  304 235 
 GUY2CHE ES       2141 16.92                             112    0.51 7  304 235 
 GUY2CHZ I        2141 22.72         9.2 0.32                           304 235 
 PRA  HZ EP   1   2140 51.62                             106   -0.52 4  395 210 
 PRA  HN ES       2141 33.71                             106   -0.37 6  395 210 
 PRA  HZ I        2141 39.26         8.0 0.30            107            395 210 
                                                                                
