 2010  326 2315  7.9 L   6.811 -73.043147.0  RSN 10 0.3 2.2LRSN                1
 GAP=193        0.50       2.0     5.0  3.8 -0.1016E+01  0.4306E+01  0.8881E+00E
 Epicentro: LOS SANTOS - SANTANDER                                             3
 ACTION:UP  10-08-24 09:56 OP:vdl  STATUS:               ID:20100326231507 L   I
 2010-03-26-2311-20S.COL___098                                                 6
 STAT SP IPHASW D HRMM SECON CODA AMPLIT PERI AZIMU VELO SNR AR TRES W  DIS CAZ7
 BAR2 SZ IP       2315 27.92                             168     0.210   29 213 
 BAR2 SZ ES   1   2315 43.29                             168     0.0 7   29 213 
 BRR  HZ IP       2315 29.81                             150     0.110   81 294 
 BRR  HE ES   1   2315 46.61                             150    -0.2 7   81 294 
 BRR  HZ I        2315 49.27        25.3 0.09                            81 294 
 RUS  HZ EP   1   2315 31.95                             144     0.1 7  102 183 
 RUS  HN ES   1   2315 50.61                             144     0.1 7  102 183 
 RUS  HZ I        2315 52.22        10.9 0.28                           102 183 
 OCA  SZ IP       2315 36.22                             130    -0.1 9  161 349 
 OCA  SZ ES   1   2315 58.29                             130    -0.2 7  161 349 
 OCA  SZ I        2316  1.56        27.6 0.37                           161 349 
 CHI  HZ EP   1   2315 46.14                             117     0.0 6  253 198 
 CHI  HE ES   1   2316 15.45                             117    -0.5 6  253 198 
 CHI  HZ I        2316 19.08        12.5 0.57                           253 198 
 HEL  HZ EP   1   2315 49.57                             114     0.2 6  283 256 
 HEL  HZ I        2316 26.04         6.5 0.31                           283 256 
 RREF BZ EP   1   2315 55.27                             110     0.1 5  331 231 
 RREF BN ES   2   2316 32.43                             110     0.4 3  331 231 
 RREF BZ I        2316 39.98         7.3 0.36                           331 231 
 TOL  SZ EP   2   2315 57.50                             109     0.3 3  352 226 
 ANIL BN ES   2   2316 38.91                             108     0.5 3  366 226 
 PRA  HZ EP   1   2316  1.93                             106    -0.3 4  399 211 
 PRA  HE ES   1   2316 43.89                             106    -0.7 4  399 211 
 PRA  HZ I        2316 48.10         9.5 0.31                           399 211 
                                                                                
