 2011  126 2330 28.8 L   6.336 -73.527104.5  RSN  4 0.2 1.2LRSN                1
 GAP=144        0.45       5.9     6.0 12.4 -0.1982E+02  0.5970E+02 -0.4406E+02E
 Epicentro: CONTRATACION - SANTANDER                                           3
 ACTION:UP  11-02-08 08:42 OP:pat  STATUS:               ID:20110126233028 L   I
 2011-01-26-2328-21S.COL___138                                                 6
 STAT SP IPHASW D HRMM SECON CODA AMPLIT PERI AZIMU VELO SNR AR TRES W  DIS CAZ7
 BAR2 SZ EP   2   2330 44.16                             154    -0.3 5   47  53 
 RUS  HZ EP   1   2330 46.02                             145    -0.2 7   69 135 
 RUS  HN ES   1   2330 59.94                             145     0.1 7   69 135 
 RUS  HZ I        2331  1.86         4.9 0.20                            69 135 
 BTL  SZ EP   1   2330 46.07                             144     0.1 7   70  24 
 NOR  SZ EP   1   2330 55.59                             116     0.2 7  172 240 
 NOR  SN ES   2   2331 15.86                             116    -0.2 4  172 240 
                                                                                
