 2016 1126 2213 57.0 L   6.805 -73.157151.6  RSN  6 0.4 1.7LRSN                1
 GAP=146        1.14       6.0     5.4  9.0 -0.3438E+01  0.8991E+01  0.1122E+02E
 Epicentro: LOS SANTOS - SANTANDER                                             3
 ACTION:UPD 17-10-26 21:12 OP:lp   STATUS:               ID:20161126221357 L   I
 OLDACT:UP  16-11-27 06:24 OP:ar   STATUS:               ID:20161126220746     3
 OLDACT:REG 16-11-27 04:25 OP:ar   STATUS:               ID:20161126220746     3
 2016-11-26-2208-00M.COL___346                                                 6
 STAT SP IPHASW D HRMM SECON CODA AMPLIT PERI AZIMU VELO AIN AR TRES W  DIS CAZ7
 BAR2 EZ EP       2214 17.20                             171   -0.1610 23.7 187 
 BAR2 EZ ES       2214 32.89                             171   -0.3410 23.7 187 
 BAR2 EZ I        2214 35.17        15.3 0.38            167           23.7 187 
 BRR  HZ EP       2214 19.21                             154    0.4710 69.9 299 
 BRR  HN ES       2214 36.48                             154    0.8110 69.9 299 
 BRR  HZ I        2214 40.49        10.5 0.46            153           69.9 299 
 PAM  EZ EP       2214 20.15                             152    0.2710 77.8  40 
 PAM  EE ES       2214 37.36                             152   -0.3610 77.8  40 
 PAM  EZ I        2214 37.85         6.3 0.36            157           77.8  40 
 PTB  HZ EP       2214 23.77                             133   -0.61 9  147 259 
 PTB  HN ES       2214 45.38                             133   -0.33 9  147 259 
 PTB  HZ I        2214 46.81         7.3 0.36            132            147 259 
 ZAR  HZ EP   4   2214 31.52                             124    1.80 0  203 292 
 ZAR  HN ES       2214 55.01                             124   -0.22 9  203 292 
 ZAR  HZ I        2215  2.06         6.9 0.44            124            203 292 
 CHI  HN ES       2215  5.22                             118    0.47 8  249 195 
 CHI  HZ I        2215 14.22         2.1 0.30            118            249 195 
                                                                                
