 2016 1026 2121 16.6 L   6.839 -73.149147.6  RSN  5 0.4 1.5LRSN                1
 GAP=134        1.02       5.7     5.1  9.3 -0.7717E+01  0.5126E+01  0.1326E+02E
 Epicentro: LOS SANTOS - SANTANDER                                             3
 ACTION:UPD 16-11-09 19:23 OP:rebc STATUS:               ID:20161026212116 L   I
 OLDACT:REG 16-10-27 02:50 OP:ar   STATUS:               ID:20161026211746     3
 2016-10-26-2118-00M.COL___355                                                 6
 STAT SP IPHASW D HRMM SECON CODA AMPLIT PERI AZIMU VELO AIN AR TRES W  DIS CAZ7
 BRR  HZ EP   2   2121 38.23                             154    0.40 5 68.9 296 
 BRR  HN ES       2121 54.70                             154    0.3210 68.9 296 
 BRR  HZ I        2121 55.18        21.0 0.36            154           68.9 296 
 PAM  EZ EP       2121 39.25                             152    0.4110 74.4  42 
 PAM  EN ES       2121 56.00                             152   -0.1910 74.4  42 
 PAM  EZ I        2121 57.17         5.8 0.22            154           74.4  42 
 RUS  HZ EP       2121 40.76                             143   -0.0910  105 176 
 RUS  HN ES       2121 59.65                             143   -0.1110  105 176 
 RUS  HZ I        2122  1.15         1.8 0.28            144            105 176 
 PTB  HZ EP       2121 43.17                             132   -0.60 9  148 257 
 PTB  HN ES       2122  4.46                             132   -0.50 9  148 257 
 PTB  HZ I        2122  7.31         3.0 0.12            133            148 257 
 NOR  HE ES       2122 21.63                             119    0.81 8  237 234 
                                                                                
