 2010  126 2251 12.6 L   6.792 -73.078139.9  RSN  9 0.4 2.1LRSN                1
 GAP=166        0.74       4.3     8.2  6.9 -0.1606E+02  0.2594E+02  0.2391E+01E
 Epicentro: LOS SANTOS - SANTANDER                                             3
 ACTION:UP  10-08-24 09:46 OP:vdl  STATUS:               ID:20100126225112 L   I
 2010-01-26-2239-50S.COL___083                                                 6
 STAT SP IPHASW D HRMM SECON CODA AMPLIT PERI AZIMU VELO SNR AR TRES W  DIS CAZ7
 BAR2 SZ EP       2251 31.68                             169     0.110   25 208 
 BAR2 SZ ES   2   2251 45.96                             169    -0.4 5   25 208 
 GIR2 SZ EP       2251 31.50                             166    -0.210   34 338 
 GIR2 SZ ES   2   2251 47.08                             166     0.5 5   34 338 
 RUS  HZ EP       2251 35.88                             143     0.210   99 180 
 RUS  HN ES   2   2251 54.00                             143     0.3 5   99 180 
 GRA  SZ EP       2251 37.62                             136     0.410  125  14 
 GRA  SZ ES   2   2251 55.11                             136    -1.3 5  125  14 
 CHI  HZ EP       2251 49.86                             116    -0.3 8  250 197 
 CHI  HN ES   2   2252 18.99                             116    -0.4 4  250 197 
 CHI  HZ I        2252 28.20         5.5 0.64                           250 197 
 HEL  HZ EP       2251 53.54                             113     0.2 7  279 256 
 HEL  HZ I        2252 30.08         6.1 0.24                           279 256 
 RREF HZ EP       2251 58.65                             109    -0.5 7  327 230 
 RREF HN ES   2   2252 35.47                             109     0.1 3  327 230 
 RREF HZ I        2252 40.46         7.3 0.29                           327 230 
 TOL  SZ EP       2252  1.29                             108     0.1 6  348 226 
 TOL  SZ ES   2   2252 39.37                             108     0.3 3  348 226 
 PRA  HZ EP       2252  6.33                             105     0.0 6  395 211 
 PRA  HN ES   3   2252 46.92                             105    -1.2 1  395 211 
 PRA  HZ I        2252 53.82         6.3 0.64                           395 211 
                                                                                
