 2016  326 2133 45.8 L   6.816 -73.168143.5  RSN 14 0.4 2.1LRSN                1
 GAP= 69        0.84       2.6     2.4  5.1 -0.5784E+00  0.3422E+01  0.1976E+01E
 Epicentro: LOS SANTOS - SANTANDER                                             3
 ACTION:UPD 16-05-13 21:27 OP:cam  STATUS:               ID:20160326213346 L   I
 OLDACT:UP  16-03-29 11:54 OP:dnl  STATUS:               ID:20160326213346 L   3
 OLDACT:UP  16-03-27 05:21 OP:mh   STATUS:               ID:20160326212745     3
 OLDACT:REG 16-03-27 02:46 OP:mh   STATUS:               ID:20160326212745     3
 2016-03-26-2127-45M.COL___295                                                 6
 STAT SP IPHASW D HRMM SECON CODA AMPLIT PERI AZIMU VELO AIN AR TRES W  DIS CAZ7
 BAR2 EZ EP       2134  5.11                             170   -0.1210 24.8 184 
 BAR2 EZ ES   1   2134 19.79                             170   -0.56 7 24.8 184 
 BAR2 EZ I        2134 22.71        28.4 0.22            169           24.8 184 
 PAM  EZ EP       2134  8.17                             150    0.3410 77.7  42 
 PAM  EN ES       2134 25.11                             150    0.1310 77.7  42 
 PAM  EZ I        2134 27.09        24.0 0.50            154           77.7  42 
 RUS  HZ EP     C 2134  9.25                             143   -0.2610  103 175 
 RUS  HN ES       2134 28.04                             143    0.0710  103 175 
 RUS  HZ I        2134 28.73        15.8 0.30            145            103 175 
 PTB  HZ EP       2134 11.96                             132   -0.47 9  146 258 
 PTB  HN ES       2134 32.88                             132   -0.30 9  146 258 
 PTB  HZ I        2134 36.54        14.2 0.32            132            146 258 
 OCA  HN ES       2134 35.36                             129   -0.22 9  158 354 
 OCA  HZ I        2134 39.62        21.6 0.34            131            158 354 
 TAM  HZ EP     C 2134 13.59                             129   -0.01 9  158 105 
 TAM  HE ES       2134 35.61                             129    0.35 9  158 105 
 TAM  HZ I        2134 36.64         7.1 0.46            134            158 105 
 SPBC HZ EP       2134 14.02                             129   -0.13 9  163 218 
 SPBC HN ES       2134 36.09                             129   -0.14 9  163 218 
 SPBC HZ I        2134 41.91        28.7 0.24            129            163 218 
 ZAR  HZ EP       2134 17.65                             122   -0.18 9  201 292 
 ZAR  HN ES       2134 43.56                             122    0.77 9  201 292 
 ZAR  HZ I        2134 52.98        13.5 0.46            123            201 292 
 NOR  HZ EP       2134 20.99                             118   -0.34 8  234 234 
 NOR  HN ES       2134 49.37                             118    0.35 8  234 234 
 NOR  HZ I        2134 56.78        12.9 0.14            119            234 234 
 CHI  HZ EP       2134 23.36                             116   -0.17 8  250 195 
 CHI  HN ES       2134 53.37                             116    0.45 8  250 195 
 CHI  HZ I        2134 58.53         4.6 0.66            118            250 195 
 HEL  HZ EP   1   2134 25.15                             114   -0.57 6  270 255 
 HEL  HE ES       2134 57.43                             114    0.60 8  270 255 
 HEL  HZ I        2135  3.96         7.0 0.37            115            270 255 
 GUY2CHZ EP   4   2134 30.67                             112    1.44 0  300 234 
 GUY2CHN ES   4   2135  6.89                             112    3.81 0  300 234 
 GUY2CHZ I        2135 10.09         7.0 0.56                           300 234 
 SDV  BZ EP   4   2134 32.87                             108   -3.01 0  361  51 
 SDV  BN ES   4   2135 12.26                             108   -2.66 0  361  51 
 SDV  BZ I        2135 14.76         2.5 0.24            110            361  51 
 ORTC HZ EP       2134 40.20                             106    0.52 6  395 216 
 ORTC HN ES   4   2135 22.88                             106    1.21 0  395 216 
 ORTC HZ I        2135 29.13                             107            395 216 
                                                                                
