 2010 1026 2136 11.4 L   6.785 -73.078142.2  RSN  5 0.2 1.6LRSN                1
 GAP=166        0.50       4.9     9.2  9.1  0.1548E+02 -0.4081E+02 -0.2886E+02E
 Epicentro: LOS SANTOS - SANTANDER                                             3
 ACTION:UP  11-02-18 11:12 OP:tino STATUS:               ID:20101026213611 L   I
 2010-10-26-2133-58S.COL___128                                                 6
 STAT SP IPHASW D HRMM SECON CODA AMPLIT PERI AZIMU VELO SNR AR TRES W  DIS CAZ7
 BAR2 SZ EP   1   2136 30.40                             170    -0.2 8   24 209 
 BAR2 SZ ES   2   2136 45.28                             170    -0.3 5   24 209 
 BAR2 SZ I        2136 46.78        12.1 0.17                            24 209 
 BTL  SZ EP   1   2136 30.87                             169     0.3 8   26 305 
 BRR  HZ EP   1   2136 32.32                             150    -0.3 8   79 297 
 BRR  HN ES   2   2136 49.44                             150     0.3 5   79 297 
 BRR  HZ I        2136 53.98        10.5 0.63                            79 297 
 RUS  HZ EP   2   2136 34.72                             144     0.1 5   99 180 
 RUS  HN ES   1   2136 52.85                             144     0.1 8   99 180 
 RUS  HZ I        2136 53.85         3.4 0.16                            99 180 
 GRA  SZ EP       2136 36.30                             136     0.010  125  14 
 GRA  SZ I        2136 37.67         5.4 0.27                           125  14 
                                                                                
