 2011 1226 2336 44.9 L   6.815 -73.160142.0  RSN 18 0.5 3.1LRSN                1
 GAP=112        0.92       2.8     3.8  5.0  0.2511E+00  0.4822E+01  0.2843E+01E
 Epicentro: LOS SANTOS - SANTANDER                                             3
 ACTION:UPD 12-07-13 16:18 OP:ep   STATUS:               ID:20111226233645 L   I
 2011-12-26-2330-00M.COL___187                                                 6
 STAT SP IPHASW D HRMM SECON CODA AMPLIT PERI AZIMU VELO AIN AR TRES W  DIS CAZ7
 BAR2 SZ IP     D 2337  4.24                             170    0.0910 24.7 186 
 BAR2 SZ ES   1   2337 19.12                             170   -0.01 7 24.7 186 
 BAR2 SZ I        2337 20.53       285.3 0.16                          24.7 186 
 GIR2 SZ EP       2337  4.26                             167    0.1410 29.4 353 
 GIR2 SZ ES   1   2337 18.70                             167   -0.37 7 29.4 353 
 BRR  HZ IP     C 2337  6.06                             152    0.5010 69.1 298 
 BRR  HN ES   1   2337 22.52                             152    0.87 7 69.1 298 
 BRR  HZ I        2337 26.79       357.9 0.15                          69.1 298 
 PAM  SZ EP       2337  6.96                             150    0.2210 77.1  41 
 PAM  SN ES   1   2337 23.51                             150   -0.24 7 77.1  41 
 RUS  HZ EP   1   2337  8.22                             142   -0.23 7  102 175 
 RUS  HN ES       2337 26.41                             142   -0.3810  102 175 
 RUS  HZ I        2337 28.81       147.8 0.23                           102 175 
 PTB  HZ EP   1   2337 10.58                             131   -0.92 7  147 258 
 PTB  HN ES   1   2337 31.36                             131   -0.85 7  147 258 
 OCA  SZ EP   1   2337 13.43                             129    0.64 7  158 354 
 OCA  SZ ES   1   2337 33.80                             129   -0.71 7  158 354 
 OCA  SZ I        2337 39.69       187.9 0.29                           158 354 
 YOP  SZ EP       2337 15.13                             125    0.20 9  181 153 
 YOP  SE ES   1   2337 39.16                             125    0.84 7  181 153 
 YOP  SZ I        2337 41.26        83.1 0.32                           181 153 
 ZAR  HZ EP   1   2337 16.80                             122   -0.13 6  202 292 
 ZAR  HN ES   1   2337 42.46                             122    0.57 6  202 292 
 ZAR  HZ I        2337 47.93       211.3 0.27                           202 292 
 NOR  SZ EP   1   2337 20.23                             118   -0.19 6  234 234 
 NOR  SN ES   1   2337 48.20                             118    0.10 6  234 234 
 CHI  HZ EP   1   2337 22.50                             116   -0.06 6  250 195 
 CHI  HN ES   1   2337 51.26                             116   -0.65 6  250 195 
 CHI  HZ I        2337 57.31        69.2 0.26                           250 195 
 HEL  HZ EP   1   2337 24.46                             114   -0.39 6  271 255 
 HEL  HZ I        2338  3.57        75.5 0.34                           271 255 
 VIL  SZ EP   1   2337 28.04                             111   -0.30 5  305 191 
 VIL  SN ES   2   2338  1.94                             111   -0.24 4  305 191 
 VIL  SZ I        2338 10.91        41.0 0.29                           305 191 
 RREF HE ES   1   2338  7.19                             110    0.42 5  322 229 
 RREF HZ I        2338 12.79        73.4 0.71                           322 229 
 DBB  SZ EP   1   2337 32.90                             109    0.82 5  338 274 
 TOL  SZ EP   1   2337 33.43                             108    0.37 5  344 224 
 COD  HZ EP   1   2337 32.07                             108   -0.90 5  347 355 
 COD  HZ I        2338 18.04        30.4 0.13                           347 355 
 PRA  HZ EP   1   2337 37.94                             106   -0.47 4  393 209 
 PRA  HN ES   1   2338 20.36                             106    0.24 4  393 209 
                                                                                
