 2011 1226 2312 43.4 L   6.811 -73.144144.7  RSN  8 0.4 1.8LRSN                1
 GAP=136        0.77       4.8     4.4  7.0 -0.4533E+01  0.4866E+01  0.6174E+01E
 Epicentro: LOS SANTOS - SANTANDER                                             3
 ACTION:UPD 12-07-13 16:18 OP:ep   STATUS:               ID:20111226231243 L   I
 2011-12-26-2310-00M.COL___187                                                 6
 STAT SP IPHASW D HRMM SECON CODA AMPLIT PERI AZIMU VELO AIN AR TRES W  DIS CAZ7
 BAR2 SZ ES   2   2313 17.50                             170   -0.70 5 24.6 190 
 BAR2 SZ I        2313 20.54        12.4 0.37                          24.6 190 
 BRR  HZ EP   1   2313  4.30                             153   -0.15 7 70.7 298 
 BRR  HE ES   1   2313 21.34                             153    0.51 7 70.7 298 
 BRR  HZ I        2313 22.73        13.1 0.20                          70.7 298 
 PAM  SZ IP       2313  5.71                             151    0.2310 76.4  40 
 PAM  SN ES   1   2313 22.52                             151   -0.15 7 76.4  40 
 RUS  HZ EP   1   2313  6.96                             143   -0.21 7  102 176 
 RUS  HE ES   1   2313 25.96                             143    0.27 7  102 176 
 RUS  HZ I        2313 27.54         9.6 0.38                           102 176 
 PTB  HZ EP   1   2313  9.51                             132   -0.84 7  148 258 
 PTB  HN ES   1   2313 30.95                             132   -0.40 7  148 258 
 PTB  HZ I        2313 32.66         7.8 0.15                           148 258 
 ZAR  HE ES   2   2313 41.22                             122    0.21 4  204 292 
 ZAR  HZ I        2313 45.98         8.5 0.20                           204 292 
 NOR  SZ EP   1   2313 19.67                             118    0.48 6  236 234 
 NOR  SN ES   1   2313 47.52                             118    0.44 6  236 234 
 CHI  HZ EP   2   2313 21.34                             117    0.13 4  250 195 
 CHI  HZ I        2313 56.15         2.8 0.39                           250 195 
                                                                                
