 2017  726 2114 34.9 L   6.792 -73.420120.5  RSN  4 0.2 1.7LRSN                1
 GAP=173        0.39       2.7     2.4  3.9  0.2897E+01  0.1580E+01  0.1481E+01E
 Epicentro: SAN VICENTE DE CHUCURI - SANTANDER                                 3
 ACTION:UPD 17-08-30 15:37 OP:rebc STATUS:               ID:20170726211434 L   I
 OLDACT:REG 17-07-27 03:45 OP:dnl  STATUS:               ID:20170726210742     3
 2017-07-26-2108-00M.COL___392                                                 6
 STAT SP IPHASW D HRMM SECON CODA AMPLIT PERI AZIMU VELO AIN AR TRES W  DIS CAZ7
 BAR2 EZ EP       2114 51.68                             163   -0.1010 34.3 130 
 BAR2 EZ ES       2115  5.00                             163    0.0110 34.3 130 
 BAR2 EZ I        2115  5.82        44.2 0.24            171           34.3 130 
 BRR  HZ EP       2114 52.10                             157    0.1210 47.5 317 
 BRR  HE ES       2115  5.30                             157   -0.0310 47.5 317 
 BRR  HZ I        2115 13.97        23.4 0.30            156           47.5 317 
 RUS  HZ EP   2   2114 56.33                             136   -0.36 5  106 159 
 RUS  HN ES       2115 13.80                             136    0.0910  106 159 
 RUS  HZ I        2115 15.65         3.8 0.44            144            106 159 
 PTB  HZ EP   2   2114 57.42                             132    0.36 5  118 256 
 PTB  HN ES       2115 14.29                             132   -0.0910  118 256 
 PTB  HZ I        2115 18.67         4.2 0.34            136            118 256 
                                                                                
