 2015 1226 2345 37.4 L   6.785 -73.159141.4  RSN  9 0.4 2.0LRSN                1
 GAP=136        0.97       3.8     3.9  5.9 -0.1961E+01  0.7169E+01  0.1539E+01E
 Epicentro: LOS SANTOS - SANTANDER                                             3
 ACTION:UPD 16-02-04 15:07 OP:cam  STATUS:               ID:20151226234537 L   I
 OLDACT:REG 15-12-27 03:51 OP:ar   STATUS:               ID:20151226233750     3
 2015-12-26-2337-50M.COL___337                                                 6
 STAT SP IPHASW D HRMM SECON CODA AMPLIT PERI AZIMU VELO AIN AR TRES W  DIS CAZ7
 BAR2 EZ EP       2345 56.41                             171   -0.0710 21.5 187 
 BAR2 EZ ES       2346 11.13                             171   -0.2210 21.5 187 
 BAR2 EZ I        2346 12.72        24.0 0.18            168           21.5 187 
 BRR  HZ EP       2345 58.32                             152    0.2610 70.7 300 
 BRR  HN ES       2346 14.70                             152    0.5310 70.7 300 
 BRR  HZ I        2346 16.27        20.9 0.46            150           70.7 300 
 PAM  EZ EP       2345 59.38                             149    0.0910 79.6  40 
 PAM  EN ES       2346 16.08                             149   -0.2910 79.6  40 
 RUS  HZ EP       2346  0.55                             143   -0.0710 99.1 175 
 RUS  HN ES       2346 19.07                             143    0.3410 99.1 175 
 RUS  HZ I        2346 20.35         8.1 0.28            144           99.1 175 
 PTB  HZ EP       2346  2.99                             131   -0.87 9  146 259 
 PTB  HN ES       2346 23.75                             131   -0.75 9  146 259 
 PTB  HZ I        2346 27.46        10.7 0.16            131            146 259 
 SPBC HZ EP       2346  5.50                             128    0.14 9  161 219 
 SPBC HN ES       2346 27.48                             128    0.31 9  161 219 
 SPBC HZ I        2346 34.25        16.7 0.36            128            161 219 
 ZAR  HZ EP       2346  9.95                             122    0.45 9  203 293 
 ZAR  HN ES       2346 34.81                             122    0.28 9  203 293 
 ZAR  HZ I        2346 40.71        14.5 0.46            122            203 293 
 NOR  HZ EP       2346 12.57                             118   -0.09 8  233 235 
 NOR  HE ES       2346 40.02                             118   -0.13 8  233 235 
 NOR  HZ I        2346 44.33         7.4 0.24            118            233 235 
 GUY2CHN ES   2   2346 54.96                             112    0.71 4  299 235 
 GUY2CHZ I        2347  4.26         4.6 0.26                           299 235 
                                                                                
