 2012 1226 2303 19.2 L   6.851 -73.150145.9  RSN  6 0.5 2.2LRSN                1
 GAP=183        1.11       4.3     6.2 12.6  0.5604E+01 -0.5213E+01 -0.2092E+02E
 Epicentro: LOS SANTOS - SANTANDER                                             3
 ACTION:UPD 13-01-04 14:30 OP:ep   STATUS:               ID:20121226230319 L   I
 2012-12-26-2300-00M.COL___243                                                 6
 STAT SP IPHASW D HRMM SECON CODA AMPLIT PERI AZIMU VELO AIN AR TRES W  DIS CAZ7
 BAR2 SZ EP       23 3 39.41                             168    0.4510 28.8 187 
 RUS  HZ EP       23 3 43.64                             142    0.2710  106 176 
 RUS  HN ES       23 4  1.79                             142   -0.4410  106 176 
 RUS  HN I        23 4  3.98        12.9 0.42                           106 176 
 PTB  HZ EP       23 3 46.00                             132   -0.24 9  149 257 
 PTB  HN ES       23 4  7.10                             132   -0.24 9  149 257 
 PTB  HN I        23 4 12.58        13.3 0.44                           149 257 
 OCA  HZ EP       23 3 47.50                             131    0.51 9  155 353 
 OCA  HN ES       23 4  8.70                             131    0.03 9  155 353 
 OCA  HN I        23 4 11.11        38.6 0.34                           155 353 
 ZAR  HN ES       23 4 17.21                             123    0.70 9  202 291 
 ZAR  HN I        23 4 22.94        15.0 0.20                           202 291 
 SML  HZ EP       23 3 54.44                             118   -0.82 8  238 335 
 SML  HN ES       23 4 22.91                             118   -0.47 8  238 335 
 SML  HN I        23 4 26.80        16.6 0.10                           238 335 
                                                                                
