 2012 1126 2351 53.9 L   6.761 -73.152149.9  RSN  6 0.4 1.6LRSN                1
 GAP=183        0.81       5.1     6.3  7.6  0.9432E+01  0.9542E+01 -0.8853E+01E
 Epicentro: LOS SANTOS - SANTANDER                                             3
 ACTION:UPD 12-12-05 15:36 OP:}ep  STATUS:               ID:20121126235153 L   I
 2012-11-26-2350-00M.COL___234                                                 6
 STAT SP IPHASW D HRMM SECON CODA AMPLIT PERI AZIMU VELO AIN AR TRES W  DIS CAZ7
 BAR2 SZ EP   1   2352 13.28                             172   -0.67 7 19.0 190 
 BAR2 SZ ES   1   2352 29.31                             172   -0.28 7 19.0 190 
 BAR2 SZ I        2352 30.28        14.4 0.27                          19.0 190 
 GIR2 SZ EP   1   2352 14.74                             166    0.56 7 35.4 353 
 GIR2 SZ ES   1   2352 30.12                             166    0.12 7 35.4 353 
 RUS  HZ EP   1   2352 18.07                             146    0.30 7 96.4 175 
 RUS  HN ES   1   2352 36.65                             146    0.26 7 96.4 175 
 RUS  HZ I        2352 37.98         3.2 0.32                          96.4 175 
 PTB  HZ EP   1   2352 20.97                             133   -0.10 7  146 260 
 PTB  HN ES   1   2352 41.79                             133   -0.48 7  146 260 
 PTB  HZ I        2352 43.43         4.5 0.21                           146 260 
 ZAR  HN ES   1   2352 53.04                             123    0.73 6  205 293 
 SML  HZ EP   1   2352 30.79                             118   -0.35 6  247 336 
 SML  HN ES   1   2353  0.07                             118   -0.13 6  247 336 
                                                                                
