 2016  326 2151 34.1 L   6.792 -73.117147.8  RSN  8 0.5 1.8LRSN                1
 GAP=141        1.09       4.8     4.9  8.4 -0.4840E+01  0.1619E+02 -0.1383E+01E
 Epicentro: LOS SANTOS - SANTANDER                                             3
 ACTION:UPD 16-05-13 21:27 OP:cam  STATUS:               ID:20160326215134 L   I
 OLDACT:UP  16-03-27 06:20 OP:mh   STATUS:               ID:20160326214741     3
 OLDACT:UP  16-03-27 03:28 OP:mh   STATUS:               ID:20160326214741     3
 OLDACT:REG 16-03-27 02:47 OP:mh   STATUS:               ID:20160326214741     3
 2016-03-26-2147-41M.COL___295                                                 6
 STAT SP IPHASW D HRMM SECON CODA AMPLIT PERI AZIMU VELO AIN AR TRES W  DIS CAZ7
 PAM  EZ EP       2151 56.83                             151    0.3310 76.1  37 
 PAM  EN ES       2152 13.63                             151   -0.3210 76.1  37 
 PAM  EZ I        2152 14.84         6.1 0.21            157           76.1  37 
 RUS  HZ EP       2151 57.97                             144   -0.0510 99.5 178 
 RUS  HN ES       2152 17.00                             144    0.3610 99.5 178 
 PTB  HZ EP       2152  0.88                             132   -0.66 9  151 259 
 PTB  HN ES       2152 22.18                             132   -0.73 9  151 259 
 PTB  HZ I        2152 27.19         7.6 0.26            133            151 259 
 SPBC HZ EP       2152  3.07                             129    0.15 9  164 220 
 SPBC HN ES       2152 25.23                             129   -0.14 9  164 220 
 SPBC HZ I        2152 32.05        11.5 0.38            131            164 220 
 ZAR  HZ EP       2152  7.36                             122    0.30 8  207 292 
 ZAR  HN ES       2152 33.57                             122    0.84 8  207 292 
 ZAR  HZ I        2152 38.10         6.5 0.42            124            207 292 
 NOR  HZ EP       2152 10.17                             119   -0.04 8  237 235 
 NOR  HN ES       2152 38.82                             119    0.48 8  237 235 
 NOR  HZ I        2152 41.44         3.9 0.26            121            237 235 
 HEL  HZ EP   1   2152 13.81                             115   -0.96 6  275 256 
 GUY2CHZ EP   1   2152 18.32                             112    0.24 5  303 235 
 GUY2CHN ES   4   2152 56.15                             112    3.80 0  303 235 
 GUY2CHZ I        2153  2.95         3.2 0.70                           303 235 
                                                                                
