 2016  826 2331 36.8 L   6.788 -73.124142.3  RSN  8 0.3 1.8LRSN                1
 GAP=140        0.76       3.2     3.5  5.6 -0.2809E+00  0.7517E+01  0.2251E+01E
 Epicentro: LOS SANTOS - SANTANDER                                             3
 ACTION:UPD 16-10-29 15:39 OP:rebc STATUS:               ID:20160826233136 L   I
 OLDACT:REG 16-08-27 02:35 OP:dnl  STATUS:               ID:20160826232737     3
 2016-08-26-2328-00M.COL___365                                                 6
 STAT SP IPHASW D HRMM SECON CODA AMPLIT PERI AZIMU VELO AIN AR TRES W  DIS CAZ7
 BAR2 EZ EP   2   2331 55.77                             171   -0.21 5 22.6 197 
 BAR2 EZ ES       2332 10.43                             171   -0.5210 22.6 197 
 BAR2 EZ I        2332 12.77        14.0 0.24                          22.6 197 
 BRR  HZ EP       2331 57.83                             151    0.1110 74.0 299 
 BRR  HN ES       2332 14.66                             151    0.6110 74.0 299 
 BRR  HZ I        2332 19.15        11.8 0.12                          74.0 299 
 PAM  EZ EP   2   2331 58.70                             150    0.10 5 76.9  38 
 PAM  EN ES       2332 15.60                             150   -0.0210 76.9  38 
 PAM  EZ I        2332 18.10        23.4 0.52                          76.9  38 
 RUS  HZ EP       2332  0.16                             144    0.0710 99.1 177 
 RUS  HN ES       2332 18.51                             144    0.2510 99.1 177 
 RUS  HZ I        2332 19.39         6.9 0.36                          99.1 177 
 PTB  HZ EP       2332  3.22                             131   -0.44 9  150 260 
 PTB  HE ES       2332 24.31                             131   -0.32 9  150 260 
 PTB  HZ I        2332 26.45         8.6 0.14                           150 260 
 SPBC HZ EP   2   2332  4.88                             128   -0.18 5  164 220 
 SPBC HE ES       2332 27.21                             128    0.09 9  164 220 
 SPBC HZ I        2332 31.99         6.0 0.30                           164 220 
 ZAR  HZ EP   2   2332  9.72                             121    0.43 4  207 292 
 ZAR  HN ES       2332 34.50                             121   -0.15 8  207 292 
 ZAR  HZ I        2332 40.73         7.8 0.11                           207 292 
 GUY2CHZ EP   4   2332 21.70                             112    1.33 0  302 235 
 GUY2CHN ES       2332 54.71                             112    0.35 7  302 235 
 GUY2CHZ I        2333  4.84         1.9 0.64                           302 235 
                                                                                
