 2014 1026 2023  6.3 L   6.752 -73.176133.9  RSN  7 0.5 2.1LRSN                1
 GAP= 95        1.41       6.2     5.8  8.9 -0.8273E+01 -0.1524E+01  0.8198E+01E
 Epicentro: LOS SANTOS - SANTANDER                                             3
 ACTION:UPD 14-11-29 23:57 OP:nd   STATUS:               ID:20141026202306 L   I
 OLDACT:DUP 14-10-29 15:30 OP:stll STATUS:               ID:20141026201747d    3
 2014-10-26-2017-45M.COL___277                                                 6
 STAT SP IPHASW D HRMM SECON CODA AMPLIT PERI AZIMU VELO AIN AR TRES W  DIS CAZ7
 BAR2 SZ EP       2023 24.56                             172    0.1910 17.7 182 
 BAR2 SZ ES       2023 38.28                             172   -0.2010 17.7 182 
 BAR2 SZ I        2023 41.43        16.3 0.56            157           17.7 182 
 BRR  HZ EP       2023 26.62                             150    0.4810 71.1 304 
 BRR  HN ES       2023 42.69                             150    1.0510 71.1 304 
 BRR  HN I        2023 44.37        49.3 0.18            135           71.1 304 
 PAM  SZ EP       2023 27.61                             146   -0.0410 83.6  39 
 PAM  SE I        2023 29.23        20.5 0.38            150           83.6  39 
 PAM  SN ES       2023 43.48                             146   -0.8410 83.6  39 
 RUS  HZ EP       2023 28.89                             143    0.3910 95.6 174 
 RUS  HE ES       2023 46.29                             143    0.4510 95.6 174 
 RUS  HN I        2023 49.19        16.7 0.28            142           95.6 174 
 PTB  HZ EP       2023 31.58                             130   -0.32 9  144 261 
 PTB  HN ES       2023 51.11                             130   -0.78 9  144 261 
 PTB  HN I        2024  3.57        13.5 0.28            120            144 261 
 SPBC HN I        2023 58.92        22.2 0.14            121            157 219 
 SPBC HE I        2024  1.56        21.9 0.50                           157 219 
 TAM  HE I        2023 30.42        47.4 0.52            139            157 103 
 SPBC HZ EP       2023 33.55                             127    0.27 9  157 219 
 TAM  HZ EP       2023 33.05                             127   -0.18 9  157 103 
 SPBC HN ES       2023 53.67                             127   -0.68 9  157 219 
                                                                                
