 2010  126 2349 15.5 L   5.963 -73.792112.0  RSN  5 0.4 1.1LRSN                1
 GAP=207        0.66       7.0    23.6 19.8 -0.1365E+03  0.3957E+03 -0.9050E+02E
 Epicentro: GUAVATA - SANTANDER                                                3
 ACTION:UP  10-08-24 09:46 OP:vdl  STATUS:               ID:20100126234915 L   I
 2010-01-26-2339-50S.COL___089                                                 6
 STAT SP IPHASW D HRMM SECON CODA AMPLIT PERI AZIMU VELO SNR AR TRES W  DIS CAZ7
 RUS  HZ EP       2349 34.31                             144    -0.110   79  96 
 RUS  HE ES   2   2349 49.08                             144    -0.1 5   79  96 
 RUS  HZ I        2349 50.11         2.1 0.26                            79  96 
 BAR2 SZ EP   2   2349 35.01                             137    -0.5 5   97  44 
 BAR2 SZ ES   2   2349 51.70                             137     0.7 5   97  44 
 GIR2 SZ EP   3   2349 38.56                             125    -0.8 2  140  28 
 GIR2 SZ ES   3   2349 57.86                             125    -0.1 2  140  28 
 CHI  HZ EP       2349 40.77                             124     0.3 9  148 177 
 CHI  HZ I        2349 41.60         3.1 0.13                           148 177 
 CHI  HN ES   2   2349 59.38                             124    -0.6 5  148 177 
 GUE  SZ EP   2   2349 49.69                             112     0.6 4  228  25 
 GUE  SZ ES   2   2350 14.75                             112    -0.5 4  228  25 
                                                                                
