 2010  526 2004 24.4 L   6.834 -73.121142.6  RSN 13 0.5 3.0LRSN                1
 GAP=144        1.03       4.4     7.9  7.9 -0.1964E+02  0.1555E+02  0.2296E+01E
 Epicentro: LOS SANTOS - SANTANDER                                             3
 ACTION:UP  10-08-24 10:07 OP:vdl  STATUS:               ID:20100526200424 L   I
 2010-05-26-2002-46S.COL___108                                                 6
 STAT SP IPHASW D HRMM SECON CODA AMPLIT PERI AZIMU VELO SNR AR TRES W  DIS CAZ7
 BAR2 SZ IP       20 4 43.72                             168     0.010   28 194 
 BAR2 SZ ES   1   20 4 58.72                             168    -0.1 7   28 194 
 GUE  SZ EP       20 4 48.74                             140     0.310  112  11 
 GRA  SZ EP       20 4 49.51                             138     0.510  121  17 
 GRA  SZ ES   1   20 5  7.56                             138    -0.6 7  121  17 
 OCA  SZ EP       20 4 52.55                             130     0.4 9  157 352 
 OCA  SZ ES   2   20 5 13.38                             130    -0.4 5  157 352 
 OCA  SZ I        20 5 19.09        99.0 0.38                           157 352 
 CHI  HZ EP       20 5  1.74                             116    -0.7 8  253 196 
 CHI  HN ES   1   20 5 31.46                             116    -0.6 6  253 196 
 CHI  HZ I        20 5 37.32        63.9 0.55                           253 196 
 ROSC BZ EP       20 5  3.54                             116     0.7 8  257 211 
 ROSC BN ES   2   20 5 33.28                             116     0.4 4  257 211 
 ROSC BZ I        20 5 37.27        81.8 0.44                           257 211 
 HEL  HZ EP   2   20 5  4.86                             114     0.0 4  276 255 
 HEL  HZ I        20 5 42.03        63.9 0.27                           276 255 
 CVER SZ EP       20 5  5.29                             114     0.2 7  277 202 
 RREF BZ EP       20 5 10.86                             110    -0.1 7  326 229 
 RREF BN ES   1   20 5 48.16                             110     0.9 5  326 229 
 RREF BZ I        20 5 55.46        87.6 0.25                           326 229 
 DBB  SZ EP       20 5 11.52                             109    -0.5 7  342 274 
 MON  HN ES   2   20 5 50.74                             108    -0.6 3  353 308 
 MON  HZ I        20 6  6.29        36.0 0.51                           353 308 
 SDV  BZ EP       20 5 13.05                             108    -0.8 6  356  50 
 SDV  BZ I        20 5 52.49        26.0 0.40                           356  50 
 ANIL BZ EP   1   20 5 14.29                             108    -0.3 5  362 224 
 ANIL BN ES   2   20 5 53.13                             108    -0.7 3  362 224 
                                                                                
