 2012 1026 2158 29.6 L   6.741 -73.105149.7  RSN  5 0.4 1.7LRSN                1
 GAP=144        0.72       5.1     5.6  7.8  0.5627E+01  0.5618E+01 -0.1994E+01E
 Epicentro: JORDAN - SANTANDER                                                 3
 ACTION:UPD 12-11-22 17:06 OP:ep   STATUS:               ID:20121026215829 L   I
 2012-10-26-2156-50M.COL___208                                                 6
 STAT SP IPHASW D HRMM SECON CODA AMPLIT PERI AZIMU VELO AIN AR TRES W  DIS CAZ7
 BAR2 SZ ES   1   2159  4.97                             173   -0.26 7 18.5 207 
 BRR  HZ EP   1   2158 51.63                             151    0.05 7 78.3 301 
 BRR  HE ES   1   2159  9.42                             151    0.70 7 78.3 301 
 BRR  HE I        2159  9.61        18.0 0.18                          78.3 301 
 PAM  SZ EP   1   2158 52.30                             151   -0.08 7 79.9  34 
 PAM  SE ES   1   2159 10.03                             151   -0.12 7 79.9  34 
 PAM  SZ I        2159 11.73         6.4 0.50                          79.9  34 
 RUS  HZ EP   1   2158 53.59                             146    0.32 7 93.8 179 
 RUS  HE ES   1   2159 11.55                             146   -0.18 7 93.8 179 
 RUS  HE I        2159 13.88         6.6 0.48                          93.8 179 
 ZAR  HN ES   1   2159 28.42                             122   -0.60 6  211 293 
                                                                                
