 2015  826 2325  8.4 L   6.807 -73.134148.8  RSN 11 0.4 1.9LRSN                1
 GAP=138        0.85       3.2     4.9  5.6 -0.2182E+01  0.8421E+01  0.2972E+01E
 Epicentro: LOS SANTOS - SANTANDER                                             3
 ACTION:UPD 15-09-15 23:05 OP:cam  STATUS:               ID:20150826232508 L   I
 OLDACT:REG 15-08-27 04:13 OP:ar   STATUS:               ID:20150826231748     3
 2015-08-26-2317-48M.COL___343                                                 6
 STAT SP IPHASW D HRMM SECON CODA AMPLIT PERI AZIMU VELO AIN AR TRES W  DIS CAZ7
 BAR2 EZ EP       2325 28.26                             170   -0.1310 24.3 193 
 BAR2 EZ ES       2325 43.67                             170   -0.3310 24.3 193 
 BAR2 EZ I        2325 45.55        16.1 0.26            168           24.3 193 
 BRR  HZ EP       2325 29.93                             153    0.0310 72.0 297 
 BRR  HN ES       2325 47.15                             153    0.4710 72.0 297 
 BRR  HZ I        2325 48.14        10.6 0.36            149           72.0 297 
 PAM  EZ EP       2325 31.20                             152    0.3710 75.9  39 
 PAM  EN ES       2325 48.40                             152    0.0510 75.9  39 
 PAM  EZ I        2325 50.24        10.0 0.52            155           75.9  39 
 RUS  HZ EP       2325 32.35                             144   -0.1310  101 177 
 RUS  HN ES       2325 51.16                             144   -0.1110  101 177 
 RUS  HZ I        2325 51.85        10.3 0.24            144            101 177 
 SPBC HN ES   2   2325 59.96                             129    0.20 5  165 219 
 SPBC HZ I        2326  3.31        12.3 0.46            128            165 219 
 ZAR  HE ES   2   2326  5.89                             123   -0.76 4  205 292 
 ZAR  HZ I        2326 11.21         9.0 0.42            122            205 292 
 SML  HZ EP   2   2325 44.46                             118   -0.70 4  244 335 
 SML  HN ES   1   2326 13.04                             118   -0.81 6  244 335 
 SML  HZ I        2326 16.51        10.8 0.10            118            244 335 
 CHI  HZ EP   2   2325 46.20                             117   -0.16 4  250 195 
 CHI  HN ES   2   2326 15.66                             117   -0.33 4  250 195 
 CHI  HZ I        2326 17.98         6.2 0.40            117            250 195 
 GUY2CHZ EP   4   2325 53.30                             113    1.00 0  303 235 
 GUY2CHE ES   4   2326 28.50                             113    1.94 0  303 235 
 GUY2CHZ I        2326 34.37         3.8 0.32                           303 235 
 TOL  SZ EP       2325 57.82                             110    0.89 7  345 225 
 TOL  SN ES       2326 35.34                             110    0.55 7  345 225 
 TOL  SZ I        2326 39.92         3.2 0.34            109            345 225 
 PRA  HN ES       2326 43.34                             107   -0.77 6  393 210 
 PRA  HZ I        2326 51.70         3.5 0.40            107            393 210 
                                                                                
