 2013  126 2253 36.7 L   6.813 -73.151141.0  RSN 22 0.5 3.4LRSN 3.6WRSN        1
 SPEC AVERAGE  MO 14.5 ST 23.7 OM  3.0 f0 3.73 R0.4014 AL 2.27 WI 26.8 MW  3.6 3
 SPEC SD       MO  0.2 ST 13.5 OM  0.3 f00.508 R0.0573 AL      WI      MW  0.1 3
 GAP= 70        0.97       2.9     3.1  5.0 -0.1439E+00  0.3981E+01  0.4303E+01E
 Epicentro: LOS SANTOS - SANTANDER                                             3
 SPEC VIL SH Z MO 14.6 ST 16.6 OM  2.7 f0 3.06 R0.4804 AL 2.15 WI 28.2 MW  3.7 3
 SPEC VIL SH Z T225448 K 0.000 GD  336 VS 4.20 DE 3.20 Q0300.0 QA 0.60 VS 4.20 3
 SPEC ZAR HH Z MO 14.6 ST 43.8 OM  2.8 f0 4.34 R0.3387 AL 1.59 WI 27.0 MW  3.7 3
 SPEC ZAR HH Z T225428 K 0.000 GD  247 VS 4.20 DE 3.20 Q0300.0 QA 0.60 VS 4.20 3
 SPEC ROSCBH Z MO 14.8 ST 17.6 OM  2.9 f0 2.81 R0.5231 AL 2.95 WI 30.2 MW  3.8 3
 SPEC ROSCBH Z T225440 K 0.000 GD  290 VS 4.20 DE 3.20 Q0300.0 QA 0.60 VS 4.20 3
 SPEC TAM HH Z MO 14.2 ST 11.7 OM  2.5 f0 3.71 R0.3962 AL 2.44 WI 26.8 MW  3.4 3
 SPEC TAM HH Z T225417 K 0.000 GD  210 VS 4.20 DE 3.20 Q0300.0 QA 0.60 VS 4.20 3
 SPEC PTB HH Z MO 14.3 ST 15.3 OM  2.6 f0 3.80 R0.3868 AL 1.85 WI 25.6 MW  3.5 3
 SPEC PTB HH Z T225420 K 0.000 GD  203 VS 4.20 DE 3.20 Q0300.0 QA 0.60 VS 4.20 3
 SPEC RUS HH Z MO 14.3 ST 11.5 OM  2.7 f0 3.37 R0.4362 AL 2.27 WI 16.5 MW  3.5 3
 SPEC RUS HH Z T225416 K 0.000 GD  174 VS 4.20 DE 3.20 Q0300.0 QA 0.60 VS 4.20 3
 SPEC OCA HH Z MO 14.6 ST 39.4 OM  2.9 f0 4.08 R0.3603 AL 2.20 WI 24.0 MW  3.7 3
 SPEC OCA HH Z T225423 K 0.000 GD  212 VS 4.20 DE 3.20 Q0300.0 QA 0.60 VS 4.20 3
 SPEC PAM SH Z MO 14.6 ST 55.5 OM  3.0 f0 4.65 R0.3161 AL 2.50 WI 19.9 MW  3.7 3
 SPEC PAM SH Z T225411 K 0.000 GD  160 VS 4.20 DE 3.20 Q0300.0 QA 0.60 VS 4.20 3
 SPEC ANILHH Z MO 14.5 ST 21.0 OM  2.5 f0 3.69 R0.3984 AL 2.56 WI 43.7 MW  3.6 3
 SPEC ANILHH Z T225459 K 0.000 GD  384 VS 4.20 DE 3.20 Q0300.0 QA 0.60 VS 4.20 3
 SPEC HEL HH Z MO 14.4 ST 18.9 OM  2.5 f0 3.84 R0.3828 AL 2.51 WI 36.1 MW  3.5 3
 SPEC HEL HH Z T225440 K 0.000 GD  306 VS 4.20 DE 3.20 Q0300.0 QA 0.60 VS 4.20 3
 SPEC CHI HH Z MO 14.4 ST  9.9 OM  2.5 f0 3.17 R0.4637 AL 2.63 WI 22.1 MW  3.5 3
 SPEC CHI HH Z T225441 K 0.000 GD  287 VS 4.20 DE 3.20 Q0300.0 QA 0.60 VS 4.20 3
 SPEC BRR HH Z MO 14.3 ST 20.5 OM  2.7 f0 4.23 R0.3475 AL 1.73 WI 34.9 MW  3.5 3
 SPEC BRR HH Z T2254 8 K 0.000 GD  157 VS 4.20 DE 3.20 Q0300.0 QA 0.60 VS 4.20 3
 SPEC BAR2SH Z MO 14.6 ST 26.8 OM  3.0 f0 3.79 R0.3879 AL 2.14 WI 13.8 MW  3.6 3
 SPEC BAR2SH Z T2254 7 K 0.000 GD  143 VS 4.20 DE 3.20 Q0300.0 QA 0.60 VS 4.20 3
 ACTION:UPD 13-02-15 09:17 OP:ep   STATUS:               ID:20130126225336 L   I
 2013-01-26-2250-00M.COL___240                                                 6
 STAT SP IPHASW D HRMM SECON CODA AMPLIT PERI AZIMU VELO AIN AR TRES W  DIS CAZ7
 BAR2 SZ IP       2253 55.78                             170   -0.0410 24.6 188 
 BAR2 SZ ES   1   2254 10.26                             170   -0.44 7 24.6 188 
 BAR2 SZ I        2254 12.88       951.9 0.26            166           24.6 188 
 BRR  HZ IP     D 2253 57.67                             152    0.3610 70.0 298 
 BRR  HN ES       2254 14.04                             152    0.7010 70.0 298 
 BRR  HZ I        2254 17.45       387.9 0.24            151           70.0 298 
 PAM  SZ IP       2253 58.71                             150    0.3110 76.7  41 
 PAM  SN ES   1   2254 15.58                             150    0.28 7 76.7  41 
 RUS  HZ EP       2253 59.76                             142   -0.3710  102 176 
 RUS  HN ES   1   2254 17.96                             142   -0.41 7  102 176 
 RUS  HZ I        2254 19.40       423.7 0.34            141            102 176 
 PTB  HZ EP       2254  2.53                             131   -0.77 9  147 258 
 PTB  HN ES   1   2254 23.80                             131   -0.21 7  147 258 
 PTB  HZ I        2254 26.91       336.4 0.22            129            147 258 
 TAM  HZ IP     D 2254  4.18                             129    0.05 9  156 105 
 TAM  HE ES   1   2254 25.36                             129   -0.13 7  156 105 
 TAM  HZ I        2254 26.21       184.9 0.22            132            156 105 
 OCA  HZ IP     C 2254  4.18                             129   -0.36 9  159 353 
 OCA  HN ES   1   2254 25.60                             129   -0.63 7  159 353 
 ZAR  HZ EP       2254  8.90                             121    0.13 9  203 292 
 ZAR  HN ES   1   2254 33.86                             121    0.11 6  203 292 
 ZAR  HZ I        2254 39.98       475.3 0.28            121            203 292 
 CTAB SZ EP       2254 13.33                             118    1.02 8  231 210 
 CTAB SZ ES   1   2254 40.61                             118    0.56 6  231 210 
 CHI  HZ EP   1   2254 13.88       136.6 0.48            116   -0.43 6  250 195 
 CHI  HE ES   1   2254 43.43                             116   -0.19 6  250 195 
 CHI  HZ I        2254 47.72       136.6 0.48            116            250 195 
 ROSC BZ EP     C 2254 15.62                             116    0.91 8  254 211 
 ROSC BN ES   1   2254 43.67                             116   -0.65 6  254 211 
 HEL  HZ EP       2254 16.36                             114   -0.33 8  272 255 
 HEL  HE ES   1   2254 47.60                             114   -0.25 6  272 255 
 HEL  HZ I        2254 52.83       136.7 0.28            114            272 255 
 URE  HZ EP   4   2254 16.29                             113   -1.17 0  283 292 
 URE  HN ES   4   2254 47.37                             113   -1.86 0  283 292 
 VIL  SZ EP     C 2254 19.39                             111   -0.70 7  305 191 
 VIL  SE ES   1   2254 53.68                             111   -0.22 5  305 191 
 VIL  SZ I        2255  3.12       190.2 0.44            111            305 191 
 DBB  SZ EP       2254 23.90                             109   -0.05 7  339 274 
 DBB  SZ ES       2255  0.06                             109   -0.71 7  339 274 
 DBB  SZ I        2255  4.46       217.3 0.38            109            339 274 
 TOL  SZ EP       2254 25.62                             108    0.74 7  344 224 
 TOL  SZ ES   1   2255  2.49                             108    0.06 5  344 224 
 TOL  SZ I        2255 11.34        73.7 0.70            108            344 224 
 ANIL HZ EP       2254 27.13                             107    0.69 6  358 224 
 ANIL HN ES   1   2255  5.49                             107    0.29 5  358 224 
 ANIL HZ I        2255 11.90       128.5 0.32            108            358 224 
 PAL  HZ EP       2254 32.14                             105    0.37 6  406 239 
 PAL  HN ES   4   2255 11.54                             105   -3.16 0  406 239 
 SJC  HN ES   4   2255 11.48                             105   -3.57 0  408 327 
 YOT  HZ EP   1   2254 38.81                             102   -0.91 4  472 229 
 YOT  HE ES   4   2255 25.91                             102   -2.93 0  472 229 
 YOT  HZ I        2255 36.28        20.3 0.42            103            472 229 
 SMAR HZ EP   4   2254 40.74                             102   -1.57 0  495 346 
 SMAR HN ES   4   2255 29.32                             102   -4.13 0  495 346 
 MARA HZ EP   1   2254 47.05                             100   -0.70 3  538 215 
 MARA HN ES   4   2255 36.43                             100   -6.71 0  538 215 
 POP2 HZ EP       2254 56.44                              99   -0.31 3  613 220 
 POP2 HZ I        2256  2.80         9.4 0.38             99            613 220 
 PCON HZ EP       2254 57.23                              99    0.11 3  613 216 
 POP2 HN ES   4   2255 55.34                              99   -3.82 0  613 220 
 SOTA HZ EP       2255  0.93                              98    0.15 2  644 217 
 SOTA HN ES   4   2256 10.27                              98    3.95 0  644 217 
                                                                                
