 2017  826 2128 52.4 L   6.767 -73.106140.3  RSN 11 0.4 1.8LRSN                1
 GAP=117        0.97       3.2     3.7  5.6  0.1820E+01  0.6213E+01  0.4181E+01E
 Epicentro: LOS SANTOS - SANTANDER                                             3
 ACTION:UPD 17-09-04 20:24 OP:rebc STATUS:               ID:20170826212852 L   I
 OLDACT:REG 17-08-27 02:59 OP:lv   STATUS:               ID:20170826212740     3
 2017-08-26-2128-00M.COL___411                                                 6
 STAT SP IPHASW D HRMM SECON CODA AMPLIT PERI AZIMU VELO AIN AR TRES W  DIS CAZ7
 BAR2 EZ EP       2129 10.90                             171   -0.4310 21.1 204 
 BAR2 EZ ES       2129 26.03                             171   -0.0610 21.1 204 
 BAR2 EZ I        2129 27.40        16.7 0.20            169           21.1 204 
 BRR  HZ EP       2129 13.26                             150   -0.0310 76.8 299 
 BRR  HN ES       2129 29.96                             150    0.3710 76.8 299 
 BRR  HZ I        2129 33.88        14.6 0.30            149           76.8 299 
 PAM  EZ EP       2129 14.26                             150    0.2110 77.6  35 
 PAM  EN ES       2129 30.92                             150   -0.0110 77.6  35 
 PAM  EZ I        2129 33.40        14.2 0.36            154           77.6  35 
 RUS  HZ EP       2129 15.60                             144    0.2610 96.8 178 
 RUS  HN ES       2129 33.70                             144    0.4710 96.8 178 
 RUS  HZ I        2129 35.32         5.5 0.42            144           96.8 178 
 YPLC HZ EP       2129 21.59                             126    0.31 9  172 152 
 YPLC HN ES       2129 43.11                             126   -0.70 9  172 152 
 YPLC HZ I        2129 47.97        11.4 0.26            128            172 152 
 ZAR  HZ EP       2129 24.59                             120   -0.47 8  209 293 
 ZAR  HN ES       2129 49.95                             120   -0.59 8  209 293 
 ZAR  HZ I        2129 55.69         8.4 0.24            121            209 293 
 NOR  HZ EP       2129 27.99                             117    0.01 8  236 236 
 NOR  HN ES       2129 55.79                             117    0.06 8  236 236 
 NOR  HZ I        2129 56.71         3.5 0.14            118            236 236 
 CHI  HE ES       2129 57.92                             116   -0.60 8  246 196 
 CHI  HZ I        2130  4.80         2.3 0.26            117            246 196 
 HEL  HZ EP       2129 33.57                             113    0.85 7  275 257 
 HEL  HN ES   4   2130  2.93                             113   -1.23 0  275 257 
 HEL  HZ I        2130 11.68         3.1 0.52            114            275 257 
 GUY2CHZ EP   9   2129 37.81                             111    1.88 0  303 236 
 GUY2CHN ES       2130 11.54                                   -0.23 7  303 236 
 GUY2CHZ I        2130 14.60         2.1 0.56                           303 236 
 LL6C HZ EP   4   2129 35.56                             109   -2.75 0  329 357 
 PRA  HZ EP   4   2129 46.81                             106    1.19 0  391 210 
 PRA  HE ES       2130 27.51                             106    0.37 6  391 210 
 PRA  HZ I        2130 31.78         2.1 0.22            106            391 210 
                                                                                
