 2012  226 2142 47.3 L   6.877 -73.187147.3  RSN  5 0.3 1.4LRSN                1
 GAP=128        0.60       3.9     4.6  7.5 -0.3701E+01  0.9076E+01  0.5751E+01E
 ACTION:UP  12-03-07 16:34 OP:epov STATUS:               ID:20120226214247 L   I
 2012-02-26-2140-00M.COL___192                                                 6
 STAT SP IPHASW D HRMM SECON CODA AMPLIT PERI AZIMU VELO AIN AR TRES W  DIS CAZ7
 BRR  HZ EP   1   2143  7.70                             155   -0.50 7 63.4 294 
 BRR  HZ I        2143 29.52        10.5 0.20                          63.4 294 
 PAM  SZ EP   1   2143 10.04                             152    0.55 7 74.2  46 
 PAM  SE ES   1   2143 26.59                             152   -0.21 7 74.2  46 
 RUS  HZ EP   1   2143 11.72                             142   -0.14 7  110 174 
 RUS  HE ES   1   2143 31.17                             142    0.16 7  110 174 
 RUS  HZ I        2143 32.02         2.1 0.52                           110 174 
 PTB  HZ EP   1   2143 14.22                             133    0.05 7  145 255 
 PTB  HN ES   1   2143 35.37                             133    0.24 7  145 255 
 PTB  HZ I        2143 37.81         0.0 0.24                           145 255 
 CHI  HZ EP   1   2143 25.89                             117    0.03 6  256 194 
 CHI  HZ I        2143 28.22         1.8 0.22                           256 194 
 CHI  HN ES   1   2143 55.72                             117   -0.22 6  256 194 
                                                                                
