 2011  626 2342  6.9 L   6.794 -73.072138.7  RSN  7 0.2 1.6LRSN                1
 GAP=164        0.57       3.9     8.4  7.4  0.9767E+01 -0.3383E+02 -0.1384E+02E
 Epicentro: LOS SANTOS - SANTANDER                                             3
 ACTION:UP  11-07-14 19:08 OP:ep   STATUS:               ID:20110626234206 L   I
 2011-06-26-2340-00M.COL___124                                                 6
 STAT SP IPHASW D HRMM SECON CODA AMPLIT PERI AZIMU VELO SNR AR TRES W  DIS CAZ7
 BAR2 SZ EP   1   2342 25.64                             169    -0.1 7   25 209 
 BAR2 SZ ES   1   2342 40.34                             169    -0.1 7   25 209 
 BAR2 SZ I        2342 41.46         7.7 0.26                            25 209 
 BTL  SZ EP   1   2342 25.90                             169     0.1 7   26 302 
 BRR  HZ EP   1   2342 27.63                             149    -0.1 7   79 296 
 BRR  HE ES   1   2342 44.34                             149     0.3 7   79 296 
 BRR  HZ I        2342 48.74        12.7 0.15                            79 296 
 RUS  HZ EP   2   2342 30.15                             143     0.2 5  100 181 
 RUS  HN ES   2   2342 47.55                             143    -0.3 5  100 181 
 RUS  HZ I        2342 48.91         2.3 0.27                           100 181 
 BRI  SZ EP   1   2342 30.21                             140     0.2 7  106  17 
 GRA  SZ EP   1   2342 31.72                             136     0.3 7  124  14 
 GRA  SZ I        2342 33.03         6.6 0.14                           124  14 
 OCA  SZ EP   1   2342 34.50                             128    -0.4 7  162 350 
 OCA  SZ ES   1   2342 56.40                             128    -0.3 7  162 350 
 OCA  SZ I        2342 58.72         6.5 0.54                           162 350 
                                                                                
