 2014  626 2140 43.2 L   6.819 -73.103155.9  RSN  9 0.4 2.0LRSN                1
 GAP=205        0.86       4.5     6.0  7.0  0.6759E+01  0.8701E+00  0.2574E+01E
 Epicentro: LOS SANTOS - SANTANDER                                             3
 ACTION:UPD 14-07-01 22:57 OP:nd   STATUS:               ID:20140626214043 L   I
 OLDACT:REG 14-06-27 03:17 OP:mh   STATUS:               ID:20140626213819     3
 2014-06-26-2138-19M.COL___265                                                 6
 STAT SP IPHASW D HRMM SECON CODA AMPLIT PERI AZIMU VELO AIN AR TRES W  DIS CAZ7
 BAR2 SZ EP   1   2141  4.14                             170    0.01 7 26.6 199 
 BAR2 SZ I        2141 23.69                             168           26.6 199 
 BRR  HZ EP       2141  6.09                             153    0.4510 74.5 295 
 BRR  HN ES       2141 23.29                             153    0.1510 74.5 295 
 BRR  HZ I        2141 28.00        19.9 0.23            163           74.5 295 
 RUS  HZ EP       2141  8.29                             145    0.1910  103 179 
 RUS  HN ES   1   2141 27.10                             145   -0.42 7  103 179 
 PTB  HZ EP       2141 10.73                             133   -0.74 9  153 258 
 PTB  HN ES   1   2141 33.59                             133    0.07 7  153 258 
 PTB  HZ I        2141 36.99        11.0 0.15            141            153 258 
 ZAR  HN ES   1   2141 42.93                             124    0.10 6  208 291 
 NOR  HZ EP       2141 19.77                             120   -0.31 8  240 235 
 NOR  HN ES   1   2141 48.91                             120    0.06 6  240 235 
 NOR  HZ I        2141 54.07         6.2 0.23            125            240 235 
 SML  HZ EP   1   2141 20.61                             119    0.18 6  244 334 
 SML  HN ES   1   2141 48.84                             119   -0.63 6  244 334 
 GUY2CHZ EP       2141 28.55                             114    0.68 7  306 235 
 GUY2CHN ES   4   2142  6.19                             114    3.48 0  306 235 
 GUY2CHZ I        2142 11.26         3.6 0.37                           306 235 
 CAP2 HE I        2141 13.85                                            511 294 
                                                                                
