 2016  926 2301 20.5 L   6.800 -73.118147.8  RSN 16 0.4 2.3LRSN                1
 GAP= 73        0.99       2.9     2.8  4.7 -0.1476E+01  0.2115E+01  0.1318E+01E
 Epicentro: LOS SANTOS - SANTANDER                                             3
 ACTION:UPD 17-08-17 21:16 OP:lp   STATUS:               ID:20160926230120 L   I
 OLDACT:UP  16-09-27 08:01 OP:and  STATUS:               ID:20160926225744     3
 OLDACT:UP  16-09-27 07:54 OP:and  STATUS:               ID:20160926225744     3
 OLDACT:UP  16-09-27 07:50 OP:and  STATUS:               ID:20160926225744     3
 OLDACT:REG 16-09-27 03:49 OP:and  STATUS:               ID:20160926225744     3
 2016-09-26-2258-00M.COL___351                                                 6
 STAT SP IPHASW D HRMM SECON CODA AMPLIT PERI AZIMU VELO AIN AR TRES W  DIS CAZ7
 BAR2 EZ IP     C 23 1 40.25                             170   -0.1810 24.0 197 
 BAR2 EZ ES       23 1 55.76                             170   -0.1810 24.0 197 
 BAR2 EZ I        23 1 56.57        40.1 0.17            169           24.0 197 
 BRR  HZ IP     C 23 1 42.27                             152    0.2110 73.9 297 
 BRR  HN ES       23 1 59.33                             152    0.4810 73.9 297 
 BRR  HZ I        23 2  3.58        31.6 0.14            151           73.9 297 
 PAM  EZ EP       23 1 43.19                             152    0.3310 75.5  38 
 PAM  EE ES       23 2  0.12                             152   -0.1510 75.5  38 
 PAM  EZ I        23 2  2.75        21.2 0.20            155           75.5  38 
 RUS  HZ IP     C 23 1 44.07                             144   -0.4110  100 178 
 RUS  HE ES       23 2  2.70                             144   -0.4410  100 178 
 RUS  HZ I        23 2  3.76        11.1 0.46            146            100 178 
 PTB  HZ EP       23 1 47.32                             132   -0.62 9  151 259 
 PTB  HN ES       23 2  8.54                             132   -0.77 9  151 259 
 PTB  HZ I        23 2 14.41        19.6 0.10            132            151 259 
 TAM  HZ IP     C 23 1 48.52                             132    0.41 9  152 105 
 TAM  HN ES       23 2 10.02                             132    0.41 9  152 105 
 TAM  HZ I        23 2 11.93        15.4 0.30            135            152 105 
 OCA  HZ EP       23 1 49.05                             130    0.00 9  161 352 
 OCA  HE ES       23 2 11.29                             130    0.00 9  161 352 
 OCA  HZ I        23 2 15.97        54.9 0.26            132            161 352 
 SPBC HZ EP       23 1 49.21                             129   -0.16 9  165 220 
 SPBC HN ES       23 2 12.32                             129    0.46 9  165 220 
 SPBC HZ I        23 2 18.62        34.5 0.19            130            165 220 
 ZAR  HZ EP   4   23 1 55.22                             122    1.81 0  207 292 
 ZAR  HN ES       23 2 19.37                             122    0.32 8  207 292 
 ZAR  HZ I        23 2 25.93        21.5 0.19            123            207 292 
 NOR  HZ EP       23 1 56.84                             119    0.19 8  237 235 
 NOR  HN ES       23 2 24.98                             119    0.17 8  237 235 
 NOR  HZ I        23 2 29.60        25.8 0.16            119            237 235 
 CHI  HZ EP       23 1 57.96                             117   -0.47 8  249 196 
 CHI  HN ES   2   23 2 27.84                             117   -0.15 4  249 196 
 CHI  HZ I        23 2 33.41         5.4 0.26            119            249 196 
 ROSC BZ EP   9   23 2  0.23                             117    1.29 0  254 212 
 ROSC BE ES       23 2 30.68                                    0.50 8  254 212 
 ROSC BZ I        23 2 33.83        12.9 0.40            118            254 212 
 HEL  HZ EP   9   23 2  2.39                             115    1.21 0  275 256 
 HEL  HE ES       23 2 34.36                                    0.27 8  275 256 
 HEL  HZ I        23 2 39.09        11.6 0.34            116            275 256 
 GUY2CHZ EP       23 2  5.46                             112    0.94 7  304 235 
 GUY2CHN ES       23 2 39.18                             112    0.36 7  304 235 
 GUY2CHZ I        23 2 47.60        12.8 0.34                           304 235 
 PTGC HZ IP   4 C 23 2  3.19                             112   -1.17 0  308 159 
 PTGC HE ES   4   23 2 36.29                             112   -2.25 0  308 159 
 PAL  HZ EP       23 2 16.25                             106    0.18 6  408 239 
 PAL  HN ES       23 2 59.70                             106    0.32 6  408 239 
 PAL  HZ I        23 3  2.16         5.2 0.24            107            408 239 
 SJC  HZ IP     D 23 2 15.20                             106   -1.17 6  411 327 
 SJC  HN ES   4   23 2 56.85                             106   -3.07 0  411 327 
 SJC  HZ I        23 3  1.22         4.3 0.38            107            411 327 
                                                                                
