 2011  726 2159 47.3 L   6.374 -73.211118.7  RSN  6 0.3 2.8LRSN                1
 GAP=184        0.64       3.9     6.5  6.3 -0.1308E+02 -0.3195E+01  0.7220E+01E
 Epicentro: PARAMO - SANTANDER                                                 3
 ACTION:UPD 12-07-25 14:03 OP:epov STATUS:               ID:20110726215947 L   I
 2011-07-26-2158-14S.COL___139                                                 6
 STAT SP IPHASW D HRMM SECON CODA AMPLIT PERI AZIMU VELO AIN AR TRES W  DIS CAZ7
 BAR2 SZ IP       22 0  3.96                             168    0.2210 24.3   7 
 BAR2 SZ ES   1   22 0 16.06                             168   -0.48 7 24.3   7 
 BAR2 SZ I        22 0 17.52       710.6 0.44                          24.3   7 
 BRR  HE ES   1   22 0 23.93                             137    0.44 7 98.2 326 
 PAM  SZ EP   1   22 0 10.45                             131    0.17 7  121  28 
 PAM  SN ES   1   22 0 28.41                             131    0.22 7  121  28 
 BRI  SZ EP   1   22 0 13.29                             123    0.08 7  155  17 
 BRI  SZ ES   1   22 0 33.16                             123   -0.24 7  155  17 
 BRI  SZ I        22 0 36.35        27.0 0.44                           155  17 
 OCA  SZ ES   1   22 0 42.45                             115   -0.59 6  207 357 
 OCA  SZ I        22 0 45.40        51.9 0.50                           207 357 
 PRA  HZ EP   1   22 0 34.68                             103   -0.11 5  348 212 
 PRA  HN ES   1   22 1 11.58                             103   -0.24 5  348 212 
                                                                                
