 2010  226 2232 33.4 L   6.815 -73.016139.4  RSN  8 0.4 2.3LRSN                1
 GAP=251        0.58       4.9     6.1  6.5  0.3714E+01  0.1353E+02  0.1121E+02E
 Epicentro: CEPITA - SANTANDER                                                 3
 ACTION:UP  10-08-24 09:51 OP:vdl  STATUS:               ID:20100226223233 L   I
 2010-02-26-2220-00S.COL___094                                                 6
 STAT SP IPHASW D HRMM SECON CODA AMPLIT PERI AZIMU VELO SNR AR TRES W  DIS CAZ7
 BAR2 SZ IP       2232 52.53                             167     0.110   31 217 
 BAR2 SZ ES   2   2233  6.92                             167    -0.3 5   31 217 
 BRR  HZ EP   1   2232 54.41                             147    -0.2 7   83 293 
 BRR  HZ I        2232 54.74        42.6 0.10                            83 293 
 BRR  HN ES   2   2233 11.40                             147     0.3 5   83 293 
 RUS  BZ EP   1   2232 56.53                             142    -0.1 7  102 184 
 RUS  BE ES   2   2233 14.62                             142    -0.1 5  102 184 
 RUS  BZ I        2233 16.26        19.8 0.34                           102 184 
 CHI  HZ EP   1   2233 11.53                             115     0.2 6  254 198 
 CHI  HE ES   2   2233 41.73                             115     0.8 4  254 198 
 CHI  HZ I        2233 46.18         6.2 0.38                           254 198 
 HEL  HZ EP   1   2233 14.57                             112    -0.3 6  286 256 
 HEL  HE ES   2   2233 47.68                             112     0.5 4  286 256 
 HEL  HZ I        2233 50.93        11.7 0.28                           286 256 
 RREF BZ EP   1   2233 21.15                             109     0.5 5  334 231 
 RREF BN ES   2   2233 57.47                             109     0.0 3  334 231 
 RREF BZ I        2234  0.74         8.3 0.61                           334 231 
 TOL  SZ ES   2   2234  0.42                             107    -0.7 3  355 226 
 PRA  HZ EP   1   2233 27.15                             105    -0.5 4  401 211 
 PRA  HE ES   2   2234  9.45                             105    -0.6 3  401 211 
 PRA  HZ I        2234 14.47         7.9 0.34                           401 211 
                                                                                
