 2014 1226 2322  0.4 L   6.799 -73.160139.4  RSN 11 0.4 1.6LRSN                1
 GAP=135        1.08       3.3     4.5  6.5  0.2413E+00  0.5533E+01  0.1883E+00E
 Epicentro: LOS SANTOS - SANTANDER                                             3
 ACTION:UPD 15-02-10 17:07 OP:nd   STATUS:               ID:20141226232200 L   I
 OLDACT:REG 14-12-27 02:36 OP:fm   STATUS:               ID:20141226231749     3
 2014-12-26-2317-49M.COL___280                                                 6
 STAT SP IPHASW D HRMM SECON CODA AMPLIT PERI AZIMU VELO AIN AR TRES W  DIS CAZ7
 BAR2 EZ EP   1   2322 18.97                             170   -0.31 7 23.0 186 
 BAR2 EZ ES       2322 34.56                             170    0.5710 23.0 186 
 BAR2 EZ I        2322 36.09         7.9 0.20            167           23.0 186 
 BRR  HE ES       2322 37.11                             152    0.4110 69.8 299 
 BRR  HZ I        2322 39.72        15.0 0.36            148           69.8 299 
 PAM  SZ EP       2322 22.52                             149    0.4910 78.5  40 
 PAM  SE ES       2322 38.23                             149   -0.6610 78.5  40 
 PAM  SZ I        2322 40.18         4.1 0.24            153           78.5  40 
 RUS  HZ EP       2322 24.14                             142    0.5910  101 175 
 RUS  HE ES       2322 41.17                             142   -0.4310  101 175 
 RUS  HZ I        2322 44.17         3.4 0.18            142            101 175 
 PTB  HZ EP       2322 26.47                             131   -0.26 9  146 259 
 PTB  HN ES       2322 47.15                             131   -0.10 9  146 259 
 PTB  HZ I        2322 49.46         5.0 0.12            128            146 259 
 SPBC HN ES       2322 49.75                             128   -0.36 9  162 219 
 SPBC HZ I        2322 55.55         6.1 0.40            126            162 219 
 ZAR  HN ES       2322 57.45                             121    0.27 9  203 292 
 ZAR  HZ I        2323  3.17         4.6 0.32            120            203 292 
 SML  HZ EP       2322 36.51                             116   -0.12 8  243 336 
 SML  HN ES       2323  4.38                             116   -0.50 8  243 336 
 SML  HZ I        2323 11.36         7.4 0.24            116            243 336 
 CHI  HZ EP       2322 38.17                             116    0.45 8  248 195 
 CHI  HN ES       2323  6.38                             116   -0.43 8  248 195 
 CHI  HZ I        2323 11.91         2.2 0.22            116            248 195 
 HEL  HN ES   4   2323 15.31                             114    4.19 0  270 256 
 HEL  HZ I        2323 23.72         2.1 0.36            113            270 256 
 MON  HN ES   4   2323 24.28                             107   -2.69 0  352 309 
 MON  HZ I        2323 27.46         1.3 0.58            107            352 309 
                                                                                
