 2016  326 2319 43.3 L   6.796 -73.159147.4  RSN  7 0.3 1.5LRSN                1
 GAP=135        0.73       3.1     3.3  5.7 -0.7585E+00  0.6704E+01  0.1727E+01E
 Epicentro: LOS SANTOS - SANTANDER                                             3
 ACTION:UPD 16-05-13 21:27 OP:cam  STATUS:               ID:20160326231943 L   I
 OLDACT:UP  16-03-27 06:20 OP:mh   STATUS:               ID:20160326231746     3
 OLDACT:UP  16-03-27 04:47 OP:mh   STATUS:               ID:20160326231746     3
 OLDACT:UP  16-03-27 04:46 OP:mh   STATUS:               ID:20160326231746     3
 OLDACT:UP  16-03-27 04:35 OP:mh   STATUS:               ID:20160326231746     3
 OLDACT:REG 16-03-27 02:51 OP:mh   STATUS:               ID:20160326231746     3
 2016-03-26-2317-46M.COL___298                                                 6
 STAT SP IPHASW D HRMM SECON CODA AMPLIT PERI AZIMU VELO AIN AR TRES W  DIS CAZ7
 BAR2 EZ EP   1   2320  2.89                             171   -0.21 7 22.6 187 
 BAR2 EZ ES       2320 18.52                             171   -0.0310 22.6 187 
 BAR2 EZ I        2320 20.08        13.4 0.32            171           22.6 187 
 PAM  EZ EP       2320  6.14                             150    0.3910 78.7  40 
 PAM  EN ES       2320 23.36                             150    0.0910 78.7  40 
 PAM  EZ I        2320 24.14         2.9 0.22            153           78.7  40 
 RUS  HZ EP       2320  7.32                             144    0.1510  100 175 
 RUS  HN ES       2320 25.55                             144   -0.2510  100 175 
 RUS  HZ I        2320 27.16         2.9 0.32            146            100 175 
 PTB  HZ EP       2320  9.80                             133   -0.45 9  146 259 
 PTB  HN ES       2320 31.11                             133   -0.17 9  146 259 
 PTB  HZ I        2320 33.37         3.3 0.42            132            146 259 
 ZAR  HN ES       2320 41.04                             123    0.02 9  203 292 
 ZAR  HZ I        2320 46.98         3.9 0.38            123            203 292 
 NOR  HZ EP   1   2320 18.53                             119   -0.42 6  233 234 
 NOR  HN ES   1   2320 47.62                             119    0.85 6  233 234 
 NOR  HZ I        2320 51.72         2.3 0.59            119            233 234 
 CHI  HN ES       2320 50.58                             117    0.20 8  248 195 
                                                                                
