 2017  226 2012 38.4 L   6.789 -73.152147.2  RSN 19 0.5 2.3LRSN                1
 GAP= 65        0.89       3.0     2.4  4.4  0.2658E+00  0.2340E+01  0.2802E+01E
 Epicentro: LOS SANTOS - SANTANDER                                             3
 ACTION:UPD 17-05-24 15:41 OP:jn   STATUS:               ID:20170226201238 L   I
 OLDACT:UP  17-02-27 03:31 OP:e    STATUS:               ID:20170226200744d    3
 OLDACT:UP  17-02-27 03:30 OP:e    STATUS:               ID:20170226200744d    3
 OLDACT:UP  17-02-27 03:27 OP:e    STATUS:               ID:20170226200744d    3
 OLDACT:UP  17-02-27 03:26 OP:e    STATUS:               ID:20170226200744d    3
 OLDACT:UP  17-02-27 03:26 OP:e    STATUS:               ID:20170226200744d    3
 OLDACT:UP  17-02-27 03:26 OP:e    STATUS:               ID:20170226200744d    3
 OLDACT:UP  17-02-27 03:23 OP:e    STATUS:               ID:20170226200744d    3
 OLDACT:UP  17-02-27 03:23 OP:e    STATUS:               ID:20170226200744d    3
 OLDACT:DUP 17-02-27 03:21 OP:e    STATUS:               ID:20170226200744d    3
 OLDACT:UP  17-02-27 03:18 OP:e    STATUS:               ID:20170226200743d    3
 OLDACT:DUP 17-02-27 03:15 OP:and  STATUS:               ID:20170226200743d    3
 2017-02-26-2008-00M.COL___376                                                 6
 STAT SP IPHASW D HRMM SECON CODA AMPLIT PERI AZIMU VELO AIN AR TRES W  DIS CAZ7
 BAR2 EZ EP       2012 58.12                             171   -0.0810 22.0 189 
 BAR2 EZ ES       2013 13.37                             171   -0.2610 22.0 189 
 BAR2 EZ I        2013 15.95        85.1 0.28            169           22.0 189 
 BRR  HZ EP     C 2012 59.95                             153    0.2210 71.2 300 
 BRR  HN ES       2013 17.03                             153    0.6910 71.2 300 
 BRR  HZ I        2013 20.97        46.0 0.30            149           71.2 300 
 PAM  EZ EP     C 2013  0.93                             151    0.0510 78.8  39 
 PAM  EN ES       2013 18.27                             151   -0.1210 78.8  39 
 PAM  EZ I        2013 21.40        25.0 0.44            154           78.8  39 
 RUS  HZ IP     D 2013  1.99                             144   -0.2410 99.4 176 
 RUS  HN ES       2013 20.67                             144   -0.1310 99.4 176 
 RUS  HZ I        2013 22.03        24.4 0.32            146           99.4 176 
 PTB  HZ EP       2013  4.71                             133   -0.71 9  147 259 
 PTB  HN ES       2013 25.87                             133   -0.61 9  147 259 
 PTB  HZ I        2013 32.72        20.4 0.17            131            147 259 
 TAM  HZ IP     C 2013  6.53                             131    0.28 9  155 104 
 TAM  HN ES       2013 28.29                             131    0.33 9  155 104 
 ZAR  HZ EP       2013 10.97                             123    0.03 9  204 293 
 ZAR  HN ES       2013 36.32                             123    0.01 9  204 293 
 ZAR  HZ I        2013 41.47        24.1 0.46            122            204 293 
 NOR  HZ EP       2013 14.22                             119    0.12 8  233 235 
 NOR  HE ES       2013 41.97                             119    0.05 8  233 235 
 NOR  HZ I        2013 44.97        14.4 0.24            118            233 235 
 CHI  HZ EP       2013 16.45                             118    0.40 8  247 195 
 CHI  HN ES       2013 45.71                             118    0.31 8  247 195 
 CHI  HZ I        2013 49.24        11.2 0.42            118            247 195 
 ROSC BZ EP   9   2013 18.74                             117    2.28 0  251 211 
 ROSC BN ES       2013 48.84                             116    0.43 8  251 211 
 ROSC BZ I        2013 52.81        34.4 0.40            117            251 211 
 HEL  HZ EP   4   2013 20.36                             115    1.76 0  271 256 
 HEL  HE ES   2   2013 50.84                             115    0.91 4  271 256 
 HEL  HZ I        2013 58.42         9.6 0.38            115            271 256 
 URE  HE ES   4   2013 49.50                             114   -2.11 0  284 292 
 URE  HZ I        2014  1.87        11.6 0.38            113            284 292 
 PTGC HZ EP       2013 21.26                             112   -0.98 7  308 158 
 PTGC HN ES   3   2013 54.92                             112   -1.50 2  308 158 
 PTGC HZ I        2013 55.31        13.2 0.30            113            308 158 
 CBOC HZ EP   3   2013 26.54                             110    1.27 2  333 252 
 CBOC HN ES       2014  2.31                             110    0.49 7  333 252 
 CBOC HZ I        2014 13.09         3.0 0.20            110            333 252 
 DBB  EZ EP       2013 26.38                             110    0.50 7  339 274 
 DBB  EN ES       2014  2.19                             110   -0.71 7  339 274 
 DBB  EZ I        2014  3.35         5.4 0.20            110            339 274 
 PRA  HZ EP       2013 31.98                             107    0.16 6  391 210 
 PRA  HN ES       2014 13.93                             107    0.45 6  391 210 
 PRA  HZ I        2014 20.37        16.8 0.38            107            391 210 
 ORTC HZ EP   9   2013 33.42                             107    1.20 0  394 216 
 ORTC HN ES   2   2014 16.17                                    0.79 3  394 216 
 ORTC HZ I        2014 22.01         7.2 0.34            107            394 216 
 SJC  HZ EP   9   2013 32.29                             106   -1.82 0  410 327 
 SJC  HN ES   2   2014 16.19                                    0.47 3  410 327 
 SJC  HZ I        2014 28.11         3.3 0.30            106            410 327 
 SMAR HZ EP   2   2013 43.66                             103   -0.80 2  498 346 
                                                                                
