 2014  526 2155  7.1 L   6.833 -73.150139.2  RSN 12 0.4 1.9LRSN                1
 GAP=134        0.85       2.6     3.7  5.5 -0.4097E+00  0.5593E+01  0.2742E+01E
 Epicentro: LOS SANTOS - SANTANDER                                             3
 ACTION:UPD 15-03-16 17:01 OP:nd   STATUS:               ID:20140526215507 L   I
 OLDACT:REG 14-05-27 08:01 OP:spq  STATUS:               ID:20140526214819     3
 2014-05-26-2148-19M.COL___261                                                 6
 STAT SP IPHASW D HRMM SECON CODA AMPLIT PERI AZIMU VELO AIN AR TRES W  DIS CAZ7
 BAR2 SZ ES   1   2155 41.17                             169    0.39 7 26.8 188 
 BAR2 SZ I        2155 42.78        30.9 0.26            168           26.8 188 
 BRR  HZ IP     C 2155 28.05                             152    0.6310 69.1 296 
 BRR  HE ES       2155 43.29                             152    0.0210 69.1 296 
 BRR  HZ I        2155 48.80        13.3 0.14            149           69.1 296 
 PAM  SZ EP       2155 28.98                             150    0.5110 74.9  42 
 PAM  SN ES       2155 44.99                             150   -0.1510 74.9  42 
 PAM  SZ I        2155 48.81         7.3 0.34            154           74.9  42 
 RUS  HZ EP       2155 30.40                             141   -0.0910  104 176 
 RUS  HE ES       2155 48.49                             141   -0.2410  104 176 
 RUS  HZ I        2155 50.56        10.1 0.26            144            104 176 
 PTB  HZ EP   1   2155 32.83                             130   -0.74 7  148 257 
 PTB  HN ES   1   2155 53.76                             130   -0.45 7  148 257 
 PTB  HZ I        2155 59.34        13.6 0.16            130            148 257 
 OCA  HZ EP   1   2155 34.24                             129   -0.32 7  157 353 
 OCA  HN ES       2155 55.63                             129   -0.35 9  157 353 
 OCA  HZ I        2156  2.84        13.2 0.34            130            157 353 
 ZAR  HN ES       2156  4.17                             121    0.40 9  202 291 
 ZAR  HZ I        2156 11.60        14.6 0.28            121            202 291 
 SML  HN ES   1   2156 10.48                             116   -0.50 6  240 335 
 SML  HZ I        2156 13.65        12.0 0.30            118            240 335 
 CHI  HZ EP   1   2155 44.34                             115   -0.47 6  252 195 
 CHI  HE ES   1   2156 14.16                             115   -0.07 6  252 195 
 CHI  HZ I        2156 18.07         2.2 0.44            117            252 195 
 GUY2CHZ EP   1   2155 51.04                             111    0.43 5  303 234 
 GUY2CHN ES   1   2156 24.19                             111   -0.35 5  303 234 
 RREF HN ES   1   2156 29.65                             109    0.50 5  324 229 
 RREF HZ I        2156 34.12         3.3 0.28            111            324 229 
 PRA  HZ EP   1   2156  1.37                             105    0.63 4  395 209 
 PRA  HN ES   1   2156 42.20                             105   -0.39 4  395 209 
 PRA  HZ I        2156 50.06         3.6 0.32            107            395 209 
                                                                                
