 2011  526 2304 33.6 L   6.763 -73.104141.9  RSN  7 0.2 1.7LRSN                1
 GAP=144        0.47       3.6     4.5  4.8 -0.6123E+01 -0.5659E+01  0.7757E+01E
 Epicentro: LOS SANTOS - SANTANDER                                             3
 ACTION:UP  11-06-29 08:56 OP:tino STATUS:               ID:20110526230433 L   I
 2011-05-26-2303-22S.COL___115                                                 6
 STAT SP IPHASW D HRMM SECON CODA AMPLIT PERI AZIMU VELO SNR AR TRES W  DIS CAZ7
 BTL  SZ EP       23 4 52.94                             170     0.210   25 314 
 GIR2 SZ EP       23 4 52.83                             165    -0.110   36 344 
 GIR2 SZ ES   1   23 5  7.82                             165    -0.2 7   36 344 
 BRR  HZ EP       23 4 54.48                             150    -0.210   77 300 
 BRR  HN ES   1   23 5 11.39                             150     0.3 7   77 300 
 BRR  HZ I        23 5 13.70        15.9 0.16                            77 300 
 PAM  SZ EP       23 4 55.59                             150     0.210   78  35 
 PAM  SN ES   1   23 5 12.50                             150     0.1 7   78  35 
 RUS  HZ EP       23 4 56.59                             144     0.010   96 179 
 BRI  SZ ES   3   23 5 14.93                             140    -0.8 2  111  18 
 GRA  SZ EP       23 4 58.71                             135     0.010  128  15 
 GRA  SZ ES   1   23 5 18.23                             135    -0.1 7  128  15 
 GRA  SZ I        23 5 23.46         5.4 0.44                           128  15 
                                                                                
