 2012  626 2243 33.1 L   6.782 -73.114144.0  RSN 11 0.5 2.4LRSN                1
 GAP=141        0.87       3.3     4.5  6.3 -0.1430E+01  0.9240E+01  0.3477E+01E
 Epicentro: LOS SANTOS - SANTANDER                                             3
 ACTION:UPD 12-08-06 17:52 OP:ep   STATUS:               ID:20120626224333 L   I
 2012-06-26-2240-00M.COL___201                                                 6
 STAT SP IPHASW D HRMM SECON CODA AMPLIT PERI AZIMU VELO AIN AR TRES W  DIS CAZ7
 BAR2 SZ EP       2243 52.49                             171    0.0110 22.3 200 
 BAR2 SZ I        2243 52.81        62.3 0.24                          22.3 200 
 BAR2 SZ ES   1   2244  7.54                             171   -0.07 7 22.3 200 
 BRR  HZ EP       2243 54.45                             151    0.1810 75.2 299 
 BRR  HN ES   1   2244 11.33                             151    0.53 7 75.2 299 
 BRR  HZ I        2244 12.64        98.6 0.25                          75.2 299 
 PAM  SZ EP       2243 55.42                             151    0.3410 76.8  37 
 PAM  SN ES   1   2244 12.52                             151    0.29 7 76.8  37 
 RUS  HZ EP       2243 56.47                             144   -0.0310 98.4 178 
 RUS  HN ES   1   2244 14.54                             144   -0.23 7 98.4 178 
 RUS  HZ I        2244 16.16        35.0 0.34                          98.4 178 
 PTB  HZ EP   1   2243 59.31                             131   -0.88 7  151 260 
 PTB  HZ I        2244 23.51        32.2 0.22                           151 260 
 OCA  HZ EP   1   2244  1.09                             129   -0.40 7  163 352 
 OCA  HN ES   1   2244 22.74                             129   -0.90 7  163 352 
 ZAR  HZ EP   1   2244  5.48                             121   -0.35 6  208 292 
 ZAR  HN ES   1   2244 31.47                             121    0.10 6  208 292 
 ZAR  HZ I        2244 36.67        40.5 0.43                           208 292 
 NOR  SZ EP   1   2244  9.34                             118    0.45 6  236 235 
 NOR  SE ES   1   2244 35.93                             118   -0.89 6  236 235 
 CHI  HZ EP   1   2244 11.08                             117    0.51 6  248 196 
 CHI  HN ES   1   2244 39.34                             117   -0.48 6  248 196 
 CHI  HZ I        2244 46.72         5.6 0.38                           248 196 
 HEL  HZ EP   1   2244 14.07                             114    0.54 6  275 256 
 HEL  HN ES   1   2244 45.87                             114    0.80 6  275 256 
 HEL  HZ I        2244 52.50        13.9 0.45                           275 256 
 PRA  HZ EP   1   2244 26.76                             106    0.22 4  392 210 
 PRA  HE ES   1   2245  8.36                             106    0.12 4  392 210 
                                                                                
