 2014 1126 2330 41.0 L   6.724 -73.139137.2  RSN  7 0.5 1.4LRSN                1
 GAP= 92        1.19       5.3     5.2  8.1 -0.7182E+01 -0.5481E+01  0.7809E+01E
 Epicentro: JORDAN - SANTANDER                                                 3
 ACTION:UPD 14-12-19 15:47 OP:nd   STATUS:               ID:20141126233041 L   I
 OLDACT:REG 14-11-27 04:55 OP:stll STATUS:               ID:20141126232746     3
 2014-11-26-2327-46M.COL___306                                                 6
 STAT SP IPHASW D HRMM SECON CODA AMPLIT PERI AZIMU VELO AIN AR TRES W  DIS CAZ7
 BAR2 SZ ES       2331 14.13                             173    0.3010 15.3 198 
 BAR2 SZ I        2331 16.55         5.7 0.30            168           15.3 198 
 BRR  HZ EP       2331  1.46                             149   -0.0510 76.2 304 
 BRR  HN ES       2331 17.81                             149    0.2910 76.2 304 
 PAM  SZ EP       2331  2.32                             147   -0.3710 83.7  35 
 PAM  SZ I        2331  2.65         6.8 0.18            153           83.7  35 
 PAM  SN ES       2331 19.70                             147    0.0710 83.7  35 
 RUS  HZ EP       2331  4.00                             144    0.7310 92.1 176 
 RUS  HE ES       2331 19.86                             144   -0.8010 92.1 176 
 RUS  HZ I        2331 23.31         3.4 0.40            143           92.1 176 
 PTB  HN ES       2331 26.99                             130   -0.65 9  147 262 
 PTB  HZ I        2331 31.43         2.1 0.36            129            147 262 
 TAM  HZ EP       2331  7.70                             129   -0.03 9  152 102 
 SPBC HZ EP       2331  8.16                             128   -0.09 9  157 221 
 SPBC HN ES       2331 30.11                             128    0.59 9  157 221 
 SPBC HZ I        2331 38.84         4.1 0.24            127            157 221 
                                                                                
