 2012  126 2325 24.5 L   6.797 -73.131141.0  RSN  6 0.3 1.4LRSN                1
 GAP=139        0.49       4.1     3.5  5.0 -0.3904E+00  0.3469E+01  0.2942E+01E
 Epicentro: LOS SANTOS - SANTANDER                                             3
 ACTION:UP  12-02-03 08:21 OP:REBC STATUS:               ID:20120126232524 L   I
 2012-01-26-2320-00M.COL___188                                                 6
 STAT SP IPHASW D HRMM SECON CODA AMPLIT PERI AZIMU VELO SNR AR TRES W  DIS CAZ7
 GIR2 SZ EP       2325 43.48                             167    -0.110   32 347 
 GIR2 SZ ES   1   2325 58.52                             167     0.0 7   32 347 
 BRR  HZ EP   1   2325 45.20                             151     0.0 7   73 298 
 BRR  HZ I        2325 49.39         6.7 0.32                            73 298 
 BRR  HN ES   2   2326  1.66                             151     0.3 5   73 298 
 PAM  SZ EP       2325 46.25                             150     0.110   77  38 
 PAM  SN ES   2   2326  2.66                             150    -0.4 5   77  38 
 RUS  HZ EP   1   2325 47.78                             143     0.0 7  100 177 
 RUS  HE ES   2   2326  6.20                             143     0.3 5  100 177 
 RUS  HZ I        2326  6.95         1.6 0.28                           100 177 
 PTB  HZ EP   1   2325 50.98                             131    -0.2 7  149 259 
 PTB  HE ES   2   2326 11.45                             131    -0.6 5  149 259 
 ZAR  HZ EP   1   2325 56.96                             121     0.2 6  206 292 
 ZAR  HN ES   2   2326 22.47                             121     0.5 4  206 292 
 ZAR  HZ I        2326 28.13         4.0 0.46                           206 292 
                                                                                
