 2011 1026 2021 53.0 L   7.438 -73.196152.0  RSN  6 0.3 1.8LRSN                1
 GAP=110        0.57       3.4     5.8  6.8  0.2646E+01 -0.7734E+01 -0.1113E+01E
 Epicentro: EL PLAYON - SANTANDER                                              3
 ACTION:UPD 12-07-13 16:06 OP:ep   STATUS:               ID:20111026202153 L   I
 2011-10-26-2018-57S.COL___177                                                 6
 STAT SP IPHASW D HRMM SECON CODA AMPLIT PERI AZIMU VELO AIN AR TRES W  DIS CAZ7
 PAM  SZ EP   1   2022 14.64                             159   -0.20 7 55.9 101 
 BRR  HZ EP   1   2022 14.77                             154    0.08 7 67.7 237 
 BRR  HN ES   1   2022 31.25                             154   -0.32 7 67.7 237 
 BRR  HZ I        2022 32.24        22.2 0.03                          67.7 237 
 OCA  SZ EP   1   2022 16.60                             148    0.40 7 89.6 351 
 OCA  SZ ES   1   2022 34.20                             148   -0.05 7 89.6 351 
 OCA  SZ I        2022 35.40        19.4 0.35                          89.6 351 
 RUS  HZ EP   2   2022 22.69                             129   -0.65 4  171 176 
 RUS  HE ES   1   2022 47.34                             129    0.37 7  171 176 
 RUS  HZ I        2023  0.79         1.8 0.37                           171 176 
 ZAR  HN ES   2   2022 48.21                             127    0.30 4  184 272 
 ZAR  HZ I        2022 51.87         7.3 0.31                           184 272 
 SJC  HZ EP   1   2022 41.61                             110   -0.20 5  349 321 
 SJC  HZ I        2022 42.03         2.7 0.32                           349 321 
                                                                                
