 2011  426 2017 22.9 L   6.570 -73.509111.4  RSN  8 0.4 2.2LRSN                1
 GAP= 86        0.99       3.8     4.2  8.0 -0.7888E+00  0.1025E+02  0.2953E+01E
 Epicentro: EL CARMEN DE CHUCURI - SANTANDER                                   3
 ACTION:UP  11-06-22 15:33 OP:REBC STATUS:               ID:20110426201722 L   I
 2011-04-26-2015-24S.COL___133                                                 6
 STAT SP IPHASW D HRMM SECON CODA AMPLIT PERI AZIMU VELO SNR AR TRES W  DIS CAZ7
 BAR2 SZ EP   1   2017 39.24                             161     0.4 7   36  86 
 BAR2 SZ ES   1   2017 51.73                             161     0.5 7   36  86 
 BAR2 SZ I        2017 52.93       380.7 0.42                            36  86 
 BRR  HZ EP   1   2017 39.98                             148     0.1 7   63 339 
 BRR  HZ I        2017 40.42        91.4 0.10                            63 339 
 BRR  HN ES   1   2017 53.50                             148     0.3 7   63 339 
 RUS  HZ EP   1   2017 42.44                             139     0.0 7   89 148 
 RUS  HN ES   1   2017 57.14                             139    -0.5 7   89 148 
 RUS  HZ I        2017 59.51        22.1 0.25                            89 148 
 PAM  SZ EP   1   2017 45.79                             129     0.3 7  123  46 
 PAM  SN ES   1   2018  2.54                             129    -0.6 7  123  46 
 PAM  SZ I        2018  5.16        10.7 0.20                           123  46 
 YOP  SZ EP   1   2017 51.40                             117     0.5 7  181 138 
 YOP  SZ I        2017 53.67        11.5 0.21                           181 138 
 YOP  SN ES   1   2018 12.68                             117     0.0 7  181 138 
 OCA  SZ EP   1   2017 51.26                             116    -0.2 7  186   6 
 OCA  SZ ES   1   2018 13.30                             116    -0.5 7  186   6 
 OCA  SZ I        2018 20.14        27.8 0.28                           186   6 
 NOR  SZ EP   1   2017 51.14                             116    -0.4 7  187 234 
 NOR  SN ES   1   2018 13.15                             116    -0.7 7  187 234 
 NOR  SZ I        2018 16.15         3.9 0.16                           187 234 
 HEL  HZ EP   1   2017 56.98                             111     0.6 6  227 259 
 HEL  HN ES   1   2018 22.85                             111     0.3 6  227 259 
 HEL  HZ I        2018 29.77        18.6 0.31                           227 259 
                                                                                
