 2011  926 2205 56.9 L   6.758 -73.178146.3  RSN 10 0.3 2.4LRSN                1
 GAP=157        0.49       2.6     4.0  3.6  0.2860E+00  0.4082E+01  0.9310E+00E
 Epicentro: VILLANUEVA - SANTANDER                                             3
 ACTION:UPD 12-07-13 16:00 OP:ep   STATUS:               ID:20110926220556 L   I
 2011-09-26-2204-07S.COL___165                                                 6
 STAT SP IPHASW D HRMM SECON CODA AMPLIT PERI AZIMU VELO AIN AR TRES W  DIS CAZ7
 BAR2 SZ IP     C 22 6 16.33                             172   -0.2210 18.4 181 
 BAR2 SZ ES   1   22 6 31.55                             172   -0.29 7 18.4 181 
 BAR2 SZ I        22 6 34.13        69.6 0.28                          18.4 181 
 BTL  SZ EP       22 6 16.53                             172   -0.0510 20.3 331 
 BRR  HZ IP     D 22 6 18.16                             153    0.0510 70.5 303 
 BRR  HZ I        22 6 18.30        47.0 0.14                          70.5 303 
 BRR  HN ES   1   22 6 34.93                             153    0.31 7 70.5 303 
 RUS  HZ EP       22 6 20.19                             145   -0.2510 96.3 174 
 RUS  HE ES   1   22 6 39.26                             145    0.48 7 96.3 174 
 OCA  SZ EP       22 6 25.75                             129    0.06 9  164 355 
 OCA  SZ I        22 6 52.03        20.0 0.20                           164 355 
 YOP  SZ EP   2   22 6 27.04                             127    0.25 4  176 152 
 ZAR  HZ EP   2   22 6 29.02                             123   -0.25 4  203 294 
 ZAR  HE ES   3   22 6 54.10                             123   -0.38 2  203 294 
 ZAR  HZ I        22 7  0.86        19.7 0.58                           203 294 
 NOR  SZ EP       22 6 32.40                             119    0.29 8  229 235 
 NOR  SE ES   2   22 6 59.18                             119   -0.35 4  229 235 
 RREF HZ EP       22 6 42.46                             111    0.00 7  316 230 
 RREF HE ES   3   22 7 18.55                             111    0.59 2  316 230 
 RREF HZ I        22 7 27.80        11.3 0.62                           316 230 
 PRA  HZ EP       22 6 49.86                             107    0.05 6  386 209 
 PRA  HN ES   2   22 7 30.77                             107   -0.27 3  386 209 
                                                                                
