 2013  426 2113 40.5 L   6.691 -73.731  4.0  RSN  5 0.5 1.5LRSN                1
 GAP=117        1.24       3.0     2.8  7.6 -0.7818E+00  0.6124E+00 -0.2384E+00E
 Epicentro: EL CARMEN DE CHUCURI - SANTANDER                                   3
 ACTION:UPD 13-05-22 14:41 OP:EP   STATUS:               ID:20130426211340 L   I
 2013-04-26-2108-48M.COL___211                                                 6
 STAT SP IPHASW D HRMM SECON CODA AMPLIT PERI AZIMU VELO AIN AR TRES W  DIS CAZ7
 BRR  HZ EP       2113 47.80                              47   -0.2910 46.1   3 
 BRR  HN ES       2113 53.75                              47   -0.2510 46.1   3 
 BRR  HN I        2113 54.16        63.8 0.24             47           46.1   3 
 GIR2 SZ EP       2113 52.50                              47    0.1410 73.3  54 
 PTB  HZ EP       2113 53.59                              47    0.0610 81.9 258 
 PTB  HN ES       2114  3.60                              47   -0.0810 81.9 258 
 PTB  HN I        2114  6.94        28.7 0.30             47           81.9 258 
 RUS  HZ EP       2113 59.70                              47    0.8610  114 141 
 RUS  HN ES       2114 12.30                              47   -0.8410  114 141 
 RUS  HN I        2114 14.71         4.7 0.18             47            114 141 
 PAM  SZ EP       2114  2.65                              47    0.6310  135  58 
 PAM  SN ES       2114 18.60                              47   -0.1910  135  58 
 PAM  SN I        2114 19.20         5.0 0.20             47            135  58 
                                                                                
