 2017  726 2243 14.2 L   6.753 -73.137139.9  RSN  6 0.3 1.4LRSN                1
 GAP=140        0.72       3.8     3.7  6.0  0.9176E+00  0.9290E+01 -0.1229E+01E
 Epicentro: LOS SANTOS - SANTANDER                                             3
 ACTION:UPD 17-08-30 15:37 OP:rebc STATUS:               ID:20170726224314 L   I
 OLDACT:DUP 17-07-27 05:17 OP:dnl  STATUS:               ID:20170726223740d    3
 OLDACT:UP  17-07-27 05:01 OP:dnl  STATUS:               ID:20170726223739     3
 OLDACT:UP  17-07-27 05:01 OP:dnl  STATUS:               ID:20170726223739     3
 OLDACT:REG 17-07-27 03:49 OP:dnl  STATUS:               ID:20170726223739     3
 2017-07-26-2238-00M.COL___380                                                 6
 STAT SP IPHASW D HRMM SECON CODA AMPLIT PERI AZIMU VELO AIN AR TRES W  DIS CAZ7
 BAR2 EZ EP   2   2243 33.23                             172    0.19 5 18.4 196 
 BAR2 EZ ES       2243 47.23                             172   -0.5010 18.4 196 
 BAR2 EZ I        2243 48.86         8.1 0.16            172           18.4 196 
 BRR  HZ EP       2243 35.07                             150    0.1310 74.7 302 
 BRR  HE ES       2243 51.34                             150    0.2410 74.7 302 
 BRR  HZ I        2243 55.86        10.9 0.46            149           74.7 302 
 PAM  EZ EP   2   2243 36.34                             149    0.31 5 80.9  37 
 PAM  EN ES       2243 53.02                             149   -0.0210 80.9  37 
 PAM  EZ I        2243 53.62         3.2 0.34            151           80.9  37 
 RUS  HZ EP   2   2243 37.11                             144    0.10 5 95.3 176 
 RUS  HN ES       2243 55.09                             144    0.3110 95.3 176 
 RUS  HZ I        2243 56.40         2.7 0.22            148           95.3 176 
 PTB  HZ EP       2243 40.10                             131   -0.61 9  148 261 
 PTB  HE ES       2244  1.54                             131    0.16 9  148 261 
 PTB  HZ I        2244  2.16         2.8 0.16            131            148 261 
 ZAR  HZ EP   2   2243 46.61                             121    0.02 4  207 293 
 ZAR  HN ES       2244 11.93                             121    0.09 8  207 293 
 ZAR  HZ I        2244 18.29         3.4 0.46            122            207 293 
                                                                                
