 2014  326 2151 25.4 L   6.816 -73.155145.4  RSN 26 0.5 2.8LRSN                1
 GAP= 70        0.92       2.2     2.4  4.3 -0.5758E+00  0.2355E+01  0.3766E+00E
 Epicentro: LOS SANTOS - SANTANDER                                             3
 OLDACT:REG 14-03-26 22:57 OP:fm   STATUS:               ID:20140326214817     3
 ACTION:UPD 14-04-09 23:20 OP:nd   STATUS:               ID:20140326215125 L   I
 OLDACT:UP  14-03-27 00:51 OP:fm   STATUS:               ID:20140326214817     3
 2014-03-26-2148-17M.COL___253                                                 6
 STAT SP IPHASW D HRMM SECON CODA AMPLIT PERI AZIMU VELO AIN AR TRES W  DIS CAZ7
 BAR2 SZ EP       2151 44.86                             170   -0.1610 24.9 187 
 BAR2 SZ ES   1   2151 59.54                             170   -0.78 7 24.9 187 
 BAR2 SZ I        2152  2.50       277.7 0.28            167           24.9 187 
 BRR  HZ EP       2151 46.57                             153    0.1610 69.4 298 
 BRR  HN ES       2152  3.39                             153    0.5910 69.4 298 
 BRR  SZ I        2152  6.04        97.6 0.34            151           69.4 298 
 PAM  SZ EP     C 2151 47.70                             151    0.1610 76.7  41 
 PAM  SN ES       2152  4.85                             151    0.0510 76.7  41 
 PAM  SZ I        2152  6.81        89.6 0.46            151           76.7  41 
 RUS  HZ EP     D 2151 48.86                             143   -0.3910  102 176 
 RUS  HN ES       2152  8.11                             143    0.2610  102 176 
 RUS  SZ I        2152  8.85        66.5 0.34            140            102 176 
 PTB  HZ EP       2151 51.37                             132   -0.91 9  147 258 
 PTB  HN ES       2152 13.27                             132    0.03 9  147 258 
 PTB  SZ I        2152 14.08        84.3 0.40            129            147 258 
 TAM  HZ IP     C 2151 53.31                             130    0.12 9  157 106 
 TAM  SZ I        2152 13.97        38.1 0.40            128            157 106 
 TAM  HN ES       2152 15.04                             130    0.18 9  157 106 
 OCA  HZ EP       2151 53.47                             130   -0.04 9  158 353 
 OCA  HN ES       2152 15.38                             130   -0.05 9  158 353 
 OCA  SZ I        2152 20.06        47.2 0.28            128            158 353 
 SPBC HZ EP       2151 53.86                             129   -0.09 9  164 218 
 SPBC HN ES       2152 16.13                             129   -0.07 9  164 218 
 SPBC SZ I        2152 22.77        94.3 0.24            125            164 218 
 ZAR  HZ EP       2151 57.25                             123   -0.41 9  202 292 
 ZAR  HN ES       2152 23.36                             123    0.55 9  202 292 
 ZAR  SZ I        2152 27.60        48.1 0.20            120            202 292 
 NOR  HZ EP     C 2152  0.66                             119   -0.47 8  235 234 
 NOR  HE ES       2152 28.65                             119   -0.35 8  235 234 
 NOR  SZ I        2152 36.69        59.4 0.18            115            235 234 
 SML  HZ EP       2152  1.70                             118   -0.09 8  242 335 
 SML  HE ES       2152 30.78                             118    0.61 8  242 335 
 SML  SZ I        2152 33.89        79.4 0.08            115            242 335 
 CHI  HZ EP       2152  3.17                             117   -0.07 8  250 195 
 CHI  HN ES       2152 33.13                             117    0.38 8  250 195 
 CHI  SZ I        2152 38.47        27.3 0.32            114            250 195 
 ROSC BZ EP   4   2152  4.86                             117    1.25 0  254 211 
 ROSC BN ES   4   2152 37.10                             117    3.69 0  254 211 
 ROSC SZ I        2152 41.15        44.3 0.70            114            254 211 
 HEL  HZ EP   1   2152  5.99                             115    0.45 6  272 255 
 HEL  HN ES   1   2152 36.38                             115   -0.46 6  272 255 
 HEL  SZ I        2152 44.48        34.5 0.48            112            272 255 
 URE  HZ EP   4   2152  4.05                             114   -2.22 0  282 292 
 URE  HE ES   4   2152 35.90                             114   -2.25 0  282 292 
 URE  SZ I        2152 47.42        30.5 0.22            111            282 292 
 GUY2CHZ EP       2152  9.94                             112    0.92 7  301 234 
 GUY2CHN ES   4   2152 46.79                             112    3.76 0  301 234 
 GUY2CSZ I        2152 50.67        41.6 0.42                           301 234 
 PTGC HZ EP   4   2152  8.05                             112   -1.43 0  311 159 
 PTGC HN ES   4   2152 41.44                             112   -2.41 0  311 159 
 PTGC SZ I        2152 46.16        30.2 0.30            109            311 159 
 RREF HZ EP   4   2152 13.00                             111    1.43 0  322 229 
 RREF HN ES   4   2152 48.81                             111    1.23 0  322 229 
 RREF SZ I        2152 56.25        32.4 0.62            108            322 229 
 CBOC HZ EP   4   2152 13.24                             110    0.99 0  333 252 
 CBOC HN ES   1   2152 48.27                             110   -0.53 5  333 252 
 CBOC SZ I        2153  3.39        11.8 0.68            107            333 252 
 DBB  SZ EP     D 2152 12.40                             110   -0.33 7  338 274 
 DBB  SZ ES   1   2152 49.30                             110   -0.35 5  338 274 
 TOL  SZ EP   1   2152 14.66                             109    0.95 5  344 224 
 TOL  SZ ES   4   2152 53.61                             109    2.23 0  344 224 
 TOL  SZ I        2153  1.08        14.9 0.30            107            344 224 
 COD  HZ EP   1   2152 13.47                             109   -0.08 5  346 355 
 COD  HE ES   2   2152 50.75                             109   -0.35 3  346 355 
 COD  SZ I        2152 55.88        13.1 0.52            107            346 355 
 ANIL HZ EP   2   2152 15.25                             108   -0.01 3  358 224 
 ANIL HN ES   1   2152 54.87                             108    0.73 5  358 224 
 ANIL SZ I        2153  1.76        89.7 0.30            106            358 224 
 SDV  BZ EP   1   2152 14.48                             108   -0.91 5  360  50 
 SDV  BN ES   4   2152 51.13                             108   -3.25 0  360  50 
 ORTC HZ EP   2   2152 19.13                             106   -0.28 3  396 216 
 ORTC HN ES   1   2153  2.62                             106    1.09 4  396 216 
 ORTC SZ I        2153  5.58        15.2 0.56            104            396 216 
 SJC  HZ EP   4   2152 19.09                             106   -1.62 0  407 327 
 SJC  HN ES   4   2153  0.17                             106   -3.68 0  407 327 
 SJC  SZ I        2153  7.52        10.4 0.30            104            407 327 
                                                                                
