 2015  626 2143 43.4 L   6.807 -73.193149.7  RSN  6 0.5 1.6LRSN                1
 GAP=134        1.25       6.3     7.2  8.9  0.8102E+01  0.1300E+02 -0.1002E+02E
 Epicentro: ZAPATOCA - SANTANDER                                               3
 ACTION:UPD 15-09-10 22:15 OP:cam  STATUS:               ID:20150626214343 L   I
 OLDACT:UP  15-07-07 21:28 OP:cam  STATUS:               ID:20150626214343 L   3
 OLDACT:UP  15-07-07 21:27 OP:cam  STATUS:               ID:20150626214343 L   3
 OLDACT:UP  15-07-07 21:27 OP:cam  STATUS:               ID:20150626214343 L   3
 OLDACT:UP  15-07-03 20:46 OP:ak   STATUS:               ID:20150626214343 L   3
 OLDACT:REG 15-06-27 05:18 OP:stll STATUS:               ID:20150626213748     3
 2015-06-26-2137-48M.COL___331                                                 6
 STAT SP IPHASW D HRMM SECON CODA AMPLIT PERI AZIMU VELO AIN AR TRES W  DIS CAZ7
 BAR2 EZ EP       2144  3.40                             171   -0.0710 23.8 177 
 BAR2 EZ ES       2144 18.38                             171   -0.7810 23.8 177 
 BAR2 EZ I        2144 20.18        17.0 0.14            174           23.8 177 
 BRR  HZ EP       2144  5.30                             155    0.6310 66.2 300 
 BRR  HN ES       2144 22.24                             155    0.9510 66.2 300 
 BRR  HZ I        2144 26.30        23.2 0.44            150           66.2 300 
 PAM  EZ EP     C 2144  6.30                             151    0.1310 80.3  43 
 PAM  EN ES   1   2144 23.80                             151   -0.16 7 80.3  43 
 PAM  EE I        2144 26.88         0.3 0.28            151           80.3  43 
 ZAR  HZ EP       2144 15.08                             124   -0.46 9  199 293 
 ZAR  HE ES       2144 40.05                             124   -0.59 9  199 293 
 ZAR  HZ I        2144 50.45         5.3 0.46            124            199 293 
 SML  HZ EP       2144 19.89                             119   -0.01 8  241 336 
 SML  HN ES       2144 48.28                             119   -0.13 8  241 336 
 SML  HZ I        2144 58.17         9.7 0.10            119            241 336 
 CHI  HE ES   1   2144 51.03                             118    0.29 6  248 194 
                                                                                
