 2010 1226 2355 50.5 L   6.815 -73.022135.3  RSN  4 0.4 1.8LRSN                1
 GAP=172        1.03       6.1    28.7 11.0 -0.8402E+02 -0.2407E+01 -0.2029E+02E
 Epicentro: CEPITA - SANTANDER                                                 3
 ACTION:UP  11-01-14 15:27 OP:pat  STATUS:               ID:20101226235550 L   I
 2010-12-26-2353-04S.COL___132                                                 6
 STAT SP IPHASW D HRMM SECON CODA AMPLIT PERI AZIMU VELO SNR AR TRES W  DIS CAZ7
 BAR2 SZ EP       2356  8.93                             167    -0.210   30 216 
 BAR2 SZ ES   1   2356 23.98                             167     0.4 7   30 216 
 RUS  HZ EP       2356 13.27                             141    -0.110  102 184 
 RUS  HN ES   1   2356 31.04                             141    -0.2 7  102 184 
 RUS  HZ I        2356 32.59        10.7 0.24                           102 184 
 GRA  SZ EP       2356 15.07                             136     0.610  121  11 
 GRA  SZ ES   1   2356 32.48                             136    -0.6 7  121  11 
 GRA  SZ I        2356 37.32         9.3 0.23                           121  11 
 OCA  SZ EP       2356 17.93                             127    -0.2 9  161 348 
 OCA  SZ I        2356 45.35        10.3 0.75                           161 348 
                                                                                
