 2017  226 2340 55.1 L   5.913 -73.790108.8  RSN  8 0.3 1.2LRSN                1
 GAP= 86        0.55       2.7     2.4  5.4 -0.2630E+01  0.4926E+01  0.4543E+00E
 Epicentro: SUCRE - SANTANDER                                                  3
 ACTION:UPD 17-05-24 15:41 OP:jn   STATUS:               ID:20170226234055 L   I
 OLDACT:UP  17-02-27 05:02 OP:e    STATUS:               ID:20170226233745     3
 OLDACT:UP  17-02-27 05:00 OP:e    STATUS:               ID:20170226233745     3
 OLDACT:UP  17-02-27 05:00 OP:e    STATUS:               ID:20170226233745     3
 OLDACT:UP  17-02-27 04:50 OP:e    STATUS:               ID:20170226233745     3
 OLDACT:REG 17-02-27 03:02 OP:and  STATUS:               ID:20170226233745     3
 2017-02-26-2338-00M.COL___378                                                 6
 STAT SP IPHASW D HRMM SECON CODA AMPLIT PERI AZIMU VELO AIN AR TRES W  DIS CAZ7
 RUS  HZ EP       2341 13.66                             142    0.0910 78.3  92 
 RUS  HN ES       2341 27.79                             142   -0.2210 78.3  92 
 RUS  HZ I        2341 29.92         2.7 0.30            139           78.3  92 
 BAR2 EZ EP       2341 15.28                             134    0.2210  101  42 
 BAR2 EZ ES       2341 30.74                             134    0.0710  101  42 
 NOR  HZ EP       2341 17.04                             127   -0.0810  126 252 
 NOR  HN ES       2341 34.56                             127    0.2310  126 252 
 NOR  HZ I        2341 36.45         5.7 0.20            125            126 252 
 BRR  HZ EP       2341 17.57                             125   -0.1410  132   4 
 BRR  HN ES   4   2341 37.57                             125    2.18 0  132   4 
 CHI  HZ EP       2341 19.00                             124   -0.23 9  142 177 
 CHI  HN ES   2   2341 37.96                             124   -0.13 5  142 177 
 CHI  HZ I        2341 41.18         1.5 0.19            120            142 177 
 HEL  HZ EP   2   2341 24.80                             114   -0.04 4  195 279 
 HEL  HN ES   3   2341 46.76                             114   -1.32 2  195 279 
 PAM  EZ EP   9   2341 27.10                             114    1.70 0  199  37 
 PAM  EN ES   2   2341 51.44                             112    0.67 4  199  37 
 PAM  EZ I        2341 55.85         2.3 0.34            112            199  37 
 PRA  HZ EP   2   2341 33.36                             106    0.11 4  272 207 
 PRA  HE ES   2   2342  3.96                             106    0.92 4  272 207 
 PRA  HZ I        2342  8.59         1.7 0.44            104            272 207 
                                                                                
