 2010  126 2109 52.8 L   6.617 -73.424113.0  RSN  4 0.4 1.6LRSN                1
 GAP=209        0.81       6.3    32.5 12.6 -0.9031E+02  0.1602E+03 -0.4180E+02E
 Epicentro: EL CARMEN DE CHUCURI - SANTANDER                                   3
 ACTION:UP  10-08-24 09:46 OP:vdl  STATUS:               ID:20100126210952 L   I
 2010-01-26-2059-50S.COL___089                                                 6
 STAT SP IPHASW D HRMM SECON CODA AMPLIT PERI AZIMU VELO SNR AR TRES W  DIS CAZ7
 BAR2 SZ EP       2110  9.05                             169     0.410   27  96 
 BAR2 SZ ES   2   2110 20.60                             169    -0.4 5   27  96 
 RUS  HZ IP       2110 12.65                             141     0.110   89 155 
 RUS  HE ES   2   2110 27.54                             141    -0.4 5   89 155 
 RUS  HZ I        2110 29.02         5.1 0.23                            89 155 
 GRA  SZ EP       2110 17.93                             123    -0.5 9  156  26 
 GRA  SZ ES   2   2110 38.81                             123     0.5 5  156  26 
 OCA  SZ EP   2   2110 20.61                             118    -0.3 4  180   4 
 OCA  SZ I        2110 44.83         9.8 0.24                           180   4 
                                                                                
