 2016  326 2126 13.4 L   6.835 -73.145149.0  RSN  8 0.4 1.6LRSN                1
 GAP=135        0.95       5.0     4.4  8.3 -0.2393E+01  0.1643E+02  0.2638E+01E
 Epicentro: LOS SANTOS - SANTANDER                                             3
 ACTION:UPD 16-05-13 21:27 OP:cam  STATUS:               ID:20160326212613 L   I
 OLDACT:UP  16-03-27 04:49 OP:mh   STATUS:               ID:20160326211748     3
 OLDACT:UP  16-03-27 04:48 OP:mh   STATUS:               ID:20160326211748     3
 OLDACT:REG 16-03-27 02:46 OP:mh   STATUS:               ID:20160326211748     3
 2016-03-26-2117-48M.COL___295                                                 6
 STAT SP IPHASW D HRMM SECON CODA AMPLIT PERI AZIMU VELO AIN AR TRES W  DIS CAZ7
 BAR2 EZ ES   1   2126 48.75                             169   -0.38 7 27.2 189 
 BAR2 EZ I        2126 49.76         9.1 0.14            169           27.2 189 
 PAM  EZ IP     D 2126 35.98                             152    0.2410 74.4  41 
 PAM  EN ES       2126 53.20                             152   -0.0110 74.4  41 
 PAM  EZ I        2126 55.33         4.2 0.58            156           74.4  41 
 RUS  HZ EP       2126 37.19                             143   -0.5210  104 176 
 RUS  HN ES       2126 57.25                             143    0.5510  104 176 
 RUS  HZ I        2126 58.04         2.8 0.58            147            104 176 
 PTB  HZ EP   1   2126 40.33                             133   -0.33 7  149 257 
 PTB  HE ES   1   2127  1.36                             133   -0.60 7  149 257 
 PTB  HZ I        2127  8.04         7.2 0.26            132            149 257 
 ZAR  HN ES       2127 11.33                             123    0.10 9  203 291 
 ZAR  HZ I        2127 17.43         4.6 0.14            124            203 291 
 NOR  HZ EP       2126 49.55                             119    0.03 8  237 234 
 NOR  HN ES   1   2127 17.35                             119   -0.38 6  237 234 
 NOR  HZ I        2127 23.34         2.9 0.22            120            237 234 
 HEL  HN ES       2127 26.23                             115    0.80 8  273 255 
 GUY2CHZ EP   4   2126 59.38                             113    2.01 0  303 234 
 GUY2CHN ES   4   2127 34.95                             113    3.24 0  303 234 
 GUY2CHZ I        2127 39.46         3.1 0.30                           303 234 
                                                                                
