 2014  426 2051 34.5 L   6.816 -73.191136.0  RSN  8 0.4 2.0LRSN                1
 GAP=130        1.35       5.3     5.9  9.0 -0.1075E+02  0.1372E+02  0.5414E+01E
 Epicentro: ZAPATOCA - SANTANDER                                               3
 ACTION:UPD 14-05-13 23:11 OP:nd   STATUS:               ID:20140426205134 L   I
 OLDACT:REG 14-04-27 07:32 OP:stll STATUS:               ID:20140426204812     3
 2014-04-26-2048-12M.COL___251                                                 6
 STAT SP IPHASW D HRMM SECON CODA AMPLIT PERI AZIMU VELO AIN AR TRES W  DIS CAZ7
 BRR  HZ EP   9   2051 55.06                             153    0.79 0 66.0 299 
 BRR  HN ES       2052 11.80                                    1.3010 66.0 299 
 BRR  HZ I        2052 13.50        16.1 0.38            152           66.0 299 
 PAM  SZ EP       2051 55.96                             150    0.1810 79.4  43 
 PAM  SZ I        2051 56.31        33.3 0.24            154           79.4  43 
 PAM  SN ES       2052 12.77                             150    0.3710 79.4  43 
 RUS  HZ EP       2051 57.00                             142   -0.4310  103 173 
 RUS  HN ES       2052 15.65                             142    0.3010  103 173 
 RUS  HZ I        2052 16.56        11.6 0.28            144            103 173 
 PTB  HZ EP       2051 59.54                             132   -0.69 9  143 258 
 PTB  HN ES       2052 20.51                             132    0.18 9  143 258 
 PTB  HZ I        2052 22.82        12.4 0.20            132            143 258 
 OCA  HN ES       2052 22.70                             129   -0.45 9  158 355 
 SPBC HZ EP       2052  1.93                             128   -0.14 9  161 217 
 SPBC HN ES       2052 23.61                             128    0.02 9  161 217 
 SPBC HZ I        2052 28.86        12.8 0.54            129            161 217 
 HEL  HZ EP       2052 14.68                             114    0.97 8  268 255 
 HEL  HN ES       2052 44.02                             114   -0.29 8  268 255 
 HEL  HZ I        2052 51.70         5.7 0.42            115            268 255 
 GUY2CHZ EP       2052 17.78                             112    0.49 7  298 234 
 GUY2CHN ES       2052 50.44                             112   -0.26 7  298 234 
 GUY2CHZ I        2052 58.09         4.2 0.30                           298 234 
                                                                                
