 2012  227 0913 13.2 L   6.812 -73.197141.0  RSN  5 0.4 1.3LRSN                1
 GAP=172        0.81       6.5     6.8  7.5  0.1238E+02  0.9199E+01  0.6146E+01E
 ACTION:UP  12-03-07 16:34 OP:epov STATUS:               ID:20120227091313 L   I
 2012-02-27-0910-00M.COL___192                                                 6
 STAT SP IPHASW D HRMM SECON CODA AMPLIT PERI AZIMU VELO AIN AR TRES W  DIS CAZ7
 BAR2 SZ EP   1    913 32.49                             170    0.19 7 24.4 176 
 BAR2 SZ ES   1    913 46.99                             170   -0.20 7 24.4 176 
 BAR2 SZ I         913 49.36         6.0 0.32                          24.4 176 
 GIR2 SZ EP   1    913 31.96                             167   -0.32 7 29.5   1 
 GIR2 SZ ES   1    913 47.35                             167    0.20 7 29.5   1 
 BRR  HZ EP        913 34.12                             154    0.5810 65.6 300 
 BRR  HE ES   1    913 48.83                             154   -0.56 7 65.6 300 
 RUS  HZ EP   1    913 36.34                             142   -0.31 7  102 173 
 RUS  HN ES   1    913 55.11                             142    0.19 7  102 173 
 RUS  HZ I         913 56.64         2.6 0.45                           102 173 
 PTB  HZ EP   1    913 38.79                             132   -0.53 7  142 258 
 PTB  HN ES   1    913 59.96                             132    0.28 7  142 258 
 PTB  HZ I         914  1.99         0.0 0.19                           142 258 
                                                                                
