 2014  827 0453 16.4 L   6.832 -73.128148.4  RSN 10 0.5 1.6LRSN                1
 GAP=185        1.14       4.4     5.8  7.9  0.3686E+01  0.8677E+01 -0.2150E+01E
 Epicentro: LOS SANTOS - SANTANDER                                             3
 ACTION:UPD 14-09-15 21:53 OP:nd   STATUS:               ID:20140827045316 L   I
 OLDACT:REG 14-08-27 13:02 OP:fm   STATUS:               ID:20140827044818     3
 2014-08-27-0448-18M.COL___257                                                 6
 STAT SP IPHASW D HRMM SECON CODA AMPLIT PERI AZIMU VELO AIN AR TRES W  DIS CAZ7
 BAR2 SZ EP        453 36.45                             169    0.0710 27.2 193 
 BAR2 SZ ES   1    453 52.78                             169    0.78 7 27.2 193 
 BAR2 SZ I         453 56.83         7.2 0.30            169           27.2 193 
 BRR  HZ EP        453 38.21                             153    0.4110 71.4 295 
 BRR  HN ES        453 55.19                             153    0.6710 71.4 295 
 BRR  HZ I         453 59.34         6.7 0.40            153           71.4 295 
 RUS  HZ EP        453 40.85                             144    0.2410  104 177 
 RUS  HN ES        453 58.89                             144   -0.6410  104 177 
 RUS  HZ I         454  0.91         2.9 0.30            147            104 177 
 PTB  HZ EP        453 43.33                             132   -0.45 9  150 258 
 PTB  HN ES        454  4.37                             132   -0.80 9  150 258 
 PTB  HZ I         454  6.62         3.6 0.46            134            150 258 
 OCA  HN ES   1    454  5.84                             131   -0.73 7  157 352 
 OCA  HZ I         454 11.04         3.3 0.52            134            157 352 
 SPBC HN ES   1    454  7.90                             129   -0.22 7  167 219 
 SPBC HZ I         454 13.79         5.9 0.22            132            167 219 
 ZAR  HZ EP   1    453 49.09                             123    0.06 6  205 291 
 ZAR  HN ES        454 14.75                             123    0.23 9  205 291 
 ZAR  HZ I         454 19.33         3.3 0.34            125            205 291 
 SML  HZ EP   1    453 52.87                             118   -0.01 6  241 335 
 SML  HE ES   1    454 20.71                             118   -0.65 6  241 335 
 SML  HZ I         454 22.65         2.8 0.24            121            241 335 
 HEL  HN ES   1    454 29.52                             115    0.79 6  275 255 
 HEL  HZ I         454 36.04         2.3 0.40            118            275 255 
 GUY2CHZ EP        454  1.02                             113    0.52 7  305 234 
 GUY2CHN ES   1    454 34.50                             113   -0.44 5  305 234 
 GUY2CHZ I         454 44.52         2.3 0.68                           305 234 
                                                                                
