 2013  227 0001 19.5 L   6.708 -73.161138.0  RSN  4 0.5 1.4LRSN                1
 GAP=229        0.85       9.8    11.1  9.4  0.5530E+02  0.1989E+02  0.2310E+02E
 Epicentro: VILLANUEVA - SANTANDER                                             3
 ACTION:UPD 13-03-12 09:36 OP:ep   STATUS:               ID:20130227000119 L   I
 2013-02-26-2358-38M.COL___185                                                 6
 STAT SP IPHASW D HRMM SECON CODA AMPLIT PERI AZIMU VELO AIN AR TRES W  DIS CAZ7
 BAR2 SZ EP   2    0 1 37.88                             174   -0.17 5 13.0 190 
 BAR2 SZ ES   2    0 1 51.44                             174   -1.06 5 13.0 190 
 BRR  HZ EP        0 1 39.81                             150   -0.2710 75.2 306 
 BRR  HN ES        0 1 56.56                             150    0.4410 75.2 306 
 BRR  HN I         0 2  8.13         9.6 0.18            151           75.2 306 
 RUS  HZ EP   2    0 1 42.51                             145    0.71 5 90.6 175 
 RUS  HN ES   2    0 1 59.67                             145    0.49 5 90.6 175 
 RUS  HN I         0 2  2.24         1.5 0.22            155           90.6 175 
 PTB  HZ EP        0 1 45.50                             131   -0.07 9  144 263 
 PTB  HN ES   2    0 2  5.42                             131   -0.46 5  144 263 
 PTB  HN I         0 2 10.71         5.8 0.48            136            144 263 
                                                                                
