 2011  727 0622 16.0 L   6.776 -73.075150.8  RSN  5 0.1 1.2LRSN                1
 GAP=196        0.31       4.5     5.0  3.1  0.3039E+01 -0.5718E+01 -0.3292E+01E
 Epicentro: LOS SANTOS - SANTANDER                                             3
 ACTION:UPD 12-07-25 14:03 OP:epov STATUS:               ID:20110727062216 L   I
 2011-07-27-0620-00M.COL___139                                                 6
 STAT SP IPHASW D HRMM SECON CODA AMPLIT PERI AZIMU VELO AIN AR TRES W  DIS CAZ7
 BAR2 SZ EP   1    622 36.25                             171   -0.03 7 23.5 210 
 BAR2 SZ ES   1    622 52.12                             171    0.05 7 23.5 210 
 BAR2 SZ I         622 52.76         4.6 0.09                          23.5 210 
 BTL  SZ EP   1    622 36.44                             170    0.10 7 26.4 307 
 BTL  SZ ES   1    622 52.01                             170   -0.17 7 26.4 307 
 GIR2 SZ EP   1    622 36.53                             166    0.09 7 35.9 339 
 GIR2 SZ ES   1    622 52.39                             166    0.03 7 35.9 339 
 BRR  HZ EP   1    622 38.06                             151   -0.14 7 79.3 298 
 BRR  HE ES   1    622 55.58                             151    0.09 7 79.3 298 
 BRR  HZ I         622 59.10         4.9 0.55                          79.3 298 
 GRA  SZ EP   1    622 41.76                             138   -0.01 7  126  14 
 GRA  SZ I         622 59.05         1.2 0.37                           126  14 
                                                                                
