 2017  727 0412 50.3 L   6.821 -73.099149.1  RSN  6 0.4 1.4LRSN                1
 GAP=244        0.85       5.1     6.7  6.5  0.4717E+01 -0.8959E+01  0.3219E+00E
 Epicentro: LOS SANTOS - SANTANDER                                             3
 ACTION:UPD 17-08-30 15:37 OP:rebc STATUS:               ID:20170727041250 L   I
 OLDACT:UP  17-07-27 14:33 OP:and  STATUS:               ID:20170727040737d    3
 OLDACT:DUP 17-07-27 14:30 OP:and  STATUS:               ID:20170727040737d    3
 2017-07-27-0408-00M.COL___371                                                 6
 STAT SP IPHASW D HRMM SECON CODA AMPLIT PERI AZIMU VELO AIN AR TRES W  DIS CAZ7
 BAR2 EZ IP     C  413 10.41                             169    0.0010 26.9 200 
 BAR2 EZ ES        413 25.39                             169   -0.7010 26.9 200 
 BAR2 EZ I         413 28.03         4.5 0.24            165           26.9 200 
 BRR  HZ EP        413 12.08                             152    0.0710 74.8 295 
 BRR  HN ES        413 29.28                             152    0.3410 74.8 295 
 BRR  HZ I         413 32.38         6.8 0.38            150           74.8 295 
 RUS  HZ EP        413 14.65                             144    0.1210  103 179 
 RUS  HN ES        413 33.79                             144    0.3610  103 179 
 RUS  HZ I         413 35.37         3.2 0.40            142            103 179 
 PTB  HZ EP   9    413 17.17                             131   -0.87 0  153 258 
 PTB  HN ES        413 38.39                             132   -0.42 9  153 258 
 PTB  HZ I         413 39.15         1.8 0.16            130            153 258 
 SPBC HZ EP   2    413 19.59                             128    0.06 5  168 220 
 SPBC HN ES        413 42.19                             128   -0.15 9  168 220 
 SPBC HZ I         413 48.31         2.8 0.12            127            168 220 
 NOR  HZ EP   2    413 26.03                             118   -0.79 4  240 235 
 NOR  HE ES   3    413 56.33                             118    1.03 2  240 235 
 NOR  HZ I         414  0.60         1.6 0.13            117            240 235 
                                                                                
