 2016 1027 0241 13.6 L   6.791 -73.176144.0  RSN  6 0.3 1.5LRSN                1
 GAP=133        0.80       4.6     4.4  7.1 -0.9251E+01 -0.4350E+01  0.1563E+02E
 Epicentro: LOS SANTOS - SANTANDER                                             3
 *SJC                                                                          3
 ACTION:UPD 16-11-09 19:23 OP:rebc STATUS:               ID:20161027024113 L   I
 OLDACT:DUP 16-10-27 16:20 OP:cog  STATUS:               ID:20161027023742d    3
 2016-10-27-0238-00M.COL___349                                                 6
 STAT SP IPHASW D HRMM SECON CODA AMPLIT PERI AZIMU VELO AIN AR TRES W  DIS CAZ7
 BRR  HZ EP        241 34.29                             153   -0.1610 68.8 301 
 BRR  HE ES        241 51.27                             153    0.5810 68.8 301 
 BRR  HN I         241 55.82        11.0 0.26            153           68.8 301 
 PAM  EZ EP        241 35.76                             150   -0.0710 80.3  41 
 PAM  EE ES        241 53.05                             150   -0.1010 80.3  41 
 PAM  EZ I         241 54.75         7.1 0.56            153           80.3  41 
 RUS  HZ EP        241 37.48                             144    0.3310 99.8 174 
 RUS  HE ES   2    241 54.86                             144   -0.64 5 99.8 174 
 RUS  HZ I         241 56.45         3.5 0.34            145           99.8 174 
 PTB  HZ EP        241 39.60                             133   -0.54 9  144 259 
 PTB  HN ES        242  0.65                             133   -0.16 9  144 259 
 PTB  HZ I         242  2.89         2.5 0.18            133            144 259 
 SPBC HE ES        242  3.67                             129    0.04 9  160 218 
 PRA  HZ EP        242  7.27                             107    0.48 6  389 209 
 PRA  HE ES        242 48.25                             107   -0.01 6  389 209 
 PRA  HZ I         242 56.18         1.3 0.28            108            389 209 
                                                                                
