 2016 1227 0737 13.1 L   7.394 -73.177130.2  RSN  5 0.3 1.1LRSN                1
 GAP=183        0.75       6.4     3.4  6.3  0.5040E+00  0.4150E+01 -0.1678E+02E
 Epicentro: EL PLAYON - SANTANDER                                              3
 ACTION:UPD 17-01-11 20:19 OP:rebc STATUS:               ID:20161227073713 L   I
 OLDACT:UP  16-12-27 18:44 OP:edw  STATUS:               ID:20161227072740d    3
 OLDACT:DUP 16-12-27 18:41 OP:edw  STATUS:               ID:20161227072740d    3
 OLDACT:UP  16-12-27 18:40 OP:edw  STATUS:               ID:20161227072739     3
 OLDACT:UP  16-12-27 18:40 OP:edw  STATUS:               ID:20161227072739     3
 OLDACT:REG 16-12-27 13:32 OP:edw  STATUS:               ID:20161227072739     3
 2016-12-27-0728-00M.COL___366                                                 6
 STAT SP IPHASW D HRMM SECON CODA AMPLIT PERI AZIMU VELO AIN AR TRES W  DIS CAZ7
 PAM  EZ EP        737 32.22                             157   -0.0410 53.0  96 
 PAM  EN ES        737 47.32                             157    0.0910 53.0  96 
 PAM  EZ I         737 48.34         2.8 0.15            159           53.0  96 
 BRR  HZ EP        737 31.75                             151   -0.5510 67.1 242 
 BRR  HN ES        737 47.27                             151   -0.0410 67.1 242 
 BRR  HZ I         737 48.33         2.3 0.06            149           67.1 242 
 BAR2 EZ EP        737 34.03                             144   -0.0410 88.6 180 
 BAR2 EZ ES        737 50.60                             144    0.1510 88.6 180 
 BAR2 EZ I         737 52.15         3.0 0.24            143           88.6 180 
 RUS  HZ EP   4    737 40.96                             125   -0.31 0  166 176 
 RUS  HN ES   4    738  6.47                             125    3.21 0  166 176 
 PTB  HZ EP   9    737 41.12                             124    0.11 0  170 236 
 PTB  HN ES        738  2.51                             131   -0.40 9  170 236 
 PTB  HZ I         738  6.15         1.3 0.27            123            170 236 
 ZAR  HZ EP        737 43.13                             121    0.50 9  186 273 
 ZAR  HN ES        738  5.75                             121    0.06 9  186 273 
 ZAR  HZ I         738  9.39         1.1 0.10            121            186 273 
                                                                                
