 2016 1127 0825 46.7 L   6.760 -73.185142.6  RSN  6 0.3 1.4LRSN                1
 GAP=139        0.73       4.2     3.4  4.9 -0.2112E+01  0.4038E+01  0.5245E+01E
 Epicentro: LOS SANTOS - SANTANDER                                             3
 ACTION:UPD 17-10-26 21:12 OP:lp   STATUS:               ID:20161127082546 L   I
 OLDACT:UP  16-11-27 15:00 OP:cara STATUS:               ID:20161127081746     3
 OLDACT:REG 16-11-27 13:04 OP:dani STATUS:               ID:20161127081746     3
 2016-11-27-0818-00M.COL___349                                                 6
 STAT SP IPHASW D HRMM SECON CODA AMPLIT PERI AZIMU VELO AIN AR TRES W  DIS CAZ7
 BAR2 EZ EP        826  6.07                             172    0.2510 18.5 179 
 BAR2 EZ ES        826 20.88                             172    0.1110 18.5 179 
 BAR2 EZ I         826 23.07         7.4 0.42            170           18.5 179 
 BRR  HZ EP        826  7.44                             153    0.0610 69.7 303 
 BRR  HN ES        826 23.62                             153    0.0710 69.7 303 
 PAM  EZ EP        826  8.94                             148    0.0210 83.6  40 
 PAM  EN ES        826 25.97                             148   -0.3210 83.6  40 
 PAM  EZ I         826 28.13         3.4 0.46            153           83.6  40 
 PTB  HZ EP        826 12.81                             132   -0.09 9  143 260 
 PTB  HN ES        826 33.48                             132    0.10 9  143 260 
 PTB  HZ I         826 37.73         1.7 0.24            132            143 260 
 ZAR  HZ EP        826 18.31                             122   -0.35 9  202 294 
 ZAR  HN ES        826 43.70                             122    0.08 9  202 294 
 ZAR  HZ I         826 48.09         1.7 0.32            123            202 294 
 PRA  HZ EP        826 40.24                             106    0.88 6  386 209 
 PRA  HE ES        827 19.60                             106   -0.87 6  386 209 
 PRA  HZ I         827 28.44         1.2 0.34            107            386 209 
                                                                                
