 2017  327 0212 40.1 L   6.782 -73.176147.9  RSN  6 0.4 1.5LRSN                1
 GAP=233        1.07       6.2     6.6  7.7  0.1173E+02  0.7410E+01  0.2444E+01E
 Epicentro: LOS SANTOS - SANTANDER                                             3
 ACTION:UPD 17-05-25 18:45 OP:jn   STATUS:               ID:20170327021240 L   I
 OLDACT:UP  17-03-27 14:32 OP:and  STATUS:               ID:20170327020742d    3
 OLDACT:DUP 17-03-27 14:29 OP:and  STATUS:               ID:20170327020742d    3
 2017-03-27-0208-00M.COL___355                                                 6
 STAT SP IPHASW D HRMM SECON CODA AMPLIT PERI AZIMU VELO AIN AR TRES W  DIS CAZ7
 BAR2 EZ EP        212 59.78                             172   -0.1310 21.0 182 
 BAR2 EZ ES        213 14.95                             172   -0.4410 21.0 182 
 BAR2 EZ I         213 15.82         9.3 0.38            171           21.0 182 
 BRR  HZ IP     C  213  1.53                             154    0.1910 69.3 301 
 BRR  HN ES        213 18.59                             154    0.6610 69.3 301 
 BRR  HZ I         213 21.91         7.1 0.34            151           69.3 301 
 RUS  HZ EP        213  3.78                             145   -0.1310 98.9 174 
 RUS  HN ES        213 22.59                             145    0.0910 98.9 174 
 RUS  HZ I         213 24.40         2.5 0.11            147           98.9 174 
 PTB  HZ EP        213  6.54                             133   -0.34 9  144 259 
 PTB  HN ES        213 26.91                             133   -0.88 9  144 259 
 PTB  HZ I         213 31.19         2.9 0.22            132            144 259 
 SPBC HZ EP        213  8.61                             130    0.23 9  159 218 
 SPBC HN ES        213 31.12                             130    0.65 9  159 218 
 SPBC HZ I         213 32.88         3.6 0.10            131            159 218 
 ZAR  HZ EP   2    213 12.56                             123    0.15 4  202 293 
 ZAR  HE ES   2    213 37.98                             123    0.34 4  202 293 
 ZAR  HZ I         213 43.79         2.7 0.32            123            202 293 
                                                                                
