 2014 1127 0129 21.2 L   6.982 -73.151138.0  RSN  4 0.3 1.4LRSN                1
 GAP=305        0.63       9.2     5.8  9.8 -0.1921E+02  0.2346E+02 -0.4933E+02E
 Epicentro: GIRON - SANTANDER                                                  3
 ACTION:UPD 14-12-19 15:47 OP:nd   STATUS:               ID:20141127012921 L   I
 OLDACT:DUP 14-11-27 15:00 OP:fm   STATUS:               ID:20141127011749d    3
 OLDACT:DUP 14-11-27 14:48 OP:fm   STATUS:               ID:20141127011746d    3
 2014-11-27-0117-45M.COL___306                                                 6
 STAT SP IPHASW D HRMM SECON CODA AMPLIT PERI AZIMU VELO AIN AR TRES W  DIS CAZ7
 RUS  HZ EP        129 45.63                             137   -0.1410  121 176 
 RUS  HN ES        130  5.14                             137    0.1910  121 176 
 RUS  HZ I         130  7.80         2.6 0.22            140            121 176 
 SPBC HZ EP        129 50.96                             124    0.31 9  179 215 
 SPBC HN ES        130 13.21                             124   -0.42 9  179 215 
 SPBC HZ I         130 21.04         4.8 0.24            127            179 215 
 CHI  HZ EP        130  0.35                             114   -0.25 8  268 194 
 CHI  HN ES        130 31.47                             114    0.12 8  268 194 
 CHI  HZ I         130 33.93         1.2 0.34            117            268 194 
 GUY2CHN ES        130 40.79                             110    0.26 7  313 232 
 GUY2CHZ I         130 48.30         1.5 0.26                           313 232 
                                                                                
