 2016  227 0758 17.1 L   5.916 -74.066 20.6  RSN  4 0.5 1.0LRSN                1
 GAP=123        1.22       3.8     3.5  6.7  0.2918E+01  0.5523E+01 -0.8885E+01E
 Epicentro: LA BELLEZA - SANTANDER                                             3
 ACTION:UPD 16-03-04 21:29 OP:rebc STATUS:               ID:20160227075817 L   I
 OLDACT:UP  16-02-27 18:43 OP:mh   STATUS:               ID:20160227074747     3
 OLDACT:UP  16-02-27 18:19 OP:mh   STATUS:               ID:20160227074747     3
 OLDACT:UP  16-02-27 18:19 OP:mh   STATUS:               ID:20160227074747     3
 OLDACT:REG 16-02-27 13:21 OP:mh   STATUS:               ID:20160227074747     3
 2016-02-27-0747-47M.COL___309                                                 6
 STAT SP IPHASW D HRMM SECON CODA AMPLIT PERI AZIMU VELO AIN AR TRES W  DIS CAZ7
 SPBC HN EP        758 23.00                             123    0.0410 29.2 181 
 SPBC HN I         758 27.44        15.3 0.40            141           29.2 181 
 SPBC HZ ES        758 27.53                             123   -0.0210 29.2 181 
 PTB  HZ EP        758 29.35                             102   -0.9410 81.3 328 
 PTB  HZ I         758 41.02         6.0 0.16             61           81.3 328 
 PTB  HN ES        758 41.12                             102    0.5310 81.3 328 
 RUS  HZ EP        758 35.50                              99    0.6210  109  91 
 RUS  HN ES        758 48.42                              99   -0.3410  109  91 
 RUS  HZ I         758 48.86         3.4 0.56             61            109  91 
 HEL  HZ EP        758 42.22                              56    0.26 9  165 281 
 HEL  HN ES   1    759  1.15                              56   -0.22 7  165 281 
 HEL  HZ I         759  3.91         1.6 0.30             61            165 281 
                                                                                
