 2012  527 0854  0.7 L   6.807 -73.181148.2  RSN  8 0.2 2.1LRSN                1
 GAP=132        0.54       2.3     2.6  3.9 -0.1389E+01  0.3236E+01 -0.9779E-01E
 Epicentro: LOS SANTOS - SANTANDER                                             3
 ACTION:UP  12-07-05 12:08 OP:pat  STATUS:               ID:20120527085400 L   I
 2012-05-27-0850-00M.COL___198                                                 6
 STAT SP IPHASW D HRMM SECON CODA AMPLIT PERI AZIMU VELO SNR AR TRES W  DIS CAZ7
 BAR2 SZ EP        854 20.77                             171     0.110   24 180 
 BAR2 SZ I         854 20.99        18.8 0.18                            24 180 
 BAR2 SZ ES        854 36.28                             171     0.110   24 180 
 PAM  SZ EP        854 23.54                             151     0.210   79  42 
 PAM  SE ES        854 40.92                             151     0.010   79  42 
 RUS  HZ EP        854 24.57                             144    -0.210  102 174 
 RUS  HE ES   1    854 43.37                             144    -0.2 7  102 174 
 RUS  HZ I         854 44.73         9.2 0.48                           102 174 
 PTB  HZ EP        854 27.44                             133    -0.1 9  144 258 
 PTB  HN ES        854 48.86                             133     0.3 9  144 258 
 PTB  HZ I         854 54.65         9.8 0.17                           144 258 
 OCA  HZ EP   1    854 29.05                             130    -0.1 7  159 354 
 OCA  HE ES   1    854 51.08                             130    -0.2 7  159 354 
 OCA  HZ I         854 56.82        26.2 0.29                           159 354 
 ZAR  HZ EP   1    854 33.08                             123     0.1 6  200 292 
 ZAR  HE ES   1    854 57.71                             123    -0.4 6  200 292 
 ZAR  HZ I         855  5.95        18.0 0.29                           200 292 
 NOR  SE ES   1    855  4.11                             119     0.0 6  232 234 
 PRA  HZ EP   1    854 54.63                             107     0.4 4  391 209 
 PRA  HN ES   1    855 35.64                             107    -0.3 4  391 209 
                                                                                
