 2010 1127 0635 24.0 L   6.796 -73.047148.0  RSN  8 0.4 1.9LRSN                1
 GAP=170        0.72       3.9     6.0  7.3 -0.2655E+01  0.5009E+01  0.5008E+01E
 Epicentro: LOS SANTOS - SANTANDER                                             3
 ACTION:UP  10-12-17 16:55 OP:REBC STATUS:               ID:20101127063524 L   I
 2010-11-27-0633-17S.COL___132                                                 6
 STAT SP IPHASW D HRMM SECON CODA AMPLIT PERI AZIMU VELO SNR AR TRES W  DIS CAZ7
 BAR2 SZ EP        635 44.05                             169     0.110   27 214 
 BAR2 SZ I         636  2.59        20.9 0.50                            27 214 
 BRR  HZ IP     C  635 45.92                             150     0.010   81 295 
 BRR  HN ES   1    636  3.19                             150     0.1 7   81 295 
 BRR  HZ I         636  6.19        14.3 0.03                            81 295 
 RUS  HZ EP   1    635 47.94                             144     0.0 7  100 182 
 RUS  HN ES   1    636  6.87                             144     0.3 7  100 182 
 RUS  HZ I         636  8.32        10.2 0.41                           100 182 
 GRA  SZ EP   1    635 48.80                             138    -0.4 7  123  13 
 CHI  HZ EP   1    636  2.26                             117     0.2 6  251 198 
 CHI  HE ES   1    636 31.33                             117    -0.5 6  251 198 
 CHI  HZ I         636 37.31         4.0 0.14                           251 198 
 HEL  HZ EP   1    636  6.17                             114     0.7 6  283 256 
 HEL  HE ES   2    636 37.07                             114    -0.8 4  283 256 
 HEL  HZ I         636 42.88         3.6 0.05                           283 256 
 RREF HN ES   1    636 48.17                             111     0.2 5  330 231 
 PRA  HZ EP   1    636 18.56                             107     0.4 4  397 211 
 PRA  HN ES   1    636 59.70                             107    -0.8 4  397 211 
                                                                                
