 2017  127 0616 19.1 L   6.773 -73.173146.4  RSN  8 0.5 1.8LRSN                1
 GAP=134        1.16       4.4     4.8  6.8  0.4541E+01  0.1070E+02  0.3290E+01E
 Epicentro: LOS SANTOS - SANTANDER                                             3
 ACTION:UPD 17-05-22 16:03 OP:jn   STATUS:               ID:20170127061619 L   I
 OLDACT:DUP 17-01-27 16:30 OP:lv   STATUS:               ID:20170127060741d    3
 2017-01-27-0608-00M.COL___322                                                 6
 STAT SP IPHASW D HRMM SECON CODA AMPLIT PERI AZIMU VELO AIN AR TRES W  DIS CAZ7
 BAR2 EZ EP        616 38.78                             172    0.0010 20.0 183 
 BAR2 EZ ES        616 53.91                             172   -0.1910 20.0 183 
 BAR2 EZ I         616 55.11        31.6 0.32            171           20.0 183 
 BRR  HZ IP     C  616 40.53                             153    0.2510 70.0 302 
 BRR  HE ES        616 57.47                             153    0.6910 70.0 302 
 BRR  HZ I         616 58.33         6.2 0.31            151           70.0 302 
 PAM  EZ IP     D  616 41.64                             149   -0.0310 81.6  40 
 PAM  EN ES        616 59.05                             149   -0.2010 81.6  40 
 PAM  EZ I         617  1.18         6.5 0.34            152           81.6  40 
 RUS  HZ EP        616 42.85                             145    0.1010 97.9 174 
 RUS  HN ES        617  0.90                             145   -0.2810 97.9 174 
 RUS  HZ I         617  2.74        10.1 0.32            146           97.9 174 
 PTB  HZ EP        616 45.56                             133   -0.27 9  144 260 
 PTB  HN ES        617  5.66                             133   -0.99 9  144 260 
 PTB  HZ I         617  8.51         5.9 0.14            132            144 260 
 ZAR  HZ EP        616 51.29                             123   -0.16 9  202 293 
 ZAR  HN ES        617 17.55                             123    0.90 9  202 293 
 ZAR  HZ I         617 22.65         7.0 0.14            122            202 293 
 CHI  HZ EP        616 56.98                             118    0.51 8  245 195 
 CHI  HN ES        617 26.17                             118    0.58 8  245 195 
 CHI  HZ I         617 29.38         3.1 0.37            118            245 195 
 URE  HZ EP        616 59.33                             114   -0.71 7  282 293 
 URE  HN ES        617 31.84                             114   -0.11 7  282 293 
 URE  HZ I         617 40.26         4.1 0.28            114            282 293 
 PTGC HZ EP   4    617  1.66                             112   -1.18 0  307 158 
 CBOC HZ EP   4    617  7.17                             110    1.53 0  330 252 
 CBOC HE ES   4    617 45.07                             110    3.16 0  330 252 
 SJC  HZ EP   4    617 12.71                             106   -2.10 0  410 328 
 SJC  HN ES   4    617 55.74                             106   -2.50 0  410 328 
                                                                                
