 2014  727 0657 13.1 L   6.806 -73.136138.9  RSN  8 0.4 1.9LRSN                1
 GAP=184        0.76       2.6     5.0  6.9 -0.7425E+00  0.1173E+02 -0.1547E+01E
 Epicentro: LOS SANTOS - SANTANDER                                             3
 ACTION:UPD 15-03-16 20:47 OP:nd   STATUS:               ID:20140727065713 L   I
 OLDACT:REG 14-07-27 12:24 OP:mh   STATUS:               ID:20140727064814     3
 2014-07-27-0648-14M.COL___260                                                 6
 STAT SP IPHASW D HRMM SECON CODA AMPLIT PERI AZIMU VELO AIN AR TRES W  DIS CAZ7
 BAR2 SZ EP   1    657 32.55                             170    0.63 8 24.1 192 
 BAR2 SZ I         657 49.06        15.0 0.17            171           24.1 192 
 RUS  HZ EP        657 35.97                             142   -0.2510  101 177 
 RUS  HN ES        657 54.07                             142   -0.1810  101 177 
 RUS  HZ I         657 57.21        19.5 0.92            146            101 177 
 PTB  HZ EP        657 39.57                             130   -0.05 9  149 259 
 PTB  HN ES   1    657 59.76                             130   -0.55 7  149 259 
 PTB  HZ I         658  7.73         6.4 0.10            133            149 259 
 OCA  HN ES        658  2.60                             128    0.13 9  160 353 
 OCA  HZ I         658  6.56        24.3 0.05            132            160 353 
 SPBC HZ EP        657 41.40                             127    0.21 9  164 219 
 SPBC HN ES   1    658  3.62                             127    0.52 7  164 219 
 SPBC HZ I         658  7.97         6.3 0.26            131            164 219 
 SML  HZ EP        657 49.30                             116   -0.04 8  244 335 
 SML  HN ES   1    658 17.32                             116   -0.28 6  244 335 
 SML  HZ I         658 23.01         8.7 0.23            119            244 335 
 HEL  HZ EP        657 52.65                             113   -0.46 8  273 256 
 HEL  HN ES   1    658 25.05                             113    0.74 6  273 256 
 HEL  HZ I         658 31.37         3.7 0.50            116            273 256 
 PRA  HZ EP        658  6.88                             105    0.36 6  393 210 
 PRA  HN ES        658 47.87                             105   -0.31 6  393 210 
 PRA  HZ I         658 55.22         2.1 0.43            108            393 210 
                                                                                
