 2015  427 0513 11.1 L   6.649 -73.587 97.8  RSN  6 0.6 1.4LRSN                1
 GAP=113        1.43       5.3     5.5 10.4  0.1075E+02  0.2097E+02  0.1050E+02E
 Epicentro: EL CARMEN - SANTANDER                                              3
 ACTION:UPD 15-06-03 16:57 OP:cam  STATUS:               ID:20150427051311 L   I
 OLDACT:UP  15-04-27 17:35 OP:stll STATUS:               ID:20150427050748     3
 OLDACT:REG 15-04-27 12:54 OP:stll STATUS:               ID:20150427050748     3
 2015-04-27-0507-48M.COL___274                                                 6
 STAT SP IPHASW D HRMM SECON CODA AMPLIT PERI AZIMU VELO AIN AR TRES W  DIS CAZ7
 BAR2 EZ EP        513 25.78                             154   -0.1210 45.1  98 
 BAR2 EZ ES        513 37.81                             154    0.3310 45.1  98 
 BAR2 EZ I         513 39.49         8.7 0.38            156           45.1  98 
 BRR  HZ EP        513 25.59                             150   -0.4010 52.5 345 
 BRR  HN ES        513 37.60                             150   -0.0310 52.5 345 
 BRR  HZ I         513 42.82         3.2 0.34            150           52.5 345 
 PTB  HZ IP     C  513 28.76                             132   -0.7510 96.9 263 
 PTB  HZ I         513 28.81         7.4 0.16            134           96.9 263 
 PTB  HN ES        513 43.00                             132   -0.9010 96.9 263 
 RUS  HZ EP        513 30.40                             131   -0.0810  101 146 
 RUS  HE ES        513 45.64                             131    0.0110  101 146 
 RUS  HZ I         513 47.32         5.7 0.24            135            101 146 
 SPBC HZ EP        513 32.37                             125    0.2710  123 206 
 SPBC HZ I         513 34.92         7.8 0.20            128            123 206 
 SPBC HN ES        513 49.15                             125    0.6410  123 206 
 ZAR  HZ EP        513 36.96                             116    0.06 9  169 304 
 ZAR  HN ES        513 58.31                             116    1.26 9  169 304 
 ZAR  HZ I         513 59.54         2.9 0.28            117            169 304 
                                                                                
