 2017  327 0948 20.5 L   6.235 -73.930 91.4  RSN  5 0.4 1.1LRSN                1
 GAP=106        1.08       4.9     4.2  9.7  0.5369E+01 -0.6453E+01 -0.1642E+02E
 Epicentro: CIMITARRA - SANTANDER                                              3
 ACTION:UPD 17-05-25 18:45 OP:jn   STATUS:               ID:20170327094820 L   I
 OLDACT:UP  17-05-02 14:46 OP:nlst STATUS:               ID:20170327094820 L   3
 OLDACT:REG 17-03-27 13:31 OP:and  STATUS:               ID:20170327093740     3
 2017-03-27-0938-00M.COL___347                                                 6
 STAT SP IPHASW D HRMM SECON CODA AMPLIT PERI AZIMU VELO AIN AR TRES W  DIS CAZ7
 SPBC HZ EP   1    948 35.75                             141   -0.11 7 66.3 194 
 SPBC HN ES        948 48.39                             141    0.5410 66.3 194 
 SPBC HZ I         948 49.48         6.8 0.12            146           66.3 194 
 PTB  HZ EP        948 35.50                             141   -0.3410 67.3 300 
 PTB  HN ES        948 47.18                             141   -0.6210 67.3 300 
 PTB  HZ I         948 50.11         1.5 0.12            144           67.3 300 
 BAR2 EZ EP        948 38.33                             132    0.1010 91.6  64 
 BAR2 EZ ES        948 52.08                             132    0.0310 91.6  64 
 BAR2 EZ I         948 54.67         2.3 0.20            134           91.6  64 
 RUS  HZ EP        948 39.25                             129   -0.2010  101 112 
 ZAR  HZ EP        948 46.31                             113   -0.17 9  173 324 
 ZAR  HE ES        949  7.62                             113    0.87 9  173 324 
 ZAR  HZ I         949  8.61         2.9 0.16            115            173 324 
                                                                                
