 2012  427 0905 56.4 L   6.610 -73.130155.0  RSN  4 0.1 1.3LRSN                1
 GAP=226        0.31       4.3     3.7  5.0  0.4628E+01 -0.4253E+00  0.1331E+01E
 Epicentro: SAN GIL - SANTANDER                                                3
 ACTION:UPD 12-07-05 11:56 OP:tino STATUS:               ID:20120427090556 L   I
 2012-04-27-0900-00M.COL___189                                                 6
 STAT SP IPHASW D HRMM SECON CODA AMPLIT PERI AZIMU VELO AIN AR TRES W  DIS CAZ7
 BAR2 SZ EP   1    9 6 16.98                             178     0.0 7    6 251 
 RUS  HN ES   2    9 6 37.91                             152     0.0 5   80 176 
 BRR  HZ EP   2    9 6 19.42                             150     0.1 5   85 311 
 BRR  HN ES   1    9 6 37.17                             150     0.0 7   85 311 
 BRR  HZ I         9 6 38.38         5.4 0.42                            85 311 
 PTB  HZ EP   1    9 6 23.97                             134    -0.1 7  147 267 
 PTB  HN ES   1    9 6 45.70                             134     0.1 7  147 267 
 PTB  HZ I         9 6 47.91         1.6 0.38                           147 267 
                                                                                
