 2015  127 0215 31.2 L   6.802 -73.159136.7  RSN  8 0.4 1.7LRSN                1
 GAP=135        1.00       4.3     4.3  7.2 -0.3359E+01  0.1293E+02 -0.1604E+01E
 Epicentro: LOS SANTOS - SANTANDER                                             3
 ACTION:UPD 15-03-02 15:42 OP:nd   STATUS:               ID:20150127021531 L   I
 OLDACT:UP  15-01-27 14:18 OP:cam  STATUS:               ID:20150127020812     3
 OLDACT:REG 15-01-27 12:58 OP:cam  STATUS:               ID:20150127020812     3
 2015-01-27-0208-12M.COL___277                                                 6
 STAT SP IPHASW D HRMM SECON CODA AMPLIT PERI AZIMU VELO AIN AR TRES W  DIS CAZ7
 BAR2 EZ EP        215 49.09                             170   -0.6910 23.3 186 
 BAR2 EZ ES        216  3.82                             170   -0.4210 23.3 186 
 BAR2 EZ I         216  5.74         9.1 0.22            174           23.3 186 
 BRR  HZ EP        215 52.04                             151    0.7110 69.8 299 
 BRR  HZ I         216 12.89         9.8 0.24            146           69.8 299 
 PAM  SZ EP        215 52.79                             149    0.2410 78.2  40 
 PAM  SN ES        216  9.39                             149    0.2210 78.2  40 
 PAM  SZ I         216 11.55         9.1 0.44            145           78.2  40 
 RUS  HZ EP        215 53.93                             142   -0.2010  101 175 
 RUS  HN ES        216 12.25                             142    0.2610  101 175 
 RUS  HZ I         216 14.02         6.3 0.24            144            101 175 
 PTB  HZ EP        215 56.96                             130   -0.39 9  146 259 
 PTB  HN ES        216 17.41                             130   -0.30 9  146 259 
 PTB  HZ I         216 20.52         5.5 0.14            128            146 259 
 SPBC HZ EP        215 59.15                             127    0.17 9  162 219 
 SPBC HN ES   1    216 21.19                             127    0.57 7  162 219 
 SPBC HZ I         216 22.91         7.8 0.10            127            162 219 
 ZAR  HZ EP   1    216  3.06                             120    0.10 6  203 292 
 ZAR  HN ES        216 27.64                             120   -0.05 9  203 292 
 ZAR  HZ I         216 32.96         5.0 0.32            118            203 292 
 NOR  HZ EP   1    216  5.75                             116   -0.59 6  234 234 
 NOR  HN ES        216 34.17                             116    0.46 8  234 234 
 NOR  HZ I         216 36.66         3.2 0.28            115            234 234 
                                                                                
