 2016  927 0320 19.9 L   6.720 -73.196146.1  RSN  5 0.2 1.3LRSN                1
 GAP=225        0.65       6.5     6.1  5.2  0.2896E+02 -0.5484E+01 -0.1307E+02E
 Epicentro: VILLANUEVA - SANTANDER                                             3
 ACTION:UPD 17-08-17 21:16 OP:lp   STATUS:               ID:20160927032019 L   I
 OLDACT:UP  16-09-27 16:02 OP:edw  STATUS:               ID:20160927031744d    3
 OLDACT:DUP 16-09-27 15:57 OP:edw  STATUS:               ID:20160927031744d    3
 OLDACT:UP  16-09-27 15:36 OP:edw  STATUS:               ID:20160927031743     3
 OLDACT:UP  16-09-27 15:35 OP:edw  STATUS:               ID:20160927031743     3
 OLDACT:UP  16-09-27 15:34 OP:edw  STATUS:               ID:20160927031743     3
 OLDACT:UP  16-09-27 15:32 OP:edw  STATUS:               ID:20160927031743     3
 OLDACT:REG 16-09-27 12:42 OP:edw  STATUS:               ID:20160927031743     3
 2016-09-27-0318-00M.COL___360                                                 6
 STAT SP IPHASW D HRMM SECON CODA AMPLIT PERI AZIMU VELO AIN AR TRES W  DIS CAZ7
 BAR2 EZ EP        320 39.30                             174   -0.0810 14.2 174 
 BAR2 EZ ES        320 54.79                             174    0.1810 14.2 174 
 BAR2 EZ I         320 55.44         5.4 0.24            176           14.2 174 
 BRR  HZ EP        320 41.12                             152    0.0710 71.3 307 
 BRR  HN ES        320 57.44                             152   -0.1410 71.3 307 
 BRR  HZ I         321  4.02         9.4 0.40            152           71.3 307 
 RUS  HN ES        321  1.02                             146   -0.1510 92.3 172 
 RUS  HZ I         321  2.94         2.4 0.34            150           92.3 172 
 PTB  HZ EP   9    320 46.21                             133   -0.02 0  141 262 
 PTB  HN ES        321  7.19                             129    0.41 9  141 262 
 PTB  HZ I         321  8.90         1.8 0.42            135            141 262 
 ZAR  HZ EP        320 52.61                             123    0.44 9  203 295 
 ZAR  HN ES        321 17.10                             123   -0.27 9  203 295 
 ZAR  HZ I         321 18.73         1.3 0.08            125            203 295 
                                                                                
