 2015  627 0245 44.9 L   6.770 -73.058160.0  RSN  7 0.5 2.0LRSN                1
 GAP=225        1.05       4.7     7.4  7.5 -0.5746E+01  0.1038E+02 -0.3770E+01E
 Epicentro: LOS SANTOS - SANTANDER                                             3
 ACTION:UPD 15-09-10 22:15 OP:cam  STATUS:               ID:20150627024544 L   I
 OLDACT:UP  15-06-27 14:17 OP:mh   STATUS:               ID:20150627023749     3
 OLDACT:REG 15-06-27 12:43 OP:mh   STATUS:               ID:20150627023749     3
 2015-06-27-0237-49M.COL___319                                                 6
 STAT SP IPHASW D HRMM SECON CODA AMPLIT PERI AZIMU VELO AIN AR TRES W  DIS CAZ7
 BAR2 EZ EP        246  6.63                             171    0.3810 24.0 215 
 BAR2 EZ ES        246 22.57                             171   -0.3410 24.0 215 
 BAR2 EZ I         246 27.47         9.8 0.18            168           24.0 215 
 BRR  HZ EP        246  8.55                             152    0.3910 81.3 297 
 BRR  HN ES        246 26.20                             152   -0.1010 81.3 297 
 BRR  HZ I         246 30.35         9.6 0.48            148           81.3 297 
 OCA  HZ EP   1    246 15.32                             132    0.54 7  165 350 
 OCA  HN ES        246 38.08                             132   -0.00 9  165 350 
 OCA  HZ I         246 41.93        14.5 0.42            133            165 350 
 ZAR  HZ EP   1    246 18.58                             124   -0.76 6  214 292 
 ZAR  HN ES        246 47.09                             124    0.89 8  214 292 
 ZAR  HZ I         246 51.06        12.5 0.56            124            214 292 
 NOR  HZ EP        246 21.98                             120   -0.15 8  241 236 
 NOR  HN ES        246 50.81                             120   -0.36 8  241 236 
 NOR  HZ I         246 53.76         7.7 0.16            122            241 236 
 SML  HZ EP        246 22.94                             119   -0.18 8  251 334 
 SML  HN ES        246 52.16                             119   -0.77 8  251 334 
 SML  HZ I         246 56.09        12.7 0.24            121            251 334 
 URE  HN ES   4    246 59.48                             115   -1.82 0  294 292 
 URE  HZ I         247 10.72         5.0 0.16            116            294 292 
                                                                                
