 2010  327 0702 49.4 L   6.883 -72.837149.2  RSN  4 0.5 1.4LRSN                1
 GAP=270        0.99      16.4    27.9 14.6  0.3176E+03 -0.1411E+03 -0.3775E+02E
 Epicentro: GUACA - SANTANDER                                                  3
 ACTION:UP  10-08-24 09:56 OP:vdl  STATUS:               ID:20100327070249 L   I
 2010-03-27-0659-39S.COL___098                                                 6
 STAT SP IPHASW D HRMM SECON CODA AMPLIT PERI AZIMU VELO SNR AR TRES W  DIS CAZ7
 BAR2 SZ EP   1    7 3 10.89                             161     0.6 8   50 230 
 BAR2 SZ ES   2    7 3 25.83                             161    -0.7 5   50 230 
 BRR  HZ EP   1    7 3 12.94                             144     0.2 8  100 284 
 BRR  HZ I         7 3 13.23         8.0 0.13                           100 284 
 BRR  HN ES   2    7 3 30.75                             144    -0.2 5  100 284 
 RUS  HZ EP        7 3 13.99                             141    -0.410  113 194 
 RUS  HZ I         7 3 34.82         1.6 0.27                           113 194 
 RUS  HE ES   2    7 3 34.86                             141     0.9 5  113 194 
 PRA  HZ EP   1    7 3 46.03                             106     0.0 4  418 213 
                                                                                
