 2012  127 0643 11.0 L   6.766 -73.141144.6  RSN  8 0.2 1.6LRSN                1
 GAP=139        0.47       3.3     3.9  5.4 -0.3088E+01  0.5019E+01  0.4061E+01E
 Epicentro: LOS SANTOS - SANTANDER                                             3
 ACTION:UP  12-02-03 08:21 OP:REBC STATUS:               ID:20120127064311 L   I
 2012-01-27-0640-00M.COL___188                                                 6
 STAT SP IPHASW D HRMM SECON CODA AMPLIT PERI AZIMU VELO SNR AR TRES W  DIS CAZ7
 BAR2 SZ EP   1    643 30.38                             172    -0.1 7   20 193 
 BAR2 SZ ES   2    643 45.80                             172     0.2 5   20 193 
 BAR2 SZ I         643 47.34        11.9 0.44                            20 193 
 GIR2 SZ EP   2    643 30.61                             166    -0.1 5   35 351 
 BRR  HZ EP        643 32.36                             151     0.210   74 301 
 BRR  HE ES   2    643 49.12                             151     0.4 5   74 301 
 BRR  HZ I         643 52.07         9.9 0.11                            74 301 
 PAM  SZ EP   1    643 33.30                             150     0.0 7   80  38 
 PAM  SE ES   1    643 50.36                             150    -0.3 7   80  38 
 RUS  HZ EP   1    643 34.48                             145     0.1 7   97 176 
 RUS  HN ES   2    643 52.53                             145    -0.1 5   97 176 
 RUS  HZ I         643 54.43         3.7 0.27                            97 176 
 PTB  HZ EP   1    643 37.58                             132    -0.3 7  148 260 
 PTB  HN ES   2    643 58.31                             132    -0.5 5  148 260 
 CHI  HZ EP   2    643 48.51                             117     0.2 4  245 196 
 CHI  HE ES   2    644 17.12                             117    -0.2 4  245 196 
 CHI  HZ I         644 22.50         1.9 0.32                           245 196 
 RREF HE ES   2    644 32.91                             111     0.3 3  320 230 
 RREF HZ I         644 40.14         3.2 0.34                           320 230 
                                                                                
