 2016 1227 0327 46.8 L   6.806 -73.133145.7  RSN 18 0.4 2.2LRSN                1
 GAP= 72        0.96       3.8     3.0  4.8  0.1521E+00  0.3888E+01  0.5232E+01E
 Epicentro: LOS SANTOS - SANTANDER                                             3
 ACTION:UPD 17-01-11 20:19 OP:rebc STATUS:               ID:20161227032746 L   I
 OLDACT:UP  16-12-27 16:02 OP:edw  STATUS:               ID:20161227031745     3
 OLDACT:REG 16-12-27 13:02 OP:edw  STATUS:               ID:20161227031745     3
 2016-12-27-0318-00M.COL___372                                                 6
 STAT SP IPHASW D HRMM SECON CODA AMPLIT PERI AZIMU VELO AIN AR TRES W  DIS CAZ7
 BAR2 EZ IP     D  328  6.23                             170   -0.2310 24.3 193 
 BAR2 EZ ES        328 21.54                             170   -0.2310 24.3 193 
 BAR2 EZ I         328 24.08        44.7 0.30            167           24.3 193 
 BRR  HZ IP     C  328  8.07                             152    0.0610 72.1 297 
 BRR  HN ES        328 25.12                             152    0.5910 72.1 297 
 BRR  HZ I         328 29.10        29.4 0.28            153           72.1 297 
 PAM  EZ EP     C  328  8.92                             151   -0.0210 75.9  39 
 PAM  EN ES        328 26.41                             151    0.2210 75.9  39 
 PAM  EZ I         328 28.69        17.9 0.24            151           75.9  39 
 RUS  HZ IP     D  328 10.18                             144   -0.4210  101 177 
 RUS  HN ES        328 28.79                             144   -0.3710  101 177 
 RUS  HZ I         328 30.51        19.2 0.52            140            101 177 
 PTB  HZ EP   9    328 12.95                             132   -0.97 0  149 259 
 PTB  HN ES        328 34.20                             131    0.11 9  149 259 
 PTB  HZ I         328 40.67        16.6 0.32            130            149 259 
 TAM  HZ IP     D  328 14.69                             131    0.31 9  154 105 
 TAM  HZ I         328 35.76         7.6 0.20            129            154 105 
 TAM  HN ES        328 36.17                             131    0.30 9  154 105 
 ZAR  HZ EP        328 18.96                             122   -0.41 9  205 292 
 ZAR  HN ES        328 44.10                             122   -0.65 9  205 292 
 ZAR  HZ I         328 49.59        18.8 0.46            121            205 292 
 NOR  HZ EP        328 22.51                             118   -0.20 8  236 235 
 NOR  HN ES   4    328 49.79                             118   -0.92 0  236 235 
 NOR  HZ I         328 59.59        10.0 0.46            117            236 235 
 CHI  HZ EP        328 24.41                             117   -0.22 8  250 195 
 CHI  HN ES   4    328 53.68                             117   -0.44 0  250 195 
 CHI  HZ I         328 57.56        10.1 0.50            115            250 195 
 ROSC BZ EP   4    328 26.82                             116    1.74 0  254 211 
 ROSC BN ES   4    328 57.21                             116    2.29 0  254 211 
 ROSC BZ I         329  0.95        24.1 0.40            115            254 211 
 URE  HZ EP   4    328 29.38                             113    1.38 0  285 292 
 URE  HN ES   4    328 57.38                             113   -2.74 0  285 292 
 URE  HZ I         328 58.86         7.7 0.14            113            285 292 
 GUY2CHZ EP        328 30.86                             112    0.26 7  303 235 
 GUY2CHN ES   4    329  8.66                             112    3.91 0  303 235 
 GUY2CHZ I         329 12.49         9.5 0.34                           303 235 
 VIL  EZ EP   4    328 28.82                             112   -1.52 0  304 192 
 VIL  EN ES   4    329  3.79                             112   -0.50 0  304 192 
 PTGC HZ IP   4 D  328 29.38                             111   -1.31 0  309 159 
 PTGC HN ES   4    329  1.22                             111   -3.68 0  309 159 
 PTGC HZ I         329  9.34         7.6 0.50            110            309 159 
 LL6C HZ EP   4    328 10.51                             110   -21.9 0  324 357 
 ELA  HZ EP   4    328 36.33                             110    2.49 0  331 230 
 ELA  HE ES   4    329 13.06                             110    2.54 0  331 230 
 ELA  HZ I         329 18.95         7.1 0.60            109            331 230 
 CBOC HZ EP        328 34.49                             110    0.58 7  335 252 
 CBOC HN ES        329 11.25                             110    0.61 7  335 252 
 ANIL HE ES        329 16.79                             108    1.02 6  359 225 
 ORTC HZ EP        328 40.59                             106   -0.31 6  397 216 
 ORTC HN ES        329 22.90                             106   -0.18 6  397 216 
 ORTC HZ I         329 27.64         5.3 0.24            105            397 216 
 SJC  HZ EP   4    328 40.38                             106   -2.02 0  409 327 
 SJC  HN ES   4    329 21.87                             106   -3.88 0  409 327 
 CRJC HZ EP   9    328 46.53                             103   -2.69 0  467   3 
 CRJC HN ES        329 33.90                             104   -1.30 5  467   3 
 CRJC HZ I         329 37.07         6.7 0.46            103            467   3 
                                                                                
