 2016  127 0241 12.3 L   6.824 -73.111150.6  RSN 24 0.6 2.1LRSN                1
 GAP=121        1.19       2.9     3.5  5.3 -0.3760E+01  0.3192E+01 -0.9752E-01E
 Epicentro: LOS SANTOS - SANTANDER                                             3
 ACTION:UPD 16-03-09 23:28 OP:cam  STATUS:               ID:20160127024112 L   I
 OLDACT:REG 16-01-27 15:46 OP:ak   STATUS:               ID:20160127023748     3
 2016-01-27-0237-48M.COL___325                                                 6
 STAT SP IPHASW D HRMM SECON CODA AMPLIT PERI AZIMU VELO AIN AR TRES W  DIS CAZ7
 BAR2 EZ EP        241 32.82                             169    0.2010 26.9 197 
 BAR2 EZ ES        241 48.15                             169   -0.3010 26.9 197 
 BAR2 EZ I         241 50.76        24.9 0.24            166           26.9 197 
 PAM  EZ EP        241 35.72                             153    0.9110 72.9  39 
 PAM  EN ES        241 53.00                             153    0.6510 72.9  39 
 PAM  EZ I         241 55.31        13.2 0.56            155           72.9  39 
 RUS  HZ EP        241 36.85                             144    0.1110  103 178 
 RUS  HN ES        241 55.52                             144   -0.2610  103 178 
 RUS  HZ I         241 58.35        13.4 0.42            142            103 178 
 PTB  HZ EP   1    241 39.32                             132   -0.77 7  152 258 
 PTB  HN ES        242  0.94                             132   -0.79 9  152 258 
 PTB  HZ I         242  8.25        21.4 0.52            130            152 258 
 OCA  HZ EP        241 41.83                             131    1.01 9  158 352 
 OCA  HN ES        242  3.25                             131    0.20 9  158 352 
 OCA  HZ I         242  8.59        27.1 0.22            131            158 352 
 SPBC HZ EP        241 41.78                             129    0.15 9  168 219 
 SPBC HN ES        242  4.05                             129   -0.44 9  168 219 
 SPBC HZ I         242  9.77        21.4 0.22            127            168 219 
 ZAR  HZ EP        241 45.85                             123    0.49 8  207 291 
 ZAR  HN ES        242 11.33                             123    0.20 8  207 291 
 ZAR  HZ I         242 17.00         8.6 0.28            121            207 291 
 NOR  HZ EP        241 48.49                             119   -0.36 8  239 234 
 NOR  HN ES        242 17.43                             119    0.10 8  239 234 
 NOR  HZ I         242 20.65        11.4 0.20            117            239 234 
 SML  HZ EP        241 49.32                             118    0.17 8  243 334 
 SML  HN ES        242 16.98                             118   -0.89 8  243 334 
 SML  HZ I         242 25.13                             118            243 334 
 CHI  HZ EP        241 50.65                             118   -0.05 8  252 196 
 CHI  HN ES        242 20.70                             118    0.08 8  252 196 
 CHI  HZ I         242 29.99         4.5 0.30            116            252 196 
 ROSC BZ EP        241 52.22                             117    1.03 8  257 211 
 ROSC BE ES   4    242 24.01                             117    2.51 0  257 211 
 ROSC BZ I         242 28.73        12.0 0.45            116            257 211 
 HEL  HZ EP   2    241 53.78                             115    0.50 4  276 255 
 HEL  HN ES        242 24.94                             115   -0.28 7  276 255 
 HEL  HZ I         242 31.90         8.7 0.38            114            276 255 
 SOCV BZ EP        241 54.33                             113   -0.75 7  297  57 
 SOCV BN ES   4    242 25.38                             113   -3.04 0  297  57 
 GUY2CHZ EP   2    241 57.34                             113    0.64 4  306 235 
 GUY2CHN ES        242 31.04                             113   -0.26 7  306 235 
 GUY2CHZ I         242 41.33         6.3 0.60                           306 235 
 ELA  HZ EP        242  0.89                             111    0.96 7  334 230 
 ELA  HN ES        242 36.84                             111   -0.21 7  334 230 
 ELA  HZ I         242 52.66         5.7 0.50            110            334 230 
 CBOC HZ EP   2    242  0.81                             110    0.84 3  338 252 
 CBOC HN ES        242 36.94                             110   -0.18 7  338 252 
 CBOC HZ I         242 42.06         2.7 0.50            109            338 252 
 DBB  SZ EP   2    241 59.64                             110   -0.79 3  343 274 
 DBB  SZ ES   4    242 33.64                             110   -4.30 0  343 274 
 SDV  BZ EP        242  0.81                             109   -1.21 6  356  50 
 SDV  BE ES        242 39.62                             109   -1.16 6  356  50 
 ANIL HZ EP   2    242  3.79                             109    0.93 3  362 225 
 ANIL HE ES        242 42.35                             109    0.08 6  362 225 
 ANIL HZ I         242 49.01        11.9 0.34            108            362 225 
 PRA  HZ EP        242  6.55                             107    0.03 6  396 210 
 PRA  HE ES        242 48.65                             107   -0.14 6  396 210 
 PRA  HZ I         242 52.89         4.2 0.52            106            396 210 
 ORTC HZ EP        242  6.65                             107   -0.29 6  400 216 
 ORTC HZ I         242 56.53         3.8 0.48            106            400 216 
 SJC  HZ EP        242  7.17                             106   -0.87 6  409 326 
 SJC  HN ES   4    242 48.41                             106   -3.08 0  409 326 
 SJC  HZ I         242 51.80         2.5 0.05            106            409 326 
 PAL  HZ EP   1    242  7.85                             106   -0.36 4  410 239 
 PAL  HN ES   4    242 49.96                             106   -1.83 0  410 239 
 AUA1 BZ E         237 48.00                                            715  28 
                                                                                
