 2015  427 0820 27.1 L   6.417 -73.769 86.7  RSN  6 0.5 1.3LRSN                1
 GAP= 78        1.43       4.7     4.9 12.5  0.2975E+01  0.1919E+02 -0.4797E+01E
 Epicentro: SANTA HELENA DEL OPON - SANTANDER                                  3
 ACTION:UPD 15-06-03 16:57 OP:cam  STATUS:               ID:20150427082027 L   I
 OLDACT:REG 15-04-27 13:02 OP:stll STATUS:               ID:20150427081748     3
 2015-04-27-0817-48M.COL___268                                                 6
 STAT SP IPHASW D HRMM SECON CODA AMPLIT PERI AZIMU VELO AIN AR TRES W  DIS CAZ7
 BAR2 EZ EP        820 42.30                             139   -0.0210 67.7  73 
 BAR2 EZ ES        820 54.48                             139    0.2810 67.7  73 
 BRR  HZ EP        820 42.52                             135   -0.2110 76.6   5 
 BRR  HN ES        820 55.16                             135    0.2210 76.6   5 
 BRR  HZ I         820 56.57         4.8 0.18            137           76.6   5 
 PTB  HZ EP        820 42.30                             135   -0.5110 77.2 280 
 PTB  HN ES        820 54.12                             135   -0.9610 77.2 280 
 PTB  HZ I         820 56.62         5.0 0.38            136           77.2 280 
 SPBC HZ EP        820 44.22                             130    0.0510 91.0 202 
 SPBC HZ I         820 44.71         5.7 0.20            132           91.0 202 
 SPBC HN ES        820 58.42                             130    0.9110 91.0 202 
 RUS  HN ES        820 58.78                             129   -0.4510 95.5 127 
 ZAR  HZ EP        820 52.31                             112   -0.11 9  169 315 
 ZAR  HZ I         820 52.66         3.7 0.10            114            169 315 
 ZAR  HN ES        821 13.16                             112    0.97 9  169 315 
                                                                                
