 2010  927 0321 19.0 L   6.784 -73.012144.6  RSN 12 0.4 2.3LRSN                1
 GAP=174        1.12       3.8     7.1  6.5 -0.8897E+01  0.4349E+01  0.3117E+01E
 Epicentro: CEPITA - SANTANDER                                                 3
 ACTION:UP  11-02-18 11:05 OP:tino STATUS:               ID:20100927032119 L   I
 2010-09-27-0317-49S.COL___121                                                 6
 STAT SP IPHASW D HRMM SECON CODA AMPLIT PERI AZIMU VELO SNR AR TRES W  DIS CAZ7
 BAR2 SZ EP        321 38.42                             168    -0.110   29 222 
 BAR2 SZ ES        321 53.29                             168    -0.610   29 222 
 BAR2 SZ I         321 54.82        35.3 0.44                            29 222 
 BTL  SZ EP        321 39.77                             167     1.110   32 298 
 GIR2 SZ EP        321 38.81                             164     0.110   38 328 
 BRR  HZ EP        321 40.39                             148    -0.410   85 295 
 BRR  HZ I         321 40.73       110.8 0.03                            85 295 
 BRR  HN ES        321 58.03                             148     0.110   85 295 
 RUS  HZ EP        321 42.42                             144     0.010   99 185 
 RUS  HN ES   1    322  1.14                             144     0.3 7   99 185 
 RUS  HZ I         322  2.43        15.6 0.34                            99 185 
 GUE  SZ EP        321 43.26                             139    -0.310  116   5 
 GUE  SZ I         322  6.43         6.5 0.26                           116   5 
 GRA  SZ EP        321 43.87                             137    -0.110  124  11 
 GRA  SZ ES   1    322  3.93                             137     0.5 7  124  11 
 GRA  SZ I         322  6.92        33.6 0.40                           124  11 
 OCA  SZ EP        321 47.32                             129    -0.2 9  164 348 
 OCA  SZ ES        322  9.78                             129    -0.1 9  164 348 
 OCA  SZ I         322 13.83        57.5 0.04                           164 348 
 CHI  HZ EP        321 56.42                             117    -0.5 8  251 199 
 CHI  HZ I         321 59.19        10.5 0.23                           251 199 
 CHI  HN ES   1    322 26.37                             117    -0.1 6  251 199 
 HEL  HZ EP        322  0.66                             113     0.0 7  286 257 
 HEL  HN ES   2    322 32.74                             113    -0.5 4  286 257 
 RREF HZ EP        322  6.58                             110     0.4 7  332 231 
 RREF HN ES        322 43.27                             110     0.2 7  332 231 
 RREF HZ I         322 47.48        14.8 0.94                           332 231 
 TOL  SZ EP        322  8.53                             108     0.3 6  353 227 
                                                                                
