 2017  927 0625 19.5 L   6.827 -73.172146.2  RSN  4 0.2 1.2LRSN                1
 GAP=132        0.61       3.3     4.8  5.0 -0.2671E+00 -0.1438E+01  0.8770E+00E
 Epicentro: ZAPATOCA - SANTANDER                                               3
 ACTION:UPD 17-10-05 19:16 OP:rebc STATUS:               ID:20170927062519 L   I
 OLDACT:REG 17-09-27 12:44 OP:edw  STATUS:               ID:20170927061737     3
 2017-09-27-0618-00M.COL___447                                                 6
 STAT SP IPHASW D HRMM SECON CODA AMPLIT PERI AZIMU VELO AIN AR TRES W  DIS CAZ7
 BAR2 EZ EP        625 38.91                             169   -0.3210 26.0 183 
 BAR2 EZ ES        625 54.75                             169    0.1310 26.0 183 
 BAR2 EZ I         625 56.58         2.6 0.36            168           26.0 183 
 BRR  HZ EP        625 40.89                             154    0.4210 67.2 297 
 BRR  HN ES        625 56.61                             154   -0.2210 67.2 297 
 PAM  EZ EP        625 41.59                             151   -0.1410 77.0  43 
 PAM  EN ES        625 59.17                             151    0.0910 77.0  43 
 RUS  HZ EP        625 43.55                             143    0.0310  104 175 
 RUS  HN ES        626  2.28                             143    0.0210  104 175 
 RUS  HZ I         626  3.68         2.8 0.32            143            104 175 
                                                                                
