 2016  927 0401  4.9 L   6.867 -73.525 81.3  RSN  4 0.5 0.7LRSN                1
 GAP=194        1.16       8.1     8.5  9.5  0.5190E+02  0.1403E+02  0.1383E+02E
 Epicentro: SAN VICENTE DE CHUCURI - SANTANDER                                 3
 ACTION:UPD 17-08-17 21:16 OP:lp   STATUS:               ID:20160927040104 L   I
 OLDACT:UP  16-09-27 16:16 OP:edw  STATUS:               ID:20160927035744     3
 OLDACT:REG 16-09-27 12:46 OP:edw  STATUS:               ID:20160927035744     3
 2016-09-27-0358-00M.COL___360                                                 6
 STAT SP IPHASW D HRMM SECON CODA AMPLIT PERI AZIMU VELO AIN AR TRES W  DIS CAZ7
 BRR  HZ EP        4 1 16.29                             154   -0.6810 33.7 322 
 BRR  HE ES        4 1 26.78                             154    0.4210 33.7 322 
 BRR  HZ I         4 1 28.57         3.0 0.19            156           33.7 322 
 PTB  HZ EP   9    4 1 21.38                             122   -1.98 0  109 251 
 PTB  HE ES        4 1 35.15                             122   -0.6010  109 251 
 PTB  HZ I         4 1 39.70         0.5 0.06            123            109 251 
 RUS  HZ EP   2    4 1 25.26                             119    0.32 5  118 156 
 RUS  HN ES        4 1 40.46                             119   -0.0910  118 156 
 ZAR  HZ EP        4 1 29.88                             111    0.60 9  163 295 
 ZAR  HE ES        4 1 48.01                             111   -0.27 9  163 295 
 ZAR  HZ I         4 1 49.17         1.9 0.48            113            163 295 
                                                                                
