 2011  727 0816 22.7 L   6.762 -73.064147.1  RSN 13 0.3 2.2LRSN                1
 GAP=162        0.67       2.9     4.4  4.2 -0.6886E+01  0.4164E+00  0.4356E+01E
 Epicentro: LOS SANTOS - SANTANDER                                             3
 ACTION:UPD 12-07-25 14:03 OP:epov STATUS:               ID:20110727081622 L   I
 2011-07-27-0800-00M.COL___139                                                 6
 STAT SP IPHASW D HRMM SECON CODA AMPLIT PERI AZIMU VELO AIN AR TRES W  DIS CAZ7
 BAR2 SZ EP   1    816 42.71                             171    0.27 7 22.8 215 
 BAR2 SZ ES   1    816 57.88                             171    0.02 7 22.8 215 
 BAR2 SZ I         817  0.43        45.9 0.34                          22.8 215 
 GIR2 SZ EP   1    816 42.69                             165    0.01 7 37.9 338 
 GIR2 SZ ES        816 58.14                             165   -0.1610 37.9 338 
 PAM  SZ EP   1    816 45.38                             152    0.47 7 75.5  32 
 PAM  SN ES   2    817  2.39                             152    0.13 5 75.5  32 
 BRR  HZ EP        816 44.69                             150    0.1510 81.1 298 
 BRR  HN ES   1    817  2.34                             150    0.74 7 81.1 298 
 BRR  HZ I         817  4.21        30.1 0.30                          81.1 298 
 BRI  SZ EP   1    816 47.34                             141    0.57 7  110  16 
 BRI  SZ ES   1    817  5.52                             141   -0.05 7  110  16 
 GRA  SZ IP        816 47.80                             137   -0.3710  127  13 
 GRA  SZ ES        817  7.55                             137   -0.5110  127  13 
 GRA  SZ I         817 17.31        19.3 0.40                           127  13 
 OCA  SZ EP   1    816 51.29                             129   -0.30 7  166 350 
 OCA  SZ ES   1    817 14.26                             129    0.10 7  166 350 
 NOR  SZ EP   1    816 59.01                             118    0.00 6  240 237 
 NOR  SN ES   1    817 26.79                             118   -0.56 6  240 237 
 CHI  HZ EP   1    817  0.77                             118    0.50 6  247 197 
 CHI  HE ES   1    817 29.16                             118   -0.44 6  247 197 
 CHI  HZ I         817 37.43         8.7 0.34                           247 197 
 HEL  HZ EP   1    817  3.71                             114   -0.09 6  280 257 
 HEL  HN ES   1    817 35.81                             114   -0.08 6  280 257 
 TOL  SZ EP   1    817 11.23                             109   -0.14 5  347 226 
 PRA  HZ EP   1    817 16.38                             107    0.05 4  393 211 
 PRA  HN ES   1    817 58.01                             107   -0.18 4  393 211 
 SJA  SZ EP   1    817 17.29                             106    0.26 4  398 194 
 SJA  SZ ES   1    817 59.34                             106   -0.09 4  398 194 
                                                                                
