 2012  327 0326 47.5 L   6.778 -73.158146.0  RSN  5 0.4 1.4LRSN                1
 GAP=136        1.03       7.7     6.6  9.2 -0.8924E+01  0.4873E+01  0.9887E+01E
 ACTION:UP  12-03-31 23:23 OP:EP   STATUS:               ID:20120327032647 L   I
 2012-03-27-0320-00M.COL___196                                                 6
 STAT SP IPHASW D HRMM SECON CODA AMPLIT PERI AZIMU VELO SNR AR TRES W  DIS CAZ7
 BAR2 SZ EP   3    327  7.17                             172     0.1 2   21 187 
 BAR2 SZ ES   1    327 22.14                             172    -0.3 7   21 187 
 BAR2 SZ I         327 23.72         7.7 0.18                            21 187 
 BRR  HZ EP        327  9.02                             152     0.310   71 301 
 BRR  HN ES   1    327 25.90                             152     0.7 7   71 301 
 BRR  HZ I         327 30.39         8.4 0.42                            71 301 
 PAM  SZ EP        327 10.10                             150     0.210   80  39 
 PAM  SN ES   1    327 26.73                             150    -0.7 7   80  39 
 RUS  HZ EP        327 11.20                             144     0.110   98 175 
 RUS  HN ES   2    327 30.04                             144     0.5 5   98 175 
 RUS  HZ I         327 31.46         2.6 0.36                            98 175 
 PTB  HZ EP        327 13.87                             132    -0.5 9  146 260 
 PTB  HN ES   1    327 34.86                             132    -0.4 7  146 260 
 PTB  HZ I         327 41.69         2.4 0.46                           146 260 
                                                                                
