 2012  527 0159 34.1 L   6.806 -73.186135.1  RSN  5 0.2 1.9LRSN                1
 GAP=131        0.46       2.5     3.1  5.2 -0.2259E+01  0.6234E+01 -0.2272E+00E
 Epicentro: ZAPATOCA - SANTANDER                                               3
 ACTION:UP  12-07-05 12:08 OP:pat  STATUS:               ID:20120527015934 L   I
 2012-05-27-0154-49M.COL___188                                                 6
 STAT SP IPHASW D HRMM SECON CODA AMPLIT PERI AZIMU VELO SNR AR TRES W  DIS CAZ7
 BAR2 SZ EP        159 52.19                             170    -0.210   24 179 
 BAR2 SZ ES   2    2 0  6.91                             170     0.2 5   24 179 
 BAR2 SZ I         2 0 10.76        12.8 0.62                            24 179 
 PAM  SZ EP        159 55.57                             148     0.310   80  42 
 PAM  SN ES        2 0 11.85                             148     0.010   80  42 
 RUS  HZ EP   1    159 56.75                             141    -0.1 7  102 174 
 RUS  HE ES   1    2 0 14.70                             141     0.1 7  102 174 
 PTB  HZ EP        159 59.83                             130     0.0 9  144 258 
 PTB  HN ES   1    2 0 19.94                             130     0.1 7  144 258 
 PTB  HZ I         2 0 23.33         6.4 0.21                           144 258 
 OCA  HE ES   1    2 0 22.69                             127    -0.1 7  159 355 
 OCA  HZ I         2 0 23.75        20.1 0.19                           159 355 
                                                                                
