 2010 1027 0844  8.3 L   6.773 -73.111145.3  RSN  6 0.5 1.4LRSN                1
 GAP=163        0.97       6.6    12.9 10.1  0.2036E+02  0.1396E+02  0.1252E+02E
 Epicentro: LOS SANTOS - SANTANDER                                             3
 ACTION:UP  11-02-18 11:12 OP:tino STATUS:               ID:20101027084408 L   I
 2010-10-27-0840-44S.COL___127                                                 6
 STAT SP IPHASW D HRMM SECON CODA AMPLIT PERI AZIMU VELO SNR AR TRES W  DIS CAZ7
 BAR2 SZ EP   1    844 27.64                             171    -0.2 7   22 202 
 BAR2 SZ ES   1    844 42.49                             171    -0.6 7   22 202 
 BAR2 SZ I         844 43.83         8.0 0.23                            22 202 
 BRR  HZ EP   1    844 29.18                             151    -0.5 7   76 299 
 BRR  HZ I         844 29.69         5.7 0.10                            76 299 
 BRR  HE ES   1    844 46.75                             151     0.4 7   76 299 
 RUS  HZ EP   1    844 31.63                             145    -0.1 7   97 178 
 RUS  HE ES   1    844 50.55                             145     0.5 7   97 178 
 RUS  HZ I         844 52.01         2.4 0.21                            97 178 
 GRA  SZ ES   2    844 54.28                             137     0.8 5  128  15 
 GRA  SZ I         844 55.51         2.2 0.29                           128  15 
 CHI  HZ EP   2    844 45.83                             117     0.1 4  247 196 
 CHI  HE ES   2    845 15.62                             117     0.6 4  247 196 
 CHI  HZ I         845 18.81         1.5 0.36                           247 196 
 HEL  HZ EP   2    844 48.97                             114     0.2 4  275 257 
 HEL  HZ I         845 25.78         1.8 0.27                           275 257 
                                                                                
