 2012 1127 0250 19.4 L   6.798 -73.162143.5  RSN  9 0.4 2.1LRSN                1
 GAP=181        0.86       2.5     4.6  7.1  0.2159E+01  0.5339E+01  0.6980E+00E
 Epicentro: LOS SANTOS - SANTANDER                                             3
 ACTION:UPD 12-12-05 15:36 OP:}ep  STATUS:               ID:20121127025019 L   I
 2012-11-27-0250-00M.COL___234                                                 6
 STAT SP IPHASW D HRMM SECON CODA AMPLIT PERI AZIMU VELO AIN AR TRES W  DIS CAZ7
 BAR2 SZ EP        250 38.70                             170   -0.0810 22.9 186 
 GIR2 SZ EP        250 38.90                             167    0.0710 31.2 354 
 RUS  HZ EP        250 43.10                             143    0.1410  101 175 
 RUS  HN ES        251  1.22                             143   -0.0910  101 175 
 RUS  HN I         251  1.73        11.5 0.34                           101 175 
 PTB  HZ EP        250 45.48                             132   -0.57 9  146 259 
 PTB  HN ES        251  7.10                             132    0.29 9  146 259 
 PTB  HN I         251 11.87         9.5 0.26                           146 259 
 OCA  HN ES        251  9.77                             129    0.26 9  160 354 
 OCA  HN I         251 12.56        39.6 0.38                           160 354 
 ZAR  HZ EP        250 52.26                             122    0.70 9  202 292 
 ZAR  HN ES        251 16.67                             122    0.05 9  202 292 
 ZAR  HN I         251 25.04         9.9 0.22                           202 292 
 SML  HZ EP        250 55.77                             117   -0.10 8  243 336 
 SML  HN ES        251 23.53                             117   -0.76 8  243 336 
 SML  HN I         251 26.23        21.3 0.10                           243 336 
 CHI  HZ EP        250 57.05                             117    0.12 8  248 195 
 CHI  HN ES        251 26.05                             117   -0.14 8  248 195 
 CHI  HN I         251 30.34         4.0 0.62                           248 195 
 PRA  HZ EP        251 13.35                             106    0.60 6  391 209 
 PRA  HE ES        251 53.71                             106   -0.63 6  391 209 
                                                                                
