 2011 1127 0408 24.5 L   6.799 -73.092148.5  RSN 14 0.4 2.7LRSN                1
 GAP=119        0.50       2.3     3.3  4.3 -0.1780E+01  0.1393E+01  0.2531E+01E
 Epicentro: LOS SANTOS - SANTANDER                                             3
 ACTION:UPD 12-07-13 16:12 OP:ep   STATUS:               ID:20111127040824 L   I
 2011-11-27-0404-37S.COL___160                                                 6
 STAT SP IPHASW D HRMM SECON CODA AMPLIT PERI AZIMU VELO AIN AR TRES W  DIS CAZ7
 BAR2 SZ EP        4 8 44.36                             170   -0.1710 25.0 204 
 BAR2 SZ ES   2    4 8 59.72                             170   -0.40 5 25.0 204 
 BAR2 SZ I         4 9  0.73       219.3 0.36                          25.0 204 
 PAM  SZ EP        4 8 47.19                             152    0.3510 73.8  36 
 PAM  SN ES   2    4 9  4.52                             152    0.29 5 73.8  36 
 BRR  HZ IP     D  4 8 46.20                             151   -0.0810 76.5 296 
 BRR  HZ I         4 8 46.38       294.0 0.17                          76.5 296 
 BRR  HN ES   1    4 9  3.63                             151    0.39 7 76.5 296 
 RUS  HZ EP        4 8 48.31                             144   -0.2210  100 179 
 RUS  HN ES   2    4 9  6.96                             144   -0.29 5  100 179 
 RUS  HZ I         4 9  8.10        58.2 0.28                           100 179 
 OCA  SZ EP   2    4 8 53.12                             130   -0.02 5  161 351 
 OCA  SZ ES   2    4 9 14.80                             130   -0.65 5  161 351 
 OCA  SZ I         4 9 25.57        28.7 0.23                           161 351 
 YOP  SZ EP   2    4 8 55.08                             127    0.56 4  176 155 
 YOP  SZ I         4 8 56.06        16.9 0.43                           176 155 
 NOR  SZ EP   2    4 9  0.67                             118   -0.27 4  240 235 
 NOR  SN ES   2    4 9 29.00                             118   -0.34 4  240 235 
 CHI  HZ EP   2    4 9  2.53                             117   -0.03 4  250 196 
 CHI  HZ I         4 9  3.04        21.3 0.20                           250 196 
 CHI  HN ES   2    4 9 31.99                             117   -0.22 4  250 196 
 HEL  HZ EP   2    4 9  6.18                             115    0.66 4  278 256 
 HEL  HN ES   2    4 9 37.84                             115    0.35 4  278 256 
 HEL  HZ I         4 9 42.61        22.1 0.30                           278 256 
 VIL  SZ EP   2    4 9  8.56                             112    0.35 4  305 193 
 VIL  SN ES   2    4 9 42.93                             112    0.65 4  305 193 
 VIL  SZ I         4 9 44.63         8.5 0.49                           305 193 
 GUY  SZ EP   2    4 9  9.41                             112    0.33 4  308 236 
 GUY  SN ES   2    4 9 43.93                             112    0.10 4  308 236 
 GUY  SZ I         4 9 54.44        35.3 0.50                           308 236 
 RREF HZ EP   2    4 9 11.64                             111    0.33 3  326 230 
 RREF HN ES   2    4 9 47.71                             111   -0.08 3  326 230 
 RREF HZ I         4 9 53.90        27.4 0.29                           326 230 
 COD  HZ EP   2    4 9 12.42                             109   -0.68 3  349 354 
 COD  HN ES   2    4 9 50.48                             109   -0.50 3  349 354 
 COD  HZ I         4 9 54.10        21.7 0.62                           349 354 
 PRA  HZ EP   2    4 9 18.25                             107   -0.24 3  395 210 
 PRA  HN ES   2    410  0.16                             107   -0.42 3  395 210 
                                                                                
