 2010  327 0908 37.6 L   7.046 -73.076123.4  RSN  8 0.3 1.9LRSN                1
 GAP=192        0.50       2.7     5.8  5.1  0.6223E+00  0.6373E+01  0.2918E+01E
 Epicentro: FLORIDABLANCA - SANTANDER                                          3
 ACTION:UP  10-08-24 09:56 OP:vdl  STATUS:               ID:20100327090837 L   I
 2010-03-27-0905-34S.COL___098                                                 6
 STAT SP IPHASW D HRMM SECON CODA AMPLIT PERI AZIMU VELO SNR AR TRES W  DIS CAZ7
 BAR2 SZ IP        9 8 55.67                             156     0.010   52 193 
 BAR2 SZ ES   2    9 9  9.68                             156     0.0 5   52 193 
 BRR  HZ EP   1    9 8 56.01                             148    -0.4 7   71 276 
 BRR  HN ES   2    9 9 11.26                             148     0.3 5   71 276 
 BRR  HZ I         9 9 14.59        25.5 0.06                            71 276 
 RUS  HZ EP   1    9 9  1.46                             131    -0.1 7  128 180 
 RUS  HE ES   2    9 9 19.90                             131    -0.4 5  128 180 
 RUS  HZ I         9 9 20.89         4.0 0.25                           128 180 
 OCA  SZ EP   1    9 9  1.77                             129     0.0 7  135 349 
 OCA  SZ ES   2    9 9 20.92                             129     0.3 5  135 349 
 CHI  HZ EP   1    9 9 17.69                             109     0.3 6  277 195 
 CHI  HN ES   2    9 9 49.16                             109     0.7 4  277 195 
 CHI  HZ I         9 9 52.77         2.9 0.42                           277 195 
 HEL  HZ EP   1    9 9 18.27                             109    -0.3 5  287 251 
 RREF BZ EP   1    9 9 26.14                             105     0.4 5  346 227 
 RREF BE ES   2    910  2.98                             105    -0.2 3  346 227 
 RREF BZ I         910  6.51         5.0 0.61                           346 227 
 PRA  HZ EP   1    9 9 33.64                             101    -0.1 4  419 209 
 PRA  HE ES   2    910 17.26                             101    -0.2 3  419 209 
 PRA  HZ I         910 21.61         4.6 0.51                           419 209 
                                                                                
