 2017  227 0351 58.0 L   6.775 -73.161147.2  RSN  7 0.3 1.9LRSN                1
 GAP= 98        0.86       4.4     3.4  5.7  0.1776E+01  0.1704E-01  0.7520E+00E
 Epicentro: LOS SANTOS - SANTANDER                                             3
 ACTION:UPD 17-05-24 15:41 OP:jn   STATUS:               ID:20170227035158 L   I
 OLDACT:REG 17-02-27 13:06 OP:ar   STATUS:               ID:20170227034740     3
 2017-02-27-0348-00M.COL___369                                                 6
 STAT SP IPHASW D HRMM SECON CODA AMPLIT PERI AZIMU VELO AIN AR TRES W  DIS CAZ7
 BAR2 EZ EP        352 17.66                             172   -0.0810 20.3 187 
 BAR2 EZ ES        352 33.06                             172   -0.0810 20.3 187 
 BAR2 EZ I         352 35.45        27.4 0.30            171           20.3 187 
 BRR  HZ EP        352 19.44                             153    0.1510 71.1 301 
 BRR  HN ES        352 36.61                             153    0.7110 71.1 301 
 BRR  HZ I         352 40.42        14.5 0.34            148           71.1 301 
 PAM  EZ EP        352 20.65                             150    0.1010 80.6  39 
 PAM  EN ES        352 37.62                             150   -0.5310 80.6  39 
 PAM  EZ I         352 40.87         6.4 0.50            152           80.6  39 
 RUS  HZ EP        352 21.87                             145    0.1710 97.9 175 
 RUS  HN ES        352 40.24                             145    0.0510 97.9 175 
 RUS  HZ I         352 41.41         8.0 0.38            149           97.9 175 
 PTB  HZ EP        352 24.49                             133   -0.39 9  146 260 
 PTB  HN ES        352 45.43                             133   -0.42 9  146 260 
 PTB  HZ I         352 52.23         7.5 0.22            131            146 260 
 TAM  HZ EP        352 26.08                             131    0.21 9  156 104 
 ZAR  HN ES        352 55.86                             123    0.04 9  204 293 
 ZAR  HZ I         353  9.46        12.9 0.10            122            204 293 
                                                                                
