 2010 1227 0827 53.0 L   6.765 -73.106144.1  RSN  7 0.6 2.1LRSN                1
 GAP=163        1.18       5.6     9.5 11.0 -0.2889E+02  0.4649E+02 -0.1369E+02E
 Epicentro: LOS SANTOS - SANTANDER                                             3
 ACTION:UP  11-01-14 15:27 OP:pat  STATUS:               ID:20101227082753 L   I
 2010-12-27-0826-27S.COL___132                                                 6
 STAT SP IPHASW D HRMM SECON CODA AMPLIT PERI AZIMU VELO SNR AR TRES W  DIS CAZ7
 BAR2 SZ EP        828 12.09                             171    -0.210   21 204 
 BAR2 SZ ES   1    828 27.34                             171    -0.1 7   21 204 
 BAR2 SZ I         828 28.87        34.7 0.27                            21 204 
 RUS  HZ EP   1    828 16.06                             144    -0.2 7   96 179 
 RUS  HN ES   1    828 34.57                             144     0.2 7   96 179 
 RUS  HZ I         828 36.04        10.6 0.58                            96 179 
 GRA  SZ EP        828 18.88                             136     0.610  128  15 
 GRA  SZ ES   1    828 38.62                             136     0.6 7  128  15 
 GRA  SZ I         828 40.80        18.1 0.41                           128  15 
 OCA  SZ EP   1    828 20.62                             128    -0.9 7  165 352 
 OCA  SZ ES   1    828 43.33                             128    -0.5 7  165 352 
 OCA  SZ I         828 48.37        22.0 0.40                           165 352 
 NOR  SZ EP   1    828 28.03                             118    -0.7 6  236 236 
 NOR  SE ES        828 56.37                             118    -0.3 8  236 236 
 HEL  HZ EP   1    828 34.28                             114     0.8 6  275 257 
 HEL  HN ES   2    829  5.85                             114     0.8 4  275 257 
 HEL  HZ I         829 11.27         6.9 0.29                           275 257 
 PRA  HZ EP   2    828 46.68                             106     0.4 3  391 210 
 PRA  HE ES   1    829 28.86                             106     1.0 4  391 210 
                                                                                
