 2012  727 0439 21.6 L   6.042 -74.036 86.0  RSN  5 0.2 1.5LRSN                1
 GAP=141        0.50       2.8     2.2  8.1 -0.2804E+01 -0.1784E+01  0.1847E+01E
 Epicentro: LA BELLEZA - SANTANDER                                             3
 ACTION:UPD 12-08-14 11:45 OP:ep   STATUS:               ID:20120727043921 L   I
 2012-07-27-0437-35M.COL___208                                                 6
 STAT SP IPHASW D HRMM SECON CODA AMPLIT PERI AZIMU VELO AIN AR TRES W  DIS CAZ7
 PTB  HZ EP        439 36.45                             137    -0.310   72 320 
 PTB  HZ I         439 36.83         4.4 0.16            138             72 320 
 PTB  HN ES   3    439 48.75                             137     0.1 2   72 320 
 NOR  SZ EP        439 40.13                             124     0.110  106 240 
 NOR  SN ES   1    439 54.63                             124     0.1 7  106 240 
 RUS  HZ EP        439 40.66                             125     0.010  107  99 
 RUS  HZ I         439 41.01         4.3 0.12            127            107  99 
 RUS  HN ES   2    439 55.48                             125    -0.1 5  107  99 
 BAR2 SZ EP        439 41.10                             123     0.210  112  57 
 BAR2 SZ ES   1    439 55.89                             123    -0.1 7  112  57 
 BAR2 SZ I         439 56.97        13.5 0.36            125            112  57 
 BRR  HZ EP        439 41.73                             120     0.010  123  17 
 BRR  HN ES   1    439 57.73                             120     0.3 7  123  17 
 BRR  HZ I         439 59.19        10.9 0.18            122            123  17 
