 2016  827 0531 39.5 L   6.811 -73.157138.0  RSN  9 0.5 1.5LRSN                1
 GAP=135        1.14       4.3     4.9  7.4  0.4390E+00  0.9611E+01 -0.1625E+01E
 Epicentro: LOS SANTOS - SANTANDER                                             3
 ACTION:UPD 16-10-29 15:39 OP:rebc STATUS:               ID:20160827053139 L   I
 OLDACT:DUP 16-08-27 15:06 OP:ak   STATUS:               ID:20160827052743d    3
 OLDACT:REG 16-08-27 12:55 OP:ak   STATUS:               ID:20160827052742     3
 2016-08-27-0528-00M.COL___374                                                 6
 STAT SP IPHASW D HRMM SECON CODA AMPLIT PERI AZIMU VELO AIN AR TRES W  DIS CAZ7
 BAR2 EZ EP        531 58.06                             170   -0.2010 24.3 187 
 BAR2 EZ ES        532 12.90                             170    0.0410 24.3 187 
 BAR2 EZ I         532 14.19         7.7 0.19            170           24.3 187 
 BRR  HZ EP        531 59.91                             152    0.1510 69.6 298 
 BRR  HN ES        532 16.10                             152    0.5710 69.6 298 
 BRR  HZ I         532 17.32         6.7 0.23                          69.6 298 
 PAM  EZ EP        532  1.18                             150    0.2510 77.3  41 
 PAM  EN ES        532 17.62                             150    0.0110 77.3  41 
 PAM  EZ I         532 19.81         4.8 0.42                          77.3  41 
 RUS  HZ EP        532  2.55                             142   -0.0810  102 175 
 RUS  HN ES        532 20.85                             142    0.2110  102 175 
 RUS  HZ I         532 22.35         2.8 0.36                           102 175 
 PTB  HZ EP        532  5.16                             131   -0.63 9  147 258 
 PTB  HN ES        532 25.40                             131   -0.87 9  147 258 
 PTB  HZ I         532 29.02         3.9 0.22                           147 258 
 OCA  HZ EP   2    532  6.94                             128   -0.19 5  159 354 
 OCA  HN ES        532 27.92                             128   -0.73 9  159 354 
 OCA  HZ I         532 28.97        11.4 0.18                           159 354 
 ZAR  HZ EP        532 11.76                             121    0.44 9  202 292 
 ZAR  HN ES        532 36.90                             121    0.79 9  202 292 
 ZAR  HZ I         532 40.87         2.5 0.49                           202 292 
 GUY2CHZ EP   2    532 23.48                             111    0.72 4  301 234 
 GUY2CHZ I         533  5.37         1.6 0.60                           301 234 
 SJC  HZ EP   4    532 32.69                             105   -1.97 0  408 327 
 SJC  HN ES   4    533 14.79                             105   -2.86 0  408 327 
 SJC  HZ I         533 27.62         0.6 0.10                           408 327 
                                                                                
