 2010 1227 0516 27.6 L   6.781 -73.169139.3  RSN  7 0.5 1.9LRSN                1
 GAP=156        0.98       4.8     7.6  9.4 -0.1390E+02  0.3363E+02 -0.9583E+01E
 Epicentro: LOS SANTOS - SANTANDER                                             3
 ACTION:UP  11-01-14 15:27 OP:pat  STATUS:               ID:20101227051627 L   I
 2010-12-27-0515-54S.COL___132                                                 6
 STAT SP IPHASW D HRMM SECON CODA AMPLIT PERI AZIMU VELO SNR AR TRES W  DIS CAZ7
 BAR2 SZ EP        516 46.25                             171    -0.110   21 184 
 BAR2 SZ ES   1    517  1.32                             171     0.3 7   21 184 
 BAR2 SZ I         517  2.36        34.0 0.19                            21 184 
 RUS  HZ EP   1    516 50.31                             143    -0.2 7   99 174 
 RUS  HE ES   1    517  8.42                             143    -0.1 7   99 174 
 RUS  HZ I         517 10.08        12.4 0.41                            99 174 
 GRA  SZ EP   1    516 53.29                             135     0.8 7  129  18 
 GRA  SZ I         517 14.86         6.1 0.36                           129  18 
 OCA  SZ EP   1    516 54.75                             128    -0.8 7  162 354 
 OCA  SZ ES   1    517 17.10                             128    -0.3 7  162 354 
 OCA  SZ I         517 24.90        13.1 0.09                           162 354 
 NOR  SZ EP   1    517  2.76                             117     0.2 6  232 235 
 NOR  SN ES   1    517 29.92                             117     0.0 6  232 235 
 HEL  HZ EP   1    517  8.15                             114     1.0 6  269 256 
 HEL  HN ES   1    517 37.73                             114    -0.2 6  269 256 
 HEL  HZ I         517 45.72         6.5 0.58                           269 256 
 PRA  HZ EP   1    517 20.46                             106     0.0 4  389 209 
 PRA  HN ES   1    518  1.20                             106    -0.6 4  389 209 
                                                                                
