 2014 1127 0658 48.9 L   6.497 -73.603 86.8  RSN  6 0.5 0.9LRSN                1
 GAP=149        1.19       4.7     5.2 11.3  0.5684E+01  0.3048E+02  0.1379E+02E
 Epicentro: SANTA HELENA DEL OPON - SANTANDER                                  3
 ACTION:UPD 14-12-19 15:48 OP:nd   STATUS:               ID:20141127065848 L   I
 OLDACT:DUP 14-11-27 17:25 OP:fm   STATUS:               ID:20141127064749d    3
 2014-11-27-0647-47M.COL___306                                                 6
 STAT SP IPHASW D HRMM SECON CODA AMPLIT PERI AZIMU VELO AIN AR TRES W  DIS CAZ7
 BRR  HZ EP        659  3.51                             138   -0.4110 68.5 350 
 BRR  HN ES        659 15.90                             138    0.3010 68.5 350 
 BRR  HZ I         659 21.68         2.4 0.44            140           68.5 350 
 RUS  HE ES        659 19.92                             131    0.0610 88.2 139 
 RUS  HZ I         659 21.48         1.2 0.40            138           88.2 139 
 PTB  HZ EP        659  6.69                             129    0.4110 94.5 273 
 PTB  HE ES        659 19.26                             129   -0.5410 94.5 273 
 PTB  HZ I         659 20.70         4.6 0.28            132           94.5 273 
 ZAR  HZ EP        659 14.28                             111   -0.91 9  177 309 
 ZAR  HE ES        659 36.38                             111    0.71 9  177 309 
 ZAR  HZ I         659 41.23         2.0 0.12            114            177 309 
 HEL  HE ES        659 44.53                             107    0.02 8  216 261 
 HEL  HZ I         659 49.07         0.7 0.46            110            216 261 
 GUY2CHZ EP        659 23.82                             105    0.58 8  241 234 
 GUY2CHE ES        659 49.92                             105   -0.07 8  241 234 
 GUY2CHZ I         659 56.28         0.7 0.50                           241 234 
                                                                                
