 2010 1227 0048 56.6 L   6.805 -73.127137.5  RSN 12 0.4 2.4LRSN                1
 GAP=137        0.86       3.5     5.5  6.8 -0.7159E+01  0.1506E+02 -0.3731E+00E
 Epicentro: LOS SANTOS - SANTANDER                                             3
 ACTION:UP  11-01-14 15:27 OP:pat  STATUS:               ID:20101227004856 L   I
 2010-12-27-0043-32S.COL___131                                                 6
 STAT SP IPHASW D HRMM SECON CODA AMPLIT PERI AZIMU VELO SNR AR TRES W  DIS CAZ7
 BAR2 SZ EP        049 15.54                             169     0.210   24 195 
 BAR2 SZ ES   1    049 30.00                             169     0.1 7   24 195 
 BAR2 SZ I         049 32.17        54.4 0.21                            24 195 
 RUS  HZ EP   1    049 19.38                             142    -0.2 7  101 177 
 RUS  HN ES   1    049 37.35                             142    -0.2 7  101 177 
 RUS  HZ I         049 39.38        31.8 0.37                           101 177 
 GRA  SZ EP        049 21.26                             135     0.210  125  17 
 GRA  SZ ES   1    049 39.79                             135    -0.3 7  125  17 
 GRA  SZ I         049 43.12        34.1 0.40                           125  17 
 OCA  SZ EP   1    049 23.84                             128    -0.5 7  160 352 
 OCA  SZ ES   1    049 46.05                             128     0.2 7  160 352 
 OCA  SZ I         049 51.34        60.0 0.31                           160 352 
 YOP  SZ EP   1    049 26.16                             124     0.1 7  179 154 
 YOP  SZ I         049 26.68        14.6 0.20                           179 154 
 NOR  SZ EP   1    049 31.67                             116    -0.5 6  237 235 
 NOR  SE ES   1    049 59.07                             116    -0.7 6  237 235 
 ROSC BZ EP   1    049 35.26                             115     0.8 6  254 211 
 ROSC BZ I         050 13.57        36.1 0.44                           254 211 
 HEL  HZ EP   1    049 37.40                             113     0.7 6  274 256 
 HEL  HN ES   1    050  8.10                             113     0.2 6  274 256 
 HEL  HZ I         050 15.10        22.3 0.34                           274 256 
 RREF HZ EP   1    049 42.75                             109     0.1 5  324 230 
 RREF HZ I         049 46.44         6.0 0.55                           324 230 
 RREF HE ES   1    050 19.00                             109     0.5 5  324 230 
 DBB  SZ EP   1    049 43.45                             108    -0.6 5  341 274 
 TOL  SZ EP   1    049 45.06                             108     0.3 5  345 225 
 PRA  HZ EP   1    049 49.12                             105    -0.9 4  393 210 
                                                                                
