 2011 1127 0457 25.6 L   6.915 -73.384114.4  RSN  4 0.2 1.6LRSN                1
 GAP=145        0.37       3.4     7.2  6.2  0.1432E+02 -0.4501E+01 -0.1849E+01E
 Epicentro: SAN VICENTE DE CHUCURI - SANTANDER                                 3
 ACTION:UPD 12-07-13 16:12 OP:ep   STATUS:               ID:20111127045725 L   I
 2011-11-27-0455-36S.COL___160                                                 6
 STAT SP IPHASW D HRMM SECON CODA AMPLIT PERI AZIMU VELO AIN AR TRES W  DIS CAZ7
 BRR  HZ IP     D  457 41.70                             158   -0.1110 42.0 300 
 BRR  HZ I         457 41.87        40.4 0.11                          42.0 300 
 BRR  HN ES   2    457 54.64                             158    0.21 5 42.0 300 
 BAR2 SZ EP   1    457 42.38                             158    0.22 7 42.1 148 
 BAR2 SZ ES   2    457 54.95                             158   -0.11 5 42.1 148 
 BAR2 SZ I         457 55.92        20.0 0.24                          42.1 148 
 RUS  HZ EP   2    457 48.08                             131    0.11 5  118 164 
 RUS  HN ES   2    458  5.17                             131   -0.22 5  118 164 
 RUS  HZ I         458  7.27         2.4 0.28                           118 164 
 OCA  SZ ES   2    458  9.47                             124   -0.08 5  147   3 
 OCA  SZ I         458 11.50         4.0 0.17                           147   3 
                                                                                
