 2013 1027 0333 46.3 L   6.791 -73.157147.7  RSN 13 0.4 2.2LRSN                1
 GAP=113        0.95       2.3     3.7  5.0  0.4209E+00  0.4353E+01  0.6056E+00E
 Epicentro: LOS SANTOS - SANTANDER                                             3
 ACTION:UPD 13-11-25 09:23 OP:ep   STATUS:               ID:20131027033346 L   I
 OLDACT:REG 13-10-27 08:53 OP:carl STATUS:               ID:20131027032841     3
 2013-10-27-0328-41M.COL___229                                                 6
 STAT SP IPHASW D HRMM SECON CODA AMPLIT PERI AZIMU VELO AIN AR TRES W  DIS CAZ7
 BAR2 SZ EP        334  6.18                             171    0.0810 22.2 187 
 BAR2 SZ ES        334 21.54                             171   -0.0410 22.2 187 
 BAR2 SZ I         334 25.15        33.7 0.52            171           22.2 187 
 BRR  HZ EP        334  8.18                             153    0.6010 70.6 300 
 BRR  HN ES        334 24.75                             153    0.5310 70.6 300 
 BRR  HZ I         334 26.43        17.4 0.24            153           70.6 300 
 PAM  SZ EP        334  8.96                             151    0.1910 78.9  40 
 PAM  SN ES   1    334 26.23                             151   -0.10 7 78.9  40 
 PAM  SZ I         334 28.75        33.8 0.62            154           78.9  40 
 RUS  HZ EP        334  9.94                             144   -0.2010 99.7 175 
 RUS  HN ES        334 28.33                             144   -0.4410 99.7 175 
 RUS  HZ I         334 30.27        22.5 0.44            146           99.7 175 
 PTB  HZ EP        334 12.88                             133   -0.38 9  146 259 
 PTB  HN ES   1    334 34.32                             133    0.00 7  146 259 
 PTB  HZ I         334 35.68        19.6 0.28            134            146 259 
 OCA  HZ EP        334 15.29                             130    0.49 9  161 354 
 OCA  HN ES        334 36.34                             130   -0.72 9  161 354 
 OCA  HZ I         334 42.07        20.9 0.30            132            161 354 
 SPBC HZ EP        334 14.28                             130   -0.48 9  162 219 
 SPBC HE ES        334 36.93                             130   -0.07 9  162 219 
 SPBC HZ I         334 41.87        25.5 0.36            131            162 219 
 YOP  SN ES        334 40.57                             127    0.64 9  179 153 
 ZAR  HZ EP        334 18.77                             123    0.02 9  203 293 
 ZAR  HN ES        334 44.51                             123    0.42 9  203 293 
 ZAR  HZ I         334 50.74        17.2 0.26            124            203 293 
 SML  HZ EP        334 22.59                             118   -0.44 8  244 336 
 SML  HN ES        334 51.34                             118   -0.38 8  244 336 
 SML  HZ I         334 53.19        22.3 0.10            120            244 336 
 CHI  HZ EP        334 24.13                             118    0.20 8  247 195 
 CHI  HN ES        334 52.63                             118   -0.68 8  247 195 
 CHI  HZ I         334 59.71         6.1 0.58            119            247 195 
 GUY2CHZ EP   1    334 30.35                             113    0.57 5  300 235 
 GUY2CHE ES        335  3.74                             113    0.01 7  300 235 
 GUY2CHZ I         335 12.99        15.0 0.80                           300 235 
 PRA  HZ EP        334 40.01                             107    0.33 6  391 209 
 PRA  HE ES        335 21.36                             107    0.02 6  391 209 
 PRA  HZ I         335 26.47         6.1 0.28            108            391 209 
                                                                                
