 2015  827 0048 59.6 L   6.786 -73.091151.4  RSN  9 0.3 1.6LRSN                1
 GAP=144        0.65       2.5     3.5  4.6 -0.1151E+01  0.3978E+01  0.2007E+01E
 Epicentro: LOS SANTOS - SANTANDER                                             3
 ACTION:UPD 15-09-15 23:05 OP:cam  STATUS:               ID:20150827004859 L   I
 OLDACT:DUP 15-08-27 16:55 OP:spq  STATUS:               ID:20150827003750d    3
 2015-08-27-0037-49M.COL___355                                                 6
 STAT SP IPHASW D HRMM SECON CODA AMPLIT PERI AZIMU VELO AIN AR TRES W  DIS CAZ7
 BAR2 EZ ES   1    049 35.82                             171    0.02 7 23.7 205 
 BAR2 EZ I         049 37.49         7.0 0.44            168           23.7 205 
 PAM  EZ EP     C  049 22.50                             153    0.1810 74.9  35 
 PAM  EN ES        049 40.19                             153    0.1810 74.9  35 
 PAM  EZ I         049 42.43         3.4 0.48            155           74.9  35 
 BRR  HZ EP        049 21.59                             151   -0.1610 77.3 297 
 BRR  HN ES        049 39.13                             151    0.1410 77.3 297 
 BRR  HZ I         049 43.12         7.8 0.16            147           77.3 297 
 RUS  HZ EP        049 23.60                             145   -0.2310 98.8 180 
 RUS  HN ES        049 42.55                             145   -0.1410 98.8 180 
 RUS  HZ I         049 43.56         3.0 0.30            147           98.8 180 
 SPBC HZ EP        049 28.74                             130   -0.10 9  166 221 
 SPBC HE ES        049 51.44                             130   -0.16 9  166 221 
 SPBC HZ I         049 57.05         7.4 0.22            130            166 221 
 ZAR  HE ES   1    049 59.62                             123    0.43 6  210 292 
 ZAR  HZ I         050  5.16         4.3 0.24            122            210 292 
 SML  HN ES   1    050  5.40                             118   -0.77 6  248 334 
 SML  HZ I         050 12.53         6.2 0.30            118            248 334 
 GUY2CHZ EP   4    049 45.86                             113    1.88 0  305 236 
 GUY2CHE ES   1    050 18.46                             113   -0.10 5  305 236 
 GUY2CHZ I         050 24.63         1.9 0.36                           305 236 
 PRA  HZ EP        049 54.23                             107    0.66 6  394 210 
 PRA  HN ES   1    050 36.39                             107    0.77 4  394 210 
 PRA  HZ I         050 41.62         1.6 0.63            108            394 210 
                                                                                
