 2011  127 0408  4.1 L   6.735 -72.815145.3  RSN  4 0.2 1.4LRSN                1
 GAP=197        0.60       6.6    24.9 10.6 -0.9522E+02 -0.1539E+03  0.8131E+01E
 Epicentro: MOLAGAVITA - SANTANDER                                             3
 ACTION:UP  11-02-08 08:42 OP:pat  STATUS:               ID:20110127040804 L   I
 2011-01-27-0405-00S.COL___138                                                 6
 STAT SP IPHASW D HRMM SECON CODA AMPLIT PERI AZIMU VELO SNR AR TRES W  DIS CAZ7
 BAR2 SZ EP   1    4 8 23.84                             161    -0.4 7   44 249 
 BAR2 SZ I         4 8 24.03         8.1 0.14                            44 249 
 BAR2 SZ ES   1    4 8 39.93                             161    -0.1 7   44 249 
 BTL  SZ EP        4 8 24.96                             158     0.310   54 292 
 RUS  HZ EP   2    4 8 27.90                             144     0.3 5   98 198 
 RUS  HN ES   2    4 8 46.07                             144     0.1 5   98 198 
 RUS  HZ I         4 8 48.30         2.5 0.51                            98 198 
 GRA  SZ EP   1    4 8 29.31                             136    -0.1 7  127   1 
 GRA  SZ ES   2    4 8 49.30                             136     0.1 5  127   1 
 GRA  SZ I         4 8 52.12         3.4 0.39                           127   1 
                                                                                
