 2017  927 0046  4.1 L   6.811 -73.082139.3  RSN  4 0.2 1.1LRSN                1
 GAP=144        0.55       2.9     4.2  4.5 -0.4224E+00 -0.1307E+01  0.7084E+00E
 Epicentro: LOS SANTOS - SANTANDER                                             3
 ACTION:UPD 17-10-05 19:16 OP:rebc STATUS:               ID:20170927004604 L   I
 OLDACT:UP  17-10-03 13:56 OP:nlst STATUS:               ID:20170927004604 L   3
 OLDACT:UP  17-09-27 14:00 OP:edw  STATUS:               ID:20170927003742d    3
 OLDACT:DUP 17-09-27 13:57 OP:edw  STATUS:               ID:20170927003742d    3
 OLDACT:UP  17-09-27 13:52 OP:edw  STATUS:               ID:20170927003741     3
 OLDACT:UP  17-09-27 13:46 OP:edw  STATUS:               ID:20170927003741     3
 OLDACT:UP  17-09-27 13:45 OP:edw  STATUS:               ID:20170927003741     3
 OLDACT:UP  17-09-27 13:38 OP:edw  STATUS:               ID:20170927003741     3
 OLDACT:UP  17-09-27 13:37 OP:edw  STATUS:               ID:20170927003741     3
 OLDACT:UP  17-09-27 13:34 OP:edw  STATUS:               ID:20170927003741     3
 OLDACT:REG 17-09-27 12:12 OP:edw  STATUS:               ID:20170927003741     3
 2017-09-27-0038-00M.COL___453                                                 6
 STAT SP IPHASW D HRMM SECON CODA AMPLIT PERI AZIMU VELO AIN AR TRES W  DIS CAZ7
 BAR2 EZ EP        046 22.83                             169   -0.2110 26.6 205 
 BAR2 EZ ES        046 37.50                             169   -0.3010 26.6 205 
 PAM  EZ EP        046 25.51                             151    0.1810 72.2  36 
 PAM  EN ES        046 41.88                             151    0.0110 72.2  36 
 PAM  EZ I         046 45.16         2.8 0.44            150           72.2  36 
 BRR  HZ EP        046 24.77                             149   -0.1410 76.9 295 
 BRR  HN ES        046 41.35                             149    0.2210 76.9 295 
 RUS  HZ EP        046 27.29                             142   -0.0110  102 180 
 RUS  HN ES        046 45.63                             142    0.2410  102 180 
                                                                                
