 2010 1127 0718 52.0 L   6.818 -73.029146.1  RSN  6 0.2 1.3LRSN                1
 GAP=171        0.51       3.5     7.2  7.1  0.3930E+01 -0.2384E+02 -0.5236E+01E
 Epicentro: CEPITA - SANTANDER                                                 3
 ACTION:UP  10-12-17 16:55 OP:REBC STATUS:               ID:20101127071852 L   I
 2010-11-27-0716-17S.COL___132                                                 6
 STAT SP IPHASW D HRMM SECON CODA AMPLIT PERI AZIMU VELO SNR AR TRES W  DIS CAZ7
 BAR2 SZ EP   1    719 11.96                             167     0.1 8   30 214 
 BAR2 SZ I         719 30.96         7.3 1.38                            30 214 
 BRR  HZ EP   1    719 13.90                             149     0.0 8   82 293 
 BRR  HE ES   1    719 30.90                             149     0.0 8   82 293 
 BRR  HZ I         719 34.56         3.1 0.30                            82 293 
 RUS  HZ EP   1    719 16.33                             143     0.4 8  102 183 
 RUS  HE ES   1    719 34.35                             143    -0.3 8  102 183 
 RUS  HZ I         719 37.44         2.2 0.05                           102 183 
 GRA  SZ EP        719 16.76                             138    -0.110  121  12 
 GRA  SZ I         719 37.48         3.1 0.68                           121  12 
 CHI  HZ EP   3    719 30.31                             116     0.0 2  254 198 
 CHI  HZ I         719 32.20         1.7 0.43                           254 198 
 PRA  HZ EP   1    719 46.32                             106    -0.2 4  400 211 
                                                                                
