 2013  127 0714 23.0 L   6.794 -73.140148.8  RSN  8 0.5 2.0LRSN                1
 GAP=100        1.28       5.3     4.3  9.4  0.2193E+01  0.2324E+01  0.1453E+02E
 Epicentro: LOS SANTOS - SANTANDER                                             3
 ACTION:UPD 13-02-15 09:17 OP:ep   STATUS:               ID:20130127071423 L   I
 2013-01-27-0708-40M.COL___185                                                 6
 STAT SP IPHASW D HRMM SECON CODA AMPLIT PERI AZIMU VELO AIN AR TRES W  DIS CAZ7
 BAR2 SZ EP        714 42.97                             171    0.0410 22.8 192 
 BAR2 SZ I         714 59.64        16.6 0.28            170           22.8 192 
 BRR  HZ EP        714 44.93                             153    0.4610 72.0 299 
 BRR  HN ES        715  2.37                             153    1.1110 72.0 299 
 BRR  HN I         715  6.51        25.7 0.20            153           72.0 299 
 PAM  SZ EP        714 45.78                             151    0.2810 77.6  39 
 PAM  SN ES        715  2.65                             151   -0.4410 77.6  39 
 PAM  SN I         715  3.58        11.0 0.40            153           77.6  39 
 RUS  HZ EP        714 46.83                             145   -0.1210 99.9 176 
 RUS  HN ES        715  5.29                             145   -0.3810 99.9 176 
 PTB  HZ EP        714 49.70                             133   -0.50 9  148 259 
 PTB  HE ES        715 11.18                             133   -0.28 9  148 259 
 TAM  HZ EP        714 51.11                             131    0.31 9  154 105 
 TAM  HN ES        715 12.15                             131   -0.37 9  154 105 
 ZAR  HE ES        715 20.29                             123   -0.91 9  205 292 
 ZAR  HN I         715 22.92        12.3 0.32            123            205 292 
 CHI  HZ EP        715  1.00                             118    0.24 8  248 195 
 CHI  HN ES        715 30.73                             118    0.48 8  248 195 
 CHI  HN I         715 34.60         6.6 0.26            118            248 195 
                                                                                
