 2015 1227 0447 51.7 L   6.768 -73.188135.1  RSN  9 0.5 1.6LRSN                1
 GAP=133        0.87       3.2     3.8  7.2 -0.3009E+01  0.9468E+01 -0.3013E+00E
 Epicentro: LOS SANTOS - SANTANDER                                             3
 ACTION:UPD 16-02-04 15:08 OP:cam  STATUS:               ID:20151227044751 L   I
 OLDACT:REG 15-12-27 12:42 OP:dnl  STATUS:               ID:20151227043743     3
 2015-12-27-0437-43M.COL___334                                                 6
 STAT SP IPHASW D HRMM SECON CODA AMPLIT PERI AZIMU VELO AIN AR TRES W  DIS CAZ7
 BAR2 EZ EP   2    448 10.05                             171    0.13 5 19.5 178 
 BAR2 EZ ES   2    448 25.08                             171    0.91 5 19.5 178 
 BAR2 EZ I         448 29.54         5.3 0.15            172           19.5 178 
 BRR  HZ EP   2    448 12.27                             151    0.75 5 68.9 303 
 BRR  HN ES   2    448 27.57                             151    0.55 5 68.9 303 
 BRR  HZ I         448 32.23         6.5 0.23            152           68.9 303 
 PAM  EZ EP        448 13.61                             147    0.5010 83.1  41 
 PAM  EE ES        448 29.48                             147   -0.3710 83.1  41 
 PAM  EZ I         448 33.85         4.5 0.44            154           83.1  41 
 RUS  HZ EP        448 13.97                             142   -0.1710 97.5 173 
 RUS  HE ES        448 31.86                             142    0.1810 97.5 173 
 RUS  HZ I         448 33.84         5.9 0.24            149           97.5 173 
 PTB  HZ EP   1    448 16.48                             130   -0.80 7  142 260 
 PTB  HN ES        448 36.82                             130   -0.44 9  142 260 
 PTB  HZ I         448 39.87         8.3 0.20            134            142 260 
 SPBC HZ EP        448 18.65                             127   -0.15 9  157 218 
 SPBC HE ES   1    448 39.69                             127   -0.28 7  157 218 
 SPBC HZ I         448 46.90         4.6 0.15            132            157 218 
 OCA  HZ EP   2    448 19.83                             126    0.38 5  163 355 
 OCA  HN ES        448 40.85                             126   -0.27 9  163 355 
 OCA  HZ I         448 44.57        17.6 0.20            132            163 355 
 ZAR  HZ EP   2    448 23.22                             120    0.11 4  201 294 
 ZAR  HN ES   2    448 47.66                             120    0.02 4  201 294 
 ZAR  HZ I         448 53.04         6.8 0.26            124            201 294 
 HEL  HZ EP   2    448 31.55                             113    0.82 4  267 256 
 HEL  HE ES        449  1.77                             113    0.56 8  267 256 
 HEL  HZ I         449  7.63         2.6 0.19            117            267 256 
                                                                                
