 2013  627 0212 35.3 L   6.773 -73.166140.6  RSN  5 0.4 1.4LRSN                1
 GAP=199        0.85       5.4     7.7  8.6  0.1816E+02 -0.1204E+02 -0.1121E+02E
 Epicentro: LOS SANTOS - SANTANDER                                             3
 ACTION:UPD 14-01-08 09:57 OP:ep   STATUS:               ID:20130627021235 L   I
 OLDACT:REG 13-06-27 06:31 OP:jn   STATUS:               ID:20130627020959     3
 2013-06-27-0209-59M.COL___266                                                 6
 STAT SP IPHASW D HRMM SECON CODA AMPLIT PERI AZIMU VELO AIN AR TRES W  DIS CAZ7
 BAR2 SZ EP        212 54.38                             172    0.1510 20.1 185 
 BRR  HZ EP        212 56.44                             152    0.5910 70.8 302 
 BRR  HN ES        213 11.73                             152   -0.1710 70.8 302 
 BRR  HZ I         213 14.81         9.8 0.30            150           70.8 302 
 RUS  HZ EP   1    212 58.60                             143    0.27 7 97.8 175 
 RUS  HN ES   1    213 15.87                             143   -0.43 7 97.8 175 
 RUS  HZ I         213 17.71         3.5 0.26            144           97.8 175 
 PTB  HZ EP        213  1.34                             131   -0.24 9  145 260 
 PTB  HN ES   1    213 22.15                             131    0.05 7  145 260 
 PTB  HZ I         213 26.25         2.6 0.12            131            145 260 
 SML  HZ EP   1    213 10.91                             116   -0.91 6  246 336 
 SML  HN ES   1    213 40.41                             116    0.08 6  246 336 
                                                                                
