 2012 1127 0132  9.0 L   6.674 -73.203143.4  RSN  6 0.5 1.9LRSN                1
 GAP=165        1.24       6.7     7.2 10.9  0.1719E+02  0.2003E+02 -0.2680E+00E
 Epicentro: VILLANUEVA - SANTANDER                                             3
 ACTION:UPD 12-12-05 15:36 OP:}ep  STATUS:               ID:20121127013209 L   I
 2012-11-27-0130-00M.COL___234                                                 6
 STAT SP IPHASW D HRMM SECON CODA AMPLIT PERI AZIMU VELO AIN AR TRES W  DIS CAZ7
 BAR2 SZ EP        132 28.35                             176    0.2610 9.36 166 
 BAR2 SZ ES        132 42.29                             176   -0.7310 9.36 166 
 BAR2 SZ I         132 44.99        15.8 0.24                          9.36 166 
 GIR2 SZ EP        132 28.51                             162   -0.2710 44.7   1 
 RUS  HZ EP        132 31.78                             147    0.2310 87.4 171 
 RUS  HN ES        132 50.01                             147    0.8310 87.4 171 
 RUS  HN I         132 51.09        11.2 0.34                          87.4 171 
 PTB  HZ EP        132 35.01                             133    0.03 9  139 264 
 PTB  HN ES        132 55.48                             133    0.21 9  139 264 
 PTB  HN I         133  1.65        11.1 0.44                           139 264 
 ZAR  HN ES        133  6.52                             122    0.10 9  204 296 
 ZAR  HN I         133 13.23         8.0 0.38                           204 296 
 CHI  HE ES        133 12.02                             118   -0.90 8  234 195 
                                                                                
