 2013  827 0225 20.6 L   6.783 -73.160141.7  RSN  7 0.4 1.7LRSN                1
 GAP=235        1.00       5.5     5.5  7.6  0.7584E+01  0.1122E+02  0.7462E+01E
 Epicentro: LOS SANTOS - SANTANDER                                             3
 ACTION:UPD 14-01-14 09:07 OP:ep   STATUS:               ID:20130827022520 L   I
 OLDACT:DUP 13-08-27 08:52 OP:carl STATUS:               ID:20130827021960d    3
 2013-08-27-0219-59M.COL___270                                                 6
 STAT SP IPHASW D HRMM SECON CODA AMPLIT PERI AZIMU VELO AIN AR TRES W  DIS CAZ7
 BAR2 SZ EP        225 39.71                             171   -0.0010 21.3 187 
 BAR2 SZ ES        225 53.95                             171   -0.6610 21.3 187 
 BAR2 SZ I         225 55.99         7.5 0.18            170           21.3 187 
 BRR  HZ EP        225 41.58                             152    0.2910 70.7 300 
 BRR  HN ES        225 57.95                             152    0.5310 70.7 300 
 BRR  HN I         225 58.96        17.4 0.32            152           70.7 300 
 RUS  HZ EP   1    225 44.19                             143    0.35 7 98.8 175 
 RUS  HN ES   1    226  2.34                             143    0.39 7 98.8 175 
 RUS  HZ I         226  4.39         4.8 0.32            144           98.8 175 
 PTB  HZ EP        225 46.27                             131   -0.81 9  146 259 
 PTB  HN ES        226  7.47                             131   -0.24 9  146 259 
 PTB  HZ I         226  8.83         4.2 0.38            132            146 259 
 SPBC HZ EP        225 48.64                             128    0.07 9  161 219 
 SPBC HN ES   1    226 10.55                             128    0.18 7  161 219 
 SPBC HZ I         226 13.29         7.2 0.26            129            161 219 
 ZAR  HE ES        226 17.82                             121    0.07 9  203 293 
 ZAR  HE I         226 21.71         8.8 0.20            123            203 293 
 NOR  HN ES        226 23.57                             118    0.23 8  232 235 
                                                                                
