 2016 1027 0723 53.6 L   6.786 -73.156139.7  RSN  6 0.3 1.5LRSN                1
 GAP=136        0.82       3.8     4.0  6.7 -0.3919E+01  0.1925E+01  0.5036E+01E
 Epicentro: LOS SANTOS - SANTANDER                                             3
 ACTION:UPD 16-11-09 19:23 OP:rebc STATUS:               ID:20161027072353 L   I
 OLDACT:REG 16-10-27 13:18 OP:cog  STATUS:               ID:20161027071744     3
 2016-10-27-0718-00M.COL___349                                                 6
 STAT SP IPHASW D HRMM SECON CODA AMPLIT PERI AZIMU VELO AIN AR TRES W  DIS CAZ7
 BAR2 EZ EP        724 12.55                             171    0.1210 21.6 188 
 BRR  HZ EP        724 14.14                             151    0.0910 71.0 300 
 BRR  HN ES        724 30.52                             151    0.4910 71.0 300 
 BRR  HZ I         724 34.89         7.9 0.36            151           71.0 300 
 PAM  EZ IP        724 15.34                             149    0.0810 79.3  39 
 PAM  EN ES        724 31.91                             149   -0.2710 79.3  39 
 PAM  EZ I         724 32.74         5.6 0.20            155           79.3  39 
 RUS  HZ EP        724 16.55                             143   -0.0610 99.1 175 
 RUS  HN ES        724 34.44                             143   -0.1610 99.1 175 
 RUS  HZ I         724 36.81         3.6 0.24            146           99.1 175 
 PTB  HZ EP        724 19.40                             131   -0.51 9  146 259 
 PTB  HN ES        724 40.04                             131   -0.43 9  146 259 
 PTB  HZ I         724 45.51         4.0 0.44            132            146 259 
 SPBC HZ EP        724 21.93                             128    0.51 9  161 219 
 SPBC HN ES        724 43.28                             128    0.13 9  161 219 
 SPBC HZ I         724 47.02         4.9 0.26            130            161 219 
                                                                                
