 2013  127 0641 19.6 L   6.786 -73.171146.2  RSN  5 0.4 1.6LRSN                1
 GAP=234        0.98       7.3     7.3  7.0  0.2678E+02  0.6971E+01  0.1030E+02E
 Epicentro: LOS SANTOS - SANTANDER                                             3
 ACTION:UPD 13-02-15 09:17 OP:ep   STATUS:               ID:20130127064119 L   I
 2013-01-27-0638-48M.COL___184                                                 6
 STAT SP IPHASW D HRMM SECON CODA AMPLIT PERI AZIMU VELO AIN AR TRES W  DIS CAZ7
 BAR2 SZ EP        641 39.32                             171    0.0910 21.5 183 
 BAR2 SZ ES        641 54.17                             171   -0.3810 21.5 183 
 BAR2 SZ I         641 55.34         4.6 0.38            172           21.5 183 
 BRR  HZ EP        641 40.40                             153   -0.2910 69.6 301 
 BRR  HE ES        641 57.72                             153    0.5710 69.6 301 
 BRR  HN I         641 58.39        12.6 0.18            153           69.6 301 
 RUS  HZ EP        641 43.68                             144    0.4010 99.3 174 
 RUS  HN ES        642  1.62                             144   -0.1510 99.3 174 
 PTB  HZ EP        641 45.69                             133   -0.63 9  145 259 
 PTB  HE ES        642  7.24                             133    0.07 9  145 259 
 CHI  HZ EP        641 57.47                             117    0.40 8  246 195 
                                                                                
