 2016  927 0403 59.4 L   6.803 -73.153160.9  RSN  4 0.1 1.3LRSN                1
 GAP=280        0.84       5.4     9.0  7.9  0.5999E+01 -0.2925E+02 -0.1255E+00E
 Epicentro: LOS SANTOS - SANTANDER                                             3
 ACTION:UPD 17-08-17 21:16 OP:lp   STATUS:               ID:20160927040359 L   I
 OLDACT:UP  16-09-27 16:21 OP:edw  STATUS:               ID:20160927035745d    3
 OLDACT:DUP 16-09-27 16:18 OP:edw  STATUS:               ID:20160927035745d    3
 OLDACT:UP  16-09-27 16:16 OP:edw  STATUS:               ID:20160927035744     3
 OLDACT:REG 16-09-27 12:46 OP:edw  STATUS:               ID:20160927035744     3
 2016-09-27-0358-00M.COL___360                                                 6
 STAT SP IPHASW D HRMM SECON CODA AMPLIT PERI AZIMU VELO AIN AR TRES W  DIS CAZ7
 BRR  HZ EP        4 4 22.11                             156   -0.0710 70.4 299 
 BRR  HN ES        4 4 40.06                             156    0.1210 70.4 299 
 PTB  HZ EP   9    4 4 28.20                             136    0.60 0  147 259 
 PTB  HN ES        4 4 49.33                                   -0.86 9  147 259 
 PTB  HZ I         4 4 51.00         1.8 0.44            130            147 259 
 SPBC HZ EP        4 4 29.06                             132   -0.04 9  163 219 
 SPBC HN ES        4 4 52.37                             132    0.11 9  163 219 
 SPBC HZ I         4 4 55.24         1.2 0.08            128            163 219 
 ZAR  HZ EP        4 4 32.70                             126   -0.11 9  203 292 
 ZAR  HN ES        4 4 58.82                             126   -0.04 9  203 292 
 ZAR  HZ I         4 5  4.16         2.8 0.28            122            203 292 
                                                                                
