 2016  527 0013  3.0 L   6.760 -73.144145.7  RSN  5 0.3 1.7LRSN                1
 GAP=162        0.82       5.2     4.9  6.5  0.2547E+01 -0.5705E+01  0.1903E+01E
 Epicentro: LOS SANTOS - SANTANDER                                             3
 ACTION:UPD 16-08-18 17:49 OP:cam  STATUS:               ID:20160527001303 L   I
 OLDACT:UP  16-05-27 13:43 OP:mh   STATUS:               ID:20160527000742d    3
 OLDACT:DUP 16-05-27 13:43 OP:mh   STATUS:               ID:20160527000742d    3
 2016-05-27-0007-41M.COL___319                                                 6
 STAT SP IPHASW D HRMM SECON CODA AMPLIT PERI AZIMU VELO AIN AR TRES W  DIS CAZ7
 BAR2 EZ EP        013 22.54                             172   -0.0310 19.0 193 
 BAR2 EZ ES        013 37.22                             172   -0.6010 19.0 193 
 BAR2 EZ I         013 38.23        13.1 0.68            169           19.0 193 
 BRR  HZ EP        013 24.19                             152   -0.1110 73.5 301 
 BRR  HN ES        013 41.32                             152    0.4210 73.5 301 
 BRR  HZ I         013 41.80        17.1 0.42            150           73.5 301 
 RUS  HZ EP        013 26.48                             145    0.0210 96.2 176 
 RUS  HN ES        013 45.14                             145    0.4010 96.2 176 
 RUS  HZ I         013 45.92         3.3 0.24            143           96.2 176 
 TAM  HZ EP        013 30.62                             131    0.03 9  154 103 
 NOR  HN ES        014  5.97                             119   -0.19 8  232 235 
 NOR  HZ I         014 10.69         5.0 0.07            117            232 235 
                                                                                
