 2017  927 0307 56.0 L   6.835 -73.127147.1  RSN 24 0.7 2.3LRSN                1
 GAP= 66        1.57       4.0     4.1  6.8  0.2187E+00  0.8188E+01  0.5307E+01E
 Epicentro: LOS SANTOS - SANTANDER                                             3
 ACTION:UPD 17-10-05 19:16 OP:rebc STATUS:               ID:20170927030756 L   I
 OLDACT:UP  17-09-27 16:09 OP:edw  STATUS:               ID:20170927030737d    3
 OLDACT:UP  17-09-27 15:59 OP:edw  STATUS:               ID:20170927030737d    3
 OLDACT:DUP 17-09-27 15:55 OP:edw  STATUS:               ID:20170927030737d    3
 2017-09-27-0308-00M.COL___447                                                 6
 STAT SP IPHASW D HRMM SECON CODA AMPLIT PERI AZIMU VELO AIN AR TRES W  DIS CAZ7
 BAR2 EZ EP     C  3 8 15.64                             169   -0.2010 27.5 193 
 BAR2 EZ ES        3 8 30.75                             169   -0.6010 27.5 193 
 BAR2 EZ I         3 8 32.10        67.7 0.18            165           27.5 193 
 BRR  HZ EP     C  3 8 17.49                             153    0.2410 71.3 295 
 BRR  HN ES        3 8 34.25                             153    0.3810 71.3 295 
 BRR  HZ I         3 8 35.56        35.0 0.14            151           71.3 295 
 PAM  EZ EP        3 8 18.42                             152    0.3610 73.1  40 
 PAM  EN ES        3 8 35.63                             152    0.3210 73.1  40 
 PAM  EZ I         3 8 38.00        22.9 0.48            158           73.1  40 
 RUS  HZ EP        3 8 19.72                             143   -0.3910  104 177 
 RUS  HN ES        3 8 37.72                             143   -1.2310  104 177 
 RUS  HZ I         3 8 39.65        19.1 0.28            142            104 177 
 TAM  HZ EP        3 8 24.03                             131    0.38 9  154 107 
 TAM  HN ES        3 8 45.65                             131    0.40 9  154 107 
 YPLC HZ EP     C  3 8 26.10                             126    0.02 9  179 153 
 YPLC HN ES        3 8 49.63                             126    0.05 9  179 153 
 YPLC HZ I         3 8 50.94        19.5 0.28            127            179 153 
 ZAR  HZ EP        3 8 29.43                             122    0.89 9  205 291 
 ZAR  HN ES        3 8 54.19                             122    0.24 9  205 291 
 ZAR  HZ I         3 8 59.84        18.1 0.36            122            205 291 
 TABC EZ EP        3 8 33.62                             119    1.37 8  234 211 
 TABC EZ ES        3 9  1.50                             119    0.94 8  234 211 
 TABC EZ I         3 9  7.34        23.7 0.60            118            234 211 
 NOR  HZ EP        3 8 32.07                             118   -0.11 8  239 234 
 NOR  HN ES        3 8 59.61                             118   -0.83 8  239 234 
 NOR  HZ I         3 9  4.74        20.3 0.22            118            239 234 
 CHI  HZ EP        3 8 33.93                             117   -0.26 8  253 195 
 CHI  HN ES        3 9  3.16                             117   -0.85 8  253 195 
 CHI  HZ I         3 9 10.31        12.2 0.50            117            253 195 
 ROSC BZ EP        3 8 35.77                             116    1.15 8  257 211 
 ROSC BN ES        3 9  6.62                             116    1.83 8  257 211 
 ROSC BZ I         3 9 12.31        18.0 0.35            116            257 211 
 HEL  HZ EP        3 8 36.94                             115    0.38 8  275 255 
 HEL  HN ES        3 9  7.84                             115   -0.40 8  275 255 
 HEL  HZ I         3 9 15.47         6.7 0.52            114            275 255 
 URE  HZ EP        3 8 36.29                             114   -0.85 7  284 291 
 URE  HN ES   4    3 9  7.03                             114   -2.24 0  284 291 
 GUY2CHZ EP   4    3 8 41.24                             112    1.17 0  305 234 
 GUY2CHN ES   4    3 9 13.16                             112   -1.31 0  305 234 
 GUY2CHZ I         3 9 22.27        10.7 0.58                           305 234 
 VIL  EZ EP        3 8 39.38                             112   -0.53 7  308 192 
 VIL  EN ES        3 9 14.49                             112    0.30 7  308 192 
 PTGC HZ IP     D  3 8 38.95                             112   -1.24 7  312 159 
 PTGC HN ES   4    3 9 11.95                             112   -2.75 0  312 159 
 PTGC HZ I         3 9 20.76         8.6 0.42            112            312 159 
 LL6C HZ EP        3 8 41.25                             111   -0.03 7  321 357 
 LL6C HN ES   4    3 9 14.30                             111   -2.33 0  321 357 
 ELA  HZ EP   4    3 8 45.37                             110    2.04 0  333 229 
 ELA  HN ES   4    3 9 22.20                             110    1.92 0  333 229 
 ELA  HZ I         3 9 27.56         8.6 0.50            110            333 229 
 CBOC HZ EP   4    3 8 43.82                             110    0.54 0  337 252 
 CBOC HN ES        3 9 19.64                             110   -0.57 7  337 252 
 CBOC HZ I         3 9 29.04         3.9 0.62            110            337 252 
 ARGC HZ EP   4    3 8 46.52                             108    1.20 0  356 340 
 ANIL HZ EP        3 8 44.94                             108   -1.35 6  362 224 
 ANIL HN ES        3 9 26.04                             108    0.48 6  362 224 
 ANIL HZ I         3 9 32.82        23.2 0.24            108            362 224 
 PRA  HZ EP        3 8 49.45                             106   -0.58 6  396 210 
 PRA  HN ES        3 9 32.34                             106    0.13 6  396 210 
 PRA  HZ I         3 9 38.66        12.0 0.52            107            396 210 
 ORTC HZ EP        3 8 50.09                             106   -0.33 6  400 216 
 ORTC HN ES   4    3 9 33.65                             106    0.74 0  400 216 
 ORTC HZ I         3 9 40.85         7.4 0.68            106            400 216 
 SJC  HZ EP        3 8 50.03                             106   -1.28 6  407 326 
 SJC  HN ES   4    3 9 30.88                             106   -3.61 0  407 326 
 SJC  HZ I         3 9 35.39         3.4 0.52            107            407 326 
 PAL  HZ EP        3 8 51.62                             106    0.02 6  409 239 
 PAL  HN ES   4    3 9 33.14                             106   -1.86 0  409 239 
 PAL  HZ I         3 9 45.12         3.3 0.24            106            409 239 
                                                                                
