 2013 1227 0034 27.9 L   6.783 -73.175145.1  RSN  7 0.4 1.7LRSN                1
 GAP=134        0.93       4.9     5.2  6.6 -0.1594E+00  0.1125E+02  0.1315E+01E
 Epicentro: LOS SANTOS - SANTANDER                                             3
 ACTION:UPD 14-01-13 10:21 OP:ep   STATUS:               ID:20131227003427 L   I
 OLDACT:REG 13-12-27 07:38 OP:mh   STATUS:               ID:20131227003000     3
 2013-12-27-0030-00M.COL___285                                                 6
 STAT SP IPHASW D HRMM SECON CODA AMPLIT PERI AZIMU VELO AIN AR TRES W  DIS CAZ7
 BAR2 SZ EP   1    034 47.54                             171    0.12 7 21.2 182 
 BAR2 SZ ES        035  2.28                             171   -0.3610 21.2 182 
 BAR2 SZ I         035  3.68        25.7 0.20            170           21.2 182 
 BRR  HZ EP        034 49.23                             153    0.3410 69.3 301 
 BRR  HN ES        035  5.99                             153    0.7410 69.3 301 
 BRR  HZ I         035  7.29         7.1 0.16            150           69.3 301 
 PAM  SZ EP   1    034 50.40                             150    0.13 7 80.9  40 
 PAM  SZ I         034 50.80        12.2 0.19            153           80.9  40 
 PAM  SN ES   1    035  6.98                             150   -0.73 7 80.9  40 
 RUS  HZ EP   1    034 51.49                             144    0.00 7 99.0 174 
 RUS  HN ES        035 10.04                             144    0.1610 99.0 174 
 RUS  HZ I         035 11.12         4.5 0.21            146           99.0 174 
 PTB  HZ EP   1    034 54.14                             133   -0.37 7  144 259 
 PTB  HN ES   1    035 14.73                             133   -0.52 7  144 259 
 PTB  HZ I         035 16.91         4.8 0.24            131            144 259 
 ZAR  HZ EP   1    035  0.35                             122    0.27 6  202 293 
 ZAR  HN ES   2    035 24.31                             122   -0.86 4  202 293 
 ZAR  HZ I         035 32.12         7.6 0.32            122            202 293 
 NOR  HZ EP        035  2.86                             119   -0.35 8  231 234 
 NOR  HN ES   1    035 31.01                             119    0.27 6  231 234 
 NOR  HZ I         035 35.81         3.0 0.20            119            231 234 
                                                                                
