 2012 1027 0453 41.0 L   6.286 -73.263170.8  RSN  6 0.3 1.8LRSN                1
 GAP=141        0.63       6.3     8.7  8.2  0.3271E+02  0.1300E+02  0.2555E+01E
 Epicentro: OIBA - SANTANDER                                                   3
 ACTION:UPD 12-11-22 17:06 OP:ep   STATUS:               ID:20121027045341 L   I
 2012-10-27-0450-00M.COL___228                                                 6
 STAT SP IPHASW D HRMM SECON CODA AMPLIT PERI AZIMU VELO AIN AR TRES W  DIS CAZ7
 BAR2 SZ EP   1    454  3.46                             168   -0.40 7 35.0  15 
 RUS  HZ EP   1    454  4.76                             164    0.14 7 47.8 155 
 RUS  HN ES   1    454 22.87                             164   -0.20 7 47.8 155 
 RUS  HN I         454 23.16         8.6 0.20                          47.8 155 
 GIR2 SZ EP   1    454  5.89                             151   -0.09 7 88.1   5 
 BRR  HZ EP   1    454  7.04                             147    0.30 7  104 331 
 BRR  HN ES   2    454 27.62                             147    0.78 5  104 331 
 BRR  HN I         454 28.35        10.0 0.16                           104 331 
 CHI  HZ EP   1    454 14.61                             130    0.22 7  190 196 
 ZAR  HE ES   1    454 44.43                             125   -0.38 6  221 307 
                                                                                
