 2012  327 0407 28.7 L   6.813 -73.155142.9  RSN  5 0.4 1.3LRSN                1
 GAP=135        0.79       6.6     7.5  8.0 -0.7281E+01  0.1260E+02  0.4222E+00E
 ACTION:UP  12-03-31 23:23 OP:EP   STATUS:               ID:20120327040728 L   I
 2012-03-27-0400-00M.COL___196                                                 6
 STAT SP IPHASW D HRMM SECON CODA AMPLIT PERI AZIMU VELO SNR AR TRES W  DIS CAZ7
 BAR2 SZ EP   3    4 7 47.49                             170    -0.6 2   25 187 
 BAR2 SZ ES   1    4 8  2.91                             170    -0.2 7   25 187 
 BAR2 SZ I         4 8  5.67         7.1 0.38                            25 187 
 BRR  HZ EP   2    4 7 49.81                             153     0.3 5   70 298 
 BRR  HN ES   2    4 8  6.54                             153     0.9 5   70 298 
 PAM  SZ EP        4 7 50.67                             150     0.110   77  41 
 PAM  SN ES   2    4 8  7.15                             150    -0.5 5   77  41 
 RUS  HZ EP        4 7 52.61                             143     0.310  102 176 
 RUS  HE ES   2    4 8 10.49                             143    -0.2 5  102 176 
 RUS  HZ I         4 8 12.28         3.2 0.46                           102 176 
 PTB  HZ EP        4 7 55.02                             131    -0.4 9  147 258 
 PTB  HZ I         4 8 17.80         1.4 0.26                           147 258 
                                                                                
