 2017  327 0318 12.6 L   6.809 -73.107146.2  RSN  9 0.5 1.5LRSN                1
 GAP=141        0.99       4.3     4.1  6.1 -0.1580E+01  0.4952E+01  0.1905E+01E
 Epicentro: LOS SANTOS - SANTANDER                                             3
 ACTION:UPD 17-05-25 18:45 OP:jn   STATUS:               ID:20170327031812 L   I
 OLDACT:UP  17-03-27 15:54 OP:and  STATUS:               ID:20170327030741d    3
 OLDACT:UP  17-03-27 15:54 OP:and  STATUS:               ID:20170327030741d    3
 OLDACT:UP  17-03-27 15:52 OP:and  STATUS:               ID:20170327030741d    3
 OLDACT:UP  17-03-27 15:52 OP:and  STATUS:               ID:20170327030741d    3
 OLDACT:DUP 17-03-27 15:43 OP:and  STATUS:               ID:20170327030741d    3
 OLDACT:UP  17-03-27 15:35 OP:and  STATUS:               ID:20170327030740     3
 OLDACT:UP  17-03-27 15:34 OP:and  STATUS:               ID:20170327030740     3
 OLDACT:UP  17-03-27 15:25 OP:and  STATUS:               ID:20170327030740     3
 OLDACT:UP  17-03-27 15:24 OP:and  STATUS:               ID:20170327030740     3
 OLDACT:UP  17-03-27 15:24 OP:and  STATUS:               ID:20170327030740     3
 OLDACT:UP  17-03-27 15:19 OP:and  STATUS:               ID:20170327030740     3
 OLDACT:UP  17-03-27 15:18 OP:and  STATUS:               ID:20170327030740     3
 OLDACT:UP  17-03-27 15:18 OP:and  STATUS:               ID:20170327030740     3
 OLDACT:UP  17-03-27 15:17 OP:and  STATUS:               ID:20170327030740     3
 OLDACT:UP  17-03-27 15:17 OP:and  STATUS:               ID:20170327030740     3
 OLDACT:UP  17-03-27 15:17 OP:and  STATUS:               ID:20170327030740     3
 OLDACT:UP  17-03-27 15:16 OP:and  STATUS:               ID:20170327030740     3
 OLDACT:UP  17-03-27 15:16 OP:and  STATUS:               ID:20170327030740     3
 OLDACT:UP  17-03-27 15:16 OP:and  STATUS:               ID:20170327030740     3
 OLDACT:UP  17-03-27 15:15 OP:and  STATUS:               ID:20170327030740     3
 OLDACT:UP  17-03-27 15:15 OP:and  STATUS:               ID:20170327030740     3
 OLDACT:UP  17-03-27 15:15 OP:and  STATUS:               ID:20170327030740     3
 OLDACT:UP  17-03-27 15:14 OP:and  STATUS:               ID:20170327030740     3
 OLDACT:UP  17-03-27 15:14 OP:and  STATUS:               ID:20170327030740     3
 OLDACT:UP  17-03-27 15:11 OP:and  STATUS:               ID:20170327030740     3
 OLDACT:REG 17-03-27 12:52 OP:and  STATUS:               ID:20170327030740     3
 2017-03-27-0308-00M.COL___355                                                 6
 STAT SP IPHASW D HRMM SECON CODA AMPLIT PERI AZIMU VELO AIN AR TRES W  DIS CAZ7
 BAR2 EZ EP        318 31.54                             170   -0.7310 25.3 199 
 BAR2 EZ ES        318 47.66                             170    0.0110 25.3 199 
 BAR2 EZ I         318 48.35         7.8 0.54            168           25.3 199 
 PAM  EZ EP        318 34.89                             152    0.2810 74.0  37 
 PAM  EN ES        318 51.80                             152   -0.0210 74.0  37 
 PAM  EZ I         318 53.53         5.3 0.36            155           74.0  37 
 BRR  HZ EP        318 34.04                             152    0.1110 74.5 296 
 BRR  HN ES        318 51.08                             152    0.4710 74.5 296 
 BRR  HZ I         318 55.46         5.2 0.14            150           74.5 296 
 RUS  HZ EP        318 36.27                             144   -0.1310  101 178 
 RUS  HN ES        318 55.29                             144    0.2910  101 178 
 RUS  HZ I         318 56.70         4.7 0.28            144            101 178 
 PTB  HZ EP   9    318 39.09                             132   -0.86 0  152 259 
 PTB  HN ES        319  0.28                             132   -0.18 9  152 259 
 PTB  HZ I         319  2.70         5.0 0.10            130            152 259 
 SPBC HZ EP        318 41.31                             129   -0.10 9  167 220 
 SPBC HN ES        319  4.08                             129    0.16 9  167 220 
 SPBC HZ I         319  8.90         4.6 0.10            128            167 220 
 ZAR  HZ EP   2    318 46.75                             122    1.36 4  208 291 
 ZAR  HN ES        319 10.41                             122   -0.59 8  208 291 
 ZAR  HZ I         319 12.97         4.0 0.10            122            208 291 
 HEL  HN ES        319 24.37                             115   -0.65 7  276 256 
 URE  HN ES   4    319 23.44                             114   -2.96 0  287 291 
 CBOC HZ EP   2    319  1.44                             110    1.46 3  338 252 
 CBOC HN ES   2    319 37.47                             110    0.50 3  338 252 
 CBOC HZ I         319 48.45         0.7 0.30            110            338 252 
                                                                                
