 2013 1227 0034 55.4 L   6.801 -73.111145.8  RSN  7 0.4 1.8LRSN                1
 GAP=141        0.96       5.4     4.5  8.9 -0.1249E+01  0.1019E+02  0.5812E+01E
 Epicentro: LOS SANTOS - SANTANDER                                             3
 ACTION:UPD 14-01-13 10:21 OP:ep   STATUS:               ID:20131227003455 L   I
 OLDACT:UP  13-12-27 08:10 OP:mh   STATUS:               ID:20131227003001d    3
 OLDACT:DUP 13-12-27 08:06 OP:mh   STATUS:               ID:20131227003001d    3
 OLDACT:REG 13-12-27 07:38 OP:mh   STATUS:               ID:20131227003000     3
 2013-12-27-0030-00M.COL___285                                                 6
 STAT SP IPHASW D HRMM SECON CODA AMPLIT PERI AZIMU VELO AIN AR TRES W  DIS CAZ7
 BAR2 SZ EP   1    035 14.01                             170   -1.03 7 24.4 199 
 BAR2 SZ ES   1    035 30.65                             170    0.28 7 24.4 199 
 BAR2 SZ I         035 31.82        14.8 0.18            171           24.4 199 
 BRR  HZ EP        035 17.42                             151    0.6910 74.6 297 
 BRR  HN ES        035 33.21                             151   -0.1710 74.6 297 
 BRR  HZ I         035 37.56         9.4 0.26            150           74.6 297 
 PAM  SZ EP   1    035 17.09                             151   -0.36 7 74.9  37 
 PAM  SN ES        035 34.80                             151    0.1310 74.9  37 
 PAM  SZ I         035 37.36         9.2 0.44            153           74.9  37 
 RUS  HZ EP   1    035 19.40                             144    0.27 7  101 178 
 RUS  HN ES   1    035 37.59                             144   -0.07 7  101 178 
 RUS  HZ I         035 39.45         4.6 0.35            148            101 178 
 PTB  HN ES        035 43.77                             131   -0.24 9  152 259 
 PTB  HZ I         035 46.59         7.1 0.12            132            152 259 
 ZAR  HN ES        035 53.72                             122   -0.07 8  208 292 
 ZAR  HZ I         036  0.14        10.5 0.24            123            208 292 
 NOR  HN ES   1    035 59.93                             118    0.33 6  238 235 
                                                                                
