 2013  127 0655 24.1 L   6.801 -73.161146.0  RSN 11 0.5 2.4LRSN 3.0WRSN        1
 SPEC AVERAGE  MO 13.6 ST  3.8 OM  2.3 f0 3.57 R0.4264 AL 2.32 WI 16.7 MW  3.0 3
 SPEC SD       MO  0.3 ST  3.4 OM  0.5 f00.647 R0.0798 AL      WI      MW  0.2 3
 GAP= 70        1.14       3.5     3.5  5.8  0.6014E+00  0.1753E+01  0.8292E+00E
 Epicentro: LOS SANTOS - SANTANDER                                             3
 SPEC RUS HH N MO 13.1 ST  1.2 OM  1.5 f0 4.08 R0.3603 AL 2.10 WI 12.4 MW  2.7 3
 SPEC RUS HH N T 656 5 K 0.000 GD  177 VS 4.20 DE 3.00 Q0230.0 QA 0.60 VS 4.20 3
 SPEC OCA HH N MO 14.0 ST  6.9 OM  2.3 f0 3.67 R0.4005 AL 2.29 WI 22.4 MW  3.3 3
 SPEC OCA HH N T 65613 K 0.000 GD  216 VS 4.20 DE 3.00 Q0230.0 QA 0.60 VS 4.20 3
 SPEC CHI HH N MO 13.6 ST  1.2 OM  1.8 f0 2.73 R0.5385 AL 2.48 WI 16.5 MW  3.0 3
 SPEC CHI HH N T 65630 K 0.000 GD  287 VS 4.20 DE 3.00 Q0230.0 QA 0.60 VS 4.20 3
 SPEC BRR HH N MO 13.9 ST  9.0 OM  2.3 f0 4.42 R0.3326 AL 3.32 WI 19.1 MW  3.2 3
 SPEC BRR HH N T 656 1 K 0.000 GD  161 VS 4.20 DE 3.00 Q0230.0 QA 0.60 VS 4.20 3
 SPEC BAR2SH Z MO 13.3 ST0.764 OM  1.8 f0 2.94 R0.5000 AL 1.42 WI 13.0 MW  2.8 3
 SPEC BAR2SH Z T 65558 K 0.000 GD  147 VS 4.20 DE 3.00 Q0230.0 QA 0.60 VS 4.20 3
 ACTION:UPD 13-02-15 09:17 OP:ep   STATUS:               ID:20130127065524 L   I
 2013-01-27-0648-41M.COL___185                                                 6
 STAT SP IPHASW D HRMM SECON CODA AMPLIT PERI AZIMU VELO AIN AR TRES W  DIS CAZ7
 BAR2 SZ EP        655 43.87                             171    0.1410 23.2 186 
 BAR2 SZ ES        655 58.56                             171   -0.5010 23.2 186 
 BAR2 SZ I         656  0.44        67.3 0.18            167           23.2 186 
 BRR  HZ EP        655 45.59                             153    0.4310 69.7 299 
 BRR  HZ I         655 45.82        42.8 0.12            144           69.7 299 
 BRR  HE ES        656  2.76                             153    1.1510 69.7 299 
 PAM  SZ EP        655 46.53                             151    0.1610 78.3  41 
 PAM  SN ES        656  3.60                             151   -0.1610 78.3  41 
 PAM  SN I         656  5.18        16.3 0.36            149           78.3  41 
 RUS  HZ EP        655 47.88                             144    0.0110  101 175 
 RUS  HN ES        656  6.59                             144    0.1610  101 175 
 RUS  HN I         656  8.15        38.2 0.40            140            101 175 
 PTB  HZ EP        655 50.29                             132   -0.63 9  146 259 
 PTB  HN ES        656 11.22                             132   -0.63 9  146 259 
 PTB  HN I         656 16.91        36.1 0.68            124            146 259 
 TAM  HZ EP        655 52.21                             130    0.28 9  157 105 
 TAM  HZ I         655 52.36        15.8 0.34            128            157 105 
 TAM  HN ES        656 13.24                             130   -0.41 9  157 105 
 OCA  HE EP        655 52.51                             130    0.14 9  160 354 
 OCA  HN ES        656 14.36                             130   -0.08 9  160 354 
 OCA  HN I         656 22.67        59.3 0.24            124            160 354 
 ZAR  HZ EP        655 56.32                             123   -0.05 9  202 292 
 ZAR  HN ES        656 20.91                             123   -0.65 9  202 292 
 ZAR  HN I         656 27.18        39.4 0.18            116            202 292 
 CHI  HZ EP        656  1.94                             117    0.18 8  248 195 
 CHI  HN ES        656 31.26                             117    0.12 8  248 195 
 CHI  HN I         656 33.86        22.4 0.50            112            248 195 
 HEL  HZ EP        656  4.71                             115    0.58 8  270 256 
 HEL  HN I         656 44.93         7.0 0.22            109            270 256 
 SDV  BZ EP        656 13.66                             108   -0.60 6  362  50 
                                                                                
