 2011 1227 0102  4.7 L   6.823 -73.149145.7  RSN 12 0.4 2.4LRSN                1
 GAP=135        0.72       3.1     3.5  4.7 -0.1045E+01  0.4161E+01  0.2555E+01E
 Epicentro: LOS SANTOS - SANTANDER                                             3
 ACTION:UPD 12-07-13 16:18 OP:ep   STATUS:               ID:20111227010204 L   I
 2011-12-27-0100-00M.COL___187                                                 6
 STAT SP IPHASW D HRMM SECON CODA AMPLIT PERI AZIMU VELO AIN AR TRES W  DIS CAZ7
 BAR2 SZ EP        1 2 24.38                             169    0.0410 25.8 188 
 BAR2 SZ I         1 2 24.86        43.8 0.20                          25.8 188 
 BAR2 SZ ES   1    1 2 39.29                             169   -0.40 7 25.8 188 
 GIR2 SZ EP   1    1 2 24.26                             168   -0.01 7 28.7 350 
 GIR2 SZ ES   1    1 2 39.51                             168   -0.04 7 28.7 350 
 BRR  HZ IP     D  1 2 26.06                             153    0.3410 69.7 297 
 BRR  HZ I         1 2 27.76        68.4 0.12                          69.7 297 
 BRR  HN ES   1    1 2 42.97                             153    0.82 7 69.7 297 
 PAM  SZ EP        1 2 26.98                             151    0.2110 75.7  41 
 PAM  SE ES   1    1 2 43.79                             151   -0.23 7 75.7  41 
 PAM  SZ I         1 2 45.83        55.8 0.34                          75.7  41 
 RUS  HZ EP   1    1 2 28.52                             143   -0.08 7  103 176 
 RUS  HE ES   1    1 2 47.24                             143   -0.03 7  103 176 
 RUS  HZ I         1 2 48.92        17.5 0.26                           103 176 
 PTB  HZ EP   1    1 2 31.03                             132   -0.61 7  148 258 
 PTB  HN ES   1    1 2 52.63                             132   -0.06 7  148 258 
 OCA  SZ EP   1    1 2 32.33                             130   -0.40 7  158 353 
 OCA  SZ ES   1    1 2 54.30                             130   -0.32 7  158 353 
 OCA  SZ I         1 2 56.00        26.2 0.39                           158 353 
 ZAR  HZ EP   1    1 2 37.08                             123    0.11 6  203 292 
 ZAR  HN ES   1    1 3  2.19                             123    0.02 6  203 292 
 ZAR  HZ I         1 3  7.81        46.9 0.32                           203 292 
 NOR  SZ EP   1    1 2 40.01                             118   -0.51 6  236 234 
 CHI  HZ EP   1    1 2 43.33                             117    0.71 6  251 195 
 CHI  HZ I         1 3 20.52        11.9 0.49                           251 195 
 HEL  HN ES   1    1 3 16.05                             115   -0.24 6  272 255 
 HEL  HZ I         1 3 23.20        11.8 0.53                           272 255 
 PRA  HZ EP   1    1 2 59.13                             106    0.71 4  394 209 
 PRA  HN ES   1    1 3 39.86                             106   -0.50 4  394 209 
                                                                                
