 2017  327 0851 14.3 L   6.730 -73.092143.8  RSN  4 0.1 1.0LRSN                1
 GAP=181        0.37       4.9     2.6  4.1 -0.6506E+01 -0.3071E+01  0.7628E+01E
 Epicentro: JORDAN - SANTANDER                                                 3
 ACTION:UPD 17-05-25 18:45 OP:jn   STATUS:               ID:20170327085114 L   I
 OLDACT:DUP 17-03-27 17:18 OP:ar   STATUS:               ID:20170327083924d    3
 OLDACT:REG 17-03-27 13:29 OP:and  STATUS:               ID:20170327083922     3
 2017-03-27-0848-00M.COL___348                                                 6
 STAT SP IPHASW D HRMM SECON CODA AMPLIT PERI AZIMU VELO AIN AR TRES W  DIS CAZ7
 BAR2 EZ EP        851 33.54                             172   -0.1110 18.2 213 
 BAR2 EZ ES   2    851 48.95                             172    0.24 5 18.2 213 
 PAM  EZ EP        851 36.51                             149   -0.0110 80.1  33 
 PAM  EN ES   2    851 53.64                             149   -0.18 5 80.1  33 
 PAM  EZ I         851 59.58         1.8 0.20            147           80.1  33 
 BRR  HZ EP        851 35.88                             149    0.0610 80.2 301 
 BRR  HN ES        851 52.62                             149    0.0410 80.2 301 
 PTB  HZ EP        851 41.74                             130    0.16 9  152 262 
 PTB  HN ES        852  2.66                             130   -0.16 9  152 262 
 PTB  HZ I         852  4.16         1.1 0.12            134            152 262 
                                                                                
