 2016 1227 0137 15.9 L   6.795 -73.157149.4  RSN  7 0.3 1.3LRSN                1
 GAP=135        0.72       3.4     4.1  5.0  0.2438E+01 -0.3275E+00  0.2007E+01E
 Epicentro: LOS SANTOS - SANTANDER                                             3
 ACTION:UPD 17-01-11 20:19 OP:rebc STATUS:               ID:20161227013715 L   I
 OLDACT:UP  16-12-27 14:46 OP:edw  STATUS:               ID:20161227012740     3
 OLDACT:REG 16-12-27 12:51 OP:edw  STATUS:               ID:20161227012740     3
 2016-12-27-0128-00M.COL___372                                                 6
 STAT SP IPHASW D HRMM SECON CODA AMPLIT PERI AZIMU VELO AIN AR TRES W  DIS CAZ7
 BAR2 EZ EP        137 35.98                             171   -0.0010 22.6 187 
 BAR2 EZ ES        137 51.40                             171   -0.2210 22.6 187 
 BAR2 EZ I         137 51.97         4.0 0.14            170           22.6 187 
 BRR  HZ EP        137 37.69                             153    0.2610 70.4 299 
 BRR  HE ES        137 54.62                             153    0.4310 70.4 299 
 BRR  HZ I         137 56.92         4.8 0.20            153           70.4 299 
 PAM  EZ EP        137 38.63                             151    0.0310 78.6  40 
 RUS  HZ EP        137 39.88                             145   -0.1310  100 175 
 RUS  HN ES        137 58.67                             145   -0.1210  100 175 
 RUS  HZ I         137 59.29         2.2 0.20            145            100 175 
 PTB  HZ EP        137 42.65                             133   -0.43 9  146 259 
 PTB  HN ES        138  3.90                             133   -0.35 9  146 259 
 PTB  HZ I         138  5.32         1.7 0.42            133            146 259 
 ZAR  HN ES   2    138 14.13                             123    0.19 4  203 292 
 CHI  HZ EP        137 53.83                             118    0.09 8  248 195 
 CHI  HN ES        138 23.80                             118    0.57 8  248 195 
 CHI  HZ I         138 26.64         1.3 0.50            118            248 195 
                                                                                
