 2010  827 0855 19.9 L   6.785 -73.068141.3  RSN  7 0.2 1.6LRSN                1
 GAP=167        0.57       3.0     5.8  4.8 -0.2557E+01 -0.1121E+01 -0.2066E+01E
 Epicentro: LOS SANTOS - SANTANDER                                             3
 ACTION:UP  10-09-07 10:58 OP:vdl  STATUS:               ID:20100827085519 L   I
 2010-08-27-0853-25S.COL___120                                                 6
 STAT SP IPHASW D HRMM SECON CODA AMPLIT PERI AZIMU VELO SNR AR TRES W  DIS CAZ7
 BAR2 SZ IP        855 38.97                             170    -0.110   25 211 
 BAR2 SZ I         855 39.27         9.2 0.10                            25 211 
 BAR2 SZ ES   1    855 53.84                             170    -0.1 7   25 211 
 BRR  HZ IP     C  855 40.81                             149    -0.310   80 297 
 BRR  HZ I         855 41.15        21.3 0.10                            80 297 
 BRR  HN ES   1    855 57.84                             149     0.2 7   80 297 
 RUS  HZ EP   1    855 43.20                             143     0.1 7   99 181 
 RUS  HE ES   1    856  1.18                             143     0.0 7   99 181 
 RUS  HZ I         856  2.96         3.3 0.36                            99 181 
 GRA  SZ IP        855 44.86                             136     0.210  125  13 
 GRA  SZ ES   1    856  4.21                             136     0.2 7  125  13 
 GRA  SZ I         856  5.28         5.9 0.39                           125  13 
 OCA  SZ EP   1    855 47.87                             128    -0.3 7  163 350 
 OCA  SZ I         856 10.53         5.3 0.21                           163 350 
 HEL  HZ EP   2    856  1.41                             113     0.6 4  280 257 
 HEL  HZ I         856 37.42         2.1 0.37                           280 257 
 PRA  HZ EP   1    856 13.78                             106     0.2 4  395 211 
 PRA  HZ I         856 59.91         1.2 0.52                           395 211 
                                                                                
