 2011  327 0850 16.7 L   6.789 -73.110138.7  RSN  8 0.5 1.8LRSN                1
 GAP=185        1.30       7.6    12.1 11.4 -0.5235E+02  0.4474E+01 -0.2004E+00E
 Epicentro: LOS SANTOS - SANTANDER                                             3
 ACTION:UP  11-06-16 14:35 OP:jfem STATUS:               ID:20110327085016 L   I
 2011-03-27-0848-54S.COL___138                                                 6
 STAT SP IPHASW D HRMM SECON CODA AMPLIT PERI AZIMU VELO SNR AR TRES W  DIS CAZ7
 BTL  SZ EP   1    850 35.33                             170    -0.1 7   23 309 
 BAR2 SZ EP        850 35.26                             170    -0.210   23 201 
 BAR2 SZ ES   1    850 49.79                             170    -0.3 7   23 201 
 BAR2 SZ I         850 51.31        15.5 0.25                            23 201 
 BRR  HZ EP        850 36.98                             150    -0.310   75 298 
 BRR  HE ES   1    850 53.80                             150     0.4 7   75 298 
 BRR  HZ I         850 54.66        18.4 0.08                            75 298 
 GRA  SZ EP        850 42.02                             135     0.710  126  16 
 GRA  SZ ES   1    851  1.24                             135     0.7 7  126  16 
 GRA  SZ I         851  2.70         5.8 0.36                           126  16 
 OCA  SZ EP        850 43.81                             128    -0.8 9  162 352 
 OCA  SZ ES   1    851  5.84                             128    -0.6 7  162 352 
 OCA  SZ I         851  8.70         8.6 0.13                           162 352 
 NOR  SN ES   1    851 20.49                             117     0.4 6  237 235 
 HEL  HZ EP   2    850 58.05                             113     1.1 4  276 256 
 HEL  HZ I         851 33.58         3.0 0.24                           276 256 
 PRA  HN ES   1    851 51.67                             105     0.0 4  393 210 
                                                                                
