 2010  627 0709 21.8 L   6.798 -73.104141.5  RSN 11 0.3 1.8LRSN                1
 GAP=160        0.57       2.5     5.6  4.6 -0.6975E+01  0.2022E+01 -0.3260E+00E
 Epicentro: LOS SANTOS - SANTANDER                                             3
 ACTION:UP  10-08-24 10:13 OP:vdl  STATUS:               ID:20100627070921 L   I
 2010-06-27-0707-48S.COL___118                                                 6
 STAT SP IPHASW D HRMM SECON CODA AMPLIT PERI AZIMU VELO SNR AR TRES W  DIS CAZ7
 BAR2 SZ IP        7 9 41.07                             170     0.110   24 201 
 BAR2 SZ ES   1    7 9 55.79                             170    -0.1 7   24 201 
 BRR  HZ EP        7 9 42.82                             150     0.110   75 297 
 BRR  HN ES   2    7 9 58.89                             150    -0.2 5   75 297 
 BRR  HZ I         710 12.01        17.9 0.47                            75 297 
 RUS  HZ EP        7 9 44.96                             143    -0.210  100 179 
 RUS  HN ES   2    710  3.14                             143    -0.1 5  100 179 
 RUS  HZ I         710  5.26         5.5 0.27                           100 179 
 BRI  SZ IP        7 9 45.53                             141     0.310  107  18 
 BRI  SZ ES   2    710  3.81                             141     0.4 5  107  18 
 BRI  SZ I         710  7.07         8.4 0.16                           107  18 
 GUE  SZ EP        7 9 46.00                             139    -0.110  116  10 
 GRA  SZ IP        7 9 46.75                             136     0.210  125  15 
 GRA  SZ ES   2    710  5.89                             136     0.0 5  125  15 
 OCA  SZ EP        7 9 49.37                             129    -0.5 9  161 352 
 OCA  SZ ES   2    710 11.62                             129    -0.1 5  161 352 
 OCA  SZ I         710 15.31        14.6 0.12                           161 352 
 CHI  HZ EP   2    7 9 59.24                             116    -0.1 4  250 196 
 CHI  HE ES   2    710 28.44                             116    -0.3 4  250 196 
 CHI  HZ I         710 34.88         2.8 0.69                           250 196 
 ROSC BZ EP   3    710  0.34                             116     0.4 2  255 212 
 ROSC BN ES   2    710 30.45                             116     0.8 4  255 212 
 ROSC BZ I         710 37.60         6.0 0.53                           255 212 
 RREF HZ EP   2    710  8.19                             110     0.0 3  325 230 
 RREF HN ES   2    710 44.88                             110     0.6 3  325 230 
 RREF HZ I         710 52.84         3.7 0.37                           325 230 
 PRA  HZ EP   1    710 15.20                             106    -0.2 4  394 210 
 PRA  HE ES   2    710 57.11                             106    -0.1 3  394 210 
 PRA  HZ I         711  2.75         2.4 0.47                           394 210 
                                                                                
