 2017  127 0721 31.4 L   6.759 -73.140147.1  RSN  8 0.4 1.6LRSN                1
 GAP= 96        1.03       4.5     3.5  6.4  0.4181E+01 -0.2128E+00  0.6358E+01E
 Epicentro: LOS SANTOS - SANTANDER                                             3
 ACTION:UPD 17-05-22 16:03 OP:jn   STATUS:               ID:20170127072131 L   I
 OLDACT:REG 17-01-27 12:49 OP:lv   STATUS:               ID:20170127071740     3
 2017-01-27-0718-00M.COL___316                                                 6
 STAT SP IPHASW D HRMM SECON CODA AMPLIT PERI AZIMU VELO AIN AR TRES W  DIS CAZ7
 BAR2 EZ EP        721 51.12                             172    0.0510 19.1 194 
 BAR2 EZ ES        722  6.29                             172   -0.1610 19.1 194 
 BAR2 EZ I         722  7.26        10.3 0.34            172           19.1 194 
 BRR  HZ EP        721 52.93                             152    0.1210 74.0 301 
 BRR  HE ES        722  9.91                             152    0.3610 74.0 301 
 BRR  HZ I         722 13.08         8.4 0.34            151           74.0 301 
 PAM  EZ EP        721 54.11                             150    0.2110 80.5  37 
 PAM  EN ES        722 11.32                             150   -0.1710 80.5  37 
 PAM  EZ I         722 13.24        10.9 0.50            151           80.5  37 
 RUS  HZ EP     C  721 55.28                             145    0.3610 96.0 176 
 RUS  HN ES        722 13.91                             145    0.6110 96.0 176 
 RUS  HZ I         722 14.81         3.1 0.26            147           96.0 176 
 PTB  HZ EP        721 58.34                             132   -0.08 9  148 261 
 PTB  HN ES        722 18.78                             132   -0.75 9  148 261 
 PTB  HZ I         722 20.98         2.7 0.17            132            148 261 
 TAM  HZ IP     C  721 59.50                             131    0.52 9  153 103 
 TAM  HN ES        722 19.72                             131   -0.80 9  153 103 
 ZAR  HZ EP   4    722  5.44                             122    1.30 0  206 293 
 ZAR  HN ES        722 29.57                             122   -0.13 8  206 293 
 ZAR  HZ I         722 35.55         3.4 0.21            122            206 293 
 PTGC HZ EP        722 14.29                             112   -0.48 7  304 158 
 PTGC HN ES        722 48.51                             112   -0.12 7  304 158 
 PTGC HZ I         722 50.30         2.9 0.46            113            304 158 
 SJC  HZ EP   4    722 26.48                             106   -0.97 0  413 327 
 SJC  HN ES   4    723  5.86                             106   -5.35 0  413 327 
                                                                                
