 2012 1027 0021 14.2 L   6.762 -73.146150.0  RSN  4 0.2 1.6LRSN                1
 GAP=138        0.49       5.1     6.5  9.4  0.1855E+02 -0.2211E+02 -0.2879E+02E
 Epicentro: LOS SANTOS - SANTANDER                                             3
 ACTION:UPD 12-11-22 17:06 OP:ep   STATUS:               ID:20121027002114 L   I
 2012-10-27-0020-00M.COL___228                                                 6
 STAT SP IPHASW D HRMM SECON CODA AMPLIT PERI AZIMU VELO AIN AR TRES W  DIS CAZ7
 BRR  HZ EP   1    021 36.00                             152    0.03 7 73.3 301 
 BRR  HN ES   2    021 53.21                             152    0.30 5 73.3 301 
 BRR  HN I         021 56.36        13.8 0.11                          73.3 301 
 PAM  SZ EP   1    021 36.95                             150   -0.15 7 80.6  38 
 PAM  SN I         021 56.15         7.8 0.17                          80.6  38 
 RUS  HZ EP   1    021 38.48                             145    0.36 7 96.4 176 
 RUS  HE ES        021 56.60                             145   -0.1510 96.4 176 
 RUS  HE I         021 58.23         3.7 0.46                          96.4 176 
 ZAR  HE ES   2    022 12.43                             123   -0.36 4  206 293 
                                                                                
