 2016 1027 0801 47.3 L   6.797 -73.166144.5  RSN  5 0.3 1.4LRSN                1
 GAP=235        0.86       6.1     5.6  7.3  0.2226E+01  0.9005E+01 -0.9110E+01E
 Epicentro: LOS SANTOS - SANTANDER                                             3
 ACTION:UPD 16-11-09 19:23 OP:rebc STATUS:               ID:20161027080147 L   I
 OLDACT:REG 16-10-27 13:26 OP:cog  STATUS:               ID:20161027075748     3
 2016-10-27-0758-00M.COL___349                                                 6
 STAT SP IPHASW D HRMM SECON CODA AMPLIT PERI AZIMU VELO AIN AR TRES W  DIS CAZ7
 BAR2 EZ EP        8 2  7.12                             171    0.3210 22.7 185 
 BAR2 EZ ES        8 2 21.91                             171   -0.0710 22.7 185 
 BRR  HZ EP        8 2  8.63                             153    0.3910 69.4 300 
 BRR  HZ I         8 2 29.39         3.4 0.30                          69.4 300 
 RUS  HZ EP        8 2 10.61                             144   -0.3410  100 175 
 RUS  HN ES        8 2 29.19                             144   -0.1810  100 175 
 RUS  HZ I         8 2 30.45         3.5 0.28            151            100 175 
 PTB  HZ EP        8 2 13.46                             132   -0.53 9  146 259 
 PTB  HN ES        8 2 34.54                             132   -0.24 9  146 259 
 PTB  HZ I         8 2 36.63         3.2 0.56            130            146 259 
 SPBC HZ EP        8 2 15.76                             129    0.19 9  162 218 
 SPBC HN ES        8 2 38.08                             129    0.48 9  162 218 
 SPBC HZ I         8 2 40.33         4.5 0.38            131            162 218 
                                                                                
