 2016  127 0229  1.9 L   6.896 -73.154151.6  RSN  6 0.3 1.4LRSN                1
 GAP=229        0.63       3.8     4.2  6.6  0.7271E+01 -0.4673E+01 -0.1167E+02E
 Epicentro: BETULIA - SANTANDER                                                3
 ACTION:UPD 16-03-09 23:28 OP:cam  STATUS:               ID:20160127022901 L   I
 OLDACT:REG 16-01-27 15:40 OP:ak   STATUS:               ID:20160127022739     3
 2016-01-27-0227-39M.COL___328                                                 6
 STAT SP IPHASW D HRMM SECON CODA AMPLIT PERI AZIMU VELO AIN AR TRES W  DIS CAZ7
 RUS  HZ EP        229 26.99                             142   -0.0210  111 176 
 RUS  HN ES        229 46.63                             142    0.0410  111 176 
 RUS  HZ I         229 49.68         1.1 0.11            146            111 176 
 PTB  HZ EP        229 29.68                             133    0.19 9  149 255 
 PTB  HN ES        229 51.10                             133    0.09 9  149 255 
 PTB  HZ I         229 56.94         4.4 0.28            135            149 255 
 SPBC HZ EP        229 31.97                             129    0.37 9  171 217 
 SPBC HN ES        229 54.29                             129   -0.47 9  171 217 
 SPBC HZ I         230  1.11         6.1 0.12            132            171 217 
 NOR  HZ EP   2    229 37.95                             119   -0.63 4  240 232 
 NOR  HN ES        230  7.59                             119    0.41 8  240 232 
 NOR  HZ I         230 10.80         3.4 0.16            122            240 232 
 CHI  HZ EP        229 41.02                             117   -0.00 8  259 194 
 CHI  HN ES        230 11.25                             117   -0.28 8  259 194 
 CHI  HZ I         230 11.97         0.7 0.20            121            259 194 
 MON  HZ EP        229 50.21                             110   -0.10 7  346 307 
 MON  HN ES        230 27.74                             110   -0.32 7  346 307 
                                                                                
