 2014  427 0339 34.7 L   6.877 -73.325117.5  RSN 12 0.5 2.1LRSN                1
 GAP= 60        1.09       3.0     4.0  8.8 -0.3285E+01  0.1473E+02 -0.2504E+01E
 Epicentro: BETULIA - SANTANDER                                                3
 OLDACT:DUP 14-04-27 16:30 OP:fm   STATUS:               ID:20140427033816d    3
 ACTION:UPD 14-05-13 23:11 OP:nd   STATUS:               ID:20140427033934 L   I
 OLDACT:UP  14-04-27 16:37 OP:fm   STATUS:               ID:20140427033816d    3
 2014-04-27-0338-15M.COL___239                                                 6
 STAT SP IPHASW D HRMM SECON CODA AMPLIT PERI AZIMU VELO AIN AR TRES W  DIS CAZ7
 PAM  SZ EP        339 54.68                             142    0.0310 86.0  53 
 PAM  SE ES        340 10.65                             142    0.4610 86.0  53 
 PAM  SZ I         340 13.28        22.3 0.30            147           86.0  53 
 RUS  HZ EP        339 56.50                             133   -0.3010  112 166 
 RUS  HN ES        340 13.99                             133   -0.0310  112 166 
 PTB  HZ EP        339 57.03                             128   -0.8310  130 253 
 PTB  HN ES        340 15.45                             128   -0.4510  130 253 
 PTB  SZ I         340 19.15        15.2 0.10            131            130 253 
 OCA  HZ EP        339 59.79                             124   -0.23 9  151   0 
 OCA  HN ES        340 19.52                             124   -0.24 9  151   0 
 OCA  SZ I         340 20.74        37.2 0.26            127            151   0 
 SPBC HZ EP   1    340  0.88                             122    0.12 7  159 211 
 SPBC HN ES        340 21.25                             122    0.19 9  159 211 
 SPBC SZ I         340 22.83        18.8 0.20            127            159 211 
 TAM  HN ES   2    340 24.44                             119    0.17 4  176 106 
 ZAR  HZ EP   1    340  4.00                             118    0.85 7  182 292 
 ZAR  HE ES   1    340 26.24                             118    0.91 7  182 292 
 ZAR  SZ I         340 29.13        14.4 0.34            121            182 292 
 NOR  HZ EP   1    340  7.26                             113   -0.55 6  224 230 
 NOR  HN ES   1    340 33.96                             113    0.35 6  224 230 
 NOR  SZ I         340 35.26         5.1 0.14            116            224 230 
 SML  HZ EP   1    340  7.68                             112   -0.50 6  228 339 
 SML  HN ES   1    340 34.02                             112   -0.25 6  228 339 
 SML  SZ I         340 44.95        21.1 0.06            115            228 339 
 HEL  HZ EP        340 12.64                             110    0.91 8  255 253 
 HEL  HN ES   4    340 44.00                             110    3.41 0  255 253 
 HEL  SZ I         340 46.95         5.7 2.02            113            255 253 
 URE  HN ES   4    340 39.97                             109   -1.26 0  262 292 
 GUY2CHZ EP        340 16.70                             107    0.76 7  290 231 
 GUY2CHN ES   1    340 47.36                             107   -0.72 5  290 231 
 GUY2CSZ I         340 55.11         4.2 0.72                           290 231 
 SDV  BN ES   4    341  2.75                             102   -1.59 0  371  53 
 SJC  HZ EP   4    340 25.55                             101   -1.83 0  391 329 
 SJC  HN ES   4    341  5.40                             101   -3.04 0  391 329 
 SJC  SZ I         341  6.45         3.3 1.46            104            391 329 
                                                                                
