 2016  627 0355 57.2 L   6.813 -73.155144.0  RSN 21 0.6 2.6LRSN                1
 GAP=135        1.19       3.5     3.8  6.3  0.4822E+00  0.6539E+01  0.5962E+01E
 Epicentro: LOS SANTOS - SANTANDER                                             3
 ACTION:UPD 16-07-21 22:23 OP:rebc STATUS:               ID:20160627035557 L   I
 OLDACT:REG 16-06-27 12:51 OP:ak   STATUS:               ID:20160627034749     3
 2016-06-27-0347-49M.COL___333                                                 6
 STAT SP IPHASW D HRMM SECON CODA AMPLIT PERI AZIMU VELO AIN AR TRES W  DIS CAZ7
 BRR  HZ IP     D  356 18.56                             153    0.4910 69.6 298 
 BRR  HN ES        356 35.06                             153    0.7110 69.6 298 
 BRR  HZ I         356 39.95        53.6 0.14                          69.6 298 
 PAM  EZ EP        356 19.71                             151    0.5010 76.9  41 
 PAM  EN ES        356 36.45                             151    0.0810 76.9  41 
 PAM  EZ I         356 38.69        52.3 0.48                          76.9  41 
 RUS  HZ EP        356 20.68                             143   -0.2210  102 176 
 RUS  HN ES        356 38.58                             143   -0.7910  102 176 
 RUS  HZ I         356 40.15        40.4 0.22                           102 176 
 PTB  HZ EP        356 23.34                             132   -0.62 9  147 258 
 PTB  HN ES        356 44.37                             132   -0.46 9  147 258 
 PTB  HZ I         356 51.81        36.7 0.42                           147 258 
 SPBC HZ EP        356 25.71                             129    0.09 9  164 218 
 SPBC HN ES        356 47.85                             129    0.07 9  164 218 
 SPBC HZ I         356 49.91        63.0 0.10                           164 218 
 ZAR  HZ EP   2    356 30.05                             122    0.67 4  203 292 
 ZAR  HN ES        356 54.62                             122    0.14 9  203 292 
 ZAR  HZ I         357  1.46        37.0 0.26                           203 292 
 NOR  HZ IP     C  356 33.21                             118    0.37 8  235 234 
 NOR  HN ES        357  1.20                             118    0.58 8  235 234 
 NOR  HZ I         357  2.37        32.3 0.16                           235 234 
 CHI  HZ EP        356 34.88                             117   -0.05 8  250 195 
 CHI  HN ES        357  4.18                             117   -0.18 8  250 195 
 CHI  HZ I         357 11.29        17.6 0.52                           250 195 
 ROSC BZ EP   9    356 37.12                             116    1.81 0  253 211 
 ROSC BN ES        357  7.56                                    0.72 8  253 211 
 ROSC BZ I         357 12.99        25.8 0.35                           253 211 
 HEL  HZ EP   2    356 38.06                             115    0.80 4  271 255 
 HEL  HN ES        357  9.09                             115    0.59 8  271 255 
 HEL  HZ I         357 15.75        14.5 0.48                           271 255 
 URE  HZ EP        356 37.27                             114   -0.75 7  282 292 
 URE  HE ES        357  8.11                             114   -1.75 7  282 292 
 URE  HZ I         357 10.99        29.3 0.12                           282 292 
 GUY2CHZ EP        356 40.89                             112    0.16 7  301 234 
 GUY2CHN ES        357 15.39                             112    0.70 7  301 234 
 GUY2CHZ I         357 23.33        21.7 0.34                           301 234 
 VIL  SZ EP        356 39.99                             112   -0.69 7  305 191 
 VIL  SN ES        357 14.96                             112    0.37 7  305 191 
 PTGC HZ IP   4 C  356 39.89                             111   -1.29 0  310 159 
 PTGC HN ES   4    357 13.52                             111   -1.96 0  310 159 
 CBOC HZ EP   2    356 44.76                             110    0.77 3  333 252 
 CBOC HE ES        357 20.84                             110    0.37 7  333 252 
 CBOC HZ I         357 22.48         4.1 0.16                           333 252 
 DBB  SZ EP   2    356 45.40                             109    0.92 3  338 274 
 DBB  SZ ES        357 20.83                             109   -0.52 7  338 274 
 DBB  SZ I         357 27.28        32.6 0.32                           338 274 
 ANIL HE ES   4    357 28.93                             108    3.13 0  358 224 
 PRA  HZ EP        356 50.15                             106   -0.61 6  393 209 
 PRA  HN ES        357 32.59                             106    0.07 6  393 209 
 PRA  HZ I         357 37.79        24.6 0.26                           393 209 
 ORTC HZ EP        356 51.32                             106    0.19 6  396 216 
 ORTC HN ES   4    357 35.03                             106    1.83 0  396 216 
 ORTC HZ I         357 41.17        12.9 0.24                           396 216 
 PAL  HZ EP        356 52.63                             106    0.34 6  406 239 
 PAL  HN ES        357 34.83                             106   -0.43 6  406 239 
 PAL  HZ I         357 37.66         4.3 0.20                           406 239 
 SJC  HZ EP   4    356 50.55                             106   -1.95 0  407 327 
 SJC  HN ES   4    357 31.26                             106   -4.37 0  407 327 
 SJC  HZ I         357 36.66        12.3 0.46                           407 327 
 CRJC HZ EP   4    356 57.40                             103   -2.09 0  466   4 
 CRJC HN ES   4    357 43.91                             103   -4.16 0  466   4 
 CRJC HZ I         357 57.84                                            466   4 
 MACC HZ EP   4    357  3.61                             101   -2.42 0  522 188 
 MACC HN ES   4    357 56.08                             101   -3.63 0  522 188 
 MACC HZ I         358  0.52         4.1 0.18                           522 188 
                                                                                
