 2010  327 0237 48.0 L   6.785 -72.968149.9  RSN  9 0.4 2.1LRSN                1
 GAP=201        0.72       4.2     7.7  7.1 -0.1934E+01  0.1579E+02  0.5548E+01E
 Epicentro: CEPITA - SANTANDER                                                 3
 ACTION:UP  10-08-24 09:56 OP:vdl  STATUS:               ID:20100327023748 L   I
 2010-03-27-0232-51S.COL___098                                                 6
 STAT SP IPHASW D HRMM SECON CODA AMPLIT PERI AZIMU VELO SNR AR TRES W  DIS CAZ7
 BAR2 SZ EP   1    238  8.51                             168     0.210   32 228 
 BAR2 SZ ES   2    238 24.16                             168     0.0 7   32 228 
 BRR  HZ EP   1    238 10.46                             148    -0.210   90 294 
 BRR  HE ES   2    238 27.85                             148    -0.6 7   90 294 
 BRR  HZ I         238 29.56        21.4 0.17                            90 294 
 RUS  HZ EP   1    238 12.40                             145     0.310   99 187 
 RUS  HE ES   2    238 31.25                             145     0.4 7   99 187 
 RUS  HZ I         238 32.35        10.6 0.42                            99 187 
 OCA  SZ EP   1    238 17.27                             130     0.2 9  165 346 
 OCA  SZ ES   2    238 39.85                             130     0.0 6  165 346 
 CHI  HZ EP   1    238 26.59                             118     0.2 8  253 200 
 CHI  HE ES   2    238 55.40                             118    -0.9 5  253 200 
 CHI  HZ I         239  1.75         5.7 0.39                           253 200 
 HEL  HZ EP        238 29.95                             114    -0.510  291 257 
 HEL  HE ES   2    239  4.78                             114     1.1 5  291 257 
 HEL  HZ I         239  6.36         5.5 0.52                           291 257 
 RREF BZ EP   1    238 35.91                             111     0.0 7  336 232 
 RREF BE ES   2    239 13.90                             111     0.6 5  336 232 
 RREF BZ I         239 19.98         8.0 0.37                           336 232 
 TOL  SZ EP   1    238 38.27                             109     0.4 7  356 227 
 PRA  HZ EP   1    238 42.17                             107    -0.5 6  401 212 
 PRA  HN ES   2    239 24.83                             107    -0.5 4  401 212 
 PRA  HZ I         239 30.24         8.6 0.45                           401 212 
                                                                                
