 2015  827 0322 34.5 L   6.820 -73.112142.0  RSN 10 0.4 1.7LRSN                1
 GAP= 72        1.00       3.0     4.1  5.9 -0.6047E+00  0.2556E+01 -0.4356E+00E
 Epicentro: LOS SANTOS - SANTANDER                                             3
 ACTION:UPD 15-09-15 23:05 OP:cam  STATUS:               ID:20150827032234 L   I
 OLDACT:DUP 15-08-27 14:25 OP:spq  STATUS:               ID:20150827031751d    3
 2015-08-27-0317-50M.COL___352                                                 6
 STAT SP IPHASW D HRMM SECON CODA AMPLIT PERI AZIMU VELO AIN AR TRES W  DIS CAZ7
 BAR2 EZ EP        322 53.61                             169   -0.1810 26.3 197 
 BAR2 EZ ES   1    323  8.34                             169   -0.46 7 26.3 197 
 BAR2 EZ I         323  9.34        11.2 0.14            169           26.3 197 
 PAM  EZ IP     D  322 56.62                             152    0.5010 73.3  38 
 PAM  EE ES        323 13.26                             152    0.3110 73.3  38 
 PAM  EZ I         323 15.69        11.0 0.62            154           73.3  38 
 BRR  HZ EP   1    322 55.66                             151    0.24 7 73.5 296 
 BRR  HE ES        323 12.33                             151    0.6210 73.5 296 
 BRR  HZ I         323 13.96         7.0 0.13            150           73.5 296 
 RUS  HZ EP        322 57.99                             142   -0.0810  103 178 
 RUS  HN ES        323 16.17                             142   -0.2610  103 178 
 RUS  HZ I         323 17.69         6.8 0.34            145            103 178 
 TAM  HZ EP     C  323  1.96                             130    0.32 9  152 106 
 OCA  HZ EP        323  2.01                             129   -0.40 9  159 352 
 OCA  HE ES        323 23.61                             129   -0.53 9  159 352 
 OCA  HZ I         323 26.93         8.2 0.48            130            159 352 
 SPBC HZ EP   1    323  3.03                             127   -0.12 7  167 220 
 SPBC HE ES        323 24.93                             127   -0.53 9  167 220 
 SPBC HZ I         323 30.30         7.4 0.06            129            167 220 
 ZAR  HN ES        323 32.64                             121    0.28 8  207 291 
 ZAR  HZ I         323 36.96         6.4 0.10            122            207 291 
 SML  HZ EP        323 10.21                             117   -0.71 8  243 334 
 SML  HN ES   1    323 39.10                             117   -0.19 6  243 334 
 SML  HZ I         323 42.70         3.6 0.11            118            243 334 
 GUY2CHZ EP        323 19.19                             111    0.72 7  306 235 
 GUY2CHE ES   1    323 53.27                             111    0.54 5  306 235 
 GUY2CHZ I         323 56.56         1.2 0.68                           306 235 
                                                                                
