 2010  627 0838 30.8 L   6.797 -73.104139.0  RSN 12 0.4 2.4LRSN                1
 GAP=160        0.98       4.0     7.0  7.2 -0.1035E+02  0.1170E+02  0.8290E+01E
 Epicentro: LOS SANTOS - SANTANDER                                             3
 ACTION:UP  10-08-24 10:13 OP:vdl  STATUS:               ID:20100627083830 L   I
 2010-06-27-0836-00S.COL___118                                                 6
 STAT SP IPHASW D HRMM SECON CODA AMPLIT PERI AZIMU VELO SNR AR TRES W  DIS CAZ7
 BAR2 SZ EP        838 49.59                             169    -0.110   24 201 
 BAR2 SZ ES   2    839  4.07                             169    -0.3 5   24 201 
 BRR  HZ EP        838 51.50                             150     0.010   75 297 
 BRR  HE ES   1    839  7.63                             150     0.0 7   75 297 
 BRR  HZ I         839  9.53        67.5 0.13                            75 297 
 RUS  HZ EP   1    838 53.62                             142    -0.2 7  100 179 
 RUS  HE ES   2    839 11.92                             142     0.1 5  100 179 
 RUS  HZ I         839 13.57        34.4 0.34                           100 179 
 BRI  SZ IP        838 54.26                             140     0.310  107  18 
 BRI  SZ ES   1    839 12.75                             140     0.7 7  107  18 
 GUE  SZ EP        838 54.75                             138    -0.110  116  10 
 GUE  SZ ES   2    839 13.74                             138     0.1 5  116  10 
 OCA  SZ EP        838 58.18                             128    -0.5 9  161 352 
 OCA  SZ ES   1    839 19.67                             128    -0.8 7  161 352 
 OCA  SZ I         839 23.40        51.4 0.43                           161 352 
 CHI  HZ EP        839  7.87                             116    -0.4 8  250 196 
 CHI  HN ES   3    839 36.85                             116    -0.6 2  250 196 
 CHI  HZ I         839 40.61         8.4 0.06                           250 196 
 ROSC BZ EP        839  9.40                             115     0.6 8  255 212 
 ROSC BZ I         839 44.08        12.8 0.61                           255 212 
 HEL  HZ EP        839 11.55                             113     0.4 7  276 256 
 HEL  HZ I         839 48.60        13.4 0.11                           276 256 
 RREF HZ EP        839 17.92                             109     0.9 7  325 230 
 RREF HN ES   1    839 53.03                             109    -0.1 5  325 230 
 RREF HZ I         840  4.02        10.2 0.29                           325 230 
 DBB  SZ EP        839 18.48                             108    -0.1 7  344 274 
 PRA  HZ EP        839 23.50                             105    -0.8 6  394 210 
 PRA  HN ES   2    840  5.70                             105    -0.4 3  394 210 
 PRA  HZ I         840 10.36        13.5 0.41                           394 210 
                                                                                
