 2017  127 0459 50.2 L   6.689 -73.145146.2  RSN  5 0.3 1.0LRSN                1
 GAP=141        0.72       4.3     4.0  5.9 -0.3756E+01  0.6001E+01 -0.4518E+01E
 Epicentro: VILLANUEVA - SANTANDER                                             3
 ACTION:UPD 17-05-22 16:03 OP:jn   STATUS:               ID:20170127045950 L   I
 OLDACT:REG 17-01-27 12:40 OP:lv   STATUS:               ID:20170127045642     3
 2017-01-27-0457-00M.COL___322                                                 6
 STAT SP IPHASW D HRMM SECON CODA AMPLIT PERI AZIMU VELO AIN AR TRES W  DIS CAZ7
 BAR2 EZ ES        5 0 24.65                             175   -0.2810 11.5 201 
 BAR2 EZ I         5 0 27.83         3.0 0.22            176           11.5 201 
 BRR  HZ EP        5 0 11.92                             150    0.1310 77.8 306 
 BRR  HN ES        5 0 29.10                             150    0.4710 77.8 306 
 PAM  EZ EP        5 0 13.03                             148   -0.0510 87.1  34 
 PAM  EN ES        5 0 30.75                             148   -0.1710 87.1  34 
 PAM  EZ I         5 0 33.32         1.6 0.40            149           87.1  34 
 RUS  HN ES        5 0 31.30                             147    0.2310 88.4 176 
 PTB  HZ EP        5 0 17.04                             132   -0.00 9  146 264 
 PTB  HN ES        5 0 37.58                             132   -0.40 9  146 264 
 PTB  HZ I         5 0 39.72         1.4 0.11            135            146 264 
                                                                                
