 2011 1227 0431  6.4 L   6.309 -74.010 32.1  RSN  4 0.2 1.3LRSN                1
 GAP=266        0.40       3.3     7.0 13.2  0.1781E+02 -0.7722E+02 -0.3103E+02E
 Epicentro: CIMITARRA - SANTANDER                                              3
 ACTION:UPD 12-07-13 16:18 OP:ep   STATUS:               ID:20111227043106 L   I
 2011-12-27-0430-00M.COL___187                                                 6
 STAT SP IPHASW D HRMM SECON CODA AMPLIT PERI AZIMU VELO AIN AR TRES W  DIS CAZ7
 BRR  HZ EP   1    431 20.87                              61   -0.17 7 94.2  20 
 BRR  HN ES   1    431 32.41                              61   -0.07 7 94.2  20 
 BRR  HZ I         431 39.47         8.5 0.46                          94.2  20 
 BAR2 SZ EP   1    431 21.48                              61   -0.16 7 96.7  71 
 BAR2 SZ ES   1    431 33.42                              61   -0.13 7 96.7  71 
 BAR2 SZ I         431 35.42         5.2 0.51                          96.7  71 
 RUS  HZ EP   1    431 23.99                              61    0.09 7  112 114 
 RUS  HZ I         431 24.39         6.4 0.37                           112 114 
 RUS  HN ES   1    431 37.55                              61   -0.03 7  112 114 
 GIR2 SZ EP   1    431 25.25                              61    0.31 7  124  47 
 GIR2 SZ ES   1    431 39.62                              61    0.19 7  124  47 
                                                                                
