 2014  727 0334 10.6 L   6.840 -73.136143.3  RSN  9 0.5 1.8LRSN                1
 GAP=184        1.06       4.4     6.5  8.0  0.1870E+01  0.2494E+02 -0.2592E+00E
 Epicentro: LOS SANTOS - SANTANDER                                             3
 ACTION:UPD 15-03-16 20:47 OP:nd   STATUS:               ID:20140727033410 L   I
 OLDACT:UP  14-07-27 14:21 OP:mh   STATUS:               ID:20140727032811     3
 OLDACT:REG 14-07-27 12:07 OP:mh   STATUS:               ID:20140727032811     3
 2014-07-27-0328-11M.COL___263                                                 6
 STAT SP IPHASW D HRMM SECON CODA AMPLIT PERI AZIMU VELO AIN AR TRES W  DIS CAZ7
 BAR2 SZ EP        334 30.23                             168    0.2410 27.9 191 
 BAR2 SZ ES        334 45.78                             168    0.6310 27.9 191 
 BAR2 SZ I    1    334 46.60        10.8 0.39            163           27.9 191 
 RUS  HZ EP        334 34.42                             142    0.0310  105 177 
 RUS  HN ES        334 52.62                             142   -0.3610  105 177 
 RUS  HZ I         334 54.82        10.4 0.35            143            105 177 
 PTB  HZ EP        334 37.17                             131   -0.33 9  150 257 
 PTB  HN ES   1    334 58.07                             131   -0.44 7  150 257 
 PTB  HZ I         335  3.35         7.4 0.22            129            150 257 
 OCA  HN ES        334 59.17                             130   -0.71 9  156 353 
 SPBC HN ES   4    335  0.98                             128   -0.67 0  167 218 
 ZAR  HZ EP        334 43.55                             122    0.78 9  203 291 
 ZAR  HN ES   1    335  8.50                             122    0.60 6  203 291 
 ZAR  HZ I         335 13.81         6.7 0.33            122            203 291 
 NOR  HZ EP        334 46.31                             118   -0.20 8  238 234 
 NOR  HE ES        335 14.14                             118   -0.42 8  238 234 
 NOR  HZ I         335 21.33         4.8 0.13            118            238 234 
 HEL  HZ EP   1    334 50.86                             114   -0.02 6  274 255 
 HEL  HN ES   4    335 24.76                             114    2.43 0  274 255 
 HEL  HZ I         335 29.63         3.0 0.19            114            274 255 
 GUY2CHZ EP        334 54.73                             112    0.29 7  305 234 
 GUY2CHN ES   4    335 30.98                             112    2.31 0  305 234 
 GUY2CHZ I         335 37.04         3.2 0.41                           305 234 
 SJC  HZ EP   4    335  4.29                             105   -1.37 0  406 326 
 SJC  HN ES   4    335 44.07                             105   -4.58 0  406 326 
 SJC  HZ I         335 48.82         1.9 0.41            107            406 326 
                                                                                
