 2011  727 0549  1.7 L   6.623 -73.456125.6  RSN  5 0.4 1.3LRSN                1
 GAP=236        0.79      13.1    13.2  7.8  0.8592E+02 -0.1305E+02 -0.1927E+02E
 Epicentro: EL CARMEN DE CHUCURI - SANTANDER                                   3
 ACTION:UPD 12-07-25 14:03 OP:epov STATUS:               ID:20110727054901 L   I
 2011-07-27-0545-44S.COL___141                                                 6
 STAT SP IPHASW D HRMM SECON CODA AMPLIT PERI AZIMU VELO AIN AR TRES W  DIS CAZ7
 BAR2 SZ EP   1    549 19.47                             166    0.32 7 30.4  96 
 BAR2 SZ ES   1    549 32.84                             166    0.12 7 30.4  96 
 BAR2 SZ I         549 33.61         7.0 0.24                          30.4  96 
 BTL  SZ EP   1    549 19.28                             162   -0.16 7 38.7  32 
 BTL  SZ ES   1    549 33.22                             162   -0.01 7 38.7  32 
 GIR2 SZ EP   1    549 19.28                             154   -0.91 7 58.1  30 
 BRR  HZ EP   1    549 20.30                             153    0.18 7 60.6 332 
 BRR  HZ I         549 20.45         8.0 0.15                          60.6 332 
 BRR  HE ES   1    549 34.49                             153    0.04 7 60.6 332 
 GRA  SZ EP   1    549 28.74                             125    0.49 7  157  27 
 GRA  SZ I         549 46.81         1.2 0.42                           157  27 
                                                                                
