 2012  227 0921 31.8 L   6.770 -73.189135.8  RSN  4 0.4 1.2LRSN                1
 GAP=240        0.70       9.1     6.9  8.9  0.4093E+02  0.1020E+02 -0.1014E+02E
 ACTION:UP  12-03-07 16:34 OP:epov STATUS:               ID:20120227092131 L   I
 2012-02-27-0920-00M.COL___192                                                 6
 STAT SP IPHASW D HRMM SECON CODA AMPLIT PERI AZIMU VELO AIN AR TRES W  DIS CAZ7
 BAR2 SZ EP   1    921 49.98                             171   -0.19 7 19.7 178 
 BAR2 SZ ES   1    922  4.28                             171   -0.21 7 19.7 178 
 BAR2 SZ I         922  6.58         4.2 0.45                          19.7 178 
 RUS  HZ EP   1    921 54.55                             142    0.17 7 97.8 173 
 RUS  HN ES   1    922 12.39                             142    0.40 7 97.8 173 
 RUS  HZ I         922 13.72         1.1 0.27                          97.8 173 
 PTB  HZ EP   1    921 57.11                             131   -0.38 7  142 260 
 PTB  HN ES   1    922 17.17                             131   -0.34 7  142 260 
 ZAR  HN ES   1    922 28.49                             120    0.64 6  201 294 
 ZAR  HZ I         922 36.98         2.7 0.29                           201 294 
                                                                                
