 2017  827 0959 37.1 L   6.785 -73.140145.6  RSN  5 0.3 1.1LRSN                1
 GAP=138        0.70       3.7     3.9  5.6  0.3110E+01  0.2551E+01 -0.1900E+00E
 Epicentro: LOS SANTOS - SANTANDER                                             3
 ACTION:UPD 17-09-04 20:25 OP:rebc STATUS:               ID:20170827095937 L   I
 OLDACT:UP  17-08-27 18:30 OP:edw  STATUS:               ID:20170827094740d    3
 OLDACT:DUP 17-08-27 18:27 OP:edw  STATUS:               ID:20170827094740d    3
 OLDACT:REG 17-08-27 13:38 OP:edw  STATUS:               ID:20170827094739     3
 2017-08-27-0948-00M.COL___411                                                 6
 STAT SP IPHASW D HRMM SECON CODA AMPLIT PERI AZIMU VELO AIN AR TRES W  DIS CAZ7
 BAR2 EZ EP        959 56.49                             171   -0.1710 21.8 192 
 BAR2 EZ ES       10 0 11.52                             171   -0.4110 21.8 192 
 BAR2 EZ I        10 0 12.94         3.2 0.36            171           21.8 192 
 BRR  HZ EP        959 58.38                             152    0.1010 72.6 299 
 BRR  HN ES       10 0 15.32                             152    0.4910 72.6 299 
 PAM  EZ EP        959 59.39                             150    0.0610 78.3  38 
 PAM  EN ES       10 0 16.64                             150   -0.0410 78.3  38 
 PAM  EZ I        10 0 18.00         2.3 0.62            152           78.3  38 
 RUS  HZ EP       10 0  0.76                             144    0.0710 98.9 176 
 RUS  HN ES       10 0 19.27                             144    0.1610 98.9 176 
 RUS  HZ I        10 0 21.14         2.5 0.30            145           98.9 176 
 ZAR  HZ EP   4   10 0  8.16                             122   -1.47 0  205 292 
 ZAR  HN ES       10 0 34.68                             122   -0.35 8  205 292 
 ZAR  HZ I        10 0 38.44         1.1 0.54            122            205 292 
                                                                                
