 2017  327 0240 43.0 L   6.712 -73.187154.0  RSN  4 0.3 1.0LRSN                1
 GAP=226        0.58       6.3     8.5  6.9  0.3932E+02  0.5158E+00 -0.6663E+01E
 Epicentro: VILLANUEVA - SANTANDER                                             3
 ACTION:UPD 17-05-25 18:45 OP:jn   STATUS:               ID:20170327024043 L   I
 OLDACT:UP  17-03-27 14:56 OP:and  STATUS:               ID:20170327023145     3
 OLDACT:REG 17-03-27 12:50 OP:and  STATUS:               ID:20170327023145     3
 2017-03-27-0238-00M.COL___355                                                 6
 STAT SP IPHASW D HRMM SECON CODA AMPLIT PERI AZIMU VELO AIN AR TRES W  DIS CAZ7
 BRR  HZ EP        241  4.79                             154   -0.3510 72.6 307 
 BRR  HN ES        241 22.61                             154    0.2110 72.6 307 
 RUS  HZ EP   2    241  6.90                             149   -0.07 5 91.4 173 
 RUS  HN ES        241 25.77                             149    0.1210 91.4 173 
 RUS  HZ I         241 26.61         1.5 0.52            139           91.4 173 
 PTB  HZ EP   2    241 10.19                             136    0.05 5  142 262 
 PTB  HN ES   2    241 30.72                             136   -0.58 5  142 262 
 PTB  HZ I         241 38.20         1.5 0.38            126            142 262 
 ZAR  HZ EP   2    241 16.52                             125    0.53 4  204 295 
 ZAR  HN ES   2    241 42.05                             125    0.35 4  204 295 
                                                                                
