 2011 1127 0843 33.9 L   6.796 -73.078144.3  RSN  4 0.2 1.4LRSN                1
 GAP=145        0.38       4.1     5.7  7.1  0.9910E+00  0.3042E+01  0.2922E+01E
 Epicentro: LOS SANTOS - SANTANDER                                             3
 ACTION:UPD 12-07-13 16:12 OP:ep   STATUS:               ID:20111127084333 L   I
 2011-11-27-0842-41S.COL___160                                                 6
 STAT SP IPHASW D HRMM SECON CODA AMPLIT PERI AZIMU VELO AIN AR TRES W  DIS CAZ7
 BAR2 SZ EP   2    843 53.31                             170   -0.09 5 25.3 207 
 BAR2 SZ I         844  9.65         6.1 1.04                          25.3 207 
 PAM  SZ EP   2    843 56.13                             152    0.41 5 73.2  35 
 PAM  SN ES   2    844 12.52                             152   -0.22 5 73.2  35 
 BRR  HZ EP   1    843 55.16                             150   -0.14 7 78.0 296 
 BRR  HN ES   2    844 12.18                             150    0.20 5 78.0 296 
 BRR  HZ I         844 14.78         5.0 0.20                          78.0 296 
 RUS  HZ EP   2    843 57.42                             144   -0.05 5 99.9 180 
 RUS  HZ I         843 58.58         2.7 0.18                          99.9 180 
 RUS  HN ES   2    844 15.90                             144    0.06 5 99.9 180 
                                                                                
