 2013  527 0506 28.8 L   6.819 -73.103144.3  RSN  9 0.5 1.8LRSN                1
 GAP=187        1.27       4.8     7.4  7.1 -0.1658E+01  0.7950E+01  0.1220E+01E
 Epicentro: LOS SANTOS - SANTANDER                                             3
 ACTION:UPD 13-06-20 09:54 OP:ep   STATUS:               ID:20130527050628 L   I
 2013-05-27-0500-00M.COL___261                                                 6
 STAT SP IPHASW D HRMM SECON CODA AMPLIT PERI AZIMU VELO AIN AR TRES W  DIS CAZ7
 BAR2 SZ EP     D  5 6 48.79                             169    0.5110 26.5 199 
 BAR2 SZ ES        5 7  3.55                             169    0.0310 26.5 199 
 BAR2 SZ I         5 7  6.48         6.2 0.12            168           26.5 199 
 GIR2 SZ EP        5 6 48.83                             167    0.5910 30.5 341 
 GIR2 SZ ES        5 7  2.65                             167   -0.7810 30.5 341 
 GIR2 SZ I         5 7  5.88        11.9 0.34            164           30.5 341 
 BRR  HZ IP     C  5 6 50.60                             151    0.6610 74.5 295 
 BRR  HN ES        5 7  7.21                             151    0.7410 74.5 295 
 BRR  HZ I         5 7 11.58        11.5 0.42            148           74.5 295 
 RUS  HZ EP        5 6 52.75                             143    0.2510  102 179 
 RUS  HN ES        5 7 10.40                             143   -0.6210  102 179 
 RUS  HZ I         5 7 12.39         4.4 0.56            146            102 179 
 PTB  HZ EP        5 6 55.48                             130   -0.59 9  153 258 
 PTB  HN ES        5 7 17.41                             130    0.03 9  153 258 
 PTB  HZ I         5 7 22.60         6.2 0.44            130            153 258 
 OCA  HZ EP        5 6 56.78                             129   -0.04 9  159 351 
 OCA  HN ES        5 7 18.16                             129   -0.56 9  159 351 
 OCA  HZ I         5 7 22.76         9.9 0.18            130            159 351 
 SML  HZ EP   2    5 7  4.55                             117   -0.77 4  244 334 
 SML  HN ES   4    5 7 32.79                             117   -1.05 0  244 334 
 SML  HZ I         5 7 37.64         9.0 0.10            118            244 334 
 GUY2CHZ EP   1    5 7 12.12                             111   -0.75 5  306 235 
 GUY2CHN ES   1    5 7 47.18                             111   -0.10 5  306 235 
 GUY2CHZ I         5 7 59.70         3.1 0.38                           306 235 
 PRA  HZ EP        5 7 22.56                             106   -0.15 6  396 210 
 PRA  HN ES   4    5 8  3.43                             106   -1.36 0  396 210 
 PRA  HZ I         5 8  8.40         3.1 0.68            107            396 210 
                                                                                
