 2016  127 0920  8.8 L   7.045 -73.490108.0  RSN  4 0.3 1.5LRSN                1
 GAP=142        0.66       3.1     3.7  8.0  0.9282E+00  0.9631E+01 -0.8627E+01E
 Epicentro: SAN VICENTE DE CHUCURI - SANTANDER                                 3
 ACTION:UPD 16-03-09 23:28 OP:cam  STATUS:               ID:20160127092009 L   I
 OLDACT:UP  16-02-23 20:56 OP:AR   STATUS:               ID:20160127092009 L   3
 OLDACT:UP  16-01-27 19:49 OP:drio STATUS:               ID:20160127091740     3
 OLDACT:REG 16-01-27 16:19 OP:ak   STATUS:               ID:20160127091740     3
 2016-01-27-0917-40M.COL___326                                                 6
 STAT SP IPHASW D HRMM SECON CODA AMPLIT PERI AZIMU VELO AIN AR TRES W  DIS CAZ7
 BAR2 EZ EP        920 25.81                             149    0.1310 60.5 146 
 BAR2 EZ ES   1    920 38.50                             149   -0.32 7 60.5 146 
 BAR2 EZ I         920 39.73         6.4 0.40            154           60.5 146 
 OCA  HZ EP        920 32.10                             125    0.3510  133   8 
 OCA  HE ES        920 49.78                             125    0.1610  133   8 
 OCA  HZ I         920 50.96         5.1 0.54            127            133   8 
 ZAR  HZ EP        920 34.08                             120   -0.12 9  159 288 
 ZAR  HE ES        920 54.23                             120    0.24 9  159 288 
 ZAR  HZ I         920 55.46         4.5 0.32            122            159 288 
 SML  HZ EP        920 38.82                             113   -0.37 9  205 342 
 SML  HN ES        921  2.51                             113   -0.34 9  205 342 
 SML  HZ I         921  6.83         3.5 0.10            115            205 342 
                                                                                
