 2016  827 0857  0.2 L   6.721 -73.179152.9  RSN  4 0.2 1.0LRSN                1
 GAP=227        0.60       5.0     4.7  5.2  0.9915E+01  0.3927E+01 -0.1461E+01E
 Epicentro: VILLANUEVA - SANTANDER                                             3
 ACTION:UPD 16-10-29 15:39 OP:rebc STATUS:               ID:20160827085700 L   I
 OLDACT:DUP 16-08-27 16:16 OP:ak   STATUS:               ID:20160827084741d    3
 2016-08-27-0848-00M.COL___362                                                 6
 STAT SP IPHASW D HRMM SECON CODA AMPLIT PERI AZIMU VELO AIN AR TRES W  DIS CAZ7
 BAR2 EZ EP        857 20.31                             174   -0.2110 14.2 182 
 BAR2 EZ ES        857 36.16                             174   -0.2310 14.2 182 
 BAR2 EZ I         857 37.35         2.6 0.27                          14.2 182 
 BRR  HZ EP        857 22.03                             153   -0.1510 72.8 306 
 BRR  HN ES        857 39.73                             153    0.3810 72.8 306 
 RUS  HZ EP   2    857 24.56                             148    0.50 5 92.2 173 
 RUS  HN ES        857 42.83                             148    0.1310 92.2 173 
 RUS  HZ I         857 43.83         1.3 0.33                          92.2 173 
 PTB  HZ EP        857 27.35                             135    0.06 9  143 262 
 PTB  HN ES        857 48.32                             135   -0.12 9  143 262 
 PTB  HZ I         857 51.71         1.5 0.11                           143 262 
                                                                                
