 2015  627 0821 48.6 L   6.844 -73.050151.4  RSN  9 0.4 2.3LRSN                1
 GAP=219        0.74       2.7     4.5  4.8 -0.2220E+01  0.5521E+01  0.2088E+01E
 Epicentro: LOS SANTOS - SANTANDER                                             3
 ACTION:UPD 15-09-10 22:15 OP:cam  STATUS:               ID:20150627082148 L   I
 OLDACT:UP  15-06-27 16:55 OP:mh   STATUS:               ID:20150627081749     3
 OLDACT:UP  15-06-27 16:55 OP:mh   STATUS:               ID:20150627081749     3
 OLDACT:REG 15-06-27 13:09 OP:mh   STATUS:               ID:20150627081749     3
 2015-06-27-0817-49M.COL___310                                                 6
 STAT SP IPHASW D HRMM SECON CODA AMPLIT PERI AZIMU VELO AIN AR TRES W  DIS CAZ7
 BAR2 EZ EP        822  9.03                             168   -0.0510 31.4 208 
 BAR2 EZ ES        822 24.75                             168   -0.3210 31.4 208 
 BAR2 EZ I         822 26.93        23.2 0.22            167           31.4 208 
 BRR  HZ EP        822 11.02                             151    0.2410 78.8 292 
 BRR  HN ES        822 28.45                             151    0.3610 78.8 292 
 BRR  HZ I         822 32.37        22.9 0.12            148           78.8 292 
 OCA  HZ EP   1    822 17.33                             131    0.28 7  157 349 
 OCA  HN ES        822 39.36                             131    0.10 9  157 349 
 OCA  HZ I         822 44.02        38.6 0.28            131            157 349 
 ZAR  HZ EP   1    822 21.61                             122   -0.63 6  212 290 
 ZAR  HN ES        822 48.00                             122   -0.49 8  212 290 
 ZAR  HZ I         822 52.34        23.6 0.40            122            212 290 
 SML  HZ EP   1    822 25.66                             119    0.09 6  244 333 
 SML  HE ES        822 54.20                             119   -0.22 8  244 333 
 SML  HZ I         823  1.15        33.5 0.30            119            244 333 
 HEL  HZ EP   1    822 30.41                             115    0.06 6  284 255 
 HEL  HN ES        823  3.45                             115    0.52 7  284 255 
 HEL  HZ I         823  7.33         5.5 0.56            115            284 255 
 GUY2CHZ EP   1    822 34.47                             112    0.73 5  313 235 
 GUY2CHN ES   1    823  8.65                             112   -0.32 5  313 235 
 GUY2CHZ I         823 15.28         8.2 0.32                           313 235 
 TOL  SZ EP   1    822 38.49                             110    0.17 5  354 225 
 TOL  SN ES        823 16.95                             110   -0.17 6  354 225 
 TOL  SZ I         823 22.99         8.3 0.40            110            354 225 
 PRA  HZ EP        822 42.64                             107   -0.77 6  401 211 
 PRA  HN ES        823 26.56                             107    0.39 6  401 211 
 PRA  HZ I         823 30.70         8.2 0.32            108            401 211 
                                                                                
