 2012  327 0254 31.5 L   6.744 -73.147143.7  RSN  6 0.4 1.6LRSN                1
 GAP=139        0.95       5.9     6.0  8.1  0.1417E+01  0.1028E+02  0.6449E+00E
 ACTION:UP  12-03-31 23:23 OP:EP   STATUS:               ID:20120327025431 L   I
 2012-03-27-0250-00M.COL___196                                                 6
 STAT SP IPHASW D HRMM SECON CODA AMPLIT PERI AZIMU VELO SNR AR TRES W  DIS CAZ7
 BAR2 SZ EP        254 50.46                             173    -0.310   17 193 
 BAR2 SZ ES   1    255  5.37                             173    -0.5 7   17 193 
 BAR2 SZ I         255  7.18        10.8 0.40                            17 193 
 BRR  HZ EP        254 52.99                             151     0.410   74 303 
 BRR  HE ES   1    255  9.63                             151     0.5 7   74 303 
 BRR  HZ I         255 12.95        10.3 0.38                            74 303 
 PAM  SZ EP        254 53.92                             149     0.110   82  37 
 PAM  SN ES   1    255 10.89                             149    -0.3 7   82  37 
 RUS  HZ EP        254 54.69                             145     0.110   94 176 
 RUS  HN ES   1    255 13.25                             145     0.6 7   94 176 
 RUS  HZ I         255 14.43         5.9 0.28                            94 176 
 PTB  HZ EP        254 57.95                             132    -0.3 9  147 261 
 PTB  HN ES   2    255 18.20                             132    -0.8 5  147 261 
 PTB  HZ I         255 22.67         3.4 0.16                           147 261 
 ZAR  HZ EP   2    255  4.11                             122     0.0 4  206 294 
 ZAR  HE ES   2    255 29.76                             122     0.3 4  206 294 
 ZAR  HZ I         255 35.31         4.5 0.34                           206 294 
                                                                                
