 2014  627 0255 18.5 L   6.810 -73.196131.5  RSN  7 0.5 1.3LRSN                1
 GAP=178        1.15       4.6     7.1  9.7 -0.7615E+01  0.1332E+02  0.4464E+01E
 Epicentro: ZAPATOCA - SANTANDER                                               3
 ACTION:UPD 14-07-01 22:57 OP:nd   STATUS:               ID:20140627025518 L   I
 OLDACT:REG 14-06-27 12:53 OP:spq  STATUS:               ID:20140627024820     3
 2014-06-27-0248-20M.COL___259                                                 6
 STAT SP IPHASW D HRMM SECON CODA AMPLIT PERI AZIMU VELO AIN AR TRES W  DIS CAZ7
 BAR2 SZ EP        255 36.41                             169    0.0210 24.1 176 
 BAR2 SZ ES   1    255 50.54                             169    0.16 7 24.1 176 
 BAR2 SZ I         255 52.11         3.9 0.14            166           24.1 176 
 BRR  HZ EP        255 38.28                             152    0.5210 65.9 300 
 BRR  HE ES        255 53.53                             152    0.7110 65.9 300 
 RUS  HE ES   1    255 57.90                             140   -0.60 7  102 173 
 RUS  HZ I         256  0.33         3.8 0.32            141            102 173 
 PTB  HZ EP        255 43.85                             130    0.04 9  143 258 
 PTB  HE ES        256  3.05                             130   -0.53 9  143 258 
 PTB  HZ I         256 10.03         3.0 0.16            128            143 258 
 OCA  HN ES        256  5.86                             126   -0.80 9  159 355 
 OCA  HZ I         256  9.76         3.5 0.16            128            159 355 
 SPBC HZ EP        255 46.12                             126    0.47 9  161 217 
 SPBC HN ES        256  6.59                             126   -0.26 9  161 217 
 SPBC HZ I         256 12.89         3.2 0.06            125            161 217 
 NOR  HN ES        256 19.79                             116   -0.11 8  231 233 
 NOR  HZ I         256 29.13         1.9 0.28            115            231 233 
                                                                                
