 2012  327 0802 15.3 L   6.788 -73.145143.4  RSN 13 0.5 2.3LRSN                1
 GAP=114        1.08       4.8     5.6  7.5 -0.5442E+01  0.1562E+02  0.8759E+00E
 ACTION:UP  12-03-31 23:23 OP:EP   STATUS:               ID:20120327080215 L   I
 2012-03-27-0800-00M.COL___196                                                 6
 STAT SP IPHASW D HRMM SECON CODA AMPLIT PERI AZIMU VELO SNR AR TRES W  DIS CAZ7
 BAR2 SZ IP     C  8 2 34.81                             171     0.210   22 191 
 BAR2 SZ ES   1    8 2 49.61                             171    -0.1 7   22 191 
 BAR2 SZ I         8 2 52.53        51.6 0.40                            22 191 
 BRR  HZ IP     D  8 2 36.64                             152     0.410   72 299 
 BRR  HZ I         8 2 36.81        44.0 0.24                            72 299 
 PAM  SZ IP        8 2 37.52                             150     0.210   78  39 
 PAM  SN ES   1    8 2 54.82                             150     0.3 7   78  39 
 RUS  HZ EP        8 2 38.59                             144    -0.110   99 176 
 RUS  HN ES   1    8 2 56.88                             144    -0.1 7   99 176 
 RUS  HZ I         8 2 58.46        15.6 0.26                            99 176 
 PTB  HZ EP        8 2 41.31                             131    -0.7 9  148 259 
 PTB  HN ES   1    8 3  2.55                             131    -0.4 7  148 259 
 PTB  HZ I         8 3  8.53        25.7 0.32                           148 259 
 OCA  SZ EP        8 2 43.19                             129    -0.4 9  162 353 
 YOP  SZ EP        8 2 44.71                             126    -0.3 9  178 153 
 YOP  SZ I         8 2 46.12         9.4 0.68                           178 153 
 ZAR  HZ EP        8 2 47.42                             122    -0.2 9  205 292 
 ZAR  HZ I         8 3 19.34        16.4 0.74                           205 292 
 NOR  SZ EP        8 2 50.95                             118     0.1 8  234 235 
 NOR  SN ES   1    8 3 18.31                             118    -0.2 6  234 235 
 HEL  HZ EP        8 2 56.29                             114     0.9 8  272 256 
 HEL  HZ I         8 3 32.93         8.5 0.38                           272 256 
 GUY  SN ES   3    8 3 35.15                             112     2.1 2  303 235 
 GUY  SZ I         8 3 41.06        17.4 0.38                           303 235 
 RREF HZ EP        8 3  1.59                             110     0.3 7  321 230 
 RREF HZ I         8 3 43.22        12.3 0.26                           321 230 
 PRA  HZ EP        8 3  8.27                             106    -0.3 6  391 210 
 PRA  HN ES   1    8 3 51.08                             106     0.9 4  391 210 
                                                                                
