 2012  427 0318 22.1 L   6.807 -73.159140.3  RSN 12 0.4 2.4LRSN                1
 GAP=134        0.92       3.9     4.5  6.2 -0.8612E+00  0.6295E+01  0.4654E+01E
 Epicentro: LOS SANTOS - SANTANDER                                             3
 ACTION:UPD 12-07-05 11:56 OP:tino STATUS:               ID:20120427031822 L   I
 2012-04-27-0316-37M.COL___183                                                 6
 STAT SP IPHASW D HRMM SECON CODA AMPLIT PERI AZIMU VELO AIN AR TRES W  DIS CAZ7
 BAR2 SZ EP        318 41.06                             170     0.010   24 186 
 BAR2 SZ ES   1    318 55.84                             170     0.0 7   24 186 
 BAR2 SZ I         318 57.15        70.1 0.16                            24 186 
 BRR  HZ EP        318 42.87                             152     0.310   70 299 
 BRR  HE ES   1    318 59.35                             152     0.9 7   70 299 
 BRR  HZ I         319  0.48       106.0 0.12                            70 299 
 PAM  SZ EP        318 43.79                             150     0.110   78  41 
 PAM  SN ES   1    319  0.45                             150    -0.2 7   78  41 
 RUS  HZ EP        318 45.13                             142    -0.210  102 175 
 RUS  HN ES   1    319  3.23                             142    -0.3 7  102 175 
 RUS  HZ I         319  5.68        19.0 0.28                           102 175 
 PTB  HZ EP   1    318 47.75                             131    -0.7 7  146 258 
 PTB  HN ES   1    319  8.59                             131    -0.5 7  146 258 
 OCA  SZ EP   1    318 49.66                             128    -0.2 7  159 354 
 ZAR  HZ EP   1    318 53.81                             121    -0.2 6  202 292 
 ZAR  HN ES   1    319 18.65                             121    -0.2 6  202 292 
 NOR  SZ EP   1    318 57.19                             117    -0.2 6  234 234 
 NOR  SN ES   1    319 24.87                             117    -0.1 6  234 234 
 CHI  HZ EP        318 59.57                             116     0.0 8  249 195 
 CHI  HE ES   1    319 29.02                             116     0.3 6  249 195 
 CHI  HZ I         319 32.68        11.4 0.16                           249 195 
 ROSC BZ EP   1    319  1.17                             115     1.3 6  253 211 
 ROSC BZ I         319 40.96        19.7 0.51                           253 211 
 HEL  HZ EP   1    319  2.20                             114     0.3 6  271 256 
 HEL  HZ I         319 39.39        21.5 0.33                           271 256 
 PRA  HZ EP   1    319 15.52                             106     0.1 4  392 209 
                                                                                
