 2014  527 0453 21.7 L   6.742 -73.174146.6  RSN  6 0.4 1.3LRSN                1
 GAP=135        1.09       6.8     5.8  7.8  0.1568E+02  0.6116E+00 -0.1248E+02E
 Epicentro: VILLANUEVA - SANTANDER                                             3
 ACTION:UPD 15-03-16 17:01 OP:nd   STATUS:               ID:20140527045321 L   I
 OLDACT:REG 14-05-27 13:33 OP:stll STATUS:               ID:20140527044816     3
 2014-05-27-0448-16M.COL___255                                                 6
 STAT SP IPHASW D HRMM SECON CODA AMPLIT PERI AZIMU VELO AIN AR TRES W  DIS CAZ7
 BAR2 SZ EP        453 41.35                             173   -0.0010 16.6 183 
 BAR2 SZ ES        453 56.09                             173   -0.5610 16.6 183 
 BAR2 SZ I         453 57.63         6.7 0.40            172           16.6 183 
 BRR  HZ EP        453 43.12                             152    0.1110 71.8 304 
 BRR  HZ I         453 43.62         3.5 0.28            151           71.8 304 
 BRR  HN ES        454  0.35                             152    0.7410 71.8 304 
 PAM  SZ EP        453 44.02                             149   -0.4510 84.4  38 
 PAM  SZ I         453 44.46         7.5 0.24            151           84.4  38 
 RUS  HZ EP        453 45.60                             146    0.4610 94.4 174 
 RUS  HN ES        454  3.65                             146    0.2610 94.4 174 
 RUS  HZ I         454  4.89         1.6 0.32            147           94.4 174 
 PTB  HZ EP        453 48.33                             133   -0.06 9  143 261 
 PTB  HN ES        454  8.50                             133   -0.68 9  143 261 
 PTB  HZ I         454 11.49         1.9 0.16            132            143 261 
 ZAR  HZ EP        453 54.11                             123   -0.09 9  204 294 
 ZAR  HN ES        454 19.74                             123    0.23 9  204 294 
 ZAR  HZ I         454 26.09         2.3 0.52            122            204 294 
                                                                                
