 2016  327 0831 12.6 L   6.829 -73.136154.8  RSN  6 0.4 1.4LRSN                1
 GAP=260        0.91       4.9     5.9  7.8  0.5369E+01  0.1158E+02  0.2796E+01E
 Epicentro: LOS SANTOS - SANTANDER                                             3
 ACTION:UPD 16-05-13 21:28 OP:cam  STATUS:               ID:20160327083112 L   I
 OLDACT:REG 16-03-27 13:37 OP:ak   STATUS:               ID:20160327082744     3
 2016-03-27-0827-44M.COL___291                                                 6
 STAT SP IPHASW D HRMM SECON CODA AMPLIT PERI AZIMU VELO AIN AR TRES W  DIS CAZ7
 BAR2 EZ EP        831 33.40                             170    0.0110 26.7 191 
 BAR2 EZ ES        831 49.68                             170    0.0810 26.7 191 
 PTB  HZ EP   2    831 40.44                             134   -0.04 5  150 258 
 PTB  HN ES        832  1.49                             134   -0.72 9  150 258 
 PTB  HZ I         832  7.35         2.9 0.24            132            150 258 
 SPBC HZ EP        831 41.93                             130   -0.18 9  166 219 
 SPBC HE ES        832  5.89                             130    0.77 9  166 219 
 ZAR  HZ EP        831 45.95                             124    0.31 9  204 291 
 ZAR  HE ES        832 11.46                             124    0.06 9  204 291 
 ZAR  HZ I         832 19.27         2.4 0.37            123            204 291 
 CHI  HZ EP   2    831 50.82                             119   -0.36 4  252 195 
 CHI  HN ES        832 20.79                             119   -0.48 8  252 195 
 GUY2CHN ES        832 31.82                             114    0.27 7  304 234 
                                                                                
