 2012  127 0618 47.4 L   6.771 -73.132146.0  RSN  7 0.3 1.5LRSN                1
 GAP=140        0.65       5.4     5.4  7.0  0.3076E+00 -0.5943E-01  0.7722E+01E
 Epicentro: LOS SANTOS - SANTANDER                                             3
 ACTION:UP  12-02-03 08:21 OP:REBC STATUS:               ID:20120127061847 L   I
 2012-01-27-0610-00M.COL___188                                                 6
 STAT SP IPHASW D HRMM SECON CODA AMPLIT PERI AZIMU VELO SNR AR TRES W  DIS CAZ7
 BAR2 SZ EP        619  6.93                             172     0.010   21 196 
 BAR2 SZ ES   2    619 21.94                             172    -0.3 5   21 196 
 BAR2 SZ I         619 24.84        13.7 0.41                            21 196 
 GIR2 SZ EP   2    619  7.12                             166     0.0 5   35 349 
 BRR  HZ EP        619  8.93                             152     0.210   74 300 
 BRR  HE ES   1    619 25.67                             152     0.3 7   74 300 
 BRR  HZ I         619 29.01         6.3 0.11                            74 300 
 PAM  SZ EP   1    619  9.84                             150     0.2 7   79  37 
 PAM  SN ES   2    619 26.41                             150    -0.7 5   79  37 
 RUS  HZ EP   1    619 10.89                             145     0.0 7   97 177 
 RUS  HZ I         619 12.35         2.7 0.25                            97 177 
 RUS  HE ES   2    619 29.56                             145     0.3 5   97 177 
 PTB  HZ EP   1    619 13.85                             132    -0.6 7  149 260 
 PTB  HE ES   2    619 35.17                             132    -0.4 5  149 260 
 CHI  HZ EP   2    619 25.11                             117     0.3 4  246 196 
                                                                                
