 2015  727 0548 14.5 L   6.927 -72.990136.3  RSN  6 0.4 1.8LRSN                1
 GAP=199        0.97       3.7     5.7  7.4 -0.4533E-01  0.1865E+02 -0.3252E+01E
 Epicentro: PIEDECUESTA - SANTANDER                                            3
 ACTION:UPD 15-09-08 21:50 OP:cam  STATUS:               ID:20150727054814 L   I
 OLDACT:REG 15-07-27 12:45 OP:drio STATUS:               ID:20150727053739     3
 2015-07-27-0537-39M.COL___328                                                 6
 STAT SP IPHASW D HRMM SECON CODA AMPLIT PERI AZIMU VELO AIN AR TRES W  DIS CAZ7
 BAR2 EZ EP        548 32.76                             162   -0.8010 42.7 210 
 BAR2 EZ ES        548 48.65                             162    0.2110 42.7 210 
 BAR2 EZ I         548 52.55        10.3 0.42            167           42.7 210 
 RUS  HZ EP        548 38.34                             138   -0.1010  115 185 
 RUS  HE ES        548 57.31                             138    0.1910  115 185 
 RUS  HZ I         548 59.34         5.5 0.28            149            115 185 
 OCA  HZ EP        548 40.95                             129   -0.10 9  150 346 
 OCA  HN ES        549  2.18                             129    0.40 9  150 346 
 OCA  HZ I         549 17.58         9.1 0.72            131            150 346 
 ZAR  HZ EP        548 47.52                             119   -0.04 8  216 287 
 ZAR  HE ES        549 13.28                             119   -0.08 8  216 287 
 ZAR  HZ I         549 19.33         9.4 0.32            122            216 287 
 HEL  HZ EP        548 56.85                             111    0.32 7  292 254 
 HEL  HN ES        549 28.60                             111   -0.72 7  292 254 
 HEL  HZ I         549 34.14         2.4 0.34            116            292 254 
 GUY2CHZ EP        549  0.89                             109    0.67 7  323 235 
 GUY2CHE ES        549 36.37                             109    0.48 7  323 235 
 GUY2CHZ I         549 44.23         2.7 0.50                           323 235 
                                                                                
