 2013  627 0534 20.2 L   6.802 -73.137146.0  RSN 17 0.5 2.3LRSN 2.9WRSN        1
 SPEC AVERAGE  MO 13.4 ST  1.1 OM  2.3 f0 3.10 R0.5037 AL 2.10 WI 21.0 MW  2.9 3
 SPEC SD       MO  0.2 ST0.431 OM  0.6 f00.224 R0.0340 AL      WI      MW  0.1 3
 GAP= 71        1.09       3.2     3.6  5.1 -0.9753E+00  0.4757E+01  0.3652E+01E
 Epicentro: LOS SANTOS - SANTANDER                                             3
 SPEC TAM HH E MO 13.6 ST  1.3 OM  1.9 f0 2.99 R0.5197 AL 2.45 WI 10.8 MW  3.0 3
 SPEC TAM HH E T 535 8 K 0.000 GD  212 VS 4.20 DE 3.20 Q0300.0 QA 0.60 VS 4.20 3
 SPEC PRA HH N MO 13.5 ST  1.7 OM  1.5 f0 3.54 R0.4390 AL 2.13 WI 31.5 MW  3.0 3
 SPEC PRA HH N T 53553 K 0.000 GD  419 VS 4.20 DE 3.20 Q0300.0 QA 0.60 VS 4.20 3
 SPEC PTB HH N MO 13.5 ST  1.3 OM  1.8 f0 3.21 R0.4841 AL 1.51 WI 15.6 MW  3.0 3
 SPEC PTB HH N T 535 6 K 0.000 GD  208 VS 4.20 DE 3.20 Q0300.0 QA 0.60 VS 4.20 3
 SPEC RUS HH E MO 13.1 ST0.390 OM  1.5 f0 2.88 R0.5396 AL 1.97 WI 24.6 MW  2.7 3
 SPEC RUS HH E T 535 0 K 0.000 GD  177 VS 4.20 DE 3.20 Q0300.0 QA 0.60 VS 4.20 3
 SPEC PAM SH N MO 13.3 ST0.689 OM  1.7 f0 3.06 R0.5078 AL 2.27 WI 18.7 MW  2.8 3
 SPEC PAM SH N T 53458 K 0.000 GD  164 VS 4.20 DE 3.20 Q0300.0 QA 0.60 VS 4.20 3
 SPEC CHI HH N MO 13.6 ST  1.0 OM  1.7 f0 2.92 R0.5322 AL 2.24 WI 24.8 MW  3.0 3
 SPEC CHI HH N T 53525 K 0.000 GD  288 VS 4.20 DE 3.20 Q0300.0 QA 0.60 VS 4.20 3
 ACTION:UPD 14-01-08 09:57 OP:ep   STATUS:               ID:20130627053420 L   I
 OLDACT:UP  13-06-27 09:08 OP:jn   STATUS:               ID:20130627052959     3
 OLDACT:REG 13-06-27 06:40 OP:jn   STATUS:               ID:20130627052959     3
 2013-06-27-0529-59M.COL___266                                                 6
 STAT SP IPHASW D HRMM SECON CODA AMPLIT PERI AZIMU VELO AIN AR TRES W  DIS CAZ7
 BAR2 SZ EP        534 39.86                             170   -0.0010 23.8 192 
 BAR2 SZ ES        534 55.17                             170   -0.0310 23.8 192 
 BAR2 SZ I         534 57.72        35.8 0.38            168           23.8 192 
 GIR2 SZ EP        534 40.05                             167    0.1610 31.2 348 
 GIR2 SZ ES   1    534 55.01                             167   -0.25 7 31.2 348 
 BRR  HZ EP     C  534 41.84                             152    0.4310 71.9 298 
 BRR  HE ES        534 58.92                             152    0.9610 71.9 298 
 BRR  HZ I         535  3.65        19.1 0.16            151           71.9 298 
 PAM  SZ EP        534 42.64                             151    0.2510 76.6  39 
 PAM  SN ES        534 59.48                             151   -0.2110 76.6  39 
 PAM  SZ I         535  1.98        22.3 0.22            157           76.6  39 
 RUS  HZ EP     D  534 43.73                             144   -0.2510  101 177 
 RUS  HE ES   1    535  2.27                             144   -0.27 7  101 177 
 RUS  HZ I         535  3.72        14.1 0.36            146            101 177 
 PTB  HZ EP        534 46.44                             132   -0.83 9  149 259 
 PTB  HN ES   1    535  7.39                             132   -1.00 7  149 259 
 PTB  HZ I         535 15.27        29.5 0.50            132            149 259 
 TAM  HZ IP     D  534 48.04                             131    0.23 9  154 105 
 TAM  HE ES   1    535  9.70                             131    0.35 7  154 105 
 TAM  HZ I         535 10.31        13.2 0.35            136            154 105 
 OCA  HZ EP   1    534 47.71                             130   -0.80 7  160 353 
 OCA  HN ES   1    535 10.64                             130    0.04 7  160 353 
 OCA  HZ I         535 15.54        21.5 0.44            133            160 353 
 ZAR  HZ EP        534 52.54                             122   -0.20 9  205 292 
 ZAR  HE ES   1    535 18.00                             122   -0.12 6  205 292 
 ZAR  HZ I         535 24.44        27.7 0.46            123            205 292 
 NOR  HZ EP        534 55.88                             119   -0.16 8  236 235 
 NOR  HN ES        535 24.36                             119    0.36 8  236 235 
 NOR  HZ I         535 29.31        21.6 0.32            120            236 235 
 SML  HZ EP        534 56.09                             118   -0.76 8  244 335 
 SML  HE ES   1    535 25.53                             118    0.08 6  244 335 
 CHI  HZ EP        534 57.96                             117   -0.00 8  249 195 
 CHI  HN ES        535 26.72                             117   -0.70 8  249 195 
 CHI  HZ I         535 32.41         5.6 0.34            119            249 195 
 ROSC BZ EP   1    534 58.76                             117    0.35 6  253 211 
 HEL  HZ EP        535  0.78                             115    0.25 8  273 256 
 HEL  HE ES   1    535 32.22                             115    0.23 6  273 256 
 HEL  HZ I         535 38.62        13.4 0.30            116            273 256 
 GUY2CHZ EP   1    535  4.46                             112    0.54 5  302 235 
 GUY2CHZ I         535 46.83        18.3 0.76                           302 235 
 RREF HZ EP        535  7.94                             111    1.49 7  323 229 
 RREF HN ES   1    535 42.67                             111    0.14 5  323 229 
 RREF HZ I         535 51.77        14.3 0.26            112            323 229 
 PRA  HZ EP        535 13.34                             107   -0.47 6  393 210 
 PRA  HN ES   1    535 55.98                             107    0.36 4  393 210 
 PRA  HZ I         536  4.27         9.2 0.56            108            393 210 
                                                                                
