 2012  627 0632 15.4 L   6.745 -73.149143.1  RSN  6 0.4 1.6LRSN                1
 GAP=138        0.78       5.1     4.6  7.0  0.2290E+01  0.8258E+01 -0.1814E+01E
 Epicentro: JORDAN - SANTANDER                                                 3
 ACTION:UPD 12-08-06 17:52 OP:ep   STATUS:               ID:20120627063215 L   I
 2012-06-27-0626-59S.COL___210                                                 6
 STAT SP IPHASW D HRMM SECON CODA AMPLIT PERI AZIMU VELO AIN AR TRES W  DIS CAZ7
 BAR2 SZ EP   1    632 34.58                             173   -0.01 7 17.3 192 
 BAR2 SZ ES   1    632 49.15                             173   -0.42 7 17.3 192 
 BAR2 SZ I         632 51.34        11.3 0.13                          17.3 192 
 BRR  HZ EP   1    632 36.56                             151    0.15 7 73.9 303 
 BRR  HZ I         632 36.74         9.7 0.22                          73.9 303 
 BRR  HN ES   1    632 53.51                             151    0.70 7 73.9 303 
 PAM  SZ EP   1    632 37.67                             149    0.04 7 82.4  37 
 PAM  SZ I         632 37.98         5.1 0.22                          82.4  37 
 PAM  SN ES   1    632 54.67                             149   -0.31 7 82.4  37 
 RUS  HZ EP   1    632 38.25                             145   -0.20 7 94.5 176 
 RUS  HN ES   1    632 56.92                             145    0.49 7 94.5 176 
 RUS  HZ I         632 58.57         5.6 0.17                          94.5 176 
 PTB  HZ EP   1    632 41.61                             132   -0.39 7  146 261 
 PTB  HN ES   1    633  2.37                             132   -0.40 7  146 261 
 PTB  HZ I         633  4.19         5.1 0.40                           146 261 
 ZAR  HZ EP   1    632 48.50                             121    0.63 6  206 294 
 ZAR  HN ES   1    633 12.90                             121   -0.30 6  206 294 
                                                                                
