 2014  827 0755 37.2 L   6.817 -73.128147.2  RSN 11 0.4 1.6LRSN                1
 GAP=185        0.84       3.2     4.4  6.5  0.6448E+00  0.4981E+01 -0.5131E-01E
 Epicentro: LOS SANTOS - SANTANDER                                             3
 ACTION:UPD 14-09-15 21:53 OP:nd   STATUS:               ID:20140827075537 L   I
 OLDACT:REG 14-08-27 13:11 OP:fm   STATUS:               ID:20140827074806     3
 2014-08-27-0748-06M.COL___257                                                 6
 STAT SP IPHASW D HRMM SECON CODA AMPLIT PERI AZIMU VELO AIN AR TRES W  DIS CAZ7
 BAR2 SZ EP        755 57.24                             170    0.1810 25.6 194 
 BAR2 SZ ES   1    756 12.87                             170    0.33 7 25.6 194 
 BAR2 SZ I         756 13.97         9.1 0.26            168           25.6 194 
 BRR  HZ EP   1    755 58.73                             153    0.17 7 72.1 296 
 BRR  HN ES   1    756 15.87                             153    0.65 7 72.1 296 
 BRR  HZ I         756 17.78         3.2 0.40            150           72.1 296 
 RUS  HZ EP   1    756  1.32                             144    0.09 7  102 177 
 RUS  HN ES   1    756 19.15                             144   -0.81 7  102 177 
 RUS  HZ I         756 22.50         3.6 0.52            146            102 177 
 PTB  HZ EP   1    756  4.02                             132   -0.48 7  150 258 
 PTB  HN ES        756 25.12                             132   -0.67 9  150 258 
 PTB  HZ I         756 32.97         3.2 0.20            131            150 258 
 OCA  HN ES   1    756 27.69                             130    0.16 7  159 352 
 OCA  HZ I         756 33.28         3.4 0.30            132            159 352 
 SPBC HZ EP        756  6.15                             129    0.08 9  166 219 
 SPBC HN ES        756 28.70                             129    0.11 9  166 219 
 SPBC HZ I         756 35.22         5.0 0.30            130            166 219 
 ZAR  HN ES        756 35.44                             123    0.11 9  205 291 
 ZAR  HZ I         756 40.82         5.6 0.44            123            205 291 
 SML  HZ EP   1    756 13.63                             118   -0.19 6  243 335 
 SML  HN ES   1    756 41.70                             118   -0.68 6  243 335 
 SML  HZ I         756 45.19         4.8 0.32            119            243 335 
 HEL  HZ EP   4    756 18.82                             115    1.06 0  274 256 
 HEL  HN ES        756 49.68                             115    0.30 8  274 256 
 HEL  HZ I         756 55.68         1.5 0.28            116            274 256 
 GUY2CHZ EP   1    756 21.56                             112    0.37 5  304 235 
 GUY2CHN ES   4    756 58.81                             112    3.32 0  304 235 
 GUY2CHZ I         757  4.48         2.1 0.60                           304 235 
 PRA  HN ES   1    757 13.71                             107    0.61 4  395 210 
 PRA  HZ I         757 17.21         2.1 0.36            108            395 210 
                                                                                
