 2013  227 0346 10.0 L   6.776 -73.161147.8  RSN  6 0.4 1.7LRSN                1
 GAP=136        1.01       5.4     5.2  8.3 -0.2746E+01  0.2148E+01  0.1066E+02E
 Epicentro: LOS SANTOS - SANTANDER                                             3
 ACTION:UPD 13-03-12 09:36 OP:ep   STATUS:               ID:20130227034610 L   I
 2013-02-27-0338-48M.COL___191                                                 6
 STAT SP IPHASW D HRMM SECON CODA AMPLIT PERI AZIMU VELO AIN AR TRES W  DIS CAZ7
 BAR2 SZ EP        346 29.86                             172    0.0610 20.5 187 
 BAR2 SZ I         346 46.40        11.9 0.38            171           20.5 187 
 BRR  HZ EP        346 31.75                             153    0.4110 71.1 301 
 BRR  HN ES        346 48.65                             153    0.6510 71.1 301 
 BRR  HN I         346 53.29        11.2 0.22            151           71.1 301 
 PAM  SZ EP        346 32.60                             150    0.0110 80.4  39 
 PAM  SZ I         346 32.84         6.7 0.42            151           80.4  39 
 PAM  SE ES        346 49.67                             150   -0.5610 80.4  39 
 RUS  HZ EP        346 33.87                             145    0.1110 98.1 175 
 RUS  HN ES        346 52.41                             145    0.1110 98.1 175 
 RUS  HN I         346 53.06         3.5 0.38            145           98.1 175 
 PTB  HZ EP        346 36.79                             133   -0.13 9  146 260 
 PTB  HN ES        346 57.22                             133   -0.72 9  146 260 
 PTB  HN I         347  3.33         8.5 0.36            132            146 260 
 CHI  HZ EP   1    346 47.33                             118   -0.14 6  246 195 
                                                                                
