 2012  727 0342 59.9 L   6.744 -73.152150.1  RSN  4 0.4 1.3LRSN                1
 GAP=232        0.81       8.9     9.9  9.4  0.4002E+02  0.1441E+02 -0.1002E+02E
 Epicentro: JORDAN - SANTANDER                                                 3
 ACTION:UPD 12-08-14 11:45 OP:ep   STATUS:               ID:20120727034259 L   I
 2012-07-27-0340-00M.COL___215                                                 6
 STAT SP IPHASW D HRMM SECON CODA AMPLIT PERI AZIMU VELO AIN AR TRES W  DIS CAZ7
 BAR2 SZ EP        343 19.73                             173    -0.210   17 191 
 BAR2 SZ ES   2    343 34.62                             173    -0.9 5   17 191 
 BRR  HZ EP        343 21.68                             152     0.110   74 303 
 BRR  HZ I         343 23.26         7.7 0.18            151             74 303 
 BRR  HN ES   1    343 39.00                             152     0.4 7   74 303 
 RUS  HE ES   1    343 42.48                             147     0.3 7   94 175 
 RUS  HZ I         343 43.41         2.1 0.26            144             94 175 
 PTB  HZ EP        343 27.01                             133     0.0 9  146 261 
 PTB  HN ES   2    343 47.78                             133    -0.4 5  146 261 
 PTB  HZ I         343 50.60         1.8 0.12            131            146 261 
