 2011  627 0803 34.8 L   6.819 -73.028140.9  RSN  4 0.2 1.3LRSN                1
 GAP=202        0.59       7.7     8.8  8.7  0.5223E+01 -0.4087E+02 -0.2196E+02E
 Epicentro: CEPITA - SANTANDER                                                 3
 ACTION:UP  11-07-14 19:08 OP:ep   STATUS:               ID:20110627080334 L   I
 2011-06-27-0800-00M.COL___124                                                 6
 STAT SP IPHASW D HRMM SECON CODA AMPLIT PERI AZIMU VELO SNR AR TRES W  DIS CAZ7
 BTL  SZ EP        8 3 54.03                             168     0.110   29 293 
 BTL  SZ ES   2    8 4  8.96                             168     0.1 5   29 293 
 BAR2 SZ EP        8 3 53.73                             167    -0.310   30 214 
 BAR2 SZ ES   2    8 4  9.38                             167     0.4 5   30 214 
 BRR  HZ EP        8 3 56.35                             148     0.310   82 293 
 BRR  HZ I         8 3 57.44         3.6 0.08                            82 293 
 BRR  HN ES   1    8 4 12.43                             148    -0.2 7   82 293 
 GRA  SZ EP        8 3 59.09                             137    -0.110  120  12 
 GRA  SZ I         8 4 19.41         2.6 0.28                           120  12 
                                                                                
