 2014  827 0229 59.4 L   6.828 -73.207158.0  RSN  5 0.4 1.4LRSN                1
 GAP=277        0.86       6.0     8.9  8.7 -0.1101E+02 -0.1965E+02  0.1963E+02E
 Epicentro: ZAPATOCA - SANTANDER                                               3
 ACTION:UPD 14-09-15 21:53 OP:nd   STATUS:               ID:20140827022959 L   I
 OLDACT:REG 14-08-27 12:51 OP:fm   STATUS:               ID:20140827022816     3
 2014-08-27-0228-16M.COL___254                                                 6
 STAT SP IPHASW D HRMM SECON CODA AMPLIT PERI AZIMU VELO AIN AR TRES W  DIS CAZ7
 BRR  HZ EP        230 21.47                             157    0.0110 63.8 299 
 BRR  HN ES        230 39.02                             157    0.3110 63.8 299 
 BRR  HZ I         230 41.69         4.1 0.44            151           63.8 299 
 PTB  HZ EP        230 26.29                             136   -0.54 9  142 257 
 PTB  HN ES        230 47.78                             136   -0.49 9  142 257 
 PTB  HZ I         230 51.13         3.1 0.16            133            142 257 
 SPBC HZ EP        230 28.69                             132    0.02 9  162 216 
 SPBC HN ES        230 51.58                             132    0.05 9  162 216 
 SPBC HZ I         230 52.97         2.8 0.14            132            162 216 
 ZAR  HN ES   1    230 57.58                             126    0.32 6  197 292 
 ZAR  HZ I         231  3.58         3.9 0.60            124            197 292 
 GUY2CHZ EP   1    230 43.65                             115    0.50 5  298 234 
 GUY2CHN ES   1    231 18.18                             115    0.87 5  298 234 
 GUY2CHZ I         231 23.67         0.8 0.28                           298 234 
                                                                                
