 2012  627 0902 24.1 L   6.790 -73.160150.6  RSN  7 0.3 1.5LRSN                1
 GAP=235        0.60       4.1     5.2  5.9  0.9143E+01  0.9489E+01  0.7271E+01E
 Epicentro: LOS SANTOS - SANTANDER                                             3
 ACTION:UPD 12-08-06 17:53 OP:ep   STATUS:               ID:20120627090224 L   I
 2012-06-27-0900-00M.COL___201                                                 6
 STAT SP IPHASW D HRMM SECON CODA AMPLIT PERI AZIMU VELO AIN AR TRES W  DIS CAZ7
 BAR2 SZ EP   1    9 2 44.20                             171   -0.09 7 22.0 186 
 BAR2 SZ ES   1    9 2 59.55                             171   -0.49 7 22.0 186 
 BAR2 SZ I         9 3  1.78         8.1 0.32                          22.0 186 
 BRR  HZ EP   1    9 2 46.16                             154    0.43 7 70.3 300 
 BRR  HZ I         9 2 46.41        11.3 0.13                          70.3 300 
 BRR  HN ES   1    9 3  2.97                             154    0.37 7 70.3 300 
 RUS  HZ EP   1    9 2 48.44                             145    0.17 7 99.6 175 
 RUS  HN ES   1    9 3  7.22                             145    0.11 7 99.6 175 
 RUS  HZ I         9 3  8.15         3.5 0.34                          99.6 175 
 PTB  HZ EP   1    9 2 50.85                             133   -0.47 7  146 259 
 PTB  HZ I         9 3 14.43         2.6 0.14                           146 259 
 ZAR  HN ES   1    9 3 22.05                             124   -0.19 6  203 293 
 ZAR  HZ I         9 3 28.51         3.4 0.25                           203 293 
 NOR  SN ES   1    9 3 27.92                             120    0.07 6  233 234 
 CHI  HZ EP   1    9 3  1.72                             118   -0.20 6  247 195 
 CHI  HE ES   1    9 3 31.62                             118    0.21 6  247 195 
 CHI  HZ I         9 3 35.15         2.8 0.31                           247 195 
                                                                                
