 2012  327 0807  0.3 L   6.758 -73.125149.1  RSN  5 0.3 1.5LRSN                1
 GAP=141        0.78       6.6     6.4  7.4 -0.4582E+01  0.6603E+01  0.1309E+02E
 ACTION:UP  12-03-31 23:23 OP:EP   STATUS:               ID:20120327080700 L   I
 2012-03-27-0800-00M.COL___196                                                 6
 STAT SP IPHASW D HRMM SECON CODA AMPLIT PERI AZIMU VELO SNR AR TRES W  DIS CAZ7
 BAR2 SZ EP        8 7 20.35                             172     0.010   19 199 
 BAR2 SZ ES   1    8 7 35.63                             172    -0.2 7   19 199 
 BAR2 SZ I         8 7 38.18         6.1 0.44                            19 199 
 BRR  HZ EP        8 7 22.31                             152     0.210   75 301 
 BRR  HZ I         8 7 23.79         6.9 0.12                            75 301 
 BRR  HN ES   1    8 7 39.49                             152     0.4 7   75 301 
 PAM  SZ EP        8 7 23.20                             151     0.110   80  36 
 PAM  SE ES   1    8 7 40.33                             151    -0.4 7   80  36 
 RUS  HZ EP        8 7 24.26                             146     0.210   96 177 
 RUS  HN ES   3    8 7 43.00                             146     0.4 2   96 177 
 PTB  HZ EP        8 7 27.18                             132    -0.5 9  149 261 
                                                                                
