 2016  327 0512 30.1 L   6.774 -73.168135.9  RSN  5 0.3 1.2LRSN                1
 GAP=241        0.79       6.8     5.9  7.0  0.2404E+02  0.6880E+01 -0.1145E+02E
 Epicentro: LOS SANTOS - SANTANDER                                             3
 ACTION:UPD 16-05-13 21:28 OP:cam  STATUS:               ID:20160327051230 L   I
 OLDACT:REG 16-03-27 13:22 OP:ak   STATUS:               ID:20160327050745     3
 2016-03-27-0507-45M.COL___292                                                 6
 STAT SP IPHASW D HRMM SECON CODA AMPLIT PERI AZIMU VELO AIN AR TRES W  DIS CAZ7
 BAR2 EZ EP   2    512 48.28                             171   -0.16 5 20.2 185 
 BAR2 EZ ES        513  2.72                             171   -0.0610 20.2 185 
 BAR2 EZ I         513  4.30         5.2 0.16            174           20.2 185 
 RUS  HZ EP        512 52.68                             143    0.0210 97.9 174 
 RUS  HN ES        513 10.44                             143    0.1610 97.9 174 
 RUS  HZ I         513 11.76         1.9 0.34            148           97.9 174 
 PTB  HZ EP        512 55.27                             130   -0.70 9  145 260 
 PTB  HN ES        513 16.03                             130   -0.14 9  145 260 
 PTB  HZ I         513 18.32         2.5 0.14            131            145 260 
 SPBC HN ES   2    513 19.31                             128    0.49 5  159 219 
 ZAR  HZ EP        513  2.25                             120    0.49 9  203 293 
 ZAR  HN ES        513 26.76                             120    0.27 9  203 293 
 ZAR  HZ I         513 35.11         1.1 0.14            121            203 293 
                                                                                
