 2016  427 0236 58.1 L   6.804 -73.171136.0  RSN  4 0.3 1.3LRSN                1
 GAP=242        0.56       9.1     5.4  7.9  0.3239E+02 -0.9013E+01 -0.2573E+02E
 Epicentro: LOS SANTOS - SANTANDER                                             3
 ACTION:UPD 16-05-05 14:24 OP:rebc STATUS:               ID:20160427023658 L   I
 OLDACT:REG 16-04-27 12:49 OP:dnl  STATUS:               ID:20160427022749     3
 2016-04-27-0227-49M.COL___318                                                 6
 STAT SP IPHASW D HRMM SECON CODA AMPLIT PERI AZIMU VELO AIN AR TRES W  DIS CAZ7
 BAR2 EZ EP   2    237 16.88                             170    0.31 5 23.4 183 
 BAR2 EZ ES   2    237 30.85                             170   -0.12 5 23.4 183 
 BAR2 EZ I         237 33.18         5.5 0.22            175           23.4 183 
 RUS  HZ EP        237 20.94                             142   -0.0210  101 174 
 RUS  HE ES   2    237 38.86                             142    0.07 5  101 174 
 RUS  HZ I         237 41.29         1.2 0.14            149            101 174 
 PTB  HZ EP        237 23.75                             130   -0.30 9  145 258 
 PTB  HN ES        237 44.43                             130    0.16 9  145 258 
 PTB  HZ I         237 47.13         2.8 0.14            134            145 258 
 ZAR  HZ EP   2    237 30.52                             121    0.88 4  201 292 
 ZAR  HE ES   2    237 53.80                             121   -0.44 4  201 292 
 ZAR  HZ I         238  0.41         3.6 0.56            123            201 292 
                                                                                
