 2017  727 0904 14.9 L   6.702 -73.516108.0  RSN  4 0.3 0.7LRSN                1
 GAP=152        0.50       5.1     2.8  5.1  0.2812E+01  0.5949E+01  0.8012E+01E
 Epicentro: EL CARMEN - SANTANDER                                              3
 ACTION:UPD 17-08-30 15:37 OP:rebc STATUS:               ID:20170727090414 L   I
 OLDACT:UP  17-07-27 17:09 OP:and  STATUS:               ID:20170727085744     3
 OLDACT:UP  17-07-27 17:05 OP:and  STATUS:               ID:20170727085744     3
 OLDACT:REG 17-07-27 12:36 OP:and  STATUS:               ID:20170727085744     3
 2017-07-27-0858-00M.COL___368                                                 6
 STAT SP IPHASW D HRMM SECON CODA AMPLIT PERI AZIMU VELO AIN AR TRES W  DIS CAZ7
 BAR2 EZ EP        9 4 30.65                             159    0.0410 38.8 108 
 BAR2 EZ ES        9 4 42.94                             159    0.1110 38.8 108 
 BAR2 EZ I         9 4 44.27         3.0 0.18            161           38.8 108 
 BRR  HZ EP   3    9 4 30.18                             154   -0.62 2 49.8 334 
 BRR  HN ES        9 4 42.96                             154   -0.2110 49.8 334 
 PTB  HZ IP     C  9 4 34.87                             132   -0.1310  106 260 
 PTB  HN ES        9 4 50.76                             132    0.1110  106 260 
 PTB  HZ I         9 4 55.69         0.6 0.18            132            106 260 
 ZAR  HZ EP   2    9 4 42.00                             117    0.28 4  172 301 
 ZAR  HN ES   3    9 5  3.93                             117    1.33 2  172 301 
                                                                                
