 2012  727 0734 36.7 L   6.793 -73.157148.9  RSN  8 0.3 2.2LRSN                1
 GAP=135        0.69       3.3     5.0  6.1 -0.2634E+01  0.3492E+01  0.2350E+01E
 Epicentro: LOS SANTOS - SANTANDER                                             3
 ACTION:UPD 12-08-14 11:45 OP:ep   STATUS:               ID:20120727073436 L   I
 2012-07-27-0730-00M.COL___215                                                 6
 STAT SP IPHASW D HRMM SECON CODA AMPLIT PERI AZIMU VELO AIN AR TRES W  DIS CAZ7
 BAR2 SZ IP        734 56.75                             171     0.010   22 187 
 BAR2 SZ I         735 13.18        53.9 0.14            173             22 187 
 BRR  HZ EP   3    734 58.83                             153     0.6 2   70 300 
 BRR  HN ES   1    735 15.30                             153     0.4 7   70 300 
 BRR  HZ I         735 18.43        26.6 0.10            156             70 300 
 PAM  SZ EP        734 59.68                             151     0.310   79  40 
 PAM  SN ES   2    735 16.51                             151    -0.5 5   79  40 
 RUS  HZ EP        735  0.69                             145    -0.110  100 175 
 RUS  HN ES   1    735 19.50                             145     0.0 7  100 175 
 RUS  HZ I         735 21.06        15.7 0.30            148            100 175 
 PTB  HZ EP        735  3.48                             133    -0.4 9  146 259 
 PTB  HN ES   2    735 24.66                             133    -0.3 5  146 259 
 PTB  HZ I         735 26.58         9.7 0.36            137            146 259 
 OCA  HZ EP        735  5.13                             130    -0.2 9  161 354 
 OCA  HN ES   3    735 27.03                             130    -0.6 2  161 354 
 OCA  HZ I         735 31.59        23.4 0.20            132            161 354 
 NOR  SZ EP        735 12.97                             119     0.5 8  233 234 
 CHI  HZ EP        735 14.51                             118     0.0 8  248 195 
 CHI  HN ES   1    735 43.70                             118    -0.3 6  248 195 
