 2016 1127 0035 34.4 L   6.784 -73.150141.8  RSN 14 0.5 2.2LRSN                1
 GAP= 85        1.01       4.0     3.1  5.6 -0.5410E+00  0.3323E+01  0.6611E+01E
 Epicentro: LOS SANTOS - SANTANDER                                             3
 ACTION:UPD 17-10-26 21:12 OP:lp   STATUS:               ID:20161127003534 L   I
 OLDACT:UP  16-11-27 13:17 OP:dani STATUS:               ID:20161127002748     3
 OLDACT:UP  16-11-27 13:16 OP:dani STATUS:               ID:20161127002748     3
 OLDACT:UP  16-11-27 13:16 OP:dani STATUS:               ID:20161127002748     3
 OLDACT:UP  16-11-27 13:15 OP:dani STATUS:               ID:20161127002748     3
 OLDACT:UP  16-11-27 13:15 OP:dani STATUS:               ID:20161127002748     3
 OLDACT:UP  16-11-27 13:15 OP:dani STATUS:               ID:20161127002748     3
 OLDACT:UP  16-11-27 13:15 OP:dani STATUS:               ID:20161127002748     3
 OLDACT:REG 16-11-27 12:31 OP:dani STATUS:               ID:20161127002748     3
 2016-11-27-0028-00M.COL___346                                                 6
 STAT SP IPHASW D HRMM SECON CODA AMPLIT PERI AZIMU VELO AIN AR TRES W  DIS CAZ7
 BAR2 EZ EP     C  035 53.28                             171   -0.2110 21.5 190 
 BAR2 EZ ES        036  8.12                             171   -0.2910 21.5 190 
 BAR2 EZ I         036  9.28        56.6 0.20            173           21.5 190 
 BRR  HZ EP     C  035 55.17                             152    0.0510 71.6 300 
 BRR  HN ES        036 12.18                             152    0.8810 71.6 300 
 BRR  HZ I         036 13.77        33.0 0.14            137           71.6 300 
 PAM  EZ EP        035 56.27                             149    0.0010 79.0  39 
 PAM  EN ES        036 13.14                             149   -0.2110 79.0  39 
 PAM  EZ I         036 15.51        38.6 0.50            135           79.0  39 
 PTB  HZ EP   2    035 59.87                             131   -1.08 5  147 259 
 PTB  HN ES        036 20.81                             131   -0.87 9  147 259 
 PTB  HZ I         036 22.90        21.9 0.46            119            147 259 
 TAM  HZ EP     D  036  1.60                             130   -0.14 9  155 104 
 TAM  HE ES        036 23.46                             130    0.37 9  155 104 
 TAM  HZ I         036 28.83         7.9 0.32            118            155 104 
 ZAR  HZ EP        036  6.53                             121   -0.06 9  204 293 
 ZAR  HN ES        036 31.96                             121    0.24 9  204 293 
 ZAR  HZ I         036 38.11        26.8 0.30            110            204 293 
 NOR  HZ EP   3    036  8.44                             118   -1.29 2  233 235 
 NOR  HE ES        036 37.48                             118    0.18 8  233 235 
 NOR  HZ I         036 44.11        10.3 0.20            108            233 235 
 CHI  HZ EP   3    036 13.27                             116    1.61 2  247 195 
 CHI  HN ES        036 40.28                             116   -0.46 8  247 195 
 CHI  HZ I         036 47.88         4.5 0.51            108            247 195 
 ROSC BZ EP   9    036 14.19                             116    2.10 0  251 211 
 ROSC BE ES   2    036 44.96                             115    1.35 4  251 211 
 ROSC BZ I         036 50.91        10.6 0.31            107            251 211 
 URE  HZ EP        036 15.36                             113    0.08 7  284 292 
 URE  HZ I         036 48.74        10.9 0.14            104            284 292 
 PRA  HZ EP        036 27.86                             106    0.30 6  390 210 
 PRA  HN ES        037  9.78                             106    0.74 6  390 210 
 PRA  HZ I         037 16.20         6.1 0.24            100            390 210 
 ORTC HZ EP        036 28.48                             106    0.51 6  394 216 
 ORTC HE ES   4    037 13.55                             106    3.78 0  394 216 
 ORTC HZ I         037 15.86         2.6 0.17            100            394 216 
 PAL  HZ EP        036 29.51                             105    0.26 6  404 239 
 SJC  HZ EP   3    036 27.46                             105   -2.49 1  410 327 
 SJC  HZ I         037 13.30         3.3 0.74             99            410 327 
                                                                                
