 2014  227 0347 21.3 L   6.822 -73.186142.7  RSN  4 0.2 1.4LRSN                1
 GAP=276        0.42       6.9     3.9  6.1  0.1703E+02 -0.4148E+01 -0.1697E+02E
 Epicentro: ZAPATOCA - SANTANDER                                               3
 ACTION:UPD 14-03-10 08:13 OP:ep   STATUS:               ID:20140227034721 L   I
 OLDACT:DUP 14-02-27 12:37 OP:fm   STATUS:               ID:20140227033818d    3
 2014-02-27-0338-16M.COL___234                                                 6
 STAT SP IPHASW D HRMM SECON CODA AMPLIT PERI AZIMU VELO AIN AR TRES W  DIS CAZ7
 BAR2 SZ ES   2    347 55.89                             170    0.22 5 25.4 179 
 BAR2 SZ I         347 56.89        12.8 0.62            168           25.4 179 
 RUS  HZ EP        347 45.09                             142    0.1310  103 174 
 RUS  HE ES        348  3.22                             142   -0.1910  103 174 
 RUS  HZ I         348  5.09         1.9 0.34            144            103 174 
 PTB  HZ EP   1    347 47.57                             132   -0.10 7  144 258 
 PTB  HN ES        348  8.22                             132   -0.02 9  144 258 
 PTB  HZ I         348 13.95         2.9 0.18            132            144 258 
 SPBC HE ES   2    348 11.78                             128    0.31 5  162 217 
                                                                                
