 2014 1027 0317  2.8 L   6.802 -73.144143.9  RSN 22 0.5 2.2LRSN                1
 GAP= 71        1.09       3.0     3.3  5.2 -0.2664E+01  0.2630E+01  0.3047E+01E
 Epicentro: LOS SANTOS - SANTANDER                                             3
 ACTION:UPD 14-11-29 23:57 OP:nd   STATUS:               ID:20141027031702 L   I
 OLDACT:DUP 14-10-29 23:05 OP:spq  STATUS:               ID:20141027030750d    3
 2014-10-27-0307-49M.COL___274                                                 6
 STAT SP IPHASW D HRMM SECON CODA AMPLIT PERI AZIMU VELO AIN AR TRES W  DIS CAZ7
 BAR2 SZ EP        317 22.22                             170   -0.0310 23.6 190 
 BAR2 SZ ES   1    317 37.24                             170   -0.15 7 23.6 190 
 BAR2 SZ I         317 38.58        76.2 0.20            168           23.6 190 
 BRR  HZ EP        317 24.04                             152    0.2510 71.3 298 
 BRR  HN ES        317 40.96                             152    0.8310 71.3 298 
 BRR  HZ I         317 43.69        23.4 0.32            151           71.3 298 
 PAM  SZ EP        317 24.95                             150    0.1110 77.0  40 
 PAM  SN ES        317 42.05                             150    0.0610 77.0  40 
 PAM  SZ I         317 44.50        25.3 0.62            153           77.0  40 
 RUS  HZ EP        317 26.00                             143   -0.4310  101 176 
 RUS  HE ES        317 44.68                             143   -0.1410  101 176 
 RUS  HZ I         317 46.00        23.3 0.30            143            101 176 
 PTB  HZ EP        317 28.91                             131   -0.77 9  148 259 
 PTB  HN ES        317 50.01                             131   -0.61 9  148 259 
 PTB  HZ I         317 51.75        22.1 0.24            130            148 259 
 TAM  HZ EP     D  317 30.50                             130    0.14 9  155 105 
 TAM  HE ES        317 52.14                             130    0.32 9  155 105 
 TAM  HZ I         317 56.88        12.2 0.34            131            155 105 
 OCA  HZ EP   1    317 30.96                             129   -0.02 7  160 353 
 OCA  HN ES        317 52.69                             129   -0.24 9  160 353 
 OCA  HZ I         317 55.38        25.0 0.22            130            160 353 
 SPBC HZ EP   1    317 31.15                             128   -0.08 7  164 219 
 SPBC HN ES        317 52.64                             128   -0.73 9  164 219 
 SPBC HZ I         317 59.04        27.0 0.38            127            164 219 
 CHI  HZ EP        317 40.42                             117   -0.05 8  249 195 
 CHI  HN ES   1    318 10.06                             117    0.24 6  249 195 
 CHI  HZ I         318 16.73         8.2 0.44            116            249 195 
 ROSC BZ EP        317 41.91                             116    1.01 8  253 211 
 ROSC BE ES   4    318 12.89                             116    2.31 0  253 211 
 ROSC BZ I         318 18.15        16.6 0.45            116            253 211 
 HEL  HZ EP   4    317 44.10                             114    1.11 0  272 256 
 HEL  HN ES   4    318 16.79                             114    2.48 0  272 256 
 HEL  HZ I         318 21.87         8.5 0.52            114            272 256 
 GUY2CHZ EP   4    317 47.31                             112    0.91 0  302 235 
 GUY2CHN ES        318 20.30                             112   -0.08 7  302 235 
 GUY2CHZ I         318 28.64        15.1 0.28                           302 235 
 PTGC HN ES   4    318 18.73                             111   -2.06 0  309 159 
 PTGC HZ I         318 21.27        10.7 0.58            111            309 159 
 RREF HZ EP   4    317 46.51                             110   -2.43 0  322 229 
 RREF HN ES   4    318 22.10                             110   -2.80 0  322 229 
 RREF HZ I         318 25.95         7.4 0.24            110            322 229 
 CBOC HZ EP        317 50.63                             109    0.92 7  334 252 
 CBOC HN ES   1    318 25.46                             109   -0.81 5  334 252 
 CBOC HZ I         318 35.78         3.0 0.48            109            334 252 
 TOL  SZ EP        317 51.81                             109    0.75 7  344 225 
 TOL  SE ES   1    318 29.45                             109    0.78 5  344 225 
 TOL  SZ I         318 38.82        24.5 0.38            108            344 225 
 MON  HZ EP   4    317 49.82                             108   -1.95 0  354 308 
 MON  HN ES   4    318 28.14                             108   -1.80 0  354 308 
 MON  HZ I         318 31.18         3.3 0.34            108            354 308 
 ANIL HE ES        318 31.91                             108    0.47 6  358 225 
 ANIL HZ I         318 36.23         2.3 0.48            108            358 225 
 ARGC HZ EP   1    317 51.84                             108   -0.57 5  359 340 
 ARGC HN ES   1    318 31.79                             108    0.73 5  359 340 
 ARGC HZ I         318 39.49         3.5 0.38            108            359 340 
 SDV  BZ EP        317 51.76                             108   -1.01 6  360  50 
 SDV  BE ES   4    318 28.73                             108   -2.99 0  360  50 
 SDV  BZ I         318 33.58         2.4 0.40            108            360  50 
 PRA  HZ EP        317 55.93                             106   -0.41 6  392 210 
 PRA  HN ES        318 37.59                             106   -0.48 6  392 210 
 PRA  HZ I         318 44.60        11.0 0.48            106            392 210 
 ORTC HZ EP        317 56.78                             106    0.04 6  396 216 
 ORTC HE ES        318 39.48                             106    0.70 6  396 216 
 ORTC HZ I         318 46.52         6.7 0.38            106            396 216 
                                                                                
