 2014 1027 0147 48.1 L   6.552 -74.184 18.9  RSN  9 0.5 1.4LRSN                1
 GAP=133        1.20       3.2     2.3  3.7 -0.2649E+01 -0.1493E+01  0.2961E+01E
 Epicentro: PUERTO PARRA - SANTANDER                                           3
 ACTION:UPD 14-11-29 23:57 OP:nd   STATUS:               ID:20141027014748 L   I
 OLDACT:DUP 14-10-29 22:05 OP:spq  STATUS:               ID:20141027013744d    3
 2014-10-27-0137-43M.COL___271                                                 6
 STAT SP IPHASW D HRMM SECON CODA AMPLIT PERI AZIMU VELO AIN AR TRES W  DIS CAZ7
 PTB  HZ EP        147 53.91                             119    0.0510 30.1 267 
 PTB  HE ES        147 58.81                             119    0.4510 30.1 267 
 PTB  HZ I         147 59.09       127.6 0.18            121           30.1 267 
 BRR  HZ EP   1    148  0.41                             101   -0.70 7 80.6  40 
 BRR  HE ES        148 11.26                             101   -0.0010 80.6  40 
 BRR  HZ I         148 12.79        15.7 0.14            101           80.6  40 
 SPBC HN ES        148 16.41                              99   -0.2610  100 173 
 SPBC HZ I         148 17.57         3.4 0.16             99            100 173 
 BAR2 SZ EP        148  5.80                              98   -0.0910  111  88 
 BAR2 SZ ES   1    148 19.36                              98   -0.41 7  111  88 
 BAR2 SZ I         148 20.31        11.4 0.38             98            111  88 
 RUS  HZ EP        148 10.73                              56    0.31 9  142 121 
 RUS  HN ES        148 27.72                              56   -0.11 9  142 121 
 RUS  HZ I         148 28.85         5.9 0.50             56            142 121 
 HEL  HZ EP        148 11.35                              56   -0.43 9  154 255 
 HEL  HN ES        148 29.19                              56   -1.06 9  154 255 
 HEL  HZ I         148 29.76         5.6 0.22             56            154 255 
 PAM  SZ EP        148 15.96                              56    0.08 9  186  62 
 PAM  SN ES        148 38.14                              56    0.59 9  186  62 
 PAM  SZ I         148 39.48         4.1 0.36             56            186  62 
 GUY2CHZ EP        148 18.15                              56    0.92 9  197 222 
 GUY2CHN ES        148 40.44                              56    0.49 9  197 222 
 GUY2CHZ I         148 42.57         1.7 0.24                           197 222 
 TUM  HN E      D  149 26.32                                            726 224 
                                                                                
