 2015  927 0200 30.4 L   7.018 -73.211133.9  RSN 15 0.5 2.0LRSN                1
 GAP=116        1.07       3.1     3.8  5.9 -0.1366E+01  0.6589E+01  0.2271E+01E
 Epicentro: GIRON - SANTANDER                                                  3
 ACTION:UPD 15-10-28 16:28 OP:cam  STATUS:               ID:20150927020030 L   I
 OLDACT:REG 15-09-27 12:22 OP:spq  STATUS:               ID:20150927015751     3
 2015-09-27-0157-51M.COL___352                                                 6
 STAT SP IPHASW D HRMM SECON CODA AMPLIT PERI AZIMU VELO AIN AR TRES W  DIS CAZ7
 BAR2 EZ EP        2 0 49.38                             160    0.0210 47.2 176 
 BAR2 EZ ES   1    2 1  3.72                             160   -0.44 7 47.2 176 
 BAR2 EZ I         2 1  5.37        45.8 0.18            160           47.2 176 
 BRR  HZ EP        2 0 49.68                             156    0.2510 56.2 280 
 BRR  HE ES        2 1  4.72                             156    0.4410 56.2 280 
 BRR  HZ I         2 1  7.92        18.8 0.14            152           56.2 280 
 PAM  EZ EP        2 0 51.15                             152    0.4410 66.8  58 
 PAM  EE ES        2 1  6.92                             152    0.3610 66.8  58 
 PAM  EZ I         2 1  7.94        16.9 0.20            157           66.8  58 
 RUS  HZ EP        2 0 55.11                             135    0.1110  125 173 
 RUS  HN ES   1    2 1 13.91                             135   -0.30 7  125 173 
 OCA  HZ EP        2 0 55.14                             132   -0.32 9  136 355 
 OCA  HN ES        2 1 14.18                             132   -0.84 9  136 355 
 OCA  HZ I         2 1 16.69        30.8 0.54            133            136 355 
 PTB  HZ EP        2 0 55.68                             129   -0.70 9  147 249 
 PTB  HN ES        2 1 16.71                             129    0.06 9  147 249 
 PTB  HZ I         2 1 19.92        12.9 0.18            128            147 249 
 SPBC HZ EP        2 0 59.09                             123   -0.45 9  179 212 
 SPBC HE ES   1    2 1 21.92                             123   -0.36 7  179 212 
 SPBC HZ I         2 1 30.74        14.8 0.30            124            179 212 
 ZAR  HZ EP        2 1  1.26                             122    0.73 9  189 286 
 ZAR  HN ES        2 1 24.63                             122    0.58 9  189 286 
 ZAR  HZ I         2 1 28.83        12.9 0.32            121            189 286 
 SML  HZ EP   1    2 1  3.62                             118   -0.03 6  219 334 
 SML  HE ES   1    2 1 29.26                             118   -0.33 6  219 334 
 SML  HZ I         2 1 33.60        18.7 0.10            118            219 334 
 NOR  HZ EP   1    2 1  7.36                             115    0.89 6  244 229 
 NOR  HN ES        2 1 33.75                             115   -0.87 8  244 229 
 NOR  HZ I         2 1 40.86        11.3 0.20            115            244 229 
 CHI  HZ EP        2 1  9.99                             112    0.11 8  270 192 
 CHI  HN ES   4    2 1 44.20                             112    3.52 0  270 192 
 CHI  HZ I         2 1 47.45         4.3 0.36            113            270 192 
 HEL  HZ EP        2 1 10.38                             112    0.36 8  272 250 
 HEL  HE ES   1    2 1 41.22                             112    0.28 6  272 250 
 HEL  HZ I         2 1 46.57         6.3 0.40            112            272 250 
 GUY2CHZ EP   1    2 1 14.82                             109    0.33 5  310 230 
 GUY2CHE ES   1    2 1 49.15                             109    0.26 5  310 230 
 GUY2CHZ I         2 1 57.49         3.8 0.32                           310 230 
 MON  HZ EP   4    2 1 14.15                             108   -2.43 0  333 306 
 MON  HN ES   1    2 1 51.70                             108   -0.91 5  333 306 
 MON  HZ I         2 1 56.13         1.8 0.28            108            333 306 
 SJC  HZ EP   4    2 1 21.32                             105   -1.41 0  385 326 
 SJC  HN ES   4    2 2  1.93                             105   -1.63 0  385 326 
 SJC  HZ I         2 2 14.01         2.7 0.34            105            385 326 
                                                                                
