 2013  927 0715 33.9 L   6.492 -73.731100.3  RSN  9 0.5 1.4LRSN                1
 GAP= 78        0.90       3.1     4.1  8.1  0.5238E+00  0.1551E+02 -0.7227E+01E
 Epicentro: SANTA HELENA DEL OPON - SANTANDER                                  3
 ACTION:UPD 13-10-22 09:25 OP:ep   STATUS:               ID:20130927071533 L   I
 OLDACT:REG 13-09-27 09:49 OP:mh   STATUS:               ID:20130927071000     3
 2013-09-27-0710-00M.COL___272                                                 6
 STAT SP IPHASW D HRMM SECON CODA AMPLIT PERI AZIMU VELO AIN AR TRES W  DIS CAZ7
 BAR2 SZ EP   1    715 50.75                             146    0.76 7 61.7  80 
 BAR2 SZ ES   1    716  2.84                             146    0.27 7 61.7  80 
 BAR2 SZ I         716  3.53        16.6 0.24            150           61.7  80 
 BRR  HZ EP   1    715 50.09                             143   -0.01 7 68.0   2 
 BRR  HN ES   1    716  2.32                             143   -0.44 7 68.0   2 
 BRR  HZ I         716  8.03         3.5 0.14            143           68.0   2 
 PTB  HZ EP   1    715 50.31                             138   -0.78 7 80.4 274 
 PTB  HN ES   4    716  2.84                             138   -1.68 0 80.4 274 
 PTB  HZ I         716  2.91         7.3 0.14            139           80.4 274 
 RUS  HZ EP   1    715 53.69                             133    0.46 7 97.7 133 
 RUS  HN ES        716  8.05                             133   -0.2810 97.7 133 
 RUS  HZ I         716 10.04         2.1 0.28            138           97.7 133 
 SPBC HZ EP   1    715 53.17                             132    0.25 7  100 202 
 SPBC HN ES   1    716  7.64                             132   -0.15 7  100 202 
 SPBC HZ I         716 10.10         6.2 0.22            135            100 202 
 NOR  HN ES   2    716 19.49                             117    0.47 5  163 231 
 ZAR  HZ EP   1    716  0.23                             117    0.62 7  167 312 
 ZAR  HN ES   1    716 20.17                             117    0.48 7  167 312 
 ZAR  HZ I         716 26.09         3.5 0.24            117            167 312 
 HEL  HZ EP   1    716  3.25                             112   -0.76 6  202 261 
 HEL  HN ES   2    716 28.10                             112    0.57 4  202 261 
 HEL  HZ I         716 31.37         3.1 0.32            113            202 261 
 SML  HZ IPg  1    716  9.69                             107   -0.41 6  258 352 
 SML  HZ EP        716  9.78                             107   -0.32 8  258 352 
 SML  HN ES        716 38.39                             107    0.03 8  258 352 
 SML  HZ I         716 42.98         3.0 0.32            107            258 352 
                                                                                
