 2013  927 0405 10.2 L   6.806 -73.157147.4  RSN  5 0.3 1.1LRSN                1
 GAP=200        0.56       3.7     5.3  9.2  0.7695E+01 -0.7197E+01 -0.1738E+02E
 Epicentro: LOS SANTOS - SANTANDER                                             3
 ACTION:UPD 13-10-22 09:25 OP:ep   STATUS:               ID:20130927040510 L   I
 OLDACT:UP  13-09-27 12:09 OP:mh   STATUS:               ID:20130927035959     3
 OLDACT:REG 13-09-27 09:38 OP:mh   STATUS:               ID:20130927035959     3
 2013-09-27-0359-59M.COL___272                                                 6
 STAT SP IPHASW D HRMM SECON CODA AMPLIT PERI AZIMU VELO AIN AR TRES W  DIS CAZ7
 RUS  HZ EP   1    4 5 33.91                             144   -0.29 7  101 175 
 RUS  HN ES   1    4 5 53.11                             144    0.21 7  101 175 
 RUS  HZ I         4 5 54.00         0.8 0.44            144            101 175 
 PTB  HZ EP   1    4 5 37.00                             133   -0.23 7  147 258 
 PTB  HN ES   2    4 5 58.61                             133    0.31 5  147 258 
 PTB  HZ I         4 6  5.70         2.4 0.42            130            147 258 
 SPBC HZ EP   1    4 5 39.08                             129    0.25 7  163 218 
 SPBC HE ES   1    4 6  0.87                             129   -0.27 7  163 218 
 SPBC HZ I         4 6  6.19         1.7 0.20            129            163 218 
 ZAR  HN ES   1    4 6  8.01                             123    0.09 6  203 292 
 SML  HZ EP   1    4 5 47.35                             118    0.53 6  243 335 
 SML  HN ES   1    4 6 15.01                             118   -0.36 6  243 335 
                                                                                
