 2010  727 0821 27.4 L   6.787 -73.091138.0  RSN  7 0.4 1.8LRSN                1
 GAP=165        0.86       6.2     8.4  9.1 -0.2815E+02 -0.9342E+01  0.8080E+01E
 Epicentro: LOS SANTOS - SANTANDER                                             3
 ACTION:UPD 10-12-01 15:20 OP:pat  STATUS:               ID:20100727082127 L   I
 2010-07-27-0819-24S.COL___123                                                 6
 STAT SP IPHASW D HRMM SECON CODA AMPLIT PERI AZIMU VELO AIN AR TRES W  DIS CAZ7
 BRR  HZ EP        821 47.91                             149    -0.210   77 297 
 BRR  HZ I         821 49.94        16.3 0.11                            77 297 
 BRR  HN ES   1    822  4.51                             149     0.3 7   77 297 
 RUS  HE ES   2    822  7.77                             143    -0.4 5   99 179 
 RUS  HZ I         822 10.78         3.9 0.24                            99 179 
 GUE  SZ EP   1    821 52.20                             138     0.8 7  117   9 
 GRA  SZ EP        821 51.85                             136    -0.110  125  15 
 GRA  SZ ES   1    822 11.24                             136     0.2 7  125  15 
 GRA  SZ I         822 13.47        10.0 0.39                           125  15 
 OCA  SZ EP        821 54.88                             128    -0.5 9  162 351 
 OCA  SZ I         822 19.46         9.6 0.38                           162 351 
 HEL  HZ EP   2    822  8.06                             113     0.2 4  278 256 
 HEL  HN ES   2    822 39.19                             113    -0.2 4  278 256 
 HEL  HZ I         822 45.43         3.4 0.37                           278 256 
 PRA  HZ EP   1    822 21.01                             105     0.1 4  394 210 
 PRA  HE ES   2    823  3.49                             105     0.9 3  394 210 
 PRA  HZ I         823  8.27         2.8 0.33                           394 210 
                                                                                
