 2011  627 0811 45.1 L   6.975 -73.033148.5  RSN  6 0.3 1.5LRSN                1
 GAP=184        0.86       9.9    13.6 11.7 -0.8898E+02 -0.2862E+02  0.9274E+01E
 Epicentro: PIEDECUESTA - SANTANDER                                            3
 ACTION:UP  11-07-14 19:08 OP:ep   STATUS:               ID:20110627081145 L   I
 2011-06-27-0800-00M.COL___124                                                 6
 STAT SP IPHASW D HRMM SECON CODA AMPLIT PERI AZIMU VELO SNR AR TRES W  DIS CAZ7
 GIR2 SZ EP        812  5.02                             172     0.210   21 303 
 BTL  SZ EP        812  4.99                             170    -0.110   27 257 
 BAR2 SZ EP   2    812  5.23                             162    -0.4 5   45 201 
 BAR2 SZ ES   2    812 21.83                             162     0.1 5   45 201 
 BAR2 SZ I         812 22.55         3.8 0.41                            45 201 
 BRR  HZ EP        812  6.49                             152    -0.310   76 281 
 BRR  HZ I         812  7.17        15.0 0.13                            76 281 
 BRR  HN ES   2    812 24.30                             152     0.5 5   76 281 
 BRI  SZ EP        812  8.15                             148     0.510   86  18 
 GRA  SZ EP        812  8.75                             143    -0.110  104  14 
 GRA  SZ ES   1    812 26.85                             143    -0.5 7  104  14 
 GRA  SZ I         812 28.95         3.8 0.25                           104  14 
                                                                                
