 2012  927 0303 43.2 L   5.956 -74.038 76.0  RSN  5 0.5 1.2LRSN                1
 GAP=215        1.03       6.7     7.3 20.5 -0.2960E+02 -0.5368E+02  0.8337E+02E
 Epicentro: LA BELLEZA - SANTANDER                                             3
 ACTION:UPD 12-10-22 14:21 OP:ep   STATUS:               ID:20120927030343 L   I
 2012-09-27-0300-00M.COL___217                                                 6
 STAT SP IPHASW D HRMM SECON CODA AMPLIT PERI AZIMU VELO AIN AR TRES W  DIS CAZ7
 PTB  HN ES   1    3 4  9.45                             129   -0.50 8 79.4 324 
 BRR  HZ EP   1    3 4  3.80                             114    0.02 8  132  16 
 BRR  HE ES   1    3 4 20.52                             114    0.66 8  132  16 
 HEL  HE ES        3 4 28.48                             108    0.6610  167 279 
 RREF HZ EP        3 4 10.61                             106   -0.2210  186 231 
 RREF HN ES   1    3 4 32.25                             106   -0.17 7  186 231 
 RREF HZ I         3 4 39.16         1.7 0.54                           186 231 
 ZAR  HN ES   1    3 4 31.52                             105   -0.85 7  193 332 
 ZAR  HN I         3 4 36.61         2.3 0.40                           193 332 
                                                                                
