 2011  627 0930 13.3 L   6.748 -73.058140.4  RSN  7 0.3 1.5LRSN                1
 GAP=167        0.60       4.7     8.5  6.6 -0.5018E+01 -0.1540E+02 -0.9238E+01E
 Epicentro: LOS SANTOS - SANTANDER                                             3
 ACTION:UP  11-07-14 19:08 OP:ep   STATUS:               ID:20110627093013 L   I
 2011-06-27-0928-41S.COL___140                                                 6
 STAT SP IPHASW D HRMM SECON CODA AMPLIT PERI AZIMU VELO SNR AR TRES W  DIS CAZ7
 BTL  SZ EP        930 32.71                             168     0.310   30 309 
 BTL  SZ ES   1    930 47.21                             168    -0.2 7   30 309 
 GIR2 SZ EP        930 32.64                             164     0.010   40 338 
 BRR  HZ EP        930 34.46                             148    -0.110   82 299 
 BRR  HZ I         930 34.81         8.7 0.13                            82 299 
 BRR  HN ES   2    930 51.64                             148     0.5 5   82 299 
 RUS  HZ EP   3    930 35.03                             144    -1.1 2   95 182 
 RUS  HN ES   2    930 53.64                             144    -0.2 5   95 182 
 BRI  SZ EP   2    930 37.29                             139     0.4 5  111  15 
 GRA  SZ EP        930 38.55                             135     0.210  129  13 
 GRA  SZ ES   2    930 57.71                             135    -0.2 5  129  13 
 GRA  SZ I         931  0.52         2.7 0.33                           129  13 
 OCA  SZ EP        930 41.62                             127    -0.3 9  167 350 
 OCA  SZ ES   2    931  3.74                             127    -0.5 5  167 350 
 OCA  SZ I         931  8.28         4.4 0.22                           167 350 
                                                                                
