 2013 1227 0423 50.9 L   6.783 -73.147144.5  RSN 10 0.4 1.8LRSN                1
 GAP= 72        0.98       3.8     3.8  6.0 -0.2992E+01  0.1905E+01  0.3556E+01E
 Epicentro: LOS SANTOS - SANTANDER                                             3
 ACTION:UP  14-01-13 10:21 OP:ep   STATUS:               ID:20131227042350 L   I
 OLDACT:SPL 14-01-08 16:38 OP:ep   STATUS:               ID:20131227042350 L   3
 OLDACT:UP  13-12-27 10:22 OP:mh   STATUS:               ID:20131227042000     3
 OLDACT:REG 13-12-27 07:43 OP:mh   STATUS:               ID:20131227042000     3
 2013-12-27-0420-00M.COL___285                                                 6
 STAT SP IPHASW D HRMM SECON CODA AMPLIT PERI AZIMU VELO AIN AR TRES W  DIS CAZ7
 BAR2 SZ EP        424 10.36                             171   -0.0310 21.4 191 
 BAR2 SZ ES        424 25.88                             171    0.3210 21.4 191 
 BAR2 SZ I         424 26.56        19.7 0.23            170           21.4 191 
 BRR  HZ IP     D  424 12.44                             152    0.4310 72.0 300 
 BRR  HN ES        424 29.14                             152    0.7010 72.0 300 
 PAM  SZ EP        424 13.39                             150    0.2610 78.9  39 
 PAM  SE ES        424 30.10                             150   -0.3310 78.9  39 
 PAM  SZ I         424 32.67         8.4 0.56            152           78.9  39 
 RUS  HZ EP   1    424 14.52                             144    0.08 7 98.7 176 
 RUS  HN ES        424 32.47                             144   -0.3010 98.7 176 
 RUS  HZ I         424 33.54         7.3 0.30            144           98.7 176 
 PTB  HZ EP        424 17.42                             132   -0.35 9  147 260 
 PTB  HN ES        424 37.92                             132   -0.77 9  147 260 
 TAM  HZ IP     D  424 18.69                             130    0.20 9  155 104 
 TAM  HN ES   2    424 39.52                             130   -0.46 5  155 104 
 SPBC HZ EP   1    424 18.64                             129   -0.56 7  162 219 
 SPBC HZ I         424 43.77         7.4 0.20            129            162 219 
 OCA  HN ES        424 41.05                             129   -0.44 9  162 353 
 SPBC HN ES   2    424 41.15                             129   -0.09 5  162 219 
 NOR  HZ EP   1    424 26.45                             118   -0.03 6  233 235 
 NOR  HN ES        424 54.59                             118    0.40 8  233 235 
 NOR  HZ I         424 58.74         5.1 0.16            119            233 235 
 RREF HZ EP   1    424 37.63                             111    0.75 5  320 230 
 RREF HN ES   4    425 15.21                             111    2.50 0  320 230 
 SJC  HZ EP   4    424 45.27                             105   -1.38 0  411 327 
 SJC  HN ES   4    425 25.97                             105   -4.13 0  411 327 
                                                                                
