 2016  127 0311  2.7 L   6.839 -73.147147.2  RSN 27 0.6 2.2LRSN                1
 GAP=101        1.23       2.6     3.3  5.3 -0.1811E+01  0.4533E+01  0.3795E+00E
 Epicentro: LOS SANTOS - SANTANDER                                             3
 ACTION:UPD 16-03-09 23:28 OP:cam  STATUS:               ID:20160127031102 L   I
 OLDACT:UP  16-02-23 20:55 OP:AR   STATUS:               ID:20160127031102 L   3
 OLDACT:REG 16-01-27 15:48 OP:ak   STATUS:               ID:20160127030736     3
 2016-01-27-0307-36M.COL___325                                                 6
 STAT SP IPHASW D HRMM SECON CODA AMPLIT PERI AZIMU VELO AIN AR TRES W  DIS CAZ7
 BAR2 EZ EP        311 22.86                             169    0.2810 27.6 188 
 BAR2 EZ ES        311 37.58                             169   -0.5210 27.6 188 
 BAR2 EZ I         311 39.61        21.1 0.16            169           27.6 188 
 PAM  EZ EP        311 25.80                             152    0.9410 74.1  42 
 PAM  EN ES        311 43.01                             152    0.8510 74.1  42 
 PAM  EZ I         311 45.14        37.6 0.50            155           74.1  42 
 RUS  HZ EP        311 26.98                             143    0.0910  105 176 
 RUS  HN ES        311 45.51                             143   -0.2610  105 176 
 RUS  HZ I         311 46.81        18.3 0.34            145            105 176 
 PTB  HZ EP        311 29.58                             132   -0.25 9  149 257 
 PTB  HN ES        311 50.14                             132   -0.88 9  149 257 
 PTB  HZ I         311 52.72         9.6 0.14            132            149 257 
 OCA  HZ EP        311 29.62                             131   -1.08 9  156 353 
 OCA  HN ES        311 52.92                             131    0.37 9  156 353 
 OCA  HZ I         311 57.57        31.0 0.38            132            156 353 
 SPBC HZ EP        311 31.89                             129    0.29 9  167 218 
 SPBC HN ES        311 53.58                             129   -0.59 9  167 218 
 SPBC HZ I         311 56.50        31.0 0.34            129            167 218 
 ZAR  HZ EP        311 35.49                             123    0.45 9  202 291 
 ZAR  HN ES        312  0.34                             123    0.06 9  202 291 
 ZAR  HZ I         312  7.57         9.2 0.26            123            202 291 
 NOR  HZ EP        311 38.79                             118    0.03 8  237 234 
 NOR  HN ES        312  6.38                             118   -0.52 8  237 234 
 NOR  HZ I         312 14.60        13.0 0.52            119            237 234 
 SML  HZ EP        311 39.02                             118    0.07 8  240 335 
 SML  HN ES        312  8.03                             118    0.78 8  240 335 
 SML  HZ I         312 11.39        15.3 0.13            119            240 335 
 CHI  HZ EP        311 41.10                             117    0.19 8  253 195 
 CHI  HN ES        312 10.40                             117   -0.33 8  253 195 
 CHI  HZ I         312 13.97         8.7 0.42            118            253 195 
 ROSC BZ EP        311 42.10                             117    0.82 8  256 211 
 ROSC BN ES        312 12.04                             117    0.65 8  256 211 
 ROSC BZ I         312 16.60        14.0 0.35            118            256 211 
 HEL  HZ EP   4    311 45.19                             115    2.12 0  273 255 
 HEL  HE ES        312 15.04                             115    0.46 8  273 255 
 HEL  HZ I         312 21.70         8.1 0.40            115            273 255 
 URE  HZ EP        311 42.93                             114   -0.70 7  282 291 
 URE  HE ES   4    312 14.05                             114   -1.52 0  282 291 
 URE  HZ I         312 25.68         9.0 0.20            114            282 291 
 SOCV BZ EP   9    311 44.10                             112   -1.44 0  299  58 
 SOCV BN ES        312 16.81                                   -0.72 7  299  58 
 GUY2CHZ EP   1    311 47.43                             112    0.80 5  304 234 
 GUY2CHN ES        312 22.06                             112    1.15 7  304 234 
 GUY2CHZ I         312 33.15         7.5 0.50                           304 234 
 VIL  SZ EP   1    311 46.60                             112   -0.04 5  308 191 
 VIL  SE ES   1    312 20.48                             112   -0.45 5  308 191 
 PTGC HZ EP        311 46.39                             111   -0.68 7  313 159 
 PTGC HN ES   4    312 19.27                             111   -2.42 0  313 159 
 CBOC HZ EP        311 49.80                             110    0.00 7  335 251 
 CBOC HE ES        312 26.58                             110    0.03 7  335 251 
 DBB  SZ EP        311 50.03                             110   -0.13 7  339 274 
 DBB  SZ ES        312 27.00                             110   -0.20 7  339 274 
 DBB  SZ I         312 30.54        15.1 0.74            110            339 274 
 MON  HZ EP   4    311 49.09                             109   -2.32 0  351 308 
 MON  HN ES        312 28.43                             109   -1.00 6  351 308 
 MON  HZ I         312 30.19         2.0 0.16            110            351 308 
 SDV  BZ EP        311 52.34                             109   -0.12 6  358  51 
 SDV  BN ES        312 29.95                             109   -1.34 6  358  51 
 SDV  BZ I         312 33.17         3.0 0.35            110            358  51 
 ANIL HZ EP        311 53.83                             108    0.94 6  360 224 
 ANIL HN ES   2    312 31.32                             108   -0.73 3  360 224 
 ANIL HZ I         312 39.94        18.7 0.26            109            360 224 
 PRA  HZ EP        311 56.58                             106   -0.11 6  396 209 
 PRA  HN ES        312 38.54                             106   -0.27 6  396 209 
 PRA  HZ I         312 44.66         5.1 0.28            108            396 209 
 ORTC HZ EP   1    311 57.09                             106    0.04 4  399 216 
 ORTC HN ES        312 39.61                             106    0.15 6  399 216 
 ORTC HZ I         312 48.63         4.1 0.60            107            399 216 
 SJC  HZ EP        311 57.07                             106   -0.78 6  406 327 
 SJC  HN ES   4    312 38.02                             106   -2.87 0  406 327 
 SJC  HZ I         312 44.73         2.3 0.30            107            406 327 
 PAL  HZ EP        311 58.23                             106    0.09 6  408 239 
 PAL  HN ES        312 41.17                             106   -0.23 6  408 239 
 PAL  HZ I         312 45.33         2.1 0.26            107            408 239 
 CRJC HZ EP   9    312  3.48                             104   -1.22 0  463   4 
 CRJC HN ES        312 51.78                             104   -0.08 5  463   4 
                                                                                
