 2015  627 0719 20.0 L   6.825 -73.063145.3  RSN  5 0.4 1.7LRSN                1
 GAP=217        0.99       5.9     6.8  8.2 -0.1620E+01  0.2204E+02 -0.2219E+01E
 Epicentro: LOS SANTOS - SANTANDER                                             3
 ACTION:UPD 15-09-10 22:15 OP:cam  STATUS:               ID:20150627071920 L   I
 OLDACT:UP  15-06-27 16:38 OP:mh   STATUS:               ID:20150627071746     3
 OLDACT:REG 15-06-27 13:08 OP:mh   STATUS:               ID:20150627071746     3
 2015-06-27-0717-46M.COL___319                                                 6
 STAT SP IPHASW D HRMM SECON CODA AMPLIT PERI AZIMU VELO AIN AR TRES W  DIS CAZ7
 BAR2 EZ EP        719 39.92                             168    0.2410 28.9 207 
 BAR2 EZ ES        719 54.50                             168   -0.5410 28.9 207 
 BAR2 EZ I         719 55.76         7.0 0.14            167           28.9 207 
 BRR  HZ EP        719 41.89                             150    0.4010 78.2 294 
 BRR  HN ES        719 58.93                             150    0.6710 78.2 294 
 BRR  HZ I         720  1.89         6.0 0.14            146           78.2 294 
 OCA  HN ES        720  9.66                             130   -0.42 9  159 350 
 OCA  HZ I         720 15.24         8.5 0.27            129            159 350 
 ZAR  HZ EP        719 53.15                             121   -0.02 8  212 291 
 ZAR  HN ES        720 18.89                             121   -0.17 8  212 291 
 ZAR  HZ I         720 24.04         8.1 0.26            120            212 291 
 HEL  HZ EP   1    720  0.89                             114   -0.33 6  282 256 
 HEL  HN ES        720 33.08                             114   -0.32 7  282 256 
 HEL  HZ I         720 39.67         2.3 0.08            114            282 256 
                                                                                
