 2011 1027 0851 53.9 L   5.743 -73.927 96.4  RSN  5 0.2 1.6LRSN                1
 GAP=198        0.31       3.3     3.6  7.2 -0.8555E+01  0.2497E+01 -0.1681E+01E
 Epicentro: ALBANIA - SANTANDER                                                3
 ACTION:UPD 12-07-13 16:06 OP:ep   STATUS:               ID:20111027085153 L   I
 2011-10-27-0849-27S.COL___177                                                 6
 STAT SP IPHASW D HRMM SECON CODA AMPLIT PERI AZIMU VELO AIN AR TRES W  DIS CAZ7
 NOR  SZ EP   2    852 13.11                             129   -0.04 5  106 259 
 NOR  SN ES   2    852 28.10                             129   -0.07 5  106 259 
 BAR2 SZ ES   2    852 31.89                             124   -0.02 5  125  41 
 BAR2 SZ I         852 32.90         7.9 0.49                           125  41 
 BRR  HZ EP   2    852 18.01                             118    0.13 5  153   9 
 BRR  HZ I         852 18.33        11.6 0.02                           153   9 
 BRR  HN ES   2    852 36.60                             118    0.00 5  153   9 
 RREF HZ EP   2    852 21.72                             114   -0.33 4  183 239 
 RREF HE ES   2    852 44.31                             114    0.30 4  183 239 
 RREF HZ I         852 47.02         1.7 0.37                           183 239 
 ZAR  HZ EP   2    852 25.56                             109    0.14 4  219 332 
 ZAR  HN ES   2    852 49.93                             109   -0.09 4  219 332 
 ZAR  HZ I         852 54.84         4.2 0.25                           219 332 
                                                                                
