 2011  727 0630 52.8 L   6.742 -72.891132.2  RSN  4 0.3 1.2LRSN                1
 GAP=238        0.60       5.7     8.1  6.4 -0.1734E+02 -0.1810E+02  0.1437E+01E
 Epicentro: SAN ANDRES - SANTANDER                                             3
 ACTION:UPD 12-07-25 14:03 OP:epov STATUS:               ID:20110727063052 L   I
 2011-07-27-0620-00M.COL___139                                                 6
 STAT SP IPHASW D HRMM SECON CODA AMPLIT PERI AZIMU VELO AIN AR TRES W  DIS CAZ7
 BAR2 SZ EP   1    631 11.69                             164    0.52 7 36.2 243 
 BAR2 SZ ES   1    631 25.18                             164   -0.31 7 36.2 243 
 BAR2 SZ I         631 29.03         2.8 0.48                          36.2 243 
 GIR2 SZ EP   1    631 11.68                             158    0.11 7 50.0 318 
 GIR2 SZ ES        631 26.20                             158   -0.0110 50.0 318 
 BRR  HZ EP   1    631 14.22                             141   -0.24 7 99.2 294 
 BRR  HZ I         631 18.04         3.5 0.52                          99.2 294 
 BRR  HE ES   1    631 31.46                             141    0.12 7 99.2 294 
 GRA  SZ EP   1    631 16.56                             133   -0.39 7  127   4 
 GRA  SZ ES   1    631 35.99                             133    0.20 7  127   4 
                                                                                
