 2015  327 0208 42.7 L   6.754 -73.148130.3  RSN  6 0.3 1.3LRSN                1
 GAP=138        0.77       3.6     3.3  5.3  0.5093E+00  0.5483E+01 -0.1992E+01E
 Epicentro: LOS SANTOS - SANTANDER                                             3
 ACTION:UPD 15-04-30 16:29 OP:nd   STATUS:               ID:20150327020842 L   I
 OLDACT:REG 15-03-27 12:40 OP:fm   STATUS:               ID:20150327015746     3
 2015-03-27-0157-46M.COL___278                                                 6
 STAT SP IPHASW D HRMM SECON CODA AMPLIT PERI AZIMU VELO AIN AR TRES W  DIS CAZ7
 BAR2 EZ EP        2 9  0.55                             172    0.2010 18.3 192 
 BAR2 EZ ES        2 9 14.01                             172   -0.1210 18.3 192 
 BAR2 EZ I         2 9 16.82         4.6 0.22            173           18.3 192 
 BRR  HZ EP        2 9  2.35                             149    0.0210 73.6 302 
 BRR  HN ES        2 9 18.33                             149    0.6810 73.6 302 
 BRR  HZ I         2 9 25.05         5.3 0.16            148           73.6 302 
 PAM  SZ EP     D  2 9  3.59                             146    0.0410 81.5  37 
 PAM  SE ES        2 9 19.43                             146   -0.3910 81.5  37 
 PAM  SZ I         2 9 22.75         5.1 0.56            150           81.5  37 
 RUS  HZ EP   1    2 9  4.85                             142    0.30 7 95.5 176 
 RUS  HN ES        2 9 21.48                             142   -0.1310 95.5 176 
 RUS  HZ I         2 9 23.64         1.3 0.42            148           95.5 176 
 PTB  HZ EP        2 9  8.44                             128    0.11 9  147 261 
 PTB  HE ES        2 9 27.93                             128   -0.40 9  147 261 
 PTB  HZ I         2 9 31.97         2.7 0.34            131            147 261 
 ZAR  HZ EP        2 9 14.26                             118   -0.10 8  206 293 
 ZAR  HN ES        2 9 38.85                             118   -0.22 8  206 293 
 ZAR  HZ I         2 9 44.50         3.7 0.42            121            206 293 
                                                                                
