 2013 1027 0305 24.6 L   7.098 -73.381113.9  RSN  8 0.4 1.5LRSN                1
 GAP= 88        1.02       3.0     3.5  6.5 -0.6189E+00  0.4813E+01 -0.7586E-01E
 Epicentro: LEBRIJA - SANTANDER                                                3
 ACTION:UPD 13-11-25 09:23 OP:ep   STATUS:               ID:20131027030524 L   I
 OLDACT:REG 13-10-27 08:52 OP:carl STATUS:               ID:20131027025841     3
 2013-10-27-0258-41M.COL___229                                                 6
 STAT SP IPHASW D HRMM SECON CODA AMPLIT PERI AZIMU VELO AIN AR TRES W  DIS CAZ7
 BRR  HZ EP        3 5 40.34                             161   -0.1210 36.6 272 
 BRR  HN ES        3 5 53.08                             161    0.2210 36.6 272 
 BRR  HZ I         3 5 53.69         9.3 0.28            162           36.6 272 
 BAR2 SZ EP        3 5 42.28                             150    0.2810 60.1 159 
 BAR2 SZ ES        3 5 55.66                             150    0.0510 60.1 159 
 BAR2 SZ I         3 5 58.42        16.4 0.28            150           60.1 159 
 PAM  SZ EP        3 5 43.85                             143    0.1610 79.9  70 
 PAM  SN ES        3 5 58.84                             143    0.2410 79.9  70 
 PAM  SZ I         3 6  1.12         7.1 0.18            145           79.9  70 
 OCA  HZ EP        3 5 47.14                             128   -0.0710  126   3 
 OCA  HN ES        3 6  4.56                             128   -0.3210  126   3 
 OCA  HZ I         3 6  6.47        10.7 0.26            131            126   3 
 PTB  HZ EP   1    3 5 46.92                             127   -0.85 7  134 243 
 PTB  HN ES        3 6  5.29                             127   -0.5810  134 243 
 PTB  HZ I         3 6  7.40         9.6 0.20            128            134 243 
 RUS  HZ EP        3 5 48.51                             126   -0.22 9  137 166 
 RUS  HN ES        3 6  6.90                             126   -0.69 9  137 166 
 RUS  HZ I         3 6  9.87         1.0 0.24            127            137 166 
 ZAR  HZ EP        3 5 51.69                             120    0.37 9  169 285 
 ZAR  HN ES        3 6 12.36                             120    0.16 9  169 285 
 ZAR  HZ I         3 6 14.17         5.4 0.22            121            169 285 
 SPBC HZ EP   1    3 5 52.86                             118    0.53 7  177 206 
 SPBC HN ES        3 6 14.80                             118    0.81 9  177 206 
 SPBC HZ I         3 6 20.08         3.9 0.28            119            177 206 
                                                                                
