 2014  527 0825 52.0 L   6.672 -73.234139.6  RSN  4 0.2 1.2LRSN                1
 GAP=195        0.61       4.6     4.3  5.0  0.9676E+01  0.3780E+01  0.1875E+01E
 Epicentro: BARICHARA - SANTANDER                                              3
 ACTION:UPD 15-03-16 17:01 OP:nd   STATUS:               ID:20140527082552 L   I
 OLDACT:REG 14-05-27 13:51 OP:stll STATUS:               ID:20140527081805     3
 2014-05-27-0818-05M.COL___261                                                 6
 STAT SP IPHASW D HRMM SECON CODA AMPLIT PERI AZIMU VELO AIN AR TRES W  DIS CAZ7
 BAR2 SZ EP        826 10.63                             175   -0.0910 10.5 147 
 BAR2 SZ ES        826 25.03                             175   -0.2710 10.5 147 
 BAR2 SZ I         826 26.29         8.8 0.34            169           10.5 147 
 BRR  HZ EP        826 12.30                             151   -0.2310 71.5 312 
 BRR  HN ES        826 28.91                             151    0.3910 71.5 312 
 RUS  HZ EP        826 14.53                             146    0.2610 87.8 169 
 RUS  HN ES        826 31.68                             146    0.0610 87.8 169 
 RUS  HZ I         826 34.00         1.8 0.24            144           87.8 169 
 PTB  HZ EP        826 17.43                             133    0.00 9  136 264 
 PTB  HN ES        826 37.11                             133   -0.13 9  136 264 
 PTB  HZ I         826 43.49         1.8 0.20            130            136 264 
                                                                                
