 2017  827 0745 55.3 L   6.757 -73.465112.0  RSN  6 0.3 1.3LRSN                1
 GAP= 89        0.69       2.5     2.7  5.0  0.6620E+00  0.3549E+01 -0.3234E+00E
 Epicentro: EL CARMEN - SANTANDER                                              3
 ACTION:UPD 17-09-04 20:25 OP:rebc STATUS:               ID:20170827074555 L   I
 OLDACT:UP  17-08-27 17:20 OP:edw  STATUS:               ID:20170827073739     3
 OLDACT:REG 17-08-27 13:28 OP:edw  STATUS:               ID:20170827073739     3
 2017-08-27-0738-00M.COL___411                                                 6
 STAT SP IPHASW D HRMM SECON CODA AMPLIT PERI AZIMU VELO AIN AR TRES W  DIS CAZ7
 BAR2 EZ EP        746 11.23                             161   -0.0910 36.2 120 
 BAR2 EZ ES        746 24.05                             161    0.2410 36.2 120 
 BAR2 EZ I         746 24.74        12.5 0.44            162           36.2 120 
 BRR  HZ EP        746 11.20                             155   -0.2710 47.4 325 
 BRR  HN ES        746 24.07                             155   -0.0110 47.4 325 
 BRR  HZ I         746 25.32         4.2 0.12            156           47.4 325 
 RUS  HZ EP        746 16.06                             134   -0.1910  105 156 
 RUS  HN ES        746 32.16                             134   -0.4310  105 156 
 RUS  HZ I         746 33.04         6.5 0.26            136            105 156 
 PAM  EZ EP        746 16.50                             134    0.1010  106  53 
 PAM  EN ES        746 33.09                             134    0.2310  106  53 
 PAM  EZ I         746 37.85         1.6 0.40            134            106  53 
 SPBC HZ EP   3    746 20.20                             125    1.19 2  139 209 
 SPBC HN ES        746 37.99                             125    0.48 9  139 209 
 SPBC HZ I         746 41.06         3.1 0.22            126            139 209 
 ZAR  HZ EP        746 22.60                             118    0.09 9  174 298 
 ZAR  HE ES        746 43.54                             118   -0.19 9  174 298 
 ZAR  HZ I         746 45.92         1.8 0.42            119            174 298 
                                                                                
