 2017  827 0308 12.1 L   6.739 -73.123147.2  RSN  4 0.2 0.9LRSN                1
 GAP=235        0.53       3.2     4.9  4.9  0.3564E+01 -0.1248E+01  0.3170E+00E
 Epicentro: LOS SANTOS - SANTANDER                                             3
 ACTION:UPD 17-09-04 20:25 OP:rebc STATUS:               ID:20170827030812 L   I
 OLDACT:DUP 17-08-27 15:46 OP:edw  STATUS:               ID:20170827025739d    3
 OLDACT:UP  17-08-27 15:45 OP:edw  STATUS:               ID:20170827025738     3
 OLDACT:REG 17-08-27 13:07 OP:edw  STATUS:               ID:20170827025738     3
 2017-08-27-0258-00M.COL___411                                                 6
 STAT SP IPHASW D HRMM SECON CODA AMPLIT PERI AZIMU VELO AIN AR TRES W  DIS CAZ7
 BAR2 EZ EP        3 8 31.61                             173   -0.1910 17.5 202 
 BAR2 EZ ES        3 8 47.04                             173   -0.1210 17.5 202 
 BAR2 EZ I         3 8 48.67         2.7 0.36            173           17.5 202 
 BRR  HZ EP        3 8 33.57                             151   -0.1510 76.7 302 
 BRR  HN ES        3 8 50.81                             151    0.2210 76.7 302 
 RUS  HZ EP        3 8 35.82                             146    0.3010 93.7 177 
 RUS  HN ES        3 8 53.80                             146    0.0210 93.7 177 
 RUS  HZ I         3 8 55.40         0.7 0.28            147           93.7 177 
 SPBC HN ES        3 9  2.34                             130   -0.09 9  160 221 
                                                                                
