 2011 1127 0243 45.3 L   6.776 -73.081150.2  RSN 10 0.3 2.1LRSN                1
 GAP=146        0.42       2.4     3.9  5.0 -0.3516E+01  0.6151E+01  0.6029E+00E
 Epicentro: LOS SANTOS - SANTANDER                                             3
 ACTION:UPD 12-07-13 16:12 OP:ep   STATUS:               ID:20111127024345 L   I
 2011-11-27-0240-27S.COL___160                                                 6
 STAT SP IPHASW D HRMM SECON CODA AMPLIT PERI AZIMU VELO AIN AR TRES W  DIS CAZ7
 PAM  SZ EP   2    244  8.17                             152    0.31 5 75.2  34 
 PAM  SN ES   2    244 25.49                             152    0.03 5 75.2  34 
 BRR  HZ IP     C  244  7.29                             151   -0.0810 78.8 298 
 BRR  HN ES   2    244 24.70                             151    0.12 5 78.8 298 
 BRR  HZ I         244 27.93        28.0 0.27                          78.8 298 
 RUS  HZ EP   2    244  9.10                             145   -0.19 5 97.7 180 
 RUS  HN ES   2    244 27.95                             145   -0.05 5 97.7 180 
 RUS  HZ I         244 29.04        10.0 0.35                          97.7 180 
 OCA  SZ EP   2    244 15.04                             130    0.74 5  164 351 
 OCA  SZ ES   2    244 36.65                             130   -0.26 5  164 351 
 OCA  SZ I         244 41.96        10.8 0.21                           164 351 
 NOR  SZ EP   2    244 21.50                             119   -0.26 4  239 236 
 NOR  SN ES   2    244 50.79                             119    0.59 4  239 236 
 CHI  HZ EP   2    244 23.16                             118   -0.03 4  248 197 
 CHI  HN ES   2    244 52.36                             118   -0.39 4  248 197 
 CHI  HZ I         245  1.08         5.4 0.43                           248 197 
 HEL  HZ EP   2    244 26.40                             115   -0.05 4  278 257 
 HEL  HN ES   2    244 57.95                             115   -0.59 4  278 257 
 HEL  HZ I         245  5.10         6.4 0.31                           278 257 
 GUY  SZ EP   2    244 30.16                             113    0.28 4  308 236 
 GUY  SN ES   2    245  5.22                             113    0.56 4  308 236 
 GUY  SZ I         245 15.33        10.5 0.51                           308 236 
 RREF HZ EP   2    244 32.13                             111    0.06 3  326 231 
 RREF HN ES   2    245  8.33                             111   -0.23 3  326 231 
 RREF HZ I         245 13.83         7.9 0.27                           326 231 
 COD  HZ EP   2    244 34.24                             109    0.00 3  352 353 
 COD  HN ES   2    245 11.83                             109   -0.58 3  352 353 
 COD  HZ I         245 26.54        11.9 0.37                           352 353 
                                                                                
