 2014  727 0627 47.1 L   6.825 -73.154144.0  RSN  9 0.4 1.8LRSN                1
 GAP=182        0.80       2.8     5.2  6.7 -0.3151E+01  0.1062E+02 -0.4238E+01E
 Epicentro: LOS SANTOS - SANTANDER                                             3
 ACTION:UPD 15-03-16 20:47 OP:nd   STATUS:               ID:20140727062747 L   I
 OLDACT:UP  14-07-27 15:14 OP:mh   STATUS:               ID:20140727061812     3
 OLDACT:REG 14-07-27 12:23 OP:mh   STATUS:               ID:20140727061812     3
 2014-07-27-0618-12M.COL___260                                                 6
 STAT SP IPHASW D HRMM SECON CODA AMPLIT PERI AZIMU VELO AIN AR TRES W  DIS CAZ7
 BAR2 SZ IP     C  628  6.80                             169    0.2710 26.0 187 
 BAR2 SZ ES   1    628 22.01                             169    0.29 7 26.0 187 
 BAR2 SZ I         628 23.82         7.8 0.13            165           26.0 187 
 RUS  HZ EP   1    628 11.14                             143    0.30 7  103 176 
 RUS  HN ES   1    628 28.87                             143   -0.53 7  103 176 
 RUS  HZ I         628 30.42         5.7 0.15            148            103 176 
 PTB  HZ EP        628 13.35                             132   -0.50 9  147 258 
 PTB  HN ES   1    628 34.73                             132   -0.02 7  147 258 
 PTB  HZ I         628 42.04         7.5 0.36            130            147 258 
 OCA  HZ EP        628 14.24                             130   -0.72 9  157 353 
 OCA  HN ES        628 36.90                             130    0.18 9  157 353 
 OCA  HZ I         628 43.93         6.8 0.32            131            157 353 
 SPBC HZ EP        628 15.60                             128    0.02 9  165 218 
 SPBC HN ES        628 37.95                             128    0.13 9  165 218 
 SPBC HZ I         628 42.61                             129            165 218 
 SML  HZ EP   1    628 23.71                             118    0.44 6  241 335 
 SML  HN ES        628 51.66                             118    0.15 8  241 335 
 SML  HZ I         629  0.65         7.7 0.18            119            241 335 
 HEL  HZ EP   1    628 27.70                             115    0.54 6  272 255 
 HEL  HN ES   1    628 58.18                             115   -0.26 6  272 255 
 HEL  HZ I         629  8.20         2.8 0.10            115            272 255 
 GUY2CHZ EP   1    628 31.10                             112    0.41 5  302 234 
 GUY2CHN ES   4    629  6.33                             112    1.61 0  302 234 
 GUY2CHZ I         629 15.87         3.3 0.43                           302 234 
 RREF HN ES   4    629 11.71                             111    2.42 0  323 229 
 RREF HZ I         629 17.10         3.9 0.14            112            323 229 
                                                                                
