 2012 1027 0253  4.9 L   6.570 -73.488114.0  RSN  6 0.4 1.9LRSN                1
 GAP=155        0.60       4.5     6.3 11.1  0.5909E+01  0.4035E+02 -0.4581E+01E
 Epicentro: EL CARMEN DE CHUCURI - SANTANDER                                   3
 ACTION:UPD 12-11-22 17:06 OP:ep   STATUS:               ID:20121027025304 L   I
 2012-10-27-0250-00M.COL___228                                                 6
 STAT SP IPHASW D HRMM SECON CODA AMPLIT PERI AZIMU VELO AIN AR TRES W  DIS CAZ7
 BAR2 SZ EP   1    253 21.07                             162    0.06 7 33.9  86 
 BAR2 SZ ES   2    253 33.57                             162   -0.04 5 33.9  86 
 BAR2 SZ I         253 35.09        18.7 0.22                          33.9  86 
 GIR2 SZ EP   1    253 22.48                             148    0.02 7 65.0  30 
 RUS  HZ EP   1    253 24.83                             140    0.28 7 87.3 149 
 RUS  HN ES   2    253 39.38                             140   -0.54 5 87.3 149 
 PAM  SN ES   2    253 45.78                             130    0.57 5  122  46 
 ZAR  HZ EP   1    253 32.74                             117   -0.34 7  182 304 
 ZAR  HN ES   2    253 55.64                             117    0.54 4  182 304 
 ZAR  HN I         253 57.56         5.5 0.34                           182 304 
 OCA  HE ES   2    253 55.27                             117   -0.74 4  185   6 
 OCA  HE I         254  1.84        16.4 0.30                           185   6 
                                                                                
