 2015  527 0525 25.2 L   6.793 -73.129147.4  RSN  6 0.3 1.3LRSN                1
 GAP=139        0.70       3.6     4.2  5.9  0.1056E+01  0.2966E+01 -0.2831E+01E
 Epicentro: LOS SANTOS - SANTANDER                                             3
 ACTION:UPD 15-09-10 22:07 OP:cam  STATUS:               ID:20150527052525 L   I
 OLDACT:REG 15-05-27 12:43 OP:spq  STATUS:               ID:20150527051736     3
 2015-05-27-0517-36M.COL___294                                                 6
 STAT SP IPHASW D HRMM SECON CODA AMPLIT PERI AZIMU VELO AIN AR TRES W  DIS CAZ7
 BAR2 EZ EP   1    525 44.97                             171   -0.08 7 22.9 195 
 BAR2 EZ ES   1    526  0.07                             171   -0.43 7 22.9 195 
 BAR2 EZ I         526  1.12         4.2 0.62            168           22.9 195 
 BRR  HZ EP        525 46.65                             152   -0.0210 73.2 298 
 BRR  HN ES        526  3.84                             152    0.4510 73.2 298 
 BRR  HZ I         526  7.84         3.1 0.18            149           73.2 298 
 PAM  SZ EP        525 47.75                             151    0.1610 76.9  38 
 PAM  SE ES   1    526  4.91                             151   -0.12 7 76.9  38 
 PAM  SZ I         526  5.50         2.4 0.18            156           76.9  38 
 RUS  HZ EP   1    525 48.77                             145   -0.30 7 99.6 177 
 RUS  HE ES        526  7.72                             145    0.0510 99.6 177 
 RUS  HZ I         526  9.16         1.5 0.23            146           99.6 177 
 SPBC HN ES   1    526 16.46                             129    0.20 7  164 220 
 SPBC HZ I         526 20.63         3.4 0.19            129            164 220 
 ZAR  HZ EP   1    525 58.23                             123    0.24 6  206 292 
 ZAR  HE ES   1    526 22.76                             123   -0.77 6  206 292 
 ZAR  HZ I         526 28.32         2.4 0.52            122            206 292 
                                                                                
