 2012  727 0534 41.3 L   6.792 -73.138151.2  RSN  6 0.3 2.0LRSN                1
 GAP=184        0.82       4.7     7.3  6.7  0.4164E+01  0.7401E+01 -0.2782E+01E
 Epicentro: LOS SANTOS - SANTANDER                                             3
 ACTION:UPD 12-08-14 11:45 OP:ep   STATUS:               ID:20120727053441 L   I
 2012-07-27-0530-00M.COL___215                                                 6
 STAT SP IPHASW D HRMM SECON CODA AMPLIT PERI AZIMU VELO AIN AR TRES W  DIS CAZ7
 BAR2 SZ EP        535  1.63                             171     0.110   23 192 
 BAR2 SZ ES   1    535 16.96                             171    -0.4 7   23 192 
 BAR2 SZ I         535 18.24        13.9 0.38            171             23 192 
 BRR  HZ EP        535  3.48                             153     0.410   72 299 
 BRR  HN ES   1    535 20.62                             153     0.5 7   72 299 
 BRR  HZ I         535 22.60        24.6 0.14            149             72 299 
 RUS  HZ EP        535  5.74                             145     0.210  100 176 
 RUS  HN ES   1    535 24.31                             145    -0.1 7  100 176 
 RUS  HZ I         535 25.54         6.4 0.62            150            100 176 
 PTB  HZ EP        535  8.53                             133    -0.2 9  148 259 
 PTB  HN ES   2    535 29.64                             133    -0.6 5  148 259 
 PTB  HZ I         535 36.76        11.9 0.48            132            148 259 
 OCA  HZ EP        535  9.75                             131    -0.4 9  161 353 
 OCA  HN ES   2    535 32.64                             131     0.0 5  161 353 
 OCA  HZ I         535 39.19        18.8 0.22            131            161 353 
 NOR  SZ EP        535 17.39                             120     0.0 8  235 235 
