 2017  227 0901 11.3 L   7.183 -73.084159.1  RSN 11 0.5 2.0LRSN                1
 GAP=105        0.94       5.3     3.8  5.3 -0.2199E+01  0.6814E+01 -0.6146E+01E
 Epicentro: BUCARAMANGA - SANTANDER                                            3
 ACTION:UPD 17-05-24 15:41 OP:jn   STATUS:               ID:20170227090111 L   I
 OLDACT:UP  17-02-27 18:27 OP:dani STATUS:               ID:20170227085740     3
 OLDACT:REG 17-02-27 13:30 OP:ar   STATUS:               ID:20170227085740     3
 2017-02-27-0858-00M.COL___354                                                 6
 STAT SP IPHASW D HRMM SECON CODA AMPLIT PERI AZIMU VELO AIN AR TRES W  DIS CAZ7
 PAM  EZ EP        9 1 33.91                             163    0.4110 45.9  68 
 PAM  EN ES        9 1 50.52                             163   -0.3110 45.9  68 
 PAM  EZ I         9 1 51.29        20.2 0.22            168           45.9  68 
 BAR2 EZ IP     D  9 1 34.06                             157    0.0710 66.2 189 
 BAR2 EZ ES        9 1 51.41                             157   -0.2910 66.2 189 
 BAR2 EZ I         9 1 51.98        32.3 0.24            156           66.2 189 
 BRR  HZ IP     D  9 1 34.35                             155    0.5310 69.8 263 
 BRR  HN ES        9 1 51.79                             155    0.3910 69.8 263 
 BRR  HZ I         9 1 55.94        14.5 0.24            152           69.8 263 
 RUS  HZ EP   3    9 1 37.97                             137   -1.62 2  143 180 
 RUS  HN ES        9 2  0.93                             137   -0.74 9  143 180 
 RUS  HZ I         9 2  2.74         6.0 0.44            137            143 180 
 TAM  HZ EP        9 1 41.13                             132    0.18 9  165 120 
 PTB  HZ EP        9 1 40.96                             131   -0.18 9  168 245 
 PTB  HN ES        9 2  4.82                             131    0.40 9  168 245 
 PTB  HZ I         9 2  5.93        10.9 0.44            130            168 245 
 URE  HZ EP        9 1 51.83                             117   -0.51 7  277 283 
 URE  HN ES   3    9 2 22.93                             117   -1.44 2  277 283 
 URE  HZ I         9 2 26.62        13.1 0.13            117            277 283 
 HEL  HZ EP        9 1 55.12                             116    0.76 7  292 248 
 HEL  HN ES        9 2 27.61                             116   -0.34 7  292 248 
 HEL  HZ I         9 2 37.78         3.6 0.66            116            292 248 
 DBB  EZ EP   1    9 1 59.87                             111   -0.18 5  346 267 
 DBB  EN ES   1    9 2 37.28                             111   -0.80 5  346 267 
 DBB  EZ I         9 2 40.73         3.7 0.18            112            346 267 
 CBOC HZ EP        9 2  1.22                             111   -0.01 6  355 246 
 CBOC HE ES   3    9 2 41.09                             111    0.91 2  355 246 
 CBOC HZ I         9 2 43.76         1.9 0.30            111            355 246 
 SJC  HZ EP        9 2  3.66                             109   -0.10 6  379 323 
 SJC  HN ES   3    9 2 42.97                             109   -1.73 2  379 323 
 SJC  HZ I         9 2 45.98         5.4 0.24            110            379 323 
                                                                                
