 2012  827 0855 47.8 L   6.793 -73.149148.8  RSN 18 0.4 3.2LRSN 3.6WRSN        1
 SPEC AVERAGE  MO 14.4 ST 14.5 OM  3.2 f0 3.17 R0.4929 AL 2.18 WI 14.1 MW  3.6 3
 SPEC SD       MO  0.1 ST 12.5 OM  0.5 f00.756 R0.1314 AL      WI      MW  0.1 3
 GAP= 65        0.89       2.8     2.9  4.6  0.7031E+00  0.3435E+01  0.4435E+01E
 Epicentro: LOS SANTOS - SANTANDER                                             3
 SPEC YOP SH N MO 14.4 ST 10.0 OM  2.7 f0 2.99 R0.4916 AL 2.07 WI 14.6 MW  3.6 3
 SPEC YOP SH N T 85640 K 0.000 GD  232 VS 4.20 DE 3.00 Q0230.0 QA 0.60 VS 4.20 3
 SPEC TAM HH N MO 14.3 ST  7.4 OM  2.6 f0 2.99 R0.4916 AL 2.87 WI  9.9 MW  3.5 3
 SPEC TAM HH N T 85636 K 0.000 GD  214 VS 4.20 DE 3.00 Q0230.0 QA 0.60 VS 4.20 3
 SPEC NOR SH N MO 14.5 ST 45.1 OM  2.7 f0 4.65 R0.3161 AL 1.50 WI 12.7 MW  3.6 3
 SPEC NOR SH N T 85650 K 0.000 GD  277 VS 4.20 DE 3.00 Q0230.0 QA 0.60 VS 4.20 3
 SPEC OCA HH N MO 14.6 ST 27.5 OM  2.9 f0 3.66 R0.4016 AL 1.72 WI  9.6 MW  3.7 3
 SPEC OCA HH N T 85638 K 0.000 GD  219 VS 4.20 DE 3.00 Q0230.0 QA 0.60 VS 4.20 3
 SPEC PTB HH N MO 14.3 ST  9.2 OM  2.6 f0 3.25 R0.4523 AL 1.72 WI 10.0 MW  3.5 3
 SPEC PTB HH N T 85635 K 0.000 GD  209 VS 4.20 DE 3.00 Q0230.0 QA 0.60 VS 4.20 3
 SPEC PAM SH N MO 14.2 ST  7.7 OM  2.6 f0 3.29 R0.4468 AL 2.75 WI  5.4 MW  3.4 3
 SPEC PAM SH N T 85627 K 0.000 GD  168 VS 4.20 DE 3.00 Q0230.0 QA 0.60 VS 4.20 3
 SPEC DBB SH Z MO 14.6 ST  4.0 OM  2.7 f0 1.89 R0.7778 AL 1.89 WI 27.7 MW  3.7 3
 SPEC DBB SH Z T 85710 K 0.000 GD  370 VS 4.20 DE 3.00 Q0230.0 QA 0.60 VS 4.20 3
 SPEC HEL HH N MO 14.4 ST  8.4 OM  2.5 f0 2.99 R0.4916 AL 2.18 WI 15.5 MW  3.5 3
 SPEC HEL HH N T 857 0 K 0.000 GD  310 VS 4.20 DE 3.00 Q0230.0 QA 0.60 VS 4.20 3
 SPEC CHI HH N MO 14.4 ST 21.7 OM  2.6 f0 3.88 R0.3789 AL 3.33 WI 14.3 MW  3.6 3
 SPEC CHI HH N T 85651 K 0.000 GD  289 VS 4.20 DE 3.00 Q0230.0 QA 0.60 VS 4.20 3
 SPEC BAR2SH Z MO 14.4 ST  3.9 OM  2.9 f0 2.16 R0.6806 AL 1.81 WI 21.7 MW  3.6 3
 SPEC BAR2SH Z T 85620 K 0.000 GD  150 VS 4.20 DE 3.00 Q0230.0 QA 0.60 VS 4.20 3
 ACTION:UPD 12-09-10 11:58 OP:ep   STATUS:               ID:20120827085547 L   I
 2012-08-27-0850-00M.COL___218                                                 6
 STAT SP IPHASW D HRMM SECON CODA AMPLIT PERI AZIMU VELO AIN AR TRES W  DIS CAZ7
 BAR2 SZ IP        856  7.77                             171   -0.0210 22.5 189 
 BAR2 SZ ES   1    856 23.38                             171    0.01 7 22.5 189 
 BAR2 SZ I         856 25.84       393.1 0.25                          22.5 189 
 GIR2 SZ EP        856  7.86                             167   -0.0110 32.0 351 
 GIR2 SZ ES   1    856 22.87                             167   -0.63 7 32.0 351 
 BRR  HZ IP     D  856  9.67                             153    0.3810 71.3 299 
 BRR  HZ I         856 11.38       282.4 0.12                          71.3 299 
 BRR  HN ES   1    856 27.11                             153    1.06 7 71.3 299 
 PAM  SZ EP        856 10.60                             151    0.2010 78.2  39 
 PAM  SN ES   1    856 27.81                             151   -0.21 7 78.2  39 
 PAM  SZ I         856 29.87       110.3 0.28                          78.2  39 
 RUS  HZ EP        856 11.66                             145   -0.1510 99.8 176 
 RUS  HN ES   1    856 29.95                             145   -0.57 7 99.8 176 
 RUS  HZ I         856 34.39        78.9 0.36                          99.8 176 
 PTB  HZ EP        856 14.23                             133   -0.75 9  147 259 
 PTB  HN ES   1    856 35.88                             133   -0.29 7  147 259 
 PTB  HZ I         856 41.72       174.6 0.42                           147 259 
 TAM  HZ EP        856 15.93                             131    0.18 9  155 105 
 TAM  HZ I         856 36.86       146.7 0.28                           155 105 
 TAM  HN ES   1    856 37.67                             131    0.14 7  155 105 
 OCA  HZ EP   1    856 16.02                             130   -0.41 7  161 353 
 OCA  HN ES   1    856 38.82                             130    0.07 7  161 353 
 OCA  HZ I         856 42.83       522.0 0.41                           161 353 
 YOP  SZ EP        856 18.20                             127    0.18 9  178 153 
 YOP  SZ I         856 19.50       134.7 0.40                           178 153 
 YOP  SN ES   1    856 42.17                             127    0.59 7  178 153 
 ZAR  HZ EP        856 20.26                             123   -0.20 9  204 292 
 ZAR  HE ES   1    856 45.70                             123   -0.21 6  204 292 
 ZAR  HZ I         856 52.27       259.9 0.42                           204 292 
 NOR  SZ EP        856 23.57                             119   -0.07 8  234 235 
 NOR  SN ES   1    856 52.12                             119    0.54 6  234 235 
 NOR  SZ I         856 55.65       141.1 0.27                           234 235 
 CHI  HZ EP        856 25.48                             118   -0.11 8  248 195 
 CHI  HN ES   1    856 54.67                             118   -0.38 6  248 195 
 CHI  HZ I         857  3.00        76.2 0.35                           248 195 
 HEL  HZ EP        856 28.52                             115    0.40 8  272 256 
 HEL  HN ES   1    857  0.34                             115    0.78 6  272 256 
 HEL  HZ I         857  7.53        91.2 0.29                           272 256 
 VIL  SZ EP        856 30.51                             113   -0.76 7  302 192 
 VIL  SN ES   1    857  5.35                             113    0.18 5  302 192 
 VIL  SZ I         857 15.44        98.4 0.54                           302 192 
 DBB  SZ EP        856 35.20                             110   -0.18 7  339 274 
 DBB  SZ I         857 25.14        71.4 0.57                           339 274 
 ANIL HZ EP        856 38.26                             109    0.62 6  356 225 
 ANIL HE ES   2    857 16.80                             109    0.30 3  356 225 
 PRA  HZ EP        856 40.82                             107   -0.52 6  391 210 
 PRA  HN ES   1    857 22.72                             107   -0.36 4  391 210 
 SJA  SZ EP        856 43.31                             107    0.94 6  399 193 
 SJA  SZ I         857 32.85        35.1 0.26                           399 193 
                                                                                
