 2011  327 0751 49.8 L   6.738 -73.820 86.0  RSN 12 0.5 2.6LRSN                1
 GAP=124        1.14       5.1     5.6  9.8 -0.1360E+02  0.2087E+02  0.7288E+01E
 Epicentro: PUERTO PARRA - SANTANDER                                           3
 ACTION:UP  11-06-16 14:35 OP:jfem STATUS:               ID:20110327075149 L   I
 2011-03-27-0747-46S.COL___138                                                 6
 STAT SP IPHASW D HRMM SECON CODA AMPLIT PERI AZIMU VELO SNR AR TRES W  DIS CAZ7
 BRR  HZ IP     C  752  2.60                             152    -0.310   43  16 
 BRR  HZ I         752  2.93       455.4 0.13                            43  16 
 BRR  HN ES   1    752 13.56                             152     0.5 7   43  16 
 BTL  SZ IP        752  4.92                             141     0.210   64  72 
 BAR2 SZ EP        752  5.31                             138    -0.110   72 103 
 BAR2 SZ ES   1    752 17.41                             138    -0.1 7   72 103 
 BAR2 SZ I         752 18.32       169.9 0.34                            72 103 
 GIR2 SZ EP   2    752  6.62                             135     0.8 5   79  61 
 GIR2 SZ ES   3    752 18.53                             135     0.2 2   79  61 
 GRA  SZ EP   3    752 16.30                             113     1.0 2  169  41 
 GRA  SZ I         752 38.75        61.9 0.36                           169  41 
 NOR  SZ EP        752 14.94                             112    -0.8 9  174 222 
 NOR  SE ES   1    752 35.24                             112    -0.8 7  174 222 
 OCA  SZ EP        752 15.40                             112    -0.6 9  175  18 
 OCA  SZ ES   1    752 36.58                             112     0.2 7  175  18 
 OCA  SZ I         752 38.86        81.4 0.20                           175  18 
 HEL  HZ EP   1    752 18.81                             109    -0.2 6  198 252 
 HEL  HN ES   1    752 42.41                             109     0.7 6  198 252 
 HEL  HZ I         752 44.07        21.2 0.12                           198 252 
 CHI  HZ EP   1    752 23.23                             106     0.1 6  233 178 
 CHI  HZ I         752 59.30         8.2 0.31                           233 178 
 RREF HZ EP   1    752 27.92                             104     0.8 6  264 220 
 RREF HN ES   1    752 56.81                             104     0.6 6  264 220 
 RREF HZ I         752 59.45        16.0 0.12                           264 220 
 TOL  SZ EP   1    752 30.65                             102     0.8 5  290 215 
 PRA  HZ EP   1    752 37.78                             100     0.4 5  355 200 
 PRA  HZ I         753 22.58        29.2 0.14                           355 200 
                                                                                
