 2014  627 0354  0.6 L   5.964 -73.782106.1  RSN 17 0.5 2.1LRSN                1
 GAP=110        1.11       2.5     3.0  5.4 -0.3118E+01  0.3676E+01 -0.5624E+00E
 Epicentro: GUAVATA - SANTANDER                                                3
 ACTION:UPD 14-07-01 22:57 OP:nd   STATUS:               ID:20140627035400 L   I
 OLDACT:REG 14-06-27 15:00 OP:spq  STATUS:               ID:20140627034818     3
 2014-06-27-0348-18M.COL___259                                                 6
 STAT SP IPHASW D HRMM SECON CODA AMPLIT PERI AZIMU VELO AIN AR TRES W  DIS CAZ7
 SPBC HZ EP        354 16.29                             154    0.0710 47.1 223 
 SPBC HN ES        354 28.65                             154    0.2310 47.1 223 
 SPBC HZ I         354 30.67        35.0 0.36            154           47.1 223 
 RUS  HZ EP        354 18.92                             141    0.1210 77.8  96 
 RUS  HN ES        354 32.49                             141   -0.5310 77.8  96 
 RUS  HZ I         354 34.85         9.8 0.22            143           77.8  96 
 BAR2 SZ IP     C  354 20.53                             134    0.5810 96.1  44 
 BAR2 SZ ES   1    354 34.74                             134   -0.31 7 96.1  44 
 PTB  HZ EP        354 19.00                             134   -0.8210 98.1 311 
 PTB  HN ES        354 34.45                             134   -0.3710 98.1 311 
 PTB  HZ I         354 36.92        15.6 0.19            133           98.1 311 
 BRR  HZ EP        354 22.76                             126    0.2810  127   4 
 BRR  HE ES        354 40.36                             126    0.8010  127   4 
 BRR  HZ I         354 43.65        27.7 0.14            126            127   4 
 NOR  HZ EP        354 22.92                             125    0.2110  128 250 
 NOR  HE ES        354 39.98                             125    0.0010  128 250 
 NOR  HZ I         354 42.64        37.3 0.18            125            128 250 
 GUY2CHZ EP        354 30.63                             114    0.43 9  193 245 
 GUY2CHN ES        354 53.72                             114    0.41 9  193 245 
 GUY2CHZ I         355  3.13         7.5 0.36                           193 245 
 HEL  HZ EP        354 31.15                             113    0.92 9  195 277 
 HEL  HN ES        354 52.96                             113   -0.40 9  195 277 
 HEL  HZ I         354 59.00         8.2 0.26            113            195 277 
 ZAR  HZ EP        354 30.68                             112   -0.41 8  207 325 
 ZAR  HN ES        354 54.70                             112   -0.20 8  207 325 
 ZAR  HZ I         354 57.48        13.8 0.24            112            207 325 
 RREF HZ EP        354 32.42                             112    0.21 8  210 236 
 RREF HN ES        354 56.43                             112   -0.45 8  210 236 
 RREF HZ I         355  0.51         8.8 0.26            112            210 236 
 TOL  SZ EP        354 34.30                             109    0.28 8  229 228 
 TOL  SN ES        355  0.01                             109   -0.10 8  229 228 
 TOL  SZ I         355  5.07        16.9 0.29            110            229 228 
 OCA  HZ EP        354 36.36                             107   -0.69 8  257  11 
 OCA  HN ES        355  5.98                             107    0.49 8  257  11 
 OCA  HZ I         355 13.78        12.6 0.18            107            257  11 
 PRA  HZ EP        354 38.45                             105   -0.87 7  277 206 
 PRA  HN ES        355 10.19                             105    0.65 7  277 206 
 PRA  HZ I         355 13.20        11.0 0.22            105            277 206 
 URE  HZ EP   4    354 37.66                             105   -1.55 0  277 316 
 URE  HN ES   4    355  6.87                             105   -2.47 0  277 316 
 URE  HZ I         355  9.32         9.7 0.12            105            277 316 
 ORTC HZ EP        354 39.11                             105   -0.44 7  279 216 
 ORTC HN ES        355  9.75                             105   -0.20 7  279 216 
 ORTC HZ I         355 15.99         6.9 0.38            105            279 216 
 SML  HZ EP        354 43.50                             102   -0.28 7  315 354 
 SML  HN ES        355 17.30                             102   -0.18 7  315 354 
 SML  HZ I         355 22.63        16.9 0.10            103            315 354 
 SJC  HZ EP   4    354 59.23                              95   -2.23 0  461 341 
 SJC  HN ES   4    355 44.81                              95   -4.14 0  461 341 
 SJC  HZ I         355 52.76         1.7 0.41             96            461 341 
                                                                                
