 2013 1127 0220 43.0 L   6.771 -73.170143.8  RSN  6 0.4 1.3LRSN                1
 GAP=135        1.00       4.5     5.2  7.7 -0.3172E+01  0.4252E+01  0.8390E+01E
 Epicentro: LOS SANTOS - SANTANDER                                             3
 ACTION:UPD 14-01-09 16:31 OP:ep   STATUS:               ID:20131127022043 L   I
 OLDACT:DUP 13-11-27 10:03 OP:stll STATUS:               ID:20131127021806d    3
 2013-11-27-0218-05M.COL___240                                                 6
 STAT SP IPHASW D HRMM SECON CODA AMPLIT PERI AZIMU VELO AIN AR TRES W  DIS CAZ7
 BAR2 SZ ES        221 17.16                             172   -0.2310 19.8 184 
 BAR2 SZ I         221 18.85         8.5 0.28            168           19.8 184 
 BRR  HN ES        221 20.98                             152    0.7910 70.5 302 
 PAM  SZ EP        221  5.30                             149    0.0510 81.6  40 
 PAM  SZ I         221  5.48         5.9 0.20            153           81.6  40 
 PAM  SN ES        221 22.42                             149   -0.2010 81.6  40 
 RUS  HZ EP        221  6.49                             144    0.1610 97.6 174 
 RUS  HN ES        221 24.37                             144   -0.1610 97.6 174 
 RUS  HZ I         221 26.54         1.5 0.48            143           97.6 174 
 PTB  HZ EP        221  9.21                             132   -0.29 9  145 260 
 PTB  HN ES        221 29.65                             132   -0.53 9  145 260 
 PTB  HZ I         221 37.26         1.9 0.14            130            145 260 
 CHI  HN ES        221 49.65                             117    0.50 8  245 195 
 CHI  HZ I         221 54.99         1.5 0.32            116            245 195 
                                                                                
