 2016  227 0236 35.0 L   6.816 -73.122143.4  RSN 21 0.5 2.9LRSN                1
 GAP=127        1.06       2.8     3.9  5.2 -0.3351E+01  0.5971E+01  0.9930E+00E
 Epicentro: LOS SANTOS - SANTANDER                                             3
 ACTION:UPD 16-03-04 21:29 OP:rebc STATUS:               ID:20160227023635 L   I
 OLDACT:UP  16-02-27 16:25 OP:mh   STATUS:               ID:20160227022751     3
 OLDACT:UP  16-02-27 16:05 OP:mh   STATUS:               ID:20160227022751     3
 OLDACT:UP  16-02-27 16:05 OP:mh   STATUS:               ID:20160227022751     3
 OLDACT:REG 16-02-27 13:08 OP:mh   STATUS:               ID:20160227022751     3
 2016-02-27-0227-51M.COL___319                                                 6
 STAT SP IPHASW D HRMM SECON CODA AMPLIT PERI AZIMU VELO AIN AR TRES W  DIS CAZ7
 BAR2 EZ IP     D  236 54.71                             169    0.2710 25.6 195 
 BAR2 EZ ES        237  9.40                             169   -0.1610 25.6 195 
 BAR2 EZ I         237 10.12       151.2 0.32            167           25.6 195 
 PAM  EZ IP     C  236 57.73                             151    0.9110 74.3  39 
 PAM  EN ES        237 14.37                             151    0.5510 74.3  39 
 PAM  EZ I         237 16.62       221.6 0.52            149           74.3  39 
 RUS  HZ EP     D  236 58.63                             143   -0.0510  102 178 
 RUS  HN ES        237 17.11                             143   -0.0010  102 178 
 RUS  HZ I         237 18.35        63.4 0.32            144            102 178 
 PTB  HZ EP   1    237  1.00                             131   -1.09 7  151 258 
 PTB  HN ES        237 22.60                             131   -0.58 9  151 258 
 PTB  HZ I         237 29.24        53.5 0.44            125            151 258 
 OCA  HZ IP     C  237  2.73                             129   -0.30 9  159 352 
 OCA  HN ES        237 24.40                             129   -0.47 9  159 352 
 OCA  HZ I         237 28.47       108.9 0.18            124            159 352 
 SPBC HZ EP   1    237  3.56                             128   -0.09 7  166 219 
 SPBC HN ES        237 25.58                             128   -0.38 9  166 219 
 SPBC HZ I         237 28.45        77.3 0.10            125            166 219 
 ZAR  HZ EP        237  7.57                             122    0.05 8  206 291 
 ZAR  HN ES   1    237 33.11                             122    0.26 6  206 291 
 ZAR  HZ I         237 38.54        93.7 0.28            116            206 291 
 NOR  HZ EP   1    237 10.80                             118   -0.18 6  238 234 
 NOR  HN ES        237 39.19                             118    0.19 8  238 234 
 NOR  HZ I         237 44.26        31.7 0.24            114            238 234 
 CHI  HZ EP        237 12.85                             116   -0.02 8  251 196 
 CHI  HN ES        237 41.72                             116   -0.66 8  251 196 
 CHI  HZ I         237 45.54        42.2 0.36            115            251 196 
 ROSC BZ EP   1    237 14.39                             116    1.04 6  256 211 
 ROSC BN ES        237 43.76                             116    0.54 8  256 211 
 ROSC BZ I         237 47.97        78.4 0.30            113            256 211 
 URE  HZ EP   4    237 14.70                             113   -1.50 0  286 291 
 URE  HN ES   4    237 45.54                             113   -2.76 0  286 291 
 URE  HZ I         237 56.32        52.2 0.32            109            286 291 
 GUY2CHZ EP   1    237 18.62                             112   -0.28 5  304 235 
 GUY2CHN ES   4    237 56.07                             112    2.96 0  304 235 
 GUY2CHZ I         238  0.56        16.8 0.30                           304 235 
 VIL  SZ EP        237 18.09                             111   -0.52 7  306 192 
 VIL  SN ES        237 51.82                             111   -0.77 7  306 192 
 PTGC HZ EP   4    237 17.69                             111   -1.18 0  309 159 
 PTGC HN ES   4    237 51.24                             111   -1.82 0  309 159 
 PTGC HZ I         237 53.44        60.1 0.38            110            309 159 
 CBOC HZ EP        237 22.36                             109    0.15 7  337 252 
 CBOC HN ES        237 59.63                             109    0.63 7  337 252 
 DBB  SZ EP        237 22.36                             109   -0.35 7  342 274 
 DBB  SZ I         238  2.37        52.4 0.52            106            342 274 
 MON  HZ EP   4    237 21.99                             108   -2.07 0  355 308 
 MON  HN ES   4    238  0.17                             108   -2.13 0  355 308 
 MON  HZ I         238 22.70        15.5 0.58            105            355 308 
 SDV  BZ EP        237 24.29                             108   -0.33 6  357  50 
 SDV  BN ES   4    238  1.79                             108   -1.51 0  357  50 
 SDV  BZ I         238  4.48         9.3 0.35            106            357  50 
 ANIL HZ EP   1    237 26.08                             108    0.97 5  360 225 
 ANIL HN ES        238  4.96                             108    0.79 6  360 225 
 ANIL HZ I         238  8.94        77.4 0.38            106            360 225 
 ORTC HZ EP        237 29.18                             106   -0.05 6  398 216 
 ORTC HN ES        238 12.18                             106    0.68 6  398 216 
 ORTC HZ I         238 13.87        51.0 0.92            104            398 216 
 PAL  HZ EP   1    237 30.37                             105   -0.12 4  409 239 
 PAL  HN ES   4    238 12.46                             105   -1.29 0  409 239 
 PAL  HZ I         238 19.50         5.9 0.38            103            409 239 
                                                                                
