 2015  527 0652 45.5 L   6.792 -73.106150.0  RSN 18 0.4 2.1LRSN                1
 GAP=123        0.85       2.4     3.5  4.6 -0.7085E+00  0.4231E+01  0.1332E+01E
 Epicentro: LOS SANTOS - SANTANDER                                             3
 ACTION:UPD 15-09-10 22:07 OP:cam  STATUS:               ID:20150527065245 L   I
 OLDACT:REG 15-05-27 12:48 OP:spq  STATUS:               ID:20150527064750     3
 2015-05-27-0647-50M.COL___294                                                 6
 STAT SP IPHASW D HRMM SECON CODA AMPLIT PERI AZIMU VELO AIN AR TRES W  DIS CAZ7
 BAR2 EZ EP        653  5.55                             171   -0.0910 23.7 201 
 BAR2 EZ ES   1    653 20.94                             171   -0.41 7 23.7 201 
 BAR2 EZ I         653 22.31        24.0 0.16            168           23.7 201 
 PAM  SZ EP     D  653  8.37                             152    0.3310 75.3  37 
 PAM  SN ES        653 25.76                             152    0.1310 75.3  37 
 PAM  SZ I         653 28.17        28.7 0.62            155           75.3  37 
 BRR  HZ IP     C  653  7.52                             152    0.1810 75.5 298 
 BRR  HN ES        653 24.94                             152    0.5610 75.5 298 
 BRR  HZ I         653 25.87        29.5 0.14            150           75.5 298 
 RUS  HZ EP        653  9.72                             145    0.1310 99.5 179 
 RUS  HE ES        653 28.37                             145   -0.0010 99.5 179 
 RUS  HZ I         653 29.77        14.8 0.28            144           99.5 179 
 OCA  HZ EP   1    653 13.98                             130   -0.29 7  162 352 
 OCA  HN ES        653 36.48                             130   -0.23 9  162 352 
 OCA  HZ I         653 44.76        31.8 0.46            131            162 352 
 SPBC HZ EP        653 14.50                             130   -0.02 9  165 220 
 SPBC HE ES        653 36.87                             130   -0.29 9  165 220 
 SPBC HZ I         653 38.91        24.4 0.06            128            165 220 
 ZAR  HZ EP        653 18.29                             123   -0.38 8  208 292 
 ZAR  HE ES        653 43.96                             123   -0.59 8  208 292 
 ZAR  HZ I         653 46.46        16.7 0.20            122            208 292 
 NOR  HZ EP   1    653 21.52                             119   -0.28 6  238 235 
 NOR  HE ES        653 50.15                             119    0.03 8  238 235 
 NOR  HZ I         653 55.07        10.0 0.52            118            238 235 
 SML  HZ EP   1    653 22.63                             118   -0.02 6  246 334 
 SML  HN ES   1    653 51.37                             118   -0.26 6  246 334 
 SML  HZ I         653 53.33        14.4 0.10            118            246 334 
 CHI  HN ES   1    653 52.99                             118   -0.09 6  249 196 
 CHI  HZ I         654  1.05         4.1 0.33            117            249 196 
 ROSC BZ EP   4    653 25.93                             117    1.91 0  254 212 
 ROSC BE ES   4    653 55.63                             117    1.57 0  254 212 
 ROSC BZ I         654  2.65         9.1 0.40            117            254 212 
 HEL  HZ EP   1    653 27.30                             115    0.93 6  276 256 
 HEL  HN ES   1    653 58.03                             115   -0.23 6  276 256 
 HEL  HZ I         654  4.74         6.1 0.46            114            276 256 
 GUY2CHZ EP        653 30.49                             113    0.84 7  304 235 
 GUY2CHN ES   4    654  6.20                             113    2.11 0  304 235 
 GUY2CHZ I         654 10.85         5.5 0.32                           304 235 
 PTGC HZ EP        653 28.40                             112   -0.87 7  306 159 
 PTGC HN ES   4    654  2.04                             112   -1.38 0  306 159 
 PTGC HZ I         654  6.26         5.2 0.39            113            306 159 
 CBOC HZ EP   1    653 33.45                             110    0.41 5  338 252 
 CBOC HE ES   4    654  8.47                             110   -1.65 0  338 252 
 CBOC HZ I         654 16.46         2.5 0.46            110            338 252 
 MON  HZ EP   4    653 33.22                             109   -1.91 0  358 308 
 MON  HN ES   4    654 11.90                             109   -1.94 0  358 308 
 MON  HZ I         654 20.43         3.3 0.26            109            358 308 
 ORTC HZ EP   1    653 40.72                             107    0.93 4  397 217 
 ORTC HE ES   4    654 23.70                             107    1.57 0  397 217 
 ORTC HZ I         654 29.01         3.5 0.50            107            397 217 
 SJC  HZ EP   4    653 39.90                             106   -1.67 0  412 327 
 SJC  HN ES   4    654 20.96                             106   -4.34 0  412 327 
 SJC  HZ I         654 25.44         3.2 0.46            106            412 327 
                                                                                
