 2013  327 0032 13.5 L   6.833 -73.152145.0  RSN  9 0.5 1.6LRSN                1
 GAP=183        0.86       3.8     6.2  7.0  0.4337E+01  0.6702E+01  0.1160E+01E
 Epicentro: LOS SANTOS - SANTANDER                                             3
 ACTION:UPD 13-04-09 14:05 OP:ep   STATUS:               ID:20130327003213 L   I
 2013-03-27-0030-00M.COL___245                                                 6
 STAT SP IPHASW D HRMM SECON CODA AMPLIT PERI AZIMU VELO AIN AR TRES W  DIS CAZ7
 BAR2 SZ EP   1    032 33.15                             169    0.08 7 26.8 187 
 BAR2 SZ ES   1    032 48.09                             169   -0.28 7 26.8 187 
 BAR2 SZ I         032 49.05        13.4 0.30            166           26.8 187 
 BRR  HN ES   1    032 51.81                             153    1.08 7 68.9 296 
 RUS  HZ EP   1    032 37.60                             143    0.20 7  104 176 
 RUS  HN ES   1    032 55.87                             143   -0.21 7  104 176 
 RUS  HZ I         032 57.47         3.4 0.52            141            104 176 
 PTB  HZ EP   1    032 39.78                             132   -0.59 7  148 257 
 PTB  HN ES   1    033  0.69                             132   -0.68 7  148 257 
 PTB  HZ I         033  3.46         6.3 0.12            128            148 257 
 OCA  HN ES   2    033  2.22                             130   -0.91 5  157 353 
 ZAR  HN ES   2    033 11.28                             123    0.52 4  202 291 
 NOR  HZ EP   1    032 49.53                             118    0.22 6  236 234 
 NOR  HN ES   1    033 17.08                             118   -0.20 6  236 234 
 NOR  HZ I         033 23.98         2.4 0.14            116            236 234 
 SML  HZ EP   1    032 49.57                             118   -0.08 6  240 335 
 SML  HN ES   1    033 17.98                             118    0.10 6  240 335 
 SML  HZ I         033 22.29         6.1 0.10            117            240 335 
 CHI  HZ EP   1    032 51.91                             117    0.43 6  252 195 
 CHI  HN ES   1    033 21.34                             117    0.21 6  252 195 
 CHI  HZ I         033 26.54         1.7 0.36            115            252 195 
                                                                                
