 2016  127 0635 18.1 L   6.826 -73.115148.6  RSN 26 0.6 2.4LRSN                1
 GAP=109        1.16       2.5     3.2  5.0 -0.2110E+01  0.3686E+01  0.1002E+00E
 Epicentro: LOS SANTOS - SANTANDER                                             3
 ACTION:UPD 16-03-09 23:28 OP:cam  STATUS:               ID:20160127063518 L   I
 OLDACT:UP  16-02-23 20:55 OP:AR   STATUS:               ID:20160127063518 L   3
 OLDACT:REG 16-01-27 16:08 OP:ak   STATUS:               ID:20160127062738     3
 2016-01-27-0627-38M.COL___328                                                 6
 STAT SP IPHASW D HRMM SECON CODA AMPLIT PERI AZIMU VELO AIN AR TRES W  DIS CAZ7
 BAR2 EZ EP        635 38.36                             169    0.2410 26.9 196 
 BAR2 EZ ES        635 54.21                             169    0.4610 26.9 196 
 BAR2 EZ I         635 56.21        45.5 0.32            167           26.9 196 
 PAM  EZ EP        635 41.13                             153    0.8010 73.0  39 
 PAM  EN ES        635 58.51                             153    0.8110 73.0  39 
 PAM  EZ I         636  0.71        37.0 0.60            157           73.0  39 
 RUS  HZ EP        635 42.31                             144    0.0210  103 178 
 RUS  HN ES        636  0.77                             144   -0.4210  103 178 
 RUS  HZ I         636  2.25        23.7 0.28            145            103 178 
 PTB  HZ EP        635 45.04                             132   -0.58 9  152 258 
 PTB  HN ES        636  6.14                             132   -0.96 9  152 258 
 PTB  HZ I         636  8.70        25.5 0.20            131            152 258 
 OCA  HZ EP        635 46.95                             131    0.58 9  158 352 
 OCA  HN ES        636  8.32                             131   -0.13 9  158 352 
 OCA  HZ I         636 14.03        83.6 0.18            133            158 352 
 SPBC HZ EP        635 47.34                             129    0.14 9  168 219 
 SPBC HN ES        636  9.31                             129   -0.61 9  168 219 
 SPBC HZ I         636 15.27        52.2 0.34            129            168 219 
 ZAR  HZ EP        635 50.69                             123   -0.22 8  206 291 
 ZAR  HN ES        636 16.31                             123   -0.21 8  206 291 
 ZAR  HZ I         636 25.07        14.4 0.21            123            206 291 
 NOR  HZ EP        635 54.24                             119   -0.19 8  239 234 
 NOR  HN ES        636 22.48                             119   -0.32 8  239 234 
 NOR  HZ I         636 27.08        23.0 0.30            119            239 234 
 SML  HZ EP        635 54.27                             118   -0.45 8  242 334 
 SML  HN ES        636 23.07                             118   -0.24 8  242 334 
 SML  HZ I         636 26.98        42.9 0.12            120            242 334 
 CHI  HZ EP        635 56.47                             117    0.15 8  252 196 
 CHI  HN ES        636 25.96                             117   -0.20 8  252 196 
 CHI  HZ I         636 31.51         8.0 0.26            118            252 196 
 ROSC BZ EP   1    635 57.43                             117    0.63 6  257 211 
 ROSC BN ES   4    636 29.21                             117    2.20 0  257 211 
 ROSC BZ I         636 34.35        29.9 0.40            118            257 211 
 HEL  HZ EP   1    635 58.83                             115   -0.03 6  276 255 
 HEL  HN ES        636 30.79                             115    0.11 7  276 255 
 HEL  HZ I         636 37.52        14.3 0.48            116            276 255 
 URE  HZ EP        635 59.13                             114   -0.37 7  286 291 
 URE  HN ES   4    636 28.97                             114   -2.85 0  286 291 
 URE  HZ I         636 36.04        11.0 0.14            115            286 291 
 SOCV BZ EP   4    635 59.57                             113   -1.18 0  297  57 
 SOCV BN ES   4    636 31.85                             113   -2.20 0  297  57 
 GUY2CHZ EP        636  3.49                             113    1.18 7  306 235 
 GUY2CHN ES        636 37.44                             113    0.63 7  306 235 
 GUY2CHZ I         636 44.89        16.2 0.30                           306 235 
 PTGC HZ EP        636  1.47                             112   -0.75 7  310 159 
 PTGC HN ES   4    636 34.64                             112   -2.03 0  310 159 
 PTGC HZ I         636 36.47         7.7 0.62            114            310 159 
 ELA  HZ EP   4    636  7.13                             111    1.58 0  334 229 
 ELA  HN ES        636 41.94                             111   -0.64 7  334 229 
 ELA  HZ I         636 58.16        11.9 0.48            111            334 229 
 CBOC HZ EP        636  6.27                             110    0.70 7  338 252 
 CBOC HN ES        636 43.47                             110    0.85 7  338 252 
 CBOC HZ I         636 51.76         4.6 0.70            111            338 252 
 DBB  SZ EP        636  6.17                             110    0.15 7  343 274 
 DBB  SZ ES        636 43.10                             110   -0.32 7  343 274 
 DBB  SZ I         636 46.41        18.6 0.44            111            343 274 
 MON  HZ EP   9    636  5.31                             109   -1.97 0  355 308 
 MON  HN ES        636 43.37                                   -0.32 6  355 308 
 MON  HZ I         636 46.51         4.6 0.19            110            355 308 
 SDV  BZ EP        636  7.63                             109   -0.08 6  356  50 
 SDV  BN ES        636 44.75                             109   -1.67 6  356  50 
 SDV  BZ I         636 46.93         4.4 0.50            111            356  50 
 ARGC HZ EP   2    636  7.74                             109    0.09 3  358 340 
 ARGC HN ES        636 46.76                             109    0.44 6  358 340 
 ANIL HZ EP   9    636  9.62                             109    1.13 0  362 225 
 ANIL HN ES        636 49.11                             109    0.16 6  362 225 
 ANIL HZ I         636 54.58        22.2 0.24            110            362 225 
 PRA  HZ EP        636 11.65                             107   -0.53 6  396 210 
 PRA  HN ES        636 54.46                             107    0.08 6  396 210 
 PRA  HZ I         637  0.82         9.1 0.24            108            396 210 
 ORTC HZ EP        636 13.11                             107    0.52 6  400 216 
 ORTC HN ES        636 56.02                             107    0.90 6  400 216 
 ORTC HZ I         637  2.18         6.0 0.28            108            400 216 
 PAL  HZ EP        636 13.88                             106    0.05 6  410 239 
 PAL  HN ES        636 56.73                             106   -0.60 6  410 239 
 PAL  HZ I         637  3.13         5.1 0.38            107            410 239 
 CRJC HZ EP   9    636 18.57                             104   -1.71 0  465   3 
 CRJC HN ES        637  6.55                             104   -0.54 5  465   3 
                                                                                
