 2012  427 0340 55.6 L   6.767 -73.151147.2  RSN 10 0.3 1.9LRSN                1
 GAP=137        0.76       3.8     3.9  6.0 -0.2980E+01  0.1557E+01  0.7291E+01E
 Epicentro: LOS SANTOS - SANTANDER                                             3
 ACTION:UPD 12-07-05 11:56 OP:tino STATUS:               ID:20120427034055 L   I
 2012-04-27-0340-00M.COL___189                                                 6
 STAT SP IPHASW D HRMM SECON CODA AMPLIT PERI AZIMU VELO AIN AR TRES W  DIS CAZ7
 BAR2 SZ EP        341 15.32                             172     0.010   20 190 
 BAR2 SZ ES   1    341 30.53                             172    -0.2 7   20 190 
 BAR2 SZ I         341 33.24        32.0 0.20                            20 190 
 BRR  HZ EP        341 17.19                             152     0.210   72 301 
 BRR  HN ES   1    341 34.43                             152     0.8 7   72 301 
 BRR  HZ I         341 35.78        18.2 0.24                            72 301 
 PAM  SZ EP        341 18.25                             150     0.110   81  38 
 PAM  SN ES   1    341 35.35                             150    -0.4 7   81  38 
 RUS  HZ EP        341 19.22                             145     0.010   97 176 
 RUS  HZ I         341 39.14        10.1 0.32                            97 176 
 PTB  HZ EP        341 22.24                             133    -0.3 9  146 260 
 PTB  HN ES   1    341 43.18                             133    -0.4 7  146 260 
 PTB  HZ I         341 46.47         8.8 0.41                           146 260 
 OCA  SZ EP   1    341 23.94                             129    -0.4 7  164 354 
 OCA  SZ ES   1    341 46.76                             129     0.0 7  164 354 
 ZAR  HN ES   1    341 53.58                             123    -0.1 6  205 293 
 NOR  SZ EP   1    341 31.35                             119     0.2 6  232 235 
 NOR  SN ES   1    341 58.55                             119    -0.3 6  232 235 
 CHI  HZ EP   1    341 33.05                             118     0.1 6  245 195 
 CHI  HZ I         342  6.21         5.4 0.56                           245 195 
 PRA  HZ EP   1    341 49.41                             107     0.7 4  389 210 
                                                                                
