 2011  827 0041 36.6 L   6.821 -73.063143.9  RSN 10 0.4 2.1LRSN                1
 GAP=191        0.73       3.1     5.7  5.9 -0.3986E+01  0.6606E+01  0.3187E+01E
 Epicentro: LOS SANTOS - SANTANDER                                             3
 ACTION:UPD 12-07-13 15:54 OP:ep   STATUS:               ID:20110827004136 L   I
 2011-08-27-0039-26S.COL___161                                                 6
 STAT SP IPHASW D HRMM SECON CODA AMPLIT PERI AZIMU VELO AIN AR TRES W  DIS CAZ7
 BAR2 SZ EP   1    041 56.27                             168    0.13 9 28.6 207 
 BAR2 SZ ES   1    042 11.19                             168   -0.17 9 28.6 207 
 BAR2 SZ I         042 13.09        31.2 0.18                          28.6 207 
 GIR2 SZ EP   1    041 56.68                             167    0.60 9 31.9 333 
 BRR  HZ EP   1    041 58.17                             150    0.19 9 78.3 294 
 BRR  HN ES   1    042 15.00                             150    0.35 9 78.3 294 
 BRR  HZ I         042 17.36        16.5 0.16                          78.3 294 
 RUS  HZ EP   1    042  0.34                             143    0.00 9  103 181 
 RUS  HN ES   1    042 18.75                             143   -0.09 9  103 181 
 OCA  SZ EP   1    042  4.92                             129    0.23 9  159 350 
 OCA  SZ ES   1    042 25.86                             129   -0.72 9  159 350 
 OCA  SZ I         042 30.33         9.8 0.16                           159 350 
 NOR  SN ES        042 41.01                             117   -0.7110  244 235 
 CHI  HZ EP   1    042 14.37                             116   -0.37 7  253 197 
 CHI  HN ES   1    042 44.77                             116    0.30 7  253 197 
 CHI  HZ I         042 47.46         3.6 0.24                           253 197 
 HEL  HZ EP   2    042 18.01                             114    0.23 5  281 256 
 HEL  HZ I         042 55.42         5.8 0.37                           281 256 
 RREF HZ EP   1    042 23.78                             110    0.13 6  330 230 
 RREF HN ES   1    043  1.06                             110    0.73 6  330 230 
 RREF HZ I         043  8.43         4.6 0.39                           330 230 
 PRA  HZ EP   1    042 30.34                             106   -0.51 5  399 211 
 PRA  HE ES   1    043 13.06                             106   -0.09 5  399 211 
 PRA  HZ I         043 18.18        13.2 0.20                           399 211 
                                                                                
