 2011 1027 0845  2.9 L   6.812 -73.005142.0  RSN  5 0.3 1.6LRSN                1
 GAP=197        0.47       7.6     8.2  8.3  0.3655E+02 -0.1656E+02 -0.3699E+02E
 Epicentro: CEPITA - SANTANDER                                                 3
 ACTION:UPD 12-07-13 16:06 OP:ep   STATUS:               ID:20111027084502 L   I
 2011-10-27-0843-54S.COL___177                                                 6
 STAT SP IPHASW D HRMM SECON CODA AMPLIT PERI AZIMU VELO AIN AR TRES W  DIS CAZ7
 BAR2 SZ EP   1    845 22.34                             167    0.04 7 31.3 219 
 BAR2 SZ ES   2    845 37.42                             167    0.01 5 31.3 219 
 BAR2 SZ I         845 40.07         7.7 0.20                          31.3 219 
 BRR  HZ IP     C  845 24.24                             148   -0.2710 84.7 293 
 BRR  HZ I         845 24.49        15.6 0.16                          84.7 293 
 BRR  HN ES   2    845 41.71                             148    0.37 5 84.7 293 
 RUS  HN ES   2    845 44.86                             143    0.11 5  102 185 
 RUS  HZ I         845 46.21         3.0 0.33                           102 185 
 OCA  SZ EP   2    845 31.34                             129    0.27 5  162 348 
 OCA  SZ I         845 58.95         4.4 0.64                           162 348 
 ZAR  HZ EP   2    845 37.19                             120    0.58 4  218 290 
 ZAR  HN ES   2    846  2.69                             120   -0.19 4  218 290 
 ZAR  HZ I         846  7.40         3.8 0.29                           218 290 
                                                                                
