 2012 1227 0434 23.0 L   6.801 -73.144148.4  RSN  8 0.5 1.8LRSN                1
 GAP=183        0.94       5.3     6.5  8.3  0.9258E+01  0.1605E+02 -0.2361E+01E
 Epicentro: LOS SANTOS - SANTANDER                                             3
 ACTION:UPD 13-01-04 14:30 OP:ep   STATUS:               ID:20121227043423 L   I
 2012-12-27-0430-00M.COL___243                                                 6
 STAT SP IPHASW D HRMM SECON CODA AMPLIT PERI AZIMU VELO AIN AR TRES W  DIS CAZ7
 BAR2 SZ EP   1    434 42.94                             171    0.01 8 23.5 190 
 BAR2 SZ ES   1    434 58.30                             171   -0.20 8 23.5 190 
 BAR2 SZ I         435  0.22        19.8 0.24                          23.5 190 
 BRR  HZ EP   1    434 44.88                             153    0.46 8 71.3 298 
 BRR  HN ES   1    435  2.02                             153    0.87 8 71.3 298 
 BRR  HZ I         435  5.10         8.8 0.14                          71.3 298 
 RUS  HZ EP   1    434 47.11                             144    0.11 8  101 176 
 RUS  HN ES   1    435  5.86                             144    0.12 8  101 176 
 RUS  HZ I         435  7.06         8.9 0.42                           101 176 
 PTB  HZ EP        434 49.58                             133   -0.6010  148 259 
 PTB  HN ES   1    435 10.64                             133   -0.76 7  148 259 
 PTB  HZ I         435 13.75         7.1 0.14                           148 259 
 OCA  HN ES   2    435 12.86                             130   -0.87 5  160 353 
 ZAR  HZ EP   1    434 55.69                             123    0.08 7  204 292 
 ZAR  HN ES   1    435 21.49                             123    0.42 7  204 292 
 ZAR  HZ I         435 27.94         5.4 0.34                           204 292 
 SML  HE ES   1    435 28.07                             118   -0.37 6  244 335 
 HEL  HZ EP   1    435  4.15                             115    0.80 6  272 256 
 HEL  HN ES   1    435 34.78                             115   -0.06 6  272 256 
 URE  HN ES   4    435 34.65                             114   -1.69 0  284 292 
 MON  HN ES   4    435 49.42                             109   -0.98 0  354 308 
                                                                                
