 2016 1127 0901 24.6 L   6.791 -73.146139.5  RSN 10 0.4 2.2LRSN                1
 GAP=151        0.86       4.9     3.7  5.3 -0.5225E+01  0.5348E+01  0.7537E+01E
 Epicentro: LOS SANTOS - SANTANDER                                             3
 ACTION:UPD 17-10-26 21:12 OP:lp   STATUS:               ID:20161127090124 L   I
 OLDACT:REG 16-11-27 13:07 OP:dani STATUS:               ID:20161127085742     3
 2016-11-27-0858-00M.COL___349                                                 6
 STAT SP IPHASW D HRMM SECON CODA AMPLIT PERI AZIMU VELO AIN AR TRES W  DIS CAZ7
 BAR2 EZ IP        9 1 43.25                             170   -0.1510 22.4 190 
 BAR2 EZ ES        9 1 58.10                             170   -0.0110 22.4 190 
 BAR2 EZ I         9 1 58.96        56.5 0.38            168           22.4 190 
 BRR  HZ IP     C  9 1 45.03                             151   -0.0210 71.6 299 
 BRR  HE ES        9 2  1.49                             151    0.4610 71.6 299 
 BRR  HZ I         9 2  5.12        31.7 0.14            149           71.6 299 
 PAM  EZ EP        9 1 46.06                             149   -0.0910 78.1  39 
 PAM  EE ES        9 2  2.97                             149   -0.0210 78.1  39 
 PAM  EZ I         9 2  5.38        36.6 0.56            154           78.1  39 
 PTB  HZ EP   4    9 1 50.22                             131   -0.77 0  148 259 
 PTB  HN ES        9 2 11.10                             131   -0.52 9  148 259 
 PTB  HZ I         9 2 12.73        21.5 0.52            130            148 259 
 ZAR  HZ EP        9 1 56.26                             121   -0.37 9  204 292 
 ZAR  HE ES        9 2 21.79                             121    0.14 9  204 292 
 ZAR  HZ I         9 2 27.94        21.2 0.32            121            204 292 
 NOR  HZ EP        9 1 59.22                             117   -0.64 8  234 235 
 NOR  HE ES        9 2 27.38                             117   -0.02 8  234 235 
 NOR  HZ I         9 2 31.14        12.5 0.46            117            234 235 
 ROSC BZ EP        9 2  2.99                             115    0.75 8  252 211 
 ROSC BN ES   4    9 2 33.07                             115    1.43 0  252 211 
 ROSC BZ I         9 2 37.48         6.1 0.35            116            252 211 
 CBOC HZ EP        9 2 11.96                             109    0.78 7  333 252 
 CBOC HE ES        9 2 47.66                             109    0.12 7  333 252 
 CBOC HZ I         9 2 58.93         3.2 0.46            109            333 252 
 PAL  HZ EP        9 2 19.50                             105    0.05 6  405 239 
 PAL  HE ES   4    9 2 59.62                             105   -2.65 0  405 239 
 PAL  HZ I         9 3  5.08         2.4 0.30            105            405 239 
 SJC  HZ EP   4    9 2 17.47                             105   -2.54 0  410 327 
 SJC  HE ES   4    9 2 56.16                             105   -7.10 0  410 327 
 SJC  HZ I         9 3  3.12         3.0 0.66            106            410 327 
                                                                                
