 2013  127 0558  6.6 L   6.809 -73.162146.6  RSN 14 0.5 2.6LRSN 3.0WRSN        1
 SPEC AVERAGE  MO 13.6 ST 11.5 OM  2.0 f0 5.07 R0.3046 AL 2.39 WI 22.6 MW  3.0 3
 SPEC SD       MO  0.3 ST 10.9 OM  0.5 f0 1.14 R0.0671 AL      WI      MW  0.2 3
 GAP= 70        1.22       3.2     3.7  5.9 -0.2954E+00  0.2793E+01  0.1946E+01E
 Epicentro: LOS SANTOS - SANTANDER                                             3
 SPEC ZAR HH N MO 14.0 ST 34.2 OM  2.2 f0 6.45 R0.2279 AL 3.03 WI 22.3 MW  3.3 3
 SPEC ZAR HH N T 559 3 K 0.000 GD  249 VS 4.20 DE 3.00 Q0230.0 QA 0.60 VS 4.20 3
 SPEC TAM HH Z MO 13.6 ST 18.2 OM  1.1 f0 7.06 R0.2082 AL 2.18 WI  8.5 MW  3.0 3
 SPEC TAM HH Z T 55834 K 0.000 GD  214 VP 7.60 DE 3.00 Q0230.0 QA 0.60 VS 4.20 3
 SPEC RUS HH N MO 13.4 ST  3.0 OM  1.8 f0 4.35 R0.3379 AL 2.67 WI 14.5 MW  2.9 3
 SPEC RUS HH N T 55848 K 0.000 GD  178 VS 4.20 DE 3.00 Q0230.0 QA 0.60 VS 4.20 3
 SPEC HEL HH N MO 13.6 ST  2.2 OM  1.7 f0 3.52 R0.4176 AL 1.35 WI 27.4 MW  3.0 3
 SPEC HEL HH N T 55915 K 0.000 GD  308 VS 4.20 DE 3.00 Q0230.0 QA 0.60 VS 4.20 3
 SPEC OCA HH N MO 13.9 ST 22.7 OM  2.2 f0 5.90 R0.2492 AL 2.43 WI 33.7 MW  3.2 3
 SPEC OCA HH N T 55855 K 0.000 GD  216 VS 4.20 DE 3.00 Q0230.0 QA 0.60 VS 4.20 3
 SPEC PAM SH N MO 12.9 ST  1.5 OM  1.3 f0 5.17 R0.2843 AL 2.35 WI 34.1 MW  2.5 3
 SPEC PAM SH N T 55845 K 0.000 GD  165 VS 4.20 DE 3.00 Q0230.0 QA 0.60 VS 4.20 3
 SPEC CHI HH Z MO 13.7 ST  4.6 OM  1.1 f0 4.05 R0.3630 AL 1.87 WI 20.9 MW  3.1 3
 SPEC CHI HH Z T 55844 K 0.000 GD  288 VP 7.60 DE 3.00 Q0230.0 QA 0.60 VS 4.20 3
 SPEC BRR HH N MO 13.9 ST 14.4 OM  2.3 f0 5.17 R0.2843 AL 3.78 WI 24.2 MW  3.2 3
 SPEC BRR HH N T 55844 K 0.000 GD  162 VS 4.20 DE 3.00 Q0230.0 QA 0.60 VS 4.20 3
 SPEC BAR2SH Z MO 13.5 ST  3.0 OM  2.0 f0 3.98 R0.3693 AL 1.83 WI 17.5 MW  3.0 3
 SPEC BAR2SH Z T 55840 K 0.000 GD  148 VS 4.20 DE 3.00 Q0230.0 QA 0.60 VS 4.20 3
 ACTION:UPD 13-02-15 09:17 OP:ep   STATUS:               ID:20130127055806 L   I
 2013-01-27-0548-35M.COL___186                                                 6
 STAT SP IPHASW D HRMM SECON CODA AMPLIT PERI AZIMU VELO AIN AR TRES W  DIS CAZ7
 BAR2 SZ IP        558 26.30                             170   -0.0210 24.0 185 
 BAR2 SZ ES        558 41.33                             170   -0.3910 24.0 185 
 BAR2 SZ I         558 42.67       101.2 0.42            168           24.0 185 
 BRR  HZ IP     C  558 28.13                             153    0.4310 69.1 299 
 BRR  HN ES        558 44.74                             153    0.5610 69.1 299 
 BRR  HN I         558 45.98       143.1 0.20            146           69.1 299 
 PAM  SZ EP        558 29.24                             151    0.3410 77.8  41 
 PAM  SN ES        558 46.17                             151   -0.1510 77.8  41 
 PAM  SN I         558 47.67        44.5 0.56            150           77.8  41 
 RUS  HZ EP        558 30.27                             144   -0.2110  102 175 
 RUS  HE ES        558 49.25                             144    0.1110  102 175 
 RUS  HN I         558 49.85        59.6 0.22            141            102 175 
 PTB  HZ EP        558 32.81                             132   -0.65 9  146 258 
 PTB  HE ES        558 54.12                             132   -0.32 9  146 258 
 PTB  HN I         558 59.54        68.2 0.42            126            146 258 
 TAM  HZ IP     D  558 34.72                             130    0.22 9  157 105 
 TAM  HZ I         558 34.86        28.4 0.36            129            157 105 
 TAM  HN ES        558 56.31                             130    0.02 9  157 105 
 OCA  HZ EP        558 35.08                             130    0.24 9  159 354 
 OCA  HN ES        558 56.71                             130   -0.18 9  159 354 
 OCA  HN I         559  4.26        63.9 0.42            125            159 354 
 ZAR  HZ EP        558 38.80                             123   -0.06 9  202 292 
 ZAR  HN ES        559  3.74                             123   -0.31 9  202 292 
 CHI  HZ EP        558 44.44                             117    0.08 8  249 195 
 CHI  HN ES        559 13.52                             117   -0.32 8  249 195 
 CHI  HN I         559 16.06        26.7 0.36            114            249 195 
 ROSC BZ EP        558 45.93                             117    1.21 8  253 211 
 ROSC BN ES        559 15.12                             117    0.64 8  253 211 
 ROSC BZ I         559 21.88        17.9 0.45            113            253 211 
 HEL  HZ EP        558 47.55                             115    0.89 8  271 256 
 HEL  HN I         559 24.24        15.0 0.28            111            271 256 
 VIL  SN ES        559 22.68                             112   -1.36 7  304 191 
 SDV  BZ EP        558 56.30                             108   -0.43 6  361  50 
 SJC  HN EP        559  0.55                             106   -1.40 6  407 327 
                                                                                
