 2015  827 0028 33.9 L   6.825 -73.099142.7  RSN  9 0.4 1.8LRSN                1
 GAP=141        0.92       3.5     4.8  7.3  0.1422E+01  0.1068E+02 -0.4043E+00E
 Epicentro: LOS SANTOS - SANTANDER                                             3
 ACTION:UPD 15-09-15 23:05 OP:cam  STATUS:               ID:20150827002833 L   I
 OLDACT:REG 15-08-27 12:30 OP:spq  STATUS:               ID:20150827002736     3
 2015-08-27-0027-36M.COL___355                                                 6
 STAT SP IPHASW D HRMM SECON CODA AMPLIT PERI AZIMU VELO AIN AR TRES W  DIS CAZ7
 BAR2 EZ ES   1    029  7.85                             169   -0.46 7 27.4 200 
 BAR2 EZ I         029  8.95         6.2 0.18            169           27.4 200 
 PAM  EZ IP     C  028 55.91                             152    0.4810 72.0  38 
 PAM  EN ES        029 12.63                             152    0.3710 72.0  38 
 PAM  EZ I         029 14.63        10.8 0.48            155           72.0  38 
 BRR  HZ EP        028 54.98                             151    0.1010 74.5 295 
 BRR  HN ES        029 11.54                             151    0.2710 74.5 295 
 BRR  HZ I         029 15.97        14.3 0.26            150           74.5 295 
 RUS  HZ EP        028 57.42                             142   -0.0910  103 179 
 RUS  HE ES        029 15.63                             142   -0.3210  103 179 
 RUS  HZ I         029 16.89         4.2 0.30            146            103 179 
 OCA  HN ES        029 22.85                             129   -0.63 9  158 351 
 OCA  HZ I         029 24.86        20.9 0.22            131            158 351 
 ZAR  HZ EP   1    029  6.27                             121   -0.24 6  208 291 
 ZAR  HN ES        029 32.39                             121    0.43 8  208 291 
 ZAR  HZ I         029 37.69         5.8 0.42            122            208 291 
 SML  HZ EP   4    029  9.23                             117   -1.06 0  243 334 
 SML  HE ES   1    029 37.92                             117   -0.77 6  243 334 
 SML  HZ I         029 40.71         9.2 0.08            119            243 334 
 GUY2CHZ EP   4    029 19.65                             111    1.65 0  307 235 
 GUY2CHN ES   1    029 52.52                             111    0.10 5  307 235 
 GUY2CHZ I         029 58.45         1.8 0.28                           307 235 
 SJC  HZ EP   4    029 27.94                             105   -1.45 0  410 326 
 SJC  HE ES   4    030 10.39                             105   -2.30 0  410 326 
 SJC  HZ I         030 12.64         2.4 0.56            107            410 326 
                                                                                
