 2011 1227 0353 43.2 L   6.696 -73.177148.1  RSN  4 0.1 1.3LRSN                1
 GAP=185        0.33       6.4     4.1  4.3 -0.4058E+01  0.7971E+00  0.9963E+01E
 Epicentro: VILLANUEVA - SANTANDER                                             3
 ACTION:UPD 12-07-13 16:18 OP:ep   STATUS:               ID:20111227035343 L   I
 2011-12-27-0350-00M.COL___187                                                 6
 STAT SP IPHASW D HRMM SECON CODA AMPLIT PERI AZIMU VELO AIN AR TRES W  DIS CAZ7
 BAR2 SZ EP   2    354  2.99                             175    0.07 5 11.4 183 
 BAR2 SZ ES   2    354 18.12                             175   -0.20 5 11.4 183 
 BAR2 SZ I         354 20.16         3.0 0.44                          11.4 183 
 GIR2 SZ EP   1    354  3.44                             163   -0.04 7 42.4 358 
 GIR2 SZ ES   1    354 19.50                             163    0.19 7 42.4 358 
 BRR  HZ EP   1    354  4.77                             152   -0.01 7 74.6 308 
 BRR  HZ I         354  5.05         6.1 0.16                          74.6 308 
 BRR  HE ES   1    354 21.48                             152   -0.15 7 74.6 308 
 PTB  HZ EP   2    354  9.89                             134    0.01 5  142 263 
 PTB  HN ES   2    354 30.87                             134    0.17 5  142 263 
                                                                                
