 2011  627 0733 44.5 L   6.772 -73.065150.0  RSN  5 0.1 1.5LRSN                1
 GAP=200        0.32       3.3     4.5  4.7 -0.4033E+01 -0.4236E+01  0.4497E+01E
 Epicentro: LOS SANTOS - SANTANDER                                             3
 ACTION:UP  11-07-14 19:08 OP:ep   STATUS:               ID:20110627073344 L   I
 2011-06-27-0731-20S.COL___140                                                 6
 STAT SP IPHASW D HRMM SECON CODA AMPLIT PERI AZIMU VELO SNR AR TRES W  DIS CAZ7
 BAR2 SZ EP        734  4.60                             171     0.010   24 213 
 BAR2 SZ ES   2    734 20.24                             171    -0.1 5   24 213 
 BAR2 SZ I         734 21.40         5.4 0.31                            24 213 
 BTL  SZ EP        734  4.80                             169     0.110   28 306 
 BTL  SZ ES   3    734 20.40                             169    -0.1 2   28 306 
 BRR  HZ EP        734  6.56                             150    -0.110   81 297 
 BRR  HZ I         734  6.82         7.2 0.11                            81 297 
 BRR  HN ES   1    734 23.97                             150     0.1 7   81 297 
 GRA  SZ ES   1    734 30.20                             138     0.0 7  126  13 
 GRA  SZ I         734 32.08         2.2 0.31                           126  13 
 OCA  SZ ES   3    734 35.74                             130    -0.4 2  165 350 
 OCA  SZ I         734 41.08         4.8 0.28                           165 350 
                                                                                
