 2013 1227 0351 28.8 L   6.810 -73.137147.1  RSN 23 0.5 2.8LRSN                1
 GAP= 66        0.95       2.8     3.0  4.7 -0.6630E+00  0.2710E+01  0.3500E+01E
 Epicentro: LOS SANTOS - SANTANDER                                             3
 ACTION:UPD 14-01-13 10:21 OP:ep   STATUS:               ID:20131227035128 L   I
 OLDACT:UP  13-12-27 09:31 OP:mh   STATUS:               ID:20131227035000     3
 OLDACT:UP  13-12-27 09:30 OP:mh   STATUS:               ID:20131227035000     3
 OLDACT:UP  13-12-27 09:26 OP:mh   STATUS:               ID:20131227035000     3
 OLDACT:UP  13-12-27 09:25 OP:mh   STATUS:               ID:20131227035000     3
 OLDACT:REG 13-12-27 07:43 OP:mh   STATUS:               ID:20131227035000     3
 2013-12-27-0350-00M.COL___285                                                 6
 STAT SP IPHASW D HRMM SECON CODA AMPLIT PERI AZIMU VELO AIN AR TRES W  DIS CAZ7
 BAR2 SZ IP     C  351 48.62                             170    0.0010 24.6 192 
 BAR2 SZ ES        352  3.80                             170   -0.2710 24.6 192 
 BAR2 SZ I         352  5.05       388.4 0.21            165           24.6 192 
 BRR  HZ IP     C  351 50.49                             153    0.3810 71.6 297 
 BRR  HN ES        352  7.35                             153    0.6110 71.6 297 
 BRR  HZ I         352 10.87       127.7 0.23            147           71.6 297 
 PAM  SZ IP     C  351 51.44                             152    0.3710 75.9  39 
 PAM  SE ES   1    352  8.64                             152    0.19 7 75.9  39 
 PAM  SZ I         352 10.91       149.5 0.49            145           75.9  39 
 RUS  HZ IP     D  351 52.54                             144   -0.2110  102 177 
 RUS  HZ I         352 12.96        76.3 0.25            134            102 177 
 PTB  HZ EP        351 55.29                             132   -0.69 9  149 259 
 PTB  HZ I         352 18.47        57.1 0.19            124            149 259 
 TAM  HZ IP     D  351 56.95                             131    0.43 9  154 105 
 TAM  HZ I         352 18.10        17.8 0.17            122            154 105 
 TAM  HN ES        352 18.31                             131    0.17 9  154 105 
 OCA  HZ EP   1    351 56.64                             130   -0.48 7  159 353 
 OCA  HN ES        352 18.75                             130   -0.47 9  159 353 
 OCA  HZ I         352 23.69        56.5 0.22            122            159 353 
 SPBC HZ EP        351 57.53                             129   -0.01 9  165 219 
 SPBC HN ES        352 19.65                             129   -0.30 9  165 219 
 SPBC HZ I         352 24.21       125.7 0.36            120            165 219 
 ZAR  HZ EP   1    352  1.23                             123   -0.15 6  205 292 
 ZAR  HN ES   1    352 26.44                             123   -0.36 6  205 292 
 ZAR  HZ I         352 33.56        37.6 0.14            115            205 292 
 NOR  HZ EP   1    352  4.61                             119   -0.15 6  236 234 
 NOR  HN ES        352 32.62                             119   -0.19 8  236 234 
 NOR  HZ I         352 40.22        43.1 0.17            111            236 234 
 SML  HZ EP   1    352  4.81                             118   -0.63 6  243 335 
 SML  HN ES   2    352 33.47                             118   -0.55 4  243 335 
 SML  HZ I         352 37.92        89.5 0.08            110            243 335 
 CHI  HZ EP        352  6.60                             117   -0.11 8  250 195 
 CHI  HZ I         352 39.46        37.2 0.51            109            250 195 
 ROSC BZ EP   4    352  8.66                             117    1.51 0  254 211 
 ROSC BN ES   4    352 38.33                             117    1.27 0  254 211 
 HEL  HZ EP   1    352  9.68                             115    0.47 6  273 256 
 HEL  HZ I         352 47.65        33.8 0.23            108            273 256 
 CVER SZ EP   4    352  9.92                             115    0.54 0  273 202 
 URE  HZ EP   4    352  8.45                             114   -1.54 0  284 292 
 URE  HN ES   4    352 47.30                             114    5.18 0  284 292 
 GUY2CHZ EP        352 13.84                             112    1.21 7  303 235 
 GUY2CHN ES   4    352 47.84                             112    1.02 0  303 235 
 GUY2CHZ I         352 54.87        31.9 0.31                           303 235 
 VIL  SZ EP        352 11.94                             112   -0.48 7  305 192 
 VIL  SN ES   2    352 45.78                             112   -0.66 4  305 192 
 VIL  SZ I         352 49.34        55.3 0.42            105            305 192 
 PTGC HZ EP     D  352 11.65                             112   -1.14 7  309 159 
 PTGC HN ES   4    352 44.91                             112   -2.19 0  309 159 
 PTGC HZ I         352 50.04        22.7 0.35            104            309 159 
 RREF HZ EP   1    352 15.34                             111    0.18 5  323 229 
 RREF HN ES   4    352 53.14                             111    1.81 0  323 229 
 CBOC HZ EP   1    352 16.44                             110    0.53 5  335 252 
 CBOC HN ES   2    352 52.25                             110   -0.41 3  335 252 
 CBOC HZ I         352 56.92         6.9 0.15            103            335 252 
 DBB  SZ EP   4    352 15.67                             110   -0.76 0  340 274 
 TOL  SZ EP        352 18.13                             109    0.86 7  345 225 
 COD  HZ IP   4 D  352 16.05                             109   -1.06 0  347 354 
 COD  HN ES   2    352 54.20                             109   -0.60 3  347 354 
 ARGC HZ EP   1    352 19.10                             108    0.67 5  359 340 
 ARGC HN ES   2    352 57.32                             108    0.18 3  359 340 
 ORTC HZ EP        352 22.86                             106   -0.07 6  397 216 
 ORTC HN ES        353  5.60                             106    0.44 6  397 216 
 ORTC HZ I         353  9.74        20.7 0.32            100            397 216 
 PAL  HZ EP   1    352 24.57                             106    0.41 4  407 239 
 PAL  HN ES   2    353  8.25                             106    0.90 3  407 239 
 SJC  HZ EP   4    352 22.35                             106   -2.01 0  409 327 
 SJC  HN ES   4    353  4.02                             106   -3.68 0  409 327 
                                                                                
