 2010  727 0500 29.8 L   6.770 -73.031149.3  RSN 14 0.4 2.7LRSN                1
 GAP=135        0.97       4.4     6.9  6.8 -0.1803E+02 -0.5179E+01  0.8200E+01E
 Epicentro: CEPITA - SANTANDER                                                 3
 ACTION:UPD 10-12-01 15:20 OP:pat  STATUS:               ID:20100727050029 L   I
 2010-07-27-0457-39S.COL___123                                                 6
 STAT SP IPHASW D HRMM SECON CODA AMPLIT PERI AZIMU VELO AIN AR TRES W  DIS CAZ7
 BAR2 SZ IP        5 0 49.89                             170    -0.110   26 220 
 BAR2 SZ ES   1    5 1  5.49                             170    -0.2 7   26 220 
 BAR2 SZ I         5 1  7.55       123.5 0.57                            26 220 
 BRR  HZ IP     C  5 0 51.77                             149    -0.410   84 296 
 BRR  HE ES   1    5 1  9.27                             149    -0.2 7   84 296 
 BRR  HZ I         5 1 11.49       112.9 0.03                            84 296 
 RUS  HZ IP     D  5 0 53.69                             145     0.010   97 183 
 RUS  HZ I         5 0 54.90        28.8 0.10                            97 183 
 BRI  SZ EP   1    5 0 54.23                             142     0.2 7  108  14 
 GUE  SZ EP   1    5 0 55.63                             140     0.6 7  118   6 
 GUE  SZ I         5 0 57.31        32.8 0.08                           118   6 
 GRA  SZ IP        5 0 55.68                             138     0.310  126  12 
 GRA  SZ ES   1    5 1 15.30                             138    -0.1 7  126  12 
 GRA  SZ I         5 1 18.55        46.9 0.31                           126  12 
 OCA  SZ EP        5 0 58.22                             129    -0.7 9  166 349 
 OCA  SZ ES   1    5 1 22.37                             129     0.8 7  166 349 
 OCA  SZ I         5 1 25.13        78.5 0.15                           166 349 
 ROSC BZ EP   2    5 1  8.33                             117    -0.3 4  257 214 
 ROSC BE ES   1    5 1 38.70                             117    -0.1 6  257 214 
 ROSC BZ I         5 1 45.87        41.8 0.61                           257 214 
 HEL  HZ EP   1    5 1 11.44                             114    -0.1 6  284 257 
 HEL  HZ I         5 1 48.56        21.8 0.29                           284 257 
 RREF HZ EP        5 1 17.07                             111     0.1 7  329 231 
 RREF HN ES   1    5 1 54.41                             111     0.6 5  329 231 
 RREF HZ I         5 1 59.45        36.6 0.43                           329 231 
 DBB  SZ EP   2    5 1 18.34                             109    -0.6 3  352 275 
 SDV  BZ EP        5 1 19.28                             109     0.1 6  353  48 
 SDV  BZ I         5 1 20.39        13.0 0.34                           353  48 
 ANIL HZ EP   2    5 1 20.42                             109    -0.1 3  364 226 
 ANIL HE ES   1    5 2  1.04                             109     0.9 5  364 226 
 ANIL HZ I         5 2  3.78        64.0 0.10                           364 226 
 PRA  HZ EP        5 1 23.31                             107    -0.6 6  396 211 
 PRA  HN ES   1    5 2  6.85                             107     0.8 4  396 211 
 PRA  HZ I         5 2 11.61        34.4 0.37                           396 211 
                                                                                
