 2017  627 0815 10.3 L   6.566 -73.222143.7  RSN  4 0.3 1.1LRSN                1
 GAP=212        0.77       8.6     6.3  7.3  0.1055E+02  0.1983E+02  0.3120E+01E
 Epicentro: CABRERA - SANTANDER                                                3
 ACTION:UPD 17-09-14 16:55 OP:jn   STATUS:               ID:20170627081510 L   I
 OLDACT:UP  17-06-27 14:44 OP:dhb  STATUS:               ID:20170627080744     3
 OLDACT:REG 17-06-27 13:13 OP:and  STATUS:               ID:20170627080744     3
 2017-06-27-0808-00M.COL___352                                                 6
 STAT SP IPHASW D HRMM SECON CODA AMPLIT PERI AZIMU VELO AIN AR TRES W  DIS CAZ7
 BAR2 EZ ES        815 44.61                             178    0.2610 5.28  57 
 BAR2 EZ I         815 45.36         1.9 0.14            172           5.28  57 
 BRR  HZ EP        815 31.37                             149   -0.3910 80.7 318 
 BRR  HN ES        815 48.37                             149   -0.1510 80.7 318 
 BRR  HZ I         815 52.36         2.2 0.12            145           80.7 318 
 PTB  HZ EP        815 36.36                             134    0.30 9  137 269 
 PTB  HN ES        815 55.85                             134   -0.32 9  137 269 
 PTB  HZ I         815 59.62         1.3 0.10            133            137 269 
 ZAR  HZ EP   2    815 42.96                             121   -0.00 4  208 300 
 ZAR  HN ES        816  8.90                             121    0.44 8  208 300 
 ZAR  HZ I         816 14.24         2.0 0.34            121            208 300 
                                                                                
