 2015  327 0817 17.7 L   6.356 -73.660101.2  RSN  9 0.5 1.4LRSN                1
 GAP= 82        1.17       3.5     3.1  7.5 -0.2310E+01  0.7429E+01 -0.2846E+01E
 Epicentro: SANTA HELENA DEL OPON - SANTANDER                                  3
 ACTION:UPD 15-04-30 16:29 OP:nd   STATUS:               ID:20150327081717 L   I
 OLDACT:DUP 15-03-27 16:42 OP:fm   STATUS:               ID:20150327080749d    3
 2015-03-27-0807-48M.COL___278                                                 6
 STAT SP IPHASW D HRMM SECON CODA AMPLIT PERI AZIMU VELO AIN AR TRES W  DIS CAZ7
 BAR2 EZ EP     C  817 34.52                             147    0.8010 58.9  64 
 BAR2 EZ ES        817 46.93                             147    0.7110 58.9  64 
 BAR2 EZ I         817 48.60        11.7 0.14            153           58.9  64 
 RUS  HZ EP        817 36.16                             138    0.3910 81.9 129 
 RUS  HN ES        817 49.47                             138   -0.4010 81.9 129 
 RUS  HZ I         817 52.34         3.8 0.28            147           81.9 129 
 BRR  HZ EP        817 35.50                             137    0.3010 83.2 356 
 BRR  HN ES        817 48.46                             137   -0.4010 83.2 356 
 BRR  HZ I         817 55.52         3.5 0.44            140           83.2 356 
 SPBC HZ EP        817 35.85                             135   -0.0710 90.2 210 
 SPBC HN ES        817 50.11                             135   -0.0410 90.2 210 
 SPBC HZ I         817 53.30         6.3 0.24            140           90.2 210 
 PTB  HZ EP        817 35.49                             135   -0.3510 90.4 283 
 PTB  HE ES        817 49.58                             135   -0.4110 90.4 283 
 PTB  HZ I         817 52.41        13.8 0.05            137           90.4 283 
 PAM  SZ EP        817 42.36                             119   -0.16 9  152  44 
 PAM  SE ES        818  1.20                             119   -0.69 9  152  44 
 NOR  HZ EP        817 42.01                             117   -0.82 9  160 237 
 NOR  HN ES        818  2.60                             117    0.16 9  160 237 
 NOR  HZ I         818  4.97         2.6 0.22            122            160 237 
 ZAR  HZ EP        817 45.32                             113    0.07 9  183 314 
 ZAR  HN ES        818  7.11                             113    0.35 9  183 314 
 ZAR  HZ I         818 14.19         3.4 0.70            117            183 314 
 HEL  HZ EP   1    817 48.70                             110    0.15 6  208 265 
 HEL  HE ES        818 13.13                             110    0.51 8  208 265 
 HEL  HZ I         818 17.01         2.0 0.20            115            208 265 
                                                                                
