 2012  927 0956  0.4 L   6.539 -73.567106.6  RSN  7 0.4 2.2LRSN                1
 GAP= 88        0.94       4.0     5.0  7.4 -0.2878E+01  0.1005E+02  0.5629E+01E
 Epicentro: EL CARMEN DE CHUCURI - SANTANDER                                   3
 ACTION:UPD 12-10-22 14:21 OP:ep   STATUS:               ID:20120927095601dL   I
 2012-09-27-0950-00M.COL___217                                                 6
 STAT SP IPHASW D HRMM SECON CODA AMPLIT PERI AZIMU VELO AIN AR TRES W  DIS CAZ7
 BAR2 SZ IP        956 16.28                             156    0.1910 43.0  82 
 BAR2 SZ ES        956 28.70                             156    0.3610 43.0  82 
 GIR2 SZ EP        956 17.84                             143    0.0610 72.6  35 
 GIR2 SZ ES   1    956 31.77                             143    0.43 7 72.6  35 
 RUS  HZ EP        956 19.14                             137   -0.4310 89.3 143 
 RUS  HE ES   1    956 34.32                             137   -0.21 7 89.3 143 
 RUS  HZ I         956 37.35        14.4 0.25                          89.3 143 
 PTB  HN ES   1    956 33.96                             134   -0.78 7 98.3 270 
 PAM  SZ EP   1    956 22.90                             125   -0.45 7  131  47 
 PAM  SN ES   1    956 40.76                             125   -0.51 7  131  47 
 PAM  SZ I         956 42.43        31.8 0.21                           131  47 
 PAM  SN I         956 45.11        35.3 0.37                           131  47 
 ZAR  HZ EP   1    956 28.45                             116    0.79 7  177 307 
 ZAR  HN I         956 53.37        42.2 0.19                           177 307 
 CHI  HZ EP        956 32.20                             112    0.17 8  212 185 
 CHI  HN ES   1    956 57.07                             112    0.36 6  212 185 
 CHI  HZ I         957  2.21         9.3 0.36                           212 185 
                                                                                
