 2016  127 0549 32.1 L   7.061 -73.379102.0  RSN  5 0.4 1.3LRSN                1
 GAP=163        0.87       2.4     4.9 13.8 -0.7393E+00 -0.5134E+01 -0.5811E+01E
 Epicentro: LEBRIJA - SANTANDER                                                3
 ACTION:UPD 16-03-09 23:28 OP:cam  STATUS:               ID:20160127054932 L   I
 OLDACT:UP  16-01-27 19:19 OP:ak   STATUS:               ID:20160127054742d    3
 OLDACT:DUP 16-01-27 19:16 OP:ak   STATUS:               ID:20160127054742d    3
 2016-01-27-0547-40M.COL___328                                                 6
 STAT SP IPHASW D HRMM SECON CODA AMPLIT PERI AZIMU VELO AIN AR TRES W  DIS CAZ7
 OCA  HZ EP        549 54.49                             124    0.1410  130   3 
 OCA  HN ES        550 11.73                             124    0.0610  130   3 
 OCA  HZ I         550 13.83         9.0 0.30            129            130   3 
 PTB  HZ EP   1    549 53.61                             123   -0.74 7  132 244 
 PTB  HN ES        550 11.45                             123   -0.2210  132 244 
 PTB  HZ I         550 15.15         2.6 0.21            126            132 244 
 RUS  HZ EP        549 54.84                             123   -0.2410  133 166 
 RUS  HN ES        550 12.84                             123   -0.1210  133 166 
 SPBC HN ES        550 20.47                             115    0.77 9  174 206 
 SPBC HZ I         550 25.87         1.6 0.21            119            174 206 
 SML  HZ EP   2    550  2.96                             110    0.45 4  207 338 
 SML  HN ES        550 26.22                             110    0.03 9  207 338 
                                                                                
