 2012  127 0508 32.0 L   6.719 -73.126142.0  RSN  7 0.3 1.7LRSN                1
 GAP=143        0.69       4.8     5.1  6.4 -0.3457E+01 -0.5830E+00  0.7522E+00E
 Epicentro: JORDAN - SANTANDER                                                 3
 ACTION:UP  12-02-03 08:21 OP:REBC STATUS:               ID:20120127050832 L   I
 2012-01-27-0500-00M.COL___188                                                 6
 STAT SP IPHASW D HRMM SECON CODA AMPLIT PERI AZIMU VELO SNR AR TRES W  DIS CAZ7
 BAR2 SZ EP   1    5 8 51.37                             174     0.3 7   15 204 
 BAR2 SZ ES   2    5 9  5.63                             174    -0.3 5   15 204 
 BAR2 SZ I         5 9  7.13        10.9 0.23                            15 204 
 GIR2 SZ EP        5 8 51.57                             163     0.010   41 349 
 BRR  HZ EP        5 8 53.28                             150     0.110   78 304 
 BRR  HZ I         5 8 53.72        13.8 0.11                            78 304 
 BRR  HN ES        5 9 10.00                             150     0.410   78 304 
 PAM  SZ EP   1    5 8 54.45                             148     0.2 7   83  34 
 PAM  SN ES   1    5 9 11.22                             148    -0.3 7   83  34 
 RUS  HZ EP   2    5 8 54.99                             146     0.2 5   91 177 
 RUS  HE ES   2    5 9 12.28                             146    -0.2 5   91 177 
 PTB  HZ EP   1    5 8 58.15                             131    -0.6 7  148 262 
 PTB  HN ES   2    5 9 19.19                             131    -0.4 5  148 262 
 OCA  SZ EP   1    5 9  0.98                             127     0.0 7  169 353 
 OCA  SZ ES   2    5 9 22.75                             127    -0.7 5  169 353 
 OCA  SZ I         5 9 26.22         5.7 0.49                           169 353 
                                                                                
