 2015  527 0459 28.4 L   6.801 -73.151150.4  RSN 10 0.4 1.7LRSN                1
 GAP=136        0.95       2.8     4.4  6.0  0.3475E+00  0.7269E+01 -0.2040E+01E
 Epicentro: LOS SANTOS - SANTANDER                                             3
 ACTION:UPD 15-09-10 22:07 OP:cam  STATUS:               ID:20150527045928 L   I
 OLDACT:REG 15-05-27 12:42 OP:spq  STATUS:               ID:20150527045749     3
 2015-05-27-0457-49M.COL___294                                                 6
 STAT SP IPHASW D HRMM SECON CODA AMPLIT PERI AZIMU VELO AIN AR TRES W  DIS CAZ7
 BAR2 EZ EP        459 48.42                             171   -0.1510 23.3 189 
 BAR2 EZ ES   1    5 0  4.22                             171   -0.10 7 23.3 189 
 BAR2 EZ I         5 0  5.32         7.5 0.40            170           23.3 189 
 BRR  HZ EP     C  459 50.31                             153    0.3110 70.7 299 
 BRR  HN ES        5 0  7.86                             153    0.9910 70.7 299 
 BRR  HZ I         5 0 11.76         6.4 0.14            151           70.7 299 
 PAM  SZ EP        459 51.24                             152    0.1310 77.7  40 
 PAM  SN ES        5 0  8.66                             152   -0.1810 77.7  40 
 PAM  SZ I         5 0 10.68         4.2 0.42            155           77.7  40 
 RUS  HZ EP        459 52.38                             145   -0.2210  101 176 
 RUS  HN ES        5 0 11.21                             145   -0.2810  101 176 
 RUS  HZ I         5 0 12.09         4.5 0.28            147            101 176 
 OCA  HZ EP        459 57.14                             131    0.10 9  160 353 
 OCA  HN ES        5 0 18.92                             131   -0.48 9  160 353 
 OCA  HZ I         5 0 24.24        13.9 0.36            132            160 353 
 SPBC HZ EP        459 57.43                             130    0.22 9  163 219 
 SPBC HE ES        5 0 19.17                             130   -0.53 9  163 219 
 SPBC HZ I         5 0 22.08         6.3 0.20            131            163 219 
 ZAR  HZ EP        5 0  1.11                             123    0.04 9  203 292 
 ZAR  HE ES        5 0 26.35                             123   -0.23 9  203 292 
 ZAR  HZ I         5 0 33.35         8.7 0.36            124            203 292 
 SML  HZ EP        5 0  5.37                             118    0.13 8  243 335 
 SML  HN ES   1    5 0 34.15                             118    0.16 6  243 335 
 SML  HZ I         5 0 36.35         6.9 0.10            120            243 335 
 CHI  HE ES   1    5 0 36.71                             118    0.78 6  249 195 
 CHI  HZ I         5 0 41.69         3.1 0.36            120            249 195 
 MON  HZ EP   4    5 0 15.59                             109   -1.92 0  353 308 
 MON  HE ES        5 0 55.21                             109   -0.62 6  353 308 
 MON  HZ I         5 0 59.17         1.0 0.45            110            353 308 
                                                                                
