 2017  127 0730 42.8 L   6.701 -73.221132.6  RSN  4 0.4 0.9LRSN                1
 GAP=211        1.16       8.4     8.1  9.4  0.3449E+02  0.1440E+02  0.7568E+01E
 Epicentro: VILLANUEVA - SANTANDER                                             3
 ACTION:UPD 17-05-22 16:03 OP:jn   STATUS:               ID:20170127073042 L   I
 OLDACT:REG 17-01-27 12:50 OP:lv   STATUS:               ID:20170127072744     3
 2017-01-27-0728-00M.COL___316                                                 6
 STAT SP IPHASW D HRMM SECON CODA AMPLIT PERI AZIMU VELO AIN AR TRES W  DIS CAZ7
 BAR2 EZ EP        731  0.67                             174    0.0310 12.7 160 
 BAR2 EZ ES        731 13.89                             174   -0.6910 12.7 160 
 BAR2 EZ I         731 16.58         2.9 0.26            170           12.7 160 
 BRR  HZ EP        731  2.45                             150   -0.0210 70.5 310 
 BRR  HN ES        731 18.38                             150    0.5410 70.5 310 
 RUS  HZ EP        731  5.03                             144    0.5110 90.7 170 
 RUS  HN ES        731 21.63                             144    0.1610 90.7 170 
 RUS  HZ I         731 23.64         0.7 0.30            143           90.7 170 
 PTB  HZ EP        731  7.04                             131   -0.73 9  138 263 
 PTB  HN ES        731 27.40                             131    0.14 9  138 263 
 PTB  HZ I         731 31.32         1.3 0.19            131            138 263 
                                                                                
