 2017  927 0946  1.5 L   6.862 -73.029143.9  RSN  4 0.2 1.3LRSN                1
 GAP=253        0.60       7.2     7.7  6.1  0.4324E+02 -0.4713E+01 -0.1752E+02E
 Epicentro: CEPITA - SANTANDER                                                 3
 ACTION:UPD 17-10-05 19:16 OP:rebc STATUS:               ID:20170927094601 L   I
 OLDACT:UP  17-09-27 19:14 OP:edw  STATUS:               ID:20170927093739     3
 OLDACT:REG 17-09-27 13:02 OP:edw  STATUS:               ID:20170927093739     3
 2017-09-27-0938-00M.COL___447                                                 6
 STAT SP IPHASW D HRMM SECON CODA AMPLIT PERI AZIMU VELO AIN AR TRES W  DIS CAZ7
 BAR2 EZ EP        946 20.88                             166   -0.2910 34.3 210 
 BAR2 EZ ES        946 36.46                             166   -0.0610 34.3 210 
 BAR2 EZ I         946 37.74         5.4 0.42            163           34.3 210 
 BRR  HZ EP        946 23.39                             149    0.4110 80.2 290 
 RUS  HZ EP        946 25.64                             142    0.0810  107 183 
 RUS  HN ES        946 44.37                             142    0.0410  107 183 
 RUS  HZ I         946 46.45         3.1 0.34            140            107 183 
 ZAR  HZ EP        946 34.59                             121   -0.24 8  214 289 
 ZAR  HN ES        947  0.81                             121   -0.01 8  214 289 
                                                                                
