 2015  627 0300  6.4 L   6.748 -73.111154.0  RSN  4 0.4 1.8LRSN                1
 GAP=213        1.03       7.5     8.4  9.7  0.1313E+02 -0.6293E+01 -0.2592E+02E
 Epicentro: LOS SANTOS - SANTANDER                                             3
 ACTION:UPD 15-09-10 22:15 OP:cam  STATUS:               ID:20150627030006 L   I
 OLDACT:UP  15-06-27 18:03 OP:mh   STATUS:               ID:20150627025949     3
 OLDACT:UP  15-06-27 18:03 OP:mh   STATUS:               ID:20150627025949     3
 OLDACT:REG 15-06-27 18:01 OP:mh   STATUS:               ID:20150627025949     3
 2015-06-27-0259-49M.COL___322                                                 6
 STAT SP IPHASW D HRMM SECON CODA AMPLIT PERI AZIMU VELO AIN AR TRES W  DIS CAZ7
 BAR2 EZ EP        3 0 27.36                             173    0.4510 18.9 205 
 BAR2 EZ ES        3 0 42.84                             173   -0.1010 18.9 205 
 BRR  HZ EP        3 0 27.92                             152   -0.8410 77.4 301 
 BRR  HN ES        3 0 46.41                             152    0.1910 77.4 301 
 BRR  HZ I         3 0 54.34         5.1 0.34            147           77.4 301 
 OCA  HZ EP        3 0 36.25                             130    0.35 9  166 352 
 OCA  HN ES        3 0 58.82                             130   -0.12 9  166 352 
 OCA  HZ I         3 1  1.71         8.5 0.22            131            166 352 
 ZAR  HN ES        3 1  6.31                             123    0.16 8  210 293 
 ZAR  HZ I         3 1 12.90         6.4 0.30            123            210 293 
                                                                                
