 2011 1027 0352 53.4 L   6.612 -73.529 13.3  RSN  6 0.3 1.5LRSN                1
 GAP=110        0.53       2.4     3.4  7.3  0.3623E+01  0.1927E+02  0.5939E+01E
 Epicentro: EL CARMEN DE CHUCURI - SANTANDER                                   3
 ACTION:UPD 12-07-13 16:06 OP:ep   STATUS:               ID:20111027035253 L   I
 2011-10-27-0351-58S.COL___169                                                 6
 STAT SP IPHASW D HRMM SECON CODA AMPLIT PERI AZIMU VELO AIN AR TRES W  DIS CAZ7
 BAR2 SZ IP        353  0.31                             105    0.0310 38.4  93 
 BAR2 SZ I         353  0.42        53.8 0.10                          38.4  93 
 BAR2 SZ ES   2    353  5.63                             105    0.01 5 38.4  93 
 BRR  HZ EP   1    353  2.89                              99   -0.10 7 58.4 340 
 BRR  HN ES   2    353 10.23                              99   -0.21 5 58.4 340 
 BRR  HZ I         353 11.46        23.3 0.12                          58.4 340 
 RUS  HZ EP   1    353  8.89                              96    0.11 7 93.6 148 
 RUS  HZ I         353  9.61         7.1 0.17                          93.6 148 
 RUS  HN ES   2    353 20.18                              96   -0.58 5 93.6 148 
 PAM  SZ EP   1    353 13.58                              94    0.52 7  122  49 
 PAM  SE ES   2    353 27.84                              94   -0.54 5  122  49 
 ZAR  HN ES   2    353 40.31                              56   -0.28 4  176 304 
 ZAR  HZ I         353 42.26         5.1 0.05                           176 304 
 HEL  HZ EP   2    353 27.02                              56    0.43 4  226 258 
 HEL  HN ES   2    353 52.39                              56   -0.07 4  226 258 
 HEL  HZ I         353 54.70         3.4 0.23                           226 258 
                                                                                
