 2016 1027 0141 36.2 L   7.415 -73.167131.5  RSN  5 0.3 1.6LRSN                1
 GAP=219        0.69       4.6     4.5  5.4 -0.3305E+01  0.1813E+01  0.1511E+01E
 Epicentro: EL PLAYON - SANTANDER                                              3
 ACTION:UPD 16-11-09 19:23 OP:rebc STATUS:               ID:20161027014136 L   I
 OLDACT:REG 16-10-27 11:45 OP:cog  STATUS:               ID:20161027013740     3
 2016-10-27-0138-00M.COL___349                                                 6
 STAT SP IPHASW D HRMM SECON CODA AMPLIT PERI AZIMU VELO AIN AR TRES W  DIS CAZ7
 PAM  EZ EP        141 55.75                             157    0.2710 52.3  99 
 PAM  EE ES   2    142 10.98                             157    0.44 5 52.3  99 
 BRR  HZ EP        141 55.44                             150   -0.2310 69.1 241 
 BRR  HE ES        142 10.79                             150   -0.0910 69.1 241 
 BRR  HZ I         142 11.39        14.0 0.26            145           69.1 241 
 BAR2 EZ EP        141 57.44                             143   -0.0410 91.0 181 
 BAR2 EZ ES        142 13.97                             143   -0.1210 91.0 181 
 BAR2 EZ I         142 14.96        13.2 0.16            139           91.0 181 
 RUS  HZ EP        142  4.74                             125    0.05 9  169 177 
 RUS  HE ES        142 26.77                             125   -0.16 9  169 177 
 RUS  HZ I         142 29.04         1.3 0.20            122            169 177 
 NOR  HZ EP        142 15.60                             111   -0.39 7  278 223 
 NOR  HN ES        142 47.79                             111    0.74 7  278 223 
 NOR  HZ I         142 54.42         2.0 0.48            109            278 223 
                                                                                
