 2013  127 0828 14.9 L   6.720 -73.121141.0  RSN  5 0.4 1.3LRSN                1
 GAP=143        1.08       8.0     7.5 15.6  0.1717E+02 -0.4505E+02 -0.5698E+02E
 Epicentro: JORDAN - SANTANDER                                                 3
 ACTION:UPD 13-02-15 09:17 OP:ep   STATUS:               ID:20130127082814 L   I
 2013-01-27-0818-48M.COL___185                                                 6
 STAT SP IPHASW D HRMM SECON CODA AMPLIT PERI AZIMU VELO AIN AR TRES W  DIS CAZ7
 BAR2 SZ EP        828 33.28                             173   -0.5010 15.6 206 
 BRR  HZ EP        828 36.68                             149    0.7710 78.1 303 
 BRR  HN ES        828 52.34                             149    0.0110 78.1 303 
 PAM  SZ EP        828 36.68                             148   -0.2310 82.8  34 
 RUS  HN ES        828 55.38                             145    0.2210 91.6 177 
 PTB  HE ES        829  2.06                             131   -0.32 9  149 262 
 PTB  HE I         829  8.99         2.6 0.40            122            149 262 
                                                                                
