 2013  327 0258 26.4 L   7.054 -73.324 11.8  RSN  4 0.4 0.8LRSN                1
 GAP=242        0.82       6.0     5.5  7.1  0.2451E+02 -0.9644E+01 -0.1686E+02E
 Epicentro: LEBRIJA - SANTANDER                                                3
 ACTION:UPD 13-04-09 14:05 OP:ep   STATUS:               ID:20130327025826 L   I
 2013-03-27-0250-00M.COL___245                                                 6
 STAT SP IPHASW D HRMM SECON CODA AMPLIT PERI AZIMU VELO AIN AR TRES W  DIS CAZ7
 BRR  HZ EP        258 33.26                             101   -0.4510 43.3 278 
 BRR  HN ES   1    258 39.43                             101    0.05 7 43.3 278 
 BRR  HZ I         258 39.95         5.0 0.48             94           43.3 278 
 RUS  HZ EP   1    258 47.75                              93    0.31 7  131 168 
 RUS  HN ES   1    259  3.47                              93   -0.36 7  131 168 
 RUS  HZ I         259  5.46         0.9 0.34             91            131 168 
 PTB  HZ EP        258 48.20                              93    0.29 9  138 246 
 PTB  HE ES   1    259  4.83                              93    0.16 7  138 246 
 PTB  HZ I         259  6.30         1.6 0.18             91            138 246 
 ZAR  HZ EP   1    258 53.77                              56    0.71 7  176 286 
 ZAR  HN ES   1    259 13.35                              56   -0.48 7  176 286 
 ZAR  HZ I         259 14.85         2.2 0.24             56            176 286 
                                                                                
