 2013  127 0108 27.1 L   6.768 -73.141142.8  RSN  7 0.3 1.5LRSN                1
 GAP= 97        0.81       3.5     3.7  6.2 -0.1953E+01 -0.2483E+01  0.7499E+01E
 Epicentro: LOS SANTOS - SANTANDER                                             3
 ACTION:UPD 13-02-15 09:17 OP:ep   STATUS:               ID:20130127010827 L   I
 2013-01-27-0058-35M.COL___186                                                 6
 STAT SP IPHASW D HRMM SECON CODA AMPLIT PERI AZIMU VELO AIN AR TRES W  DIS CAZ7
 BAR2 SZ EP        1 8 46.31                             172   -0.0310 19.9 193 
 BAR2 SZ I         1 8 46.41         9.3 0.40             94           19.9 193 
 BRR  HZ EP        1 8 48.22                             151    0.1310 73.4 301 
 BRR  HN ES        1 9  5.01                             151    0.5810 73.4 301 
 BRR  HN I         1 9  8.89        11.8 0.16             47           73.4 301 
 PAM  SZ IP        1 8 49.15                             149   -0.0310 79.9  38 
 PAM  SZ I         1 8 49.33         3.3 0.22             47           79.9  38 
 PAM  SN ES        1 9  6.23                             149   -0.1610 79.9  38 
 RUS  HZ EP        1 8 50.60                             144    0.2710 97.0 176 
 RUS  HN ES        1 9  8.06                             144   -0.3710 97.0 176 
 RUS  HN I         1 9 10.52         3.0 0.42             47           97.0 176 
 PTB  HZ EP        1 8 53.31                             131   -0.53 9  148 260 
 PTB  HN ES        1 9 14.35                             131   -0.33 9  148 260 
 PTB  HN I         1 9 19.52         3.9 0.32             47            148 260 
 TAM  HZ EP        1 8 54.41                             130   -0.04 9  154 104 
 TAM  HN I         1 9 56.03         7.6 0.36             47            154 104 
 CHI  HZ EP        1 9  4.58                             117    0.28 8  245 195 
 CHI  HN ES        1 9 33.64                             117    0.34 8  245 195 
 CHI  HN I         1 9 40.17         1.6 0.52             37            245 195 
                                                                                
