 2015  527 0543  5.1 L   6.812 -73.150150.0  RSN 15 0.4 1.9LRSN                1
 GAP=118        0.91       2.7     4.0  5.2 -0.4957E+00  0.4112E+01  0.2049E+01E
 Epicentro: LOS SANTOS - SANTANDER                                             3
 ACTION:UPD 15-09-10 22:07 OP:cam  STATUS:               ID:20150527054305 L   I
 OLDACT:REG 15-05-27 12:44 OP:spq  STATUS:               ID:20150527053749     3
 2015-05-27-0537-49M.COL___294                                                 6
 STAT SP IPHASW D HRMM SECON CODA AMPLIT PERI AZIMU VELO AIN AR TRES W  DIS CAZ7
 BAR2 EZ EP        543 25.22                             170   -0.0510 24.5 188 
 BAR2 EZ ES   1    543 40.36                             170   -0.64 7 24.5 188 
 BAR2 EZ I         543 41.40        16.6 0.24            169           24.5 188 
 BRR  HZ EP        543 26.93                             154    0.2710 70.2 298 
 BRR  HE ES        543 44.36                             154    0.8910 70.2 298 
 BRR  HZ I         543 48.37         7.9 0.18            151           70.2 298 
 PAM  SZ EP        543 28.12                             152    0.3910 76.7  40 
 PAM  SN ES        543 45.32                             152   -0.0610 76.7  40 
 PAM  SZ I         543 47.30        14.3 0.48            156           76.7  40 
 RUS  HZ EP        543 29.47                             144    0.1010  102 176 
 RUS  HN ES   1    543 48.22                             144   -0.07 7  102 176 
 RUS  HZ I         543 48.90         9.5 0.28            146            102 176 
 OCA  HZ EP        543 33.30                             131   -0.33 9  159 353 
 OCA  HN ES        543 55.57                             131   -0.30 9  159 353 
 OCA  HZ I         543 58.82        14.2 0.62            132            159 353 
 SPBC HZ EP        543 34.12                             130    0.12 9  164 219 
 SPBC HE ES        543 56.34                             130   -0.20 9  164 219 
 SPBC HZ I         543 58.63        14.0 0.26            130            164 219 
 ZAR  HZ EP        543 37.69                             124   -0.05 9  203 292 
 ZAR  HN ES        544  2.91                             124   -0.28 9  203 292 
 ZAR  HZ I         544  8.54         6.4 0.36            124            203 292 
 NOR  HZ EP   1    543 41.78                             119    0.66 6  235 234 
 SML  HZ EP   1    543 42.23                             119    0.40 6  242 335 
 SML  HN ES   1    544  9.85                             119   -0.62 6  242 335 
 SML  HZ I         544 12.27        10.5 0.24            120            242 335 
 CHI  HZ EP   1    543 42.82                             118   -0.34 6  250 195 
 CHI  HN ES   1    544 12.87                             118    0.02 6  250 195 
 CHI  HZ I         544 15.96         4.0 0.36            119            250 195 
 HEL  HZ EP   4    543 46.71                             116    1.19 0  272 256 
 HEL  HE ES   1    544 16.30                             116   -0.75 6  272 256 
 HEL  HZ I         544 23.26         4.0 0.28            116            272 256 
 GUY2CHZ EP   4    543 50.11                             113    1.16 0  302 235 
 GUY2CHE ES   4    544 24.94                             113    1.78 0  302 235 
 GUY2CHZ I         544 31.31         3.4 0.28                           302 235 
 PTGC HZ EP   1    543 48.40                             112   -0.91 5  310 159 
 PTGC HN ES   4    544 22.16                             112   -1.62 0  310 159 
 PTGC HZ I         544 23.08         8.2 0.35            114            310 159 
 MON  HZ EP   4    543 52.29                             109   -1.85 0  353 308 
 MON  HN ES   4    544 30.73                             109   -1.66 0  353 308 
 MON  HZ I         544 32.69         1.1 0.46            110            353 308 
 ORTC HZ EP        543 59.66                             107    0.40 6  396 216 
 ORTC HE ES   4    544 42.59                             107    1.09 0  396 216 
 ORTC HZ I         544 46.51         2.2 0.28            108            396 216 
                                                                                
