 2013  627 0612 51.5 L   6.782 -73.169140.0  RSN 13 0.5 2.0LRSN                1
 GAP= 70        1.24       3.7     4.5  7.1 -0.8819E-01  0.6499E+01  0.1486E+01E
 Epicentro: LOS SANTOS - SANTANDER                                             3
 ACTION:UPD 14-01-08 09:57 OP:ep   STATUS:               ID:20130627061251 L   I
 OLDACT:REG 13-06-27 06:41 OP:jn   STATUS:               ID:20130627060959     3
 2013-06-27-0609-59M.COL___266                                                 6
 STAT SP IPHASW D HRMM SECON CODA AMPLIT PERI AZIMU VELO AIN AR TRES W  DIS CAZ7
 BAR2 SZ EP        613 10.52                             171    0.1210 21.1 184 
 BAR2 SZ ES        613 25.09                             171   -0.0510 21.1 184 
 BAR2 SZ I         613 26.30        42.5 0.18            167           21.1 184 
 GIR2 SZ EP        613 10.64                             166    0.1010 32.9 355 
 BRR  HZ EP        613 12.45                             152    0.4810 69.9 301 
 BRR  HN ES   1    613 29.02                             152    1.10 7 69.9 301 
 BRR  HZ I         613 31.00        24.0 0.18            145           69.9 301 
 PAM  SZ EP        613 13.57                             149    0.2610 80.5  40 
 PAM  SN ES        613 30.25                             149   -0.0710 80.5  40 
 PAM  SZ I         613 32.73        12.4 0.62            148           80.5  40 
 RUS  HZ EP        613 14.46                             143   -0.1110 98.8 174 
 RUS  HN ES        613 32.43                             143   -0.1310 98.8 174 
 RUS  HZ I         613 34.63        14.9 0.36            138           98.8 174 
 PTB  HZ EP        613 17.17                             131   -0.58 9  145 259 
 PTB  HN ES        613 37.20                             131   -1.01 9  145 259 
 PTB  HZ I         613 40.95        18.2 0.16            124            145 259 
 TAM  HZ EP        613 18.94                             129    0.01 9  157 104 
 OCA  HN ES        613 40.56                             128   -0.84 9  162 354 
 ZAR  HZ EP        613 23.26                             121   -0.16 9  202 293 
 ZAR  HE ES        613 49.14                             121    0.84 9  202 293 
 NOR  HZ EP        613 27.03                             118    0.47 8  231 234 
 NOR  HN ES   1    613 53.88                             118   -0.02 6  231 234 
 SML  HZ EP   1    613 26.74                             116   -1.16 6  244 336 
 SML  HN ES   1    613 56.96                             116    0.68 6  244 336 
 CHI  HZ EP   1    613 29.41                             116    0.80 6  246 195 
 CHI  HN ES        613 57.46                             116   -0.09 8  246 195 
 CHI  HZ I         614  2.03         3.1 0.24            111            246 195 
 HEL  HZ EP   4    613 32.86                             114    1.76 0  269 256 
 HEL  HZ I         614  9.87         5.6 0.26            109            269 256 
                                                                                
