 2013 1027 0432 10.7 L   6.797 -73.141149.6  RSN 10 0.5 1.8LRSN                1
 GAP=137        1.17       3.5     4.7  6.5 -0.7176E+00  0.7063E+01  0.1812E-01E
 Epicentro: LOS SANTOS - SANTANDER                                             3
 ACTION:UPD 13-11-25 09:23 OP:ep   STATUS:               ID:20131027043210 L   I
 OLDACT:DUP 13-10-27 12:24 OP:carl STATUS:               ID:20131027042848d    3
 2013-10-27-0428-47M.COL___226                                                 6
 STAT SP IPHASW D HRMM SECON CODA AMPLIT PERI AZIMU VELO AIN AR TRES W  DIS CAZ7
 BAR2 SZ EP        432 30.88                             171    0.0610 23.1 191 
 BAR2 SZ ES        432 45.85                             171   -0.6410 23.1 191 
 BAR2 SZ I         432 48.74        14.7 0.38            169           23.1 191 
 BRR  HZ EP        432 32.86                             153    0.5210 71.8 299 
 BRR  HN ES        432 50.17                             153    0.9910 71.8 299 
 PAM  SZ EP        432 33.22                             151   -0.1410 77.3  39 
 PAM  SN ES        432 51.23                             151    0.2310 77.3  39 
 PAM  SZ I         432 53.30         7.9 0.62            154           77.3  39 
 RUS  HZ EP        432 34.84                             145   -0.0010  100 176 
 RUS  HN ES        432 53.19                             145   -0.4510  100 176 
 RUS  HZ I         432 54.65         3.8 0.30            145            100 176 
 PTB  HZ EP        432 37.99                             133   -0.07 9  148 259 
 PTB  HN ES        432 58.64                             133   -0.73 9  148 259 
 PTB  HZ I         433  1.72         6.6 0.22            132            148 259 
 SPBC HZ EP        432 39.89                             130    0.35 9  163 219 
 SPBC HN ES        433  2.35                             130    0.35 9  163 219 
 SPBC HZ I         433  7.49        11.3 0.40            129            163 219 
 ZAR  HZ EP        432 43.26                             123   -0.24 9  205 292 
 ZAR  HN ES        433  9.38                             123    0.33 9  205 292 
 NOR  HN ES        433 14.25                             119   -0.53 8  235 235 
 NOR  HZ I         433 21.42         5.1 0.14            119            235 235 
 SML  HZ EP        432 46.94                             118   -0.70 8  244 335 
 SML  HN ES        433 16.07                             118   -0.35 8  244 335 
 SML  HZ I         433 24.10        14.9 0.10            119            244 335 
 CHI  HZ EP        432 49.06                             118    0.43 8  248 195 
 CHI  HN ES        433 18.54                             118    0.35 8  248 195 
 CHI  HZ I         433 26.06         1.8 0.30            118            248 195 
                                                                                
