 2011 1027 0509 31.9 L   6.777 -73.095142.3  RSN  4 0.3 1.6LRSN                1
 GAP=144        0.57       5.3     7.8  8.0 -0.9358E+00 -0.4384E+01  0.1190E+01E
 Epicentro: LOS SANTOS - SANTANDER                                             3
 ACTION:UPD 12-07-13 16:06 OP:ep   STATUS:               ID:20111027050931 L   I
 2011-10-27-0505-49S.COL___177                                                 6
 STAT SP IPHASW D HRMM SECON CODA AMPLIT PERI AZIMU VELO AIN AR TRES W  DIS CAZ7
 BAR2 SZ EP   2    5 9 50.94                             171   -0.21 5 22.6 205 
 BAR2 SZ ES   2    510  5.80                             171   -0.32 5 22.6 205 
 BAR2 SZ I         510  6.96         7.5 0.35                          22.6 205 
 PAM  SZ EP   1    5 9 53.78                             151    0.06 7 76.0  35 
 PAM  SN ES   2    510 10.76                             151    0.07 5 76.0  35 
 BRR  HZ EP   1    5 9 52.66                             150   -0.43 7 77.4 298 
 BRR  HN ES   2    510 10.14                             150    0.56 5 77.4 298 
 BRR  HZ I         510 10.53         9.4 0.36                          77.4 298 
 RUS  HZ EP   1    5 9 55.55                             144    0.40 7 97.8 179 
 RUS  HN ES   2    510 13.09                             144   -0.17 5 97.8 179 
 RUS  HZ I         510 14.27         5.7 0.70                          97.8 179 
                                                                                
