 2013 1227 0716 28.8 L   6.744 -73.196146.8  RSN  4 0.2 1.5LRSN                1
 GAP=238        0.50       5.4     4.6  8.4  0.1360E+02  0.2206E+01 -0.1585E+02E
 Epicentro: VILLANUEVA - SANTANDER                                             3
 ACTION:UPD 14-01-13 10:21 OP:ep   STATUS:               ID:20131227071628 L   I
 OLDACT:DUP 13-12-27 11:20 OP:mh   STATUS:               ID:20131227071002d    3
 OLDACT:DUP 13-12-27 10:58 OP:mh   STATUS:               ID:20131227071001d    3
 2013-12-27-0710-00M.COL___285                                                 6
 STAT SP IPHASW D HRMM SECON CODA AMPLIT PERI AZIMU VELO AIN AR TRES W  DIS CAZ7
 RUS  HZ EP        716 52.47                             146    0.1710 94.9 172 
 RUS  HN ES   1    717 10.53                             146   -0.07 7 94.9 172 
 RUS  HZ I         717 14.54         1.9 0.24            156           94.9 172 
 PTB  HZ EP   1    716 54.83                             134   -0.48 7  141 261 
 PTB  HN ES   2    717 15.77                             134   -0.19 5  141 261 
 PTB  HZ I         717 19.75         5.8 0.14            141            141 261 
 ZAR  HZ EP   1    717  1.10                             123    0.01 6  201 294 
 ZAR  HN ES   1    717 26.47                             123    0.23 6  201 294 
 ZAR  HZ I         717 32.37         5.9 0.40            129            201 294 
 GUY2CHN ES   1    717 45.12                             113    0.19 5  293 235 
                                                                                
