 2014 1227 0024 58.9 L   6.727 -73.396133.3  RSN  4 0.2 1.3LRSN                1
 GAP=111        0.48       2.5     2.0  5.6  0.7746E-01  0.1874E+01 -0.1547E+01E
 Epicentro: EL CARMEN - SANTANDER                                              3
 ACTION:UPD 15-02-10 17:07 OP:nd   STATUS:               ID:20141227002458 L   I
 OLDACT:REG 14-12-27 13:13 OP:mh   STATUS:               ID:20141227001750     3
 2014-12-27-0017-50M.COL___283                                                 6
 STAT SP IPHASW D HRMM SECON CODA AMPLIT PERI AZIMU VELO AIN AR TRES W  DIS CAZ7
 RUS  HZ EP        025 21.45                             142    0.1710 98.6 159 
 RUS  HN ES        025 38.67                             142   -0.0810 98.6 159 
 RUS  HZ I         025 40.71         2.9 0.20            132           98.6 159 
 PAM  SZ EP        025 21.71                             140    0.1310  103  49 
 PAM  SN ES        025 39.20                             140   -0.0810  103  49 
 PAM  SZ I         025 43.01         4.9 0.18            132            103  49 
 PTB  HZ EP        025 21.96                             136   -0.3210  119 260 
 PTB  HZ I         025 38.14         2.7 0.30            125            119 260 
 PTB  HN ES        025 40.66                             136    0.1510  119 260 
 ZAR  HN ES        025 51.24                             123    0.03 9  182 298 
                                                                                
