 2017  327 0640  5.2 L   6.774 -73.157150.5  RSN  6 0.3 1.2LRSN                1
 GAP=136        0.50       3.4     3.9  5.9 -0.5269E+01  0.6839E+01 -0.7682E+01E
 Epicentro: LOS SANTOS - SANTANDER                                             3
 ACTION:UPD 17-05-25 18:45 OP:jn   STATUS:               ID:20170327064005 L   I
 OLDACT:UP  17-03-27 17:58 OP:and  STATUS:               ID:20170327063745     3
 OLDACT:UP  17-03-27 17:58 OP:and  STATUS:               ID:20170327063745     3
 OLDACT:UP  17-03-27 17:57 OP:and  STATUS:               ID:20170327063745     3
 OLDACT:REG 17-03-27 13:18 OP:and  STATUS:               ID:20170327063745     3
 2017-03-27-0638-00M.COL___348                                                 6
 STAT SP IPHASW D HRMM SECON CODA AMPLIT PERI AZIMU VELO AIN AR TRES W  DIS CAZ7
 BAR2 EZ EP   2    640 25.32                             172   -0.01 5 20.3 188 
 BAR2 EZ ES   2    640 41.12                             172    0.08 5 20.3 188 
 BAR2 EZ I         640 43.08         5.6 0.30            172           20.3 188 
 BRR  HZ EP   2    640 27.11                             153    0.24 5 71.5 301 
 BRR  HN ES   2    640 43.91                             153    0.14 5 71.5 301 
 BRR  HZ I         640 48.12         2.8 0.24            153           71.5 301 
 PAM  EZ EP        640 28.17                             151    0.0810 80.4  39 
 PAM  EN ES   2    640 45.35                             151   -0.60 5 80.4  39 
 PAM  EZ I         640 47.70         2.3 0.64            155           80.4  39 
 RUS  HZ EP   2    640 29.58                             146    0.36 5 97.8 175 
 RUS  HN ES        640 48.03                             146    0.0710 97.8 175 
 RUS  HZ I         640 49.16         3.3 0.28            149           97.8 175 
 PTB  HZ EP        640 32.24                             133   -0.15 9  146 260 
 PTB  HN ES   2    640 54.24                             133    0.64 5  146 260 
 PTB  HZ I         640 54.55         1.1 0.30            135            146 260 
 SPBC HN ES        640 55.80                             131   -0.27 9  160 219 
 SPBC HZ I         641  1.89         2.6 0.26            133            160 219 
                                                                                
