 2010  227 0916 57.4 L   6.820 -73.055150.4  RSN  5 0.4 2.5LRSN                1
 GAP=248        0.69       7.0     8.1  6.3  0.2355E+02  0.8387E+01  0.8325E+01E
 Epicentro: LOS SANTOS - SANTANDER                                             3
 ACTION:UP  10-08-24 09:51 OP:vdl  STATUS:               ID:20100227091657 L   I
 2010-02-27-0900-00S.COL___093                                                 6
 STAT SP IPHASW D HRMM SECON CODA AMPLIT PERI AZIMU VELO SNR AR TRES W  DIS CAZ7
 BAR2 SZ EP        917 17.68                             168     0.010   29 209 
 BAR2 SZ ES        917 33.36                             168    -0.210   29 209 
 BRR  HZ EP        917 19.20                             151    -0.310   79 294 
 BRR  HZ I         917 34.83        73.9 0.69                            79 294 
 BRR  HE ES        917 37.08                             151     0.310   79 294 
 RUS  BZ EP   2    917 22.36                             144     0.6 5  103 182 
 RUS  BN ES   2    917 41.29                             144     0.5 5  103 182 
 HEL  HZ EP   2    917 39.53                             115     0.5 4  282 256 
 HEL  HE ES   2    918 11.16                             115    -0.3 4  282 256 
 HEL  HZ I         919 29.89        12.8 1.68                           282 256 
 PRA  HZ EP   2    917 51.80                             107    -0.1 3  399 211 
 PRA  HE ES   2    918 33.86                             107    -0.5 3  399 211 
 PRA  HZ I         919  9.87         6.3 0.94                           399 211 
                                                                                
