 2012 1027 0747 46.1 L   6.791 -73.127147.4  RSN 10 0.4 2.0LRSN                1
 GAP=139        0.71       4.0     5.8  7.3  0.6567E+00  0.2170E+02  0.1044E+02E
 Epicentro: LOS SANTOS - SANTANDER                                             3
 ACTION:UPD 12-11-22 17:06 OP:ep   STATUS:               ID:20121027074746 L   I
 2012-10-27-0740-00M.COL___228                                                 6
 STAT SP IPHASW D HRMM SECON CODA AMPLIT PERI AZIMU VELO AIN AR TRES W  DIS CAZ7
 BAR2 SZ EP        748  5.88                             171    0.0210 22.8 196 
 BAR2 SZ I         748  6.06        34.1 0.24                          22.8 196 
 BAR2 SZ ES   2    748 20.80                             171   -0.52 5 22.8 196 
 GIR2 SZ EP   1    748  6.01                             167    0.06 7 32.7 347 
 BRR  HZ EP        748  7.81                             152    0.3010 73.5 298 
 BRR  HN ES   2    748 24.72                             152    0.48 5 73.5 298 
 BRR  HN I         748 28.96        37.1 0.10                          73.5 298 
 PAM  SZ EP   1    748  8.70                             151    0.29 7 76.9  38 
 PAM  SN ES        748 25.84                             151    0.0010 76.9  38 
 RUS  HZ EP   1    748  9.82                             144   -0.06 7 99.4 177 
 RUS  HN ES   2    748 28.41                             144   -0.05 5 99.4 177 
 RUS  HN I         748 30.23         9.7 0.32                          99.4 177 
 OCA  HN ES   2    748 35.98                             130   -0.90 5  162 352 
 ZAR  HZ EP   1    748 18.08                             122   -0.76 6  206 292 
 ZAR  HN ES   2    748 44.49                             122    0.07 4  206 292 
 CHI  HZ EP   1    748 23.12                             117   -0.67 6  248 196 
 CHI  HE ES   2    748 53.57                             117    0.34 4  248 196 
 CHI  HN I         748 57.46         4.7 0.28                           248 196 
 HEL  HZ EP   1    748 27.05                             115    0.50 6  274 256 
 PRA  HZ EP   1    748 40.35                             107    0.70 4  392 210 
 PRA  HN ES   2    749 20.45                             107   -1.00 3  392 210 
 PRA  HN I         749 27.85         1.6 0.48                           392 210 
                                                                                
