 2013  127 0507 28.7 L   6.825 -73.138145.7  RSN 17 0.6 3.1LRSN 3.3WRSN        1
 SPEC AVERAGE  MO 14.1 ST 16.7 OM  2.5 f0 4.03 R0.3839 AL 2.18 WI 21.8 MW  3.3 3
 SPEC SD       MO  0.3 ST 15.2 OM  0.5 f00.871 R0.0933 AL      WI      MW  0.2 3
 GAP= 71        1.26       3.3     3.7  6.7 -0.8965E+00  0.6274E+01  0.5637E+01E
 Epicentro: LOS SANTOS - SANTANDER                                             3
 SPEC TAM HH N MO 13.6 ST0.893 OM  1.9 f0 2.54 R0.5787 AL 1.68 WI 18.2 MW  3.0 3
 SPEC TAM HH N T 5 818 K 0.000 GD  212 VS 4.20 DE 3.00 Q0230.0 QA 0.60 VS 4.20 3
 SPEC PTB HH N MO 14.0 ST  9.1 OM  2.3 f0 4.08 R0.3603 AL 1.08 WI 36.8 MW  3.3 3
 SPEC PTB HH N T 5 814 K 0.000 GD  208 VS 4.20 DE 3.00 Q0230.0 QA 0.60 VS 4.20 3
 SPEC RUS HH Z MO 13.8 ST  6.7 OM  1.4 f0 4.28 R0.3435 AL 1.35 WI 14.2 MW  3.1 3
 SPEC RUS HH Z T 5 752 K 0.000 GD  178 VP 7.60 DE 3.00 Q0230.0 QA 0.60 VS 4.20 3
 SPEC HEL HH N MO 14.1 ST  5.1 OM  2.2 f0 3.17 R0.4637 AL 1.59 WI 30.8 MW  3.3 3
 SPEC HEL HH N T 5 838 K 0.000 GD  310 VS 4.20 DE 3.00 Q0230.0 QA 0.60 VS 4.20 3
 SPEC PAM SH Z MO 14.4 ST 49.8 OM  2.0 f0 5.42 R0.2712 AL 3.05 WI 16.2 MW  3.5 3
 SPEC PAM SH Z T 5 750 K 0.000 GD  163 VP 7.60 DE 3.00 Q0230.0 QA 0.60 VS 4.20 3
 SPEC CHI HH N MO 14.3 ST 12.9 OM  2.5 f0 3.52 R0.4176 AL 2.92 WI 27.7 MW  3.5 3
 SPEC CHI HH N T 5 835 K 0.000 GD  291 VS 4.20 DE 3.00 Q0230.0 QA 0.60 VS 4.20 3
 SPEC BRR HH N MO 14.3 ST 30.4 OM  2.7 f0 4.88 R0.3012 AL 3.31 WI 17.5 MW  3.5 3
 SPEC BRR HH N T 5 8 6 K 0.000 GD  161 VS 4.20 DE 3.00 Q0230.0 QA 0.60 VS 4.20 3
 SPEC BAR2SH Z MO 14.2 ST 19.0 OM  1.9 f0 4.39 R0.3349 AL 2.44 WI 13.0 MW  3.4 3
 SPEC BAR2SH Z T 5 748 K 0.000 GD  148 VP 7.60 DE 3.00 Q0230.0 QA 0.60 VS 4.20 3
 ACTION:UPD 13-02-15 09:17 OP:ep   STATUS:               ID:20130127050728 L   I
 2013-01-27-0458-48M.COL___185                                                 6
 STAT SP IPHASW D HRMM SECON CODA AMPLIT PERI AZIMU VELO AIN AR TRES W  DIS CAZ7
 BAR2 SZ IP        5 7 48.35                             169   -0.0310 26.2 191 
 BAR2 SZ I         5 8  4.78       237.6 0.30            169           26.2 191 
 BRR  HZ IP     D  5 7 50.11                             153    0.3010 70.7 296 
 BRR  HN ES        5 8  6.97                             153    0.6910 70.7 296 
 BRR  HN I         5 8  7.49       602.6 0.30            153           70.7 296 
 PAM  SZ IP     C  5 7 51.08                             151    0.3310 74.7  40 
 PAM  SZ I         5 7 51.41       259.5 0.18            154           74.7  40 
 PAM  SN ES        5 8  7.73                             151   -0.2210 74.7  40 
 RUS  HZ IP     C  5 7 52.41                             143   -0.2310  103 177 
 RUS  HZ I         5 7 53.61        59.3 0.12            144            103 177 
 RUS  HN ES        5 8 10.53                             143   -0.7810  103 177 
 PTB  HZ EP   1    5 7 54.78                             132   -1.01 7  149 258 
 PTB  HN ES   4    5 8 15.32                             132   -1.60 0  149 258 
 PTB  HE I         5 8 21.69       157.6 0.30            133            149 258 
 TAM  HZ EP        5 7 56.79                             130    0.43 9  155 106 
 TAM  HN ES        5 8 18.35                             130    0.42 9  155 106 
 TAM  HZ I         5 8 20.24        28.0 0.24            133            155 106 
 OCA  HZ EP        5 7 56.33                             130   -0.42 9  158 353 
 OCA  HN ES        5 8 18.64                             130    0.00 9  158 353 
 OCA  HE I         5 8 22.07       609.8 0.20            132            158 353 
 ZAR  HZ EP        5 8  1.06                             122   -0.05 9  204 291 
 ZAR  HN ES        5 8 25.67                             122   -0.73 9  204 291 
 CHI  HZ EP        5 8  6.37                             117   -0.33 8  252 195 
 CHI  HN ES        5 8 35.92                             117   -0.43 8  252 195 
 CHI  HN I         5 8 38.78       138.9 0.32            118            252 195 
 ROSC BZ EP        5 8  8.14                             116    1.02 8  256 211 
 ROSC BN ES        5 8 37.99                             116    0.90 8  256 211 
 HEL  HZ EP        5 8 10.02                             114    0.95 8  274 255 
 HEL  HN ES        5 8 40.60                             114    0.03 8  274 255 
 HEL  HE I         5 8 46.85        37.2 0.68            116            274 255 
 VIL  SZ EP        5 8 11.98                             112   -0.46 7  306 192 
 VIL  SN ES        5 8 45.55                             112   -1.00 7  306 192 
 TOL  SZ EP        5 8 18.33                             109    1.08 6  346 224 
 SDV  BZ EP        5 8 17.91                             108   -0.54 6  358  50 
 SDV  BZ I         5 8 18.66        19.2 0.40            110            358  50 
 ANIL HZ EP        5 8 19.09                             108    0.29 6  360 224 
 ANIL HE ES        5 8 58.07                             108    0.20 6  360 224 
 ANIL HN I         5 9  6.53        68.3 0.30            109            360 224 
 SJC  HN EP   4    5 8 22.49                             106   -1.55 0  407 327 
 PAL  HZ EP        5 8 24.20                             106    0.09 6  408 239 
 PAL  HZ I         5 8 26.17        44.3 0.14            107            408 239 
 PAL  HN ES        5 9  6.77                             106   -0.56 6  408 239 
 SMAR HZ EP        5 8 33.25                             102   -1.02 4  495 346 
                                                                                
