 2017  327 0806 45.6 L   6.743 -73.125145.1  RSN  5 0.2 1.1LRSN                1
 GAP=142        0.51       2.7     2.6  3.7 -0.6638E+00  0.1236E+01  0.3329E+00E
 Epicentro: LOS SANTOS - SANTANDER                                             3
 ACTION:UPD 17-05-25 18:45 OP:jn   STATUS:               ID:20170327080645 L   I
 OLDACT:REG 17-03-27 13:23 OP:and  STATUS:               ID:20170327075706     3
 2017-03-27-0758-00M.COL___348                                                 6
 STAT SP IPHASW D HRMM SECON CODA AMPLIT PERI AZIMU VELO AIN AR TRES W  DIS CAZ7
 BAR2 EZ EP        8 7  5.12                             173    0.0210 17.9 201 
 BAR2 EZ ES        8 7 20.15                             173   -0.1210 17.9 201 
 BAR2 EZ I         8 7 30.58         5.4 0.60            173           17.9 201 
 BRR  HZ EP        8 7  6.95                             151   -0.0710 76.4 302 
 BRR  HN ES        8 7 23.98                             151    0.2810 76.4 302 
 BRR  HZ I         8 7 28.28         3.2 0.12            154           76.4 302 
 PAM  EZ EP        8 7  8.11                             150    0.1010 81.0  35 
 PAM  EE ES        8 7 25.30                             150   -0.1510 81.0  35 
 PAM  EZ I         8 7 26.91         1.2 0.58            155           81.0  35 
 RUS  HZ EP        8 7  8.71                             145   -0.1710 94.2 177 
 RUS  HN ES        8 7 27.19                             145    0.1910 94.2 177 
 RUS  HZ I         8 7 28.30         1.1 0.54            150           94.2 177 
 PTB  HZ EP        8 7 12.85                             132    0.18 9  149 261 
 PTB  HN ES        8 7 33.46                             132   -0.29 9  149 261 
 PTB  HZ I         8 7 35.18         1.5 0.18            137            149 261 
                                                                                
