 2017  127 0431 54.5 L   6.817 -73.109142.0  RSN  5 0.4 1.0LRSN                1
 GAP=140        1.08       5.7     5.6  7.9 -0.3136E+01  0.5904E+01  0.2509E+01E
 Epicentro: LOS SANTOS - SANTANDER                                             3
 ACTION:UPD 17-05-22 16:03 OP:jn   STATUS:               ID:20170127043154 L   I
 OLDACT:REG 17-01-27 12:39 OP:lv   STATUS:               ID:20170127042746     3
 2017-01-27-0428-00M.COL___334                                                 6
 STAT SP IPHASW D HRMM SECON CODA AMPLIT PERI AZIMU VELO AIN AR TRES W  DIS CAZ7
 BAR2 EZ EP        432 13.66                             169   -0.1010 26.1 198 
 BAR2 EZ ES        432 29.34                             169    0.5810 26.1 198 
 BAR2 EZ I         432 30.46         3.3 0.19            170           26.1 198 
 PAM  EZ EP        432 16.37                             151    0.2710 73.4  38 
 PAM  EN ES        432 32.28                             151   -0.6510 73.4  38 
 PAM  EZ I         432 35.59         3.2 0.44            153           73.4  38 
 BRR  HZ EP        432 15.43                             151    0.0110 73.9 296 
 BRR  HN ES        432 32.17                             151    0.4410 73.9 296 
 RUS  HZ EP        432 18.06                             143    0.0410  102 178 
 RUS  HN ES        432 36.15                             143   -0.2010  102 178 
 RUS  HZ I         432 37.97         1.0 0.27            144            102 178 
 PTB  HZ EP        432 21.87                             130    0.29 9  152 258 
 PTB  HN ES        432 41.94                             130   -0.75 9  152 258 
 PTB  HZ I         432 44.69         1.0 0.15            132            152 258 
                                                                                
