 2011  927 0955 58.1 L   6.652 -73.226138.5  RSN  5 0.2 1.7LRSN                1
 GAP=191        0.50       6.2     4.6  6.6  0.1757E+02  0.1357E+02  0.2015E+02E
 Epicentro: BARICHARA - SANTANDER                                              3
 ACTION:UPD 12-07-13 16:00 OP:ep   STATUS:               ID:20110927095558 L   I
 2011-09-27-0940-00M.COL___167                                                 6
 STAT SP IPHASW D HRMM SECON CODA AMPLIT PERI AZIMU VELO AIN AR TRES W  DIS CAZ7
 BAR2 SZ EP   1    956 16.69                             176    0.05 7 8.23 144 
 BAR2 SZ ES   1    956 30.79                             176   -0.30 7 8.23 144 
 BAR2 SZ I         956 32.81        14.4 0.27                          8.23 144 
 BRR  HZ EP   1    956 18.47                             150   -0.14 7 73.6 313 
 BRR  HZ I         956 19.09        13.4 0.11                          73.6 313 
 BRR  HE ES   1    956 35.01                             150    0.41 7 73.6 313 
 RUS  HZ EP        956 20.15                             147    0.0810 85.5 169 
 RUS  HZ I         956 21.99         6.5 0.14                          85.5 169 
 ZAR  HN ES   1    956 54.53                             121   -0.27 6  203 297 
 ZAR  HZ I         957  1.38         5.0 0.25                           203 297 
 HEL  HN ES   1    957  6.66                             114    0.06 6  260 259 
 HEL  HZ I         957 16.61         3.4 0.37                           260 259 
                                                                                
