 2016  827 0730 45.8 L   6.809 -73.102150.5  RSN 25 0.6 2.4LRSN                1
 GAP= 54        1.23       3.0     3.0  5.1 -0.1812E+01  0.2056E+01  0.3565E+00E
 Epicentro: LOS SANTOS - SANTANDER                                             3
 ACTION:UPD 16-10-29 15:39 OP:rebc STATUS:               ID:20160827073045 L   I
 OLDACT:REG 16-08-27 13:01 OP:ak   STATUS:               ID:20160827072737     3
 2016-08-27-0728-00M.COL___368                                                 6
 STAT SP IPHASW D HRMM SECON CODA AMPLIT PERI AZIMU VELO AIN AR TRES W  DIS CAZ7
 BAR2 EZ IP     D  731  6.05                             170    0.0010 25.5 200 
 BAR2 EZ ES        731 21.59                             170   -0.2510 25.5 200 
 BAR2 EZ I         731 22.72        73.3 0.28                          25.5 200 
 PAM  EZ IP     C  731  8.83                             153    0.5210 73.7  37 
 PAM  EN ES        731 26.06                             153    0.1910 73.7  37 
 PAM  EZ I         731 28.17        67.1 0.56                          73.7  37 
 BRR  HZ IP     C  731  7.91                             152    0.2310 75.0 296 
 BRR  HN ES        731 25.13                             152    0.3910 75.0 296 
 BRR  HZ I         731 28.48        25.2 0.16                          75.0 296 
 RUS  HZ EP        731  9.91                             145   -0.1610  101 179 
 RUS  HN ES        731 28.56                             145   -0.4510  101 179 
 TAM  HZ IP     D  731 14.17                             133    0.71 9  151 106 
 TAM  HN ES        731 35.60                             133    0.56 9  151 106 
 PTB  HZ EP        731 12.77                             132   -0.83 9  153 259 
 PTB  HN ES        731 34.36                             132   -0.92 9  153 259 
 PTB  HZ I         731 41.46        47.3 0.42                           153 259 
 OCA  HZ EP        731 14.04                             131   -0.41 9  160 351 
 OCA  HN ES        731 37.27                             131    0.47 9  160 351 
 OCA  HZ I         731 42.66        59.6 0.36                           160 351 
 SPBC HZ EP        731 15.10                             129    0.08 9  167 220 
 SPBC HN ES        731 38.29                             129    0.48 9  167 220 
 SPBC HZ I         731 41.21        33.2 0.10                           167 220 
 ZAR  HZ EP        731 18.79                             123   -0.19 8  208 291 
 ZAR  HN ES        731 44.68                             123   -0.17 8  208 291 
 ZAR  HZ I         731 51.36        26.6 0.38                           208 291 
 NOR  HZ EP        731 22.45                             119    0.17 8  239 235 
 NOR  HN ES        731 50.03                             119   -0.71 8  239 235 
 NOR  HZ I         731 57.18        17.6 0.34                           239 235 
 CHI  HZ EP        731 24.19                             118    0.19 8  251 196 
 CHI  HN ES        731 53.28                             118   -0.52 8  251 196 
 CHI  HZ I         732  2.16         7.5 0.52                           251 196 
 ROSC BZ EP   9    731 25.86                             117    1.32 0  256 212 
 ROSC BN ES        731 56.98                                    0.90 8  256 212 
 ROSC BZ I         732  3.82        25.5 0.45                           256 212 
 HEL  HZ EP   4    731 28.16                             115    1.37 0  277 256 
 HEL  HN ES   4    732  1.97                             115    3.20 0  277 256 
 HEL  HZ I         732  5.30        15.5 0.28                           277 256 
 SOCV BZ EP        731 28.66                             113    0.10 7  297  57 
 SOCV BE ES        732  0.77                             113   -1.14 7  297  57 
 GUY2CHZ EP        731 31.02                             113    0.89 7  306 235 
 GUY2CHN ES   4    732  8.16                             113    3.45 0  306 235 
 GUY2CHZ I         732 13.22        15.1 0.45                           306 235 
 PTGC HZ IP     D  731 28.93                             113   -0.85 7  308 160 
 PTGC HN ES   4    732  2.15                             113   -1.93 0  308 160 
 PTGC HZ I         732  4.18         6.4 0.24                           308 160 
 LL6C HZ EP        731 30.60                             111   -1.02 7  324 357 
 LL6C HZ ES   4    732  9.70                             111    2.33 0  324 357 
 LL6C HZ I         732 12.22         6.0 0.59                           324 357 
 ELA  HZ EP   4    731 35.13                             111    1.79 0  333 230 
 ELA  HN ES   4    732 14.77                             111    4.35 0  333 230 
 ELA  HZ I         732 18.91         9.3 0.44                           333 230 
 CBOC HZ EP        731 33.82                             110    0.35 7  338 252 
 CBOC HE ES        732 11.67                             110    1.02 7  338 252 
 CBOC HZ I         732 21.52         4.7 0.68                           338 252 
 DBB  EZ EP        731 33.80                             110   -0.21 7  344 274 
 DBB  EZ ES        732 11.92                             110    0.30 7  344 274 
 DBB  EZ I         732 17.58         4.6 0.44                           344 274 
 ARGC HN ES        732 15.27                             109    0.61 6  360 340 
 ANIL HZ EP   9    731 38.34                             109    2.08 0  361 225 
 ANIL HN ES        732 17.78                                    0.08 6  361 225 
 ANIL HZ I         732 22.65        25.8 0.32                           361 225 
 PRA  HZ EP        731 39.63                             107   -0.23 6  395 210 
 PRA  HN ES        732 23.26                             107    1.23 6  395 210 
 PRA  HZ I         732 27.96         6.9 0.27                           395 210 
 PAL  HZ EP        731 41.50                             106   -0.16 6  410 239 
 PAL  HN ES        732 25.41                             106    0.18 6  410 239 
 PAL  HZ I         732 27.66         4.0 0.24                           410 239 
 SJC  HZ EP   4    731 39.56                             106   -2.17 0  411 326 
 SJC  HN ES   4    732 21.33                             106   -4.03 0  411 326 
 SJC  HZ I         732 25.77         8.0 0.42                           411 326 
                                                                                
