 2017  727 0931 27.1 L   6.640 -73.123133.6  RSN  5 0.4 1.0LRSN                1
 GAP=200        0.81       7.3     5.0  6.5 -0.1121E+02  0.5794E+01  0.4171E+01E
 Epicentro: VILLANUEVA - SANTANDER                                             3
 ACTION:UPD 17-08-30 15:37 OP:rebc STATUS:               ID:20170727093127 L   I
 OLDACT:UP  17-07-27 17:44 OP:and  STATUS:               ID:20170727092741     3
 OLDACT:UP  17-07-27 17:44 OP:and  STATUS:               ID:20170727092741     3
 OLDACT:UP  17-07-27 17:44 OP:and  STATUS:               ID:20170727092741     3
 OLDACT:UP  17-07-27 17:43 OP:and  STATUS:               ID:20170727092741     3
 OLDACT:UP  17-07-27 17:43 OP:and  STATUS:               ID:20170727092741     3
 OLDACT:REG 17-07-27 12:38 OP:and  STATUS:               ID:20170727092741     3
 2017-07-27-0928-00M.COL___368                                                 6
 STAT SP IPHASW D HRMM SECON CODA AMPLIT PERI AZIMU VELO AIN AR TRES W  DIS CAZ7
 BAR2 EZ EP        931 45.78                             176    0.7210 8.36 231 
 BAR2 EZ ES        931 58.86                             176   -0.1910 8.36 231 
 BAR2 EZ I         932  1.76         2.5 0.22            175           8.36 231 
 BRR  HZ EP        931 47.55                             146   -0.1810 83.1 309 
 BRR  HN ES        932  4.09                             146    0.2810 83.1 309 
 PAM  EZ EP        931 48.83                             144   -0.1110 90.5  31 
 PAM  EZ I         932  0.51         1.8 0.32            139           90.5  31 
 PAM  EN ES        932  5.76                             144   -0.2010 90.5  31 
 PTB  HZ EP        931 52.86                             129   -0.27 9  148 266 
 PTB  HN ES   2    932 12.80                             129   -0.62 5  148 266 
 PTB  HZ I         932 16.44         0.9 0.12            127            148 266 
 ZAR  HZ EP   3    931 59.83                             118    0.01 2  214 296 
 ZAR  HN ES   2    932 25.62                             118    0.29 4  214 296 
 ZAR  HZ I         932 26.18         1.1 0.40            115            214 296 
                                                                                
