 2016  827 0149 46.0 L   5.957 -73.765109.6  RSN  9 0.4 1.3LRSN                1
 GAP= 83        1.01       2.9     3.2  6.5 -0.2706E+01  0.3970E+01  0.2254E+01E
 Epicentro: BOLIVAR - SANTANDER                                                3
 ACTION:UPD 16-10-29 15:39 OP:rebc STATUS:               ID:20160827014946 L   I
 OLDACT:REG 16-08-27 12:37 OP:ak   STATUS:               ID:20160827014735     3
 2016-08-27-0148-00M.COL___374                                                 6
 STAT SP IPHASW D HRMM SECON CODA AMPLIT PERI AZIMU VELO AIN AR TRES W  DIS CAZ7
 SPBC HZ EP        150  1.90                             155   -0.1710 47.9 225 
 SPBC HN ES        150 14.33                             155   -0.2710 47.9 225 
 SPBC HZ I         150 16.32        15.3 0.06                          47.9 225 
 RUS  HZ EP        150  4.44                             143    0.0410 75.8  95 
 RUS  HN ES        150 18.68                             143   -0.0810 75.8  95 
 RUS  HZ I         150 20.97         2.1 0.18                          75.8  95 
 BAR2 EZ EP        150  5.27                             136   -0.3310 95.3  42 
 BAR2 EZ ES        150 21.81                             136    0.9210 95.3  42 
 BAR2 EZ I         150 23.06        12.1 0.10                          95.3  42 
 PTB  HZ EP        150  5.38                             134   -0.3210  100 310 
 PTB  HN ES        150 20.47                             134   -0.6110  100 310 
 PTB  HZ I         150 21.48         3.1 0.18                           100 310 
 BRR  HZ EP        150  8.04                             127   -0.1810  127   3 
 BRR  HE ES        150 25.71                             127    0.1610  127   3 
 BRR  HZ I         150 28.99         3.1 0.18                           127   3 
 NOR  HZ EP   2    150  8.45                             126   -0.09 5  130 250 
 NOR  HE ES        150 26.79                             126    0.6810  130 250 
 NOR  HZ I         150 27.51         6.5 0.07                           130 250 
 CHI  HN ES        150 29.60                             123   -0.39 9  147 179 
 GUY2CHZ EP        150 16.09                             115    0.13 9  195 246 
 GUY2CHN ES        150 39.73                             115    0.40 9  195 246 
 GUY2CHZ I         150 43.72         1.6 0.48                           195 246 
 PRA  HZ EP        150 24.90                             106    0.03 7  277 207 
 PRA  HE ES        150 55.50                             106    0.31 7  277 207 
 PRA  HZ I         151  0.04         1.0 0.35                           277 207 
                                                                                
