 2017  327 0326 13.5 L   6.776 -73.122142.5  RSN  5 0.2 1.2LRSN                1
 GAP=141        0.67       3.5     3.5  4.9 -0.1151E+01  0.2225E+01  0.7520E+00E
 Epicentro: LOS SANTOS - SANTANDER                                             3
 ACTION:UPD 17-05-25 18:45 OP:jn   STATUS:               ID:20170327032613 L   I
 OLDACT:DUP 17-03-27 15:58 OP:and  STATUS:               ID:20170327031745d    3
 2017-03-27-0318-00M.COL___355                                                 6
 STAT SP IPHASW D HRMM SECON CODA AMPLIT PERI AZIMU VELO AIN AR TRES W  DIS CAZ7
 BAR2 EZ EP        326 32.62                             171   -0.0610 21.3 198 
 BAR2 EZ I         326 46.14         4.3 0.50            171           21.3 198 
 BAR2 EZ ES        326 47.29                             171   -0.3710 21.3 198 
 BRR  HZ EP        326 34.14                             151   -0.3510 74.7 299 
 BRR  HN ES        326 51.31                             151    0.4410 74.7 299 
 BRR  HZ I         326 55.24         3.2 0.30            148           74.7 299 
 PAM  EZ EP        326 35.42                             150    0.0310 77.9  37 
 PAM  EN ES        326 52.50                             150    0.0310 77.9  37 
 PAM  EZ I         326 54.90         3.3 0.72            150           77.9  37 
 RUS  HZ EP        326 36.79                             144    0.0810 97.8 177 
 RUS  HN ES        326 55.04                             144    0.2110 97.8 177 
 PTB  HZ EP        326 40.58                             131    0.20 9  150 260 
 PTB  HN ES        327  1.14                             131   -0.21 9  150 260 
 PTB  HZ I         327  7.33         1.2 0.19            129            150 260 
                                                                                
