 2013 1127 0004 51.9 L   6.779 -73.168144.5  RSN  7 0.4 1.5LRSN                1
 GAP= 99        1.08       4.6     4.9  6.8 -0.2957E+01 -0.1804E+01  0.8473E+01E
 Epicentro: LOS SANTOS - SANTANDER                                             3
 ACTION:UPD 14-01-09 16:31 OP:ep   STATUS:               ID:20131127000451 L   I
 OLDACT:REG 13-11-27 09:13 OP:stll STATUS:               ID:20131127000037     3
 2013-11-27-0000-37M.COL___243                                                 6
 STAT SP IPHASW D HRMM SECON CODA AMPLIT PERI AZIMU VELO AIN AR TRES W  DIS CAZ7
 BAR2 SZ ES        0 5 26.87                             171    0.3810 20.7 184 
 BAR2 SZ I         0 5 29.15        11.8 0.28            168           20.7 184 
 BRR  HZ EP        0 5 12.50                             153   -0.3710 70.2 301 
 BRR  HN ES        0 5 29.96                             153    0.7510 70.2 301 
 PAM  SZ EP        0 5 14.39                             149    0.1910 80.8  40 
 PAM  SZ I         0 5 14.53         9.3 0.20            153           80.8  40 
 PAM  SN ES        0 5 31.15                             149   -0.4310 80.8  40 
 RUS  HZ EP        0 5 15.54                             144    0.1610 98.4 175 
 RUS  HN ES        0 5 33.07                             144   -0.6210 98.4 175 
 RUS  HZ I         0 5 35.38         3.3 0.28            143           98.4 175 
 PTB  HZ EP        0 5 18.18                             132   -0.33 9  145 260 
 PTB  HN ES        0 5 38.86                             132   -0.40 9  145 260 
 PTB  HZ I         0 5 41.68         4.0 0.14            132            145 260 
 TAM  HZ EP        0 5 19.82                             130    0.16 9  157 104 
 CHI  HZ EP        0 5 29.61                             117    0.39 8  246 195 
 CHI  HN ES        0 5 58.68                             117    0.35 8  246 195 
 CHI  HZ I         0 6  5.00         1.6 0.36            117            246 195 
                                                                                
