 2016  227 0259 28.7 L   6.805 -73.186136.1  RSN  9 0.3 1.7LRSN                1
 GAP=131        0.79       2.3     3.2  5.1 -0.1504E+01  0.5784E+01 -0.1920E-01E
 Epicentro: ZAPATOCA - SANTANDER                                               3
 ACTION:UPD 16-03-04 21:29 OP:rebc STATUS:               ID:20160227025928 L   I
 OLDACT:UP  16-02-27 16:29 OP:mh   STATUS:               ID:20160227025751     3
 OLDACT:UP  16-02-27 16:28 OP:mh   STATUS:               ID:20160227025751     3
 OLDACT:REG 16-02-27 13:09 OP:mh   STATUS:               ID:20160227025751     3
 2016-02-27-0257-51M.COL___319                                                 6
 STAT SP IPHASW D HRMM SECON CODA AMPLIT PERI AZIMU VELO AIN AR TRES W  DIS CAZ7
 BAR2 EZ EP        259 47.25                             170    0.0710 23.5 179 
 BAR2 EZ ES        3 0  1.36                             170   -0.2310 23.5 179 
 BAR2 EZ I         3 0  3.12        12.2 0.19            168           23.5 179 
 PAM  EE EP        259 50.22                             148    0.1610 79.9  42 
 PAM  EZ ES        3 0  6.93                             148    0.2110 79.9  42 
 PAM  EE I         3 0  8.94        17.7 0.38            153           79.9  42 
 RUS  HZ EP   1    259 51.38                             141   -0.21 7  102 174 
 RUS  HN ES        3 0  9.53                             141    0.0910  102 174 
 RUS  HZ I         3 0 10.71         3.6 0.32            142            102 174 
 PTB  HZ EP   1    259 53.84                             131   -0.67 7  144 258 
 PTB  HN ES        3 0 14.76                             131    0.13 9  144 258 
 PTB  HZ I         3 0 18.55         4.1 0.12            131            144 258 
 OCA  HZ EP   1    259 56.40                             127    0.21 7  159 355 
 OCA  HN ES        3 0 17.09                             127   -0.53 9  159 355 
 OCA  HZ I         3 0 18.23        19.3 0.24            130            159 355 
 SPBC HZ EP   1    259 56.13                             127   -0.12 7  161 218 
 SPBC HN ES        3 0 17.51                             127   -0.23 9  161 218 
 SPBC HZ I         3 0 24.67         7.0 0.10            128            161 218 
 ZAR  HZ EP        3 0  0.11                             121    0.02 9  200 292 
 ZAR  HN ES        3 0 25.32                             121    0.76 9  200 292 
 NOR  HZ EP   1    3 0  3.11                             117   -0.42 6  231 234 
 NOR  HN ES        3 0 30.38                             117   -0.32 8  231 234 
 NOR  HZ I         3 0 34.91         5.3 0.46            118            231 234 
 CHI  HZ EP        3 0  6.02                             115    0.20 8  248 194 
 CHI  HN ES        3 0 35.28                             115    0.51 8  248 194 
 CHI  HZ I         3 0 39.80         1.2 0.26            116            248 194 
                                                                                
