 2010  827 0347  9.7 L   6.796 -73.095146.0  RSN  4 0.3 1.2LRSN                1
 GAP=164        0.70       7.2    12.7 14.8  0.2706E+02 -0.1322E+03 -0.4754E+02E
 Epicentro: LOS SANTOS - SANTANDER                                             3
 ACTION:UP  10-09-07 10:58 OP:vdl  STATUS:               ID:20100827034709 L   I
 2010-08-27-0345-19S.COL___120                                                 6
 STAT SP IPHASW D HRMM SECON CODA AMPLIT PERI AZIMU VELO SNR AR TRES W  DIS CAZ7
 BRR  HZ IP     D  347 30.95                             152    -0.310   76 297 
 BRR  HZ I         347 31.16         4.9 0.10                            76 297 
 BRR  HE ES   1    347 48.23                             152     0.3 7   76 297 
 RUS  HZ EP   2    347 34.15                             145     0.7 5  100 179 
 RUS  HN ES   2    347 51.64                             145    -0.3 5  100 179 
 RUS  HZ I         347 52.79         1.6 0.28                           100 179 
 GUE  SZ EP   2    347 34.53                             140     0.1 5  116   9 
 GRA  SZ IP        347 34.91                             138     0.010  125  15 
 GRA  SZ I         347 59.43         2.1 0.42                           125  15 
                                                                                
