 2011 1027 0020 41.6 L   6.769 -73.079147.7  RSN  7 0.2 1.6LRSN                1
 GAP=147        0.37       2.9     3.9  5.0  0.1820E+01  0.5514E+00  0.4555E+00E
 Epicentro: LOS SANTOS - SANTANDER                                             3
 ACTION:UPD 12-07-13 16:06 OP:ep   STATUS:               ID:20111027002041 L   I
 2011-10-27-0020-00M.COL___177                                                 6
 STAT SP IPHASW D HRMM SECON CODA AMPLIT PERI AZIMU VELO AIN AR TRES W  DIS CAZ7
 BAR2 SZ EP   1    021  1.23                             171   -0.20 7 22.6 210 
 BAR2 SZ I         021  1.54         7.3 0.22                          22.6 210 
 BAR2 SZ ES   2    021 17.03                             171    0.11 5 22.6 210 
 GIR2 SZ EP   3    021  1.24                             165   -0.40 2 36.5 340 
 GIR2 SZ ES   3    021 17.51                             165    0.23 2 36.5 340 
 PAM  SZ EP   1    021  4.00                             152    0.09 7 75.7  34 
 PAM  SN ES   2    021 21.24                             152   -0.09 5 75.7  34 
 BRR  HZ EP   1    021  3.17                             150   -0.25 7 79.3 298 
 BRR  HZ I         021  7.46        13.6 0.44                          79.3 298 
 BRR  HN ES   2    021 20.26                             150   -0.19 5 79.3 298 
 RUS  HZ EP   1    021  5.56                             145    0.29 7 96.9 180 
 RUS  HZ I         021  6.79         2.2 0.63                          96.9 180 
 RUS  HE ES   2    021 23.73                             145   -0.01 5 96.9 180 
 OCA  SZ ES   2    021 33.21                             129    0.22 5  165 351 
 OCA  SZ I         021 36.83         5.9 0.47                           165 351 
 ZAR  HN ES   2    021 41.33                             122    0.27 4  212 292 
 ZAR  HZ I         021 45.72         7.4 0.39                           212 292 
                                                                                
