 2013  727 0324  5.7 L   6.823 -73.131151.8  RSN  9 0.3 1.7LRSN                1
 GAP=137        0.79       3.6     4.1  5.0  0.1231E+01  0.3797E+01 -0.3788E+01E
 Epicentro: LOS SANTOS - SANTANDER                                             3
 ACTION:UPD 13-08-12 10:40 OP:ep   STATUS:               ID:20130727032405 L   I
 OLDACT:REG 13-07-27 08:27 OP:cam  STATUS:               ID:20130727031959     3
 2013-07-27-0319-59M.COL___268                                                 6
 STAT SP IPHASW D HRMM SECON CODA AMPLIT PERI AZIMU VELO AIN AR TRES W  DIS CAZ7
 BAR2 SZ EP        324 26.17                             170    0.0410 26.1 193 
 BAR2 SZ ES        324 41.57                             170   -0.4910 26.1 193 
 BAR2 SZ I         324 42.41         9.9 0.27            172           26.1 193 
 GIR2 SZ EP        324 26.24                             168    0.1810 29.1 346 
 GIR2 SZ ES   1    324 41.67                             168   -0.25 7 29.1 346 
 BRR  HZ EP        324 27.88                             153    0.3410 71.5 296 
 BRR  HN ES        324 45.08                             153    0.5210 71.5 296 
 BRR  HZ I         324 46.65         6.4 0.14            151           71.5 296 
 PAM  SZ EP        324 28.85                             153    0.4410 74.4  40 
 PAM  SN ES        324 45.97                             153   -0.1410 74.4  40 
 PAM  SZ I         324 47.64        18.3 0.50            152           74.4  40 
 RUS  HZ EP   1    324 30.07                             144   -0.17 7  103 177 
 RUS  HN ES        324 49.27                             144   -0.1010  103 177 
 RUS  HZ I         324 50.72         4.2 0.28            147            103 177 
 PTB  HZ EP   1    324 33.25                             133   -0.13 7  150 258 
 PTB  HN ES   1    324 54.74                             133   -0.21 7  150 258 
 PTB  HZ I         324 56.65         5.1 0.18            133            150 258 
 ZAR  HE ES   1    325  4.53                             123    0.23 6  205 291 
 SML  HZ EP   1    324 42.37                             119   -0.15 6  242 335 
 SML  HN ES   1    325 10.80                             119   -0.43 6  242 335 
 SML  HZ I         325 19.38         6.9 0.22            118            242 335 
 SJC  HZ EP        325  0.46                             107   -0.88 6  408 327 
                                                                                
