 2014  627 0925 22.8 L   6.855 -73.458103.2  RSN  5 0.3 1.4LRSN                1
 GAP=151        0.84       3.3     4.3  8.3  0.3610E+00  0.6945E+01 -0.1117E+02E
 Epicentro: SAN VICENTE DE CHUCURI - SANTANDER                                 3
 ACTION:UPD 14-07-01 22:57 OP:nd   STATUS:               ID:20140627092522 L   I
 OLDACT:REG 14-06-27 15:27 OP:spq  STATUS:               ID:20140627091817     3
 2014-06-27-0918-17M.COL___256                                                 6
 STAT SP IPHASW D HRMM SECON CODA AMPLIT PERI AZIMU VELO AIN AR TRES W  DIS CAZ7
 BAR2 SZ EP        925 37.91                             156   -0.1810 42.1 134 
 BAR2 SZ ES   1    925 50.05                             156    0.04 7 42.1 134 
 BAR2 SZ I         925 52.40        13.7 0.26            168           42.1 134 
 PTB  HZ EP        925 43.21                             127   -0.2410  116 253 
 PTB  HN ES        925 59.52                             127   -0.0310  116 253 
 PTB  HZ I         926  6.60         3.4 0.40            132            116 253 
 SPBC HZ EP        925 47.66                             120    0.69 9  149 207 
 SPBC HN ES        926  5.76                             120   -0.05 9  149 207 
 SPBC HZ I         926  7.96         2.3 0.10            127            149 207 
 ZAR  HZ EP        925 48.86                             116   -0.22 9  170 295 
 ZAR  HE ES        926  9.57                             116    0.00 9  170 295 
 ZAR  HZ I         926 15.58         2.6 0.28            121            170 295 
 SML  HZ EP        925 54.84                             109   -0.51 8  226 343 
 SML  HE ES        926 21.33                             109    0.60 8  226 343 
 SML  HZ I         926 26.79         7.9 0.28            114            226 343 
                                                                                
