 2011  127 0210 54.5 L   6.769 -73.147140.1  RSN  7 0.4 1.6LRSN                1
 GAP=159        0.80       4.1    10.7  9.7 -0.1316E+02  0.3508E+02  0.5643E+01E
 Epicentro: LOS SANTOS - SANTANDER                                             3
 ACTION:UP  11-02-08 08:42 OP:pat  STATUS:               ID:20110127021054 L   I
 2011-01-27-0208-51S.COL___138                                                 6
 STAT SP IPHASW D HRMM SECON CODA AMPLIT PERI AZIMU VELO SNR AR TRES W  DIS CAZ7
 BAR2 SZ EP   1    211 13.88                             171     0.5 9   20 192 
 BAR2 SZ ES   2    211 27.60                             171    -0.5 6   20 192 
 BAR2 SZ I         211 30.20        11.0 0.43                            20 192 
 BTL  SZ EP   1    211 13.35                             171     0.0 9   21 321 
 RUS  HZ EP   1    211 17.41                             144     0.0 9   97 176 
 RUS  HE ES   2    211 35.38                             144     0.1 6   97 176 
 RUS  HZ I         211 37.98         5.6 0.30                            97 176 
 GRA  SZ EP   2    211 18.82                             135    -0.7 6  129  17 
 GRA  SZ ES   2    211 38.41                             135    -0.6 6  129  17 
 GRA  SZ I         211 39.41         6.1 0.21                           129  17 
 OCA  SZ EP   2    211 22.04                             128    -0.6 6  164 353 
 OCA  SZ ES   1    211 45.34                             128     0.7 9  164 353 
 OCA  SZ I         211 49.32         7.9 0.24                           164 353 
 NOR  SZ EP   1    211 29.55                             117    -0.1 8  233 235 
 NOR  SN ES   2    211 56.59                             117    -0.5 5  233 235 
 CHI  HZ EP        211 31.56                             116     0.110  245 195 
 CHI  HN ES   2    212  0.82                             116     0.4 5  245 195 
 CHI  HZ I         212  8.57         2.4 0.72                           245 195 
                                                                                
