 2014  227 0052 54.8 L   6.831 -73.137144.0  RSN 11 0.4 1.9LRSN                1
 GAP= 70        0.94       3.1     3.8  6.0  0.1154E+01  0.4693E+01  0.1567E+01E
 Epicentro: LOS SANTOS - SANTANDER                                             3
 ACTION:UPD 14-03-10 08:13 OP:ep   STATUS:               ID:20140227005254 L   I
 OLDACT:REG 14-02-27 07:47 OP:fm   STATUS:               ID:20140227004806     3
 2014-02-27-0048-06M.COL___237                                                 6
 STAT SP IPHASW D HRMM SECON CODA AMPLIT PERI AZIMU VELO AIN AR TRES W  DIS CAZ7
 BAR2 SZ EP        053 14.15                             169   -0.1510 26.8 191 
 BAR2 SZ ES   1    053 28.81                             169   -0.70 7 26.8 191 
 BAR2 SZ I         053 30.32        31.0 0.20            168           26.8 191 
 BRR  HZ EP        053 16.10                             153    0.3710 70.5 296 
 BRR  HN ES        053 32.95                             153    0.9010 70.5 296 
 PAM  SZ EP        053 17.02                             152    0.3710 74.2  41 
 PAM  SN ES        053 33.66                             152   -0.0210 74.2  41 
 PAM  SZ I         053 35.88        17.5 0.42            153           74.2  41 
 RUS  HZ EP        053 18.23                             143   -0.4010  104 177 
 RUS  HN ES        053 37.16                             143   -0.0510  104 177 
 RUS  HZ I         053 38.41         6.6 0.40            142            104 177 
 PTB  HZ EP   1    053 21.31                             131   -0.47 7  149 258 
 PTB  HN ES   1    053 42.44                             131   -0.38 7  149 258 
 PTB  HZ I         053 44.58         8.0 0.10            129            149 258 
 TAM  HZ EP   2    053 22.54                             130    0.20 5  155 106 
 TAM  HE ES   1    053 43.97                             130    0.15 7  155 106 
 SPBC HN ES   2    053 45.23                             128   -0.62 5  166 219 
 SPBC HZ I         053 50.90         7.7 0.36            127            166 219 
 ZAR  HZ EP   1    053 27.30                             122    0.20 6  204 291 
 ZAR  HN ES   1    053 52.48                             122    0.19 6  204 291 
 ZAR  HZ I         053 54.77         7.6 0.12            121            204 291 
 SML  HZ EP   1    053 30.34                             118   -0.71 6  241 335 
 SML  HE ES        053 58.64                             118   -0.67 8  241 335 
 SML  HZ I         054  8.40         7.5 0.10            117            241 335 
 CHI  HZ EP   1    053 32.90                             117    0.10 6  252 195 
 CHI  HE ES        054  2.69                             117    0.27 8  252 195 
 CHI  HZ I         054  9.25         1.9 0.50            116            252 195 
 PRA  HZ EP   2    053 49.51                             106    0.84 3  395 209 
 PRA  HN ES   1    054 30.97                             106    0.29 4  395 209 
 PRA  HZ I         054 35.83         2.1 0.26            105            395 209 
                                                                                
