 2011  327 0514  3.9 L   6.769 -73.347118.3  RSN 10 0.5 2.0LRSN                1
 GAP=109        1.20       5.2     7.1  8.7 -0.1546E+02  0.1756E+02  0.5753E+01E
 Epicentro: ZAPATOCA - SANTANDER                                               3
 ACTION:UP  11-06-16 14:35 OP:jfem STATUS:               ID:20110327051403 L   I
 2011-03-27-0510-27S.COL___138                                                 6
 STAT SP IPHASW D HRMM SECON CODA AMPLIT PERI AZIMU VELO SNR AR TRES W  DIS CAZ7
 BTL  SZ IP        514 20.00                             171    -0.210   19  28 
 BTL  SZ ES   1    514 33.24                             171     0.4 7   19  28 
 BAR2 SZ IP        514 19.88                             167    -0.510   27 137 
 BAR2 SZ ES   1    514 33.17                             167     0.0 7   27 137 
 BAR2 SZ I         514 33.83        31.3 0.25                            27 137 
 GIR2 SZ EP        514 20.96                             161     0.310   38  26 
 BRR  HZ IP     C  514 20.51                             153    -0.710   55 313 
 BRR  HZ I         514 20.78       107.3 0.13                            55 313 
 BRR  HN ES   1    514 35.08                             153     0.4 7   55 313 
 GRA  SZ EP        514 28.16                             127     0.2 9  137  26 
 GRA  SZ ES   1    514 47.38                             127     0.7 7  137  26 
 GRA  SZ I         514 50.75        11.7 0.34                           137  26 
 OCA  SZ ES   1    514 50.66                             122    -0.6 7  163   1 
 OCA  SZ I         514 55.71        15.0 0.19                           163   1 
 CHI  HN ES   1    515  6.46                             112    -0.5 6  240 190 
 CHI  HZ I         515 12.00         2.7 0.20                           240 190 
 HEL  HZ EP   1    514 40.71                             111     0.4 6  250 255 
 HEL  HN ES        515  8.68                             111     0.0 8  250 255 
 HEL  HZ I         515 12.93         5.7 0.21                           250 255 
 RREF HZ EP   1    514 47.34                             106     0.5 5  303 227 
 RREF HZ I         515 26.17         2.7 0.23                           303 227 
 PRA  HN ES        515 35.70                             102     0.8 6  378 207 
 PRA  HZ I         515 44.78        14.9 0.36                           378 207 
                                                                                
