 2013 1127 0730 44.6 L   6.796 -73.164137.1  RSN 13 0.5 2.1LRSN 2.7WRSN        1
 SPEC AVERAGE  MO 13.1 ST127.7 OM  1.4 f0 19.3 R0.3742 AL 0.00 WI 20.0 MW  2.7 3
 SPEC SD       MO  0.4 ST183.8 OM  0.5 f0 12.7 R0.6420 AL      WI      MW  0.3 3
 GAP= 70        1.31       4.1     3.7  6.7 -0.1479E+01  0.6252E+01  0.4634E+01E
 Epicentro: LOS SANTOS - SANTANDER                                             3
 SPEC BAR2SH Z MO 13.2 ST 60.2 OM  1.4 f0 18.1 R0.1063 AL-0.00 WI 20.0 MW  2.8 3
 SPEC BAR2SH Z T 73116 K 0.050 GD  138 VS 5.20 DE 3.20 Q0750.0 QA 1.50 VS 5.20 3
 SPEC BRR HH Z MO 13.0 ST 19.0 OM  1.1 f0 15.0 R0.1283 AL-0.00 WI 20.0 MW  2.6 3
 SPEC BRR HH Z T 73119 K 0.050 GD  153 VS 5.20 DE 3.20 Q0750.0 QA 1.50 VS 5.20 3
 SPEC PAM SH Z MO 14.1 ST0.060 OM  2.2 f00.939 R2.0490 AL-0.00 WI 20.0 MW  3.3 3
 SPEC PAM SH Z T 73121 K 0.050 GD  158 VS 5.20 DE 3.20 Q0750.0 QA 1.50 VS 5.20 3
 SPEC RUS HH Z MO 12.5 ST 28.9 OM  0.6 f0 24.5 R0.0785 AL-0.00 WI 20.0 MW  2.3 3
 SPEC RUS HH Z T 73124 K 0.050 GD  169 VS 5.20 DE 3.20 Q0750.0 QA 1.50 VS 5.20 3
 SPEC SPBCHH Z MO 13.2 ST434.3 OM  1.2 f0 35.4 R0.0544 AL-0.00 WI 20.0 MW  2.7 3
 SPEC SPBCHH Z T 73132 K 0.050 GD  212 VS 5.20 DE 3.20 Q0750.0 QA 1.50 VS 5.20 3
 SPEC ZAR HH Z MO 13.1 ST454.8 OM  1.0 f0 40.0 R0.0481 AL-0.00 WI 20.0 MW  2.7 3
 SPEC ZAR HH Z T 73139 K 0.050 GD  244 VS 5.20 DE 3.20 Q0750.0 QA 1.50 VS 5.20 3
 SPEC NOR HH Z MO 13.0 ST 23.7 OM  0.9 f0 15.6 R0.1233 AL-0.00 WI 20.0 MW  2.6 3
 SPEC NOR HH Z T 73144 K 0.050 GD  270 VS 5.20 DE 3.20 Q0750.0 QA 1.50 VS 5.20 3
 SPEC HEL HH Z MO 13.1 ST0.746 OM  0.9 f0 4.74 R0.4059 AL-0.00 WI 20.0 MW  2.6 3
 SPEC HEL HH Z T 73156 K 0.050 GD  302 VS 5.20 DE 3.20 Q0750.0 QA 1.50 VS 5.20 3
 SPECGUY2CHH Z MO 13.1 ST  0.4 OM  0.9 f0 3.59 R 0.536 AL-0.00 WI 20.0 MW  2.7 3
 SPECGUY2CHH Z T 73160 K 0.050 GD328.9 VS 5.20 DE 3.20 Q0750.0 QA 1.50 VS 5.20 3
 OLDACT:REG 13-11-27 08:21 OP:stll STATUS:               ID:20131127072806     3
 ACTION:UPD 14-01-09 16:31 OP:ep   STATUS:               ID:20131127073044 L   I
 OLDACT:UP  13-11-27 11:46 OP:stll STATUS:               ID:20131127072806     3
 2013-11-27-0728-06M.COL___237                                                 6
 STAT SP IPHASW D HRMM SECON CODA AMPLIT PERI AZIMU VELO AIN AR TRES W  DIS CAZ7
 BAR2 SZ IP     C  731  3.28                             170    0.0610 22.6 185 
 BAR2 SZ ES        731 17.84                             170    0.1410 22.6 185 
 BAR2 SZ I         731 19.46        52.6 0.18            164           22.6 185 
 BRR  HZ IP        731  5.12                             152    0.3510 69.6 300 
 BRR  HN ES        731 21.47                             152    1.0110 69.6 300 
 BRR  SZ I         731 22.65        21.6 0.12            143           69.6 300 
 PAM  SZ EP        731  6.06                             149    0.0110 79.0  40 
 PAM  SN ES        731 22.77                             149    0.0310 79.0  40 
 PAM  SZ I         731 25.24        17.9 0.32            141           79.0  40 
 RUS  HZ EP        731  7.42                             142   -0.1110  100 175 
 RUS  HN ES        731 25.63                             142    0.2510  100 175 
 RUS  SZ I         731 26.60         8.7 0.58            131            100 175 
 PTB  HZ EP        731 10.15                             130   -0.57 9  146 259 
 PTB  HN ES        731 30.22                             130   -0.84 9  146 259 
 PTB  SZ I         731 36.68        13.3 0.28            120            146 259 
 TAM  HZ EP        731 11.99                             128    0.16 9  157 105 
 TAM  HN ES        731 32.58                             128   -0.45 9  157 105 
 TAM  SZ I         731 41.93        18.7 2.68            118            157 105 
 OCA  HN ES        731 33.05                             128   -0.84 9  160 354 
 SPBC HZ EP        731 12.22                             127   -0.11 9  162 219 
 SPBC HN ES        731 33.87                             127   -0.06 9  162 219 
 SPBC SZ I         731 39.92        21.7 0.14            117            162 219 
 ZAR  HZ EP        731 16.27                             121   -0.08 9  202 292 
 ZAR  HE ES        731 41.17                             121    0.08 9  202 292 
 ZAR  SZ I         731 47.48        12.4 0.36            112            202 292 
 NOR  HZ EP        731 19.85                             117    0.18 8  233 234 
 NOR  HE ES        731 45.75                             117   -1.25 8  233 234 
 NOR  SZ I         731 50.86        13.1 0.30            109            233 234 
 HEL  HZ EP        731 25.56                             113    1.37 8  270 256 
 HEL  SZ I         732  1.32         7.4 0.30            106            270 256 
 GUY2CHZ EP        731 28.15                             111    0.51 7  299 235 
 GUY2CHN ES        732  1.63                             111    0.45 7  299 235 
 GUY2CSZ I         732  8.09         8.4 0.66                           299 235 
 ORTC HZ EP        731 38.16                             105    0.06 6  394 216 
 ORTC SZ I         732 36.32         5.0 1.80            100            394 216 
                                                                                
