 2011  427 0542  4.3 L   6.804 -73.129152.2  RSN  8 0.3 2.2LRSN                1
 GAP=115        0.65       3.4     7.7  6.7  0.6334E+00 -0.7118E+01 -0.3984E+01E
 Epicentro: LOS SANTOS - SANTANDER                                             3
 ACTION:UP  11-06-22 15:33 OP:REBC STATUS:               ID:20110427054204 L   I
 2011-04-27-0538-56S.COL___137                                                 6
 STAT SP IPHASW D HRMM SECON CODA AMPLIT PERI AZIMU VELO SNR AR TRES W  DIS CAZ7
 BAR2 SZ EP   1    542 24.48                             170    -0.2 7   24 194 
 BAR2 SZ ES   1    542 40.55                             170    -0.1 7   24 194 
 BAR2 SZ I         542 43.05        50.6 0.44                            24 194 
 BRR  HZ EP   1    542 26.36                             153     0.2 7   73 297 
 BRR  HZ I         542 26.53        32.4 0.15                            73 297 
 BRR  HE ES   2    542 43.85                             153     0.5 5   73 297 
 PAM  SZ EP   1    542 27.26                             152     0.2 7   76  39 
 RUS  HZ EP   2    542 28.25                             145    -0.5 5  101 177 
 RUS  HE ES   2    542 47.41                             145    -0.3 5  101 177 
 RUS  HZ I         542 48.83        26.0 0.40                           101 177 
 BRI  SZ EP   1    542 29.06                             143     0.3 7  107  20 
 BRI  SZ ES   2    542 47.97                             143     0.2 5  107  20 
 BRI  SZ I         542 52.80        19.9 0.40                           107  20 
 GRA  SZ EP   1    542 30.20                             139     0.2 7  125  17 
 GRA  SZ ES   1    542 49.72                             139    -0.4 7  125  17 
 GRA  SZ I         542 51.09        22.8 0.26                           125  17 
 OCA  SZ EP   1    542 32.74                             131    -0.3 7  160 352 
 OCA  SZ ES   1    542 55.51                             131     0.0 7  160 352 
 OCA  SZ I         542 59.45        18.2 0.15                           160 352 
 YOP  SN ES   2    542 59.12                             128     0.6 4  179 154 
 YOP  SZ I         542 59.71        13.1 0.28                           179 154 
                                                                                
