 2013  227 0919 27.9 L   6.853 -73.306121.8  RSN  5 0.5 1.8LRSN                1
 GAP=212        1.16       8.1     7.1  9.3  0.3701E+02  0.1607E+02  0.1009E+02E
 Epicentro: ZAPATOCA - SANTANDER                                               3
 ACTION:UPD 13-03-12 09:36 OP:ep   STATUS:               ID:20130227091927 L   I
 2013-02-27-0918-39M.COL___193                                                 6
 STAT SP IPHASW D HRMM SECON CODA AMPLIT PERI AZIMU VELO AIN AR TRES W  DIS CAZ7
 BAR2 SZ EP        919 45.04                             164    0.1310 31.9 155 
 BAR2 SZ ES        919 58.03                             164   -0.1310 31.9 155 
 BAR2 SZ I         919 59.40        26.1 0.30            164           31.9 155 
 BRR  HZ EP        919 45.52                             155    0.0710 52.9 302 
 BRR  HN ES        919 58.89                             155   -0.2410 52.9 302 
 BRR  HN I         920  0.12        15.6 0.22            155           52.9 302 
 RUS  HZ EP        919 50.49                             136    0.4010  109 167 
 RUS  HE ES        920  7.50                             136    0.1110  109 167 
 PTB  HZ EP        919 50.40                             129   -1.0910  132 255 
 PTB  HN ES        920 10.06                             129    0.1710  132 255 
 PTB  HN I         920 12.39         7.2 0.18            130            132 255 
 ZAR  HN ES        920 20.17                             119    0.65 9  185 293 
                                                                                
