 2013 1027 0806 31.3 L   6.790 -73.130145.8  RSN 15 0.5 2.1LRSN                1
 GAP=139        1.15       3.1     4.4  5.7 -0.3168E+01  0.7077E+01  0.2823E+01E
 Epicentro: LOS SANTOS - SANTANDER                                             3
 ACTION:UPD 13-11-25 09:23 OP:ep   STATUS:               ID:20131027080631 L   I
 OLDACT:REG 13-10-27 08:57 OP:carl STATUS:               ID:20131027075837     3
 2013-10-27-0758-37M.COL___221                                                 6
 STAT SP IPHASW D HRMM SECON CODA AMPLIT PERI AZIMU VELO AIN AR TRES W  DIS CAZ7
 BAR2 SZ EP        8 6 51.04                             171    0.0810 22.6 195 
 BAR2 SZ ES        8 7  5.82                             171   -0.4410 22.6 195 
 BAR2 SZ I         8 7  7.13        44.0 0.20            168           22.6 195 
 BRR  HZ EP        8 6 53.02                             152    0.4210 73.2 299 
 BRR  HN ES        8 7 10.13                             152    0.9410 73.2 299 
 BRR  HZ I         8 7 12.91        20.6 0.12            150           73.2 299 
 PAM  SZ EP        8 6 53.87                             151    0.3310 77.1  38 
 PAM  SN ES        8 7 11.17                             151    0.3110 77.1  38 
 PAM  SZ I         8 7 13.58        11.7 0.56            156           77.1  38 
 RUS  HZ EP        8 6 54.85                             144   -0.1510 99.4 177 
 RUS  HN ES        8 7 13.51                             144    0.0410 99.4 177 
 RUS  HZ I         8 7 14.43        12.1 0.38            145           99.4 177 
 PTB  HZ EP        8 6 57.48                             132   -0.96 9  149 259 
 PTB  HN ES        8 7 18.73                             132   -0.85 9  149 259 
 PTB  HZ I         8 7 24.66        17.3 0.48            131            149 259 
 OCA  HZ EP        8 6 59.39                             129   -0.38 9  162 353 
 OCA  HN ES        8 7 21.69                             129   -0.26 9  162 353 
 OCA  HZ I         8 7 24.68        19.7 0.18            132            162 353 
 SPBC HZ EP        8 6 59.86                             129    0.00 9  163 220 
 SPBC HN ES        8 7 21.59                             129   -0.52 9  163 220 
 SPBC HZ I         8 7 28.93        20.9 0.16            129            163 220 
 ZAR  HZ EP        8 7  3.47                             122   -0.52 8  206 292 
 ZAR  HE ES        8 7 29.43                             122   -0.03 8  206 292 
 NOR  HZ EP        8 7  7.13                             118   -0.02 8  235 235 
 NOR  HN ES        8 7 35.77                             118    0.69 8  235 235 
 NOR  HZ I         8 7 40.23        14.2 0.44            119            235 235 
 CHI  HZ EP        8 7  8.91                             117   -0.06 8  248 196 
 CHI  HN ES        8 7 38.00                             117   -0.32 8  248 196 
 CHI  HZ I         8 7 43.72         4.0 0.34            119            248 196 
 ROSC BZ EP   4    8 7 10.72                             117    1.27 0  253 211 
 ROSC BN ES        8 7 39.27                             117    0.09 8  253 211 
 GUY2CHZ EP        8 7 15.34                             112    0.31 7  302 235 
 GUY2CHN ES   2    8 7 49.85                             112    0.73 4  302 235 
 GUY2CHZ I         8 7 57.38         8.1 0.52                           302 235 
 RREF HZ EP   1    8 7 18.13                             111    0.59 5  322 230 
 RREF HN ES        8 7 53.46                             111   -0.13 7  322 230 
 RREF HZ I         8 8  1.53         5.7 0.66            112            322 230 
 CBOC HZ EP        8 7 19.41                             110    1.01 7  335 252 
 CBOC HN ES   4    8 7 55.21                             110    0.10 0  335 252 
 CBOC HZ I         8 8  2.34         2.5 0.64            111            335 252 
 ORTC HZ EP        8 7 25.33                             106    0.06 6  396 216 
 ORTC HN ES        8 8  8.33                             106    0.99 6  396 216 
 ORTC HZ I         8 8 13.72         3.6 0.44            107            396 216 
                                                                                
