 2010  827 0235 28.4 L   6.791 -73.089146.8  RSN 16 0.5 3.3LRSN                1
 GAP=165        1.05       3.5     6.6  6.5 -0.9719E+01  0.1132E+02  0.3103E+01E
 Epicentro: LOS SANTOS - SANTANDER                                             3
 ACTION:UP  10-09-07 10:58 OP:vdl  STATUS:               ID:20100827023528 L   I
 2010-08-27-0233-37S.COL___120                                                 6
 STAT SP IPHASW D HRMM SECON CODA AMPLIT PERI AZIMU VELO SNR AR TRES W  DIS CAZ7
 BAR2 SZ IP        235 48.26                             170     0.110   24 205 
 BAR2 SZ ES   1    236  3.52                             170    -0.1 7   24 205 
 BAR2 SZ I         236  5.06       349.8 0.72                            24 205 
 BRR  HZ IP     C  235 50.19                             151     0.110   77 297 
 BRR  HZ I         235 50.48       562.0 0.14                            77 297 
 BRR  HN ES   1    236  7.25                             151     0.3 7   77 297 
 RUS  HZ IP     D  235 52.08                             145    -0.110   99 180 
 RUS  HN ES   1    236 10.49                             145    -0.2 7   99 180 
 RUS  HZ I         236 14.39       137.5 0.39                            99 180 
 GUE  SZ EP        235 52.25                             140    -1.010  116   9 
 GRA  SZ IP        235 54.05                             138     0.310  125  15 
 GRA  SZ ES   1    236 14.06                             138     0.6 7  125  15 
 GRA  SZ I         236 16.02       231.0 0.25                           125  15 
 OCA  SZ EP        235 56.82                             130    -0.2 9  162 351 
 OCA  SZ ES   1    236 19.32                             130     0.0 7  162 351 
 OCA  SZ I         236 24.55       343.6 0.27                           162 351 
 CHI  HZ EP        236  6.01                             118    -0.3 8  249 197 
 CHI  HE ES   1    236 35.71                             118    -0.1 6  249 197 
 CHI  HZ I         236 41.61        78.7 0.45                           249 197 
 ROSC BZ EP        236  7.72                             117     0.8 8  255 212 
 ROSC BN ES   1    236 37.59                             117     0.7 6  255 212 
 ROSC BZ I         236 46.02       127.7 0.37                           255 212 
 CVER SZ EP   1    236  9.41                             115     0.4 6  274 204 
 CVER SZ I         236 11.29       151.1 0.42                           274 204 
 HEL  HZ EP   1    236  9.60                             115     0.3 6  278 256 
 HEL  HE ES   2    236 40.87                                    -0.4 4  278 256 
 HEL  HZ I         236 48.01        93.4 0.08                           278 256 
 GUY  SZ EP   1    236 12.90                             112     0.3 5  306 236 
 GUY  SN ES   2    236 46.46                             112    -0.6 4  306 236 
 GUY  SZ I         236 53.38       305.5 0.71                           306 236 
 RREF HZ EP        236 15.15                             111     0.1 7  326 230 
 RREF HN ES   1    236 51.01                             111    -0.5 5  326 230 
 RREF HZ I         236 56.75       120.5 0.20                           326 230 
 DBB  SZ IP        236 16.04                             109    -0.6 6  346 274 
 DBB  SZ I         236 54.56        22.8 0.33                           346 274 
 TOL  SZ EP   1    236 17.54                             109     0.4 5  347 226 
 ANIL HZ EP   1    236 19.35                                     0.6 5  361 225 
 ANIL HN ES   1    236 57.34                                    -0.6 5  361 225 
 PRA  HZ EP        236 21.69                             107    -0.6 6  394 210 
 PRA  HE ES   1    237  4.41                             107     0.2 4  394 210 
 PRA  HZ I         237 10.03        97.2 0.43                           394 210 
                                                                                
