 2010 1027 0336 42.4 L   6.764 -73.144146.8  RSN  9 0.4 1.6LRSN                1
 GAP=159        0.89       4.1     8.9  7.4 -0.1437E+02 -0.4767E+01  0.4723E+01E
 Epicentro: LOS SANTOS - SANTANDER                                             3
 ACTION:UP  11-02-18 11:12 OP:tino STATUS:               ID:20101027033642 L   I
 2010-10-27-0332-23S.COL___128                                                 6
 STAT SP IPHASW D HRMM SECON CODA AMPLIT PERI AZIMU VELO SNR AR TRES W  DIS CAZ7
 BAR2 SZ EP   1    337  1.77                             172    -0.3 7   20 193 
 BAR2 SZ ES   1    337 17.10                             172    -0.4 7   20 193 
 BAR2 SZ I         337 19.63         7.5 0.38                            20 193 
 BTL  SZ EP        337  2.00                             171    -0.110   22 321 
 BRR  HZ EP   1    337  3.68                             152    -0.1 7   73 301 
 BRR  HZ I         337  4.12        20.4 0.23                            73 301 
 BRR  HN ES   1    337 21.12                             152     0.6 7   73 301 
 RUS  HZ EP   2    337  5.54                             145    -0.4 5   97 176 
 RUS  HE ES   2    337 24.58                             145     0.2 5   97 176 
 RUS  HZ I         337 25.57         4.3 0.27                            97 176 
 GRA  SZ IP        337  8.63                             136     0.610  130  17 
 GRA  SZ ES   1    337 27.93                             136    -0.1 7  130  17 
 GRA  SZ I         337 31.01         5.3 0.32                           130  17 
 OCA  SZ EP   1    337 10.58                             129    -0.6 7  164 353 
 OCA  SZ ES   1    337 33.70                             129     0.1 7  164 353 
 OCA  SZ I         337 37.94         7.6 0.30                           164 353 
 NOR  SN ES   2    337 44.76                             119    -1.0 4  233 235 
 CHI  HZ EP   1    337 19.91                             118     0.2 6  245 195 
 CHI  HZ I         337 22.66         1.6 0.20                           245 195 
 CHI  HE ES   2    337 49.45                             118     0.6 4  245 195 
 PRA  HZ EP   1    337 36.20                             107     0.6 4  389 210 
 PRA  HN ES   2    338 17.05                             107     0.0 3  389 210 
                                                                                
