 2011  427 0614 41.4 L   6.749 -73.096146.7  RSN  6 0.2 1.8LRSN                1
 GAP=175        0.57       4.4     5.8  5.4 -0.6204E+01 -0.2683E+01 -0.3773E+01E
 Epicentro: LOS SANTOS - SANTANDER                                             3
 ACTION:UP  11-06-22 15:33 OP:REBC STATUS:               ID:20110427061441 L   I
 2011-04-27-0612-16S.COL___137                                                 6
 STAT SP IPHASW D HRMM SECON CODA AMPLIT PERI AZIMU VELO SNR AR TRES W  DIS CAZ7
 BAR2 SZ EP   1    615  0.99                             172    -0.1 7   20 209 
 BAR2 SZ ES   1    615 16.18                             172    -0.2 7   20 209 
 BAR2 SZ I         615 17.88        20.7 0.26                            20 209 
 BRR  HZ EP   1    615  3.02                             150    -0.1 7   79 300 
 BRR  HE ES   1    615 20.29                             150     0.3 7   79 300 
 BRR  HZ I         615 22.02        20.1 0.17                            79 300 
 PAM  SZ EP   1    615  4.07                             151     0.3 7   79  34 
 PAM  SZ I         615  4.34         7.1 0.18                            79  34 
 PAM  SN ES   1    615 21.24                             151     0.0 7   79  34 
 BRI  SZ EP   1    615  5.88                             141     0.2 7  112  17 
 BRI  SZ I         615 26.52         7.3 0.31                           112  17 
 GRA  SZ EP   1    615  7.10                             136     0.1 7  130  14 
 GRA  SZ I         615  8.38         8.9 0.19                           130  14 
 GRA  SZ ES   1    615 26.91                             136    -0.1 7  130  14 
 OCA  SZ EP   1    615  9.89                             129    -0.5 7  167 351 
 OCA  SZ ES   1    615 32.92                             129     0.0 7  167 351 
 OCA  SZ I         615 37.06         7.2 0.16                           167 351 
                                                                                
