 2010  327 0245 14.2 L   6.813 -73.064148.1  RSN  6 0.5 1.4LRSN                1
 GAP=247        0.71       6.6    10.3  8.4  0.8698E+01  0.2266E+02  0.2173E+02E
 Epicentro: LOS SANTOS - SANTANDER                                             3
 ACTION:UP  10-08-24 09:56 OP:vdl  STATUS:               ID:20100327024514 L   I
 2010-03-27-0242-33S.COL___098                                                 6
 STAT SP IPHASW D HRMM SECON CODA AMPLIT PERI AZIMU VELO SNR AR TRES W  DIS CAZ7
 BAR2 SZ EP   1    245 34.04                             169    -0.2 7   28 208 
 BAR2 SZ ES   2    245 49.09                             169    -0.7 5   28 208 
 BRR  HZ EP   1    245 36.17                             150     0.1 7   79 294 
 BRR  HE ES   2    245 53.30                             150     0.2 5   79 294 
 RUS  HZ EP   1    245 38.50                             144     0.2 7  102 181 
 RUS  HN ES   2    245 57.64                             144     0.6 5  102 181 
 RUS  HZ I         245 58.04         3.2 0.22                           102 181 
 CHI  HZ EP   1    245 52.55                             117     0.1 6  253 197 
 CHI  HN ES   2    246 22.01                             117    -0.3 4  253 197 
 CHI  HZ I         246 25.39         1.6 0.52                           253 197 
 RREF BZ EP   1    246  0.68                             111    -0.7 5  330 230 
 RREF BN ES   2    246 39.09                             111     1.0 3  330 230 
 RREF BZ I         246 46.34         1.6 0.71                           330 230 
 PRA  HZ EP   1    246  8.86                             107     0.4 4  398 211 
 PRA  HN ES   2    246 49.80                             107    -1.0 3  398 211 
                                                                                
