 2013  127 0331 45.0 L   6.824 -73.148145.8  RSN  6 0.5 1.5LRSN                1
 GAP=135        1.26       5.5     6.5  8.4 -0.3784E+01  0.5655E+01  0.1253E+02E
 Epicentro: LOS SANTOS - SANTANDER                                             3
 ACTION:UPD 13-02-15 09:17 OP:ep   STATUS:               ID:20130127033145 L   I
 2013-01-27-0328-49M.COL___186                                                 6
 STAT SP IPHASW D HRMM SECON CODA AMPLIT PERI AZIMU VELO AIN AR TRES W  DIS CAZ7
 BAR2 SZ EP        332  3.93                             169   -0.7510 25.9 188 
 BAR2 SZ ES        332 19.90                             169   -0.1310 25.9 188 
 BAR2 SZ I         332 22.28         5.2 0.40            169           25.9 188 
 BRR  HZ EP        332  6.54                             153    0.4810 69.7 297 
 BRR  HN ES        332 23.09                             153    0.6010 69.7 297 
 BRR  HN I         332 23.81        10.4 0.28            154           69.7 297 
 PAM  SZ EP        332  7.53                             151    0.4310 75.5  41 
 PAM  SZ I         332  7.70         4.0 0.20            153           75.5  41 
 PAM  SE ES        332 24.08                             151   -0.2610 75.5  41 
 RUS  HZ EP        332  9.26                             143    0.3210  103 176 
 RUS  HN ES        332 27.43                             143   -0.1910  103 176 
 PTB  HZ EP        332 11.58                             132   -0.40 9  148 258 
 PTB  HN ES        332 32.55                             132   -0.49 9  148 258 
 CHI  HZ EP        332 22.45                             117   -0.51 8  251 195 
 CHI  HN ES        332 53.54                             117    0.96 8  251 195 
 CHI  HN I         332 55.24         2.0 0.30            118            251 195 
                                                                                
