 2014  127 0258  7.1 L   6.753 -73.133142.1  RSN  7 0.6 1.5LRSN                1
 GAP= 73        1.35       7.5     6.8  8.9 -0.7679E+00 -0.4783E+01 -0.5192E+01E
 Epicentro: LOS SANTOS - SANTANDER                                             3
 ACTION:UPD 14-03-13 09:58 OP:ep   STATUS:               ID:20140127025807 L   I
 OLDACT:UP  14-01-28 05:14 OP:CAM  STATUS:               ID:20140127025807 L   3
 OLDACT:REG 14-01-27 08:09 OP:stll STATUS:               ID:20140127024810     3
 2014-01-27-0248-10M.COL___240                                                 6
 STAT SP IPHASW D HRMM SECON CODA AMPLIT PERI AZIMU VELO AIN AR TRES W  DIS CAZ7
 BAR2 SZ ES        258 40.37                             172   -0.7710 18.6 197 
 BAR2 SZ I         258 42.11        11.3 0.36            172           18.6 197 
 BRR  HZ EP   1    258 28.44                             150    0.32 7 75.0 301 
 BRR  HZ I         258 28.63         6.2 0.20            151           75.0 301 
 BRR  HN ES   4    258 44.96                             150    0.47 0 75.0 301 
 BRR  HE ES        258 45.56                             150    1.0710 75.0 301 
 PAM  SZ EP        258 29.45                             149    0.2810 80.6  36 
 PAM  SN ES        258 45.92                             149   -0.4310 80.6  36 
 PAM  SZ I         258 48.78         3.9 0.58            150           80.6  36 
 RUS  HZ EP   1    258 30.28                             144    0.12 7 95.3 177 
 RUS  HN ES   1    258 48.56                             144    0.45 7 95.3 177 
 RUS  HZ I         258 49.36         3.1 0.22            145           95.3 177 
 PTB  HZ EP   1    258 33.25                             131   -0.61 7  148 261 
 PTB  HN ES   1    258 54.08                             131   -0.62 7  148 261 
 PTB  HZ I         258 58.17         2.8 0.16            131            148 261 
 TAM  HZ EP        258 34.59                             130    0.31 9  152 103 
 TAM  HZ I         258 34.66         8.8 0.20            132            152 103 
 SML  HZ EP        258 43.62                             116   -0.52 8  249 335 
 SML  HN ES   4    259 10.91                             116   -2.10 0  249 335 
                                                                                
