 2013  427 0905  4.9 L   7.434 -73.212131.0  RSN 18 0.5 3.4LRSN 3.5WRSN        1
 SPEC AVERAGE  MO 14.3 ST 17.4 OM  2.6 f0 3.50 R0.4857 AL 2.34 WI 28.0 MW  3.5 3
 SPEC SD       MO  0.2 ST 17.3 OM  0.4 f0 1.20 R0.2008 AL      WI      MW  0.1 3
 GAP= 66        0.98       2.9     3.3  5.0  0.7802E+00  0.1754E+01 -0.9414E-01E
 Epicentro: EL PLAYON - SANTANDER                                              3
 SPEC VIL SH N MO 14.9 ST  5.2 OM  2.9 f0 1.69 R0.8698 AL 2.04 WI 60.5 MW  3.9 3
 SPEC VIL SH N T 9 629 K 0.000 GD  393 VS 4.20 DE 3.20 Q0300.0 QA 0.60 VS 4.20 3
 SPEC URE HH N MO 14.3 ST 23.5 OM  2.4 f0 4.55 R0.3231 AL 2.73 WI 35.3 MW  3.4 3
 SPEC URE HH N T 9 6 7 K 0.000 GD  289 VS 4.20 DE 3.20 Q0300.0 QA 0.60 VS 4.20 3
 SPEC SDV BH Z MO 14.2 ST  1.4 OM  2.3 f0 1.78 R0.8258 AL 1.85 WI 35.1 MW  3.4 3
 SPEC SDV BH Z T 9 619 K 0.000 GD  351 VS 4.20 DE 3.20 Q0300.0 QA 0.60 VS 4.20 3
 SPEC ROSCBH Z MO 14.4 ST  2.8 OM  2.5 f0 1.96 R0.7500 AL 2.65 WI 37.4 MW  3.6 3
 SPEC ROSCBH Z T 9 619 K 0.000 GD  338 VS 4.20 DE 3.20 Q0300.0 QA 0.60 VS 4.20 3
 SPEC NOR HH N MO 14.5 ST 60.5 OM  2.6 f0 5.25 R0.2800 AL 2.94 WI 27.3 MW  3.6 3
 SPEC NOR HH N T 9 610 K 0.000 GD  305 VS 4.20 DE 3.20 Q0300.0 QA 0.60 VS 4.20 3
 SPEC RUS HH N MO 14.1 ST  5.5 OM  2.4 f0 3.10 R0.4742 AL 2.50 WI 28.3 MW  3.4 3
 SPEC RUS HH N T 9 551 K 0.000 GD  215 VS 4.20 DE 3.20 Q0300.0 QA 0.60 VS 4.20 3
 SPEC PTB HH N MO 14.2 ST 26.2 OM  2.5 f0 4.83 R0.3043 AL 2.23 WI 28.7 MW  3.4 3
 SPEC PTB HH N T 9 551 K 0.000 GD  213 VS 4.20 DE 3.20 Q0300.0 QA 0.60 VS 4.20 3
 SPEC OCA HH N MO 14.5 ST 13.4 OM  2.9 f0 3.14 R0.4682 AL 1.95 WI 27.2 MW  3.6 3
 SPEC OCA HH N T 9 538 K 0.000 GD  158 VS 4.20 DE 3.20 Q0300.0 QA 0.60 VS 4.20 3
 SPEC PAM SH N MO 14.2 ST  9.3 OM  2.6 f0 3.62 R0.4061 AL 3.17 WI  9.0 MW  3.4 3
 SPEC PAM SH N T 9 537 K 0.000 GD  143 VS 4.20 DE 3.20 Q0300.0 QA 0.60 VS 4.20 3
 SPEC HEL HH N MO 14.3 ST 19.6 OM  1.6 f0 4.23 R0.3475 AL 2.08 WI 33.8 MW  3.5 3
 SPEC HEL HH N T 9 543 K 0.000 GD  319 VP 7.60 DE 3.20 Q0300.0 QA 0.60 VS 4.20 3
 SPEC BAR2SH Z MO 14.1 ST 11.4 OM  2.5 f0 4.03 R0.3648 AL 2.22 WI 11.5 MW  3.3 3
 SPEC BAR2SH Z T 9 540 K 0.000 GD  160 VS 4.20 DE 3.20 Q0300.0 QA 0.60 VS 4.20 3
 SPEC BRR HH Z MO 14.4 ST 45.3 OM  2.1 f0 4.94 R0.2976 AL 2.09 WI 16.3 MW  3.6 3
 SPEC BRR HH Z T 9 521 K 0.000 GD  146 VP 7.60 DE 3.20 Q0300.0 QA 0.60 VS 4.20 3
 SPEC GIR2SH Z MO 14.0 ST  2.2 OM  2.5 f0 2.44 R0.6025 AL 2.03 WI 14.2 MW  3.3 3
 SPEC GIR2SH Z T 9 533 K 0.000 GD  136 VS 4.20 DE 3.20 Q0300.0 QA 0.60 VS 4.20 3
 ACTION:UPD 13-05-22 14:41 OP:EP   STATUS:               ID:20130427090505 L   I
 2013-04-27-0858-37M.COL___209                                                 6
 STAT SP IPHASW D HRMM SECON CODA AMPLIT PERI AZIMU VELO AIN AR TRES W  DIS CAZ7
 GIR2 SZ EP     D  9 5 23.26                             162    0.2010 39.3 177 
 GIR2 SZ ES   1    9 5 37.18                             162   -0.06 7 39.3 177 
 GIR2 SZ I         9 5 39.01       427.4 0.30            158           39.3 177 
 PAM  SZ EP     C  9 5 24.74                             155    0.3610 57.5 100 
 PAM  SN ES   1    9 5 39.78                             155    0.19 7 57.5 100 
 PAM  SN I         9 5 41.40       944.2 0.34            158           57.5 100 
 BRR  HZ IP     D  9 5 24.53                             152    0.4010 65.9 237 
 BRR  HN ES        9 5 39.67                             152    0.5210 65.9 237 
 BRR  HN I         9 5 40.73      1063.3 0.18            147           65.9 237 
 OCA  HZ EP   1    9 5 26.17                             144    0.25 7 89.8 352 
 OCA  HN ES        9 5 42.10                             144   -0.2310 89.8 352 
 OCA  HN I         9 5 44.40       922.5 0.28            145           89.8 352 
 BAR2 SZ IP     C  9 5 26.39                             143    0.1110 93.1 178 
 BAR2 SZ ES   1    9 5 42.49                             143   -0.48 7 93.1 178 
 BAR2 SZ I         9 5 43.75       718.1 0.18            140           93.1 178 
 CAPV BZ ES   1    9 5 45.84                             138    0.55 7  110  64 
 PTB  HZ EP     D  9 5 32.53                             124   -0.27 9  169 234 
 PTB  HN ES   1    9 5 54.66                             124    0.08 7  169 234 
 PTB  HN I         9 5 58.70       242.3 0.20            122            169 234 
 RUS  HZ EP   1    9 5 32.99                             124   -0.61 7  171 175 
 RUS  HE ES        9 5 55.07                             124   -0.93 9  171 175 
 SML  HZ IP     C  9 5 33.40                             123   -0.30 9  178 328 
 SML  HN ES   1    9 5 55.08                             123   -1.10 7  178 328 
 SML  HN I         9 5 56.12       424.1 0.12            123            178 328 
 ZAR  HZ EP   1    9 5 34.54                             122    0.48 7  182 272 
 ZAR  HN ES   4    9 5 57.93                             122    1.11 0  182 272 
 ZAR  HN I         9 5 59.79       593.7 0.16            120            182 272 
 TAM  HZ EP     C  9 5 35.29                             121    0.13 9  192 125 
 TAM  HN ES        9 5 58.54                             121   -0.25 9  192 125 
 TAM  HN I         9 5 59.65       129.1 0.32            121            192 125 
 URE  HZ EP   1    9 5 41.52                             113   -0.87 6  258 278 
 URE  HN ES   4    9 6  9.99                             113   -1.66 0  258 278 
 URE  HN I         9 6 14.72       243.4 0.24            112            258 278 
 NOR  HZ EP   1    9 5 44.86                             111    0.40 6  276 222 
 NOR  HN ES   4    9 6 15.42                             111    0.08 0  276 222 
 NOR  HN I         9 6 22.49       218.6 0.22            110            276 222 
 COD  HZ EP   1    9 5 45.14                             111    0.59 6  278 355 
 COD  HN ES   4    9 6 13.85                             111   -1.65 0  278 355 
 HEL  HZ EP   1    9 5 46.85                             110    0.36 5  291 242 
 HEL  HN ES   4    9 6 20.75                             110    1.80 0  291 242 
 HEL  HN I         9 6 30.59        53.7 0.34            109            291 242 
 ROSC BZ EP   4    9 5 51.05                             109    2.08 0  312 203 
 ROSC BN ES   4    9 6 26.92                             109    3.55 0  312 203 
 SDV  BZ EP     C  9 5 50.15                             108   -0.27 7  326  60 
 SDV  BN ES   4    9 6 23.61                             108   -2.33 0  326  60 
 DBB  SZ EP   4    9 5 51.39                             107    0.21 0  334 262 
 SJC  HZ EP   4    9 5 52.23                             106   -0.52 0  348 322 
 SJC  HN ES   4    9 6 27.04                             106   -3.06 0  348 322 
 SJC  HN I         9 6 30.35        29.7 0.42            106            348 322 
 VIL  SZ EP   2    9 5 56.36                             105    0.79 3  371 188 
 VIL  SN ES   2    9 6 36.42                             105    1.31 3  371 188 
 VIL  SN I         9 6 47.22       139.1 0.50            104            371 188 
 SMAR HN ES   4    9 6 43.83                             102   -2.82 0  427 345 
 URI  HZ EP   4    9 6  7.67                             100   -1.96 0  491  16 
 URI  HN ES   4    9 6 55.28                             100   -4.85 0  491  16 
                                                                                
