 2011  827 0348 43.8 L   6.806 -73.107142.1  RSN  8 0.4 2.0LRSN                1
 GAP=141        0.69       3.0     6.9  6.0 -0.1481E+01  0.6653E+01  0.2722E+01E
 Epicentro: LOS SANTOS - SANTANDER                                             3
 ACTION:UPD 12-07-13 15:54 OP:ep   STATUS:               ID:20110827034843 L   I
 2011-08-27-0347-03S.COL___161                                                 6
 STAT SP IPHASW D HRMM SECON CODA AMPLIT PERI AZIMU VELO AIN AR TRES W  DIS CAZ7
 BAR2 SZ EP   1    349  2.99                             169   -0.04 7 25.1 200 
 BAR2 SZ ES   1    349 17.42                             169   -0.61 7 25.1 200 
 BAR2 SZ I         349 19.08        30.5 0.27                          25.1 200 
 PAM  SN ES   2    349 22.82                             151    0.51 5 74.2  37 
 BRR  HZ IP     C  349  4.96                             150    0.2010 74.7 297 
 BRR  HZ I         349  5.33        39.5 0.11                          74.7 297 
 BRR  HE ES   1    349 21.63                             150    0.52 7 74.7 297 
 RUS  HZ EP   1    349  7.05                             143   -0.18 7  101 179 
 RUS  HN ES   1    349 25.48                             143   -0.02 7  101 179 
 RUS  HZ I         349 28.20        17.7 0.35                           101 179 
 OCA  SZ EP   1    349 11.49                             129   -0.33 7  160 352 
 OCA  SZ ES   1    349 33.32                             129   -0.36 7  160 352 
 OCA  SZ I         349 36.62         9.6 0.25                           160 352 
 NOR  SN ES   2    349 47.37                             117   -0.41 4  239 235 
 CHI  HZ EP   1    349 21.92                             116    0.42 6  250 196 
 CHI  HN ES   1    349 51.43                             116    0.53 6  250 196 
 CHI  HZ I         349 56.93         2.9 0.43                           250 196 
 PRA  HN ES   1    350 19.02                             106   -0.39 4  395 210 
                                                                                
