 2015  427 0550 34.8 L   6.562 -73.376 18.3  RSN  4 0.2 1.2LRSN                1
 GAP=113        0.57       2.1     2.6  7.6  0.3546E+01  0.1599E+02  0.9521E+01E
 Epicentro: HATO - SANTANDER                                                   3
 ACTION:UPD 15-06-03 16:57 OP:cam  STATUS:               ID:20150427055034 L   I
 OLDACT:REG 15-04-27 12:57 OP:stll STATUS:               ID:20150427054748     3
 2015-04-27-0547-48M.COL___274                                                 6
 STAT SP IPHASW D HRMM SECON CODA AMPLIT PERI AZIMU VELO AIN AR TRES W  DIS CAZ7
 BAR2 EZ EP        550 39.81                             129    0.1210 21.7  81 
 BAR2 EZ ES        550 43.58                             129    0.0510 21.7  81 
 BAR2 EZ I         550 45.14        17.0 0.18            161           21.7  81 
 BRR  HZ EP        550 46.15                             102   -0.1710 70.8 328 
 BRR  HN ES        550 55.18                             102   -0.1510 70.8 328 
 BRR  HZ I         550 55.86        18.0 0.10             92           70.8 328 
 RUS  HZ EP        550 48.49                             101    0.1810 80.8 156 
 RUS  HZ I         550 48.74         6.4 0.28             91           80.8 156 
 RUS  HN ES        550 58.57                             101   -0.3110 80.8 156 
 PTB  HZ EP        550 53.96                              97    0.3510  120 269 
 PTB  HN ES        551  8.27                              97   -0.0510  120 269 
 PTB  HZ I         551  9.95         5.1 0.30             91            120 269 
                                                                                
