 2011  227 0411 40.6 L   6.796 -73.200140.2  RSN  6 0.3 1.8LRSN                1
 GAP=153        0.83       3.8    15.9  8.1 -0.2824E+02  0.6330E+02 -0.7880E+01E
 Epicentro: ZAPATOCA - SANTANDER                                               3
 ACTION:UP  11-03-28 15:11 OP:jfem STATUS:               ID:20110227041140 L   I
 2011-02-27-0409-34S.COL___135                                                 6
 STAT SP IPHASW D HRMM SECON CODA AMPLIT PERI AZIMU VELO SNR AR TRES W  DIS CAZ7
 BAR2 SZ IP        411 59.68                             170     0.110   23 176 
 BAR2 SZ ES   1    412 14.80                             170     0.5 7   23 176 
 BAR2 SZ I         412 15.83        20.2 0.24                            23 176 
 RUS  HZ EP   1    412  3.56                             143    -0.2 7  101 173 
 RUS  HN ES   1    412 21.42                             143    -0.5 7  101 173 
 RUS  HZ I         412 22.58         8.5 0.40                           101 173 
 GRA  SZ EP        412  5.70                             135     0.210  128  20 
 GRA  SZ ES        412 25.00                             135     0.010  128  20 
 GRA  SZ I         412 26.32        10.0 0.29                           128  20 
 OCA  SZ EP        412  8.58                             128     0.1 9  160 355 
 OCA  SZ ES   1    412 29.55                             128    -0.6 7  160 355 
 OCA  SZ I         412 38.72         9.1 0.47                           160 355 
 CHI  HZ EP   2    412 17.33                             116    -0.4 4  247 194 
 CHI  HZ I         412 20.41         2.6 0.50                           247 194 
 PRA  HZ EP        412 33.83                             106     0.3 6  389 209 
                                                                                
