 2010  827 0922 52.5 L   6.785 -73.095146.3  RSN  8 0.2 1.6LRSN                1
 GAP=164        0.53       2.9     6.0  5.9 -0.5918E+01 -0.8694E+01  0.4910E+01E
 Epicentro: LOS SANTOS - SANTANDER                                             3
 ACTION:UP  10-09-07 10:58 OP:vdl  STATUS:               ID:20100827092252 L   I
 2010-08-27-0921-26S.COL___120                                                 6
 STAT SP IPHASW D HRMM SECON CODA AMPLIT PERI AZIMU VELO SNR AR TRES W  DIS CAZ7
 BAR2 SZ EP   1    923 12.05                             170    -0.2 7   24 205 
 BAR2 SZ I         923 28.69         7.6 0.12                            24 205 
 BRR  HZ IP     C  923 13.93                             151    -0.110   77 298 
 BRR  HZ I         923 14.14         9.6 0.32                            77 298 
 BRR  HE ES   1    923 31.00                             151     0.1 7   77 298 
 RUS  HZ EP   1    923 16.59                             144     0.4 7   99 179 
 RUS  HN ES   2    923 34.27                             144    -0.4 5   99 179 
 RUS  HZ I         923 36.05         5.4 0.36                            99 179 
 GUE  SZ EP   2    923 17.18                             139    -0.2 5  117   9 
 GRA  SZ IP        923 17.91                             137     0.110  126  15 
 GRA  SZ ES   1    923 37.67                             137     0.1 7  126  15 
 GRA  SZ I         923 38.81         7.4 0.34                           126  15 
 OCA  SZ EP   1    923 20.87                             129    -0.2 7  163 351 
 OCA  SZ ES   2    923 43.50                             129     0.1 5  163 351 
 OCA  SZ I         923 46.38         3.2 0.21                           163 351 
 CHI  HZ EP   2    923 30.61                             117     0.4 4  249 197 
 CHI  HZ I         923 30.82         1.9 0.41                           249 197 
 PRA  HZ EP   1    923 45.96                             107    -0.3 4  393 210 
 PRA  HE ES   2    924 28.69                             107     0.6 3  393 210 
 PRA  HZ I         924 34.66         2.0 0.40                           393 210 
                                                                                
