 2017  327 0902 37.3 L   6.791 -73.102156.3  RSN  8 0.4 1.7LRSN                1
 GAP=143        0.99       4.4     4.5  6.3 -0.6611E+00  0.6520E+01  0.1572E+00E
 Epicentro: LOS SANTOS - SANTANDER                                             3
 ACTION:UPD 17-05-25 18:45 OP:jn   STATUS:               ID:20170327090237 L   I
 OLDACT:REG 17-03-27 13:29 OP:and  STATUS:               ID:20170327084653     3
 2017-03-27-0858-00M.COL___348                                                 6
 STAT SP IPHASW D HRMM SECON CODA AMPLIT PERI AZIMU VELO AIN AR TRES W  DIS CAZ7
 BAR2 EZ EP        9 2 57.95                             171   -0.2710 23.7 202 
 BAR2 EZ ES        9 3 14.53                             171    0.0110 23.7 202 
 BAR2 EZ I         9 3 14.61         6.2 0.24            169           23.7 202 
 PAM  EZ EP        9 3  0.60                             153    0.0610 75.2  36 
 PAM  EN ES        9 3 18.53                             153   -0.1310 75.2  36 
 PAM  EZ I         9 3 20.26         2.4 0.26            156           75.2  36 
 BRR  HZ EP        9 3  0.08                             153    0.2110 75.9 297 
 BRR  HN ES        9 3 18.15                             153    0.6910 75.9 297 
 RUS  HZ EP        9 3  2.22                             146    0.1910 99.3 179 
 RUS  HN ES        9 3 20.74                             146   -0.5710 99.3 179 
 RUS  HZ I         9 3 21.43         3.9 0.18            146           99.3 179 
 PTB  HZ EP        9 3  5.40                             133   -0.16 9  152 260 
 PTB  HE ES        9 3 26.98                             133   -0.61 9  152 260 
 PTB  HZ I         9 3 29.37         5.0 0.14            133            152 260 
 SPBC HZ EP        9 3  7.32                             131    0.47 9  165 221 
 SPBC HN ES        9 3 30.44                             131    0.55 9  165 221 
 SPBC HZ I         9 3 36.29         9.3 0.22            131            165 221 
 ZAR  HZ EP        9 3 10.64                             124   -0.31 8  209 292 
 ZAR  HN ES        9 3 36.96                             124   -0.23 8  209 292 
 ZAR  HZ I         9 3 41.75        10.3 0.56            124            209 292 
 URE  HZ EP   4    9 3 21.70                             115    2.25 0  289 292 
 URE  HN ES   4    9 3 50.14                             115   -2.17 0  289 292 
 URE  HZ I         9 3 51.48         6.6 0.36            116            289 292 
                                                                                
