 2010  827 0737  8.3 L   6.791 -73.094139.9  RSN  6 0.2 1.5LRSN                1
 GAP=165        0.48       2.9     5.7  5.8  0.1497E+01 -0.1028E+02 -0.2935E+01E
 Epicentro: LOS SANTOS - SANTANDER                                             3
 ACTION:UP  10-09-07 10:58 OP:vdl  STATUS:               ID:20100827073708 L   I
 2010-08-27-0732-38S.COL___120                                                 6
 STAT SP IPHASW D HRMM SECON CODA AMPLIT PERI AZIMU VELO SNR AR TRES W  DIS CAZ7
 BAR2 SZ IP        737 27.20                             170     0.010   24 204 
 BAR2 SZ I         737 27.36         7.7 0.10                            24 204 
 BRR  HZ IP     C  737 29.05                             150    -0.110   77 297 
 BRR  HZ I         737 29.39        15.1 0.11                            77 297 
 BRR  HE ES   1    737 45.51                             150     0.1 7   77 297 
 RUS  HZ EP   1    737 31.25                             143    -0.1 7   99 179 
 RUS  HZ I         737 32.41         2.2 0.17                            99 179 
 RUS  HE ES   1    737 49.49                             143     0.1 7   99 179 
 GRA  SZ IP        737 33.03                             136     0.110  125  15 
 GRA  SZ I         737 54.61         4.6 0.44                           125  15 
 OCA  SZ EP   2    737 36.35                             128     0.0 5  162 351 
 OCA  SZ I         737 58.48         3.8 0.33                           162 351 
 PRA  HZ EP   1    738  2.49                             105     0.6 4  394 210 
 PRA  HN ES   2    738 43.13                             105    -0.5 3  394 210 
 PRA  HZ I         738 49.76         1.5 0.66                           394 210 
                                                                                
