 2010  627 0509 51.8 L   6.785 -73.107141.1  RSN 15 0.4 2.6LRSN                1
 GAP=129        0.94       3.1     5.7  5.6 -0.8608E+01  0.3454E+01  0.2708E+01E
 Epicentro: LOS SANTOS - SANTANDER                                             3
 ACTION:UP  10-08-24 10:13 OP:vdl  STATUS:               ID:20100627050951 L   I
 2010-06-27-0508-18S.COL___118                                                 6
 STAT SP IPHASW D HRMM SECON CODA AMPLIT PERI AZIMU VELO SNR AR TRES W  DIS CAZ7
 BAR2 SZ IP        510 10.80                             170    -0.110   23 202 
 BAR2 SZ ES   1    510 25.33                             170    -0.4 7   23 202 
 BRR  HZ IP     C  510 12.78                             150     0.010   76 298 
 BRR  HE ES   1    510 29.41                             150     0.4 7   76 298 
 BRR  HZ I         510 33.98        71.0 0.16                            76 298 
 RUS  HZ EP        510 14.87                             143    -0.110   99 178 
 RUS  HN ES   1    510 33.16                             143     0.1 7   99 178 
 RUS  HZ I         510 34.77        47.1 0.37                            99 178 
 BRI  SZ IP        510 15.58                             140     0.310  108  18 
 BRI  SZ ES   1    510 34.21                             140     0.6 7  108  18 
 BRI  SZ I         510 35.90        73.1 0.55                           108  18 
 GUE  SZ EP   2    510 16.04                             138    -0.1 5  117  10 
 GRA  SZ IP        510 16.92                             136     0.210  126  15 
 GRA  SZ ES   1    510 36.23                             136     0.2 7  126  15 
 OCA  SZ EP        510 19.48                             128    -0.5 9  162 352 
 OCA  SZ ES   1    510 41.10                             128    -0.8 7  162 352 
 OCA  SZ I         510 46.28        59.4 0.19                           162 352 
 CHI  HZ EP        510 29.20                             116     0.0 8  248 196 
 CHI  HN ES   1    510 58.39                             116     0.0 6  248 196 
 CHI  HZ I         511  1.72        18.5 0.48                           248 196 
 ROSC BZ EP        510 30.44                             116     0.6 8  254 212 
 ROSC BN ES   1    510 58.58                             116    -0.8 6  254 212 
 ROSC BZ I         511  5.33        17.2 0.12                           254 212 
 HEL  HZ EP   1    510 32.56                             113     0.3 6  276 256 
 HEL  HE ES   2    511  3.07                             113    -0.7 4  276 256 
 HEL  HZ I         511  9.92        18.0 0.49                           276 256 
 GUY  HZ EP        510 35.85                             111     0.3 7  304 236 
 RREF HZ EP   1    510 38.82                             110     0.8 5  324 230 
 RREF HN ES   2    511 14.09                             110     0.0 3  324 230 
 RREF HZ I         511 18.73        17.2 0.22                           324 230 
 DBB  SZ EP   2    510 39.39                             108    -0.2 3  344 274 
 SDV  BZ EP        510 40.74                             107    -0.7 6  358  50 
 SDV  BZ I         511 22.48        13.7 0.45                           358  50 
 PRA  HZ EP   1    510 44.83                             106    -0.4 4  393 210 
 PRA  HN ES   1    511 26.63                             106    -0.3 4  393 210 
 PRA  HZ I         511 31.79        12.1 0.21                           393 210 
                                                                                
