 2015  427 0425  4.7 L   6.851 -73.127141.4  RSN  8 0.5 1.8LRSN                1
 GAP=134        1.25       8.0     5.0  7.1 -0.1736E+02  0.6466E+01  0.5705E+01E
 Epicentro: LOS SANTOS - SANTANDER                                             3
 ACTION:UPD 15-06-03 16:57 OP:cam  STATUS:               ID:20150427042504 L   I
 OLDACT:REG 15-04-27 12:52 OP:stll STATUS:               ID:20150427041748     3
 2015-04-27-0417-48M.COL___274                                                 6
 STAT SP IPHASW D HRMM SECON CODA AMPLIT PERI AZIMU VELO AIN AR TRES W  DIS CAZ7
 BAR2 EZ EP        425 23.90                             168    0.0110 29.2 192 
 BAR2 EZ ES        425 38.69                             168   -0.2110 29.2 192 
 BAR2 EZ I         425 40.63         8.9 0.18            168           29.2 192 
 BRR  HZ IP     C  425 25.43                             152    0.1410 70.6 294 
 BRR  HN ES        425 41.82                             152    0.4310 70.6 294 
 BRR  HZ I         425 43.04         9.8 0.18            150           70.6 294 
 PAM  SZ EP        425 26.45                             152    0.3810 71.8  41 
 PAM  SZ I         425 26.57        11.8 0.18            153           71.8  41 
 PAM  SE ES        425 42.91                             152    0.1410 71.8  41 
 PTB  HZ EP        425 30.72                             130   -0.84 9  151 257 
 PTB  HN ES        425 51.88                             130   -0.66 9  151 257 
 PTB  HZ I         425 53.91        10.3 0.14            130            151 257 
 ZAR  HZ EP        425 36.65                             121   -0.15 9  204 290 
 ZAR  HN ES        426  1.74                             121   -0.13 9  204 290 
 ZAR  HZ I         426  6.88        10.6 0.40            121            204 290 
 HEL  HZ EP        425 46.41                             114    1.39 7  275 255 
 HEL  HN ES        426 16.13                             114   -0.38 7  275 255 
 HEL  HZ I         426 22.75         3.3 0.52            114            275 255 
 SOCV BZ EP        425 46.29                             112   -0.67 7  297  58 
 GUY2CHZ EP        425 48.54                             111   -0.08 7  306 234 
 GUY2CHN ES        426 23.75                             111    0.84 7  306 234 
 GUY2CHZ I         426 32.08         2.1 0.58                           306 234 
                                                                                
