 2012  127 0542 49.5 L   7.330 -73.398112.4  RSN  5 0.2 1.2LRSN                1
 GAP=214        0.38      10.4     4.5  5.5 -0.3165E+02  0.1088E+02 -0.1991E+02E
 Epicentro: SABANA DE TORRES - SANTANDER                                       3
 ACTION:UP  12-02-03 08:21 OP:REBC STATUS:               ID:20120127054249 L   I
 2012-01-27-0540-00M.COL___188                                                 6
 STAT SP IPHASW D HRMM SECON CODA AMPLIT PERI AZIMU VELO SNR AR TRES W  DIS CAZ7
 GIR2 SZ EP   1    543  5.60                             162     0.2 7   36 141 
 GIR2 SZ ES   2    543 17.60                             162    -0.2 5   36 141 
 BRR  HZ EP        543  5.56                             158     0.110   43 235 
 BRR  HN ES   2    543 17.99                             158     0.1 5   43 235 
 BRR  HZ I         543 19.28         4.9 0.12                            43 235 
 PAM  SZ EP   1    543  8.23                             144     0.0 7   77  89 
 PAM  SN ES   2    543 22.60                             144    -0.3 5   77  89 
 BAR2 SZ ES   3    543 23.59                             141     0.3 2   85 164 
 PTB  HZ EP   1    543 13.55                             124    -0.2 7  146 233 
 PTB  HN ES   3    543 32.57                             124    -0.2 2  146 233 
                                                                                
