 2013  127 0017 45.9 L   6.782 -73.162148.0  RSN  5 0.4 1.6LRSN                1
 GAP=234        0.82       5.6     8.0  7.0  0.2264E+02  0.3143E+01  0.1143E+02E
 Epicentro: LOS SANTOS - SANTANDER                                             3
 ACTION:UPD 13-02-15 09:17 OP:ep   STATUS:               ID:20130127001745 L   I
 2013-01-27-0008-49M.COL___186                                                 6
 STAT SP IPHASW D HRMM SECON CODA AMPLIT PERI AZIMU VELO AIN AR TRES W  DIS CAZ7
 BAR2 SZ ES   1    018 20.42                             171   -0.80 7 21.1 186 
 BRR  HZ EP        018  7.14                             153   -0.0910 70.6 301 
 BRR  HN ES        018 24.27                             153    0.3810 70.6 301 
 BRR  HN I         018 29.39         9.8 0.18            150           70.6 301 
 RUS  HZ EP        018  9.88                             145    0.1710 98.8 175 
 RUS  HN ES        018 28.58                             145    0.2710 98.8 175 
 RUS  HN I         018 30.10         4.7 0.42            144           98.8 175 
 PTB  HN ES   1    018 33.61                             133   -0.25 7  146 259 
 CHI  HZ EP        018 23.10                             118   -0.34 8  246 195 
 CHI  HN ES   1    018 52.92                             118    0.18 6  246 195 
 CHI  HN I         018 58.30         2.5 0.50            118            246 195 
                                                                                
