 2012  327 0704 55.8 L   5.874 -73.711114.1  RSN  4 0.0 1.6LRSN                1
 GAP=223        0.27       2.6     2.7  4.8  0.2858E+01  0.8194E+01  0.4351E+01E
 ACTION:UP  12-03-31 23:23 OP:EP   STATUS:               ID:20120327070455 L   I
 2012-03-27-0700-00M.COL___196                                                 6
 STAT SP IPHASW D HRMM SECON CODA AMPLIT PERI AZIMU VELO SNR AR TRES W  DIS CAZ7
 RUS  HZ EP        7 5 14.22                             147     0.010   70  88 
 RUS  HN ES   2    7 5 28.61                             147     0.0 5   70  88 
 BAR2 SZ EP        7 5 16.00                             136    -0.110   99  36 
 BAR2 SZ ES   1    7 5 31.89                             136     0.0 7   99  36 
 BAR2 SZ I         7 5 32.87         9.8 0.22                            99  36 
 PTB  HZ EP        7 5 16.80                             133     0.010  111 312 
 PTB  HN ES   3    7 5 33.12                             133    -0.1 2  111 312 
 BRR  HZ EP        7 5 19.26                             126     0.0 9  136 360 
 BRR  HZ I         7 5 20.38         5.0 0.34                           136 360 
 BRR  HE ES   1    7 5 37.48                             126     0.0 7  136 360 
                                                                                
