 2016 1127 0251 44.9 L   6.289 -73.655110.0  RSN  4 0.3 1.4LRSN                1
 GAP=230        0.68       6.7     3.4  7.6 -0.3123E+00  0.5300E+01  0.1416E+02E
 Epicentro: SANTA HELENA DEL OPON - SANTANDER                                  3
 ACTION:UPD 17-10-26 21:12 OP:lp   STATUS:               ID:20161127025144 L   I
 OLDACT:UP  16-11-27 14:01 OP:dani STATUS:               ID:20161127024749d    3
 OLDACT:DUP 16-11-27 13:57 OP:dani STATUS:               ID:20161127024749d    3
 OLDACT:UP  16-11-27 13:56 OP:dani STATUS:               ID:20161127024748     3
 OLDACT:UP  16-11-27 13:54 OP:dani STATUS:               ID:20161127024748     3
 OLDACT:UP  16-11-27 13:54 OP:dani STATUS:               ID:20161127024748     3
 OLDACT:UP  16-11-27 13:53 OP:dani STATUS:               ID:20161127024748     3
 OLDACT:REG 16-11-27 12:41 OP:dani STATUS:               ID:20161127024748     3
 2016-11-27-0248-00M.COL___349                                                 6
 STAT SP IPHASW D HRMM SECON CODA AMPLIT PERI AZIMU VELO AIN AR TRES W  DIS CAZ7
 BAR2 EZ EP        252  2.28                             148    0.2010 62.1  57 
 BAR2 EZ ES        252 15.61                             148    0.1510 62.1  57 
 BAR2 EZ I         252 16.86        13.1 0.25            149           62.1  57 
 BRR  HZ EP        252  3.64                             137   -0.2110 90.7 356 
 BRR  HN ES        252 18.38                             137   -0.2310 90.7 356 
 BRR  HZ I         252 19.22         3.8 0.13            136           90.7 356 
 PTB  HZ EP        252  4.07                             137    0.0210 92.9 287 
 PTB  HE ES        252 18.82                             137   -0.1510 92.9 287 
 PTB  HZ I         252 20.97         4.7 0.15            135           92.9 287 
 ZAR  HN ES   2    252 36.99                             115    1.11 4  188 315 
 ZAR  HZ I         252 39.77         2.5 0.28            115            188 315 
                                                                                
