 2011  327 0222  6.5 L   6.778 -73.077147.4  RSN  5 0.2 1.5LRSN                1
 GAP=196        0.47       4.4     5.3  5.4 -0.1396E+02  0.7819E+00  0.1659E+01E
 Epicentro: LOS SANTOS - SANTANDER                                             3
 ACTION:UP  11-06-16 14:35 OP:jfem STATUS:               ID:20110327022206 L   I
 2011-03-27-0220-27S.COL___138                                                 6
 STAT SP IPHASW D HRMM SECON CODA AMPLIT PERI AZIMU VELO SNR AR TRES W  DIS CAZ7
 BAR2 SZ EP   1    222 26.17                             170    -0.2 7   24 210 
 BAR2 SZ I         222 26.58         8.4 0.08                            24 210 
 BAR2 SZ ES   1    222 41.83                             170     0.0 7   24 210 
 BTL  SZ EP        222 26.56                             170     0.210   26 306 
 BRR  HZ EP        222 28.13                             150    -0.110   79 297 
 BRR  HN ES   1    222 45.39                             150     0.1 7   79 297 
 BRR  HZ I         222 47.15         7.7 0.17                            79 297 
 GRA  SZ EP   2    222 32.25                             137     0.4 5  126  14 
 GRA  SZ ES   1    222 51.50                             137    -0.2 7  126  14 
 GRA  SZ I         222 53.28         2.6 0.29                           126  14 
 NOR  SE ES   1    223 11.14                             118    -0.1 6  240 236 
                                                                                
