 2014  227 0643 22.2 L   6.808 -73.165142.3  RSN 14 0.5 2.0LRSN                1
 GAP=124        0.99       3.0     4.2  5.9 -0.3873E+01  0.7136E+01 -0.9971E+00E
 Epicentro: LOS SANTOS - SANTANDER                                             3
 OLDACT:REG 14-02-27 08:23 OP:y    STATUS:               ID:20140227063813     3
 ACTION:UPD 14-03-10 08:13 OP:ep   STATUS:               ID:20140227064322 L   I
 OLDACT:UP  14-02-28 09:26 OP:ep   STATUS:               ID:20140227064322 L   3
 OLDACT:UP  14-02-28 01:48 OP:CF   STATUS:               ID:20140227064322 L   3
 OLDACT:UP  14-02-27 13:07 OP:stll STATUS:               ID:20140227063813     3
 2014-02-27-0638-13M.COL___231                                                 6
 STAT SP IPHASW D HRMM SECON CODA AMPLIT PERI AZIMU VELO AIN AR TRES W  DIS CAZ7
 BAR2 SZ EP        643 41.70                             170    0.3010 24.0 185 
 BAR2 SZ ES   1    643 56.02                             170   -0.38 7 24.0 185 
 BAR2 SZ I         644  7.51        22.9 1.20            168           24.0 185 
 PAM  SZ EP   1    643 44.67                             150    0.61 7 78.1  41 
 PAM  SN ES        644  1.66                             150    0.5210 78.1  41 
 PAM  SZ I         644  3.28        15.4 0.48            157           78.1  41 
 RUS  HZ EP        643 45.66                             143   -0.0010  102 175 
 RUS  HN ES        644  4.05                             143    0.0610  102 175 
 RUS  SZ I         644  5.14        12.5 0.88            146            102 175 
 PTB  HZ EP        643 48.74                             132    0.06 9  146 258 
 PTB  HN ES        644  9.43                             132    0.07 9  146 258 
 PTB  SZ I         644 12.12        10.8 0.24            133            146 258 
 OCA  HN ES   1    644 11.33                             129   -0.56 7  159 354 
 SPBC HZ EP        643 50.73                             128    0.39 9  163 218 
 SPBC HE ES        644 11.67                             128   -0.65 9  163 218 
 SPBC SZ I         644 16.60        11.5 0.10            131            163 218 
 ZAR  HZ EP   4    643 55.58                             122    1.43 0  202 292 
 ZAR  HN ES   4    644 19.57                             122    0.48 0  202 292 
 ZAR  HZ I         644 26.79         7.2 0.12            125            202 292 
 NOR  HZ EP        643 57.37                             118   -0.20 8  233 234 
 NOR  HE ES        644 24.44                             118   -0.74 8  233 234 
 NOR  SZ I         644 32.64         7.7 0.28            120            233 234 
 SML  HZ EP        643 58.24                             117   -0.17 8  242 336 
 SML  HE ES        644 26.44                             117   -0.24 8  242 336 
 SML  SZ I         644 32.08         8.2 0.08            121            242 336 
 CHI  HZ EP   1    643 59.08                             116   -0.63 6  249 195 
 CHI  HN ES   1    644 28.87                             116   -0.13 6  249 195 
 CHI  HZ I         644 42.40         5.9 2.46            120            249 195 
 HEL  HZ EP   4    644  3.84                             114    1.84 0  270 255 
 HEL  HN ES   1    644 33.96                             114    0.89 6  270 255 
 HEL  HZ I         644 40.54         4.3 1.68            117            270 255 
 GUY2CHZ EP        644  6.20                             112    0.72 7  300 234 
 GUY2CHN ES   4    644 37.48                             112   -1.78 0  300 234 
 SDV  BZ EP        644 11.29                             107   -0.91 6  361  51 
 SDV  BN ES   4    644 48.60                             107   -2.63 0  361  51 
 PRA  HZ EP   1    644 15.94                             106    0.40 4  392 209 
 PRA  HN ES   1    644 57.83                             106    0.66 4  392 209 
 PRA  HZ I         645  5.69         8.6 3.30            109            392 209 
                                                                                
