 2010  427 0131 13.0 L   6.819 -72.872141.2  RSN  4 0.4 1.9LRSN                1
 GAP=284        0.58      12.1    19.8 10.9 -0.1133E+03  0.6212E+02  0.1326E+02E
 Epicentro: SAN ANDRES - SANTANDER                                             3
 ACTION:UPD 10-08-24 10:01 OP:vdl  STATUS:               ID:20100427013109 L   I
 2010-04-27-0129-23S.COL___104                                                 6
 STAT SP IPHASW D HRMM SECON CODA AMPLIT PERI AZIMU VELO AIN AR TRES W  DIS CAZ7
 BAR2 SZ EP        131 32.89                             163     0.210   43 234 
 BAR2 SZ ES   2    131 47.58                             163    -0.4 5   43 234 
 BRR  HZ EP   2    131 35.18                             145    -0.3 5   98 289 
 BRR  HZ I         131 55.88         8.8 0.23                            98 289 
 RREF BZ EP   3    132  2.39                             108     0.5 2  347 232 
 RREF BE ES   3    132 40.24                             108     0.3 2  347 232 
 RREF BZ I         132 42.51         2.6 0.27                           347 232 
 PRA  HZ EP   2    132  7.54                             105    -0.9 3  410 213 
 PRA  HN ES   2    132 52.03                             105     0.3 3  410 213 
 PRA  HZ I         132 55.50         4.4 0.23                           410 213 
                                                                                
