 2011  227 0438 15.4 L   6.686 -73.853 80.4  RSN  6 0.2 1.8LRSN                1
 GAP=125        0.50       2.4     3.4  9.3 -0.3701E+01  0.2205E+02 -0.1054E+02E
 Epicentro: PUERTO PARRA - SANTANDER                                           3
 ACTION:UP  11-03-28 15:11 OP:jfem STATUS:               ID:20110227043815 L   I
 2011-02-27-0436-39S.COL___135                                                 6
 STAT SP IPHASW D HRMM SECON CODA AMPLIT PERI AZIMU VELO SNR AR TRES W  DIS CAZ7
 BAR2 SZ EP        438 30.83                             133     0.210   75  98 
 BAR2 SZ ES   1    438 42.24                             133    -0.3 7   75  98 
 BAR2 SZ I         438 44.27        22.8 0.16                            75  98 
 RUS  HZ EP   1    438 35.53                             118    -0.2 7  122 136 
 RUS  HE ES   1    438 51.91                             118     0.3 7  122 136 
 RUS  HZ I         438 52.72         5.8 0.09                           122 136 
 GRA  SZ EP   1    438 41.32                             109    -0.1 7  176  41 
 GRA  SZ ES   1    439  1.97                             109     0.2 7  176  41 
 GRA  SZ I         439  4.05         8.5 0.15                           176  41 
 OCA  SZ EP   1    438 41.77                             108    -0.3 7  182  19 
 OCA  SZ ES   1    439  2.90                             108     0.0 7  182  19 
 OCA  SZ I         439  5.41         9.9 0.29                           182  19 
 HEL  HZ EP   1    438 43.60                             107    -0.1 7  193 254 
 HEL  HN ES   2    439  6.03                             107     0.2 4  193 254 
 HEL  HZ I         439  8.50        10.7 0.47                           193 254 
 RREF HZ EP   2    438 51.81                             102     0.1 4  258 220 
 RREF HN ES   2    439 19.91                             102    -0.1 4  258 220 
 RREF HZ I         439 26.60         4.0 0.32                           258 220 
                                                                                
