 2014  127 0101 33.4 L   6.173 -73.731106.0  RSN  8 0.4 1.5LRSN                1
 GAP= 67        0.92       2.8     2.9  6.2 -0.1437E+01  0.4164E+01  0.3453E+01E
 Epicentro: LANDAZURI - SANTANDER                                              3
 ACTION:UPD 14-03-13 09:58 OP:ep   STATUS:               ID:20140127010133 L   I
 OLDACT:REG 14-01-27 08:05 OP:stll STATUS:               ID:20140127005810     3
 2014-01-27-0058-10M.COL___240                                                 6
 STAT SP IPHASW D HRMM SECON CODA AMPLIT PERI AZIMU VELO AIN AR TRES W  DIS CAZ7
 SPBC HZ EP        1 1 50.43                             144    0.0810 68.9 213 
 SPBC HN ES        1 2  4.22                             144    0.6210 68.9 213 
 SPBC HZ I         1 2  6.23         5.8 0.26            148           68.9 213 
 BAR2 SZ EP        1 1 51.29                             142    0.1910 76.4  53 
 BAR2 SZ ES        1 2  5.08                             142    0.1410 76.4  53 
 BAR2 SZ I         1 2  7.02        26.7 0.36            146           76.4  53 
 RUS  HZ EP        1 1 51.33                             141   -0.2610 78.1 113 
 RUS  HN ES        1 2  5.47                             141   -0.3410 78.1 113 
 RUS  HZ I         1 2  6.81         4.8 0.20            147           78.1 113 
 PTB  HZ EP        1 1 51.24                             136   -0.6410 89.9 297 
 PTB  HN ES        1 2  5.91                             136   -0.4210 89.9 297 
 PTB  HZ I         1 2 10.06         5.9 0.16            139           89.9 297 
 BRR  HZ EP        1 1 53.15                             132    0.1210  103   1 
 BRR  HN ES        1 2  8.72                             132    0.3410  103   1 
 BRR  HZ I         1 2 11.54         4.6 0.40            136            103   1 
 NOR  HZ EP        1 1 56.89                             122   -0.08 9  143 242 
 NOR  HE ES        1 2 15.13                             122   -0.26 9  143 242 
 NOR  HZ I         1 2 18.77         6.2 0.16            126            143 242 
 CHI  HZ EP        1 2  0.40                             117    0.02 9  171 180 
 CHI  HN ES        1 2 21.27                             117   -0.19 9  171 180 
 GUY2CHZ EP        1 2  5.44                             112    0.69 8  209 240 
 GUY2CHN ES        1 2 29.39                             112    0.16 8  209 240 
 GUY2CHZ I         1 2 33.67         2.1 0.36                           209 240 
                                                                                
