 2011  727 0609  8.8 L   6.784 -73.022155.2  RSN 10 0.3 2.0LRSN                1
 GAP=168        0.60       2.9     4.3  4.1 -0.6945E+01  0.2981E+01  0.2792E+01E
 Epicentro: CEPITA - SANTANDER                                                 3
 ACTION:UPD 12-07-25 14:03 OP:epov STATUS:               ID:20110727060908 L   I
 2011-07-27-0605-04S.COL___141                                                 6
 STAT SP IPHASW D HRMM SECON CODA AMPLIT PERI AZIMU VELO AIN AR TRES W  DIS CAZ7
 BAR2 SZ IP        6 9 29.61                             169   -0.0310 27.6 220 
 BAR2 SZ ES        6 9 45.91                             169    0.0110 27.6 220 
 BAR2 SZ I         6 9 46.80        15.2 0.37                          27.6 220 
 PAM  SZ EP   1    6 9 31.62                             154   -0.05 7 71.1  30 
 PAM  SE ES   1    6 9 49.96                             154    0.44 7 71.1  30 
 BRR  HZ EP   1    6 9 31.96                             150    0.26 7 84.2 295 
 BRR  HE ES   1    6 9 49.48                             150   -0.10 7 84.2 295 
 BRR  HZ I         6 9 51.67        20.5 0.10                          84.2 295 
 BRI  SZ EP   1    6 9 33.84                             144    0.42 7  106  14 
 BRI  SZ ES        6 9 52.71                             144    0.0810  106  14 
 GRA  SZ EP   1    6 9 34.16                             139   -0.59 7  124  11 
 GRA  SZ ES   1    6 9 54.30                             139   -0.71 7  124  11 
 GRA  SZ I         6 9 54.87        11.4 0.29                           124  11 
 OCA  SZ EP   1    6 9 38.18                             131   -0.03 7  164 349 
 OCA  SZ ES   1    610  1.24                             131    0.08 7  164 349 
 OCA  SZ I         610  6.43        13.0 0.26                           164 349 
 CHI  HZ EP   1    6 9 47.29                             119    0.03 6  251 198 
 CHI  HN ES   2    610 17.37                             119    0.11 4  251 198 
 CHI  HZ I         610 23.33         4.4 0.36                           251 198 
 HEL  HZ EP   1    6 9 51.38                             115    0.48 6  285 257 
 HEL  HE ES   1    610 23.89                             115    0.14 6  285 257 
 RREF HZ EP   1    6 9 56.64                             112    0.24 5  331 231 
 RREF HN ES   1    610 33.00                             112   -0.55 5  331 231 
 RREF HZ I         610 39.50         5.9 0.26                           331 231 
 PRA  HZ EP   1    610  3.15                             108   -0.12 4  397 211 
 PRA  HN ES   1    610 45.45                             108   -0.31 4  397 211 
                                                                                
