 2016  927 0258 50.5 L   6.790 -73.140144.6  RSN 15 0.4 2.0LRSN                1
 GAP= 72        0.89       2.5     2.8  4.4 -0.5225E+00  0.1164E+01  0.1620E+01E
 Epicentro: LOS SANTOS - SANTANDER                                             3
 ACTION:UPD 17-08-17 21:16 OP:lp   STATUS:               ID:20160927025850 L   I
 OLDACT:UP  16-09-27 15:10 OP:edw  STATUS:               ID:20160927025743     3
 OLDACT:UP  16-09-27 15:08 OP:edw  STATUS:               ID:20160927025743     3
 OLDACT:REG 16-09-27 12:41 OP:edw  STATUS:               ID:20160927025743     3
 2016-09-27-0258-00M.COL___360                                                 6
 STAT SP IPHASW D HRMM SECON CODA AMPLIT PERI AZIMU VELO AIN AR TRES W  DIS CAZ7
 BAR2 EZ EP        259  9.72                             171   -0.2610 22.4 192 
 BAR2 EZ ES        259 25.29                             171    0.1210 22.4 192 
 BAR2 EZ I         259 26.12        33.3 0.24            170           22.4 192 
 BRR  HZ IP     C  259 11.48                             152   -0.1210 72.3 299 
 BRR  HN ES        259 28.47                             152    0.4210 72.3 299 
 BRR  HZ I         259 31.93        16.4 0.20            150           72.3 299 
 PAM  EZ EP        259 12.63                             150    0.0010 77.8  39 
 PAM  EZ I         259 29.96        11.6 0.15            150           77.8  39 
 PAM  EN ES        259 30.06                             150    0.1810 77.8  39 
 RUS  HZ EP        259 14.32                             144    0.2510 99.4 176 
 RUS  HN ES        259 31.88                             144   -0.5610 99.4 176 
 RUS  HZ I         259 33.85        15.8 0.26            143           99.4 176 
 PTB  HZ EP   9    259 16.63                             132   -0.79 0  148 259 
 PTB  HN ES        259 37.32                             131   -0.30 9  148 259 
 PTB  HZ I         259 39.93        16.0 0.12            130            148 259 
 TAM  HZ EP        259 18.14                             130    0.13 9  154 105 
 TAM  HN ES        259 39.39                             130   -0.07 9  154 105 
 OCA  HZ EP        259 18.02                             129   -0.82 9  161 353 
 OCA  HN ES        259 41.03                             129    0.09 9  161 353 
 SPBC HZ EP        259 19.17                             129    0.29 9  163 219 
 SPBC HN ES        259 40.66                             129   -0.35 9  163 219 
 SPBC HZ I         259 43.36        17.9 0.22            127            163 219 
 ZAR  HZ EP        259 23.19                             122    0.20 9  205 292 
 ZAR  HN ES        259 48.57                             122    0.25 9  205 292 
 ZAR  HZ I         259 53.68        18.4 0.24            120            205 292 
 NOR  HZ EP        259 25.99                             118   -0.17 8  235 235 
 NOR  HN ES        259 53.47                             118   -0.50 8  235 235 
 NOR  HZ I         3 0  2.84         7.7 0.16            117            235 235 
 CHI  HZ EP        259 28.23                             117    0.18 8  248 195 
 CHI  HN ES        259 58.20                             117    0.87 8  248 195 
 CHI  HZ I         3 0  4.89         2.3 0.09            116            248 195 
 HEL  HZ EP   4    259 32.50                             114    1.80 0  272 256 
 HEL  HN ES   4    3 0  4.09                             114    2.03 0  272 256 
 HEL  HZ I         3 0  8.24         4.5 0.24            113            272 256 
 GUY2CHZ EP   4    259 38.56                             112    4.51 0  301 235 
 GUY2CHN ES   4    3 0 13.46                             112    5.44 0  301 235 
 GUY2CHZ I         3 0 17.56         2.6 0.12                           301 235 
 VIL  EZ EP        259 33.84                             112    0.07 7  302 192 
 VIL  EE ES   4    3 0 10.32                             112    2.81 0  302 192 
 PTGC HZ EP   4    259 33.26                             111   -0.91 0  307 159 
 PTGC HN ES   4    3 0  6.13                             111   -2.10 0  307 159 
 ARGC HZ EP   4    259 40.55                             108    0.28 0  360 340 
 ARGC HN ES   4    3 0 19.53                             108    0.45 0  360 340 
 SJC  HZ EP   4    259 44.11                             105   -2.07 0  410 327 
 SJC  HN ES   4    3 0 24.81                             105   -4.80 0  410 327 
 SJC  HZ I         3 0 29.26         5.2 0.52            104            410 327 
                                                                                
