 2011 1027 0015  7.4 L   6.724 -73.091137.4  RSN  4 0.1 1.5LRSN                1
 GAP=147        0.32       3.2     4.8  5.0 -0.1470E+01 -0.3948E+01 -0.7247E+00E
 Epicentro: JORDAN - SANTANDER                                                 3
 ACTION:UPD 12-07-13 16:06 OP:ep   STATUS:               ID:20111027001507 L   I
 2011-10-27-0000-00M.COL___177                                                 6
 STAT SP IPHASW D HRMM SECON CODA AMPLIT PERI AZIMU VELO AIN AR TRES W  DIS CAZ7
 BAR2 SZ EP   1    015 25.95                             172    0.02 7 17.7 215 
 BAR2 SZ ES   2    015 40.18                             172   -0.19 5 17.7 215 
 BAR2 SZ I         015 42.35         9.9 0.29                          17.7 215 
 PAM  SN ES   2    015 45.82                             148    0.07 5 80.7  32 
 BRR  HZ EP   2    015 27.99                             148   -0.26 5 80.7 302 
 BRR  HZ I         015 36.68        14.5 0.27                          80.7 302 
 PAM  SZ EP   1    015 28.93                             148   -0.02 7 80.7  32 
 BRR  HN ES   2    015 44.71                             148    0.20 5 80.7 302 
 RUS  HZ EP   2    015 29.90                             145    0.19 5 91.9 179 
 RUS  HZ I         015 30.85         2.4 0.09                          91.9 179 
 RUS  HN ES   2    015 47.10                             145   -0.01 5 91.9 179 
                                                                                
