 2015  127 0255  9.7 L   6.784 -73.110153.6  RSN  7 0.2 1.5LRSN                1
 GAP=142        0.53       2.4     2.8  4.5  0.1388E+00  0.2887E+01  0.2121E+01E
 Epicentro: LOS SANTOS - SANTANDER                                             3
 ACTION:UPD 15-03-02 15:42 OP:nd   STATUS:               ID:20150127025509 L   I
 OLDACT:REG 15-01-27 12:59 OP:cam  STATUS:               ID:20150127024819     3
 2015-01-27-0248-19M.COL___277                                                 6
 STAT SP IPHASW D HRMM SECON CODA AMPLIT PERI AZIMU VELO AIN AR TRES W  DIS CAZ7
 BAR2 EZ EP     D  255 30.32                             171    0.0310 22.6 201 
 BAR2 EZ I         255 47.80         7.9 0.32            170           22.6 201 
 BRR  HZ EP        255 32.11                             152    0.1410 75.5 298 
 BRR  HN ES        255 49.51                             152    0.1910 75.5 298 
 BRR  HN I         255 49.63        15.5 0.26            151           75.5 298 
 PAM  SZ EP   1    255 32.92                             152    0.19 7 76.4  36 
 PAM  SN ES        255 50.50                             152   -0.1710 76.4  36 
 PAM  SZ I         255 51.12         3.4 0.18            150           76.4  36 
 RUS  HZ EP        255 34.14                             146    0.0110 98.6 178 
 RUS  HN ES        255 53.04                             146   -0.1110 98.6 178 
 RUS  HZ I         255 53.63         2.6 0.22            142           98.6 178 
 PTB  HZ EP   1    255 37.02                             133   -0.65 7  151 260 
 PTB  HN ES   4    255 57.92                             133   -1.53 0  151 260 
 PTB  HZ I         256  3.81         3.4 0.24            130            151 260 
 SPBC HZ EP        255 39.14                             130    0.19 9  164 220 
 SPBC HN ES        256  1.81                             130    0.07 9  164 220 
 SPBC HZ I         256  5.21         5.3 0.42            127            164 220 
 ZAR  HN ES        256  9.06                             123   -0.14 8  208 292 
                                                                                
