 2013  727 0041 27.8 L   6.780 -73.207141.5  RSN  5 0.3 1.5LRSN                1
 GAP=170        0.66       5.5     6.1  6.4  0.1425E+02  0.1161E+02  0.1032E+02E
 Epicentro: ZAPATOCA - SANTANDER                                               3
 ACTION:UPD 13-08-12 10:40 OP:ep   STATUS:               ID:20130727004127 L   I
 OLDACT:UP  13-07-27 10:06 OP:cam  STATUS:               ID:20130727003959     3
 OLDACT:REG 13-07-27 08:11 OP:cam  STATUS:               ID:20130727003959     3
 2013-07-27-0039-59M.COL___268                                                 6
 STAT SP IPHASW D HRMM SECON CODA AMPLIT PERI AZIMU VELO AIN AR TRES W  DIS CAZ7
 BAR2 SZ ES   1    042  1.37                             171   -0.40 7 20.9 173 
 GIR2 SZ ES   1    042  1.74                             166   -0.29 7 33.1   3 
 BRR  HZ EP        041 48.39                             153    0.1410 66.5 303 
 BRR  HN ES        042  4.50                             153    0.3110 66.5 303 
 BRR  HZ I         042  9.26        10.1 0.42            152           66.5 303 
 RUS  HZ EP   1    041 50.85                             143   -0.19 7 99.0 172 
 RUS  HN ES   1    042  9.60                             143    0.44 7 99.0 172 
 RUS  HZ I         042 10.22         5.5 0.30            146           99.0 172 
 PTB  HZ EP   1    041 53.72                             132   -0.08 7  141 259 
 PTB  HN ES   1    042 13.74                             132   -0.33 7  141 259 
 PTB  HZ I         042 17.14         3.7 0.24            133            141 259 
                                                                                
