 2014 1027 0852 19.8 L   6.787 -73.142134.0  RSN  5 0.5 1.3LRSN                1
 GAP=138        1.16       5.3     6.9 12.5 -0.1981E+01  0.4476E+01  0.1354E+02E
 Epicentro: LOS SANTOS - SANTANDER                                             3
 ACTION:UPD 14-11-29 23:57 OP:nd   STATUS:               ID:20141027085219 L   I
 OLDACT:UP  14-10-30 10:05 OP:mh   STATUS:               ID:20141027084743     3
 OLDACT:UP  14-10-30 09:54 OP:mh   STATUS:               ID:20141027084743     3
 OLDACT:REG 14-10-29 20:06 OP:spq  STATUS:               ID:20141027084743     3
 2014-10-27-0847-43M.COL___271                                                 6
 STAT SP IPHASW D HRMM SECON CODA AMPLIT PERI AZIMU VELO AIN AR TRES W  DIS CAZ7
 BRR  HZ EP        852 39.53                             150   -0.2110 72.3 299 
 BRR  HN ES        852 54.71                             150   -0.5910 72.3 299 
 BRR  HZ I         853  0.27         3.5 0.08            152           72.3 299 
 PAM  SN ES   1    852 56.99                             148   -0.23 7 78.2  39 
 PAM  SZ I         852 59.88         6.2 0.44            153           78.2  39 
 RUS  HZ EP        852 42.50                             141    0.2110 99.1 176 
 RUS  HN ES   1    853  0.02                             141    0.18 7 99.1 176 
 PTB  HZ EP   1    852 44.92                             129   -0.91 7  148 259 
 PTB  HN ES        853  6.78                             129    0.63 9  148 259 
 PTB  HZ I         853  8.87         2.8 0.34            133            148 259 
 OCA  HN ES        853  9.46                             126    0.61 9  162 353 
                                                                                
