 2012  627 0007 47.7 L   6.751 -73.140124.5  RSN  5 0.2 2.1LRSN                1
 GAP=140        0.41       2.9     3.1  4.9 -0.2474E+01  0.3402E+01 -0.1986E+01E
 Epicentro: LOS SANTOS - SANTANDER                                             3
 ACTION:UPD 12-08-06 17:52 OP:ep   STATUS:               ID:20120627000747 L   I
 2012-06-27-0000-00M.COL___201                                                 6
 STAT SP IPHASW D HRMM SECON CODA AMPLIT PERI AZIMU VELO AIN AR TRES W  DIS CAZ7
 BAR2 SZ EP   1    0 8  4.96                             171    0.24 7 18.2 195 
 BAR2 SZ ES   1    0 8 17.74                             171   -0.22 7 18.2 195 
 BAR2 SZ I         0 8 22.31        50.8 0.18                          18.2 195 
 BRR  HZ EP   1    0 8  6.97                             147    0.11 7 74.5 302 
 PAM  SZ EP   1    0 8  7.79                             145   -0.22 7 81.2  37 
 PAM  SE ES   1    0 8 23.95                             145    0.13 7 81.2  37 
 RUS  HZ EP   1    0 8  8.89                             141   -0.15 7 95.1 176 
 RUS  HN ES   1    0 8 25.79                             141    0.14 7 95.1 176 
 RUS  HZ I         0 8 28.63        18.7 0.20                          95.1 176 
 PTB  HN ES   1    0 8 32.74                             127   -0.03 7  147 261 
                                                                                
