 2010 1027 0225 39.3 L   6.803 -73.143147.2  RSN  9 0.3 1.9LRSN                1
 GAP=159        0.68       2.9     7.0  5.9 -0.4688E+01 -0.4184E+00  0.2357E+01E
 Epicentro: LOS SANTOS - SANTANDER                                             3
 ACTION:UP  11-02-18 11:12 OP:tino STATUS:               ID:20101027022539 L   I
 2010-10-27-0223-01S.COL___128                                                 6
 STAT SP IPHASW D HRMM SECON CODA AMPLIT PERI AZIMU VELO SNR AR TRES W  DIS CAZ7
 BTL  SZ EP        225 59.23                             172     0.210   19 313 
 BAR2 SZ IP        225 58.93                             170    -0.210   24 191 
 BAR2 SZ I         225 59.29        20.9 0.40                            24 191 
 BAR2 SZ ES   2    226 14.43                             170    -0.1 5   24 191 
 BRR  HZ IP     C  226  0.91                             152     0.310   71 298 
 BRR  HN ES   1    226 17.43                             152     0.2 7   71 298 
 BRR  HZ I         226 20.56        24.5 0.08                            71 298 
 RUS  HZ EP   1    226  2.80                             144    -0.4 7  101 176 
 RUS  HN ES   1    226 21.68                             144    -0.2 7  101 176 
 RUS  HZ I         226 24.54         5.2 0.53                           101 176 
 GRA  SZ IP        226  4.74                             137     0.110  125  17 
 GRA  SZ ES   1    226 24.56                             137     0.2 7  125  17 
 GRA  SZ I         226 25.59        16.6 0.33                           125  17 
 OCA  SZ EP   1    226  7.60                             130    -0.1 7  160 353 
 OCA  SZ ES   1    226 29.21                             130    -0.6 7  160 353 
 OCA  SZ I         226 34.11        14.4 0.50                           160 353 
 NOR  SZ EP   2    226 14.73                             119    -0.4 4  235 235 
 CHI  HZ EP   1    226 17.09                             117     0.0 6  249 195 
 CHI  HN ES   2    226 47.28                             117     0.7 4  249 195 
 CHI  HZ I         226 49.88         3.8 0.54                           249 195 
 PRA  HZ EP   1    226 33.32                             107     0.4 4  392 210 
 PRA  HN ES   2    227 13.98                             107    -0.8 3  392 210 
                                                                                
