 2012  127 0041 13.6 L   6.758 -73.147142.7  RSN 13 0.4 2.2LRSN                1
 GAP=138        0.75       2.8     3.4  4.7 -0.1458E+01  0.4371E+01  0.2534E+01E
 Epicentro: LOS SANTOS - SANTANDER                                             3
 ACTION:UP  12-02-03 08:21 OP:REBC STATUS:               ID:20120127004113 L   I
 2012-01-27-0040-00M.COL___188                                                 6
 STAT SP IPHASW D HRMM SECON CODA AMPLIT PERI AZIMU VELO SNR AR TRES W  DIS CAZ7
 BAR2 SZ EP        041 32.83                             172     0.010   19 192 
 BAR2 SZ ES   1    041 47.32                             172    -0.4 7   19 192 
 BAR2 SZ I         041 50.34        41.0 0.14                            19 192 
 GIR2 SZ EP        041 32.94                             165    -0.110   36 352 
 GIR2 SZ ES   1    041 48.42                             165     0.2 7   36 352 
 BRR  HZ IP     C  041 34.75                             151     0.210   73 302 
 BRR  HE ES   1    041 51.59                             151     0.7 7   73 302 
 PAM  SZ EP        041 35.69                             149     0.010   81  38 
 PAM  SN ES   1    041 52.39                             149    -0.6 7   81  38 
 RUS  HZ EP        041 36.74                             144     0.010   96 176 
 RUS  HE ES   1    041 55.15                             144     0.4 7   96 176 
 RUS  HZ I         041 56.98        14.5 0.43                            96 176 
 PTB  HZ EP   1    041 39.55                             131    -0.7 7  147 261 
 PTB  HE ES   1    042  0.58                             131    -0.4 7  147 261 
 OCA  SZ EP   1    041 42.36                             128     0.2 7  165 353 
 OCA  SZ ES   1    042  4.16                             128    -0.2 7  165 353 
 OCA  SZ I         042  8.37        16.2 0.37                           165 353 
 ZAR  HZ EP   1    041 46.23                             121     0.2 6  206 293 
 ZAR  HN ES   1    042 11.45                             121     0.1 6  206 293 
 ZAR  HZ I         042 17.60        24.8 0.34                           206 293 
 NOR  SZ EP   1    041 48.45                             118    -0.4 6  232 235 
 NOR  SN ES   1    042 16.10                             118    -0.3 6  232 235 
 CHI  HZ EP   1    041 50.85                             117     0.2 6  244 195 
 CHI  HE ES   1    042 19.84                             117     0.3 6  244 195 
 CHI  HZ I         042 26.09         6.0 0.27                           244 195 
 HEL  HZ EP   1    041 53.94                             114     0.4 6  271 257 
 HEL  HE ES   1    042 24.70                             114     0.0 6  271 257 
 HEL  HZ I         042 31.30        11.3 0.64                           271 257 
 RREF HZ EP   1    041 59.81                             110     0.6 5  319 230 
 RREF HE ES   2    042 34.38                             110    -0.5 3  319 230 
 RREF HZ I         042 44.07        11.1 0.22                           319 230 
 PRA  HZ EP   2    042  6.36                             106    -0.2 3  388 210 
 PRA  HN ES   2    042 47.14                             106    -0.7 3  388 210 
                                                                                
