 2017  827 0822 14.3 L   6.805 -73.108151.3  RSN 35 0.6 2.9LRSN                1
 GAP= 56        1.27       3.1     3.2  5.1 -0.1555E+01  0.3884E+01  0.1166E+01E
 Epicentro: LOS SANTOS - SANTANDER                                             3
 ACTION:UPD 17-09-04 20:25 OP:rebc STATUS:               ID:20170827082214 L   I
 OLDACT:UP  17-08-27 17:37 OP:edw  STATUS:               ID:20170827081737     3
 OLDACT:REG 17-08-27 13:30 OP:edw  STATUS:               ID:20170827081737     3
 2017-08-27-0818-00M.COL___411                                                 6
 STAT SP IPHASW D HRMM SECON CODA AMPLIT PERI AZIMU VELO AIN AR TRES W  DIS CAZ7
 BAR2 EZ IP     D  822 34.62                             170    0.0110 24.9 199 
 BAR2 EZ ES        822 50.01                             170   -0.4610 24.9 199 
 BAR2 EZ I         822 50.81       265.6 0.16            168           24.9 199 
 PAM  EZ IP     D  822 37.61                             153    0.6910 74.4  37 
 PAM  EN ES        822 54.98                             153    0.4010 74.4  37 
 PAM  EZ I         822 59.60       100.2 0.44            155           74.4  37 
 BRR  HZ IP     D  822 36.63                             152    0.4110 74.6 297 
 BRR  HN ES        822 53.97                             152    0.6310 74.6 297 
 BRR  HZ I         822 54.82       161.5 0.12            149           74.6 297 
 RUS  HZ IP     C  822 38.40                             145   -0.2110  101 178 
 RUS  HN ES        822 56.75                             145   -0.8310  101 178 
 RUS  HZ I         822 58.18       150.1 0.32            145            101 178 
 TAM  HZ IP     D  822 42.87                             132    0.81 9  151 106 
 TAM  HN ES        823  2.92                             132   -0.80 9  151 106 
 TAM  HZ I         823  3.81        56.7 0.26            135            151 106 
 SPBC HZ EP        822 43.37                             130   -0.13 9  166 220 
 SPBC HN ES        823  5.30                             130   -0.98 9  166 220 
 SPBC HZ I         823 12.55       203.8 0.10            129            166 220 
 YPLC HZ EP        822 44.72                             128    0.38 9  175 153 
 YPLC HN ES        823  8.60                             128    0.81 9  175 153 
 YPLC HZ I         823 10.05        56.1 0.26            129            175 153 
 ZAR  HZ EP        822 47.43                             123   -0.03 8  208 292 
 ZAR  HN ES        823 13.17                             123   -0.18 8  208 292 
 ZAR  HZ I         823 19.99       140.3 0.22            122            208 292 
 TABC EZ EP   4    822 51.84                             120    1.20 0  232 212 
 TABC EZ ES        823 20.12                             120    1.12 8  232 212 
 TABC EZ I         823 23.13        69.4 0.38            120            232 212 
 NOR  HZ EP        822 50.53                             119   -0.20 8  238 235 
 NOR  HN ES   4    823 17.73                             119   -1.43 0  238 235 
 NOR  HZ I         823 26.16        84.2 0.26            118            238 235 
 CHI  HZ EP        822 52.49                             118    0.02 8  250 196 
 CHI  HN ES        823 21.73                             118   -0.52 8  250 196 
 CHI  HZ I         823 27.16        32.2 0.26            118            250 196 
 ROSC BZ EP   4    822 54.06                             117    1.07 0  255 212 
 ROSC BN ES        823 24.32                             117    1.14 8  255 212 
 ROSC BZ I         823 30.34        83.3 0.45            117            255 212 
 HEL  HZ EP        822 55.28                             115    0.04 7  276 256 
 HEL  HN ES        823 26.56                             115   -0.62 7  276 256 
 HEL  HZ I         823 35.24        45.1 0.26            115            276 256 
 URE  HZ EP        822 55.07                             114   -0.96 7  287 292 
 URE  HN ES   4    823 27.11                             114   -1.48 0  287 292 
 URE  HZ I         823 39.89        58.2 0.16            114            287 292 
 GUY2CHZ EP        822 58.88                             113    0.32 7  305 235 
 GUY2CHN ES   4    823 35.74                             113    2.64 0  305 235 
 GUY2CHZ I         823 40.74        67.2 0.26                           305 235 
 VIL  EZ EP        822 58.11                             113   -0.00 7  305 192 
 VIL  EE ES   4    823 33.66                             113    1.36 0  305 192 
 VIL  EZ I         823 44.11        45.8 0.28            113            305 192 
 PTGC HZ IP   9 C  822 57.40                             113   -0.88 0  308 159 
 PTGC HN ES        823 30.92                             113   -0.80 7  308 159 
 PTGC HZ I         823 35.34        20.8 0.36            113            308 159 
 LL6C HZ EP        822 59.53                             111   -0.66 7  325 357 
 LL6C HN ES   4    823 33.93                             111   -2.06 0  325 357 
 LL6C HZ I         823 38.77        15.0 0.40            112            325 357 
 ELA  HZ EP   4    823  3.55                             111    1.78 0  333 230 
 ELA  HE ES   4    823 41.86                             111    3.05 0  333 230 
 ELA  HZ I         823 47.56        42.0 0.60            111            333 230 
 DBB  EZ EP        823  2.55                             110    0.10 7  344 274 
 DBB  EN ES   4    823 38.41                             110   -1.62 0  344 274 
 DBB  EZ I         823 41.49        26.5 0.48            110            344 274 
 SDV  BZ EP        823  4.40                             109    0.26 6  357  50 
 SDV  B2 ES        823 42.11                             109   -0.91 6  357  50 
 SDV  BZ I         823 43.86        14.4 0.35            110            357  50 
 ARGC HZ EP   4    823  5.13                             109    0.87 0  360 340 
 ARGC HN ES   4    823 44.17                             109    0.93 0  360 340 
 ARGC HZ I         823 53.51        15.4 0.34            109            360 340 
 ANIL HZ EP   4    823  5.76                             109    1.08 0  361 225 
 ANIL HN ES        823 44.22                             109    0.23 6  361 225 
 PRA  HZ EP        823  7.86                             107   -0.43 6  395 210 
 PRA  HN ES        823 49.67                             107   -0.75 6  395 210 
 PRA  HZ I         823 58.45        35.3 0.44            107            395 210 
 ORTC HZ EP        823  8.60                             107   -0.13 6  398 217 
 ORTC HN ES        823 52.20                             107    1.00 6  398 217 
 ORTC HZ I         823 57.94        21.2 0.20            107            398 217 
 PAL  HZ EP        823 10.34                             106    0.26 6  409 239 
 PAL  HN ES        823 53.14                             106   -0.45 6  409 239 
 PAL  HZ I         823 58.65        16.9 0.52            106            409 239 
 SJC  HZ EP   4    823  8.71                             106   -1.53 0  411 326 
 SJC  HN ES   4    823 50.67                             106   -3.22 0  411 326 
 SJC  HZ I         823 55.10        17.6 0.56            106            411 326 
 GUA  EZ EP        823 16.74                             104   -0.86 5  474 174 
 GUA  EN ES        824  6.04                             104   -0.94 5  474 174 
 GUA  EZ I         824 10.02        11.7 0.18            104            474 174 
 YOT  HZ EP   4    823 19.25                             104    1.36 0  475 229 
 YOT  HN ES   4    824  9.98                             104    2.47 0  475 229 
 SMAR HZ EP   2    823 20.58                             103    0.22 2  497 346 
 SMAR HN ES   4    824  8.62                             103   -3.28 0  497 346 
 MACC HZ EP   4    823 21.24                             102   -2.03 0  522 189 
 MACC HN ES   4    824 14.10                             102   -2.98 0  522 189 
 MACC HZ I         824 18.09         6.6 0.38            102            522 189 
 URI  HZ EP   4    823 25.51                             101   -1.73 0  555  13 
 URI  HN ES   4    824 19.64                             101   -4.51 0  555  13 
 URI  HZ I         824 26.94         3.4 0.42            102            555  13 
 JAMC HZ EP   2    823 27.43                             101   -0.69 2  560 225 
 JAMC HN ES   4    824 20.63                             101   -5.08 0  560 225 
 JAMC HZ I         824 33.80         3.0 0.24            101            560 225 
 MAL  EZ EP        823 30.15                             101    2.23 3  561 237 
 MAL  EE ES        824 25.30                             101   -0.06 3  561 237 
 MAL  EZ I         824 34.21         5.1 0.48            101            561 237 
 GARC HZ EP        823 28.94                             101   -1.00 3  575 207 
 GARC HN ES   4    824 25.38                             101   -3.58 0  575 207 
 GARC HZ I         824 27.18        11.4 0.18            101            575 207 
 POP2 HZ EP        823 34.81                             100    0.04 3  616 220 
 POP2 HN ES        824 37.73                             100    0.17 3  616 220 
 POP2 HZ I         824 42.69         1.5 0.64            100            616 220 
                                                                                
