 2014  527 0918  6.5 L   6.797 -73.145147.0  RSN 16 0.4 2.3LRSN                1
 GAP=137        0.87       2.4     3.5  4.6 -0.1293E+01  0.5359E+01  0.7030E+00E
 Epicentro: LOS SANTOS - SANTANDER                                             3
 ACTION:UPD 15-03-16 17:01 OP:nd   STATUS:               ID:20140527091806 L   I
 OLDACT:DUP 14-05-27 18:29 OP:mh   STATUS:               ID:20140527090806d    3
 2014-05-27-0908-05M.COL___261                                                 6
 STAT SP IPHASW D HRMM SECON CODA AMPLIT PERI AZIMU VELO AIN AR TRES W  DIS CAZ7
 BAR2 SZ IP     C  918 26.28                             171   -0.0010 23.0 190 
 BAR2 SZ ES   1    918 41.75                             171    0.05 7 23.0 190 
 BAR2 SZ I         918 43.08        47.8 0.10            167           23.0 190 
 BRR  HZ IP     C  918 28.20                             153    0.3910 71.4 299 
 BRR  HN ES   1    918 44.75                             153    0.34 7 71.4 299 
 BRR  HZ I         918 50.48        31.1 0.28            150           71.4 299 
 PAM  SZ EP        918 29.05                             151    0.1810 77.6  39 
 PAM  SN ES        918 46.21                             151   -0.1010 77.6  39 
 PAM  SZ I         918 48.47        20.1 0.27            158           77.6  39 
 RUS  HZ EP        918 30.11                             144   -0.2510  100 176 
 RUS  HN ES        918 48.60                             144   -0.3510  100 176 
 RUS  HZ I         918 50.40        10.5 0.15            147            100 176 
 PTB  HZ EP        918 32.87                             132   -0.71 9  148 259 
 PTB  HN ES   1    918 54.64                             132   -0.05 7  148 259 
 PTB  HZ I         919  1.59        32.0 0.26            132            148 259 
 OCA  HZ EP        918 34.82                             130   -0.14 9  161 353 
 OCA  HN ES   1    918 57.18                             130    0.04 7  161 353 
 OCA  HZ I         919  2.19        23.9 0.24            133            161 353 
 SPBC HZ EP        918 35.21                             129    0.13 9  163 219 
 SPBC HN ES        918 57.70                             129    0.34 9  163 219 
 SPBC HZ I         919  4.43        49.6 0.09            130            163 219 
 ZAR  HZ EP        918 38.66                             123   -0.40 9  204 292 
 ZAR  HN ES        919  4.73                             123    0.29 9  204 292 
 ZAR  HZ I         919 10.98        26.9 0.33            124            204 292 
 NOR  HZ EP        918 42.22                             119   -0.08 8  235 235 
 NOR  HN ES   1    919 10.35                             119    0.15 6  235 235 
 NOR  HZ I         919 13.96        19.7 0.29            120            235 235 
 SML  HZ EP        918 42.70                             118   -0.55 8  244 335 
 SML  HN ES   1    919 12.07                             118    0.17 6  244 335 
 SML  HZ I         919 15.99        44.8 0.14            120            244 335 
 CHI  HZ EP        918 44.29                             117    0.05 8  248 195 
 CHI  HN ES        919 13.65                             117   -0.02 8  248 195 
 CHI  HZ I         919 21.44         6.9 0.06            120            248 195 
 ROSC BZ EP   1    918 45.47                             117    0.80 6  252 211 
 ROSC BN ES   4    919 13.07                             117   -1.36 0  252 211 
 ROSC BZ I         919 24.03        16.8 0.30            119            252 211 
 HEL  HZ EP        918 47.55                             115    0.76 8  272 256 
 HEL  HN ES   1    919 17.72                             115   -0.47 6  272 256 
 HEL  HZ I         919 27.12        10.0 0.37            116            272 256 
 URE  HZ EP   4    918 46.14                             114   -1.53 0  284 292 
 URE  HN ES   4    919 15.91                             114   -3.85 0  284 292 
 GUY2CHZ EP        918 50.33                             112    0.17 7  301 235 
 GUY2CHN ES   1    919 22.77                             112   -1.43 5  301 235 
 GUY2CHZ I         919 33.34        11.1 0.34                           301 235 
 PTGC HZ EP   4    918 48.91                             112   -1.47 0  308 159 
 PTGC HN ES   4    919 21.39                             112   -3.21 0  308 159 
 RREF HZ EP        918 53.41                             111    0.72 7  322 229 
 RREF HN ES   4    919 31.36                             111    2.66 0  322 229 
 RREF HZ I         919 35.04        12.3 0.29            113            322 229 
 PRA  HZ EP   1    918 59.66                             107   -0.38 4  392 210 
 PRA  HN ES   1    919 42.40                             107    0.61 4  392 210 
 PRA  HZ I         919 48.02         7.9 0.28            109            392 210 
 SJC  HZ EP   4    919  0.04                             106   -2.12 0  410 327 
 SJC  HE ES   4    919 39.62                             106   -5.94 0  410 327 
                                                                                
