 2014  227 0456 57.8 L   6.824 -73.158147.9  RSN 23 0.4 2.4LRSN 2.8WRSN        1
 SPEC AVERAGE  MO 13.3 ST  1.1 OM  1.4 f0 3.65 R0.8611 AL 0.00 WI 40.0 MW  2.8 3
 SPEC SD       MO  0.4 ST  1.9 OM  0.6 f0 2.37 R0.5638 AL      WI      MW  0.3 3
 GAP=134        0.91       2.2     3.3  4.6 -0.1630E+01  0.5837E+01 -0.1223E+01E
 Epicentro: LOS SANTOS - SANTANDER                                             3
 SPEC PAM SH Z MO 13.8 ST0.071 OM  1.9 f0 1.19 R1.6168 AL-0.00 WI 40.0 MW  3.2 3
 SPEC PAM SH Z T 45736 K 0.000 GD  166 VS 5.20 DE 3.50 Q0750.0 QA 1.50 VS 5.20 3
 SPEC RUS HH Z MO 13.4 ST0.107 OM  1.4 f0 1.95 R0.9867 AL-0.00 WI 40.0 MW  2.9 3
 SPEC RUS HH Z T 45738 K 0.000 GD  180 VS 5.20 DE 3.50 Q0750.0 QA 1.50 VS 5.20 3
 SPEC PTB HH Z MO 13.3 ST  1.9 OM  1.3 f0 5.19 R0.3707 AL-0.00 WI 40.0 MW  2.8 3
 SPEC PTB HH Z T 45744 K 0.000 GD  208 VS 5.20 DE 3.50 Q0750.0 QA 1.50 VS 5.20 3
 SPEC SPBCHH Z MO 13.3 ST  1.5 OM  1.2 f0 5.08 R0.3787 AL-0.00 WI 40.0 MW  2.8 3
 SPEC SPBCHH Z T 45747 K 0.000 GD  220 VS 5.20 DE 3.50 Q0750.0 QA 1.50 VS 5.20 3
 SPEC NOR HH Z MO 13.1 ST  1.5 OM  0.9 f0 5.95 R0.3234 AL-0.00 WI 40.0 MW  2.6 3
 SPEC NOR HH Z T 458 0 K 0.000 GD  277 VS 5.20 DE 3.50 Q0750.0 QA 1.50 VS 5.20 3
 SPEC SML HH Z MO 13.2 ST  6.1 OM  1.0 f0 8.80 R0.2186 AL-0.00 WI 40.0 MW  2.7 3
 SPEC SML HH Z T 458 0 K 0.000 GD  282 VS 5.20 DE 3.50 Q0750.0 QA 1.50 VS 5.20 3
 SPEC CHI HH Z MO 13.6 ST0.060 OM  1.4 f0 1.37 R1.4044 AL-0.00 WI 40.0 MW  3.0 3
 SPEC CHI HH Z T 458 4 K 0.000 GD  291 VS 5.20 DE 3.50 Q0750.0 QA 1.50 VS 5.20 3
 SPEC HEL HH Z MO 13.5 ST0.050 OM  1.3 f0 1.37 R1.4044 AL-0.00 WI 40.0 MW  2.9 3
 SPEC HEL HH Z T 458 8 K 0.000 GD  308 VS 5.20 DE 3.50 Q0750.0 QA 1.50 VS 5.20 3
 SPEC URE HH Z MO 13.1 ST0.852 OM  0.9 f0 4.73 R0.4068 AL-0.00 WI 40.0 MW  2.7 3
 SPEC URE HH Z T 458 7 K 0.000 GD  318 VS 5.20 DE 3.50 Q0750.0 QA 1.50 VS 5.20 3
 SPECGUY2CHH Z MO 13.7 ST  0.0 OM  1.4 f0 1.12 R  1.72 AL-0.00 WI 40.0 MW  3.1 3
 SPECGUY2CHH Z T 45817 K       GD336.3 VS 5.20 DE 3.50 Q0750.0 QA 1.50 VS 5.20 3
 SPEC CBOCHH Z MO 12.8 ST0.513 OM  0.5 f0 5.19 R0.3707 AL-0.00 WI 40.0 MW  2.5 3
 SPEC CBOCHH Z T 45819 K 0.000 GD  364 VS 5.20 DE 3.50 Q0750.0 QA 1.50 VS 5.20 3
 SPEC PRA HH Z MO 13.8 ST0.048 OM  1.5 f0 1.04 R1.8500 AL-0.00 WI 40.0 MW  3.2 3
 SPEC PRA HH Z T 45832 K 0.000 GD  420 VS 5.20 DE 3.50 Q0750.0 QA 1.50 VS 5.20 3
 SPEC SJC HH Z MO 13.3 ST0.097 OM  1.0 f0 1.92 R1.0021 AL-0.00 WI 40.0 MW  2.8 3
 SPEC SJC HH Z T 45831 K 0.000 GD  432 VS 5.20 DE 3.50 Q0750.0 QA 1.50 VS 5.20 3
 2014-02-27-0448-12M.COL___234                                                 6
 OLDACT:UP  14-02-27 13:24 OP:fm   STATUS:               ID:20140227044812     3
 OLDACT:REG 14-02-27 08:11 OP:y    STATUS:               ID:20140227044812     3
 ACTION:UPD 14-03-10 08:13 OP:ep   STATUS:               ID:20140227045657 L   I
 OLDACT:UP  14-02-27 13:38 OP:fm   STATUS:               ID:20140227044812     3
 STAT SP IPHASW D HRMM SECON CODA AMPLIT PERI AZIMU VELO AIN AR TRES W  DIS CAZ7
 BAR2 SZ IP     C  457 17.71                             170   -0.0510 25.8 186 
 BAR2 SZ ES        457 33.07                             170   -0.2410 25.8 186 
 BAR2 SZ I         457 33.65        70.8 0.36            169           25.8 186 
 PAM  SZ EP     D  457 20.79                             152    0.5910 76.2  42 
 PAM  SN ES        457 37.85                             152    0.2010 76.2  42 
 PAM  SZ I         457 40.22        60.7 0.62            152           76.2  42 
 RUS  HZ EP        457 21.52                             144   -0.4610  103 175 
 RUS  HN ES        457 40.49                             144   -0.3410  103 175 
 RUS  SZ I         457 42.59        30.1 0.44            144            103 175 
 PTB  HZ EP        457 24.43                             133   -0.46 9  147 258 
 PTB  HN ES        457 45.83                             133   -0.17 9  147 258 
 PTB  SZ I         457 52.98        22.7 0.30            129            147 258 
 OCA  HZ EP        457 25.95                             131   -0.08 9  157 354 
 OCA  HN ES        457 48.59                             131    0.55 9  157 354 
 OCA  SZ I         457 53.67        27.7 0.38            128            157 354 
 SPBC HZ EP        457 26.65                             129    0.05 9  164 218 
 SPBC HN ES   1    457 48.59                             129   -0.46 7  164 218 
 SPBC SZ I         457 53.16        27.3 0.10            127            164 218 
 ZAR  HZ EP        457 30.23                             123    0.06 9  202 292 
 ZAR  HN ES        457 55.58                             123    0.18 9  202 292 
 ZAR  SZ I         458  2.02        27.4 0.34            120            202 292 
 NOR  HZ EP   4    457 32.22                             119   -1.50 0  235 234 
 NOR  HN ES        458  2.28                             119    0.56 8  235 234 
 NOR  SZ I         458  9.21        16.8 0.20            117            235 234 
 SML  HZ EP        457 34.22                             118   -0.02 8  241 335 
 SML  HN ES   1    458  2.08                             118   -0.57 6  241 335 
 SML  SZ I         458 12.56        32.2 0.08            116            241 335 
 CHI  HZ EP        457 35.74                             117   -0.14 8  251 195 
 CHI  HN ES        458  5.78                             117    0.21 8  251 195 
 CHI  SZ I         458 13.24        11.1 2.32            116            251 195 
 ROSC BZ EP   4    457 38.50                             117    2.27 0  254 210 
 ROSC BN ES   4    458  7.69                             117    1.50 0  254 210 
 ROSC SZ I         458 12.62        15.6 0.35            116            254 210 
 HEL  HZ EP   1    457 38.70                             115    0.63 6  271 255 
 HEL  HE ES        458 10.41                             115    0.95 8  271 255 
 HEL  SZ I         458 14.85         9.6 0.56            113            271 255 
 URE  HZ EP        457 37.78                             114   -0.96 7  282 292 
 URE  HN ES   4    458  9.04                             114   -1.61 0  282 292 
 URE  SZ I         458 20.82        18.9 0.30            112            282 292 
 GUY2CHZ EP   4    457 43.05                             113    1.48 0  302 234 
 GUY2CHN ES   4    458 19.11                             113    3.41 0  302 234 
 GUY2CSZ I         458 23.70         9.6 0.32                           302 234 
 PTGC HZ EP   4    457 40.55                             112   -1.56 0  312 159 
 PTGC HN ES   4    458 13.74                             112   -2.92 0  312 159 
 PTGC SZ I         458 17.13        14.7 2.42            111            312 159 
 RREF HZ EP   4    457 46.37                             111    2.24 0  322 229 
 RREF HN ES   4    458 23.47                             111    3.21 0  322 229 
 RREF SZ I         458 28.87        14.0 0.38            110            322 229 
 CBOC HZ EP        457 45.40                             110    0.63 7  333 252 
 CBOC HN ES        458 21.01                             110   -0.38 7  333 252 
 CBOC SZ I         458 23.95         3.6 1.02            109            333 252 
 DBB  SZ ES   2    458 21.58                             110   -0.58 3  338 274 
 DBB  SZ I         458 23.82        11.6 0.70            108            338 274 
 COD  HZ EP   1    457 45.47                             109   -0.49 5  345 355 
 COD  HE ES   1    458 23.66                             109    0.16 5  345 355 
 COD  SZ I         458 31.03         4.6 0.22            108            345 355 
 ARGC HZ EP   1    457 47.58                             109    0.37 5  356 340 
 ARGC HN ES   1    458 25.63                             109   -0.10 5  356 340 
 ARGC SZ I         458 27.88        12.8 1.18            107            356 340 
 PRA  HZ EP        457 52.05                             107    0.44 6  394 209 
 PRA  HN ES        458 33.62                             107    0.06 6  394 209 
 PRA  SZ I         458 39.62         8.5 0.94            106            394 209 
 ORTC HZ EP   2 C  457 51.90                             107   -0.07 3  397 216 
 ORTC HN ES        458 34.66                             107    0.45 6  397 216 
 ORTC SZ I         458 40.05         7.1 0.48            106            397 216 
 SJC  HZ EP        457 52.14                             106   -0.96 6  406 327 
 SJC  SZ I         458 32.70         9.7 1.42            105            406 327 
 SJC  HN ES   4    458 33.31                             106   -2.91 0  406 327 
                                                                                
