 2015  327 0757 20.5 L   5.945 -73.597125.2  RSN  7 0.3 1.3LRSN                1
 GAP=143        0.79       3.7     3.4  5.7  0.8410E+00  0.4665E+01 -0.5419E+01E
 Epicentro: BARBOSA - SANTANDER                                                3
 ACTION:UPD 15-04-30 16:29 OP:nd   STATUS:               ID:20150327075720 L   I
 OLDACT:DUP 15-03-27 16:30 OP:fm   STATUS:               ID:20150327074740d    3
 2015-03-27-0747-38M.COL___278                                                 6
 STAT SP IPHASW D HRMM SECON CODA AMPLIT PERI AZIMU VELO AIN AR TRES W  DIS CAZ7
 RUS  HZ EP        757 39.44                             154    0.0610 57.2  96 
 RUS  HN ES        757 53.56                             154   -0.5210 57.2  96 
 RUS  HZ I         757 54.89         2.8 0.22            161           57.2  96 
 SPBC HZ EP        757 38.92                             152   -0.1310 61.8 238 
 SPBC HN ES        757 53.89                             152    0.4010 61.8 238 
 SPBC HZ I         757 56.43         7.5 0.50            151           61.8 238 
 BAR2 EZ EP        757 41.10                             144    0.3310 85.0  33 
 BAR2 EZ ES        757 56.56                             144   -0.0010 85.0  33 
 PTB  HZ EP        757 42.86                             134   -0.0510  116 305 
 PTB  HE ES        758  0.19                             134   -0.1810  116 305 
 PTB  HZ I         758  4.15         2.4 0.40            134            116 305 
 BRR  HZ EP        757 44.49                             131    0.3910  129 354 
 BRR  HE ES        758  2.72                             131    0.2210  129 354 
 BRR  HZ I         758  3.97         3.7 0.48            132            129 354 
 ZAR  HZ EP        757 53.02                             115   -0.52 8  221 321 
 ZAR  HE ES        758 19.11                             115   -0.18 8  221 321 
 ZAR  HZ I         758 28.02         2.8 0.32            116            221 321 
 MON  HZ EP   4    758 10.54                             103   -2.30 0  388 324 
 MON  HN ES   4    758 48.53                             103   -5.11 0  388 324 
 MON  HZ I         758 54.57         0.7 0.66            104            388 324 
                                                                                
