 2013  227 0530 13.5 L   6.782 -73.174145.6  RSN  6 0.2 1.4LRSN                1
 GAP=180        0.61       3.0     4.2  6.2  0.2777E+01  0.9800E+01 -0.3316E+01E
 Epicentro: LOS SANTOS - SANTANDER                                             3
 ACTION:UPD 13-03-12 09:36 OP:ep   STATUS:               ID:20130227053013 L   I
 2013-02-27-0528-38M.COL___190                                                 6
 STAT SP IPHASW D HRMM SECON CODA AMPLIT PERI AZIMU VELO AIN AR TRES W  DIS CAZ7
 BAR2 SZ EP   2    530 33.01                             171    0.00 5 21.0 182 
 BAR2 SZ ES        530 48.39                             171    0.1210 21.0 182 
 BAR2 SZ I         530 49.56         5.6 0.38            171           21.0 182 
 BRR  HZ EP        530 34.90                             153    0.4210 69.5 301 
 RUS  HZ EP   1    530 37.04                             144   -0.02 7 98.8 174 
 RUS  HN ES        530 55.37                             144   -0.1010 98.8 174 
 PTB  HZ EP        530 39.88                             133   -0.21 9  144 259 
 PTB  HZ I         530 42.07         2.7 0.16            132            144 259 
 PTB  HN ES   1    531  0.51                             133   -0.35 7  144 259 
 OCA  HN ES        531  3.80                             129   -0.30 9  162 354 
 ZAR  HE ES        531 11.03                             123    0.24 9  202 293 
                                                                                
