 2015  827 0334 49.5 L   6.800 -73.108150.0  RSN  7 0.4 1.4LRSN                1
 GAP=141        0.76       3.6     4.3  6.3  0.2423E+01  0.5910E+01  0.4303E+01E
 Epicentro: LOS SANTOS - SANTANDER                                             3
 ACTION:UPD 15-09-15 23:05 OP:cam  STATUS:               ID:20150827033449 L   I
 OLDACT:REG 15-08-27 12:39 OP:spq  STATUS:               ID:20150827032741     3
 2015-08-27-0327-41M.COL___355                                                 6
 STAT SP IPHASW D HRMM SECON CODA AMPLIT PERI AZIMU VELO AIN AR TRES W  DIS CAZ7
 PAM  EZ EP        335 12.17                             153    0.2010 74.8  37 
 PAM  EN ES        335 29.50                             153   -0.0410 74.8  37 
 PAM  EZ I         335 31.49         4.0 0.20            158           74.8  37 
 BRR  HZ EP        335 11.37                             152    0.1010 74.9 297 
 BRR  HN ES        335 28.77                             152    0.4810 74.9 297 
 BRR  HZ I         335 35.40         3.0 0.44            150           74.9 297 
 RUS  HZ EP        335 13.23                             145   -0.3810  100 178 
 RUS  HE ES   1    335 32.17                             145   -0.28 7  100 178 
 RUS  HZ I         335 32.86         1.2 0.54            147            100 178 
 ZAR  HE ES        335 47.92                             123   -0.50 8  208 292 
 ZAR  HZ I         335 53.66         2.8 0.32            124            208 292 
 SML  HZ EP   1    335 26.49                             118   -0.03 6  246 334 
 SML  HN ES   1    335 55.19                             118   -0.23 6  246 334 
 SML  HZ I         335 57.83         3.0 0.26            120            246 334 
 GUY2CHZ EP   4    335 34.86                             113    1.21 0  305 235 
 GUY2CHE ES   4    336  9.81                             113    1.69 0  305 235 
 GUY2CHZ I         336 16.21         1.6 0.74                           305 235 
 PRA  HZ EP   1    335 43.82                             107    0.45 4  394 210 
 PRA  HE ES   1    336 26.27                             107    0.85 4  394 210 
 PRA  HZ I         336 31.12         0.9 0.30            109            394 210 
                                                                                
