 2017  827 0736 42.7 L   6.752 -73.144140.7  RSN  5 0.2 1.1LRSN                1
 GAP=139        0.61       2.8     3.4  5.2 -0.1632E+01  0.7224E+01 -0.3206E+01E
 Epicentro: LOS SANTOS - SANTANDER                                             3
 ACTION:UPD 17-09-04 20:25 OP:rebc STATUS:               ID:20170827073642 L   I
 OLDACT:DUP 17-08-27 17:13 OP:edw  STATUS:               ID:20170827072738d    3
 2017-08-27-0728-00M.COL___411                                                 6
 STAT SP IPHASW D HRMM SECON CODA AMPLIT PERI AZIMU VELO AIN AR TRES W  DIS CAZ7
 BAR2 EZ EP        737  1.53                             172   -0.1410 18.2 193 
 BAR2 EZ ES        737 16.73                             172    0.3010 18.2 193 
 BAR2 EZ I         737 17.27         4.6 0.34            168           18.2 193 
 PAM  EZ EP        737  4.58                             149   -0.1010 81.4  37 
 PAM  EE ES        737 21.78                             149   -0.0010 81.4  37 
 PAM  EZ I         737 23.46         2.8 0.40            154           81.4  37 
 RUS  HZ EP        737  5.97                             144    0.3510 95.3 176 
 RUS  HN ES        737 23.06                             144   -0.4010 95.3 176 
 RUS  HZ I         737 25.49         1.3 0.28            145           95.3 176 
 SPBC HN ES        737 32.19                             129    0.08 9  159 220 
 SPBC HZ I         737 41.04         1.7 0.10            128            159 220 
 ZAR  HZ EP        737 15.13                             121    0.04 8  206 293 
 ZAR  HN ES        737 40.19                             121   -0.14 8  206 293 
 ZAR  HZ I         737 45.43         1.3 0.30            121            206 293 
                                                                                
