 2013  927 0535 36.1 L   6.796 -73.192151.9  RSN  7 0.4 1.4LRSN                1
 GAP=197        0.75       3.9     5.1  6.2  0.5544E+01 -0.3177E+00 -0.3562E+01E
 Epicentro: ZAPATOCA - SANTANDER                                               3
 ACTION:UPD 13-10-22 09:25 OP:ep   STATUS:               ID:20130927053536 L   I
 OLDACT:UP  13-09-27 12:25 OP:mh   STATUS:               ID:20130927052959     3
 OLDACT:UP  13-09-27 12:25 OP:mh   STATUS:               ID:20130927052959     3
 OLDACT:REG 13-09-27 09:46 OP:mh   STATUS:               ID:20130927052959     3
 2013-09-27-0529-59M.COL___272                                                 6
 STAT SP IPHASW D HRMM SECON CODA AMPLIT PERI AZIMU VELO AIN AR TRES W  DIS CAZ7
 BAR2 SZ EP   1    535 56.53                             171    0.08 7 22.6 177 
 BAR2 SZ ES   1    536 11.89                             171   -0.44 7 22.6 177 
 BAR2 SZ I         536 12.56         7.3 0.36            172           22.6 177 
 BRR  HZ EP   1    535 58.35                             155    0.66 7 67.0 301 
 BRR  HZ I         536 14.70         3.3 0.16            146           67.0 301 
 BRR  HN ES        536 15.00                             155    0.4710 67.0 301 
 RUS  HZ EP   1    536  0.20                             145   -0.26 7  101 173 
 RUS  HN ES   1    536 19.25                             145   -0.22 7  101 173 
 RUS  HZ I         536 19.97         2.4 0.34            145            101 173 
 PTB  HZ EP   1    536  3.11                             134   -0.02 7  143 259 
 PTB  HN ES        536 24.21                             134   -0.00 9  143 259 
 PTB  HZ I         536 31.25         3.0 0.24            128            143 259 
 SPBC HZ EP   1    536  4.88                             131    0.13 7  160 218 
 SPBC HN ES   1    536 27.15                             131    0.04 7  160 218 
 SPBC HZ I         536 34.46         2.9 0.28            127            160 218 
 ZAR  HN ES   1    536 33.02                             124   -0.74 6  200 293 
 ZAR  HZ I         536 44.06         3.4 0.10            119            200 293 
 SML  HZ EP   1    536 13.00                             119    0.11 6  242 336 
 SML  HN ES   1    536 41.14                             119   -0.45 6  242 336 
 SML  HZ I         536 50.87         3.8 0.10            114            242 336 
                                                                                
