 2012 1027 0744 45.9 L   6.669 -73.333133.5  RSN  5 0.4 1.5LRSN                1
 GAP=158        0.65       7.4     9.8  9.8  0.3885E+02  0.4914E+02  0.1930E+02E
 Epicentro: GALAN - SANTANDER                                                  3
 ACTION:UPD 12-11-22 17:06 OP:ep   STATUS:               ID:20121027074445 L   I
 2012-10-27-0740-00M.COL___228                                                 6
 STAT SP IPHASW D HRMM SECON CODA AMPLIT PERI AZIMU VELO AIN AR TRES W  DIS CAZ7
 BAR2 SZ EP   1    745  3.90                             172   -0.04 7 18.6 117 
 BAR2 SZ ES   1    745 17.62                             172   -0.41 7 18.6 117 
 BRR  HZ EP   1    745  5.70                             152    0.40 7 64.1 319 
 BRR  HN I         745 24.11        14.9 0.19                          64.1 319 
 RUS  HZ EP   1    745  7.44                             144   -0.23 7 90.2 162 
 RUS  HN ES   2    745 25.46                             144    0.79 5 90.2 162 
 RUS  HN I         745 29.88         2.4 0.31                          90.2 162 
 ZAR  HN ES   2    745 39.86                             121   -0.06 4  192 298 
 ZAR  HN I         745 46.87         3.2 0.32                           192 298 
 PRA  HN ES   2    746 15.41                             105   -0.27 3  369 208 
 PRA  HN I         746 22.91         0.8 0.32                           369 208 
                                                                                
