 2011 1227 0054 38.5 L   6.790 -73.148150.8  RSN  8 0.4 1.5LRSN                1
 GAP=137        0.77       5.1     5.0  6.7  0.5209E+01  0.9813E+01  0.1109E+02E
 Epicentro: LOS SANTOS - SANTANDER                                             3
 ACTION:UPD 12-07-13 16:18 OP:ep   STATUS:               ID:20111227005438 L   I
 2011-12-27-0050-00M.COL___187                                                 6
 STAT SP IPHASW D HRMM SECON CODA AMPLIT PERI AZIMU VELO AIN AR TRES W  DIS CAZ7
 BAR2 SZ EP   1    054 58.66                             171   -0.10 7 22.1 190 
 BAR2 SZ I         054 59.02         6.3 0.10                          22.1 190 
 BAR2 SZ ES   1    055 14.67                             171    0.14 7 22.1 190 
 GIR2 SZ EP   1    054 58.54                             167   -0.30 7 32.4 351 
 GIR2 SZ ES   1    055 14.48                             167   -0.20 7 32.4 351 
 BRR  HZ EP   1    055  0.56                             153    0.30 7 71.5 299 
 BRR  HE ES   1    055 17.67                             153    0.48 7 71.5 299 
 PAM  SN ES   1    055 18.95                             151   -0.21 7 78.5  39 
 PAM  SZ I         055 20.84         3.2 0.25                          78.5  39 
 RUS  HZ EP   1    055  2.92                             145    0.21 7 99.5 176 
 RUS  HN ES   1    055 21.71                             145    0.14 7 99.5 176 
 PTB  HZ EP   1    055  5.32                             133   -0.56 7  147 259 
 PTB  HN ES   1    055 26.42                             133   -0.78 7  147 259 
 ZAR  HE ES   1    055 37.56                             123    0.64 6  204 292 
 ZAR  HZ I         055 43.02         4.1 0.44                           204 292 
 CHI  HZ EP   1    055 16.78                             118    0.38 6  247 195 
                                                                                
