 2012  127 0056 49.6 L   7.181 -73.146122.5  RSN  5 0.3 1.5LRSN                1
 GAP=134        0.68       5.4     5.8  9.1 -0.8397E+01  0.1713E+02  0.1324E+01E
 Epicentro: BUCARAMANGA - SANTANDER                                            3
 ACTION:UP  12-02-03 08:21 OP:REBC STATUS:               ID:20120127005649 L   I
 2012-01-27-0050-00M.COL___188                                                 6
 STAT SP IPHASW D HRMM SECON CODA AMPLIT PERI AZIMU VELO SNR AR TRES W  DIS CAZ7
 GIR2 SZ EP        057  6.29                             174     0.210   13 205 
 PAM  SZ EP   1    057  7.56                             156    -0.4 7   52  70 
 PAM  SE ES   1    057 22.36                             156     0.2 7   52  70 
 BRR  HZ EP   1    057  7.44                             151    -0.4 7   63 263 
 BRR  HE ES   2    057 21.96                             151     0.0 5   63 263 
 BRR  HZ I         057 24.45         7.9 0.14                            63 263 
 OCA  SZ EP   1    057 12.78                             133     0.5 7  118 351 
 OCA  SZ ES   1    057 29.61                             133    -0.3 7  118 351 
 OCA  SZ I         057 31.36         6.6 0.18                           118 351 
 PTB  HZ EP   2    057 15.87                             123    -0.3 5  161 244 
 PTB  HN ES   2    057 37.23                             123     0.4 5  161 244 
                                                                                
