 2016  127 0337 59.8 L   6.782 -73.159136.6  RSN 11 0.3 1.5LRSN                1
 GAP=136        0.68       2.5     2.7  4.3 -0.1332E+01  0.4411E+01  0.1708E+01E
 Epicentro: LOS SANTOS - SANTANDER                                             3
 ACTION:UPD 16-03-09 23:28 OP:cam  STATUS:               ID:20160127033759 L   I
 OLDACT:DUP 16-01-27 17:52 OP:ak   STATUS:               ID:20160127032742d    3
 2016-01-27-0327-40M.COL___328                                                 6
 STAT SP IPHASW D HRMM SECON CODA AMPLIT PERI AZIMU VELO AIN AR TRES W  DIS CAZ7
 BAR2 EZ EP        338 18.27                             171    0.0210 21.2 187 
 BAR2 EZ ES        338 32.71                             171    0.0410 21.2 187 
 BAR2 EZ I         338 35.42         7.5 0.20            168           21.2 187 
 PAM  EZ EP        338 21.36                             148    0.1910 79.8  39 
 PAM  EN ES        338 38.00                             148    0.1410 79.8  39 
 PAM  EZ I         338 38.60         5.9 0.34            155           79.8  39 
 RUS  HZ EP        338 22.33                             142   -0.1610 98.8 175 
 RUS  HN ES        338 40.12                             142   -0.1010 98.8 175 
 RUS  HZ I         338 43.92         2.2 0.34            144           98.8 175 
 PTB  HZ EP        338 25.01                             130   -0.83 9  146 259 
 PTB  HN ES        338 46.05                             130   -0.12 9  146 259 
 PTB  HZ I         338 48.70         5.2 0.07            131            146 259 
 SPBC HZ EP        338 27.40                             127    0.05 9  161 219 
 SPBC HN ES        338 49.09                             127    0.24 9  161 219 
 SPBC HZ I         338 53.98         5.6 0.24            128            161 219 
 ZAR  HZ EP   2    338 31.98                             120    0.41 4  203 293 
 ZAR  HN ES        338 56.33                             120   -0.04 9  203 293 
 ZAR  HZ I         339  4.50         4.6 0.26            122            203 293 
 NOR  HZ EP        338 34.58                             117   -0.15 8  232 235 
 NOR  HE ES        339  2.26                             117    0.26 8  232 235 
 NOR  HZ I         339  7.83         2.4 0.18            118            232 235 
 CHI  HZ EP   2    338 36.43                             115   -0.30 4  246 195 
 CHI  HN ES        339  5.28                             115   -0.28 8  246 195 
 CHI  HZ I         339 12.07         1.2 0.22            117            246 195 
 GUY2CHZ EP   1    338 43.36                             111    0.65 5  299 235 
 GUY2CHE ES        339 16.66                             111    0.46 7  299 235 
 GUY2CHZ I         339 25.10         1.4 0.30                           299 235 
 MON  HZ EP   4    338 53.12                             107    4.68 0  354 309 
 MON  HN ES   4    339 23.14                             107   -3.26 0  354 309 
 MON  HZ I         339 25.42         0.7 0.20            109            354 309 
 PRA  HZ EP        338 52.97                             105    0.26 6  390 210 
 PRA  HN ES        339 34.15                             105    0.16 6  390 210 
 PRA  HZ I         339 39.44         1.2 0.52            107            390 210 
                                                                                
