 2015  127 0451 49.8 L   7.449 -73.204132.9  RSN  7 0.4 1.5LRSN                1
 GAP=111        0.97       3.6     4.7  7.2  0.1873E+01  0.1197E+02  0.1405E+00E
 Epicentro: EL PLAYON - SANTANDER                                              3
 ACTION:UPD 15-03-02 15:42 OP:nd   STATUS:               ID:20150127045149 L   I
 OLDACT:REG 15-01-27 13:05 OP:cam  STATUS:               ID:20150127044812     3
 2015-01-27-0448-12M.COL___277                                                 6
 STAT SP IPHASW D HRMM SECON CODA AMPLIT PERI AZIMU VELO AIN AR TRES W  DIS CAZ7
 PAM  SZ IP     C  452  9.94                             156    0.4010 57.0 102 
 PAM  SN ES        452 24.81                             156   -0.0910 57.0 102 
 PAM  SZ I         452 26.10         4.7 0.38            159           57.0 102 
 BRR  HZ IP     C  452  9.63                             151    0.2210 67.7 236 
 BRR  HE ES        452 25.02                             151    0.3510 67.7 236 
 BRR  HZ I         452 25.20         5.8 0.12            151           67.7 236 
 OCA  HN ES        452 27.40                             144   -0.0410 88.2 352 
 OCA  HZ I         452 30.31         2.5 0.26            145           88.2 352 
 BAR2 EZ EP        452 11.44                             142   -0.1310 94.8 179 
 BAR2 EZ ES        452 28.21                             142   -0.3010 94.8 179 
 BAR2 EZ I         452 28.98         8.0 0.16            145           94.8 179 
 PTB  HZ EP        452 18.17                             124    0.09 9  171 234 
 PTB  HN ES   1    452 39.52                             124   -0.59 7  171 234 
 PTB  HZ I         452 42.66         3.2 0.22            125            171 234 
 SML  HZ EP   1    452 19.19                             123    0.49 7  177 327 
 SML  HN ES        452 40.61                             123   -0.59 9  177 327 
 SML  HZ I         452 42.15         6.9 0.10            124            177 327 
 ZAR  HZ EP   1    452 18.44                             122   -0.81 7  183 272 
 ZAR  HN ES   1    452 43.09                             122    0.91 7  183 272 
 ZAR  HZ I         452 45.96         3.7 0.42            123            183 272 
                                                                                
