 2011  227 0002 49.8 L   6.794 -73.137145.3  RSN  7 0.3 1.7LRSN                1
 GAP=137        0.74       3.5    11.2  7.8 -0.9177E+01  0.4473E+01 -0.1648E+01E
 Epicentro: LOS SANTOS - SANTANDER                                             3
 ACTION:UP  11-03-28 15:11 OP:jfem STATUS:               ID:20110227000249 L   I
 2011-02-27-0000-08S.COL___135                                                 6
 STAT SP IPHASW D HRMM SECON CODA AMPLIT PERI AZIMU VELO SNR AR TRES W  DIS CAZ7
 BAR2 SZ EP   1    0 3  9.51                             170     0.1 7   23 193 
 BAR2 SZ I         0 3  9.94        14.1 0.03                            23 193 
 BAR2 SZ ES   2    0 3 25.09                             170     0.5 5   23 193 
 RUS  HZ EP        0 3 13.61                             144     0.110  100 177 
 RUS  HN ES   1    0 3 31.73                             144    -0.2 7  100 177 
 RUS  HZ I         0 3 33.50         4.8 0.26                           100 177 
 GRA  SZ EP        0 3 15.33                             137     0.310  126  17 
 GRA  SZ ES   1    0 3 34.14                             137    -0.6 7  126  17 
 GRA  SZ I         0 3 36.13         6.0 0.31                           126  17 
 OCA  SZ EP   1    0 3 18.31                             129     0.1 7  161 353 
 OCA  SZ I         0 3 43.40         7.1 0.07                           161 353 
 YOP  SZ EP        0 3 19.51                             126    -0.2 9  178 154 
 YOP  SZ I         0 3 49.54         6.6 0.34                           178 154 
 CHI  HE ES   2    0 3 56.60                             117    -0.2 4  248 195 
 CHI  HZ I         0 4  3.32         2.5 0.50                           248 195 
 HEL  HZ EP   2    0 3 29.76                             114    -0.3 4  273 256 
 HEL  HZ I         0 4  7.99         4.2 0.47                           273 256 
                                                                                
