 2014  227 0510 52.9 L   6.884 -73.158148.3  RSN 12 0.5 1.9LRSN 2.4WRSN        1
 SPEC AVERAGE  MO 12.7 ST0.480 OM  0.8 f0 4.67 R0.5842 AL 0.00 WI 20.0 MW  2.4 3
 SPEC SD       MO  0.2 ST0.633 OM  0.3 f0 2.83 R0.3451 AL      WI      MW  0.1 3
 GAP=131        0.89       2.9     5.3  7.4  0.2166E+01  0.3975E+01 -0.4634E+01E
 Epicentro: BETULIA - SANTANDER                                                3
 SPEC PAM SH Z MO 12.4 ST0.083 OM  0.5 f0 3.68 R0.5228 AL-0.00 WI 20.0 MW  2.2 3
 SPEC PAM SH Z T 51131 K 0.000 GD  164 VS 5.20 DE 3.50 Q0750.0 QA 1.50 VS 5.20 3
 SPEC RUS HH Z MO 12.6 ST0.037 OM  0.6 f0 2.52 R0.7635 AL-0.00 WI 20.0 MW  2.3 3
 SPEC RUS HH Z T 51134 K 0.000 GD  184 VS 5.20 DE 3.50 Q0750.0 QA 1.50 VS 5.20 3
 SPEC PTB HH Z MO 12.4 ST  1.8 OM  0.4 f0 10.3 R0.1868 AL-0.00 WI 20.0 MW  2.2 3
 SPEC PTB HH Z T 51139 K 0.000 GD  209 VS 5.20 DE 3.50 Q0750.0 QA 1.50 VS 5.20 3
 SPEC OCA HH Z MO 12.8 ST0.365 OM  0.8 f0 4.41 R0.4363 AL-0.00 WI 20.0 MW  2.5 3
 SPEC OCA HH Z T 51140 K 0.000 GD  211 VS 5.20 DE 3.50 Q0750.0 QA 1.50 VS 5.20 3
 SPEC ZAR HH Z MO 12.7 ST0.538 OM  0.6 f0 5.55 R0.3467 AL-0.00 WI 20.0 MW  2.4 3
 SPEC ZAR HH Z T 51149 K 0.000 GD  248 VS 5.20 DE 3.50 Q0750.0 QA 1.50 VS 5.20 3
 SPEC PRA HH Z MO 13.0 ST0.025 OM  0.7 f0 1.54 R1.2494 AL-0.00 WI 20.0 MW  2.6 3
 SPEC PRA HH Z T 51226 K 0.000 GD  425 VS 5.20 DE 3.50 Q0750.0 QA 1.50 VS 5.20 3
 2014-02-27-0508-15M.COL___234                                                 6
 OLDACT:UP  14-02-27 14:03 OP:fm   STATUS:               ID:20140227050815     3
 OLDACT:REG 14-02-27 08:14 OP:y    STATUS:               ID:20140227050815     3
 OLDACT:UP  14-02-27 14:23 OP:fm   STATUS:               ID:20140227050815     3
 OLDACT:UP  14-02-27 14:12 OP:fm   STATUS:               ID:20140227050815     3
 OLDACT:UP  14-02-27 14:09 OP:fm   STATUS:               ID:20140227050815     3
 ACTION:UPD 14-03-10 08:13 OP:ep   STATUS:               ID:20140227051052 L   I
 OLDACT:UP  14-02-27 14:28 OP:fm   STATUS:               ID:20140227050815     3
 STAT SP IPHASW D HRMM SECON CODA AMPLIT PERI AZIMU VELO AIN AR TRES W  DIS CAZ7
 BAR2 SZ EP   1    511 12.69                             167   -0.30 7 32.3 185 
 BAR2 SZ ES   2    511 28.89                             167    0.19 5 32.3 185 
 BAR2 SZ I         511 41.87        11.3 1.16            161           32.3 185 
 PAM  SZ EP        511 15.51                             153    0.5110 71.5  45 
 PAM  SZ I         511 54.52         4.2 1.36            141           71.5  45 
 RUS  HZ EP        511 17.52                             142   -0.0110  110 176 
 RUS  HE ES        511 36.24                             142   -0.5410  110 176 
 RUS  SZ I         511 38.83         4.3 0.48            132            110 176 
 PTB  HZ EP   1    511 19.57                             132   -0.52 7  148 255 
 PTB  HN ES   1    511 41.13                             132   -0.20 7  148 255 
 PTB  SZ I         511 42.91         8.2 0.30            127            148 255 
 OCA  HZ EP   1    511 20.19                             132   -0.31 7  151 353 
 OCA  HN ES   1    511 42.22                             132    0.16 7  151 353 
 OCA  SZ I         511 46.04        12.3 0.34            123            151 353 
 SPBC HE ES   2    511 44.59                             128   -0.42 5  170 217 
 ZAR  HZ EP   2    511 24.20                             123   -0.79 4  199 290 
 ZAR  HN ES   1    511 50.88                             123    0.82 6  199 290 
 ZAR  SZ I         511 57.12         8.8 0.42            117            199 290 
 SML  HZ EP        511 28.66                             119    0.00 8  235 335 
 SML  HE ES   1    511 57.12                             119    0.54 6  235 335 
 SML  SZ I         512  4.84        10.1 0.06            111            235 335 
 NOR  HE ES   4    511 54.04                             118   -3.51 0  239 232 
 CHI  HZ EP        511 31.86                             117    0.24 8  257 194 
 CHI  HN ES        512  2.60                             117    0.74 8  257 194 
 CHI  SZ I         512 10.40         3.5 2.54            109            257 194 
 HEL  HZ EP   4    511 35.30                             115    1.99 0  273 254 
 HEL  SZ I         512 12.11         4.3 2.22            109            273 254 
 PRA  HZ EP   1    511 47.56                             106    0.24 4  399 209 
 PRA  HN ES   4    512 27.61                             106   -2.20 0  399 209 
 PRA  SZ I         512 53.81         4.7 2.88            100            399 209 
 SJC  HZ EP     D  511 46.83                             106   -0.67 6  401 326 
 SJC  HN ES   1    512 29.32                             106   -0.81 4  401 326 
 SJC  SZ I         512 33.04         7.5 1.74            100            401 326 
                                                                                
