 2017  127 0322  4.4 L   6.544 -73.492114.0  RSN 16 0.4 2.2LRSN                1
 GAP= 66        1.01       3.0     2.7  5.0  0.1146E+01  0.5019E+01  0.5004E+01E
 Epicentro: EL CARMEN - SANTANDER                                              3
 ACTION:UPD 17-05-22 16:03 OP:jn   STATUS:               ID:20170127032204 L   I
 OLDACT:REG 17-01-27 12:35 OP:lv   STATUS:               ID:20170127031744     3
 2017-01-27-0318-00M.COL___334                                                 6
 STAT SP IPHASW D HRMM SECON CODA AMPLIT PERI AZIMU VELO AIN AR TRES W  DIS CAZ7
 BAR2 EZ IP     C  322 20.75                             161    0.1510 34.6  81 
 BAR2 EZ ES        322 33.34                             161    0.1210 34.6  81 
 BRR  HZ EP        322 21.53                             147   -0.4110 66.9 339 
 BRR  HE ES        322 35.33                             147   -0.2910 66.9 339 
 BRR  HZ I         322 41.12        45.5 0.12            150           66.9 339 
 RUS  HZ EP        322 23.83                             140   -0.1110 85.0 148 
 RUS  HN ES        322 39.14                             140   -0.0310 85.0 148 
 RUS  HZ I         322 41.07        28.3 0.23            143           85.0 148 
 PTB  HZ IP   9 D  322 23.60                             133   -1.47 0  107 270 
 PTB  HN ES        322 38.50                                   -1.2110  107 270 
 PTB  HZ I         322 42.00        50.6 0.14            135            107 270 
 PAM  EZ EP        322 27.27                             128   -0.0410  124  45 
 PAM  EN ES        322 45.25                             128    0.0910  124  45 
 PAM  EZ I         322 47.65        25.1 0.16            133            124  45 
 ZAR  HZ EP        322 32.75                             117   -0.04 9  184 305 
 ZAR  HE ES        322 55.36                             117    0.44 9  184 305 
 ZAR  HZ I         322 57.27        45.7 0.19            119            184 305 
 NOR  HZ EP        322 32.47                             116   -0.73 9  187 235 
 NOR  HN ES   4    322 54.03                             116   -1.63 0  187 235 
 NOR  HZ I         322 57.91        34.3 0.16            118            187 235 
 TAM  HZ EP        322 33.54                             116    0.20 9  188  94 
 TAM  HN ES   4    322 55.02                             116   -0.88 0  188  94 
 TAM  HZ I         322 57.59        11.3 0.16            119            188  94 
 ROSC BZ EP   4    322 37.24                             113    1.13 0  210 206 
 ROSC BN ES   4    323  3.50                             113    2.66 0  210 206 
 ROSC BZ I         323  8.57        15.5 0.31            115            210 206 
 CHI  HZ EP   9    322 37.83                             113    1.27 0  213 187 
 CHI  HN ES        323  2.87                                   -0.04 8  213 187 
 CHI  HZ I         323  4.60         9.5 0.37            115            213 187 
 CBOC HZ EP        322 45.58                             106    0.64 7  289 255 
 CBOC HN ES        323 17.01                             106    0.46 7  289 255 
 CBOC HZ I         323 19.90         8.9 0.27            108            289 255 
 PTGC HZ EP        322 45.39                             105   -0.62 7  300 150 
 PTGC HN ES        323 18.46                             105    0.01 7  300 150 
 PTGC HZ I         323 19.43        10.1 0.35            107            300 150 
 DBB  EZ EP        322 46.97                             104    0.25 7  305 280 
 DBB  EN ES        323 19.62                             104   -0.10 7  305 280 
 DBB  EZ I         323 22.58         7.6 0.16            107            305 280 
 ORTC HZ EP        322 52.50                             102    0.47 6  350 214 
 ORTC HN ES        323 29.90                             102    0.73 6  350 214 
 ORTC HZ I         323 33.02         6.1 0.18            104            350 214 
 LL6C HZ EP   4    322 33.97                             102   -18.4 0  354   4 
 LL6C HE ES   4    323 12.72                             102   -17.1 0  354   4 
 PAL  HZ EP        322 53.12                             101    0.09 6  358 240 
 PAL  HN ES        323 30.57                             101   -0.38 6  358 240 
 PAL  HZ I         323 35.72        10.6 0.23            103            358 240 
 SJC  HZ EP   4    322 57.61                              99   -2.18 0  415 333 
 SJC  HN ES   4    323 38.63                              99   -4.35 0  415 333 
 MACC HZ EP        323  7.98                              96   -0.59 4  488 185 
 MACC HN ES   4    323 56.28                              96   -2.33 0  488 185 
                                                                                
