 2014  127 0539 44.5 L   6.731 -73.166139.4  RSN  5 0.5 1.2LRSN                1
 GAP=137        1.25       6.4     6.5 10.4 -0.3576E+01  0.6578E+00  0.2988E+00E
 Epicentro: VILLANUEVA - SANTANDER                                             3
 ACTION:UPD 14-03-13 09:58 OP:ep   STATUS:               ID:20140127053944 L   I
 OLDACT:REG 14-01-27 08:26 OP:stll STATUS:               ID:20140127053805     3
 2014-01-27-0538-05M.COL___225                                                 6
 STAT SP IPHASW D HRMM SECON CODA AMPLIT PERI AZIMU VELO AIN AR TRES W  DIS CAZ7
 BAR2 SZ ES        540 18.20                             173    0.3410 15.5 187 
 BAR2 SZ I         540 19.87         6.7 0.18            172           15.5 187 
 BRR  HZ EP        540  5.08                             151   -0.0310 73.3 305 
 BRR  HZ I         540  5.35         3.3 0.26            150           73.3 305 
 BRR  HN ES        540 21.80                             151    0.6310 73.3 305 
 PAM  SZ EP        540  6.33                             147   -0.2010 84.7  37 
 PAM  SZ I         540  6.51         7.7 0.18            149           84.7  37 
 PAM  SN ES        540 23.29                             147   -0.4110 84.7  37 
 RUS  HZ EP        540  7.83                             145    0.7110 93.2 174 
 RUS  HZ I         540  8.54         0.8 0.58            144           93.2 174 
 RUS  HN ES        540 24.29                             145   -0.4610 93.2 174 
 PTB  HN ES        540 30.40                             131   -0.65 9  144 262 
 PTB  HZ I         540 34.11         1.3 0.14            131            144 262 
                                                                                
