 2014 1027 0151 40.2 L   7.504 -73.052148.8  RSN  7 0.4 1.4LRSN                1
 GAP=135        0.81       4.1     5.2  6.0 -0.3632E+01  0.4769E+01  0.4651E+01E
 Epicentro: SURATA - SANTANDER                                                 3
 ACTION:UPD 14-11-29 23:57 OP:nd   STATUS:               ID:20141027015140 L   I
 OLDACT:DUP 14-10-29 22:27 OP:spq  STATUS:               ID:20141027014739d    3
 2014-10-27-0147-37M.COL___277                                                 6
 STAT SP IPHASW D HRMM SECON CODA AMPLIT PERI AZIMU VELO AIN AR TRES W  DIS CAZ7
 PAM  SZ EP        152  1.12                             163    0.0610 43.0 115 
 PAM  SN ES        152 17.42                             163    0.0510 43.0 115 
 PAM  SZ I         152 18.37         7.9 0.20            167           43.0 115 
 BRR  HZ EP        152  3.20                             149    0.7510 85.0 239 
 BRR  HN ES        152 19.95                             149    0.1110 85.0 239 
 BRR  HZ I         152 25.85         5.2 0.46            145           85.0 239 
 OCA  HZ EP   1    152  2.14                             148   -0.62 7 86.4 340 
 OCA  HN ES   1    152 20.18                             148   -0.22 7 86.4 340 
 OCA  HZ I         152 21.51         4.4 0.22            151           86.4 340 
 BAR2 SZ ES   1    152 22.50                             144    0.02 7  102 188 
 BAR2 SZ I         152 24.23         3.7 0.36            143            102 188 
 RUS  HZ EP        152 10.68                             127   -0.17 9  178 181 
 RUS  HN ES   1    152 34.38                             127   -0.42 7  178 181 
 RUS  HZ I         152 38.06         1.3 0.28            128            178 181 
 PTB  HZ EP   1    152 10.83                             125   -0.38 7  188 236 
 PTB  HN ES   1    152 35.28                             125   -0.15 7  188 236 
 PTB  HZ I         152 39.48         2.8 0.46            125            188 236 
 SPBC HZ EP   1    152 16.45                             119    0.45 6  234 209 
 SPBC HN ES   1    152 43.63                             119   -0.34 6  234 209 
 SPBC HZ I         152 51.85         2.7 0.10            120            234 209 
                                                                                
