 2012  227 0426 52.7 L   6.778 -73.162144.0  RSN  6 0.4 1.2LRSN                1
 GAP=135        0.88       6.5     6.8  8.1  0.5678E+01  0.1193E+02  0.7504E+01E
 ACTION:UP  12-03-07 16:34 OP:epov STATUS:               ID:20120227042652 L   I
 2012-02-27-0420-00M.COL___192                                                 6
 STAT SP IPHASW D HRMM SECON CODA AMPLIT PERI AZIMU VELO AIN AR TRES W  DIS CAZ7
 BAR2 SZ EP   1    427 12.22                             171    0.13 7 20.7 186 
 BAR2 SZ I         427 12.52         4.7 0.12                          20.7 186 
 BAR2 SZ ES   1    427 26.76                             171   -0.43 7 20.7 186 
 GIR2 SZ EP   1    427 11.72                             166   -0.52 7 33.4 354 
 GIR2 SZ ES   1    427 27.11                             166   -0.36 7 33.4 354 
 BRR  HZ EP        427 14.01                             152    0.3610 70.8 301 
 BRR  HZ I         427 14.29         5.4 0.19                          70.8 301 
 BRR  HN ES   1    427 30.84                             152    0.86 7 70.8 301 
 PAM  SN ES   2    427 32.18                             149   -0.08 5 80.4  39 
 RUS  HZ EP   1    427 16.30                             144    0.16 7 98.3 175 
 RUS  HZ I         427 16.94         1.4 0.11                          98.3 175 
 RUS  HN ES   1    427 34.72                             144    0.32 7 98.3 175 
 PTB  HZ EP   1    427 18.97                             132   -0.37 7  145 260 
 PTB  HE ES   1    427 39.59                             132   -0.51 7  145 260 
                                                                                
