 2013  827 0352 34.9 L   6.828 -73.149142.5  RSN 10 0.5 1.9LRSN                1
 GAP=135        1.26       3.6     5.7  7.5 -0.1598E+01  0.6873E+01  0.2139E+00E
 Epicentro: LOS SANTOS - SANTANDER                                             3
 ACTION:UPD 14-01-14 09:07 OP:ep   STATUS:               ID:20130827035234 L   I
 OLDACT:REG 13-08-27 07:36 OP:carl STATUS:               ID:20130827035000     3
 2013-08-27-0350-00M.COL___269                                                 6
 STAT SP IPHASW D HRMM SECON CODA AMPLIT PERI AZIMU VELO AIN AR TRES W  DIS CAZ7
 BAR2 SZ EP        352 54.29                             169    0.1010 26.3 188 
 BAR2 SZ ES   1    353  8.48                             169   -0.77 7 26.3 188 
 BAR2 SZ I         353 10.45        32.6 0.18            169           26.3 188 
 BRR  HZ IP     C  352 56.15                             153    0.5710 69.5 296 
 BRR  HE ES        353 12.40                             153    0.6710 69.5 296 
 BRR  HZ I         353 19.49        10.3 0.12            152           69.5 296 
 PAM  SZ EP        352 57.37                             151    0.7410 75.3  41 
 PAM  SN ES   1    353 13.83                             151    0.24 7 75.3  41 
 PAM  SZ I         353 16.26        27.9 0.62            156           75.3  41 
 RUS  HZ EP        352 58.72                             142    0.1810  104 176 
 RUS  HN ES   1    353 16.61                             142   -0.39 7  104 176 
 RUS  HZ I         353 18.38         6.0 0.32            146            104 176 
 PTB  HZ EP        353  1.19                             131   -0.42 9  148 258 
 PTB  HN ES   1    353 21.59                             131   -0.87 7  148 258 
 PTB  HZ I         353 27.39         8.4 0.56            133            148 258 
 OCA  HZ EP        353  2.25                             130   -0.40 9  157 353 
 OCA  HN ES        353 23.73                             130   -0.58 9  157 353 
 OCA  HZ I         353 29.47         9.1 0.26            133            157 353 
 SPBC HZ EP        353  3.08                             128   -0.26 9  165 218 
 SPBC HE ES        353 25.42                             128   -0.12 9  165 218 
 SPBC HZ I         353 30.32         7.2 0.20            131            165 218 
 ZAR  HZ EP        353  7.55                             122    0.59 9  203 291 
 ZAR  HN ES        353 32.76                             122    0.77 9  203 291 
 ZAR  HZ I         353 34.94        11.3 0.26            124            203 291 
 SML  HZ EP        353 10.06                             117   -0.95 8  241 335 
 SML  HE ES        353 38.72                             117   -0.47 8  241 335 
 PRA  HZ EP        353 28.82                             106    0.24 6  395 209 
 PRA  HN ES        354 10.55                             106    0.08 6  395 209 
 PRA  HZ I         354 16.20         2.0 0.24            109            395 209 
                                                                                
