 2013  327 0331 30.2 L   6.768 -73.126147.2  RSN  7 0.4 1.5LRSN                1
 GAP=141        0.77       4.2     4.6  8.1  0.4929E+00  0.8606E+01  0.1379E+01E
 Epicentro: LOS SANTOS - SANTANDER                                             3
 ACTION:UPD 13-04-09 14:05 OP:ep   STATUS:               ID:20130327033130 L   I
 2013-03-27-0330-00M.COL___245                                                 6
 STAT SP IPHASW D HRMM SECON CODA AMPLIT PERI AZIMU VELO AIN AR TRES W  DIS CAZ7
 BAR2 SZ EP   2    331 49.33                             172   -0.59 5 20.4 198 
 BRR  HZ EP   1    331 52.15                             152    0.47 7 74.9 300 
 BRR  HE ES   1    332  8.96                             152    0.49 7 74.9 300 
 PAM  SZ EP   1    331 53.02                             151    0.40 7 78.8  37 
 PAM  SN ES   1    332 10.14                             151    0.00 7 78.8  37 
 PAM  SZ I         332 11.84         8.1 0.48            152           78.8  37 
 RUS  HZ EP   1    331 53.80                             145    0.00 7 96.9 177 
 RUS  HN ES   1    332 12.15                             145   -0.08 7 96.9 177 
 RUS  HZ I         332 13.17         2.6 0.48            149           96.9 177 
 PTB  HZ EP   1    331 57.05                             132   -0.34 7  149 260 
 PTB  HN ES   1    332 18.16                             132   -0.47 7  149 260 
 PTB  HZ I         332 20.92         3.3 0.14            133            149 260 
 OCA  HN ES   1    332 20.63                             129   -0.77 7  164 353 
 OCA  HZ I         332 24.79         4.2 0.28            130            164 353 
 ZAR  HZ EP   1    332  3.22                             122    0.16 6  207 293 
 ZAR  HN ES   1    332 29.02                             122    0.30 6  207 293 
 ZAR  HZ I         332 33.94         3.4 0.38            123            207 293 
                                                                                
