 2014  127 0515 20.1 L   6.837 -73.176145.9  RSN  7 0.6 1.4LRSN                1
 GAP=131        1.27       5.1     8.4  9.7  0.3491E+01  0.1579E+02 -0.3545E+01E
 Epicentro: ZAPATOCA - SANTANDER                                               3
 ACTION:UPD 14-03-13 09:58 OP:ep   STATUS:               ID:20140127051520 L   I
 OLDACT:UP  14-01-28 05:14 OP:CAM  STATUS:               ID:20140127051520 L   3
 OLDACT:REG 14-01-27 08:25 OP:stll STATUS:               ID:20140127050813     3
 2014-01-27-0508-13M.COL___225                                                 6
 STAT SP IPHASW D HRMM SECON CODA AMPLIT PERI AZIMU VELO AIN AR TRES W  DIS CAZ7
 BAR2 SZ EP   1    515 39.93                             169    0.07 9 27.1 181 
 BAR2 SZ ES   1    515 54.64                             169   -0.60 9 27.1 181 
 BRR  HZ EP   1    515 41.87                             154    0.85 9 66.3 297 
 BRR  HN ES   1    515 58.56                             154    1.24 9 66.3 297 
 BRR  HZ I         516  3.05         4.8 0.40            153           66.3 297 
 PAM  SZ EP   1    515 42.84                             151    0.53 9 76.5  43 
 PAM  SE ES   1    515 59.79                             151    0.19 9 76.5  43 
 PAM  SZ I         516  1.61         8.7 0.48            157           76.5  43 
 RUS  HZ EP   1    515 44.34                             143    0.13 9  105 174 
 RUS  HN ES   1    516  2.02                             143   -0.98 9  105 174 
 PTB  HZ EP   1    515 47.13                             133    0.24 9  145 257 
 PTB  HN ES   1    516  7.57                             133   -0.19 9  145 257 
 PTB  HZ I         516 12.57         2.7 0.10            134            145 257 
 SML  HZ EP        515 55.85                             118   -0.3610  239 336 
 SML  HN ES        516 23.29                             118   -1.0510  239 336 
 CHI  HZ EP   1    515 58.54                             117    0.36 7  252 194 
 CHI  HN ES   1    516 27.69                             117   -0.16 7  252 194 
 CHI  HZ I         516 30.21         1.4 0.48            120            252 194 
                                                                                
