 2012  327 0557  8.3 L   6.768 -73.127144.8  RSN 12 0.5 2.1LRSN                1
 GAP=140        0.95       4.0     5.2  6.6 -0.4901E+01  0.7367E+01  0.4684E+01E
 ACTION:UP  12-03-31 23:23 OP:EP   STATUS:               ID:20120327055708 L   I
 2012-03-27-0550-00M.COL___196                                                 6
 STAT SP IPHASW D HRMM SECON CODA AMPLIT PERI AZIMU VELO SNR AR TRES W  DIS CAZ7
 BAR2 SZ IP     C  557 27.77                             172     0.010   20 197 
 BAR2 SZ ES   2    557 42.22                             172    -0.8 5   20 197 
 BAR2 SZ I         557 45.63        25.3 0.18                            20 197 
 BRR  HZ IP     C  557 29.72                             151     0.110   75 300 
 BRR  HN ES   1    557 47.05                             151     0.9 7   75 300 
 BRR  HZ I         557 49.38        26.8 0.66                            75 300 
 PAM  SZ EP        557 30.59                             150     0.010   79  37 
 PAM  SN ES   1    557 47.85                             150     0.0 7   79  37 
 RUS  HZ EP        557 31.58                             145    -0.210   97 177 
 RUS  HN ES   1    557 50.17                             145     0.2 7   97 177 
 RUS  HZ I         557 51.66         8.8 0.20                            97 177 
 PTB  HZ EP        557 34.74                             131    -0.6 9  149 260 
 PTB  HN ES   1    557 55.63                             131    -0.8 7  149 260 
 PTB  HZ I         558  1.67        16.2 0.34                           149 260 
 OCA  SZ EP        557 37.22                             129     0.3 9  164 353 
 OCA  SZ ES   1    557 58.87                             129    -0.4 7  164 353 
 NOR  SZ EP        557 43.76                             118    -0.2 8  234 235 
 NOR  SN ES   1    558 12.34                             118     0.6 6  234 235 
 CHI  HZ EP        557 45.86                             117     0.2 8  246 196 
 CHI  HN ES   3    558 14.49                             117    -0.3 2  246 196 
 CHI  HZ I         558 22.75         6.5 0.38                           246 196 
 HEL  HZ EP        557 49.02                             114     0.4 8  273 257 
 HEL  HN ES   3    558 20.83                             114     0.8 2  273 257 
 HEL  HZ I         558 28.32         5.4 0.28                           273 257 
 RREF HZ EP   2    557 55.23                             111     0.9 3  321 230 
 RREF HZ I         558 36.09         9.8 0.26                           321 230 
 COD  HZ EP   3    557 55.41                             108    -1.7 2  352 354 
 PRA  HZ EP   1    558  1.77                             106     0.2 4  390 210 
                                                                                
