 2015  127 0606 58.9 L   6.820 -73.168141.1  RSN 10 0.5 1.9LRSN                1
 GAP=133        1.26       3.3     5.1  6.8 -0.6414E+00  0.7078E+01 -0.7113E+00E
 Epicentro: LOS SANTOS - SANTANDER                                             3
 ACTION:UPD 15-03-02 15:42 OP:nd   STATUS:               ID:20150127060658 L   I
 OLDACT:DUP 15-01-27 15:10 OP:cam  STATUS:               ID:20150127055815d    3
 OLDACT:REG 15-01-27 13:14 OP:cam  STATUS:               ID:20150127055814     3
 2015-01-27-0558-14M.COL___277                                                 6
 STAT SP IPHASW D HRMM SECON CODA AMPLIT PERI AZIMU VELO AIN AR TRES W  DIS CAZ7
 BAR2 EZ EP        6 7 18.31                             169    0.2710 25.3 184 
 BAR2 EZ ES        6 7 32.73                             169   -0.2210 25.3 184 
 BAR2 EZ I         6 7 34.71        16.2 0.50            170           25.3 184 
 BRR  HZ IP     C  6 7 20.01                             153    0.6210 67.9 298 
 BRR  HN ES        6 7 36.27                             153    0.9210 67.9 298 
 BRR  HZ I         6 7 41.22        12.7 0.46            152           67.9 298 
 PAM  SZ EP     C  6 7 20.96                             150    0.3110 77.3  42 
 PAM  SN ES        6 7 37.73                             150    0.1410 77.3  42 
 PAM  SZ I         6 7 41.65         7.4 0.48            154           77.3  42 
 RUS  HZ EP        6 7 22.39                             142   -0.0210  103 175 
 RUS  HN ES        6 7 40.31                             142   -0.4110  103 175 
 RUS  HZ I         6 7 42.28         6.9 0.20            146            103 175 
 PTB  HZ EP        6 7 24.98                             131   -0.36 9  146 258 
 PTB  HN ES        6 7 45.21                             131   -0.73 9  146 258 
 PTB  HZ I         6 7 48.26        13.5 0.48            133            146 258 
 OCA  HZ EP        6 7 26.13                             129   -0.52 9  158 354 
 OCA  HN ES        6 7 47.89                             129   -0.37 9  158 354 
 OCA  HZ I         6 7 51.03         9.2 0.16            132            158 354 
 SPBC HZ EP        6 7 27.21                             128    0.12 9  163 218 
 SPBC HN ES        6 7 48.64                             128   -0.42 9  163 218 
 SPBC HZ I         6 7 56.31        10.7 0.30            131            163 218 
 ZAR  HZ EP        6 7 31.69                             122    0.94 9  201 292 
 ZAR  HN ES        6 7 56.06                             122    0.49 9  201 292 
 ZAR  HZ I         6 8  3.24        11.0 0.36            124            201 292 
 SML  HZ EP        6 7 34.42                             117   -0.54 8  241 336 
 SML  HN ES        6 8  2.19                             117   -0.88 8  241 336 
 SML  HZ I         6 8  6.58         7.5 0.10            119            241 336 
 CHI  HZ EP        6 7 36.79                             116    0.25 8  250 194 
 CHI  HN ES        6 8  5.97                             116    0.09 8  250 194 
                                                                                
