 2011 1127 0217 11.5 L   6.790 -73.029148.8  RSN  5 0.4 1.7LRSN                1
 GAP=153        0.61       5.2     9.1  8.2 -0.4699E+01  0.5808E+01  0.9463E+01E
 Epicentro: CEPITA - SANTANDER                                                 3
 ACTION:UPD 12-07-13 16:12 OP:ep   STATUS:               ID:20111127021711 L   I
 2011-11-27-0214-24S.COL___160                                                 6
 STAT SP IPHASW D HRMM SECON CODA AMPLIT PERI AZIMU VELO AIN AR TRES W  DIS CAZ7
 BAR2 SZ EP   1    217 31.64                             169    0.05 7 27.7 218 
 BAR2 SZ ES   2    217 47.67                             169    0.42 5 27.7 218 
 BAR2 SZ I         217 48.50        14.2 0.59                          27.7 218 
 PAM  SZ EP   2    217 34.47                             153    0.80 5 70.8  31 
 PAM  SN ES   2    217 50.10                             153   -0.85 5 70.8  31 
 BRR  HZ EP   1    217 33.52                             149   -0.17 7 83.3 295 
 BRR  HE ES   2    217 51.05                             149    0.06 5 83.3 295 
 BRR  HZ I         217 53.34        16.6 0.27                          83.3 295 
 RUS  HZ EP   2    217 35.73                             145    0.26 5 99.4 183 
 RUS  HN ES   2    217 54.16                             145    0.00 5 99.4 183 
 RUS  HZ I         217 57.01         4.5 0.47                          99.4 183 
 CHI  HZ EP   2    217 49.26                             117   -0.39 4  251 198 
 CHI  HZ I         217 51.13         2.5 0.37                           251 198 
 CHI  HN ES   2    218 19.12                             117   -0.29 4  251 198 
                                                                                
