 2014  127 0930 13.2 L   7.182 -73.377112.6  RSN  5 0.5 1.4LRSN                1
 GAP=159        1.15       4.8     5.6 11.4  0.3713E+01  0.1979E+02  0.3021E+01E
 Epicentro: LEBRIJA - SANTANDER                                                3
 ACTION:UPD 14-03-13 09:59 OP:ep   STATUS:               ID:20140127093013 L   I
 OLDACT:REG 14-01-27 08:32 OP:stll STATUS:               ID:20140127092816     3
 2014-01-27-0928-16M.COL___215                                                 6
 STAT SP IPHASW D HRMM SECON CODA AMPLIT PERI AZIMU VELO AIN AR TRES W  DIS CAZ7
 BAR2 SZ EP        930 31.29                             146    0.3010 68.7 162 
 BAR2 SZ ES        930 45.31                             146    0.4010 68.7 162 
 BAR2 SZ I         930 46.17        24.2 0.48            153           68.7 162 
 OCA  HN ES        930 51.39                             130   -0.3310  117   3 
 OCA  HZ I         931  0.07         4.3 0.36            131            117   3 
 PTB  HZ EP        930 36.67                             125   -0.08 9  139 239 
 PTB  HE ES        930 54.72                             125   -0.43 9  139 239 
 PTB  HZ I         930 59.01         3.3 0.16            130            139 239 
 RUS  HZ EP        930 37.45                             124   -0.66 9  146 167 
 RUS  HZ I         930 38.90         2.0 0.12            130            146 167 
 ZAR  HZ EP        930 40.51                             120    0.86 9  167 282 
 ZAR  HZ I         930 41.18         2.5 0.36            123            167 282 
 ZAR  HE ES        931  0.26                             120   -0.06 9  167 282 
                                                                                
