 2012  427 0211 31.3 L   6.765 -73.156147.1  RSN  6 0.5 1.5LRSN                1
 GAP=137        1.24       8.0     8.5 10.4 -0.3094E+01  0.1001E+02  0.2047E+02E
 Epicentro: LOS SANTOS - SANTANDER                                             3
 ACTION:UPD 12-07-05 11:56 OP:tino STATUS:               ID:20120427021131 L   I
 2012-04-27-0210-00M.COL___189                                                 6
 STAT SP IPHASW D HRMM SECON CODA AMPLIT PERI AZIMU VELO AIN AR TRES W  DIS CAZ7
 BAR2 SZ EP   1    211 51.23                             172     0.2 7   19 189 
 BAR2 SZ ES   1    212  5.80                             172    -0.6 7   19 189 
 BAR2 SZ I         212  7.86         7.8 0.22                            19 189 
 BRR  HZ EP        211 53.02                             152     0.410   72 302 
 BRR  HN ES   1    212  9.77                             152     0.5 7   72 302 
 BRR  HZ I         212 13.93         7.0 0.20                            72 302 
 PAM  SZ EP   1    211 54.09                             150     0.2 7   81  38 
 PAM  SN ES   1    212 10.72                             150    -0.8 7   81  38 
 RUS  HZ EP   1    211 55.52                             145     0.6 7   97 175 
 RUS  HN ES   1    212 13.92                             145     0.6 7   97 175 
 PTB  HZ EP   1    211 57.94                             133    -0.3 7  146 260 
 PTB  HN ES   1    212 18.75                             133    -0.4 7  146 260 
 PTB  HZ I         212 23.57         3.0 0.22                           146 260 
 CHI  HZ EP        212  7.77                             118    -0.8 8  245 195 
                                                                                
