 2016  827 0748 43.0 L   6.794 -73.123146.0  RSN 10 0.5 1.6LRSN                1
 GAP=140        1.13       3.5     4.6  6.1 -0.3170E+01  0.7664E+01  0.1774E+01E
 Epicentro: LOS SANTOS - SANTANDER                                             3
 ACTION:UPD 16-10-29 15:39 OP:rebc STATUS:               ID:20160827074843 L   I
 OLDACT:REG 16-08-27 13:01 OP:ak   STATUS:               ID:20160827074736     3
 2016-08-27-0748-00M.COL___368                                                 6
 STAT SP IPHASW D HRMM SECON CODA AMPLIT PERI AZIMU VELO AIN AR TRES W  DIS CAZ7
 BAR2 EZ IP     C  749  2.51                             171   -0.1510 23.2 196 
 BAR2 EZ ES        749 18.30                             171    0.3110 23.2 196 
 BAR2 EZ I         749 20.06         5.2 0.20                          23.2 196 
 BRR  HZ IP     C  749  4.39                             152    0.0710 73.7 298 
 BRR  HN ES        749 21.56                             152    0.6210 73.7 298 
 BRR  HZ I         749 25.60         5.1 0.19                          73.7 298 
 PAM  EZ EP        749  5.25                             151    0.0710 76.4  38 
 PAM  EN ES        749 22.69                             151    0.2110 76.4  38 
 PAM  EZ I         749 23.70         5.2 0.28                          76.4  38 
 RUS  HZ EP        749  6.37                             144   -0.3510 99.8 177 
 RUS  HN ES        749 25.30                             144    0.0910 99.8 177 
 RUS  HZ I         749 26.34         3.4 0.24                          99.8 177 
 PTB  HZ EP        749  9.46                             132   -0.74 9  150 259 
 PTB  HN ES        749 30.84                             132   -0.57 9  150 259 
 PTB  HZ I         749 37.94         5.4 0.36                           150 259 
 OCA  HZ EP        749 11.73                             130    0.31 9  161 352 
 OCA  HN ES        749 32.78                             130   -0.81 9  161 352 
 OCA  HZ I         749 37.55        11.0 0.24                           161 352 
 SPBC HZ EP        749 10.98                             129   -0.64 9  164 220 
 SPBC HN ES        749 33.68                             129   -0.25 9  164 220 
 SPBC HZ I         749 35.55         9.2 0.12                           164 220 
 ZAR  HZ EP        749 16.55                             122    0.83 8  207 292 
 ZAR  HN ES        749 41.27                             122    0.02 8  207 292 
 ZAR  HZ I         749 47.67         4.9 0.12                           207 292 
 GUY2CHZ EP        749 27.51                             112    0.71 7  303 235 
 GUY2CHN ES        750  1.48                             112    0.51 7  303 235 
 GUY2CHZ I         750 10.70         2.1 0.61                           303 235 
 PRA  HZ EP        749 36.65                             107    0.05 6  393 210 
 PRA  HN ES        750 18.92                             107    0.51 6  393 210 
 PRA  HZ I         750 25.53         1.2 0.34                           393 210 
                                                                                
