 2016  227 0918 36.1 L   6.823 -73.147148.0  RSN 12 0.3 1.9LRSN                1
 GAP=135        0.69       2.0     2.9  4.3 -0.1123E+01  0.4097E+01  0.7201E+00E
 Epicentro: LOS SANTOS - SANTANDER                                             3
 ACTION:UPD 16-03-04 21:29 OP:rebc STATUS:               ID:20160227091836 L   I
 OLDACT:UP  16-02-27 18:26 OP:mh   STATUS:               ID:20160227091749     3
 OLDACT:UP  16-02-27 18:25 OP:mh   STATUS:               ID:20160227091749     3
 OLDACT:REG 16-02-27 13:23 OP:mh   STATUS:               ID:20160227091749     3
 2016-02-27-0917-49M.COL___306                                                 6
 STAT SP IPHASW D HRMM SECON CODA AMPLIT PERI AZIMU VELO AIN AR TRES W  DIS CAZ7
 BAR2 EZ EP        918 56.05                             170   -0.0110 25.8 189 
 BAR2 EZ ES        919 11.50                             170   -0.1210 25.8 189 
 BAR2 EZ I         919 13.65        15.1 0.28            169           25.8 189 
 PAM  EN EP        918 59.08                             152    0.6310 75.5  41 
 PAM  EZ ES        919 16.00                             152    0.1210 75.5  41 
 PAM  EN I         919 16.98        32.8 0.46            154           75.5  41 
 RUS  HZ EP        919  0.01                             143   -0.2510  103 176 
 RUS  HN ES        919 19.05                             143   -0.0510  103 176 
 RUS  HZ I         919 20.75         4.4 0.34            146            103 176 
 PTB  HZ EP   1    919  2.65                             132   -0.65 7  148 258 
 PTB  HN ES        919 24.73                             132    0.23 9  148 258 
 PTB  HZ I         919 28.56         8.6 0.44            130            148 258 
 OCA  HZ EP   1    919  4.12                             131   -0.24 7  158 353 
 OCA  HN ES        919 26.28                             131   -0.12 9  158 353 
 OCA  HZ I         919 35.16         8.6 0.14            130            158 353 
 SPBC HZ EP        919  4.94                             129   -0.02 9  165 218 
 SPBC HN ES        919 27.21                             129   -0.25 9  165 218 
 ZAR  HZ EP        919  8.33                             123   -0.27 9  203 291 
 ZAR  HN ES        919 33.86                             123   -0.07 9  203 291 
 ZAR  HZ I         919 44.09         6.7 0.26            121            203 291 
 NOR  HE ES        919 40.65                             119    0.45 8  236 234 
 NOR  HZ I         919 45.23         5.1 0.22            118            236 234 
 CHI  HZ EP   1    919 14.33                             117    0.14 6  251 195 
 CHI  HN ES   1    919 43.55                             117   -0.35 6  251 195 
 CHI  HZ ES        919 43.81                             117   -0.09 8  251 195 
 CHI  HZ I         919 53.58         2.8 0.44            118            251 195 
 URE  HZ EP   4    919 18.16                             114    0.98 0  283 291 
 URE  HN ES   4    919 46.19                             114   -3.02 0  283 291 
 URE  HZ I         919 57.05         3.9 0.32            113            283 291 
 GUY2CHZ EP   1    919 20.07                             113    0.09 5  303 234 
 GUY2CHN ES   4    919 57.86                             113    3.67 0  303 234 
 GUY2CHZ I         920  2.21         4.1 0.70                           303 234 
 MON  HZ EP   4    919 29.69                             109    4.68 0  352 308 
 MON  HN ES   4    920  0.86                             109   -2.29 0  352 308 
 ORTC HZ EP   1    919 30.51                             107    0.17 4  397 216 
 ORTC HN ES        920 13.40                             107    0.77 6  397 216 
 ORTC HZ I         920 22.14         2.8 0.76            107            397 216 
                                                                                
