 2011  727 0636  2.6 L   6.781 -72.940148.4  RSN  4 0.3 1.1LRSN                1
 GAP=225        0.61       6.2     8.8  7.0 -0.2168E+02 -0.1703E+02 -0.3951E+00E
 Epicentro: CEPITA - SANTANDER                                                 3
 ACTION:UPD 12-07-25 14:03 OP:epov STATUS:               ID:20110727063602 L   I
 2011-07-27-0620-00M.COL___139                                                 6
 STAT SP IPHASW D HRMM SECON CODA AMPLIT PERI AZIMU VELO AIN AR TRES W  DIS CAZ7
 BAR2 SZ EP   1    636 22.44                             166   -0.38 7 34.0 232 
 BAR2 SZ ES   1    636 38.68                             166    0.11 7 34.0 232 
 BAR2 SZ I         636 43.21         3.0 0.23                          34.0 232 
 GIR2 SZ ES   1    636 39.05                             163    0.21 7 43.2 320 
 BRR  HZ EP   1    636 25.87                             146    0.50 7 92.6 293 
 BRR  HZ I         636 31.69         2.6 0.60                          92.6 293 
 BRR  HN ES   1    636 42.78                             146   -0.33 7 92.6 293 
 GRA  SZ EP   1    636 27.78                             138   -0.08 7  123   7 
 GRA  SZ ES   1    636 47.52                             138   -0.03 7  123   7 
 GRA  SZ I         636 48.19         1.8 0.19                           123   7 
                                                                                
