 2012  227 0558 53.7 L   6.705 -73.208151.0  RSN  4 0.3 1.1LRSN                1
 GAP=219        0.71       7.6     7.5  9.5  0.2888E+02 -0.7823E+01 -0.5437E+01E
 ACTION:UP  12-03-07 16:34 OP:epov STATUS:               ID:20120227055853 L   I
 2012-02-27-0557-59S.COL___195                                                 6
 STAT SP IPHASW D HRMM SECON CODA AMPLIT PERI AZIMU VELO AIN AR TRES W  DIS CAZ7
 BAR2 SZ EP   1    559 13.10                             175   -0.73 7 12.7 167 
 BAR2 SZ I         559 30.86         3.5 0.26                          12.7 167 
 BRR  HZ EP   1    559 15.71                             153    0.25 7 71.3 309 
 BRR  HN ES   1    559 32.57                             153    0.17 7 71.3 309 
 BRR  HZ I         559 37.36         2.8 0.28                          71.3 309 
 RUS  HZ EP   1    559 17.51                             148    0.17 7 90.9 171 
 RUS  HN ES   1    559 35.92                             148    0.17 7 90.9 171 
 RUS  HZ I         559 37.35         1.5 0.26                          90.9 171 
 PTB  HZ EP   1    559 20.65                             135    0.26 7  139 263 
 PTB  HN ES   1    559 40.88                             135   -0.30 7  139 263 
                                                                                
