 2012  827 0741 11.3 L   6.700 -73.166141.4  RSN  4 0.3 1.3LRSN                1
 GAP=227        0.57       7.8     6.2  7.7  0.1920E+02  0.1682E+02  0.1259E+02E
 Epicentro: VILLANUEVA - SANTANDER                                             3
 ACTION:UPD 12-09-10 11:58 OP:ep   STATUS:               ID:20120827074111 L   I
 2012-08-27-0740-00M.COL___218                                                 6
 STAT SP IPHASW D HRMM SECON CODA AMPLIT PERI AZIMU VELO AIN AR TRES W  DIS CAZ7
 BAR2 SZ EP   1    741 30.08                             175   -0.17 7 12.0 188 
 BAR2 SZ ES   1    741 44.74                             175   -0.27 7 12.0 188 
 BAR2 SZ I         741 46.16         8.5 0.18                          12.0 188 
 BRR  HN ES   1    741 48.89                             150    0.33 7 75.3 307 
 BRR  HZ I         741 53.41         3.0 0.17                          75.3 307 
 RUS  HN ES   2    741 51.97                             146    0.50 5 89.7 174 
 PTB  HZ EP   1    741 37.72                             132    0.15 7  144 263 
 PTB  HE ES   1    741 57.77                             132   -0.27 7  144 263 
 PTB  HZ I         742  0.71         2.0 0.13                           144 263 
                                                                                
