 2010  227 0401 18.7 L   6.808 -73.061142.0  RSN  8 0.4 2.0LRSN                1
 GAP=192        0.84       3.7     7.5  6.0  0.2392E+01  0.1050E+02  0.3571E+01E
 Epicentro: LOS SANTOS - SANTANDER                                             3
 ACTION:UP  10-08-24 09:51 OP:vdl  STATUS:               ID:20100227040118 L   I
 2010-02-27-0359-52S.COL___093                                                 6
 STAT SP IPHASW D HRMM SECON CODA AMPLIT PERI AZIMU VELO SNR AR TRES W  DIS CAZ7
 BAR2 SZ IP        4 1 38.14                             168     0.110   28 210 
 BAR2 SZ ES   1    4 1 52.65                             168    -0.4 7   28 210 
 BRR  HZ IP        4 1 40.04                             149     0.110   79 295 
 BRR  HN ES   1    4 1 56.64                             149     0.1 7   79 295 
 BRR  HZ I         4 1 59.41        16.4 0.20                            79 295 
 RUS  BZ EP        4 1 42.56                             143     0.410  101 181 
 RUS  BN ES   1    4 2  0.71                             143     0.2 7  101 181 
 RUS  BZ I         4 2  2.10        14.6 0.26                           101 181 
 OCA  SZ EP        4 1 46.41                             129    -0.4 9  161 350 
 OCA  SZ ES   1    4 2  8.74                             129     0.0 7  161 350 
 CHI  HZ EP        4 1 55.84                             116    -0.8 8  252 197 
 CHI  HE ES   2    4 2 25.59                             116    -0.6 4  252 197 
 CHI  HZ I         4 2 29.78         6.2 0.59                           252 197 
 HEL  HZ EP        4 2  0.41                             113     0.6 7  281 256 
 HEL  HN ES   2    4 2 31.16                             113    -0.7 4  281 256 
 HEL  HZ I         4 2 37.70         6.1 0.36                           281 256 
 RREF BZ EP        4 2  5.79                             110     0.2 7  330 230 
 RREF BE ES   3    4 2 42.89                             110     0.7 2  330 230 
 RREF BZ I         4 2 52.32         5.9 0.28                           330 230 
 PRA  HZ EP        4 2 12.80                             106     0.0 6  397 211 
 PRA  HN ES   3    4 2 54.93                             106     0.0 1  397 211 
                                                                                
