 2014  127 0708 58.0 L   6.826 -73.183138.2  RSN  4 0.2 1.3LRSN                1
 GAP=198        0.62       3.3     4.4  5.6  0.4345E+01  0.2334E+01 -0.8502E+01E
 Epicentro: ZAPATOCA - SANTANDER                                               3
 ACTION:UPD 14-03-13 09:58 OP:ep   STATUS:               ID:20140127070858 L   I
 OLDACT:DUP 14-01-27 14:18 OP:stll STATUS:               ID:20140127070808d    3
 2014-01-27-0708-06M.COL___222                                                 6
 STAT SP IPHASW D HRMM SECON CODA AMPLIT PERI AZIMU VELO AIN AR TRES W  DIS CAZ7
 BAR2 SZ EP        7 9 17.27                             169    0.4710 25.8 180 
 BAR2 SZ ES        7 9 31.35                             169   -0.1010 25.8 180 
 BAR2 SZ I         7 9 33.13        10.7 0.26            167           25.8 180 
 RUS  HZ EP        7 9 21.23                             141   -0.0510  104 174 
 RUS  HN ES        7 9 39.26                             141   -0.1610  104 174 
 RUS  HZ I         7 9 40.73         2.1 0.28            144            104 174 
 PTB  HZ EP        7 9 23.76                             131   -0.30 9  144 257 
 PTB  HN ES        7 9 44.56                             131    0.19 9  144 257 
 PTB  HZ I         7 9 51.95         1.7 0.50            130            144 257 
 SML  HZ EP        7 9 33.80                             116    0.04 8  239 336 
 SML  HN ES        710  1.48                             116   -0.15 8  239 336 
 SML  HZ I         710  5.53         2.1 0.10            118            239 336 
                                                                                
