 2015  727 0146 16.5 L   6.815 -73.135142.0  RSN  8 0.4 2.0LRSN                1
 GAP=137        1.05       3.4     4.9  7.2 -0.2635E+01  0.1918E+02 -0.3984E+01E
 Epicentro: LOS SANTOS - SANTANDER                                             3
 ACTION:UPD 15-09-08 21:50 OP:cam  STATUS:               ID:20150727014616 L   I
 OLDACT:REG 15-07-27 12:33 OP:drio STATUS:               ID:20150727013744     3
 2015-07-27-0137-44M.COL___334                                                 6
 STAT SP IPHASW D HRMM SECON CODA AMPLIT PERI AZIMU VELO AIN AR TRES W  DIS CAZ7
 BAR2 EZ EP     D  146 36.01                             169    0.2610 25.2 192 
 BAR2 EZ ES        146 50.83                             169    0.0910 25.2 192 
 BAR2 EZ I         146 53.50        12.7 0.24            170           25.2 192 
 PAM  EZ EP        146 38.83                             151    0.6010 75.4  40 
 PAM  EN ES        146 54.38                             151   -0.7710 75.4  40 
 PAM  EZ I         146 57.75         8.6 0.16            155           75.4  40 
 RUS  HZ EP        146 39.93                             143   -0.1110  102 177 
 RUS  HN ES        146 58.43                             143    0.0710  102 177 
 RUS  HZ I         146 59.24         5.8 0.28            148            102 177 
 OCA  HZ EP        146 44.20                             129   -0.21 9  159 353 
 OCA  HN ES        147  6.61                             129    0.45 9  159 353 
 OCA  HZ I         147 10.05        41.9 0.18            131            159 353 
 ZAR  HZ EP        146 48.93                             121    0.15 9  204 292 
 ZAR  HE ES        147 14.33                             121    0.40 9  204 292 
 ZAR  HZ I         147 20.49        15.8 0.38            123            204 292 
 SML  HZ EP        146 52.26                             117   -0.58 8  243 335 
 SML  HE ES        147 21.18                             117    0.02 8  243 335 
 SML  HZ I         147 25.31        23.4 0.10            119            243 335 
 HEL  HZ EP        146 56.01                             114   -0.72 8  274 256 
 HEL  HN ES        147 27.55                             114   -0.53 8  274 256 
 HEL  HZ I         147 34.37         4.5 0.58            116            274 256 
 GUY2CHZ EP        147  1.00                             111    0.81 7  303 235 
 GUY2CHN ES        147 34.08                             111   -0.15 7  303 235 
 GUY2CHZ I         147 42.64         4.1 0.54                           303 235 
                                                                                
