 2010 1227 0227 59.6 L   6.839 -73.191138.0  RSN  4 0.2 1.6LRSN                1
 GAP=176        0.54       3.9    18.6  6.9 -0.2766E+02  0.2144E+02 -0.1410E+02E
 Epicentro: ZAPATOCA - SANTANDER                                               3
 ACTION:UP  11-01-14 15:27 OP:pat  STATUS:               ID:20101227022759 L   I
 2010-12-27-0227-05S.COL___131                                                 6
 STAT SP IPHASW D HRMM SECON CODA AMPLIT PERI AZIMU VELO SNR AR TRES W  DIS CAZ7
 BAR2 SZ EP   1    228 18.25                             168    -0.1 8   27 178 
 BAR2 SZ ES   1    228 33.22                             168     0.2 8   27 178 
 BAR2 SZ I         228 36.26        12.3 0.29                            27 178 
 RUS  HZ EP   1    228 22.77                             141    -0.2 8  105 173 
 RUS  HE ES   1    228 41.06                             141    -0.1 8  105 173 
 RUS  HZ I         228 42.41         4.1 0.11                           105 173 
 GRA  SZ EP        228 24.18                             136     0.310  123  20 
 GRA  SZ I         228 25.58         6.0 0.21                           123  20 
 GRA  SZ ES   2    228 42.53                             136    -0.4 5  123  20 
 OCA  SZ EP   1    228 26.62                             129    -0.2 7  155 355 
                                                                                
