 2014  127 0537 57.9 L   6.524 -73.774 87.1  RSN  5 0.4 1.1LRSN                1
 GAP= 95        0.92       5.7     4.1  9.7  0.8353E+01  0.1279E+02  0.1958E+02E
 Epicentro: SANTA HELENA DEL OPON - SANTANDER                                  3
 ACTION:UPD 14-03-13 09:58 OP:ep   STATUS:               ID:20140127053758 L   I
 OLDACT:UP  14-01-28 05:14 OP:CAM  STATUS:               ID:20140127053758 L   3
 OLDACT:REG 14-01-27 08:25 OP:stll STATUS:               ID:20140127052813     3
 2014-01-27-0528-13M.COL___225                                                 6
 STAT SP IPHASW D HRMM SECON CODA AMPLIT PERI AZIMU VELO AIN AR TRES W  DIS CAZ7
 BRR  HZ EP        538 12.62                             140    0.0210 64.8   6 
 BAR2 SZ EP        538 12.81                             140   -0.2010 65.8  83 
 BAR2 SZ ES        538 25.22                             140    0.4110 65.8  83 
 BAR2 SZ I         538 27.30        13.2 0.28            144           65.8  83 
 PTB  HZ EP        538 13.06                             136   -0.4410 75.5 271 
 PTB  HN ES   1    538 25.94                             136    0.25 7 75.5 271 
 PTB  HZ I         538 27.61         2.0 0.07            139           75.5 271 
 RUS  HZ EP        538 16.85                             126    0.0910  104 132 
 RUS  HN ES        538 31.02                             126   -0.4610  104 132 
 RUS  HZ I         538 32.70         2.2 0.16            130            104 132 
 CHI  HZ EP        538 29.06                             108    0.62 8  210 179 
                                                                                
