 2017  127 0357 20.0 L   6.737 -73.237145.6  RSN  5 0.3 0.9LRSN                1
 GAP=212        0.80       6.1     5.4  6.4  0.2034E+02  0.5993E+01  0.1574E+01E
 Epicentro: ZAPATOCA - SANTANDER                                               3
 ACTION:UPD 17-05-22 16:03 OP:jn   STATUS:               ID:20170127035720 L   I
 OLDACT:REG 17-01-27 12:37 OP:lv   STATUS:               ID:20170127034744     3
 2017-01-27-0348-00M.COL___328                                                 6
 STAT SP IPHASW D HRMM SECON CODA AMPLIT PERI AZIMU VELO AIN AR TRES W  DIS CAZ7
 BAR2 EZ EP        357 39.33                             173   -0.2010 17.1 159 
 BAR2 EZ ES        357 54.24                             173   -0.5010 17.1 159 
 BAR2 EZ I         357 55.02         1.8 0.11            169           17.1 159 
 BRR  HZ EP        357 40.82                             154   -0.0910 66.6 308 
 BRR  HE ES        357 57.72                             154    0.5310 66.6 308 
 RUS  HZ EP        357 43.70                             145    0.3410 94.9 170 
 RUS  HN ES        358  1.77                             145    0.2110 94.9 170 
 RUS  HZ I         358  3.60         1.2 0.10            143           94.9 170 
 PTB  HZ EP        357 45.82                             134   -0.17 9  137 261 
 PTB  HN ES        358  6.11                             134   -0.14 9  137 261 
 PTB  HZ I         358  9.39         1.4 0.10            133            137 261 
 ZAR  HN ES        358 16.59                             123   -0.00 9  198 295 
                                                                                
