 2011 1027 0259 40.1 L   6.544 -73.523111.8  RSN 19 0.3 2.6LRSN                1
 GAP= 55        0.42       1.5     1.9  3.3 -0.5424E+00  0.2694E+01  0.1056E+01E
 Epicentro: EL CARMEN DE CHUCURI - SANTANDER                                   3
 ACTION:UPD 12-07-13 16:06 OP:ep   STATUS:               ID:20111027025940 L   I
 2011-10-27-0257-59S.COL___177                                                 6
 STAT SP IPHASW D HRMM SECON CODA AMPLIT PERI AZIMU VELO AIN AR TRES W  DIS CAZ7
 BAR2 SZ IP        259 56.29                             160    0.0910 38.0  82 
 BAR2 SZ ES   2    3 0  9.03                             160    0.30 5 38.0  82 
 BTL  SZ EP   1    259 56.87                             154    0.10 7 50.1  34 
 BTL  SZ ES   2    3 0  9.96                             154    0.21 5 50.1  34 
 BRR  HZ EP        259 57.12                             147   -0.2410 65.7 341 
 BRR  HN ES   2    3 0 11.10                             147    0.31 5 65.7 341 
 BRR  HZ I         3 0 12.28       181.9 0.15                          65.7 341 
 GIR2 SZ IP        259 57.85                             146    0.0410 69.5  32 
 GIR2 SZ ES   2    3 0 11.36                             146   -0.24 5 69.5  32 
 RUS  HZ EP   1    259 59.17                             140   -0.42 7 86.9 146 
 RUS  HE ES   2    3 0 14.76                             140   -0.01 5 86.9 146 
 RUS  HZ I         3 0 16.38        76.2 0.23                          86.9 146 
 PAM  SZ EP   1    3 0  2.74                             128   -0.35 7  127  46 
 PAM  SE ES   2    3 0 20.77                             128   -0.23 5  127  46 
 BRI  SZ EP   2    3 0  5.91                             122    0.64 5  152  32 
 YOP  SZ EP   2    3 0  8.31                             117    0.27 4  179 137 
 YOP  SN ES   2    3 0 29.93                             117    0.13 4  179 137 
 ZAR  HZ EP   1    3 0  8.07                             117   -0.01 7  181 305 
 ZAR  HN ES   2    3 0 30.25                             117    0.37 4  181 305 
 ZAR  HZ I         3 0 33.26        70.2 0.28                           181 305 
 NOR  SZ EP   2    3 0  8.49                             117    0.00 4  184 234 
 NOR  SN ES   2    3 0 30.32                             117   -0.30 4  184 234 
 OCA  SZ EP        3 0  9.19                             116    0.07 9  189   7 
 OCA  SZ ES   2    3 0 31.55                             116   -0.17 4  189   7 
 OCA  SZ I         3 0 39.16        85.8 0.44                           189   7 
 ROSC BZ EP   2    3 0 11.80                             113    0.24 4  208 205 
 ROSC BN ES   2    3 0 35.86                             113   -0.21 4  208 205 
 ROSC BZ I         3 0 40.84        27.1 0.42                           208 205 
 HEL  HZ EP   1    3 0 13.36                             111   -0.12 6  225 260 
 HEL  HN ES   2    3 0 38.92                             111   -0.56 4  225 260 
 HEL  HZ I         3 0 40.93        37.3 0.29                           225 260 
 GUY  SZ EP   1    3 0 17.30                             109    0.51 6  253 235 
 GUY  SN ES   2    3 0 45.73                             109    0.34 4  253 235 
 GUY  SZ I         3 0 50.25        49.1 0.35                           253 235 
 VIL  SZ EP   1    3 0 18.51                             107    0.24 6  270 184 
 VIL  SN ES   2    3 0 47.91                             107   -0.11 4  270 184 
 VIL  SZ I         3 0 56.56        14.9 0.28                           270 184 
 RREF HZ EP   1    3 0 19.32                             107    0.17 6  272 228 
 RREF HN ES   2    3 0 49.59                             107    0.00 4  272 228 
 RREF HZ I         3 0 56.31        24.7 0.39                           272 228 
 TOL  SZ EP   2    3 0 21.37                             105   -0.04 4  294 223 
 TOL  SZ ES   2    3 0 53.32                             105   -0.29 4  294 223 
 DBB  SZ EP   2    3 0 21.98                             105    0.01 4  302 280 
 PRA  HZ EP   1    3 0 26.97                             102   -0.39 5  348 206 
 PRA  HN ES   2    3 1  4.67                             102    0.46 3  348 206 
                                                                                
