 2015  527 0804 17.0 L   6.794 -73.085142.7  RSN  9 0.4 1.4LRSN                1
 GAP=145        1.03       3.1     4.8  6.1 -0.1334E+01  0.1087E+02 -0.9184E+00E
 Epicentro: LOS SANTOS - SANTANDER                                             3
 ACTION:UPD 15-09-10 22:07 OP:cam  STATUS:               ID:20150527080417 L   I
 OLDACT:UP  15-05-27 18:43 OP:drio STATUS:               ID:20150527075740     3
 OLDACT:REG 15-05-27 12:51 OP:spq  STATUS:               ID:20150527075740     3
 2015-05-27-0757-40M.COL___291                                                 6
 STAT SP IPHASW D HRMM SECON CODA AMPLIT PERI AZIMU VELO AIN AR TRES W  DIS CAZ7
 BAR2 EZ EP        8 4 36.64                             170    0.3710 24.8 206 
 BAR2 EZ ES        8 4 51.32                             170    0.0110 24.8 206 
 BAR2 EZ I         8 4 52.79         6.9 0.18            169           24.8 206 
 PAM  SZ EP        8 4 39.35                             151    0.7010 73.8  35 
 PAM  SN ES        8 4 55.16                             151   -0.3910 73.8  35 
 PAM  SZ I         8 4 58.35         3.4 0.50            155           73.8  35 
 BRR  HZ EP        8 4 38.50                             150    0.3410 77.5 297 
 BRR  HE ES        8 4 55.37                             150    0.6810 77.5 297 
 BRR  HZ I         8 4 58.39         5.6 0.32            149           77.5 297 
 RUS  HZ EP        8 4 39.70                             143   -0.6610 99.7 180 
 RUS  HE ES        8 4 58.48                             143   -0.1210 99.7 180 
 RUS  HZ I         8 5  0.34         1.2 0.38            146           99.7 180 
 OCA  HN ES        8 5  6.77                             129   -0.44 9  162 351 
 OCA  HZ I         8 5 11.38         4.6 0.30            131            162 351 
 SPBC HZ EP        8 4 45.89                             128    0.28 9  167 221 
 SPBC HN ES        8 5  7.52                             128   -0.42 9  167 221 
 SPBC HZ I         8 5 14.41         3.8 0.24            129            167 221 
 ZAR  HZ EP        8 4 49.55                             121   -0.35 8  211 292 
 ZAR  HE ES        8 5 15.21                             121   -0.37 8  211 292 
 ZAR  HZ I         8 5 20.82         3.8 0.42            122            211 292 
 SML  HZ EP        8 4 53.83                             116    0.02 8  247 334 
 SML  HN ES        8 5 22.35                             116   -0.19 8  247 334 
 GUY2CHZ EP        8 5  1.12                             111    0.09 7  306 236 
 GUY2CHN ES        8 5 35.65                             111    0.26 7  306 236 
 GUY2CHZ I         8 5 41.81         1.0 0.28                           306 236 
                                                                                
