 2010  827 0215 13.5 L   6.786 -73.090149.6  RSN  4 0.2 1.3LRSN                1
 GAP=165        0.56       4.2     8.0  8.9 -0.9845E+01 -0.8998E+01 -0.8033E-01E
 Epicentro: LOS SANTOS - SANTANDER                                             3
 ACTION:UP  10-09-07 10:58 OP:vdl  STATUS:               ID:20100827021513 L   I
 2010-08-27-0214-04S.COL___120                                                 6
 STAT SP IPHASW D HRMM SECON CODA AMPLIT PERI AZIMU VELO SNR AR TRES W  DIS CAZ7
 BAR2 SZ IP        215 33.49                             171    -0.210   24 206 
 BAR2 SZ I         215 33.98         4.1 0.17                            24 206 
 BRR  HZ IP     C  215 35.33                             151    -0.110   77 297 
 BRR  HZ I         215 52.06         8.2 0.37                            77 297 
 BRR  HE ES   2    215 52.92                             151     0.4 5   77 297 
 RUS  HZ EP   2    215 38.09                             145     0.5 5   99 180 
 RUS  HN ES   2    215 56.21                             145    -0.1 5   99 180 
 RUS  HZ I         215 57.29         1.9 0.27                            99 180 
 GRA  SZ IP        215 39.25                             138     0.110  126  15 
 GRA  SZ ES   1    215 59.02                             138     0.0 7  126  15 
 GRA  SZ I         215 59.89         2.8 0.35                           126  15 
                                                                                
