 2012  227 0903 37.9 L   6.801 -73.157140.7  RSN  7 0.4 1.5LRSN                1
 GAP=135        0.73       4.5     5.2  6.8  0.8632E+01  0.9555E+01  0.8472E+01E
 ACTION:UP  12-03-07 16:34 OP:epov STATUS:               ID:20120227090337 L   I
 2012-02-27-0900-00M.COL___192                                                 6
 STAT SP IPHASW D HRMM SECON CODA AMPLIT PERI AZIMU VELO AIN AR TRES W  DIS CAZ7
 BAR2 SZ EP   1    9 3 56.89                             170   -0.03 7 23.3 187 
 BAR2 SZ ES   1    9 4 11.43                             170   -0.32 7 23.3 187 
 BAR2 SZ I         9 4 12.97        11.3 0.27                          23.3 187 
 BRR  HZ EP        9 3 58.70                             152    0.2710 70.0 299 
 BRR  HN ES   1    9 4 15.05                             152    0.61 7 70.0 299 
 BRR  HZ I         9 4 16.28         9.3 0.14                          70.0 299 
 PAM  SN ES   2    9 4 16.42                             149   -0.13 5 78.1  40 
 RUS  HZ EP   1    9 4  0.89                             143   -0.28 7  101 175 
 RUS  HN ES   1    9 4 19.30                             143   -0.02 7  101 175 
 RUS  HZ I         9 4 21.45         3.6 0.32                           101 175 
 PTB  HZ EP   1    9 4  4.06                             131   -0.28 7  147 259 
 PTB  HN ES   1    9 4 24.27                             131   -0.70 7  147 259 
 ZAR  HN ES   1    9 4 34.89                             121    0.05 6  203 292 
 ZAR  HZ I         9 4 40.32         3.8 0.26                           203 292 
 CHI  HZ EP   1    9 4 15.31                             116    0.01 6  248 195 
 CHI  HN ES   1    9 4 45.18                             116    0.71 6  248 195 
 CHI  HZ I         9 4 53.26         1.9 0.39                           248 195 
                                                                                
