 2016 1127 0639  9.1 L   6.752 -73.106144.0  RSN  5 0.3 1.4LRSN                1
 GAP=171        0.85       7.0     4.1  6.2 -0.6420E+01  0.7423E+01 -0.1800E+01E
 Epicentro: LOS SANTOS - SANTANDER                                             3
 ACTION:UPD 17-10-26 21:12 OP:lp   STATUS:               ID:20161127063909 L   I
 OLDACT:UP  16-11-27 15:13 OP:dani STATUS:               ID:20161127063745     3
 OLDACT:REG 16-11-27 12:57 OP:dani STATUS:               ID:20161127063745     3
 2016-11-27-0638-00M.COL___349                                                 6
 STAT SP IPHASW D HRMM SECON CODA AMPLIT PERI AZIMU VELO AIN AR TRES W  DIS CAZ7
 BAR2 EZ EP        639 28.68                             172    0.2310 19.6 206 
 BAR2 EZ ES        639 43.07                             172   -0.4710 19.6 206 
 BRR  HZ EP        639 30.53                             150    0.0910 77.7 300 
 BRR  HN ES        639 47.26                             150    0.1710 77.7 300 
 BRR  HZ I         639 51.59         5.2 0.12            145           77.7 300 
 PAM  EZ EP        639 31.61                             150    0.3910 78.9  35 
 PAM  EN ES        639 48.37                             150   -0.1110 78.9  35 
 PAM  EZ I         639 50.41         3.9 0.42            148           78.9  35 
 PTB  HZ EP        639 36.04                             131   -0.20 9  151 261 
 PTB  HN ES        639 57.86                             131    0.45 9  151 261 
 PTB  HZ I         639 59.41         3.0 0.20            130            151 261 
 ZAR  HZ EP        639 41.43                             121   -0.64 8  210 293 
 ZAR  HN ES        640  7.71                             121   -0.07 8  210 293 
 ZAR  HZ I         640 14.94         3.1 0.56            120            210 293 
                                                                                
