 2011  727 0428 27.3 L   6.762 -73.098149.5  RSN  4 0.1 1.3LRSN                1
 GAP=223        0.35       7.2     7.3  3.6  0.2771E+02 -0.2497E+01  0.8814E+00E
 Epicentro: LOS SANTOS - SANTANDER                                             3
 ACTION:UPD 12-07-25 14:03 OP:epov STATUS:               ID:20110727042827 L   I
 2011-07-27-0423-57S.COL___141                                                 6
 STAT SP IPHASW D HRMM SECON CODA AMPLIT PERI AZIMU VELO AIN AR TRES W  DIS CAZ7
 BAR2 SZ EP   1    428 47.31                             172   -0.07 7 20.9 206 
 BAR2 SZ I         428 47.92         3.8 0.10                          20.9 206 
 BAR2 SZ ES   1    429  3.05                             172    0.04 7 20.9 206 
 BTL  SZ EP   1    428 47.73                             170    0.25 7 25.5 313 
 BTL  SZ ES   1    429  3.04                             170   -0.13 7 25.5 313 
 GIR2 SZ EP   1    428 47.46                             166   -0.16 7 36.6 343 
 GIR2 SZ ES   1    429  3.51                             166    0.08 7 36.6 343 
 BRR  HZ EP   1    428 49.26                             151   -0.02 7 77.8 299 
 BRR  HE ES   1    429  6.40                             151    0.01 7 77.8 299 
 BRR  HZ I         429  6.92         4.6 0.20                          77.8 299 
                                                                                
