 2016 1027 0844  3.6 L   6.755 -73.085143.5  RSN 12 0.3 2.0LRSN                1
 GAP=126        0.80       2.9     3.1  4.5 -0.9719E+00  0.2886E+01  0.4307E+01E
 Epicentro: LOS SANTOS - SANTANDER                                             3
 ACTION:UPD 16-11-09 19:23 OP:rebc STATUS:               ID:20161027084403 L   I
 OLDACT:REG 16-10-27 13:31 OP:cog  STATUS:               ID:20161027083746     3
 2016-10-27-0838-00M.COL___346                                                 6
 STAT SP IPHASW D HRMM SECON CODA AMPLIT PERI AZIMU VELO AIN AR TRES W  DIS CAZ7
 BAR2 EZ EP        844 22.78                             171   -0.1210 21.0 211 
 BAR2 HE ES        844 37.97                             171    0.0110 21.0 211 
 BAR2 EZ I         844 39.82        14.7 0.42            170           21.0 211 
 PAM  EZ EP        844 25.62                             150    0.0510 77.4  33 
 PAM  EN ES        844 42.69                             150   -0.0210 77.4  33 
 PAM  EZ I         844 44.94        26.5 0.52            153           77.4  33 
 BRR  HZ IP        844 24.55                             149   -0.4410 79.5 299 
 BRR  HE ES        844 41.70                             149    0.0210 79.5 299 
 BRR  HZ I         844 45.36        12.4 0.10            149           79.5 299 
 RUS  HN EP        844 27.24                             145    0.5010 95.3 180 
 RUS  HE ES        844 44.82                             145    0.0210 95.3 180 
 RUS  HZ I         844 46.63        14.4 0.36            146           95.3 180 
 PTB  HZ EP        844 31.50                             130    0.60 9  154 261 
 PTB  HN ES   4    844 49.95                             130   -2.26 0  154 261 
 PTB  HZ I         844 54.12         8.1 0.18            130            154 261 
 SPBC HZ ES        844 53.95                             128   -0.15 9  164 222 
 NOR  HN ES        845  7.21                             118   -0.26 8  237 236 
 NOR  HZ  AMP      845 11.34       184.5 0.14                           237 236 
 CHI  HZ EP        844 41.40                             117    0.56 8  246 197 
 CHI  HE ES        845 10.27                             117    0.37 8  246 197 
 CHI  HZ I         845 13.96         5.5 0.50            118            246 197 
 PTGC HN EP        844 46.03                             112   -0.51 7  302 160 
 PTGC HZ EP        844 46.11                             112            302 160 
 PTGC HE ES        845 19.44                             112   -0.60 7  302 160 
 PTGC HZ I         845 21.26         7.4 0.44            113            302 160 
 GUY2CHZ EP        844 47.09                             112   -0.31 7  304 236 
 GUY2CHE ES        845 21.79                             112    0.22 7  304 236 
 GUY2CHZ I         845 28.65         5.0 0.50                           304 236 
 CBOC HZ EP        844 51.02                             109    0.04 7  339 253 
 CBOC HN ES        845 27.46                             109   -0.48 7  339 253 
 CBOC HZ I         845 38.05         1.3 0.50            110            339 253 
 SJC  HZ EP   4    844 57.12                             105   -2.89 0  417 327 
 SJC  HE ES   4    845 37.52                             105   -6.49 0  417 327 
 SJC  HZ I         845 44.38         1.5 0.28            106            417 327 
                                                                                
