 2012  627 0257 23.7 L   6.781 -73.198145.5  RSN  5 0.4 1.2LRSN                1
 GAP=230        0.79       8.1     7.3  9.4  0.3567E+02  0.1736E+02 -0.5669E+01E
 Epicentro: ZAPATOCA - SANTANDER                                               3
 ACTION:UPD 12-08-06 17:52 OP:ep   STATUS:               ID:20120627025723 L   I
 2012-06-27-0250-00M.COL___201                                                 6
 STAT SP IPHASW D HRMM SECON CODA AMPLIT PERI AZIMU VELO AIN AR TRES W  DIS CAZ7
 BAR2 SZ EP   1    257 43.06                             171   -0.18 9 20.9 175 
 BAR2 SZ ES   1    257 57.80                             171   -0.69 9 20.9 175 
 BAR2 SZ I         258  0.50         4.0 0.24                          20.9 175 
 BRR  HZ EP   1    257 44.73                             154    0.14 9 67.3 302 
 BRR  HZ I         257 45.02         6.4 0.12                          67.3 302 
 BRR  HN ES   1    258  1.39                             154    0.49 9 67.3 302 
 RUS  HN ES   1    258  6.28                             144    0.56 9 99.1 173 
 RUS  HZ I         258  6.77         1.9 0.19                          99.1 173 
 PTB  HZ EP   1    257 49.91                             133   -0.17 8  142 259 
 PTB  HN ES   1    258 10.40                             133   -0.28 8  142 259 
 PTB  HZ I         258 12.54         0.9 0.15                           142 259 
 ZAR  HN ES        258 20.64                             123    0.0610  200 293 
                                                                                
