 2012 1227 0007 31.7 L   6.802 -73.142146.1  RSN  9 0.5 2.2LRSN                1
 GAP=183        1.08       5.1     6.5  7.9  0.6975E+01  0.1594E+02  0.1051E+01E
 Epicentro: LOS SANTOS - SANTANDER                                             3
 ACTION:UPD 13-01-04 14:30 OP:ep   STATUS:               ID:20121227000731 L   I
 2012-12-27-0000-00M.COL___243                                                 6
 STAT SP IPHASW D HRMM SECON CODA AMPLIT PERI AZIMU VELO AIN AR TRES W  DIS CAZ7
 BAR2 SZ EP        0 7 51.50                             170    0.0810 23.6 191 
 BAR2 SZ ES        0 8  6.22                             170   -0.5510 23.6 191 
 BAR2 SZ I         0 8  7.73        91.0 0.16                          23.6 191 
 GIR2 SZ EP   1    0 7 52.01                             167    0.55 7 31.2 349 
 GIR2 SZ ES   1    0 8  7.22                             167    0.39 7 31.2 349 
 GIR2 SZ I         0 8  7.78        18.8 0.28                          31.2 349 
 BRR  HZ EP        0 7 53.51                             152    0.5610 71.5 298 
 BRR  HN ES   1    0 8 10.31                             152    0.82 7 71.5 298 
 BRR  HZ I         0 8 10.97        18.9 0.16                          71.5 298 
 RUS  HZ EP     C  0 7 55.46                             144   -0.0810  101 176 
 RUS  HE ES   1    0 8 14.22                             144    0.11 7  101 176 
 RUS  HZ I         0 8 15.03        18.0 0.26                           101 176 
 PTB  HZ EP   1    0 7 58.10                             132   -0.68 7  148 259 
 PTB  HN ES   1    0 8 18.99                             132   -0.88 7  148 259 
 PTB  HZ I         0 8 23.41        20.9 0.12                           148 259 
 OCA  HN ES   1    0 8 21.37                             130   -0.79 7  160 353 
 OCA  HZ I         0 8 26.51        12.2 0.16                           160 353 
 ZAR  HZ EP   2    0 8  4.66                             122    0.41 4  204 292 
 ZAR  HN ES   1    0 8 29.93                             122    0.33 6  204 292 
 ZAR  HZ I         0 8 36.02        11.5 0.38                           204 292 
 SML  HN ES   1    0 8 36.49                             117   -0.49 6  244 335 
 HEL  HZ EP   1    0 8 11.62                             115   -0.41 6  273 256 
 HEL  HE ES   1    0 8 44.00                             115    0.55 6  273 256 
 HEL  HZ I         0 8 50.18        11.1 0.28                           273 256 
 URE  HN ES   4    0 8 43.00                             114   -1.94 0  284 292 
 MON  HZ EP   4    0 8 17.81                             109   -2.97 0  354 308 
 MON  HN ES   4    0 8 57.50                             109   -1.54 0  354 308 
                                                                                
