 2011  127 0013 55.1 L   6.818 -73.141141.5  RSN  6 0.3 1.4LRSN                1
 GAP=159        0.57       3.6     8.9  9.4 -0.1854E+02  0.4818E+02 -0.9928E+01E
 Epicentro: LOS SANTOS - SANTANDER                                             3
 ACTION:UP  11-02-08 08:42 OP:pat  STATUS:               ID:20110127001355 L   I
 2011-01-27-0012-26S.COL___138                                                 6
 STAT SP IPHASW D HRMM SECON CODA AMPLIT PERI AZIMU VELO SNR AR TRES W  DIS CAZ7
 GIR2 SZ EP   2    014 14.61                             168     0.4 5   29 349 
 RUS  HZ EP   1    014 18.39                             142    -0.2 7  103 176 
 RUS  HN ES   1    014 37.00                             142     0.1 7  103 176 
 RUS  HZ I         014 38.22         4.1 0.28                           103 176 
 GRA  SZ EP   1    014 20.25                             136     0.5 7  124  17 
 GRA  SZ I         014 21.21         3.7 0.52                           124  17 
 GRA  SZ ES   1    014 38.68                             136    -0.4 7  124  17 
 OCA  SZ EP   2    014 22.69                             129    -0.2 5  158 353 
 OCA  SZ I         014 51.37         5.4 0.25                           158 353 
 NOR  SZ EP   1    014 30.83                             117     0.1 6  236 234 
 NOR  SE ES   2    014 58.56                             117     0.0 4  236 234 
 CHI  HZ EP   2    014 32.42                             116    -0.4 4  251 195 
 CHI  HZ I         014 33.99         1.4 0.36                           251 195 
 CHI  HE ES   2    015  2.20                             116     0.0 4  251 195 
                                                                                
