 2011  127 0338 36.5 L   6.821 -73.178153.0  RSN  5 0.3 1.3LRSN                1
 GAP=160        0.57       4.0    19.5  6.7 -0.2470E+02  0.1068E+02 -0.3992E+01E
 Epicentro: LOS SANTOS - SANTANDER                                             3
 ACTION:UP  11-02-08 08:42 OP:pat  STATUS:               ID:20110127033836 L   I
 2011-01-27-0334-09S.COL___138                                                 6
 STAT SP IPHASW D HRMM SECON CODA AMPLIT PERI AZIMU VELO SNR AR TRES W  DIS CAZ7
 BAR2 SZ EP   2    338 56.88                             170    -0.2 5   25 182 
 BAR2 SZ I         338 57.39         5.0 0.08                            25 182 
 BAR2 SZ ES   1    339 13.18                             170     0.1 7   25 182 
 RUS  HZ EP   1    339  0.83                             145    -0.3 7  103 174 
 RUS  HZ I         339  1.56         1.9 0.07                           103 174 
 RUS  HN ES   2    339 20.63                             145     0.3 5  103 174 
 GRA  SZ EP   1    339  2.71                             139     0.4 7  125  19 
 GRA  SZ ES   2    339 21.99                             139    -0.5 5  125  19 
 GRA  SZ I         339 24.72         3.4 0.40                           125  19 
 OCA  SZ EP   2    339  5.26                             132     0.1 5  158 354 
 OCA  SZ ES   2    339 27.30                             132    -0.2 5  158 354 
 OCA  SZ I         339 33.25         4.4 0.55                           158 354 
 CHI  HZ EP   2    339 14.79                             118     0.0 4  250 194 
 CHI  HZ I         339 15.71         1.1 0.43                           250 194 
                                                                                
