 2015  427 0814 48.7 L   7.460 -73.188122.6  RSN  7 0.6 2.0LRSN                1
 GAP=213        1.51       5.8     9.3 11.4  0.1497E+02  0.2638E+01 -0.1673E+02E
 Epicentro: EL PLAYON - SANTANDER                                              3
 ACTION:UPD 15-06-03 16:57 OP:cam  STATUS:               ID:20150427081448 L   I
 OLDACT:DUP 15-04-27 18:50 OP:stll STATUS:               ID:20150427080748d    3
 2015-04-27-0807-47M.COL___268                                                 6
 STAT SP IPHASW D HRMM SECON CODA AMPLIT PERI AZIMU VELO AIN AR TRES W  DIS CAZ7
 BRR  HZ EP        815  7.67                             148    0.4010 69.8 236 
 BRR  HZ I         815  7.83        20.1 0.24            130           69.8 236 
 BRR  HN ES        815 22.49                             148    0.7110 69.8 236 
 BAR2 EZ EP        815  9.50                             140    0.0110 96.0 180 
 BAR2 EZ ES        815 25.65                             140   -0.0910 96.0 180 
 BAR2 EZ I         815 27.39        13.0 0.26            125           96.0 180 
 PTB  HZ EP        815 16.16                             122   -0.28 9  173 234 
 PTB  HN ES        815 36.91                             122   -1.18 9  173 234 
 PTB  HZ I         815 41.88         7.7 0.28            108            173 234 
 SML  HZ EP        815 16.35                             121   -0.50 9  177 327 
 SML  HE ES        815 38.19                             121   -0.63 9  177 327 
 SML  HZ I         815 39.46        17.3 0.10            109            177 327 
 ZAR  HZ EP        815 17.53                             120   -0.07 9  184 271 
 ZAR  HN ES        815 40.44                             120    0.28 9  184 271 
 ZAR  HZ I         815 45.48        14.9 0.54            107            184 271 
 SPBC HZ EP        815 21.81                             115   -0.05 8  223 206 
 SPBC HE ES        815 47.60                             115   -0.14 8  223 206 
 SPBC HZ I         815 54.83         7.9 0.16            104            223 206 
 URE  HZ EP        815 27.75                             111    1.69 8  261 277 
 URE  HZ I         815 56.31         6.3 0.34            102            261 277 
                                                                                
