 2016 1227 0100 41.4 L   6.798 -73.167147.7  RSN 10 0.3 1.5LRSN                1
 GAP=134        0.72       2.9     3.5  5.0  0.1051E+01  0.3169E+01  0.4058E+01E
 Epicentro: LOS SANTOS - SANTANDER                                             3
 ACTION:UPD 17-01-11 20:19 OP:rebc STATUS:               ID:20161227010041 L   I
 OLDACT:UP  16-12-27 14:28 OP:edw  STATUS:               ID:20161227005742     3
 OLDACT:UP  16-12-27 14:28 OP:edw  STATUS:               ID:20161227005742     3
 OLDACT:REG 16-12-27 12:48 OP:edw  STATUS:               ID:20161227005742     3
 2016-12-27-0058-00M.COL___372                                                 6
 STAT SP IPHASW D HRMM SECON CODA AMPLIT PERI AZIMU VELO AIN AR TRES W  DIS CAZ7
 BAR2 EZ EP        1 1  0.93                             171   -0.3010 22.8 184 
 BAR2 EZ ES        1 1 16.81                             171    0.0910 22.8 184 
 BAR2 EZ I         1 1 17.87         9.2 0.21            170           22.8 184 
 BRR  HZ EP        1 1  3.15                             153    0.5210 69.3 300 
 BRR  HE ES        1 1 19.44                             153    0.2310 69.3 300 
 BRR  HZ I         1 1 20.89         5.3 0.24            155           69.3 300 
 PAM  EZ IP     C  1 1  4.09                             151    0.1910 79.1  41 
 PAM  EN ES        1 1 21.30                             151   -0.1710 79.1  41 
 PAM  EZ I         1 1 23.32         6.6 0.46            153           79.1  41 
 RUS  HZ EP        1 1  5.07                             144   -0.2410  101 175 
 RUS  HN ES        1 1 24.00                             144    0.0110  101 175 
 RUS  HZ I         1 1 25.52         7.0 0.40            144            101 175 
 PTB  HZ EP   2    1 1  8.23                             133   -0.06 5  145 259 
 PTB  HN ES   2    1 1 29.09                             133   -0.20 5  145 259 
 PTB  HZ I         1 1 30.82         2.7 0.16            134            145 259 
 ZAR  HN ES        1 1 38.42                             123   -0.56 9  202 292 
 NOR  HN ES   2    1 1 45.68                             119    0.90 4  233 234 
 CHI  HZ EP        1 1 19.26                             118    0.17 8  248 195 
 CHI  HN ES        1 1 48.32                             118   -0.19 8  248 195 
 CHI  HZ I         1 1 53.17         1.3 0.35            118            248 195 
 GUY2CHZ EP   4    1 1 26.98                             113    2.14 0  299 235 
 GUY2CHN ES   4    1 2  3.34                             113    4.60 0  299 235 
 GUY2CHZ I         1 2  7.16         1.1 0.28                           299 235 
 SJC  HZ EP   9    1 1 36.03                             106   -0.85 0  408 327 
 SJC  HN ES        1 2 18.90                             106   -0.42 6  408 327 
                                                                                
