 2012  727 0951  4.7 L   6.732 -73.190138.1  RSN  4 0.2 1.5LRSN                1
 GAP=227        0.35       6.4     8.1 10.9  0.3499E+02  0.1177E+02  0.1443E+02E
 Epicentro: VILLANUEVA - SANTANDER                                             3
 ACTION:UPD 12-08-14 11:45 OP:ep   STATUS:               ID:20120727095104 L   I
 2012-07-27-0950-00M.COL___215                                                 6
 STAT SP IPHASW D HRMM SECON CODA AMPLIT PERI AZIMU VELO AIN AR TRES W  DIS CAZ7
 BAR2 SZ EP        951 23.19                             173    -0.110   15 177 
 BAR2 SZ ES   3    951 37.66                             173    -0.1 2   15 177 
 BAR2 SZ I         951 39.01         7.9 0.32            162             15 177 
 BRR  HZ EP        951 25.05                             151     0.010   71 306 
 BRR  HZ I         951 35.87         6.6 0.64            136             71 306 
 RUS  HZ EP        951 27.22                             144     0.010   94 173 
 PTB  HZ EP   3    951 29.91                             131    -0.6 2  142 261 
 PTB  HE ES   3    951 50.71                             131     0.1 2  142 261 
