 2014 1227 0721 33.2 L   6.538 -74.133 24.5  RSN  4 0.3 1.2LRSN                1
 GAP=140        0.85       2.3     2.6  3.3 -0.1059E+01 -0.5679E+00  0.5888E+00E
 Epicentro: PUERTO PARRA - SANTANDER                                           3
 ACTION:UPD 15-02-10 17:07 OP:nd   STATUS:               ID:20141227072133 L   I
 OLDACT:REG 14-12-27 13:30 OP:mh   STATUS:               ID:20141227071744     3
 2014-12-27-0717-44M.COL___265                                                 6
 STAT SP IPHASW D HRMM SECON CODA AMPLIT PERI AZIMU VELO AIN AR TRES W  DIS CAZ7
 PTB  HZ EP        721 40.28                             122    0.1810 35.7 270 
 PTB  HN ES        721 45.34                             122   -0.1710 35.7 270 
 PTB  HZ I         721 45.53        41.3 0.12            121           35.7 270 
 BRR  HZ EP        721 45.63                             105   -0.4110 78.3  36 
 BRR  HN ES        721 56.21                             105    0.1210 78.3  36 
 BRR  HZ I         721 56.96         8.2 0.14            104           78.3  36 
 SPBC HZ EP        721 49.18                              71    0.1810 98.2 176 
 SPBC HN ES   1    722  1.12                              71   -0.23 7 98.2 176 
 SPBC HZ I         722  2.89         3.8 0.02            101           98.2 176 
 ZAR  HZ EP        721 53.86                              56    0.6210  132 323 
 ZAR  HN ES        722  8.52                              56   -0.3710  132 323 
 ZAR  HZ I         722  9.73         4.3 0.25             56            132 323 
                                                                                
