 2010 1027 0716 58.7 L   6.804 -73.095142.9  RSN 10 0.3 1.7LRSN                1
 GAP=164        0.61       2.5     5.4  4.8 -0.3889E+01  0.1963E+01  0.4111E+00E
 Epicentro: LOS SANTOS - SANTANDER                                             3
 ACTION:UP  11-02-18 11:12 OP:tino STATUS:               ID:20101027071658 L   I
 2010-10-27-0713-00S.COL___128                                                 6
 STAT SP IPHASW D HRMM SECON CODA AMPLIT PERI AZIMU VELO SNR AR TRES W  DIS CAZ7
 BTL  SZ EP        717 18.30                             170     0.310   23 303 
 BAR2 SZ EP   1    717 17.98                             169    -0.1 7   25 203 
 BAR2 SZ ES   1    717 32.79                             169    -0.4 7   25 203 
 BAR2 SZ I         717 36.77         8.7 0.21                            25 203 
 BRR  HZ EP        717 19.76                             150    -0.110   76 296 
 BRR  HN ES   1    717 36.70                             150     0.3 7   76 296 
 BRR  HZ I         717 40.06        15.1 0.25                            76 296 
 RUS  HZ EP   1    717 22.16                             143    -0.1 7  101 179 
 RUS  HE ES   1    717 40.71                             143     0.2 7  101 179 
 RUS  HZ I         717 42.69         5.8 0.31                           101 179 
 GRA  SZ IP        717 23.73                             137     0.210  124  15 
 GRA  SZ ES   1    717 42.66                             137    -0.3 7  124  15 
 GRA  SZ I         717 44.40         6.6 0.35                           124  15 
 OCA  SZ EP   1    717 26.49                             129    -0.4 7  161 351 
 OCA  SZ ES   1    717 48.95                             129     0.2 7  161 351 
 OCA  SZ I         717 51.97         8.2 0.07                           161 351 
 NOR  SZ EP   2    717 34.41                             117    -0.4 4  240 235 
 NOR  SE ES   2    718  2.44                             117    -0.6 4  240 235 
 CHI  HZ EP   2    717 36.20                             116    -0.3 4  251 196 
 CHI  HE ES   2    718  6.41                             116     0.5 4  251 196 
 CHI  HZ I         718 13.70         2.5 0.41                           251 196 
 HEL  HZ EP   2    717 39.81                             114     0.4 4  278 256 
 HEL  HZ I         718 16.00         2.7 0.38                           278 256 
 PRA  HZ EP   1    717 52.99                             106     0.4 4  395 210 
 PRA  HE ES   2    718 34.04                             106    -0.5 3  395 210 
                                                                                
