 2011  627 0540 19.7 L   6.709 -73.048143.9  RSN  7 0.4 1.5LRSN                1
 GAP=168        0.76       6.8    10.6  7.6 -0.3183E+02 -0.1517E+02 -0.9506E+01E
 Epicentro: ARATOCA - SANTANDER                                                3
 ACTION:UP  11-07-14 19:08 OP:ep   STATUS:               ID:20110627054019 L   I
 2011-06-27-0536-19S.COL___140                                                 6
 STAT SP IPHASW D HRMM SECON CODA AMPLIT PERI AZIMU VELO SNR AR TRES W  DIS CAZ7
 BAR2 SZ EP        540 39.35                             172     0.310   20 229 
 BAR2 SZ ES   1    540 54.12                             172     0.0 7   20 229 
 BAR2 SZ I         540 56.71         6.0 0.21                            20 229 
 BTL  SZ EP        540 39.64                             167     0.310   33 314 
 BTL  SZ ES   2    540 54.99                             167     0.3 5   33 314 
 GIR2 SZ EP        540 39.60                             163     0.010   44 339 
 GIR2 SZ ES   3    540 54.49                             163    -0.6 2   44 339 
 BRR  HZ EP        540 41.26                             148    -0.310   86 301 
 BRR  HZ I         540 41.65         9.6 0.11                            86 301 
 BRR  HN ES   2    540 58.21                             148    -0.3 5   86 301 
 RUS  HN ES   3    540 58.27                             145    -2.1 2   90 182 
 BRI  SZ EP        540 44.06                             139     0.210  115  14 
 GRA  SZ EP        540 45.25                             135    -0.110  133  12 
 GRA  SZ I         540 46.57         3.6 0.21                           133  12 
 GRA  SZ ES   1    541  4.96                             135    -0.4 7  133  12 
                                                                                
