 2017  827 0219 53.5 L   6.770 -73.132141.7  RSN  6 0.2 1.3LRSN                1
 GAP=140        0.46       1.9     2.3  3.3 -0.1743E+00  0.1493E+01  0.6167E+00E
 Epicentro: LOS SANTOS - SANTANDER                                             3
 ACTION:UPD 17-09-04 20:24 OP:rebc STATUS:               ID:20170827021953 L   I
 OLDACT:REG 17-08-27 13:03 OP:edw  STATUS:               ID:20170827021738     3
 2017-08-27-0218-00M.COL___411                                                 6
 STAT SP IPHASW D HRMM SECON CODA AMPLIT PERI AZIMU VELO AIN AR TRES W  DIS CAZ7
 BAR2 EZ EP        220 12.45                             171   -0.1710 20.4 196 
 BAR2 EZ ES        220 27.23                             171   -0.2810 20.4 196 
 BAR2 EZ I         220 28.07         7.3 0.18            169           20.4 196 
 BRR  HZ EP        220 14.43                             151    0.0110 74.2 300 
 BRR  HN ES        220 30.72                             151    0.0110 74.2 300 
 PAM  EZ EP        220 15.44                             150    0.0210 79.0  37 
 PAM  EN ES        220 32.68                             150    0.1910 79.0  37 
 PAM  EZ I         220 34.23         4.8 0.68            152           79.0  37 
 RUS  HZ EP        220 16.45                             144   -0.1910 97.2 177 
 RUS  HN ES        220 34.91                             144    0.2510 97.2 177 
 RUS  HZ I         220 35.63         1.7 0.24            144           97.2 177 
 SPBC HZ EP        220 21.70                             128    0.12 9  162 220 
 SPBC HN ES        220 43.51                             128    0.06 9  162 220 
 SPBC HZ I         220 49.54         3.3 0.22            128            162 220 
 ZAR  HN ES        220 51.36                             121    0.04 8  207 293 
                                                                                
