 2014 1027 0111 48.7 L   6.766 -73.151147.8  RSN  6 0.4 1.3LRSN                1
 GAP=137        0.90       4.6     4.7  6.9 -0.5147E+01  0.3954E+01  0.3080E+01E
 Epicentro: LOS SANTOS - SANTANDER                                             3
 ACTION:UPD 14-11-29 23:57 OP:nd   STATUS:               ID:20141027011148 L   I
 OLDACT:REG 14-10-29 19:18 OP:spq  STATUS:               ID:20141027010739     3
 2014-10-27-0107-39M.COL___274                                                 6
 STAT SP IPHASW D HRMM SECON CODA AMPLIT PERI AZIMU VELO AIN AR TRES W  DIS CAZ7
 BAR2 SZ EP        112  8.52                             172    0.0010 19.5 190 
 BAR2 SZ ES   1    112 23.63                             172   -0.33 7 19.5 190 
 BAR2 SZ I         112 24.51         3.4 0.38            171           19.5 190 
 BRR  HZ EP   1    112 10.65                             152    0.50 7 72.5 301 
 BRR  HN ES        112 27.53                             152    0.6510 72.5 301 
 BRR  HZ I         112 30.58         5.8 0.48            151           72.5 301 
 PAM  SZ EP        112 11.47                             150    0.1310 80.7  38 
 PAM  SE ES        112 28.57                             150   -0.4210 80.7  38 
 PAM  SZ I         112 30.81         5.0 0.52            154           80.7  38 
 RUS  HZ EP   1    112 12.53                             145    0.13 7 96.9 176 
 RUS  HN ES        112 31.00                             145    0.1210 96.9 176 
 RUS  HZ I         112 32.58         1.6 0.22            147           96.9 176 
 PTB  HZ EP        112 15.36                             133   -0.37 9  146 260 
 PTB  HN ES        112 36.24                             133   -0.56 9  146 260 
 PTB  HZ I         112 41.31         2.3 0.10            133            146 260 
 SPBC HZ EP   1    112 17.01                             130   -0.05 7  160 220 
 SPBC HE ES   1    112 39.55                             130    0.38 7  160 220 
 SPBC HZ I         112 42.40         3.9 0.10            131            160 220 
                                                                                
