 2015  127 0343 21.8 L   6.810 -73.152147.5  RSN 10 0.4 1.7LRSN                1
 GAP=135        1.00       2.9     4.2  5.7  0.1037E+01  0.5618E+01 -0.3080E-01E
 Epicentro: LOS SANTOS - SANTANDER                                             3
 ACTION:UPD 15-03-02 15:42 OP:nd   STATUS:               ID:20150127034321 L   I
 OLDACT:REG 15-01-27 13:01 OP:cam  STATUS:               ID:20150127033817     3
 2015-01-27-0338-17M.COL___277                                                 6
 STAT SP IPHASW D HRMM SECON CODA AMPLIT PERI AZIMU VELO AIN AR TRES W  DIS CAZ7
 BAR2 EZ ES        343 57.49                             170    0.3310 24.3 188 
 BAR2 EZ I         343 59.50         9.5 0.30            167           24.3 188 
 BRR  HZ EP        343 43.49                             153    0.4110 70.1 298 
 BRR  HN ES        343 59.60                             153   -0.0810 70.1 298 
 BRR  HN I         344  1.20        26.5 0.50            152           70.1 298 
 PAM  SZ EP        343 44.45                             151    0.2710 77.0  40 
 PAM  SN ES        344  0.97                             151   -0.6710 77.0  40 
 PAM  SZ I         344  3.81         4.6 0.58            156           77.0  40 
 RUS  HZ EP        343 45.78                             144   -0.0310  102 176 
 RUS  HN ES        344  4.74                             144    0.2110  102 176 
 RUS  HZ I         344  6.95         3.2 0.44            144            102 176 
 PTB  HZ EP        343 48.85                             132   -0.02 9  147 258 
 PTB  HN ES        344  9.64                             132   -0.35 9  147 258 
 PTB  HZ I         344 16.87         8.0 0.38            132            147 258 
 SPBC HZ EP        343 50.71                             129    0.24 9  164 219 
 SPBC HE ES        344 12.70                             129   -0.14 9  164 219 
 SPBC HZ I         344 17.21         9.1 0.20            129            164 219 
 ZAR  HZ EP   4    343 55.84                             123    1.58 0  203 292 
 ZAR  HE ES        344 20.35                             123    0.78 9  203 292 
 ZAR  HZ I         344 25.42         5.5 0.66            123            203 292 
 SML  HZ EP        343 58.16                             118   -0.23 8  242 335 
 SML  HN ES        344 27.04                             118    0.11 8  242 335 
 SML  HZ I         344 29.18         5.4 0.10            119            242 335 
 CHI  HZ EP        343 59.95                             117    0.26 8  249 195 
 CHI  HN ES        344 28.45                             117   -0.79 8  249 195 
 CHI  HZ I         344 39.01         2.0 0.34            118            249 195 
 MON  HN ES        344 48.02                             109   -0.88 6  352 308 
                                                                                
