 2017  627 0246  3.7 L   6.779 -73.153152.1  RSN  5 0.4 1.5LRSN                1
 GAP=249        0.87       6.6     8.3  7.2 -0.1258E+02  0.1724E+02  0.5951E+01E
 Epicentro: LOS SANTOS - SANTANDER                                             3
 ACTION:UPD 17-09-14 16:55 OP:jn   STATUS:               ID:20170627024603 L   I
 OLDACT:REG 17-06-27 12:27 OP:and  STATUS:               ID:20170627023744     3
 2017-06-27-0238-00M.COL___340                                                 6
 STAT SP IPHASW D HRMM SECON CODA AMPLIT PERI AZIMU VELO AIN AR TRES W  DIS CAZ7
 BAR2 EZ ES        246 39.70                             172   -0.1910 20.9 189 
 BAR2 EZ I         246 41.86         6.6 0.26            165           20.9 189 
 BRR  HZ EP        246 25.66                             154    0.1210 71.7 300 
 BRR  HN ES        246 43.07                             154    0.4810 71.7 300 
 PTB  HZ EP        246 30.69                             134   -0.37 9  147 260 
 PTB  HN ES        246 51.86                             134   -0.56 9  147 260 
 PTB  HZ I         246 59.11         2.7 0.46            132            147 260 
 SPBC HN ES        246 55.00                             131    0.10 9  161 219 
 SPBC HZ I         247  0.53         5.5 0.12            129            161 219 
 NOR  HZ EP        246 39.88                             120    0.31 8  233 235 
 NOR  HN ES   2    247  8.29                             120    0.72 4  233 235 
 NOR  HZ I         247 11.43         2.3 0.20            120            233 235 
                                                                                
