 2016 1227 0739 18.0 L   6.768 -73.141152.9  RSN  5 0.2 1.1LRSN                1
 GAP=139        0.64       3.5     3.4  4.7 -0.1167E+01  0.1778E+01  0.6085E+00E
 Epicentro: LOS SANTOS - SANTANDER                                             3
 ACTION:UPD 17-01-11 20:19 OP:rebc STATUS:               ID:20161227073918 L   I
 OLDACT:REG 16-12-27 13:34 OP:edw  STATUS:               ID:20161227073742     3
 2016-12-27-0738-00M.COL___366                                                 6
 STAT SP IPHASW D HRMM SECON CODA AMPLIT PERI AZIMU VELO AIN AR TRES W  DIS CAZ7
 BAR2 EZ EP        739 38.52                             172    0.0710 19.9 193 
 BAR2 EZ ES        739 54.35                             172   -0.0310 19.9 193 
 BAR2 EZ I         739 55.12         5.0 0.54            173           19.9 193 
 BRR  HZ EP        739 40.24                             153    0.1710 73.4 301 
 BRR  HN ES        739 57.71                             153    0.4510 73.4 301 
 BRR  HZ I         739 58.67         2.0 0.48            154           73.4 301 
 PAM  EZ EP        739 41.14                             151   -0.0010 79.9  38 
 PAM  EN ES        739 58.86                             151   -0.3210 79.9  38 
 PAM  EZ I         740  1.10         2.3 0.43            152           79.9  38 
 RUS  HZ EP        739 42.30                             146    0.0710 97.0 176 
 RUS  HN ES        740  1.18                             146    0.0610 97.0 176 
 RUS  HZ I         740  2.58         1.2 0.16            148           97.0 176 
 PTB  HZ EP        739 45.46                             134   -0.10 9  148 260 
 PTB  HN ES        740  6.62                             134   -0.43 9  148 260 
 PTB  HZ I         740  8.42         1.4 0.12            135            148 260 
 ZAR  HZ EP   4    739 50.86                             124   -0.27 0  206 293 
 ZAR  HN ES   4    740 16.60                             124   -0.35 0  206 293 
                                                                                
