 2010  827 0722 34.9 L   6.347 -73.415  4.0  RSN  7 0.4 1.7LRSN                1
 GAP=101        0.70       2.0     3.0  4.8  0.1456E+01 -0.1105E+01 -0.2111E+01E
 Epicentro: CHIMA - SANTANDER                                                  3
 ACTION:UP  10-09-07 10:58 OP:vdl  STATUS:               ID:20100827072234 L   I
 2010-08-27-0718-13S.COL___120                                                 6
 STAT SP IPHASW D HRMM SECON CODA AMPLIT PERI AZIMU VELO SNR AR TRES W  DIS CAZ7
 BAR2 SZ IP        722 41.58                              47     0.210   37  43 
 BAR2 SZ ES   1    722 46.27                              47    -0.2 7   37  43 
 BAR2 SZ I         722 48.76        37.9 0.26                            37  43 
 RUS  HZ IP     D  722 45.49                              47     0.110   62 144 
 RUS  HZ I         722 45.78        46.7 0.10                            62 144 
 RUS  HN ES   1    722 53.52                              47    -0.1 7   62 144 
 BRR  HZ EP   1    722 48.88                              47    -0.3 7   90 339 
 BRR  HE ES   1    723  0.44                              47     0.1 7   90 339 
 BRR  HZ I         723  1.26        34.8 0.12                            90 339 
 GRA  SZ IP     D  723  3.34                              37     0.1 9  183  22 
 GRA  SZ ES   1    723 24.98                              37    -0.3 7  183  22 
 GRA  SZ I         723 28.91        14.2 0.25                           183  22 
 OCA  SZ EP   1    723  6.77                              37     0.2 6  210   3 
 OCA  SZ ES   2    723 31.68                              37     0.5 4  210   3 
 OCA  SZ I         723 34.98         7.1 0.32                           210   3 
 HEL  HZ EP   2    723  8.86                              37    -1.1 4  235 266 
 HEL  HZ I         723 37.15         1.9 0.18                           235 266 
 RREF HZ EP   2    723 15.17                              37     0.8 4  267 233 
 RREF HE ES   2    723 45.10                              37     0.0 4  267 233 
 RREF HZ I         723 48.54         2.6 0.49                           267 233 
                                                                                
