 2012  927 0534 13.5 L   6.767 -73.124154.9  RSN  4 0.2 1.4LRSN                1
 GAP=141        0.42       5.2     4.5  7.8  0.1859E+01  0.2392E+01 -0.8749E+01E
 Epicentro: LOS SANTOS - SANTANDER                                             3
 ACTION:UPD 12-10-22 14:21 OP:ep   STATUS:               ID:20120927053413 L   I
 2012-09-27-0530-00M.COL___217                                                 6
 STAT SP IPHASW D HRMM SECON CODA AMPLIT PERI AZIMU VELO AIN AR TRES W  DIS CAZ7
 BRR  HZ EP   1    534 35.97                             153    0.11 7 75.1 300 
 BRR  HZ I         534 36.24         6.8 0.18                          75.1 300 
 BRR  HN ES   2    534 53.64                             153    0.34 5 75.1 300 
 PAM  SZ EP   1    534 36.80                             152    0.02 7 78.8  37 
 PAM  SZ I         534 37.10         4.7 0.20                          78.8  37 
 PAM  SN ES   2    534 54.69                             152   -0.25 5 78.8  37 
 RUS  HN ES   2    534 56.85                             147   -0.09 5 96.8 177 
 RUS  HZ I         534 57.95         1.8 0.33                          96.8 177 
 ZAR  HE ES   2    535 12.57                             124   -0.42 4  208 293 
                                                                                
