 2014  827 1545 29.8 L   6.832 -73.174147.7  RSN  5 0.4 1.7LRSN                1
 GAP=131        0.98       5.4     5.0  7.2 -0.2686E+01  0.4218E+01  0.2048E+01E
 Epicentro: ZAPATOCA - SANTANDER                                               3
 ACTION:UPD 14-09-15 21:53 OP:nd   STATUS:               ID:20140827154529 L   I
 OLDACT:REG 14-08-27 21:48 OP:stll STATUS:               ID:20140827153818     3
 2014-08-27-1538-18M.COL___257                                                 6
 STAT SP IPHASW D HRMM SECON CODA AMPLIT PERI AZIMU VELO AIN AR TRES W  DIS CAZ7
 BAR2 SZ EP       1545 49.82                             169    0.0510 26.6 182 
 BAR2 SZ ES       1546  5.41                             169    0.0910 26.6 182 
 BAR2 SZ I        1546  6.96        15.7 0.36            168           26.6 182 
 BRR  HZ EP       1545 51.35                             154    0.3910 66.7 297 
 BRR  HN ES       1546  8.04                             154    0.6110 66.7 297 
 PAM  SZ EP       1545 52.11                             151   -0.1210 76.8  43 
 PAM  SZ I        1545 52.47        10.8 0.20            153           76.8  43 
 PAM  SN ES       1546  9.19                             151   -0.5010 76.8  43 
 RUS  HZ EP       1545 54.36                             143    0.3010  104 174 
 RUS  HN ES       1546 12.87                             143   -0.0810  104 174 
 RUS  HZ I        1546 14.32         3.0 0.18            143            104 174 
 PTB  HZ EP       1545 56.57                             133   -0.19 9  145 257 
 PTB  HN ES       1546 17.08                             133   -0.67 9  145 257 
 PTB  HZ I        1546 18.96        11.0 0.34            134            145 257 
                                                                                
