 2016 1227 1511 56.0 L   6.572 -73.523112.0  RSN  6 0.4 1.8LRSN                1
 GAP=102        0.95       4.7     4.1  8.5  0.5967E+00  0.1715E+02 -0.3717E+01E
 Epicentro: EL CARMEN - SANTANDER                                              3
 ACTION:UPD 17-01-11 20:19 OP:rebc STATUS:               ID:20161227151154 L   I
 OLDACT:UP  16-12-27 23:10 OP:cog  STATUS:               ID:20161227150746     3
 OLDACT:UP  16-12-27 23:08 OP:cog  STATUS:               ID:20161227150746     3
 OLDACT:REG 16-12-27 20:33 OP:cog  STATUS:               ID:20161227150746     3
 2016-12-27-1508-00M.COL___372                                                 6
 STAT SP IPHASW D HRMM SECON CODA AMPLIT PERI AZIMU VELO AIN AR TRES W  DIS CAZ7
 BAR2 EZ EP       1512 12.09                             160    0.0210 37.7  87 
 BAR2 EZ ES       1512 24.75                             160    0.1410 37.7  87 
 RUS  HZ EP       1512 15.78                             139    0.1110 89.5 147 
 RUS  HN ES       1512 30.94                             139   -0.0910 89.5 147 
 RUS  HZ I        1512 32.48         3.0 0.36            142           89.5 147 
 PTB  HZ EP       1512 15.44                             134   -0.7410  103 268 
 PTB  HN ES   3   1512 30.35                             134   -1.58 2  103 268 
 PTB  HZ I        1512 31.64        10.2 0.20            133            103 268 
 PAM  EZ EP       1512 18.47                             129   -0.2910  124  47 
 PAM  EN ES   4   1512 32.68                             129   -3.84 0  124  47 
 PAM  EZ I        1512 34.42       221.5 0.44            131            124  47 
 ZAR  HZ EP   4   1512 24.22                             117    0.47 0  179 305 
 ZAR  HN ES       1512 45.97                             117    0.56 9  179 305 
 ZAR  HZ I        1512 52.94         6.7 0.30            118            179 305 
 NOR  HZ EP       1512 25.00                             116    0.44 9  186 233 
 NOR  HN ES       1512 47.04                             116    0.19 9  186 233 
 NOR  HZ I    3   1512 50.35         3.8 0.16            117            186 233 
                                                                                
