 2014  627 1523 55.2 L   6.792 -73.169141.4  RSN  7 0.5 1.8LRSN                1
 GAP=134        1.16       5.3     5.4  7.3 -0.8712E+01  0.9151E+01  0.5919E+01E
 Epicentro: LOS SANTOS - SANTANDER                                             3
 ACTION:UPD 14-07-01 22:57 OP:nd   STATUS:               ID:20140627152355 L   I
 OLDACT:REG 14-06-27 22:41 OP:carl STATUS:               ID:20140627151816     3
 2014-06-27-1518-16M.COL___256                                                 6
 STAT SP IPHASW D HRMM SECON CODA AMPLIT PERI AZIMU VELO AIN AR TRES W  DIS CAZ7
 BAR2 SZ EP       1524 14.03                             171   -0.2710 22.2 184 
 BAR2 SZ ES       1524 28.75                             171   -0.4310 22.2 184 
 BAR2 SZ I        1524 30.35        16.6 0.22            169           22.2 184 
 BRR  HZ EP       1524 15.91                             152    0.1310 69.3 300 
 BRR  HN ES       1524 32.81                             152    0.9810 69.3 300 
 BRR  HZ I        1524 34.05        10.0 0.20            151           69.3 300 
 PAM  SZ EP       1524 17.27                             149    0.1610 79.7  41 
 PAM  SN ES       1524 33.95                             149   -0.2410 79.7  41 
 PAM  SZ I        1524 36.35        14.4 0.36            154           79.7  41 
 RUS  HZ EP       1524 18.46                             143   -0.0310100.0 175 
 RUS  HN ES       1524 37.00                             143    0.3510100.0 175 
 RUS  HZ I        1524 37.90        10.2 0.26            145          100.0 175 
 PTB  HZ EP       1524 21.03                             132   -0.55 9  145 259 
 PTB  HN ES       1524 41.28                             132   -0.86 9  145 259 
 PTB  HZ I        1524 48.93         9.2 0.50            132            145 259 
 SPBC HZ EP       1524 23.36                             128    0.20 9  161 218 
 SPBC HN ES       1524 44.95                             128   -0.01 9  161 218 
 SPBC HZ I        1524 52.18        11.7 0.26            130            161 218 
 GUY2CHZ EP       1524 38.63                             112    0.30 7  299 235 
 GUY2CHN ES       1525 12.46                             112    0.51 7  299 235 
 GUY2CHZ I        1525 19.40         2.3 0.24                           299 235 
                                                                                
