 2012  627 1349 50.4 L   6.741 -73.137150.0  RSN  6 0.4 2.0LRSN                1
 GAP=140        0.77       7.2     6.0  7.6 -0.3730E+01 -0.6635E+00  0.1351E+02E
 Epicentro: JORDAN - SANTANDER                                                 3
 ACTION:UPD 12-08-06 17:53 OP:ep   STATUS:               ID:20120627134950 L   I
 2012-06-27-1350-00M.COL___201                                                 6
 STAT SP IPHASW D HRMM SECON CODA AMPLIT PERI AZIMU VELO AIN AR TRES W  DIS CAZ7
 BAR2 SZ IP       1350 10.41                             173   -0.0110 17.1 197 
 BAR2 SZ ES   1   1350 26.06                             173    0.01 7 17.1 197 
 BAR2 SZ I        1350 28.37        19.7 0.36                          17.1 197 
 BRR  HZ IP     C 1350 12.37                             152    0.1410 75.3 303 
 BRR  HZ I        1350 13.81        47.0 0.10                          75.3 303 
 BRR  HN ES   1   1350 29.99                             152    0.72 7 75.3 303 
 PAM  SZ EP       1350 13.29                             150   -0.0410 82.0  36 
 PAM  SN ES   2   1350 30.42                             150   -0.80 5 82.0  36 
 PAM  SZ I        1350 32.62         8.5 0.64                          82.0  36 
 RUS  HZ EP       1350 14.29                             147    0.1910 94.0 176 
 PTB  HZ EP       1350 17.28                             133   -0.41 9  148 261 
 PTB  HN ES   2   1350 38.25                             133   -0.73 5  148 261 
 PTB  HZ I        1350 45.82        14.2 0.38                           148 261 
 CHI  HZ EP   3   1350 28.43                             119    0.76 2  243 196 
 CHI  HZ I        1351  5.38         5.3 0.26                           243 196 
                                                                                
