 2012  927 1407 11.5 L   6.805 -73.095150.1  RSN  5 0.2 1.9LRSN                1
 GAP=199        0.51       5.1     6.1  5.2  0.2004E+02  0.3275E+01  0.1622E+01E
 Epicentro: LOS SANTOS - SANTANDER                                             3
 ACTION:UPD 12-10-22 14:21 OP:ep   STATUS:               ID:20120927140711 L   I
 2012-09-27-1400-00M.COL___217                                                 6
 STAT SP IPHASW D HRMM SECON CODA AMPLIT PERI AZIMU VELO AIN AR TRES W  DIS CAZ7
 BAR2 SZ EP   1   14 7 31.66                             170   -0.07 7 25.4 202 
 BAR2 SZ ES   1   14 7 47.13                             170   -0.34 7 25.4 202 
 BAR2 SZ I        14 7 48.78         9.9 0.28                          25.4 202 
 GIR2 SZ EP   1   14 7 31.83                             167    0.08 7 32.2 340 
 GIR2 SZ ES   1   14 7 47.38                             167   -0.13 7 32.2 340 
 BRR  HZ EP   1   14 7 33.58                             152    0.16 7 75.9 296 
 BRR  HN ES   1   14 7 50.90                             152    0.42 7 75.9 296 
 BRR  HN I        14 7 54.41        23.9 0.22                          75.9 296 
 RUS  HZ EP   1   14 7 35.63                             145   -0.11 7  101 179 
 RUS  HE ES   1   14 7 54.82                             145    0.21 7  101 179 
 RUS  HZ I        14 7 55.76         4.6 0.46                           101 179 
 ZAR  HE ES   1   14 8 10.38                             123   -0.32 6  209 291 
 ZAR  HE I        14 8 13.92        13.0 0.16                           209 291 
                                                                                
