 2012 1227 1615 41.7 L   6.770 -73.152146.0  RSN  6 0.4 1.8LRSN                1
 GAP=234        0.82       6.1     6.5  6.9  0.1325E+02  0.8824E+01  0.4234E+01E
 Epicentro: LOS SANTOS - SANTANDER                                             3
 ACTION:UPD 13-01-04 14:30 OP:ep   STATUS:               ID:20121227161541 L   I
 2012-12-27-1610-00M.COL___243                                                 6
 STAT SP IPHASW D HRMM SECON CODA AMPLIT PERI AZIMU VELO AIN AR TRES W  DIS CAZ7
 BAR2 SZ ES   1   1616 15.93                             172   -0.70 7 19.9 190 
 BAR2 SZ I        1616 18.21        13.6 0.24                          19.9 190 
 BRR  HZ EP       1616  3.09                             152    0.1110 72.3 301 
 BRR  HE ES       1616 19.91                             152    0.3710 72.3 301 
 BRR  HZ I        1616 40.60        29.1 0.41                          72.3 301 
 RUS  HZ EP       1616  5.58                             145    0.3010 97.3 176 
 RUS  HN ES   1   1616 23.81                             145    0.16 7 97.3 176 
 RUS  HN I        1616 25.77        10.5 0.53                          97.3 176 
 PTB  HZ EP     C 1616  8.03                             132   -0.58 9  146 260 
 PTB  HE ES   1   1616 29.54                             132   -0.03 7  146 260 
 PTB  HZ I        1616 31.28         7.5 0.07                           146 260 
 ZAR  HZ EP   1   1616 14.25                             122   -0.02 6  205 293 
 ZAR  HZ I        1616 45.46         3.7 0.24                           205 293 
 NOR  HN ES   1   1616 45.02                             119    0.13 6  232 235 
 NOR  HZ I        1616 50.39         3.1 0.38                           232 235 
                                                                                
