 2010 1027 1423 60.0 L   6.781 -73.126141.6  RSN 10 0.5 2.7LRSN                1
 GAP=161        1.03       5.0     9.7  9.7 -0.2028E+02  0.1764E+02  0.2073E+01E
 Epicentro: LOS SANTOS - SANTANDER                                             3
 ACTION:UP  11-02-18 11:12 OP:tino STATUS:               ID:20101027142360 L   I
 2010-10-27-1421-08S.COL___127                                                 6
 STAT SP IPHASW D HRMM SECON CODA AMPLIT PERI AZIMU VELO SNR AR TRES W  DIS CAZ7
 BAR2 SZ IP     D 1424 18.90                             171    -0.210   22 197 
 BAR2 SZ ES   2   1424 33.64                             171    -0.3 5   22 197 
 BAR2 SZ I        1424 34.74       117.7 0.21                            22 197 
 BRR  HZ EP   1   1424 20.83                             151     0.0 7   74 299 
 BRR  HE ES   2   1424 37.65                             151     0.5 5   74 299 
 BRR  HZ I        1424 38.52       103.8 0.15                            74 299 
 RUS  HZ EP   1   1424 22.82                             144    -0.3 7   98 177 
 RUS  HE ES   2   1424 41.40                             144     0.2 5   98 177 
 RUS  HZ I        1424 43.17        61.3 0.46                            98 177 
 GUE  SZ EP   1   1424 24.01                             138    -0.4 7  118  11 
 GRA  SZ IP     D 1424 25.81                             135     0.810  127  16 
 GRA  SZ I        1424 27.11        78.4 0.32                           127  16 
 GRA  SZ ES   2   1424 45.46                             135     1.0 5  127  16 
 OCA  SZ EP   1   1424 27.76                             128    -0.4 7  163 352 
 OCA  SZ ES   2   1424 48.74                             128    -1.5 5  163 352 
 OCA  SZ I        1424 53.52        56.7 0.28                           163 352 
 NOR  SZ EP   1   1424 35.62                             118     0.1 6  235 235 
 NOR  SE ES   2   1425  3.34                             118     0.0 4  235 235 
 CHI  HZ EP   1   1424 37.46                             116     0.2 6  247 196 
 CHI  HE ES   2   1425  6.26                             116    -0.1 4  247 196 
 CHI  HZ I        1425  9.65        20.0 0.58                           247 196 
 HEL  HZ EP   1   1424 40.10                             114    -0.1 6  274 256 
 HEL  HZ I        1425 16.12        19.3 0.29                           274 256 
 PRA  HZ EP   1   1424 52.96                             106    -0.3 4  391 210 
 PRA  HN ES   2   1425 35.13                             106     0.3 3  391 210 
 PRA  HZ I        1425 42.02        55.3 0.24                           391 210 
                                                                                
