 2015 1227 1039 16.9 L   6.790 -73.150150.6  RSN  9 0.3 2.1LRSN                1
 GAP=136        0.83       2.6     3.5  4.8 -0.6872E+00  0.3573E+01 -0.2124E+01E
 Epicentro: LOS SANTOS - SANTANDER                                             3
 ACTION:UPD 16-02-04 15:08 OP:cam  STATUS:               ID:20151227103916 L   I
 OLDACT:REG 15-12-27 20:15 OP:cara STATUS:               ID:20151227103750     3
 2015-12-27-1037-50M.COL___331                                                 6
 STAT SP IPHASW D HRMM SECON CODA AMPLIT PERI AZIMU VELO AIN AR TRES W  DIS CAZ7
 BAR2 EZ IP       1039 37.17                             171    0.0710 22.1 189 
 BAR2 EZ ES       1039 52.48                             171   -0.3710 22.1 189 
 BAR2 EZ I        1039 54.17        17.7 0.16            172           22.1 189 
 BRR  HZ IP     C 1039 39.04                             153    0.4510 71.3 300 
 BRR  HN ES       1039 55.95                             153    0.4510 71.3 300 
 BRR  HZ I        1040  2.80        14.2 0.26            151           71.3 300 
 PAM  EZ IP       1039 39.90                             151    0.1910 78.6  39 
 PAM  EN ES       1039 57.25                             151   -0.2510 78.6  39 
 PAM  EZ I        1040  2.09        14.6 0.48            155           78.6  39 
 RUS  HZ EP       1039 41.06                             145   -0.0010 99.5 176 
 RUS  HN ES       1040  0.03                             145    0.1310 99.5 176 
 RUS  HZ I        1040  1.41         9.8 0.40            151           99.5 176 
 PTB  HZ EP       1039 43.69                             133   -0.52 9  147 259 
 PTB  HN ES       1040  5.12                             133   -0.39 9  147 259 
 PTB  HZ I        1040  8.59        17.8 0.12            134            147 259 
 OCA  HZ EP       1039 46.08                             130    0.38 9  161 353 
 OCA  HN ES       1040  8.04                             130   -0.11 9  161 353 
 OCA  HZ I        1040 12.69        48.9 0.68            132            161 353 
 SPBC HZ EP       1039 45.85                             130    0.18 9  162 219 
 SPBC HN ES       1040  8.10                             130   -0.01 9  162 219 
 SPBC HZ I        1040 10.99        27.0 0.26            134            162 219 
 ZAR  HZ EP       1039 49.28                             123   -0.39 9  204 292 
 ZAR  HE ES       1040 15.76                             123    0.54 9  204 292 
 ZAR  HZ I        1040 27.80        12.5 0.58            125            204 292 
 SML  HZ EP       1039 53.58                             118   -0.32 8  245 336 
 SML  HE ES       1040 22.47                             118   -0.28 8  245 336 
 SML  HZ I        1040 26.76        16.1 0.36            120            245 336 
                                                                                
