 2013  327 1402 13.4 L   6.811 -73.128147.5  RSN 18 0.4 3.1LRSN 3.5WRSN        1
 SPEC AVERAGE  MO 14.3 ST 19.6 OM  2.7 f0 4.51 R0.4497 AL 2.24 WI 42.2 MW  3.5 3
 SPEC SD       MO  0.2 ST 22.4 OM  0.5 f0 1.53 R0.1385 AL      WI      MW  0.1 3
 GAP= 72        0.87       2.8     3.2  4.4  0.8640E+00  0.4309E+01  0.3296E+01E
 Epicentro: LOS SANTOS - SANTANDER                                             3
 SPEC RUS HH N MO 13.9 ST  2.9 OM  2.0 f0 3.61 R0.5042 AL 0.88 WI 66.7 MW  3.2 3
 SPEC RUS HH N T14 254 K 0.050 GD  179 VS 5.20 DE 3.20 Q0750.0 QA 1.50 VS 5.20 3
 SPEC PAM SH N MO 14.1 ST 21.6 OM  2.2 f0 6.21 R0.2931 AL 4.50 WI 23.5 MW  3.3 3
 SPEC PAM SH N T14 252 K 0.050 GD  165 VS 5.20 DE 3.20 Q0750.0 QA 1.50 VS 5.20 3
 SPEC HEL HH N MO 14.5 ST  5.4 OM  2.3 f0 2.94 R0.6190 AL 2.18 WI 57.8 MW  3.6 3
 SPEC HEL HH N T14 323 K 0.050 GD  311 VS 5.20 DE 3.20 Q0750.0 QA 1.50 VS 5.20 3
 SPEC CHI HH N MO 14.3 ST  5.6 OM  2.2 f0 3.29 R0.5532 AL 1.94 WI 26.7 MW  3.5 3
 SPEC CHI HH N T14 320 K 0.050 GD  290 VS 5.20 DE 3.20 Q0750.0 QA 1.50 VS 5.20 3
 SPEC BRR HH N MO 14.5 ST 62.3 OM  2.6 f0 6.52 R0.2791 AL 1.71 WI 36.4 MW  3.6 3
 SPEC BRR HH N T14 251 K 0.050 GD  164 VS 5.20 DE 3.20 Q0750.0 QA 1.50 VS 5.20 3
 ACTION:UPD 13-04-09 14:05 OP:ep   STATUS:               ID:20130327140213 L   I
 2013-03-27-1400-00M.COL___245                                                 6
 STAT SP IPHASW D HRMM SECON CODA AMPLIT PERI AZIMU VELO AIN AR TRES W  DIS CAZ7
 BAR2 SZ EP       14 2 33.19                             170   -0.1110 24.9 194 
 BAR2 SZ ES   1   14 2 48.38                             170   -0.42 7 24.9 194 
 BAR2 SZ I        14 2 51.91       249.5 0.30            164           24.9 194 
 GIR2 SZ IP     C 14 2 33.31                             168    0.0210 30.5 346 
 GIR2 SZ ES       14 2 48.73                             168   -0.0510 30.5 346 
 GIR2 SZ I        14 2 49.32       136.4 0.30            162           30.5 346 
 BRR  HZ IP     C 14 2 35.11                             152    0.2810 72.4 297 
 BRR  HN ES       14 2 52.14                             152    0.6110 72.4 297 
 BRR  HN I        14 2 52.33       515.0 0.18            142           72.4 297 
 PAM  SZ EP   1   14 2 36.03                             152    0.33 7 75.2  39 
 PAM  SE ES       14 2 53.07                             152   -0.0110 75.2  39 
 PAM  SE I        14 2 55.92       218.4 0.42            149           75.2  39 
 RUS  HZ EP       14 2 37.05                             144   -0.3810  102 177 
 RUS  HN ES       14 2 55.93                             144   -0.2310  102 177 
 RUS  HN I        14 2 57.20        83.3 0.26            136            102 177 
 PTB  HZ EP   4   14 2 39.82                             132   -0.92 0  150 259 
 PTB  HN ES   4   14 3  0.89                             132   -1.14 0  150 259 
 PTB  HN I        14 3  3.98       217.2 0.22            122            150 259 
 TAM  HZ IP     C 14 2 41.43                             131    0.33 9  154 106 
 TAM  HN ES   1   14 3  2.96                             131    0.27 7  154 106 
 TAM  HN I        14 3  3.66       180.9 0.34            126            154 106 
 OCA  HZ EP   1   14 2 41.72                             130   -0.06 7  159 352 
 OCA  HN ES   1   14 3  3.31                             130   -0.59 7  159 352 
 OCA  HN I        14 3  6.48       349.7 0.20            122            159 352 
 ZAR  HZ EP       14 2 46.13                             123    0.00 8  205 292 
 ZAR  HN ES       14 3 12.19                             123    0.56 8  205 292 
 ZAR  HN I        14 3 17.17       138.6 0.28            114            205 292 
 NOR  HZ EP   1   14 2 49.24                             119   -0.27 6  237 234 
 NOR  HN ES   1   14 3 16.80                             119   -0.85 6  237 234 
 NOR  HZ I        14 3 22.30        88.2 0.18            111            237 234 
 SML  HN ES   1   14 3 17.55                             118   -1.19 6  243 335 
 SML  HZ I        14 3 21.00        78.7 0.07            111            243 335 
 CHI  HZ EP       14 2 51.31                             117   -0.10 8  250 196 
 CHI  HN ES   1   14 3 20.96                             117   -0.08 6  250 196 
 CHI  HN I        14 3 26.61        81.0 0.26            110            250 196 
 ROSC BZ EP   1   14 2 53.03                             117    1.16 6  255 211 
 ROSC BN ES   4   14 3 24.45                             117    2.60 0  255 211 
 ROSC BZ I        14 3 29.29        70.5 0.38            109            255 211 
 HEL  HZ EP   1   14 2 53.92                             115   -0.05 6  274 256 
 HEL  HN I        14 3 32.69        64.9 0.32            107            274 256 
 URE  HZ EP   2   14 2 54.00                             114   -0.74 4  285 292 
 RREF HZ EP   1   14 3  0.41                             111    0.50 5  324 229 
 RREF HN ES   1   14 3 36.17                             111    0.01 5  324 229 
 RREF HZ I        14 3 45.14        48.3 0.29            104            324 229 
 DBB  SZ EP       14 3  1.12                             110   -0.07 7  341 274 
 DBB  SZ I        14 3 41.42        28.6 0.38            103            341 274 
 PRA  HZ EP       14 3  6.86                             107   -0.39 6  394 210 
 PRA  HN ES   2   14 3 50.12                             107    0.89 3  394 210 
 PRA  HN I        14 3 54.34        54.4 0.78            101            394 210 
                                                                                
