 2013  227 1904  9.0 L   5.962 -73.900  3.0  RSN  6 0.3 2.1LRSN                1
 GAP=143        0.80       1.7     2.0  4.3  0.6461E+00 -0.1781E+01 -0.1449E+01E
 Epicentro: SUCRE - SANTANDER                                                  3
 ACTION:UPD 13-03-12 09:36 OP:ep   STATUS:               ID:20130227190409 L   I
 2013-02-27-1900-00M.COL___226                                                 6
 STAT SP IPHASW D HRMM SECON CODA AMPLIT PERI AZIMU VELO AIN AR TRES W  DIS CAZ7
 PTB  HZ EP       19 4 22.83                              47   -0.3610 88.7 316 
 PTB  HE ES       19 4 34.02                              47   -0.2410 88.7 316 
 PTB  HZ I        19 4 34.60        86.6 0.10             47           88.7 316 
 RUS  HZ EP       19 4 23.80                              47   -0.1910 90.7  95 
 RUS  HN ES       19 4 35.07                              47   -0.6110 90.7  95 
 RUS  HN I        19 4 36.21        40.4 0.14             47           90.7  95 
 BAR2 SZ IP       19 4 26.26                              47    0.2810  106  49 
 BAR2 SZ ES       19 4 39.28                              47    0.0510  106  49 
 BAR2 SZ I        19 4 41.05        47.0 0.40             47            106  49 
 BRR  HZ EP       19 4 29.12                              47   -0.0610  128   9 
 BRR  HN ES       19 4 45.25                              47    0.3310  128   9 
 BRR  HZ I        19 4 47.41        22.1 0.09             47            128   9 
 CHI  HZ EP       19 4 32.79                              47    0.14 9  148 173 
 CHI  HN ES       19 4 51.40                              47    0.30 9  148 173 
 PAM  SZ EP       19 4 40.70                              37    0.44 9  202  41 
 PAM  SE ES       19 5  4.81                              37    0.16 9  202  41 
 PAM  SZ I        19 5  6.38        28.9 0.24             37            202  41 
 PAM  SZ E        19 5  7.42                                            202  41 
                                                                                
