 2011  227 1223 34.0 L   6.812 -73.144135.8  RSN  4 0.1 1.3LRSN                1
 GAP=163        0.33       2.5    16.7  4.8 -0.1173E+02 -0.3950E+02 -0.2773E+01E
 Epicentro: LOS SANTOS - SANTANDER                                             3
 ACTION:UP  11-03-28 15:11 OP:jfem STATUS:               ID:20110227122334 L   I
 2011-02-27-1217-56S.COL___135                                                 6
 STAT SP IPHASW D HRMM SECON CODA AMPLIT PERI AZIMU VELO SNR AR TRES W  DIS CAZ7
 BAR2 SZ EP       1223 52.45                             169     0.010   25 190 
 BAR2 SZ ES   1   1224  6.89                             169     0.1 7   25 190 
 BAR2 SZ I        1224  8.96         8.6 0.44                            25 190 
 RUS  HZ EP       1223 56.89                             141     0.010  102 176 
 RUS  HN ES   1   1224 14.57                             141    -0.1 7  102 176 
 RUS  HZ I        1224 16.22         2.4 0.29                           102 176 
 GRA  SZ EP       1223 58.24                             135     0.010  124  18 
 GRA  SZ I        1223 59.66         3.0 0.38                           124  18 
 OCA  SZ ES   3   1224 22.56                             127    -0.2 2  159 353 
                                                                                
