 2017  527 1554 53.9 L   6.848 -73.129150.1  RSN 19 0.5 2.6LRSN                1
 GAP=167        1.08       3.6     4.0  5.7  0.4025E+01  0.8390E+00  0.1471E+00E
 Epicentro: LOS SANTOS - SANTANDER                                             3
 ACTION:UPD 17-06-16 13:39 OP:jn   STATUS:               ID:20170527155453 L   I
 OLDACT:UP  17-05-28 03:01 OP:edw  STATUS:               ID:20170527154737     3
 OLDACT:UP  17-05-28 03:00 OP:edw  STATUS:               ID:20170527154737     3
 OLDACT:REG 17-05-27 23:30 OP:dnl  STATUS:               ID:20170527154737     3
 2017-05-27-1548-00M.COL___344                                                 6
 STAT SP IPHASW D HRMM SECON CODA AMPLIT PERI AZIMU VELO AIN AR TRES W  DIS CAZ7
 BRR  HZ IP     C 1555 15.88                             153    0.4310 70.5 294 
 BRR  HN ES       1555 32.95                             153    0.6710 70.5 294 
 BRR  HZ I        1555 36.89        52.9 0.28            150           70.5 294 
 RUS  HZ IP     D 1555 18.00                             143   -0.4210  106 177 
 RUS  HN ES       1555 36.83                             143   -0.7410  106 177 
 RUS  HZ I        1555 37.98       115.9 0.34            141            106 177 
 PTB  HZ EP   9 C 1555 20.57                             132   -0.89 0  151 257 
 PTB  HN ES       1555 41.78                             132   -0.31 9  151 257 
 PTB  HZ I        1555 44.35        26.2 0.32            129            151 257 
 SPBC HZ EP   9 C 1555 23.01                             129   -0.19 0  169 218 
 SPBC HN ES       1555 44.73                             129   -1.16 9  169 218 
 SPBC HZ I        1555 51.24        73.3 0.28            127            169 218 
 YPLC HZ IP     D 1555 24.47                             127    0.12 9  181 153 
 YPLC HN ES       1555 48.23                             127    0.10 9  181 153 
 YPLC HZ I        1555 49.45        85.9 0.26            127            181 153 
 ZAR  HZ EP       1555 26.60                             123    0.02 9  204 291 
 ZAR  HN ES       1555 51.99                             123   -0.10 9  204 291 
 ZAR  HZ I        1555 57.78        37.1 0.26            122            204 291 
 TABC EZ EP   4 C 1555 31.66                             119    1.20 0  235 210 
 TABC EZ ES   4   1556  2.56                             119    3.55 0  235 210 
 NOR  HZ EP       1555 29.87                             119   -0.48 8  239 234 
 NOR  HE ES       1555 58.83                             119    0.03 8  239 234 
 NOR  HZ I        1556  5.91        31.4 0.14            117            239 234 
 CHI  HZ EP       1555 32.23                             117   -0.19 8  254 195 
 CHI  HN ES       1556  2.31                             117   -0.18 8  254 195 
 CHI  HZ I        1556  7.35        18.6 0.26            117            254 195 
 ROSC BZ EP   4   1555 34.27                             117    1.44 0  258 211 
 ROSC BN ES       1556  3.15                             117   -0.07 8  258 211 
 ROSC BZ I        1556 12.09        33.6 0.40            116            258 211 
 HEL  HZ EP   2   1555 35.69                             115    1.04 4  275 255 
 HEL  HN ES       1556  5.87                             115   -0.60 8  275 255 
 HEL  HZ I        1556 14.33        21.2 0.42            114            275 255 
 VIL  EZ EP       1555 37.92                             112   -0.20 7  309 192 
 VIL  HN ES       1556 13.31                             112    0.68 7  309 192 
 VIL  EZ I        1556 18.46        28.8 0.30            112            309 192 
 PTGC HZ EP   4 D 1555 37.20                             112   -1.21 0  313 159 
 PTGC HN ES   4   1556 10.49                             112   -2.66 0  313 159 
 PTGC HZ I        1556 15.52        32.2 0.32            112            313 159 
 ELA  HZ EP   4   1555 42.69                             110    1.23 0  334 229 
 ELA  HN ES   4   1556 16.88                             110   -1.71 0  334 229 
 ELA  HZ I        1556 33.35        16.2 0.38            110            334 229 
 CBOC HZ EP       1555 41.68                             110    0.32 7  337 251 
 CBOC HN ES       1556 17.91                             110   -0.49 7  337 251 
 CBOC HZ I        1556 22.30         5.3 0.42            110            337 251 
 DBB  EZ EP       1555 42.09                             110    0.39 7  341 273 
 DBB  EN ES   4   1556 17.18                             110   -1.83 0  341 273 
 DBB  EZ I        1556 21.51         9.1 0.18            110            341 273 
 ANIL HZ EP       1555 45.11                             109    0.68 6  362 224 
 ANIL HN ES       1556 24.03                             109    0.16 6  362 224 
 ORTC HZ EP       1555 48.47                             106   -0.10 6  401 216 
 ORTC HN ES       1556 32.17                             106    0.93 6  401 216 
 ORTC HZ I        1556 37.94        14.6 0.36            106            401 216 
 SJC  HZ EP       1555 48.30                             106   -0.88 6  406 326 
 SJC  HN ES   4   1556 29.38                             106   -2.93 0  406 326 
 SJC  HZ I        1556 32.70         5.3 0.38            107            406 326 
 SMAR HZ EP   2   1555 59.54                             103    0.25 2  492 346 
 SMAR HN ES   4   1556 46.53                             103   -3.79 0  492 346 
 SMAR HZ I        1556 51.54         7.8 0.32            104            492 346 
 CAP2 HZ EP   4   1555 59.21                             102   -1.88 0  507 293 
 CAP2 HN ES   4   1556 47.12                             102   -6.41 0  507 293 
                                                                                
