 2015  227 1920 48.5 L   6.833 -73.198149.7  RSN  5 0.4 1.6LRSN                1
 GAP=129        0.88       3.7     4.8  9.0 -0.2869E+01  0.9272E+01 -0.6060E+01E
 Epicentro: ZAPATOCA - SANTANDER                                               3
 ACTION:UPD 15-04-30 21:29 OP:nd   STATUS:               ID:20150227192048 L   I
 OLDACT:UP  15-02-28 00:56 OP:mh   STATUS:               ID:20150227191750     3
 OLDACT:REG 15-02-27 22:24 OP:mh   STATUS:               ID:20150227191750     3
 2015-02-27-1917-50M.COL___302                                                 6
 STAT SP IPHASW D HRMM SECON CODA AMPLIT PERI AZIMU VELO AIN AR TRES W  DIS CAZ7
 PAM  SZ EP       1921 11.48                             151    0.2410 78.5  44 
 PAM  SN ES   1   1921 29.21                             151    0.26 7 78.5  44 
 PAM  SZ I        1921 31.90         5.2 0.72            158           78.5  44 
 RUS  HZ EP       1921 12.46                             143   -0.5110  105 173 
 RUS  HN ES       1921 31.81                             143   -0.2310  105 173 
 RUS  HZ I        1921 33.99         3.6 0.46            148            105 173 
 PTB  HZ EP       1921 15.14                             134   -0.26 9  143 257 
 PTB  HN ES       1921 36.42                             134    0.07 9  143 257 
 PTB  HZ I        1921 42.62         6.3 0.58            136            143 257 
 SPBC HZ EP       1921 17.99                             130    0.71 9  163 217 
 SPBC HN ES       1921 39.80                             130    0.10 9  163 217 
 SPBC HZ I        1921 46.19         6.5 0.20            134            163 217 
 SML  HN ES       1921 52.79                             119   -0.26 8  238 336 
                                                                                
