 2012  527 1401 11.6 L   6.870 -73.111147.9  RSN  6 0.2 1.8LRSN                1
 GAP=187        0.47       2.7     3.5  6.0  0.1078E+01  0.6705E+01 -0.4094E+00E
 Epicentro: LOS SANTOS - SANTANDER                                             3
 ACTION:UP  12-07-05 12:08 OP:pat  STATUS:               ID:20120527140111 L   I
 2012-05-27-1400-00M.COL___197                                                 6
 STAT SP IPHASW D HRMM SECON CODA AMPLIT PERI AZIMU VELO SNR AR TRES W  DIS CAZ7
 BAR2 SZ EP   1   14 1 31.98                             167     0.3 7   32 194 
 BAR2 SZ ES   1   14 1 47.29                             167    -0.1 7   32 194 
 BAR2 SZ I        14 1 49.29        20.6 0.13                            32 194 
 RUS  HZ EP   1   14 1 36.02                             142    -0.1 7  108 178 
 RUS  HN ES   1   14 1 55.28                             142     0.0 7  108 178 
 RUS  HZ I        14 1 56.66         7.2 0.41                           108 178 
 OCA  HN ES   1   14 2  1.08                             131     0.0 7  153 351 
 PTB  HZ EP   1   14 1 38.95                             131    -0.3 7  153 256 
 PTB  HE ES   1   14 2  0.55                             131    -0.2 7  153 256 
 PTB  HZ I        14 2  1.35         6.6 0.17                           153 256 
 ZAR  HN ES   1   14 2  9.99                             123     0.2 6  205 290 
 NOR  SE ES   1   14 2 17.10                             118     0.2 6  242 234 
                                                                                
