 2011  627 1140 49.5 L   6.743 -73.092143.4  RSN 12 0.4 2.4LRSN                1
 GAP=163        0.76       3.0     5.1  5.8 -0.5696E+01  0.4289E+01  0.6485E+00E
 Epicentro: JORDAN - SANTANDER                                                 3
 ACTION:UP  11-07-14 19:08 OP:ep   STATUS:               ID:20110627114049 L   I
 2011-06-27-1139-26S.COL___140                                                 6
 STAT SP IPHASW D HRMM SECON CODA AMPLIT PERI AZIMU VELO SNR AR TRES W  DIS CAZ7
 BAR2 SZ EP   1   1141  8.63                             172    -0.1 7   19 211 
 BAR2 SZ ES   2   1141 22.91                             172    -0.9 5   19 211 
 BAR2 SZ I        1141 25.89        74.2 0.23                            19 211 
 BRR  HZ EP       1141 10.98                             149     0.110   80 301 
 BRR  HE ES   1   1141 28.04                             149     0.5 7   80 301 
 BRR  HZ I        1141 30.05        68.1 0.20                            80 301 
 RUS  HZ EP       1141 12.73                             145     0.210   94 179 
 RUS  HE ES   1   1141 30.58                             145     0.1 7   94 179 
 RUS  HZ I        1141 32.44        36.5 0.27                            94 179 
 BRI  SZ EP       1141 13.76                             140     0.310  113  17 
 GRA  SZ EP       1141 14.95                             135     0.010  130  14 
 GRA  SZ ES   1   1141 34.05                             135    -0.7 7  130  14 
 GRA  SZ I        1141 36.12        40.2 0.38                           130  14 
 OCA  SZ EP       1141 18.08                                    -0.2 9  167 351 
 OCA  SZ ES   1   1141 41.27                             128     0.5 7  167 351 
 OCA  SZ I        1141 47.71        31.2 0.21                           167 351 
 NOR  SZ EP   1   1141 24.75                             118    -0.5 6  236 237 
 NOR  SN ES   1   1141 52.77                             118    -0.3 6  236 237 
 CHI  HZ EP   2   1141 26.86                             117     0.3 4  244 197 
 CHI  HE ES   2   1141 56.09                             117     0.6 4  244 197 
 CHI  HZ I        1142  2.93        13.2 0.23                           244 197 
 HEL  HZ EP   2   1141 29.66                             114    -0.4 4  276 257 
 HEL  HE ES   2   1142  2.17                             114     0.5 4  276 257 
 HEL  HZ I        1142  7.96        13.3 0.27                           276 257 
 TOL  SZ EP   1   1141 37.91                             109     0.3 5  343 226 
 DBB  SZ EP   1   1141 37.11                             109    -0.5 5  346 275 
 PRA  HZ EP   1   1141 42.36                             106    -0.3 4  390 211 
 PRA  HN ES   2   1142 24.13                             106     0.0 3  390 211 
                                                                                
