 2015  527 1626  5.8 L   6.782 -73.054154.8  RSN  7 0.5 2.0LRSN                1
 GAP=181        1.26       5.4     7.0  7.9 -0.5456E+01  0.1679E+02 -0.1979E+01E
 Epicentro: LOS SANTOS - SANTANDER                                             3
 ACTION:UPD 15-09-10 22:07 OP:cam  STATUS:               ID:20150527162605 L   I
 OLDACT:REG 15-05-27 21:54 OP:ar   STATUS:               ID:20150527161748     3
 2015-05-27-1617-48M.COL___301                                                 6
 STAT SP IPHASW D HRMM SECON CODA AMPLIT PERI AZIMU VELO AIN AR TRES W  DIS CAZ7
 BAR2 EZ EP       1626 26.46                             170   -0.0710 25.3 214 
 BAR2 EZ ES       1626 42.35                             170   -0.3710 25.3 214 
 BAR2 EZ I        1626 43.85         6.7 0.20            168           25.3 214 
 PAM  SZ EP       1626 29.24                             154    0.5210 73.0  32 
 PAM  SN ES       1626 46.66                             154    0.0510 73.0  32 
 PAM  SZ I        1626 48.61        10.4 0.54            157           73.0  32 
 BRR  HZ EP       1626 28.43                             151   -0.0310 81.0 296 
 BRR  HN ES       1626 46.82                             151    0.6610 81.0 296 
 BRR  HZ I        1626 48.08        14.1 0.18            149           81.0 296 
 SPBC HZ EP       1626 35.39                             130   -0.06 9  168 222 
 SPBC HE ES       1626 57.97                             130   -0.63 9  168 222 
 SPBC HZ I        1627  4.58        17.3 0.34            130            168 222 
 ZAR  HZ EP       1626 39.26                             123   -0.59 8  214 292 
 ZAR  HE ES       1627  7.00                             123    0.57 8  214 292 
 ZAR  HZ I        1627 11.02        11.6 0.44            123            214 292 
 SML  HZ EP       1626 43.32                             119   -0.25 8  250 333 
 SML  HN ES       1627 12.13                             119   -0.93 8  250 333 
 SML  HZ I        1627 16.21        13.5 0.24            120            250 333 
 GUY2CHZ EP       1626 51.73                             113    1.11 7  308 236 
 GUY2CHN ES   4   1627 26.00                             113    0.40 0  308 236 
 GUY2CHZ I        1627 33.67         4.2 0.62                           308 236 
                                                                                
