 2012 1027 1631 51.5 L   6.826 -73.120152.0  RSN  5 0.1 1.8LRSN                1
 GAP=138        0.36       3.0     2.6  4.2  0.2054E+01  0.2463E+00  0.5041E+01E
 Epicentro: LOS SANTOS - SANTANDER                                             3
 ACTION:UPD 12-11-22 17:06 OP:ep   STATUS:               ID:20121027163151 L   I
 2012-10-27-1630-00M.COL___228                                                 6
 STAT SP IPHASW D HRMM SECON CODA AMPLIT PERI AZIMU VELO AIN AR TRES W  DIS CAZ7
 BAR2 SZ EP       1632 12.06                             170    0.0710 26.8 195 
 BAR2 SZ I        1632 29.80        16.3 0.31                          26.8 195 
 BRR  HZ EP       1632 13.31                             153   -0.1210 72.4 295 
 BRR  HZ I        1632 14.90        12.7 0.31                          72.4 295 
 BRR  HN ES       1632 30.64                             153    0.1410 72.4 295 
 PAM  SZ EP   1   1632 14.36                             153    0.16 7 73.4  39 
 PAM  SZ I        1632 15.30         9.5 0.18                          73.4  39 
 PAM  SN ES   1   1632 31.72                             153   -0.15 7 73.4  39 
 RUS  HZ EP       1632 16.09                             144   -0.0110  103 178 
 RUS  HN ES   2   1632 35.16                             144   -0.10 5  103 178 
 RUS  HN I        1632 36.64         9.3 0.25                           103 178 
 ZAR  HE ES   1   1632 50.18                             124   -0.12 6  206 291 
                                                                                
