 2014  727 1832 38.4 L   6.625 -73.214151.7  RSN 11 0.4 1.7LRSN                1
 GAP=182        0.88       6.0     7.5  9.0  0.2285E+02  0.1758E+02  0.1394E+02E
 Epicentro: BARICHARA - SANTANDER                                              3
 ACTION:UPD 15-03-16 20:47 OP:nd   STATUS:               ID:20140727183238 L   I
 OLDACT:REG 14-07-27 20:27 OP:fm   STATUS:               ID:20140727182812     3
 2014-07-27-1828-12M.COL___266                                                 6
 STAT SP IPHASW D HRMM SECON CODA AMPLIT PERI AZIMU VELO AIN AR TRES W  DIS CAZ7
 BAR2 SZ EP   1   1832 58.61                             178    0.04 7 5.02 136 
 BAR2 SZ ES   1   1833 13.75                             178   -0.52 7 5.02 136 
 BAR2 SZ I        1833 16.36         9.1 0.26            171           5.02 136 
 BRR  HZ EP   1   1833  0.34                             152   -0.20 7 76.6 314 
 BRR  HZ I        1833 17.78         6.2 0.38            132           76.6 314 
 BRR  HN ES       1833 17.79                             152    0.0110 76.6 314 
 RUS  HZ EP   1   1833  2.41                             150    0.83 7 82.3 170 
 RUS  HN ES   1   1833 19.83                             150    0.19 7 82.3 170 
 RUS  HZ I        1833 22.71         3.6 0.32            127           82.3 170 
 PTB  HZ EP   1   1833  4.48                             135   -0.55 7  138 266 
 PTB  HN ES   1   1833 26.37                             135    0.61 7  138 266 
 PTB  HZ I        1833 32.50         6.3 0.22            113            138 266 
 ZAR  HN ES   1   1833 37.11                             123   -0.03 6  205 298 
 ZAR  HZ I        1833 43.02         6.3 0.30            104            205 298 
 NOR  HN ES   4   1833 43.36                             122    3.88 0  218 237 
 NOR  HZ I        1833 50.96         3.1 0.16            103            218 237 
 CHI  HN ES   1   1833 41.65                             121   -0.59 6  228 195 
 CHI  HZ I        1833 56.49         4.5 0.52            102            228 195 
 SML  HN ES   4   1833 42.86                             117   -4.23 0  259 339 
 SML  HZ I        1833 47.53         7.9 0.26            101            259 339 
 GUY2CHZ EP   4   1833 15.45                             115   -4.98 0  284 237 
 GUY2CHN ES   4   1834  1.22                             115    8.04 0  284 237 
 GUY2CHZ I        1834  5.36         3.3 0.42                           284 237 
 RREF HZ EP   4   1833 25.32                             113    2.52 0  304 231 
 RREF HN ES   4   1834  3.05                             113    5.64 0  304 231 
 RREF HZ I        1834 10.42         2.9 0.46             99            304 231 
 SJC  HZ EP   4   1833 32.61                             106   -3.05 0  422 329 
 SJC  HZ I        1834 20.98         1.4 0.56             96            422 329 
                                                                                
