 2014  827 1516 15.1 L   6.745 -73.144142.4  RSN  5 0.4 1.8LRSN                1
 GAP=139        1.07       5.6     5.5  7.9 -0.2790E+01  0.5546E+01  0.1503E+01E
 Epicentro: LOS SANTOS - SANTANDER                                             3
 ACTION:UPD 14-09-15 21:53 OP:nd   STATUS:               ID:20140827151615 L   I
 OLDACT:REG 14-08-27 21:47 OP:stll STATUS:               ID:20140827150819     3
 2014-08-27-1508-19M.COL___257                                                 6
 STAT SP IPHASW D HRMM SECON CODA AMPLIT PERI AZIMU VELO AIN AR TRES W  DIS CAZ7
 BAR2 SZ EP       1516 34.23                             173   -0.0210 17.4 194 
 BAR2 SZ ES       1516 48.94                             173   -0.2210 17.4 194 
 BAR2 SZ I        1516 50.12        21.8 0.30            172           17.4 194 
 BRR  HZ EP       1516 35.99                             151   -0.1210 74.5 303 
 BRR  HZ I        1516 36.38        16.1 0.24            150           74.5 303 
 BRR  HN ES       1516 53.37                             151    0.9010 74.5 303 
 PAM  SZ EP       1516 37.19                             149   -0.0910 82.0  37 
 PAM  SN ES       1516 54.21                             149   -0.3410 82.0  37 
 PAM  SZ I        1516 56.11        10.7 0.56            151           82.0  37 
 RUS  HZ EP       1516 38.55                             145    0.4310 94.5 176 
 RUS  HN ES       1516 56.06                             145    0.0110 94.5 176 
 RUS  HZ I        1516 57.57         4.9 0.32            146           94.5 176 
 PTB  HZ EP       1516 41.81                             131    0.06 9  147 261 
 PTB  HN ES       1517  1.82                             131   -0.69 9  147 261 
 PTB  HZ I        1517  7.34         5.7 0.26            132            147 261 
                                                                                
