 2012  327 1706 38.8 L   6.764 -73.142150.4  RSN  6 0.4 1.6LRSN                1
 GAP=139        0.64       6.8     6.5  9.1 -0.1082E+01  0.9498E+01 -0.1330E+01E
 ACTION:UP  12-03-31 23:23 OP:EP   STATUS:               ID:20120327170638 L   I
 2012-03-27-1659-41M.COL___178                                                 6
 STAT SP IPHASW D HRMM SECON CODA AMPLIT PERI AZIMU VELO SNR AR TRES W  DIS CAZ7
 BAR2 SZ EP   2   17 6 58.88                             172    -0.1 5   20 193 
 BAR2 SZ ES   2   17 7 14.25                             172    -0.4 5   20 193 
 BAR2 SZ I        17 7 15.60         7.0 0.35                            20 193 
 BRR  HZ EP   1   17 7  0.86                             153     0.2 7   74 301 
 BRR  HZ I        17 7  1.12         8.1 0.16                            74 301 
 BRR  HN ES   2   17 7 18.27                             153     0.7 5   74 301 
 PAM  SZ EP   2   17 7  1.67                             151    -0.1 5   80  38 
 PAM  SN ES   2   17 7 19.21                             151    -0.4 5   80  38 
 RUS  HZ EP   2   17 7  2.85                             146     0.1 5   97 176 
 RUS  HN ES   2   17 7 21.91                             146     0.5 5   97 176 
 RUS  HZ I        17 7 22.76         3.4 0.32                            97 176 
 PTB  HZ EP   2   17 7  5.90                             133    -0.3 5  147 260 
 PTB  HN ES   2   17 7 26.78                             133    -0.7 5  147 260 
 PTB  HZ I        17 7 32.74         3.6 0.35                           147 260 
 ZAR  HE ES   3   17 7 37.91                             123     0.4 2  206 293 
 ZAR  HZ I        17 7 43.26         5.5 0.38                           206 293 
                                                                                
