 2011  727 1528 37.2 L   6.872 -72.972137.7  RSN  5 0.5 1.9LRSN                1
 GAP=177        0.86       4.2     9.6  8.5 -0.5751E+01 -0.1936E+02 -0.3522E+01E
 Epicentro: CEPITA - SANTANDER                                                 3
 ACTION:UPD 12-07-25 14:03 OP:epov STATUS:               ID:20110727152837 L   I
 2011-07-27-1525-23S.COL___143                                                 6
 STAT SP IPHASW D HRMM SECON CODA AMPLIT PERI AZIMU VELO AIN AR TRES W  DIS CAZ7
 BAR2 SZ EP   1   1528 56.85                             163    0.55 8 38.7 217 
 BAR2 SZ ES   1   1529 11.33                             163    0.14 8 38.7 217 
 BAR2 SZ I        1529 14.82        14.4 0.31                          38.7 217 
 BRR  HZ EP   1   1528 58.63                             145    0.21 8 85.8 288 
 BRR  HZ I        1528 59.55        21.3 0.33                          85.8 288 
 BRR  HN ES   1   1529 14.89                             145   -0.07 8 85.8 288 
 RUS  HZ EP   1   1529  1.24                             139    0.42 7  109 186 
 RUS  HN ES       1529 18.93                             139   -0.3110  109 186 
 RUS  HZ I        1529 20.68         5.5 0.19                           109 186 
 GRA  SZ EP       1529  0.89                             138    0.1710  114   9 
 GRA  SZ ES   1   1529 18.37                             138   -0.68 7  114   9 
 GRA  SZ I        1529 22.06         6.1 0.33                           114   9 
 PRA  HZ EP   1   1529 31.28                             104   -1.14 4  409 211 
 PRA  HZ I        1530 14.96         6.3 0.19                           409 211 
                                                                                
