 2015  127 1642 27.5 L   6.765 -73.119139.3  RSN 12 0.4 2.0LRSN                1
 GAP= 74        0.80       3.1     2.8  5.0 -0.2424E+00  0.2792E+01  0.3653E+01E
 Epicentro: LOS SANTOS - SANTANDER                                             3
 ACTION:UPD 15-03-02 15:42 OP:nd   STATUS:               ID:20150127164227 L   I
 OLDACT:REG 15-01-27 19:55 OP:spq  STATUS:               ID:20150127163744     3
 2015-01-27-1637-44M.COL___277                                                 6
 STAT SP IPHASW D HRMM SECON CODA AMPLIT PERI AZIMU VELO AIN AR TRES W  DIS CAZ7
 BAR2 EZ EP       1642 46.08                             171   -0.2310 20.4 200 
 BAR2 EZ ES   1   1643  0.99                             171    0.02 7 20.4 200 
 BAR2 EZ I        1643  2.10        32.5 0.18            168           20.4 200 
 BRR  HZ EP       1642 48.01                             150   -0.2310 75.7 300 
 BRR  HN ES       1643  4.92                             150    0.5210 75.7 300 
 BRR  HZ I        1643  9.25        29.2 0.12            149           75.7 300 
 PAM  SZ EP     D 1642 48.92                             149   -0.2110 78.6  36 
 PAM  SN ES       1643  5.77                             149   -0.2110 78.6  36 
 PAM  SZ I        1643  8.22        23.0 0.60            153           78.6  36 
 RUS  HZ EP       1642 50.11                             144   -0.2410 96.6 178 
 RUS  HE ES   1   1643  8.51                             144    0.36 7 96.6 178 
 RUS  HZ I        1643  9.10        14.0 0.46            143           96.6 178 
 TAM  HZ EP       1642 54.46                             130    0.13 9  151 104 
 TAM  HE ES   1   1643 15.51                             130    0.27 7  151 104 
 TAM  HZ I        1643 17.03        13.5 0.29            133            151 104 
 TAM  HZ I        1643 23.02        15.6 0.26                           151 104 
 OCA  HZ EP   1   1642 55.86                             127    0.12 7  164 352 
 OCA  HN ES   4   1643 16.12                             127   -1.63 0  164 352 
 OCA  HZ I        1643 19.35        28.7 0.28            129            164 352 
 ZAR  HZ EP       1643  0.68                             120    0.69 8  208 293 
 ZAR  HN ES       1643 24.90                             120   -0.42 8  208 293 
 ZAR  HZ I        1643 30.32        16.7 0.68            121            208 293 
 NOR  HZ EP       1643  2.83                             117   -0.08 8  235 236 
 NOR  HE ES       1643 29.94                             117   -0.57 8  235 236 
 NOR  HZ I        1643 35.31         7.5 0.28            117            235 236 
 CHI  HZ EP   1   1643  4.51                             116   -0.04 6  246 196 
 CHI  HN ES   1   1643 33.40                             116   -0.03 6  246 196 
 CHI  HZ I        1643 38.44         3.0 0.56            116            246 196 
 GUY2CHZ EP   4   1643  8.97                             111   -1.89 0  301 236 
 GUY2CHN ES   1   1643 45.18                             111    0.51 5  301 236 
 GUY2CHZ I        1643 52.62         3.8 0.50                           301 236 
 RREF HZ EP   4   1643 15.20                             110    1.84 0  322 230 
 RREF HE ES   4   1643 52.29                             110    3.17 0  322 230 
 RREF HZ I        1643 57.49         4.5 0.23            110            322 230 
 TOL  SZ EP   1   1643 16.29                             108    0.84 5  343 225 
 TOL  SN ES   4   1643 54.21                             108    1.37 0  343 225 
 TOL  SZ I        1644  1.19         3.7 0.66            109            343 225 
                                                                                
