 2017  427 1548  2.6 L   6.838 -73.134148.0  RSN 15 0.6 2.4LRSN                1
 GAP=111        1.10       3.9     3.6  6.2 -0.2588E+00  0.3471E+01  0.6464E+01E
 Epicentro: LOS SANTOS - SANTANDER                                             3
 ACTION:UPD 17-05-30 21:16 OP:jn   STATUS:               ID:20170427154802 L   I
 OLDACT:UP  17-04-28 00:07 OP:dani STATUS:               ID:20170427153038     3
 OLDACT:UP  17-04-28 00:07 OP:dani STATUS:               ID:20170427153038     3
 OLDACT:UP  17-04-28 00:07 OP:dani STATUS:               ID:20170427153038     3
 OLDACT:UP  17-04-28 00:06 OP:dani STATUS:               ID:20170427153038     3
 OLDACT:REG 17-04-27 21:22 OP:dani STATUS:               ID:20170427153038     3
 2017-04-27-1538-00M.COL___368                                                 6
 STAT SP IPHASW D HRMM SECON CODA AMPLIT PERI AZIMU VELO AIN AR TRES W  DIS CAZ7
 BRR  HZ EP       1548 24.37                             153    0.4610 70.5 295 
 BRR  HN ES       1548 40.32                             153   -0.2510 70.5 295 
 BRR  HZ I        1548 45.28        24.2 0.32            153           70.5 295 
 PAM  EZ EP       1548 25.11                             153    0.3310 73.3  41 
 PAM  EN ES       1548 42.55                             153    0.4410 73.3  41 
 PAM  EZ I        1548 44.57        34.2 0.20            161           73.3  41 
 PTB  HZ EP       1548 29.39                             132   -0.52 9  150 257 
 PTB  HN ES       1548 50.55                             132   -0.69 9  150 257 
 PTB  HZ I        1548 57.85        44.9 0.42            133            150 257 
 SPBC HZ EP       1548 31.33                             129   -0.29 9  167 218 
 SPBC HN ES       1548 54.14                             129   -0.15 9  167 218 
 SPBC HZ I        1549  0.71        58.3 0.29            130            167 218 
 YPLC HZ EP       1548 32.65                             127   -0.17 9  180 152 
 YPLC HN ES       1548 56.23                             127   -0.20 9  180 152 
 YPLC HZ I        1548 57.40        18.1 0.36            130            180 152 
 ZAR  HZ EP       1548 35.15                             123    0.03 9  204 291 
 ZAR  HE ES       1549  0.83                             123    0.31 9  204 291 
 ZAR  HZ I        1549  6.83        30.2 0.28            125            204 291 
 TABC EZ EP   9   1548 40.08                             119    1.18 0  234 210 
 TABC EZ ES       1549  9.21                             119    0.78 8  234 210 
 TABC EZ I        1549 12.16        30.1 0.66            121            234 210 
 NOR  HZ EP       1548 38.23                             119   -0.57 8  238 234 
 NOR  HN ES       1549  6.86                             119   -0.21 8  238 234 
 NOR  HZ I        1549 10.16        26.7 0.28            120            238 234 
 CHI  HZ EP       1548 40.54                             117   -0.33 8  253 195 
 CHI  HN ES   3   1549 10.20                             117   -0.54 2  253 195 
 CHI  HZ I        1549 15.87         8.6 0.52            119            253 195 
 ROSC BZ EP       1548 42.23                             117    0.96 8  257 211 
 ROSC BN ES   4   1549 15.77                             117    4.30 0  257 211 
 ROSC BZ I        1549 20.71        31.8 0.58            119            257 211 
 HEL  HZ EP   3   1548 44.92                             115    1.77 2  274 255 
 HEL  HN ES       1549 15.60                             115    0.79 8  274 255 
 HEL  HZ I        1549 21.62        16.3 0.29            117            274 255 
 CBOC HZ EP       1548 50.29                             110    0.42 7  336 251 
 CBOC HN ES       1549 27.36                             110    0.60 7  336 251 
 CBOC HZ I        1549 34.86         4.5 0.16            112            336 251 
 DBB  EZ EP       1548 49.95                             110   -0.30 7  341 274 
 DBB  EN ES   3   1549 26.24                             110   -1.20 2  341 274 
 DBB  EZ I        1549 33.81         6.0 0.36            112            341 274 
 ORTC HZ EP       1548 56.87                             107   -0.18 6  400 216 
 ORTC HE ES       1549 40.47                             107    0.92 6  400 216 
 ORTC HZ I        1549 46.39         8.2 0.23            109            400 216 
 SJC  HZ EP       1548 56.52                             106   -1.35 6  406 326 
 SJC  HN ES   4   1549 37.59                             106   -3.41 0  406 326 
 SJC  HZ I        1549 43.15         2.9 0.30            109            406 326 
                                                                                
