 2011  627 1520  2.5 L   6.743 -73.095144.7  RSN  8 0.3 1.9LRSN                1
 GAP=162        0.55       3.3     5.3  4.6 -0.6536E+01 -0.9926E+00 -0.4611E+00E
 Epicentro: JORDAN - SANTANDER                                                 3
 ACTION:UP  11-07-14 19:08 OP:ep   STATUS:               ID:20110627152002 L   I
 2011-06-27-1516-32S.COL___140                                                 6
 STAT SP IPHASW D HRMM SECON CODA AMPLIT PERI AZIMU VELO SNR AR TRES W  DIS CAZ7
 BAR2 SZ EP   1   1520 21.82                             172    -0.1 7   19 210 
 BAR2 SZ ES   1   1520 37.10                             172     0.0 7   19 210 
 BAR2 SZ I        1520 37.95        22.6 0.28                            19 210 
 BTL  SZ EP       1520 22.18                             169     0.110   27 316 
 BTL  SZ ES   2   1520 36.69                             169    -0.7 5   27 316 
 BRR  HZ EP   1   1520 24.08                             150     0.1 7   79 301 
 BRR  HN ES   1   1520 41.13                             150     0.4 7   79 301 
 BRR  HZ I        1520 42.33        19.8 0.15                            79 301 
 RUS  HZ EP   1   1520 25.68                             145     0.0 7   94 179 
 RUS  HN ES   2   1520 43.91                             145     0.1 5   94 179 
 RUS  HZ I        1520 45.75        10.5 0.35                            94 179 
 BRI  SZ EP   1   1520 26.95                             140     0.3 7  113  17 
 GRA  SZ EP   1   1520 28.12                             136     0.1 7  130  14 
 GRA  SZ ES   1   1520 47.63                             136    -0.3 7  130  14 
 GRA  SZ I        1520 50.40         7.7 0.30                           130  14 
 OCA  SZ EP   1   1520 31.19                             128    -0.2 7  167 352 
 OCA  SZ I        1520 58.37        10.4 0.18                           167 352 
 NOR  SZ EP   1   1520 38.09                             118    -0.2 6  236 236 
 NOR  SE ES   2   1521  5.83                             118    -0.4 4  236 236 
                                                                                
