 2011 1127 1016 31.8 L   6.092 -74.149  4.0  RSN  5 0.4 1.4LRSN                1
 GAP=174        0.83       4.4     3.5  8.3  0.8514E+00 -0.2492E+01 -0.7679E+01E
 Epicentro: CIMITARRA - SANTANDER                                              3
 ACTION:UPD 12-07-13 16:12 OP:ep   STATUS:               ID:20111127101631 L   I
 2011-11-27-1000-00M.COL___180                                                 6
 STAT SP IPHASW D HRMM SECON CODA AMPLIT PERI AZIMU VELO AIN AR TRES W  DIS CAZ7
 BAR2 SZ EP       1016 51.46                              90    0.5310  120  63 
 RUS  HZ EP   1   1016 51.46                              90    0.32 8  120 101 
 RUS  HZ I        1016 51.66         6.1 0.28                           120 101 
 BAR2 SZ I        1016 51.61         6.6 0.18                           120  63 
 BAR2 SZ ES   1   1017  5.28                              90   -0.53 7  120  63 
 RUS  HE ES   1   1017  5.74                              90   -0.45 8  120 101 
 BRR  HZ EP   1   1016 50.94                              90   -0.01 7  122  23 
 BRR  HN ES   1   1017  5.80                              90   -0.06 7  122  23 
 BRR  HZ I        1017  6.83        10.7 0.11                           122  23 
 HEL  HZ EP   1   1016 55.51                              90   -0.50 7  153 274 
 PAM  SZ EP   1   1017  4.65                              56    0.53 6  211  49 
 PAM  SN ES   1   1017 29.07                              56   -0.23 6  211  49 
 PAM  SZ I        1017 30.41         2.1 0.27                           211  49 
                                                                                
