 2013  227 1323 50.4 L   6.804 -73.148146.7  RSN 12 0.5 2.5LRSN                1
 GAP= 71        0.99       3.7     4.0  6.8  0.1887E+01  0.5970E+01  0.3094E+01E
 Epicentro: LOS SANTOS - SANTANDER                                             3
 ACTION:UPD 13-03-12 09:36 OP:ep   STATUS:               ID:20130227132350 L   I
 2013-02-27-1320-00M.COL___226                                                 6
 STAT SP IPHASW D HRMM SECON CODA AMPLIT PERI AZIMU VELO AIN AR TRES W  DIS CAZ7
 BAR2 SZ EP   1   1324 10.23                             170    0.11 7 23.7 189 
 BAR2 SZ ES   1   1324 25.36                             170   -0.17 7 23.7 189 
 BAR2 SZ I        1324 28.11       118.1 0.26            168           23.7 189 
 BRR  HZ EP       1324 12.14                             153    0.5410 70.7 298 
 BRR  HN ES   1   1324 29.16                             153    1.01 7 70.7 298 
 BRR  HZ I        1324 33.37        57.9 0.20            151           70.7 298 
 PAM  SZ EP   1   1324 13.15                             151    0.47 7 77.2  40 
 PAM  SN ES   1   1324 29.74                             151   -0.33 7 77.2  40 
 PAM  SZ I        1324 32.27        33.4 0.56            156           77.2  40 
 RUS  HZ EP     D 1324 14.04                             144   -0.2110  101 176 
 RUS  HN ES   1   1324 32.65                             144   -0.23 7  101 176 
 RUS  HZ I        1324 33.99        23.9 0.26            145            101 176 
 PTB  HZ EP   1   1324 17.10                             132   -0.30 7  148 259 
 PTB  HN ES   1   1324 37.69                             132   -0.79 7  148 259 
 PTB  HZ I        1324 45.53        61.4 0.46            132            148 259 
 TAM  HZ EP   1   1324 18.38                             131    0.22 7  155 105 
 TAM  HE ES   1   1324 39.86                             131    0.02 7  155 105 
 TAM  HZ I        1324 41.33        18.2 0.36            136            155 105 
 OCA  HE ES   1   1324 40.22                             130   -0.59 7  160 353 
 OCA  HZ I        1324 46.19        55.2 0.26            132            160 353 
 ZAR  HZ EP   1   1324 22.62                             123   -0.21 6  204 292 
 ZAR  HE ES   1   1324 49.12                             123    0.97 6  204 292 
 SML  HZ EP   1   1324 26.33                             118   -0.66 6  243 335 
 SML  HN ES   1   1324 54.90                             118   -0.65 6  243 335 
 SML  HZ I        1325  1.49        46.9 0.10            120            243 335 
 CHI  HZ EP   1   1324 27.96                             117   -0.21 6  249 195 
 CHI  HN ES   1   1324 57.43                             117   -0.21 6  249 195 
 CHI  HZ I        1325  5.33        13.7 0.56            119            249 195 
 ROSC BZ EP   1   1324 29.34                             117    0.77 6  253 211 
 ROSC BE ES   4   1324 59.74                             117    1.37 0  253 211 
 ROSC BZ I        1325  7.91        29.8 0.40            118            253 211 
 HEL  HZ EP   1   1324 31.10                             115    0.48 6  272 256 
 HEL  HE ES   1   1325  1.28                             115   -0.72 6  272 256 
 HEL  HZ I        1325  8.88        21.0 0.32            116            272 256 
                                                                                
