 2010  127 1955 45.0 L   6.724 -72.941145.9  RSN  4 0.3 1.7LRSN                1
 GAP=308        0.55      10.2    12.0  8.3 -0.3282E+02  0.1988E+02  0.1496E+02E
 Epicentro: CEPITA - SANTANDER                                                 3
 ACTION:UP  10-08-24 09:46 OP:vdl  STATUS:               ID:20100127195544 L   I
 2010-01-27-1950-34S.COL___094                                                 6
 STAT SP IPHASW D HRMM SECON CODA AMPLIT PERI AZIMU VELO SNR AR TRES W  DIS CAZ7
 BAR2 SZ ES   2   1956 19.97                             168    -0.3 5   31 241 
 RUS  BZ EP   1   1956  8.35                             146     0.1 7   93 190 
 RUS  BN ES   1   1956 26.63                             146     0.2 7   93 190 
 RUS  BZ I        1956 28.55        10.4 0.52                            93 190 
 CHI  HZ EP   2   1956 22.51                             117    -0.1 4  248 201 
 CHI  HE ES   2   1956 51.26                             117    -0.7 4  248 201 
 CHI  HZ I        1956 54.94         2.5 0.55                           248 201 
 RREF BE ES   2   1957 10.16                             110     0.5 3  334 233 
                                                                                
