 2014 1127 1114 42.6 L   6.793 -73.161145.6  RSN 15 0.4 1.8LRSN                1
 GAP=135        0.80       2.6     3.2  4.6 -0.9930E+00  0.3068E+01  0.2947E+01E
 Epicentro: LOS SANTOS - SANTANDER                                             3
 ACTION:UPD 14-12-19 15:48 OP:nd   STATUS:               ID:20141127111442 L   I
 OLDACT:REG 14-11-27 16:48 OP:spq  STATUS:               ID:20141127110746     3
 2014-11-27-1107-46M.COL___306                                                 6
 STAT SP IPHASW D HRMM SECON CODA AMPLIT PERI AZIMU VELO AIN AR TRES W  DIS CAZ7
 BAR2 SZ EP       1115  2.02                             171   -0.1210 22.3 186 
 BAR2 SZ ES   1   1115 17.27                             171   -0.15 7 22.3 186 
 BAR2 SZ I        1115 19.79        14.9 0.30            169           22.3 186 
 BRR  HZ EP   1   1115  3.83                             153    0.21 7 70.1 300 
 BRR  HN ES       1115 20.82                             153    0.7710 70.1 300 
 BRR  HZ I        1115 24.92        13.5 0.28            152           70.1 300 
 PAM  SZ EP     D 1115  4.99                             150    0.1410 79.1  40 
 PAM  SN ES       1115 22.01                             150   -0.2310 79.1  40 
 PAM  SZ I        1115 25.05         8.5 0.34            156           79.1  40 
 RUS  HZ EP       1115  5.99                             144   -0.2510 99.9 175 
 RUS  HE ES   1   1115 24.86                             144    0.15 7 99.9 175 
 RUS  HZ I        1115 26.06         6.9 0.30            145           99.9 175 
 PTB  HZ EP   1   1115  8.82                             132   -0.52 7  146 259 
 PTB  HE ES       1115 30.32                             132    0.09 9  146 259 
 PTB  HZ I        1115 32.33         5.9 0.14            133            146 259 
 OCA  HE ES   1   1115 32.72                             129   -0.29 7  161 354 
 OCA  HZ I        1115 39.30         6.5 0.20            133            161 354 
 SPBC HZ EP       1115 11.03                             129    0.15 9  161 219 
 SPBC HN ES       1115 32.79                             129   -0.18 9  161 219 
 SPBC HZ I        1115 39.34        10.9 0.20            130            161 219 
 ZAR  HZ EP       1115 15.04                             122    0.19 9  203 293 
 ZAR  HE ES       1115 39.15                             122   -0.89 9  203 293 
 ZAR  HZ I        1115 45.17         5.5 0.32            124            203 293 
 NOR  HZ EP   1   1115 18.22                             119    0.15 6  233 234 
 NOR  HE ES       1115 45.80                             119    0.02 8  233 234 
 NOR  HZ I        1115 52.89         4.6 0.18            120            233 234 
 CHI  HZ EP       1115 20.30                             117    0.19 8  247 195 
 CHI  HN ES       1115 49.23                             117   -0.17 8  247 195 
 CHI  HZ I        1115 55.81         3.7 0.34            119            247 195 
 GUY2CHZ EP   1   1115 25.94                             112   -0.00 5  299 235 
 GUY2CHE ES   4   1116  3.05                             112    3.26 0  299 235 
 GUY2CHZ I        1116  8.37         3.8 0.70                           299 235 
 RREF HZ EP   1   1115 28.64                             111    0.16 5  320 229 
 RREF HE ES   4   1116  6.62                             111    2.32 0  320 229 
 RREF HZ I        1116  9.19         3.1 0.26            112            320 229 
 TOL  SZ EP   1   1115 30.88                             109    0.28 5  342 225 
 TOL  SN ES   4   1116 10.35                             109    2.28 0  342 225 
 TOL  SZ I        1116 20.41         6.9 0.26            111            342 225 
 MON  HZ EP   1   1115 32.38                             109    0.93 5  353 309 
 MON  HN ES   4   1116  6.32                             109   -3.26 0  353 309 
 MON  HZ I        1116  8.09         1.0 0.20            110            353 309 
 SJC  HE ES   4   1116 17.40                             106   -3.98 0  409 327 
 SJC  HZ I        1116 20.65         1.5 0.27            108            409 327 
                                                                                
