 2010 1127 1735 50.8 L   6.786 -73.084140.0  RSN  7 0.2 1.8LRSN                1
 GAP=166        0.40       2.0     3.7  3.6 -0.1935E+01  0.1151E+01  0.2645E+00E
 Epicentro: LOS SANTOS - SANTANDER                                             3
 ACTION:UP  10-12-17 16:55 OP:REBC STATUS:               ID:20101127173550 L   I
 2010-11-27-1733-27S.COL___132                                                 6
 STAT SP IPHASW D HRMM SECON CODA AMPLIT PERI AZIMU VELO SNR AR TRES W  DIS CAZ7
 BAR2 SZ IP       1736  9.89                             170     0.110   24 207 
 BAR2 SZ I        1736 10.33         9.1 0.19                            24 207 
 BAR2 SZ ES   1   1736 24.35                             170    -0.2 7   24 207 
 BRR  HZ IP     D 1736 11.71                             149     0.010   78 297 
 BRR  HZ I        1736 11.87        15.0 0.17                            78 297 
 BRR  HE ES   1   1736 28.10                             149     0.0 7   78 297 
 RUS  HZ EP   1   1736 13.75                             143    -0.1 7   99 180 
 RUS  HE ES   1   1736 31.97                             143     0.1 7   99 180 
 RUS  HZ I        1736 34.00         6.7 0.25                            99 180 
 GRA  SZ EP   1   1736 15.58                             136     0.1 7  125  14 
 GRA  SZ ES   1   1736 34.97                             136     0.2 7  125  14 
 GRA  SZ I        1736 36.53         9.3 0.27                           125  14 
 OCA  SZ EP   2   1736 18.44                             128    -0.5 5  163 351 
 OCA  SZ I        1736 43.72        10.3 0.48                           163 351 
 CHI  HZ EP   2   1736 28.15                             116    -0.1 4  249 197 
 CHI  HE ES   2   1736 57.29                             116    -0.1 4  249 197 
 CHI  HZ I        1737  5.33         3.2 0.24                           249 197 
 RREF HZ EP   2   1736 37.44                             109     0.2 3  326 230 
 RREF HE ES   1   1737 13.54                             109     0.2 5  326 230 
 RREF HZ I        1737 22.07         3.1 0.25                           326 230 
                                                                                
