 2015 1227 1227 21.1 L   6.788 -73.159147.3  RSN  8 0.2 2.0LRSN                1
 GAP=135        0.57       2.3     2.5  3.7 -0.6038E+00  0.2696E+01  0.1346E+01E
 Epicentro: LOS SANTOS - SANTANDER                                             3
 ACTION:UPD 16-02-04 15:08 OP:cam  STATUS:               ID:20151227122721 L   I
 OLDACT:REG 15-12-27 20:23 OP:cara STATUS:               ID:20151227121751     3
 2015-12-27-1217-51M.COL___331                                                 6
 STAT SP IPHASW D HRMM SECON CODA AMPLIT PERI AZIMU VELO AIN AR TRES W  DIS CAZ7
 BAR2 EZ EP     C 1227 40.75                             171   -0.0910 21.8 187 
 BAR2 EZ ES       1227 56.17                             171   -0.1010 21.8 187 
 BAR2 EZ I        1227 57.34        38.2 0.18            170           21.8 187 
 PAM  EZ IP     C 1227 43.68                             150    0.1310 79.4  40 
 PAM  EN ES       1228  1.09                             150   -0.0110 79.4  40 
 PAM  EZ I        1228  3.33         9.3 0.52            154           79.4  40 
 RUS  HZ IP       1227 44.89                             144    0.0210 99.3 175 
 RUS  HN ES       1228  3.62                             144    0.1810 99.3 175 
 RUS  HZ I        1228  4.56         8.6 0.28            145           99.3 175 
 PTB  HZ EP       1227 47.52                             133   -0.47 9  146 259 
 PTB  HN ES       1228  8.90                             133   -0.10 9  146 259 
 PTB  HZ I        1228 11.57        10.0 0.18            132            146 259 
 SPBC HZ EP       1227 49.76                             130    0.28 9  161 219 
 SPBC HN ES       1228 11.87                             130    0.22 9  161 219 
 SPBC HZ I        1228 17.43        19.4 0.14            130            161 219 
 ZAR  HE ES       1228 18.97                             123    0.15 9  203 293 
 ZAR  HZ I        1228 24.13        14.0 0.44            123            203 293 
 CHI  HZ EP       1227 58.37                             118   -0.28 8  247 195 
 CHI  HN ES       1228 27.72                             118   -0.26 8  247 195 
 CHI  HZ I        1228 34.00         4.3 0.40            119            247 195 
 GUY2CHZ EP       1228  4.89                             113    0.38 7  299 235 
 GUY2CHN ES   4   1228 40.00                             113    1.60 0  299 235 
 GUY2CHZ I        1228 47.85         5.0 0.56                           299 235 
                                                                                
