 2013  927 1834 57.1 L   6.538 -73.569111.9  RSN  6 0.6 1.6LRSN                1
 GAP= 76        1.48       5.7     5.5 11.4 -0.5520E+01  0.6454E+00 -0.3108E+01E
 Epicentro: EL CARMEN DE CHUCURI - SANTANDER                                   3
 ACTION:UPD 13-10-22 09:25 OP:ep   STATUS:               ID:20130927183457 L   I
 OLDACT:REG 13-09-27 16:58 OP:stll STATUS:               ID:20130927182845     3
 2013-09-27-1828-45M.COL___247                                                 6
 STAT SP IPHASW D HRMM SECON CODA AMPLIT PERI AZIMU VELO AIN AR TRES W  DIS CAZ7
 BAR2 SZ IP     C 1835 13.79                             158    0.3910 43.2  82 
 BAR2 SZ ES       1835 26.20                             158    0.0910 43.2  82 
 BRR  HZ IP       1835 14.59                             148    0.3210 64.9 346 
 BRR  HN ES       1835 28.61                             148    0.9410 64.9 346 
 BRR  HZ I        1835 37.36         9.8 0.26            148           64.9 346 
 RUS  HZ EP       1835 17.11                             139    0.3510 89.3 143 
 RUS  HN ES       1835 31.91                             139   -0.1810 89.3 143 
 RUS  HZ I        1835 33.84         5.6 0.32            147           89.3 143 
 PTB  HZ EP       1835 16.64                             136   -0.1910 98.1 270 
 PTB  HN ES       1835 31.40                             136   -0.8210 98.1 270 
 PTB  HZ I        1835 32.95        14.8 0.18            141           98.1 270 
 SPBC HN ES       1835 34.74                             131    0.0510  113 210 
 PAM  SZ EP       1835 20.64                             127    0.1810  131  47 
 PAM  SN ES       1835 37.47                             127   -1.2210  131  47 
 PAM  SZ I        1835 42.50         5.5 0.38            131            131  47 
                                                                                
