 2012  927 1621  1.1 L   6.780 -73.162146.0  RSN  6 0.4 1.8LRSN                1
 GAP=135        0.77       5.2     4.6  7.4  0.2999E+01  0.6352E+01 -0.3193E+01E
 Epicentro: LOS SANTOS - SANTANDER                                             3
 ACTION:UPD 12-10-22 14:21 OP:ep   STATUS:               ID:20120927162101 L   I
 2012-09-27-1620-00M.COL___214                                                 6
 STAT SP IPHASW D HRMM SECON CODA AMPLIT PERI AZIMU VELO AIN AR TRES W  DIS CAZ7
 BAR2 SZ EP   1   1621 20.50                             171   -0.23 7 20.9 186 
 BAR2 SZ ES   1   1621 36.40                             171    0.38 7 20.9 186 
 BRR  HZ EP   1   1621 22.40                             153    0.14 7 70.7 301 
 BRR  HE ES   1   1621 39.35                             153    0.60 7 70.7 301 
 BRR  HE I        1621 43.77        31.7 0.16                          70.7 301 
 PAM  SZ EP   1   1621 23.38                             150   -0.15 7 80.2  40 
 PAM  SN ES   1   1621 40.59                             150   -0.42 7 80.2  40 
 PAM  SN I        1621 42.36         8.5 0.36                          80.2  40 
 RUS  HZ EP   1   1621 24.88                             144    0.14 7 98.5 175 
 RUS  HZ I        1621 25.72         4.5 0.14                          98.5 175 
 RUS  HN ES   1   1621 43.12                             144   -0.05 7 98.5 175 
 PTB  HN ES   1   1621 48.10                             133   -0.69 7  146 260 
 ZAR  HZ EP   1   1621 34.09                             123    0.60 6  203 293 
 ZAR  HN ES   1   1621 58.41                             123   -0.32 6  203 293 
 ZAR  HN I        1622  5.62         9.8 0.34                           203 293 
                                                                                
