 2013  327 1536 42.4 L   6.781 -73.190147.3  RSN  5 0.3 1.7LRSN                1
 GAP=132        0.55       4.5     4.7  7.2  0.6636E+01 -0.6149E+01 -0.1152E+02E
 Epicentro: LOS SANTOS - SANTANDER                                             3
 ACTION:UPD 13-04-09 14:05 OP:ep   STATUS:               ID:20130327153642 L   I
 2013-03-27-1530-00M.COL___245                                                 6
 STAT SP IPHASW D HRMM SECON CODA AMPLIT PERI AZIMU VELO AIN AR TRES W  DIS CAZ7
 BAR2 SZ EP   2   1537  2.05                             172   -0.10 5 20.9 178 
 BAR2 SZ ES   2   1537 18.06                             172    0.50 5 20.9 178 
 BAR2 SZ I        1537 19.62         8.8 0.38            168           20.9 178 
 BRR  HZ EP   1   1537  3.60                             154    0.08 7 68.0 302 
 BRR  HE ES   1   1537 20.10                             154    0.10 7 68.0 302 
 BRR  HE I        1537 21.81        13.6 0.46            151           68.0 302 
 PAM  SZ EP   1   1537  4.79                             149   -0.26 7 82.2  41 
 RUS  HZ EP   2   1537  6.35                             145    0.18 5 99.0 173 
 RUS  HN ES       1537 24.64                             145   -0.0810 99.0 173 
 RUS  HN I        1537 26.29         2.8 0.26            145           99.0 173 
 PTB  HZ EP   2   1537  9.76                             134    0.76 5  142 259 
 PTB  HN ES   1   1537 29.38                             134   -0.39 7  142 259 
 PTB  HN I        1537 35.45        10.5 0.34            132            142 259 
                                                                                
