 2013  627 1538 48.6 L   6.781 -73.084141.5  RSN  4 0.2 1.8LRSN                1
 GAP=145        0.55       3.8     5.7  5.9 -0.6010E+00 -0.2344E+01  0.9066E+00E
 Epicentro: LOS SANTOS - SANTANDER                                             3
 ACTION:UPD 14-01-08 09:57 OP:ep   STATUS:               ID:20130627153848 L   I
 OLDACT:REG 13-06-27 18:01 OP:carl STATUS:               ID:20130627152959     3
 2013-06-27-1529-59M.COL___266                                                 6
 STAT SP IPHASW D HRMM SECON CODA AMPLIT PERI AZIMU VELO AIN AR TRES W  DIS CAZ7
 BAR2 SZ EP   1   1539  7.59                             170   -0.17 7 23.5 208 
 BAR2 SZ ES   1   1539 22.40                             170   -0.27 7 23.5 208 
 BAR2 SZ I        1539 23.86         8.7 0.16            171           23.5 208 
 PAM  SZ EP   1   1539 10.47                             151    0.22 7 74.9  34 
 PAM  SN ES   1   1539 27.09                             151   -0.02 7 74.9  34 
 PAM  SZ I        1539 29.78        16.2 0.66            153           74.9  34 
 BRR  HZ EP   1   1539  9.34                             149   -0.41 7 78.2 297 
 BRR  HN ES   1   1539 26.57                             149    0.36 7 78.2 297 
 BRR  HN I        1539 30.17        22.4 0.32            149           78.2 297 
 RUS  HZ EP   1   1539 12.01                             144    0.21 7 98.2 180 
 RUS  HN ES   1   1539 29.96                             144    0.09 7 98.2 180 
 RUS  HZ I        1539 31.13         4.7 0.38            148           98.2 180 
                                                                                
