 2017  927 1620 32.5 L   6.805 -73.164138.7  RSN  5 0.2 1.6LRSN                1
 GAP=134        0.63       3.3     3.8  5.4  0.1126E+01  0.8587E+01 -0.2413E+01E
 Epicentro: LOS SANTOS - SANTANDER                                             3
 ACTION:UPD 17-10-05 19:16 OP:rebc STATUS:               ID:20170927162032 L   I
 OLDACT:REG 17-09-27 20:54 OP:dhb  STATUS:               ID:20170927161738     3
 2017-09-27-1618-00M.COL___450                                                 6
 STAT SP IPHASW D HRMM SECON CODA AMPLIT PERI AZIMU VELO AIN AR TRES W  DIS CAZ7
 BAR2 EZ IP     D 1620 51.02                             170   -0.2610 23.6 185 
 BAR2 EZ ES       1621  5.72                             170   -0.2110 23.6 185 
 BAR2 EZ I        1621  7.13        22.7 0.26            171           23.6 185 
 PAM  EZ IP     D 1620 54.01                             149   -0.0110 78.3  41 
 PAM  EN ES       1621 10.95                             149    0.1510 78.3  41 
 PAM  EZ I        1621 13.48        12.6 0.45            152           78.3  41 
 RUS  HZ EP       1620 55.37                             142   -0.2310  101 175 
 RUS  HN ES       1621 14.00                             142    0.3710  101 175 
 RUS  HZ I        1621 14.64         5.0 0.29            146            101 175 
 ZAR  HZ EP       1621  4.60                             121    0.33 9  202 292 
 ZAR  HN ES       1621 28.99                             121   -0.07 9  202 292 
 ZAR  HZ I        1621 35.80         3.4 0.10            122            202 292 
 GUY2CHN ES   4   1621 53.42                             111    4.15 0  300 234 
 GUY2CHZ I        1621 58.26         0.9 0.34                           300 234 
                                                                                
