 2015  627 1259 26.3 L   6.821 -73.147144.0  RSN 21 0.4 2.7LRSN                1
 GAP=182        0.79       1.7     3.2  3.7 -0.5222E+00  0.3426E+01  0.7620E-01E
 Epicentro: LOS SANTOS - SANTANDER                                             3
 ACTION:UPD 15-09-10 22:15 OP:cam  STATUS:               ID:20150627125926 L   I
 OLDACT:REG 15-06-27 20:29 OP:drio STATUS:               ID:20150627125749     3
 2015-06-27-1257-49M.COL___322                                                 6
 STAT SP IPHASW D HRMM SECON CODA AMPLIT PERI AZIMU VELO AIN AR TRES W  DIS CAZ7
 BAR2 EZ IP     D 1259 45.72                             169   -0.0410 25.5 189 
 BAR2 EZ ES       13 0  1.14                             169    0.2010 25.5 189 
 BAR2 EZ I        13 0  2.13        72.6 0.28            167           25.5 189 
 BRR  HZ EP       1259 47.70                             153    0.5110 70.0 297 
 BRR  HE ES       13 0  3.72                             153    0.2410 70.0 297 
 BRR  HZ I        13 0  7.14        52.5 0.18            148           70.0 297 
 RUS  HZ EP       1259 49.62                             143   -0.4210  103 176 
 RUS  HE ES       13 0  8.34                             143   -0.2210  103 176 
 RUS  HZ I        13 0  9.29        33.3 0.38            145            103 176 
 OCA  HZ EP       1259 54.06                             130   -0.19 9  158 353 
 OCA  HN ES       13 0 16.04                             130   -0.02 9  158 353 
 OCA  HZ I        13 0 24.19        95.6 0.20            130            158 353 
 ZAR  HZ EP       1259 58.56                             122    0.04 9  203 292 
 ZAR  HE ES       13 0 23.05                             122   -0.61 9  203 292 
 ZAR  HZ I        13 0 29.89        68.1 0.14            121            203 292 
 NOR  HZ EP       13 0  1.85                             118   -0.20 8  236 234 
 NOR  HN ES       13 0 30.08                             118    0.14 8  236 234 
 NOR  HZ I        13 0 33.36        41.0 0.22            118            236 234 
 SML  HZ EP       13 0  2.67                             117    0.08 8  242 335 
 SML  HE ES       13 0 30.65                             117   -0.25 8  242 335 
 SML  HZ I        13 0 36.60        75.5 0.10            118            242 335 
 CHI  HZ EP       13 0  3.78                             117   -0.35 8  251 195 
 CHI  HN ES       13 0 33.36                             117   -0.28 8  251 195 
 CHI  HZ I        13 0 37.00        21.4 0.36            118            251 195 
 ROSC BZ EP       13 0  4.59                             116    0.07 8  255 211 
 ROSC BE ES       13 0 34.66                             116    0.32 8  255 211 
 ROSC BZ I        13 0 43.33        49.9 0.40            117            255 211 
 HEL  HZ EP       13 0  6.87                             114    0.40 8  273 255 
 HEL  HN ES       13 0 37.48                             114   -0.32 8  273 255 
 HEL  HZ I        13 0 44.22        28.8 0.36            114            273 255 
 URE  HZ EP       13 0  6.44                             113   -0.73 7  283 291 
 URE  HN ES   4   13 0 36.56                             113   -2.49 0  283 291 
 URE  HZ I        13 0 46.51        28.1 0.32            113            283 291 
 GUY2CHZ EP       13 0 10.85                             112    0.89 7  302 234 
 GUY2CHE ES       13 0 44.17                             112    0.15 7  302 234 
 GUY2CHZ I        13 0 52.55        42.9 0.76                           302 234 
 LL2C HZ EP       13 0 10.22                             112    0.68 7  304 354 
 LL2C HE ES   4   13 0 44.22                             112    0.95 0  304 354 
 PTGC HZ EP   4   13 0  8.57                             111   -1.75 0  311 159 
 PTGC HE ES   4   13 0 42.32                             111   -2.34 0  311 159 
 DBB  SZ EP       13 0 13.37                             109   -0.29 7  339 274 
 DBB  SZ ES       13 0 50.53                             109   -0.08 7  339 274 
 DBB  SZ I        13 0 52.10        63.9 0.48            109            339 274 
 TOL  SZ EP       13 0 15.19                             109    0.53 7  345 224 
 TOL  SN ES       13 0 52.85                             109    0.47 7  345 224 
 TOL  SZ I        13 0 59.51        27.0 0.42            109            345 224 
 MON  HZ EP   4   13 0 12.94                             108   -2.11 0  352 308 
 MON  HN ES   4   13 0 51.63                             108   -1.45 0  352 308 
 MON  HZ I        13 0 54.10        12.2 0.42            109            352 308 
 ARGC HZ EP       13 0 15.87                             108    0.24 6  357 340 
 ARGC HE ES       13 0 54.23                             108    0.12 6  357 340 
 ARGC HZ I        13 1  5.31        14.2 0.34            109            357 340 
 PRA  HZ EP       13 0 19.22                             106   -0.76 6  394 209 
 PRA  HN ES       13 1  1.75                             106   -0.10 6  394 209 
 PRA  HZ I        13 1  7.46        24.8 0.34            107            394 209 
 ORTC HZ EP       13 0 20.08                             106   -0.28 6  397 216 
 ORTC HN ES       13 1  2.97                             106    0.44 6  397 216 
 ORTC HZ I        13 1 10.38        15.4 0.68            107            397 216 
 SJC  HZ EP   4   13 0 19.83                             105   -1.74 0  407 327 
 SJC  HN ES   4   13 1  0.57                             105   -4.11 0  407 327 
 SJC  HZ I        13 1  5.35         4.8 0.40            106            407 327 
 PAL  HZ EP       13 0 21.31                             106   -0.21 6  407 239 
 PAL  HN ES   4   13 1  3.51                             106   -1.09 0  407 239 
 PAL  HZ I        13 1 21.94        11.7 0.76            106            407 239 
                                                                                
