 2014  727 1236  6.5 L   6.806 -73.130151.8  RSN  9 0.5 1.8LRSN                1
 GAP=219        1.01       4.8     7.5  7.5 -0.6397E+01  0.3086E-01  0.9982E+01E
 Epicentro: LOS SANTOS - SANTANDER                                             3
 ACTION:UPD 15-03-16 20:47 OP:nd   STATUS:               ID:20140727123606 L   I
 OLDACT:REG 14-07-27 20:11 OP:fm   STATUS:               ID:20140727122818     3
 2014-07-27-1228-18M.COL___263                                                 6
 STAT SP IPHASW D HRMM SECON CODA AMPLIT PERI AZIMU VELO AIN AR TRES W  DIS CAZ7
 BAR2 SZ EP   1   1236 27.44                             171    0.52 7 24.4 194 
 BAR2 SZ ES   1   1236 42.02                             171   -0.80 7 24.4 194 
 BAR2 SZ I        1236 43.94         8.1 0.22            170           24.4 194 
 BRR  HZ EP   1   1236 28.94                             153    0.52 7 72.4 297 
 BRR  HN ES       1236 46.17                             153    0.6910 72.4 297 
 BRR  HZ I        1236 52.23         7.5 0.16            153           72.4 297 
 PTB  HZ EP   1   1236 33.68                             133   -0.50 7  150 259 
 PTB  HN ES       1236 55.02                             133   -0.71 9  150 259 
 PTB  HZ I        1236 57.40         6.4 0.50            133            150 259 
 NOR  HZ EP   1   1236 42.50                             120   -0.32 6  237 235 
 NOR  HN ES       1237 11.45                             120    0.33 8  237 235 
 NOR  HZ I        1237 13.62         3.7 0.20            120            237 235 
 NOR  HZ E        1237 17.60                                            237 235 
 SML  HZ EP   1   1236 42.79                             119   -0.74 6  244 335 
 SML  HN ES   1   1237 12.33                             119   -0.04 6  244 335 
 SML  HZ I        1237 15.35         7.6 0.26            119            244 335 
 CHI  HZ EP   1   1236 44.47                             118   -0.23 6  250 196 
 CHI  HN ES   1   1237 14.25                             118   -0.22 6  250 196 
 CHI  HZ I        1237 22.44         2.7 0.44            119            250 196 
 GUY2CHZ EP   1   1236 51.02                             113    0.38 5  303 235 
 GUY2CHE ES   1   1237 25.25                             113    0.21 5  303 235 
 GUY2CHZ I        1237 35.60         1.6 0.50                           303 235 
 PRA  HZ EP   1   1237  0.93                             107    0.48 4  393 210 
 PRA  HN ES   1   1237 43.05                             107    0.56 4  393 210 
 PRA  HZ I        1237 50.24         3.5 0.40            108            393 210 
 SJC  HZ EP   4   1237  1.14                             107   -1.21 0  410 327 
 SJC  HN ES   4   1237 40.40                             107   -5.49 0  410 327 
 SJC  HZ I        1237 51.62         4.3 0.88            107            410 327 
                                                                                
