 2013  727 1126  5.5 L   7.528 -73.140  5.3  RSN  6 0.4 1.9LRSN                1
 GAP=127        0.91       3.1     4.8  9.4  0.6384E+01  0.3728E+02  0.1136E+02E
 Epicentro: EL PLAYON - SANTANDER                                              3
 ACTION:UPD 13-08-12 10:40 OP:ep   STATUS:               ID:20130727112605 L   I
 OLDACT:REG 13-07-27 14:50 OP:mh   STATUS:               ID:20130727111959     3
 2013-07-27-1119-59M.COL___266                                                 6
 STAT SP IPHASW D HRMM SECON CODA AMPLIT PERI AZIMU VELO AIN AR TRES W  DIS CAZ7
 GIR2 SZ EP   1   1126 13.37                              91   -0.43 7 50.0 187 
 GIR2 SZ I        1126 20.37        25.5 0.32            100           50.0 187 
 PAM  SZ EP       1126 14.89                              91    0.2910 52.9 113 
 PAM  SN ES   1   1126 21.37                              91   -0.34 7 52.9 113 
 PAM  SN I        1126 21.86       149.8 0.20            101           52.9 113 
 OCA  HZ EP   1   1126 18.51                              91   -0.00 7 81.1 346 
 OCA  HN ES   1   1126 28.29                              91   -0.39 7 81.1 346 
 OCA  HN I        1126 29.42        51.3 0.42             96           81.1 346 
 SML  HZ EP   1   1126 32.67                              56    0.27 7  174 324 
 SML  HN ES   1   1126 53.14                              56   -0.25 7  174 324 
 SML  HN I        1126 58.18        48.7 0.10             56            174 324 
 PTB  HZ EP   1   1126 34.22                              56    0.84 7  182 233 
 PTB  HN ES       1126 54.62                              56   -0.53 9  182 233 
 PTB  HN I        1126 56.19         7.2 0.36             56            182 233 
 ZAR  HZ EP   1   1126 35.18                              56    0.84 7  190 269 
 ZAR  HE ES       1126 56.90                              56    0.05 9  190 269 
 ZAR  HZ I        1126 59.15         5.6 0.44             56            190 269 
                                                                                
