 2017  927 1344 30.6 L   6.856 -73.173119.1  RSN  6 0.4 1.4LRSN                1
 GAP=130        0.96       4.4     4.7  6.4 -0.5736E+01  0.1021E+02  0.5890E+01E
 Epicentro: ZAPATOCA - SANTANDER                                               3
 ACTION:UPD 17-10-05 19:16 OP:rebc STATUS:               ID:20170927134430 L   I
 OLDACT:UP  17-09-27 22:57 OP:dhb  STATUS:               ID:20170927133740     3
 OLDACT:UP  17-09-27 22:56 OP:dhb  STATUS:               ID:20170927133740     3
 OLDACT:UP  17-09-27 22:56 OP:dhb  STATUS:               ID:20170927133740     3
 OLDACT:REG 17-09-27 20:40 OP:dhb  STATUS:               ID:20170927133740     3
 2017-09-27-1338-00M.COL___450                                                 6
 STAT SP IPHASW D HRMM SECON CODA AMPLIT PERI AZIMU VELO AIN AR TRES W  DIS CAZ7
 BAR2 EZ IP     C 1344 46.78                             165   -0.4010 29.1 182 
 BAR2 EZ ES       1345  0.72                             165    0.6010 29.1 182 
 BRR  HZ EP       1344 48.65                             149    0.0810 65.8 295 
 BRR  HN ES       1345  2.01                             149   -0.5910 65.8 295 
 BRR  HZ I        1345  7.16        12.6 0.41            148           65.8 295 
 PAM  EZ EP       1344 49.67                             146   -0.1910 74.8  44 
 PAM  EN ES       1345  5.36                             146    0.4710 74.8  44 
 PAM  EZ I        1345  8.28         3.5 0.31            148           74.8  44 
 RUS  HZ EP       1344 52.15                             135   -0.2010  107 175 
 RUS  HN ES       1345  8.95                             135   -0.3810  107 175 
 NOR  HZ EP       1345  5.24                             112    0.18 8  236 233 
 NOR  HN ES       1345 32.07                             112    0.12 8  236 233 
 NOR  HZ I        1345 34.64         1.7 0.14            114            236 233 
 GUY2CHZ EP       1345 13.56                             107    0.32 7  302 233 
 GUY2CHN ES       1345 46.97                             107    0.46 7  302 233 
 GUY2CHZ I        1345 56.42         1.3 0.33                           302 233 
                                                                                
