 2012  527 1014 45.4 L   6.787 -73.167143.1  RSN  5 0.4 1.5LRSN                1
 GAP=181        0.94       5.7     7.1 12.0  0.8262E+01  0.1383E+01 -0.2608E+02E
 Epicentro: LOS SANTOS - SANTANDER                                             3
 ACTION:UP  12-07-05 12:08 OP:pat  STATUS:               ID:20120527101445 L   I
 2012-05-27-1010-00M.COL___197                                                 6
 STAT SP IPHASW D HRMM SECON CODA AMPLIT PERI AZIMU VELO SNR AR TRES W  DIS CAZ7
 BAR2 SZ EP   1   1015  4.73                             171     0.0 7   22 185 
 BAR2 SZ ES   1   1015 20.12                             171     0.4 7   22 185 
 RUS  HZ EP   1   1015  9.45                             144     0.6 7   99 175 
 RUS  HZ I        1015 10.16         5.5 0.66                            99 175 
 RUS  HN ES   1   1015 26.49                             144    -0.6 7   99 175 
 PTB  HN ES   1   1015 32.20                             132    -0.4 7  145 259 
 PTB  HZ I        1015 40.18         4.4 0.39                           145 259 
 OCA  HZ EP   1   1015 13.15                             129    -0.5 7  161 354 
 OCA  HN ES   1   1015 35.59                             129    -0.1 7  161 354 
 ZAR  HN ES   1   1015 43.03                             122     0.5 6  202 293 
                                                                                
