 2017  927 1452 55.5 L   6.812 -73.105141.5  RSN 10 0.5 2.0LRSN                1
 GAP=141        1.25       4.4     5.4  7.1 -0.1692E+01  0.1497E+02  0.9568E+01E
 Epicentro: LOS SANTOS - SANTANDER                                             3
 ACTION:UPD 17-10-05 19:16 OP:rebc STATUS:               ID:20170927145255 L   I
 OLDACT:REG 17-09-27 20:45 OP:dhb  STATUS:               ID:20170927144737     3
 2017-09-27-1448-00M.COL___450                                                 6
 STAT SP IPHASW D HRMM SECON CODA AMPLIT PERI AZIMU VELO AIN AR TRES W  DIS CAZ7
 BAR2 EZ IP     C 1453 14.43                             169   -0.2410 25.8 199 
 BAR2 EZ ES       1453 28.76                             169   -0.8710 25.8 199 
 BAR2 EZ I        1453 31.54        20.9 0.18            166           25.8 199 
 PAM  EZ IP     D 1453 17.37                             151    0.3310 73.5  38 
 PAM  EN ES       1453 34.28                             151    0.4410 73.5  38 
 PAM  EZ I        1453 36.39        16.9 0.25            157           73.5  38 
 BRR  HZ IP     C 1453 16.33                             151   -0.0610 74.5 296 
 BRR  HN ES       1453 33.04                             151    0.3610 74.5 296 
 BRR  HZ I        1453 36.72        18.5 0.23            149           74.5 296 
 RUS  HZ EP       1453 18.61                             142   -0.3110  102 179 
 RUS  HN ES       1453 37.38                             142    0.1910  102 179 
 RUS  HZ I        1453 38.89        15.1 0.18            143            102 179 
 ZAR  HZ EP       1453 28.89                             121    0.84 8  208 291 
 ZAR  HE ES       1453 52.87                             121   -0.57 8  208 291 
 ZAR  HZ I        1453 58.59        12.5 0.12            122            208 291 
 NOR  HZ IP     C 1453 30.98                             117   -0.48 8  239 235 
 NOR  HE ES       1453 58.98                             117   -0.54 8  239 235 
 NOR  HZ I        1454  3.75         9.0 0.26            118            239 235 
 CHI  HZ EP       1453 32.29                             116   -0.95 8  251 196 
 CHI  HN ES       1454  3.67                             116    0.99 8  251 196 
 CHI  HZ I        1454  9.92         3.8 0.34            117            251 196 
 GUY2CHZ EP       1453 39.28                             111   -0.14 7  306 235 
 GUY2CHE ES       1454 14.20                             111    0.53 7  306 235 
 GUY2CHZ I        1454 22.44         4.9 0.29                           306 235 
 ELA  HZ EP       1453 42.60                             109   -0.07 7  333 230 
 ELA  HE ES       1454 19.95                             109    0.50 7  333 230 
 ELA  HZ I        1454 31.58         3.8 0.57            110            333 230 
 PRA  HZ EP       1453 49.02                             105   -0.25 6  395 210 
 PRA  HE ES       1454 32.10                             105    0.88 6  395 210 
 PRA  HZ I        1454 37.84         4.5 0.39            107            395 210 
                                                                                
