 2013  627 1507 30.9 L   6.702 -73.177149.8  RSN  4 0.4 1.7LRSN                1
 GAP=226        0.79       8.3     7.9  8.4  0.3230E+02  0.7354E+01  0.1835E+01E
 Epicentro: VILLANUEVA - SANTANDER                                             3
 ACTION:UPD 14-01-08 09:57 OP:ep   STATUS:               ID:20130627150730 L   I
 OLDACT:DUP 13-06-27 18:27 OP:carl STATUS:               ID:20130627145960d    3
 2013-06-27-1459-59M.COL___267                                                 6
 STAT SP IPHASW D HRMM SECON CODA AMPLIT PERI AZIMU VELO AIN AR TRES W  DIS CAZ7
 BAR2 SZ EP   1   15 7 50.34                             175   -0.54 7 12.2 183 
 BAR2 SZ ES   1   15 8  5.97                             175   -0.47 7 12.2 183 
 BAR2 SZ I        15 8  7.37        13.2 0.18            166           12.2 183 
 BRR  HZ EP   1   15 7 52.70                             152    0.02 7 74.1 307 
 BRR  HN ES   1   15 8 10.25                             152    0.60 7 74.1 307 
 BRR  HN I        15 8 14.15        15.8 0.18            148           74.1 307 
 RUS  HZ EP   1   15 7 54.67                             148    0.30 7 90.2 173 
 RUS  HN ES   1   15 8 12.98                             148    0.33 7 90.2 173 
 RUS  HZ I        15 8 14.66         2.9 0.32            147           90.2 173 
 PTB  HZ EP   1   15 7 57.87                             134    0.10 7  143 263 
 PTB  HN ES   1   15 8 18.35                             134   -0.36 7  143 263 
 PTB  HZ I        15 8 26.09         6.9 0.50            131            143 263 
                                                                                
