 2012  527 1338 45.4 L   6.803 -73.198137.0  RSN  5 0.4 1.5LRSN                1
 GAP=240        0.86       8.4     7.6 13.0  0.1961E+02  0.5104E+02 -0.7107E+01E
 Epicentro: ZAPATOCA - SANTANDER                                               3
 ACTION:UP  12-07-05 12:08 OP:pat  STATUS:               ID:20120527133845 L   I
 2012-05-27-1338-13M.COL___188                                                 6
 STAT SP IPHASW D HRMM SECON CODA AMPLIT PERI AZIMU VELO SNR AR TRES W  DIS CAZ7
 BAR2 SZ EP   1   1339  4.02                             170     0.1 7   23 176 
 BAR2 SZ ES   1   1339 18.69                             170     0.3 7   23 176 
 BAR2 SZ I        1339 20.06         7.8 0.17                            23 176 
 RUS  HN ES   1   1339 26.01                             142    -0.2 7  102 173 
 RUS  HZ I        1339 28.18         4.7 0.20                           102 173 
 PTB  HZ EP   1   1339 10.88                             131    -0.2 7  142 258 
 PTB  HN ES   1   1339 30.57                             131    -0.6 7  142 258 
 PTB  HZ I        1339 35.95         4.2 0.19                           142 258 
 ZAR  HN ES   1   1339 41.34                             121     0.2 6  199 293 
 ZAR  HZ I        1339 47.30         5.3 0.43                           199 293 
 NOR  SN ES   1   1339 47.85                             117     0.6 6  230 234 
                                                                                
