 2012  727 1039  0.6 L   6.162 -73.757108.0  RSN  5 0.4 1.4LRSN                1
 GAP=130        0.99       6.0     4.5 11.8 -0.4593E+01  0.3866E+01  0.1845E+02E
 Epicentro: LANDAZURI - SANTANDER                                              3
 ACTION:UPD 12-08-14 11:45 OP:ep   STATUS:               ID:20120727103900 L   I
 2012-07-27-1030-00M.COL___215                                                 6
 STAT SP IPHASW D HRMM SECON CODA AMPLIT PERI AZIMU VELO AIN AR TRES W  DIS CAZ7
 BAR2 SZ EP       1039 19.11                             141     0.410   79  53 
 BAR2 SZ ES   1   1039 32.91                             141     0.0 7   79  53 
 BAR2 SZ I        1039 34.65        21.2 0.21            147             79  53 
 RUS  HZ EP       1039 19.17                             141     0.010   80 112 
 RUS  HN ES   2   1039 32.93                             141    -0.7 5   80 112 
 RUS  HZ I        1039 35.77         3.7 0.41            146             80 112 
 PTB  HZ EP       1039 18.51                             138    -0.610   88 298 
 PTB  HN ES   1   1039 33.52                             138     0.0 7   88 298 
 PTB  HZ I        1039 36.48         3.2 0.16            143             88 298 
 BRR  HZ EP       1039 20.65                             133     0.110  105   3 
 BRR  HE ES   1   1039 36.24                             133     0.1 7  105   3 
 NOR  SZ EP   1   1039 23.63                             124    -0.4 7  140 242 
 NOR  SN ES   1   1039 43.05                             124     0.8 7  140 242 
