 2011  227 1916 38.6 L   6.748 -73.116140.6  RSN  9 0.4 2.6LRSN                1
 GAP=138        0.78       3.3     7.5  8.6 -0.6638E+01  0.3060E+02  0.1527E+01E
 Epicentro: LOS SANTOS - SANTANDER                                             3
 ACTION:UP  11-03-28 15:11 OP:jfem STATUS:               ID:20110227191638 L   I
 2011-02-27-1915-31S.COL___135                                                 6
 STAT SP IPHASW D HRMM SECON CODA AMPLIT PERI AZIMU VELO SNR AR TRES W  DIS CAZ7
 BAR2 SZ IP       1916 57.36                             172    -0.110   19 204 
 BAR2 SZ I        1917 14.11       193.8 0.29                            19 204 
 RUS  HZ IP     D 1917  1.23                             144    -0.110   95 178 
 RUS  HN ES   1   1917 19.15                             144     0.0 7   95 178 
 RUS  HZ I        1917 21.27        36.0 0.46                            95 178 
 GRA  SZ IP       1917  4.11                             134     0.410  130  15 
 GRA  SZ I        1917  5.17        59.5 0.54                           130  15 
 GRA  SZ ES   1   1917 23.05                             134    -0.3 7  130  15 
 YOP  SZ IP       1917  7.78                             126     0.2 9  172 153 
 YOP  SZ I        1917  9.09        12.6 0.08                           172 153 
 YOP  SN ES   2   1917 30.23                             126     0.0 4  172 153 
 CHI  HZ EP       1917 15.34                             116    -0.1 8  244 196 
 CHI  HN ES   1   1917 44.61                             116     0.4 6  244 196 
 CHI  HZ I        1917 54.28        23.6 0.65                           244 196 
 HEL  HZ EP       1917 19.04                             113     0.3 8  274 257 
 HEL  HZ I        1917 56.49        10.0 0.69                           274 257 
 VIL  SZ EP   2   1917 20.38                             111    -0.6 4  297 191 
 VIL  SN ES   2   1917 55.03                             111     1.0 4  297 191 
 VIL  SZ I        1918  5.42        20.4 0.34                           297 191 
 RREF HZ EP   3   1917 24.20                             110    -0.2 2  321 231 
 RREF HZ I        1918  9.86        29.0 0.54                           321 231 
 PRA  HZ EP       1917 30.71                             106    -0.8 6  389 210 
 PRA  HN ES   1   1918 12.66                             106    -0.2 4  389 210 
 PRA  HZ I        1918 16.63        63.2 0.27                           389 210 
                                                                                
