 2012  327 1257 22.7 L   6.611 -73.273145.6  RSN  8 0.4 2.0LRSN                1
 GAP=143        0.73       5.9     6.3  8.4  0.1148E+02  0.1526E+02  0.9499E+01E
 ACTION:UP  12-03-31 23:23 OP:EP   STATUS:               ID:20120327125722 L   I
 2012-03-27-1249-36M.COL___175                                                 6
 STAT SP IPHASW D HRMM SECON CODA AMPLIT PERI AZIMU VELO SNR AR TRES W  DIS CAZ7
 BAR2 SZ EP       1257 41.98                             176    -0.210   10 102 
 BAR2 SZ ES   2   1257 56.53                             176    -0.8 5   10 102 
 BAR2 SZ I        1257 59.33        26.1 0.34                            10 102 
 BRR  HZ EP       1257 43.93                             152     0.010   73 319 
 BRR  HE ES   1   1258  0.64                             152     0.1 7   73 319 
 BRR  HZ I        1258  2.34        37.8 0.16                            73 319 
 RUS  HZ EP   2   1257 45.79                             149     0.6 5   82 165 
 RUS  HE ES   2   1258  3.34                             149     0.6 5   82 165 
 RUS  HZ I        1258  6.20         7.1 0.59                            82 165 
 PTB  HZ EP   1   1257 48.61                             135     0.4 7  131 267 
 PTB  HN ES   2   1258  8.61                             135     0.5 5  131 267 
 PTB  HZ I        1258 11.83        10.2 0.22                           131 267 
 ZAR  HZ EP   2   1257 54.76                             123     0.0 4  200 299 
 ZAR  HN ES   2   1258 19.46                             123    -0.3 4  200 299 
 ZAR  HZ I        1258 26.81        15.2 0.22                           200 299 
 NOR  SZ EP   2   1257 55.93                             121     0.0 4  211 237 
 CHI  HN ES   2   1258 24.46                             120    -0.8 4  225 193 
 HEL  HN ES   2   1258 30.23                             116    -0.5 4  254 260 
                                                                                
