 2010  127 1714 29.8 L   6.869 -73.116143.3  RSN  6 0.3 2.1LRSN                1
 GAP=231        0.58       6.0     8.5  7.9  0.2344E+02  0.3201E+02  0.3493E+01E
 Epicentro: PIEDECUESTA - SANTANDER                                            3
 ACTION:UP  10-08-24 09:46 OP:vdl  STATUS:               ID:20100127171429 L   I
 2010-01-27-1712-23S.COL___095                                                 6
 STAT SP IPHASW D HRMM SECON CODA AMPLIT PERI AZIMU VELO SNR AR TRES W  DIS CAZ7
 BAR2 SZ IP       1714 49.63                             168     0.410   32 194 
 BAR2 SZ ES   2   1715  4.47                             168     0.0 5   32 194 
 RUS  BZ EP   1   1714 53.52                             141    -0.3 7  108 178 
 RUS  BE ES   1   1715 12.33                             141    -0.3 7  108 178 
 RUS  BZ I        1715 13.75        21.9 0.28                           108 178 
 CHI  HZ EP   1   1715  7.94                             116    -0.3 6  257 195 
 CHI  HE ES   2   1715 38.88                             116     0.7 4  257 195 
 CHI  HZ I        1715 43.09         7.5 0.31                           257 195 
 DBB  SZ EP   2   1715 17.82                             109     0.4 3  342 273 
 DBB  SZ ES   2   1715 54.14                             109    -0.5 3  342 273 
 MON  HE ES   2   1715 56.06                             108    -0.2 3  351 307 
 PRA  HZ EP   2   1715 24.06                             106    -0.1 3  400 209 
                                                                                
