 2011  227 1758 29.0 L   6.781 -73.133143.3  RSN  8 0.1 2.0LRSN                1
 GAP=137        0.40       1.7     4.7  4.5 -0.8850E+00  0.8758E+01  0.9362E+00E
 Epicentro: LOS SANTOS - SANTANDER                                             3
 ACTION:UP  11-03-28 15:11 OP:jfem STATUS:               ID:20110227175828 L   I
 2011-02-27-1757-37S.COL___135                                                 6
 STAT SP IPHASW D HRMM SECON CODA AMPLIT PERI AZIMU VELO SNR AR TRES W  DIS CAZ7
 BAR2 SZ EP       1758 48.32                             171     0.110   22 195 
 BAR2 SZ I        1759  5.06        21.4 0.30                            22 195 
 RUS  HZ EP       1758 52.19                             144    -0.110   98 177 
 RUS  HN ES   1   1759 10.48                             144     0.0 7   98 177 
 RUS  HZ I        1759 12.23         8.1 0.24                            98 177 
 GRA  SZ EP   1   1758 54.17                             136     0.1 7  127  17 
 GRA  SZ ES   1   1759 13.87                             136     0.1 7  127  17 
 GRA  SZ I        1759 16.74        20.2 0.31                           127  17 
 OCA  SZ EP       1758 57.07                             129    -0.2 9  163 353 
 OCA  SZ ES   2   1759 19.39                             129     0.0 5  163 353 
 OCA  SZ I        1759 24.52        23.5 0.25                           163 353 
 YOP  SZ EP       1758 58.69                             126     0.1 9  176 153 
 YOP  SZ I        1758 59.48         5.8 0.68                           176 153 
 CHI  HZ EP       1759  6.37                             117     0.0 8  247 196 
 CHI  HZ I        1759  9.00         5.6 0.27                           247 196 
 HEL  HZ EP   1   1759  9.47                             114     0.3 6  273 256 
 HEL  HZ I        1759 48.88         7.2 0.37                           273 256 
 PRA  HZ EP   1   1759 22.30                             106     0.0 4  391 210 
 PRA  HE ES   2   18 0  3.56                             106    -0.3 3  391 210 
                                                                                
