 2011  427 1209 38.0 L   6.822 -73.107141.4  RSN 12 0.5 2.4LRSN                1
 GAP=117        1.11       3.8     5.7  7.2 -0.2526E+01  0.9379E+01  0.5594E+01E
 Epicentro: LOS SANTOS - SANTANDER                                             3
 ACTION:UP  11-06-22 15:33 OP:REBC STATUS:               ID:20110427120938 L   I
 2011-04-27-1207-56S.COL___137                                                 6
 STAT SP IPHASW D HRMM SECON CODA AMPLIT PERI AZIMU VELO SNR AR TRES W  DIS CAZ7
 BAR2 SZ IP       12 9 56.89                             169    -0.310   27 198 
 BAR2 SZ ES   1   1210 11.44                             169    -0.7 7   27 198 
 BAR2 SZ I        1210 12.73        41.1 0.16                            27 198 
 PAM  SZ EP       12 9 59.81                             151     0.310   73  38 
 PAM  SN ES   1   1210 16.66                             151     0.4 7   73  38 
 PAM  SZ I        1210 18.84        24.8 0.37                            73  38 
 BRR  HZ EP       12 9 58.66                             151    -0.210   74 295 
 BRR  HN ES   1   1210 15.60                             151     0.5 7   74 295 
 BRR  HZ I        1210 18.90        40.6 0.11                            74 295 
 RUS  HZ EP   1   1210  1.30                             142    -0.2 7  103 179 
 RUS  HN ES   1   1210 19.71                             142    -0.1 7  103 179 
 RUS  HZ I        1210 21.45        47.4 0.30                           103 179 
 BRI  SZ EP   1   1210  1.36                             141     0.2 7  105  19 
 BRI  SZ I        1210 23.86        28.7 0.45                           105  19 
 GRA  SZ EP       1210  2.76                             137     0.210  122  16 
 GRA  SZ ES   1   1210 22.17                             137     0.4 7  122  16 
 GRA  SZ I        1210 23.31        50.3 0.18                           122  16 
 OCA  SZ EP   1   1210  5.15                             129    -0.7 7  158 352 
 OCA  SZ ES   1   1210 26.75                             129    -0.8 7  158 352 
 OCA  SZ I        1210 31.41        32.3 0.13                           158 352 
 YOP  SZ EP       1210  7.80                             125     0.0 9  179 155 
 YOP  SN ES   1   1210 31.44                             125     0.4 7  179 155 
 YOP  SZ I        1210 34.81        21.6 0.34                           179 155 
 NOR  SZ EP       1210 13.38                             117    -0.7 8  240 235 
 HEL  HZ EP   1   1210 19.27                             113     0.7 6  277 256 
 HEL  HN ES   1   1210 51.12                             113     1.0 6  277 256 
 HEL  HZ I        1210 55.58        15.6 0.35                           277 256 
 TOL  SZ EP   1   1210 27.28                             108     0.6 5  348 225 
 PRA  HZ EP       1210 31.75                             105    -0.1 6  396 210 
 PRA  HE ES   1   1211 14.16                             105     0.2 4  396 210 
 PRA  HZ I        1211 20.04        33.5 0.23                           396 210 
                                                                                
