 2016  427 1023 25.6 L   6.427 -73.606115.2  RSN  4 0.2 1.1LRSN                1
 GAP=151        0.62       3.8     2.7  5.6  0.2401E+00  0.3302E+01  0.6949E+00E
 Epicentro: SANTA HELENA DEL OPON - SANTANDER                                  3
 ACTION:UPD 16-05-05 14:24 OP:rebc STATUS:               ID:20160427101745dL   I
 OLDACT:DUP 16-04-27 22:45 OP:cara STATUS:               ID:20160427101745dL   3
 2016-04-27-1017-44M.COL___303                                                 6
 STAT SP IPHASW D HRMM SECON CODA AMPLIT PERI AZIMU VELO AIN AR TRES W  DIS CAZ7
 BAR2 EZ IP       1023 42.76                             155    0.1810 50.3  69 
 BAR2 EZ ES       1023 56.08                             155    0.2110 50.3  69 
 BAR2 EZ I        1023 56.79         8.5 0.48            159           50.3  69 
 RUS  HZ EP       1023 44.77                             142   -0.2510 82.7 136 
 RUS  HE ES       1023 59.92                             142   -0.2810 82.7 136 
 RUS  HZ I        1024  0.64         1.2 0.44            144           82.7 136 
 PTB  HZ EP       1023 45.23                             138   -0.0810 94.8 278 
 PTB  HN ES       1024  0.49                             138   -0.2310 94.8 278 
 PTB  HZ I        1024  2.16         3.3 0.12            139           94.8 278 
 SPBC HZ EP       1023 46.07                             136    0.2310100.0 211 
 SPBC HN ES       1024  1.89                             136    0.2210100.0 211 
 SPBC HZ I        1024  4.48         3.2 0.22            137          100.0 211 
                                                                                
