 2012  727 1817 35.9 L   6.754 -73.149143.6  RSN  6 0.5 1.4LRSN                1
 GAP=138        1.13       8.3     8.4 12.8 -0.1992E+00  0.4369E+02 -0.6408E+01E
 Epicentro: LOS SANTOS - SANTANDER                                             3
 ACTION:UPD 12-08-14 11:45 OP:ep   STATUS:               ID:20120727181735 L   I
 2012-07-27-1810-00M.COL___215                                                 6
 STAT SP IPHASW D HRMM SECON CODA AMPLIT PERI AZIMU VELO AIN AR TRES W  DIS CAZ7
 BAR2 SZ EP       1817 55.49                             172     0.310   18 192 
 BAR2 SZ ES   1   1818  9.86                             172    -0.4 7   18 192 
 BAR2 SZ I        1818 11.36         8.1 0.22            169             18 192 
 BRR  HZ EP       1817 57.46                             151     0.510   74 302 
 PAM  SN ES   1   1818 15.25                             149    -0.3 7   82  37 
 RUS  HZ EP   1   1817 58.32                             145    -0.8 7   96 176 
 RUS  HN ES   1   1818 17.84                             145     0.7 7   96 176 
 RUS  HZ I        1818 20.08         3.0 0.37            144             96 176 
 PTB  HZ EP   1   1818  2.16                             132    -0.4 7  147 261 
 PTB  HN ES   1   1818 23.08                             132    -0.3 7  147 261 
 PTB  HZ I        1818 26.03         3.7 0.17            132            147 261 
 ZAR  HN ES   2   1818 34.12                             122     0.4 4  206 293 
