 2017  327 1024 37.5 L   6.806 -73.195140.9  RSN  5 0.3 1.1LRSN                1
 GAP=130        0.69       4.0     3.9  5.9 -0.4123E+01 -0.1779E+01  0.1748E+01E
 Epicentro: ZAPATOCA - SANTANDER                                               3
 ACTION:UPD 17-05-25 18:45 OP:jn   STATUS:               ID:20170327102437 L   I
 OLDACT:DUP 17-03-27 22:26 OP:lv   STATUS:               ID:20170327101741d    3
 2017-03-27-1018-00M.COL___348                                                 6
 STAT SP IPHASW D HRMM SECON CODA AMPLIT PERI AZIMU VELO AIN AR TRES W  DIS CAZ7
 BAR2 EZ EP       1024 56.62                             170    0.0910 23.6 177 
 BAR2 EZ ES       1025 11.85                             170    0.4610 23.6 177 
 BAR2 EZ I        1025 12.34         3.3 0.14            172           23.6 177 
 PAM  EZ EP       1024 59.60                             149    0.2210 80.5  43 
 PAM  EN ES       1025 16.10                             149   -0.3510 80.5  43 
 PAM  EZ I        1025 19.46         1.8 0.19            149           80.5  43 
 RUS  HZ EP       1025  0.81                             142   -0.0310  102 173 
 RUS  HN ES       1025 18.80                             142   -0.2610  102 173 
 RUS  HZ I        1025 22.11         1.1 0.32            145            102 173 
 PTB  HN ES       1025 23.79                             132   -0.15 9  143 258 
 PTB  HZ I        1025 26.67         1.4 0.20            130            143 258 
 ZAR  HZ EP   9   1025 11.77                             122    2.70 0  199 293 
 ZAR  HN ES       1025 36.29                                   -0.11 9  199 293 
 ZAR  HZ I        1025 40.76         1.8 0.14            121            199 293 
                                                                                
