 2014  427 1735 57.0 L   6.814 -73.143148.0  RSN 22 0.5 3.1LRSN                1
 GAP= 65        1.07       2.8     2.8  5.3 -0.1454E+00  0.3186E+01  0.3239E+01E
 Epicentro: LOS SANTOS - SANTANDER                                             3
 ACTION:UPD 14-05-13 23:11 OP:nd   STATUS:               ID:20140427173557 L   I
 OLDACT:REG 14-04-27 21:40 OP:nd   STATUS:               ID:20140427173000     3
 2014-04-27-1730-00M.COL___270                                                 6
 STAT SP IPHASW D HRMM SECON CODA AMPLIT PERI AZIMU VELO AIN AR TRES W  DIS CAZ7
 BRR  HZ EP       1736 18.87                             153    0.4710 70.8 297 
 BRR  HN ES       1736 35.74                             153    0.6710 70.8 297 
 BRR  HZ I        1736 38.46       117.6 0.38            153           70.8 297 
 PAM  SZ EP     C 1736 19.83                             151    0.4210 76.0  40 
 PAM  SN ES       1736 36.83                             151   -0.0310 76.0  40 
 PAM  SZ I        1736 39.12       227.4 0.52            150           76.0  40 
 RUS  HZ IP     D 1736 20.98                             144   -0.1310  102 176 
 RUS  HN ES       1736 39.50                             144   -0.3910  102 176 
 RUS  HZ I        1736 40.96       148.7 0.32            142            102 176 
 PTB  HZ EP       1736 23.56                             132   -0.68 9  148 258 
 PTB  HN ES       1736 44.82                             132   -0.64 9  148 258 
 PTB  HZ I        1736 46.83       200.3 0.50            131            148 258 
 TAM  HZ IP     C 1736 25.36                             131    0.46 9  155 106 
 TAM  HZ I        1736 46.14        70.0 0.38            129            155 106 
 TAM  HN ES       1736 46.79                             131    0.16 9  155 106 
 SPBC HZ EP       1736 26.02                             129    0.18 9  165 219 
 SPBC HN ES       1736 48.01                             129   -0.29 9  165 219 
 SPBC HZ I        1736 50.84       234.9 0.26            128            165 219 
 ZAR  HZ EP       1736 29.32                             123   -0.28 9  204 292 
 ZAR  HN ES       1736 55.20                             123    0.20 9  204 292 
 ZAR  HZ I        1737  1.69       119.5 0.34            122            204 292 
 NOR  HZ EP       1736 33.03                             119    0.01 8  236 234 
 NOR  HN ES       1737  1.42                             119    0.34 8  236 234 
 NOR  HZ I        1737  6.49       117.1 0.18            118            236 234 
 SML  HZ EP       1736 33.46                             118   -0.20 8  242 335 
 SML  HN ES       1737  1.51                             118   -0.71 8  242 335 
 SML  HZ I        1737  5.48       117.3 0.10            117            242 335 
 CHI  HZ EP       1736 35.01                             117   -0.02 8  250 195 
 CHI  HN ES       1737  4.63                             117   -0.03 8  250 195 
 CHI  HZ I        1737  8.80        55.1 0.32            116            250 195 
 ROSC BZ EP   4 D 1736 36.84                             117    1.40 0  254 211 
 ROSC BN ES   4   1737  8.86                             117    3.47 0  254 211 
 ROSC BZ I        1737 13.20       102.6 0.45            116            254 211 
 HEL  HZ EP       1736 37.72                             115    0.28 8  273 256 
 HEL  HN ES       1737  8.77                             115   -0.18 8  273 256 
 HEL  HZ I        1737 16.85        83.0 0.50            114            273 256 
 URE  HZ EP   4   1736 36.98                             114   -1.21 0  284 292 
 URE  HN ES   4   1737  8.16                             114   -2.12 0  284 292 
 URE  HZ I        1737 15.83        46.5 0.22            113            284 292 
 GUY2CHZ EP       1736 41.50                             113    0.62 7  302 235 
 GUY2CHN ES       1737 14.89                             113   -0.18 7  302 235 
 GUY2CHZ I        1737 23.65        82.3 0.30                           302 235 
 VIL  SZ EP       1736 40.40                             112   -0.33 7  305 192 
 VIL  SN ES       1737 14.23                             112   -0.58 7  305 192 
 VIL  SZ I        1737 20.67        57.3 0.42            111            305 192 
 PTGC HZ EP       1736 40.07                             112   -1.07 7  310 159 
 PTGC HN ES   4   1737 13.15                             112   -2.39 0  310 159 
 PTGC HZ I        1737 18.47        50.3 0.32            111            310 159 
 CBOC HZ EP       1736 44.78                             110    0.65 7  334 252 
 CBOC HN ES       1737 20.47                             110   -0.40 7  334 252 
 CBOC HZ I        1737 31.09        26.0 0.42            109            334 252 
 DBB  SZ EP       1736 44.58                             110   -0.05 7  340 274 
 DBB  SZ ES   4   1737 17.47                             110   -4.28 0  340 274 
 DBB  SZ I    4   1737 23.14        86.6 0.26            109            340 274 
 PRA  HZ EP       1736 50.29                             107   -0.52 6  393 209 
 PRA  HN ES       1737 33.20                             107    0.45 6  393 209 
 PRA  HZ I        1737 39.65        50.8 0.46            106            393 209 
 ORTC HZ EP       1736 51.85                             107    0.65 6  397 216 
 ORTC HN ES       1737 35.09                             107    1.65 6  397 216 
 ORTC HZ I        1737 41.33        35.4 0.48            106            397 216 
 SJC  HZ EP   4   1736 51.02                             106   -1.53 0  408 327 
 SJC  HN ES   4   1737 32.42                             106   -3.42 0  408 327 
 SJC  HZ I        1737 35.96        33.8 0.38            105            408 327 
 YOT  HZ EP   4   1737  0.33                             103    0.04 0  473 229 
 YOT  HN ES   4   1737 46.45                             103   -3.17 0  473 229 
 SMAR HZ EP   4   1737  1.22                             103   -1.58 0  496 346 
 SMAR HN ES   4   1737 47.12                             103   -6.98 0  496 346 
 SMAR HZ I        1737 57.51        16.2 0.30            102            496 346 
                                                                                
