 2010 1027 1600 55.9 L   6.798 -73.045139.4  RSN  6 0.3 1.7LRSN                1
 GAP=170        0.60       3.6     9.1  7.2 -0.9955E+01 -0.1528E+02  0.2989E+01E
 Epicentro: LOS SANTOS - SANTANDER                                             3
 ACTION:UP  11-02-18 11:12 OP:tino STATUS:               ID:20101027160055 L   I
 2010-10-27-1556-22S.COL___127                                                 6
 STAT SP IPHASW D HRMM SECON CODA AMPLIT PERI AZIMU VELO SNR AR TRES W  DIS CAZ7
 BAR2 SZ EP   1   16 1 14.54                             168    -0.4 7   27 214 
 BAR2 SZ ES   2   16 1 29.26                             168    -0.4 5   27 214 
 BAR2 SZ I        16 1 31.32         8.3 0.15                            27 214 
 BRR  HZ EP   1   16 1 16.86                             148    -0.2 7   81 295 
 BRR  HE ES   2   16 1 33.89                             148     0.4 5   81 295 
 BRR  HZ I        16 1 37.87        19.7 0.16                            81 295 
 RUS  HZ EP   1   16 1 19.04                             142     0.0 7  100 182 
 RUS  HE ES   2   16 1 37.60                             142     0.5 5  100 182 
 RUS  HZ I        16 1 39.08         4.5 0.45                           100 182 
 GUE  SZ EP   1   16 1 19.86                             138    -0.1 7  115   7 
 GRA  SZ EP   1   16 1 20.77                             136     0.4 7  123  12 
 GRA  SZ ES   2   16 1 39.32                             136    -0.1 5  123  12 
 GRA  SZ I        16 1 41.36         9.0 0.43                           123  12 
 CHI  HZ EP   1   16 1 33.63                             115     0.0 6  252 198 
 CHI  HN ES   2   16 2  3.02                             115     0.0 4  252 198 
 CHI  HZ I        16 2  9.40         3.1 0.43                           252 198 
                                                                                
