 2011 1127 1219 43.0 L   6.815 -73.112146.2  RSN  4 0.2 1.3LRSN                1
 GAP=140        0.54       3.9     5.7  5.9 -0.6073E+00 -0.2188E+01  0.1155E+01E
 Epicentro: LOS SANTOS - SANTANDER                                             3
 ACTION:UPD 12-07-13 16:12 OP:ep   STATUS:               ID:20111127121943 L   I
 2011-11-27-1216-47S.COL___160                                                 6
 STAT SP IPHASW D HRMM SECON CODA AMPLIT PERI AZIMU VELO AIN AR TRES W  DIS CAZ7
 BAR2 SZ EP   1   1220  2.43                             169   -0.26 7 25.8 197 
 BAR2 SZ I        1220  3.11         4.0 0.38                          25.8 197 
 BAR2 SZ ES   1   1220 17.72                             169   -0.37 7 25.8 197 
 BRR  HZ EP   1   1220  4.17                             152   -0.12 7 73.7 296 
 BRR  HZ I        1220  4.54         6.2 0.11                          73.7 296 
 BRR  HN ES   1   1220 21.18                             152    0.24 7 73.7 296 
 PAM  SZ EP   1   1220  5.29                             152    0.29 7 73.8  38 
 PAM  SN ES   1   1220 22.18                             152   -0.03 7 73.8  38 
 PAM  SZ I        1220 22.83         2.6 0.42                          73.8  38 
 RUS  HZ EP   1   1220  6.76                             143   -0.10 7  102 178 
 RUS  HZ I        1220 25.38         3.4 0.54                           102 178 
 RUS  HE ES   1   1220 25.85                             143    0.35 7  102 178 
                                                                                
