 2011 1127 1230 20.6 L   6.769 -73.106139.2  RSN  7 0.4 1.7LRSN                1
 GAP=143        0.63       3.7     5.5  6.3 -0.2813E+01  0.3944E+01  0.1814E+01E
 Epicentro: LOS SANTOS - SANTANDER                                             3
 ACTION:UPD 12-07-13 16:12 OP:ep   STATUS:               ID:20111127123020 L   I
 2011-11-27-1228-07S.COL___160                                                 6
 STAT SP IPHASW D HRMM SECON CODA AMPLIT PERI AZIMU VELO AIN AR TRES W  DIS CAZ7
 BAR2 SZ EP   1   1230 39.17                             171   -0.22 7 21.3 203 
 BAR2 SZ ES   1   1230 54.21                             171    0.16 7 21.3 203 
 BAR2 SZ I        1230 54.90        13.7 0.27                          21.3 203 
 BRR  HZ EP   1   1230 40.88                             150   -0.48 7 76.7 299 
 BRR  HN ES   1   1230 57.44                             150   -0.12 7 76.7 299 
 BRR  HZ I        1231  0.39        10.4 0.12                          76.7 299 
 PAM  SZ EP   1   1230 42.00                             150   -0.11 7 77.4  35 
 PAM  SN ES   1   1230 58.85                             150   -0.05 7 77.4  35 
 PAM  SZ I        1231  0.93         7.8 0.38                          77.4  35 
 RUS  HZ EP   1   1230 43.35                             144   -0.08 7 97.0 178 
 RUS  HN ES   1   1231  1.50                             144    0.25 7 97.0 178 
 RUS  HZ I        1231  3.34         4.8 0.58                          97.0 178 
 OCA  SZ ES   2   1231 11.87                             128    1.11 5  164 352 
 OCA  SZ I        1231 13.99         6.8 0.29                           164 352 
 NOR  SE ES   2   1231 24.16                             117    0.32 4  236 236 
 RREF HZ EP   2   1231  7.27                             110    0.69 3  323 230 
 RREF HZ I        1231 47.81         3.1 0.37                           323 230 
                                                                                
