 2010  127 1951  5.6 L   6.807 -72.927150.3  RSN  4 0.1 1.6LRSN                1
 GAP=320        0.30       4.9    13.6  4.2 -0.2234E+02  0.5238E+01  0.4934E+00E
 Epicentro: CEPITA - SANTANDER                                                 3
 ACTION:UP  10-08-24 09:46 OP:vdl  STATUS:               ID:20100127195105 L   I
 2010-01-27-1946-34S.COL___094                                                 6
 STAT SP IPHASW D HRMM SECON CODA AMPLIT PERI AZIMU VELO SNR AR TRES W  DIS CAZ7
 BAR2 SZ EP   2   1951 26.20                             166     0.0 5   37 230 
 BAR2 SZ ES   2   1951 42.14                             166     0.0 5   37 230 
 RUS  BZ EP   1   1951 30.05                             144     0.1 7  103 190 
 RUS  BN ES   1   1951 48.96                             144     0.0 7  103 190 
 RUS  BZ I        1951 51.39         3.4 0.48                           103 190 
 CHI  HZ EP   2   1951 44.25                             117    -0.2 4  257 200 
 CHI  HE ES   2   1952 14.85                             117     0.1 4  257 200 
 CHI  HZ I        1952 16.78         2.7 0.49                           257 200 
 PRA  HZ EP   2   1952  0.93                             107     0.1 3  405 213 
 PRA  HZ I        1952 49.23         2.3 0.74                           405 213 
                                                                                
