 2012 1127 1715 17.1 L   6.846 -73.186142.2  RSN  5 0.3 1.3LRSN                1
 GAP=129        0.70       4.5     5.2  9.6  0.9781E+00  0.2744E+02  0.9970E+01E
 Epicentro: ZAPATOCA - SANTANDER                                               3
 ACTION:UPD 12-12-05 15:36 OP:}ep  STATUS:               ID:20121127171517 L   I
 2012-11-27-1710-00M.COL___234                                                 6
 STAT SP IPHASW D HRMM SECON CODA AMPLIT PERI AZIMU VELO AIN AR TRES W  DIS CAZ7
 BAR2 SZ EP       1715 36.11                             168   -0.3010 28.0 179 
 BAR2 SZ I        1715 52.94         5.3 0.06                          28.0 179 
 PAM  SZ EP       1715 39.33                             150    0.4410 76.6  45 
 PAM  SE ES       1715 55.70                             150   -0.1810 76.6  45 
 PAM  SZ I        1715 59.09         3.2 0.58                          76.6  45 
 RUS  HZ EP       1715 40.73                             141   -0.1810  106 174 
 RUS  HN ES   1   1715 59.88                             141    0.40 7  106 174 
 RUS  HN I        1716  2.80         2.1 0.40                           106 174 
 PTB  HZ EP       1715 43.39                             132   -0.09 9  145 257 
 PTB  HZ I        1716  9.05         3.4 0.21                           145 257 
 ZAR  HN ES   1   1716 13.51                             122    0.17 6  198 291 
 ZAR  HZ I        1716 23.93         2.5 0.12                           198 291 
                                                                                
