 2012  327 1611 29.3 L   6.761 -73.139148.6  RSN  6 0.4 1.7LRSN                1
 GAP=139        0.72       6.6     5.9  9.0  0.2883E+01  0.6840E+01 -0.1421E+01E
 ACTION:UP  12-03-31 23:23 OP:EP   STATUS:               ID:20120327161129 L   I
 2012-03-27-1609-41M.COL___181                                                 6
 STAT SP IPHASW D HRMM SECON CODA AMPLIT PERI AZIMU VELO SNR AR TRES W  DIS CAZ7
 BAR2 SZ ES   2   1612  4.35                             172    -0.4 5   19 194 
 BAR2 SZ I        1612  5.75        26.4 0.26                            19 194 
 BRR  HZ EP   2   1611 50.98                             152     0.0 5   74 301 
 BRR  HZ I        1611 51.35         7.2 0.14                            74 301 
 BRR  HN ES   2   1612  8.57                             152     0.8 5   74 301 
 PAM  SZ EP   1   1611 52.06                             150     0.0 7   80  37 
 PAM  SN ES   2   1612  9.40                             150    -0.3 5   80  37 
 RUS  HZ EP   1   1611 53.09                             146     0.0 7   96 176 
 RUS  HE ES   2   1612 12.02                             146     0.4 5   96 176 
 RUS  HZ I        1612 12.97         6.4 0.37                            96 176 
 PTB  HZ EP   2   1611 55.84                             133    -0.7 5  148 261 
 PTB  HE ES   2   1612 17.38                             133    -0.4 5  148 261 
 PTB  HZ I        1612 20.05         3.1 0.27                           148 261 
 ZAR  HZ EP   2   1612  2.96                             123     0.7 4  206 293 
 ZAR  HE ES   2   1612 27.65                             123    -0.2 4  206 293 
 ZAR  HZ I        1612 32.89         3.5 0.34                           206 293 
                                                                                
