 2013  927 1249 48.7 L   6.824 -73.161144.5  RSN 12 0.6 1.9LRSN 2.5WRSN        1
 SPEC AVERAGE  MO 12.8 ST 68.9 OM  1.3 f0 19.6 R0.1324 AL 0.00 WI 20.0 MW  2.5 3
 SPEC SD       MO  0.2 ST100.3 OM  0.5 f0 12.1 R0.0610 AL      WI      MW  0.1 3
 GAP=133        1.52       4.3     5.4  8.0 -0.4444E+01  0.7628E+01  0.8256E+00E
 Epicentro: LOS SANTOS - SANTANDER                                             3
 SPEC BAR2SH Z MO 12.9 ST 16.4 OM  1.1 f0 14.5 R0.1327 AL-0.00 WI 20.0 MW  2.6 3
 SPEC BAR2SH Z T125021 K 0.050 GD  146 VS 5.20 DE 3.20 Q0750.0 QA 1.50 VS 5.20 3
 SPEC BRR HH Z MO 12.9 ST 15.7 OM  1.0 f0 15.0 R0.1283 AL-0.00 WI 20.0 MW  2.5 3
 SPEC BRR HH Z T125025 K 0.050 GD  159 VS 5.20 DE 3.20 Q0750.0 QA 1.50 VS 5.20 3
 SPEC PAM SH Z MO 12.5 ST  1.3 OM  0.6 f0 8.73 R0.2204 AL-0.00 WI 20.0 MW  2.3 3
 SPEC PAM SH Z T125026 K 0.050 GD  163 VS 5.20 DE 3.20 Q0750.0 QA 1.50 VS 5.20 3
 SPEC PTB HH Z MO 12.8 ST242.3 OM  0.8 f0 40.0 R0.0481 AL-0.00 WI 20.0 MW  2.5 3
 SPEC PTB HH Z T125034 K 0.050 GD  206 VS 5.20 DE 3.20 Q0750.0 QA 1.50 VS 5.20 3
 SPECGUY2CHH Z MO 15.4 ST  0.0 OM  3.2 f00.109 R  17.6 AL-0.00 WI 20.0 MW  4.2 3
 SPECGUY2CHH Z T1251 4 K 0.050 GD333.9 VS 5.20 DE 3.20 Q0750.0 QA 1.50 VS 5.20 3
 OLDACT:REG 13-09-27 16:45 OP:stll STATUS:               ID:20130927124838     3
 ACTION:UPD 13-10-22 09:25 OP:ep   STATUS:               ID:20130927124948 L   I
 OLDACT:UP  13-09-27 18:49 OP:stll STATUS:               ID:20130927124838     3
 2013-09-27-1248-38M.COL___241                                                 6
 STAT SP IPHASW D HRMM SECON CODA AMPLIT PERI AZIMU VELO AIN AR TRES W  DIS CAZ7
 BAR2 SZ EP       1250  8.49                             169    0.2310 25.7 185 
 BAR2 SZ ES       1250 22.60                             169   -0.8810 25.7 185 
 BAR2 SZ I        1250 24.61        23.3 0.20            169           25.7 185 
 BRR  HZ EP       1250 10.34                             153    0.7610 68.4 297 
 BRR  HN ES       1250 26.57                             153    0.7210 68.4 297 
 BRR  SZ I        1250 32.44         9.2 0.58            153           68.4 297 
 PAM  SZ EP       1250 11.25                             151    0.4910 76.5  42 
 PAM  SN ES       1250 28.16                             151    0.2310 76.5  42 
 PAM  SZ I        1250 29.56         6.7 0.56            154           76.5  42 
 RUS  HZ EP       1250 12.44                             143   -0.1210  103 175 
 RUS  HN ES       1250 30.72                             143   -0.4210  103 175 
 RUS  SZ I        1250 32.30         9.7 0.24            145            103 175 
 PTB  HZ EP       1250 15.28                             132   -0.21 9  147 258 
 PTB  HN ES       1250 35.85                             132   -0.51 9  147 258 
 PTB  SZ I        1250 38.48         9.1 0.14            133            147 258 
 CAPV BZ EP       1250 16.23                             132    0.30 9  148  39 
 SPBC HZ EP       1250 17.33                             129    0.11 9  164 218 
 SPBC HN ES       1250 39.78                             129    0.33 9  164 218 
 SPBC SZ I        1250 46.40        13.7 0.22            130            164 218 
 ZAR  HN ES       1250 46.41                             122    0.55 9  201 292 
 NOR  HN ES       1250 52.01                             118   -0.21 8  235 234 
 SML  HZ EP       1250 22.86                             117   -2.09 8  241 335 
 SML  HN ES       1250 52.69                             117   -0.50 8  241 335 
 SML  SZ I        1250 56.32         9.3 0.08            120            241 335 
 CHI  HZ EP       1250 26.70                             117    0.11 8  251 195 
 CHI  HN ES       1250 56.03                             117   -0.08 8  251 195 
 CHI  SZ I        1251  0.43         6.0 3.04            119            251 195 
 GUY2CHZ EP       1250 33.23                             112    0.94 7  301 234 
 GUY2CHN ES       1251  6.02                             112   -0.25 7  301 234 
 GUY2CHZ I        1251 19.16         3.1 0.70                           301 234 
                                                                                
