 2015  327 1101 59.5 L   6.860 -73.175119.3  RSN  4 0.3 1.2LRSN                1
 GAP=240        0.81       9.0     9.9  9.8  0.6350E+02  0.2301E+02 -0.2459E+02E
 Epicentro: ZAPATOCA - SANTANDER                                               3
 ACTION:UPD 15-04-30 16:29 OP:nd   STATUS:               ID:20150327110159 L   I
 OLDACT:REG 15-03-27 20:22 OP:stll STATUS:               ID:20150327105748     3
 2015-03-27-1057-48M.COL___281                                                 6
 STAT SP IPHASW D HRMM SECON CODA AMPLIT PERI AZIMU VELO AIN AR TRES W  DIS CAZ7
 BAR2 EZ EP       11 2 15.65                             165   -0.5310 29.6 182 
 BAR2 EZ ES       11 2 29.30                             165    0.1410 29.6 182 
 BAR2 EZ I        11 2 31.71         4.0 0.34            160           29.6 182 
 BRR  HZ EP       11 2 17.81                             149    0.2810 65.3 295 
 RUS  HN ES       11 2 38.48                             135    0.0710  107 175 
 RUS  HZ I        11 2 39.90         2.1 0.36            137            107 175 
 ZAR  HZ EP       11 2 30.18                             117    0.36 9  199 291 
 ZAR  HE ES       11 2 53.12                             117   -0.31 9  199 291 
 ZAR  HZ I        11 2 59.45         2.5 0.36            118            199 291 
                                                                                
