 2016  327 1830 48.6 L   6.819 -73.174142.7  RSN 19 0.5 2.7LRSN                1
 GAP=124        0.91       2.4     3.0  4.7 -0.1843E+01  0.3628E+01  0.9468E+00E
 Epicentro: ZAPATOCA - SANTANDER                                               3
 ACTION:UPD 16-05-13 21:28 OP:cam  STATUS:               ID:20160327183048 L   I
 OLDACT:DUP 16-03-28 00:22 OP:dnl  STATUS:               ID:20160327182750d    3
 2016-03-27-1827-49M.COL___304                                                 6
 STAT SP IPHASW D HRMM SECON CODA AMPLIT PERI AZIMU VELO AIN AR TRES W  DIS CAZ7
 BAR2 EZ EP     C 1831  8.06                             170    0.1810 25.1 182 
 BAR2 EZ ES       1831 22.74                             170   -0.1910 25.1 182 
 BAR2 EZ I        1831 24.94       151.2 0.29            168           25.1 182 
 PAM  EZ IP     C 1831 10.88                             150    0.3810 77.8  42 
 PAM  EN ES       1831 28.03                             150    0.4310 77.8  42 
 PAM  EZ I        1831 31.10        76.0 0.49            154           77.8  42 
 RUS  HZ EP       1831 12.04                             142   -0.1710  103 174 
 RUS  HE ES       1831 30.61                             142   -0.0210  103 174 
 RUS  HZ I        1831 31.66        49.0 0.52            145            103 174 
 PTB  HZ EP       1831 14.51                             132   -0.55 9  145 258 
 PTB  HN ES       1831 35.25                             132   -0.46 9  145 258 
 PTB  HZ I        1831 41.42        70.2 0.16            130            145 258 
 OCA  HZ EP       1831 16.09                             129   -0.34 9  158 354 
 OCA  HE ES       1831 38.13                             129   -0.01 9  158 354 
 OCA  HZ I        1831 41.93       130.7 0.20            130            158 354 
 SPBC HZ EP       1831 17.45                             128    0.63 9  163 218 
 SPBC HE ES       1831 38.84                             128   -0.00 9  163 218 
 SPBC HZ I        1831 40.28        78.2 0.26            128            163 218 
 ZAR  HZ EP       1831 20.84                             122    0.39 9  200 292 
 ZAR  HN ES       1831 45.51                             122    0.21 9  200 292 
 ZAR  HZ I        1831 52.82        68.8 0.27            121            200 292 
 NOR  HZ EP   2   1831 24.97                             118    0.97 4  233 234 
 NOR  HN ES       1831 50.95                             118   -0.67 8  233 234 
 NOR  HZ I        1831 57.99        23.0 0.18            118            233 234 
 CHI  HZ EP       1831 26.36                             116    0.11 8  250 194 
 CHI  HN ES       1831 55.60                             116   -0.03 8  250 194 
 CHI  HZ I        1832  0.92        17.5 0.32            118            250 194 
 ROSC BZ EP   4   1831 27.87                             116    1.31 0  253 210 
 ROSC BE ES   4   1831 59.10                             116    2.92 0  253 210 
 ROSC BZ I        1832  2.77        58.2 0.40            117            253 210 
 HEL  HZ EP   2   1831 29.35                             114    0.99 4  270 255 
 HEL  HN ES       1831 59.64                             114    0.25 8  270 255 
 HEL  HZ I        1832  7.25        22.1 0.28            114            270 255 
 URE  HZ EP   1   1831 28.60                             113   -0.49 6  280 292 
 URE  HE ES   4   1831 59.24                             113   -1.45 0  280 292 
 URE  HZ I        1832 12.07        35.2 0.34            113            280 292 
 GUY2CHZ EP   4   1831 33.42                             112    1.52 0  300 234 
 GUY2CHE ES       1832  5.43                             112   -0.26 7  300 234 
 GUY2CHZ I        1832 13.73        11.1 0.42                           300 234 
 SOCV BZ EP   4   1831 29.98                             111   -1.69 0  303  58 
 SOCV BE ES   4   1832  2.00                             111   -3.27 0  303  58 
 VIL  SZ EP       1831 31.56                             111   -0.47 7  305 191 
 VIL  SN ES       1832  5.77                             111   -0.14 7  305 191 
 LL6C HZ EP   4   1831 32.72                             110   -1.18 0  323 358 
 LL6C HE ES   4   1832  4.25                             110   -5.00 0  323 358 
 LL6C HZ I        1832 11.55        11.3 0.44            111            323 358 
 ELA  HZ EP   2   1831 35.76                             110    0.57 3  328 229 
 ELA  HN ES       1832 11.75                             110    0.20 7  328 229 
 ELA  HZ I        1832 21.46        12.8 0.44            110            328 229 
 ANIL HZ EP   2   1831 39.75                             108    1.55 3  357 224 
 ANIL HE ES   4   1832 17.70                             108    0.81 0  357 224 
 ANIL HZ I        1832 24.64        46.2 0.28            108            357 224 
 SDV  BZ EP       1831 37.66                             108   -0.98 6  361  51 
 SDV  BN ES   4   1832 13.36                             108   -4.32 0  361  51 
 ORTC HZ EP       1831 42.23                             106   -0.16 6  395 216 
 ORTC HN ES       1832 25.21                             106    0.86 6  395 216 
 ORTC HZ I        1832 31.71        11.9 0.60            107            395 216 
                                                                                
