 2016 1227 1152 58.2 L   6.820 -73.168146.8  RSN  8 0.6 1.9LRSN                1
 GAP=133        1.43       5.4     5.8  8.5  0.6286E+00  0.1385E+02  0.9458E+01E
 Epicentro: LOS SANTOS - SANTANDER                                             3
 ACTION:UPD 17-01-11 20:19 OP:rebc STATUS:               ID:20161227115258 L   I
 OLDACT:REG 16-12-27 20:19 OP:cog  STATUS:               ID:20161227114747     3
 2016-12-27-1148-00M.COL___372                                                 6
 STAT SP IPHASW D HRMM SECON CODA AMPLIT PERI AZIMU VELO AIN AR TRES W  DIS CAZ7
 BAR2 EZ EP       1153 17.90                             170   -0.0610 25.2 184 
 BAR2 EZ ES       1153 32.85                             170   -0.5410 25.2 184 
 BAR2 EZ I        1153 33.94        22.5 0.36            168           25.2 184 
 BRR  HZ EP       1153 19.86                             154    0.6110 68.0 298 
 BRR  HE ES       1153 36.90                             154    1.2110 68.0 298 
 PAM  EZ EP       1153 20.83                             151    0.3410 77.4  42 
 PAM  EN ES       1153 37.78                             151   -0.1210 77.4  42 
 PAM  EZ I        1153 40.07        12.1 0.54            155           77.4  42 
 RUS  HZ EP       1153 21.90                             143   -0.2910  103 175 
 RUS  HN ES       1153 40.58                             143   -0.3510  103 175 
 RUS  HZ I        1153 42.15        12.0 0.42            143            103 175 
 PTB  HZ EP       1153 24.75                             133   -0.29 9  146 258 
 PTB  HN ES       1153 45.76                             133   -0.23 9  146 258 
 PTB  HZ I        1153 48.54         7.5 0.16            131            146 258 
 ZAR  HZ EP       1153 30.18                             123   -0.18 9  201 292 
 ZAR  HE ES       1153 54.10                             123   -1.36 9  201 292 
 ZAR  HZ I        1154  1.05        10.2 0.38            123            201 292 
 NOR  HZ EP       1153 34.10                             119    0.22 8  234 234 
 NOR  HE ES       1154  2.51                             119    0.78 8  234 234 
 NOR  HZ I        1154 11.19         4.1 0.38            118            234 234 
 CHI  HZ EP       1153 36.06                             117   -0.02 8  250 194 
 CHI  HN ES       1154  5.86                             117    0.21 8  250 194 
 CHI  HZ I        1154 10.38         4.1 0.50            117            250 194 
 ROSC BZ EP   4   1153 45.71                             117    9.30 0  253 210 
 ROSC BN ES   4   1153 59.86                             117   -6.38 0  253 210 
                                                                                
