 2013  727 1529 59.6 L   6.787 -73.173145.7  RSN 10 0.4 2.3LRSN                1
 GAP=134        0.72       3.0     3.6  5.3 -0.1249E+01  0.4342E+01  0.3026E+01E
 Epicentro: LOS SANTOS - SANTANDER                                             3
 ACTION:UPD 13-08-12 10:40 OP:ep   STATUS:               ID:20130727152959 L   I
 OLDACT:UP  13-07-27 17:58 OP:mh   STATUS:               ID:20130727152959     3
 OLDACT:REG 13-07-27 14:56 OP:mh   STATUS:               ID:20130727152959     3
 2013-07-27-1529-59M.COL___267                                                 6
 STAT SP IPHASW D HRMM SECON CODA AMPLIT PERI AZIMU VELO AIN AR TRES W  DIS CAZ7
 BAR2 SZ EP   1   1530 18.99                             171   -0.16 7 21.5 183 
 BAR2 SZ I        1530 35.57        23.6 0.22            170           21.5 183 
 GIR2 SZ EP   1   1530 19.22                             167   -0.03 7 32.4 356 
 GIR2 SZ ES   1   1530 34.81                             167    0.19 7 32.4 356 
 GIR2 SZ I        1530 36.15        18.0 0.36            167           32.4 356 
 BRR  HZ EP   1   1530 20.79                             153    0.20 7 69.3 301 
 BRR  HN ES   1   1530 37.86                             153    0.86 7 69.3 301 
 BRR  HN I        1530 38.47        69.0 0.24            152           69.3 301 
 PAM  SZ EP       1530 22.01                             150    0.0610 80.4  41 
 PAM  SN ES   1   1530 39.14                             150   -0.28 7 80.4  41 
 PAM  SN I        1530 40.64        27.7 0.74            151           80.4  41 
 RUS  HZ EP   1   1530 23.04                             144   -0.18 7 99.4 174 
 RUS  HN ES       1530 41.45                             144   -0.2210 99.4 174 
 RUS  HN I        1530 43.43        15.4 0.24            143           99.4 174 
 PTB  HZ EP   1   1530 25.73                             133   -0.50 7  145 259 
 PTB  HN ES   1   1530 46.29                             133   -0.74 7  145 259 
 PTB  HN I        1530 51.88        45.0 0.40            131            145 259 
 SPBC HZ EP       1530 27.97                             130    0.20 9  160 218 
 SPBC HN ES   1   1530 49.54                             130   -0.23 7  160 218 
 SPBC HN I        1530 56.27        49.9 0.38            128            160 218 
 ZAR  HZ EP   1   1530 31.55                             123   -0.22 6  202 293 
 ZAR  HE ES   1   1530 56.93                             123    0.03 6  202 293 
 ZAR  HZ I        1531  3.03        11.8 0.34            122            202 293 
 NOR  HZ EP   1   1530 35.19                             119    0.26 6  231 234 
 NOR  HN ES   1   1531  2.58                             119    0.06 6  231 234 
 NOR  HN I        1531  7.16        25.6 0.16            118            231 234 
 CHI  HZ EP   1   1530 37.24                             117    0.22 6  246 195 
 CHI  HN ES   1   1531  6.96                             117    0.73 6  246 195 
 CHI  HN I        1531  9.15        16.2 0.34            117            246 195 
                                                                                
