 2010  627 1126 36.5 L   6.728 -73.103138.4  RSN  7 0.4 1.6LRSN                1
 GAP=161        0.83       5.6     7.4  8.4 -0.1653E+02 -0.6813E+01 -0.3182E+01E
 Epicentro: JORDAN - SANTANDER                                                 3
 ACTION:UP  10-08-24 10:13 OP:vdl  STATUS:               ID:20100627112636 L   I
 2010-06-27-1124-03S.COL___118                                                 6
 STAT SP IPHASW D HRMM SECON CODA AMPLIT PERI AZIMU VELO SNR AR TRES W  DIS CAZ7
 BAR2 SZ EP   1   1126 54.97                             173    -0.2 8   17 211 
 BAR2 SZ ES   2   1127  9.72                             173     0.0 5   17 211 
 BRR  HZ EP   1   1126 56.85                             149    -0.5 8   79 302 
 BRR  HE ES   1   1127 13.62                             149     0.0 8   79 302 
 BRR  HZ I        1127 19.02        10.5 0.12                            79 302 
 RUS  HZ EP   2   1126 59.09                             145     0.1 5   92 179 
 RUS  HN ES   2   1127 16.78                             145     0.3 5   92 179 
 RUS  HZ I        1127 18.15         4.6 0.19                            92 179 
 BRI  SZ IP       1126 59.78                             138    -0.410  114  17 
 BRI  SZ ES   2   1127 17.80                             138    -0.9 5  114  17 
 GUE  SZ EP   1   1127  1.23                             136     0.1 7  123   9 
 GRA  SZ IP       1127  2.02                             134     0.410  132  14 
 GRA  SZ ES   1   1127 21.97                             134     0.7 7  132  14 
 HEL  HZ EP   2   1127 17.38                             113     0.7 4  275 258 
 HEL  HN ES   2   1127 48.05                             113     0.1 4  275 258 
 HEL  HZ I        1127 53.98         3.5 0.43                           275 258 
                                                                                
