 2015  827 1714 58.2 L   6.823 -73.158145.7  RSN 13 0.4 2.2LRSN                1
 GAP=145        0.92       2.6     4.0  5.1 -0.2509E+01  0.7659E+01  0.2009E+01E
 Epicentro: LOS SANTOS - SANTANDER                                             3
 ACTION:UPD 15-09-15 23:05 OP:cam  STATUS:               ID:20150827171458 L   I
 OLDACT:DUP 15-08-27 22:33 OP:ak   STATUS:               ID:20150827170749d    3
 2015-08-27-1707-48M.COL___361                                                 6
 STAT SP IPHASW D HRMM SECON CODA AMPLIT PERI AZIMU VELO AIN AR TRES W  DIS CAZ7
 BAR2 EZ EP       1715 17.82                             170   -0.0710 25.7 186 
 BAR2 EZ ES       1715 32.69                             170   -0.5510 25.7 186 
 BAR2 EZ I        1715 36.14        23.0 0.18            168           25.7 186 
 BRR  HZ EP       1715 19.48                             153    0.2510 68.8 297 
 BRR  HN ES       1715 36.23                             153    0.6110 68.8 297 
 BRR  HZ I        1715 39.67        25.8 0.24            149           68.8 297 
 PAM  EZ EP       1715 20.66                             151    0.3010 76.3  42 
 PAM  EN ES       1715 37.89                             151    0.2510 76.3  42 
 PAM  EZ I        1715 39.57        23.3 0.42            157           76.3  42 
 OCA  HZ EP   1   1715 26.71                             130    0.44 7  158 354 
 OCA  HN ES       1715 47.72                             130   -0.44 9  158 354 
 OCA  HZ I        1715 50.91        31.1 0.26            132            158 354 
 ZAR  HZ EP       1715 30.58                             123    0.14 9  202 292 
 ZAR  HN ES       1715 55.75                             123    0.18 9  202 292 
 ZAR  HZ I        1716  2.06        18.5 0.22            123            202 292 
 NOR  HZ EP       1715 34.31                             118    0.32 8  235 234 
 NOR  HN ES       1716  1.82                             118   -0.07 8  235 234 
 NOR  HZ I        1716  7.96        14.8 0.18            119            235 234 
 SML  HZ EP       1715 34.33                             118   -0.20 8  241 335 
 SML  HN ES       1716  2.20                             118   -0.65 8  241 335 
 SML  HZ I        1716  8.73        10.4 0.11            119            241 335 
 CHI  HZ EP   1   1715 35.89                             117   -0.25 6  251 195 
 CHI  HN ES       1716  5.16                             117   -0.57 8  251 195 
 CHI  HZ I        1716  9.76         5.3 0.42            119            251 195 
 HEL  HZ EP       1715 38.73                             115    0.37 8  271 255 
 HEL  HN ES   1   1716 10.14                             115    0.47 6  271 255 
 HEL  HZ I        1716 16.18        11.2 0.30            115            271 255 
 URE  HZ EP       1715 38.22                             114   -0.82 7  282 292 
 URE  HN ES   4   1716  8.80                             114   -2.09 0  282 292 
 URE  HZ I        1716 20.75        11.8 0.28            114            282 292 
 GUY2CHZ EP   4   1715 43.37                             112    1.50 0  302 234 
 GUY2CHN ES       1716 15.62                             112   -0.30 7  302 234 
 GUY2CHZ I        1716 24.83         5.3 0.44                           302 234 
 TOL  SZ EP   1   1715 47.16                             109    0.59 5  344 224 
 TOL  SN ES       1716 23.81                             109   -0.48 7  344 224 
 TOL  SZ I        1716 32.24         7.9 0.50            111            344 224 
 PRA  HZ EP       1715 52.02                             106    0.10 6  394 209 
 PRA  HN ES       1716 34.49                             106    0.68 6  394 209 
 PRA  HZ I        1716 38.50         7.3 0.38            108            394 209 
                                                                                
