 2010 1227 1914 32.1 L   6.472 -73.748  5.9  RSN  7 0.5 2.2LRSN                1
 GAP=133        0.97       5.2     4.6  9.8 -0.1339E+02  0.2641E+02 -0.1992E+02E
 Epicentro: SANTA HELENA DEL OPON - SANTANDER                                  3
 ACTION:UP  11-01-14 15:27 OP:pat  STATUS:               ID:20101227191432 L   I
 2010-12-27-1911-55S.COL___135                                                 6
 STAT SP IPHASW D HRMM SECON CODA AMPLIT PERI AZIMU VELO SNR AR TRES W  DIS CAZ7
 BAR2 SZ IP       1914 42.31                              91    -0.310   64  78 
 BAR2 SZ I        1914 52.20        71.8 0.41                            64  78 
 BTL  SZ IP       1914 43.81                              91    -0.110   72  47 
 RUS  HZ EP   1   1914 48.26                              91     0.3 7   98 131 
 RUS  HN ES   2   1914 59.83                              91    -0.6 5   98 131 
 RUS  HZ I        1915  1.12        32.7 0.54                            98 131 
 NOR  SZ EP   1   1914 57.28                              90     0.3 7  160 231 
 NOR  SE ES   2   1915 16.20                              90    -0.2 5  160 231 
 GRA  SZ EP   1   1915  1.37                              56     0.5 7  188  34 
 GRA  SZ ES   2   1915 23.25                              56     0.0 4  188  34 
 GRA  SZ I        1915 25.65        68.6 0.29                           188  34 
 HEL  HZ EP   1   1915  2.19                              56    -0.4 6  199 261 
 HEL  HE ES   2   1915 25.21                              56    -1.1 4  199 261 
 HEL  HZ I        1915 26.88        26.0 0.25                           199 261 
 RREF HZ EP   1   1915 10.03                              56     1.1 6  248 226 
 RREF HE ES   2   1915 38.09                              56     0.3 4  248 226 
 RREF HZ I        1915 46.46        16.5 0.32                           248 226 
                                                                                
