 2017  527 1011  2.6 L   6.567 -73.475120.9  RSN  7 0.3 1.6LRSN                1
 GAP=161        0.79       3.4     3.1  6.6  0.2559E+01 -0.2261E+01  0.4541E+01E
 Epicentro: EL CARMEN - SANTANDER                                              3
 ACTION:UPD 17-06-16 13:39 OP:jn   STATUS:               ID:20170527101102 L   I
 OLDACT:UP  17-05-28 00:13 OP:dnl  STATUS:               ID:20170527100739     3
 OLDACT:REG 17-05-27 22:54 OP:dnl  STATUS:               ID:20170527100739     3
 2017-05-27-1008-00M.COL___343                                                 6
 STAT SP IPHASW D HRMM SECON CODA AMPLIT PERI AZIMU VELO AIN AR TRES W  DIS CAZ7
 BRR  HZ EP       1011 20.77                             150   -0.0010 65.3 336 
 BRR  HE ES       1011 35.20                             150    0.2810 65.3 336 
 BRR  HZ I        1011 41.35        13.1 0.32            152           65.3 336 
 RUS  HZ EP       1011 22.95                             142    0.0510 86.2 150 
 RUS  HE ES       1011 38.59                             142   -0.1210 86.2 150 
 RUS  HZ I        1011 39.67         4.7 0.42            147           86.2 150 
 PTB  HZ EP   2   1011 23.75                             135   -0.30 5  109 268 
 PTB  HN ES       1011 40.11                             135   -0.6410  109 268 
 PTB  HZ I        1011 43.71         6.1 0.20            138            109 268 
 SPBC HZ EP       1011 25.37                             132    0.1410  121 213 
 SPBC HE ES       1011 43.48                             132    0.6210  121 213 
 SPBC HZ I        1011 49.09         9.1 0.22            135            121 213 
 YPLC HZ EP       1011 30.80                             120    0.00 9  177 137 
 YPLC HE ES       1011 52.48                             120   -0.29 9  177 137 
 YPLC HZ I        1011 55.23         7.2 0.38            125            177 137 
 ZAR  HZ EP   2   1011 31.76                             119    0.34 4  184 304 
 ZAR  HN ES   4   1011 55.55                             119    1.68 0  184 304 
 ZAR  HZ I        1011 58.01         5.0 0.36            122            184 304 
 NOR  HZ EP   4   1011 34.12                             118    1.99 0  190 234 
 NOR  HN ES       1011 55.07                             118   -0.07 9  190 234 
 NOR  HZ I        1011 58.36         2.6 0.26            122            190 234 
                                                                                
