 2017  927 1736 16.5 L   6.809 -73.139144.4  RSN  5 0.4 1.4LRSN                1
 GAP=239        0.99       6.1     6.7  7.8  0.1874E+02  0.1786E+02  0.1060E+02E
 Epicentro: LOS SANTOS - SANTANDER                                             3
 ACTION:UPD 17-10-05 19:16 OP:rebc STATUS:               ID:20170927173616 L   I
 OLDACT:REG 17-09-27 21:02 OP:dhb  STATUS:               ID:20170927172745     3
 2017-09-27-1728-00M.COL___450                                                 6
 STAT SP IPHASW D HRMM SECON CODA AMPLIT PERI AZIMU VELO AIN AR TRES W  DIS CAZ7
 BAR2 EZ EP       1736 35.58                             170   -0.3910 24.4 191 
 BAR2 EZ ES       1736 50.90                             170   -0.2710 24.4 191 
 BAR2 EZ I        1736 56.36         3.1 0.22            169           24.4 191 
 BRR  HZ IP     D 1736 37.77                             152    0.2810 71.4 298 
 BRR  HN ES       1736 54.53                             152    0.6510 71.4 298 
 BRR  HZ I        1736 58.73         9.8 0.37            152           71.4 298 
 RUS  HZ EP       1736 40.25                             143    0.0810  102 177 
 RUS  HN ES       1736 58.59                             143   -0.0510  102 177 
 RUS  HZ I        1737  1.97         2.6 0.17            147            102 177 
 ZAR  HE ES       1737 13.39                             122   -0.74 9  204 292 
 ZAR  HZ I        1737 20.30         3.1 0.20            125            204 292 
 NOR  HZ EP       1736 52.62                             118    0.36 8  236 234 
 NOR  HE ES       1737 20.19                             118    0.03 8  236 234 
 NOR  HZ I        1737 23.55         2.6 0.22            121            236 234 
                                                                                
