 2010  127 1102 18.1 L   6.793 -72.999147.6  RSN  6 0.4 1.0LRSN                1
 GAP=175        0.63       5.9    26.5  8.3 -0.1180E+03 -0.7405E+02  0.1930E+02E
 Epicentro: CEPITA - SANTANDER                                                 3
 ACTION:UP  10-08-24 09:46 OP:vdl  STATUS:               ID:20100127110218 L   I
 2010-01-27-1059-51S.COL___083                                                 6
 STAT SP IPHASW D HRMM SECON CODA AMPLIT PERI AZIMU VELO SNR AR TRES W  DIS CAZ7
 BAR2 SZ EP       11 2 37.86                             168    -0.310   30 223 
 BAR2 SZ ES   2   11 2 53.13                             168    -0.6 5   30 223 
 GIR2 SZ ES   2   11 2 54.47                             165     0.6 5   38 326 
 RUS  HZ EP   1   11 2 42.06                             144     0.0 7  100 185 
 RUS  HE ES   2   11 3  1.10                             144     0.4 5  100 185 
 RUS  HZ I        11 3  1.67         1.8 0.15                           100 185 
 GUE  SZ EP   1   11 2 43.25                             140     0.4 7  115   4 
 GUE  SZ ES   2   11 3  2.31                             140     0.1 5  115   4 
 GRA  SZ ES   2   11 3  2.55                             138    -0.4 5  123  10 
 CHI  HZ EP   2   11 2 56.04                             117    -0.3 4  253 199 
 CHI  HE ES   2   11 3 26.63                             117     0.4 4  253 199 
                                                                                
