 2016  927 1340  1.0 L   6.779 -73.121161.2  RSN  5 0.3 1.8LRSN                1
 GAP=238        0.79       6.7     6.8  9.0  0.2263E+02 -0.7896E+01  0.8760E+01E
 Epicentro: LOS SANTOS - SANTANDER                                             3
 ACTION:UPD 17-08-17 21:16 OP:lp   STATUS:               ID:20160927134001 L   I
 OLDACT:UP  16-09-27 23:26 OP:dani STATUS:               ID:20160927133744     3
 OLDACT:REG 16-09-27 20:52 OP:dani STATUS:               ID:20160927133744     3
 2016-09-27-1338-00M.COL___363                                                 6
 STAT SP IPHASW D HRMM SECON CODA AMPLIT PERI AZIMU VELO AIN AR TRES W  DIS CAZ7
 BRR  HZ EP       1340 24.61                             154    0.6010 74.7 299 
 BRR  HE ES       1340 41.91                             154   -0.0510 74.7 299 
 BRR  HZ I        1340 45.67        13.6 0.32            150           74.7 299 
 RUS  HZ EP       1340 25.68                             148   -0.4410 98.1 178 
 RUS  HE ES   2   1340 45.69                             148   -0.03 5 98.1 178 
 RUS  HZ I        1340 46.67         7.5 0.34            148           98.1 178 
 PTB  HZ EP       1340 29.27                             135   -0.18 9  150 260 
 PTB  HE ES       1340 51.60                             135   -0.05 9  150 260 
 PTB  HZ I        1340 57.78         5.1 0.24            133            150 260 
 ZAR  HZ EP   4   1340 37.56                             125    2.74 0  207 292 
 ZAR  HE ES       1341  1.17                             125   -0.04 8  207 292 
 ZAR  HZ I        1341  8.75         7.4 0.11            125            207 292 
 CHI  HE ES   2   1341 10.14                             120    0.73 4  247 196 
                                                                                
