 2016  227 1114 34.9 L   6.831 -73.197140.9  RSN  8 0.4 1.7LRSN                1
 GAP=129        1.02       3.2     5.2  8.0 -0.4665E+01  0.1235E+02 -0.2938E-01E
 Epicentro: ZAPATOCA - SANTANDER                                               3
 ACTION:UPD 16-03-04 21:29 OP:rebc STATUS:               ID:20160227111435 L   I
 OLDACT:UP  16-02-29 14:13 OP:nlst STATUS:               ID:20160227111435 L   3
 OLDACT:DUP 16-02-27 21:18 OP:drio STATUS:               ID:20160227110751d    3
 2016-02-27-1107-50M.COL___306                                                 6
 STAT SP IPHASW D HRMM SECON CODA AMPLIT PERI AZIMU VELO AIN AR TRES W  DIS CAZ7
 BAR2 EZ EP       1114 53.95                             169   -0.0510 26.4 176 
 PAM  EZ EP       1114 56.97                             149    0.3110 78.7  44 
 PAM  EN ES       1115 13.71                             149    0.0610 78.7  44 
 PAM  EZ I        1115 15.89         9.4 0.56            153           78.7  44 
 RUS  HZ EP       1114 58.51                             142    0.0610  105 173 
 RUS  HE ES       1115 16.50                             142   -0.3310  105 173 
 RUS  HZ I        1115 17.51         4.9 0.38            147            105 173 
 PTB  HZ EP       1115  0.24                             132   -0.77 9  143 257 
 PTB  HN ES       1115 21.27                             132   -0.12 9  143 257 
 PTB  HZ I        1115 24.22         7.0 0.34            132            143 257 
 OCA  HZ EP       1115  2.25                             129   -0.19 9  156 355 
 OCA  HN ES       1115 23.98                             129    0.04 9  156 355 
 OCA  HZ I        1115 30.56        15.2 0.46            131            156 355 
 SPBC HZ EP       1115  2.90                             128   -0.03 9  162 217 
 SPBC HN ES       1115 25.01                             128    0.20 9  162 217 
 SPBC HZ I        1115 27.82         6.2 0.10            131            162 217 
 ZAR  HZ EP       1115  7.09                             122    0.76 9  197 292 
 ZAR  HN ES   4   1115 33.10                             122    2.24 0  197 292 
 ZAR  HZ I        1115 39.31         4.1 0.56            123            197 292 
 CHI  HZ EP       1115 11.90                             116   -0.62 8  251 194 
 CHI  HN ES       1115 42.77                             116    0.89 8  251 194 
 CHI  HZ I        1115 44.74         1.3 0.24            119            251 194 
                                                                                
