 2012 1027 1134 36.8 L   6.792 -73.093149.2  RSN  4 0.1 1.8LRSN                1
 GAP=242        0.35       4.5     8.0  3.6  0.2982E+02 -0.6720E+01 -0.4234E+01E
 Epicentro: LOS SANTOS - SANTANDER                                             3
 ACTION:UPD 12-11-22 17:06 OP:ep   STATUS:               ID:20121027113436 L   I
 2012-10-27-1130-00M.COL___228                                                 6
 STAT SP IPHASW D HRMM SECON CODA AMPLIT PERI AZIMU VELO AIN AR TRES W  DIS CAZ7
 BAR2 SZ EP       1134 56.76                             170   -0.1210 24.2 204 
 BAR2 SZ ES       1135 12.55                             170    0.0310 24.2 204 
 BAR2 SZ I        1135 14.37        13.8 0.37                          24.2 204 
 BRR  HZ EP       1134 58.78                             151    0.1210 76.8 297 
 BRR  HZ I        1135  6.57        10.2 0.48                          76.8 297 
 BRR  HN ES       1135 15.63                             151   -0.0610 76.8 297 
 RUS  HN ES       1135 19.58                             145    0.0310 99.5 179 
 RUS  HN I        1135 21.00         8.2 0.30                          99.5 179 
 CHI  HZ EP   2   1135 14.73                             118   -0.06 4  249 197 
                                                                                
