 2010  727 1049 44.0 L   6.788 -73.053144.8  RSN  9 0.4 1.9LRSN                1
 GAP=169        0.80       4.5     8.7  8.0 -0.1556E+02  0.1543E+02  0.6393E+00E
 Epicentro: LOS SANTOS - SANTANDER                                             3
 ACTION:UPD 10-12-01 15:20 OP:pat  STATUS:               ID:20100727104944 L   I
 2010-07-27-1047-31S.COL___123                                                 6
 STAT SP IPHASW D HRMM SECON CODA AMPLIT PERI AZIMU VELO AIN AR TRES W  DIS CAZ7
 BAR2 SZ EP   1   1050  3.43                             169    -0.1 7   26 214 
 BAR2 SZ ES   2   1050 18.69                             169    -0.2 5   26 214 
 BRR  HZ EP   1   1050  5.24                             149    -0.4 7   81 296 
 BRR  HN ES   2   1050 22.49                             149     0.0 5   81 296 
 BRR  HZ I        1050 24.17        12.3 0.17                            81 296 
 RUS  HZ EP   1   1050  7.16                             144    -0.4 7   99 182 
 RUS  HE ES   2   1050 26.39                             144     0.5 5   99 182 
 RUS  HZ I        1050 27.24         6.8 0.26                            99 182 
 GUE  SZ EP   1   1050  9.44                             139     0.8 7  116   7 
 GRA  SZ EP   1   1050  9.24                             137     0.2 7  124  13 
 GRA  SZ ES   2   1050 28.74                             137     0.2 5  124  13 
 OCA  SZ EP   1   1050 11.93                             129    -0.6 7  163 350 
 OCA  SZ ES   2   1050 34.43                             129    -0.3 5  163 350 
 OCA  SZ I        1050 41.97         7.6 0.42                           163 350 
 HEL  HZ EP   1   1050 25.50                             114     0.3 6  282 257 
 RREF HZ EP   1   1050 31.34                             110     0.4 5  329 231 
 RREF HE ES   2   1051  8.32                             110     0.8 3  329 231 
 RREF HZ I        1051 15.47         4.1 0.31                           329 231 
 PRA  HZ EP   1   1050 37.55                             106    -0.4 4  396 211 
 PRA  HN ES   2   1051 19.77                             106    -0.3 3  396 211 
 PRA  HZ I        1051 24.12         3.5 0.84                           396 211 
                                                                                
