 2010  427 1459  2.6 L   6.767 -72.959140.3  RSN  5 0.3 1.9LRSN                1
 GAP=266        0.53       6.1     7.9  7.8  0.3309E+00 -0.3464E+01  0.1954E+02E
 Epicentro: CEPITA - SANTANDER                                                 3
 ACTION:UPD 10-08-24 10:01 OP:vdl  STATUS:               ID:20100427145915 L   I
 2010-04-27-1456-36S.COL___104                                                 6
 STAT SP IPHASW D HRMM SECON CODA AMPLIT PERI AZIMU VELO AIN AR TRES W  DIS CAZ7
 BAR2 SZ IP       1459 22.00                             167     0.210   32 232 
 BAR2 SZ ES   2   1459 36.80                             167     0.1 5   32 232 
 BRR  HZ IP     C 1459 24.34                             147    -0.110   91 294 
 BRR  HZ I        1459 24.67        15.7 0.10                            91 294 
 BRR  HE ES   1   1459 41.31                             147    -0.2 7   91 294 
 CHI  HE ES   3   15 0  9.67                             116     0.0 2  251 200 
 RREF BN ES   2   15 0 27.84                             110     0.7 3  335 232 
 RREF BZ I        15 0 33.93         2.8 0.29                           335 232 
 PRA  HZ EP   2   1459 56.22                             106    -0.6 3  400 212 
 PRA  HE ES   2   15 0 38.68                             106    -0.4 3  400 212 
 PRA  HZ I        15 0 45.16         2.6 0.56                           400 212 
                                                                                
