 2013 1227 1543 11.0 L   6.811 -73.168143.0  RSN  8 0.5 1.9LRSN                1
 GAP=133        1.11       4.5     5.5  7.8 -0.2737E+01  0.1546E+02 -0.2498E+01E
 Epicentro: LOS SANTOS - SANTANDER                                             3
 ACTION:UPD 14-01-13 10:21 OP:ep   STATUS:               ID:20131227154311 L   I
 OLDACT:REG 13-12-27 14:21 OP:jn   STATUS:               ID:20131227154000     3
 2013-12-27-1540-00M.COL___285                                                 6
 STAT SP IPHASW D HRMM SECON CODA AMPLIT PERI AZIMU VELO AIN AR TRES W  DIS CAZ7
 BAR2 SZ EP       1543 30.28                             170    0.0110 24.3 184 
 BAR2 SZ ES       1543 45.02                             170   -0.3210 24.3 184 
 BAR2 SZ I        1543 46.34        31.9 0.20            170           24.3 184 
 BRR  HZ EP       1543 32.25                             152    0.6010 68.4 299 
 BRR  HN ES   1   1543 48.77                             152    0.98 7 68.4 299 
 BRR  HZ I        1543 53.06        18.3 0.12            150           68.4 299 
 PAM  SZ EP       1543 33.26                             150    0.3510 78.0  42 
 PAM  SN ES       1543 50.06                             150    0.0110 78.0  42 
 PAM  SZ I        1543 52.07        22.0 0.46            154           78.0  42 
 RUS  HZ EP       1543 34.43                             143   -0.1110  102 175 
 RUS  HN ES       1543 52.28                             143   -0.6610  102 175 
 RUS  HZ I        1543 54.45        10.1 0.22            147            102 175 
 PTB  HN ES   2   1543 57.42                             131   -0.78 5  146 258 
 PTB  HZ I        1544  0.16         8.7 0.18            132            146 258 
 ZAR  HN ES   1   1544  8.06                             122    0.19 6  201 292 
 ZAR  HZ I        1544 14.19         9.0 0.30            123            201 292 
 NOR  HZ EP       1543 46.72                             118    0.34 8  233 234 
 NOR  HN ES       1544 14.04                             118    0.02 8  233 234 
 NOR  HZ I        1544 19.08         4.8 0.12            119            233 234 
 SML  HZ EP   1   1543 46.76                             117   -0.43 6  242 336 
 SML  HN ES   1   1544 14.27                             117   -1.18 6  242 336 
 SJC  HZ EP   4   1544  5.11                             105   -1.03 0  407 327 
                                                                                
