 2011 1127 1555 50.0 L   6.759 -73.139148.8  RSN  5 0.4 1.5LRSN                1
 GAP=139        0.80       5.5     6.5  8.4 -0.9753E+01  0.6119E+01  0.4542E+01E
 Epicentro: LOS SANTOS - SANTANDER                                             3
 ACTION:UPD 12-07-13 16:12 OP:ep   STATUS:               ID:20111127155550 L   I
 2011-11-27-1554-02S.COL___160                                                 6
 STAT SP IPHASW D HRMM SECON CODA AMPLIT PERI AZIMU VELO AIN AR TRES W  DIS CAZ7
 BAR2 SZ EP   1   1556  9.91                             172   -0.02 7 19.0 195 
 BAR2 SZ ES   1   1556 25.00                             172   -0.46 7 19.0 195 
 BAR2 SZ I        1556 26.59         9.6 0.37                          19.0 195 
 BRR  HZ EP   1   1556 11.72                             152    0.06 7 74.1 301 
 BRR  HZ I        1556 12.01        24.2 0.16                          74.1 301 
 BRR  HE ES   1   1556 29.20                             152    0.66 7 74.1 301 
 PAM  SZ EP   1   1556 12.75                             150    0.01 7 80.5  37 
 PAM  SZ I        1556 12.86         1.9 0.22                          80.5  37 
 PAM  SN ES   1   1556 30.00                             150   -0.46 7 80.5  37 
 RUS  HZ EP   1   1556 14.00                             146    0.26 7 96.0 176 
 RUS  HN ES   1   1556 32.62                             146    0.37 7 96.0 176 
 RUS  HZ I        1556 33.71         3.7 0.24                          96.0 176 
 NOR  SN ES   1   1556 52.89                             119   -0.65 6  233 235 
                                                                                
