 2016  927 1620  1.2 L   6.798 -73.154146.5  RSN 18 0.4 2.8LRSN                1
 GAP=101        0.92       3.0     3.0  4.8 -0.9609E+00  0.2625E+01  0.2529E+01E
 Epicentro: LOS SANTOS - SANTANDER                                             3
 ACTION:UPD 17-08-17 21:17 OP:lp   STATUS:               ID:20160927162001 L   I
 OLDACT:UP  16-09-28 00:13 OP:dani STATUS:               ID:20160927161748     3
 OLDACT:UP  16-09-28 00:13 OP:dani STATUS:               ID:20160927161748     3
 OLDACT:REG 16-09-27 21:13 OP:dani STATUS:               ID:20160927161748     3
 2016-09-27-1618-00M.COL___363                                                 6
 STAT SP IPHASW D HRMM SECON CODA AMPLIT PERI AZIMU VELO AIN AR TRES W  DIS CAZ7
 BAR2 EZ EP     D 1620 20.74                             171   -0.1310 22.9 188 
 BAR2 EZ ES       1620 36.03                             171   -0.2110 22.9 188 
 BAR2 EZ I        1620 37.33       241.0 0.30            174           22.9 188 
 BRR  HZ EP     C 1620 22.53                             153    0.1910 70.5 299 
 BRR  HN ES       1620 39.65                             153    0.7810 70.5 299 
 BRR  HZ I        1620 43.61       108.8 0.30            141           70.5 299 
 PAM  EZ EP       1620 23.59                             151    0.0910 78.2  40 
 PAM  EN ES       1620 40.98                             151    0.0510 78.2  40 
 PAM  EZ I        1620 42.95        89.2 0.52            137           78.2  40 
 RUS  HZ EP       1620 24.72                             144   -0.2410  100 175 
 RUS  HE ES       1620 43.41                             144   -0.1310  100 175 
 RUS  HZ I        1620 44.77        61.2 0.36            137            100 175 
 PTB  HZ EP       1620 27.50                             132   -0.59 9  147 259 
 PTB  HN ES       1620 48.47                             132   -0.63 9  147 259 
 PTB  HZ I        1620 54.80        43.2 0.30            122            147 259 
 TAM  HZ EP       1620 29.15                             130    0.18 9  156 105 
 TAM  HZ I        1620 53.21        39.4 0.39            119            156 105 
 SPBC HZ EP       1620 29.49                             129   -0.14 9  162 219 
 SPBC HN ES       1620 51.92                             129    0.07 9  162 219 
 SPBC HZ I        1620 56.59       128.3 0.22            120            162 219 
 ZAR  HZ EP       1620 33.31                             123   -0.26 9  203 292 
 ZAR  HN ES       1620 58.59                             123   -0.26 9  203 292 
 ZAR  HZ I        1621  4.14        63.0 0.40            111            203 292 
 NOR  HZ EP       1620 36.83                             119    0.00 8  234 234 
 NOR  HE ES       1621  4.27                             119   -0.38 8  234 234 
 NOR  HZ I        1621 10.94        30.8 0.22            109            234 234 
 CHI  HZ EP       1620 38.92                             117    0.08 8  248 195 
 CHI  HN ES       1621  8.25                             117    0.02 8  248 195 
 CHI  HZ I        1621 11.71        36.5 0.64            108            248 195 
 ROSC BZ EP   4   1620 40.61                             117    1.38 0  252 211 
 ROSC BE ES       1621  9.67                             117    0.73 8  252 211 
 ROSC BZ I        1621 15.62        80.7 0.45            108            252 211 
 HEL  HZ EP   4   1620 42.88                             115    1.59 0  271 256 
 HEL  HN ES       1621 13.18                             115    0.58 8  271 256 
 HEL  HZ I        1621 20.08        15.3 0.25            105            271 256 
 URE  HZ EP   4   1620 40.26                             114   -1.91 0  283 292 
 URE  HZ I        1621 22.25        25.9 0.13            104            283 292 
 GUY2CHZ EP   4   1620 45.69                             112    1.00 0  300 235 
 GUY2CHZ I        1621 27.00        29.6 0.30                           300 235 
 PTGC HZ EP   9   1620 43.78                             112   -1.28 0  309 158 
 PTGC HN ES       1621 17.65                             112   -0.37 7  309 158 
 PTGC HZ I        1621 20.14        20.9 0.53            103            309 158 
 ELA  HZ EP       1620 48.71                             110    0.78 7  328 229 
 ELA  HE ES   4   1621 28.03                             110    3.61 0  328 229 
 ELA  HZ I        1621 33.73        24.0 0.66            102            328 229 
 CBOC HZ EP   4   1620 48.86                             110    0.88 0  333 252 
 ANIL HE ES   4   1621 33.31                             109    3.63 0  356 224 
 SJC  HZ EP   4   1620 54.35                             106   -2.36 0  409 327 
 SJC  HN ES   4   1621 35.81                             106   -4.22 0  409 327 
 SJC  HZ I        1621 50.50        11.9 0.76             97            409 327 
 CRJC HZ EP   4   1621  1.08                             103   -2.63 0  468   4 
 CRJC HE ES   4   1621 48.76                             103   -3.75 0  468   4 
 CRJC HZ I        1621 55.79        19.6 0.21             94            468   4 
                                                                                
