 2013  927 1844  9.2 L   6.798 -73.143140.5  RSN  9 0.6 2.1LRSN 2.6WRSN        1
 SPEC AVERAGE  MO 13.0 ST126.0 OM  1.1 f0 20.0 R0.1804 AL 0.00 WI 20.0 MW  2.6 3
 SPEC SD       MO  0.1 ST168.4 OM  0.2 f0 14.6 R0.1407 AL      WI      MW  0.1 3
 GAP=137        1.50       5.6     6.5  8.4 -0.8680E+01  0.1484E+02  0.6596E+01E
 Epicentro: LOS SANTOS - SANTANDER                                             3
 SPEC BRR HH Z MO 13.1 ST 15.3 OM  1.2 f0 12.8 R0.1503 AL-0.00 WI 20.0 MW  2.7 3
 SPEC BRR HH Z T184445 K 0.050 GD  157 VS 5.20 DE 3.20 Q0750.0 QA 1.50 VS 5.20 3
 SPEC PAM SH Z MO 13.1 ST0.584 OM  1.2 f0 4.29 R0.4485 AL-0.00 WI 20.0 MW  2.7 3
 SPEC PAM SH Z T184446 K 0.050 GD  160 VS 5.20 DE 3.20 Q0750.0 QA 1.50 VS 5.20 3
 SPEC RUS HH Z MO 12.8 ST  1.5 OM  0.9 f0 7.22 R0.2665 AL-0.00 WI 20.0 MW  2.5 3
 SPEC RUS HH Z T184449 K 0.050 GD  172 VS 5.20 DE 3.20 Q0750.0 QA 1.50 VS 5.20 3
 SPEC PTB HH Z MO 12.9 ST302.0 OM  0.9 f0 40.0 R0.0481 AL-0.00 WI 20.0 MW  2.5 3
 SPEC PTB HH Z T184454 K 0.050 GD  204 VS 5.20 DE 3.20 Q0750.0 QA 1.50 VS 5.20 3
 SPEC NOR HH Z MO 12.9 ST 20.2 OM  0.8 f0 15.9 R0.1210 AL-0.00 WI 20.0 MW  2.6 3
 SPEC NOR HH Z T184510 K 0.050 GD  273 VS 5.20 DE 3.20 Q0750.0 QA 1.50 VS 5.20 3
 SPEC SML HH Z MO 13.0 ST416.7 OM  0.9 f0 40.0 R0.0481 AL-0.00 WI 20.0 MW  2.6 3
 SPEC SML HH Z T184510 K 0.050 GD  281 VS 5.20 DE 3.20 Q0750.0 QA 1.50 VS 5.20 3
 SPECGUY2CHH Z MO 15.5 ST  0.0 OM  3.3 f00.140 R  13.8 AL-0.00 WI 20.0 MW  4.3 3
 SPECGUY2CHH Z T184526 K 0.050 GD332.2 VS 5.20 DE 3.20 Q0750.0 QA 1.50 VS 5.20 3
 OLDACT:REG 13-09-27 16:59 OP:stll STATUS:               ID:20130927183845     3
 ACTION:UPD 13-10-22 09:25 OP:ep   STATUS:               ID:20130927184409 L   I
 OLDACT:UP  13-09-27 20:30 OP:stll STATUS:               ID:20130927183845     3
 2013-09-27-1838-45M.COL___247                                                 6
 STAT SP IPHASW D HRMM SECON CODA AMPLIT PERI AZIMU VELO AIN AR TRES W  DIS CAZ7
 BAR2 SZ EP       1844 28.24                             170    0.0410 23.2 191 
 BAR2 SZ ES       1844 41.94                             170   -1.0710 23.2 191 
 BAR2 SZ I        1844 44.86        23.3 0.16            175           23.2 191 
 BRR  HZ EP       1844 30.03                             151    0.2210 71.5 299 
 BRR  HN ES       1844 46.98                             151    1.1110 71.5 299 
 BRR  SZ I        1844 48.16        19.2 0.40            142           71.5 299 
 PAM  SZ IP     C 1844 31.19                             150    0.3310 77.4  39 
 PAM  SN ES       1844 47.98                             150    0.2310 77.4  39 
 PAM  SZ I        1844 50.16        31.2 0.44            141           77.4  39 
 RUS  HZ EP       1844 32.77                             143    0.3410  100 176 
 RUS  HN ES       1844 50.53                             143   -0.0110  100 176 
 RUS  SZ I        1844 51.91        15.7 0.26            144            100 176 
 PTB  HZ EP       1844 35.19                             131   -0.58 9  148 259 
 PTB  HN ES       1844 55.86                             131   -0.62 9  148 259 
 PTB  SZ I        1845  1.05         6.0 0.20            125            148 259 
 NOR  HZ EP       1844 44.03                             117   -0.62 8  235 235 
 NOR  HN ES       1845 11.89                             117   -0.40 8  235 235 
 NOR  SZ I        1845 17.82        10.7 0.14            113            235 235 
 SML  HZ EP       1844 44.75                             116   -0.82 8  244 335 
 SML  SZ I        1845 15.41        21.8 0.10            110            244 335 
 CHI  HZ EP       1844 46.52                             116   -0.09 8  249 195 
 CHI  HZ I        1844 48.08         5.3 0.18            113            249 195 
 CHI  HN ES       1845 15.85                             116    0.08 8  249 195 
 GUY2CHZ EP       1844 53.43                             111    0.84 7  301 235 
 GUY2CHN ES       1845 27.61                             111    1.19 7  301 235 
 GUY2CSZ I        1845 34.16         6.1 0.40                           301 235 
                                                                                
