 2010  427 1526 22.8 L   6.727 -73.022147.0  RSN  5 0.2 2.2LRSN                1
 GAP=273        0.43       4.5     7.5  4.8  0.3182E+01  0.9053E+01  0.9543E+01E
 Epicentro: ARATOCA - SANTANDER                                                3
 ACTION:UPD 10-08-24 10:01 OP:vdl  STATUS:               ID:20100427152636 L   I
 2010-04-27-1523-12S.COL___104                                                 6
 STAT SP IPHASW D HRMM SECON CODA AMPLIT PERI AZIMU VELO AIN AR TRES W  DIS CAZ7
 BAR2 SZ EP   1   1526 42.40                             170    -0.1 7   23 230 
 BAR2 SZ ES   1   1526 57.95                             170     0.0 7   23 230 
 BRR  HZ IP     D 1526 45.15                             148     0.110   87 299 
 BRR  HE ES   1   1527  2.29                             148    -0.1 7   87 299 
 BRR  HZ I        1527  6.39        26.2 0.50                            87 299 
 HEL  HZ EP   2   1527  3.77                             114    -0.5 4  284 258 
 HEL  HZ I        1527 43.02         6.8 0.26                           284 258 
 TOL  SZ EP   2   1527 12.08                             110     0.5 3  348 227 
 PRA  HZ EP   1   1527 16.21                             107    -0.1 4  392 212 
 PRA  HN ES   1   1527 58.13                             107     0.0 4  392 212 
 PRA  HZ I        1528  4.42         7.9 0.65                           392 212 
                                                                                
