 2017  327 1820 41.3 L   6.765 -73.126139.2  RSN  4 0.3 1.5LRSN                1
 GAP=141        0.75       3.9     3.8  6.7 -0.1625E+01  0.2812E+01  0.3597E+01E
 Epicentro: LOS SANTOS - SANTANDER                                             3
 ACTION:UPD 17-05-25 18:46 OP:jn   STATUS:               ID:20170327182041 L   I
 OLDACT:REG 17-03-27 22:01 OP:lv   STATUS:               ID:20170327181748     3
 2017-03-27-1818-00M.COL___363                                                 6
 STAT SP IPHASW D HRMM SECON CODA AMPLIT PERI AZIMU VELO AIN AR TRES W  DIS CAZ7
 BRR  HZ EP       1821  2.38                             150    0.3710 75.0 300 
 BRR  HN ES       1821 18.49                             150    0.3610 75.0 300 
 BRR  HZ I        1821 23.07         7.9 0.44            151           75.0 300 
 PAM  EZ EP       1821  2.77                             149   -0.1910 79.1  37 
 PAM  EN ES       1821 19.59                             149   -0.2410 79.1  37 
 PAM  EZ I        1821 21.66         5.5 0.52            153           79.1  37 
 RUS  HZ EP       1821  4.38                             144    0.2210 96.6 177 
 RUS  HN ES       1821 21.94                             144   -0.0110 96.6 177 
 RUS  HZ I        1821 23.85         2.8 0.38            148           96.6 177 
 PTB  HZ EP       1821  7.75                             130   -0.16 9  149 260 
 PTB  HE ES       1821 28.21                             130   -0.43 9  149 260 
 PTB  HZ I        1821 30.58         5.4 0.14            133            149 260 
                                                                                
