 2015  727 1744 23.6 L   6.762 -73.175140.6  RSN  4 0.2 1.4LRSN                1
 GAP=139        0.59       3.8     6.4  5.5 -0.1131E+02  0.1736E+02 -0.5135E+01E
 Epicentro: LOS SANTOS - SANTANDER                                             3
 ACTION:UPD 15-09-08 21:50 OP:cam  STATUS:               ID:20150727174423 L   I
 OLDACT:DUP 15-07-28 02:16 OP:stll STATUS:               ID:20150727173750d    3
 2015-07-27-1737-49M.COL___334                                                 6
 STAT SP IPHASW D HRMM SECON CODA AMPLIT PERI AZIMU VELO AIN AR TRES W  DIS CAZ7
 BAR2 EZ EP       1744 42.63                             172    0.0910 18.8 183 
 BAR2 EZ ES       1744 57.10                             172   -0.2010 18.8 183 
 BAR2 EZ I        1744 58.82         6.2 0.18            172           18.8 183 
 PAM  EZ EP       1744 45.76                             148    0.1410 82.7  39 
 PAM  EN ES       1745  2.78                             148   -0.0010 82.7  39 
 PAM  EZ I        1745  5.17         6.0 0.36            149           82.7  39 
 RUS  HZ EP       1744 46.20                             144   -0.3810 96.6 174 
 RUS  HN ES       1745  4.78                             144    0.2910 96.6 174 
 RUS  HZ I        1745  6.36         3.4 0.28            145           96.6 174 
 CPBEREZ EP       1744 49.90                             132    0.08 9  144 260 
                                                                                
