 2011 1127 1310 15.4 L   6.766 -73.095146.1  RSN  4 0.3 1.8LRSN                1
 GAP=145        0.68       4.9     7.3  7.2 -0.7730E+00 -0.3616E+01  0.1527E+01E
 Epicentro: LOS SANTOS - SANTANDER                                             3
 ACTION:UPD 12-07-13 16:12 OP:ep   STATUS:               ID:20111127131015 L   I
 2011-11-27-1307-53S.COL___160                                                 6
 STAT SP IPHASW D HRMM SECON CODA AMPLIT PERI AZIMU VELO AIN AR TRES W  DIS CAZ7
 BAR2 SZ IP       1310 34.84                             171   -0.1510 21.5 207 
 BAR2 SZ ES   1   1310 49.67                             171   -0.64 7 21.5 207 
 BAR2 SZ I        1310 51.56        17.3 0.26                          21.5 207 
 PAM  SZ EP   1   1310 37.72                             151    0.14 7 77.0  35 
 PAM  SE ES   1   1310 55.06                             151    0.14 7 77.0  35 
 PAM  SZ I        1310 56.93         9.3 0.24                          77.0  35 
 BRR  HZ EP   1   1310 36.81                             150   -0.12 7 77.9 299 
 BRR  HE ES   1   1310 54.09                             150    0.33 7 77.9 299 
 BRR  HZ I        1310 57.46        13.2 0.16                          77.9 299 
 RUS  HZ EP   1   1310 38.78                             145   -0.08 7 96.6 179 
 RUS  HE ES   1   1310 57.68                             145    0.49 7 96.6 179 
 RUS  HZ I        1310 59.16         8.8 0.17                          96.6 179 
                                                                                
