 2013  127 1306 44.2 L   6.776 -73.152145.9  RSN  9 0.4 1.9LRSN                1
 GAP=137        0.74       4.0     4.3  6.0  0.1558E+01  0.7446E+01  0.6329E+01E
 Epicentro: LOS SANTOS - SANTANDER                                             3
 ACTION:UPD 13-02-15 09:17 OP:ep   STATUS:               ID:20130127130644 L   I
 2013-01-27-1300-00M.COL___240                                                 6
 STAT SP IPHASW D HRMM SECON CODA AMPLIT PERI AZIMU VELO AIN AR TRES W  DIS CAZ7
 BAR2 SZ EP   1   13 7  3.67                             172   -0.11 7 20.6 189 
 BAR2 SZ ES   1   13 7 18.92                             172   -0.14 7 20.6 189 
 BAR2 SZ I        13 7 20.51        37.7 0.44            167           20.6 189 
 BRR  HZ EP   1   13 7  5.55                             152    0.17 7 71.9 301 
 BRR  HN ES   1   13 7 22.58                             152    0.66 7 71.9 301 
 BRR  HZ I        13 7 27.86        17.3 0.16            139           71.9 301 
 PAM  SZ EP   1   13 7  6.57                             150    0.01 7 79.9  39 
 PAM  SN ES   1   13 7 23.83                             150   -0.19 7 79.9  39 
 PAM  SZ I        13 7 25.89         9.8 0.56            143           79.9  39 
 RUS  HZ EP   1   13 7  7.60                             145   -0.16 7 98.0 176 
 RUS  HN ES   1   13 7 26.35                             145    0.20 7 98.0 176 
 RUS  HZ I        13 7 28.93        10.8 0.48            136           98.0 176 
 PTB  HZ EP   1   13 7 10.38                             132   -0.67 7  147 260 
 PTB  HN ES   1   13 7 31.45                             132   -0.56 7  147 260 
 PTB  HZ I        13 7 35.04        13.7 0.16            120            147 260 
 ZAR  HE ES   1   13 7 41.91                             122   -0.10 6  204 293 
 NOR  HZ EP   1   13 7 19.60                             119   -0.09 6  233 235 
 CHI  HZ EP   1   13 7 21.72                             117    0.13 6  246 195 
 CHI  HN ES   1   13 7 50.90                             117    0.13 6  246 195 
 CHI  HZ I        13 7 56.98         4.3 0.24            109            246 195 
 HEL  HZ EP   1   13 7 25.29                             115    1.04 6  271 256 
 HEL  HZ I        13 8  2.40         5.4 0.30            105            271 256 
                                                                                
