 2012  827 1146 10.3 L   6.677 -73.155146.0  RSN  4 0.3 1.8LRSN                1
 GAP=203        0.67       9.9     6.8  6.8  0.3242E+00  0.7961E+01  0.1313E+02E
 Epicentro: VILLANUEVA - SANTANDER                                             3
 ACTION:UPD 12-09-10 11:58 OP:ep   STATUS:               ID:20120827114610 L   I
 2012-08-27-1140-00M.COL___218                                                 6
 STAT SP IPHASW D HRMM SECON CODA AMPLIT PERI AZIMU VELO AIN AR TRES W  DIS CAZ7
 BAR2 SZ EP       1146 29.98                             176    0.1710 9.90 198 
 BAR2 SZ ES   1   1146 45.12                             176    0.13 7 9.90 198 
 BAR2 SZ I        1146 47.88        11.4 0.26                          9.90 198 
 GIR2 SZ EP       1146 30.42                             162   -0.0510 44.6 355 
 GIR2 SZ ES   2   1146 45.24                             162   -0.93 5 44.6 355 
 BRR  HZ EP       1146 32.02                             151    0.1210 77.8 308 
 BRR  HN ES   1   1146 49.08                             151    0.36 7 77.8 308 
 BRR  HZ I        1146 52.70        16.7 0.42                          77.8 308 
 PTB  HZ EP       1146 36.71                             133   -0.35 9  145 264 
 PTB  HN ES   2   1146 58.05                             133    0.15 5  145 264 
 PTB  HZ I        1147  5.16         5.8 0.42                           145 264 
                                                                                
