 2012  627 1205 14.9 L   6.787 -73.154144.1  RSN  7 0.4 1.9LRSN                1
 GAP=136        0.75       4.3     4.5  6.2 -0.1072E+01  0.4307E+01  0.2518E+01E
 Epicentro: LOS SANTOS - SANTANDER                                             3
 ACTION:UPD 12-08-06 17:53 OP:ep   STATUS:               ID:20120627120514 L   I
 2012-06-27-1200-00M.COL___201                                                 6
 STAT SP IPHASW D HRMM SECON CODA AMPLIT PERI AZIMU VELO AIN AR TRES W  DIS CAZ7
 BAR2 SZ EP       12 5 34.34                             171    0.0710 21.7 188 
 BAR2 SZ I        12 5 34.62        19.9 0.34                          21.7 188 
 BAR2 SZ ES   1   12 5 49.36                             171   -0.05 7 21.7 188 
 BRR  HZ IP     C 12 5 36.15                             152    0.3110 71.1 300 
 BRR  HN ES   1   12 5 52.75                             152    0.56 7 71.1 300 
 BRR  HZ I        12 5 56.41        21.2 0.12                          71.1 300 
 PAM  SZ EP       12 5 37.29                             150    0.2710 79.1  39 
 PAM  SN ES   1   12 5 53.78                             150   -0.51 7 79.1  39 
 PAM  SZ I        12 5 56.12        15.4 0.42                          79.1  39 
 RUS  HZ EP       12 5 38.37                             144    0.0110 99.2 175 
 RUS  HN ES   1   12 5 56.53                             144   -0.15 7 99.2 175 
 RUS  HZ I        12 5 58.48         8.5 0.30                          99.2 175 
 PTB  HZ EP       12 5 40.96                             132   -0.64 9  147 259 
 PTB  HN ES   1   12 6  2.17                             132   -0.27 7  147 259 
 PTB  HZ I        12 6  4.55         7.3 0.12                           147 259 
 ZAR  HZ EP   2   12 5 47.00                             122   -0.18 4  204 293 
 ZAR  HN ES   3   12 6 12.16                             122   -0.22 2  204 293 
 ZAR  HZ I        12 6 18.99         8.8 0.14                           204 293 
 CHI  HZ EP   2   12 5 53.15                             117    0.85 4  247 195 
 CHI  HN ES   2   12 6 21.67                             117    0.18 4  247 195 
                                                                                
