 2010  627 1233 59.1 L   6.732 -73.060139.6  RSN  9 0.8 1.7LRSN                1
 GAP=167        1.27       6.3    11.2 10.4 -0.1528E+02 -0.2271E+02 -0.1417E+01E
 Epicentro: JORDAN - SANTANDER                                                 3
 ACTION:UP  10-08-24 10:13 OP:vdl  STATUS:               ID:20100627123359 L   I
 2010-06-27-1231-13S.COL___118                                                 6
 STAT SP IPHASW D HRMM SECON CODA AMPLIT PERI AZIMU VELO SNR AR TRES W  DIS CAZ7
 BAR2 SZ IP       1234 17.62                             172    -0.310   21 221 
 BAR2 SZ ES   1   1234 32.66                             172     0.1 7   21 221 
 BRR  HZ EP   1   1234 19.61                             148    -0.7 7   83 300 
 BRR  HE ES       1234 36.73                             148    -0.110   83 300 
 BRR  HZ I        1234 37.79         7.7 0.24                            83 300 
 RUS  HZ EP   1   1234 21.44                             145    -0.2 7   93 182 
 RUS  HE ES   1   1234 39.78                             145     0.5 7   93 182 
 RUS  HZ I        1234 41.05         5.9 0.30                            93 182 
 BRI  SZ IP       1234 22.40                             139    -0.310  113  15 
 BRI  SZ ES   1   1234 41.55                             139     0.4 7  113  15 
 GUE  SZ EP   1   1234 23.86                             137     0.2 7  122   7 
 GRA  SZ EP   2   1234 24.55                             135     0.4 5  131  13 
 GRA  SZ ES   2   1234 44.84                             135     1.1 5  131  13 
 OCA  SZ EP   2   1234 27.01                             127    -0.7 5  169 350 
 OCA  SZ I        1234 51.61         5.7 0.20                           169 350 
 HEL  HZ EP   2   1234 43.00                             113     3.2 4  280 258 
 PRA  HZ EP   2   1234 51.28                             106    -0.9 3  390 211 
 PRA  HN ES   2   1235 33.28                             106    -0.3 3  390 211 
 PRA  HZ I        1235 40.05         1.8 0.17                           390 211 
                                                                                
