 2013  627 1500 59.8 L   6.746 -73.092148.7  RSN  6 0.2 1.8LRSN                1
 GAP=239        0.57       3.8     3.8  5.5  0.6007E+01  0.5357E+01  0.5626E+00E
 Epicentro: JORDAN - SANTANDER                                                 3
 ACTION:UPD 14-01-08 09:57 OP:ep   STATUS:               ID:20130627150059 L   I
 OLDACT:REG 13-06-27 18:00 OP:carl STATUS:               ID:20130627145959     3
 2013-06-27-1459-59M.COL___267                                                 6
 STAT SP IPHASW D HRMM SECON CODA AMPLIT PERI AZIMU VELO AIN AR TRES W  DIS CAZ7
 BAR2 SZ EP   1   15 1 20.09                             172    0.34 7 19.7 210 
 BAR2 SZ ES   1   15 1 35.07                             172   -0.22 7 19.7 210 
 BAR2 SZ I        15 1 35.96         8.9 0.42            173           19.7 210 
 BRR  HZ EP   1   15 1 21.75                             150   -0.02 7 79.3 300 
 BRR  HN ES   1   15 1 38.88                             150   -0.00 7 79.3 300 
 BRR  HN I        15 1 44.14        16.7 0.16            149           79.3 300 
 RUS  HZ EP       15 1 23.15                             146   -0.3010 94.4 179 
 RUS  HN ES       15 1 42.11                             146    0.2510 94.4 179 
 RUS  HZ I        15 1 44.20         4.8 0.40            151           94.4 179 
 PTB  HZ EP   1   15 1 27.33                             132   -0.15 7  153 261 
 PTB  HN ES   1   15 1 48.62                             132   -0.42 7  153 261 
 PTB  HZ I        15 1 51.13         5.8 0.16            133            153 261 
 ZAR  HE ES       15 1 59.59                             122    0.24 8  212 293 
 ZAR  HE I        15 2  6.24        17.5 0.48            123            212 293 
 NOR  HN ES       15 2  4.17                             119    0.15 8  236 236 
                                                                                
