 2015  827 1454 19.2 L   6.762 -73.144140.9  RSN 13 0.5 2.1LRSN                1
 GAP=138        1.05       3.0     4.2  5.6 -0.1249E+01  0.9334E+01  0.3247E+01E
 Epicentro: LOS SANTOS - SANTANDER                                             3
 ACTION:UPD 15-09-15 23:05 OP:cam  STATUS:               ID:20150827145419 L   I
 OLDACT:UP  15-09-01 11:27 OP:ar   STATUS:               ID:20150827145419 L   3
 OLDACT:REG 15-08-27 21:43 OP:ak   STATUS:               ID:20150827144747     3
 2015-08-27-1447-47M.COL___343                                                 6
 STAT SP IPHASW D HRMM SECON CODA AMPLIT PERI AZIMU VELO AIN AR TRES W  DIS CAZ7
 BAR2 EZ EP       1454 38.19                             172    0.0410 19.2 193 
 BAR2 EZ ES       1454 52.84                             172   -0.1110 19.2 193 
 BAR2 EZ I        1454 55.11        23.1 0.16            168           19.2 193 
 BRR  HZ EP       1454 40.21                             151    0.2710 73.4 301 
 BRR  HN ES       1454 57.02                             151    0.8910 73.4 301 
 PAM  EZ EP       1454 40.91                             149   -0.1810 80.6  38 
 PAM  EN ES       1454 58.50                             149    0.3310 80.6  38 
 RUS  HZ EP       1454 42.18                             144    0.0310 96.3 176 
 RUS  HN ES       1454 59.44                             144   -0.6310 96.3 176 
 RUS  HZ I        1455  1.67        14.6 0.26            144           96.3 176 
 SPBC HZ EP       1454 46.99                             128   -0.02 9  160 220 
 SPBC HN ES       1455  8.58                             128   -0.14 9  160 220 
 SPBC HZ I        1455 11.30        20.7 0.15            128            160 220 
 ZAR  HZ EP       1454 52.03                             121    0.53 8  206 293 
 ZAR  HN ES       1455 15.88                             121   -0.83 8  206 293 
 ZAR  HZ I        1455 22.38        20.1 0.56            121            206 293 
 NOR  HZ EP       1454 54.02                             118   -0.37 8  232 235 
 NOR  HN ES       1455 21.71                             118   -0.14 8  232 235 
 NOR  HZ I        1455 26.36        10.9 0.16            118            232 235 
 CHI  HZ EP       1454 55.99                             116   -0.19 8  245 195 
 CHI  HN ES       1455 24.89                             116   -0.14 8  245 195 
 CHI  HZ I        1455 31.35         7.8 0.26            117            245 195 
 SML  HN ES       1455 23.77                             116   -0.89 8  248 336 
 HEL  HZ EP   1   1454 59.13                             114    0.07 6  271 257 
 HEL  HN ES   1   1455 29.44                             114   -0.72 6  271 257 
 HEL  HZ I        1455 36.32         7.3 0.43            114            271 257 
 GUY2CHZ EP       1455  3.18                             112    0.87 7  299 235 
 GUY2CHN ES       1455 36.38                             112    0.43 7  299 235 
 GUY2CHZ I        1455 46.90         6.2 0.16                           299 235 
 TOL  SZ EP       1455  7.20                             109    0.28 7  341 225 
 TOL  SN ES       1455 44.68                             109    0.53 7  341 225 
 TOL  SZ I        1455 51.68         4.4 0.29            109            341 225 
 PRA  HZ EP   1   1455 11.71                             106   -0.41 4  388 210 
 PRA  HN ES       1455 53.66                             106    0.25 6  388 210 
 PRA  HZ I        1455 57.31         6.4 0.26            107            388 210 
                                                                                
