 2012  127 1114 42.9 L   6.822 -73.126134.3  RSN  6 0.5 1.2LRSN                1
 GAP=138        0.80       8.6     9.5 13.7 -0.7396E+01 -0.6496E+02  0.5242E+02E
 Epicentro: LOS SANTOS - SANTANDER                                             3
 ACTION:UP  12-02-03 08:21 OP:REBC STATUS:               ID:20120127111441 L   I
 2012-01-27-1110-00M.COL___188                                                 6
 STAT SP IPHASW D HRMM SECON CODA AMPLIT PERI AZIMU VELO SNR AR TRES W  DIS CAZ7
 BAR2 SZ EP   1   1115  0.94                             168    -0.3 7   26 194 
 GIR2 SZ EP   2   1115  1.08                             167    -0.1 5   29 345 
 GIR2 SZ ES   2   1115 14.85                             167    -0.6 5   29 345 
 BRR  HZ EP       1115  2.84                             150     0.010   72 296 
 BRR  HN ES   1   1115 18.96                             150     0.5 7   72 296 
 BRR  HZ I        1115 26.40         6.5 0.40                            72 296 
 PAM  SZ EP       1115  3.76                             150     0.010   74  39 
 RUS  HZ EP       1115  5.92                             141     0.210  103 177 
 RUS  HZ I        1115  6.11         1.4 0.16                           103 177 
 PTB  HN ES   3   1115 27.60                             129    -2.1 2  150 258 
                                                                                
