 2016  527 1218  3.3 L   6.802 -73.151146.7  RSN  8 0.3 1.8LRSN                1
 GAP=136        0.71       3.0     3.6  4.7 -0.2925E+01  0.1752E+01  0.4343E+01E
 Epicentro: LOS SANTOS - SANTANDER                                             3
 ACTION:UPD 16-08-18 17:49 OP:cam  STATUS:               ID:20160527121803 L   I
 OLDACT:REG 16-05-27 20:25 OP:ar   STATUS:               ID:20160527120743     3
 2016-05-27-1207-43M.COL___310                                                 6
 STAT SP IPHASW D HRMM SECON CODA AMPLIT PERI AZIMU VELO AIN AR TRES W  DIS CAZ7
 BAR2 EZ EP       1218 22.91                             170   -0.1610 23.4 188 
 BAR2 EZ ES       1218 38.06                             170   -0.4110 23.4 188 
 BAR2 EZ I        1218 40.61        16.6 0.26            168           23.4 188 
 BRR  HZ EP   2   1218 24.88                             153    0.34 5 70.6 299 
 BRR  HN ES       1218 41.46                             153    0.3810 70.6 299 
 BRR  HZ I        1218 43.77        16.7 0.32            153           70.6 299 
 PAM  EZ EP       1218 25.85                             151    0.2010 77.6  40 
 PAM  EN ES       1218 43.00                             151   -0.0610 77.6  40 
 PAM  EZ I        1218 45.31         8.2 0.66            155           77.6  40 
 RUS  HZ EP       1218 27.21                             144    0.0310  101 176 
 RUS  HN ES       1218 46.12                             144    0.3310  101 176 
 RUS  HZ I        1218 46.83         7.8 0.28            144            101 176 
 PTB  HZ EP       1218 29.71                             132   -0.61 9  147 259 
 PTB  HE ES       1218 51.57                             132    0.20 9  147 259 
 PTB  HZ I        1218 54.69         6.8 0.16            132            147 259 
 SPBC HZ EP       1218 31.87                             129   -0.01 9  163 219 
 SPBC HN ES       1218 53.79                             129   -0.35 9  163 219 
 SPBC HZ I        1218 58.81        10.4 0.19            129            163 219 
 CHI  HZ EP   2   1218 41.35                             117    0.27 4  249 195 
 CHI  HN ES       1219 10.66                             117    0.13 8  249 195 
 CHI  HZ I        1219 16.58         2.0 0.14            118            249 195 
 PRA  HZ EP   2   1218 56.97                             107    0.10 3  392 209 
 PRA  HN ES       1219 39.02                             107    0.39 6  392 209 
 PRA  HZ I        1219 47.34         2.9 0.62            107            392 209 
                                                                                
