 2015  927 1449 48.5 L   6.770 -73.086158.1  RSN  5 0.3 1.9LRSN                1
 GAP=234        0.45       3.2     5.7  5.4  0.4648E+01  0.2226E+01 -0.5169E+01E
 Epicentro: LOS SANTOS - SANTANDER                                             3
 ACTION:UPD 15-10-28 16:28 OP:cam  STATUS:               ID:20150927144948 L   I
 OLDACT:REG 15-09-27 21:19 OP:ar   STATUS:               ID:20150927144748     3
 2015-09-27-1447-48M.COL___352                                                 6
 STAT SP IPHASW D HRMM SECON CODA AMPLIT PERI AZIMU VELO AIN AR TRES W  DIS CAZ7
 BAR2 EZ EP       1450  9.57                             172    0.0110 22.4 208 
 BAR2 EZ ES   2   1450 25.70                             172   -0.32 5 22.4 208 
 BAR2 EZ I        1450 27.48         6.5 0.22            166           22.4 208 
 BRR  HZ EP   2   1450 11.79                             152    0.43 5 78.6 298 
 BRR  HN ES   2   1450 29.72                             152    0.50 5 78.6 298 
 BRR  HZ I        1451  1.37        15.1 0.42            150           78.6 298 
 SPBC HZ EP   2   1450 18.30                             131    0.20 5  165 221 
 SPBC HN ES   2   1450 40.93                             131   -0.28 5  165 221 
 SPBC HZ I        1450 44.03        10.1 0.10            141            165 221 
 ZAR  HZ EP       1450 22.33                             124   -0.15 8  211 292 
 ZAR  HE ES   2   1450 49.12                             124    0.11 4  211 292 
 ZAR  HZ I        1450 54.32         6.5 0.44            130            211 292 
 SML  HZ EP       1450 26.56                             119    0.13 8  249 334 
 SML  HN ES       1450 55.81                             119   -0.23 8  249 334 
 SML  HZ I        1450 59.74         7.4 0.24            127            249 334 
                                                                                
