 2012  527 1451 58.7 L   6.606 -73.156163.8  RSN 14 0.5 2.8LRSN                1
 GAP=142        0.90       3.6     5.0  6.2 -0.2942E+01  0.8397E+01  0.3290E+01E
 Epicentro: SAN GIL - SANTANDER                                                3
 ACTION:UP  12-07-05 12:08 OP:pat  STATUS:               ID:20120527145158 L   I
 2012-05-27-1450-00M.COL___197                                                 6
 STAT SP IPHASW D HRMM SECON CODA AMPLIT PERI AZIMU VELO SNR AR TRES W  DIS CAZ7
 BAR2 SZ IP       1452 20.40                             179     0.110    3 242 
 BAR2 SZ ES   1   1452 37.52                             179     0.3 7    3 242 
 BAR2 SZ I        1452 38.46       182.5 0.41                             3 242 
 RUS  HZ EP       1452 23.14                             153     0.110   79 174 
 RUS  HN ES   1   1452 41.68                             153    -0.3 7   79 174 
 RUS  HZ I        1452 43.52       157.2 0.22                            79 174 
 PAM  SZ EP   1   1452 24.12                             148     0.1 7   96  32 
 PAM  SN ES   1   1452 43.84                             148     0.2 7   96  32 
 PTB  HZ EP   1   1452 26.48                             137    -0.4 7  144 267 
 PTB  HN ES   1   1452 48.64                             137    -0.2 7  144 267 
 PTB  HZ I        1452 52.59        43.0 0.19                           144 267 
 OCA  HZ EP   1   1452 30.42                             130     0.0 7  181 354 
 OCA  HN ES   1   1452 54.90                             130    -0.3 7  181 354 
 ZAR  HZ EP   1   1452 33.01                             125    -0.2 6  212 298 
 ZAR  HN ES   1   1453  0.13                             125     0.0 6  212 298 
 NOR  SZ EP   1   1452 33.97                             124    -0.3 6  222 239 
 NOR  SN ES   1   1453  1.57                             124    -0.4 6  222 239 
 CHI  HZ EP   1   1452 35.21                             123    -0.1 6  228 196 
 CHI  HZ I        1452 35.93        28.6 0.37                           228 196 
 ROSC BZ EP   1   1452 36.93                             122     1.0 6  234 213 
 HEL  HZ EP   1   1452 40.32                             119     1.0 6  266 260 
 HEL  HZ I        1453 17.07        33.2 0.33                           266 260 
 VIL  SZ EP   1   1452 39.71                             117    -1.0 6  282 192 
 VIL  SN ES   2   1453 12.65                             117    -0.8 4  282 192 
 VIL  SZ I        1453 16.95        21.6 0.52                           282 192 
 RREF HZ EP   1   1452 44.91                             115     0.8 5  307 232 
 RREF HZ I        1453 30.53        29.5 0.47                           307 232 
 COD  HZ EP   1   1452 49.85                             111    -0.4 5  370 355 
 COD  HZ I        1453 37.88        15.6 0.68                           370 355 
 PRA  HZ EP   1   1452 50.43                             110    -0.3 5  373 211 
 PRA  HE ES   1   1453 31.87                             110     0.6 5  373 211 
                                                                                
