 2016 1127 1744 53.3 L   6.535 -73.492102.0  RSN  5 0.2 1.5LRSN                1
 GAP=191        0.83       7.7     3.7  6.1 -0.1384E+02 -0.6705E+00  0.1023E+02E
 Epicentro: EL CARMEN - SANTANDER                                              3
 ACTION:UPD 17-10-26 21:12 OP:lp   STATUS:               ID:20161127174453 L   I
 OLDACT:UP  16-11-28 05:55 OP:ar   STATUS:               ID:20161127173644     3
 OLDACT:REG 16-11-27 21:12 OP:ar   STATUS:               ID:20161127173644     3
 2016-11-27-1737-00M.COL___345                                                 6
 STAT SP IPHASW D HRMM SECON CODA AMPLIT PERI AZIMU VELO AIN AR TRES W  DIS CAZ7
 BAR2 EZ EP   9   1745 10.06                             161    1.94 0 34.8  80 
 BAR2 EZ ES       1745 22.43                             157    0.8210 34.8  80 
 BAR2 EZ I        1745 24.15         8.5 0.22            158           34.8  80 
 BRR  HZ EP       1745  9.83                             145    0.1410 67.8 339 
 BRR  HN ES       1745 22.65                             145    0.1810 67.8 339 
 BRR  HZ I        1745 24.55        12.6 0.44            146           67.8 339 
 PTB  HZ EP       1745 13.01                             131    0.0210  107 270 
 PTB  HN ES       1745 28.24                             131   -0.1010  107 270 
 PAM  EZ EP       1745 15.34                             127   -0.0410  125  45 
 PAM  EN ES       1745 32.34                             127   -0.2610  125  45 
 PAM  EZ I        1745 36.25         3.9 0.48            125            125  45 
 ZAR  HZ EP       1745 21.31                             115    0.20 9  184 305 
 ZAR  HZ I        1745 30.50         4.7 0.10            114            184 305 
 ZAR  HN ES       1745 42.67                             115   -0.13 9  184 305 
                                                                                
