 2011  427 1955 53.1 L   6.814 -73.116141.9  RSN 13 0.5 2.4LRSN                1
 GAP=116        1.13       3.9     5.2  7.3 -0.6296E+01  0.8917E+01  0.5716E+01E
 Epicentro: LOS SANTOS - SANTANDER                                             3
 ACTION:UP  11-06-22 15:33 OP:REBC STATUS:               ID:20110427195553 L   I
 2011-04-27-1953-39S.COL___137                                                 6
 STAT SP IPHASW D HRMM SECON CODA AMPLIT PERI AZIMU VELO SNR AR TRES W  DIS CAZ7
 BAR2 SZ EP       1956 12.14                             169    -0.210   26 197 
 BAR2 SZ ES   1   1956 27.02                             169    -0.3 7   26 197 
 BAR2 SZ I        1956 28.80        52.7 0.03                            26 197 
 BRR  HZ EP       1956 13.86                             151    -0.110   73 296 
 BRR  HZ I        1956 15.44       123.8 0.18                            73 296 
 BRR  HE ES   1   1956 30.69                             151     0.4 7   73 296 
 PAM  SZ EP       1956 14.97                             151     0.210   74  38 
 PAM  SN ES   1   1956 31.52                             151    -0.1 7   74  38 
 PAM  SZ I        1956 33.38        18.3 0.13                            74  38 
 RUS  HZ EP       1956 16.22                             143    -0.410  102 178 
 RUS  HN ES   1   1956 34.54                             143    -0.4 7  102 178 
 RUS  HZ I        1956 37.23        41.0 0.29                           102 178 
 BRI  SZ EP   1   1956 16.56                             141     0.1 7  106  19 
 BRI  SZ ES   1   1956 35.65                             141     1.0 7  106  19 
 BRI  SZ I        1956 42.47        19.8 0.50                           106  19 
 GRA  SZ EP       1956 17.76                             137    -0.110  123  16 
 GRA  SZ ES   1   1956 36.31                             137    -0.8 7  123  16 
 GRA  SZ I        1956 40.07        25.1 0.41                           123  16 
 OCA  SZ EP   1   1956 20.64                             129    -0.4 7  159 352 
 OCA  SZ I        1956 46.56        46.9 0.24                           159 352 
 YOP  SZ EP       1956 23.10                             125     0.2 9  179 154 
 YOP  SE ES   1   1956 46.59                             125     0.5 7  179 154 
 YOP  SZ I        1956 49.24        35.0 0.41                           179 154 
 NOR  SZ EP       1956 28.90                             117    -0.1 8  238 235 
 NOR  SN ES   1   1956 56.30                             117    -0.7 6  238 235 
 NOR  SZ I        1957  1.15         4.3 0.34                           238 235 
 ROSC BN ES   1   1957  1.99                             115     0.8 6  256 211 
 HEL  HZ EP   1   1956 33.58                             114     0.0 6  276 256 
 HEL  HN ES   1   1957  5.13                             114     0.1 6  276 256 
 HEL  HZ I        1957 10.53        24.2 0.49                           276 256 
 RREF HZ EP   1   1956 40.50                             110     1.0 5  325 230 
 RREF HN ES   1   1957 16.69                             110     1.0 5  325 230 
 RREF HZ I        1957 23.99        17.3 0.29                           325 230 
 PRA  HZ EP   1   1956 46.35                             106    -0.5 4  395 210 
 PRA  HN ES   1   1957 27.89                             106    -0.9 4  395 210 
 PRA  HZ I        1957 35.07        43.9 0.27                           395 210 
                                                                                
