 2015  127 1359 11.2 L   6.781 -73.118150.8  RSN 24 0.4 2.8LRSN                1
 GAP= 68        0.96       2.3     2.9  4.5 -0.4965E+00  0.4270E+01  0.1654E+01E
 Epicentro: LOS SANTOS - SANTANDER                                             3
 ACTION:UPD 15-03-02 15:42 OP:nd   STATUS:               ID:20150127135911 L   I
 OLDACT:UP  15-01-27 22:37 OP:spq  STATUS:               ID:20150127135746     3
 OLDACT:REG 15-01-27 19:30 OP:spq  STATUS:               ID:20150127135746     3
 2015-01-27-1357-46M.COL___274                                                 6
 STAT SP IPHASW D HRMM SECON CODA AMPLIT PERI AZIMU VELO AIN AR TRES W  DIS CAZ7
 BAR2 EZ IP     D 1359 31.21                             171   -0.2110 22.1 199 
 BAR2 EZ ES   1   1359 46.49                             171   -0.69 7 22.1 199 
 BAR2 EZ I        1359 48.98       143.8 0.36            168           22.1 199 
 BRR  HZ EP     C 1359 33.10                             152   -0.0010 74.8 299 
 BRR  HE ES       1359 50.50                             152    0.3110 74.8 299 
 BRR  HZ I        1359 54.42       126.7 0.14            151           74.8 299 
 PAM  SZ IP     C 1359 33.97                             152    0.0310 77.1  37 
 PAM  SN ES       1359 51.49                             152   -0.1910 77.1  37 
 PAM  SZ I        1359 53.46        77.1 0.56            149           77.1  37 
 RUS  HZ EP       1359 34.98                             145   -0.3210 98.3 178 
 RUS  HE ES       1359 54.12                             145    0.0310 98.3 178 
 RUS  HZ I        1359 55.53        47.4 0.18            140           98.3 178 
 TAM  HZ EP       1359 39.34                             132    0.37 9  152 105 
 TAM  HZ I        14 0  0.19        50.8 0.40            127            152 105 
 TAM  HN ES       14 0  1.13                             132    0.50 9  152 105 
 OCA  HZ EP       1359 39.46                             130   -0.68 9  163 352 
 OCA  HN ES       14 0  3.31                             130    0.61 9  163 352 
 OCA  HZ I        14 0  8.33        70.2 0.36            127            163 352 
 SPBC HZ EP       1359 40.20                             130    0.07 9  164 220 
 SPBC HN ES       14 0  2.43                             130   -0.25 9  164 220 
 SPBC HZ I        14 0  8.63       132.0 0.24            126            164 220 
 ZAR  HZ EP       1359 43.79                             123   -0.56 8  208 292 
 ZAR  HN ES       14 0 10.87                             123    0.67 8  208 292 
 ZAR  HZ I        14 0 16.60        67.1 0.32            120            208 292 
 NOR  HZ EP       1359 46.83                             119   -0.54 8  236 235 
 NOR  HN ES       14 0 15.53                             119   -0.04 8  236 235 
 NOR  HZ I        14 0 19.35        67.2 0.20            116            236 235 
 CHI  HZ EP       1359 49.19                             118    0.13 8  247 196 
 CHI  HN ES       14 0 18.71                             118    0.12 8  247 196 
 CHI  HZ I        14 0 26.29        32.4 0.44            114            247 196 
 SML  HZ EP       1359 47.78                             118   -0.68 8  247 335 
 SML  HN ES       14 0 17.62                             118    0.11 8  247 335 
 SML  HZ I        14 0 18.24        78.5 0.24            115            247 335 
 ROSC BZ EP   4   1359 50.68                             118    1.10 0  253 212 
 ROSC BE ES   4   14 0 21.19                             118    1.67 0  253 212 
 ROSC BZ I        14 0 27.06        80.2 0.55            114            253 212 
 HEL  HZ EP       1359 52.29                             116    0.34 8  275 256 
 HEL  HN ES   4   14 0 25.46                             116    1.74 0  275 256 
 HEL  HZ I        14 0 29.69        33.6 0.32            112            275 256 
 GUY2CHZ EP       1359 55.40                             113    0.21 7  302 235 
 GUY2CHN ES   4   14 0 32.25                             113    2.74 0  302 235 
 GUY2CHZ I        14 0 37.79        42.8 0.28                           302 235 
 PTGC HZ EP   1   1359 54.08                             113   -0.87 5  306 159 
 PTGC HE ES   4   14 0 27.43                             113   -1.64 0  306 159 
 PTGC HZ I        14 0 29.31        28.4 0.60            109            306 159 
 RREF HZ EP       1359 58.25                             112    0.57 7  323 230 
 RREF HE ES   4   14 0 37.26                             112    3.33 0  323 230 
 RREF HZ I        14 0 43.72        48.7 0.40            108            323 230 
 CBOC HZ EP       1359 59.47                             111    0.88 7  336 253 
 CBOC HE ES       14 0 35.00                             111   -0.55 7  336 253 
 CBOC HZ I        14 0 41.88         8.8 0.18            107            336 253 
 DBB  SZ EP       1359 58.67                             110   -0.58 7  343 275 
 DBB  SZ ES   4   14 0 35.06                             110   -1.67 0  343 275 
 TOL  SZ EP       14 0  0.31                             110    0.57 7  344 225 
 TOL  SN ES       14 0 37.39                             110   -0.21 7  344 225 
 TOL  SZ I        14 0 43.33        32.7 0.30            107            344 225 
 MON  HZ EP   4   1359 58.36                             109   -2.47 0  357 308 
 MON  HN ES   4   14 0 37.35                             109   -2.18 0  357 308 
 MON  HZ I        14 0 39.32         9.7 0.22            106            357 308 
 ANIL HZ EP   4   14 0  2.63                             109    1.35 0  358 225 
 ANIL HE ES   4   14 0 42.33                             109    1.99 0  358 225 
 ANIL HZ I        14 0 45.14         9.6 0.30            106            358 225 
 ARGC HZ EP   4   14 0  3.30                             109    1.90 0  362 340 
 ARGC HE ES   4   14 0 41.99                             109    1.44 0  362 340 
 ARGC HZ I        14 0 50.18        27.8 0.34            106            362 340 
 ORTC HZ EP       14 0  5.40                             107    0.09 6  396 217 
 ORTC HE ES       14 0 48.16                             107    0.64 6  396 217 
 ORTC HZ I        14 0 54.78        31.1 0.36            104            396 217 
 PAL  HZ EP   1   14 0  7.26                             107    0.55 4  407 240 
 SMAR HZ EP   4   14 0 16.56                             103   -0.97 0  500 346 
 SMAR HE ES   4   14 1  4.44                             103   -4.83 0  500 346 
                                                                                
