 2017  327 1141 31.0 L   6.709 -73.187133.6  RSN  4 0.3 1.0LRSN                1
 GAP=140        0.89       8.2     4.8  8.6  0.3064E+01  0.4394E+01 -0.1193E+02E
 Epicentro: VILLANUEVA - SANTANDER                                             3
 ACTION:UPD 17-05-25 18:45 OP:jn   STATUS:               ID:20170327114131 L   I
 OLDACT:REG 17-03-27 21:33 OP:lv   STATUS:               ID:20170327113745     3
 2017-03-27-1138-00M.COL___348                                                 6
 STAT SP IPHASW D HRMM SECON CODA AMPLIT PERI AZIMU VELO AIN AR TRES W  DIS CAZ7
 BAR2 EZ EP       1141 49.48                             174    0.5210 12.9 178 
 BAR2 EZ ES       1142  2.62                             174   -0.3710 12.9 178 
 BAR2 EZ I        1142  5.36         3.3 0.16            174           12.9 178 
 BRR  HN ES       1142  6.71                             150    0.2310 72.8 307 
 PAM  EZ EP       1141 52.23                             145   -0.4010 88.1  38 
 PAM  EN ES       1142  9.68                             145    0.1610 88.1  38 
 PAM  EZ I        1142 11.63         1.8 0.20            146           88.1  38 
 ZAR  HN ES       1142 27.15                             120   -0.19 9  204 295 
                                                                                
