 2015  727 1146 31.5 L   6.798 -73.178139.8  RSN  7 0.3 1.9LRSN                1
 GAP=241        0.74       3.6     4.2  5.3  0.3470E+01  0.1146E+02  0.3068E+01E
 Epicentro: LOS SANTOS - SANTANDER                                             3
 ACTION:UPD 15-09-08 21:50 OP:cam  STATUS:               ID:20150727114631 L   I
 OLDACT:REG 15-07-27 22:54 OP:stll STATUS:               ID:20150727113749     3
 2015-07-27-1137-49M.COL___328                                                 6
 STAT SP IPHASW D HRMM SECON CODA AMPLIT PERI AZIMU VELO AIN AR TRES W  DIS CAZ7
 BAR2 EZ EP       1146 50.25                             170   -0.1210 22.8 181 
 BAR2 EZ ES       1147  5.08                             170   -0.0310 22.8 181 
 BAR2 EZ I        1147  7.13        15.0 0.34            166           22.8 181 
 RUS  HZ EP       1146 54.50                             142   -0.1410  101 174 
 RUS  HN ES       1147 13.01                             142    0.2910  101 174 
 RUS  HZ I        1147 15.53        11.9 0.52            142            101 174 
 ZAR  HZ EP       1147  3.14                             121   -0.06 9  201 293 
 ZAR  HN ES       1147 27.82                             121   -0.13 9  201 293 
 ZAR  HZ I        1147 30.43         9.3 0.32            123            201 293 
 NOR  HZ EP       1147  6.43                             117   -0.10 8  232 234 
 NOR  HE ES       1147 34.40                             117    0.52 8  232 234 
 NOR  HZ I        1147 36.58         6.7 0.24            118            232 234 
 CHI  HZ EP       1147  8.59                             116   -0.13 8  248 194 
 CHI  HN ES       1147 37.34                             116   -0.43 8  248 194 
 CHI  HZ I        1147 43.60         4.6 0.24            117            248 194 
 GUY2CHZ EP       1147 15.21                             111    0.75 7  298 234 
 GUY2CHN ES       1147 47.52                             111   -0.48 7  298 234 
 GUY2CHZ I        1147 55.61         5.0 0.34                           298 234 
 TOL  SZ EP       1147 19.66                             108    0.48 7  341 224 
 TOL  SN ES       1147 56.05                             108   -0.35 7  341 224 
 TOL  SZ I        1148  4.73         2.7 0.62            109            341 224 
                                                                                
