 2013  127 1805 17.6 L   6.109 -73.062  4.0  RSN  4 0.4 1.7LRSN                1
 GAP=169        0.75       2.0     3.9  6.5 -0.5279E+00  0.4714E+01 -0.2465E+01E
 Epicentro: ENCINO - SANTANDER                                                 3
 ACTION:UPD 13-02-15 09:17 OP:ep   STATUS:               ID:20130127180517 L   I
 2013-01-27-1800-00M.COL___241                                                 6
 STAT SP IPHASW D HRMM SECON CODA AMPLIT PERI AZIMU VELO AIN AR TRES W  DIS CAZ7
 RUS  HZ EP     D 18 5 22.46                              47    0.0810 24.0 186 
 RUS  HN ES   1   18 5 25.70                              47   -0.38 7 24.0 186 
 BAR2 SZ EP   1   18 5 26.76                              47   -0.07 7 55.1 346 
 BAR2 SZ ES   1   18 5 33.54                              47   -0.45 7 55.1 346 
 BAR2 SZ I        18 5 34.06        63.7 0.22             47           55.1 346 
 PAM  SZ EP   1   18 5 40.98                              47    0.75 7  142  16 
 PAM  SN ES   1   18 5 57.58                              47   -0.28 7  142  16 
 PAM  SZ I        18 6  0.66         7.5 0.28             47            142  16 
 PTB  HZ EP   1   18 5 43.14                              47    0.42 7  161 287 
 PTB  HN ES   1   18 6  2.28                              47    0.00 7  161 287 
                                                                                
