 2013  127 1627 51.5 L   6.741 -73.147147.9  RSN  5 0.4 1.6LRSN                1
 GAP=139        0.82       5.9     5.7  8.0 -0.3102E+01  0.5443E+01  0.1496E+01E
 Epicentro: JORDAN - SANTANDER                                                 3
 ACTION:UPD 13-02-15 09:17 OP:ep   STATUS:               ID:20130127162751 L   I
 2013-01-27-1620-00M.COL___241                                                 6
 STAT SP IPHASW D HRMM SECON CODA AMPLIT PERI AZIMU VELO AIN AR TRES W  DIS CAZ7
 BAR2 SZ EP   1   1628 11.31                             173    0.04 7 16.9 193 
 BAR2 SZ ES   1   1628 26.43                             173   -0.26 7 16.9 193 
 BAR2 SZ I        1628 28.93        18.5 0.30            171           16.9 193 
 BRR  HZ EP   1   1628 13.24                             152    0.19 7 74.4 303 
 BRR  HE ES   1   1628 30.74                             152    0.87 7 74.4 303 
 BRR  HZ I        1628 33.62         8.1 0.38            151           74.4 303 
 PAM  SZ EP   1   1628 14.29                             150    0.04 7 82.6  37 
 PAM  SN ES   1   1628 31.50                             150   -0.50 7 82.6  37 
 PAM  SZ I        1628 33.55         7.3 0.56            154           82.6  37 
 RUS  HZ EP   1   1628 15.22                             146    0.22 7 94.1 176 
 RUS  HN ES   1   1628 33.49                             146    0.16 7 94.1 176 
 RUS  HZ I        1628 35.22         3.2 0.30            149           94.1 176 
 PTB  HZ EP   1   1628 18.30                             133   -0.22 7  146 261 
 PTB  HN ES   1   1628 38.94                             133   -0.66 7  146 261 
 PTB  HZ I        1628 45.09         7.4 0.38            133            146 261 
                                                                                
