 2010 1127 1107 25.4 L   6.808 -73.396115.4  RSN  6 0.4 1.8LRSN                1
 GAP=107        0.92       3.9     7.3  8.5 -0.2376E+01  0.7416E+01 -0.4027E+01E
 Epicentro: SAN VICENTE DE CHUCURI - SANTANDER                                 3
 ACTION:UP  10-12-17 16:55 OP:REBC STATUS:               ID:20101127110725 L   I
 2010-11-27-1102-34S.COL___132                                                 6
 STAT SP IPHASW D HRMM SECON CODA AMPLIT PERI AZIMU VELO SNR AR TRES W  DIS CAZ7
 BAR2 SZ EP   1   11 7 41.82                             163     0.1 7   34 135 
 BAR2 SZ I        11 7 42.11        25.0 0.12                            34 135 
 BAR2 SZ ES   1   11 7 54.28                             163    -0.2 7   34 135 
 BRR  HZ IP     C 11 7 42.02                             156     0.010   48 314 
 BRR  HN ES   1   11 7 55.14                             156     0.2 7   48 314 
 BRR  HZ I        11 7 56.86        13.7 0.17                            48 314 
 RUS  HZ EP   1   11 7 46.84                             134    -0.1 7  107 161 
 RUS  HE ES   1   11 8  3.44                             134    -0.2 7  107 161 
 RUS  HZ I        11 8  5.56         4.9 0.31                           107 161 
 GRA  SZ EP   2   11 7 49.18                             127     0.0 5  136  29 
 GRA  SZ ES   1   11 8  8.55                             127     0.9 7  136  29 
 GRA  SZ I        11 8  9.98        11.1 0.44                           136  29 
 OCA  SZ EP   1   11 7 51.04                             122    -0.4 7  159   3 
 OCA  SZ ES   1   11 8 10.90                             122    -0.8 7  159   3 
 OCA  SZ I        11 8 12.70        16.9 0.51                           159   3 
 NOR  SZ EP   2   11 7 57.94                             114     0.7 4  213 230 
 NOR  SE ES   2   11 8 22.31                             114     0.3 4  213 230 
                                                                                
