 2012  927 1230 24.2 L   6.748 -73.151151.1  RSN  5 0.2 1.5LRSN                1
 GAP=233        0.48       7.0     6.3  6.0  0.2922E+02 -0.1928E+00  0.8929E+01E
 Epicentro: LOS SANTOS - SANTANDER                                             3
 ACTION:UPD 12-10-22 14:21 OP:ep   STATUS:               ID:20120927123024 L   I
 2012-09-27-1230-00M.COL___217                                                 6
 STAT SP IPHASW D HRMM SECON CODA AMPLIT PERI AZIMU VELO AIN AR TRES W  DIS CAZ7
 BAR2 SZ EP       1230 44.21                             173   -0.1810 17.6 191 
 BAR2 SZ ES   1   1230 59.97                             173   -0.15 7 17.6 191 
 BAR2 SZ I        1231  0.62        15.8 0.18                          17.6 191 
 BRR  HN ES   1   1231  3.39                             152    0.26 7 73.6 303 
 RUS  HZ EP       1230 48.33                             146    0.2310 94.9 175 
 RUS  HZ I        1230 48.97         2.0 0.10                          94.9 175 
 RUS  HN ES   2   1231  6.54                             146   -0.20 5 94.9 175 
 PTB  HE ES   2   1231 12.79                             133    0.04 5  146 261 
 PTB  HE I        1231 14.59         3.4 0.16                           146 261 
 ZAR  HN ES   2   1231 22.52                             123   -0.38 4  206 294 
                                                                                
