 2016 1227 1403 44.1 L   6.743 -73.240151.0  RSN  5 0.3 1.3LRSN                1
 GAP=224        0.70       8.2     6.3  6.9  0.3829E+02  0.1078E+02  0.9143E+00E
 Epicentro: ZAPATOCA - SANTANDER                                               3
 ACTION:UPD 17-01-11 20:19 OP:rebc STATUS:               ID:20161227140344 L   I
 OLDACT:REG 16-12-27 20:28 OP:cog  STATUS:               ID:20161227135745     3
 2016-12-27-1358-00M.COL___372                                                 6
 STAT SP IPHASW D HRMM SECON CODA AMPLIT PERI AZIMU VELO AIN AR TRES W  DIS CAZ7
 BAR2 HZ EP   4   14 3 43.92                             173   -20.3 0 17.9 159 
 BAR2 HZ ES       14 4 19.76                             173   -0.2110 17.9 159 
 RUS  HZ EP       14 4  8.17                             146    0.1610 95.7 170 
 RUS  HE ES       14 4 26.88                             146    0.2110 95.7 170 
 RUS  HZ I        14 4 27.26         2.6 0.20            142           95.7 170 
 PTB  HZ EP       14 4 10.08                             136   -0.41 9  136 261 
 PTB  HN ES       14 4 30.99                             136   -0.10 9  136 261 
 PTB  HZ I        14 4 37.71         3.2 0.38            131            136 261 
 ZAR  HN ES       14 4 41.58                             124    0.40 9  197 295 
 CHI  HZ EP   4   14 4 21.20                             119    0.05 0  240 193 
 CHI  HN ES   4   14 4 51.49                             119    1.42 0  240 193 
 CHI  HZ I        14 4 53.28         1.9 0.36            117            240 193 
                                                                                
