 2010  627 1729 28.2 L   6.811 -73.117145.8  RSN  7 0.4 1.8LRSN                1
 GAP=159        0.87       6.5    11.9 10.6  0.2655E+02 -0.6228E+02 -0.3673E+02E
 Epicentro: LOS SANTOS - SANTANDER                                             3
 ACTION:UP  10-08-24 10:13 OP:vdl  STATUS:               ID:20100627172928 L   I
 2010-06-27-1726-59S.COL___118                                                 6
 STAT SP IPHASW D HRMM SECON CODA AMPLIT PERI AZIMU VELO SNR AR TRES W  DIS CAZ7
 BAR2 SZ IP     D 1729 47.62                             170    -0.210   25 197 
 BAR2 SZ ES   1   1730  2.98                             170    -0.2 7   25 197 
 BRR  HZ IP     C 1729 49.46                             152     0.010   74 296 
 BRR  HN ES   1   1730  6.05                             152     0.0 7   74 296 
 BRR  HZ I        1730  7.09        21.2 0.13                            74 296 
 RUS  HZ EP   1   1729 51.77                             144    -0.2 7  102 178 
 RUS  HZ I        1729 52.40         5.8 0.34                           102 178 
 RUS  HE ES   1   1730 10.88                             144     0.3 7  102 178 
 BRI  SZ IP       1729 52.35                             142     0.510  106  19 
 GUE  SZ EP   2   1729 51.44                             140    -1.3 5  115  11 
 GRA  SZ EP   2   1729 53.42                             137     0.2 5  124  16 
 OCA  SZ EP   2   1729 56.60                             130     0.2 5  159 352 
 OCA  SZ I        1730 22.79         9.2 0.22                           159 352 
                                                                                
