 2017  327 1925  7.2 L   6.811 -73.080142.9  RSN  5 0.3 1.9LRSN                1
 GAP=245        0.77       5.0     4.7  6.0  0.5372E+01  0.5717E+01  0.5562E+01E
 Epicentro: LOS SANTOS - SANTANDER                                             3
 ACTION:UPD 17-05-25 18:46 OP:jn   STATUS:               ID:20170327192507 L   I
 OLDACT:REG 17-03-27 22:06 OP:lv   STATUS:               ID:20170327191743     3
 2017-03-27-1918-00M.COL___366                                                 6
 STAT SP IPHASW D HRMM SECON CODA AMPLIT PERI AZIMU VELO AIN AR TRES W  DIS CAZ7
 BAR2 EZ EP       1925 26.14                             169   -0.3910 26.6 205 
 BAR2 EZ ES       1925 41.22                             169   -0.4110 26.6 205 
 BAR2 EZ I        1925 42.68        14.6 0.42            170           26.6 205 
 BRR  HZ EP       1925 28.70                             150    0.3410 77.1 295 
 BRR  HE ES       1925 45.15                             150    0.2710 77.1 295 
 BRR  HZ I        1925 50.93        19.4 0.54            150           77.1 295 
 RUS  HZ EP       1925 30.78                             143    0.0810  102 180 
 RUS  HN ES       1925 49.44                             143    0.3710  102 180 
 RUS  HZ I        1925 50.73         8.0 0.38            147            102 180 
 PTB  HZ EP   4   1925 33.19                             130   -1.39 0  155 259 
 PTB  HE ES       1925 55.77                             130   -0.19 9  155 259 
 PTB  HZ I        1925 57.87         7.7 0.16            131            155 259 
 NOR  HZ EP       1925 43.23                             117   -0.21 8  241 235 
 NOR  HN ES       1926 11.78                             117    0.05 8  241 235 
 NOR  HZ I        1926 13.28         7.1 0.22            119            241 235 
                                                                                
