 2012  227 1856 14.0 L   6.709 -73.181155.5  RSN  4 0.2 1.6LRSN                1
 GAP=175        0.39       4.4     4.5  5.1  0.4002E+01 -0.4065E+01  0.3297E+01E
 ACTION:UP  12-03-07 16:34 OP:epov STATUS:               ID:20120227185614 L   I
 2012-02-27-1850-00M.COL___193                                                 6
 STAT SP IPHASW D HRMM SECON CODA AMPLIT PERI AZIMU VELO AIN AR TRES W  DIS CAZ7
 GIR2 SZ EP   2   1856 34.82                             165   -0.32 5 40.9 358 
 BRR  HZ EP       1856 36.29                             153   -0.0710 73.3 307 
 BRR  HZ I        1856 36.62        13.9 0.14                          73.3 307 
 BRR  HN ES       1856 53.87                             153    0.1010 73.3 307 
 RUS  HZ EP   2   1856 38.41                             148    0.30 5 90.9 173 
 RUS  HE ES   2   1856 56.80                             148   -0.09 5 90.9 173 
 RUS  HZ I        1856 58.89         2.6 0.52                          90.9 173 
 PTB  HZ EP   1   1856 41.48                             135    0.15 7  142 263 
 PTB  HE ES   1   1857  2.47                             135   -0.15 7  142 263 
                                                                                
