 2017  627 1226 28.7 L   6.822 -73.134143.9  RSN  4 0.2 1.7LRSN                1
 GAP=255        0.65       4.4     5.3  5.8  0.5720E+01  0.8313E+01 -0.2951E+01E
 Epicentro: LOS SANTOS - SANTANDER                                             3
 ACTION:UPD 17-09-14 16:55 OP:jn   STATUS:               ID:20170627122628 L   I
 OLDACT:DUP 17-06-27 22:57 OP:osc  STATUS:               ID:20170627121740d    3
 OLDACT:UP  17-06-27 22:54 OP:osc  STATUS:               ID:20170627121739     3
 OLDACT:REG 17-06-27 20:50 OP:osc  STATUS:               ID:20170627121739     3
 2017-06-27-1218-00M.COL___352                                                 6
 STAT SP IPHASW D HRMM SECON CODA AMPLIT PERI AZIMU VELO AIN AR TRES W  DIS CAZ7
 BAR2 EZ EP       1226 48.21                             169    0.0310 26.0 192 
 BAR2 EZ ES       1227  3.27                             169   -0.0810 26.0 192 
 BAR2 EZ I        1227  3.53        11.3 0.28            163           26.0 192 
 BRR  HZ EP       1226 49.36                             152   -0.3010 71.2 296 
 BRR  HE ES       1227  6.27                             152    0.2710 71.2 296 
 BRR  HZ I        1227 10.28         7.1 0.28            144           71.2 296 
 SPBC HZ EP   4   1226 59.04                             128    1.71 0  166 219 
 SPBC HE ES       1227 19.67                             128    0.02 9  166 219 
 SPBC HZ I        1227 23.95         5.1 0.24            126            166 219 
 ZAR  HZ EP       1227  1.48                             122    0.41 9  204 291 
 ZAR  HN ES       1227 25.98                             122   -0.32 9  204 291 
 ZAR  HZ I        1227 35.75         6.3 0.40            120            204 291 
                                                                                
