 2011  827 1935  7.4 L   6.768 -73.091148.0  RSN  7 0.4 1.8LRSN                1
 GAP=188        0.77       4.1     9.3  7.2  0.4824E+01 -0.5333E+01 -0.2661E-01E
 Epicentro: LOS SANTOS - SANTANDER                                             3
 ACTION:UPD 12-07-13 15:54 OP:ep   STATUS:               ID:20110827193507 L   I
 2011-08-27-1931-30S.COL___161                                                 6
 STAT SP IPHASW D HRMM SECON CODA AMPLIT PERI AZIMU VELO AIN AR TRES W  DIS CAZ7
 BAR2 SZ EP   1   1935 27.10                             171   -0.12 7 21.9 207 
 BAR2 SZ ES   2   1935 42.10                             171   -0.62 5 21.9 207 
 BAR2 SZ I        1935 44.71        10.1 0.26                          21.9 207 
 GIR2 SZ EP   1   1935 27.64                             166    0.21 7 36.1 342 
 GIR2 SZ ES   1   1935 43.79                             166    0.70 7 36.1 342 
 BRR  HZ EP   1   1935 29.10                             151   -0.04 7 78.1 299 
 BRR  HZ I        1935 30.28        14.3 0.55                          78.1 299 
 BRR  HN ES   1   1935 46.43                             151    0.29 7 78.1 299 
 RUS  HZ EP   1   1935 30.98                             146   -0.08 7 96.8 179 
 RUS  HN ES   1   1935 49.38                             146   -0.17 7 96.8 179 
 RUS  HZ I        1935 52.47         4.5 0.40                          96.8 179 
 OCA  SZ EP   1   1935 36.52                             130    0.28 7  165 351 
 OCA  SZ ES   1   1935 57.90                             130   -0.87 7  165 351 
 OCA  SZ I        1936  2.55        12.0 0.35                           165 351 
 NOR  SE ES   2   1936 11.25                             119   -0.49 4  238 236 
 CHI  HZ EP   2   1935 45.36                             118    0.37 4  247 197 
                                                                                
