 2014  427 1015  0.8 L   6.806 -73.152146.0  RSN 18 0.5 2.5LRSN                1
 GAP= 65        1.11       2.9     3.0  6.2 -0.4174E+00  0.5067E+01  0.2626E+01E
 Epicentro: LOS SANTOS - SANTANDER                                             3
 ACTION:UPD 14-05-13 23:11 OP:nd   STATUS:               ID:20140427101500 L   I
 OLDACT:REG 14-04-27 20:59 OP:nd   STATUS:               ID:20140427101000     3
 2014-04-27-1010-00M.COL___270                                                 6
 STAT SP IPHASW D HRMM SECON CODA AMPLIT PERI AZIMU VELO AIN AR TRES W  DIS CAZ7
 PAM  SZ EP       1015 23.41                             151    0.3810 77.3  40 
 PAM  SN ES       1015 40.26                             151   -0.1110 77.3  40 
 PAM  SZ I        1015 41.22        33.7 0.20            150           77.3  40 
 RUS  HZ EP       1015 24.44                             144   -0.1810  101 176 
 RUS  HN ES       1015 43.15                             144   -0.0510  101 176 
 RUS  HZ I        1015 44.10        29.2 0.26            143            101 176 
 PTB  HZ EP       1015 26.83                             132   -0.90 9  147 259 
 PTB  HN ES       1015 47.94                             132   -0.80 9  147 259 
 PTB  HZ I        1015 55.00        36.4 0.48            131            147 259 
 TAM  HZ IP     D 1015 28.93                             130    0.37 9  156 105 
 TAM  HZ I        1015 49.93        19.3 0.36            129            156 105 
 TAM  HN ES       1015 50.58                             130    0.35 9  156 105 
 SPBC HZ EP       1015 29.44                             129    0.12 9  163 219 
 SPBC HN ES       1015 51.63                             129    0.06 9  163 219 
 SPBC HZ I        1016  0.15        47.3 0.30            128            163 219 
 ZAR  HZ EP       1015 33.52                             122    0.36 9  203 292 
 ZAR  HN ES       1015 58.18                             122   -0.23 9  203 292 
 ZAR  HZ I        1016  4.01        38.8 0.54            121            203 292 
 NOR  HZ EP       1015 36.30                             118   -0.22 8  235 234 
 NOR  HN ES       1016  4.67                             118    0.29 8  235 234 
 NOR  HZ I        1016 12.50        18.3 0.34            117            235 234 
 SML  HZ EP       1015 36.35                             117   -0.98 8  243 335 
 SML  HN ES       1016  6.71                             117    0.88 8  243 335 
 SML  HZ I        1016  9.23        34.8 0.30            116            243 335 
 CHI  HZ EP       1015 38.70                             117    0.14 8  249 195 
 CHI  HN ES       1016  8.08                             117    0.07 8  249 195 
 CHI  HZ I        1016 13.34        23.5 0.30            116            249 195 
 ROSC BZ EP   4   1015 40.38                             117    1.43 0  253 211 
 ROSC BN ES   4   1016 11.11                             117    2.40 0  253 211 
 HEL  HZ EP       1015 41.77                             115    0.81 8  272 256 
 HEL  HN ES       1016 12.51                             115    0.21 8  272 256 
 HEL  HZ I        1016 19.12        17.7 0.26            114            272 256 
 URE  HZ EP   4   1015 40.49                             114   -1.28 0  283 292 
 URE  HN ES   4   1016 10.16                             114   -3.58 0  283 292 
 URE  HZ I        1016 22.70        24.7 0.18            112            283 292 
 GUY2CHZ EP       1015 44.60                             112    0.21 7  301 235 
 GUY2CHN ES   1   1016 18.89                             112    0.49 5  301 235 
 GUY2CHZ I        1016 26.93        20.5 0.60                           301 235 
 VIL  SZ EP       1015 43.54                             112   -0.74 7  304 191 
 VIL  SN ES       1016 18.29                             112    0.09 7  304 191 
 VIL  SZ I        1016 21.30        30.2 0.36            111            304 191 
 PTGC HZ EP       1015 43.67                             111   -1.09 7  310 159 
 PTGC HN ES   4   1016 17.25                             111   -1.80 0  310 159 
 PTGC HZ I        1016 23.31        35.0 0.38            111            310 159 
 CBOC HZ EP       1015 48.11                             110    0.44 7  333 252 
 CBOC HN ES   1   1016 23.94                             110   -0.29 5  333 252 
 PRA  HZ EP       1015 54.44                             106    0.09 6  392 209 
 PRA  HN ES       1016 36.07                             106   -0.06 6  392 209 
 PRA  HZ I        1016 42.99        19.7 0.24            106            392 209 
 ORTC HZ EP       1015 54.64                             106   -0.10 6  396 216 
 ORTC HN ES       1016 38.04                             106    1.23 6  396 216 
 ORTC HZ I        1016 43.66         9.4 0.38            105            396 216 
 SJC  HZ EP   4   1015 54.70                             106   -1.55 0  408 327 
 SJC  HN ES   4   1016 35.14                             106   -4.37 0  408 327 
 SJC  HZ I        1016 50.34         6.1 0.44            105            408 327 
                                                                                
