 2016  727 1036 25.6 L   7.113 -73.116131.8  RSN 10 0.5 2.0LRSN                1
 GAP=215        1.18       5.8     5.8  7.5  0.1085E+02  0.3528E+01 -0.9048E+01E
 Epicentro: BUCARAMANGA - SANTANDER                                            3
 ACTION:UPD 17-03-29 16:55 OP:lp   STATUS:               ID:20160727103625 L   I
 OLDACT:REG 16-07-27 20:28 OP:ar   STATUS:               ID:20160727102744     3
 2016-07-27-1027-44M.COL___340                                                 6
 STAT SP IPHASW D HRMM SECON CODA AMPLIT PERI AZIMU VELO AIN AR TRES W  DIS CAZ7
 BAR2 EZ EP       1036 44.96                             155    0.0710 58.0 187 
 BAR2 EZ ES       1037  0.00                             155    0.0910 58.0 187 
 BAR2 EZ I        1037  1.57        53.2 0.18            153           58.0 187 
 BRR  HZ IP     C 1036 44.99                             152    0.0210 65.8 270 
 BRR  HN ES       1037  0.67                             152    0.6210 65.8 270 
 BRR  HZ I        1037  2.89        12.5 0.10            149           65.8 270 
 RUS  HZ EP       1036 50.99                             132    0.0410  135 178 
 RUS  HE ES       1037  9.99                             132   -0.7010  135 178 
 PTB  HZ EP     D 1036 52.25                             126   -0.55 9  161 247 
 PTB  HN ES       1037 13.64                             126   -0.34 9  161 247 
 PTB  HZ I        1037 15.10        16.3 0.30            125            161 247 
 SPBC HZ EP       1036 56.95                             121    0.80 9  193 213 
 SPBC HE ES       1037 19.86                             121   -0.10 9  193 213 
 SPBC HZ I        1037 25.38         7.4 0.10            121            193 213 
 ZAR  HZ EP       1036 56.92                             120    0.47 9  197 282 
 ZAR  HN ES       1037 20.09                             120   -0.39 9  197 282 
 ZAR  HZ I        1037 23.73         7.3 0.17            120            197 282 
 URE  HZ EP   4   1037  7.06                             111    1.90 0  276 285 
 URE  HN ES   4   1037 33.60                             111   -2.40 0  276 285 
 URE  HZ I        1037 36.13         6.9 0.16            112            276 285 
 HEL  HZ EP       1037  7.66                             111    0.95 7  286 249 
 HEL  HN ES       1037 38.50                             111   -0.25 7  286 249 
 HEL  HZ I        1037 44.56         4.6 0.58            111            286 249 
 GUY2CHZ EP   9   1037 13.41                             108    2.04 0  325 230 
 GUY2CHN ES       1037 48.94                                   -0.14 7  325 230 
 GUY2CHZ I        1037 53.66         3.2 0.36                           325 230 
 SJC  HZ EP       1037 16.41                             105   -1.21 6  383 324 
 SJC  HN ES   4   1037 55.83                             105   -2.34 0  383 324 
 SJC  HZ I        1037 58.57         1.9 0.38            105            383 324 
                                                                                
