 2011  427 1122 51.7 L   6.800 -73.074140.0  RSN  5 0.2 1.7LRSN                1
 GAP=164        0.56       6.3     9.2 10.9  0.2004E+02 -0.6741E+02 -0.4236E+02E
 Epicentro: LOS SANTOS - SANTANDER                                             3
 ACTION:UP  11-06-22 15:33 OP:REBC STATUS:               ID:20110427112250 L   I
 2011-04-27-1120-09S.COL___137                                                 6
 STAT SP IPHASW D HRMM SECON CODA AMPLIT PERI AZIMU VELO SNR AR TRES W  DIS CAZ7
 BAR2 SZ EP   1   1123 10.67                             171    -0.1 8   26 207 
 BAR2 SZ ES   2   1123 25.15                                    -0.4 5   26 207 
 BAR2 SZ I        1123 26.38         8.5 0.25                            26 207 
 BRR  HZ EP   1   1123 12.38                             152    -0.3 8   78 296 
 BRR  HZ I        1123 12.57        17.5 0.16                            78 296 
 BRR  HN ES   1   1123 29.29                             152     0.2 8   78 296 
 RUS  HN ES   2   1123 33.36                             145     0.4 5  100 181 
 BRI  SZ EP   1   1123 15.03                             142     0.1 8  106  17 
 GRA  SZ EP       1123 16.31                             137     0.010  124  14 
 GRA  SZ I        1123 17.70         6.6 0.19                           124  14 
                                                                                
