 2013  227 1542  6.2 L   6.726 -73.244148.9  RSN  6 0.4 1.6LRSN                1
 GAP=177        0.81       6.7     7.2  8.5  0.2428E+02  0.6704E+01 -0.3372E+01E
 Epicentro: VILLANUEVA - SANTANDER                                             3
 ACTION:UPD 13-03-12 09:36 OP:ep   STATUS:               ID:20130227154206 L   I
 2013-02-27-1540-00M.COL___226                                                 6
 STAT SP IPHASW D HRMM SECON CODA AMPLIT PERI AZIMU VELO AIN AR TRES W  DIS CAZ7
 BAR2 SZ EP   1   1542 25.97                             174   -0.09 7 16.2 155 
 BAR2 SZ ES   1   1542 40.98                             174   -0.60 7 16.2 155 
 BRR  HZ EP   1   1542 27.62                             155    0.20 7 66.7 309 
 BRR  HN ES   1   1542 44.59                             155    0.59 7 66.7 309 
 BRR  HZ I        1542 47.56         9.3 0.23            155           66.7 309 
 RUS  HZ EP   1   1542 30.27                             146    0.50 7 93.8 169 
 RUS  HN ES   1   1542 48.30                             146    0.13 7 93.8 169 
 RUS  HZ I        1542 50.37         4.6 0.32            149           93.8 169 
 PTB  HZ EP   1   1542 31.75                             135   -0.58 7  136 261 
 PTB  HN ES   1   1542 52.50                             135   -0.24 7  136 261 
 PTB  HZ I        1542 55.84         6.1 0.14            137            136 261 
 ZAR  HN ES   2   1543  3.57                             124    0.47 4  197 296 
 SML  HN ES   2   1543 11.77                             118   -0.54 4  247 338 
                                                                                
