 2014  527 1331 31.8 L   6.797 -73.130154.3  RSN  5 0.3 1.7LRSN                1
 GAP=202        0.66       3.1     6.9  4.7  0.9792E+01 -0.1404E-01 -0.3180E+01E
 Epicentro: LOS SANTOS - SANTANDER                                             3
 ACTION:UPD 15-03-16 17:01 OP:nd   STATUS:               ID:20140527133131 L   I
 OLDACT:REG 14-05-27 19:55 OP:cam  STATUS:               ID:20140527133000     3
 2014-05-27-1330-00M.COL___276                                                 6
 STAT SP IPHASW D HRMM SECON CODA AMPLIT PERI AZIMU VELO AIN AR TRES W  DIS CAZ7
 BAR2 SZ EP       1331 52.05                             171   -0.4510 23.3 194 
 BAR2 SZ ES       1332  8.39                             171   -0.2210 23.3 194 
 BAR2 SZ I        1332 12.88         7.6 0.16            166           23.3 194 
 BRR  HZ EP       1331 53.86                             153   -0.1510 72.9 298 
 BRR  HN ES       1332 11.43                             153    0.1310 72.9 298 
 RUS  HZ EP       1331 56.55                             146    0.1410  100 177 
 RUS  HE ES       1332 15.98                             146    0.4110  100 177 
 RUS  HZ I        1332 16.05         2.5 0.34            147            100 177 
 SPBC HZ EP       1332  1.07                             131   -0.02 9  164 220 
 SPBC HE ES   1   1332 23.70                             131   -0.19 7  164 220 
 SPBC HZ I        1332 30.06         8.5 0.24            130            164 220 
 SML  HZ EP       1332  9.35                             119    0.27 8  245 335 
 SML  HN ES       1332 38.23                             119    0.12 8  245 335 
 SML  HZ I        1332 44.62         5.7 0.26            120            245 335 
                                                                                
