 2012  627 1126  9.8 L   6.767 -73.139148.0  RSN  6 0.3 1.3LRSN                1
 GAP=139        0.60       6.5     4.0  8.6 -0.3998E+01 -0.1046E+01  0.3388E+02E
 Epicentro: LOS SANTOS - SANTANDER                                             3
 ACTION:UPD 12-08-06 17:53 OP:ep   STATUS:               ID:20120627112609 L   I
 2012-06-27-1120-00M.COL___201                                                 6
 STAT SP IPHASW D HRMM SECON CODA AMPLIT PERI AZIMU VELO AIN AR TRES W  DIS CAZ7
 BAR2 SZ EP   2   1126 29.72                             172    0.08 5 19.9 194 
 BAR2 SZ I        1126 48.55         4.3 0.34                          19.9 194 
 BRR  HZ EP   2   1126 31.67                             152    0.34 5 73.7 301 
 BRR  HZ I        1126 33.33         7.8 0.52                          73.7 301 
 BRR  HN ES   1   1126 48.07                             152   -0.05 7 73.7 301 
 PAM  SZ EP       1126 32.41                             151    0.0110 79.7  37 
 PAM  SZ I        1126 32.71         2.4 0.18                          79.7  37 
 PAM  SN ES   1   1126 49.82                             151   -0.20 7 79.7  37 
 RUS  HZ EP       1126 33.80                             145    0.2910 96.9 176 
 RUS  HZ I        1126 54.82         1.5 0.46                          96.9 176 
 PTB  HZ EP       1126 36.52                             132   -0.44 9  148 260 
 PTB  HE ES   2   1126 58.11                             132   -0.03 5  148 260 
 PTB  HZ I        1126 59.27         2.8 0.26                           148 260 
 ZAR  HE ES   2   1127  8.91                             123    0.71 4  206 293 
 ZAR  HZ I        1127 14.72         3.2 0.08                           206 293 
                                                                                
