 2014  927 1753 22.9 L   6.835 -73.197142.4  RSN 11 0.4 2.4LRSN                1
 GAP=129        1.01       2.9     3.9  5.2 -0.1683E+00  0.5712E+01  0.1215E+01E
 Epicentro: ZAPATOCA - SANTANDER                                               3
 ACTION:UPD 14-10-03 23:09 OP:nd   STATUS:               ID:20140927175322 L   I
 OLDACT:UP  14-09-27 22:30 OP:cam  STATUS:               ID:20140927175000     3
 OLDACT:REG 14-09-27 21:02 OP:cam  STATUS:               ID:20140927175000     3
 2014-09-27-1750-00M.COL___252                                                 6
 STAT SP IPHASW D HRMM SECON CODA AMPLIT PERI AZIMU VELO AIN AR TRES W  DIS CAZ7
 BAR2 SZ EP       1753 42.15                             169   -0.0310 26.9 177 
 BAR2 SZ ES       1753 56.78                             169   -0.4610 26.9 177 
 BAR2 SZ I        1753 58.10       144.4 0.26            170           26.9 177 
 BRR  HZ IP     C 1753 43.93                             154    0.6410 64.4 298 
 BRR  HN ES       1753 59.52                             154    0.3110 64.4 298 
 BRR  HZ I        1754  4.10        72.3 0.36            152           64.4 298 
 PAM  SZ IP     D 1753 45.16                             150    0.3710 78.3  45 
 PAM  SN ES       1754  2.20                             150    0.3110 78.3  45 
 PAM  SZ I        1754  4.76        47.0 0.44            153           78.3  45 
 RUS  HZ EP     D 1753 46.22                             142   -0.4010  105 173 
 RUS  HN ES       1754  5.15                             142    0.0110  105 173 
 RUS  HZ I        1754  6.69        18.4 0.18            146            105 173 
 PTB  HZ EP       1753 48.94                             132   -0.20 9  143 257 
 PTB  HN ES       1754  9.49                             132   -0.14 9  143 257 
 PTB  HZ I        1754 15.35        31.6 0.18            133            143 257 
 SPBC HZ EP       1753 51.02                             128   -0.06 9  163 217 
 SPBC HN ES       1754 12.57                             128   -0.50 9  163 217 
 SPBC HZ I        1754 15.33        23.9 0.16            130            163 217 
 ZAR  HZ EP       1753 53.97                             123   -0.44 9  197 292 
 ZAR  HN ES       1754 18.63                             123   -0.39 9  197 292 
 ZAR  HZ I        1754 25.48        28.1 0.28            123            197 292 
 SML  HZ EP       1753 58.08                             117   -0.60 8  238 336 
 SML  HE ES       1754 26.68                             117    0.07 8  238 336 
 SML  HZ I        1754 32.04        34.7 0.28            119            238 336 
 CHI  HZ EP       1754  0.62                             116   -0.02 8  251 194 
 CHI  HN ES       1754 30.30                             116    0.20 8  251 194 
 CHI  HZ I        1754 33.52         8.9 0.46            119            251 194 
 URE  HZ EP   4   1754  5.49                             113    2.46 0  277 292 
 GUY2CHZ EP       1754  6.66                             112    0.60 7  299 234 
 GUY2CHN ES       1754 40.94                             112    1.19 7  299 234 
 GUY2CHZ I        1754 50.35        10.0 0.54                           299 234 
 MON  HZ EP   4   1754  9.60                             108   -1.36 0  347 308 
 PRA  HZ EP       1754 16.17                             106   -0.18 6  393 209 
                                                                                
