 2011  627 1610 23.2 L   6.776 -73.113139.2  RSN  6 0.2 1.9LRSN                1
 GAP=160        0.47       3.1     5.3  5.1 -0.2375E+01 -0.6779E+01 -0.2661E+01E
 Epicentro: LOS SANTOS - SANTANDER                                             3
 ACTION:UP  11-07-14 19:08 OP:ep   STATUS:               ID:20110627161023 L   I
 2011-06-27-1609-01S.COL___140                                                 6
 STAT SP IPHASW D HRMM SECON CODA AMPLIT PERI AZIMU VELO SNR AR TRES W  DIS CAZ7
 BAR2 SZ EP       1610 41.92                             171    -0.110   22 201 
 BAR2 SZ ES   1   1610 56.40                             171    -0.3 7   22 201 
 BAR2 SZ I        1610 58.43        21.1 0.22                            22 201 
 BTL  SZ EP       1610 42.22                             170     0.210   23 313 
 BRR  HZ EP       1610 43.94                             150     0.010   76 299 
 BRR  HZ I        1610 44.34        34.3 0.08                            76 299 
 BRR  HE ES   1   1611  0.12                             150     0.0 7   76 299 
 RUS  HZ EP   2   1610 45.87                             143    -0.2 5   98 178 
 RUS  HE ES   2   1611  4.49                             143     0.5 5   98 178 
 RUS  HZ I        1611  6.84         4.4 0.27                            98 178 
 BRI  SZ EP   1   1610 46.58                             139     0.0 7  110  19 
 GRA  SZ EP   1   1610 47.97                             135     0.0 7  127  16 
 GRA  SZ ES   1   1611  7.42                             135     0.1 7  127  16 
 GRA  SZ I        1611  9.74        11.6 0.27                           127  16 
                                                                                
