 2011  927 1633 59.8 L   6.778 -73.145142.9  RSN  9 0.2 2.3LRSN                1
 GAP=183        0.51       2.1     3.2  3.9 -0.7535E+00  0.3805E+01 -0.8087E+00E
 Epicentro: LOS SANTOS - SANTANDER                                             3
 ACTION:UPD 12-07-13 16:00 OP:ep   STATUS:               ID:20110927163359 L   I
 2011-09-27-1631-01S.COL___165                                                 6
 STAT SP IPHASW D HRMM SECON CODA AMPLIT PERI AZIMU VELO AIN AR TRES W  DIS CAZ7
 BTL  SZ EP       1634 19.37                             171    0.2910 20.6 319 
 BAR2 SZ EP       1634 19.18                             171    0.1010 21.0 191 
 BAR2 SZ ES       1634 33.92                             171   -0.1710 21.0 191 
 BAR2 SZ I        1634 35.03        42.6 0.26                          21.0 191 
 BRR  HZ EP   1   1634 20.73                             152   -0.02 7 72.4 300 
 BRR  HZ I        1634 27.74        58.3 0.13                          72.4 300 
 BRR  HN ES   1   1634 37.60                             152    0.54 7 72.4 300 
 RUS  HZ EP   1   1634 22.84                             144   -0.30 7 98.2 176 
 RUS  HE ES   1   1634 41.26                             144   -0.05 7 98.2 176 
 OCA  SZ EP       1634 28.22                             128    0.06 9  163 353 
 OCA  SZ ES       1634 49.90                             128   -0.34 9  163 353 
 OCA  SZ I        1634 50.83        27.8 0.38                           163 353 
 ZAR  HZ EP   2   1634 32.41                             122    0.21 4  205 293 
 ZAR  HN ES   1   1634 57.25                             122   -0.19 6  205 293 
 ZAR  HZ I        1635  3.80        22.9 0.26                           205 293 
 NOR  SN ES   1   1635  2.73                             118   -0.16 6  233 235 
 HEL  HZ EP   2   1634 40.05                             114    0.20 4  272 256 
 HEL  HN ES   2   1635 10.88                             114   -0.18 4  272 256 
 HEL  HZ I        1635 18.56         9.4 0.40                           272 256 
 RREF HZ EP   1   1634 45.83                             110    0.14 5  320 230 
 RREF HN ES   1   1635 21.34                             110   -0.11 5  320 230 
 RREF HZ I        1635 30.44         5.5 0.29                           320 230 
                                                                                
