 2017  127 1059 44.6 L   6.782 -73.144149.2  RSN  8 0.4 1.9LRSN                1
 GAP=120        0.87       3.6     3.9  5.8  0.1314E+01  0.4116E+01  0.3555E+01E
 Epicentro: LOS SANTOS - SANTANDER                                             3
 ACTION:UPD 17-05-22 16:03 OP:jn   STATUS:               ID:20170127105944 L   I
 OLDACT:REG 17-01-27 21:16 OP:dnl  STATUS:               ID:20170127105740     3
 2017-01-27-1058-00M.COL___328                                                 6
 STAT SP IPHASW D HRMM SECON CODA AMPLIT PERI AZIMU VELO AIN AR TRES W  DIS CAZ7
 BAR2 EZ EP       11 0  4.53                             171   -0.0610 21.4 191 
 BAR2 EZ ES       11 0 20.22                             171    0.0210 21.4 191 
 BAR2 EZ I        11 0 21.26        10.2 0.20            165           21.4 191 
 BRR  HZ EP       11 0  6.50                             153    0.3410 72.3 300 
 BRR  HE ES       11 0 23.61                             153    0.6110 72.3 300 
 BRR  HZ I        11 0 27.38        19.9 0.46            146           72.3 300 
 PAM  EZ IP     D 11 0  7.37                             151    0.1310 78.8  39 
 PAM  EN ES       11 0 24.51                             151   -0.4210 78.8  39 
 PAM  EZ I        11 0 27.20         6.1 0.22            143           78.8  39 
 RUS  HZ EP       11 0  8.71                             145    0.1810 98.6 176 
 RUS  HN ES       11 0 27.18                             145   -0.0310 98.6 176 
 RUS  HZ I        11 0 28.09        10.1 0.28            133           98.6 176 
 PTB  HZ EP       11 0 11.34                             133   -0.47 9  148 260 
 PTB  HN ES       11 0 32.51                             133   -0.54 9  148 260 
 PTB  HZ I        11 0 39.90        14.5 0.16            122            148 260 
 ZAR  HZ EP   2   11 0 18.21                             123    0.87 4  205 293 
 ZAR  HN ES       11 0 42.66                             123   -0.24 9  205 293 
 ZAR  HZ I        11 0 50.07        17.3 0.12            114            205 293 
 CHI  HZ EP   2   11 0 22.51                             118    0.25 4  247 195 
 CHI  HN ES       11 0 51.96                             118    0.30 8  247 195 
 CHI  HZ I        11 1  2.01         4.8 0.30            108            247 195 
 PTGC HZ EP   2   11 0 27.49                             112   -0.88 4  307 159 
 PTGC HZ I        11 1  3.14         9.5 0.32            103            307 159 
                                                                                
