 2011  827 1354 59.1 L   6.774 -73.113146.8  RSN  4 0.1 1.4LRSN                1
 GAP=193        0.36       3.7     7.2  4.5  0.1610E+02 -0.5952E+01  0.5761E+00E
 Epicentro: LOS SANTOS - SANTANDER                                             3
 ACTION:UPD 12-07-13 15:54 OP:ep   STATUS:               ID:20110827135459 L   I
 2011-08-27-1352-57S.COL___161                                                 6
 STAT SP IPHASW D HRMM SECON CODA AMPLIT PERI AZIMU VELO AIN AR TRES W  DIS CAZ7
 BAR2 SZ EP   1   1355 18.65                             171   -0.12 7 21.5 201 
 BAR2 SZ I        1355 18.96         5.9 0.11                          21.5 201 
 GIR2 SZ EP   1   1355 18.84                             166   -0.11 7 34.9 345 
 GIR2 SZ ES   1   1355 34.56                             166    0.10 7 34.9 345 
 BRR  HZ EP   1   1355 20.55                             151   -0.03 7 75.8 299 
 BRR  HZ I        1355 25.51        15.3 0.35                          75.8 299 
 BRR  HE ES   1   1355 37.38                             151    0.02 7 75.8 299 
 RUS  HZ EP   1   1355 22.93                             145    0.24 7 97.5 178 
 RUS  HZ I        1355 23.60         1.4 0.09                          97.5 178 
 RUS  HN ES   1   1355 41.02                             145   -0.10 7 97.5 178 
                                                                                
