 2011 1127 1940 28.6 L   6.761 -73.118144.0  RSN  8 0.4 2.1LRSN                1
 GAP=142        0.59       3.4     4.6  5.2 -0.3545E+01  0.7404E+01  0.1741E+01E
 Epicentro: LOS SANTOS - SANTANDER                                             3
 ACTION:UPD 12-07-13 16:12 OP:ep   STATUS:               ID:20111127194028 L   I
 2011-11-27-1938-51S.COL___160                                                 6
 STAT SP IPHASW D HRMM SECON CODA AMPLIT PERI AZIMU VELO AIN AR TRES W  DIS CAZ7
 BAR2 SZ EP       1940 47.81                             172   -0.1210 20.0 201 
 BAR2 SZ I        1940 48.20        26.9 0.11                          20.0 201 
 BAR2 SZ ES   1   1941  3.08                             172    0.06 7 20.0 201 
 BRR  HZ EP       1940 49.64                             151   -0.1710 75.9 300 
 BRR  HE ES   1   1941  6.53                             151    0.16 7 75.9 300 
 BRR  HZ I        1941  9.49        31.8 0.13                          75.9 300 
 PAM  SZ EP   1   1940 50.74                             150    0.05 7 78.9  36 
 PAM  SZ I        1940 50.99        25.7 0.16                          78.9  36 
 PAM  SN ES   1   1941  7.64                             150   -0.31 7 78.9  36 
 RUS  HZ EP   1   1940 51.81                             145   -0.02 7 96.1 178 
 RUS  HE ES   1   1941 10.33                             145    0.36 7 96.1 178 
 RUS  HZ I        1941 11.90        12.6 0.40                          96.1 178 
 OCA  SZ ES   2   1941 20.25                             128    0.74 5  165 352 
 OCA  SZ I        1941 24.24        10.0 0.21                           165 352 
 NOR  SZ EP   1   1941  3.96                             118   -0.24 6  235 236 
 NOR  SN ES   1   1941 31.56                             118   -0.43 6  235 236 
 HEL  HZ EP   2   1941  9.70                             114    0.79 4  274 257 
 HEL  HZ I        1941 46.37         8.9 0.38                           274 257 
 RREF HZ EP   2   1941 15.46                             111    0.88 3  321 230 
 RREF HZ I        1941 49.66         6.3 0.08                           321 230 
                                                                                
