 2010 1027 1007 22.1 L   6.781 -73.173145.8  RSN  8 0.5 1.8LRSN                1
 GAP=156        0.97       5.5    10.5 10.2 -0.2293E+02  0.9950E+01 -0.9498E+00E
 Epicentro: LOS SANTOS - SANTANDER                                             3
 ACTION:UP  11-02-18 11:12 OP:tino STATUS:               ID:20101027100722 L   I
 2010-10-27-1002-10S.COL___127                                                 6
 STAT SP IPHASW D HRMM SECON CODA AMPLIT PERI AZIMU VELO SNR AR TRES W  DIS CAZ7
 BAR2 SZ EP   1   10 7 41.59                             172     0.0 7   21 183 
 BAR2 SZ ES   2   10 7 56.09                             172    -0.8 5   21 183 
 BAR2 SZ I        10 7 58.24        21.6 0.24                            21 183 
 BRR  HZ EP   1   10 7 43.43                             153     0.3 7   70 301 
 BRR  HZ I        10 7 43.65        17.9 0.11                            70 301 
 BRR  HE ES   2   10 7 59.59                             153     0.0 5   70 301 
 RUS  HZ EP   1   10 7 45.53                             144    -0.1 7   99 174 
 RUS  HN ES   2   10 8  4.31                             144     0.2 5   99 174 
 RUS  HZ I        10 8  5.54         7.4 0.28                            99 174 
 GUE  SZ EP   1   10 7 46.63                             138    -0.4 7  119  13 
 GRA  SZ EP   1   10 7 48.39                             136     0.8 7  129  18 
 GRA  SZ I        10 7 48.78         4.8 0.41                           129  18 
 GRA  SZ ES   2   10 8  7.77                             136     0.3 5  129  18 
 OCA  SZ EP   1   10 7 50.19                             129    -0.3 7  162 354 
 OCA  SZ I        10 8 17.06         5.8 0.64                           162 354 
 NOR  SZ EP   1   10 7 56.47                             119    -0.9 6  231 235 
 NOR  SN ES   2   10 8 25.84                             119     0.9 4  231 235 
 CHI  HZ EP   1   10 7 59.68                             117     0.2 6  246 195 
 CHI  HZ I        10 8  0.35         4.7 0.37                           246 195 
 CHI  HE ES   2   10 8 28.72                             117     0.1 4  246 195 
                                                                                
