 2010  827 1732  9.7 L   6.796 -73.099140.8  RSN  8 0.5 1.9LRSN                1
 GAP=164        1.36       5.4    13.5 10.6 -0.9801E+00 -0.4692E+02 -0.8560E+00E
 Epicentro: LOS SANTOS - SANTANDER                                             3
 ACTION:UP  10-09-07 10:58 OP:vdl  STATUS:               ID:20100827173209 L   I
 2010-08-27-1730-28S.COL___119                                                 6
 STAT SP IPHASW D HRMM SECON CODA AMPLIT PERI AZIMU VELO SNR AR TRES W  DIS CAZ7
 BAR2 SZ EP   1   1732 28.57                             170    -0.2 7   25 203 
 BAR2 SZ ES   1   1732 43.31                             170    -0.3 7   25 203 
 BAR2 SZ I        1732 45.26        27.2 0.08                            25 203 
 GIR2 SZ EP   1   1732 28.86                             166     0.1 7   33 341 
 BRR  HZ EP       1732 30.50                             150    -0.110   76 297 
 BRR  HN ES       1732 47.29                             150     0.410   76 297 
 BRR  HZ I        1732 52.10        24.1 0.73                            76 297 
 BTN  SZ EP       1732 30.80                             149    -0.510   81 360 
 BTN  SZ ES   1   1732 47.20                             149    -1.0 7   81 360 
 RUS  HZ EP       1732 32.79                             143    -0.110  100 179 
 RUS  HN ES       1732 51.46                             143     0.510  100 179 
 RUS  HZ I        1732 52.35         9.5 0.03                           100 179 
 GUE  SZ EP   1   1732 33.64                             138    -0.2 7  116  10 
 GRA  SZ EP       1732 35.41                             136     1.010  125  15 
 GRA  SZ I        1732 56.47        10.0 0.35                           125  15 
 CHI  HZ EP   1   1732 46.83                             116    -0.4 6  250 196 
 CHI  HN ES   1   1733 15.95                             116    -0.5 6  250 196 
 CHI  HZ I        1733 19.81         6.1 0.38                           250 196 
                                                                                
