 2015 1127 1010 51.0 L   6.814 -73.151148.8  RSN  9 0.4 1.5LRSN                1
 GAP=135        1.05       3.7     4.4  6.5 -0.1417E+01  0.8870E+01 -0.2699E+01E
 Epicentro: LOS SANTOS - SANTANDER                                             3
 ACTION:UPD 15-12-28 16:13 OP:cam  STATUS:               ID:20151127101051 L   I
 OLDACT:REG 15-11-27 20:03 OP:ak   STATUS:               ID:20151127100748     3
 2015-11-27-1007-48M.COL___307                                                 6
 STAT SP IPHASW D HRMM SECON CODA AMPLIT PERI AZIMU VELO AIN AR TRES W  DIS CAZ7
 BAR2 EZ EP       1011 10.85                             170   -0.1510 24.8 188 
 BAR2 EZ ES       1011 26.72                             170    0.1010 24.8 188 
 BAR2 EZ I        1011 27.11         8.3 0.34            172           24.8 188 
 BRR  HZ EP     C 1011 12.70                             153    0.3210 69.9 298 
 BRR  HN ES       1011 29.79                             153    0.7110 69.9 298 
 BRR  HZ I        1011 32.95         5.3 0.22            152           69.9 298 
 PAM  EZ EP       1011 13.67                             152    0.2010 76.5  41 
 PAM  EN ES       1011 30.90                             152   -0.1110 76.5  41 
 PAM  EZ I        1011 32.62         3.4 0.20            153           76.5  41 
 RUS  HZ EP       1011 14.74                             144   -0.4010  102 176 
 RUS  HN ES       1011 34.01                             144    0.0210  102 176 
 RUS  HZ I        1011 34.70         4.1 0.26            147            102 176 
 PTB  HZ EP       1011 17.48                             133   -0.69 9  148 258 
 PTB  HN ES       1011 38.64                             133   -0.74 9  148 258 
 PTB  HZ I        1011 40.84         4.4 0.46            134            148 258 
 SPBC HN ES       1011 42.09                             130   -0.17 9  164 218 
 ZAR  HZ EP       1011 24.14                             123    0.64 9  203 292 
 ZAR  HN ES       1011 48.77                             123   -0.11 9  203 292 
 ZAR  HZ I        1011 54.96         5.5 0.34            124            203 292 
 SML  HZ EP   1   1011 27.40                             118   -0.19 6  242 335 
 SML  HN ES       1011 55.86                             118   -0.29 8  242 335 
 GUY2CHZ EP   1   1011 35.52                             113    0.75 5  302 234 
 GUY2CHN ES       1012  9.62                             113    0.68 7  302 234 
 GUY2CHZ I        1012 18.15         2.2 0.26                           302 234 
 MON  HN ES   4   1012 16.80                             109   -1.31 0  352 308 
 SJC  HZ EP   4   1011 45.15                             106   -1.30 0  408 327 
 SJC  HN ES   4   1012 26.64                             106   -3.07 0  408 327 
                                                                                
