 2011  427 1358 18.0 L   6.781 -73.092136.9  RSN  7 0.4 1.7LRSN                1
 GAP=144        1.05       5.1     7.8  9.2 -0.1603E+02  0.9389E+01 -0.1138E+02E
 Epicentro: LOS SANTOS - SANTANDER                                             3
 ACTION:UP  11-06-22 15:33 OP:REBC STATUS:               ID:20110427135818 L   I
 2011-04-27-1354-06S.COL___137                                                 6
 STAT SP IPHASW D HRMM SECON CODA AMPLIT PERI AZIMU VELO SNR AR TRES W  DIS CAZ7
 BAR2 SZ EP       1358 36.52                             170     0.010   23 206 
 BAR2 SZ ES   1   1358 50.99                             170     0.0 7   23 206 
 BAR2 SZ I        1358 52.57        11.0 0.19                            23 206 
 PAM  SZ EP   1   1358 39.48                             150     0.3 7   75  35 
 PAM  SN ES   1   1358 54.62                             150    -1.0 7   75  35 
 PAM  SZ I        1358 58.81         5.6 0.48                            75  35 
 BRR  HZ EP       1358 38.44                             149    -0.110   77 298 
 BRR  HE ES   1   1358 55.21                             149     0.6 7   77 298 
 BRR  HZ I        1358 56.26        15.9 0.13                            77 298 
 RUS  HZ EP   2   1358 40.91                             143     0.2 5   98 179 
 RUS  HN ES       1358 58.65                             143     0.210   98 179 
 RUS  HZ I        1358 59.49         5.8 0.24                            98 179 
 BRI  SZ EP   1   1358 41.22                             139     0.2 7  108  17 
 BRI  SZ I        1359  6.13         9.8 0.42                           108  17 
 GRA  SZ EP       1358 42.50                             135     0.010  126  15 
 GRA  SZ ES   1   1359  1.90                             135     0.3 7  126  15 
 GRA  SZ I        1359  3.77         9.1 0.33                           126  15 
 NOR  SN ES   1   1359 20.65                             116    -0.8 6  238 236 
                                                                                
