 2012 1127 1635 24.7 L   6.792 -73.145146.8  RSN  5 0.1 1.6LRSN                1
 GAP=140        0.32       2.0     2.3  3.4 -0.1153E+01  0.2394E+01 -0.5021E+00E
 Epicentro: LOS SANTOS - SANTANDER                                             3
 ACTION:UPD 12-12-05 15:36 OP:}ep  STATUS:               ID:20121127163524 L   I
 2012-11-27-1630-00M.COL___234                                                 6
 STAT SP IPHASW D HRMM SECON CODA AMPLIT PERI AZIMU VELO AIN AR TRES W  DIS CAZ7
 BAR2 SZ EP       1635 44.52                             171    0.0510 22.5 191 
 BAR2 SZ I        1636  1.34        11.7 0.19                          22.5 191 
 PAM  SZ EP       1635 47.20                             151    0.1010 78.0  39 
 PAM  SZ I        1635 47.52         6.4 0.26                          78.0  39 
 PAM  SE ES   1   1636  4.41                             151   -0.13 7 78.0  39 
 RUS  HZ EP       1635 48.55                             144    0.0210 99.7 176 
 RUS  HN ES       1636  7.08                             144   -0.0110 99.7 176 
 RUS  HN I        1636  9.13         6.3 0.33                          99.7 176 
 PTB  HZ EP       1635 51.65                             132   -0.13 9  148 259 
 PTB  HE ES   1   1636 12.96                             132    0.09 7  148 259 
 PTB  HZ I        1636 14.88         3.3 0.21                           148 259 
 CHI  HZ EP   1   1636  2.35                             117   -0.06 6  248 195 
                                                                                
