 2013  927 1331 20.0 L   6.797 -73.129139.3  RSN  7 0.6 1.6LRSN 2.3WRSN        1
 SPEC AVERAGE  MO 12.6 ST 95.8 OM  1.3 f0 23.3 R0.1685 AL 0.00 WI 20.0 MW  2.3 3
 SPEC SD       MO  0.1 ST 95.3 OM  0.6 f0 16.7 R0.1204 AL      WI      MW  0.1 3
 GAP=139        1.53       6.5     7.6  9.6 -0.4758E+01  0.1296E+02  0.1766E+02E
 Epicentro: LOS SANTOS - SANTANDER                                             3
 SPEC PAM SH Z MO 12.5 ST0.544 OM  0.6 f0 6.66 R0.2889 AL-0.00 WI 20.0 MW  2.3 3
 SPEC PAM SH Z T133156 K 0.050 GD  158 VS 5.20 DE 3.20 Q0750.0 QA 1.50 VS 5.20 3
 SPEC PTB HH Z MO 12.7 ST191.1 OM  0.7 f0 40.0 R0.0481 AL-0.00 WI 20.0 MW  2.4 3
 SPEC PTB HH Z T1332 5 K 0.050 GD  204 VS 5.20 DE 3.20 Q0750.0 QA 1.50 VS 5.20 3
 OLDACT:REG 13-09-27 16:46 OP:stll STATUS:               ID:20130927132838     3
 ACTION:UPD 13-10-22 09:25 OP:ep   STATUS:               ID:20130927133120 L   I
 OLDACT:UP  13-09-27 19:00 OP:stll STATUS:               ID:20130927132838     3
 2013-09-27-1328-38M.COL___235                                                 6
 STAT SP IPHASW D HRMM SECON CODA AMPLIT PERI AZIMU VELO AIN AR TRES W  DIS CAZ7
 BAR2 SZ EP       1331 38.95                             170    0.0810 23.4 195 
 BAR2 SZ ES       1331 52.98                             170   -0.6010 23.4 195 
 BAR2 SZ I        1331 55.63         7.4 0.16            159           23.4 195 
 BRR  HZ EP       1331 40.82                             151    0.2410 73.0 298 
 BRR  HN ES       1331 57.55                             151    0.9410 73.0 298 
 BRR  SZ I        1332 31.73        12.5 0.34            139           73.0 298 
 PAM  SZ EP       1331 41.37                             150   -0.1210 76.4  38 
 PAM  SN ES       1331 58.04                             150   -0.2010 76.4  38 
 PAM  SZ I        1332  0.91         8.6 0.50            151           76.4  38 
 RUS  HZ EP       1331 42.98                             142   -0.1310  100 177 
 RUS  HN ES       1332  1.79                             142    0.6710  100 177 
 RUS  SZ I        1332  2.66         5.7 0.26            152            100 177 
 PTB  HZ EP       1331 45.93                             130   -0.70 9  150 259 
 PTB  HN ES       1332  6.55                             130   -0.84 9  150 259 
 PTB  SZ I        1332 12.18         3.9 0.64            127            150 259 
 CHI  HZ EP       1331 56.88                             116   -0.51 8  249 196 
 CHI  HN ES       1332 26.52                             116   -0.02 8  249 196 
 GUY2CHZ EP       1332  5.03                             111    1.54 7  303 235 
 GUY2CSZ I        1332 43.58         2.2 0.88                           303 235 
                                                                                
