 2013  927 1658 41.8 L   6.788 -73.100146.0  RSN 14 0.6 2.2LRSN 2.7WRSN        1
 SPEC AVERAGE  MO 13.2 ST316.8 OM  1.6 f0 27.3 R0.0847 AL 0.00 WI 20.0 MW  2.7 3
 SPEC SD       MO  0.1 ST289.3 OM  0.5 f0 11.1 R0.0357 AL      WI      MW  0.1 3
 GAP=143        1.45       3.8     5.5  7.5 -0.4609E+01  0.1382E+02  0.1479E+00E
 Epicentro: LOS SANTOS - SANTANDER                                             3
 SPEC BAR2SH Z MO 13.1 ST 33.2 OM  1.3 f0 15.7 R0.1225 AL-0.00 WI 20.0 MW  2.7 3
 SPEC BAR2SH Z T165915 K 0.050 GD  147 VS 5.20 DE 3.20 Q0750.0 QA 1.50 VS 5.20 3
 SPEC SPBCHH Z MO 13.2 ST650.5 OM  1.2 f0 40.0 R0.0481 AL-0.00 WI 20.0 MW  2.8 3
 SPEC SPBCHH Z T165931 K 0.050 GD  220 VS 5.20 DE 3.20 Q0750.0 QA 1.50 VS 5.20 3
 SPEC ZAR HH Z MO 13.3 ST206.7 OM  1.2 f0 26.0 R0.0740 AL-0.00 WI 20.0 MW  2.8 3
 SPEC ZAR HH Z T165938 K 0.050 GD  254 VS 5.20 DE 3.20 Q0750.0 QA 1.50 VS 5.20 3
 SPEC NOR HH Z MO 13.0 ST 20.5 OM  0.9 f0 14.7 R0.1309 AL-0.00 WI 20.0 MW  2.6 3
 SPEC NOR HH Z T165944 K 0.050 GD  279 VS 5.20 DE 3.20 Q0750.0 QA 1.50 VS 5.20 3
 SPEC SML HH Z MO 13.2 ST672.9 OM  1.1 f0 40.0 R0.0481 AL-0.00 WI 20.0 MW  2.8 3
 SPEC SML HH Z T165945 K 0.050 GD  286 VS 5.20 DE 3.20 Q0750.0 QA 1.50 VS 5.20 3
 SPECGUY2CHH Z MO 13.1 ST  0.3 OM  0.9 f0 3.32 R 0.579 AL-0.00 WI 20.0 MW  2.7 3
 SPECGUY2CHH Z T165960 K 0.050 GD338.1 VS 5.20 DE 3.20 Q0750.0 QA 1.50 VS 5.20 3
 OLDACT:REG 13-09-27 16:55 OP:stll STATUS:               ID:20130927165849     3
 ACTION:UPD 13-10-22 09:25 OP:ep   STATUS:               ID:20130927165841 L   I
 OLDACT:UP  13-09-27 19:45 OP:stll STATUS:               ID:20130927165849     3
 2013-09-27-1658-49M.COL___247                                                 6
 STAT SP IPHASW D HRMM SECON CODA AMPLIT PERI AZIMU VELO AIN AR TRES W  DIS CAZ7
 BAR2 SZ EP       1659  1.58                             170    0.1610 23.5 203 
 BAR2 SZ ES       1659 16.50                             170   -0.2610 23.5 203 
 BAR2 SZ I        1659 19.12        27.1 0.20            167           23.5 203 
 PAM  SZ EP       1659  4.33                             152    0.4510 75.4  36 
 PAM  SN ES       1659 21.14                             152   -0.0010 75.4  36 
 PAM  SZ I        1659 23.60        17.5 0.52            153           75.4  36 
 BRR  HZ IP     C 1659  3.38                             151    0.1510 76.2 298 
 BRR  HN ES       1659 20.70                             151    0.7310 76.2 298 
 BRR  SZ I        1659 23.54        29.3 0.40            149           76.2 298 
 RUS  HZ EP       1659  5.69                             144    0.2710 99.0 179 
 RUS  HN ES       1659 23.83                             144   -0.0510 99.0 179 
 RUS  SZ I        1659 26.58        12.1 0.54            142           99.0 179 
 CAPV BZ IP     C 1659  9.38                             132    0.38 9  147  36 
 OCA  HZ EP       1659  9.64                             129   -0.64 9  162 351 
 OCA  HN ES       1659 32.61                             129    0.09 9  162 351 
 OCA  SZ I        1659 36.15        20.2 0.58            129            162 351 
 SPBC HZ EP       1659 10.45                             129   -0.03 9  165 221 
 SPBC SZ I        1659 38.72        21.8 0.22            126            165 221 
 ZAR  HZ EP       1659 14.77                             122    0.02 8  209 292 
 ZAR  HE ES       1659 39.61                             122   -0.88 8  209 292 
 ZAR  SZ I        1659 44.62        23.7 0.46            120            209 292 
 NOR  HZ EP       1659 17.44                             118   -0.42 8  238 235 
 NOR  HE ES       1659 45.76                             118   -0.26 8  238 235 
 NOR  SZ I        1659 54.00        10.5 0.14            116            238 235 
 SML  HZ EP       1659 17.93                             117   -0.83 8  247 334 
 SML  HN ES       1659 47.12                             117   -0.50 8  247 334 
 SML  SZ I        1659 53.78        26.7 0.08            116            247 334 
 CHI  HN ES       1659 47.36                             117   -1.54 8  249 196 
 HEL  HZ EP       1659 23.69                             114    1.20 7  277 256 
 HEL  HN ES       1659 54.00                             114   -0.26 7  277 256 
 HEL  SZ I        1659 59.75         8.7 0.34            113            277 256 
 GUY2CHZ EP       1659 26.26                             112    0.50 7  305 236 
 GUY2CHN ES       17 0  1.85                             112    1.78 7  305 236 
 GUY2CSZ I        17 0 10.02         6.0 0.48                           305 236 
 PRA  HN ES       17 0 16.97                             106   -0.35 6  393 210 
                                                                                
