 2014  827 1637 39.6 L   6.778 -73.163147.5  RSN  6 0.3 1.8LRSN                1
 GAP=135        0.92       4.3     4.6  6.2 -0.5017E+01  0.3730E+01  0.2789E+01E
 Epicentro: LOS SANTOS - SANTANDER                                             3
 ACTION:UPD 14-09-15 21:53 OP:nd   STATUS:               ID:20140827163739 L   I
 OLDACT:DUP 14-08-27 22:56 OP:stll STATUS:               ID:20140827162822d    3
 2014-08-27-1628-21M.COL___266                                                 6
 STAT SP IPHASW D HRMM SECON CODA AMPLIT PERI AZIMU VELO AIN AR TRES W  DIS CAZ7
 BAR2 SZ EP       1637 59.39                             172   -0.0510 20.7 186 
 BAR2 SZ ES       1638 14.61                             172   -0.2610 20.7 186 
 BAR2 SZ I        1638 15.48        23.7 0.22            173           20.7 186 
 BRR  HZ EP       1638  1.26                             153    0.3010 70.8 301 
 BRR  HZ I        1638 17.69        15.8 0.38            146           70.8 301 
 BRR  HN ES       1638 18.26                             153    0.6710 70.8 301 
 PAM  SZ EP       1638  2.23                             150    0.0010 80.4  39 
 PAM  SZ I        1638  2.55         9.8 0.22            147           80.4  39 
 PAM  SN ES       1638 19.49                             150   -0.3610 80.4  39 
 RUS  HZ EP       1638  3.80                             145    0.3910 98.3 175 
 RUS  HN ES       1638 21.97                             145    0.0310 98.3 175 
 RUS  HZ I        1638 22.69         5.6 0.20            145           98.3 175 
 PTB  HZ EP       1638  5.92                             133   -0.63 9  145 260 
 PTB  HN ES       1638 27.20                             133   -0.33 9  145 260 
 PTB  HZ I        1638 30.51         6.0 0.28            128            145 260 
 SPBC HZ EP       1638  8.13                             130    0.14 9  160 219 
 SPBC HN ES       1638 30.09                             130   -0.01 9  160 219 
 SPBC HZ I        1638 32.79         6.1 0.34            127            160 219 
                                                                                
