 2011 1127 1829  4.5 L   6.805 -73.123143.4  RSN  4 0.3 1.3LRSN                1
 GAP=139        0.65       5.0     7.7  7.4  0.6752E+01 -0.1173E+02 -0.3141E+01E
 Epicentro: LOS SANTOS - SANTANDER                                             3
 ACTION:UPD 12-07-13 16:12 OP:ep   STATUS:               ID:20111127182904 L   I
 2011-11-27-1825-43S.COL___160                                                 6
 STAT SP IPHASW D HRMM SECON CODA AMPLIT PERI AZIMU VELO AIN AR TRES W  DIS CAZ7
 BAR2 SZ EP   1   1829 23.63                             170   -0.27 7 24.4 196 
 BAR2 SZ ES   1   1829 38.42                             170   -0.58 7 24.4 196 
 BAR2 SZ I        1829 39.55         6.7 0.27                          24.4 196 
 BRR  HZ EP   1   1829 25.37                             151   -0.17 7 73.2 297 
 BRR  HZ I        1829 27.33         5.2 0.29                          73.2 297 
 BRR  HN ES   1   1829 42.26                             151    0.34 7 73.2 297 
 PAM  SZ EP   1   1829 26.51                             151    0.13 7 75.4  38 
 PAM  SZ I        1829 26.76         3.3 0.17                          75.4  38 
 PAM  SN ES   2   1829 43.66                             151    0.25 5 75.4  38 
 RUS  HZ EP   1   1829 28.14                             143    0.06 7  101 178 
 RUS  HN ES   1   1829 46.83                             143    0.38 7  101 178 
 RUS  HZ I        1829 47.99         1.6 0.28                           101 178 
                                                                                
