 2012  227 1008 40.0 L   6.689 -73.240153.5  RSN  4 0.3 1.3LRSN                1
 GAP=198        0.51       7.8     6.1  8.8  0.1908E+02 -0.5975E+01 -0.5277E+01E
 ACTION:UP  12-03-07 16:34 OP:epov STATUS:               ID:20120227100840 L   I
 2012-02-27-1000-00M.COL___192                                                 6
 STAT SP IPHASW D HRMM SECON CODA AMPLIT PERI AZIMU VELO AIN AR TRES W  DIS CAZ7
 BAR2 SZ EP   2   10 8 59.75                             175   -0.60 5 12.4 149 
 BAR2 SZ I        10 8 59.93         2.7 0.28                          12.4 149 
 BRR  HZ EP   2   10 9  2.39                             154    0.52 5 69.8 312 
 BRR  HZ I        10 9  7.49         6.0 0.41                          69.8 312 
 BRR  HN ES   2   10 9 18.94                             154   -0.01 5 69.8 312 
 RUS  HZ EP   2   10 9  3.62                             148   -0.13 5 89.7 169 
 RUS  HE ES   2   10 9 22.59                             148    0.29 5 89.7 169 
 PTB  HZ EP   1   10 9  6.61                             136    0.10 7  136 263 
 PTB  HE ES   1   10 9 27.08                             136   -0.14 7  136 263 
                                                                                
