 2013  327 1208 20.4 L   6.757 -73.185144.6  RSN  5 0.3 1.9LRSN                1
 GAP=239        0.67       4.8     4.8  5.7  0.8615E+01  0.7603E+01  0.7514E+01E
 Epicentro: VILLANUEVA - SANTANDER                                             3
 ACTION:UPD 13-04-09 14:05 OP:ep   STATUS:               ID:20130327120820 L   I
 2013-03-27-1200-00M.COL___245                                                 6
 STAT SP IPHASW D HRMM SECON CODA AMPLIT PERI AZIMU VELO AIN AR TRES W  DIS CAZ7
 BAR2 SZ EP       12 8 39.30                             172   -0.4710 18.2 179 
 BAR2 SZ ES       12 8 55.03                             172    0.1310 18.2 179 
 BAR2 SZ I        12 8 55.19        16.9 0.22            168           18.2 179 
 RUS  HZ EP   1   12 8 43.79                             145    0.09 7 96.2 173 
 RUS  HN ES   1   12 9  2.15                             145    0.26 7 96.2 173 
 PTB  HZ EP       12 8 46.93                             133    0.14 9  143 260 
 PTB  HN ES       12 9  7.19                             133   -0.20 9  143 260 
 PTB  HN I        12 9 12.40         9.0 0.28            131            143 260 
 ZAR  HN ES   2   12 9 18.29                             122    0.68 4  202 294 
 CHI  HZ EP       12 8 57.70                             117    0.31 8  243 194 
 CHI  HN ES       12 9 26.03                             117   -0.22 8  243 194 
 CHI  HN I        12 9 28.85         4.9 0.42            117            243 194 
                                                                                
