 2011 1027 1059 34.4 L   6.771 -73.113140.1  RSN  6 0.2 1.6LRSN                1
 GAP=142        0.46       3.3     3.7  4.5  0.8085E+00 -0.3504E-01  0.1603E+01E
 Epicentro: LOS SANTOS - SANTANDER                                             3
 ACTION:UPD 12-07-13 16:06 OP:ep   STATUS:               ID:20111027105934 L   I
 2011-10-27-1057-41S.COL___177                                                 6
 STAT SP IPHASW D HRMM SECON CODA AMPLIT PERI AZIMU VELO AIN AR TRES W  DIS CAZ7
 BAR2 SZ EP       1059 53.22                             171   -0.1310 21.2 201 
 BAR2 SZ ES   1   11 0  7.80                             171   -0.30 7 21.2 201 
 BAR2 SZ I        11 0  8.82         9.5 0.28                          21.2 201 
 BTL  SZ EP       1059 53.47                             170    0.0710 23.6 314 
 BRR  HZ EP       1059 55.15                             150   -0.1210 75.9 299 
 BRR  HZ I        1059 57.03         9.6 0.32                          75.9 299 
 BRR  HN ES   1   11 0 11.91                             150    0.40 7 75.9 299 
 PAM  SZ EP       1059 56.16                             150    0.0810 77.7  36 
 PAM  SN ES   1   11 0 12.89                             150   -0.06 7 77.7  36 
 RUS  HZ EP       1059 57.52                             144    0.1210 97.2 178 
 RUS  HN ES   2   11 0 15.40                             144    0.11 5 97.2 178 
 RUS  HZ I        11 0 16.96         5.0 0.34                          97.2 178 
 ZAR  HN ES   2   11 0 32.00                             120   -0.40 4  209 293 
 ZAR  HZ I        11 0 39.23         4.0 0.12                           209 293 
                                                                                
