 2017  327 1259 59.1 L   6.687 -73.117140.6  RSN  5 0.4 1.1LRSN                1
 GAP=145        0.96       5.4     5.1  7.6 -0.5445E+01  0.8644E+01 -0.5717E+01E
 Epicentro: JORDAN - SANTANDER                                                 3
 ACTION:UPD 17-05-25 18:46 OP:jn   STATUS:               ID:20170327125959 L   I
 OLDACT:REG 17-03-27 21:39 OP:lv   STATUS:               ID:20170327125745     3
 2017-03-27-1258-00M.COL___360                                                 6
 STAT SP IPHASW D HRMM SECON CODA AMPLIT PERI AZIMU VELO AIN AR TRES W  DIS CAZ7
 BAR2 EZ EP       13 0 18.21                             175    0.2510 12.7 215 
 BAR2 EZ ES       13 0 32.20                             175   -0.4510 12.7 215 
 BAR2 EZ I        13 0 34.30         4.9 0.29            175           12.7 215 
 BRR  HZ EP       13 0 19.54                             148   -0.7410 80.5 305 
 BRR  HN ES       13 0 37.27                             148    0.4910 80.5 305 
 PAM  EZ EP       13 0 21.43                             147    0.1210 85.6  33 
 PAM  EN ES       13 0 38.67                             147    0.0510 85.6  33 
 PAM  EZ I        13 0 40.44         2.0 0.37            148           85.6  33 
 RUS  HN ES       13 0 39.07                             146    0.1710 87.9 178 
 PTB  HZ EP       13 0 26.03                             131    0.24 9  149 264 
 PTB  HN ES       13 0 46.48                             131   -0.10 9  149 264 
 PTB  HZ I        13 0 47.61         1.4 0.24            132            149 264 
                                                                                
