 2015  127 1422 58.5 L   6.802 -73.134143.4  RSN 18 0.4 2.4LRSN                1
 GAP= 72        0.91       2.8     3.0  4.7 -0.6735E+00  0.3593E+01  0.1935E+01E
 Epicentro: LOS SANTOS - SANTANDER                                             3
 ACTION:UPD 15-03-02 15:42 OP:nd   STATUS:               ID:20150127142258 L   I
 OLDACT:DUP 15-01-27 22:55 OP:spq  STATUS:               ID:20150127141745d    3
 2015-01-27-1417-44M.COL___274                                                 6
 STAT SP IPHASW D HRMM SECON CODA AMPLIT PERI AZIMU VELO AIN AR TRES W  DIS CAZ7
 BAR2 EZ EP     C 1423 17.71                             170   -0.1910 23.8 193 
 BAR2 EZ ES   1   1423 32.34                             170   -0.66 7 23.8 193 
 BAR2 EZ I        1423 33.49        38.8 0.36            168           23.8 193 
 BRR  HZ EP     C 1423 19.52                             152    0.0210 72.2 298 
 BRR  HN ES       1423 36.60                             152    0.7510 72.2 298 
 BRR  HZ I        1423 40.15        55.1 0.14            150           72.2 298 
 PAM  SZ EP     C 1423 20.45                             151   -0.0010 76.4  39 
 PAM  SN ES       1423 37.39                             151   -0.1510 76.4  39 
 PAM  SZ I        1423 39.51        49.2 0.46            155           76.4  39 
 RUS  HZ EP       1423 21.70                             143   -0.3810  101 177 
 RUS  HN ES   1   1423 40.83                             143    0.40 7  101 177 
 RUS  HZ I        1423 42.15        40.8 0.30            144            101 177 
 TAM  HZ EP     C 1423 26.13                             130    0.20 9  154 105 
 TAM  HE ES   1   1423 47.78                             130    0.50 7  154 105 
 TAM  HZ I        1423 48.45        19.6 0.14            134            154 105 
 OCA  HZ EP   1   1423 26.79                             129    0.12 7  160 353 
 OCA  HN ES   4   1423 47.15                             129   -1.45 0  160 353 
 OCA  HZ I        1423 52.39        23.2 0.28            131            160 353 
 SPBC HZ EP       1423 26.80                             128   -0.16 9  164 219 
 SPBC HN ES       1423 49.25                             128    0.12 9  164 219 
 SPBC HZ I        1423 51.32        53.8 0.24            129            164 219 
 ZAR  HZ EP       1423 30.71                             122   -0.25 9  205 292 
 ZAR  HE ES       1423 56.34                             122    0.10 9  205 292 
 ZAR  HZ I        1424  1.58        40.3 0.36            122            205 292 
 NOR  HZ EP       1423 34.09                             118   -0.18 8  236 235 
 NOR  HN ES       1424  1.51                             118   -0.63 8  236 235 
 NOR  HZ I        1424  4.73        18.1 0.18            118            236 235 
 SML  HZ EP       1423 34.15                             117   -0.93 8  244 335 
 SML  HE ES   1   1424  3.60                             117    0.03 6  244 335 
 SML  HZ I        1424  6.36        24.2 0.10            118            244 335 
 CHI  HZ EP   1   1423 36.54                             117    0.36 6  249 195 
 CHI  HN ES   1   1424  4.87                             117   -0.66 6  249 195 
 CHI  HZ I        1424  8.90         9.4 0.34            118            249 195 
 HEL  HZ EP   1   1423 38.99                             114    0.20 6  273 256 
 HEL  HE ES   1   1424 10.48                             114    0.30 6  273 256 
 HEL  HZ I        1424 16.01        11.6 0.30            115            273 256 
 GUY2CHZ EP       1423 42.23                             112    0.04 7  302 235 
 GUY2CHE ES   4   1424 17.34                             112    1.12 0  302 235 
 GUY2CHZ I        1424 23.57         9.5 0.26                           302 235 
 RREF HZ EP       1423 45.39                             110    0.67 7  323 229 
 RREF HE ES   4   1424 22.03                             110    1.29 0  323 229 
 RREF HZ I        1424 30.18        12.5 0.26            111            323 229 
 TOL  SZ EP   1   1423 47.64                             109    0.80 5  345 225 
 TOL  SN ES   4   1424 25.81                             109    1.31 0  345 225 
 TOL  SZ I        1424 33.47         7.7 0.34            110            345 225 
 MON  HZ EP   4   1423 45.72                             108   -1.84 0  355 308 
 MON  HN ES   4   1424 23.38                             108   -2.41 0  355 308 
 MON  HZ I        1424 24.52         3.7 0.40            109            355 308 
 ORTC HZ EP       1423 53.32                             106    0.82 6  396 216 
 ORTC HN ES   4   1424 36.47                             106    1.89 0  396 216 
 ORTC HZ I        1424 40.41         6.9 0.22            107            396 216 
 PAL  HZ EP   1   1423 53.85                             105    0.07 4  407 239 
                                                                                
