 2011  927 1259 38.4 L   6.528 -73.388149.4  RSN  4 0.2 1.5LRSN                1
 GAP=176        0.50       9.9    16.9  6.9  0.1437E+03 -0.6557E+01  0.2807E+01E
 Epicentro: HATO - SANTANDER                                                   3
 ACTION:UPD 12-07-13 16:00 OP:ep   STATUS:               ID:20110927125938 L   I
 2011-09-27-1256-08S.COL___165                                                 6
 STAT SP IPHASW D HRMM SECON CODA AMPLIT PERI AZIMU VELO AIN AR TRES W  DIS CAZ7
 BAR2 SZ EP       1259 58.56                             171    0.1010 23.8  73 
 BAR2 SZ I        1259 58.97         4.4 0.11                          23.8  73 
 BAR2 SZ ES   2   13 0 14.39                             171    0.27 5 23.8  73 
 BTL  SZ EP   1   1259 58.72                             163   -0.36 7 45.2  17 
 BRR  HZ EP   1   13 0  0.40                             152    0.35 7 73.4 331 
 BRR  HE ES   1   13 0 16.76                             152   -0.19 7 73.4 331 
 BRR  HZ I        13 0 22.60        11.8 0.23                          73.4 331 
 RUS  HZ EP   1   13 0  0.94                             151   -0.08 7 77.9 154 
 RUS  HE ES   2   13 0 18.64                             151   -0.04 5 77.9 154 
 RUS  HZ I        13 0 21.50         3.1 0.54                          77.9 154 
                                                                                
