 2011  627 1949 34.1 L   7.109 -72.887133.7  RSN  4 0.2 1.5LRSN                1
 GAP=204        0.58       6.5     8.5 10.0 -0.2396E+02 -0.3581E+02  0.9708E+01E
 Epicentro: SANTA BARBARA - SANTANDER                                          3
 ACTION:UP  11-07-14 19:08 OP:ep   STATUS:               ID:20110627194934 L   I
 2011-06-27-1944-06S.COL___140                                                 6
 STAT SP IPHASW D HRMM SECON CODA AMPLIT PERI AZIMU VELO SNR AR TRES W  DIS CAZ7
 BTL  SZ EP   1   1949 53.56                             160     0.5 7   47 243 
 BAR2 SZ EP   1   1949 53.72                             152    -0.2 7   66 210 
 BAR2 SZ ES   2   1950  9.39                             152    -0.1 5   66 210 
 BAR2 SZ I        1950 11.63         9.5 0.51                            66 210 
 GRA  SZ EP   1   1949 55.07                             145    -0.1 7   86   6 
 GRA  SZ I        1950  0.61         2.8 0.24                            86   6 
 GRA  SZ ES   2   1950 11.58                             145     0.0 5   86   6 
 BRR  HZ EP   1   1949 55.15                             144    -0.1 7   91 270 
 BRR  HN ES   1   1950 11.78                             144     0.0 7   91 270 
 BRR  HZ I        1950 13.55         8.2 0.34                            91 270 
                                                                                
