 2014  527 1755 58.5 L   6.824 -73.137142.1  RSN  9 0.3 2.1LRSN                1
 GAP=202        0.84       3.3     4.8  5.8  0.2872E+00  0.6582E+01 -0.3317E+01E
 Epicentro: LOS SANTOS - SANTANDER                                             3
 ACTION:UPD 15-03-16 17:01 OP:nd   STATUS:               ID:20140527175558 L   I
 OLDACT:UP  14-05-27 22:05 OP:cam  STATUS:               ID:20140527175000     3
 OLDACT:UP  14-05-27 22:04 OP:cam  STATUS:               ID:20140527175000     3
 OLDACT:REG 14-05-27 20:08 OP:cam  STATUS:               ID:20140527175000     3
 2014-05-27-1750-00M.COL___276                                                 6
 STAT SP IPHASW D HRMM SECON CODA AMPLIT PERI AZIMU VELO AIN AR TRES W  DIS CAZ7
 BAR2 SZ EP       1756 17.97                             169    0.2010 26.1 191 
 BAR2 SZ ES       1756 32.46                             169   -0.3210 26.1 191 
 BAR2 SZ I        1756 34.26        29.2 0.12            167           26.1 191 
 BRR  HZ EP       1756 19.92                             152    0.6710 70.8 296 
 BRR  HN ES   4   1756 37.28                             152    1.87 0 70.8 296 
 BRR  HZ I        1756 38.96        14.7 0.60            148           70.8 296 
 RUS  HZ EP       1756 21.98                             142   -0.1310  103 177 
 RUS  HN ES       1756 40.79                             142    0.2910  103 177 
 RUS  HZ I        1756 42.19        14.9 0.24            146            103 177 
 PTB  HZ EP       1756 24.83                             131   -0.50 9  149 258 
 PTB  HN ES       1756 45.96                             131   -0.27 9  149 258 
 PTB  HZ I        1756 53.22        14.1 0.34            130            149 258 
 SPBC HZ EP       1756 26.81                             128   -0.19 9  166 219 
 SPBC HN ES       1756 49.03                             128   -0.18 9  166 219 
 SPBC HZ I        1756 51.63        27.8 0.24            129            166 219 
 NOR  HZ EP       1756 34.47                             117    0.18 8  237 234 
 NOR  HE ES       1757  2.73                             117    0.54 8  237 234 
 NOR  HZ I        1757  8.35         9.2 0.14            119            237 234 
 SML  HZ EP   1   1756 34.33                             117   -0.39 6  242 335 
 SML  HE ES       1757  3.06                             117    0.11 8  242 335 
 SML  HZ I        1757  8.02        15.1 0.10            118            242 335 
 CHI  HZ EP       1756 36.13                             116   -0.20 8  251 195 
 GUY2CHZ EP   4   1756 43.48                             111    1.25 0  303 234 
 GUY2CHE ES   4   1757 15.76                             111   -0.55 0  303 234 
 GUY2CHZ I        1757 22.20         6.9 0.26                           303 234 
 SJC  HZ EP   4   1756 52.10                             105   -1.66 0  407 327 
 SJC  HN ES   4   1757 33.48                             105   -3.36 0  407 327 
                                                                                
