 2013 1027 1150  9.9 L   6.768 -73.171144.6  RSN  7 0.4 1.9LRSN                1
 GAP=198        0.96       6.3     6.9  7.1  0.1785E+02 -0.1564E+01 -0.1178E+02E
 Epicentro: LOS SANTOS - SANTANDER                                             3
 ACTION:UPD 13-11-25 09:23 OP:ep   STATUS:               ID:20131027115009 L   I
 OLDACT:REG 13-10-27 17:30 OP:nd   STATUS:               ID:20131027114849     3
 2013-10-27-1148-49M.COL___217                                                 6
 STAT SP IPHASW D HRMM SECON CODA AMPLIT PERI AZIMU VELO AIN AR TRES W  DIS CAZ7
 BAR2 SZ EP       1150 29.57                             172    0.2010 19.4 184 
 BAR2 SZ ES       1150 44.09                             172   -0.4210 19.4 184 
 BAR2 SZ I        1150 45.95        16.8 0.18            172           19.4 184 
 BRR  HZ EP       1150 31.37                             152    0.4310 70.6 302 
 BRR  HN ES       1150 47.71                             152    0.4010 70.6 302 
 BRR  HZ I        1150 52.36        13.3 0.12            149           70.6 302 
 RUS  HZ EP       1150 33.69                             145    0.3410 97.2 174 
 RUS  HE ES       1150 51.34                             145   -0.2610 97.2 174 
 RUS  HZ I        1150 53.17         4.9 0.18            149           97.2 174 
 PTB  HZ EP       1150 36.41                             132   -0.10 9  144 260 
 PTB  HN ES       1150 57.07                             132   -0.15 9  144 260 
 PTB  HZ I        1151  0.09         9.1 0.16            132            144 260 
 ZAR  HZ EP   4   1150 37.97                             122   -4.22 0  203 293 
 ZAR  HN ES   4   1151  7.01                             122   -0.33 0  203 293 
 ZAR  HZ I        1151 14.06         8.8 0.28            122            203 293 
 SML  HZ EP       1150 45.97                             117   -0.77 8  246 336 
 SML  HN ES   4   1151 13.19                             117   -2.24 0  246 336 
 SML  HZ I        1151 17.22        11.6 0.10            118            246 336 
 SJC  HZ EP   4   1151  3.18                             105   -2.47 0  411 328 
 SJC  HN ES   4   1151 44.75                             105   -4.34 0  411 328 
 SJC  HZ I        1151 54.30         1.6 0.44            106            411 328 
                                                                                
