 2016  627 1948 13.1 L   6.780 -73.181147.3  RSN  5 0.3 1.6LRSN                1
 GAP=133        0.74       3.9     3.4  6.5  0.9106E+00  0.3427E+01  0.2432E+01E
 Epicentro: LOS SANTOS - SANTANDER                                             3
 ACTION:UPD 16-07-21 22:23 OP:rebc STATUS:               ID:20160627194813 L   I
 OLDACT:REG 16-06-27 21:07 OP:edw  STATUS:               ID:20160627194746     3
 2016-06-27-1947-46M.COL___336                                                 6
 STAT SP IPHASW D HRMM SECON CODA AMPLIT PERI AZIMU VELO AIN AR TRES W  DIS CAZ7
 BRR  HZ EP       1948 34.55                             153    0.3010 68.9 302 
 BRR  HN ES       1948 51.30                             153    0.5210 68.9 302 
 BRR  HZ I        1948 52.37        12.1 0.25                          68.9 302 
 PAM  EZ EP       1948 35.56                             150   -0.1310 81.5  41 
 PAM  EE ES       1948 53.08                             150   -0.2510 81.5  41 
 PAM  EZ I        1948 54.80         8.1 0.48                          81.5  41 
 RUS  HZ EP       1948 37.05                             145    0.2210 98.8 174 
 RUS  HN ES       1948 55.17                             145   -0.2010 98.8 174 
 RUS  HZ I        1948 56.48         6.9 0.36                          98.8 174 
 PTB  HZ EP       1948 39.76                             133   -0.02 9  144 259 
 PTB  HN ES       1949  0.42                             133   -0.20 9  144 259 
 PTB  HZ I        1949  3.96         3.1 0.19                           144 259 
 TAM  HN ES   4   1948 58.55                             130   -4.52 0  158 104 
 ZAR  HN ES       1949 10.14                             123   -0.35 9  201 293 
 VIL  SN ES   4   1949  5.15                             113   -24.7 0  300 191 
                                                                                
