 2014  527 1105 54.6 L   6.819 -73.460112.4  RSN 15 0.5 2.4LRSN                1
 GAP= 73        1.22       3.5     4.1  6.6  0.1299E+00  0.9588E+01 -0.1161E+01E
 Epicentro: SAN VICENTE DE CHUCURI - SANTANDER                                 3
 ACTION:UPD 15-03-16 17:01 OP:nd   STATUS:               ID:20140527110554 L   I
 OLDACT:UP  14-05-27 22:52 OP:nlst STATUS:               ID:20140527110554 L   3
 OLDACT:UP  14-05-27 20:36 OP:cam  STATUS:               ID:20140527110000     3
 OLDACT:REG 14-05-27 19:43 OP:cam  STATUS:               ID:20140527110000     3
 2014-05-27-1100-00M.COL___276                                                 6
 STAT SP IPHASW D HRMM SECON CODA AMPLIT PERI AZIMU VELO AIN AR TRES W  DIS CAZ7
 BAR2 SZ IP     C 11 6 11.27                             159    0.4510 39.6 129 
 BAR2 SZ ES       11 6 23.41                             159   -0.0510 39.6 129 
 BRR  HZ IP     C 11 6 10.77                             158    0.1810 42.4 319 
 BRR  HN ES       11 6 23.62                             158    0.5710 42.4 319 
 BRR  HZ I        11 6 24.45        83.9 0.16            156           42.4 319 
 PAM  SZ EP       11 6 15.68                             135    0.3210  102  56 
 PAM  SN ES       11 6 31.09                             135   -0.4610  102  56 
 PAM  SZ I        11 6 34.72        27.3 0.24            138            102  56 
 RUS  HZ EP       11 6 16.32                             132    0.1910  111 158 
 RUS  HE ES       11 6 32.68                             132   -0.2410  111 158 
 RUS  HZ I        11 6 33.57        26.8 0.28            134            111 158 
 PTB  HZ IP     C 11 6 14.96                             131   -0.8810  114 254 
 PTB  HN ES   4   11 6 30.39                             131   -2.01 0  114 254 
 PTB  HZ I        11 6 35.38        30.4 0.18            129            114 254 
 SPBC HZ EP       11 6 18.73                             124   -0.26 9  146 208 
 SPBC HN ES       11 6 37.38                             124   -0.62 9  146 208 
 SPBC HZ I        11 6 42.59        31.6 0.28            123            146 208 
 ZAR  HZ EP       11 6 22.36                             119    0.79 9  171 296 
 ZAR  HE ES   1   11 6 43.06                             119    0.46 7  171 296 
 ZAR  HZ I        11 6 45.72        59.8 0.34            118            171 296 
 TAM  HZ EP       11 6 24.26                             116    0.72 9  189 103 
 NOR  HZ EP   1   11 6 26.04                             113    0.32 6  209 228 
 NOR  HN ES   4   11 6 47.94                             113   -2.04 0  209 228 
 NOR  HZ I        11 6 55.32        15.8 0.18            113            209 228 
 SML  HZ EP       11 6 27.18                             111   -0.79 8  229 343 
 SML  HN ES       11 6 53.35                             111   -0.64 8  229 343 
 SML  HZ I        11 7  0.44        31.0 0.10            111            229 343 
 HEL  HZ EP   4   11 6 30.93                             110    1.37 0  239 253 
 HEL  HN ES   4   11 6 57.79                             110    0.97 0  239 253 
 HEL  HZ I        11 7  1.55        12.7 0.28            110            239 253 
 URE  HZ EP       11 6 30.21                             109   -0.28 8  251 294 
 URE  HN ES   4   11 6 56.95                             109   -1.52 0  251 294 
 URE  HZ I        11 6 58.96        40.1 0.42            109            251 294 
 GUY2CHZ EP   1   11 6 34.40                             107    0.57 6  275 230 
 GUY2CHN ES   1   11 7  4.64                             107    0.23 6  275 230 
 GUY2CHZ I        11 7 11.72         8.5 0.64                           275 230 
 RREF HZ EP   4   11 6 38.68                             105    1.98 0  298 225 
 RREF HN ES   4   11 7  8.10                             105   -1.43 0  298 225 
 RREF HZ I        11 7 19.05         5.1 0.38            105            298 225 
 CBOC HZ EP   4   11 6 39.02                             105    2.45 0  301 250 
 DBB  SZ EP   4   11 6 38.41                             105    1.57 0  305 274 
 DBB  SZ ES   4   11 7  7.01                             105   -2.76 0  305 274 
 DBB  SZ I        11 7 13.69        44.8 0.34            105            305 274 
                                                                                
