 2010  227 1235 36.0 L   6.651 -73.347110.0  RSN  5 0.5 1.9LRSN                1
 GAP=109        1.08       6.5    12.2 10.0  0.3721E+02  0.5102E+02  0.1716E+02E
 Epicentro: GALAN - SANTANDER                                                  3
 ACTION:UP  10-08-24 09:51 OP:vdl  STATUS:               ID:20100227123536 L   I
 2010-02-27-1232-25S.COL___094                                                 6
 STAT SP IPHASW D HRMM SECON CODA AMPLIT PERI AZIMU VELO SNR AR TRES W  DIS CAZ7
 BAR2 SZ EP       1235 51.26                             170     0.110   19 110 
 BAR2 SZ ES   1   1236  3.70                             170     0.6 7   19 110 
 BRR  HZ EP       1235 52.20                             148    -0.710   65 321 
 BRR  HN ES   1   1236  6.32                             148     0.2 7   65 321 
 RUS  BZ EP       1235 55.07                             139    -0.310   89 161 
 RUS  BN ES   1   1236 10.57                             139     0.0 7   89 161 
 RUS  BZ I        1236 12.47         8.1 0.92                            89 161 
 OCA  SZ EP   2   1236  4.09                             118     0.7 4  176   1 
 OCA  SZ ES   2   1236 25.32                             118     0.5 4  176   1 
 OCA  SZ I        1236 31.48        20.8 0.34                           176   1 
 RREF BZ EP       1236 18.17                             105     0.6 7  294 229 
                                                                                
