 2011  927 1430 10.5 L   7.396 -73.318124.0  RSN  4 0.1 1.7LRSN                1
 GAP=257        0.31       9.3     6.2  5.7  0.5075E+02 -0.2700E+02 -0.4190E+02E
 Epicentro: EL PLAYON - SANTANDER                                              3
 ACTION:UPD 12-07-13 16:00 OP:ep   STATUS:               ID:20110927143010 L   I
 2011-09-27-1426-12S.COL___165                                                 6
 STAT SP IPHASW D HRMM SECON CODA AMPLIT PERI AZIMU VELO AIN AR TRES W  DIS CAZ7
 BTL  SZ EP       1430 28.58                             155   -0.0510 53.1 174 
 BRR  HZ EP       1430 28.38                             155    0.0610 54.0 234 
 BRR  HN ES       1430 42.22                             155   -0.0110 54.0 234 
 BRR  HZ I        1430 43.08        18.5 0.17                          54.0 234 
 BAR2 SZ EP       1430 31.07                             142    0.0710 90.1 170 
 BAR2 SZ ES   1   1430 46.93                             142   -0.06 7 90.1 170 
 BAR2 SZ I        1430 48.22        13.5 0.30                          90.1 170 
 ZAR  HZ EP   2   1430 37.81                             122   -0.23 4  170 274 
 ZAR  HZ I        1430 57.25         2.5 0.09                           170 274 
 ZAR  HE ES   2   1430 59.61                             122    0.08 4  170 274 
                                                                                
