 2011  627 1333 28.6 L   6.781 -73.112146.6  RSN  9 0.3 2.0LRSN                1
 GAP=160        0.53       3.0     4.4  5.2 -0.1796E+01  0.3561E+01  0.1175E+01E
 Epicentro: LOS SANTOS - SANTANDER                                             3
 ACTION:UP  11-07-14 19:08 OP:ep   STATUS:               ID:20110627133328 L   I
 2011-06-27-1329-32S.COL___140                                                 6
 STAT SP IPHASW D HRMM SECON CODA AMPLIT PERI AZIMU VELO SNR AR TRES W  DIS CAZ7
 BAR2 SZ EP   1   1333 48.25                             171    -0.1 7   22 200 
 BAR2 SZ ES   2   1334  3.45                             171    -0.2 5   22 200 
 BAR2 SZ I        1334  5.16        20.6 0.34                            22 200 
 BTL  SZ EP       1333 48.49                             170     0.210   23 312 
 BRR  HZ EP       1333 50.21                             151     0.110   75 299 
 BRR  HE ES   1   1334  7.07                             151     0.2 7   75 299 
 BRR  HZ I        1334 12.22        24.7 0.16                            75 299 
 RUS  HZ EP   1   1333 52.18                             145    -0.1 7   98 178 
 RUS  HN ES   1   1334 10.46                             145    -0.3 7   98 178 
 RUS  HZ I        1334 12.33         9.0 0.23                            98 178 
 BRI  SZ EP   2   1333 53.16                             141     0.5 5  109  19 
 GRA  SZ EP   2   1333 53.57                             137    -0.4 5  127  16 
 GRA  SZ ES   2   1334 13.56                             137    -0.3 5  127  16 
 GRA  SZ I        1334 14.92        18.7 0.33                           127  16 
 NOR  SZ EP   1   1334  4.37                             118    -0.2 6  236 235 
 NOR  SN ES   2   1334 32.26                             118    -0.4 4  236 235 
 CHI  HZ EP   2   1334  5.99                             117    -0.2 4  248 196 
 CHI  HN ES   2   1334 36.31                             117     0.7 4  248 196 
 CHI  HZ I        1334 42.31         6.5 0.21                           248 196 
 HEL  HZ EP   2   1334  9.38                             115     0.2 4  275 256 
 HEL  HN ES   2   1334 40.63                             115    -0.2 4  275 256 
 HEL  HZ I        1334 47.32         6.3 0.31                           275 256 
                                                                                
