 2013  227 1021 25.4 L   6.791 -73.154150.2  RSN 17 0.5 3.2LRSN 3.5WRSN        1
 SPEC AVERAGE  MO 14.4 ST 23.9 OM  2.8 f0 3.89 R0.3903 AL 2.66 WI 20.4 MW  3.5 3
 SPEC SD       MO  0.2 ST 16.2 OM  0.3 f00.640 R0.0734 AL      WI      MW  0.1 3
 GAP= 71        0.85       2.7     3.0  5.1  0.4781E+00  0.2353E+01  0.1444E+00E
 Epicentro: LOS SANTOS - SANTANDER                                             3
 SPEC ZAR HH E MO 14.7 ST 48.7 OM  2.9 f0 4.13 R0.3559 AL 2.22 WI 27.7 MW  3.7 3
 SPEC ZAR HH E T102222 K 0.000 GD  253 VS 4.20 DE 3.20 Q0300.0 QA 0.60 VS 4.20 3
 SPEC TAM HH E MO 14.3 ST  7.1 OM  2.6 f0 2.88 R0.5104 AL 2.20 WI 17.5 MW  3.5 3
 SPEC TAM HH E T102214 K 0.000 GD  216 VS 4.20 DE 3.20 Q0300.0 QA 0.60 VS 4.20 3
 SPEC PTB HH N MO 14.4 ST 32.6 OM  2.7 f0 4.48 R0.3281 AL 3.42 WI 14.2 MW  3.6 3
 SPEC PTB HH N T102212 K 0.000 GD  210 VS 4.20 DE 3.20 Q0300.0 QA 0.60 VS 4.20 3
 SPEC RUS HH N MO 14.1 ST 12.2 OM  2.4 f0 4.28 R0.3435 AL 2.86 WI 11.0 MW  3.3 3
 SPEC RUS HH N T1022 7 K 0.000 GD  180 VS 4.20 DE 3.20 Q0300.0 QA 0.60 VS 4.20 3
 SPEC OCA HH E MO 14.6 ST 45.5 OM  2.9 f0 4.23 R0.3475 AL 3.54 WI 22.9 MW  3.7 3
 SPEC OCA HH E T102214 K 0.000 GD  220 VS 4.20 DE 3.20 Q0300.0 QA 0.60 VS 4.20 3
 SPEC HEL HH N MO 14.3 ST 12.7 OM  2.4 f0 3.62 R0.4061 AL 2.41 WI 30.6 MW  3.5 3
 SPEC HEL HH N T102236 K 0.000 GD  309 VS 4.20 DE 3.20 Q0300.0 QA 0.60 VS 4.20 3
 SPEC CHI HH N MO 14.2 ST  4.7 OM  2.3 f0 2.88 R0.5104 AL 2.21 WI 19.9 MW  3.4 3
 SPEC CHI HH N T102231 K 0.000 GD  289 VS 4.20 DE 3.20 Q0300.0 QA 0.60 VS 4.20 3
 SPEC BRR HH N MO 14.3 ST 27.7 OM  2.7 f0 4.59 R0.3203 AL 2.39 WI 19.2 MW  3.5 3
 SPEC BRR HH N T1022 4 K 0.000 GD  166 VS 4.20 DE 3.20 Q0300.0 QA 0.60 VS 4.20 3
 ACTION:UPD 13-03-12 09:36 OP:ep   STATUS:               ID:20130227102125 L   I
 2013-02-27-1020-00M.COL___226                                                 6
 STAT SP IPHASW D HRMM SECON CODA AMPLIT PERI AZIMU VELO AIN AR TRES W  DIS CAZ7
 BAR2 SZ EP       1021 45.73                             171    0.1510 22.2 188 
 BAR2 SZ ES   1   1022  1.03                             171   -0.26 7 22.2 188 
 BAR2 SZ I        1022  4.02       382.4 0.40            164           22.2 188 
 BRR  HZ EP   1   1021 47.61                             153    0.57 7 70.8 300 
 BRR  HN ES   1   1022  4.56                             153    0.66 7 70.8 300 
 BRR  HZ I        1022 10.78       149.1 0.18            149           70.8 300 
 PAM  SZ EP   1   1021 48.51                             151    0.31 7 78.7  40 
 PAM  SN ES   1   1022  5.65                             151   -0.31 7 78.7  40 
 PAM  SZ I        1022  8.03       157.1 0.48            152           78.7  40 
 RUS  HZ EP     D 1021 49.54                             145   -0.0210 99.7 175 
 RUS  HE ES   1   1022  8.26                             145   -0.12 7 99.7 175 
 RUS  HZ I        1022 10.98       131.5 0.48            137           99.7 175 
 PTB  HZ EP   1   1021 52.20                             133   -0.47 7  147 259 
 PTB  HN ES   1   1022 13.51                             133   -0.40 7  147 259 
 PTB  HZ I        1022 15.87       247.9 0.36            127            147 259 
 TAM  HZ IP     C 1021 53.85                             131    0.32 9  156 105 
 TAM  HE ES   1   1022 15.47                             131    0.03 7  156 105 
 TAM  HZ I        1022 16.19        89.4 0.28            127            156 105 
 OCA  HZ EP   1   1021 53.92                             130   -0.25 7  161 354 
 OCA  HN ES   1   1022 16.20                             130   -0.38 7  161 354 
 OCA  HZ I        1022 20.74       204.6 0.28            128            161 354 
 ZAR  HZ EP   1   1021 57.99                             123   -0.13 6  204 292 
 ZAR  HE ES       1022 23.83                             123    0.22 9  204 292 
 ZAR  HZ I        1022 30.59       189.0 0.48            118            204 292 
 SML  HZ EP       1022  2.09                             118   -0.27 8  244 336 
 SML  HE ES   1   1022 31.72                             118    0.55 6  244 336 
 SML  HZ I        1022 36.14       227.9 0.07            115            244 336 
 CHI  HZ EP   1   1022  3.63                             118    0.38 6  247 195 
 CHI  HN ES   1   1022 32.11                             118   -0.65 6  247 195 
 CHI  HZ I        1022 40.94        59.9 0.56            112            247 195 
 ROSC BZ EP   4   1022  5.11                             118    1.45 0  251 211 
 ROSC BN ES   4   1022 36.52                             118    3.05 0  251 211 
 ROSC BZ I        1022 43.51       153.7 0.45            112            251 211 
 HEL  HZ EP   1   1022  5.56                             116   -0.19 6  271 256 
 HEL  HE ES   1   1022 36.30                             116   -0.89 6  271 256 
 HEL  HZ I        1022 43.91        86.2 0.30            111            271 256 
 URE  HZ E        1022  5.45                                            283 292 
 URE  HZ EP   4   1022  5.45                             114   -1.21 0  283 292 
 URE  HE ES   4   1022 35.66                             114   -3.16 0  283 292 
 VIL  SZ EP   1   1022  8.06                             113   -0.87 5  302 191 
 VIL  SZ I        1022 52.85        81.3 0.44            108            302 191 
 RREF HZ EP   1   1022 12.30                             112    0.68 5  320 229 
 RREF HN ES   1   1022 49.06                             112    1.42 5  320 229 
 RREF HZ I        1022 56.68       109.4 0.24            107            320 229 
 COD  HZ EP   1   1022 13.83                             110   -0.26 5  349 355 
 COD  HN ES   1   1022 51.58                             110   -0.46 5  349 355 
 COD  HZ I        1022 58.54        27.8 0.36            106            349 355 
 ANIL HZ EP   4   1022 16.85                             109    1.60 0  356 225 
 ANIL HE ES   4   1022 56.09                             109    1.98 0  356 225 
 ANIL HZ I        1022 59.68        59.4 0.28            105            356 225 
                                                                                
