 2016 1027 1215  1.2 L   6.772 -73.068140.0  RSN  4 0.3 1.1LRSN                1
 GAP=148        0.80       5.2     6.0  7.1 -0.1850E+02  0.1052E+02  0.3477E+00E
 Epicentro: LOS SANTOS - SANTANDER                                             3
 ACTION:UPD 16-11-09 19:23 OP:rebc STATUS:               ID:20161027121501 L   I
 OLDACT:UP  16-10-27 23:07 OP:edw  STATUS:               ID:20161027120750d    3
 OLDACT:DUP 16-10-27 23:03 OP:edw  STATUS:               ID:20161027120750d    3
 2016-10-27-1208-00M.COL___337                                                 6
 STAT SP IPHASW D HRMM SECON CODA AMPLIT PERI AZIMU VELO AIN AR TRES W  DIS CAZ7
 PAM  EZ EP       1215 22.37                             150   -0.2410 74.8  33 
 PAM  EE ES       1215 39.51                             150    0.1710 74.8  33 
 RUS  HZ EP       1215 23.87                             143   -0.2410 97.3 181 
 RUS  HN ES       1215 42.14                             143    0.1310 97.3 181 
 RUS  HZ I        1215 43.55         1.7 0.32            145           97.3 181 
 PTB  HZ EP   9   1215 26.70                             129   -1.71 0  156 261 
 PTB  HN ES       1215 47.61                             127   -0.34 9  156 261 
 PTB  HZ I        1215 53.47         2.5 0.32            129            156 261 
 NOR  HZ EP       1215 37.80                             116    0.65 8  240 236 
 NOR  HN ES       1216  4.86                             116   -0.36 8  240 236 
                                                                                
