 2011  527 1252 18.4 L   6.794 -73.135137.3  RSN 13 0.4 2.4LRSN                1
 GAP=157        0.81       3.3     5.3  5.8 -0.7728E+01  0.7124E+01  0.7113E+00E
 Epicentro: LOS SANTOS - SANTANDER                                             3
 ACTION:UP  11-06-29 08:56 OP:tino STATUS:               ID:20110527125218 L   I
 2011-05-27-1250-24S.COL___115                                                 6
 STAT SP IPHASW D HRMM SECON CODA AMPLIT PERI AZIMU VELO SNR AR TRES W  DIS CAZ7
 BTL  SZ EP       1252 37.25                             171     0.310   20 313 
 BAR2 SZ EP       1252 37.17                             170     0.210   23 193 
 BAR2 SZ ES   1   1252 51.03                             170    -0.5 7   23 193 
 BAR2 SZ I        1252 55.95        45.9 0.24                            23 193 
 GIR2 SZ EP   2   1252 36.82                             166    -0.3 5   32 348 
 BRR  HZ EP       1252 38.87                             150     0.110   73 299 
 BRR  HE ES   1   1252 55.19                             150     0.6 7   73 299 
 BRR  HZ I        1252 59.24        71.4 0.28                            73 299 
 RUS  HZ EP       1252 41.32                             142     0.010  100 177 
 RUS  HN ES   1   1252 59.41                             142     0.3 7  100 177 
 RUS  HZ I        1253  1.92        29.1 0.37                           100 177 
 BRI  SZ EP   1   1252 41.57                             139     0.0 7  109  20 
 GRA  SZ IP       1252 42.84                             135    -0.110  126  17 
 GRA  SZ I        1252 44.04        31.7 0.29                           126  17 
 GRA  SZ ES       1253  1.55                             135    -0.510  126  17 
 OCA  SZ EP   1   1252 45.91                             127    -0.2 7  161 353 
 OCA  SZ ES   2   1253  8.31                             127     0.5 5  161 353 
 NOR  SZ EP   1   1252 53.31                             116    -0.4 6  235 235 
 NOR  SN ES   1   1253 20.56                             116    -0.7 6  235 235 
 HEL  HZ EP   1   1252 58.82                             113     0.5 6  273 256 
 HEL  HN ES   2   1253 28.73                             113    -0.7 4  273 256 
 HEL  HZ I        1253 37.25        15.3 0.38                           273 256 
 RREF HZ EP   2   1253  5.09                             109     0.8 3  322 230 
 RREF HE ES   2   1253 40.03                             109     0.0 3  322 230 
 TOL  SZ EP   1   1253  7.07                             108     0.7 5  344 225 
 PRA  HZ EP   1   1253 11.11                             105    -0.5 4  392 210 
 PRA  HN ES   2   1253 53.01                             105    -0.2 3  392 210 
                                                                                
