 2016 1127 1648 19.1 L   6.764 -73.130139.6  RSN 11 0.5 2.2LRSN                1
 GAP= 96        1.10       5.4     3.9  6.6 -0.3062E+01  0.8383E+00  0.1668E+02E
 Epicentro: LOS SANTOS - SANTANDER                                             3
 ACTION:UPD 17-10-26 21:12 OP:lp   STATUS:               ID:20161127164819 L   I
 OLDACT:UP  16-11-28 05:26 OP:ar   STATUS:               ID:20161127164643     3
 OLDACT:UP  16-11-28 05:16 OP:ar   STATUS:               ID:20161127164643     3
 OLDACT:REG 16-11-27 20:56 OP:ar   STATUS:               ID:20161127164643     3
 2016-11-27-1647-00M.COL___345                                                 6
 STAT SP IPHASW D HRMM SECON CODA AMPLIT PERI AZIMU VELO AIN AR TRES W  DIS CAZ7
 BAR2 EZ EP       1648 37.82                             171   -0.1210 19.9 197 
 BAR2 EZ ES       1648 52.43                             171   -0.1910 19.9 197 
 BAR2 EZ I        1648 54.12        34.0 0.09            169           19.9 197 
 BRR  HZ EP       1648 39.75                             150   -0.0610 74.7 301 
 BRR  HN ES       1648 56.73                             150    0.7810 74.7 301 
 BRR  HZ I        1649  0.39        28.9 0.12            151           74.7 301 
 PAM  EZ EP       1648 40.75                             149   -0.0510 79.4  37 
 PAM  EE ES       1648 57.71                             149   -0.0110 79.4  37 
 PAM  EZ I        1649  0.02        38.7 0.74            153           79.4  37 
 PTB  HZ EP       1648 45.02                             130   -0.67 9  149 260 
 PTB  HE ES       1649  6.09                             130   -0.32 9  149 260 
 PTB  HZ I        1649  7.99        15.1 0.14            131            149 260 
 TAM  HZ EP       1648 46.31                             130    0.25 9  152 104 
 ZAR  HZ EP       1648 51.80                             120    0.30 8  207 293 
 ZAR  HN ES       1649 16.23                             120   -0.53 8  207 293 
 ZAR  HZ I        1649 22.30        21.0 0.42            122            207 293 
 NOR  HZ EP       1648 55.19                             117    0.78 8  234 235 
 NOR  HN ES       1649 21.73                             117   -0.21 8  234 235 
 NOR  HZ I        1649 23.67         7.8 0.16            118            234 235 
 PTGC HZ EP       1649  1.19                             111   -1.02 7  304 159 
 PTGC HN ES   4   1649 34.23                             111   -1.60 0  304 159 
 PTGC HZ I        1649 39.87         9.4 0.38            112            304 159 
 PRA  HZ EP       1649 12.83                             106    0.69 6  389 210 
 PRA  HN ES       1649 54.10                             106    0.61 6  389 210 
 PRA  HZ I        1649 58.49         4.6 0.68            107            389 210 
 ORTC HZ EP       1649 13.01                             105    0.42 6  393 217 
 ORTC HN ES   4   1649 56.31                             105    2.02 0  393 217 
 ORTC HZ I        1650  0.31         3.0 0.38            106            393 217 
 SJC  HZ EP   4   1649 12.13                             104   -2.86 0  413 327 
 SJC  HN ES   4   1649 53.43                             104   -5.14 0  413 327 
 SJC  HZ I        1649 57.03         4.3 0.74            106            413 327 
                                                                                
