 2015  127 1421  8.9 L   6.803 -73.139146.2  RSN 11 0.4 1.9LRSN                1
 GAP=137        0.89       3.0     4.0  5.5 -0.1116E+01  0.6417E+01  0.2202E+01E
 Epicentro: LOS SANTOS - SANTANDER                                             3
 ACTION:UPD 15-03-02 15:42 OP:nd   STATUS:               ID:20150127142108 L   I
 OLDACT:REG 15-01-27 19:34 OP:spq  STATUS:               ID:20150127141744     3
 2015-01-27-1417-44M.COL___274                                                 6
 STAT SP IPHASW D HRMM SECON CODA AMPLIT PERI AZIMU VELO AIN AR TRES W  DIS CAZ7
 BAR2 EZ EP       1421 28.47                             170   -0.1210 23.8 192 
 BAR2 EZ ES   1   1421 43.51                             170   -0.45 7 23.8 192 
 BAR2 EZ I        1421 44.37        12.0 0.30            168           23.8 192 
 BRR  HZ EP   1   1421 30.46                             152    0.34 7 71.7 298 
 BRR  HN ES       1421 47.34                             152    0.6610 71.7 298 
 BRR  HZ I        1421 50.81        15.3 0.14            150           71.7 298 
 PAM  SZ EP       1421 31.32                             151    0.2010 76.6  39 
 PAM  SE ES       1421 48.43                             151   -0.0210 76.6  39 
 PAM  SZ I        1421 50.76         7.8 0.38            155           76.6  39 
 RUS  HZ EP       1421 32.81                             144    0.0910  101 176 
 RUS  HE ES   1   1421 50.93                             144   -0.36 7  101 176 
 RUS  HZ I        1421 52.71         5.4 0.56            145            101 176 
 SPBC HZ EP       1421 38.01                             129    0.51 9  164 219 
 SPBC HN ES       1421 59.23                             129   -0.58 9  164 219 
 SPBC HZ I        1422  7.10        10.7 0.16            129            164 219 
 ZAR  HZ EP       1421 41.56                             122    0.13 9  205 292 
 ZAR  HN ES       1422  6.23                             122   -0.58 9  205 292 
 ZAR  HZ I        1422 11.88        13.1 0.56            122            205 292 
 NOR  HZ EP       1421 44.53                             118   -0.21 8  236 234 
 NOR  HN ES       1422 13.16                             118    0.46 8  236 234 
 NOR  HZ I        1422 14.51         5.1 0.42            119            236 234 
 SML  HZ EP   1   1421 44.91                             118   -0.64 6  244 335 
 SML  HN ES   1   1422 13.88                             118   -0.26 6  244 335 
 SML  HZ I        1422 20.18        12.8 0.26            118            244 335 
 CHI  HZ EP   1   1421 46.25                             117   -0.43 6  249 195 
 CHI  HN ES   1   1422 16.62                             117    0.47 6  249 195 
 CHI  HZ I        1422 20.85         3.9 0.18            118            249 195 
 GUY2CHZ EP   1   1421 52.57                             112   -0.05 5  302 235 
 GUY2CHE ES   4   1422 28.52                             112    1.80 0  302 235 
 GUY2CHZ I        1422 36.37         2.9 0.56                           302 235 
 RREF HZ EP   4   1421 56.96                             111    1.81 0  323 229 
 RREF HN ES   4   1422 34.97                             111    3.74 0  323 229 
 RREF HZ I        1422 41.24         3.3 0.44            111            323 229 
                                                                                
