 2011  227 1332 32.4 L   6.781 -73.265121.1  RSN  4 0.3 1.7LRSN                1
 GAP=166        0.63       4.1    33.8  8.0  0.6164E+02  0.1423E+03  0.9481E+00E
 Epicentro: ZAPATOCA - SANTANDER                                               3
 ACTION:UP  11-03-28 15:11 OP:jfem STATUS:               ID:20110227133232 L   I
 2011-02-27-1331-00S.COL___132                                                 6
 STAT SP IPHASW D HRMM SECON CODA AMPLIT PERI AZIMU VELO SNR AR TRES W  DIS CAZ7
 BAR2 SZ EP       1332 49.07                             169     0.110   23 157 
 BAR2 SZ ES   1   1333  2.26                             169     0.2 7   23 157 
 BAR2 SZ I        1333  3.07        24.7 0.21                            23 157 
 RUS  HZ EP       1332 53.59                             138    -0.210  100 168 
 RUS  HN ES   2   1333 10.12                             138    -0.3 5  100 168 
 RUS  HZ I        1333 12.23         7.6 0.34                           100 168 
 OCA  SZ EP       1332 59.14                             123     0.2 9  161 358 
 OCA  SZ ES   2   1333 19.07                             123    -0.7 5  161 358 
 OCA  SZ I        1333 22.31        10.3 0.26                           161 358 
 CHI  HZ EP   2   1333  8.75                             112     0.5 4  243 192 
 CHI  HN ES   3   1333 35.51                             112    -0.7 2  243 192 
 CHI  HZ I        1333 43.76         2.8 0.82                           243 192 
                                                                                
