 2013  527 1049 28.0 L   7.019 -73.315114.0  RSN  8 0.5 2.0LRSN                1
 GAP=140        1.15       5.6     4.7  6.6 -0.3499E+01  0.9104E+01  0.7552E+01E
 Epicentro: BETULIA - SANTANDER                                                3
 ACTION:UPD 13-06-20 09:54 OP:ep   STATUS:               ID:20130527104928 L   I
 2013-05-27-1048-51M.COL___210                                                 6
 STAT SP IPHASW D HRMM SECON CODA AMPLIT PERI AZIMU VELO AIN AR TRES W  DIS CAZ7
 GIR2 SZ EP       1049 43.11                             172   -0.3410 15.0  64 
 GIR2 SZ ES       1049 55.63                             172    0.0910 15.0  64 
 BRR  HZ EP       1049 43.80                             157   -0.4210 44.9 283 
 BRR  HN ES       1049 57.29                             157    0.3810 44.9 283 
 BRR  HN I        1049 57.90        42.0 0.18            157           44.9 283 
 BAR2 SZ EP       1049 44.98                             155    0.1810 49.4 163 
 BAR2 SZ I        1049 45.15        58.7 0.10            154           49.4 163 
 BAR2 SZ ES       1049 58.48                             155    0.5410 49.4 163 
 PAM  SZ EP       1049 46.54                             145   -0.3110 76.7  62 
 PAM  SN ES       1050  1.84                             145    0.2510 76.7  62 
 RUS  HZ EP       1049 50.91                             129   -0.2310  127 168 
 RUS  HN ES       1050  8.92                             129   -0.3010  127 168 
 RUS  HE I        1050 11.30         6.4 0.50            129            127 168 
 PTB  HZ EP       1049 50.77                             126   -0.67 9  137 247 
 PTB  HN ES       1050  9.42                             126   -0.34 9  137 247 
 PTB  HE I        1050 12.47        13.1 0.22            126            137 247 
 HEL  HZ EP       1050  6.47                             109    0.96 8  261 250 
 GUY2CHZ EP       1050 11.23                             106    0.91 7  301 229 
                                                                                
