 2012  127 1506 39.6 L   6.736 -73.149142.6  RSN  5 0.2 1.6LRSN                1
 GAP=183        0.58       5.9     7.3  5.8  0.2190E+02  0.7122E+01  0.4620E+01E
 Epicentro: JORDAN - SANTANDER                                                 3
 ACTION:UP  12-02-03 08:21 OP:REBC STATUS:               ID:20120127150639 L   I
 2012-01-27-1500-00M.COL___188                                                 6
 STAT SP IPHASW D HRMM SECON CODA AMPLIT PERI AZIMU VELO SNR AR TRES W  DIS CAZ7
 BAR2 SZ EP       15 6 58.71                             173     0.010   16 193 
 BAR2 SZ I        15 6 58.87        11.0 0.40                            16 193 
 BAR2 SZ ES   1   15 7 13.39                             173    -0.2 7   16 193 
 GIR2 SZ EP       15 6 58.88                             164    -0.210   38 353 
 BRR  HZ EP       15 7  0.67                             151     0.110   74 303 
 BRR  HN ES   1   15 7 17.23                             151     0.3 7   74 303 
 BRR  HZ I        15 7 20.65        11.2 0.34                            74 303 
 RUS  HZ EP       15 7  2.78                             145     0.310   94 176 
 RUS  HN ES   2   15 7 20.28                             145    -0.1 5   94 176 
 PTB  HZ EP       15 7  5.92                             132    -0.2 9  146 262 
 PTB  HZ I        15 7 28.52         2.8 0.16                           146 262 
                                                                                
