 2012  927 1116 27.4 L   6.772 -73.109145.7  RSN  6 0.3 2.1LRSN                1
 GAP=143        0.55       3.0     3.9  4.9 -0.2094E+01  0.2719E+01  0.2842E+01E
 Epicentro: LOS SANTOS - SANTANDER                                             3
 ACTION:UPD 12-10-22 14:21 OP:ep   STATUS:               ID:20120927111627 L   I
 2012-09-27-1110-00M.COL___217                                                 6
 STAT SP IPHASW D HRMM SECON CODA AMPLIT PERI AZIMU VELO AIN AR TRES W  DIS CAZ7
 BAR2 SZ EP       1116 46.87                             171   -0.0910 21.5 202 
 BAR2 SZ ES   1   1117  1.76                             171   -0.47 7 21.5 202 
 BRR  HZ EP       1116 48.75                             151   -0.0610 76.2 299 
 BRR  HN ES   1   1117  6.02                             151    0.50 7 76.2 299 
 BRR  HN I        1117 10.24        48.3 0.16                          76.2 299 
 PAM  SZ EP       1116 49.67                             151    0.0910 77.4  36 
 PAM  SN ES   1   1117  6.78                             151   -0.12 7 77.4  36 
 PAM  SN I        1117  8.12        30.5 0.46                          77.4  36 
 RUS  HZ EP   1   1116 50.81                             145   -0.07 7 97.3 178 
 RUS  HE ES   1   1117  9.56                             145    0.34 7 97.3 178 
 RUS  HZ I        1117 12.12        12.1 0.50                          97.3 178 
 CHI  HZ EP   1   1117  5.05                             117    0.19 6  247 196 
 CHI  HN ES   1   1117 34.08                             117   -0.02 6  247 196 
 CHI  HN I        1117 37.67         7.0 0.38                           247 196 
 HEL  HE ES   1   1117 39.25                             114   -0.32 6  275 257 
                                                                                
