 2011 1027 1839  2.5 L   6.795 -73.128139.0  RSN  4 0.2 1.6LRSN                1
 GAP=139        0.40       2.6     3.7  4.3 -0.1997E+00 -0.1024E+01  0.1082E+01E
 Epicentro: LOS SANTOS - SANTANDER                                             3
 ACTION:UPD 12-07-13 16:06 OP:ep   STATUS:               ID:20111027183902 L   I
 2011-10-27-1835-39S.COL___176                                                 6
 STAT SP IPHASW D HRMM SECON CODA AMPLIT PERI AZIMU VELO AIN AR TRES W  DIS CAZ7
 BAR2 SZ EP       1839 21.07                             170   -0.2010 23.2 195 
 BAR2 SZ ES   2   1839 35.61                             170   -0.33 5 23.2 195 
 BAR2 SZ I        1839 37.56         7.8 0.34                          23.2 195 
 BRR  HZ EP       1839 23.12                             151    0.1310 73.2 298 
 BRR  HZ I        1839 36.76        15.6 0.38                          73.2 298 
 BRR  HE ES   1   1839 39.00                             151   -0.01 7 73.2 298 
 PAM  SZ EP       1839 23.88                             150   -0.0210 76.6  38 
 PAM  SN ES   1   1839 40.75                             150    0.12 7 76.6  38 
 RUS  HZ EP       1839 25.50                             143    0.0010 99.9 177 
 RUS  HN ES   1   1839 43.67                             143    0.20 7 99.9 177 
 RUS  HZ I        1839 45.44         3.3 0.46                          99.9 177 
                                                                                
