 2015  527 1503 52.9 L   6.362 -73.624113.9  RSN  4 0.1 1.4LRSN                1
 GAP=174        0.34       2.9     3.3  4.5 -0.6400E+01  0.9871E+01 -0.4997E+01E
 Epicentro: SANTA HELENA DEL OPON - SANTANDER                                  3
 ACTION:UPD 15-09-10 22:07 OP:cam  STATUS:               ID:20150527145746 L   I
 OLDACT:UP  15-06-02 20:30 OP:cam  STATUS:               ID:20150527145746 L   3
 OLDACT:UP  15-06-02 20:30 OP:cam  STATUS:               ID:20150527145746 L   3
 OLDACT:UPD 15-06-01 11:34 OP:Mher STATUS:               ID:20150527145746 L   3
 2015-05-27-1457-46M.COL___299                                                 6
 STAT SP IPHASW D HRMM SECON CODA AMPLIT PERI AZIMU VELO AIN AR TRES W  DIS CAZ7
 BAR2 EZ EP       15 4 10.09                             152    0.0310 55.1  63 
 BAR2 EZ ES       15 4 23.47                             152    0.0510 55.1  63 
 BAR2 EZ I        15 4 25.06         7.9 0.42            155           55.1  63 
 PAM  SZ EP   1   15 4 18.34                             124    0.12 7  149  43 
 PAM  SN ES   1   15 4 37.71                             124   -0.24 7  149  43 
 PAM  SZ I        15 4 38.19         4.4 0.24            126            149  43 
 GUY2CHZ EP   1   15 4 27.02                             112   -0.03 6  230 237 
 GUY2CHE ES   1   15 4 53.58                             112   -0.09 6  230 237 
 GUY2CHZ I        15 4 59.47         1.6 0.36                           230 237 
 SML  HE ES   1   15 5  1.64                             107    0.05 6  274 350 
                                                                                
