 2013  827 1102  3.5 L   6.714 -73.225143.9  RSN  4 0.2 1.3LRSN                1
 GAP=212        0.56       4.3     4.0  4.5  0.8440E+01  0.2535E+01  0.1203E+01E
 Epicentro: VILLANUEVA - SANTANDER                                             3
 ACTION:UPD 14-01-14 09:07 OP:ep   STATUS:               ID:20130827110203 L   I
 OLDACT:REG 13-08-27 15:22 OP:nd   STATUS:               ID:20130827105959     3
 2013-08-27-1059-59M.COL___270                                                 6
 STAT SP IPHASW D HRMM SECON CODA AMPLIT PERI AZIMU VELO AIN AR TRES W  DIS CAZ7
 BAR2 SZ EP       11 2 22.37                             174   -0.3710 14.2 161 
 BAR2 SZ ES       11 2 37.64                             174   -0.1210 14.2 161 
 BAR2 SZ I        11 2 38.86         6.0 0.18            177           14.2 161 
 BRR  HZ EP       11 2 24.43                             153    0.1110 69.2 309 
 BRR  HN ES       11 2 40.76                             153    0.1910 69.2 309 
 BRR  HZ I        11 2 48.09         6.3 0.56            152           69.2 309 
 RUS  HZ EP       11 2 26.74                             146    0.2910 92.2 170 
 RUS  HN ES       11 2 44.42                             146    0.0510 92.2 170 
 RUS  HZ I        11 2 46.02         1.8 0.30            152           92.2 170 
 PTB  HZ EP       11 2 29.27                             134   -0.11 9  138 262 
 PTB  HN ES       11 2 49.52                             134   -0.06 9  138 262 
 PTB  HZ I        11 2 52.75         1.8 0.12            136            138 262 
                                                                                
