 2014  827 1750 52.6 L   6.817 -73.150148.0  RSN  7 0.5 1.9LRSN                1
 GAP= 70        1.30       5.4     5.8  8.0  0.3485E+01 -0.4376E+00 -0.7072E+01E
 Epicentro: LOS SANTOS - SANTANDER                                             3
 ACTION:UPD 14-09-15 21:53 OP:nd   STATUS:               ID:20140827175052 L   I
 OLDACT:REG 14-08-27 21:56 OP:stll STATUS:               ID:20140827174821     3
 2014-08-27-1748-21M.COL___269                                                 6
 STAT SP IPHASW D HRMM SECON CODA AMPLIT PERI AZIMU VELO AIN AR TRES W  DIS CAZ7
 BAR2 SZ EP       1751 12.54                             170   -0.0110 25.1 188 
 BAR2 SZ ES       1751 27.35        30.7 0.16            170   -0.7610 25.1 188 
 BAR2 SZ I        1751 29.28        30.7 0.16            173           25.1 188 
 BRR  HZ EP       1751 14.63                             153    0.6910 69.9 297 
 BRR  HZ I        1751 15.96        12.7 0.44            151           69.9 297 
 BRR  HN ES     D 1751 31.67                             153    1.1010 69.9 297 
 PAM  SZ EP       1751 15.12                             152    0.1110 76.3  41 
 PAM  SN ES       1751 32.47                             152   -0.0010 76.3  41 
 PAM  SZ I        1751 34.73         9.5 0.48            150           76.3  41 
 RUS  HZ EP       1751 16.53                             144   -0.1910  102 176 
 RUS  HN ES       1751 35.38                             144   -0.1510  102 176 
 RUS  HZ I        1751 36.98         9.1 0.40            147            102 176 
 PTB  HZ EP       1751 19.83                             133    0.07 9  148 258 
 PTB  HN ES       1751 40.60                             133   -0.33 9  148 258 
 PTB  HZ I        1751 42.29         7.6 0.40            133            148 258 
 TAM  HZ EP       1751 20.81                             131    0.25 9  156 106 
 SML  HZ EP       1751 28.76                             118   -0.40 8  242 335 
 SML  HN ES       1751 56.85                             118   -0.82 8  242 335 
 SML  HZ I        1752  7.24         9.3 0.24            118            242 335 
                                                                                
