 2011 1127 1204  1.3 L   6.755 -73.082143.8  RSN  8 0.3 1.9LRSN                1
 GAP=147        0.58       3.7     5.0  4.7 -0.2953E+01  0.5672E+01  0.3343E+01E
 Epicentro: LOS SANTOS - SANTANDER                                             3
 ACTION:UPD 12-07-13 16:12 OP:ep   STATUS:               ID:20111127120401 L   I
 2011-11-27-1201-03S.COL___160                                                 6
 STAT SP IPHASW D HRMM SECON CODA AMPLIT PERI AZIMU VELO AIN AR TRES W  DIS CAZ7
 BAR2 SZ EP       12 4 20.46                             171   -0.1610 21.2 211 
 BAR2 SZ ES   1   12 4 35.19                             171   -0.52 7 21.2 211 
 BAR2 SZ I        12 4 38.13        16.9 0.30                          21.2 211 
 PAM  SZ EP       12 4 23.35                             150    0.0910 77.2  33 
 PAM  SZ I        12 4 23.53         9.7 0.18                          77.2  33 
 PAM  SE ES   1   12 4 40.63                             150    0.21 7 77.2  33 
 BRR  HZ EP   1   12 4 22.47                             149   -0.24 7 79.7 299 
 BRR  HN ES   1   12 4 39.62                             149    0.18 7 79.7 299 
 BRR  HZ I        12 4 41.78        23.4 0.13                          79.7 299 
 RUS  HZ EP   1   12 4 24.35                             145   -0.10 7 95.4 180 
 RUS  HN ES   1   12 4 43.02                             145    0.48 7 95.4 180 
 RUS  HZ I        12 4 44.41         6.9 0.15                          95.4 180 
 CHI  HZ EP   1   12 4 38.24                             117   -0.31 6  246 197 
 CHI  HZ I        12 4 39.42         2.8 0.24                           246 197 
 HEL  HZ EP   1   12 4 42.13                             114    0.13 6  278 257 
 HEL  HZ I        12 5 17.75         5.5 0.51                           278 257 
 GUY  SZ EP   1   12 4 45.86                             111    0.47 5  307 237 
 GUY  SZ I        12 5 27.96        11.4 0.38                           307 237 
 RREF HZ EP   2   12 4 47.54                             110   -0.03 3  324 231 
 RREF HZ I        12 5 28.97         5.6 0.30                           324 231 
                                                                                
