 2017  927 1122 53.7 L   6.837 -73.133147.0  RSN  5 0.3 1.5LRSN                1
 GAP=242        0.76       4.8     5.2  6.0  0.1163E+02  0.1011E+02  0.6185E+01E
 Epicentro: LOS SANTOS - SANTANDER                                             3
 ACTION:UPD 17-10-05 19:16 OP:rebc STATUS:               ID:20170927112253 L   I
 OLDACT:REG 17-09-27 20:13 OP:dhb  STATUS:               ID:20170927111736     3
 2017-09-27-1118-00M.COL___447                                                 6
 STAT SP IPHASW D HRMM SECON CODA AMPLIT PERI AZIMU VELO AIN AR TRES W  DIS CAZ7
 BAR2 EZ EP       1123 13.66                             169    0.1310 27.6 191 
 BAR2 EZ ES       1123 28.61                             169   -0.4110 27.6 191 
 BAR2 EZ I        1123 30.00         8.6 0.21            175           27.6 191 
 BRR  HZ EP       1123 14.46                             153   -0.4510 70.6 295 
 BRR  HZ I        1123 29.73         9.7 0.33            146           70.6 295 
 BRR  HN ES       1123 31.77                             153    0.2910 70.6 295 
 RUS  HZ EP       1123 18.18                             143    0.3610  105 177 
 RUS  HE ES       1123 36.81                             143    0.1510  105 177 
 RUS  HZ I        1123 37.49         3.4 0.20            143            105 177 
 ZAR  HE ES       1123 51.74                             123    0.22 9  204 291 
 ZAR  HZ I        1123 58.20         1.9 0.15            117            204 291 
 NOR  HZ EP       1123 29.62                             118   -0.22 8  238 234 
 NOR  HN ES       1123 57.93                             118   -0.13 8  238 234 
 NOR  HZ I        1124  2.85         1.8 0.28            115            238 234 
                                                                                
