 2016  827 1203  2.1 L   6.761 -73.146139.5  RSN  8 0.4 1.7LRSN                1
 GAP=138        1.06       4.3     4.5  6.8 -0.6997E+00  0.8134E+01  0.2307E+00E
 Epicentro: LOS SANTOS - SANTANDER                                             3
 ACTION:UPD 16-10-29 15:39 OP:rebc STATUS:               ID:20160827120302 L   I
 OLDACT:DUP 16-08-27 23:07 OP:ar   STATUS:               ID:20160827115734d    3
 OLDACT:UP  16-08-27 23:06 OP:ar   STATUS:               ID:20160827115733     3
 OLDACT:UP  16-08-27 23:05 OP:ar   STATUS:               ID:20160827115733     3
 OLDACT:REG 16-08-27 21:30 OP:ar   STATUS:               ID:20160827115733     3
 2016-08-27-1158-00M.COL___371                                                 6
 STAT SP IPHASW D HRMM SECON CODA AMPLIT PERI AZIMU VELO AIN AR TRES W  DIS CAZ7
 BAR2 HZ IP     C 12 3 20.78                             172   -0.0710 19.1 192 
 BAR2 HZ ES       12 3 35.36                             172   -0.1510 19.1 192 
 BAR2 HZ I        12 3 37.02         5.9 0.16                          19.1 192 
 BRR  HZ IP     C 12 3 22.57                             151   -0.0910 73.3 301 
 BRR  HN ES       12 3 39.42                             151    0.6910 73.3 301 
 BRR  HZ I        12 3 40.36        10.8 0.25                          73.3 301 
 PAM  EZ EP       12 3 23.65                             149   -0.1710 80.7  38 
 PAM  HN ES       12 3 40.50                             149   -0.2910 80.7  38 
 PAM  EZ I        12 3 42.47        11.6 0.50                          80.7  38 
 RUS  HZ EP       12 3 25.29                             144    0.4110 96.3 176 
 RUS  HN ES       12 3 42.85                             144    0.1610 96.3 176 
 RUS  HZ I        12 3 44.72         5.5 0.24                          96.3 176 
 PTB  HZ EP       12 3 27.74                             131   -0.71 9  147 260 
 PTB  HN ES       12 3 48.33                             131   -0.70 9  147 260 
 PTB  HZ I        12 3 51.92         4.7 0.26                           147 260 
 SPBC HZ EP       12 3 29.76                             128   -0.00 9  160 220 
 SPBC HN ES       12 3 51.51                             128    0.14 9  160 220 
 SPBC HZ I        12 3 55.01        10.9 0.16                           160 220 
 ZAR  HZ EP       12 3 35.03                             121    0.76 8  206 293 
 ZAR  HN ES       12 3 59.52                             121    0.12 8  206 293 
 ZAR  HZ I        12 4  4.62         7.6 0.32                           206 293 
 GUY2CHZ EP   4   12 3 47.44                             111    2.34 0  299 235 
 GUY2CHN ES   4   12 4 21.40                             111    2.72 0  299 235 
 GUY2CHZ I        12 4 27.19         3.0 0.32                           299 235 
                                                                                
