 2010  627 1639  6.5 L   6.807 -73.116143.3  RSN  8 0.4 1.9LRSN                1
 GAP=159        0.65       3.8     7.4  6.0 -0.1878E+01 -0.1684E+01 -0.2771E+00E
 Epicentro: LOS SANTOS - SANTANDER                                             3
 ACTION:UP  10-08-24 10:13 OP:vdl  STATUS:               ID:20100627163906 L   I
 2010-06-27-1636-25S.COL___118                                                 6
 STAT SP IPHASW D HRMM SECON CODA AMPLIT PERI AZIMU VELO SNR AR TRES W  DIS CAZ7
 BAR2 SZ IP       1639 25.84                             170    -0.110   25 197 
 BAR2 SZ ES   1   1639 41.01                             170     0.0 7   25 197 
 BRR  HZ EP   1   1639 27.53                             151     0.0 7   74 297 
 BRR  HE ES   1   1639 43.70                             151    -0.3 7   74 297 
 BRR  HZ I        1639 47.01        11.8 0.13                            74 297 
 RUS  HZ EP   1   1639 29.88                             143    -0.2 7  101 178 
 RUS  HN ES   2   1639 48.92                             143     0.4 5  101 178 
 RUS  HZ I        1639 50.34        10.6 0.18                           101 178 
 BRI  SZ EP   2   1639 30.37                             141     0.3 5  107  19 
 BRI  SZ ES   2   1639 48.93                             141     0.5 5  107  19 
 GUE  SZ EP   2   1639 30.49                             139    -0.4 5  115  11 
 OCA  SZ EP   1   1639 34.39                             129    -0.2 7  160 352 
 OCA  SZ ES   2   1639 57.12                             129     0.6 5  160 352 
 OCA  SZ I        1640  0.64        10.1 0.23                           160 352 
 HEL  HZ EP   2   1639 47.98                             114     1.0 4  275 256 
 HEL  HZ I        1640 25.40         5.0 0.20                           275 256 
 PRA  HZ EP   2   1639 59.87                             106    -0.4 3  394 210 
 PRA  HN ES   2   1640 42.91                             106     0.8 3  394 210 
 PRA  HZ I        1640 47.71         3.9 0.30                           394 210 
                                                                                
