 2017  827 1015 16.1 L   6.818 -73.116155.8  RSN  5 0.2 1.2LRSN                1
 GAP=242        0.59       4.0     4.6  5.8  0.9486E+01  0.3126E+01  0.2449E+01E
 Epicentro: LOS SANTOS - SANTANDER                                             3
 ACTION:UPD 17-09-04 20:25 OP:rebc STATUS:               ID:20170827101516 L   I
 OLDACT:REG 17-08-27 20:16 OP:osc  STATUS:               ID:20170827100735     3
 2017-08-27-1008-00M.COL___411                                                 6
 STAT SP IPHASW D HRMM SECON CODA AMPLIT PERI AZIMU VELO AIN AR TRES W  DIS CAZ7
 BAR2 EZ EP       1015 36.90                             170   -0.0510 26.1 196 
 BAR2 EZ ES       1015 52.91                             170   -0.3410 26.1 196 
 BAR2 EZ I        1015 53.53         4.6 0.16            170           26.1 196 
 BRR  HE ES       1015 56.21                             153    0.3710 73.2 296 
 RUS  HZ EP       1015 41.02                             145    0.0810  102 178 
 RUS  HN ES       1016  0.45                             145    0.1010  102 178 
 RUS  HZ I        1016  0.84         1.4 0.20            145            102 178 
 SPBC HE ES       1016  8.78                             131   -0.01 9  167 219 
 ZAR  HN ES       1016 15.22                             124   -0.21 8  206 291 
                                                                                
