 2013 1227 1630 33.9 L   6.187 -73.428145.2  RSN 13 0.5 2.3LRSN                1
 GAP= 61        1.13       3.5     4.4  6.8 -0.3713E+01  0.5914E+01  0.4187E+01E
 Epicentro: GUADALUPE - SANTANDER                                              3
 ACTION:UPD 14-01-13 10:21 OP:ep   STATUS:               ID:20131227163033 L   I
 OLDACT:REG 13-12-27 14:23 OP:jn   STATUS:               ID:20131227163000     3
 2013-12-27-1630-00M.COL___285                                                 6
 STAT SP IPHASW D HRMM SECON CODA AMPLIT PERI AZIMU VELO AIN AR TRES W  DIS CAZ7
 RUS  HZ EP       1630 54.48                             160   -0.1610 50.2 130 
 RUS  HN ES       1631 10.99                             160    0.1510 50.2 130 
 RUS  HZ I        1631 13.84        19.1 0.36            162           50.2 130 
 BAR2 SZ EP       1630 54.34                             159   -0.0210 52.4  31 
 BAR2 SZ ES       1631 10.32                             159   -0.0310 52.4  31 
 BAR2 SZ I        1631 11.78        65.7 0.32            160           52.4  31 
 SPBC HZ EP       1630 56.57                             146    0.1410 92.6 230 
 SPBC HE ES       1631 14.61                             146    0.5810 92.6 230 
 SPBC HZ I        1631 15.95        64.5 0.36            146           92.6 230 
 BRR  HZ EP       1630 57.53                             142    0.2210  107 343 
 BRR  HN ES       1631 16.44                             142    0.8510  107 343 
 BRR  HZ I        1631 19.44        28.2 0.26            142            107 343 
 PTB  HZ EP       1630 58.15                             138   -0.2610  120 289 
 PTB  HN ES       1631 16.74                             138   -0.8110  120 289 
 PTB  HZ I        1631 18.56        23.8 0.50            138            120 289 
 PAM  SN ES   1   1631 23.38                             131   -0.04 7  151  32 
 PAM  SZ I        1631 25.48        22.3 0.32            133            151  32 
 NOR  HZ EP       1631  4.12                             127    0.82 9  174 247 
 NOR  HN ES       1631 25.56                             127   -0.69 9  174 247 
 NOR  HZ I        1631 28.60        20.3 0.56            128            174 247 
 CHI  HZ EP       1631  4.12                             127    0.18 9  175 191 
 CHI  HN ES       1631 26.83                             127   -0.56 9  175 191 
 CHI  HZ I        1631 33.72        13.4 0.42            128            175 191 
 ROSC BE ES   4   1631 30.45                             126    2.54 0  179 214 
 TAM  HN ES   2   1631 26.75                             125   -1.12 4  183  81 
 TAM  HZ I        1631 27.69        24.5 0.26            127            183  81 
 ZAR  HE ES   2   1631 32.86                             121   -0.55 4  214 312 
 ZAR  HZ I        1631 39.94        14.9 0.30            121            214 312 
 OCA  HN ES   1   1631 35.80                             119   -0.42 6  227   3 
 OCA  HZ I        1631 39.64        35.2 0.24            120            227   3 
 GUY2CHN ES   4   1631 41.07                             118    1.78 0  239 244 
 GUY2CHZ I        1631 46.95        13.6 0.26                           239 244 
 ORTC HZ EP       1631 19.25                             110   -0.08 7  323 219 
 ORTC HE ES       1631 54.82                             110    0.03 7  323 219 
 ORTC HZ I        1631 59.83         6.3 0.34            111            323 219 
                                                                                
