 2011 1127 1847 22.8 L   6.810 -73.150150.5  RSN  4 0.3 1.2LRSN                1
 GAP=135        0.45       4.0     7.3  6.6  0.1553E+01 -0.2943E+01  0.7668E+00E
 Epicentro: LOS SANTOS - SANTANDER                                             3
 ACTION:UPD 12-07-13 16:12 OP:ep   STATUS:               ID:20111127184722 L   I
 2011-11-27-1845-11S.COL___160                                                 6
 STAT SP IPHASW D HRMM SECON CODA AMPLIT PERI AZIMU VELO AIN AR TRES W  DIS CAZ7
 BAR2 SZ ES   2   1847 58.75                             170   -0.06 5 24.3 188 
 BAR2 SZ I        1847 59.13         3.6 0.15                          24.3 188 
 BRR  HZ EP   2   1847 43.88                             154   -0.55 5 70.2 298 
 BRR  HN ES   2   1848  1.60                             154    0.32 5 70.2 298 
 PAM  SZ EP   2   1847 45.71                             152    0.20 5 76.9  40 
 PAM  SE ES   2   1848  3.10                             152   -0.11 5 76.9  40 
 PAM  SZ I        1848  4.64         2.4 0.40                          76.9  40 
 RUS  HZ EP   1   1847 47.31                             144    0.19 7  102 176 
 RUS  HN ES   1   1848  5.96                             144   -0.11 7  102 176 
 RUS  HZ I        1848  6.48         2.3 0.27                           102 176 
                                                                                
