 2012  127 1357 48.7 L   6.228 -73.145181.9  RSN  7 0.4 2.2LRSN                1
 GAP=148        1.03       9.0     8.1  9.1 -0.2558E+01 -0.3380E+01  0.1715E+02E
 Epicentro: CHARALA - SANTANDER                                                3
 ACTION:UP  12-02-03 08:21 OP:REBC STATUS:               ID:20120127135748 L   I
 2012-01-27-1350-00M.COL___188                                                 6
 STAT SP IPHASW D HRMM SECON CODA AMPLIT PERI AZIMU VELO SNR AR TRES W  DIS CAZ7
 RUS  HZ EP       1358 13.59                             168     0.310   38 170 
 RUS  HZ I        1358 13.94        15.1 0.36                            38 170 
 RUS  HN ES   2   1358 32.86                             168     0.3 5   38 170 
 BAR2 SZ IP       1358 12.87                             167    -0.210   40 354 
 BAR2 SZ I        1358 13.08        23.4 0.18                            40 354 
 BAR2 SZ ES   1   1358 31.76                             167    -0.3 7   40 354 
 GIR2 SZ EP       1358 15.12                             151    -0.110   94 357 
 GIR2 SZ ES   1   1358 35.45                             151    -0.5 7   94 357 
 BRR  HZ IP       1358 16.77                             146     0.410  116 327 
 BRR  HZ I        1358 17.50        25.8 0.30                           116 327 
 BRR  HN ES   1   1358 39.14                             146     1.1 7  116 327 
 PAM  SZ EP       1358 18.27                             143     0.010  132  22 
 PAM  SN ES   2   1358 40.96                             143    -0.4 5  132  22 
 PTB  HZ EP       1358 18.56                             139    -0.3 9  149 283 
 PTB  HE ES   1   1358 42.07                             139    -0.4 7  149 283 
 PTB  HZ I        1358 43.44        10.4 0.42                           149 283 
 ZAR  HN ES   3   1358 55.96                             125    -0.5 2  235 307 
 ZAR  HZ I        1359  2.82        12.6 0.44                           235 307 
                                                                                
