 2012  127 1355 33.3 L   6.777 -73.123149.3  RSN  6 0.3 1.6LRSN                1
 GAP=141        0.55       4.2     5.6  4.9  0.9355E+00 -0.5260E+01  0.2662E+01E
 Epicentro: LOS SANTOS - SANTANDER                                             3
 ACTION:UP  12-02-03 08:21 OP:REBC STATUS:               ID:20120127135533 L   I
 2012-01-27-1350-00M.COL___188                                                 6
 STAT SP IPHASW D HRMM SECON CODA AMPLIT PERI AZIMU VELO SNR AR TRES W  DIS CAZ7
 BAR2 SZ EP       1355 53.24                             171    -0.110   21 198 
 BAR2 SZ ES   1   1356  8.71                             171    -0.2 7   21 198 
 BAR2 SZ I        1356  9.86         7.1 0.32                            21 198 
 GIR2 SZ EP       1355 53.24                             166    -0.210   34 347 
 GIR2 SZ ES   1   1356  9.23                             166     0.0 7   34 347 
 BRR  HZ EP       1355 55.11                             152     0.110   75 299 
 BRR  HZ I        1355 55.36        20.0 0.28                            75 299 
 BRR  HN ES   1   1356 12.30                             152     0.3 7   75 299 
 PAM  SZ EP       1355 56.05                             151     0.110   78  37 
 PAM  SN ES   2   1356 13.52                             151    -0.1 5   78  37 
 RUS  HZ EP       1355 57.35                             145     0.110   98 177 
 RUS  HE ES   2   1356 16.10                             145     0.2 5   98 177 
 RUS  HZ I        1356 17.03         3.1 0.40                            98 177 
 PTB  HN ES   3   1356 20.77                             132    -1.4 2  150 260 
                                                                                
