 2010  727 1321 49.2 L   6.775 -73.099145.4  RSN  5 0.1 1.5LRSN                1
 GAP=164        0.33       2.5     5.5  4.7 -0.9200E+00 -0.7922E+01 -0.2444E+01E
 Epicentro: LOS SANTOS - SANTANDER                                             3
 ACTION:UPD 10-12-01 15:20 OP:pat  STATUS:               ID:20100727132149 L   I
 2010-07-27-1316-30S.COL___122                                                 6
 STAT SP IPHASW D HRMM SECON CODA AMPLIT PERI AZIMU VELO AIN AR TRES W  DIS CAZ7
 BAR2 SZ EP   1   1322  8.86                             171     0.1 7   22 205 
 BAR2 SZ ES   2   1322 23.82                             171    -0.2 5   22 205 
 BAR2 SZ I        1322 25.96        10.1 0.52                            22 205 
 BRR  HZ EP   1   1322 10.57                             150    -0.1 7   77 299 
 BRR  HE ES   2   1322 27.52                             150     0.1 5   77 299 
 RUS  HZ EP   1   1322 12.72                             145     0.0 7   98 179 
 RUS  HZ I        1322 13.55         4.4 0.28                            98 179 
 RUS  HE ES   2   1322 31.03                             145     0.0 5   98 179 
 GUE  SZ EP   1   1322 13.83                             139    -0.2 7  118   9 
 GRA  SZ EP   1   1322 14.62                             137     0.1 7  127  15 
 GRA  SZ ES   2   1322 34.34                             137     0.1 5  127  15 
 GRA  SZ I        1322 38.06         3.8 0.37                           127  15 
                                                                                
