 2011  627 1613  0.9 L   6.715 -73.046137.3  RSN  4 0.1 1.5LRSN                1
 GAP=214        0.36       9.8     9.4  8.7  0.3725E+02 -0.4531E+02 -0.4553E+02E
 Epicentro: ARATOCA - SANTANDER                                                3
 ACTION:UP  11-07-14 19:08 OP:ep   STATUS:               ID:20110627161300 L   I
 2011-06-27-1609-01S.COL___140                                                 6
 STAT SP IPHASW D HRMM SECON CODA AMPLIT PERI AZIMU VELO SNR AR TRES W  DIS CAZ7
 BAR2 SZ EP   2   1613 19.57                             171     0.2 5   20 228 
 BAR2 SZ ES   2   1613 33.74                             171    -0.1 5   20 228 
 BAR2 SZ I        1613 35.92         5.0 0.24                            20 228 
 BTL  SZ EP   1   1613 19.81                             166     0.1 7   33 313 
 BRR  HZ EP   2   1613 21.75                             146    -0.3 5   85 301 
 BRR  HN ES   2   1613 38.62                             146     0.1 5   85 301 
 BRR  HZ I        1613 40.49         8.8 0.74                            85 301 
 BRI  SZ EP   2   1613 24.38                             138     0.0 5  114  14 
                                                                                
