 2011 1127 1404 38.2 L   6.843 -73.288120.1  RSN  4 0.2 1.3LRSN                1
 GAP=134        0.49       3.1     4.4  5.3  0.9833E-01 -0.2145E+01  0.1502E+01E
 Epicentro: ZAPATOCA - SANTANDER                                               3
 ACTION:UPD 12-07-13 16:12 OP:ep   STATUS:               ID:20111127140438 L   I
 2011-11-27-1403-18S.COL___160                                                 6
 STAT SP IPHASW D HRMM SECON CODA AMPLIT PERI AZIMU VELO AIN AR TRES W  DIS CAZ7
 BAR2 SZ IP       14 4 54.90                             165    0.0010 30.1 157 
 BAR2 SZ ES   1   14 5  7.58                             165   -0.37 7 30.1 157 
 BAR2 SZ I        14 5  9.27        13.0 0.34                          30.1 157 
 BRR  HZ EP   1   14 4 55.43                             154   -0.19 7 55.2 302 
 BRR  HE ES   1   14 5  9.48                             154    0.23 7 55.2 302 
 BRR  HZ I        14 5  9.60        10.5 0.50                          55.2 302 
 PAM  SZ EP   1   14 4 58.41                             143    0.15 7 85.1  50 
 PAM  SN ES   1   14 5 13.96                             143    0.02 7 85.1  50 
 PAM  SZ I        14 5 16.74         2.6 0.27                          85.1  50 
 RUS  HZ EP   1   14 4 59.90                             136   -0.16 7  108 168 
 RUS  HN ES   1   14 5 17.47                             136    0.32 7  108 168 
 RUS  HZ I        14 5 19.47         1.6 0.35                           108 168 
                                                                                
