 2013 1227 1741 40.9 L   6.821 -73.141142.0  RSN  4 0.3 1.4LRSN                1
 GAP=245        0.45       6.0     6.4 10.3  0.1422E+02  0.1789E+02 -0.6379E+00E
 Epicentro: LOS SANTOS - SANTANDER                                             3
 ACTION:UPD 14-01-13 10:21 OP:ep   STATUS:               ID:20131227174140 L   I
 OLDACT:REG 13-12-27 14:27 OP:jn   STATUS:               ID:20131227174000     3
 2013-12-27-1740-00M.COL___285                                                 6
 STAT SP IPHASW D HRMM SECON CODA AMPLIT PERI AZIMU VELO AIN AR TRES W  DIS CAZ7
 RUS  HE ES   2   1742 22.89                             142    0.09 6  103 176 
 RUS  HZ I        1742 25.61         2.0 0.36            140            103 176 
 PTB  HZ EP   2   1742  7.33                             131   -0.30 6  149 258 
 PTB  HN ES   1   1742 28.21                             131   -0.29 9  149 258 
 PTB  HZ I        1742 30.86         4.5 0.48            131            149 258 
 ZAR  HN ES   2   1742 38.63                             121    0.50 5  204 291 
 NOR  HZ EP   2   1742 16.72                             117    0.14 5  236 234 
 NOR  HE ES       1742 44.54                             117    0.1110  236 234 
 NOR  HZ I        1742 49.69         2.0 0.36            118            236 234 
                                                                                
