 2013  227 1030 21.0 L   6.830 -73.151145.2  RSN  8 0.5 1.9LRSN                1
 GAP=134        0.90       4.0     5.2  7.4  0.1553E+01  0.9458E+01  0.4611E+01E
 Epicentro: LOS SANTOS - SANTANDER                                             3
 ACTION:UPD 13-03-12 09:36 OP:ep   STATUS:               ID:20130227103021 L   I
 2013-02-27-1030-00M.COL___226                                                 6
 STAT SP IPHASW D HRMM SECON CODA AMPLIT PERI AZIMU VELO AIN AR TRES W  DIS CAZ7
 BAR2 SZ EP   1   1030 40.76                             169    0.14 7 26.5 187 
 BAR2 SZ ES   1   1030 55.67                             169   -0.26 7 26.5 187 
 BAR2 SZ I        1030 56.63        18.6 0.26            168           26.5 187 
 BRR  HZ EP       1030 42.34                             153    0.3810 69.1 296 
 BRR  HN ES   1   1030 59.30                             153    0.98 7 69.1 296 
 BRR  HZ I        1031  2.80        12.4 0.20            150           69.1 296 
 PAM  SZ EP   1   1030 43.48                             151    0.46 7 75.3  42 
 PAM  SN ES   1   1031  0.09                             151   -0.12 7 75.3  42 
 PAM  SZ I        1031  2.34        18.1 0.50            155           75.3  42 
 RUS  HZ EP   1   1030 44.69                             143   -0.24 7  104 176 
 RUS  HN ES   1   1031  3.45                             143   -0.15 7  104 176 
 RUS  HZ I        1031  4.97         5.3 0.38            144            104 176 
 PTB  HZ EP   1   1030 47.43                             132   -0.48 7  148 258 
 PTB  HN ES   1   1031  8.36                             132   -0.56 7  148 258 
 PTB  HZ I        1031 13.65        10.5 0.50            131            148 258 
 OCA  HN ES   1   1031  9.80                             130   -0.95 7  157 353 
 OCA  HZ I        1031 14.69         8.6 0.16            131            157 353 
 ZAR  HZ EP   1   1030 53.48                             122    0.27 6  202 291 
 ZAR  HN ES   1   1031 18.30                             122   -0.04 6  202 291 
 ZAR  HZ I        1031 23.77        12.3 0.40            122            202 291 
 CHI  HZ EP   1   1030 58.97                             117   -0.01 6  252 195 
 CHI  HN ES   1   1031 28.71                             117    0.09 6  252 195 
 CHI  HZ I        1031 36.97         3.3 0.35            117            252 195 
                                                                                
