 2014  727 1257 20.8 L   6.783 -73.120146.8  RSN 13 0.4 2.1LRSN                1
 GAP=141        0.78       2.4     3.6  5.3 -0.1298E+01  0.7407E+01  0.1702E+00E
 Epicentro: LOS SANTOS - SANTANDER                                             3
 ACTION:UPD 15-03-16 20:47 OP:nd   STATUS:               ID:20140727125720 L   I
 OLDACT:DUP 14-07-28 00:03 OP:fm   STATUS:               ID:20140727124819d    3
 2014-07-27-1248-18M.COL___266                                                 6
 STAT SP IPHASW D HRMM SECON CODA AMPLIT PERI AZIMU VELO AIN AR TRES W  DIS CAZ7
 BAR2 SZ EP       1257 40.94                             171    0.4610 22.1 198 
 BAR2 SZ ES   1   1257 55.49                             171   -0.37 7 22.1 198 
 BAR2 SZ I        1257 56.83        20.0 0.18            170           22.1 198 
 PAM  SN ES       1258  0.71                             151    0.2510 77.2  37 
 PAM  SZ I        1258  2.91        41.7 0.48            153           77.2  37 
 RUS  HZ EP   1   1257 44.42                             145   -0.03 7 98.5 178 
 RUS  HN ES   1   1258  2.60                             145   -0.34 7 98.5 178 
 RUS  HZ I        1258  4.68        13.9 0.24            146           98.5 178 
 PTB  HZ EP       1257 47.77                             132   -0.25 9  150 260 
 PTB  HN ES       1258  9.58                             132    0.30 9  150 260 
 PTB  HZ I        1258 10.93        12.1 0.12            131            150 260 
 SPBC HZ EP   1   1257 49.24                             129   -0.11 7  163 220 
 SPBC HN ES   1   1258 10.99                             129   -0.67 7  163 220 
 SPBC HZ I        1258 15.19        12.6 0.22            129            163 220 
 OCA  HZ EP   1   1257 49.33                             129   -0.02 7  163 352 
 OCA  HN ES       1258 11.47                             129   -0.19 9  163 352 
 OCA  HZ I        1258 17.46        17.6 0.42            130            163 352 
 ZAR  HZ EP       1257 54.02                             122    0.42 8  207 292 
 ZAR  HN ES       1258 19.52                             122    0.30 8  207 292 
 ZAR  HZ I        1258 24.78        14.4 0.28            122            207 292 
 NOR  HZ EP   1   1257 55.70                             119   -0.96 6  236 235 
 NOR  HN ES       1258 24.83                             119    0.16 8  236 235 
 NOR  HZ I        1258 32.92         6.6 0.16            119            236 235 
 SML  HZ EP   1   1257 57.25                             117   -0.50 6  247 335 
 SML  HN ES       1258 26.31                             117   -0.29 8  247 335 
 SML  HZ I        1258 32.98        19.2 0.28            118            247 335 
 CHI  HZ EP   1   1257 59.04                             117    0.66 6  248 196 
 CHI  HN ES   1   1258 27.99                             117    0.25 6  248 196 
 CHI  HZ I        1258 31.72         3.9 0.24            118            248 196 
 HEL  HZ EP   1   1258  0.80                             115   -0.46 6  274 256 
 HEL  HN ES   1   1258 32.98                             115    0.12 6  274 256 
 HEL  HZ I        1258 38.06         4.5 0.30            115            274 256 
 GUY2CHZ EP   4   1258  6.89                             112    2.35 0  302 235 
 GUY2CHE ES   4   1258 40.27                             112    1.58 0  302 235 
 GUY2CHZ I        1258 48.50         4.4 0.62                           302 235 
 PRA  HZ EP   1   1258 14.68                             107    0.41 4  392 210 
 PRA  HN ES   4   1258 55.33                             107   -0.69 0  392 210 
 PRA  HZ I        1259  4.31         3.7 0.36            107            392 210 
 SJC  HZ EP   4   1258 15.29                             106   -1.42 0  412 327 
                                                                                
