 2012  227 1158 45.4 L   6.759 -73.193134.0  RSN  5 0.3 1.3LRSN                1
 GAP=229        0.72       8.4     7.1 10.5  0.2268E+02  0.7831E+01 -0.3459E+02E
 ACTION:UP  12-03-07 16:34 OP:epov STATUS:               ID:20120227115845 L   I
 2012-02-27-1150-00M.COL___192                                                 6
 STAT SP IPHASW D HRMM SECON CODA AMPLIT PERI AZIMU VELO AIN AR TRES W  DIS CAZ7
 BAR2 SZ EP   2   1159  3.66                             172    0.10 5 18.5 176 
 BAR2 SZ ES   2   1159 17.18                             172   -0.52 5 18.5 176 
 BAR2 SZ I        1159 21.41         5.3 0.32                          18.5 176 
 BRR  HZ EP       1159  5.45                             151    0.2510 69.0 304 
 BRR  HZ I        1159 14.33        10.1 0.20                          69.0 304 
 RUS  HZ EP   1   1159  7.85                             143    0.10 7 96.6 173 
 RUS  HN ES   1   1159 25.29                             143    0.13 7 96.6 173 
 RUS  HZ I        1159 28.15         1.9 0.38                          96.6 173 
 PTB  HZ EP       1159 10.38                             131   -0.53 9  142 260 
 PTB  HN ES   1   1159 31.18                             131    0.40 7  142 260 
 MAP  HE E      C 1159 58.67                                            981 252 
                                                                                
