 2010 1027 1040 41.6 L   6.060 -73.571117.5  RSN  5 0.4 1.3LRSN                1
 GAP=103        0.94       5.4     8.0 14.0 -0.6874E+01  0.5105E+02  0.5514E+01E
 Epicentro: GUEPSA - SANTANDER                                                 3
 ACTION:UP  11-02-18 11:12 OP:tino STATUS:               ID:20101027104041 L   I
 2010-10-27-1036-27S.COL___127                                                 6
 STAT SP IPHASW D HRMM SECON CODA AMPLIT PERI AZIMU VELO SNR AR TRES W  DIS CAZ7
 RUS  HZ EP       1040 59.26                             153    -0.310   57 109 
 RUS  HN ES   2   1041 13.71                             153     0.1 5   57 109 
 RUS  HZ I        1041 15.97         2.1 0.39                            57 109 
 BAR2 SZ EP       1041  0.45                             147     0.310   73  36 
 BAR2 SZ ES   2   1041 15.09                             147     0.4 5   73  36 
 BAR2 SZ I        1041 16.46         8.0 0.23                            73  36 
 BRR  HZ EP       1041  3.30                             132    -0.110  117 352 
 BRR  HE ES   2   1041 20.00                             132    -0.4 5  117 352 
 BRR  HZ I        1041 22.31         6.2 0.34                           117 352 
 NOR  SZ EP   1   1041  7.91                             123     0.8 7  154 249 
 NOR  SN ES   2   1041 26.47                             123    -0.5 5  154 249 
 CHI  HZ EP   1   1041  7.51                             123    -0.6 7  159 186 
 CHI  HZ I        1041  8.48         1.8 0.44                           159 186 
 CHI  HE ES   2   1041 29.33                             123     0.6 5  159 186 
                                                                                
