 2017  227 1009 60.0 L   6.320 -73.704102.0  RSN  5 0.3 0.9LRSN                1
 GAP=162        0.74       4.0     3.2  7.2  0.6548E+01  0.7342E+01  0.3791E+01E
 Epicentro: SANTA HELENA DEL OPON - SANTANDER                                  3
 ACTION:UPD 17-05-24 15:41 OP:jn   STATUS:               ID:20170227100960 L   I
 OLDACT:REG 17-02-27 20:35 OP:lv   STATUS:               ID:20170227100745     3
 2017-02-27-1008-00M.COL___364                                                 6
 STAT SP IPHASW D HRMM SECON CODA AMPLIT PERI AZIMU VELO AIN AR TRES W  DIS CAZ7
 BAR2 EZ EP       1010 16.54                             145    0.0210 65.1  62 
 BAR2 EZ ES       1010 29.21                             145   -0.2010 65.1  62 
 RUS  HZ EP       1010 18.66                             138    0.3910 83.4 124 
 RUS  HN ES       1010 32.27                             138   -0.2610 83.4 124 
 RUS  HZ I        1010 34.11         1.1 0.22            139           83.4 124 
 PTB  HZ EP       1010 17.99                             136    0.1110 86.7 286 
 PTB  HN ES       1010 31.89                             136    0.0510 86.7 286 
 PTB  HZ I        1010 33.31         1.7 0.11            134           86.7 286 
 BRR  HZ EP       1010 17.64                             136   -0.2510 87.0 359 
 BRR  HN ES       1010 32.30                             136    0.4410 87.0 359 
 ZAR  HN ES       1010 48.61                             114   -0.38 9  182 316 
 ZAR  HZ I        1010 55.02         2.7 0.22            113            182 316 
                                                                                
