 2010 1127 1536 56.1 L   6.805 -73.178146.3  RSN  6 0.4 2.0LRSN                1
 GAP=155        0.87       5.2     8.1  8.3 -0.6834E+01 -0.2119E+01 -0.9426E+01E
 Epicentro: LOS SANTOS - SANTANDER                                             3
 ACTION:UP  10-12-17 16:55 OP:REBC STATUS:               ID:20101127153656 L   I
 2010-11-27-1534-13S.COL___132                                                 6
 STAT SP IPHASW D HRMM SECON CODA AMPLIT PERI AZIMU VELO SNR AR TRES W  DIS CAZ7
 BAR2 SZ EP   1   1537 15.54                             170    -0.3 8   24 181 
 BAR2 SZ ES   1   1537 31.21                             170     0.0 8   24 181 
 BAR2 SZ I        1537 31.61        15.9 0.26                            24 181 
 BRR  HZ EP   1   1537 17.45                             153     0.3 8   68 300 
 BRR  HE ES   1   1537 34.17                             153     0.6 8   68 300 
 BRR  HZ I        1537 35.45        18.4 0.15                            68 300 
 RUS  HZ EP   2   1537 20.13                             144     0.1 5  101 174 
 RUS  HE ES   2   1537 37.98                             144    -0.6 5  101 174 
 GRA  SZ IP     C 1537 21.69                             137     0.210  126  19 
 GRA  SZ I        1537 22.87        12.0 0.26                           126  19 
 GRA  SZ ES   2   1537 41.12                             137    -0.1 5  126  19 
 OCA  SZ EP   1   1537 24.47                             130     0.1 7  159 354 
 OCA  SZ ES   1   1537 45.56                             130    -0.9 7  159 354 
 OCA  SZ I        1537 50.36        15.0 0.55                           159 354 
 HEL  HZ EP   2   1537 35.85                             115    -0.1 4  269 255 
 HEL  HE ES   2   1538  6.72                             115    -0.4 4  269 255 
 HEL  HZ I        1538 16.31         4.8 0.27                           269 255 
                                                                                
