 2017  527 1505 58.1 L   6.710 -73.140144.7  RSN  7 0.2 1.9LRSN                1
 GAP=231        0.55       3.3     3.7  6.1  0.2885E+01  0.4198E+01 -0.6324E+01E
 Epicentro: JORDAN - SANTANDER                                                 3
 ACTION:UPD 17-06-16 13:39 OP:jn   STATUS:               ID:20170527150558 L   I
 OLDACT:UP  17-05-28 02:04 OP:dnl  STATUS:               ID:20170527145743d    3
 OLDACT:DUP 17-05-28 02:00 OP:dnl  STATUS:               ID:20170527145743d    3
 OLDACT:UP  17-05-28 01:59 OP:dnl  STATUS:               ID:20170527145742     3
 OLDACT:REG 17-05-27 23:14 OP:dnl  STATUS:               ID:20170527145742     3
 2017-05-27-1458-00M.COL___350                                                 6
 STAT SP IPHASW D HRMM SECON CODA AMPLIT PERI AZIMU VELO AIN AR TRES W  DIS CAZ7
 BRR  HZ EP       15 6 19.10                             150   -0.3910 77.0 305 
 BRR  HN ES   4   15 6 39.09                             150    2.93 0 77.0 305 
 BRR  HZ I        15 6 40.32        16.2 0.42            150           77.0 305 
 RUS  HZ EP       15 6 21.22                             147    0.1510 90.6 176 
 RUS  HN ES       15 6 39.06                             147    0.0910 90.6 176 
 RUS  HZ I        15 6 40.31        11.1 0.32            147           90.6 176 
 PTB  HZ EP       15 6 24.76                             132   -0.15 9  147 263 
 PTB  HN ES   4   15 6 44.51                             132   -1.30 0  147 263 
 PTB  HZ I        15 6 47.55         6.5 0.32            132            147 263 
 SPBC HZ EP       15 6 25.83                             130   -0.03 9  156 221 
 SPBC HN ES       15 6 47.45                             130   -0.05 9  156 221 
 SPBC HZ I        15 6 52.79        16.3 0.26            130            156 221 
 ZAR  HZ EP   2   15 6 31.21                             122    0.24 4  209 295 
 ZAR  HE ES       15 6 57.01                             122    0.42 8  209 295 
 ZAR  HZ I        15 7  0.97         9.6 0.32            123            209 295 
 NOR  HZ EP       15 6 33.38                             119    0.14 8  230 237 
 NOR  HE ES       15 7  0.43                             119   -0.21 8  230 237 
 NOR  HZ I        15 7  6.37         6.3 0.26            120            230 237 
 CHI  HZ EP   2   15 6 35.05                             118    0.31 4  239 196 
 CHI  HN ES   4   15 7  4.56                             118    1.26 0  239 196 
 CHI  HZ I        15 7 11.21         2.2 0.52            120            239 196 
                                                                                
