 2012  927 1931 28.4 L   6.773 -73.160137.4  RSN  8 0.4 2.6LRSN                1
 GAP=136        0.72       3.6     3.8  5.8  0.1109E+01  0.7243E+01  0.3543E+01E
 Epicentro: LOS SANTOS - SANTANDER                                             3
 ACTION:UPD 12-10-22 14:21 OP:ep   STATUS:               ID:20120927193128 L   I
 2012-09-27-1930-00M.COL___213                                                 6
 STAT SP IPHASW D HRMM SECON CODA AMPLIT PERI AZIMU VELO AIN AR TRES W  DIS CAZ7
 BAR2 SZ ES   1   1932  1.22                             171   -0.25 7 20.1 187 
 BRR  HZ EP       1931 48.74                             151    0.0510 71.3 301 
 BRR  HN ES   1   1932  5.40                             151    0.92 7 71.3 301 
 BRR  HN I        1932  9.20       123.2 0.18                          71.3 301 
 PAM  SZ EP   1   1931 49.70                             148   -0.27 7 80.7  39 
 PAM  SN ES   1   1932  6.44                             148   -0.34 7 80.7  39 
 RUS  HZ EP   1   1931 51.16                             143    0.00 7 97.7 175 
 RUS  HN ES   1   1932  9.10                             143    0.22 7 97.7 175 
 PTB  HN ES   1   1932 14.57                             130   -0.31 7  146 260 
 PTB  HN I        1932 17.16        35.3 0.20                           146 260 
 ZAR  HZ EP   1   1932  0.47                             121    0.16 6  204 293 
 ZAR  HN ES   1   1932 24.84                             121   -0.33 6  204 293 
 ZAR  HN I        1932 29.48        62.4 0.76                           204 293 
 CHI  HZ EP   1   1932  5.52                             116    0.21 6  245 195 
 CHI  HN ES   1   1932 33.97                             116   -0.11 6  245 195 
 CHI  HN I        1932 41.98        18.7 0.42                           245 195 
 HEL  HZ EP   1   1932  8.46                             113    0.49 6  270 256 
 HEL  HN ES   1   1932 38.26                             113   -0.55 6  270 256 
 HEL  HN I        1932 45.83        15.1 0.44                           270 256 
                                                                                
