 2011 1027 1236 30.5 L   6.748 -73.084146.1  RSN  4 0.2 1.5LRSN                1
 GAP=179        0.47       8.3     6.3  9.1 -0.2174E+01 -0.2867E+02  0.1332E+02E
 Epicentro: JORDAN - SANTANDER                                                 3
 ACTION:UPD 12-07-13 16:06 OP:ep   STATUS:               ID:20111027123630 L   I
 2011-10-27-1236-03S.COL___177                                                 6
 STAT SP IPHASW D HRMM SECON CODA AMPLIT PERI AZIMU VELO AIN AR TRES W  DIS CAZ7
 BAR2 SZ EP       1236 49.89                             172   -0.2110 20.4 212 
 BAR2 SZ ES   3   1237  5.76                             172    0.37 2 20.4 212 
 BAR2 SZ I        1237  8.28         6.6 0.64                          20.4 212 
 BTL  SZ EP       1236 50.53                             169    0.2810 27.7 313 
 PAM  SZ EP       1236 52.82                             150    0.0510 78.0  33 
 PAM  SN ES   3   1237  9.76                             150   -0.39 2 78.0  33 
 BRR  HZ EP       1236 52.16                             149   -0.0210 80.0 300 
 BRR  HN ES   1   1237  8.94                             149   -0.17 7 80.0 300 
 BRR  HZ I        1237 12.89         7.2 0.62                          80.0 300 
                                                                                
