 2017  727 1033  0.5 L   6.801 -73.106144.9  RSN  5 0.3 1.6LRSN                1
 GAP=142        0.77       3.7     5.2  5.6 -0.6154E+01  0.1765E+01  0.3145E+01E
 Epicentro: LOS SANTOS - SANTANDER                                             3
 ACTION:UPD 17-08-30 15:37 OP:rebc STATUS:               ID:20170727103300 L   I
 OLDACT:UP  17-07-27 22:19 OP:ar   STATUS:               ID:20170727102742     3
 OLDACT:REG 17-07-27 20:40 OP:ar   STATUS:               ID:20170727102742     3
 2017-07-27-1028-00M.COL___371                                                 6
 STAT SP IPHASW D HRMM SECON CODA AMPLIT PERI AZIMU VELO AIN AR TRES W  DIS CAZ7
 BAR2 EZ EP       1033 19.91                             170   -0.1410 24.6 200 
 BAR2 EZ ES       1033 35.27                             170   -0.0410 24.6 200 
 BAR2 EZ I        1033 37.51         6.3 0.50            169           24.6 200 
 PAM  EZ EP       1033 22.70                             152    0.2410 74.5  37 
 PAM  EE ES       1033 39.16                             152   -0.4210 74.5  37 
 BRR  HZ EP       1033 21.65                             151   -0.1310 75.0 297 
 BRR  HN ES       1033 38.79                             151    0.4110 75.0 297 
 RUS  HZ EP       1033 24.53                             144    0.3710  101 179 
 RUS  HN ES       1033 42.81                             144    0.1910  101 179 
 RUS  HZ I        1033 44.30         6.0 0.32            144            101 179 
 SPBC HZ EP       1033 29.00                             128   -0.21 9  166 220 
 SPBC HE ES       1033 51.21                             128   -0.39 9  166 220 
 SPBC HZ I        1033 53.66         7.1 0.24            129            166 220 
                                                                                
