 2015  627 1912 24.0 L   6.826 -73.103138.0  RSN  4 0.4 1.7LRSN                1
 GAP=248        0.90       6.4     6.9  7.8  0.1946E+02  0.2524E+02  0.5559E+00E
 Epicentro: LOS SANTOS - SANTANDER                                             3
 ACTION:UPD 15-09-10 22:15 OP:cam  STATUS:               ID:20150627191224 L   I
 OLDACT:UP  15-06-28 00:05 OP:drio STATUS:               ID:20150627190749     3
 OLDACT:REG 15-06-27 21:12 OP:drio STATUS:               ID:20150627190749     3
 2015-06-27-1907-49M.COL___310                                                 6
 STAT SP IPHASW D HRMM SECON CODA AMPLIT PERI AZIMU VELO AIN AR TRES W  DIS CAZ7
 BAR2 EZ EP       1912 42.78                             168   -0.0410 27.3 199 
 BAR2 EZ ES       1912 57.89                             168    0.4210 27.3 199 
 BAR2 EZ I        1913  6.41         7.9 0.26            172           27.3 199 
 RUS  HZ EP       1912 46.71                             142   -0.5210  103 179 
 RUS  HN ES       1913  5.25                             142   -0.0710  103 179 
 ZAR  HZ EP       1912 56.81                             120    0.48 8  207 291 
 ZAR  HN ES       1913 20.98                             120   -0.54 8  207 291 
 GUY2CHZ EP       1913  8.27                             111    0.35 7  307 235 
 GUY2CHN ES       1913 42.27                             111    0.12 7  307 235 
 GUY2CHZ I        1913 50.92         4.2 0.52                           307 235 
                                                                                
