 2014  927 1004 54.4 L   6.847 -73.108145.0  RSN  6 0.5 1.6LRSN                1
 GAP=157        1.30       9.9     7.3 10.2 -0.5464E+00  0.2276E+02 -0.4294E+02E
 Epicentro: LOS SANTOS - SANTANDER                                             3
 ACTION:UPD 14-10-03 23:09 OP:nd   STATUS:               ID:20140927100454 L   I
 OLDACT:UP  14-09-27 21:13 OP:cam  STATUS:               ID:20140927100000     3
 OLDACT:REG 14-09-27 20:47 OP:cam  STATUS:               ID:20140927100000     3
 2014-09-27-1000-00M.COL___252                                                 6
 STAT SP IPHASW D HRMM SECON CODA AMPLIT PERI AZIMU VELO AIN AR TRES W  DIS CAZ7
 BAR2 SZ ES       10 5 28.55                             168   -0.9010 29.4 196 
 BAR2 SZ I        10 5 29.59        13.6 0.16            170           29.4 196 
 PAM  SZ EP       10 5 16.54                             153    0.3610 70.7  40 
 PAM  SN ES       10 5 33.61                             153    0.4710 70.7  40 
 PAM  SZ I        10 5 35.87         3.7 0.46            153           70.7  40 
 BRR  HZ EP     C 10 5 15.60                             152    0.0210 72.6 293 
 BRR  HN ES       10 5 32.46                             152    0.3810 72.6 293 
 BRR  HZ I        10 5 33.09         4.5 0.12            150           72.6 293 
 PTB  HZ I        10 5 45.03         5.5 0.10            131            153 257 
 ZAR  HZ EP       10 5 27.27                             122    0.24 8  206 290 
 ZAR  HN ES       10 5 52.95                             122    0.49 8  206 290 
 ZAR  HZ I        10 5 57.46         3.2 0.38            122            206 290 
 SML  HZ EP       10 5 30.30                             117   -0.40 8  241 334 
 SML  HN ES       10 5 58.05                             117   -0.93 8  241 334 
 SML  HZ I        10 6  1.36         3.2 0.28            118            241 334 
                                                                                
