 2017  827 1729 32.2 L   6.794 -73.129141.3  RSN 15 0.4 2.2LRSN                1
 GAP=100        1.03       3.2     2.7  5.1  0.2320E+00  0.3084E+01  0.3203E+01E
 Epicentro: LOS SANTOS - SANTANDER                                             3
 ACTION:UPD 17-09-04 20:25 OP:rebc STATUS:               ID:20170827172932 L   I
 OLDACT:UP  17-08-28 00:16 OP:osc  STATUS:               ID:20170827172741d    3
 OLDACT:DUP 17-08-28 00:05 OP:osc  STATUS:               ID:20170827172741d    3
 2017-08-27-1728-00M.COL___417                                                 6
 STAT SP IPHASW D HRMM SECON CODA AMPLIT PERI AZIMU VELO AIN AR TRES W  DIS CAZ7
 BAR2 EZ IP     C 1729 50.99                             170   -0.2610 23.1 195 
 BAR2 EZ ES       1730  6.00                             170   -0.1310 23.1 195 
 BAR2 EZ I        1730  6.95        71.2 0.18            167           23.1 195 
 BRR  HZ IP       1729 52.99                             151    0.0510 73.1 298 
 BRR  HE ES       1730  9.89                             151    0.7510 73.1 298 
 BRR  HZ I        1730 12.91        24.7 0.18            150           73.1 298 
 PAM  EZ EP       1729 54.01                             150    0.1510 76.8  38 
 PAM  EN ES       1730 10.78                             150   -0.0110 76.8  38 
 PAM  EZ I        1730 11.81        19.0 0.16            148           76.8  38 
 RUS  HZ EP     C 1729 54.96                             143   -0.4610 99.8 177 
 RUS  HE ES       1730 13.31                             143   -0.2410 99.8 177 
 RUS  HZ I        1730 14.15        13.8 0.22            138           99.8 177 
 TAM  HZ EP       1729 59.37                             130    0.06 9  153 105 
 TAM  HZ I        1730 19.67        17.8 0.22            126            153 105 
 TAM  HE ES       1730 20.71                             130    0.23 9  153 105 
 SPBC HZ EP       1730  0.07                             128   -0.31 9  164 220 
 SPBC HE ES       1730 22.44                             128    0.05 9  164 220 
 SPBC HZ I        1730 23.84        22.9 0.16            124            164 220 
 YPLC HZ IP     C 1730  1.43                             126   -0.06 9  175 152 
 YPLC HE ES       1730 23.97                             126   -0.39 9  175 152 
 YPLC HZ I        1730 27.81        23.0 0.26            121            175 152 
 ZAR  HZ EP       1730  4.21                             121   -0.31 8  206 292 
 ZAR  HN ES       1730 29.50                             121   -0.26 8  206 292 
 ZAR  HZ I        1730 33.35        21.4 0.12            118            206 292 
 NOR  HZ EP       1730  7.63                             117   -0.12 8  236 235 
 NOR  HE ES       1730 35.18                             117   -0.33 8  236 235 
 NOR  HZ I        1730 40.74        18.5 0.22            114            236 235 
 CHI  HZ EP       1730  9.39                             116   -0.21 8  248 196 
 CHI  HE ES       1730 40.20                             116    1.40 8  248 196 
 CHI  HZ I        1730 47.46         5.3 0.52            113            248 196 
 ROSC BZ EP   9   1730 11.24                             116    1.16 0  253 211 
 ROSC BN ES       1730 41.19                             116    0.37 8  253 211 
 ROSC BZ I        1730 50.17        11.4 0.55            112            253 211 
 HEL  HZ EP       1730 13.03                             114    0.70 8  274 256 
 HEL  HN ES       1730 43.23                             114   -0.43 8  274 256 
 HEL  HZ I        1730 50.14        12.6 0.38            111            274 256 
 URE  HZ EP   9   1730 11.63                             113   -1.61 0  286 292 
 URE  HE ES       1730 43.19                             113   -0.48 7  286 292 
 URE  HZ I        1730 45.29        12.5 0.12            110            286 292 
 GUY2CHZ EP       1730 16.52                             111    0.83 7  302 235 
 GUY2CHE ES       1730 49.39                             111   -0.26 7  302 235 
 GUY2CHZ I        1730 58.36         9.7 0.42                           302 235 
 PTGC HZ EP   4   1730 14.20                             111   -1.48 0  307 159 
 PTGC HE ES   4   1730 47.41                             111   -2.20 0  307 159 
 ELA  HZ EP   4   1730 21.67                             109    2.73 0  330 230 
 ELA  HN ES   4   1730 58.95                             109    3.53 0  330 230 
 ELA  HZ I        1731  4.60         8.2 0.52            107            330 230 
                                                                                
