 2012  827 1331 17.9 L   6.754 -73.145142.3  RSN  6 0.5 1.9LRSN                1
 GAP=139        0.54      10.0     9.2 10.1  0.3650E+02 -0.1666E+02  0.2421E+02E
 Epicentro: LOS SANTOS - SANTANDER                                             3
 ACTION:UPD 12-09-10 11:58 OP:ep   STATUS:               ID:20120827133117 L   I
 2012-08-27-1330-00M.COL___218                                                 6
 STAT SP IPHASW D HRMM SECON CODA AMPLIT PERI AZIMU VELO AIN AR TRES W  DIS CAZ7
 BAR2 SZ EP       1331 37.01                             172    0.0310 18.4 193 
 BAR2 SZ I        1331 52.52        16.8 0.26                          18.4 193 
 GIR2 SZ EP   3   1331 36.82                             165   -0.44 2 36.3 352 
 GIR2 SZ ES   3   1331 52.29                             165   -0.11 2 36.3 352 
 BRR  HZ EP       1331 38.83                             151    0.0510 73.8 302 
 BRR  HZ I        1331 40.42        14.0 0.32                          73.8 302 
 BRR  HN ES   1   1331 55.28                             151    0.18 7 73.8 302 
 PAM  SN ES   3   1331 56.12                             149   -1.05 2 81.3  37 
 RUS  HN ES   3   1331 59.04                             145    0.16 2 95.5 176 
 PTB  HN ES   3   1332  3.48                             131   -1.74 2  147 261 
                                                                                
