 2016  227 1708 43.6 L   5.969 -74.086  4.9  RSN 10 0.5 1.8LRSN                1
 GAP= 83        1.19       2.3     2.0  6.8 -0.6791E+00  0.2862E+01 -0.2078E+01E
 Epicentro: LA BELLEZA - SANTANDER                                             3
 ACTION:UPD 16-03-04 21:29 OP:rebc STATUS:               ID:20160227170843 L   I
 OLDACT:UP  16-02-27 23:26 OP:drio STATUS:               ID:20160227165747     3
 OLDACT:REG 16-02-27 20:04 OP:drio STATUS:               ID:20160227165747     3
 2016-02-27-1657-47M.COL___319                                                 6
 STAT SP IPHASW D HRMM SECON CODA AMPLIT PERI AZIMU VELO AIN AR TRES W  DIS CAZ7
 SPBC HZ IP     D 17 8 49.55                              92   -0.0910 35.0 177 
 SPBC HE ES       17 8 54.00                              92   -0.3210 35.0 177 
 SPBC HZ I        17 8 55.31        43.9 0.24             47           35.0 177 
 PTB  HZ IP     D 17 8 55.96                              91    0.3010 75.2 327 
 PTB  HN ES       17 9  5.28                              91    0.2610 75.2 327 
 PTB  HZ I        17 9  8.04        61.4 0.16             47           75.2 327 
 NOR  HZ EP       17 8 59.41                              91    0.3310 97.6 243 
 NOR  HE ES       17 9 11.23                              91    0.1110 97.6 243 
 NOR  HZ I        17 9 11.84        22.9 0.32             47           97.6 243 
 RUS  HZ EP       17 9  2.02                              91    0.3910  111  94 
 RUS  HN ES       17 9 14.92                              91   -0.7310  111  94 
 RUS  HZ I        17 9 15.97        34.7 0.24             47            111  94 
 BAR2 EZ EP       17 9  3.12                              91    0.2310  121  55 
 BAR2 EZ ES       17 9 18.25                              91    0.3410  121  55 
 BAR2 EZ I        17 9 24.91         9.7 0.36             47            121  55 
 HEL  HN EP       17 9  9.18                              90    0.08 9  162 279 
 HEL  HE ES       17 9 28.05                              90   -0.90 9  162 279 
 HEL  HN I        17 9 29.67        14.2 0.26             47            162 279 
 GUY2CHZ EP   4   17 9 10.99                              90    1.44 0  164 240 
 GUY2CHN ES       17 9 29.67                              90   -0.09 9  164 240 
 GUY2CHZ I        17 9 33.19         7.1 0.30                           164 240 
 ZAR  HN ES       17 9 34.08                              56   -0.82 9  189 333 
 ELA  HZ EP   4   17 9 15.04                              56    1.79 0  190 230 
 ELA  HN ES       17 9 37.12                              56    0.78 9  190 230 
 ELA  HZ I        17 9 39.38         5.6 0.22             37            190 230 
 PAM  EZ EP   4   17 9 18.77                              56    2.40 0  216  45 
 PAM  EN ES   4   17 9 45.15                              56    3.26 0  216  45 
 PAM  EZ I        17 9 46.90        18.6 0.28             37            216  45 
                                                                                
