 2015  927 1409  4.9 L   6.783 -73.154145.2  RSN 21 0.5 2.8LRSN                1
 GAP=110        1.10       3.0     3.3  5.3  0.2911E+00  0.2563E+01 -0.1337E+01E
 Epicentro: LOS SANTOS - SANTANDER                                             3
 ACTION:UPD 15-10-28 16:28 OP:cam  STATUS:               ID:20150927140904 L   I
 OLDACT:REG 15-09-27 20:57 OP:ar   STATUS:               ID:20150927140748     3
 2015-09-27-1407-48M.COL___340                                                 6
 STAT SP IPHASW D HRMM SECON CODA AMPLIT PERI AZIMU VELO AIN AR TRES W  DIS CAZ7
 BAR2 EZ EP     C 14 9 24.27                             171   -0.1710 21.3 188 
 BAR2 EZ ES       14 9 39.57                             171   -0.1010 21.3 188 
 BAR2 EZ I        14 9 40.60       202.2 0.18            169           21.3 188 
 BRR  HZ IP     D 14 9 26.17                             152    0.1510 71.3 300 
 BRR  HN ES       14 9 43.09                             152    0.6210 71.3 300 
 BRR  HZ I        14 9 44.27        66.9 0.14            150           71.3 300 
 RUS  HZ EP       14 9 28.14                             144   -0.3510 98.7 175 
 RUS  HN ES       14 9 47.19                             144    0.3310 98.7 175 
 RUS  HZ I        14 9 48.42        63.6 0.26            143           98.7 175 
 PTB  HZ EP       14 9 31.11                             132   -0.62 9  146 259 
 PTB  HN ES       14 9 52.28                             132   -0.35 9  146 259 
 PTB  HZ I        14 9 54.91        62.5 0.16            130            146 259 
 TAM  HZ EP     D 14 9 32.50                             130   -0.09 9  156 104 
 TAM  HE ES       14 9 53.91                             130   -0.27 9  156 104 
 TAM  HZ I        14 9 54.73        28.1 0.30            132            156 104 
 SPBC HZ EP       14 9 33.17                             129   -0.01 9  161 219 
 SPBC HN ES       14 9 55.45                             129    0.23 9  161 219 
 SPBC HZ I        1410  2.29       115.7 0.22            128            161 219 
 OCA  HZ EP       14 9 32.79                             129   -0.57 9  162 354 
 OCA  HN ES       14 9 55.59                             129    0.05 9  162 354 
 OCA  HZ I        14 9 58.06       111.9 0.24            130            162 354 
 ZAR  HZ EP       14 9 36.72                             122   -0.60 9  204 293 
 ZAR  HN ES       1410  2.60                             122    0.02 9  204 293 
 ZAR  HZ I        1410  7.38        61.1 0.42            121            204 293 
 SML  HZ EP   2   14 9 40.67                             117   -0.99 4  245 336 
 SML  HN ES   2   1410  9.84                             117   -0.48 4  245 336 
 SML  HZ I        1410 12.51        57.4 0.10            117            245 336 
 CHI  HZ EP       14 9 42.30                             117   -0.06 8  247 195 
 CHI  HN ES   2   1410 11.93                             117    0.37 4  247 195 
 CHI  HZ I        1410 17.29        20.6 0.64            117            247 195 
 ROSC BZ EP   4   14 9 44.68                             117    1.90 0  251 211 
 ROSC BN ES   4   1410 17.48                             117    5.17 0  251 211 
 ROSC BZ I        1410 18.86        52.8 0.50            116            251 211 
 HEL  HZ EP       14 9 45.98                             115    1.03 8  271 256 
 HEL  HN ES       1410 15.84                             115   -0.34 8  271 256 
 HEL  HZ I        1410 23.13        26.2 0.24            114            271 256 
 URE  HZ EP   2   14 9 44.92                             113   -1.03 4  284 292 
 URE  HE ES   4   1410 15.70                             113   -2.25 0  284 292 
 URE  HZ I        1410 22.86        23.5 0.16            113            284 292 
 GUY2CHZ EP       14 9 49.13                             112    0.84 7  299 235 
 GUY2CHE ES   4   1410 24.20                             112    2.08 0  299 235 
 GUY2CHZ I        1410 30.88        32.6 0.76                           299 235 
 LL2C HZ EP       14 9 50.23                             111    1.55 7  308 354 
 LL2C HN ES       1410 23.35                             111    0.54 7  308 354 
 LL2C HZ I        1410 26.61        43.0 0.62            112            308 354 
 DBB  SZ EP       14 9 51.75                             109   -0.53 7  339 275 
 DBB  SZ ES   2   1410 28.39                             109   -0.84 3  339 275 
 DBB  SZ I        1410 31.83        40.0 0.52            109            339 275 
 ANIL HZ EP   4   14 9 55.57                             108    1.10 0  355 225 
 ANIL HN ES   4   1410 34.73                             108    1.61 0  355 225 
 ANIL HZ I        1410 37.93        54.4 0.36            108            355 225 
 SDV  BZ EP   4   14 9 53.73                             108   -1.44 0  362  50 
 SDV  BN ES   4   1410 31.14                             108   -3.22 0  362  50 
 SDV  BZ I        1410 32.94         5.4 0.35            109            362  50 
 ORTC HZ EP       14 9 59.01                             106    0.43 6  393 216 
 ORTC HE ES   2   1410 40.67                             106    0.24 3  393 216 
 ORTC HZ I        1410 46.88        16.9 0.38            106            393 216 
 SJC  HZ EP   4   14 9 58.45                             106   -2.14 0  410 327 
 SJC  HN ES   4   1410 39.77                             106   -4.25 0  410 327 
 SJC  HZ I        1410 44.66         8.3 0.42            106            410 327 
 CRJC HZ EP   4   1410  4.58                             103   -3.06 0  470   4 
 CRJC HN ES   4   1410 53.99                             103   -2.57 0  470   4 
 CRJC HZ I        1410 57.00         9.7 0.14            103            470   4 
                                                                                
