 2014 1027 1702 29.0 L   6.795 -73.134147.7  RSN 20 0.4 2.8LRSN                1
 GAP= 72        0.97       2.7     3.0  4.7 -0.1684E+01  0.2204E+01  0.3891E+01E
 Epicentro: LOS SANTOS - SANTANDER                                             3
 ACTION:UPD 14-11-29 23:57 OP:nd   STATUS:               ID:20141027170229 L   I
 OLDACT:REG 14-10-30 11:05 OP:mh   STATUS:               ID:20141027165745     3
 2014-10-27-1657-45M.COL___280                                                 6
 STAT SP IPHASW D HRMM SECON CODA AMPLIT PERI AZIMU VELO AIN AR TRES W  DIS CAZ7
 BAR2 SZ IP     C 17 2 48.71                             171   -0.1710 23.0 194 
 BAR2 SZ ES       17 3  4.14                             171   -0.2210 23.0 194 
 BAR2 SZ I        17 3  6.41       114.7 0.28            168           23.0 194 
 BRR  HZ EP       17 2 50.67                             152    0.2110 72.7 298 
 BRR  HN ES       17 3  8.01                             152    0.8310 72.7 298 
 BRR  HZ I        17 3 10.25        64.2 0.12            150           72.7 298 
 PAM  SZ IP     C 17 2 51.48                             151    0.0610 77.0  38 
 PAM  SN ES       17 3  8.82                             151   -0.0710 77.0  38 
 PAM  SZ I        17 3 10.86        84.4 0.20            155           77.0  38 
 RUS  HZ IP     D 17 2 52.56                             144   -0.3610 99.9 177 
 RUS  HN ES       17 3 11.50                             144   -0.0510 99.9 177 
 RUS  HZ I        17 3 12.55        43.0 0.40            145           99.9 177 
 PTB  HZ EP       17 2 55.37                             132   -0.89 9  149 259 
 PTB  HN ES       17 3 16.74                             132   -0.76 9  149 259 
 PTB  HZ I        17 3 22.59        83.0 0.20            131            149 259 
 TAM  HZ EP       17 2 56.78                             131    0.06 9  154 105 
 TAM  HN ES       17 3 18.46                             131    0.14 9  154 105 
 OCA  HZ EP       17 2 58.12                             130    0.56 9  161 353 
 OCA  HN ES       17 3 19.51                             130   -0.30 9  161 353 
 OCA  HZ I        17 3 26.89        59.1 0.64            131            161 353 
 SPBC HZ EP       17 2 57.60                             129   -0.11 9  164 219 
 SPBC HN ES       17 3 20.37                             129    0.29 9  164 219 
 SPBC HZ I        17 3 24.72        99.7 0.40            129            164 219 
 CHI  HZ EP       17 3  6.71                             117   -0.10 8  248 196 
 CHI  HN ES       17 3 35.88                             117   -0.39 8  248 196 
 CHI  HZ I        17 3 42.08        21.0 0.34            118            248 196 
 ROSC BZ EP   4   17 3  7.51                             117    0.24 0  253 211 
 ROSC BN ES   4   17 3 39.46                             117    2.36 0  253 211 
 ROSC BZ I        17 3 46.44        64.7 0.45            118            253 211 
 HEL  HZ EP   4   17 3 10.65                             115    1.19 0  273 256 
 HEL  HN ES       17 3 41.34                             115    0.34 8  273 256 
 HEL  HZ I        17 3 47.36        25.8 0.36            115            273 256 
 GUY2CHZ EP       17 3 12.85                             113    0.04 7  302 235 
 GUY2CHE ES   4   17 3 48.95                             113    2.00 0  302 235 
 GUY2CHZ I        17 3 55.58        51.9 0.76                           302 235 
 VIL  SZ EP       17 3 12.46                             112   -0.03 7  303 192 
 VIL  SN ES       17 3 47.12                             112    0.72 7  303 192 
 RREF HZ EP   4   17 3 12.82                             111   -2.50 0  322 230 
 RREF HN ES   4   17 3 49.78                             111   -1.65 0  322 230 
 RREF HZ I        17 3 53.37        34.4 0.24            112            322 230 
 DBB  SZ EP   4   17 3 16.12                             110   -0.62 0  341 274 
 DBB  SZ ES   4   17 3 52.53                             110   -1.42 0  341 274 
 DBB  SZ I        17 3 55.26        76.5 0.48            110            341 274 
 TOL  SZ EP       17 3 17.98                             110    0.56 7  344 225 
 TOL  SE ES       17 3 55.14                             110   -0.02 7  344 225 
 TOL  SZ I        17 4  2.66        70.8 0.40            110            344 225 
 ANIL HZ EP   4   17 3 20.70                             109    1.74 0  358 225 
 ANIL HN ES   4   17 3 59.86                             109    1.95 0  358 225 
 ANIL HZ I        17 4  2.81         8.8 0.34            109            358 225 
 PRA  HZ EP       17 3 22.05                             107   -0.58 6  392 210 
 PRA  HE ES       17 4  4.68                             107    0.24 6  392 210 
 PRA  HZ I        17 4 10.17        30.1 0.62            107            392 210 
 ORTC HZ EP       17 3 23.03                             107   -0.02 6  396 216 
 ORTC HN ES       17 4  6.02                             107    0.84 6  396 216 
 ORTC HZ I        17 4 13.39        19.0 0.60            107            396 216 
 SJC  HZ EP   4   17 3 22.80                             106   -1.99 0  410 327 
 SJC  HN ES   4   17 4  4.07                             106   -4.22 0  410 327 
 SJC  HZ I        17 4  9.39         6.5 0.68            107            410 327 
                                                                                
