 2017  827 1914 33.4 L   6.210 -73.785 98.0  RSN 16 0.4 2.0LRSN                1
 GAP= 64        1.02       2.4     2.2  5.8 -0.9954E+00  0.3593E+01 -0.8051E+00E
 Epicentro: LANDAZURI - SANTANDER                                              3
 ACTION:UPD 17-09-04 20:25 OP:rebc STATUS:               ID:20170827191433 L   I
 OLDACT:UP  17-08-28 01:18 OP:osc  STATUS:               ID:20170827190741     3
 OLDACT:UP  17-08-28 01:17 OP:osc  STATUS:               ID:20170827190741     3
 OLDACT:REG 17-08-27 21:31 OP:osc  STATUS:               ID:20170827190741     3
 2017-08-27-1908-00M.COL___416                                                 6
 STAT SP IPHASW D HRMM SECON CODA AMPLIT PERI AZIMU VELO AIN AR TRES W  DIS CAZ7
 SPBC HZ EP       1914 49.30                             142   -0.3610 69.4 207 
 SPBC HE ES       1915  2.47                             142    0.1410 69.4 207 
 SPBC HZ I        1915  4.20        77.1 0.32            142           69.4 207 
 BAR2 EZ IP     D 1914 50.54                             139   -0.0710 78.9  58 
 BAR2 EZ ES       1915  4.29                             139    0.2610 78.9  58 
 BAR2 EZ I        1915  5.80        71.7 0.19            142           78.9  58 
 RUS  HZ EP     D 1914 50.92                             137   -0.5710 85.2 114 
 RUS  HE ES       1915  5.48                             137   -0.1110 85.2 114 
 RUS  HZ I        1915 10.68         9.9 0.22            139           85.2 114 
 BRR  HZ IP     C 1914 51.81                             131   -0.2810 99.5   5 
 BRR  HE ES       1915  6.88                             131    0.2210 99.5   5 
 BRR  HZ I        1915  9.30        17.7 0.19            135           99.5   5 
 NOR  HZ IP     D 1914 55.37                             121   -0.82 9  140 239 
 NOR  HE ES       1915 13.28                             121   -0.67 9  140 239 
 NOR  HZ I        1915 15.95        17.2 0.16            122            140 239 
 PAM  EZ EP       1915  0.14                             116   -0.24 9  173  44 
 PAM  EE ES       1915 21.27                             116   -0.15 9  173  44 
 PAM  EZ I        1915 22.69        11.2 0.18            118            173  44 
 CHI  HZ EP       1915  1.16                             115    0.69 9  175 178 
 CHI  HE ES       1915 22.12                             115    0.54 9  175 178 
 CHI  HZ I        1915 28.52         5.7 0.58            116            175 178 
 ZAR  HZ EP       1915  0.97                             114   -0.11 9  185 320 
 ZAR  HE ES       1915 23.28                             114    0.61 9  185 320 
 ZAR  HZ I        1915 25.43        30.9 0.39            115            185 320 
 HEL  HZ EP       1915  2.49                             113    0.02 9  193 269 
 HEL  HN ES       1915 25.37                             113    0.24 9  193 269 
 HEL  HZ I        1915 28.38         9.8 0.22            114            193 269 
 GUY2CHZ EP       1915  4.82                             111    0.71 8  206 238 
 GUY2CHE ES   4   1915 26.90                             111   -1.15 0  206 238 
 GUY2CHZ I        1915 31.03         6.5 0.26                           206 238 
 TAM  HZ EP       1915  5.27                             110   -0.12 8  222  83 
 TAM  HE ES       1915 30.76                             110    0.43 8  222  83 
 ELA  HZ EP   4   1915  5.78                             109   -1.51 0  233 230 
 ELA  HN ES   4   1915 36.66                             109    2.95 0  233 230 
 ELA  HZ I        1915 41.00         7.0 0.42            109            233 230 
 URE  HE ES   4   1915 35.64                             107   -2.08 0  258 312 
 DBB  EZ EP       1915 12.45                             105   -0.15 7  283 289 
 DBB  EE ES       1915 43.44                             105    0.28 7  283 289 
 ORTC HZ EP   4   1915 11.99                             104   -2.82 0  302 213 
 ORTC HE ES   4   1915 48.76                             104    1.65 0  302 213 
 ORTC HZ I        1915 51.58         1.7 0.42            103            302 213 
 PRA  HE ES       1915 47.22                             104    0.07 7  302 204 
 SJC  HZ EP   9   1915 28.14                              99   -2.93 0  436 339 
 SJC  HE ES       1916 12.32                              96   -0.79 5  436 339 
 SJC  HZ I        1916 16.66         3.3 0.44             97            436 339 
                                                                                
