 2015 1127 1214 44.4 L   6.781 -73.166146.6  RSN  5 0.3 1.5LRSN                1
 GAP=135        0.67       5.5     3.9  5.9 -0.7155E+01 -0.2490E+01  0.9421E+01E
 Epicentro: LOS SANTOS - SANTANDER                                             3
 ACTION:UPD 15-12-28 16:13 OP:cam  STATUS:               ID:20151127121444 L   I
 OLDACT:REG 15-11-27 20:18 OP:ak   STATUS:               ID:20151127120749     3
 2015-11-27-1207-49M.COL___307                                                 6
 STAT SP IPHASW D HRMM SECON CODA AMPLIT PERI AZIMU VELO AIN AR TRES W  DIS CAZ7
 BAR2 EZ ES       1215 19.63                             171    0.2310 20.9 185 
 BAR2 EZ I        1215 20.74         5.4 0.14            172           20.9 185 
 BRR  HZ EP   1   1215  6.07                             153    0.52 7 70.3 301 
 BRR  HN ES       1215 22.27                             153    0.1910 70.3 301 
 PAM  EZ EP       1215  6.83                             150   -0.0310 80.5  40 
 PAM  EN ES       1215 24.10                             150   -0.2910 80.5  40 
 PAM  EZ I        1215 26.23         7.3 0.50            151           80.5  40 
 RUS  HZ EP       1215  8.02                             144   -0.0410 98.6 175 
 PTB  HZ EP   2   1215 11.13                             133   -0.04 5  145 259 
 PTB  HN ES       1215 31.67                             133   -0.40 9  145 259 
 PTB  HZ I        1215 34.40         3.5 0.16            134            145 259 
                                                                                
