 2016  127 1539 51.4 L   6.821 -73.171145.3  RSN 12 0.4 2.7LRSN                1
 GAP=132        0.83       2.5     3.4  4.6 -0.9192E+00  0.5393E+01  0.4327E+00E
 Epicentro: LOS SANTOS - SANTANDER                                             3
 ACTION:UPD 16-03-09 23:29 OP:cam  STATUS:               ID:20160127153951 L   I
 OLDACT:REG 16-01-27 21:23 OP:cara STATUS:               ID:20160127153750     3
 2016-01-27-1537-50M.COL___334                                                 6
 STAT SP IPHASW D HRMM SECON CODA AMPLIT PERI AZIMU VELO AIN AR TRES W  DIS CAZ7
 BAR2 EZ IP     C 1540 11.01                             170    0.0210 25.4 183 
 BAR2 EZ ES       1540 25.89                             170   -0.4010 25.4 183 
 BAR2 EZ I        1540 27.19       110.8 0.22            168           25.4 183 
 PAM  EZ EP       1540 13.94                             151    0.4010 77.5  42 
 PAM  EN ES       1540 31.17                             151    0.3410 77.5  42 
 PAM  EZ I        1540 33.82        42.2 0.44            156           77.5  42 
 RUS  HZ EP       1540 15.04                             143   -0.2310  103 175 
 RUS  HN ES       1540 33.98                             143    0.0810  103 175 
 RUS  HZ I        1540 34.75        52.6 0.24            145            103 175 
 PTB  HZ EP       1540 17.52                             132   -0.58 9  145 258 
 PTB  HN ES       1540 38.69                             132   -0.24 9  145 258 
 PTB  HZ I        1540 45.76        55.4 0.24            131            145 258 
 SPBC HZ EP       1540 19.74                             129   -0.11 9  163 218 
 SPBC HN ES       1540 42.49                             129    0.44 9  163 218 
 SPBC HZ I        1540 47.70        65.5 0.22            129            163 218 
 ZAR  HZ EP   4   1540 24.76                             123    1.33 0  201 292 
 ZAR  HN ES       1540 48.85                             123    0.43 9  201 292 
 ZAR  HZ I        1540 54.31        40.6 0.44            123            201 292 
 NOR  HZ EP       1540 27.16                             118    0.18 8  234 234 
 NOR  HN ES       1540 54.76                             118    0.01 8  234 234 
 NOR  HZ I        1541  2.23        26.2 0.18            119            234 234 
 SML  HZ EP       1540 27.22                             118   -0.39 8  240 336 
 SML  HN ES       1540 55.63                             118   -0.25 8  240 336 
 SML  HZ I        1540 59.32        43.1 0.24            119            240 336 
 CHI  HZ EP       1540 28.98                             117   -0.24 8  250 194 
 CHI  HN ES       1540 58.51                             117   -0.22 8  250 194 
 CHI  HZ I        1541  0.86        34.5 0.38            119            250 194 
 GUY2CHZ EP       1540 35.41                             112    0.55 7  300 234 
 GUY2CHN ES   4   1541 13.40                             112    4.63 0  300 234 
 GUY2CHZ I        1541 18.85        16.3 0.24                           300 234 
 ANIL HZ EP       1540 41.91                             108    0.78 6  357 224 
 ANIL HN ES   4   1541 22.21                             108    2.28 0  357 224 
 ANIL HZ I        1541 26.53        50.1 0.32            110            357 224 
 ORTC HZ EP       1540 45.02                             106   -0.29 6  396 216 
 ORTC HN ES   4   1541 28.90                             106    1.53 0  396 216 
 ORTC HZ I        1541 34.71        11.7 0.58            108            396 216 
                                                                                
