 2014  627 1019 17.9 L   6.856 -73.222145.3  RSN  6 0.5 1.4LRSN                1
 GAP=195        1.17       4.7     7.0  9.0 -0.2446E+01  0.1389E+02 -0.1057E+02E
 Epicentro: ZAPATOCA - SANTANDER                                               3
 ACTION:UPD 14-07-01 22:57 OP:nd   STATUS:               ID:20140627101917 L   I
 OLDACT:DUP 14-06-27 22:54 OP:carl STATUS:               ID:20140627101821d    3
 2014-06-27-1018-20M.COL___259                                                 6
 STAT SP IPHASW D HRMM SECON CODA AMPLIT PERI AZIMU VELO AIN AR TRES W  DIS CAZ7
 BAR2 SZ EP       1019 37.48                             168   -0.1410 29.5 172 
 BAR2 SZ ES       1019 53.23                             168    0.2310 29.5 172 
 BAR2 SZ I        1019 56.50         2.5 0.18            170           29.5 172 
 PTB  HZ EP       1019 44.54                             133    0.32 9  141 256 
 PTB  HN ES       1020  4.97                             133    0.22 9  141 256 
 PTB  HZ I        1020 13.13         3.4 0.50            134            141 256 
 SPBC HZ EP       1019 46.72                             129    0.36 9  163 215 
 SPBC HN ES       1020  7.95                             129   -0.59 9  163 215 
 ZAR  HZ EP       1019 49.75                             124    0.46 9  194 291 
 ZAR  HE ES       1020 14.14                             124    0.37 9  194 291 
 ZAR  HZ I        1020 22.18         3.6 0.22            125            194 291 
 NOR  HZ EP       1019 52.57                             119   -0.71 8  232 232 
 NOR  HE ES       1020 20.70                             119   -0.18 8  232 232 
 NOR  HZ I        1020 26.28         2.0 0.38            122            232 232 
 SML  HZ EP       1019 54.04                             118    0.51 8  235 337 
 SML  HN ES       1020 20.16                             118   -1.15 8  235 337 
 SML  HZ I        1020 28.02         2.2 0.22            121            235 337 
                                                                                
