 2013 1127 1345 36.8 L   6.710 -73.184149.8  RSN  4 0.1 1.9LRSN                1
 GAP=232        0.39       9.2     6.0  4.6  0.4598E+02  0.1244E+02  0.1965E+02E
 Epicentro: VILLANUEVA - SANTANDER                                             3
 ACTION:UPD 14-01-09 16:31 OP:ep   STATUS:               ID:20131127134536 L   I
 OLDACT:UP  13-11-27 16:18 OP:cam  STATUS:               ID:20131127134000     3
 OLDACT:REG 13-11-27 15:06 OP:cam  STATUS:               ID:20131127134000     3
 2013-11-27-1340-00M.COL___282                                                 6
 STAT SP IPHASW D HRMM SECON CODA AMPLIT PERI AZIMU VELO AIN AR TRES W  DIS CAZ7
 BAR2 SZ EP       1345 56.62                             175   -0.1410 13.0 179 
 BAR2 SZ ES   2   1346 12.45                             175    0.12 5 13.0 179 
 BAR2 SZ I        1346 14.23        14.6 0.18            166           13.0 179 
 BRR  HZ EP       1345 58.51                             153    0.0210 73.0 307 
 BRR  HN ES       1346 15.47                             153    0.0610 73.0 307 
 PTB  HZ EP   1   1346  3.69                             134    0.10 7  142 262 
 ZAR  HZ EP   1   1346  9.79                             123    0.26 6  204 295 
 ZAR  HE ES       1346 34.88                             123   -0.17 9  204 295 
 ZAR  HZ I        1346 39.89         6.5 0.26            123            204 295 
                                                                                
