 2014  527 1137 42.9 L   6.803 -73.160152.4  RSN  5 0.3 1.6LRSN                1
 GAP=200        0.72       5.2     7.3  6.5  0.2696E+02 -0.8102E+01 -0.1374E+02E
 Epicentro: LOS SANTOS - SANTANDER                                             3
 ACTION:UPD 15-03-16 17:01 OP:nd   STATUS:               ID:20140527113742 L   I
 OLDACT:REG 14-05-27 19:46 OP:cam  STATUS:               ID:20140527113000     3
 2014-05-27-1130-00M.COL___276                                                 6
 STAT SP IPHASW D HRMM SECON CODA AMPLIT PERI AZIMU VELO AIN AR TRES W  DIS CAZ7
 BAR2 SZ EP       1138  3.16                             171   -0.1610 23.5 186 
 BAR2 SZ ES       1138 18.96                             171   -0.2910 23.5 186 
 BAR2 SZ I        1138 20.89        12.5 0.26            176           23.5 186 
 BRR  HZ EP       1138  5.05                             154    0.3810 69.7 299 
 BRR  HN ES       1138 22.08                             154    0.4110 69.7 299 
 BRR  HZ I        1138 25.97         8.7 0.30            155           69.7 299 
 RUS  HZ EP   1   1138  7.68                             145    0.35 7  101 175 
 RUS  HE ES       1138 26.22                             145   -0.1710  101 175 
 RUS  HZ I        1138 26.87         2.6 0.24            151            101 175 
 ZAR  HN ES       1138 40.87                             124   -0.27 9  202 292 
 SML  HZ EP   1   1138 19.49                             119   -0.30 6  243 336 
 SML  HN ES       1138 48.47                             119   -0.10 8  243 336 
 SML  HZ I        1138 53.19         4.3 0.10            121            243 336 
                                                                                
