 2010  127 1052 58.0 L   6.805 -72.948150.0  RSN  5 0.4 1.3LRSN                1
 GAP=230        0.68       6.4    21.5  8.7 -0.5234E+02  0.3302E+02  0.1282E+02E
 Epicentro: SAN ANDRES - SANTANDER                                             3
 ACTION:UP  10-08-24 09:46 OP:vdl  STATUS:               ID:20100127105257 L   I
 2010-01-27-1039-50S.COL___083                                                 6
 STAT SP IPHASW D HRMM SECON CODA AMPLIT PERI AZIMU VELO SNR AR TRES W  DIS CAZ7
 BAR2 SZ EP   1   1053 18.20                             166    -0.2 7   35 228 
 BAR2 SZ ES   2   1053 33.78                             166    -0.5 5   35 228 
 GIR2 SZ EP   2   1053 18.89                             164     0.5 5   41 318 
 GIR2 SZ ES   2   1053 34.57                             164     0.2 5   41 318 
 RUS  HZ EP   2   1053 22.44                             144     0.2 5  102 188 
 RUS  HN ES   1   1053 40.97                             144    -0.2 7  102 188 
 RUS  HZ I        1053 42.09         2.0 0.17                           102 188 
 CHI  HZ EP   2   1053 36.21                             117    -0.5 4  256 200 
 CHI  HN ES   1   1054  7.65                             117     0.8 6  256 200 
 CHI  HZ I        1054 14.35         1.7 0.76                           256 200 
 PRA  HZ EP   2   1053 52.65                             107    -0.3 3  404 212 
 PRA  HE ES   2   1054 35.17                             107    -0.7 3  404 212 
                                                                                
