 2015 1227 1057  4.4 L   6.767 -73.066160.6  RSN  6 0.3 1.5LRSN                1
 GAP=243        0.69       4.3     4.7  6.2  0.6184E+01  0.6481E+01 -0.3798E+01E
 Epicentro: LOS SANTOS - SANTANDER                                             3
 ACTION:UPD 16-02-04 15:08 OP:cam  STATUS:               ID:20151227105704 L   I
 OLDACT:REG 15-12-27 20:15 OP:cara STATUS:               ID:20151227104749     3
 2015-12-27-1047-49M.COL___331                                                 6
 STAT SP IPHASW D HRMM SECON CODA AMPLIT PERI AZIMU VELO AIN AR TRES W  DIS CAZ7
 BAR2 EZ EP       1057 26.06                             171    0.2110 23.2 214 
 BAR2 EZ ES       1057 42.44                             171   -0.1110 23.2 214 
 BAR2 EZ I        1057 43.72         4.1 0.26            172           23.2 214 
 BRR  HZ EP       1057 27.61                             152   -0.1210 80.7 298 
 BRR  HN ES       1057 45.73                             152   -0.1610 80.7 298 
 BRR  HZ I        1057 56.69         5.9 0.46            151           80.7 298 
 RUS  HN ES       1057 49.11                             148    0.2010 96.7 181 
 RUS  HZ I        1057 50.68         2.0 0.36            155           96.7 181 
 PTB  HZ EP       1057 33.03                             134   -0.33 9  156 261 
 PTB  HE ES       1057 55.60                             134   -0.31 9  156 261 
 PTB  HZ I        1057 56.81         2.8 0.28            136            156 261 
 SPBC HZ EP   4   1057 35.70                             132    1.31 0  166 222 
 SPBC HN ES       1057 57.86                             132    0.12 9  166 222 
 SPBC HZ I        1058  0.54         4.5 0.36            137            166 222 
 ZAR  HE ES       1058  6.28                             124    0.60 8  214 292 
 ZAR  HZ I        1058 11.82         4.8 0.24            127            214 292 
                                                                                
