 2015  727 1509 52.0 L   6.855 -73.180139.2  RSN 17 0.5 2.7LRSN                1
 GAP=129        1.18       2.9     4.3  6.2 -0.2853E+01  0.1222E+02 -0.1337E+00E
 Epicentro: ZAPATOCA - SANTANDER                                               3
 ACTION:UPD 15-09-08 21:50 OP:cam  STATUS:               ID:20150727150952 L   I
 OLDACT:REG 15-07-27 23:08 OP:stll STATUS:               ID:20150727150750     3
 2015-07-27-1507-50M.COL___331                                                 6
 STAT SP IPHASW D HRMM SECON CODA AMPLIT PERI AZIMU VELO AIN AR TRES W  DIS CAZ7
 BAR2 EZ IP     C 1510 11.25                             168    0.2510 29.0 180 
 BAR2 EZ ES       1510 25.50                             168   -0.3010 29.0 180 
 BAR2 EZ I        1510 27.37        53.8 0.28            168           29.0 180 
 PAM  EZ IP     D 1510 14.17                             150    0.7510 75.5  45 
 PAM  EN ES       1510 30.73                             150    0.6110 75.5  45 
 PAM  EZ I        1510 33.21       105.9 0.50            145           75.5  45 
 RUS  HZ EP       1510 15.34                             141   -0.2810  107 174 
 RUS  HN ES       1510 34.12                             141    0.1010  107 174 
 RUS  HZ I        1510 34.96        53.3 0.22            137            107 174 
 CPBEREZ EP       1510 18.12                             131   -0.12 9  145 256 
 CPBEREN ES       1510 38.35                             131   -0.34 9  145 256 
 OCA  HZ EP       1510 19.33                             129    0.11 9  154 354 
 OCA  HN ES       1510 39.82                             129   -0.61 9  154 354 
 OCA  HZ I        1510 44.34        93.1 0.28            121            154 354 
 ZAR  HZ EP       1510 23.71                             122    0.27 9  198 291 
 ZAR  HN ES       1510 48.00                             122    0.05 9  198 291 
 ZAR  HZ I        1510 55.69        30.0 0.26            114            198 291 
 NOR  HZ EP     C 1510 27.39                             117   -0.04 8  235 233 
 NOR  HN ES       1510 55.24                             117    0.19 8  235 233 
 NOR  HZ I        1510 57.68        28.3 0.18            111            235 233 
 SML  HZ EP       1510 27.24                             117   -0.27 8  237 336 
 SML  HN ES       1510 55.01                             117   -0.18 8  237 336 
 SML  HZ I        1511  4.84        40.1 0.26            110            237 336 
 CHI  HZ EP       1510 28.95                             115   -0.95 8  254 194 
 CHI  HN ES       1510 58.23                             115   -1.22 8  254 194 
 CHI  HZ I        1511  2.37        32.2 0.56            110            254 194 
 HEL  HZ EP       1510 32.82                             114    1.15 8  270 254 
 HEL  HE ES       1511  2.36                             114   -0.23 8  270 254 
 GUY2CHZ EP       1510 35.58                             111    0.20 7  302 233 
 GUY2CHN ES       1511  9.78                             111    0.57 7  302 233 
 GUY2CHZ I        1511 15.70        15.9 0.26                           302 233 
 ELA  HN ES       1511 15.60                             109    0.44 7  330 228 
 CBOC HZ EP       1510 37.59                             109   -0.88 7  332 251 
 CBOC HZ I        1511 30.02         8.3 0.10            103            332 251 
 DBB  SZ EP       1510 38.52                             108   -0.23 7  335 273 
 DBB  SZ I        1511 16.85        44.4 0.30            103            335 273 
 TOL  SZ EP       1510 40.49                             108    0.27 7  345 223 
 TOL  SN ES       1511 17.85                             108    0.04 7  345 223 
 TOL  SZ I        1511 24.88        15.5 0.52            103            345 223 
 ANIL HZ EP       1510 42.78                             107    1.00 6  359 223 
 ANIL HN ES       1511 20.99                             107    0.40 6  359 223 
 ANIL HZ I        1511 28.26        48.0 0.30            102            359 223 
 SJC  HZ IP     D 1510 45.42                             105   -1.11 6  402 327 
                                                                                
