 2013  427 1009 30.6 L   6.800 -73.143148.5  RSN 13 0.5 1.9LRSN                1
 GAP=137        1.09       4.1     5.0  7.7 -0.2504E+01  0.1025E+02 -0.1988E+00E
 Epicentro: LOS SANTOS - SANTANDER                                             3
 ACTION:UPD 13-05-22 14:41 OP:EP   STATUS:               ID:20130427100930 L   I
 2013-04-27-1007-35M.COL___214                                                 6
 STAT SP IPHASW D HRMM SECON CODA AMPLIT PERI AZIMU VELO AIN AR TRES W  DIS CAZ7
 BAR2 SZ EP       10 9 49.66                             171   -0.8510 23.4 191 
 BAR2 SZ I        1010  8.76         9.9 0.36            173           23.4 191 
 BRR  HZ IP     C 10 9 52.49                             153    0.4810 71.4 298 
 BRR  HN ES   1   1010  9.12                             153    0.38 7 71.4 298 
 BRR  HZ I        1010 14.93         9.3 0.38            154           71.4 298 
 PAM  SZ IP     D 10 9 53.35                             151    0.3010 77.2  39 
 PAM  SN ES   1   1010 10.75                             151    0.16 7 77.2  39 
 PAM  SZ I        1010 19.29         3.3 0.52            155           77.2  39 
 RUS  HZ EP       10 9 54.43                             144   -0.1410  101 176 
 RUS  HN ES   1   1010 13.40                             144    0.09 7  101 176 
 RUS  HZ I        1010 15.74         6.4 0.48            149            101 176 
 PTB  HZ EP       10 9 57.18                             132   -0.59 9  148 259 
 PTB  HN ES   1   1010 18.43                             132   -0.57 7  148 259 
 PTB  HZ I        1010 20.61        13.0 0.62            136            148 259 
 OCA  HZ EP       10 9 59.63                             130    0.55 9  160 353 
 OCA  HN ES   1   1010 20.92                             130   -0.40 7  160 353 
 OCA  HZ I        1010 25.48         7.6 0.50            134            160 353 
 ZAR  HZ EP       1010  3.10                             123   -0.10 9  204 292 
 ZAR  HN ES   1   1010 29.36                             123    0.69 6  204 292 
 ZAR  HZ I        1010 35.36         8.2 0.40            126            204 292 
 NOR  HZ EP       1010  6.46                             119   -0.01 8  235 234 
 NOR  HE ES   1   1010 34.64                             119    0.16 6  235 234 
 NOR  HZ I        1010 38.21         8.4 0.16            123            235 234 
 SML  HZ EP       1010  7.40                             118    0.06 8  244 335 
 SML  HN ES   1   1010 35.48                             118   -0.56 6  244 335 
 SML  HZ I        1010 40.84        11.6 0.10            121            244 335 
 HEL  HZ EP   4   1010 13.25                             115    2.31 0  272 256 
 HEL  HN ES   1   1010 43.22                             115    0.78 6  272 256 
 HEL  HZ I        1010 49.72         4.6 0.28            119            272 256 
 URE  HZ EP       1010 11.11                             114   -0.68 7  284 292 
 URE  HN ES   4   1010 42.18                             114   -1.76 0  284 292 
 URE  HZ I        1010 55.57         4.8 0.18            117            284 292 
 PRA  HZ EP       1010 25.32                             107    1.13 6  392 210 
 PRA  HN ES   4   1011  7.55                             107    1.53 0  392 210 
 PRA  HZ I        1011 11.55         2.9 0.28            110            392 210 
 SJC  HZ EP   4   1010 24.72                             106   -1.50 0  409 327 
 SJC  HN ES   4   1011  7.96                             106   -1.68 0  409 327 
 SJC  HZ I        1011 15.88         2.9 0.78            109            409 327 
                                                                                
