 2011 1027 1101 31.2 L   6.798 -73.142147.1  RSN 13 0.4 2.6LRSN                1
 GAP=114        0.78       3.6     4.7  6.1  0.2160E+01  0.1013E+02  0.4024E+01E
 Epicentro: LOS SANTOS - SANTANDER                                             3
 ACTION:UPD 12-07-13 16:06 OP:ep   STATUS:               ID:20111027110131 L   I
 2011-10-27-1057-41S.COL___177                                                 6
 STAT SP IPHASW D HRMM SECON CODA AMPLIT PERI AZIMU VELO AIN AR TRES W  DIS CAZ7
 BTL  SZ EP       11 1 51.06                             172    0.1310 19.2 314 
 BTL  SZ ES   3   11 2  6.15                             172   -0.16 2 19.2 314 
 BAR2 SZ IP     D 11 1 50.80                             171   -0.2010 23.2 191 
 BAR2 SZ I        11 2  8.17        77.3 0.28                          23.2 191 
 BRR  HZ IP     C 11 1 52.60                             153    0.0710 71.7 298 
 BRR  HZ I        11 1 52.74       117.7 0.12                          71.7 298 
 BRR  HN ES   1   11 2  9.53                             153    0.37 7 71.7 298 
 PAM  SZ EP       11 1 53.81                             151    0.2510 77.2  39 
 PAM  SN ES   1   11 2 10.79                             151   -0.20 7 77.2  39 
 RUS  HZ EP       11 1 54.77                             144   -0.3110  100 176 
 RUS  HN ES   1   11 2 13.45                             144   -0.25 7  100 176 
 RUS  HZ I        11 2 15.18        32.2 0.30                           100 176 
 OCA  SZ EP       11 1 59.63                             130   -0.02 9  160 353 
 OCA  SZ ES   3   11 2 21.60                             130   -0.23 2  160 353 
 OCA  SZ I        11 2 27.84        36.4 0.33                           160 353 
 YOP  SZ EP       11 2  1.41                             127    0.09 9  179 153 
 YOP  SN ES   2   11 2 25.79                             127    0.99 4  179 153 
 YOP  SZ I        11 2 28.44        21.9 0.48                           179 153 
 ZAR  HZ EP       11 2  3.21                             123   -0.58 9  205 292 
 ZAR  HE ES   3   11 2 28.62                             123   -0.59 2  205 292 
 ZAR  HZ I        11 2 34.07        45.4 0.54                           205 292 
 NOR  SZ EP       11 2  6.52                             119   -0.53 8  235 235 
 HEL  HZ EP       11 2 12.67                             115    1.13 8  272 256 
 HEL  HE ES   3   11 2 42.84                             115   -0.15 2  272 256 
 HEL  HZ I        11 2 50.09        19.2 0.60                           272 256 
 GUY  SZ EP   3   11 2 15.74                             112    0.56 2  304 235 
 GUY  SZ I        11 2 59.20        24.7 0.40                           304 235 
 RREF HZ EP   3   11 2 18.11                             111    0.67 2  322 229 
 RREF HE ES   3   11 2 54.54                             111    1.05 2  322 229 
 RREF HZ I        11 3  2.62        17.0 0.64                           322 229 
 PRA  HZ EP   3   11 2 24.39                             107   -0.40 1  392 210 
 PRA  HE ES   2   11 3  6.34                             107   -0.23 3  392 210 
                                                                                
