 2010  627 1718  1.0 L   6.776 -73.102149.3  RSN  8 0.3 2.0LRSN                1
 GAP=161        0.60       3.1     6.5  5.0 -0.3106E+01 -0.3961E+01 -0.2535E+01E
 Epicentro: LOS SANTOS - SANTANDER                                             3
 ACTION:UP  10-08-24 10:13 OP:vdl  STATUS:               ID:20100627171801 L   I
 2010-06-27-1714-10S.COL___118                                                 6
 STAT SP IPHASW D HRMM SECON CODA AMPLIT PERI AZIMU VELO SNR AR TRES W  DIS CAZ7
 BAR2 SZ EP   1   1718 20.83                             171    -0.2 7   22 204 
 BAR2 SZ ES   1   1718 36.38                             171    -0.3 7   22 204 
 BRR  HZ IP     C 1718 22.78                             152    -0.110   77 299 
 BRR  HE ES   1   1718 40.06                             152     0.2 7   77 299 
 BRR  HZ I        1718 41.69        23.0 0.20                            77 299 
 RUS  HZ EP   1   1718 24.71                             146    -0.2 7   98 179 
 RUS  HE ES   1   1718 43.84                             146     0.3 7   98 179 
 RUS  HZ I        1718 44.96         7.1 0.41                            98 179 
 BRI  SZ EP   1   1718 25.49                             142     0.2 7  109  18 
 BRI  SZ ES   1   1718 44.76                             142     0.5 7  109  18 
 GUE  SZ IP       1718 25.95                             140    -0.210  118  10 
 GRA  SZ EP   1   1718 26.68                             138     0.0 7  127  15 
 OCA  SZ EP   1   1718 29.76                             130    -0.1 7  164 352 
 OCA  SZ ES   2   1718 52.46                             130     0.0 5  164 352 
 OCA  SZ I        1718 57.18         9.9 0.19                           164 352 
 PRA  HZ EP   1   1718 55.21                             107     0.6 4  392 210 
 PRA  HZ I        1718 57.00         4.5 0.33                           392 210 
                                                                                
