 2014  527 1243 33.3 L   6.650 -73.340135.2  RSN  4 0.3 1.5LRSN                1
 GAP=129        0.59       4.8     4.1  6.5  0.2586E+01  0.8866E+01 -0.1442E+02E
 Epicentro: GALAN - SANTANDER                                                  3
 ACTION:UPD 15-03-16 17:01 OP:nd   STATUS:               ID:20140527124333 L   I
 OLDACT:REG 14-05-27 19:51 OP:cam  STATUS:               ID:20140527124000     3
 2014-05-27-1240-00M.COL___276                                                 6
 STAT SP IPHASW D HRMM SECON CODA AMPLIT PERI AZIMU VELO AIN AR TRES W  DIS CAZ7
 BAR2 SZ EP   1   1243 51.75                             171    0.16 7 18.5 110 
 BAR2 SZ ES       1244  5.62                             171   -0.2210 18.5 110 
 BAR2 SZ I        1244  6.77        14.7 0.24            173           18.5 110 
 RUS  HE ES       1244 12.40                             144    0.2010 88.4 161 
 RUS  HZ I        1244 14.29         2.8 0.48            149           88.4 161 
 PTB  HZ EP       1243 57.32                             135    0.0210  124 264 
 PTB  HN ES       1244 15.90                             135   -0.1110  124 264 
 PTB  HZ I        1244 18.83         3.7 0.14            135            124 264 
 SML  HZ EP   1   1244  9.80                             114   -0.40 6  251 341 
 SML  HE ES   2   1244 39.89                             114    0.91 4  251 341 
 SML  HZ I        1244 45.62         3.2 0.24            114            251 341 
                                                                                
