 2017  727 1125 40.4 L   6.788 -73.134142.6  RSN 18 0.6 2.3LRSN                1
 GAP= 99        1.35       4.3     3.5  6.4  0.5162E+00  0.5017E+01  0.6106E+01E
 Epicentro: LOS SANTOS - SANTANDER                                             3
 ACTION:UPD 17-08-30 15:37 OP:rebc STATUS:               ID:20170727112540 L   I
 OLDACT:UP  17-07-28 00:04 OP:ar   STATUS:               ID:20170727111746     3
 OLDACT:UP  17-07-28 00:04 OP:ar   STATUS:               ID:20170727111746     3
 OLDACT:UP  17-07-28 00:03 OP:ar   STATUS:               ID:20170727111746     3
 OLDACT:UP  17-07-27 23:56 OP:ar   STATUS:               ID:20170727111746     3
 OLDACT:UP  17-07-27 23:35 OP:ar   STATUS:               ID:20170727111746     3
 OLDACT:REG 17-07-27 20:55 OP:ar   STATUS:               ID:20170727111746     3
 2017-07-27-1118-00M.COL___371                                                 6
 STAT SP IPHASW D HRMM SECON CODA AMPLIT PERI AZIMU VELO AIN AR TRES W  DIS CAZ7
 BAR2 EZ IP     D 1125 59.26                             171   -0.4110 22.3 194 
 BAR2 EZ ES       1126 14.32                             171   -0.3510 22.3 194 
 BAR2 EZ I        1126 17.54        42.6 0.22            168           22.3 194 
 BRR  HZ EP       1126  1.27                             151   -0.0810 73.0 299 
 BRR  HE ES       1126 18.80                             151    1.1410 73.0 299 
 BRR  HZ I        1126 21.67        27.3 0.18            151           73.0 299 
 PAM  EZ EP       1126  2.10                             150   -0.2410 77.6  38 
 PAM  EE ES       1126 19.51                             150    0.0910 77.6  38 
 PAM  EZ I        1126 21.55        47.3 0.52            154           77.6  38 
 RUS  HZ EP       1126  3.57                             144   -0.2110 99.1 177 
 RUS  HN ES       1126 21.95                             144   -0.0310 99.1 177 
 RUS  HZ I        1126 23.06        20.4 0.32            144           99.1 177 
 PTB  HZ EP       1126  6.21                             131   -1.03 9  149 259 
 PTB  HN ES       1126 27.26                             131   -0.89 9  149 259 
 PTB  HZ I        1126 28.86        17.8 0.20            131            149 259 
 TAM  HZ IP     D 1126  7.42                             130   -0.30 9  154 105 
 TAM  HN ES       1126 28.98                             130   -0.02 9  154 105 
 SPBC HZ EP       1126  8.29                             128   -0.38 9  163 220 
 SPBC HN ES       1126 30.71                             128    0.01 9  163 220 
 SPBC HZ I        1126 35.29        35.4 0.32            128            163 220 
 YPLC HZ EP       1126 10.92                             126    1.09 9  175 151 
 YPLC HN ES       1126 33.15                             126    0.40 9  175 151 
 YPLC HZ I        1126 34.05        22.6 0.30            128            175 151 
 ZAR  HZ EP       1126 13.38                             121    0.53 8  206 292 
 ZAR  HN ES       1126 37.78                             121   -0.36 8  206 292 
 ZAR  HZ I        1126 41.55        20.7 0.12            122            206 292 
 NOR  HZ EP       1126 15.40                             118   -0.61 8  235 235 
 NOR  HN ES       1126 43.84                             118    0.08 8  235 235 
 NOR  HZ I        1126 46.90        20.6 0.20            118            235 235 
 ROSC BZ EP       1126 19.01                             116    0.68 8  252 211 
 ROSC BN ES   4   1126 51.89                             116    4.00 0  252 211 
 ROSC BZ I        1126 54.48        21.4 0.35            117            252 211 
 HEL  HZ EP       1126 21.40                             114    0.81 8  273 256 
 HEL  HE ES       1126 53.14                             114    1.23 8  273 256 
 HEL  HZ I        1126 57.49         7.1 0.42            115            273 256 
 URE  HZ EP   4   1126 20.10                             113   -1.44 0  286 292 
 URE  HN ES   4   1126 51.07                             113   -2.54 0  286 292 
 URE  HZ I        1126 58.89        12.6 0.22            114            286 292 
 GUY2CHZ EP   9   1126 25.53                             112    1.60 0  301 235 
 GUY2CHN ES       1126 59.50                             112    0.04 7  301 235 
 GUY2CHZ I        1127  4.09        13.1 0.46                           301 235 
 PTGC HZ EP   9   1126 22.10                             111   -1.86 0  307 159 
 PTGC HN ES       1126 55.78                             112   -0.27 7  307 159 
 PTGC HZ I        1127  3.45        11.2 0.46            112            307 159 
 PRA  HZ EP       1126 32.89                             106   -0.89 6  391 210 
 PRA  HE ES       1127 15.15                             106   -0.25 6  391 210 
 PRA  HZ I        1127 20.93        10.6 0.28            107            391 210 
 ORTC HZ EP       1126 34.62                             106    0.41 6  395 216 
 ORTC HN ES       1127 16.28                             106    0.13 6  395 216 
 ORTC HZ I        1127 20.48         4.6 0.16            107            395 216 
 SJC  HZ EP   4   1126 33.13                             105   -2.98 0  411 327 
 SJC  HN ES   4   1127 14.98                             105   -4.56 0  411 327 
 SJC  HZ I        1127 19.27         6.4 0.36            106            411 327 
                                                                                
