 2012  827 1118 29.8 L   6.744 -73.157145.9  RSN  6 0.3 2.0LRSN                1
 GAP=138        0.66       4.2     4.2  5.4 -0.2011E+01  0.2244E+01  0.1267E+01E
 Epicentro: JORDAN - SANTANDER                                                 3
 ACTION:UPD 12-09-10 11:58 OP:ep   STATUS:               ID:20120827111829 L   I
 2012-08-27-1110-00M.COL___218                                                 6
 STAT SP IPHASW D HRMM SECON CODA AMPLIT PERI AZIMU VELO AIN AR TRES W  DIS CAZ7
 BAR2 SZ IP       1118 49.47                             173    0.0910 17.0 190 
 BAR2 SZ ES   1   1119  4.71                             173    0.09 7 17.0 190 
 BAR2 SZ I        1119  8.39        33.8 0.42                          17.0 190 
 GIR2 SZ EP       1118 49.82                             165    0.1110 37.3 354 
 GIR2 SZ ES   2   1119  4.83                             165   -0.37 5 37.3 354 
 BRR  HZ EP       1118 51.40                             152    0.2710 73.3 303 
 BRR  HN ES   1   1119  8.33                             152    0.60 7 73.3 303 
 BRR  HZ I        1119 12.04        24.3 0.16                          73.3 303 
 PAM  SZ EP       1118 52.32                             149   -0.1010 83.0  37 
 PAM  SZ I        1118 52.56        20.0 0.44                          83.0  37 
 PAM  SN ES   1   1119  9.56                             149   -0.47 7 83.0  37 
 RUS  HZ EP       1118 53.27                             146    0.0910 94.5 175 
 RUS  HN ES   1   1119 11.37                             146   -0.01 7 94.5 175 
 RUS  HZ I        1119 14.61         7.4 0.50                          94.5 175 
 PTB  HZ EP       1118 56.32                             133   -0.29 9  145 261 
 PTB  HN ES   1   1119 16.99                             133   -0.50 7  145 261 
 PTB  HZ I        1119 23.25        13.7 0.48                           145 261 
                                                                                
