 2017  827 1116 40.6 L   6.799 -73.128144.9  RSN 24 0.5 2.4LRSN                1
 GAP= 67        1.03       2.9     2.7  4.6  0.1933E+00  0.3688E+01  0.2278E+01E
 Epicentro: LOS SANTOS - SANTANDER                                             3
 ACTION:UPD 17-09-04 20:25 OP:rebc STATUS:               ID:20170827111640 L   I
 OLDACT:UP  17-08-27 22:27 OP:osc  STATUS:               ID:20170827110737d    3
 OLDACT:UP  17-08-27 22:24 OP:osc  STATUS:               ID:20170827110737d    3
 OLDACT:DUP 17-08-27 22:00 OP:osc  STATUS:               ID:20170827110737d    3
 2017-08-27-1108-00M.COL___411                                                 6
 STAT SP IPHASW D HRMM SECON CODA AMPLIT PERI AZIMU VELO AIN AR TRES W  DIS CAZ7
 BAR2 EZ IP     C 1116 59.73                             170   -0.4110 23.6 195 
 BAR2 EZ ES       1117 14.79                             170   -0.5810 23.6 195 
 BAR2 EZ I        1117 16.05        99.4 0.18            165           23.6 195 
 BRR  HZ EP       1117  1.53                             152   -0.2310 72.9 298 
 BRR  HE ES       1117 18.80                             152    0.5410 72.9 298 
 BRR  HZ I        1117 19.57        34.9 0.12            151           72.9 298 
 PAM  EZ IP     D 1117  2.47                             151   -0.1910 76.3  38 
 PAM  EE ES       1117 19.86                             151   -0.0110 76.3  38 
 PAM  EZ I        1117 22.00        31.6 0.60            157           76.3  38 
 RUS  HZ EP       1117  3.68                             144   -0.5710  100 177 
 RUS  HE ES       1117 22.73                             144    0.0310  100 177 
 RUS  HZ I        1117 23.47        24.3 0.34            142            100 177 
 TAM  HZ IP     D 1117  8.01                             131   -0.03 9  153 105 
 TAM  HE ES       1117 29.99                             131    0.55 9  153 105 
 SPBC HZ EP       1117  8.69                             129   -0.45 9  164 220 
 SPBC HE ES       1117 31.24                             129   -0.16 9  164 220 
 SPBC HZ I        1117 38.09        28.9 0.10            127            164 220 
 YPLC HZ IP     C 1117 10.11                             127   -0.13 9  176 152 
 YPLC HE ES       1117 34.27                             127    0.92 9  176 152 
 YPLC HZ I        1117 34.89        25.9 0.24            127            176 152 
 ZAR  HZ EP       1117 13.21                             122    0.03 8  206 292 
 ZAR  HE ES       1117 38.42                             122   -0.17 8  206 292 
 ZAR  HZ I        1117 43.73        20.9 0.13            122            206 292 
 TABC EZ EP       1117 17.45                             119    1.05 8  231 211 
 TABC EZ ES       1117 44.59                             119    0.28 8  231 211 
 TABC EZ I        1117 51.15        32.0 0.40            119            231 211 
 NOR  HZ EP       1117 16.15                             118   -0.29 8  236 235 
 NOR  HE ES       1117 44.14                             118   -0.26 8  236 235 
 NOR  HZ I        1117 49.11        27.7 0.11            118            236 235 
 CHI  HZ EP       1117 17.99                             117   -0.31 8  249 196 
 CHI  HE ES       1117 47.29                             117   -0.41 8  249 196 
 CHI  HZ I        1117 54.30        11.7 0.48            117            249 196 
 ROSC BZ EP   4   1117 19.93                             116    1.16 0  254 211 
 ROSC BE ES   4   1117 50.78                             116    2.24 0  254 211 
 ROSC BZ I        1117 55.80        20.6 0.40            116            254 211 
 HEL  HZ EP       1117 21.71                             114    0.74 8  274 256 
 HEL  HE ES       1117 53.48                             114    1.02 8  274 256 
 HEL  HZ I        1117 58.34        14.4 0.28            114            274 256 
 URE  HZ EP   4   1117 20.57                             113   -1.26 0  286 292 
 URE  HE ES   4   1117 51.33                             113   -2.66 0  286 292 
 URE  HZ I        1118  0.12        16.0 0.14            114            286 292 
 GUY2CHZ EP       1117 24.65                             112    0.31 7  303 235 
 GUY2CHE ES   3   1117 59.65                             112    1.19 2  303 235 
 GUY2CHZ I        1118  6.33        18.5 0.34                           303 235 
 VIL  EZ EP       1117 23.52                             112   -0.49 7  304 192 
 VIL  EE ES   4   1117 59.41                             112    1.54 0  304 192 
 VIL  EZ I        1118  6.13        15.4 0.40            112            304 192 
 PTGC HZ EP   4   1117 22.89                             111   -1.44 0  308 159 
 PTGC HE ES   4   1117 55.81                             111   -2.63 0  308 159 
 LL6C HZ EP       1117 26.58                             110    0.29 7  325 357 
 LL6C HE ES   4   1118  4.70                             110    2.77 0  325 357 
 ELA  HZ EP   4   1117 30.54                             110    2.96 0  330 230 
 ELA  HE ES   4   1118  8.55                             110    4.34 0  330 230 
 ELA  HZ I        1118 11.26        11.0 0.36            110            330 230 
 DBB  EZ EP       1117 28.22                             109   -0.04 7  341 274 
 DBB  EE ES       1118  5.44                             109    0.00 7  341 274 
 DBB  EZ I        1118  6.78         4.6 0.38            110            341 274 
 ANIL HE ES   2   1118  8.41                             108   -1.04 3  359 225 
 PRA  HZ EP       1117 33.64                             106   -0.55 6  393 210 
 PRA  HE ES       1118 16.41                             106    0.42 6  393 210 
 PRA  HZ I        1118 22.15        12.5 0.52            107            393 210 
 ORTC HZ EP       1117 34.66                             106    0.05 6  396 216 
 ORTC HE ES   4   1118 18.67                             106    1.93 0  396 216 
 ORTC HZ I        1118 24.62         5.9 0.42            106            396 216 
 PAL  HZ EP       1117 35.77                             106   -0.15 6  407 239 
 PAL  HE ES   4   1118 17.83                             106   -1.24 0  407 239 
 PAL  HZ I        1118 24.42         5.4 0.56            106            407 239 
 SJC  HZ EP   4   1117 34.26                             105   -2.01 0  410 327 
 SJC  HE ES   4   1118 15.38                             105   -4.31 0  410 327 
 SJC  HZ I        1118 18.43         5.5 0.52            107            410 327 
                                                                                
