 2013 1227 1538  3.8 L   6.796 -73.145145.3  RSN 10 0.5 1.9LRSN                1
 GAP=137        1.26       4.1     5.4  7.4  0.9472E-01  0.1001E+02 -0.2461E+01E
 Epicentro: LOS SANTOS - SANTANDER                                             3
 ACTION:UPD 14-01-13 10:21 OP:ep   STATUS:               ID:20131227153803 L   I
 OLDACT:DUP 13-12-27 15:17 OP:jn   STATUS:               ID:20131227153002d    3
 OLDACT:DUP 13-12-27 15:12 OP:jn   STATUS:               ID:20131227153001d    3
 2013-12-27-1530-00M.COL___285                                                 6
 STAT SP IPHASW D HRMM SECON CODA AMPLIT PERI AZIMU VELO AIN AR TRES W  DIS CAZ7
 BAR2 SZ IP     C 1538 23.43                             171    0.1110 22.9 191 
 BAR2 SZ ES       1538 38.22                             171   -0.3610 22.9 191 
 BAR2 SZ I        1538 39.52        23.5 0.32            170           22.9 191 
 BRR  HZ EP       1538 25.36                             152    0.4910 71.5 299 
 BRR  HE ES       1538 42.53                             152    1.1910 71.5 299 
 BRR  HZ I        1538 45.62        23.2 0.44            151           71.5 299 
 PAM  SZ EP       1538 26.40                             151    0.4710 77.6  39 
 PAM  SN ES   1   1538 43.36                             151    0.13 7 77.6  39 
 PAM  SZ I        1538 45.74        11.6 0.64            154           77.6  39 
 RUS  HZ EP       1538 27.57                             144    0.1510  100 176 
 RUS  HN ES       1538 45.26                             144   -0.6310  100 176 
 RUS  HZ I        1538 47.07         5.9 0.30            146            100 176 
 PTB  HZ EP       1538 30.37                             132   -0.31 9  148 259 
 PTB  HN ES       1538 51.21                             132   -0.48 9  148 259 
 PTB  HZ I        1538 55.69        13.2 0.42            132            148 259 
 OCA  HN ES   1   1538 53.16                             129   -1.00 7  161 353 
 OCA  HZ I        1538 59.49        11.9 0.30            131            161 353 
 ZAR  HZ EP       1538 36.45                             122    0.25 9  204 292 
 ZAR  HN ES       1539  1.82                             122    0.32 9  204 292 
 ZAR  HZ I        1539  7.57        12.1 0.28            123            204 292 
 NOR  HZ EP       1538 39.56                             118    0.12 8  235 235 
 NOR  HN ES       1539  7.07                             118   -0.20 8  235 235 
 NOR  HZ I        1539 14.01         7.9 0.20            119            235 235 
 SML  HZ EP       1538 39.99                             117   -0.41 8  244 335 
 SML  HE ES       1539  8.06                             117   -0.93 8  244 335 
 CHI  HZ EP   2   1538 42.00                             117    0.62 4  248 195 
 CHI  HN ES   2   1539 10.99                             117    0.26 4  248 195 
 CHI  HZ I        1539 16.73         3.0 0.30            119            248 195 
                                                                                
