 2016  427 1148  2.9 L   6.824 -73.163142.1  RSN 12 0.3 2.3LRSN                1
 GAP=118        0.67       2.0     2.6  3.7 -0.1089E+01  0.2667E+01  0.4702E+00E
 Epicentro: LOS SANTOS - SANTANDER                                             3
 ACTION:UPD 16-05-05 14:24 OP:rebc STATUS:               ID:20160427114748 L   I
 OLDACT:UPD 16-04-27 22:52 OP:Ak   STATUS:               ID:20160427114748 L   3
 2016-04-27-1147-48M.COL___312                                                 6
 STAT SP IPHASW D HRMM SECON CODA AMPLIT PERI AZIMU VELO AIN AR TRES W  DIS CAZ7
 BAR2 EZ IP       1148 22.19                             169    0.0710 25.7 185 
 BAR2 EZ ES       1148 36.63                             169   -0.4910 25.7 185 
 BAR2 EZ I        1148 38.47        46.8 0.18            169           25.7 185 
 PAM  EZ IP       1148 24.81                             150    0.1510 76.6  42 
 PAM  EN ES       1148 41.96                             150    0.3210 76.6  42 
 PAM  EZ I        1148 44.02        46.9 0.50            154           76.6  42 
 RUS  HZ EP       1148 26.40                             142   -0.0810  103 175 
 RUS  HN ES       1148 45.18                             142    0.3010  103 175 
 RUS  HZ I        1148 46.67        29.8 0.40            145            103 175 
 PTB  HZ EP       1148 29.02                             131   -0.40 9  146 258 
 PTB  HN ES       1148 50.05                             131   -0.07 9  146 258 
 PTB  HZ I        1148 51.69        16.7 0.26            131            146 258 
 OCA  HE ES       1148 52.15                             129   -0.13 9  157 354 
 OCA  HZ I        1148 56.77        42.2 0.20            130            157 354 
 SPBC HZ IP       1148 31.20                             128    0.02 9  164 218 
 SPBC HN ES       1148 53.46                             128    0.21 9  164 218 
 SPBC HZ I        1148 59.02        44.3 0.22            129            164 218 
 ZAR  HZ EP       1148 34.84                             122    0.05 9  201 292 
 ZAR  HN ES       1148 59.91                             122    0.23 9  201 292 
 ZAR  HZ I        1149  7.14        19.2 0.52            122            201 292 
 CHI  HZ IP       1148 40.60                             116   -0.00 8  251 195 
 CHI  HN ES       1149  9.89                             116   -0.13 8  251 195 
 CHI  HZ I        1149 13.60        10.2 0.70            118            251 195 
 HEL  HZ EP       1148 42.86                             114    0.09 8  271 255 
 HEL  HN ES   4   1149 15.22                             114    1.34 0  271 255 
 HEL  HZ I        1149 22.00        10.6 0.48            115            271 255 
 SOCV BZ IP       1148 45.32                             111   -0.46 7  301  57 
 SOCV BN ES   4   1149 16.50                             111   -2.75 0  301  57 
 GUY2CHZ EP       1148 46.47                             112    0.16 7  301 234 
 GUY2CHN ES   4   1149 21.28                             112    1.09 0  301 234 
 GUY2CHZ I        1149 28.58        10.9 0.30                           301 234 
 ELA  HZ EP       1148 50.24                             110    0.64 7  329 229 
 ELA  HN ES       1149 25.50                             110   -0.55 7  329 229 
 ELA  HZ I        1149 33.79         8.2 0.42            110            329 229 
                                                                                
