 2017  227 1336 21.3 L   6.727 -73.141141.5  RSN  6 0.4 1.5LRSN                1
 GAP=140        1.08       5.3     4.8  7.9  0.2051E+01  0.7813E+01 -0.8484E-01E
 Epicentro: JORDAN - SANTANDER                                                 3
 ACTION:UPD 17-05-24 15:41 OP:jn   STATUS:               ID:20170227133621 L   I
 OLDACT:DUP 17-02-27 22:41 OP:lv   STATUS:               ID:20170227132745d    3
 2017-02-27-1328-00M.COL___376                                                 6
 STAT SP IPHASW D HRMM SECON CODA AMPLIT PERI AZIMU VELO AIN AR TRES W  DIS CAZ7
 BAR2 EZ EP       1336 40.17                             173   -0.0710 15.6 197 
 BAR2 EZ ES       1336 54.88                             173   -0.1610 15.6 197 
 BAR2 EZ I        1336 56.28        15.0 0.16            173           15.6 197 
 BRR  HZ EP       1336 42.12                             150   -0.1010 75.8 304 
 BRR  HN ES       1336 59.07                             150    0.5110 75.8 304 
 BRR  HZ I        1337  0.13         8.1 0.13            149           75.8 304 
 PAM  EZ EP       1336 43.15                             148   -0.2510 83.5  36 
 PAM  EN ES       1337  0.48                             148   -0.1910 83.5  36 
 PAM  EZ I        1337  2.41         2.2 0.17            150           83.5  36 
 RUS  HZ EP       1336 44.67                             145    0.6610 92.5 176 
 RUS  HN ES       1337  1.89                             145    0.1310 92.5 176 
 RUS  HZ I        1337  3.80         6.2 0.28            147           92.5 176 
 PTB  HZ EP       1336 47.41                             131   -0.39 9  147 262 
 PTB  HN ES       1337  7.74                             131   -0.76 9  147 262 
 PTB  HZ I        1337 11.02         5.0 0.16            131            147 262 
 ZAR  HN ES       1337 19.84                             121    0.65 8  208 294 
 ZAR  HZ I        1337 24.81         3.2 0.15            121            208 294 
                                                                                
