 2016  227 1541 44.0 L   6.818 -73.224145.2  RSN  5 0.2 1.4LRSN                1
 GAP=148        0.45       2.7     2.4  3.8 -0.2825E+01  0.3021E+01 -0.8605E+00E
 Epicentro: ZAPATOCA - SANTANDER                                               3
 ACTION:UPD 16-03-04 21:29 OP:rebc STATUS:               ID:20160227154144 L   I
 OLDACT:REG 16-02-27 19:54 OP:drio STATUS:               ID:20160227153750     3
 2016-02-27-1537-50M.COL___316                                                 6
 STAT SP IPHASW D HRMM SECON CODA AMPLIT PERI AZIMU VELO AIN AR TRES W  DIS CAZ7
 BAR2 EZ EP       1542  3.63                             170   -0.0110 25.4 170 
 BAR2 EZ ES       1542 18.77                             170   -0.1610 25.4 170 
 BAR2 EZ I        1542 20.15         8.2 0.28            172           25.4 170 
 PAM  EZ EP       1542  6.45                             149   -0.0110 81.7  45 
 PAM  EE ES       1542 23.93                             149   -0.0110 81.7  45 
 PAM  EZ I        1542 26.66         3.0 0.42            151           81.7  45 
 RUS  HZ EP       1542  7.84                             143   -0.1110  104 171 
 RUS  HE ES       1542 26.82                             143    0.2310  104 171 
 RUS  HZ I        1542 28.44         3.5 0.30            146            104 171 
 PTB  HZ EP       1542 10.42                             134    0.18 9  140 257 
 PTB  HN ES       1542 30.80                             134    0.13 9  140 257 
 PTB  HZ I        1542 34.02         2.7 0.12            135            140 257 
 NOR  HN ES       1542 46.18                             119   -0.30 8  229 233 
                                                                                
