 2013 1227 1334 19.2 L   6.529 -73.518115.3  RSN 13 0.5 2.2LRSN                1
 GAP= 67        1.00       3.0     3.7  6.8 -0.1797E+01  0.1097E+02 -0.3493E+01E
 Epicentro: EL CARMEN DE CHUCURI - SANTANDER                                   3
 ACTION:UPD 14-01-13 10:21 OP:ep   STATUS:               ID:20131227133419 L   I
 OLDACT:REG 13-12-27 14:17 OP:jn   STATUS:               ID:20131227133000     3
 2013-12-27-1330-00M.COL___285                                                 6
 STAT SP IPHASW D HRMM SECON CODA AMPLIT PERI AZIMU VELO AIN AR TRES W  DIS CAZ7
 BAR2 SZ EP       1334 36.11                             160    0.4310 37.8  79 
 BAR2 SZ ES       1334 48.27                             160   -0.2410 37.8  79 
 BAR2 SZ I        1334 49.69       479.4 0.46            160           37.8  79 
 BRR  HZ EP       1334 36.97                             148    0.0510 67.4 341 
 BRR  HN ES       1334 50.48                             148   -0.2310 67.4 341 
 RUS  HZ EP       1334 39.00                             141    0.1110 85.3 146 
 RUS  HN ES       1334 54.61                             141    0.3910 85.3 146 
 RUS  HZ I        1334 56.04        12.3 0.40            142           85.3 146 
 PTB  HZ EP     D 1334 38.90                             135   -0.8410  104 271 
 PTB  HN ES   4   1334 53.73                             135   -2.00 0  104 271 
 PTB  HZ I        1334 55.29        35.2 0.28            135            104 271 
 SPBC HZ EP       1334 40.90                             132    0.0910  115 212 
 SPBC HN ES       1334 57.73                             132    0.0810  115 212 
 SPBC HZ I        1335  0.73        20.5 0.20            133            115 212 
 PAM  SZ EP   1   1334 42.76                             129    0.24 7  127  45 
 PAM  SN ES   1   1335  0.13                             129   -0.55 7  127  45 
 PAM  SZ I        1335  5.12        15.9 0.38            128            127  45 
 ZAR  HN ES   1   1335 10.87                             118    1.29 7  182 306 
 ZAR  HZ I        1335 12.61        22.7 0.36            118            182 306 
 NOR  HZ EP   2   1334 47.71                             118   -0.01 4  184 235 
 NOR  HN ES   1   1335  9.26                             118   -0.69 7  184 235 
 NOR  HZ I        1335 12.66        10.4 0.18            118            184 235 
 OCA  HN ES   2   1335 12.50                             117    1.05 4  190   7 
 OCA  HZ I        1335 18.45        20.3 0.14            116            190   7 
 HEL  HN ES       1335 19.03                             112    0.13 8  226 261 
 HEL  HZ I        1335 20.85         4.5 0.50            113            226 261 
 GUY2CHZ EP   2   1334 55.98                             110    0.28 4  250 235 
 SML  HZ EP   2   1334 56.01                             109   -0.03 4  259 346 
 SML  HN ES       1335 24.56                             109   -0.20 8  259 346 
 SJC  HZ EP       1335 14.15                             100   -0.49 6  415 334 
                                                                                
