 2013  127 1014 12.5 L   6.711 -73.181144.1  RSN  4 0.3 1.0LRSN                1
 GAP=226        0.70       7.2     6.9  7.5  0.2465E+02  0.6615E+01  0.2217E+01E
 Epicentro: VILLANUEVA - SANTANDER                                             3
 ACTION:UPD 13-02-15 09:17 OP:ep   STATUS:               ID:20130127101412 L   I
 2013-01-27-1010-00M.COL___240                                                 6
 STAT SP IPHASW D HRMM SECON CODA AMPLIT PERI AZIMU VELO AIN AR TRES W  DIS CAZ7
 BAR2 SZ EP   1   1014 31.55                             175   -0.19 7 13.1 181 
 BAR2 SZ ES   1   1014 46.36                             175   -0.40 7 13.1 181 
 BAR2 SZ I        1014 47.73         5.1 0.14            168           13.1 181 
 BRR  HZ EP   1   1014 33.38                             151   -0.18 7 73.2 307 
 BRR  HN ES   1   1014 50.50                             151    0.50 7 73.2 307 
 RUS  HZ EP   1   1014 35.97                             146    0.58 7 91.1 173 
 RUS  HN ES   1   1014 53.27                             146    0.00 7 91.1 173 
 RUS  HZ I        1014 57.37         0.7 0.32            143           91.1 173 
 PTB  HZ EP   1   1014 38.47                             133   -0.34 7  142 262 
 PTB  HN ES   1   1014 59.34                             133   -0.01 7  142 262 
 PTB  HZ I        1015  0.79         1.3 0.22            133            142 262 
                                                                                
