 2011  527 1807 28.5 L   6.780 -73.112146.0  RSN  7 0.3 1.8LRSN                1
 GAP=142        0.66       3.3     5.4  5.8 -0.4816E+01 -0.4862E+01  0.5086E+00E
 Epicentro: LOS SANTOS - SANTANDER                                             3
 ACTION:UP  11-06-29 08:56 OP:tino STATUS:               ID:20110527180728 L   I
 2011-05-27-1803-14S.COL___115                                                 6
 STAT SP IPHASW D HRMM SECON CODA AMPLIT PERI AZIMU VELO SNR AR TRES W  DIS CAZ7
 BAR2 SZ EP       18 7 48.15                             171     0.010   22 201 
 BAR2 SZ ES   1   18 8  2.91                             171    -0.6 7   22 201 
 BAR2 SZ I        18 8  4.73        22.6 0.11                            22 201 
 BTL  SZ EP       18 7 48.44                             170     0.210   23 312 
 BRR  HZ EP       18 7 50.05                             150     0.110   76 299 
 BRR  HZ I        18 7 56.77        19.7 0.35                            76 299 
 BRR  HN ES       18 8  7.00                             150     0.310   76 299 
 PAM  SZ EP   2   18 7 50.57                             151    -0.2 5   77  36 
 RUS  HZ EP   1   18 7 52.32                             144     0.2 7   98 178 
 RUS  HZ I        18 7 53.19         6.6 0.12                            98 178 
 RUS  HE ES   1   18 8 10.58                             144     0.0 7   98 178 
 GRA  SZ EP       18 7 53.88                             137     0.010  127  16 
 GRA  SZ ES       18 8 13.46                             137    -0.210  127  16 
 GRA  SZ I        18 8 14.54         7.5 0.31                           127  16 
 NOR  SZ EP   2   18 8  4.09                             118    -0.4 4  236 235 
 NOR  SN ES   2   18 8 31.97                             118    -0.5 4  236 235 
                                                                                
