 2010 1127 1115  8.9 L   6.283 -74.239 32.0  RSN  4 0.5 1.2LRSN                1
 GAP=203        0.99      10.3     3.7 20.4 -0.2200E+01  0.3154E+01  0.6177E+02E
 Epicentro: CIMITARRA - SANTANDER                                              3
 ACTION:UP  10-12-17 16:55 OP:REBC STATUS:               ID:20101127111508 L   I
 2010-11-27-1111-44S.COL___132                                                 6
 STAT SP IPHASW D HRMM SECON CODA AMPLIT PERI AZIMU VELO SNR AR TRES W  DIS CAZ7
 RUS  HZ EP   1   1115 29.41                              61     0.2 8  135 109 
 RUS  HZ I        1115 29.70         3.7 0.26                           135 109 
 RUS  HN ES   1   1115 44.81                              61    -0.3 8  135 109 
 HEL  HZ EP   1   1115 30.41                              61     0.3 8  143 266 
 HEL  HE ES   1   1115 46.09                              61    -0.6 8  143 266 
 HEL  HZ I        1115 48.03         2.6 0.11                           143 266 
 GUY  SZ EP   2   1115 34.70                              61     1.0 5  171 227 
 GUY  SZ I        1115 35.53         3.0 0.24                           171 227 
 GUY  SE ES   2   1115 53.87                              61     0.8 5  171 227 
 RREF HZ IP     D 1115 37.14                              61     0.110  196 219 
 RREF HE ES   1   1115 58.41                              61    -0.6 7  196 219 
 RREF HZ I        1115 59.56         3.2 0.24                           196 219 
                                                                                
