 2011 1227 1024 59.9 L   6.773 -73.147141.1  RSN  8 0.3 1.5LRSN                1
 GAP=138        0.45       4.1     3.5  5.9 -0.3566E+01  0.5241E+01 -0.3138E+01E
 Epicentro: LOS SANTOS - SANTANDER                                             3
 ACTION:UPD 12-07-13 16:18 OP:ep   STATUS:               ID:20111227102459 L   I
 2011-12-27-1020-00M.COL___186                                                 6
 STAT SP IPHASW D HRMM SECON CODA AMPLIT PERI AZIMU VELO AIN AR TRES W  DIS CAZ7
 BAR2 SZ EP   1   1025 18.89                             171    0.01 7 20.4 191 
 BAR2 SZ ES   2   1025 33.16                             171   -0.54 5 20.4 191 
 BAR2 SZ I        1025 36.67         8.8 0.35                          20.4 191 
 GIR2 SZ EP   1   1025 19.08                             166    0.02 7 34.2 351 
 BRR  HZ EP   1   1025 20.62                             151    0.03 7 72.5 301 
 BRR  HN ES   2   1025 37.06                             151    0.31 5 72.5 301 
 BRR  HZ I        1025 39.24         7.7 0.24                          72.5 301 
 PAM  SZ EP   1   1025 21.58                             149   -0.15 7 79.8  38 
 PAM  SZ I        1025 22.56         5.5 0.22                          79.8  38 
 PAM  SN ES   2   1025 38.84                             149    0.05 5 79.8  38 
 RUS  HN ES   2   1025 41.51                             144    0.56 5 97.7 176 
 PTB  HZ EP   1   1025 26.43                             131    0.04 7  147 260 
 PTB  HN ES   2   1025 46.68                             131   -0.40 5  147 260 
 ZAR  HN ES   2   1025 57.63                             121    0.37 4  205 293 
 NOR  SN ES   2   1026  2.36                             118   -0.28 4  233 235 
                                                                                
