 2012  627 1342 57.2 L   6.760 -73.165136.0  RSN  5 0.4 1.6LRSN                1
 GAP=136        0.84       5.3     6.5  8.2 -0.8773E+00  0.1120E+02  0.4324E+01E
 Epicentro: LOS SANTOS - SANTANDER                                             3
 ACTION:UPD 12-08-06 17:53 OP:ep   STATUS:               ID:20120627134257 L   I
 2012-06-27-1340-00M.COL___200                                                 6
 STAT SP IPHASW D HRMM SECON CODA AMPLIT PERI AZIMU VELO AIN AR TRES W  DIS CAZ7
 BAR2 SZ EP       1343 15.58                             172    0.0410 18.6 186 
 BAR2 SZ I        1343 15.92        10.7 0.34                          18.6 186 
 BAR2 SZ ES   2   1343 29.00                             172   -0.86 5 18.6 186 
 BRR  HZ EP       1343 17.50                             151    0.2010 71.6 302 
 BRR  HZ I        1343 20.89        16.7 0.36                          71.6 302 
 BRR  HN ES   1   1343 33.63                             151    0.63 7 71.6 302 
 PAM  SZ EP       1343 18.64                             148   -0.0310 82.2  39 
 PAM  SN ES   1   1343 35.22                             148   -0.22 7 82.2  39 
 PAM  SZ I        1343 37.60         7.7 0.44                          82.2  39 
 RUS  HZ EP       1343 19.85                             143    0.1910 96.3 175 
 RUS  HN ES   1   1343 37.40                             143    0.20 7 96.3 175 
 RUS  HZ I        1343 39.14         6.2 0.28                          96.3 175 
 PTB  HZ EP       1343 22.48                             131   -0.61 9  145 260 
 PTB  HZ I        1343 52.49         2.3 0.40                           145 260 
                                                                                
