 2011  927 1410 25.8 L   6.777 -73.143142.8  RSN 17 0.3 3.7LRSN                1
 GAP=115        0.64       2.0     2.6  3.8 -0.5047E-01  0.2964E+01  0.1907E+01E
 Epicentro: LOS SANTOS - SANTANDER                                             3
 ACTION:UPD 12-07-13 16:00 OP:ep   STATUS:               ID:20110927141025 L   I
 2011-09-27-1408-28S.COL___165                                                 6
 STAT SP IPHASW D HRMM SECON CODA AMPLIT PERI AZIMU VELO AIN AR TRES W  DIS CAZ7
 BTL  SZ EP       1410 45.33                             171    0.2710 20.8 319 
 BAR2 SZ IP     D 1410 45.16                             171    0.1010 20.9 192 
 BAR2 SZ I        1410 45.36      1069.5 0.18                          20.9 192 
 BAR2 SZ ES   1   1410 59.53                             171   -0.53 7 20.9 192 
 GIR2 SZ IP       1410 45.22                             166   -0.0110 33.8 351 
 BRR  HZ IP     C 1410 47.04                             151    0.2910 72.7 300 
 BRR  HZ I        1410 47.39      1464.8 0.12                          72.7 300 
 BRR  HN ES   1   1411  3.79                             151    0.73 7 72.7 300 
 PAM  SZ EP       1410 47.94                             150    0.0910 79.2  38 
 PAM  SZ I        1410 48.29       525.3 0.22                          79.2  38 
 PAM  SN ES   1   1411  4.76                             150   -0.25 7 79.2  38 
 RUS  HZ IP     C 1410 49.07                             144   -0.0410 98.0 176 
 RUS  HN ES   1   1411  6.80                             144   -0.47 7 98.0 176 
 RUS  HZ I        1411  8.96       521.0 0.32                          98.0 176 
 OCA  SZ EP       1410 53.85                             128   -0.31 9  163 353 
 OCA  SZ I        1411 20.87       464.1 0.20                           163 353 
 YOP  SZ EP       1410 55.76                             126    0.33 9  177 153 
 YOP  SE ES   1   1411 18.87                             126    0.36 7  177 153 
 YOP  SZ I        1411 22.60       296.0 0.38                           177 153 
 ZAR  HZ EP   1   1410 57.85                             121   -0.36 6  205 293 
 ZAR  HN ES   1   1411 23.32                             121   -0.15 6  205 293 
 NOR  SZ EP       1411  1.11                             118   -0.15 8  233 235 
 NOR  SE ES       1411 28.78                             118   -0.11 8  233 235 
 CHI  HZ EP       1411  3.26                             117    0.15 8  246 195 
 CHI  HN ES       1411 32.02                             117   -0.17 8  246 195 
 CHI  HZ I        1411 40.66       256.8 0.39                           246 195 
 HEL  HZ EP   1   1411  5.30                             114   -0.56 6  272 256 
 HEL  HN ES   1   1411 37.27                             114    0.19 6  272 256 
 HEL  HZ I        1411 44.30       455.1 0.37                           272 256 
 VIL  SZ EP       1411  8.54                             112   -0.30 7  301 192 
 VIL  SN ES   1   1411 42.20                             112   -0.19 5  301 192 
 VIL  SZ I        1411 49.02       190.8 0.40                           301 192 
 RREF HZ EP   1   1411 11.66                             110   -0.02 5  320 230 
 RREF HN ES   1   1411 47.47                             110    0.02 5  320 230 
 RREF HZ I        1411 53.57       349.2 0.33                           320 230 
 DBB  SZ EP       1411 13.43                             109    0.18 7  340 275 
 TOL  SZ EP   1   1411 13.94                             109    0.15 5  342 225 
 PRA  HZ EP       1411 18.62                             106   -0.39 6  390 210 
 PRA  HN ES   1   1412  1.29                             106    0.80 4  390 210 
                                                                                
