 2015  927 1453 33.6 L   6.743 -73.140149.8  RSN  5 0.5 1.8LRSN                1
 GAP=220        1.14       6.0     8.9  9.2  0.5347E+01  0.1321E+02 -0.2009E+02E
 Epicentro: LOS SANTOS - SANTANDER                                             3
 ACTION:UPD 15-10-28 16:28 OP:cam  STATUS:               ID:20150927145333 L   I
 OLDACT:UP  15-09-27 22:38 OP:ar   STATUS:               ID:20150927144748     3
 OLDACT:REG 15-09-27 21:19 OP:ar   STATUS:               ID:20150927144748     3
 2015-09-27-1447-48M.COL___352                                                 6
 STAT SP IPHASW D HRMM SECON CODA AMPLIT PERI AZIMU VELO AIN AR TRES W  DIS CAZ7
 BAR2 EZ EP       1453 53.38                             173   -0.2210 17.3 196 
 BAR2 EZ ES       1454  9.03                             173   -0.1810 17.3 196 
 BAR2 EZ I        1454 10.48         9.8 0.18            172           17.3 196 
 BRR  HZ EP       1453 55.64                             152    0.2610 75.0 303 
 BRR  HN ES       1454 13.00                             152    0.6110 75.0 303 
 BRR  HZ I        1454 17.92         9.1 0.62            149           75.0 303 
 SPBC HN ES       1454 23.88                             131   -0.26 9  159 221 
 ZAR  HZ EP       1454  7.54                             123    0.93 8  207 294 
 ZAR  HE ES       1454 31.75                             123   -0.62 8  207 294 
 ZAR  HZ I        1454 38.61         6.5 0.42            123            207 294 
 SML  HZ EP       1454 10.72                             118   -0.36 8  250 336 
 SML  HN ES       1454 39.91                             118   -0.43 8  250 336 
 SML  HZ I        1454 43.25         6.6 0.10            119            250 336 
                                                                                
