 2015  227 1711 56.9 L   6.825 -73.193138.6  RSN  6 0.3 2.3LRSN                1
 GAP=146        0.67       4.0     3.7  6.3 -0.5638E+01  0.7891E+01 -0.2427E+01E
 Epicentro: ZAPATOCA - SANTANDER                                               3
 ACTION:UPD 15-04-30 21:29 OP:nd   STATUS:               ID:20150227171156 L   I
 OLDACT:UP  15-02-28 00:17 OP:mh   STATUS:               ID:20150227170750     3
 OLDACT:REG 15-02-27 22:17 OP:mh   STATUS:               ID:20150227170750     3
 2015-02-27-1707-50M.COL___305                                                 6
 STAT SP IPHASW D HRMM SECON CODA AMPLIT PERI AZIMU VELO AIN AR TRES W  DIS CAZ7
 PAM  SZ EP       1712 18.18                             149   -0.2510 78.8  44 
 PAM  SN ES   1   1712 35.75                             149    0.51 7 78.8  44 
 PAM  SZ I        1712 37.72        18.2 0.50            153           78.8  44 
 RUS  HZ EP       1712 19.89                             141   -0.2910  104 173 
 RUS  HN ES       1712 38.38                             141    0.0310  104 173 
 RUS  HZ I        1712 39.65       919.4 0.03            144            104 173 
 PTB  HZ EP       1712 22.76                             131   -0.09 9  143 257 
 PTB  HN ES       1712 42.90                             131   -0.21 9  143 257 
 PTB  HZ I        1712 45.52         9.6 0.62            133            143 257 
 SPBC HZ EP   1   1712 24.71                             128   -0.02 7  162 217 
 SPBC HN ES   1   1712 46.61                             128    0.15 7  162 217 
 SPBC HZ I        1712 49.51        16.8 0.06            130            162 217 
 NOR  HZ EP   1   1712 32.00                             117    0.08 6  232 233 
 NOR  HN ES   1   1712 59.27                             117    0.02 6  232 233 
 NOR  HZ I        1713  5.89         6.5 0.16            119            232 233 
 GUY2CHZ EP       1712 40.61                             111    0.75 7  299 234 
 GUY2CHN ES   4   1713 15.49                             111    2.10 0  299 234 
 GUY2CHZ I        1713 22.15         3.9 0.50                           299 234 
                                                                                
