 2015 1227 1707 19.7 L   6.807 -73.127145.3  RSN 13 0.4 2.7LRSN                1
 GAP=139        0.87       2.2     3.4  4.5 -0.1256E+01  0.5525E+01  0.2234E+00E
 Epicentro: LOS SANTOS - SANTANDER                                             3
 ACTION:UPD 16-02-04 15:08 OP:cam  STATUS:               ID:20151227170719 L   I
 OLDACT:REG 15-12-27 21:09 OP:cara STATUS:               ID:20151227165750     3
 2015-12-27-1657-50M.COL___328                                                 6
 STAT SP IPHASW D HRMM SECON CODA AMPLIT PERI AZIMU VELO AIN AR TRES W  DIS CAZ7
 BAR2 EZ IP     C 17 7 39.28                             170   -0.0110 24.5 194 
 BAR2 EZ ES       17 7 54.46                             170   -0.1210 24.5 194 
 BAR2 EZ I        17 7 55.16       117.4 0.18            168           24.5 194 
 BRR  HZ IP       17 7 41.20                             152    0.3310 72.6 297 
 BRR  HN ES       17 7 57.78                             152    0.3910 72.6 297 
 BRR  HZ I        17 8  1.09        82.4 0.16            149           72.6 297 
 PAM  EZ EP     D 17 7 42.08                             151    0.3310 75.5  39 
 PAM  EN ES       17 7 59.13                             151    0.1810 75.5  39 
 PAM  EZ I        17 8  1.31        84.9 0.56            155           75.5  39 
 RUS  HZ EP     C 17 7 43.12                             143   -0.3210  101 177 
 RUS  HN ES       17 8  1.81                             143   -0.1610  101 177 
 RUS  HZ I        17 8  2.39        50.3 0.44            146            101 177 
 PTB  HZ EP       17 7 46.09                             131   -0.73 9  150 259 
 PTB  HN ES   4   17 8  6.81                             131   -1.16 0  150 259 
 PTB  HZ I        17 8 13.89        52.2 0.44            131            150 259 
 OCA  HZ EP       17 7 47.56                             130   -0.36 9  160 352 
 OCA  HN ES       17 8  9.72                             130   -0.22 9  160 352 
 OCA  HZ I        17 8 14.01       166.5 0.26            131            160 352 
 SPBC HZ IP       17 7 48.43                             129    0.10 9  165 219 
 SPBC HN ES       17 8 10.01                             129   -0.66 9  165 219 
 SPBC HZ I        17 8 17.05        82.0 0.40            130            165 219 
 ZAR  HZ EP       17 7 52.42                             122    0.15 8  206 292 
 ZAR  HN ES       17 8 17.62                             122   -0.06 8  206 292 
 ZAR  HZ I        17 8 23.26        46.4 0.22            122            206 292 
 NOR  HZ EP       17 7 55.43                             118   -0.19 8  237 235 
 NOR  HN ES       17 8 23.39                             118   -0.25 8  237 235 
 NOR  HZ I        17 8 26.37        44.3 0.20            119            237 235 
 SML  HZ EP       17 7 56.19                             117   -0.12 8  244 335 
 SML  HN ES       17 8 24.89                             117    0.02 8  244 335 
 SML  HZ I        17 8 30.64        47.8 0.24            119            244 335 
 CHI  HZ EP       17 7 57.41                             117   -0.09 8  250 196 
 CHI  HE ES       17 8 27.88                             117    0.89 8  250 196 
 CHI  HZ I        17 8 32.66        27.5 0.26            119            250 196 
 HEL  HZ EP       17 8  0.76                             114    0.64 8  274 256 
 HEL  HN ES       17 8 31.73                             114    0.08 8  274 256 
 HEL  HZ I        17 8 38.78        21.2 0.52            115            274 256 
 GUY2CHZ EP       17 8  3.75                             112    0.24 7  303 235 
 GUY2CHN ES       17 8 38.14                             112    0.44 7  303 235 
 GUY2CHZ I        17 8 43.50        24.3 0.38                           303 235 
                                                                                
