 2013  127 1228 31.2 L   6.774 -73.154148.0  RSN  7 0.4 1.9LRSN                1
 GAP=182        0.76       3.9     5.8  7.1  0.7006E+01  0.5971E+01  0.5049E+01E
 Epicentro: LOS SANTOS - SANTANDER                                             3
 ACTION:UPD 13-02-15 09:17 OP:ep   STATUS:               ID:20130127122831 L   I
 2013-01-27-1227-43M.COL___192                                                 6
 STAT SP IPHASW D HRMM SECON CODA AMPLIT PERI AZIMU VELO AIN AR TRES W  DIS CAZ7
 BAR2 SZ EP   1   1228 51.04                             172   -0.02 7 20.3 189 
 BAR2 SZ ES   1   1229  6.09                             172   -0.45 7 20.3 189 
 BAR2 SZ I        1229  7.49        31.9 0.26            163           20.3 189 
 BRR  HZ EP   1   1228 52.93                             153    0.28 7 71.9 301 
 BRR  HN ES   1   1229  9.97                             153    0.61 7 71.9 301 
 BRR  HZ I        1229 13.63        15.9 0.12            148           71.9 301 
 RUS  HZ EP   1   1228 54.95                             145   -0.04 7 97.8 175 
 RUS  HN ES   1   1229 13.71                             145    0.17 7 97.8 175 
 PTB  HZ EP   1   1228 57.50                             133   -0.75 7  146 260 
 PTB  HN ES   1   1229 18.87                             133   -0.45 7  146 260 
 PTB  HZ I        1229 26.13        14.3 0.48            129            146 260 
 OCA  HN ES   1   1229 22.20                             130   -0.18 7  163 354 
 ZAR  HE ES   1   1229 29.67                             123    0.38 6  204 293 
 CHI  HZ EP   1   1229  9.08                             118    0.36 6  246 195 
 CHI  HN ES   1   1229 38.20                             118    0.23 6  246 195 
 CHI  HZ I        1229 45.62         1.8 0.40            118            246 195 
                                                                                
