 2012  127 1508 16.0 L   6.740 -73.184140.0  RSN  5 0.2 1.2LRSN                1
 GAP=175        0.33       4.5     4.3  5.5  0.4791E+01  0.8295E+01  0.6636E+01E
 Epicentro: VILLANUEVA - SANTANDER                                             3
 ACTION:UP  12-02-03 08:21 OP:REBC STATUS:               ID:20120127150816 L   I
 2012-01-27-1500-00M.COL___188                                                 6
 STAT SP IPHASW D HRMM SECON CODA AMPLIT PERI AZIMU VELO SNR AR TRES W  DIS CAZ7
 BAR2 SZ EP   3   15 8 35.13                                     0.4 2   16 179 
 BAR2 SZ ES   2   15 8 49.26                             173    -0.2 5   16 179 
 GIR2 SZ EP       15 8 35.08                             164    -0.110   38 358 
 BRR  HZ EP   3   15 8 36.92                                     0.4 2   71 305 
 BRR  HE ES   3   15 8 52.78                             151     0.3 2   71 305 
 RUS  HZ EP       15 8 38.75                             144     0.110   94 173 
 RUS  HZ I        15 8 58.63         2.4 0.90                            94 173 
 PTB  HZ EP       15 8 41.95                             132     0.0 9  142 261 
 PTB  HN ES   3   15 9  2.18                             132    -0.1 2  142 261 
 PTB  HZ I        15 9  8.58         2.2 0.44                           142 261 
                                                                                
