 2015  127 1154 38.7 L   6.803 -73.123147.0  RSN  9 0.4 1.8LRSN                1
 GAP=139        0.73       2.6     3.4  4.8 -0.3994E+00  0.4395E+01  0.1590E+01E
 Epicentro: LOS SANTOS - SANTANDER                                             3
 ACTION:UPD 15-03-02 15:42 OP:nd   STATUS:               ID:20150127115438 L   I
 OLDACT:REG 15-01-27 19:13 OP:spq  STATUS:               ID:20150127114746     3
 2015-01-27-1147-46M.COL___277                                                 6
 STAT SP IPHASW D HRMM SECON CODA AMPLIT PERI AZIMU VELO AIN AR TRES W  DIS CAZ7
 BAR2 EZ EP       1154 58.40                             170   -0.0710 24.1 196 
 BAR2 EZ ES   1   1155 14.15                             170    0.25 7 24.1 196 
 BAR2 EZ I        1155 14.59         7.8 0.10            168           24.1 196 
 BRR  HZ EP   1   1155  0.14                             152    0.07 7 73.2 297 
 BRR  HN ES       1155 16.99                             152    0.2310 73.2 297 
 BRR  HZ I        1155 21.19        15.3 0.14            150           73.2 297 
 PAM  SZ EP     C 1155  1.12                             152    0.2010 75.6  38 
 PAM  SE ES       1155 18.21                             152   -0.0510 75.6  38 
 PAM  SZ I        1155 18.93         7.7 0.14            155           75.6  38 
 RUS  HZ EP       1155  2.44                             144   -0.1210  101 177 
 RUS  HE ES       1155 20.96                             144   -0.2210  101 177 
 RUS  HZ I        1155 22.41         5.8 0.26            145            101 177 
 SPBC HZ EP   1   1155  7.72                             129    0.29 7  165 220 
 SPBC HE ES   1   1155 29.33                             129   -0.53 7  165 220 
 SPBC HZ I        1155 32.08        13.6 0.22            129            165 220 
 ZAR  HE ES       1155 37.38                             122    0.41 8  206 292 
 ZAR  HZ I        1155 42.74        12.5 0.28            122            206 292 
 NOR  HZ EP       1155 14.88                             118    0.17 8  237 235 
 NOR  HN ES       1155 42.41                             118   -0.40 8  237 235 
 NOR  HZ I        1155 44.65         4.9 0.14            118            237 235 
 SML  HZ EP   1   1155 14.99                             118   -0.46 6  244 335 
 SML  HE ES   1   1155 43.20                             118   -0.94 6  244 335 
 SML  HZ I        1155 46.79         7.5 0.10            118            244 335 
 CHI  HZ EP   1   1155 17.21                             117    0.67 6  250 196 
 CHI  HN ES   1   1155 46.26                             117    0.19 6  250 196 
 CHI  HZ I        1155 54.11         1.7 0.38            118            250 196 
                                                                                
