 2016  927 1238 10.8 L   6.811 -73.066147.2  RSN  4 0.1 1.5LRSN                1
 GAP=246        0.38       6.9     5.9  5.7  0.3334E+02 -0.6775E+01 -0.7737E+01E
 Epicentro: LOS SANTOS - SANTANDER                                             3
 ACTION:UPD 17-08-17 21:16 OP:lp   STATUS:               ID:20160927123810 L   I
 OLDACT:DUP 16-09-27 23:17 OP:dani STATUS:               ID:20160927122746d    3
 2016-09-27-1228-00M.COL___360                                                 6
 STAT SP IPHASW D HRMM SECON CODA AMPLIT PERI AZIMU VELO AIN AR TRES W  DIS CAZ7
 BAR2 EZ EP       1238 30.60                             169   -0.1310 27.4 208 
 BAR2 EZ I        1238 46.34         6.5 0.30            163           27.4 208 
 BRR  HZ EP       1238 32.71                             150    0.1510 78.5 295 
 BRR  HE ES       1238 49.51                             150   -0.0010 78.5 295 
 BRR  HZ I        1238 53.13        11.5 0.34            149           78.5 295 
 RUS  HE ES   2   1238 53.59                             144    0.09 5  102 181 
 RUS  HZ I        1238 54.80         3.0 0.34            141            102 181 
 ZAR  HE ES       1239 10.11                             122   -0.06 8  212 291 
 ZAR  HZ I        1239 12.17         3.4 0.10            118            212 291 
                                                                                
