 2015  727 1625 57.2 L   6.481 -73.271126.6  RSN 17 0.4 2.6LRSN                1
 GAP=124        1.07       2.9     3.7  5.9 -0.4395E+01  0.1049E+02 -0.2735E+01E
 Epicentro: SOCORRO - SANTANDER                                                3
 ACTION:UPD 15-09-08 21:50 OP:cam  STATUS:               ID:20150727162557 L   I
 OLDACT:DUP 15-07-28 01:43 OP:stll STATUS:               ID:20150727161748d    3
 OLDACT:REG 15-07-27 23:09 OP:stll STATUS:               ID:20150727161747     3
 2015-07-27-1617-47M.COL___330                                                 6
 STAT SP IPHASW D HRMM SECON CODA AMPLIT PERI AZIMU VELO AIN AR TRES W  DIS CAZ7
 BAR2 EZ IP     D 1626 14.76                             173    0.3810 15.7  39 
 BAR2 EZ I        1626 15.17        59.0 0.32            171           15.7  39 
 BAR2 EZ ES       1626 27.82                             173    0.0410 15.7  39 
 RUS  HZ EP       1626 16.74                             150   -0.1110 68.4 162 
 RUS  HN ES       1626 32.18                             150    0.0110 68.4 162 
 RUS  HZ I        1626 33.63        53.7 0.66            151           68.4 162 
 PAM  EZ EP       1626 20.29                             136    0.0710  114  34 
 PAM  EZ I        1626 21.60        70.3 0.18            133            114  34 
 PAM  EN ES       1626 38.12                             136   -0.0610  114  34 
 CPBEREZ EP       1626 20.07                             131   -1.0510  131 273 
 CPBEREN ES       1626 39.27                             131   -0.5010  131 273 
 OCA  HZ EP       1626 27.74                             119    0.11 9  194 358 
 OCA  HN ES       1626 51.57                             119    0.20 9  194 358 
 NOR  HZ EP       1626 28.34                             118   -0.19 9  204 240 
 NOR  HE ES       1626 52.87                             118   -0.09 9  204 240 
 NOR  HZ I        1626 58.76        50.5 0.20            114            204 240 
 ZAR  HZ EP       1626 28.65                             117   -0.25 8  208 303 
 ZAR  HN ES       1626 54.47                             117    0.85 8  208 303 
 ZAR  HZ I        1627  0.33        44.0 0.38            113            208 303 
 HEL  HZ EP       1626 34.56                             112    0.34 8  252 263 
 HEL  HN ES       1627  3.05                             112   -0.04 8  252 263 
 HEL  HZ I        1627  8.36        18.5 0.28            109            252 263 
 GUY2CHZ IP     D 1626 37.84                             111    1.39 8  270 239 
 GUY2CHN ES       1627  7.46                             111    0.39 8  270 239 
 GUY2CHZ I        1627 16.43        19.3 0.58                           270 239 
 SML  HZ EP       1626 35.57                             111   -0.38 8  271 341 
 SML  HN ES       1627  6.11                             111   -0.07 8  271 341 
 SML  HZ I        1627 11.75        36.0 0.10            108            271 341 
 PTGC HZ EP   4   1626 35.35                             110   -1.85 0  282 153 
 PTGC HZ I        1626 35.75        39.2 0.10            108            282 153 
 PTGC HE ES   4   1627  4.71                             110   -3.69 0  282 153 
 URE  HZ EP   4   1626 36.05                             109   -1.68 0  287 299 
 URE  HE ES   4   1627  6.71                             109   -2.64 0  287 299 
 URE  HZ I        1627 18.99        23.0 0.20            106            287 299 
 ELA  HN ES       1627 12.56                             109    0.08 7  296 233 
 TOL  SZ EP       1626 40.34                             108   -0.39 7  309 227 
 TOL  SN ES       1627 14.84                             108    0.15 7  309 227 
 TOL  SZ I        1627 19.21         8.1 0.36            105            309 227 
 ANIL HN ES       1627 17.31                             107   -0.15 7  323 227 
 ANIL HZ I        1627 21.93        25.0 0.20            104            323 227 
 DBB  SZ EP       1626 42.49                             106   -0.40 7  330 281 
 DBB  SZ I        1627 21.49        24.0 0.52            103            330 281 
 MON  HZ EP   9   1626 45.19                             104   -1.85 0  366 314 
 MON  HN ES       1627 23.09                                   -0.97 6  366 314 
 MON  HZ I        1627 27.03         8.8 0.40            102            366 314 
                                                                                
