 2016  127 1206 32.4 L   6.820 -73.139146.9  RSN 19 0.3 2.8LRSN                1
 GAP=136        0.78       1.9     2.7  4.0 -0.8730E+00  0.3892E+01 -0.4687E+00E
 Epicentro: LOS SANTOS - SANTANDER                                             3
 ACTION:UPD 16-03-09 23:28 OP:cam  STATUS:               ID:20160127120632 L   I
 OLDACT:REG 16-01-27 20:42 OP:cara STATUS:               ID:20160127115748     3
 2016-01-27-1157-48M.COL___328                                                 6
 STAT SP IPHASW D HRMM SECON CODA AMPLIT PERI AZIMU VELO AIN AR TRES W  DIS CAZ7
 BAR2 EZ IP     D 12 6 52.23                             170    0.0110 25.6 191 
 BAR2 EZ ES       12 7  7.49                             170   -0.1910 25.6 191 
 BAR2 EZ I        12 7  8.78       155.7 0.30            168           25.6 191 
 PAM  EZ EP     C 12 6 54.98                             152    0.3610 75.3  40 
 PAM  EE ES       12 7 12.24                             152    0.2910 75.3  40 
 PAM  EZ I        12 7 14.37        95.2 0.48            156           75.3  40 
 RUS  HZ EP       12 6 56.13                             143   -0.2910  103 177 
 RUS  HE ES       12 7 15.04                             143   -0.1210  103 177 
 RUS  HZ I        12 7 15.81        48.7 0.36            146            103 177 
 PTB  HZ EP       12 6 58.86                             132   -0.71 9  149 258 
 PTB  HN ES       12 7 20.32                             132   -0.44 9  149 258 
 PTB  HZ I        12 7 26.65        49.0 0.34            131            149 258 
 OCA  HZ EP       12 7  0.47                             130   -0.14 9  158 353 
 OCA  HN ES       12 7 22.81                             130    0.19 9  158 353 
 OCA  HZ I        12 7 27.36       121.5 0.40            131            158 353 
 SPBC HZ IPg      12 7  1.30                             129    0.11 9  165 219 
 SPBC HE ES       12 7 24.27                             129    0.62 9  165 219 
 SPBC HZ I        12 7 28.08       112.5 0.22            129            165 219 
 ZAR  HZ EP       12 7  5.11                             123    0.20 9  204 292 
 ZAR  HN ES       12 7 30.05                             123   -0.21 9  204 292 
 ZAR  HZ I        12 7 35.44        83.9 0.26            122            204 292 
 NOR  HZ IP       12 7  8.33                             118   -0.07 8  237 234 
 NOR  HN ES       12 7 36.71                             118    0.24 8  237 234 
 NOR  HZ I        12 7 45.78        40.1 0.44            119            237 234 
 SML  HZ EP       12 7  8.81                             118   -0.11 8  242 335 
 SML  HN ES       12 7 37.55                             118    0.16 8  242 335 
 SML  HZ I        12 7 40.63        61.5 0.20            118            242 335 
 CHI  HZ EP       12 7 10.39                             117   -0.02 8  251 195 
 CHI  HN ES       12 7 39.62                             117   -0.44 8  251 195 
 CHI  HZ I        12 7 43.21        49.3 0.64            119            251 195 
 ROSC BZ EP   4   12 7 12.19                             117    1.36 0  255 211 
 ROSC BN ES   4   12 7 42.93                             117    2.13 0  255 211 
 ROSC BZ I        12 7 46.70       111.1 0.40            118            255 211 
 HEL  HZ EP   4   12 7 13.83                             115    1.02 0  273 255 
 HEL  HN ES       12 7 44.64                             115    0.31 8  273 255 
 HEL  HZ I        12 7 50.32        29.7 0.32            115            273 255 
 URE  HZ EP   4   12 7 11.90                             114   -1.61 0  284 291 
 URE  HN ES       12 7 45.21                             114   -0.37 7  284 291 
 URE  HZ I        12 7 51.36        27.3 0.16            114            284 291 
 GUY2CHZ EP       12 7 17.08                             112    0.81 7  303 235 
 GUY2CHN ES   4   12 7 55.06                             112    4.57 0  303 235 
 GUY2CHZ I        12 7 58.48        38.5 0.36                           303 235 
 LL6C HZ IP       12 7 17.69                             111   -0.22 7  323 357 
 LL6C HN ES   4   12 7 52.15                             111   -1.26 0  323 357 
 LL6C HZ I        12 7 58.25        18.8 0.40            112            323 357 
 DBB  SZ EP       12 7 19.99                             110   -0.00 7  340 274 
 DBB  SZ ES   4   12 7 56.20                             110   -0.91 0  340 274 
 DBB  SZ I        12 7 57.78        82.0 0.34            110            340 274 
 MON  HZ EP   4   12 7 19.13                             109   -2.23 0  353 308 
 MON  HN ES   4   12 7 58.09                             109   -1.45 0  353 308 
 MON  HZ I        12 8 13.16        18.4 0.46            109            353 308 
 ORTC HZ EP       12 7 26.62                             106    0.00 6  398 216 
 ORTC HN ES   4   12 8 10.25                             106    1.35 0  398 216 
 ORTC HZ I        12 8 13.58        20.9 0.28            107            398 216 
 PAL  HZ EP       12 7 27.69                             106   -0.11 6  407 239 
 PAL  HN ES       12 8 11.67                             106    0.66 6  407 239 
 PAL  HZ I        12 8 21.76         6.9 0.68            107            407 239 
                                                                                
