 2012  327 1908 40.2 L   6.753 -73.155140.6  RSN  6 0.4 2.3LRSN                1
 GAP=137        0.81       7.0     6.3  9.7  0.3080E+01  0.1244E+02 -0.9473E+00E
 ACTION:UP  12-03-31 23:23 OP:EP   STATUS:               ID:20120327190840 L   I
 2012-03-27-1859-41M.COL___175                                                 6
 STAT SP IPHASW D HRMM SECON CODA AMPLIT PERI AZIMU VELO SNR AR TRES W  DIS CAZ7
 BAR2 SZ EP   2   19 8 58.97                             172    -0.1 5   18 190 
 BAR2 SZ ES   2   19 9 13.09                             172    -0.7 5   18 190 
 BAR2 SZ I        19 9 16.16        53.7 0.41                            18 190 
 BRR  HZ EP   1   19 9  1.12                             151     0.3 7   73 303 
 BRR  HZ I        19 9  1.52        59.7 0.12                            73 303 
 BRR  HN ES   2   19 9 17.81                             151     0.8 5   73 303 
 PAM  SZ EP   1   19 9  2.22                             148     0.1 7   82  38 
 PAM  SN ES   2   19 9 18.80                             148    -0.5 5   82  38 
 RUS  HZ EP   1   19 9  3.21                             144     0.2 7   95 175 
 RUS  HN ES   2   19 9 21.46                             144     0.6 5   95 175 
 RUS  HZ I        19 9 23.21        22.5 0.33                            95 175 
 PTB  HZ EP   1   19 9  5.90                             131    -0.6 7  146 261 
 PTB  HZ I        19 9  7.61        14.3 0.29                           146 261 
 PTB  HN ES   2   19 9 26.75                             131    -0.3 5  146 261 
 ZAR  HZ EP   2   19 9 12.41                             121     0.0 4  205 294 
 ZAR  HN ES   2   19 9 37.79                             121     0.3 4  205 294 
 ZAR  HZ I        19 9 40.04        17.4 0.25                           205 294 
                                                                                
