 2014 1127 2210 59.3 L   6.816 -73.141140.0  RSN 14 0.6 2.1LRSN                1
 GAP=136        1.39       3.8     4.9  6.8 -0.4194E+01  0.1060E+02  0.4174E+01E
 Epicentro: LOS SANTOS - SANTANDER                                             3
 ACTION:UPD 14-12-19 15:48 OP:nd   STATUS:               ID:20141127221059 L   I
 OLDACT:REG 14-11-28 08:26 OP:stll STATUS:               ID:20141127220747     3
 2014-11-27-2207-47M.COL___306                                                 6
 STAT SP IPHASW D HRMM SECON CODA AMPLIT PERI AZIMU VELO AIN AR TRES W  DIS CAZ7
 BAR2 SZ EP       2211 18.29                             169    0.0210 25.2 191 
 BAR2 SZ ES       2211 33.41                             169    0.3410 25.2 191 
 BAR2 SZ I        2211 35.52        15.8 0.20            167           25.2 191 
 BRR  HZ EP       2211 19.97                             152    0.1710 70.8 297 
 BRR  HN ES       2211 36.81                             152    1.0210 70.8 297 
 BRR  HZ I        2211 42.38        21.6 0.32            150           70.8 297 
 PAM  SZ EP       2211 21.07                             150    0.2810 75.6  40 
 PAM  SZ I        2211 21.26        26.0 0.20            157           75.6  40 
 PAM  SN ES       2211 37.66                             150    0.1010 75.6  40 
 RUS  HZ EP       2211 22.30                             142   -0.3110  102 176 
 RUS  HN ES       2211 40.38                             142   -0.4210  102 176 
 RUS  HZ I        2211 42.88        12.4 0.18            144            102 176 
 PTB  HZ EP       2211 24.94                             130   -0.94 9  149 258 
 PTB  HE ES       2211 45.97                             130   -0.65 9  149 258 
 PTB  HZ I        2211 48.42        24.6 0.14            131            149 258 
 OCA  HZ EP       2211 26.94                             129   -0.05 9  159 353 
 OCA  HN ES       2211 47.77                             129   -0.83 9  159 353 
 SPBC HZ EP       2211 27.55                             127    0.03 9  165 219 
 SPBC HN ES       2211 49.78                             127    0.24 9  165 219 
 SPBC HZ I        2211 58.38        23.1 0.22            128            165 219 
 ZAR  HZ EP       2211 30.97                             121   -0.38 9  204 292 
 ZAR  HN ES       2211 56.23                             121   -0.13 9  204 292 
 ZAR  HZ I        2212  3.32        14.5 0.22            122            204 292 
 NOR  HZ EP       2211 34.55                             117   -0.31 8  236 234 
 NOR  HE ES       2212  2.11                             117   -0.48 8  236 234 
 NOR  HZ I        2212 10.30         6.5 0.26            118            236 234 
 CHI  HZ EP       2211 36.89                             116    0.01 8  251 195 
 CHI  HZ I        2211 38.49         3.8 0.32            118            251 195 
 CHI  HE ES       2212  5.60                             116   -0.60 8  251 195 
 HEL  HZ EP       2211 40.04                             113    0.71 8  273 255 
 HEL  HE ES       2212 10.39                             113   -0.16 8  273 255 
 HEL  HZ I        2212 17.73         8.1 0.34            115            273 255 
 GUY2CHZ EP       2211 43.90                             111    1.09 7  303 235 
 GUY2CHN ES       2212 18.26                             111    1.51 7  303 235 
 GUY2CHZ I        2212 26.41         6.4 0.56                           303 235 
 RREF HZ EP       2211 46.61                             110    1.24 7  323 229 
 RREF HN ES       2212 20.56                             110   -0.76 7  323 229 
 RREF HZ I        2212 30.98        17.7 0.94            111            323 229 
 TOL  SZ EP       2211 48.20                             108    0.69 7  345 224 
 TOL  SN ES       2212 24.67                             108   -0.46 7  345 224 
                                                                                
