 2013  327 2208 55.4 L   6.835 -73.099147.9  RSN 16 0.6 3.7LRSN 3.7WRSN        1
 SPEC AVERAGE  MO 14.7 ST 29.5 OM  3.0 f0 2.96 R0.5850 AL 2.44 WI 26.9 MW  3.7 3
 SPEC SD       MO  0.1 ST 40.4 OM  0.3 f0 1.27 R0.2288 AL      WI      MW  0.1 3
 GAP= 72        1.49       3.5     4.6  7.1 -0.5637E+00  0.8869E+01  0.8642E+00E
 Epicentro: LOS SANTOS - SANTANDER                                             3
 SPEC SJC HH E MO 14.6 ST  7.7 OM  2.6 f0 2.35 R0.6255 AL 1.97 WI 29.3 MW  3.7 3
 SPEC SJC HH E T221029 K 0.000 GD  434 VS 4.20 DE 3.20 Q0300.0 QA 0.60 VS 4.20 3
 SPEC URE HH N MO 14.5 ST 24.3 OM  2.6 f0 3.80 R0.3868 AL 2.56 WI 25.8 MW  3.6 3
 SPEC URE HH N T2210 6 K 0.000 GD  322 VS 4.20 DE 3.20 Q0300.0 QA 0.60 VS 4.20 3
 SPEC ZAR HH N MO 14.7 ST 12.1 OM  2.9 f0 2.59 R0.5676 AL 1.18 WI 27.8 MW  3.7 3
 SPEC ZAR HH N T22 952 K 0.000 GD  254 VS 4.20 DE 3.20 Q0300.0 QA 0.60 VS 4.20 3
 SPEC TAM HH N MO 14.5 ST  2.2 OM  2.8 f0 1.68 R0.8750 AL 2.00 WI 24.4 MW  3.6 3
 SPEC TAM HH N T22 941 K 0.000 GD  211 VS 4.20 DE 3.20 Q0300.0 QA 0.60 VS 4.20 3
 SPEC ROSCBH Z MO 14.7 ST 12.9 OM  2.8 f0 2.71 R0.5424 AL 3.40 WI 26.2 MW  3.7 3
 SPEC ROSCBH Z T2210 4 K 0.000 GD  298 VS 4.20 DE 3.20 Q0300.0 QA 0.60 VS 4.20 3
 SPEC NOR HH N MO 14.6 ST152.7 OM  2.8 f0 6.29 R0.2337 AL 3.76 WI 22.6 MW  3.7 3
 SPEC NOR HH N T22 958 K 0.000 GD  282 VS 4.20 DE 3.20 Q0300.0 QA 0.60 VS 4.20 3
 SPEC OCA HH N MO 15.0 ST 67.9 OM  3.3 f0 3.58 R0.4106 AL 2.90 WI 27.3 MW  4.0 3
 SPEC OCA HH N T22 944 K 0.000 GD  215 VS 4.20 DE 3.20 Q0300.0 QA 0.60 VS 4.20 3
 SPEC PTB HH N MO 14.9 ST  9.9 OM  3.2 f0 2.04 R0.7206 AL 1.79 WI 18.8 MW  3.9 3
 SPEC PTB HH N T22 942 K 0.000 GD  213 VS 4.20 DE 3.20 Q0300.0 QA 0.60 VS 4.20 3
 SPEC PAM SH N MO 14.6 ST  1.5 OM  3.0 f0 1.37 R1.0730 AL 1.70 WI 19.7 MW  3.7 3
 SPEC PAM SH N T22 934 K 0.000 GD  164 VS 4.20 DE 3.20 Q0300.0 QA 0.60 VS 4.20 3
 SPEC COD HH N MO 14.6 ST  2.8 OM  2.6 f0 1.76 R0.8352 AL 1.68 WI 35.2 MW  3.7 3
 SPEC COD HH N T221019 K 0.000 GD  375 VS 4.20 DE 3.20 Q0300.0 QA 0.60 VS 4.20 3
 SPEC HEL HH N MO 14.6 ST 21.5 OM  2.7 f0 3.41 R0.4311 AL 2.89 WI 35.6 MW  3.7 3
 SPEC HEL HH N T2210 7 K 0.000 GD  314 VS 4.20 DE 3.20 Q0300.0 QA 0.60 VS 4.20 3
 SPEC CHI HH N MO 14.8 ST 14.9 OM  2.9 f0 2.65 R0.5547 AL 3.08 WI 37.8 MW  3.8 3
 SPEC CHI HH N T2210 1 K 0.000 GD  293 VS 4.20 DE 3.20 Q0300.0 QA 0.60 VS 4.20 3
 SPEC BRR HH N MO 14.7 ST 53.8 OM  3.1 f0 4.22 R0.3483 AL 2.87 WI 19.0 MW  3.8 3
 SPEC BRR HH N T22 933 K 0.000 GD  165 VS 4.20 DE 3.20 Q0300.0 QA 0.60 VS 4.20 3
 ACTION:UPD 13-04-09 14:05 OP:ep   STATUS:               ID:20130327220855 L   I
 2013-03-27-2207-50M.COL___215                                                 6
 STAT SP IPHASW D HRMM SECON CODA AMPLIT PERI AZIMU VELO AIN AR TRES W  DIS CAZ7
 BAR2 SZ EP       22 9 15.51                             169    0.0810 28.4 199 
 BAR2 SZ ES       22 9 30.52                             169   -0.5110 28.4 199 
 BAR2 SZ I        22 9 33.16       830.5 0.38            167           28.4 199 
 PAM  SZ IP     C 22 9 18.22                             153    0.6910 71.2  38 
 PAM  SN ES       22 9 35.21                             153    0.4510 71.2  38 
 PAM  SN I        22 9 36.82       758.4 0.44            157           71.2  38 
 BRR  HZ IP     C 22 9 17.34                             152    0.3610 74.1 294 
 BRR  HN ES       22 9 34.41                             152    0.6310 74.1 294 
 BRR  HN I        22 9 35.55       999.5 0.24            151           74.1 294 
 RUS  HZ IP     D 22 9 19.34                             143   -0.3210  104 179 
 RUS  HN ES       22 9 38.07                             143   -0.4910  104 179 
 RUS  HN I        22 9 39.72       307.4 0.40            144            104 179 
 TAM  HZ IP     D 22 9 23.66                             132    0.73 9  151 107 
 TAM  HN ES       22 9 43.60                             132   -0.78 9  151 107 
 TAM  HN I        22 9 46.09       414.1 0.36            135            151 107 
 PTB  HZ EP       22 9 22.00                             131   -1.10 9  154 258 
 PTB  HN ES   4   22 9 43.23                             131   -1.45 0  154 258 
 PTB  HN I        22 9 49.06      1497.0 0.48            131            154 258 
 OCA  HZ EP       22 9 23.47                             131   -0.15 9  157 351 
 OCA  HN ES       22 9 46.26                             131    0.65 9  157 351 
 OCA  HN I        22 9 50.97      1150.1 0.28            133            157 351 
 ZAR  HZ EP       22 9 28.13                             122   -0.24 8  207 291 
 ZAR  HN ES       22 9 54.23                             122    0.18 8  207 291 
 ZAR  HN I        22 9 58.91       787.0 0.42            123            207 291 
 CTAU SZ EP   4   22 9 32.42                             123    3.27 0  209 210 
 CTAB SZ EP       22 9 32.88                             119    0.94 8  236 211 
 NOR  HZ EP       22 9 31.26                             118   -0.72 8  241 234 
 NOR  HN ES       22 9 59.68                             118   -0.80 8  241 234 
 NOR  HN I        2210  5.85       533.6 0.16            119            241 234 
 SML  HZ EP       22 9 31.75                             118   -0.29 8  242 334 
 SML  HN ES       22 9 59.51                             118   -1.09 8  242 334 
 SML  HN I        2210  2.07       367.1 0.28            119            242 334 
 CHI  HZ EP       22 9 33.53                             117   -0.28 8  254 196 
 CHI  HN ES       2210  3.55                             117   -0.18 8  254 196 
 CHI  HZ I        2210 12.57       123.1 0.36            118            254 196 
 ROSC BZ EP       22 9 35.05                             117    0.73 8  259 212 
 ROSC BN ES       2210  5.70                             117    1.05 8  259 212 
 ROSC BZ I        2210 13.24       283.9 0.40            117            259 212 
 HEL  HZ EP       22 9 37.37                             115    0.96 7  278 255 
 HEL  HN ES       2210  8.50                             115    0.13 7  278 255 
 HEL  HN I        2210 14.36       188.0 0.28            115            278 255 
 URE  HZ EP   4   22 9 35.44                             114   -1.54 0  287 291 
 COD  HZ EP       22 9 42.76                             109   -0.75 7  345 354 
 COD  HN ES       2210 20.70                             109   -0.32 7  345 354 
 COD  HN I        2210 24.01        60.0 0.42            111            345 354 
 SJC  HZ EP   4   22 9 49.21                             106   -1.81 0  409 326 
 SJC  HN ES   4   2210 30.86                             106   -3.52 0  409 326 
 SJC  HN I        2210 34.42       185.2 0.36            107            409 326 
                                                                                
