 2016 1027 2005 27.3 L   6.788 -73.162144.0  RSN  5 0.3 1.5LRSN                1
 GAP=141        0.74       3.7     4.4  5.9 -0.4550E+01  0.6526E+01  0.2101E+01E
 Epicentro: LOS SANTOS - SANTANDER                                             3
 ACTION:UPD 16-11-09 19:23 OP:rebc STATUS:               ID:20161027200527 L   I
 OLDACT:REG 16-10-28 05:18 OP:ar   STATUS:               ID:20161027195746     3
 2016-10-27-1958-00M.COL___349                                                 6
 STAT SP IPHASW D HRMM SECON CODA AMPLIT PERI AZIMU VELO AIN AR TRES W  DIS CAZ7
 BAR2 EZ ES       20 6  1.55                             171   -0.3010 21.7 186 
 BAR2 EZ I        20 6  4.62         9.7 0.42            172           21.7 186 
 PAM  EZ EP       20 5 49.70                             150    0.2010 79.6  40 
 PAM  EN ES       20 6  6.96                             150    0.1710 79.6  40 
 PAM  EZ I        20 6  8.95         7.5 0.48            152           79.6  40 
 RUS  HZ EP       20 5 50.29                             144   -0.5410 99.4 175 
 RUS  HE ES       20 6  9.41                             144    0.2610 99.4 175 
 RUS  HZ I        20 6 10.63         4.8 0.34            146           99.4 175 
 PTB  HZ EP       20 5 53.78                             132   -0.20 9  146 259 
 PTB  HN ES       20 6 14.94                             132    0.19 9  146 259 
 PTB  HZ I        20 6 15.90         3.9 0.16            134            146 259 
 CHI  HZ EP   2   20 6  5.14                             117    0.39 4  247 195 
 CHI  HN ES       20 6 34.19                             117    0.27 8  247 195 
                                                                                
