 2016  527 2102 59.3 L   6.778 -73.131144.7  RSN  6 0.4 2.1LRSN                1
 GAP=139        0.94       4.1     5.7  6.7 -0.6363E+01  0.3267E+01  0.8284E+01E
 Epicentro: LOS SANTOS - SANTANDER                                             3
 ACTION:UPD 16-08-18 17:50 OP:cam  STATUS:               ID:20160527210259 L   I
 OLDACT:REG 16-05-28 02:57 OP:edw  STATUS:               ID:20160527205744     3
 2016-05-27-2057-44M.COL___318                                                 6
 STAT SP IPHASW D HRMM SECON CODA AMPLIT PERI AZIMU VELO AIN AR TRES W  DIS CAZ7
 BAR2 EZ EP       21 3 18.82                             171    0.0410 21.3 196 
 BAR2 EZ ES       21 3 33.27                             171   -0.6910 21.3 196 
 BAR2 EZ I        21 3 35.38        29.7 0.24            169           21.3 196 
 BRR  HZ EP       21 3 20.50                             151   -0.0110 73.8 300 
 BRR  HN ES       21 3 37.43                             151    0.4010 73.8 300 
 PAM  EZ EP       21 3 21.61                             150    0.1310 78.3  37 
 PAM  EN ES       21 3 38.78                             150    0.0210 78.3  37 
 PAM  EZ I        21 3 41.86        20.4 0.44            151           78.3  37 
 RUS  HZ EP       21 3 22.80                             144    0.0210 98.0 177 
 RUS  HE ES       21 3 41.33                             144    0.2510 98.0 177 
 RUS  HZ I        21 3 42.70        21.3 0.34            143           98.0 177 
 NOR  HE ES       21 4  2.46                             118   -0.33 8  235 235 
 CHI  HZ EP       21 3 36.14                             117   -0.61 8  247 196 
 CHI  HN ES       21 4  6.62                             117    0.68 8  247 196 
 CHI  HZ I        21 4 12.54         7.0 0.32            117            247 196 
                                                                                
