 2015  227 2228  0.8 L   6.818 -73.191144.3  RSN 10 0.5 1.9LRSN                1
 GAP=130        1.19       3.9     5.6  7.6 -0.7900E+01  0.1837E+02 -0.2315E+01E
 Epicentro: ZAPATOCA - SANTANDER                                               3
 ACTION:UPD 15-04-30 21:29 OP:nd   STATUS:               ID:20150227222800 L   I
 OLDACT:REG 15-02-28 01:49 OP:fm   STATUS:               ID:20150227221749     3
 2015-02-27-2217-49M.COL___302                                                 6
 STAT SP IPHASW D HRMM SECON CODA AMPLIT PERI AZIMU VELO AIN AR TRES W  DIS CAZ7
 BAR2 EZ EP       2228 19.97                             170   -0.3510 25.0 178 
 BAR2 EZ ES   1   2228 35.84                             170    0.32 7 25.0 178 
 BAR2 EZ I        2228 37.52        10.9 0.30            169           25.0 178 
 PAM  SZ EP       2228 23.57                             150    0.5710 79.2  43 
 PAM  SN ES       2228 40.61                             150    0.3210 79.2  43 
 PAM  SZ I        2228 42.62        16.2 0.50            155           79.2  43 
 RUS  HE ES       2228 42.66                             143   -0.5110  103 173 
 RUS  HZ I        2228 45.37        10.1 0.36            145            103 173 
 PTB  HZ EP       2228 26.96                             133   -0.31 9  143 258 
 PTB  HN ES       2228 47.30                             133   -0.59 9  143 258 
 PTB  HZ I        2228 50.78         7.1 0.38            133            143 258 
 SPBC HZ EP       2228 29.78                             129    0.71 9  162 217 
 SPBC HN ES       2228 51.93                             129    0.83 9  162 217 
 SPBC HZ I        2228 59.07        14.5 0.24            130            162 217 
 NOR  HZ EP       2228 36.28                             118    0.12 8  232 233 
 NOR  HE ES       2229  3.89                             118    0.16 8  232 233 
 NOR  HZ I        2229 10.33         6.2 0.24            120            232 233 
 SML  HZ EP       2228 36.56                             118   -0.39 8  240 336 
 SML  HE ES       2229  4.81                             118   -0.31 8  240 336 
 SML  HZ I        2229 11.54         9.7 0.10            120            240 336 
 CHI  HZ EP       2228 38.12                             117   -0.40 8  249 194 
 CHI  HE ES       2229  6.84                             117   -1.08 8  249 194 
 CHI  HZ I        2229 12.98         3.1 0.28            119            249 194 
 GUY2CHZ EP       2228 44.20                             112    0.16 7  298 234 
 GUY2CHE ES       2229 17.72                             112   -0.03 7  298 234 
 GUY2CHZ I        2229 26.89         3.7 0.60                           298 234 
 TOL  SZ EP       2228 48.90                             109    0.11 7  341 224 
 TOL  SN ES       2229 27.06                             109    0.86 7  341 224 
 TOL  SZ I        2229 34.78         3.3 0.26            111            341 224 
                                                                                
