 2014 1127 2343 14.6 L   6.757 -73.149132.5  RSN  5 0.4 1.3LRSN                1
 GAP=138        1.17       5.8     5.7  8.6 -0.2856E+01  0.7075E+01  0.2004E+01E
 Epicentro: LOS SANTOS - SANTANDER                                             3
 ACTION:UPD 14-12-19 15:48 OP:nd   STATUS:               ID:20141127234314 L   I
 OLDACT:REG 14-11-28 08:29 OP:stll STATUS:               ID:20141127233743     3
 2014-11-27-2337-43M.COL___306                                                 6
 STAT SP IPHASW D HRMM SECON CODA AMPLIT PERI AZIMU VELO AIN AR TRES W  DIS CAZ7
 BAR2 SZ EP       2343 32.72                             172    0.1310 18.6 191 
 BAR2 SZ ES       2343 47.27                             172    0.6910 18.6 191 
 BRR  HZ EP       2343 34.67                             149    0.1710 73.2 302 
 BRR  HE ES       2343 50.19                             149    0.2010 73.2 302 
 PAM  SZ EP       2343 35.67                             147   -0.0510 81.3  38 
 PAM  SZ I        2343 35.85         8.2 0.16            151           81.3  38 
 PAM  SN ES       2343 51.64                             147   -0.5210 81.3  38 
 RUS  HZ EP       2343 37.39                             142    0.6310 95.9 176 
 RUS  HN ES       2343 53.30                             142   -0.7110 95.9 176 
 RUS  HZ I        2343 58.65         1.2 0.42            141           95.9 176 
 PTB  HZ EP       2343 40.20                             129   -0.25 9  147 261 
 PTB  HN ES       2344  0.21                             129   -0.36 9  147 261 
 PTB  HZ I        2344  3.94         3.1 0.44            129            147 261 
                                                                                
