 2016  427 2047  8.6 L   6.780 -73.142141.1  RSN  5 0.4 1.7LRSN                1
 GAP=138        0.87       4.6     4.1  7.1 -0.5152E+00  0.9848E+01 -0.3467E+01E
 Epicentro: LOS SANTOS - SANTANDER                                             3
 ACTION:UPD 16-05-05 14:24 OP:rebc STATUS:               ID:20160427204708 L   I
 OLDACT:REG 16-04-28 03:11 OP:ar   STATUS:               ID:20160427203742     3
 2016-04-27-2037-42M.COL___322                                                 6
 STAT SP IPHASW D HRMM SECON CODA AMPLIT PERI AZIMU VELO AIN AR TRES W  DIS CAZ7
 BAR2 EZ EP       2047 27.76                             171    0.1210 21.2 192 
 BAR2 EZ ES       2047 42.20                             171   -0.2810 21.2 192 
 BAR2 EZ I        2047 43.91        10.1 0.20            171           21.2 192 
 PAM  EZ EP       2047 30.55                             150    0.1210 78.8  38 
 PAM  EN ES       2047 47.40                             150   -0.0410 78.8  38 
 PAM  EZ I        2047 49.11         9.6 0.16            151           78.8  38 
 RUS  HZ EP       2047 31.72                             144   -0.0310 98.3 176 
 RUS  HN ES       2047 50.11                             144    0.3210 98.3 176 
 RUS  HZ I        2047 50.90         5.1 0.24            147           98.3 176 
 PTB  HZ EP       2047 34.40                             131   -0.81 9  148 260 
 PTB  HE ES       2047 56.05                             131    0.10 9  148 260 
 PTB  HZ I        2047 59.06         8.4 0.10            131            148 260 
 ZAR  HZ EP   2   2047 41.84                             121    0.95 4  205 293 
 ZAR  HN ES       2048  6.38                             121    0.31 8  205 293 
 ZAR  HZ I        2048 14.67         7.2 0.28            121            205 293 
                                                                                
