 2013  127 2155 34.5 L   5.831 -73.867101.0  RSN  6 0.3 1.5LRSN                1
 GAP= 88        0.60       2.4     2.8  7.4 -0.6675E+00 -0.1633E+01 -0.1475E-01E
 Epicentro: SUCRE - SANTANDER                                                  3
 ACTION:UPD 13-02-15 09:17 OP:ep   STATUS:               ID:20130127215534 L   I
 2013-01-27-2150-00M.COL___241                                                 6
 STAT SP IPHASW D HRMM SECON CODA AMPLIT PERI AZIMU VELO AIN AR TRES W  DIS CAZ7
 RUS  HZ EP   1   2155 52.99                             136   -0.02 8 87.1  85 
 RUS  HN ES   1   2156  7.35                             136   -0.08 8 87.1  85 
 RUS  HZ I        2156  9.30         4.8 0.32            143           87.1  85 
 PTB  HN ES   1   2156  8.15                             131   -0.48 8  102 320 
 PTB  HZ I        2156 10.64         7.4 0.20            138            102 320 
 BAR2 SZ EP       2155 54.70                             128   -0.3510  113  42 
 BAR2 SZ ES   1   2156 11.37                             128    0.31 7  113  42 
 BAR2 SZ I        2156 12.75        24.0 0.16            136            113  42 
 NOR  HN ES   1   2156 11.18                             127    0.28 7  115 255 
 NOR  HZ I        2156 14.57         7.5 0.24            132            115 255 
 CHI  HZ EP   1   2155 57.42                             123    0.10 7  134 174 
 CHI  HN ES   1   2156 15.08                             123   -0.02 7  134 174 
 CHI  HZ I        2156 20.25         3.3 0.30            127            134 174 
 BRR  HZ EP       2155 57.77                             120    0.1110  142   7 
 BRR  HN ES   1   2156 16.12                             120    0.41 7  142   7 
                                                                                
