 2016  727 2341 10.0 L   6.806 -73.159143.7  RSN 23 0.5 3.1LRSN 3.6WRSN        1
 SPEC AVERAGE  MO 14.4 ST0.443 OM  2.6 f0 1.29 R1.6932 AL 0.00 WI 40.0 MW  3.6 3
 SPEC SD       MO  0.6 ST  1.3 OM  0.7 f00.615 R0.6553 AL      WI      MW  0.4 3
 GAP=102        0.95       3.1     2.6  4.5 -0.8599E+00  0.3172E+01  0.3518E+01E
 Epicentro: LOS SANTOS - SANTANDER                                             3
 SPEC RUS HH Z MO 14.7 ST0.334 OM  2.7 f0 1.06 R1.8151 AL-0.00 WI 40.0 MW  3.7 3
 SPEC RUS HH Z T234150 K 0.000 GD  175 VS 5.20 DE 3.50 Q0750.0 QA 1.50 VS 5.20 3
 SPEC NOR HH Z MO 14.2 ST  2.2 OM  2.0 f0 2.94 R0.6544 AL-0.00 WI 40.0 MW  3.4 3
 SPEC NOR HH Z T234211 K 0.000 GD  274 VS 5.20 DE 3.50 Q0750.0 QA 1.50 VS 5.20 3
 SPEC CHI HH Z MO 14.5 ST0.374 OM  2.3 f0 1.27 R1.5150 AL-0.00 WI 40.0 MW  3.6 3
 SPEC CHI HH Z T234215 K 0.000 GD  287 VS 5.20 DE 3.50 Q0750.0 QA 1.50 VS 5.20 3
 SPEC HEL HH Z MO 14.5 ST0.190 OM  2.3 f00.991 R1.9415 AL-0.00 WI 40.0 MW  3.6 3
 SPEC HEL HH Z T234220 K 0.000 GD  306 VS 5.20 DE 3.50 Q0750.0 QA 1.50 VS 5.20 3
 SPECGUY2CHH Z MO 14.6 ST  0.2 OM  2.4 f00.852 R  2.26 AL-0.00 WI 40.0 MW  3.7 3
 SPECGUY2CHH Z T234227 K       GD332.6 VS 5.20 DE 3.50 Q0750.0 QA 1.50 VS 5.20 3
 SPEC LL6CHH Z MO 14.2 ST0.279 OM  1.9 f0 1.46 R1.3178 AL-0.00 WI 40.0 MW  3.4 3
 SPEC LL6CHH Z T234225 K 0.000 GD  354 VS 5.20 DE 3.50 Q0750.0 QA 1.50 VS 5.20 3
 SPEC ELA HH Z MO 14.7 ST0.177 OM  2.4 f00.852 R2.2582 AL-0.00 WI 40.0 MW  3.7 3
 SPEC ELA HH Z T234231 K 0.000 GD  358 VS 5.20 DE 3.50 Q0750.0 QA 1.50 VS 5.20 3
 SPEC CBOCHH Z MO 14.6 ST0.136 OM  2.3 f00.839 R2.2932 AL-0.00 WI 40.0 MW  3.7 3
 SPEC CBOCHH Z T234230 K 0.000 GD  361 VS 5.20 DE 3.50 Q0750.0 QA 1.50 VS 5.20 3
 SPEC ANILHH Z MO 14.3 ST0.602 OM  2.0 f0 1.70 R1.1318 AL-0.00 WI 40.0 MW  3.5 3
 SPEC ANILHH Z T234237 K 0.000 GD  384 VS 5.20 DE 3.50 Q0750.0 QA 1.50 VS 5.20 3
 SPEC PRA HH Z MO 14.6 ST0.201 OM  2.3 f00.912 R2.1096 AL-0.00 WI 40.0 MW  3.7 3
 SPEC PRA HH Z T234243 K 0.000 GD  417 VS 5.20 DE 3.50 Q0750.0 QA 1.50 VS 5.20 3
 SPEC PAL HH Z MO 14.3 ST0.127 OM  2.0 f00.976 R1.9713 AL-0.00 WI 40.0 MW  3.5 3
 SPEC PAL HH Z T234246 K 0.000 GD  429 VS 5.20 DE 3.50 Q0750.0 QA 1.50 VS 5.20 3
 SPEC SJC HH Z MO 14.3 ST0.232 OM  2.0 f0 1.19 R1.6168 AL-0.00 WI 40.0 MW  3.5 3
 SPEC SJC HH Z T234243 K 0.000 GD  432 VS 5.20 DE 3.50 Q0750.0 QA 1.50 VS 5.20 3
 OLDACT:REG 16-07-28 04:53 OP:dnl  STATUS:               ID:20160727233759     3
 ACTION:UPD 17-03-29 16:55 OP:lp   STATUS:               ID:20160727234110 L   I
 OLDACT:UP  16-07-28 05:22 OP:dnl  STATUS:               ID:20160727233759     3
 2016-07-27-2337-59S.COL___346                                                 6
 STAT SP IPHASW D HRMM SECON CODA AMPLIT PERI AZIMU VELO AIN AR TRES W  DIS CAZ7
 BAR2 HZ EP       2341 29.41                             170    0.0310 23.8 186 
 BAR2 HZ ES       2341 44.10                             170   -0.4110 23.8 186 
 BAR2 HZ I        2341 45.69       396.5 0.22            169           23.8 186 
 BRR  HZ IP     C 2341 31.21                             153    0.3910 69.6 299 
 BRR  HN ES       2341 47.77                             153    0.6910 69.6 299 
 BRR  HZ I        2341 51.37       152.0 0.16            149           69.6 299 
 PAM  HZ IP     D 2341 32.30                             150    0.2910 77.8  41 
 PAM  HN ES       2341 49.10                             150   -0.0910 77.8  41 
 PAM  HZ I        2341 51.60       425.3 0.48            153           77.8  41 
 RUS  HZ EP       2341 33.42                             143   -0.1710  101 175 
 RUS  HN ES       2341 52.17                             143    0.1610  101 175 
 RUS  HZ I        2341 53.33       218.6 0.30            144            101 175 
 PTB  HZ EP       2341 35.79                             132   -0.88 9  146 258 
 PTB  HN ES       2341 57.12                             132   -0.37 9  146 258 
 PTB  HZ I        2342  0.24       110.8 0.15            130            146 258 
 TAM  HZ IP     D 2341 37.77                             130    0.12 9  157 105 
 TAM  HE ES       2341 59.11                             130   -0.11 9  157 105 
 SPBC HE ES       2342  0.60                             129    0.23 9  163 218 
 SPBC HZ I        2342  2.88       272.6 0.26            128            163 218 
 ZAR  HZ EP       2341 41.79                             122   -0.34 9  202 292 
 ZAR  HN ES       2342  6.69                             122   -0.52 9  202 292 
 ZAR  HZ I        2342 17.99        94.3 0.22            121            202 292 
 NOR  HZ EP       2341 45.27                             118   -0.25 8  234 234 
 NOR  HN ES       2342 12.86                             118   -0.37 8  234 234 
 NOR  HZ I        2342 18.61       129.4 0.46            118            234 234 
 CHI  HZ EP       2341 47.57                             117   -0.03 8  249 195 
 CHI  HE ES       2342 16.82                             117   -0.12 8  249 195 
 CHI  HZ I        2342 20.42        86.5 0.46            117            249 195 
 ROSC BZ EP   4   2341 49.19                             116    1.21 0  253 211 
 ROSC BN ES   2   2342 17.04                             116   -0.57 4  253 211 
 ROSC BZ I        2342 27.77       113.6 0.35            116            253 211 
 HEL  HZ EP       2341 50.48                             114    0.52 8  271 256 
 HEL  HE ES       2342 21.82                             114    0.68 8  271 256 
 HEL  HZ I        2342 28.42        73.5 0.46            114            271 256 
 GUY2CHZ EP       2341 53.65                             112    0.24 7  300 235 
 GUY2CHN ES   4   2342 28.76                             112    1.47 0  300 235 
 GUY2CHZ I        2342 35.75        75.8 0.34                           300 235 
 PTGC HZ EP   4   2341 52.57                             111   -1.31 0  310 158 
 PTGC HN ES   4   2342 25.97                             111   -2.15 0  310 158 
 PTGC HZ I        2342 30.87        98.1 0.28            112            310 158 
 LL6C HZ EP   4   2341 53.95                             110   -1.57 0  324 358 
 LL6C HN ES   4   2342 27.46                             110   -3.57 0  324 358 
 LL6C HZ I        2342 36.35        38.2 0.42            110            324 358 
 ELA  HZ EP   2   2341 56.80                             110    0.12 3  328 229 
 ELA  HN ES       2342 32.90                             110   -0.20 7  328 229 
 ELA  HZ I        2342 48.85        54.9 0.52            110            328 229 
 CBOC HZ EP   2   2341 57.61                             110    0.93 3  332 252 
 CBOC HN ES   4   2342 31.96                             110   -1.15 0  332 252 
 CBOC HZ I        2342 37.42        23.4 0.46            109            332 252 
 ANIL HZ EP       2342  0.53                             108    0.88 6  357 224 
 ANIL HN ES       2342 39.43                             108    1.04 6  357 224 
 PRA  HZ EP       2342  2.83                             106   -0.59 6  392 209 
 PRA  HE ES       2342 45.31                             106    0.21 6  392 209 
 PRA  HZ I        2342 49.42        48.8 0.24            106            392 209 
 PAL  HZ EP       2342  4.77                             106   -0.21 6  405 239 
 PAL  HN ES   2   2342 47.60                             106   -0.27 3  405 239 
 PAL  HZ I        2342 51.02        26.6 0.22            105            405 239 
 SJC  HZ EP   4   2342  3.44                             105   -1.88 0  408 327 
 SJC  HE ES   4   2342 44.50                             105   -3.98 0  408 327 
 SJC  HZ I        2342 51.06        18.7 0.30            105            408 327 
 CRJC HZ EP   4   2342  9.81                             103   -2.55 0  467   4 
 CRJC HE ES   4   2342 57.02                             103   -3.99 0  467   4 
 CRJC HZ I        2343  4.75        31.4 0.18            103            467   4 
 YOT  HZ EP       2342 12.16                             103   -0.74 5  471 229 
 YOT  HE ES   4   2343  5.05                             103    3.08 0  471 229 
                                                                                
