 2012  927 2347 17.2 L   6.767 -73.069153.5  RSN  4 0.3 1.7LRSN                1
 GAP=148        0.62       4.5     6.3  7.4 -0.1139E+01 -0.1719E+01  0.1383E+01E
 Epicentro: LOS SANTOS - SANTANDER                                             3
 ACTION:UPD 12-10-22 14:21 OP:ep   STATUS:               ID:20120927234717 L   I
 2012-09-27-2340-00M.COL___214                                                 6
 STAT SP IPHASW D HRMM SECON CODA AMPLIT PERI AZIMU VELO AIN AR TRES W  DIS CAZ7
 BAR2 SZ EP   1   2347 37.36                             171   -0.41 7 23.0 213 
 BAR2 SZ I        2347 56.39         7.9 0.31                          23.0 213 
 PAM  SZ EP       2347 40.50                             153    0.3610 75.3  33 
 PAM  SZ I        2347 40.99         8.0 0.24                          75.3  33 
 PAM  SN ES   1   2347 57.74                             153   -0.29 7 75.3  33 
 BRR  HZ EP       2347 39.71                             151   -0.0110 80.4 298 
 BRR  HZ I        2347 40.18        10.1 0.16                          80.4 298 
 BRR  HN ES   1   2347 57.35                             151    0.07 7 80.4 298 
 RUS  HZ EP   1   2347 41.25                             146   -0.22 7 96.7 181 
 RUS  HN ES   1   2348  0.63                             146    0.24 7 96.7 181 
                                                                                
