 2017  527 2049 15.3 L   6.813 -73.133150.0  RSN 20 0.4 2.7LRSN                1
 GAP=166        0.85       3.2     3.3  4.8  0.3841E+01  0.1781E+01  0.1918E+01E
 Epicentro: LOS SANTOS - SANTANDER                                             3
 ACTION:UPD 17-06-16 13:39 OP:jn   STATUS:               ID:20170527204915 L   I
 OLDACT:UP  17-05-28 05:27 OP:edw  STATUS:               ID:20170527204726     3
 OLDACT:UP  17-05-28 05:26 OP:edw  STATUS:               ID:20170527204726     3
 OLDACT:REG 17-05-28 04:36 OP:edw  STATUS:               ID:20170527204726     3
 2017-05-27-2048-00M.COL___344                                                 6
 STAT SP IPHASW D HRMM SECON CODA AMPLIT PERI AZIMU VELO AIN AR TRES W  DIS CAZ7
 BRR  HZ IP     C 2049 37.13                             153    0.1610 71.8 297 
 BRR  HN ES       2049 54.29                             153    0.4410 71.8 297 
 BRR  HZ I        2049 55.53        63.3 0.12            150           71.8 297 
 RUS  HZ EP       2049 39.37                             144   -0.2210  102 177 
 RUS  HN ES       2049 58.06                             144   -0.4610  102 177 
 RUS  HZ I        2049 59.00        63.3 0.26            142            102 177 
 PTB  HZ EP   9   2049 42.24                             132   -0.55 0  149 258 
 PTB  HN ES       2050  2.93                             132   -0.73 9  149 258 
 PTB  HZ I        2050  9.60        42.3 0.42            130            149 258 
 SPBC HZ EP       2049 44.30                             129   -0.04 9  165 219 
 SPBC HN ES       2050  6.60                             129   -0.37 9  165 219 
 SPBC HZ I        2050 11.18        89.6 0.22            127            165 219 
 YPLC HZ EP       2049 45.59                             127    0.10 9  177 152 
 YPLC HN ES       2050  9.54                             127    0.53 9  177 152 
 YPLC HZ I        2050 12.44        33.0 0.30            128            177 152 
 ZAR  HZ EP       2049 47.82                             123   -0.31 9  205 292 
 ZAR  HN ES       2050 13.14                             123   -0.58 9  205 292 
 ZAR  HZ I        2050 18.73        59.0 0.40            122            205 292 
 TABC EZ EP   4   2049 53.35                             120    1.81 0  232 211 
 TABC EZ ES   4   2050 22.23                             120    2.45 0  232 211 
 TABC EZ I        2050 27.55        53.1 0.44            119            232 211 
 NOR  HZ EP       2049 51.45                             119   -0.07 8  237 234 
 NOR  HN ES   4   2050 18.00                             119   -1.74 0  237 234 
 NOR  HZ I        2050 29.10        25.5 0.34            118            237 234 
 CHI  HZ EP       2049 53.45                             117    0.00 8  250 195 
 CHI  HN ES       2050 22.86                             117   -0.32 8  250 195 
 CHI  HZ I        2050 26.33        34.6 0.62            117            250 195 
 ROSC BZ EP   4   2049 55.23                             117    1.34 0  255 211 
 ROSC BN ES   4   2050 25.83                             117    1.86 0  255 211 
 ROSC BZ I        2050 29.99        68.7 0.45            116            255 211 
 HEL  HZ EP   4   2049 57.40                             115    1.45 0  274 256 
 HEL  HN ES       2050 27.68                             115    0.05 8  274 256 
 HEL  HZ I        2050 34.31        19.3 0.48            114            274 256 
 VIL  EZ EP       2049 58.86                             112   -0.27 7  305 192 
 VIL  EN ES       2050 33.25                             112   -0.04 7  305 192 
 VIL  EZ I        2050 36.04        48.0 0.38            112            305 192 
 PTGC HZ EP   9 D 2049 58.45                             112   -1.01 0  309 159 
 PTGC HN ES       2050 32.22                             112   -0.66 7  309 159 
 PTGC HZ I        2050 37.56        19.8 0.50            113            309 159 
 ELA  HZ EP       2050  3.28                             111    0.69 7  331 229 
 ELA  HN ES       2050 40.27                             111    0.82 7  331 229 
 ELA  HZ I        2050 48.07        19.3 0.48            110            331 229 
 CBOC HZ EP   4   2050  3.75                             110    1.13 0  335 252 
 CBOC HN ES       2050 39.96                             110    0.44 7  335 252 
 CBOC HZ I        2050 43.52         5.7 0.16            110            335 252 
 DBB  EN ES   4   2050 36.85                             110   -3.57 0  341 274 
 ANIL HZ EP   4   2050  6.78                             109    1.25 0  359 225 
 ANIL HE ES   4   2050 46.85                             109    2.17 0  359 225 
 ORTC HZ EP       2050  9.79                             107    0.17 6  397 216 
 ORTC HN ES   2   2050 51.77                             107   -0.20 3  397 216 
 ORTC HZ I        2050 56.69        14.1 0.24            107            397 216 
 PAL  HZ EP       2050 10.91                             106    0.05 6  408 239 
 PAL  HN ES       2050 54.29                             106    0.12 6  408 239 
 PAL  HZ I        2050 56.79         6.5 0.30            106            408 239 
 SJC  HZ EP   4 C 2050  9.53                             106   -1.46 0  409 327 
 SJC  HN ES   4   2050 50.14                             106   -4.26 0  409 327 
 SJC  HZ I        2050 58.50        11.5 0.42            107            409 327 
 YOT  HZ EP   2   2050 18.28                             103   -0.45 2  474 229 
 SMAR HZ EP   2   2050 20.84                             103   -0.35 2  496 346 
 SMAR HN ES   4   2051  8.25                             103   -4.32 0  496 346 
 SMAR HZ I        2051 11.03         7.4 0.42            104            496 346 
                                                                                
