 2010  727 2319  9.7 L   6.760 -73.120145.3  RSN  6 0.4 1.7LRSN                1
 GAP=162        0.97       6.9    14.3 11.4  0.3951E+02 -0.7401E+02 -0.3559E+02E
 Epicentro: LOS SANTOS - SANTANDER                                             3
 ACTION:UPD 10-12-01 15:20 OP:pat  STATUS:               ID:20100727231909 L   I
 2010-07-27-2314-58S.COL___123                                                 6
 STAT SP IPHASW D HRMM SECON CODA AMPLIT PERI AZIMU VELO AIN AR TRES W  DIS CAZ7
 BAR2 SZ IP       2319 28.94                             173    -0.210   20 201 
 BAR2 SZ ES   1   2319 44.23                             173    -0.1 7   20 201 
 BAR2 SZ I        2319 45.66        15.4 0.22                            20 201 
 GIR2 SZ EP   2   2319 29.04                             165    -0.4 5   36 347 
 BRR  HZ IP     C 2319 30.80                             151    -0.210   76 300 
 BRR  HZ I        2319 31.04        28.4 0.16                            76 300 
 BRR  HN ES   1   2319 48.12                             151     0.4 7   76 300 
 RUS  HZ EP   1   2319 32.99                             145     0.0 7   96 178 
 RUS  HE ES   1   2319 51.39                             145     0.1 7   96 178 
 RUS  HZ I        2319 52.81         5.1 0.36                            96 178 
 GRA  SZ EP       2319 35.74                             136     0.610  129  16 
 GRA  SZ I        2319 56.41         5.1 0.28                           129  16 
 OCA  SZ ES   2   2319 59.88                             129    -0.9 5  165 352 
 OCA  SZ I        2320  5.71         5.4 0.35                           165 352 
                                                                                
