 2016  327 2259 40.9 L   6.800 -73.199144.0  RSN  4 0.3 1.4LRSN                1
 GAP=130        0.72       3.8     3.4  7.5 -0.8913E-01  0.8813E+01 -0.2045E+01E
 Epicentro: ZAPATOCA - SANTANDER                                               3
 ACTION:UPD 16-05-13 21:28 OP:cam  STATUS:               ID:20160327225940 L   I
 OLDACT:UP  16-03-28 06:54 OP:mh   STATUS:               ID:20160327225748     3
 OLDACT:REG 16-03-28 04:39 OP:mh   STATUS:               ID:20160327225748     3
 2016-03-27-2257-48M.COL___304                                                 6
 STAT SP IPHASW D HRMM SECON CODA AMPLIT PERI AZIMU VELO AIN AR TRES W  DIS CAZ7
 PAM  EZ EP       23 0  3.46                             149    0.3310 81.3  43 
 PAM  EN ES       23 0 20.32                             149   -0.1810 81.3  43 
 PAM  EZ I        23 0 22.71         5.7 0.47            153           81.3  43 
 RUS  HZ EP       23 0  4.73                             143    0.2510  101 173 
 RUS  HN ES       23 0 22.66                             143   -0.2410  101 173 
 RUS  HZ I        23 0 24.30         3.7 0.28            148            101 173 
 PTB  HZ EP       23 0  7.02                             133   -0.14 9  142 258 
 PTB  HN ES       23 0 27.94                             133    0.26 9  142 258 
 PTB  HZ I        23 0 31.36                             134            142 258 
 ZAR  HZ EP   1   23 0 11.92                             123   -0.71 6  199 293 
 ZAR  HN ES       23 0 37.46                             123    0.05 9  199 293 
 ZAR  HZ I        23 0 43.83         2.4 0.22            124            199 293 
                                                                                
