 2014  527 2117 25.1 L   6.743 -73.151138.4  RSN 10 0.5 1.8LRSN                1
 GAP=138        1.07       4.0     4.3  7.8 -0.3010E+01  0.8420E+01  0.6123E+01E
 Epicentro: JORDAN - SANTANDER                                                 3
 ACTION:UPD 15-03-16 17:01 OP:nd   STATUS:               ID:20140527211725 L   I
 OLDACT:REG 14-05-28 03:13 OP:spq  STATUS:               ID:20140527211000     3
 2014-05-27-2110-00M.COL___276                                                 6
 STAT SP IPHASW D HRMM SECON CODA AMPLIT PERI AZIMU VELO AIN AR TRES W  DIS CAZ7
 BAR2 SZ EP       2117 44.16                             173    0.4510 17.0 192 
 BAR2 SZ ES   1   2117 58.23                             173   -0.02 7 17.0 192 
 BAR2 SZ I        2118  1.09        11.5 0.36            170           17.0 192 
 BRR  HZ IP     C 2117 46.09                             150    0.4910 74.0 303 
 BRR  HN ES       2118  1.72                             150    0.1110 74.0 303 
 BRR  HZ I        2118  6.52        11.0 0.18            149           74.0 303 
 PAM  SZ EP       2117 46.39                             148   -0.4710 82.7  37 
 PAM  SN ES       2118  3.41                             148   -0.4410 82.7  37 
 PAM  SZ I        2118  6.24         6.9 0.44            153           82.7  37 
 RUS  HZ EP   1   2117 47.98                             144    0.32 7 94.3 175 
 RUS  HN ES       2118  5.56                             144    0.2910 94.3 175 
 RUS  HZ I        2118  8.04         6.2 0.28            146           94.3 175 
 PTB  HN ES       2118 12.07                             131    0.31 9  146 261 
 PTB  HZ I        2118 17.37         7.6 0.24            131            146 261 
 SPBC HZ EP       2117 53.18                             128    0.66 9  158 220 
 SPBC HN ES       2118 13.35                             128   -0.57 9  158 220 
 SPBC HZ I        2118 18.06        12.8 0.28            129            158 220 
 ZAR  HN ES       2118 22.10                             120   -0.26 8  206 294 
 ZAR  HZ I        2118 29.26        13.1 0.36            122            206 294 
 NOR  HZ EP   1   2117 59.29                             117   -0.66 6  231 236 
 NOR  HN ES       2118 26.49                             117   -0.65 8  231 236 
 NOR  HZ I        2118 36.07         5.3 0.22            118            231 236 
 CHI  HN ES   1   2118 29.59                             116   -0.66 6  242 195 
 CHI  HZ I        2118 37.43         3.7 0.32            118            242 195 
 SML  HN ES   4   2118 28.57                             115   -2.08 0  249 336 
 GUY2CHN ES   1   2118 41.82                             111    0.53 5  297 236 
 GUY2CHZ I        2118 52.14         2.7 0.42                           297 236 
                                                                                
