 2010  627 2327 26.4 L   6.793 -73.036147.9  RSN 11 0.4 2.0LRSN                1
 GAP=169        0.92       3.7     7.2  6.7 -0.1041E+02  0.4370E+01  0.3725E+01E
 Epicentro: CEPITA - SANTANDER                                                 3
 ACTION:UP  10-08-24 10:13 OP:vdl  STATUS:               ID:20100627232726 L   I
 2010-06-27-2325-13S.COL___118                                                 6
 STAT SP IPHASW D HRMM SECON CODA AMPLIT PERI AZIMU VELO SNR AR TRES W  DIS CAZ7
 BAR2 SZ EP   1   2327 46.07                             169    -0.3 7   28 216 
 BAR2 SZ ES   1   2328  2.18                             169     0.2 7   28 216 
 BRR  HZ IP     C 2327 48.05                             149    -0.410   82 295 
 BRR  HN ES   1   2328  5.26                             149    -0.3 7   82 295 
 BRR  HZ I        2328  7.36        19.5 0.12                            82 295 
 RUS  HZ EP       2327 50.08                             144    -0.210  100 183 
 RUS  HE ES   1   2328  8.73                             144    -0.2 7  100 183 
 RUS  HZ I        2328 10.09        13.2 0.33                           100 183 
 BRI  SZ IP       2327 50.77                             142     0.510  105  14 
 BRI  SZ ES   2   2328  8.75                             142    -0.1 5  105  14 
 GUE  SZ EP   2   2327 50.49                             140    -0.7 5  115   6 
 GRA  SZ IP       2327 52.01                             138     0.410  123  12 
 GRA  SZ ES   1   2328 11.79                             138     0.5 7  123  12 
 OCA  SZ ES   1   2328 17.11                             129    -0.4 7  163 349 
 OCA  SZ I        2328 21.85         9.5 0.05                           163 349 
 CHI  HZ EP   1   2328  4.02                             117    -0.5 6  251 198 
 CHI  HE ES   2   2328 34.52                             117     0.3 4  251 198 
 CHI  HZ I        2328 41.76         4.4 0.43                           251 198 
 HEL  HZ EP   1   2328  7.87                             114    -0.1 6  284 257 
 HEL  HZ I        2328 44.06         3.2 0.26                           284 257 
 RREF HZ EP   1   2328 14.25                             111     0.6 5  331 231 
 RREF HE ES   1   2328 51.15                             111     0.7 5  331 231 
 RREF HZ I        2328 54.56         5.0 0.35                           331 231 
 PRA  HZ EP   1   2328 19.85                             106    -0.8 4  397 211 
 PRA  HE ES   2   2329  3.71                             106     0.8 3  397 211 
 PRA  HZ I        2329  7.38         6.7 0.27                           397 211 
                                                                                
