 2011  927 2257 58.5 L   6.785 -73.104138.6  RSN  5 0.2 1.6LRSN                1
 GAP=143        0.52       4.1     6.0  6.6 -0.2274E+00 -0.2454E+01  0.8196E+00E
 Epicentro: LOS SANTOS - SANTANDER                                             3
 ACTION:UPD 12-07-13 16:00 OP:ep   STATUS:               ID:20110927225758 L   I
 2011-09-27-2256-49S.COL___165                                                 6
 STAT SP IPHASW D HRMM SECON CODA AMPLIT PERI AZIMU VELO AIN AR TRES W  DIS CAZ7
 BAR2 SZ ES   2   2258 32.20                             170    0.32 5 23.0 202 
 BAR2 SZ I        2258 33.41         7.3 0.24                          23.0 202 
 BTL  SZ EP       2258 17.46                             170    0.2010 23.3 309 
 PAM  SZ EP       2258 20.08                             150    0.2210 75.9  36 
 PAM  SN ES   2   2258 36.03                             150   -0.49 5 75.9  36 
 BRR  HZ EP       2258 19.01                             150   -0.1510 76.0 298 
 BRR  HZ I        2258 19.44        12.6 0.32                          76.0 298 
 BRR  HN ES   2   2258 35.13                             150   -0.15 5 76.0 298 
 RUS  HZ EP       2258 21.21                             143   -0.2010 98.7 179 
 RUS  HN ES   2   2258 39.34                             143    0.06 5 98.7 179 
                                                                                
