 2012  527 2100 13.2 L   6.815 -73.166143.1  RSN 14 0.5 2.9LRSN                1
 GAP=133        1.14       5.0     5.9  8.0 -0.4153E+01  0.1808E+02  0.7406E+01E
 Epicentro: LOS SANTOS - SANTANDER                                             3
 ACTION:UP  12-07-05 12:08 OP:pat  STATUS:               ID:20120527210013 L   I
 2012-05-27-2100-00M.COL___198                                                 6
 STAT SP IPHASW D HRMM SECON CODA AMPLIT PERI AZIMU VELO SNR AR TRES W  DIS CAZ7
 BAR2 SZ IP       21 0 32.60                             170     0.010   25 184 
 BAR2 SZ ES   1   21 0 47.79                             170     0.1 7   25 184 
 BAR2 SZ I        21 0 49.47       163.0 0.34                            25 184 
 PAM  SZ EP       21 0 35.43                             150     0.310   78  42 
 PAM  SN ES   1   21 0 52.80                             150     0.5 7   78  42 
 RUS  HZ EP       21 0 36.42                             143    -0.410  102 175 
 RUS  HE ES   2   21 0 55.29                             143     0.0 5  102 175 
 RUS  HZ I        21 0 56.57        72.4 0.64                           102 175 
 PTB  HZ EP       21 0 39.10                             132    -0.7 9  146 258 
 PTB  HN ES   1   21 1  0.43                             132    -0.1 7  146 258 
 PTB  HZ I        21 1  2.06        58.7 0.20                           146 258 
 OCA  HZ EP       21 0 40.58                             129    -0.6 9  158 354 
 OCA  HN ES   2   21 1  2.61                             129    -0.3 5  158 354 
 OCA  HZ I        21 1  8.20       124.4 0.28                           158 354 
 ZAR  HZ EP       21 0 45.18                             122     0.0 9  201 292 
 ZAR  HE ES   1   21 1 10.26                             122     0.1 6  201 292 
 ZAR  HZ I        21 1 17.59       116.4 0.26                           201 292 
 NOR  SZ EP       21 0 48.61                             118    -0.1 8  234 234 
 NOR  SE ES   2   21 1 15.78                             118    -0.6 4  234 234 
 CHI  HZ EP       21 0 50.66                             116    -0.2 8  250 195 
 CHI  HZ I        21 1 25.57        30.6 0.36                           250 195 
 ROSC BE ES   3   21 1 20.67                             116    -0.2 2  253 210 
 ROSC BZ I        21 1 26.12        67.7 0.40                           253 210 
 HEL  HZ EP       21 0 54.28                             114     1.2 8  270 255 
 HEL  HZ I        21 1 31.66        31.6 0.50                           270 255 
 RREF HZ EP       21 0 59.71                             110     0.5 7  321 229 
 RREF HZ I        21 1 43.48        42.6 0.46                           321 229 
 DBB  SZ EP   2   21 1  0.50                             109     0.2 3  337 274 
 ANIL HZ EP       21 1  3.99                             108     1.1 6  357 224 
 ANIL HE ES   2   21 1 41.54                             108    -0.1 3  357 224 
 ANIL HZ I        21 1 48.96        91.8 0.36                           357 224 
 PRA  HZ EP       21 1  6.19                             106    -0.5 6  392 209 
 PRA  HE ES   2   21 1 48.39                             106     0.0 3  392 209 
                                                                                
