 2016  927 2121  4.7 L   6.664 -73.317138.6  RSN  9 0.4 1.9LRSN                1
 GAP= 84        0.97       3.6     3.6  5.9 -0.1840E+01  0.6092E+01  0.6269E+00E
 Epicentro: GALAN - SANTANDER                                                  3
 ACTION:UPD 17-08-17 21:17 OP:lp   STATUS:               ID:20160927212104 L   I
 OLDACT:UP  16-09-28 07:07 OP:and  STATUS:               ID:20160927211744     3
 OLDACT:REG 16-09-28 04:13 OP:and  STATUS:               ID:20160927211744     3
 2016-09-27-2118-00M.COL___378                                                 6
 STAT SP IPHASW D HRMM SECON CODA AMPLIT PERI AZIMU VELO AIN AR TRES W  DIS CAZ7
 BAR2 EZ EP       2121 23.28                             173   -0.0510 16.8 118 
 BAR2 EZ ES       2121 37.65                             173   -0.2310 16.8 118 
 BAR2 EZ I        2121 38.51        24.5 0.17            174           16.8 118 
 BRR  HZ EP     D 2121 24.64                             153   -0.1010 65.7 318 
 BRR  HN ES       2121 40.65                             153    0.2610 65.7 318 
 RUS  HZ EP       2121 26.72                             146   -0.1910 89.1 163 
 RUS  HE ES       2121 44.27                             146    0.0310 89.1 163 
 PAM  EZ EP       2121 28.01                             142    0.2410  101  42 
 PAM  EN ES       2121 45.87                             142    0.0810  101  42 
 PAM  EZ I        2121 48.88         8.0 0.18            144            101  42 
 PTB  HZ EP       2121 28.03                             135   -1.1510  127 264 
 PTB  HN ES       2121 48.02                             135   -0.2810  127 264 
 PTB  HZ I        2121 48.85         8.8 0.12            135            127 264 
 SPBC HZ EP       2121 30.75                             132    0.32 9  140 217 
 SPBC HE ES       2121 50.82                             132    0.31 9  140 217 
 SPBC HZ I        2121 55.67        14.4 0.27            133            140 217 
 ZAR  HZ EP       2121 36.03                             122    0.48 9  193 298 
 ZAR  HE ES       2121 59.73                             122    0.09 9  193 298 
 ZAR  HZ I        2122  3.41         7.9 0.09            123            193 298 
 NOR  HZ EP       2121 37.44                             120    0.03 8  211 235 
 NOR  HN ES       2122  3.31                             120    0.37 8  211 235 
 NOR  HZ I        2122  5.18         4.8 0.20            121            211 235 
 GUY2CHZ EP   4   2121 47.51                             113    2.28 0  277 235 
 GUY2CHN ES   4   2122 20.35                             113    3.49 0  277 235 
 GUY2CHZ I        2122 22.33         5.2 0.36                           277 235 
                                                                                
