 2016  227 2306 43.6 L   6.809 -73.155146.0  RSN 11 0.3 2.4LRSN                1
 GAP=135        0.72       2.6     2.9  4.3 -0.1287E+01  0.4535E+01  0.1517E+01E
 Epicentro: LOS SANTOS - SANTANDER                                             3
 ACTION:UPD 16-03-04 21:30 OP:rebc STATUS:               ID:20160227230643 L   I
 OLDACT:REG 16-02-28 03:42 OP:cara STATUS:               ID:20160227225752     3
 2016-02-27-2257-52M.COL___319                                                 6
 STAT SP IPHASW D HRMM SECON CODA AMPLIT PERI AZIMU VELO AIN AR TRES W  DIS CAZ7
 BAR2 EZ IP       23 7  3.27                             170   -0.0110 24.1 187 
 BAR2 EZ ES       23 7 18.15                             170   -0.4710 24.1 187 
 BAR2 EZ I        23 7 19.54        82.4 0.22            170           24.1 187 
 PAM  EZ EP       23 7  6.10                             151    0.2610 77.3  41 
 PAM  EE ES       23 7 23.44                             151    0.2610 77.3  41 
 PAM  EZ I        23 7 25.55        54.1 0.46            153           77.3  41 
 RUS  HZ EP       23 7  7.19                             143   -0.2610  102 176 
 RUS  HN ES       23 7 26.35                             143    0.3010  102 176 
 RUS  HZ I        23 7 27.72        37.2 0.40            145            102 176 
 PTB  HZ EP       23 7 10.09                             132   -0.42 9  147 258 
 PTB  HN ES       23 7 31.12                             132   -0.38 9  147 258 
 PTB  HZ I        23 7 33.03        26.3 0.14            132            147 258 
 SPBC HZ EP       23 7 12.27                             129    0.14 9  163 218 
 SPBC HN ES       23 7 34.63                             129    0.25 9  163 218 
 SPBC HZ I        23 7 38.84        68.9 0.40            130            163 218 
 ZAR  HZ EP       23 7 15.83                             123   -0.10 9  203 292 
 ZAR  HN ES       23 7 41.44                             123    0.30 9  203 292 
 ZAR  HZ I        23 7 47.68        12.0 0.28            123            203 292 
 NOR  HZ EP       23 7 19.26                             118   -0.05 8  234 234 
 NOR  HN ES       23 7 47.48                             118    0.31 8  234 234 
 NOR  HZ I        23 7 50.66        15.8 0.20            119            234 234 
 CHI  HZ EP       23 7 21.20                             117   -0.19 8  249 195 
 CHI  HN ES       23 7 50.57                             117   -0.28 8  249 195 
 CHI  HZ I        23 7 54.08        13.8 0.54            118            249 195 
 GUY2CHZ EP   4   23 7 28.49                             112    1.30 0  301 235 
 GUY2CHE ES       23 8  1.23                             112    0.05 7  301 235 
 GUY2CHZ I        23 8  9.48        10.4 0.34                           301 235 
 ORTC HZ EP       23 7 37.44                             106   -0.11 6  396 216 
 ORTC HN ES       23 8 20.47                             106    0.84 6  396 216 
 ORTC HZ I        23 8 24.19         7.0 0.36            107            396 216 
 CRJC HZ EP   9   23 7 43.55                             103   -2.45 0  467   4 
 CRJC HE ES       23 8 32.23                                    0.01 5  467   4 
 CRJC HZ I        23 8 36.69         9.3 0.40            104            467   4 
                                                                                
