 2017  227 2138 30.2 L   6.519 -73.589115.1  RSN  6 0.4 1.6LRSN                1
 GAP= 92        0.97       4.4     3.6  6.9 -0.1186E+01  0.4737E+01  0.5122E+01E
 Epicentro: SANTA HELENA DEL OPON - SANTANDER                                  3
 ACTION:UPD 17-05-24 15:41 OP:jn   STATUS:               ID:20170227213830 L   I
 OLDACT:REG 17-02-28 03:31 OP:cog  STATUS:               ID:20170227213744     3
 2017-02-27-2138-00M.COL___376                                                 6
 STAT SP IPHASW D HRMM SECON CODA AMPLIT PERI AZIMU VELO AIN AR TRES W  DIS CAZ7
 BAR2 EZ EP       2138 47.17                             157    0.2210 45.7  80 
 BAR2 EZ ES       2138 59.66                             157   -0.3910 45.7  80 
 BRR  HZ EP       2138 47.99                             148    0.2110 66.4 348 
 BRR  HN ES       2139  2.01                             148    0.4910 66.4 348 
 BRR  HZ I        2139 12.16        13.5 0.36            147           66.4 348 
 RUS  HZ EP       2138 50.42                             140    0.3110 89.0 141 
 RUS  HN ES       2139  5.64                             140   -0.0210 89.0 141 
 RUS  HZ I        2139  6.52         4.3 0.16            148           89.0 141 
 PTB  HZ EP       2138 50.02                             137    0.0210 95.9 271 
 PTB  HN ES       2139  4.94                             137   -0.5410 95.9 271 
 PTB  HZ I        2139  6.14        11.8 0.28            140           95.9 271 
 PAM  EZ EP       2138 53.73                             127   -0.3410  134  47 
 PAM  EN ES   4   2139 11.33                             127   -1.38 0  134  47 
 PAM  EZ I        2139 15.89         8.5 0.38            131            134  47 
 NOR  HZ EP       2138 57.37                             119   -0.53 9  177 233 
 NOR  HN ES       2139 20.07                             119    0.53 9  177 233 
 NOR  HZ I        2139 22.99         4.8 0.36            124            177 233 
                                                                                
