 2010  727 2210  5.8 L   6.810 -73.157144.0  RSN  4 0.2 1.4LRSN                1
 GAP=157        0.51       4.1     7.1  8.1 -0.7249E+01 -0.2303E+02  0.2696E+01E
 Epicentro: LOS SANTOS - SANTANDER                                             3
 ACTION:UPD 10-12-01 15:20 OP:pat  STATUS:               ID:20100727221005 L   I
 2010-07-27-2206-54S.COL___122                                                 6
 STAT SP IPHASW D HRMM SECON CODA AMPLIT PERI AZIMU VELO AIN AR TRES W  DIS CAZ7
 BRR  HZ EP   1   2210 26.83                             153     0.1 7   70 298 
 BRR  HE ES   1   2210 42.93                             153     0.0 7   70 298 
 RUS  HZ EP   2   2210 29.90                             143     0.4 5  102 175 
 RUS  HN ES   2   2210 47.73                             143    -0.2 5  102 175 
 RUS  HZ I        2210 48.92         5.7 0.20                           102 175 
 GUE  SZ EP   1   2210 29.98                             139    -0.3 7  116  13 
 GUE  SZ I        2210 50.79         1.9 0.15                           116  13 
 GRA  SZ EP   2   2210 30.83                             137     0.0 5  125  18 
 GRA  SZ ES   1   2210 50.58                             137     0.2 7  125  18 
 GRA  SZ I        2210 51.57         6.1 0.25                           125  18 
                                                                                
