 2010  627 2129 25.4 L   6.784 -73.034139.9  RSN 12 0.5 2.0LRSN                1
 GAP=169        1.00       4.0     7.4  7.3 -0.1013E+02  0.6227E+01 -0.2239E+00E
 Epicentro: CEPITA - SANTANDER                                                 3
 ACTION:UP  10-08-24 10:13 OP:vdl  STATUS:               ID:20100627212925 L   I
 2010-06-27-2126-52S.COL___118                                                 6
 STAT SP IPHASW D HRMM SECON CODA AMPLIT PERI AZIMU VELO SNR AR TRES W  DIS CAZ7
 BAR2 SZ EP       2129 44.25                             169    -0.110   27 218 
 BAR2 SZ ES   1   2129 58.64                             169    -0.6 7   27 218 
 BRR  HZ IP     C 2129 46.11                             148    -0.510   83 296 
 BRR  HE ES   1   2130  3.33                             148     0.1 7   83 296 
 BRR  HZ I        2130  6.89        28.4 0.30                            83 296 
 RUS  HZ EP   1   2129 48.32                             143    -0.1 7   99 183 
 RUS  HE ES   1   2130  7.06                             143     0.7 7   99 183 
 RUS  HZ I        2130  8.12        11.9 0.47                            99 183 
 BRI  SZ EP       2129 48.83                             141     0.310  106  14 
 GUE  SZ EP   1   2129 49.52                             138     0.0 7  116   6 
 GRA  SZ EP   2   2129 49.88                             136    -0.1 5  124  12 
 OCA  SZ EP       2129 53.38                             127    -0.2 9  164 349 
 OCA  SZ ES   1   2130 16.42                             127     0.8 7  164 349 
 OCA  SZ I        2130 24.49        10.5 0.16                           164 349 
 CHI  HZ EP   2   2130  1.99                             116    -1.0 4  250 198 
 CHI  HE ES   2   2130 32.19                             116    -0.1 4  250 198 
 CHI  HZ I        2130 37.02         4.8 0.33                           250 198 
 ROSC BZ EP   1   2130  4.64                             115     0.9 6  258 214 
 ROSC BN ES   2   2130 32.99                             115    -0.7 4  258 214 
 ROSC BZ I        2130 38.84         9.2 0.39                           258 214 
 HEL  HZ EP   1   2130  6.49                             112    -0.1 6  284 257 
 HEL  HN ES   2   2130 38.05                             112    -0.7 4  284 257 
 HEL  HZ I        2130 43.37         4.7 0.26                           284 257 
 RREF HZ EP   1   2130 12.84                             109     0.6 5  330 231 
 RREF HN ES   1   2130 49.44                             109     0.7 5  330 231 
 RREF HZ I        2130 54.99         6.4 0.26                           330 231 
 PRA  HZ EP   1   2130 18.77                             105    -0.5 4  397 211 
 PRA  HN ES   2   2131  2.09                             105     0.8 3  397 211 
 PRA  HZ I        2131  4.08         5.4 0.57                           397 211 
                                                                                
