 2017  627 2351 40.1 L   6.781 -73.139150.3  RSN  9 0.4 1.8LRSN                1
 GAP=211        1.02       5.5     5.0  6.7  0.4355E+01 -0.4124E+01  0.9894E+01E
 Epicentro: LOS SANTOS - SANTANDER                                             3
 ACTION:UPD 17-09-14 16:55 OP:jn   STATUS:               ID:20170627235140 L   I
 OLDACT:REG 17-06-28 03:40 OP:lv   STATUS:               ID:20170627234738     3
 2017-06-27-2348-00M.COL___364                                                 6
 STAT SP IPHASW D HRMM SECON CODA AMPLIT PERI AZIMU VELO AIN AR TRES W  DIS CAZ7
 BAR2 EZ ES       2352 15.58                             172   -0.3810 21.4 193 
 BAR2 EZ I        2352 16.78        12.1 0.07            172           21.4 193 
 BRR  HZ EP       2352  2.12                             153    0.2710 72.8 300 
 BRR  HN ES       2352 19.42                             153    0.6210 72.8 300 
 BRR  HZ I        2352 23.06        12.9 0.07            150           72.8 300 
 PTB  HZ EP       2352  7.02                             133   -0.46 9  148 260 
 PTB  HN ES       2352 28.26                             133   -0.57 9  148 260 
 PTB  HZ I        2352 35.16         4.8 0.09            132            148 260 
 SPBC HZ EP       2352  8.83                             130   -0.03 9  162 220 
 SPBC HN ES       2352 31.25                             130   -0.02 9  162 220 
 YPLC HZ EP       2352 10.48                             128    0.45 9  175 151 
 ZAR  HZ EP   2   2352 12.86                             123   -0.15 4  206 293 
 ZAR  HN ES       2352 38.35                             123   -0.32 8  206 293 
 ZAR  HZ I        2352 43.98         8.4 0.27            123            206 293 
 NOR  HZ EP       2352 16.58                             119    0.54 8  234 235 
 NOR  HN ES       2352 44.57                             119    0.50 8  234 235 
 GUY2CHZ EP   9   2352 25.55                             113    1.68 0  301 235 
 GUY2CHN ES       2353  0.01                                    0.34 7  301 235 
 GUY2CHZ I        2353  6.86         5.1 0.44                           301 235 
 PTGC HZ EP       2352 23.22                             113   -0.71 7  306 159 
 PTGC HN ES   4   2352 56.03                             113   -2.07 0  306 159 
 CBOC HZ EP   4   2352 28.73                             111    1.50 0  334 252 
 SJC  HZ EP   4   2352 33.95                             106   -2.13 0  411 327 
 SJC  HN ES   4   2353 15.85                             106   -3.89 0  411 327 
                                                                                
