 2013 1027 2048 42.3 L   6.471 -73.668 40.1  RSN  6 0.4 1.3LRSN                1
 GAP= 98        0.89       3.6     3.3  8.3  0.2029E+01  0.6300E+01  0.8174E+01E
 Epicentro: SANTA HELENA DEL OPON - SANTANDER                                  3
 ACTION:UPD 13-11-25 09:24 OP:ep   STATUS:               ID:20131027204842 L   I
 OLDACT:UP  13-10-28 03:09 OP:mh   STATUS:               ID:20131027204737     3
 OLDACT:REG 13-10-28 03:06 OP:mh   STATUS:               ID:20131027204737     3
 2013-10-27-2047-37M.COL___230                                                 6
 STAT SP IPHASW D HRMM SECON CODA AMPLIT PERI AZIMU VELO AIN AR TRES W  DIS CAZ7
 BAR2 SZ EP   1   2048 57.61                             147    0.32 7 55.4  76 
 BRR  HZ EP       2048 57.85                             140   -0.2410 70.5 356 
 BRR  HN ES       2049 10.81                             140    0.4510 70.5 356 
 BRR  HZ I        2049 22.85         8.1 0.21            144           70.5 356 
 PTB  HZ EP   1   2048 58.53                             133   -1.04 7 87.5 275 
 PTB  HN ES       2049 12.85                             133   -0.1610 87.5 275 
 PTB  HZ I        2049 15.23         6.7 0.14            140           87.5 275 
 RUS  HZ EP       2049  0.45                             133   -0.0910 91.0 135 
 RUS  HN ES       2049 14.68                             133   -0.0510 91.0 135 
 RUS  HZ I        2049 16.16         3.6 0.22            145           91.0 135 
 NOR  HZ EP       2049  7.95                             115    0.04 9  167 233 
 NOR  HN ES       2049 28.36                             115    0.52 9  167 233 
 NOR  HZ I        2049 30.89         4.5 0.27            123            167 233 
 ZAR  HZ EP   1   2049  8.64                             114    0.02 7  173 311 
 ZAR  HN ES   2   2049 29.23                             114    0.12 4  173 311 
 ZAR  HZ I        2049 32.84         9.8 0.20            119            173 311 
                                                                                
