 2012  527 2044 10.6 L   6.785 -73.184144.3  RSN  5 0.2 1.7LRSN                1
 GAP=132        0.52       4.5     3.4  5.9  0.9695E+00  0.1173E+01 -0.9105E+01E
 Epicentro: LOS SANTOS - SANTANDER                                             3
 ACTION:UP  12-07-05 12:08 OP:pat  STATUS:               ID:20120527204410 L   I
 2012-05-27-2040-00M.COL___198                                                 6
 STAT SP IPHASW D HRMM SECON CODA AMPLIT PERI AZIMU VELO SNR AR TRES W  DIS CAZ7
 BAR2 SZ EP       2044 30.09                             171     0.110   21 180 
 BAR2 SZ ES   1   2044 44.99                             171    -0.1 7   21 180 
 BAR2 SZ I        2044 46.59        13.5 0.30                            21 180 
 PAM  SZ EP       2044 32.90                             149     0.010   81  41 
 RUS  HZ EP       2044 34.24                             144     0.110   99 174 
 RUS  HN ES   1   2044 52.30                             144    -0.1 7   99 174 
 RUS  HZ I        2044 53.95         6.7 0.60                            99 174 
 PTB  HZ EP       2044 36.71                             133    -0.3 9  143 259 
 PTB  HN ES   1   2044 57.92                             133     0.3 7  143 259 
 PTB  HZ I        2045  0.08         6.5 0.36                           143 259 
 ZAR  HN ES   2   2045  7.62                             122     0.1 4  201 293 
                                                                                
