 2010  627 2025 33.5 L   6.797 -73.084144.0  RSN  5 0.2 1.5LRSN                1
 GAP=163        0.58       4.9     9.0  8.8  0.1858E+02 -0.4330E+02 -0.2236E+02E
 Epicentro: LOS SANTOS - SANTANDER                                             3
 ACTION:UP  10-08-24 10:13 OP:vdl  STATUS:               ID:20100627202533 L   I
 2010-06-27-2021-56S.COL___118                                                 6
 STAT SP IPHASW D HRMM SECON CODA AMPLIT PERI AZIMU VELO SNR AR TRES W  DIS CAZ7
 BAR2 SZ ES   2   2026  7.82                             170    -0.3 5   25 206 
 BRR  HZ IP     D 2025 54.77                             150    -0.110   78 296 
 BRR  HZ I        2025 54.95        11.7 0.18                            78 296 
 BRR  HN ES   1   2026 11.65                             150     0.2 7   78 296 
 RUS  HZ EP   1   2025 56.94                             144    -0.1 7  100 180 
 RUS  HE ES   1   2026 15.58                             144     0.2 7  100 180 
 RUS  HZ I        2026 17.07         2.9 0.19                           100 180 
 BRI  SZ EP   1   2025 57.51                             142     0.4 7  107  17 
 GUE  SZ EP   1   2025 57.67                             139    -0.3 7  116   9 
                                                                                
