 2017  727 2310 38.1 L   6.783 -73.151142.0  RSN 14 0.5 2.1LRSN                1
 GAP=112        1.21       3.7     3.9  6.2  0.6686E+00  0.6429E+01  0.7080E+01E
 Epicentro: LOS SANTOS - SANTANDER                                             3
 ACTION:UPD 17-08-30 15:37 OP:rebc STATUS:               ID:20170727231038 L   I
 OLDACT:REG 17-07-28 02:57 OP:lv   STATUS:               ID:20170727230739     3
 2017-07-27-2308-00M.COL___383                                                 6
 STAT SP IPHASW D HRMM SECON CODA AMPLIT PERI AZIMU VELO AIN AR TRES W  DIS CAZ7
 BAR2 EZ EP       2310 57.09                             171   -0.1910 21.4 189 
 BAR2 EZ ES       2311 12.64                             171    0.4310 21.4 189 
 BAR2 EZ I        2311 15.05        21.9 0.15            170           21.4 189 
 BRR  HZ EP       2310 58.80                             152   -0.1010 71.6 300 
 BRR  HN ES       2311 15.98                             152    0.8810 71.6 300 
 BRR  HZ I        2311 18.58        17.6 0.10            153           71.6 300 
 PAM  EZ EP       2311  0.00                             150   -0.0610 79.2  39 
 PAM  EE ES       2311 16.69                             150   -0.4710 79.2  39 
 PAM  EZ I        2311 19.58        23.9 0.62            153           79.2  39 
 RUS  HZ EP       2311  1.08                             144   -0.3110 98.8 176 
 RUS  HN ES       2311 19.77                             144    0.2410 98.8 176 
 RUS  HZ I        2311 21.26        22.5 0.22            145           98.8 176 
 PTB  HZ EP       2311  4.20                             131   -0.52 9  147 259 
 PTB  HN ES       2311 24.92                             131   -0.53 9  147 259 
 PTB  HZ I        2311 27.51         5.9 0.08            133            147 259 
 SPBC HZ EP       2311  6.23                             129    0.05 9  161 219 
 SPBC HN ES       2311 27.86                             129   -0.19 9  161 219 
 SPBC HZ I        2311 30.80        19.0 0.08            130            161 219 
 YPLC HZ IP     C 2311  7.45                             126   -0.08 9  175 151 
 YPLC HN ES       2311 30.58                             126    0.12 9  175 151 
 YPLC HZ I        2311 32.66        11.9 0.21            128            175 151 
 ZAR  HZ EP       2311 10.39                             122    0.03 9  204 293 
 ZAR  HN ES       2311 35.58                             122    0.09 9  204 293 
 ZAR  HZ I        2311 40.41        10.1 0.08            123            204 293 
 NOR  HZ EP       2311 13.55                             118    0.06 8  233 235 
 NOR  HN ES       2311 40.43                             118   -0.63 8  233 235 
 NOR  HZ I        2311 43.96         8.8 0.16            119            233 235 
 CHI  HZ EP       2311 15.38                             117   -0.04 8  247 195 
 CHI  HN ES       2311 44.56                             117    0.06 8  247 195 
 CHI  HZ I        2311 50.55         7.2 0.47            118            247 195 
 GUY2CHZ EP       2311 23.50                             112    2.10 7  300 235 
 GUY2CHN ES       2311 54.65                             112   -0.50 7  300 235 
 GUY2CHZ I        2312  3.31         5.3 0.11                           300 235 
 PTGC HZ EP   4   2311 20.25                             111   -1.41 0  307 158 
 PTGC HN ES   4   2311 52.74                             111   -2.86 0  307 158 
 DBB  EN ES   4   2312  0.61                             109   -1.68 0  339 275 
 PRA  HZ EP       2311 31.03                             106   -0.28 6  390 210 
 PRA  HN ES       2312 12.47                             106   -0.32 6  390 210 
 PRA  HZ I        2312 19.55         9.1 0.21            107            390 210 
 ORTC HN ES       2312 14.28                             106    0.77 6  394 216 
 SJC  HZ EP   4   2311 31.34                             105   -2.38 0  410 327 
 SJC  HN ES   4   2312 12.75                             105   -4.33 0  410 327 
 SJC  HZ I        2312 17.07         2.3 0.36            107            410 327 
                                                                                
