 2012 1027 2318 20.0 L   6.766 -73.111144.0  RSN  7 0.1 2.1LRSN                1
 GAP=125        0.36       2.2     3.4  3.5 -0.2117E+00 -0.5364E+00  0.1072E+01E
 Epicentro: LOS SANTOS - SANTANDER                                             3
 ACTION:UPD 12-11-22 17:06 OP:ep   STATUS:               ID:20121027231819 L   I
 2012-10-27-2310-00M.COL___231                                                 6
 STAT SP IPHASW D HRMM SECON CODA AMPLIT PERI AZIMU VELO AIN AR TRES W  DIS CAZ7
 BAR2 SZ EP       2318 39.24                             171   -0.0810 20.7 202 
 BAR2 SZ ES   2   2318 54.42                             171    0.00 5 20.7 202 
 BAR2 SZ I        2318 55.19        31.0 0.22                          20.7 202 
 GIR2 SZ EP       2318 39.41                             165   -0.1310 35.8 345 
 BRR  HZ EP       2318 41.20                             151   -0.0210 76.4 300 
 BRR  HN ES   1   2318 57.91                             151    0.11 7 76.4 300 
 BRR  HN I        2318 58.97        46.7 0.26                          76.4 300 
 PAM  SZ EP       2318 42.18                             150    0.1610 78.0  36 
 PAM  SZ I        2318 42.41        21.2 0.16                          78.0  36 
 PAM  SN ES   1   2318 59.22                             150   -0.01 7 78.0  36 
 RUS  HZ EP       2318 43.10                             145   -0.1410 96.6 178 
 RUS  HN ES   1   2319  1.57                             145    0.16 7 96.6 178 
 RUS  HN I        2319  3.13        31.8 0.30                          96.6 178 
 AGZ  SZ EP   3   2318 53.23                             121   -0.15 2  215 161 
 CHI  HZ EP   2   2318 57.68                             117    0.41 4  246 196 
 CHI  HN I        2319 26.85         3.0 0.28                           246 196 
                                                                                
