 2017  727 2308 23.7 L   6.770 -73.154144.4  RSN  4 0.3 1.1LRSN                1
 GAP=234        0.90       7.1     6.8  7.2  0.2427E+02  0.4413E+01  0.8159E+00E
 Epicentro: LOS SANTOS - SANTANDER                                             3
 ACTION:UPD 17-08-30 15:37 OP:rebc STATUS:               ID:20170727230823 L   I
 OLDACT:REG 17-07-28 02:56 OP:lv   STATUS:               ID:20170727225738     3
 2017-07-27-2258-00M.COL___383                                                 6
 STAT SP IPHASW D HRMM SECON CODA AMPLIT PERI AZIMU VELO AIN AR TRES W  DIS CAZ7
 BAR2 EZ EP       23 8 42.71                             172   -0.4010 19.9 189 
 BAR2 EZ ES       23 8 57.89                             172   -0.3510 19.9 189 
 BAR2 EZ I        23 8 59.50         4.3 0.20            172           19.9 189 
 BRR  HZ EP       23 8 44.62                             152   -0.1410 72.0 301 
 BRR  HN ES       23 9  1.71                             152    0.5310 72.0 301 
 RUS  HZ EP       23 8 47.28                             144    0.1910 97.4 175 
 RUS  HN ES       23 9  5.61                             144    0.2810 97.4 175 
 PTB  HZ EP       23 8 50.70                             132    0.27 9  146 260 
 PTB  HN ES       23 9 10.87                             132   -0.39 9  146 260 
 PTB  HZ I        23 9 11.62         1.0 0.15            133            146 260 
                                                                                
