 2010  227 2136 51.2 L   6.794 -73.062142.8  RSN  7 0.5 2.0LRSN                1
 GAP=246        0.80       7.0     8.9  9.0  0.1345E+02  0.2942E+02  0.2311E+02E
 Epicentro: LOS SANTOS - SANTANDER                                             3
 ACTION:UP  10-08-24 09:51 OP:vdl  STATUS:               ID:20100227213651 L   I
 2010-02-27-2120-00S.COL___094                                                 6
 STAT SP IPHASW D HRMM SECON CODA AMPLIT PERI AZIMU VELO SNR AR TRES W  DIS CAZ7
 BAR2 SZ EP   1   2137 10.56                             169     0.0 7   26 211 
 BAR2 SZ ES   2   2137 24.67                             169    -0.9 5   26 211 
 BRR  HZ EP   1   2137 12.56                             149     0.0 7   80 296 
 BRR  HZ I        2137 14.09        26.4 0.11                            80 296 
 BRR  HN ES   2   2137 29.74                             149     0.6 5   80 296 
 RUS  BZ EP   1   2137 14.48                             143    -0.1 7  100 181 
 RUS  BZ I        2137 16.19         6.6 0.51                           100 181 
 RUS  BN ES   2   2137 33.38                             143     0.5 5  100 181 
 CHI  HZ EP   1   2137 28.94                             116     0.0 6  251 197 
 CHI  HZ I        2137 31.34         3.4 0.47                           251 197 
 CHI  HN ES   2   2137 59.00                             116     0.6 4  251 197 
 HEL  HZ EP   1   2137 31.72                             113    -0.5 6  281 256 
 HEL  HN ES   2   2138  4.64                             113     0.4 4  281 256 
 HEL  HZ I        2138  9.81         6.2 0.30                           281 256 
 RREF BZ EP   1   2137 38.74                             110     0.8 5  328 231 
 RREF BN ES   2   2138 13.60                             110    -0.9 3  328 231 
 RREF BZ I        2138 21.66         6.4 0.21                           328 231 
 PRA  HZ EP   1   2137 45.08                             106     0.0 4  396 211 
 PRA  HN ES   2   2138 26.38                             106    -0.8 3  396 211 
 PRA  HZ I        2138 31.97         4.1 0.24                           396 211 
                                                                                
