 2016  227 2032 54.0 L   6.809 -73.174140.0  RSN  8 0.3 1.7LRSN                1
 GAP=133        0.78       3.1     3.3  5.2 -0.1245E+01  0.5815E+01  0.2770E+01E
 Epicentro: LOS SANTOS - SANTANDER                                             3
 ACTION:UPD 16-03-04 21:30 OP:rebc STATUS:               ID:20160227203254 L   I
 OLDACT:REG 16-02-28 03:14 OP:cara STATUS:               ID:20160227202749     3
 2016-02-27-2027-49M.COL___316                                                 6
 STAT SP IPHASW D HRMM SECON CODA AMPLIT PERI AZIMU VELO AIN AR TRES W  DIS CAZ7
 BAR2 EZ ES       2033 27.42                             170   -0.2910 24.0 182 
 BAR2 EZ I        2033 28.92        14.4 0.28            170           24.0 182 
 PAM  EZ EP     D 2033 15.76                             149    0.1110 78.6  42 
 PAM  EN ES       2033 32.85                             149    0.2810 78.6  42 
 PAM  EZ I        2033 34.13         5.4 0.34            154           78.6  42 
 RUS  HZ EP       2033 17.11                             142   -0.1510  102 174 
 RUS  HE ES       2033 35.35                             142   -0.0710  102 174 
 RUS  HZ I        2033 38.27         4.7 0.34            145            102 174 
 PTB  HZ EP       2033 19.51                             131   -0.70 9  145 258 
 PTB  HN ES       2033 40.43                             131   -0.25 9  145 258 
 PTB  HZ I        2033 45.67         6.7 0.50            132            145 258 
 SPBC HZ EP       2033 21.78                             128   -0.14 9  162 218 
 SPBC HN ES       2033 44.24                             128    0.51 9  162 218 
 SPBC HZ I        2033 48.78         9.4 0.14            129            162 218 
 ZAR  HN ES       2033 50.81                             121    0.36 9  201 292 
 ZAR  HZ I        2033 56.98         6.2 0.34            123            201 292 
 CHI  HZ EP       2033 31.37                             116   -0.01 8  249 194 
 CHI  HN ES       2034  0.83                             116    0.27 8  249 194 
 CHI  HZ I        2034  2.66         4.9 0.36            118            249 194 
 GUY2CHZ EP       2033 37.41                             111    0.31 7  299 234 
 GUY2CHN ES       2034 10.83                             111    0.10 7  299 234 
 GUY2CHZ I        2034 19.18         2.9 0.58                           299 234 
                                                                                
