 2010  127 2130  9.4 L   6.835 -73.033140.7  RSN  5 0.2 1.5LRSN                1
 GAP=194        0.40       2.2    15.6  5.1 -0.9409E+00  0.1669E+02 -0.2967E+00E
 Epicentro: CEPITA - SANTANDER                                                 3
 ACTION:UP  10-08-24 09:46 OP:vdl  STATUS:               ID:20100127213009 L   I
 2010-01-27-2128-10S.COL___103                                                 6
 STAT SP IPHASW D HRMM SECON CODA AMPLIT PERI AZIMU VELO SNR AR TRES W  DIS CAZ7
 BAR2 SZ ES   2   2130 43.44                             167    -0.2 5   32 212 
 GIR2 SZ EP   2   2130 28.80                             167     0.3 5   32 327 
 RUS  BZ EP       2130 33.10                             142     0.110  104 183 
 RUS  BE ES   2   2130 51.15                             142    -0.2 5  104 183 
 RUS  BZ I        2130 54.75         3.9 0.35                           104 183 
 OCA  SZ EP       2130 37.06                             129    -0.1 9  158 349 
 OCA  SZ ES   2   2130 58.90                             129     0.1 5  158 349 
 CHI  HZ EP       2130 47.46                             115    -0.2 8  256 198 
 CHI  HN ES   2   2131 17.66                             115     0.2 4  256 198 
 CHI  HZ I        2131 22.39         2.5 0.56                           256 198 
                                                                                
