 2013 1227 2122 40.5 L   6.522 -73.583109.6  RSN  8 0.5 1.8LRSN                1
 GAP= 92        1.20       4.1     5.1  8.2  0.2729E+01  0.1089E+02 -0.3966E+01E
 Epicentro: EL CARMEN DE CHUCURI - SANTANDER                                   3
 ACTION:UPD 14-01-13 10:21 OP:ep   STATUS:               ID:20131227212240 L   I
 OLDACT:REG 13-12-27 21:44 OP:cma  STATUS:               ID:20131227212000     3
 2013-12-27-2120-00M.COL___285                                                 6
 STAT SP IPHASW D HRMM SECON CODA AMPLIT PERI AZIMU VELO AIN AR TRES W  DIS CAZ7
 BAR2 SZ IP     D 2122 56.61                             156   -0.0510 44.9  80 
 BAR2 SZ ES       2123  9.20                             156   -0.0410 44.9  80 
 BAR2 SZ I        2123 10.71        66.0 0.44            163           44.9  80 
 BRR  HZ EP       2122 57.48                             146   -0.0810 66.2 348 
 BRR  HE ES       2123 11.41                             146    0.5610 66.2 348 
 BRR  HZ I        2123 23.98         8.0 0.42            149           66.2 348 
 RUS  HZ EP       2122 59.59                             138   -0.3610 88.9 142 
 RUS  HN ES       2123 14.94                             138   -0.1510 88.9 142 
 RUS  HZ I        2123 15.49         6.7 0.22            149           88.9 142 
 PTB  HZ EP       2122 59.40                             135   -0.5410 96.6 271 
 PTB  HN ES       2123 14.22                             135   -0.8510 96.6 271 
 PTB  HZ I        2123 15.95        12.4 0.16            139           96.6 271 
 SPBC HZ EP   1   2123  1.33                             131    0.07 7  110 209 
 SPBC HN ES       2123 18.27                             131    0.8310  110 209 
 SPBC HZ I        2123 25.00        14.5 0.18            139            110 209 
 ZAR  HZ EP       2123  8.76                             117    0.83 9  177 307 
 CHI  HZ EP   2   2123 12.53                             113    0.44 4  210 185 
 SML  HZ EP   2   2123 16.68                             107   -0.36 4  258 348 
 SML  HN ES       2123 45.50                             107   -0.01 8  258 348 
 SML  HZ I        2123 50.26        10.2 0.24            113            258 348 
                                                                                
