 2011  527 2130 35.6 L   6.803 -73.099141.4  RSN 16 0.4 2.4LRSN                1
 GAP=142        0.93       3.5     6.0  5.1 -0.8324E+01  0.4495E+01  0.4768E+01E
 Epicentro: LOS SANTOS - SANTANDER                                             3
 ACTION:UP  11-06-29 08:56 OP:tino STATUS:               ID:20110527213035 L   I
 2011-05-27-2128-26S.COL___115                                                 6
 STAT SP IPHASW D HRMM SECON CODA AMPLIT PERI AZIMU VELO SNR AR TRES W  DIS CAZ7
 BTL  SZ EP       2130 54.98                             171     0.310   23 304 
 BTL  SZ ES   1   2131  8.99                             171    -0.6 7   23 304 
 BAR2 SZ IP       2130 54.89                             169     0.210   25 202 
 BAR2 SZ ES   1   2131 10.00                             169     0.3 7   25 202 
 BAR2 SZ I        2131 13.46        52.7 0.27                            25 202 
 GIR2 SZ EP       2130 54.66                             167    -0.110   32 341 
 GIR2 SZ ES   2   2131  9.78                             167     0.0 5   32 341 
 PAM  SZ IP       2130 57.61                             151     0.510   74  37 
 PAM  SN ES   1   2131 14.14                             151     0.2 7   74  37 
 BRR  HZ EP       2130 56.41                             150    -0.110   76 296 
 BRR  HN ES   1   2131 13.16                             150     0.3 7   76 296 
 BRR  HZ I        2131 15.36        74.6 0.13                            76 296 
 RUS  HZ EP       2130 59.07                             143     0.110  101 179 
 RUS  HZ I        2130 59.70        15.4 0.14                           101 179 
 RUS  HN ES   1   2131 16.58                             143    -0.5 7  101 179 
 BRI  SZ EP       2130 58.99                             141     0.110  106  18 
 BRI  SZ ES   1   2131 17.49                             141     0.4 7  106  18 
 GRA  SZ IP       2131  0.30                             136     0.010  124  15 
 GRA  SZ ES   1   2131 18.94                             136    -0.6 7  124  15 
 GRA  SZ I        2131 20.47        39.1 0.41                           124  15 
 OCA  SZ EP   2   2131  3.15                             128    -0.5 5  161 351 
 OCA  SZ ES   1   2131 24.63                             128    -0.8 7  161 351 
 OCA  SZ I        2131 29.96        51.1 0.30                           161 351 
 NOR  SZ EP   2   2131 11.43                             117    -0.1 4  239 235 
 NOR  SN ES   2   2131 39.22                             117    -0.4 4  239 235 
 HEL  HZ EP       2131 16.33                             113     0.2 7  277 256 
 VIL  SZ EP       2131 18.58                             111    -0.4 7  305 193 
 GUY  SZ EP   3   2131 20.64                             111     0.9 2  308 236 
 TOL  SZ EP       2131 25.30                             108     1.2 6  347 225 
 PRA  HZ EP       2131 28.79                             105    -0.5 6  395 210 
 PRA  HN ES   2   2132 11.13                             105    -0.1 3  395 210 
 SJA  SZ EP       2131 29.32                             105    -0.9 6  402 194 
                                                                                
