 2012  527 2332 43.5 L   6.776 -73.164138.9  RSN  5 0.4 1.7LRSN                1
 GAP=135        0.85       5.8     6.1  8.7 -0.6304E+01  0.1813E+02 -0.4566E+01E
 Epicentro: LOS SANTOS - SANTANDER                                             3
 ACTION:UP  12-07-05 12:08 OP:pat  STATUS:               ID:20120527233243 L   I
 2012-05-27-2330-00M.COL___198                                                 6
 STAT SP IPHASW D HRMM SECON CODA AMPLIT PERI AZIMU VELO SNR AR TRES W  DIS CAZ7
 BAR2 SZ EP       2333  2.37                             171     0.110   20 186 
 BAR2 SZ I        2333  2.53        18.7 0.40                            20 186 
 BAR2 SZ ES   1   2333 16.37                             171    -0.5 7   20 186 
 PAM  SZ EP       2333  5.32                             148     0.110   81  39 
 PAM  SN ES   1   2333 22.18                             148     0.0 7   81  39 
 RUS  HZ EP       2333  6.40                             143     0.010   98 175 
 RUS  HE ES   1   2333 24.77                             143     0.5 7   98 175 
 RUS  HZ I        2333 25.76         3.6 0.24                            98 175 
 PTB  HZ EP       2333  9.36                             131    -0.4 9  145 260 
 PTB  HN ES   2   2333 30.26                             131     0.1 5  145 260 
 PTB  HZ I        2333 32.37         5.8 0.24                           145 260 
 ZAR  HE ES   2   2333 41.38                             121     1.0 4  203 293 
 ZAR  HZ I        2333 46.68         6.4 0.28                           203 293 
                                                                                
