 2015 1027 2038 12.2 L   6.816 -73.124145.4  RSN 17 0.4 2.5LRSN                1
 GAP= 72        1.05       2.8     3.5  5.0 -0.1577E+01  0.5011E+01  0.2184E+01E
 Epicentro: LOS SANTOS - SANTANDER                                             3
 ACTION:UPD 15-12-22 20:43 OP:cam  STATUS:               ID:20151027203812 L   I
 OLDACT:UP  15-11-01 03:32 OP:DRIO STATUS:               ID:20151027203812 L   3
 OLDACT:REG 15-10-28 03:22 OP:drio STATUS:               ID:20151027202750     3
 2015-10-27-2027-50M.COL___313                                                 6
 STAT SP IPHASW D HRMM SECON CODA AMPLIT PERI AZIMU VELO AIN AR TRES W  DIS CAZ7
 BAR2 EZ EP       2038 31.96                             170    0.0910 25.5 195 
 BAR2 EZ ES       2038 46.78                             170   -0.4010 25.5 195 
 BAR2 EZ I        2038 49.46        77.8 0.22            167           25.5 195 
 BRR  HZ EP       2038 33.90                             152    0.4810 72.5 296 
 BRR  HN ES       2038 50.80                             152    0.8610 72.5 296 
 BRR  HZ I        2038 54.64        39.7 0.14            148           72.5 296 
 PAM  EZ EP     D 2038 34.68                             152    0.4310 74.6  39 
 PAM  EN ES       2038 51.25                             152   -0.1710 74.6  39 
 PAM  EZ I        2038 54.10        45.4 0.68            156           74.6  39 
 RUS  HZ EP       2038 36.00                             143   -0.0610  102 177 
 RUS  HN ES       2038 54.65                             143   -0.0010  102 177 
 RUS  HZ I        2038 56.62        29.9 0.34            146            102 177 
 TAM  HZ IP     D 2038 40.16                             131    0.45 9  153 106 
 TAM  HN ES   4   2038 59.08                             131   -2.07 0  153 106 
 OCA  HZ EP       2038 39.94                             130   -0.44 9  159 352 
 OCA  HN ES       2039  1.61                             130   -0.73 9  159 352 
 OCA  HZ I        2039  5.85        74.3 0.20            131            159 352 
 SPBC HZ EP       2038 40.87                             128   -0.10 9  166 219 
 SPBC HN ES   4   2039  1.90                             128   -1.49 0  166 219 
 SPBC HZ I        2039  8.69        64.6 0.36            129            166 219 
 ZAR  HZ EP       2038 44.58                             122   -0.23 8  206 291 
 ZAR  HN ES       2039 10.14                             122   -0.09 8  206 291 
 ZAR  HZ I        2039 16.20        22.2 0.24            122            206 291 
 NOR  HZ EP       2038 48.02                             118   -0.23 8  238 234 
 NOR  HE ES       2039 16.21                             118   -0.14 8  238 234 
 NOR  HZ I        2039 23.73        26.6 0.16            119            238 234 
 SML  HZ EP       2038 48.41                             117   -0.37 8  243 335 
 SML  HE ES   4   2039 17.23                             117   -0.05 0  243 335 
 SML  HZ I        2039 21.16        48.2 0.10            119            243 335 
 CHI  HZ EP       2038 50.03                             117   -0.13 8  251 196 
 CHI  HN ES       2039 19.37                             117   -0.37 8  251 196 
 CHI  HZ I        2039 22.48        10.5 0.26            119            251 196 
 ROSC BZ EP       2038 51.28                             116    0.65 8  255 211 
 ROSC BE ES       2039 20.22                             116   -0.35 8  255 211 
 ROSC BZ I        2039 27.66        30.2 0.40            118            255 211 
 HEL  HZ EP       2038 52.73                             114    0.00 8  275 256 
 HEL  HN ES       2039 24.86                             114    0.55 8  275 256 
 HEL  HZ I        2039 31.80        21.5 0.26            115            275 256 
 GUY2CHZ EP       2038 57.19                             112    1.04 7  304 235 
 GUY2CHN ES       2039 29.78                             112   -0.63 7  304 235 
 GUY2CHZ I        2039 38.47        24.1 0.34                           304 235 
 PTGC HZ EP   4   2038 55.24                             111   -0.92 0  309 159 
 PTGC HE ES   4   2039 28.10                             111   -2.32 0  309 159 
 ELA  HZ EP       2038 59.72                             110    0.32 7  332 230 
 ELA  HN ES       2039 35.63                             110   -0.56 7  332 230 
 ELA  HZ I        2039 45.45        10.1 0.24            111            332 230 
 DBB  SZ EP       2038 59.70                             109   -0.25 7  342 274 
 DBB  SZ ES   4   2039 35.74                             109   -1.43 0  342 274 
 DBB  SZ I        2039 43.09        38.1 0.34            110            342 274 
 MON  HZ EP   9   2038 58.32                             108   -2.99 0  354 308 
 MON  HE ES       2039 37.48                             108    0.88 6  354 308 
 MON  HZ I        2039 52.29         5.1 0.68            109            354 308 
                                                                                
