 2011  827 2013 49.5 L   6.782 -73.129139.8  RSN  4 0.3 1.5LRSN                1
 GAP=189        0.66      10.1    19.5 14.3  0.1589E+03 -0.1421E+03 -0.8395E+02E
 Epicentro: LOS SANTOS - SANTANDER                                             3
 ACTION:UPD 12-07-13 15:54 OP:ep   STATUS:               ID:20110827201349 L   I
 2011-08-27-2000-00M.COL___162                                                 6
 STAT SP IPHASW D HRMM SECON CODA AMPLIT PERI AZIMU VELO AIN AR TRES W  DIS CAZ7
 BAR2 SZ EP   1   2014  8.21                             171   -0.17 7 21.8 196 
 BAR2 SZ I        2014  9.04         9.1 0.63                          21.8 196 
 GIR2 SZ EP   1   2014  8.62                             166    0.09 7 33.5 348 
 BRR  HZ EP       2014 10.43                             151    0.2710 73.8 299 
 BRR  HZ I        2014 10.99        16.1 0.56                          73.8 299 
 BRR  HE ES   2   2014 25.68                             151   -0.59 5 73.8 299 
 RUS  HZ EP   1   2014 12.09                             143   -0.43 7 98.5 177 
 RUS  HE ES   1   2014 30.76                             143    0.29 7 98.5 177 
 RUS  HZ I        2014 31.93         2.2 0.29                          98.5 177 
                                                                                
