 2016  327 2343 57.9 L   6.776 -73.143139.5  RSN  6 0.4 1.4LRSN                1
 GAP=138        0.84       3.8     4.0 10.1 -0.4447E+01  0.1739E+02 -0.4012E+01E
 Epicentro: LOS SANTOS - SANTANDER                                             3
 ACTION:UPD 16-05-13 21:28 OP:cam  STATUS:               ID:20160327234357 L   I
 OLDACT:UP  16-03-28 07:00 OP:mh   STATUS:               ID:20160327233745     3
 OLDACT:UP  16-03-28 07:00 OP:mh   STATUS:               ID:20160327233745     3
 OLDACT:REG 16-03-28 04:41 OP:mh   STATUS:               ID:20160327233745     3
 2016-03-27-2337-45M.COL___304                                                 6
 STAT SP IPHASW D HRMM SECON CODA AMPLIT PERI AZIMU VELO AIN AR TRES W  DIS CAZ7
 PAM  EZ IP     D 2344 19.56                             149    0.0110 79.3  38 
 PAM  EN ES       2344 36.21                             149   -0.2510 79.3  38 
 PAM  EZ I        2344 38.49         8.0 0.68            151           79.3  38 
 RUS  HZ EP   1   2344 21.19                             143    0.37 7 97.9 176 
 RUS  HN ES       2344 39.10                             143    0.3910 97.9 176 
 RUS  HZ I        2344 40.33         2.3 0.26            147           97.9 176 
 PTB  HZ EP   1   2344 23.89                             131   -0.43 7  148 260 
 PTB  HE ES       2344 45.05                             131    0.10 9  148 260 
 PTB  HZ I        2344 46.66         2.7 0.16            132            148 260 
 SPBC HN ES       2344 46.77                             128   -0.66 9  161 220 
 ZAR  HN ES       2344 55.52                             121    0.36 8  205 293 
 ZAR  HZ I        2345  1.45         3.3 0.17            122            205 293 
 NOR  HE ES       2345  0.67                             117    0.08 8  233 235 
 NOR  HZ I        2345  2.45         1.7 0.16            119            233 235 
                                                                                
