 2015  627 2334 49.6 L   6.831 -73.068143.2  RSN  5 0.5 2.0LRSN                1
 GAP=191        1.19       6.0    15.7  9.8  0.6043E+02 -0.5918E+02 -0.3066E+02E
 Epicentro: LOS SANTOS - SANTANDER                                             3
 ACTION:UPD 15-09-10 22:15 OP:cam  STATUS:               ID:20150627233449 L   I
 OLDACT:REG 15-06-28 06:18 OP:stll STATUS:               ID:20150627232749     3
 2015-06-27-2327-49M.COL___328                                                 6
 STAT SP IPHASW D HRMM SECON CODA AMPLIT PERI AZIMU VELO AIN AR TRES W  DIS CAZ7
 BAR2 EZ EP       2335  9.23                             168    0.2210 29.3 206 
 BAR2 EZ ES       2335 24.04                             168   -0.1510 29.3 206 
 BAR2 EZ I        2335 25.72        28.6 0.18            168           29.3 206 
 BRR  HZ EP       2335 11.29                             150    0.5010 77.4 293 
 BRR  HN ES       2335 27.76                             150    0.4010 77.4 293 
 BRR  HZ I        2335 31.34         9.6 0.14            149           77.4 293 
 RUS  HZ EP       2335 13.52                             142    0.2310  104 181 
 RUS  HE ES       2335 31.16                             142   -0.6510  104 181 
 RUS  HZ I        2335 33.14        13.6 0.30            146            104 181 
 OCA  HZ EP       2335 17.83                             129    0.37 9  158 350 
 OCA  HN ES       2335 39.43                             129    0.20 9  158 350 
 OCA  HZ I        2335 42.55        25.3 0.22            131            158 350 
 SML  HZ EP       2335 25.52                             117   -0.58 8  244 333 
 SML  HN ES       2335 53.58                             117   -1.03 8  244 333 
 SML  HZ I        2335 58.56        10.4 0.10            118            244 333 
                                                                                
