 2011 1027 2104 24.0 L   6.751 -73.103149.1  RSN  5 0.2 1.7LRSN                1
 GAP=144        0.38       2.7     3.7  3.7  0.5544E+00  0.1736E+01 -0.4856E+00E
 Epicentro: LOS SANTOS - SANTANDER                                             3
 ACTION:UPD 12-07-13 16:06 OP:ep   STATUS:               ID:20111027210424 L   I
 2011-10-27-2102-27S.COL___176                                                 6
 STAT SP IPHASW D HRMM SECON CODA AMPLIT PERI AZIMU VELO AIN AR TRES W  DIS CAZ7
 BAR2 SZ EP   1   21 4 43.83                             172   -0.11 7 19.6 207 
 BAR2 SZ ES   1   21 4 59.28                             172   -0.23 7 19.6 207 
 BAR2 SZ I        21 5  0.04        10.3 0.30                          19.6 207 
 BRR  HZ EP       21 4 45.92                             151    0.0410 78.0 300 
 BRR  HE ES   1   21 5  3.14                             151    0.18 7 78.0 300 
 BRR  HZ I        21 5  4.29        15.1 0.17                          78.0 300 
 PAM  SZ EP   1   21 4 46.84                             151    0.20 7 78.9  34 
 PAM  SE ES   1   21 5  4.21                             151   -0.10 7 78.9  34 
 RUS  HZ EP   1   21 4 47.63                             146   -0.03 7 94.9 179 
 RUS  HE ES   1   21 5  6.24                             146    0.11 7 94.9 179 
 RUS  HZ I        21 5  7.89         4.5 0.37                          94.9 179 
 ZAR  HZ EP   2   21 4 56.98                             122   -0.33 4  211 293 
 ZAR  HZ I        21 5 28.27         5.2 0.21                           211 293 
                                                                                
