 2013 1027 2008 54.3 L   6.722 -73.145148.0  RSN  8 0.4 1.4LRSN                1
 GAP=140        0.96       4.0     4.4  7.8 -0.7185E+00  0.3725E+01 -0.4919E+01E
 Epicentro: JORDAN - SANTANDER                                                 3
 ACTION:UPD 13-11-25 09:24 OP:ep   STATUS:               ID:20131027200854 L   I
 OLDACT:REG 13-10-27 22:36 OP:mh   STATUS:               ID:20131027200838     3
 2013-10-27-2008-38M.COL___227                                                 6
 STAT SP IPHASW D HRMM SECON CODA AMPLIT PERI AZIMU VELO AIN AR TRES W  DIS CAZ7
 BAR2 SZ EP   1   20 9 14.68                             174    0.60 7 14.9 196 
 BRR  HZ EP   1   20 9 16.35                             151    0.38 7 75.8 304 
 BRR  HN ES       20 9 33.16                             151    0.3110 75.8 304 
 BRR  HZ I        20 9 40.29         4.7 0.36            154           75.8 304 
 PAM  SZ EP       20 9 17.70                             149    0.5110 84.2  36 
 PAM  SN ES       20 9 34.46                             149   -0.5610 84.2  36 
 RUS  HZ EP   1   20 9 17.39                             147   -0.30 7 91.9 176 
 RUS  HN ES       20 9 35.86                             147   -0.0610 91.9 176 
 RUS  HZ I        20 9 40.39         1.4 0.32            150           91.9 176 
 PTB  HZ EP   1   20 9 21.59                             133    0.25 7  146 262 
 PTB  HN ES       20 9 42.00                             133   -0.42 9  146 262 
 PTB  HZ I        20 9 44.67         5.2 0.18            136            146 262 
 OCA  HZ EP   1   20 9 23.13                             128   -0.49 7  169 353 
 OCA  HN ES       20 9 46.68                             128    0.21 9  169 353 
 ZAR  HN ES       20 9 52.98                             122    0.02 8  208 294 
 ZAR  HZ I        20 9 55.44         3.9 0.24            126            208 294 
 SML  HZ EP   1   20 9 31.06                             117   -0.87 6  252 336 
 SML  HN ES   4   2010  3.41                             117    2.15 0  252 336 
                                                                                
