 2012  827 2033 49.6 L   6.772 -73.138150.4  RSN  5 0.4 1.7LRSN                1
 GAP=139        0.69       6.1     5.9  9.1 -0.8057E+01  0.1687E+02  0.1693E+02E
 Epicentro: LOS SANTOS - SANTANDER                                             3
 ACTION:UPD 12-09-10 11:58 OP:ep   STATUS:               ID:20120827203349 L   I
 2012-08-27-2030-00M.COL___217                                                 6
 STAT SP IPHASW D HRMM SECON CODA AMPLIT PERI AZIMU VELO AIN AR TRES W  DIS CAZ7
 BAR2 SZ EP   1   2034  9.72                             172   -0.01 7 20.5 194 
 BAR2 SZ I        2034 27.77        12.9 0.12                          20.5 194 
 BRR  HZ EP       2034 11.76                             152    0.3910 73.4 300 
 BRR  HZ I        2034 13.22        16.2 0.12                          73.4 300 
 BRR  HN ES   2   2034 28.91                             152    0.55 5 73.4 300 
 PAM  SZ EP   1   2034 12.62                             151    0.20 7 79.3  38 
 PAM  SN ES       2034 29.91                             151   -0.3110 79.3  38 
 PAM  SZ I        2034 32.30         6.3 0.62                          79.3  38 
 RUS  HZ EP   1   2034 13.54                             145   -0.05 7 97.4 176 
 RUS  HN ES   2   2034 32.61                             145    0.31 5 97.4 176 
 RUS  HZ I        2034 33.35         3.0 0.29                          97.4 176 
 PTB  HZ EP   1   2034 16.46                             133   -0.51 7  148 260 
 PTB  HN ES   2   2034 37.77                             133   -0.55 5  148 260 
 PTB  HZ I        2034 45.06         6.2 0.22                           148 260 
                                                                                
