 2013  127 2223 46.3 L   6.920 -73.186140.7  RSN  4 0.3 1.4LRSN                1
 GAP=245        0.54       5.2     5.1  9.6  0.1408E+02  0.3555E+01  0.8309E+00E
 Epicentro: BETULIA - SANTANDER                                                3
 ACTION:UPD 13-02-15 09:17 OP:ep   STATUS:               ID:20130127222346 L   I
 2013-01-27-2220-00M.COL___241                                                 6
 STAT SP IPHASW D HRMM SECON CODA AMPLIT PERI AZIMU VELO AIN AR TRES W  DIS CAZ7
 RUS  HZ EP       2224 10.74                             139    0.1110  114 174 
 RUS  HN ES   1   2224 29.62                             139    0.03 7  114 174 
 RUS  HZ I        2224 30.58         3.8 0.36            134            114 174 
 ZAR  HN ES   1   2224 41.63                             122   -0.23 7  195 289 
 NOR  HE ES   1   2224 50.68                             117    0.42 6  239 231 
 CHI  HZ EP   1   2224 25.05                             115    0.01 6  260 193 
 CHI  HN ES   1   2224 54.69                             115   -0.55 6  260 193 
 CHI  HZ I        2225  0.60         2.0 0.74            112            260 193 
                                                                                
