 2011  627 2359 40.7 L   6.545 -73.557110.3  RSN 16 0.3 2.7LRSN                1
 GAP= 53        0.65       1.8     2.8  4.3  0.8650E-01  0.5741E+01  0.1006E+01E
 Epicentro: EL CARMEN DE CHUCURI - SANTANDER                                   3
 ACTION:UP  11-07-14 19:08 OP:ep   STATUS:               ID:20110627235940 L   I
 2011-06-27-2358-07S.COL___140                                                 6
 STAT SP IPHASW D HRMM SECON CODA AMPLIT PERI AZIMU VELO SNR AR TRES W  DIS CAZ7
 BAR2 SZ EP       2359 56.94                             158     0.210   42  83 
 BAR2 SZ ES   1   24 0  9.24                             158    -0.1 7   42  83 
 BAR2 SZ I        24 0 10.52       701.0 0.42                            42  83 
 BTL  SZ ES   2   24 0 10.66                             153     0.4 5   52  38 
 BRR  HZ EP       2359 57.66                             147     0.010   65 345 
 BRR  HE ES   1   24 0 11.41                             147     0.4 7   65 345 
 BRR  HZ I        24 0 14.77       100.9 0.08                            65 345 
 RUS  HZ EP       2359 59.97                             139    -0.210   89 144 
 RUS  HN ES       24 0 15.17                             139    -0.310   89 144 
 RUS  HZ I        24 0 17.03        96.1 0.25                            89 144 
 GRA  SZ ES   1   24 0 28.59                             118     0.1 7  170  29 
 GRA  SZ I        24 0 31.29       105.7 0.73                           170  29 
 NOR  SZ EP       24 0  8.54                             117    -0.1 9  181 233 
 NOR  SE ES   1   24 0 30.66                             117     0.2 7  181 233 
 YOP  SZ EP       24 0  9.01                             116     0.2 9  182 136 
 YOP  SZ I        24 0 32.65        59.9 0.47                           182 136 
 OCA  SZ EP       24 0  9.80                             115     0.1 9  189   8 
 OCA  SZ ES   1   24 0 32.02                             115    -0.2 7  189   8 
 OCA  SZ I        24 0 39.70       102.5 0.27                           189   8 
 CHI  HZ EP   1   24 0 12.87                             113     0.3 6  213 185 
 CHI  HN ES   2   24 0 36.91                             113    -0.6 4  213 185 
 CHI  HZ I        24 0 43.50        22.7 0.30                           213 185 
 HEL  HZ EP   1   24 0 13.77                             111     0.2 6  222 260 
 HEL  HN ES   2   24 0 38.95                             111    -0.3 4  222 260 
 HEL  HZ I        24 0 44.78        34.2 0.22                           222 260 
 RREF HZ EP   2   24 0 20.04                             107     0.7 4  269 228 
 RREF HN ES   2   24 0 49.79                             107     0.3 4  269 228 
 RREF HZ I        24 1  1.91        26.6 0.31                           269 228 
 VIL  SZ EP   2   24 0 19.31                             107     0.5 4  269 183 
 VIL  SN ES   2   24 0 47.74                             107    -0.7 4  269 183 
 VIL  SZ I        24 0 57.97        27.4 0.48                           269 183 
 TOL  SZ EP   2   24 0 21.89                             105     0.2 4  292 222 
 DBB  SZ EP   2   24 0 22.30                             105     0.2 4  298 280 
 MON  HZ EP   2   24 0 26.19                             102    -0.7 3  339 317 
 MON  HE ES       24 1  2.19                             102    -0.7 7  339 317 
 MON  HZ I        24 1  3.87        13.5 0.34                           339 317 
 PRA  HZ EP   1   24 0 27.97                             102     0.2 5  346 205 
 PRA  HN ES   2   24 1  4.84                             102     0.4 3  346 205 
                                                                                
