 2011  327 2311 47.8 L   6.568 -73.510117.2  RSN  6 0.3 1.7LRSN                1
 GAP=101        0.55       4.3     4.6  6.9 -0.2996E+01  0.1427E+02  0.1130E+02E
 Epicentro: EL CARMEN DE CHUCURI - SANTANDER                                   3
 ACTION:UP  11-06-16 14:36 OP:jfem STATUS:               ID:20110327231147 L   I
 2011-03-27-2308-20S.COL___138                                                 6
 STAT SP IPHASW D HRMM SECON CODA AMPLIT PERI AZIMU VELO SNR AR TRES W  DIS CAZ7
 BAR2 SZ EP   1   2312  4.53                             162     0.1 7   36  86 
 BAR2 SZ ES   1   2312 17.16                             162    -0.3 7   36  86 
 BAR2 SZ I        2312 18.07        37.4 0.41                            36  86 
 BRR  HZ EP   1   2312  5.33                             149    -0.2 7   64 339 
 BRR  HN ES   1   2312 19.26                             149     0.0 7   64 339 
 BRR  HZ I        2312 25.11        10.5 0.13                            64 339 
 GIR2 SZ EP   1   2312  6.12                             148     0.2 7   66  32 
 GIR2 SZ ES   2   2312 20.38                             148     0.4 5   66  32 
 NOR  SZ EP   1   2312 16.32                             118    -0.5 7  187 234 
 NOR  SN ES   2   2312 39.61                             118     0.2 4  187 234 
 CHI  HN ES   2   2312 46.19                             114     0.4 4  216 187 
 CHI  HZ I        2312 48.01         4.1 0.66                           216 187 
 HEL  HZ EP   2   2312 21.83                             113     0.2 4  227 260 
 HEL  HN ES   2   2312 48.24                             113     0.2 4  227 260 
 HEL  HZ I        2312 48.72         3.0 0.43                           227 260 
                                                                                
