 2014  727 2008 10.9 L   6.694 -73.158156.7  RSN  5 0.4 1.8LRSN                1
 GAP=198        0.85       6.3     7.2  8.0  0.2119E+02  0.2247E+01 -0.1639E+02E
 Epicentro: VILLANUEVA - SANTANDER                                             3
 ACTION:UPD 15-03-16 20:47 OP:nd   STATUS:               ID:20140727200810 L   I
 OLDACT:UP  14-07-28 03:14 OP:cam  STATUS:               ID:20140727200001d    3
 OLDACT:DUP 14-07-28 03:08 OP:cam  STATUS:               ID:20140727200001d    3
 2014-07-27-2000-00M.COL___282                                                 6
 STAT SP IPHASW D HRMM SECON CODA AMPLIT PERI AZIMU VELO AIN AR TRES W  DIS CAZ7
 BRR  HZ EP       20 8 34.02                             153    0.5010 76.4 307 
 BRR  HN ES       20 8 51.07                             153   -0.1010 76.4 307 
 BRR  HN I        20 8 55.81        10.3 0.24            150           76.4 307 
 RUS  HE ES       20 8 53.70                             149   -0.0710 89.0 175 
 RUS  HE I        20 8 54.72        10.3 0.32            154           89.0 175 
 PTB  HZ EP       20 8 38.54                             135    0.04 9  145 263 
 PTB  HN ES       20 8 59.75                             135   -0.28 9  145 263 
 PTB  HZ I        20 9  3.76         3.6 0.12            135            145 263 
 ZAR  HZ EP       20 8 43.83                             124   -0.60 8  208 295 
 ZAR  HE ES       20 9 11.12                             124    0.54 8  208 295 
 ZAR  HZ I        20 9 19.18         2.7 0.26            125            208 295 
 SML  HZ EP   2   20 8 49.54                             118    0.29 4  254 337 
 SML  HN ES   2   20 9 18.41                             118   -0.75 4  254 337 
 SML  HN I        20 9 20.75        10.5 0.10            121            254 337 
                                                                                
