 2015 1127 2001 41.1 L   6.530 -73.570106.0  RSN 14 0.5 2.1LRSN                1
 GAP= 63        0.92       2.7     3.0  5.7 -0.1599E+01  0.4758E+01 -0.2559E+01E
 Epicentro: EL CARMEN - SANTANDER                                              3
 ACTION:UPD 15-12-28 16:13 OP:cam  STATUS:               ID:20151127200141 L   I
 OLDACT:REG 15-11-28 03:06 OP:dnl  STATUS:               ID:20151127195750     3
 2015-11-27-1957-50M.COL___313                                                 6
 STAT SP IPHASW D HRMM SECON CODA AMPLIT PERI AZIMU VELO AIN AR TRES W  DIS CAZ7
 BAR2 EZ EP     D 20 1 57.13                             157    0.3710 43.4  81 
 BAR2 EZ ES       20 2  9.29                             157    0.3210 43.4  81 
 BAR2 EZ I        20 2 11.08        70.3 0.21            161           43.4  81 
 BRR  HZ EP   1   20 1 58.09                             146    0.34 7 65.8 346 
 BRR  HN ES       20 2 11.51                             146    0.7810 65.8 346 
 RUS  HZ EP       20 2  0.05                             138   -0.1310 88.7 143 
 RUS  HN ES       20 2 15.09                             138    0.0310 88.7 143 
 RUS  HZ I        20 2 16.05         9.0 0.30            139           88.7 143 
 PTB  HZ EP       20 1 59.92                             134   -0.4110 98.0 271 
 PTB  HN ES       20 2 14.71                             134   -0.6110 98.0 271 
 PTB  HZ I        20 2 16.90        19.0 0.11            131           98.0 271 
 SPBC HZ EP   2   20 2  1.99                             130    0.30 5  112 210 
 SPBC HE ES   2   20 2 16.59                             130   -1.15 5  112 210 
 SPBC HZ I        20 2 25.64        63.3 0.05            128            112 210 
 PAM  EZ EP       20 2  3.76                             126   -0.3610  131  47 
 PAM  EN ES       20 2 21.62                             126   -0.4510  131  47 
 PAM  EZ I        20 2 23.17        13.1 0.17            126            131  47 
 ZAR  HZ EP   2   20 2  9.07                             116    0.69 4  178 307 
 ZAR  HN ES   4   20 2 31.81                             116    2.15 0  178 307 
 ZAR  HZ I        20 2 34.90        17.3 0.46            114            178 307 
 NOR  HZ EP   1   20 2  8.75                             116    0.15 7  179 233 
 NOR  HN ES       20 2 30.42                             116    0.38 9  179 233 
 NOR  HZ I        20 2 34.10         5.7 0.13            114            179 233 
 OCA  HZ EP   3   20 2 10.62                             114    0.58 2  191   8 
 OCA  HN ES       20 2 32.21                             114   -0.40 9  191   8 
 OCA  HZ I        20 2 37.91        31.2 0.23            114            191   8 
 GUY2CHZ EP   4   20 2 18.75                             108    2.07 0  246 234 
 GUY2CHE ES   4   20 2 47.43                             108    3.00 0  246 234 
 GUY2CHZ I        20 2 49.77         3.9 0.21                           246 234 
 URE  HZ EP   2   20 2 17.80                             107    0.55 4  255 302 
 URE  HE ES   2   20 2 45.44                             107   -0.00 4  255 302 
 URE  HZ I        20 2 53.84         8.2 0.23            106            255 302 
 SML  HZ EP   2   20 2 17.16                             107   -0.27 4  257 348 
 SML  HN ES       20 2 45.97                             107    0.21 8  257 348 
 SML  HZ I        20 2 52.16        25.2 0.08            106            257 348 
 PRA  HZ EP   2   20 2 28.20                             101    0.44 3  344 205 
 PRA  HE ES   3   20 3  5.42                             101    1.26 2  344 205 
 PRA  HZ I        20 3 10.09         7.4 0.41            100            344 205 
 SJC  HZ EP   1   20 2 35.75                              98   -0.30 4  412 335 
 SJC  HE ES   4   20 3 15.32                              98   -3.59 0  412 335 
 SJC  HZ I        20 3 20.13         1.4 0.45             97            412 335 
                                                                                
