 2014 1227 2305  3.1 L   6.833 -73.135148.4  RSN 22 0.5 2.3LRSN                1
 GAP= 70        1.14       2.6     3.1  4.8 -0.6914E+00  0.3971E+01  0.1312E+01E
 Epicentro: LOS SANTOS - SANTANDER                                             3
 ACTION:UPD 15-02-10 17:07 OP:nd   STATUS:               ID:20141227230503 L   I
 OLDACT:REG 14-12-28 02:45 OP:fm   STATUS:               ID:20141227225750     3
 2014-12-27-2257-50M.COL___262                                                 6
 STAT SP IPHASW D HRMM SECON CODA AMPLIT PERI AZIMU VELO AIN AR TRES W  DIS CAZ7
 BAR2 EZ EP       23 5 23.23                             169    0.0910 27.1 191 
 BAR2 EZ ES       23 5 39.30                             169    0.5410 27.1 191 
 BAR2 EZ I        23 5 41.37        33.1 0.26            168           27.1 191 
 BRR  HZ EP     C 23 5 25.12                             153    0.6110 70.6 296 
 BRR  HN ES       23 5 41.99                             153    0.7810 70.6 296 
 BRR  HZ I        23 5 46.93        30.1 0.26            151           70.6 296 
 PAM  SZ EP       23 5 26.10                             152    0.6910 73.9  41 
 PAM  SE ES       23 5 42.96                             152    0.1610 73.9  41 
 PAM  SZ I        23 5 45.35        31.4 0.20            157           73.9  41 
 RUS  HZ EP       23 5 27.11                             143   -0.2710  104 177 
 RUS  HN ES       23 5 45.85                             143   -0.4510  104 177 
 RUS  HZ I        23 5 47.91        14.8 0.28            145            104 177 
 PTB  HZ EP       23 5 30.19                             132   -0.27 9  150 258 
 PTB  HN ES       23 5 50.99                             132   -0.81 9  150 258 
 PTB  HZ I        23 5 57.10        34.6 0.42            132            150 258 
 TAM  HZ EP       23 5 31.43                             131    0.44 9  155 106 
 TAM  HE ES       23 5 51.57                             131   -1.16 9  155 106 
 TAM  HZ I        23 5 53.84        14.1 0.24            136            155 106 
 OCA  HE ES       23 5 53.19                             131   -0.12 9  157 353 
 OCA  HZ I        23 5 59.21        17.9 0.16            133            157 353 
 SPBC HZ EP       23 5 32.14                             129   -0.01 9  167 219 
 SPBC HE ES       23 5 54.61                             129   -0.18 9  167 219 
 SPBC HZ I        23 6  0.08        54.7 0.14            130            167 219 
 ZAR  HZ EP       23 5 35.89                             123    0.19 9  204 291 
 ZAR  HN ES       23 6  1.02                             123   -0.11 9  204 291 
 ZAR  HZ I        23 6  7.54        29.1 0.32            124            204 291 
 NOR  HZ EP       23 5 39.27                             119   -0.05 8  238 234 
 NOR  HE ES       23 6  7.74                             119    0.18 8  238 234 
 NOR  HZ I        23 6 10.92        18.8 0.26            120            238 234 
 SML  HZ EP       23 5 39.54                             118   -0.05 8  241 335 
 SML  HE ES       23 6  7.32                             118   -0.72 8  241 335 
 SML  HZ I        23 6 11.81        33.2 0.10            120            241 335 
 CHI  HZ EP       23 5 41.19                             117   -0.17 8  252 195 
 CHI  HN ES       23 6 10.96                             117   -0.24 8  252 195 
 CHI  HZ I        23 6 18.42         6.3 0.30            119            252 195 
 ROSC BZ EP       23 5 42.57                             117    0.80 8  256 211 
 ROSC BN ES       23 6 12.03                             117    0.10 8  256 211 
 ROSC BZ I        23 6 21.01        22.4 0.45            118            256 211 
 HEL  HZ EP       23 5 44.58                             115    0.90 8  274 255 
 HEL  HE ES   4   23 6 17.33                             115    2.00 0  274 255 
 HEL  HZ I        23 6 21.93        11.9 0.34            116            274 255 
 URE  HN ES   4   23 6 14.12                             114   -2.27 0  284 291 
 URE  HZ I        23 6 23.93        12.9 0.20            115            284 291 
 DBB  SZ EP       23 5 50.41                             110   -0.39 7  340 274 
 TOL  SZ EP       23 5 52.46                             110    0.60 6  347 224 
 TOL  SE ES       23 6 29.26                             110   -0.62 6  347 224 
 TOL  SZ I        23 6 37.21        22.8 0.36            111            347 224 
 MON  HZ EP       23 5 51.64                             109   -0.42 6  352 308 
 MON  HE ES       23 6 29.16                             109   -1.09 6  352 308 
 MON  HZ I        23 6 32.89         3.0 0.26            111            352 308 
 SDV  BZ EP       23 5 52.55                             109   -0.34 6  357  51 
 ANIL HZ EP       23 5 53.56                             109    0.15 6  361 224 
 ANIL HN ES       23 6 32.66                             109    0.02 6  361 224 
 ANIL HZ I        23 6 37.34         2.5 0.42            110            361 224 
 ORTC HZ EP       23 5 57.46                             107   -0.08 6  399 216 
 ORTC HN ES       23 6 40.04                             107    0.05 6  399 216 
 ORTC HZ I        23 6 47.95         7.2 0.62            108            399 216 
 PAL  HZ EP       23 5 58.86                             106    0.17 6  409 239 
 PAL  HN ES   4   23 6 40.83                             106   -1.21 0  409 239 
 PAL  HZ I        23 6 52.07         4.2 0.28            108            409 239 
                                                                                
