 2015 1027 2027 47.4 L   6.758 -73.130146.8  RSN 10 0.3 2.0LRSN                1
 GAP=140        0.79       2.7     3.5  4.5 -0.1586E+01  0.3131E+01  0.1167E+01E
 Epicentro: LOS SANTOS - SANTANDER                                             3
 ACTION:UPD 15-12-22 20:43 OP:cam  STATUS:               ID:20151027202747 L   I
 OLDACT:UP  15-11-01 03:32 OP:DRIO STATUS:               ID:20151027202747 L   3
 OLDACT:REG 15-10-28 03:21 OP:drio STATUS:               ID:20151027201750     3
 2015-10-27-2017-50M.COL___313                                                 6
 STAT SP IPHASW D HRMM SECON CODA AMPLIT PERI AZIMU VELO AIN AR TRES W  DIS CAZ7
 BAR2 EZ EP       2028  7.13                             172    0.0810 19.2 198 
 BAR2 EZ ES       2028 22.42                             172    0.0210 19.2 198 
 BAR2 EZ I        2028 24.93        13.5 0.42            169           19.2 198 
 BRR  HZ EP       2028  8.56                             151   -0.2910 75.0 301 
 BRR  HN ES       2028 26.33                             151    0.7310 75.0 301 
 BRR  HZ I        2028 31.03        14.1 0.44            149           75.0 301 
 PAM  EZ EP       2028  9.99                             150    0.1410 80.0  36 
 PAM  EN ES       2028 27.07                             150   -0.3210 80.0  36 
 PAM  EZ I        2028 29.22        13.1 0.50            154           80.0  36 
 RUS  HZ EP       2028 11.04                             145    0.1510 95.8 177 
 RUS  HE ES       2028 28.89                             145   -0.3410 95.8 177 
 SPBC HZ EP       2028 16.01                             130    0.30 9  161 221 
 SPBC HN ES       2028 37.94                             130    0.12 9  161 221 
 SPBC HZ I        2028 40.38        19.0 0.40            130            161 221 
 ZAR  HE ES       2028 45.52                             122   -0.35 8  207 293 
 ZAR  HZ I        2028 51.65        11.3 0.46            122            207 293 
 NOR  HZ EP       2028 22.73                             119   -0.29 8  233 236 
 NOR  HN ES       2028 50.53                             119   -0.30 8  233 236 
 NOR  HZ I        2028 58.38         5.7 0.20            119            233 236 
 CHI  HZ EP       2028 25.20                             118    0.51 8  245 196 
 CHI  HE ES       2028 53.63                             118   -0.16 8  245 196 
 CHI  HZ I        2029  3.17         2.7 0.68            119            245 196 
 SML  HZ EP       2028 24.42                             117   -0.17 8  249 335 
 SML  HN ES   4   2028 51.45                             117   -2.18 0  249 335 
 SML  HZ I        2028 57.73         8.3 0.10            118            249 335 
 GUY2CHZ EP   9   2028 32.19                             113    1.30 0  300 236 
 GUY2CHN ES       2029  6.25                             113    0.12 7  300 236 
 GUY2CHZ I        2029 13.98         8.4 0.74                           300 236 
                                                                                
