 2012  527 2221 47.3 L   6.779 -73.193140.0  RSN  5 0.1 1.4LRSN                1
 GAP=132        0.35       3.3     3.8  6.3 -0.3186E+01  0.1092E+02  0.5775E+01E
 Epicentro: LOS SANTOS - SANTANDER                                             3
 ACTION:UP  12-07-05 12:08 OP:pat  STATUS:               ID:20120527222147 L   I
 2012-05-27-2220-00M.COL___198                                                 6
 STAT SP IPHASW D HRMM SECON CODA AMPLIT PERI AZIMU VELO SNR AR TRES W  DIS CAZ7
 BAR2 SZ ES   3   2222 20.98                             171     0.1 2   21 177 
 PAM  SZ EP       2222  9.37                             148     0.210   83  41 
 PAM  SN ES   1   2222 26.26                             148    -0.1 7   83  41 
 RUS  HZ EP       2222 10.28                             143    -0.110   99 173 
 RUS  HN ES   3   2222 28.41                             143     0.1 2   99 173 
 RUS  HZ I        2222 29.66         5.0 0.26                            99 173 
 PTB  HZ EP       2222 13.17                             132    -0.1 9  142 259 
 PTB  HN ES   3   2222 33.98                             132     0.4 2  142 259 
 PTB  HZ I        2222 35.60         2.8 0.58                           142 259 
 OCA  HN ES   3   2222 37.15                             128     0.0 2  162 355 
                                                                                
