 2011 1027 2125 30.1 L   6.757 -73.131147.5  RSN  4 0.3 2.0LRSN                1
 GAP=199        0.65       6.8     5.0  9.6 -0.1706E+02  0.5785E+01  0.2155E+02E
 Epicentro: LOS SANTOS - SANTANDER                                             3
 ACTION:UPD 12-07-13 16:06 OP:ep   STATUS:               ID:20111027212530 L   I
 2011-10-27-2123-04S.COL___176                                                 6
 STAT SP IPHASW D HRMM SECON CODA AMPLIT PERI AZIMU VELO AIN AR TRES W  DIS CAZ7
 BRR  HZ EP   1   2125 51.86                             152    0.22 9 75.0 301 
 BRR  HN ES   1   2126  8.94                             152    0.49 9 75.0 301 
 BRR  HZ I        2126 12.12        16.2 0.11                          75.0 301 
 PAM  SZ EP   1   2125 52.81                             150    0.16 9 80.1  36 
 PAM  SN ES   1   2126  9.82                             150   -0.42 9 80.1  36 
 ZAR  HZ EP   2   2126  3.12                             122    0.13 5  207 293 
 ZAR  HE ES   1   2126 28.22                             122   -0.44 8  207 293 
 ZAR  HZ I        2126 34.20         8.2 0.33                           207 293 
 NOR  SE ES       2126 33.45                             119   -0.1510  233 236 
                                                                                
