 2016  927 2024 37.1 L   6.789 -73.172150.2  RSN  6 0.3 1.8LRSN                1
 GAP=134        0.90       5.7     4.1  6.8  0.3664E+00  0.3998E+01  0.5864E+01E
 Epicentro: LOS SANTOS - SANTANDER                                             3
 ACTION:UPD 17-08-17 21:17 OP:lp   STATUS:               ID:20160927202437 L   I
 OLDACT:UP  16-09-28 05:25 OP:and  STATUS:               ID:20160927201008     3
 OLDACT:UP  16-09-28 05:23 OP:and  STATUS:               ID:20160927201008     3
 OLDACT:REG 16-09-28 04:05 OP:and  STATUS:               ID:20160927201008     3
 2016-09-27-2018-00M.COL___369                                                 6
 STAT SP IPHASW D HRMM SECON CODA AMPLIT PERI AZIMU VELO AIN AR TRES W  DIS CAZ7
 BAR2 EZ EP       2024 57.18                             171   -0.0110 21.8 183 
 BAR2 EZ ES       2025 12.78                             171   -0.1110 21.8 183 
 BAR2 EZ I        2025 13.20        22.2 0.35            172           21.8 183 
 BRR  HZ IP       2024 58.78                             154    0.2010 69.3 301 
 BRR  HE ES       2025 16.08                             154    0.7210 69.3 301 
 PAM  EZ IP     D 2024 59.98                             151    0.0710 80.2  41 
 PAM  EN ES       2025 17.26                             151   -0.4710 80.2  41 
 PAM  EZ I        2025 19.78         7.6 0.44            153           80.2  41 
 RUS  HZ EP       2025  1.56                             145    0.3910 99.6 174 
 RUS  HE ES   2   2025 19.82                             145   -0.17 5 99.6 174 
 RUS  HZ I        2025 20.73         5.6 0.31            147           99.6 174 
 PTB  HZ EP       2025  3.73                             134   -0.38 9  145 259 
 PTB  HN ES       2025 24.83                             134   -0.39 9  145 259 
 PTB  HZ I        2025 30.40         7.6 0.12            133            145 259 
 ZAR  HZ EP   4   2025 10.88                             124    1.32 0  202 293 
 ZAR  HE ES       2025 34.82                             124   -0.10 9  202 293 
 ZAR  HZ I        2025 39.88         6.9 0.12            123            202 293 
                                                                                
