 2013  627 2132  6.6 L   6.809 -73.152143.5  RSN  8 0.4 2.1LRSN                1
 GAP=200        0.95       4.8     5.7  6.3  0.1295E+02  0.7472E+01  0.6527E+01E
 Epicentro: LOS SANTOS - SANTANDER                                             3
 ACTION:UPD 14-01-08 09:57 OP:ep   STATUS:               ID:20130627213206 L   I
 OLDACT:UP  13-06-27 22:54 OP:cam  STATUS:               ID:20130627212959     3
 OLDACT:REG 13-06-27 22:32 OP:cam  STATUS:               ID:20130627212959     3
 2013-06-27-2129-59M.COL___265                                                 6
 STAT SP IPHASW D HRMM SECON CODA AMPLIT PERI AZIMU VELO AIN AR TRES W  DIS CAZ7
 BAR2 SZ EP       2132 26.12                             170    0.1210 24.2 188 
 BAR2 SZ ES       2132 40.54                             170   -0.5710 24.2 188 
 BAR2 SZ I        2132 42.41        34.5 0.22            166           24.2 188 
 BRR  HZ EP     C 2132 27.85                             152    0.3810 70.1 298 
 BRR  HN ES       2132 44.08                             152    0.3610 70.1 298 
 BRR  HZ I        2132 48.46        19.8 0.52            150           70.1 298 
 RUS  HZ EP       2132 30.22                             143   -0.0110  102 176 
 RUS  HE ES       2132 48.96                             143    0.3210  102 176 
 RUS  HZ I        2132 49.79        17.6 0.26            143            102 176 
 PTB  HZ EP       2132 32.57                             132   -0.80 9  147 258 
 PTB  HN ES       2132 53.74                             132   -0.48 9  147 258 
 PTB  HZ I        2133  0.76        15.6 0.48            131            147 258 
 PTB  HZ E        2138 47.21                                            147 258 
 ZAR  HE ES       2133  4.32                             122    0.39 9  203 292 
 NOR  HZ EP   1   2132 42.22                             118   -0.01 6  235 234 
 NOR  HE ES   2   2133 10.63                             118    0.64 4  235 234 
 SML  HZ EP   2   2132 43.04                             117    0.04 4  243 335 
 CHI  HZ EP       2132 44.23                             117   -0.06 8  249 195 
 CHI  HE ES       2133 13.91                             117    0.25 8  249 195 
 CHI  HZ I        2133 18.71         6.3 0.34            118            249 195 
                                                                                
