 2014  227 2211 33.3 L   6.794 -73.110153.5  RSN  8 0.5 1.8LRSN                1
 GAP=141        1.22       4.2     5.7  7.5 -0.2310E+01  0.1244E+02 -0.1757E+01E
 Epicentro: LOS SANTOS - SANTANDER                                             3
 ACTION:UPD 14-03-10 08:14 OP:ep   STATUS:               ID:20140227221133 L   I
 OLDACT:REG 14-02-27 23:14 OP:carl STATUS:               ID:20140227220950     3
 2014-02-27-2209-50M.COL___186                                                 6
 STAT SP IPHASW D HRMM SECON CODA AMPLIT PERI AZIMU VELO AIN AR TRES W  DIS CAZ7
 BAR2 SZ EP       2211 52.93                             171   -0.9810 23.7 200 
 BAR2 SZ ES       2212  9.71                             171   -0.2510 23.7 200 
 BAR2 SZ I        2212 10.20        14.4 0.32            169           23.7 200 
 BRR  HZ EP       2211 55.86                             152    0.3110 75.0 298 
 BRR  HN ES       2212 13.69                             152    0.8210 75.0 298 
 PAM  SZ EP       2211 56.83                             153    0.5510 75.4  37 
 PAM  SN ES       2212 14.17                             153   -0.0010 75.4  37 
 PAM  SZ I        2212 16.15         8.4 0.20            155           75.4  37 
 RUS  HZ EP       2211 58.07                             146    0.2710 99.7 178 
 RUS  HN ES       2212 16.38                             146   -0.5010 99.7 178 
 RUS  HZ I        2212 18.11         3.6 0.30            146           99.7 178 
 SPBC HZ EP       2212  3.03                             130    0.40 9  165 220 
 SPBC HE ES       2212 25.82                             130    0.34 9  165 220 
 SPBC HZ I        2212 30.89        10.7 0.20            130            165 220 
 ZAR  HN ES       2212 32.18                             123   -0.55 8  208 292 
 ZAR  HZ I        2212 34.15         5.9 0.12            123            208 292 
 NOR  HZ EP       2212  9.86                             120    0.02 8  238 235 
 NOR  HN ES       2212 38.19                             120   -0.11 8  238 235 
 NOR  HZ I        2212 46.29         4.8 0.14            119            238 235 
 SML  HZ EP       2212 10.51                             119   -0.15 8  246 335 
 SML  HE ES       2212 39.31                             119   -0.46 8  246 335 
 SML  HZ I        2212 43.72         9.6 0.10            119            246 335 
                                                                                
