 2011  727 2013 50.1 L   6.783 -73.101148.9  RSN  4 0.2 1.8LRSN                1
 GAP=196        0.41       3.6     8.1  5.5  0.1480E+02 -0.1039E+02  0.1079E+01E
 Epicentro: LOS SANTOS - SANTANDER                                             3
 ACTION:UPD 12-07-25 14:03 OP:epov STATUS:               ID:20110727201350 L   I
 2011-07-27-2000-36S.COL___107                                                 6
 STAT SP IPHASW D HRMM SECON CODA AMPLIT PERI AZIMU VELO AIN AR TRES W  DIS CAZ7
 GIR2 SZ EP   1   2014 10.07                             166   -0.17 7 34.2 343 
 BRR  HZ EP   1   2014 12.11                             151    0.21 7 76.4 298 
 BRR  HN ES   1   2014 28.83                             151   -0.06 7 76.4 298 
 BRR  HZ I        2014 31.59        24.1 0.32                          76.4 298 
 RUS  HZ EP   1   2014 13.91                             145   -0.11 7 98.5 179 
 RUS  HN ES   1   2014 32.83                             145    0.15 7 98.5 179 
 RUS  HZ I        2014 33.70         5.8 0.30                          98.5 179 
 CHI  HZ EP   1   2014 28.10                             118    0.16 6  248 196 
 CHI  HE ES   2   2014 57.00                             118   -0.44 4  248 196 
 CHI  HZ I        2015  1.54         3.2 0.37                           248 196 
                                                                                
