 2011  827 2000 19.4 L   6.737 -73.106150.1  RSN  5 0.1 1.9LRSN                1
 GAP=193        0.32       2.8     4.0  3.4  0.5074E+01 -0.1986E+01 -0.6964E+00E
 Epicentro: JORDAN - SANTANDER                                                 3
 ACTION:UPD 12-07-13 15:54 OP:ep   STATUS:               ID:20110827200019 L   I
 2011-08-27-2000-00M.COL___162                                                 6
 STAT SP IPHASW D HRMM SECON CODA AMPLIT PERI AZIMU VELO AIN AR TRES W  DIS CAZ7
 BAR2 SZ EP   1   20 0 39.37                             173   -0.08 7 18.1 208 
 BAR2 SZ ES   1   20 0 55.07                             173   -0.03 7 18.1 208 
 BAR2 SZ I        20 0 55.84        19.0 0.22                          18.1 208 
 GIR2 SZ EP   1   20 0 39.80                             165   -0.01 7 39.0 346 
 BRR  HZ EP       20 0 41.33                             151   -0.1010 78.4 301 
 BRR  HZ I        20 0 41.91        28.4 0.15                          78.4 301 
 BRR  HN ES       20 0 58.69                             151    0.0810 78.4 301 
 RUS  HZ EP   1   20 0 43.28                             147    0.20 7 93.4 178 
 RUS  HE ES   1   20 1  1.52                             147   -0.04 7 93.4 178 
 RUS  HZ I        20 1  3.65         4.3 0.31                          93.4 178 
 NOR  SE ES   2   20 1 23.33                             119   -0.05 4  234 236 
                                                                                
