 2011 1227 2221 36.5 L   6.482 -73.617109.8  RSN  4 0.1 1.5LRSN                1
 GAP=136        0.32       4.6     3.2  7.3 -0.5432E+01 -0.1038E+02  0.2179E+02E
 Epicentro: SANTA HELENA DEL OPON - SANTANDER                                  3
 ACTION:UPD 12-07-13 16:18 OP:ep   STATUS:               ID:20111227222136 L   I
 2011-12-27-2220-00M.COL___186                                                 6
 STAT SP IPHASW D HRMM SECON CODA AMPLIT PERI AZIMU VELO AIN AR TRES W  DIS CAZ7
 BAR2 SZ EP   2   2221 52.86                             154   -0.01 5 49.6  76 
 BAR2 SZ I        2222  6.39        23.0 0.43                          49.6  76 
 BRR  HZ EP   1   2221 53.68                             145   -0.10 7 69.9 351 
 BRR  HE ES   1   2222  7.35                             145    0.06 7 69.9 351 
 RUS  HZ EP   2   2221 55.84                             139    0.01 5 88.0 138 
 PTB  HZ EP   1   2221 55.70                             137    0.11 7 93.0 274 
 PTB  HN ES   1   2222 10.45                             137   -0.06 7 93.0 274 
 PTB  HZ I        2222 11.85         3.2 0.15                          93.0 274 
                                                                                
