 2012  227 2355 42.1 L   6.796 -73.188151.7  RSN  5 0.3 1.4LRSN                1
 GAP=131        0.48       4.7     5.6  7.7  0.4891E+01 -0.5638E+01  0.4454E+01E
 ACTION:UP  12-03-07 16:34 OP:epov STATUS:               ID:20120227235542 L   I
 2012-02-27-2350-00M.COL___191                                                 6
 STAT SP IPHASW D HRMM SECON CODA AMPLIT PERI AZIMU VELO AIN AR TRES W  DIS CAZ7
 BRR  HZ EP   2   2356  4.22                             155    0.51 5 67.3 301 
 BRR  HZ I        2356  6.33         8.0 0.30                          67.3 301 
 BRR  HN ES   2   2356 20.72                             155    0.17 5 67.3 301 
 PAM  SZ EP   2   2356  5.10                             151   -0.07 5 80.7  42 
 RUS  HZ EP   1   2356  6.51                             145    0.05 7  101 173 
 RUS  HN ES   2   2356 25.18                             145   -0.27 5  101 173 
 RUS  HZ I        2356 27.29         1.8 0.51                           101 173 
 PTB  HZ EP   1   2356  8.73                             134   -0.44 7  143 259 
 PTB  HN ES   2   2356 30.27                             134    0.00 5  143 259 
 CHI  HZ EP   2   2356 20.26                             119    0.27 4  247 194 
 CHI  HN ES   2   2356 49.95                             119    0.43 4  247 194 
                                                                                
