 2011  927 2328 54.9 L   6.770 -73.075144.1  RSN  4 0.2 1.6LRSN                1
 GAP=201        0.35       6.9    15.6  8.7  0.7195E+02 -0.2094E+02  0.1264E+02E
 Epicentro: LOS SANTOS - SANTANDER                                             3
 ACTION:UPD 12-07-13 16:00 OP:ep   STATUS:               ID:20110927232854 L   I
 2011-09-27-2320-00M.COL___167                                                 6
 STAT SP IPHASW D HRMM SECON CODA AMPLIT PERI AZIMU VELO AIN AR TRES W  DIS CAZ7
 BTL  SZ EP   2   2329 14.69                             169    0.26 5 26.8 308 
 BTL  SZ ES   3   2329 30.15                             169    0.51 2 26.8 308 
 GIR2 SZ EP   2   2329 14.41                             165   -0.14 5 36.5 339 
 GIR2 SZ ES   3   2329 29.40                             165   -0.46 2 36.5 339 
 BRR  HZ EP   2   2329 16.51                             149    0.12 5 79.6 298 
 BRR  HZ I        2329 22.05         7.3 0.52                          79.6 298 
 BRR  HE ES   3   2329 32.74                             149   -0.39 2 79.6 298 
 RUS  HZ EP       2329 18.21                             144   -0.0510 97.1 181 
 RUS  HE ES   3   2329 36.56                             144    0.11 2 97.1 181 
                                                                                
