 2014  327 2028 13.9 L   6.789 -73.132147.0  RSN  6 0.5 1.6LRSN                1
 GAP=139        0.94       5.2     5.1 10.0  0.3192E+01  0.1260E+02  0.1054E+02E
 Epicentro: LOS SANTOS - SANTANDER                                             3
 OLDACT:REG 14-03-27 21:40 OP:fm   STATUS:               ID:20140327201819     3
 ACTION:UPD 14-04-09 23:21 OP:nd   STATUS:               ID:20140327202813 L   I
 OLDACT:UP  14-03-27 22:28 OP:fm   STATUS:               ID:20140327201819     3
 2014-03-27-2018-19M.COL___262                                                 6
 STAT SP IPHASW D HRMM SECON CODA AMPLIT PERI AZIMU VELO AIN AR TRES W  DIS CAZ7
 BAR2 SZ ES   2   2028 48.86                             171   -0.17 5 22.4 194 
 BAR2 SZ I        2028 49.59        13.8 0.28            176           22.4 194 
 PAM  SZ EP   1   2028 36.50                             151    0.29 8 77.4  38 
 PAM  SN ES   1   2028 53.31                             151   -0.32 8 77.4  38 
 PAM  SZ I        2029  7.02         4.8 4.26            150           77.4  38 
 RUS  HZ EP   1   2028 38.10                             144    0.46 8 99.3 177 
 RUS  HN ES   1   2028 56.25                             144    0.07 8 99.3 177 
 RUS  SZ I        2028 59.95         4.6 1.34            151           99.3 177 
 PTB  HZ EP   1   2028 40.22                             132   -0.82 7  149 259 
 PTB  HN ES       2029  2.83                             132    0.5910  149 259 
 PTB  SZ I        2029  8.41         4.6 0.22            138            149 259 
 ZAR  HN ES       2029 11.84                             122   -0.25 9  206 292 
 CHI  HZ EP   1   2028 51.89                             118    0.35 6  248 196 
 CHI  HN ES   1   2029 20.10                             118   -0.83 6  248 196 
 CHI  SZ I        2029 24.20         5.2 4.06            123            248 196 
                                                                                
