 2012  927 2343 51.4 L   6.784 -73.149138.3  RSN  6 0.4 1.9LRSN                1
 GAP=137        0.86       5.3     4.9  7.7  0.4421E+01  0.6807E+01 -0.7246E+00E
 Epicentro: LOS SANTOS - SANTANDER                                             3
 ACTION:UPD 12-10-22 14:21 OP:ep   STATUS:               ID:20120927234351 L   I
 2012-09-27-2340-00M.COL___214                                                 6
 STAT SP IPHASW D HRMM SECON CODA AMPLIT PERI AZIMU VELO AIN AR TRES W  DIS CAZ7
 BAR2 SZ EP   1   2344 10.01                             171   -0.13 7 21.5 190 
 BAR2 SZ ES   1   2344 24.34                             171   -0.38 7 21.5 190 
 BAR2 SZ I        2344 25.75        19.8 0.27                          21.5 190 
 BRR  HZ EP       2344 11.58                             151   -0.2410 71.7 300 
 BRR  HZ I        2344 12.51        20.8 0.13                          71.7 300 
 BRR  HN ES   1   2344 28.64                             151    0.92 7 71.7 300 
 PAM  SZ EP   1   2344 12.73                             149   -0.24 7 79.0  39 
 PAM  SZ I        2344 16.57        19.2 0.22                          79.0  39 
 PAM  SN ES   1   2344 29.79                             149    0.02 7 79.0  39 
 RUS  HZ EP       2344 14.65                             143    0.3210 98.8 176 
 RUS  HE ES   1   2344 32.09                             143   -0.10 7 98.8 176 
 RUS  HZ I        2344 37.62         6.9 0.36                          98.8 176 
 PTB  HE ES   1   2344 38.15                             130   -0.11 7  147 260 
 ZAR  HZ EP   1   2344 23.98                             121    0.53 6  204 293 
 ZAR  HN ES   1   2344 47.72                             121   -0.69 6  204 293 
 ZAR  HZ I        2344 56.83         5.1 0.21                           204 293 
                                                                                
