 2012  327 2342 28.6 L   6.751 -73.135151.9  RSN  4 0.4 1.4LRSN                1
 GAP=140        0.96       7.2     9.2 11.4 -0.1534E+01  0.2062E+02  0.1051E+02E
 ACTION:UP  12-03-31 23:23 OP:EP   STATUS:               ID:20120327234228 L   I
 2012-03-27-2340-35M.COL___181                                                 6
 STAT SP IPHASW D HRMM SECON CODA AMPLIT PERI AZIMU VELO SNR AR TRES W  DIS CAZ7
 BRR  HZ EP   1   2342 51.08                             152     0.5 7   75 302 
 BRR  HZ I        2343  0.07         9.7 0.62                            75 302 
 BRR  HE ES   1   2343  8.00                             152     0.2 7   75 302 
 PAM  SZ EP   1   2342 51.89                             151     0.2 7   81  36 
 PAM  SN ES   1   2343  9.20                             151    -0.4 7   81  36 
 RUS  HZ EP   1   2342 52.75                             146     0.2 7   95 177 
 RUS  HE ES   1   2343 11.25                             146     0.0 7   95 177 
 RUS  HZ I        2343 13.78         3.6 0.47                            95 177 
 PTB  HZ EP   1   2342 55.27                             133    -0.8 7  148 261 
 PTB  HZ I        2343 18.65         2.1 0.12                           148 261 
                                                                                
