 2015  427 2051 32.1 L   6.789 -73.131151.6  RSN  6 0.3 1.7LRSN                1
 GAP=202        0.53       3.0     4.7  4.9  0.4200E+01  0.5015E+01 -0.2043E+01E
 Epicentro: LOS SANTOS - SANTANDER                                             3
 ACTION:UPD 15-06-03 16:58 OP:cam  STATUS:               ID:20150427205132 L   I
 OLDACT:UP  15-04-28 08:38 OP:spq  STATUS:               ID:20150427204748     3
 OLDACT:REG 15-04-28 04:21 OP:spq  STATUS:               ID:20150427204748     3
 2015-04-27-2047-48M.COL___286                                                 6
 STAT SP IPHASW D HRMM SECON CODA AMPLIT PERI AZIMU VELO AIN AR TRES W  DIS CAZ7
 BAR2 EZ ES   1   2052  8.05                             171   -0.23 7 22.5 195 
 BAR2 EZ I        2052  9.35         8.3 0.16            164           22.5 195 
 BRR  HZ EP       2051 54.16                             153    0.1410 73.2 299 
 BRR  HN ES   1   2052 11.57                             153    0.48 7 73.2 299 
 BRR  HZ I        2052 16.91        18.1 0.50            147           73.2 299 
 RUS  HZ EP   1   2051 56.51                             145    0.14 7 99.3 177 
 RUS  HE ES   1   2052 15.03                             145   -0.24 7 99.3 177 
 RUS  HZ I        2052 16.58         3.7 0.40            146           99.3 177 
 ZAR  HE ES   1   2052 30.65                             123   -0.27 6  206 292 
 ZAR  HZ I        2052 36.36         5.2 0.38            123            206 292 
 NOR  HZ EP   1   2052  8.55                             120    0.28 6  235 235 
 NOR  HE ES   1   2052 36.28                             120   -0.17 6  235 235 
 NOR  HZ I        2052 43.39         2.5 0.44            119            235 235 
 SML  HZ EP   1   2052  9.03                             118   -0.25 6  245 335 
 SML  HE ES   1   2052 38.05                             118   -0.20 6  245 335 
 SML  HZ I        2052 40.19         5.7 0.09            120            245 335 
                                                                                
