 2012 1127 2300 26.3 L   6.780 -73.182140.0  RSN  4 0.3 1.1LRSN                1
 GAP=176        0.50       6.2     5.3  7.6  0.1886E+02  0.1035E+02  0.3797E+01E
 Epicentro: LOS SANTOS - SANTANDER                                             3
 ACTION:UPD 12-12-05 15:36 OP:}ep  STATUS:               ID:20121127230026 L   I
 2012-11-27-2300-00M.COL___234                                                 6
 STAT SP IPHASW D HRMM SECON CODA AMPLIT PERI AZIMU VELO AIN AR TRES W  DIS CAZ7
 GIR2 SZ ES   2   23 1  0.05                             166   -0.17 5 33.0 358 
 GIR2 SZ I        23 1  1.99         5.5 0.36                          33.0 358 
 RUS  HZ EP   1   23 0 49.26                             143   -0.12 7 98.8 174 
 RUS  HE ES   1   23 1  7.63                             143    0.27 7 98.8 174 
 RUS  HZ I        23 1  8.84         1.0 0.30                          98.8 174 
 PTB  HZ EP   1   23 0 52.31                             132   -0.12 7  143 259 
 PTB  HN ES   1   23 1 12.60                             132   -0.19 7  143 259 
 PTB  HZ I        23 1 15.36         1.7 0.26                           143 259 
 ZAR  HN ES   2   23 1 23.54                             122    0.65 4  201 293 
                                                                                
