 2010 1127 2236 43.5 L   6.885 -72.935139.2  RSN  4 0.2 1.7LRSN                1
 GAP=262        0.44       8.4    15.1  7.3  0.1009E+03 -0.4869E+02 -0.1950E+02E
 Epicentro: GUACA - SANTANDER                                                  3
 ACTION:UP  10-12-17 16:55 OP:REBC STATUS:               ID:20101127223643 L   I
 2010-11-27-2234-07S.COL___139                                                 6
 STAT SP IPHASW D HRMM SECON CODA AMPLIT PERI AZIMU VELO SNR AR TRES W  DIS CAZ7
 BAR2 SZ EP   1   2237  3.17                             163     0.3 7   42 220 
 BAR2 SZ ES   2   2237 17.81                             163    -0.2 5   42 220 
 BAR2 SZ I        2237 19.40        14.1 0.19                            42 220 
 BRR  HZ EP   1   2237  5.01                             146    -0.1 7   89 286 
 BRR  HE ES   2   2237 21.97                             146     0.0 5   89 286 
 BRR  HZ I        2237 23.43        15.5 0.24                            89 286 
 RUS  HZ EP   1   2237  7.16                             140    -0.2 7  111 189 
 RUS  HZ I        2237  8.03         4.2 0.36                           111 189 
 RUS  HE ES   2   2237 26.12                             140     0.1 5  111 189 
 CHI  HZ EP   2   2237 22.67                             114     0.1 4  265 200 
                                                                                
