 2016 1127 2355  2.2 L   6.727 -73.147145.8  RSN  5 0.3 1.8LRSN                1
 GAP=159        0.79       6.7     3.8  6.3 -0.5697E+01  0.5050E+01  0.1300E+01E
 Epicentro: JORDAN - SANTANDER                                                 3
 ACTION:UPD 17-10-26 21:12 OP:lp   STATUS:               ID:20161127235502 L   I
 OLDACT:REG 16-11-28 06:55 OP:ar   STATUS:               ID:20161127234744     3
 2016-11-27-2348-00M.COL___349                                                 6
 STAT SP IPHASW D HRMM SECON CODA AMPLIT PERI AZIMU VELO AIN AR TRES W  DIS CAZ7
 BAR2 EZ EP       2355 21.99                             174    0.2410 15.4 195 
 BAR2 EZ ES       2355 36.89                             174   -0.0710 15.4 195 
 BAR2 EZ I        2355 38.69        21.1 0.30            172           15.4 195 
 BRR  HZ EP       2355 23.87                             151    0.2310 75.3 304 
 BRR  HN ES       2355 40.86                             151    0.5410 75.3 304 
 BRR  HZ I        2355 45.09        11.7 0.30            149           75.3 304 
 PAM  EZ EP       2355 24.96                             149    0.0910 83.9  36 
 PAM  EN ES       2355 42.06                             149   -0.4510 83.9  36 
 PAM  EZ I        2355 44.24         6.5 0.48            152           83.9  36 
 PTB  HZ EP       2355 28.88                             132   -0.20 9  146 262 
 PTB  HN ES       2355 49.72                             132   -0.30 9  146 262 
 PTB  HZ I        2355 56.52         5.3 0.32            133            146 262 
 ZAR  HN ES       2356  0.37                             122   -0.20 8  207 294 
 ZAR  HZ I        2356  5.22         7.9 0.26            123            207 294 
 CHI  HN ES   4   2356  9.46                             118    1.62 0  241 196 
                                                                                
