 2011  927 2311 59.0 L   6.783 -73.136146.5  RSN 13 0.3 2.3LRSN                1
 GAP=115        0.56       2.5     3.3  4.0 -0.5524E+00  0.3826E+01  0.1656E+01E
 Epicentro: LOS SANTOS - SANTANDER                                             3
 ACTION:UPD 12-07-13 16:00 OP:ep   STATUS:               ID:20110927231159 L   I
 2011-09-27-2310-00S.COL___164                                                 6
 STAT SP IPHASW D HRMM SECON CODA AMPLIT PERI AZIMU VELO AIN AR TRES W  DIS CAZ7
 BTL  SZ EP       2312 18.86                             171    0.2110 21.0 316 
 BAR2 SZ IP       2312 18.62                             171   -0.0410 21.7 194 
 BAR2 SZ ES   1   2312 33.62                             171   -0.39 7 21.7 194 
 BAR2 SZ I        2312 36.95        41.3 0.44                          21.7 194 
 BRR  HZ IP     C 2312 20.53                             152    0.2110 73.1 299 
 BRR  HN ES   2   2312 37.76                             152    0.81 5 73.1 299 
 BRR  HZ I        2312 40.75        39.2 0.16                          73.1 299 
 PAM  SZ EP       2312 21.39                             151    0.0710 78.2  38 
 PAM  SN ES   1   2312 38.72                             151   -0.02 7 78.2  38 
 RUS  HZ EP       2312 22.46                             145   -0.2010 98.6 177 
 RUS  HN ES   1   2312 41.37                             145    0.24 7 98.6 177 
 OCA  SZ EP       2312 27.22                             129   -0.32 9  162 353 
 OCA  SZ I        2312 56.15        12.1 0.17                           162 353 
 YOP  SZ EP       2312 28.82                             127   -0.04 9  177 153 
 ZAR  HE ES   2   2312 56.41                             122   -0.73 4  206 293 
 ZAR  HZ I        2313  3.38        23.1 0.40                           206 293 
 NOR  SZ EP       2312 34.61                             119   -0.12 8  234 235 
 NOR  SE ES   2   2313  2.38                             119   -0.23 4  234 235 
 CHI  HZ EP       2312 36.84                             117    0.29 8  247 196 
 CHI  HE ES   2   2313  5.18                             117   -0.67 4  247 196 
 CHI  HZ I        2313 11.27         9.3 0.32                           247 196 
 HEL  HZ EP       2312 39.31                             115    0.01 8  273 256 
 HEL  HN ES   2   2313 11.02                             115    0.28 4  273 256 
 RREF HZ EP   2   2312 45.39                             111    0.28 3  321 230 
 RREF HZ I        2313 29.49        10.2 0.22                           321 230 
 PRA  HZ EP   2   2312 52.81                             107    0.41 3  391 210 
                                                                                
