 2014  827 2347 43.0 L   6.771 -73.152139.2  RSN  6 0.5 1.7LRSN                1
 GAP=137        1.23       5.7     6.0  9.1 -0.8105E+01  0.7228E+01  0.2076E+01E
 Epicentro: LOS SANTOS - SANTANDER                                             3
 ACTION:UPD 14-09-15 21:53 OP:nd   STATUS:               ID:20140827234743 L   I
 OLDACT:REG 14-08-28 04:29 OP:cam  STATUS:               ID:20140827234000     3
 2014-08-27-2340-00M.COL___282                                                 6
 STAT SP IPHASW D HRMM SECON CODA AMPLIT PERI AZIMU VELO AIN AR TRES W  DIS CAZ7
 BAR2 SZ EP       2348  1.69                             171   -0.1010 20.0 190 
 BAR2 SZ ES       2348 15.86                             171   -0.5810 20.0 190 
 BAR2 SZ I        2348 17.39        13.4 0.32            173           20.0 190 
 BRR  HZ EP       2348  4.11                             151    0.5910 72.2 301 
 BRR  HN ES       2348 20.28                             151    0.7710 72.2 301 
 BRR  HN I        2348 24.76        18.7 0.14            151           72.2 301 
 PAM  SZ EP       2348  4.81                             149    0.0910 80.3  38 
 PAM  SN ES       2348 21.31                             149   -0.3510 80.3  38 
 PAM  SZ I        2348 23.55        10.0 0.50            151           80.3  38 
 RUS  HZ EP       2348  6.11                             143    0.2210 97.4 175 
 RUS  HN ES       2348 24.01                             143    0.2710 97.4 175 
 RUS  HZ I        2348 25.73         5.4 0.40            147           97.4 175 
 PTB  HZ EP       2348  8.55                             131   -0.78 9  146 260 
 PTB  HN ES       2348 29.37                             131   -0.49 9  146 260 
 PTB  HZ I        2348 32.50         4.9 0.20            132            146 260 
 SPBC HN ES       2348 32.59                             128    0.24 9  160 220 
                                                                                
