 2016 1227 2337 38.0 L   6.785 -73.136143.5  RSN  7 0.3 1.4LRSN                1
 GAP=138        0.72       3.3     3.0  5.1 -0.3216E+00  0.4352E+01  0.1543E+01E
 Epicentro: LOS SANTOS - SANTANDER                                             3
 ACTION:UPD 17-01-11 20:19 OP:rebc STATUS:               ID:20161227233738 L   I
 OLDACT:DUP 16-12-28 04:59 OP:cara STATUS:               ID:20161227232748d    3
 2016-12-27-2328-00M.COL___369                                                 6
 STAT SP IPHASW D HRMM SECON CODA AMPLIT PERI AZIMU VELO AIN AR TRES W  DIS CAZ7
 BAR2 EZ EP       2337 57.37                             171    0.0910 21.9 194 
 BAR2 EZ ES       2338 12.62                             171    0.2710 21.9 194 
 BAR2 EZ I        2338 16.62         5.3 0.22            171           21.9 194 
 BRR  HZ EP       2337 58.81                             151   -0.1510 73.0 299 
 BRR  HN ES       2338 15.65                             151    0.3110 73.0 299 
 PAM  EZ EP       2338  0.41                             150    0.4510 78.0  38 
 PAM  EN ES       2338 16.58                             150   -0.5510 78.0  38 
 PAM  EZ I        2338 19.45         5.3 0.52            154           78.0  38 
 RUS  HZ EP       2338  1.46                             144    0.1110 98.8 177 
 RUS  HN ES       2338 19.40                             144   -0.2010 98.8 177 
 RUS  HZ I        2338 20.98         1.3 0.34            148           98.8 177 
 PTB  HZ EP       2338  4.60                             131   -0.20 9  149 260 
 PTB  HN ES       2338 25.67                             131   -0.07 9  149 260 
 PTB  HZ I        2338 32.62         4.0 0.30            133            149 260 
 ZAR  HZ EP   4   2338  9.08                             122   -1.34 0  206 292 
 ZAR  HN ES       2338 35.67                             122   -0.07 8  206 292 
 ZAR  HZ I        2338 41.46         4.5 0.24            123            206 292 
 GUY2CHZ EP   4   2338 24.27                             112    2.82 0  301 235 
 GUY2CHN ES       2338 55.31                             112   -0.06 7  301 235 
 GUY2CHZ I        2339  3.90         1.5 0.38                           301 235 
                                                                                
