 2015 1227 2046 45.6 L   6.817 -73.194143.4  RSN  5 0.3 1.5LRSN                1
 GAP=186        0.72       4.8     8.0  5.4 -0.2822E+02  0.1231E+02 -0.6718E+00E
 Epicentro: ZAPATOCA - SANTANDER                                               3
 ACTION:UPD 16-02-04 15:08 OP:cam  STATUS:               ID:20151227204645 L   I
 OLDACT:REG 15-12-28 02:40 OP:ar   STATUS:               ID:20151227203749     3
 2015-12-27-2037-49M.COL___334                                                 6
 STAT SP IPHASW D HRMM SECON CODA AMPLIT PERI AZIMU VELO AIN AR TRES W  DIS CAZ7
 BAR2 EZ IP       2047  5.09                             170    0.0910 24.8 177 
 BAR2 EZ ES       2047 19.80                             170   -0.3110 24.8 177 
 BAR2 EZ I        2047 22.75         6.3 0.20            167           24.8 177 
 PAM  EZ EP       2047  7.91                             150    0.1910 79.5  43 
 PAM  EN ES       2047 24.86                             150   -0.0810 79.5  43 
 PAM  EZ I        2047 27.16         7.2 0.50            156           79.5  43 
 RUS  HZ EP       2047  8.94                             143   -0.3710  103 173 
 RUS  HN ES       2047 28.28                             143    0.4910  103 173 
 RUS  HZ I        2047 30.40         2.2 0.38            144            103 173 
 SPBC HZ IP       2047 14.01                             129    0.24 9  161 217 
 SPBC HN ES       2047 35.80                             129    0.08 9  161 217 
 SPBC HZ I        2047 43.13        10.3 0.10            129            161 217 
 CHI  HZ EP       2047 23.14                             116   -0.10 8  249 194 
 CHI  HE ES       2047 52.22                             116   -0.36 8  249 194 
 CHI  HZ I        2048  1.45         1.5 0.32            118            249 194 
                                                                                
