 2014 1227 2136 58.5 L   6.530 -73.635105.9  RSN  7 0.5 1.4LRSN                1
 GAP= 90        1.20       5.0     5.6 11.3 -0.4532E+00  0.2646E+02  0.2325E+02E
 Epicentro: SANTA HELENA DEL OPON - SANTANDER                                  3
 ACTION:UPD 15-02-10 17:07 OP:nd   STATUS:               ID:20141227213658 L   I
 OLDACT:REG 14-12-28 02:42 OP:fm   STATUS:               ID:20141227212743     3
 2014-12-27-2127-43M.COL___265                                                 6
 STAT SP IPHASW D HRMM SECON CODA AMPLIT PERI AZIMU VELO AIN AR TRES W  DIS CAZ7
 BAR2 EZ EP       2137 14.39                             153   -0.1510 50.5  82 
 BAR2 EZ ES       2137 27.17                             153    0.1410 50.5  82 
 BAR2 EZ I        2137 28.19        20.6 0.34            164           50.5  82 
 BRR  HN ES       2137 28.15                             146    0.1910 64.4 352 
 BRR  HZ I        2137 35.19         3.5 0.16            150           64.4 352 
 PTB  HZ EP   1   2137 16.55                             136   -0.57 7 90.9 271 
 RUS  HZ EP       2137 17.78                             136   -0.1910 93.2 139 
 RUS  HN ES       2137 32.78                             136   -0.3610 93.2 139 
 RUS  HZ I        2137 34.61         2.1 0.32            146           93.2 139 
 SPBC HE ES       2137 35.07                             130    0.4810  108 207 
 SPBC HZ I        2137 39.79         8.6 0.10            136            108 207 
 NOR  HZ EP       2137 26.30                             116    0.91 9  173 232 
 NOR  HE ES       2137 45.45                             116   -0.90 9  173 232 
 NOR  HZ I        2137 51.20         6.2 0.14            121            173 232 
 CHI  HN ES       2137 54.82                             111    0.33 8  210 183 
                                                                                
