 2014  327 2200 25.7 L   6.749 -73.150146.0  RSN  7 0.5 1.7LRSN                1
 GAP=138        1.18       6.7     5.6  9.3 -0.7093E+01  0.1294E+02  0.3080E+01E
 Epicentro: LOS SANTOS - SANTANDER                                             3
 ACTION:UPD 14-04-09 23:21 OP:nd   STATUS:               ID:20140327220025 L   I
 OLDACT:REG 14-03-27 21:46 OP:fm   STATUS:               ID:20140327215820     3
 2014-03-27-2158-20M.COL___262                                                 6
 STAT SP IPHASW D HRMM SECON CODA AMPLIT PERI AZIMU VELO AIN AR TRES W  DIS CAZ7
 BAR2 SZ ES   1   22 1  0.63                             173    0.12 7 17.7 192 
 BAR2 HZ I        22 1  1.92        21.5 0.22            171           17.7 192 
 BRR  HZ EP   1   22 0 47.20                             152    0.20 7 73.6 303 
 BRR  HN ES       22 1  4.37                             152    0.7410 73.6 303 
 BRR  HZ I        22 1  7.15        14.1 0.44            149           73.6 303 
 PAM  SZ EP       22 0 48.30                             150    0.0810 82.1  37 
 PAM  SN ES       22 1  5.36                             150   -0.4210 82.1  37 
 PAM  HZ I        22 1  7.15         6.7 0.72            154           82.1  37 
 RUS  HZ EP   1   22 0 49.07                             146   -0.00 7 95.0 176 
 RUS  HN ES   1   22 1  7.56                             146    0.25 7 95.0 176 
 RUS  HZ I        22 1  8.29         6.0 0.58            149           95.0 176 
 PTB  HZ EP       22 0 51.91                             133   -0.64 9  146 261 
 PTB  HN ES       22 1 12.60                             133   -0.89 9  146 261 
 PTB  HZ I        22 1 22.27         5.3 1.74            132            146 261 
 ZAR  HZ EP   1   22 0 59.02                             122    0.69 6  206 294 
 ZAR  HN ES   1   22 1 23.85                             122    0.06 6  206 294 
 ZAR  HZ I        22 1 28.55         5.4 0.26            123            206 294 
 NOR  HN ES   1   22 1 29.46                             119    0.83 6  231 236 
                                                                                
