 2010  727 2206 39.8 L   6.764 -73.088148.3  RSN  5 0.1 1.5LRSN                1
 GAP=195        0.41       6.0     7.0  7.7 -0.2498E+01 -0.2111E+02 -0.2203E+02E
 Epicentro: LOS SANTOS - SANTANDER                                             3
 ACTION:UPD 10-12-01 15:20 OP:pat  STATUS:               ID:20100727220639 L   I
 2010-07-27-2202-59S.COL___122                                                 6
 STAT SP IPHASW D HRMM SECON CODA AMPLIT PERI AZIMU VELO AIN AR TRES W  DIS CAZ7
 BAR2 SZ IP       22 6 59.76                             171     0.110   22 209 
 BAR2 SZ ES   2   22 7 15.12                             171    -0.1 5   22 209 
 BAR2 SZ I        22 7 16.16         7.2 0.22                            22 209 
 GIR2 SZ EP   2   22 6 59.83                             165    -0.1 5   37 342 
 BRR  HZ IP     C 22 7  1.63                             150     0.010   79 299 
 BRR  HZ I        22 7  2.07        10.8 0.17                            79 299 
 BRR  HN ES   2   22 7 18.81                             150     0.1 5   79 299 
 GUE  SZ EP   1   22 7  4.73                             139    -0.2 7  119   9 
 GUE  SZ I        22 7  5.51         2.4 0.16                           119   9 
 GRA  SZ IP       22 7  5.60                             137     0.210  128  14 
 GRA  SZ I        22 7 26.22         5.0 0.37                           128  14 
                                                                                
