 2012 1227 2331 29.7 L   6.802 -73.162147.1  RSN 11 0.5 2.4LRSN                1
 GAP=181        1.14       3.6     5.0  6.4  0.4450E+01  0.1181E+02  0.3539E+01E
 Epicentro: LOS SANTOS - SANTANDER                                             3
 ACTION:UPD 13-01-04 14:30 OP:ep   STATUS:               ID:20121227233129 L   I
 2012-12-27-2330-00M.COL___243                                                 6
 STAT SP IPHASW D HRMM SECON CODA AMPLIT PERI AZIMU VELO AIN AR TRES W  DIS CAZ7
 BAR2 SZ EP       2331 49.50                             171    0.0410 23.3 186 
 BAR2 SZ ES       2332  4.60                             171   -0.3010 23.3 186 
 BAR2 SZ I        2332  5.94       110.3 0.16                          23.3 186 
 GIR2 SZ EP       2331 49.79                             168    0.3010 30.9 353 
 GIR2 SZ ES       2332  4.69                             168   -0.2610 30.9 353 
 GIR2 SZ I        2332  5.78        15.2 0.10                          30.9 353 
 BRR  HZ EP       2331 51.56                             153    0.6810 69.6 299 
 BRR  HN ES       2332  8.11                             153    0.7010 69.6 299 
 BRR  HN I        2332  8.74        95.7 0.24                          69.6 299 
 RUS  HZ EP       2331 53.69                             144    0.1110  101 175 
 RUS  HN ES       2332 11.94                             144   -0.2810  101 175 
 RUS  HN I        2332 13.77        48.8 0.24                           101 175 
 PTB  HZ EP       2331 56.41                             133   -0.19 9  146 259 
 PTB  HN ES       2332 17.27                             133   -0.33 9  146 259 
 PTB  HN I        2332 21.96        37.0 0.22                           146 259 
 OCA  HN ES       2332 19.96                             130   -0.23 9  160 354 
 OCA  HN I        2332 23.56        75.0 0.22                           160 354 
 ZAR  HZ EP       2332  2.77                             123    0.74 9  202 292 
 ZAR  HN ES       2332 27.67                             123    0.40 9  202 292 
 ZAR  HN I        2332 33.50        21.6 0.56                           202 292 
 SML  HN ES       2332 34.16                             118   -0.67 8  243 336 
 CHI  HZ EP       2332  6.50                             117   -0.92 8  248 195 
 CHI  HN ES       2332 37.52                             117    0.67 8  248 195 
 CHI  HN I        2332 43.52        16.4 0.54                           248 195 
 HEL  HZ EP       2332  9.64                             115   -0.13 8  270 256 
 HEL  HN ES       2332 40.62                             115   -0.42 8  270 256 
 HEL  HN I        2332 50.11         8.5 0.30                           270 256 
 URE  HN ES       2332 42.05                             114   -0.50 7  282 292 
 URE  HN I        2332 54.37        14.2 0.22                           282 292 
                                                                                
