 2015  527 2222 18.0 L   6.827 -73.045149.3  RSN  9 0.5 2.2LRSN                1
 GAP=210        1.04       3.6     6.3  8.2  0.5546E+01  0.2499E+01  0.6769E+00E
 Epicentro: LOS SANTOS - SANTANDER                                             3
 ACTION:UPD 15-09-10 22:07 OP:cam  STATUS:               ID:20150527222219 L   I
 OLDACT:UP  15-06-01 11:34 OP:Mher STATUS:               ID:20150527222219 L   3
 OLDACT:UP  15-05-28 04:49 OP:mh   STATUS:               ID:20150527221748     3
 OLDACT:UP  15-05-28 04:49 OP:mh   STATUS:               ID:20150527221748     3
 OLDACT:UP  15-05-28 04:49 OP:mh   STATUS:               ID:20150527221748     3
 OLDACT:UP  15-05-28 04:32 OP:mh   STATUS:               ID:20150527221748     3
 OLDACT:UP  15-05-28 04:25 OP:mh   STATUS:               ID:20150527221748     3
 OLDACT:UP  15-05-28 04:22 OP:mh   STATUS:               ID:20150527221748     3
 OLDACT:UP  15-05-28 04:22 OP:mh   STATUS:               ID:20150527221748     3
 OLDACT:UP  15-05-28 04:12 OP:mh   STATUS:               ID:20150527221748     3
 OLDACT:REG 15-05-28 03:02 OP:mh   STATUS:               ID:20150527221748     3
 2015-05-27-2217-48M.COL___306                                                 6
 STAT SP IPHASW D HRMM SECON CODA AMPLIT PERI AZIMU VELO AIN AR TRES W  DIS CAZ7
 BRR  HZ EP       2222 40.46                             150    0.4110 80.0 293 
 BRR  HN ES       2222 57.84                             150    0.6010 80.0 293 
 RUS  HZ EP   1   2222 42.85                             144    0.54 7  103 182 
 RUS  HN ES       2223  0.61                             144   -0.6610  103 182 
 RUS  HZ I        2223  3.86        12.1 0.38            143            103 182 
 SPBC HZ EP       2222 47.52                             128   -0.16 9  173 221 
 SPBC HN ES       2223 10.42                             128   -0.41 9  173 221 
 SPBC HZ I        2223 11.89        22.0 0.32            127            173 221 
 ZAR  HE ES       2223 17.46                             122   -0.42 8  213 290 
 ZAR  HZ I        2223 23.60        15.4 0.34            121            213 290 
 SML  HZ EP   1   2222 54.76                             118   -0.31 6  246 333 
 SML  HN ES       2223 23.61                             118   -0.37 8  246 333 
 SML  HZ I        2223 30.41        15.9 0.10            117            246 333 
 NOR  HZ EP   1   2222 54.73                             118   -0.38 6  246 235 
 NOR  HN ES       2223 23.76                             118   -0.29 8  246 235 
 NOR  HZ I        2223 26.00        10.6 0.20            117            246 235 
 CHI  HZ EP       2222 56.70                             117    0.14 8  255 197 
 CHI  HN ES       2223 27.29                             117    0.67 8  255 197 
 CHI  HZ I        2223 35.25         5.5 0.34            117            255 197 
 HEL  HE ES       2223 32.68                             114    0.49 7  284 256 
 HEL  HZ I        2223 37.19         7.3 0.34            114            284 256 
 GUY2CHZ EP   4   2223  4.33                             112    1.32 0  312 236 
 GUY2CHN ES   4   2223 40.22                             112    2.11 0  312 236 
 GUY2CHZ I        2223 43.39         5.9 0.26                           312 236 
                                                                                
