 2016  827 2154  7.5 L   6.787 -73.377113.0  RSN  5 0.2 1.6LRSN                1
 GAP=181        0.58       5.7     6.4  5.4  0.3131E+02  0.1382E+02  0.1092E+02E
 Epicentro: SAN VICENTE DE CHUCURI - SANTANDER                                 3
 ACTION:UPD 16-10-29 15:40 OP:rebc STATUS:               ID:20160827215407 L   I
 OLDACT:DUP 16-08-28 05:01 OP:dnl  STATUS:               ID:20160827214745d    3
 2016-08-27-2148-00M.COL___368                                                 6
 STAT SP IPHASW D HRMM SECON CODA AMPLIT PERI AZIMU VELO AIN AR TRES W  DIS CAZ7
 BAR2 EZ EP       2154 23.73                             164    0.2810 30.5 135 
 BAR2 EZ ES       2154 36.07                             164    0.2010 30.5 135 
 BAR2 EZ I        2154 37.31        19.5 0.64                          30.5 135 
 BRR  HZ EP       2154 23.75                             154   -0.2610 51.1 314 
 BRR  HN ES       2154 36.62                             154   -0.2510 51.1 314 
 BRR  HZ I        2154 37.77        14.0 0.36                          51.1 314 
 RUS  HZ EP       2154 28.47                             134   -0.0710  104 162 
 RUS  HN ES       2154 44.82                             134   -0.1010  104 162 
 RUS  HZ I        2154 45.60         5.2 0.22                           104 162 
 SPBC HZ EP   3   2154 31.80                             123   -0.30 2  147 212 
 SPBC HN ES   4   2154 48.36                             123   -2.90 0  147 212 
 ZAR  HN ES       2154 57.71                             117    0.28 9  181 296 
 ZAR  HZ I        2155  0.15         6.2 0.24                           181 296 
                                                                                
