 2017  327 2331 29.9 L   6.786 -73.139141.4  RSN  9 0.4 1.9LRSN                1
 GAP=138        1.09       4.4     4.4  6.9 -0.2672E+01  0.8146E+01  0.4338E+01E
 Epicentro: LOS SANTOS - SANTANDER                                             3
 ACTION:UPD 17-05-25 18:46 OP:jn   STATUS:               ID:20170327233129 L   I
 OLDACT:REG 17-03-28 02:42 OP:cog  STATUS:               ID:20170327232743     3
 2017-03-27-2328-00M.COL___360                                                 6
 STAT SP IPHASW D HRMM SECON CODA AMPLIT PERI AZIMU VELO AIN AR TRES W  DIS CAZ7
 BAR2 EZ EP       2331 49.03                             171    0.0710 22.0 192 
 BAR2 EZ ES       2332  3.79                             171   -0.0510 22.0 192 
 BAR2 EZ I        2332  5.71        22.8 0.16            170           22.0 192 
 BRR  HZ EP       2331 50.85                             151    0.2210 72.5 299 
 BRR  HE ES       2332  7.66                             151    0.8410 72.5 299 
 BRR  HZ I        2332 11.31        21.8 0.32            152           72.5 299 
 PAM  HZ EP       2331 51.98                             150    0.3010 78.1  38 
 PAM  EE ES       2332  8.18                             150   -0.5010 78.1  38 
 PAM  HZ I        2332 11.22        20.8 0.50            154           78.1  38 
 RUS  HZ EP       2331 53.03                             143   -0.0610 99.0 176 
 RUS  HN ES       2332 11.13                             143   -0.0610 99.0 176 
 RUS  HZ I        2332 12.97         7.6 0.36            145           99.0 176 
 PTB  HZ EP       2331 55.86                             131   -0.67 9  148 259 
 PTB  HN ES       2332 16.40                             131   -0.92 9  148 259 
 PTB  HZ I        2332 22.47         6.5 0.42            132            148 259 
 SPBC HZ EP       2331 58.14                             128    0.17 9  162 220 
 SPBC HN ES       2332 20.02                             128    0.13 9  162 220 
 SPBC HZ I        2332 22.51        15.8 0.30            130            162 220 
 ZAR  HN ES       2332 27.31                             121   -0.05 8  205 292 
 NOR  HZ EP       2332  5.48                             118    0.16 8  234 235 
 NOR  HN ES       2332 33.42                             118    0.45 8  234 235 
 NOR  HZ I        2332 35.72         3.7 0.14            120            234 235 
 CHI  HZ I        2332 40.32         4.9 0.56            119            247 195 
                                                                                
