 2017  427 2021 54.9 L   6.774 -73.148142.0  RSN  4 0.3 1.8LRSN                1
 GAP=137        0.49       2.6     3.1  6.3  0.4925E+00  0.7886E+01 -0.2283E+00E
 Epicentro: LOS SANTOS - SANTANDER                                             3
 ACTION:UPD 17-05-30 21:16 OP:jn   STATUS:               ID:20170427202154 L   I
 OLDACT:UP  17-04-28 08:26 OP:cog  STATUS:               ID:20170427201518     3
 OLDACT:REG 17-04-28 07:55 OP:cog  STATUS:               ID:20170427201518     3
 2017-04-27-2018-00M.COL___374                                                 6
 STAT SP IPHASW D HRMM SECON CODA AMPLIT PERI AZIMU VELO AIN AR TRES W  DIS CAZ7
 PAM  EZ EP       2022 16.88                             149    0.0710 79.8  38 
 PAM  EN ES       2022 33.75                             149   -0.1910 79.8  38 
 PAM  EZ I        2022 35.79        12.7 0.46            153           79.8  38 
 RUS  HZ EP       2022 18.10                             143    0.0710 97.8 176 
 RUS  HN ES       2022 36.07                             143   -0.0410 97.8 176 
 RUS  HZ I        2022 38.15        11.4 0.36            147           97.8 176 
 PTB  HZ EP   3   2022 21.79                             131    0.35 2  147 260 
 PTB  HN ES   3   2022 41.21                             131   -0.97 2  147 260 
 PTB  HZ I        2022 43.99         6.2 0.40            131            147 260 
 ZAR  HZ EP   3   2022 26.03                             121   -1.11 2  205 293 
 ZAR  HN ES       2022 52.57                             121    0.25 9  205 293 
 ZAR  HZ I        2022 59.12         5.1 0.24            122            205 293 
                                                                                
