 2014 1227 2223 38.7 L   6.827 -73.199144.4  RSN 22 0.5 2.3LRSN                1
 GAP=122        1.06       2.3     3.2  4.8 -0.9648E+00  0.4418E+01  0.7203E+00E
 Epicentro: ZAPATOCA - SANTANDER                                               3
 ACTION:UPD 15-02-10 17:07 OP:nd   STATUS:               ID:20141227222338 L   I
 OLDACT:REG 14-12-28 02:43 OP:fm   STATUS:               ID:20141227221750     3
 2014-12-27-2217-50M.COL___265                                                 6
 STAT SP IPHASW D HRMM SECON CODA AMPLIT PERI AZIMU VELO AIN AR TRES W  DIS CAZ7
 BAR2 EZ EP       2223 58.74                             169    0.5210 26.0 176 
 BAR2 EZ ES       2224 13.17                             169   -0.2810 26.0 176 
 BAR2 EZ I        2224 14.62        43.8 0.20            168           26.0 176 
 BRR  HZ EP     D 2224  0.31                             155    0.9710 64.6 299 
 BRR  HE ES       2224 15.86                             155    0.4310 64.6 299 
 BRR  HZ I        2224 20.80        23.7 0.12            151           64.6 299 
 PAM  SZ EP       2224  1.42                             150    0.5510 79.1  44 
 PAM  SE ES       2224 17.57                             150   -0.6010 79.1  44 
 PAM  SZ I        2224 20.57        48.4 0.42            155           79.1  44 
 RUS  HZ EP       2224  2.53                             142   -0.0410  104 173 
 RUS  HE ES       2224 21.25                             142    0.0610  104 173 
 RUS  HZ I        2224 22.18        31.4 0.24            145            104 173 
 PTB  HZ EP       2224  5.03                             133   -0.06 9  143 257 
 PTB  HN ES       2224 25.18                             133   -0.49 9  143 257 
 PTB  HZ I        2224 33.21        28.5 0.22            131            143 257 
 OCA  HZ EP       2224  6.30                             130   -0.27 9  157 355 
 OCA  HE ES       2224 28.10                             130   -0.20 9  157 355 
 OCA  HZ I        2224 35.50        18.9 0.32            132            157 355 
 SPBC HZ EP       2224  6.87                             129   -0.10 9  162 217 
 SPBC HE ES       2224 29.13                             129    0.11 9  162 217 
 SPBC HZ I        2224 36.51        38.4 0.22            129            162 217 
 ZAR  HZ EP       2224  9.99                             123   -0.38 9  197 292 
 ZAR  HN ES       2224 35.93                             123    0.85 9  197 292 
 ZAR  HZ I        2224 41.86        12.9 0.24            123            197 292 
 NOR  HZ EP       2224 14.59                             118    0.56 8  232 233 
 NOR  HE ES       2224 40.81                             118   -0.77 8  232 233 
 NOR  HZ I        2224 48.33        20.4 0.20            119            232 233 
 SML  HZ EP   1   2224 14.35                             118   -0.34 6  239 336 
 SML  HE ES       2224 42.55                             118   -0.21 8  239 336 
 SML  HZ I        2224 46.82        28.4 0.10            119            239 336 
 CHI  HZ EP       2224 16.67                             117    0.19 8  250 194 
 CHI  HE ES       2224 45.25                             117   -0.69 8  250 194 
 CHI  HZ I        2224 49.21        14.5 0.36            118            250 194 
 ROSC BZ EP       2224 16.59                             116   -0.11 8  252 210 
 ROSC BE ES       2224 46.76                             116    0.42 8  252 210 
 ROSC BZ I        2224 56.73        17.5 0.30            117            252 210 
 HEL  HZ EP   4   2224 20.44                             115    2.15 0  267 255 
 HEL  HE ES       2224 48.59                             115   -0.58 8  267 255 
 HEL  HZ I        2224 56.47        12.2 0.26            115            267 255 
 URE  HZ EP       2224 19.07                             114    0.11 7  277 292 
 URE  HE ES   4   2224 47.65                             114   -2.72 0  277 292 
 URE  HZ I        2225  1.12        15.5 0.16            114            277 292 
 VIL  SE ES       2224 56.43                             112    0.20 7  305 190 
 VIL  SZ I        2224 59.21        17.9 0.44            113            305 190 
 CBOC HZ EP       2224 24.98                             110   -0.04 7  329 251 
 CBOC HN ES       2225  0.54                             110   -0.61 7  329 251 
 CBOC HZ I        2225 12.41         3.3 0.48            111            329 251 
 DBB  SZ EP   1   2224 25.74                             110    0.32 5  333 274 
 DBB  SZ ES   1   2225  2.69                             110    0.84 5  333 274 
 DBB  SZ I        2225  6.38        26.0 0.30            110            333 274 
 TOL  SZ EP   4   2224 27.92                             109    1.25 0  342 224 
 TOL  SE ES       2225  4.64                             109    0.55 7  342 224 
 TOL  SZ I        2225 12.00        22.5 0.54            110            342 224 
 MON  HZ EP   4   2224 25.54                             109   -1.36 0  347 309 
 MON  HE ES       2225  3.82                             109   -0.67 6  347 309 
 MON  HZ I        2225  7.67         3.1 0.36            110            347 309 
 ANIL HN EP   4   2224 30.52                             108    2.30 0  355 223 
 ANIL HE ES   4   2225  8.66                             108    1.81 0  355 223 
 ANIL HN I        2225 12.37         8.1 0.30            109            355 223 
 SDV  BZ EP       2224 28.60                             108   -0.40 6  363  51 
 SDV  BN ES   4   2225  4.42                             108   -3.82 0  363  51 
 SDV  BZ I        2225  8.66         4.5 0.35            110            363  51 
 ORTC HZ EP   1   2224 31.71                             106   -0.74 4  394 215 
 ORTC HN ES       2225 14.19                             106   -0.18 6  394 215 
 ORTC HZ I        2225 22.42         4.2 0.20            107            394 215 
                                                                                
