 2014  628 0939 38.4 L   6.810 -73.125145.1  RSN  4 0.5 1.3LRSN                1
 GAP=139        1.23       5.4     7.4 13.4 -0.7831E+01  0.3035E+02  0.1504E+01E
 Epicentro: LOS SANTOS - SANTANDER                                             3
 ACTION:UPD 14-07-01 22:57 OP:nd   STATUS:               ID:20140628093938 L   I
 OLDACT:REG 14-06-28 13:58 OP:spq  STATUS:               ID:20140628093818     3
 2014-06-28-0938-18M.COL___240                                                 6
 STAT SP IPHASW D HRMM SECON CODA AMPLIT PERI AZIMU VELO AIN AR TRES W  DIS CAZ7
 PAM  SZ EP        940  0.86                             151    0.4810 75.1  39 
 PAM  SE ES        940 18.07                             151    0.5210 75.1  39 
 PAM  SZ I         940 20.04         5.8 0.60            153           75.1  39 
 RUS  HZ EP        940  1.97                             143   -0.1610  102 177 
 RUS  HN ES        940 20.18                             143   -0.4810  102 177 
 RUS  HZ I         940 21.24         2.4 0.36            146            102 177 
 PTB  HZ EP        940  5.55                             131    0.04 9  150 259 
 PTB  HN ES        940 27.09                             131    0.41 9  150 259 
 PTB  HZ I         940 28.46         2.1 0.44            133            150 259 
 OCA  HN ES        940 27.65                             130   -0.89 9  159 352 
                                                                                
