 2016  128 0735 24.1 L   6.817 -73.166142.6  RSN  7 0.3 1.3LRSN                1
 GAP=199        0.67       2.5     4.2  4.5  0.1302E+01  0.3909E+01 -0.1663E+01E
 Epicentro: LOS SANTOS - SANTANDER                                             3
 ACTION:UPD 16-03-09 23:29 OP:cam  STATUS:               ID:20160128073524 L   I
 OLDACT:REG 16-01-28 13:58 OP:cara STATUS:               ID:20160128072739     3
 2016-01-28-0727-39M.COL___327                                                 6
 STAT SP IPHASW D HRMM SECON CODA AMPLIT PERI AZIMU VELO AIN AR TRES W  DIS CAZ7
 BAR2 EZ EP        735 43.34                             170   -0.0510 24.9 184 
 BAR2 EZ ES        735 58.68                             170    0.2510 24.9 184 
 BAR2 EZ I         735 59.79         3.8 0.34            167           24.9 184 
 RUS  HZ EP        735 47.59                             143   -0.1010  103 175 
 RUS  HN ES        736  5.70                             143   -0.3910  103 175 
 RUS  HZ I         736  8.97         1.2 0.30            144            103 175 
 PTB  HZ EP        735 50.27                             132   -0.37 9  146 258 
 PTB  HN ES        736 11.33                             132   -0.02 9  146 258 
 PTB  HZ I         736 16.54         2.9 0.44            131            146 258 
 SPBC HZ EP        735 52.68                             128    0.32 9  163 218 
 SPBC HN ES        736 14.64                             128    0.23 9  163 218 
 SPBC HZ I         736 20.82         3.3 0.26            129            163 218 
 SML  HZ EP        736  0.70                             117    0.44 8  241 336 
 SML  HN ES        736 28.30                             117   -0.17 8  241 336 
 SML  HZ I         736 31.94         3.5 0.26            119            241 336 
 CHI  HZ EP        736  1.98                             116    0.22 8  250 195 
 CHI  HN ES        736 31.25                             116    0.12 8  250 195 
 CHI  HZ I         736 33.48         1.4 0.42            118            250 195 
 GUY2CHZ EP        736  7.07                             112   -0.41 7  300 234 
 GUY2CHE ES   4    736 45.93                             112    4.62 0  300 234 
 GUY2CHZ I         736 49.96         1.2 0.72                           300 234 
                                                                                
