 2014  828 0411  7.6 L   6.786 -73.150140.1  RSN 20 0.5 2.5LRSN                1
 GAP= 71        1.11       3.0     3.5  5.8 -0.1409E+01  0.3335E+01  0.4110E+01E
 Epicentro: LOS SANTOS - SANTANDER                                             3
 ACTION:UPD 14-09-15 21:53 OP:nd   STATUS:               ID:20140828041107 L   I
 OLDACT:DUP 14-08-28 14:57 OP:fm   STATUS:               ID:20140828040820d    3
 2014-08-28-0408-19M.COL___263                                                 6
 STAT SP IPHASW D HRMM SECON CODA AMPLIT PERI AZIMU VELO AIN AR TRES W  DIS CAZ7
 BAR2 SZ EP     C  411 26.60                             171    0.1310 21.8 189 
 BAR2 SZ ES   1    411 41.16                             171   -0.06 7 21.8 189 
 BAR2 SZ I         411 42.41        66.1 0.16            168           21.8 189 
 BRR  HZ EP        411 28.51                             152    0.4010 71.5 300 
 BRR  HN ES        411 44.56                             152    0.4210 71.5 300 
 BRR  HZ I         411 46.33        32.9 0.22            149           71.5 300 
 PAM  SZ EP        411 29.50                             149    0.2410 78.9  39 
 PAM  SN ES        411 46.20                             149    0.0110 78.9  39 
 PAM  SZ I         411 48.54        74.2 0.46            153           78.9  39 
 RUS  HZ EP        411 30.88                             143    0.2310 99.1 176 
 RUS  HN ES        411 49.02                             143    0.3710 99.1 176 
 RUS  HZ I         411 50.02        54.6 0.34            143           99.1 176 
 PTB  HZ EP        411 33.63                             131   -0.37 9  147 259 
 PTB  HN ES        411 53.61                             131   -1.01 9  147 259 
 PTB  HZ I         411 57.38        41.5 0.20            129            147 259 
 TAM  HZ EP     D  411 35.00                             129    0.20 9  155 104 
 SPBC HZ EP        411 35.48                             128   -0.00 9  162 219 
 SPBC HE ES        411 57.24                             128   -0.03 9  162 219 
 SPBC HZ I         411 59.93        52.1 0.26            127            162 219 
 OCA  HZ EP        411 35.38                             128   -0.19 9  162 353 
 OCA  HN ES        411 56.29                             128   -1.13 9  162 353 
 OCA  HZ I         412  0.83        38.5 0.22            129            162 353 
 ZAR  HZ EP   1    411 39.54                             121   -0.11 6  204 293 
 ZAR  HN ES        412  5.39                             121    0.71 9  204 293 
 ZAR  HZ I         412 12.81        27.6 0.20            120            204 293 
 NOR  HZ EP        411 42.84                             117    0.01 8  233 235 
 NOR  HN ES   4    412 10.27                             117   -0.06 0  233 235 
 NOR  HZ I         412 17.73        23.4 0.18            117            233 235 
 SML  HZ EP   4    411 41.89                             116   -2.11 0  245 336 
 SML  HN ES   4    412 10.75                             116   -1.67 0  245 336 
 SML  HZ I         412 15.89        28.9 0.10            116            245 336 
 CHI  HZ EP        411 44.77                             116   -0.01 8  247 195 
 CHI  HN ES   1    412 12.45                             116   -1.35 6  247 195 
 CHI  HZ I         412 17.35        14.8 0.58            116            247 195 
 ROSC BZ EP   4    411 46.44                             116    1.24 0  251 211 
 ROSC BN ES   1    412 14.98                             116    0.41 6  251 211 
 ROSC BZ I         412 24.16        22.1 0.30            115            251 211 
 HEL  HZ EP   4    411 48.94                             114    1.55 0  271 256 
 HEL  HN ES        412 18.42                             114   -0.04 8  271 256 
 HEL  HZ I         412 25.59        15.3 0.46            113            271 256 
 GUY2CHZ EP        411 51.80                             111    1.03 7  300 235 
 GUY2CHN ES   1    412 24.77                             111    0.30 5  300 235 
 GUY2CHZ I         412 31.51        13.8 0.26                           300 235 
 VIL  SN ES   1    412 23.56                             111   -0.51 5  302 192 
 VIL  SZ I         412 30.81        15.0 0.42            111            302 192 
 DBB  SZ ES   1    412 31.79                             108    0.20 5  339 275 
 DBB  SZ I         412 33.04        39.6 0.40            108            339 275 
 MON  HZ EP   4    411 54.50                             108   -1.91 0  354 309 
 MON  HN ES   4    412 32.91                             108   -1.60 0  354 309 
 MON  HZ I         412 39.14         4.8 0.42            108            354 309 
 PRA  HZ EP        412  0.26                             106   -0.45 6  390 210 
 PRA  HN ES        412 41.90                             106   -0.26 6  390 210 
 PRA  HZ I         412 48.30        10.2 0.38            106            390 210 
 SJC  HZ EP   4    412  1.27                             105   -1.79 0  410 327 
 SJC  HN ES   4    412 42.61                             105   -3.73 0  410 327 
 SJC  HZ I         412 46.47         9.9 0.54            105            410 327 
                                                                                
