 2011  628 0447 46.6 L   6.574 -73.281130.0  RSN  6 0.3 1.5LRSN                1
 GAP= 97        0.64       4.6     6.3  6.6  0.8105E+01  0.3197E+01 -0.8836E+01E
 Epicentro: PALMAR - SANTANDER                                                 3
 ACTION:UP  11-07-14 19:08 OP:ep   STATUS:               ID:20110628044746 L   I
 2011-06-28-0444-15S.COL___140                                                 6
 STAT SP IPHASW D HRMM SECON CODA AMPLIT PERI AZIMU VELO SNR AR TRES W  DIS CAZ7
 BAR2 SZ EP   1    448  4.67                             175     0.5 7   11  79 
 BAR2 SZ ES   2    448 17.28                             175    -0.6 5   11  79 
 BAR2 SZ I         448 20.76         5.8 0.20                            11  79 
 BTL  SZ EP        448  4.84                             163     0.010   38   2 
 BRR  HZ EP        448  6.33                             148    -0.110   76 321 
 BRR  HE ES   1    448 22.08                             148     0.3 7   76 321 
 BRR  HZ I         448 23.90        16.7 0.19                            76 321 
 RUS  HZ EP   1    448  7.31                             147     0.0 7   78 164 
 RUS  HZ I         448  7.69         4.2 0.21                            78 164 
 RUS  HE ES   1    448 23.24                             147    -0.1 7   78 164 
 OCA  SZ EP        448 15.94                             122    -0.3 9  184 359 
 OCA  SZ I         448 40.89         5.2 0.43                           184 359 
 HEL  HZ EP   2    448 23.84                             113     0.0 4  252 260 
 HEL  HN ES   2    448 52.55                             113    -0.3 4  252 260 
 HEL  HZ I         448 57.86         1.6 0.68                           252 260 
                                                                                
