 2012 1028 0022 32.3 L   6.763 -73.178143.4  RSN  5 0.4 1.8LRSN                1
 GAP=134        0.80       4.9     5.8 11.9  0.9777E+01  0.8702E+01 -0.1539E+02E
 Epicentro: VILLANUEVA - SANTANDER                                             3
 ACTION:UPD 12-11-22 17:06 OP:ep   STATUS:               ID:20121028002232 L   I
 2012-10-28-0020-00M.COL___231                                                 6
 STAT SP IPHASW D HRMM SECON CODA AMPLIT PERI AZIMU VELO AIN AR TRES W  DIS CAZ7
 BRR  HZ EP   1    022 53.59                             152    0.47 7 70.2 303 
 BRR  HN ES   2    023 10.15                             152    0.78 5 70.2 303 
 BRR  HN I         023 19.11        14.3 0.58                          70.2 303 
 PAM  SZ EP   1    022 54.25                             149   -0.34 7 82.8  40 
 PAM  SN ES   2    023 11.36                             149   -0.62 5 82.8  40 
 PAM  SN I         023 13.09         4.5 0.48                          82.8  40 
 RUS  HZ EP   1    022 55.81                             144    0.28 7 96.8 174 
 RUS  HN ES        023 13.59                             144   -0.0710 96.8 174 
 OCA  HN ES   2    023 23.54                             128    0.56 5  164 355 
 OCA  HN I         023 24.38        13.5 0.40                           164 355 
 ZAR  HE ES        023 29.01                             122   -0.44 9  202 294 
 ZAR  HE I         023 35.15         6.9 0.32                           202 294 
                                                                                
