 2015  428 0453 39.9 L   6.794 -73.099137.6  RSN  7 0.7 1.5LRSN                1
 GAP=211        1.62       6.5     9.7 12.0 -0.1346E+02  0.2039E+02 -0.2209E+02E
 Epicentro: LOS SANTOS - SANTANDER                                             3
 ACTION:UPD 15-06-03 16:58 OP:cam  STATUS:               ID:20150428045339 L   I
 OLDACT:UP  15-04-28 18:10 OP:drio STATUS:               ID:20150428044749     3
 OLDACT:REG 15-04-28 12:48 OP:drio STATUS:               ID:20150428044749     3
 2015-04-28-0447-49M.COL___285                                                 6
 STAT SP IPHASW D HRMM SECON CODA AMPLIT PERI AZIMU VELO AIN AR TRES W  DIS CAZ7
 BAR2 EZ EP        453 58.20                             170   -0.3510 24.1 202 
 BAR2 EZ ES        454 12.95                             170   -0.1610 24.1 202 
 BAR2 EZ I         454 14.06         6.9 0.34            172           24.1 202 
 BRR  HZ EP        454  0.06                             149   -0.3910 76.1 297 
 BRR  HN ES        454 16.82                             149    0.3310 76.1 297 
 BRR  HZ I         454 18.69         6.9 0.44            148           76.1 297 
 PTB  HZ EP        454  5.72                             129   -0.94 9  153 259 
 PTB  HE ES        454 28.13                             129    0.58 9  153 259 
 PTB  HZ I         454 31.05         2.2 0.30            131            153 259 
 OCA  HZ EP        454  8.53                             127    0.83 9  162 351 
 OCA  HN ES        454 29.71                             127    0.31 9  162 351 
 OCA  HZ I         454 35.43         6.1 0.48            128            162 351 
 SPBC HN ES        454 30.03                             127    0.03 9  166 221 
 ZAR  HZ EP        454 13.70                             120    1.36 8  209 292 
 ZAR  HE ES        454 37.12                             120   -0.53 8  209 292 
 SML  HE ES        454 43.70                             115   -1.13 8  247 334 
 SML  HZ I         454 47.25         3.6 0.30            116            247 334 
                                                                                
