 2014  228 0739  7.1 L   6.719 -73.504110.3  RSN  4 0.1 1.6LRSN                1
 GAP=192        0.40       1.7     3.8  4.2  0.6503E+00  0.8882E+01 -0.2181E+01E
 Epicentro: EL CARMEN DE CHUCURI - SANTANDER                                   3
 OLDACT:REG 14-02-28 09:19 OP:fm   STATUS:               ID:20140228073811     3
 OLDACT:UP  14-02-28 10:17 OP:fm   STATUS:               ID:20140228073811     3
 OLDACT:UP  14-02-28 10:14 OP:fm   STATUS:               ID:20140228073811     3
 ACTION:UPD 14-03-10 08:14 OP:ep   STATUS:               ID:20140228073907 L   I
 OLDACT:DUP 14-02-28 13:54 OP:stll STATUS:               ID:20140228073811     3
 2014-02-28-0738-11M.COL___174                                                 6
 STAT SP IPHASW D HRMM SECON CODA AMPLIT PERI AZIMU VELO AIN AR TRES W  DIS CAZ7
 BAR2 SZ EP        739 23.08                             160    0.0610 38.3 112 
 BAR2 SZ ES        739 35.53                             160    0.1010 38.3 112 
 BAR2 SZ I         739 36.49        28.2 0.46            155           38.3 112 
 RUS  HZ EP        739 27.94                             134    0.1810  103 153 
 RUS  HN ES        739 43.62                             134   -0.2410  103 153 
 RUS  HZ I         739 45.70         7.0 0.48            133            103 153 
 PAM  SZ EP        739 28.65                             131    0.0310  112  52 
 PAM  SN ES        739 45.34                             131   -0.0510  112  52 
 PAM  SZ I         739 49.12         3.5 0.62            129            112  52 
 SML  HZ EP        739 41.31                             109   -0.12 8  239 345 
 SML  HZ I         739 41.85         5.3 0.10            110            239 345 
 SML  HE ES        740  8.19                             109   -0.01 8  239 345 
                                                                                
