 2010  628 0055 36.1 L   6.763 -73.138148.0  RSN  5 0.2 1.7LRSN                1
 GAP=157        0.44       3.3     5.5  5.6  0.1608E+01 -0.1681E+02 -0.1974E+01E
 Epicentro: LOS SANTOS - SANTANDER                                             3
 ACTION:UP  10-08-24 10:13 OP:vdl  STATUS:               ID:20100628005536 L   I
 2010-06-28-0053-32S.COL___118                                                 6
 STAT SP IPHASW D HRMM SECON CODA AMPLIT PERI AZIMU VELO SNR AR TRES W  DIS CAZ7
 BAR2 SZ EP   1    055 55.76                             172    -0.2 7   20 195 
 BAR2 SZ ES   2    056 11.52                             172     0.1 5   20 195 
 BRR  HZ EP        055 57.55                             152    -0.110   74 301 
 BRR  HN ES        056 14.52                             152     0.110   74 301 
 BRR  HZ I         056 15.40        18.7 0.10                            74 301 
 RUS  HZ EP   1    055 59.93                             146     0.2 7   96 176 
 RUS  HZ I         056  1.14         4.5 0.17                            96 176 
 RUS  HN ES   2    056 18.17                             146    -0.1 5   96 176 
 BRI  SZ EP        056  0.37                             141    -0.110  112  20 
 GRA  SZ EP   2    056  2.48                             137     0.6 5  129  17 
 GRA  SZ ES   2    056 21.89                             137     0.0 5  129  17 
                                                                                
