 2013 1228 0652 59.4 L   7.488 -73.216129.1  RSN  4 0.2 1.2LRSN                1
 GAP=265        0.51       2.7     5.6  6.0 -0.2154E+01 -0.4740E+01 -0.4986E+01E
 Epicentro: EL PLAYON - SANTANDER                                              3
 ACTION:UPD 14-01-13 10:21 OP:ep   STATUS:               ID:20131228065259 L   I
 OLDACT:DUP 13-12-28 12:52 OP:mh   STATUS:               ID:20131228065001d    3
 OLDACT:REG 13-12-28 07:45 OP:mh   STATUS:               ID:20131228065000     3
 2013-12-28-0650-00M.COL___285                                                 6
 STAT SP IPHASW D HRMM SECON CODA AMPLIT PERI AZIMU VELO AIN AR TRES W  DIS CAZ7
 BRR  HZ EP        653 18.98                             150    0.3410 69.1 232 
 BRR  HN ES        653 33.51                             150   -0.1410 69.1 232 
 BRR  HZ I         653 34.78         3.1 0.12            149           69.1 232 
 SML  HZ EP        653 27.34                             123   -0.21 9  173 327 
 PTB  HZ EP   1    653 27.42                             123   -0.11 7  173 233 
 PTB  HN ES        653 49.36                             123   -0.11 9  173 233 
 PTB  HZ I         653 51.24         1.4 0.25            123            173 233 
 SML  HN ES        653 49.55                             123    0.03 9  173 327 
 SML  HZ I         653 51.88         2.4 0.09                           173 327 
 ZAR  HN ES   1    653 51.22                             122    0.19 7  181 270 
                                                                                
