 2017  928 0241 21.7 L   6.832 -73.082146.3  RSN  4 0.3 1.1LRSN                1
 GAP=143        0.74       4.3     6.3  6.5  0.2916E+01  0.3960E+01  0.5532E+01E
 Epicentro: LOS SANTOS - SANTANDER                                             3
 ACTION:UPD 17-10-05 19:17 OP:rebc STATUS:               ID:20170928024121 L   I
 OLDACT:DUP 17-09-28 16:21 OP:edw  STATUS:               ID:20170928023741d    3
 2017-09-28-0238-00M.COL___420                                                 6
 STAT SP IPHASW D HRMM SECON CODA AMPLIT PERI AZIMU VELO AIN AR TRES W  DIS CAZ7
 BAR2 EZ EP        241 41.45                             168   -0.0210 28.7 203 
 BAR2 EZ ES        241 56.48                             168   -0.4410 28.7 203 
 BAR2 EZ I         241 59.26         3.0 0.38            168           28.7 203 
 PAM  EN ES        242  0.69                             153    0.1210 70.3  37 
 BRR  HZ EP        241 43.29                             151    0.1510 76.0 294 
 BRR  HN ES        241 59.95                             151    0.0610 76.0 294 
 RUS  HZ EP        241 45.39                             143   -0.3010  104 180 
 RUS  HN ES        242  4.87                             143    0.4310  104 180 
 RUS  HZ I         242  5.57         1.7 0.32            144            104 180 
                                                                                
