 2010  328 0234  4.5 L   6.820 -73.060141.1  RSN 10 0.4 2.2LRSN                1
 GAP=192        0.72       3.7     8.0  6.1  0.5798E+01  0.2480E+02  0.4724E+01E
 Epicentro: LOS SANTOS - SANTANDER                                             3
 ACTION:UP  10-08-24 09:56 OP:vdl  STATUS:               ID:20100328023404 L   I
 2010-03-28-0231-08S.COL___107                                                 6
 STAT SP IPHASW D HRMM SECON CODA AMPLIT PERI AZIMU VELO SNR AR TRES W  DIS CAZ7
 BAR2 SZ IP        234 23.66                             168    -0.110   29 208 
 BAR2 SZ ES   1    234 38.38                             168    -0.3 7   29 208 
 BRR  HZ IP        234 25.73                             149     0.110   79 294 
 BRR  HE ES   1    234 42.42                             149     0.3 7   79 294 
 BRR  HZ I         234 47.14        57.7 0.14                            79 294 
 RUS  HZ EP   2    234 28.23                             142     0.2 5  103 181 
 RUS  HN ES   1    234 46.46                             142     0.2 7  103 181 
 RUS  HZ I         234 47.88        19.7 0.25                           103 181 
 OCA  SZ ES   1    234 54.00                             129    -0.1 7  159 350 
 OCA  SZ I         234 56.68        33.0 0.27                           159 350 
 CHI  HZ EP   2    234 42.42                             116    -0.1 4  253 197 
 CHI  HE ES   2    235 11.40                             116    -0.7 4  253 197 
 CHI  HZ I         235 21.37         5.9 0.41                           253 197 
 HEL  HZ EP        234 45.95                             113     0.3 7  282 256 
 HEL  HZ I         235 23.17         8.3 0.47                           282 256 
 RREF BZ EP   1    234 52.17                             109     0.7 5  330 230 
 RREF BE ES   2    235 27.71                             109    -0.4 3  330 230 
 RREF BZ I         235 32.73         6.5 0.24                           330 230 
 DBB  SZ EP        234 52.15                             108    -0.7 6  349 274 
 TOL  SZ EP   2    234 53.88                             108     0.3 3  352 225 
 PRA  HZ EP   2    234 58.02                             105    -0.7 3  399 211 
 PRA  HN ES   2    235 41.03                             105     0.1 3  399 211 
 PRA  HZ I         235 44.17         5.2 0.09                           399 211 
                                                                                
