 2015 1228 0911 18.5 L   6.803 -73.162146.4  RSN  7 0.4 1.4LRSN                1
 GAP=236        0.88       4.2     5.0  5.8  0.7572E+01  0.6698E+01  0.2465E+01E
 Epicentro: LOS SANTOS - SANTANDER                                             3
 ACTION:UPD 16-02-04 15:08 OP:cam  STATUS:               ID:20151228091118 L   I
 OLDACT:REG 15-12-28 13:46 OP:ak   STATUS:               ID:20151228090749     3
 2015-12-28-0907-49M.COL___331                                                 6
 STAT SP IPHASW D HRMM SECON CODA AMPLIT PERI AZIMU VELO AIN AR TRES W  DIS CAZ7
 BAR2 EZ EP        911 38.01                             170   -0.2310 23.4 185 
 BAR2 EZ ES        911 53.03                             170   -0.5910 23.4 185 
 BAR2 EZ I         911 55.67         5.6 0.26            169           23.4 185 
 BRR  HZ EP        911 39.88                             153    0.2310 69.4 299 
 BRR  HN ES        911 56.56                             153    0.4310 69.4 299 
 BRR  HZ I         911 60.00         5.1 0.40            152           69.4 299 
 RUS  HZ EP        911 42.40                             144    0.0210  101 175 
 RUS  HN ES        912  1.45                             144    0.4610  101 175 
 RUS  HZ I         912  2.53         3.4 0.24            145            101 175 
 PTB  HZ EP        911 44.75                             132   -0.65 9  146 259 
 PTB  HN ES        912  6.03                             132   -0.32 9  146 259 
 PTB  HZ I         912  9.08         2.0 0.35            132            146 259 
 SPBC HZ EP        911 47.17                             129    0.17 9  162 218 
 SPBC HN ES        912  9.31                             129    0.11 9  162 218 
 SPBC HZ I         912 11.98         4.1 0.13            130            162 218 
 ZAR  HZ EP        911 51.14                             123    0.31 9  202 292 
 ZAR  HN ES        912 16.14                             123    0.11 9  202 292 
 ZAR  HZ I         912 20.89         1.5 0.34            124            202 292 
 PRA  HZ EP   2    912 11.48                             107   -0.52 3  391 209 
 PRA  HN ES        912 53.82                             107    0.11 6  391 209 
 PRA  HZ I         912 58.12         1.0 0.42            108            391 209 
                                                                                
