 2017  728 0949 34.9 L   6.773 -73.124143.0  RSN 11 0.5 1.7LRSN                1
 GAP=122        0.61       3.0     2.7  4.4 -0.1124E+01  0.3982E+01 -0.2472E+01E
 Epicentro: LOS SANTOS - SANTANDER                                             3
 ACTION:UPD 17-08-30 15:37 OP:rebc STATUS:               ID:20170728094934 L   I
 OLDACT:UP  17-07-28 16:58 OP:and  STATUS:               ID:20170728094453     3
 OLDACT:UP  17-07-28 16:58 OP:and  STATUS:               ID:20170728094453     3
 OLDACT:UP  17-07-28 16:57 OP:and  STATUS:               ID:20170728094453     3
 OLDACT:UP  17-07-28 16:56 OP:and  STATUS:               ID:20170728094453     3
 OLDACT:UP  17-07-28 16:56 OP:and  STATUS:               ID:20170728094453     3
 OLDACT:UP  17-07-28 16:55 OP:and  STATUS:               ID:20170728094453     3
 OLDACT:UP  17-07-28 16:54 OP:and  STATUS:               ID:20170728094453     3
 OLDACT:UP  17-07-28 16:54 OP:and  STATUS:               ID:20170728094453     3
 OLDACT:UP  17-07-28 16:53 OP:and  STATUS:               ID:20170728094453     3
 OLDACT:REG 17-07-28 12:51 OP:and  STATUS:               ID:20170728094453     3
 2017-07-28-0948-00M.COL___377                                                 6
 STAT SP IPHASW D HRMM SECON CODA AMPLIT PERI AZIMU VELO AIN AR TRES W  DIS CAZ7
 BAR2 EZ IP     C  949 54.19                             171    0.0310 21.0 198 
 BAR2 EZ ES        950  9.03                             171   -0.1510 21.0 198 
 BAR2 EZ I         950  9.81        10.4 0.30            172           21.0 198 
 BRR  HZ EP        949 55.93                             151   -0.0410 74.7 300 
 BRR  HE ES   2    950 13.19                             151    0.80 5 74.7 300 
 BRR  HZ I         950 17.47         8.7 0.19            149           74.7 300 
 PAM  EZ EP        949 56.98                             150    0.1010 78.2  37 
 PAM  EN ES        950 13.88                             150   -0.1410 78.2  37 
 PAM  EZ I         950 14.61         6.7 0.36            152           78.2  37 
 RUS  HZ EP   2    949 58.53                             144    0.36 5 97.5 177 
 RUS  HN ES        950 16.47                             144    0.1610 97.5 177 
 RUS  HZ I         950 17.67         8.3 0.34            148           97.5 177 
 PTB  HZ EP   2    950  1.03                             131   -0.79 5  150 260 
 PTB  HN ES        950 22.51                             131   -0.30 9  150 260 
 PTB  HZ I         950 24.17         4.6 0.10            132            150 260 
 ZAR  HZ EP   3    950  8.86                             121    1.34 2  207 293 
 ZAR  HN ES        950 33.17                             121    0.21 8  207 293 
 ZAR  HZ I         950 41.21         6.3 0.30            122            207 293 
 NOR  HZ EP   2    950 11.15                             118    0.64 4  235 235 
 NOR  HN ES   1    950 38.16                             118   -0.12 6  235 235 
 HEL  HN ES   3    950 48.48                             114    1.92 2  274 257 
 URE  HZ EP        950 16.13                             113   -0.09 7  287 292 
 URE  HN ES   3    950 46.98                             113   -1.46 2  287 292 
 URE  HZ I         950 48.03         2.8 0.12            114            287 292 
 GUY2CHZ EP   9    950 22.41                             112    3.99 0  301 235 
 GUY2CHN ES        950 56.31                                   -0.04 7  301 235 
 GUY2CHZ I         951  1.96         1.8 0.38                           301 235 
 PTGC HZ EP   2    950 17.75                             111   -0.48 4  305 159 
                                                                                
