 2013  828 0247 12.3 L   6.817 -73.169140.9  RSN  5 0.5 1.5LRSN                1
 GAP=199        1.28       6.5     8.6 11.0  0.2760E+02 -0.1639E+02 -0.2701E+02E
 Epicentro: LOS SANTOS - SANTANDER                                             3
 ACTION:UPD 14-01-14 09:07 OP:ep   STATUS:               ID:20130828024712 L   I
 OLDACT:DUP 13-08-28 09:47 OP:nd   STATUS:               ID:20130828023902d    3
 OLDACT:DUP 13-08-28 09:37 OP:nd   STATUS:               ID:20130828023901d    3
 2013-08-28-0239-59M.COL___270                                                 6
 STAT SP IPHASW D HRMM SECON CODA AMPLIT PERI AZIMU VELO AIN AR TRES W  DIS CAZ7
 BRR  HZ IP     C  247 33.37                             153    0.6410 68.0 298 
 BRR  HN ES        247 49.06                             153    0.3810 68.0 298 
 BRR  HZ I         247 50.80         5.1 0.12            150           68.0 298 
 RUS  HZ EP        247 36.02                             142    0.3010  103 175 
 RUS  HN ES        247 53.62                             142   -0.3810  103 175 
 RUS  HZ I         247 56.37         1.5 0.34            144            103 175 
 PTB  HZ EP        247 38.46                             131   -0.21 9  146 258 
 PTB  HN ES        247 58.46                             131   -0.78 9  146 258 
 PTB  HZ I         248  4.84         3.4 0.28            131            146 258 
 ZAR  HN EP        247 44.58                             122    0.48 9  201 292 
 ZAR  HE ES        248  9.47                             122    0.56 9  201 292 
 ZAR  HN I         248 14.69         5.5 0.58            122            201 292 
 SML  HN EP        247 47.74                             117   -0.60 8  241 336 
 SML  HZ EP        247 47.88                                            241 336 
 SML  HE ES        248 15.75                             117   -0.71 8  241 336 
 SML  HZ I         248 20.05         3.5 0.10            118            241 336 
 SML  HN I         248 20.96         6.8 0.12                           241 336 
                                                                                
