 2016  928 0922 50.6 L   6.794 -73.084139.9  RSN  9 0.2 1.5LRSN                1
 GAP=189        0.52       1.8     3.6  3.6 -0.2048E+00  0.2400E+01  0.1490E+01E
 Epicentro: LOS SANTOS - SANTANDER                                             3
 ACTION:UPD 17-08-17 21:17 OP:lp   STATUS:               ID:20160928092250 L   I
 OLDACT:UP  16-09-28 19:15 OP:edw  STATUS:               ID:20160928091734     3
 OLDACT:UP  16-09-28 19:14 OP:edw  STATUS:               ID:20160928091734     3
 OLDACT:UP  16-09-28 18:49 OP:edw  STATUS:               ID:20160928091734     3
 OLDACT:REG 16-09-28 13:27 OP:dani STATUS:               ID:20160928091734     3
 2016-09-28-0918-00M.COL___375                                                 6
 STAT SP IPHASW D HRMM SECON CODA AMPLIT PERI AZIMU VELO AIN AR TRES W  DIS CAZ7
 BAR2 EZ EP        923  9.52                             169   -0.0110 24.8 206 
 BAR2 EZ ES        923 24.63                             169    0.3210 24.8 206 
 BAR2 EZ I         923 27.11         6.1 0.18            168           24.8 206 
 BRR  HZ EP        923 11.41                             149   -0.0610 77.6 297 
 BRR  HN ES        923 27.69                             149   -0.0810 77.6 297 
 RUS  HZ EP        923 13.69                             143    0.0110 99.7 180 
 RUS  HN ES        923 31.64                             143   -0.0710 99.7 180 
 RUS  HZ I         923 33.25         3.2 0.32            145           99.7 180 
 PTB  HZ EP   4    923 16.45                             129   -1.23 0  154 260 
 PTB  HE ES   4    923 38.15                             129   -0.68 0  154 260 
 PTB  HZ I         923 40.72         2.2 0.25            129            154 260 
 OCA  HZ EP   4    923 18.58                             128   -0.01 0  162 351 
 OCA  HN ES        923 40.40                             128   -0.04 9  162 351 
 OCA  HZ I         923 43.83        10.4 0.46            129            162 351 
 SPBC HZ EP   4    923 18.45                             127   -0.55 0  167 221 
 SPBC HN ES        923 40.73                             127   -0.45 9  167 221 
 SPBC HZ I         923 46.12         4.7 0.13            128            167 221 
 ZAR  HZ EP   4    923 32.57                             120    9.23 0  211 292 
 ZAR  HN ES   4    923 47.73                             120   -1.16 0  211 292 
 ZAR  HZ I         923 52.97         3.2 0.14            121            211 292 
 NOR  HN ES   4    923 53.18                             117   -1.40 0  240 236 
 CHI  HZ EP        923 28.01                             116   -0.08 8  250 197 
 CHI  HN ES        923 57.44                             116    0.09 8  250 197 
 GUY2CHZ EP        923 34.74                             111    0.23 7  306 236 
 GUY2CHN ES        924  9.14                             111    0.36 7  306 236 
 GUY2CHZ I         924 16.09         1.9 0.52                           306 236 
 SJC  HZ EP   4    923 43.44                             104   -3.02 0  414 326 
 SJC  HN ES   4    924 25.78                             104   -4.27 0  414 326 
                                                                                
