 2010  428 0112 59.3 L   6.869 -72.949144.4  RSN  4 0.3 1.8LRSN                1
 GAP=284        0.35       9.0     9.0  6.7  0.3274E+02 -0.6497E+01  0.5584E+01E
 Epicentro: GUACA - SANTANDER                                                  3
 ACTION:UPD 10-08-24 10:01 OP:vdl  STATUS:               ID:20100428011258 L   I
 2010-04-28-0108-29S.COL___104                                                 6
 STAT SP IPHASW D HRMM SECON CODA AMPLIT PERI AZIMU VELO AIN AR TRES W  DIS CAZ7
 BAR2 SZ EP   1    113 19.29                             164     0.0 7   40 220 
 BAR2 SZ ES   2    113 34.78                             164     0.0 5   40 220 
 BRR  HZ EP   2    113 21.61                             146     0.2 5   88 287 
 BRR  HN ES   2    113 38.47                             146    -0.2 5   88 287 
 BRR  HZ I         113 41.11        10.8 0.03                            88 287 
 RREF BZ EP   3    113 47.41                             109    -0.5 2  343 231 
 RREF BN ES   3    114 26.33                             109     0.6 2  343 231 
 RREF BZ I         114 31.84         2.7 0.33                           343 231 
 PRA  HZ EP   3    113 54.29                             105    -0.6 1  410 212 
 PRA  HZ I         114 43.77         1.9 0.39                           410 212 
                                                                                
