 2015  128 0953 16.0 L   6.812 -73.138142.5  RSN  9 0.4 1.7LRSN                1
 GAP=137        1.03       3.2     5.2  5.9  0.1232E+01  0.8604E+01  0.3257E+00E
 Epicentro: LOS SANTOS - SANTANDER                                             3
 ACTION:UPD 15-03-02 15:43 OP:nd   STATUS:               ID:20150128094816 L   I
 OLDACT:UP  15-01-28 15:45 OP:cam  STATUS:               ID:20150128094816 L   3
 OLDACT:UPD 15-01-28 15:03 OP:CF   STATUS:               ID:20150128094816 L   3
 2015-01-28-0948-16M.COL___268                                                 6
 STAT SP IPHASW D HRMM SECON CODA AMPLIT PERI AZIMU VELO AIN AR TRES W  DIS CAZ7
 BAR2 EZ EP        953 35.35                             170    0.0510 24.8 191 
 BAR2 EZ ES        953 49.51                             170   -0.8110 24.8 191 
 BAR2 EZ I         953 51.34         8.9 0.16            169           24.8 191 
 BRR  HZ EP        953 37.13                             152    0.3010 71.3 297 
 BRR  HN ES        953 53.64                             152    0.5810 71.3 297 
 BRR  HZ I         953 57.76        13.9 0.14            150           71.3 297 
 PAM  SZ EP        953 38.25                             151    0.4510 75.8  40 
 PAM  SN ES        953 54.95                             151    0.1710 75.8  40 
 PAM  SZ I         953 57.36         4.8 0.48            154           75.8  40 
 RUS  HZ EP        953 40.00                             143    0.4510  102 177 
 RUS  HN ES        953 57.94                             143    0.0410  102 177 
 RUS  HN I         953 58.92        10.9 0.20            144            102 177 
 PTB  HZ EP        953 42.40                             131   -0.43 9  149 258 
 PTB  HN ES   4    954  2.02                             131   -1.72 0  149 258 
 PTB  HZ I         954  5.82         5.6 0.12            131            149 258 
 OCA  HZ EP        953 43.84                             129   -0.13 9  159 353 
 OCA  HN ES        954  5.11                             129   -0.65 9  159 353 
 OCA  HZ I         954  8.29         6.5 0.38            130            159 353 
 ZAR  HZ EP        953 48.45                             121    0.16 9  204 292 
 ZAR  HN ES        954 13.70                             121    0.24 9  204 292 
 ZAR  HZ I         954 19.00         7.1 0.48            122            204 292 
 SML  HZ EP        953 52.00                             117   -0.38 8  243 335 
 SML  HN ES   4    954 18.99                             117   -1.74 0  243 335 
 SML  HZ I         954 24.77         6.8 0.10            118            243 335 
 CHI  HZ EP        953 53.50                             116   -0.21 8  250 195 
 CHI  HN ES        954 22.92                             116   -0.19 8  250 195 
 CHI  HZ I         954 30.48         1.6 0.56            117            250 195 
                                                                                
