 2015  128 0725 38.5 L   6.638 -73.722 70.0  RSN  4 0.3 0.8LRSN                1
 GAP=192        0.87       8.7     4.4 13.8  0.2754E+02 -0.2189E+02 -0.6191E+02E
 Epicentro: EL CARMEN - SANTANDER                                              3
 ACTION:UPD 15-03-02 15:43 OP:nd   STATUS:               ID:20150128071820 L   I
 OLDACT:UPD 15-01-28 15:03 OP:CF   STATUS:               ID:20150128071820 L   3
 2015-01-28-0718-20M.COL___268                                                 6
 STAT SP IPHASW D HRMM SECON CODA AMPLIT PERI AZIMU VELO AIN AR TRES W  DIS CAZ7
 PTB  HZ EP        725 52.69                             125   -0.6610 81.9 262 
 PTB  HN ES        726  5.06                             125    0.1310 81.9 262 
 PTB  HZ I         726  6.77         2.2 0.18            130           81.9 262 
 RUS  HZ EP        725 56.65                             117   -0.1410  109 139 
 RUS  HN ES        726 11.27                             117    0.2110  109 139 
 ZAR  HZ EP        726  2.10                             108    0.36 9  157 307 
 HEL  HN ES        726 31.22                             103    0.20 8  206 256 
                                                                                
