 2012  428 0530  2.5 L   6.813 -73.191147.4  RSN  5 0.2 1.4LRSN                1
 GAP=130        0.51       3.7     3.2  5.9 -0.2022E+00  0.5976E+01 -0.1802E+01E
 Epicentro: ZAPATOCA - SANTANDER                                               3
 ACTION:UPD 12-07-05 11:56 OP:tino STATUS:               ID:20120428053002 L   I
 2012-04-28-0530-00M.COL___189                                                 6
 STAT SP IPHASW D HRMM SECON CODA AMPLIT PERI AZIMU VELO AIN AR TRES W  DIS CAZ7
 BAR2 SZ ES   1    530 37.92                             170     0.1 7   24 178 
 PAM  SZ EP   1    530 25.14                             150     0.2 7   80  43 
 PAM  SE ES   1    530 42.45                             150    -0.1 7   80  43 
 RUS  HZ EP   1    530 26.27                             144    -0.2 7  102 173 
 RUS  HN ES   1    530 45.09                             144    -0.2 7  102 173 
 RUS  HZ I         530 46.10         4.5 0.16                           102 173 
 PTB  HZ EP   1    530 29.40                             133     0.3 7  143 258 
 PTB  HN ES   1    530 50.15                             133     0.2 7  143 258 
 ZAR  HN ES   1    530 59.07                             123    -0.4 6  199 292 
 ZAR  HZ I         531  5.40         1.8 0.25                           199 292 
                                                                                
