 2012  728 0224  5.9 L   6.791 -73.168147.7  RSN  5 0.4 1.3LRSN                1
 GAP=234        0.56       7.1     9.1  8.4  0.5076E+02  0.4254E+01 -0.1282E+02E
 Epicentro: LOS SANTOS - SANTANDER                                             3
 ACTION:UPD 12-08-14 11:45 OP:ep   STATUS:               ID:20120728022406 L   I
 2012-07-28-0220-00M.COL___215                                                 6
 STAT SP IPHASW D HRMM SECON CODA AMPLIT PERI AZIMU VELO AIN AR TRES W  DIS CAZ7
 BAR2 SZ ES   2    224 40.70                             171    -0.5 5   22 184 
 BRR  HZ EP        224 27.20                             153     0.010   70 300 
 BRR  HN ES   1    224 43.82                             153     0.1 7   70 300 
 BRR  HZ I         224 45.69         5.7 0.18            149             70 300 
 RUS  HZ EP   3    224 29.81                             144     0.0 2  100 175 
 RUS  HE ES        224 48.55                             144     0.110  100 175 
 RUS  HZ I         224 49.99         2.2 0.36            142            100 175 
 PTB  HZ EP   3    224 31.69                             133    -1.1 2  145 259 
 PTB  HN ES   3    224 52.85                             133    -0.9 2  145 259 
 PTB  HZ I         224 58.47         1.9 0.56            129            145 259 
 ZAR  HN ES   1    225  3.73                             123     0.2 6  202 293 
