 2014  628 0647 25.8 L   5.959 -73.678128.0  RSN  4 0.4 1.2LRSN                1
 GAP=136        0.97       7.1     4.6  9.0  0.1035E+01  0.9427E+00 -0.1784E+02E
 Epicentro: VELEZ - SANTANDER                                                  3
 ACTION:UPD 14-07-01 22:57 OP:nd   STATUS:               ID:20140628064725 L   I
 OLDACT:REG 14-06-28 13:45 OP:spq  STATUS:               ID:20140628063820     3
 2014-06-28-0638-20M.COL___246                                                 6
 STAT SP IPHASW D HRMM SECON CODA AMPLIT PERI AZIMU VELO AIN AR TRES W  DIS CAZ7
 SPBC HN ES        647 59.11                             155    0.4110 55.3 232 
 SPBC HZ I         648  2.27         4.7 0.18            156           55.3 232 
 RUS  HZ EP        647 45.46                             151   -0.0110 66.3  96 
 RUS  HN ES        648  0.28                             151   -0.5410 66.3  96 
 RUS  HZ I         648  2.90         1.2 0.18            157           66.3  96 
 BAR2 SZ EP        647 46.59                             143   -0.0210 88.9  38 
 BAR2 SZ ES        648  3.35                             143    0.5110 88.9  38 
 BAR2 SZ I         648  4.30         6.1 0.52            147           88.9  38 
 PTB  HZ EP        647 47.86                             137    0.1210  107 307 
 PTB  HN ES        648  4.39                             137   -0.4610  107 307 
 PTB  HZ I         648  9.59         2.5 0.36            139            107 307 
                                                                                
