 2016  928 0321 47.7 L   6.797 -73.168151.4  RSN  9 0.5 1.5LRSN                1
 GAP=207        1.14       6.4     7.3  7.3  0.2056E+02  0.1118E+02  0.2380E+01E
 Epicentro: LOS SANTOS - SANTANDER                                             3
 ACTION:UPD 17-08-17 21:17 OP:lp   STATUS:               ID:20160928032147 L   I
 OLDACT:UP  16-09-28 15:24 OP:dani STATUS:               ID:20160928031734     3
 OLDACT:REG 16-09-28 12:58 OP:dani STATUS:               ID:20160928031734     3
 2016-09-28-0318-00M.COL___384                                                 6
 STAT SP IPHASW D HRMM SECON CODA AMPLIT PERI AZIMU VELO AIN AR TRES W  DIS CAZ7
 BAR2 EZ ES        322 23.30                             171   -0.5410 22.7 184 
 BRR  HE ES        322 26.87                             154    0.6210 69.2 300 
 RUS  HZ EP        322 12.18                             145    0.1710  100 175 
 RUS  HN ES        322 31.00                             145    0.0310  100 175 
 RUS  HZ I         322 32.61         2.1 0.27            130            100 175 
 PTB  HZ EP        322 14.76                             134   -0.16 9  145 259 
 PTB  HE ES        322 35.49                             134   -0.66 9  145 259 
 PTB  HZ I         322 37.68         3.6 0.42            120            145 259 
 SPBC HZ EP        322 17.28                             131    0.80 9  161 218 
 SPBC HN ES        322 38.68                             131   -0.24 9  161 218 
 SPBC HZ I         322 43.47         6.6 0.18            116            161 218 
 ZAR  HE ES        322 46.06                             124    0.33 9  202 292 
 NOR  HZ EP        322 23.64                             120    0.10 8  232 234 
 NOR  HZ I         322 57.50         2.3 0.18            108            232 234 
 CHI  HZ EP   9    322 24.16                             118   -1.47 0  248 195 
 CHI  HN ES   2    322 53.67                             119   -0.06 4  248 195 
 CHI  HZ I         322 59.45         1.7 0.35            107            248 195 
 SJC  HZ EP        322 42.24                             106   -1.09 6  408 327 
 SJC  HN ES   4    323 23.91                             106   -2.81 0  408 327 
 SJC  HZ I         323 27.23         1.0 0.29             98            408 327 
                                                                                
