 2011  728 0335 48.0 L   6.784 -73.060145.7  RSN  7 0.3 1.4LRSN                1
 GAP=168        0.55       3.6     9.0  6.4  0.1447E+01 -0.1694E+02 -0.4494E+01E
 Epicentro: LOS SANTOS - SANTANDER                                             3
 ACTION:UPD 12-07-25 14:03 OP:epov STATUS:               ID:20110728033548 L   I
 2011-07-28-0320-00M.COL___142                                                 6
 STAT SP IPHASW D HRMM SECON CODA AMPLIT PERI AZIMU VELO AIN AR TRES W  DIS CAZ7
 BAR2 SZ EP   1    336  7.41                             170   -0.24 7 25.2 212 
 BAR2 SZ ES   2    336 22.51                             170   -0.47 5 25.2 212 
 BAR2 SZ I         336 25.00         6.8 0.15                          25.2 212 
 BTL  SZ EP   2    336  8.10                             169    0.40 5 27.3 303 
 BTL  SZ ES   2    336 23.63                             169    0.56 5 27.3 303 
 GIR2 SZ EP   2    336  7.73                             166   -0.05 5 35.7 336 
 BRR  HZ EP   1    336  9.32                             150   -0.35 7 80.4 296 
 BRR  HE ES   2    336 26.63                             150    0.05 5 80.4 296 
 BRR  HZ I         336 28.77         8.3 0.17                          80.4 296 
 RUS  HZ EP   1    336 11.55                             144   -0.04 7 98.7 181 
 RUS  HE ES   2    336 30.42                             144    0.41 5 98.7 181 
 RUS  HZ I         336 30.92         2.3 0.31                          98.7 181 
 GRA  SZ EP   1    336 13.13                             137   -0.03 7  125  13 
 GRA  SZ ES   2    336 32.55                             137   -0.24 5  125  13 
 GRA  SZ I         336 49.07         3.5 0.47                           125  13 
 OCA  SZ EP   1    336 17.11                             129    0.53 7  163 350 
 OCA  SZ ES   2    336 38.66                             129   -0.23 5  163 350 
 OCA  SZ I         336 43.64         3.8 0.29                           163 350 
                                                                                
