 2014  528 0207  6.1 L   6.846 -73.352124.3  RSN  6 0.5 1.9LRSN                1
 GAP=166        1.19       4.5     6.4  8.4  0.6081E+01  0.4910E+01 -0.8777E+01E
 Epicentro: ZAPATOCA - SANTANDER                                               3
 ACTION:UPD 15-03-16 17:01 OP:nd   STATUS:               ID:20140528020706 L   I
 OLDACT:UP  14-05-28 13:21 OP:cam  STATUS:               ID:20140528020000     3
 OLDACT:REG 14-05-28 12:48 OP:cam  STATUS:               ID:20140528020000     3
 2014-05-28-0200-00M.COL___276                                                 6
 STAT SP IPHASW D HRMM SECON CODA AMPLIT PERI AZIMU VELO AIN AR TRES W  DIS CAZ7
 BAR2 SZ EP     C  2 7 23.63                             164    0.1510 33.7 146 
 BAR2 SZ ES        2 7 36.48                             164   -0.5310 33.7 146 
 BAR2 SZ I         2 7 37.92        41.9 0.28            166           33.7 146 
 BRR  HZ EP     D  2 7 23.95                             157    0.1910 49.2 306 
 BRR  HE ES        2 7 38.09                             157    0.5810 49.2 306 
 BRR  HZ I         2 7 38.35         7.3 0.12            152           49.2 306 
 RUS  HZ EP        2 7 28.42                             136   -0.1510  110 164 
 RUS  HN ES        2 7 46.05                             136   -0.0210  110 164 
 PTB  HZ EP        2 7 28.88                             131   -0.5510  127 255 
 PTB  HN ES        2 7 46.92                             131   -0.6910  127 255 
 PTB  HZ I         2 7 50.72        10.3 0.48            128            127 255 
 SPBC HN ES        2 7 53.40                             125    0.93 9  154 211 
 SPBC HN I         2 7 58.88        10.6 0.30            123            154 211 
 SML  HZ EP        2 7 40.33                             114    0.19 8  230 340 
 SML  HE ES        2 8  6.67                             114   -0.01 8  230 340 
 SML  HZ I         2 8 15.73         8.7 0.10            112            230 340 
                                                                                
