 2015 1128 0216 47.2 L   6.831 -73.176144.5  RSN 18 0.4 2.3LRSN                1
 GAP=131        1.01       2.4     3.6  4.8 -0.2340E+01  0.5147E+01 -0.2812E+00E
 Epicentro: ZAPATOCA - SANTANDER                                               3
 ACTION:UPD 15-12-28 16:13 OP:cam  STATUS:               ID:20151128021647 L   I
 OLDACT:REG 15-11-28 12:20 OP:drio STATUS:               ID:20151128020741     3
 2015-11-28-0207-41M.COL___307                                                 6
 STAT SP IPHASW D HRMM SECON CODA AMPLIT PERI AZIMU VELO AIN AR TRES W  DIS CAZ7
 BAR2 EZ IP     D  217  6.73                             169    0.0010 26.4 182 
 BAR2 EZ ES        217 21.88                             169   -0.0910 26.4 182 
 BAR2 EZ I         217 23.35        61.9 0.18            166           26.4 182 
 BRR  HZ IP     C  217  8.53                             154    0.5810 66.7 297 
 BRR  HN ES        217 24.03                             154   -0.1110 66.7 297 
 BRR  HZ I         217 29.50        61.1 0.46            148           66.7 297 
 PAM  EZ EP        217  9.68                             151    0.4410 77.0  43 
 PAM  EN ES        217 26.76                             151    0.3110 77.0  43 
 PAM  EZ I         217 28.90        64.6 0.52            158           77.0  43 
 RUS  HZ EP        217 10.73                             142   -0.3510  104 174 
 RUS  HN ES        217 29.39                             142   -0.3210  104 174 
 RUS  HZ I         217 30.48        12.6 0.30            145            104 174 
 PTB  HZ EP        217 13.47                             132   -0.35 9  145 257 
 PTB  HN ES        217 34.44                             132   -0.15 9  145 257 
 PTB  HZ I         217 41.62        28.4 0.44            130            145 257 
 OCA  HZ EP        217 14.44                             130   -0.61 9  157 354 
 OCA  HE ES        217 37.03                             130    0.25 9  157 354 
 SPBC HZ EP        217 15.78                             129    0.13 9  164 217 
 SPBC HN ES        217 37.90                             129    0.06 9  164 217 
 SPBC HZ I         217 45.60        26.1 0.24            128            164 217 
 ZAR  HZ EP        217 19.76                             123    0.66 9  200 292 
 ZAR  HN ES        217 43.21                             123   -0.78 9  200 292 
 ZAR  HZ I         217 50.77        26.5 0.30            122            200 292 
 NOR  HZ EP        217 23.06                             118    0.29 8  234 233 
 NOR  HE ES        217 49.70                             118   -0.82 8  234 233 
 NOR  HZ I         217 56.66        10.8 0.20            118            234 233 
 SML  HZ EP        217 23.31                             118    0.05 8  239 336 
 SML  HN ES        217 51.64                             118    0.25 8  239 336 
 SML  HZ I         217 54.45        35.4 0.26            119            239 336 
 ROSC BZ EP   4    217 26.87                             116    1.50 0  254 210 
 ROSC BN ES        217 55.67                             116    0.52 8  254 210 
 ROSC BZ I         218  2.83        20.3 0.35            117            254 210 
 HEL  HZ EP   4    217 29.48                             115    2.41 0  270 255 
 HEL  HN ES        217 59.02                             115    0.84 8  270 255 
 HEL  HZ I         218  7.02         7.2 0.28            115            270 255 
 URE  HZ EP        217 27.45                             114   -0.26 7  280 292 
 URE  HN ES   4    217 57.57                             114   -1.75 0  280 292 
 URE  HZ I         218  9.88        13.2 0.18            114            280 292 
 GUY2CHZ EP   4    217 32.02                             112    1.36 0  300 234 
 GUY2CHN ES        218  4.92                             112    0.36 7  300 234 
 GUY2CHZ I         218 14.11         5.3 0.26                           300 234 
 SOCV BZ EP   4    217 28.69                             112   -1.59 0  302  58 
 SOCV BN ES   4    218  0.39                             112   -3.51 0  302  58 
 PTGC HZ EP   4    217 29.81                             111   -1.67 0  313 158 
 PTGC HE ES   4    218  2.58                             111   -3.45 0  313 158 
 LL6C HZ EP        217 31.43                             110   -1.00 7  321 358 
 LL6C HN ES   4    218  5.40                             110   -2.32 0  321 358 
 CBOC HZ EP   4    217 35.16                             110    1.35 0  332 251 
 CBOC HN ES   4    218  9.01                             110   -1.16 0  332 251 
 CBOC HZ I         218 31.27         2.5 0.58            110            332 251 
 PRA  HZ EP        217 40.77                             106   -0.05 6  393 209 
 PRA  HE ES        218 22.39                             106   -0.26 6  393 209 
 ORTC HZ EP        217 41.37                             106    0.21 6  396 215 
 ORTC HE ES        218 23.31                             106    0.06 6  396 215 
 ORTC HZ I         218 28.12         6.3 0.26            107            396 215 
                                                                                
