 2015  328 0654 17.8 L   6.799 -73.157140.2  RSN 11 0.5 1.7LRSN                1
 GAP=135        1.27       3.7     5.1  7.6 -0.3827E+01  0.1039E+02 -0.5544E+01E
 Epicentro: LOS SANTOS - SANTANDER                                             3
 ACTION:UPD 15-04-30 16:30 OP:nd   STATUS:               ID:20150328065417 L   I
 OLDACT:REG 15-03-28 13:38 OP:fm   STATUS:               ID:20150328064735     3
 2015-03-28-0647-35M.COL___275                                                 6
 STAT SP IPHASW D HRMM SECON CODA AMPLIT PERI AZIMU VELO AIN AR TRES W  DIS CAZ7
 BAR2 EZ EP        654 37.11                             170    0.3310 23.0 187 
 BAR2 EZ ES        654 51.06                             170   -0.5110 23.0 187 
 BAR2 EZ I         654 52.93         7.6 0.28            170           23.0 187 
 BRR  HZ EP        654 38.81                             152    0.4910 70.2 299 
 BRR  HN ES        654 55.06                             152    0.7610 70.2 299 
 BRR  HZ I         655  1.41         9.4 0.12            149           70.2 299 
 PAM  SZ EP        654 40.03                             149    0.5210 78.3  40 
 PAM  SN ES        654 56.63                             149    0.2010 78.3  40 
 PAM  SZ I         654 59.00        10.2 0.66            154           78.3  40 
 RUS  HZ EP   1    654 41.53                             143    0.50 7  101 175 
 RUS  HE ES        654 58.82                             143   -0.3110  101 175 
 RUS  HZ I         655  1.19         3.3 0.40            147            101 175 
 PTB  HZ EP   1    654 43.57                             131   -0.66 7  146 259 
 PTB  HE ES        655  4.80                             131   -0.02 9  146 259 
 PTB  HZ I         655  7.97         6.3 0.12            131            146 259 
 OCA  HZ EP        654 45.32                             128   -0.39 9  160 354 
 OCA  HE ES        655  6.66                             128   -0.80 9  160 354 
 OCA  HZ I         655 12.30        18.6 0.18            131            160 354 
 SPBC HZ EP        654 46.23                             128    0.42 9  162 219 
 SPBC HN ES        655  6.74                             128   -0.91 9  162 219 
 SPBC HZ I         655 13.33         4.9 0.66            130            162 219 
 ZAR  HZ EP   1    654 50.08                             121    0.28 6  203 292 
 ZAR  HN ES        655 15.42                             121    0.68 9  203 292 
 ZAR  HZ I         655 23.98         5.5 0.38            122            203 292 
 NOR  HE ES        655 20.64                             117   -0.00 8  234 234 
 NOR  HZ I         655 27.80         2.1 0.36            119            234 234 
 SML  HZ EP        654 53.66                             116   -0.44 8  243 336 
 SML  HN ES        655 21.85                             116   -0.55 8  243 336 
 SML  HZ I         655 26.67         8.8 0.10            118            243 336 
 SJC  HZ EP   4    655 11.81                             105   -1.33 0  409 327 
 SJC  HE ES   4    655 51.97                             105   -4.32 0  409 327 
 SJC  HZ I         655 57.04         2.2 0.50            107            409 327 
                                                                                
