 2012  328 0411 46.5 L   6.762 -73.160150.0  RSN  5 0.4 1.6LRSN                1
 GAP=136        0.76       7.6     6.4 10.3 -0.2810E+01 -0.1365E+02  0.2401E+02E
 ACTION:UP  12-03-31 23:23 OP:EP   STATUS:               ID:20120328041146 L   I
 2012-03-28-0410-00M.COL___196                                                 6
 STAT SP IPHASW D HRMM SECON CODA AMPLIT PERI AZIMU VELO SNR AR TRES W  DIS CAZ7
 BAR2 SZ EP        412  6.58                             172     0.010   19 188 
 BAR2 SZ ES   3    412 21.61                             172    -0.6 2   19 188 
 BAR2 SZ I         412 23.19         6.0 0.20                            19 188 
 BRR  HZ EP        412  8.26                             154     0.110   72 302 
 BRR  HZ I         412  8.44        13.9 0.16                            72 302 
 BRR  HN ES   1    412 25.72                             154     0.7 7   72 302 
 PAM  SZ EP        412  9.21                             151    -0.210   82  38 
 PAM  SN ES   3    412 26.92                             151    -0.4 2   82  38 
 RUS  HZ EP        412 10.70                             146     0.310   97 175 
 RUS  HE ES   3    412 28.70                             146    -0.3 2   97 175 
 PTB  HZ EP        412 13.33                             134    -0.3 9  145 260 
 PTB  HN ES   2    412 34.22                             134    -0.6 5  145 260 
 PTB  HZ I         412 41.44         4.1 0.38                           145 260 
                                                                                
