 2012  928 0409 10.2 L   6.796 -73.130142.1  RSN 10 0.4 2.2LRSN                1
 GAP= 72        0.88       3.9     3.9  6.5 -0.3262E+00  0.3427E+01  0.3849E+01E
 Epicentro: LOS SANTOS - SANTANDER                                             3
 ACTION:UPD 12-10-22 14:21 OP:ep   STATUS:               ID:20120928040910 L   I
 2012-09-28-0407-40M.COL___216                                                 6
 STAT SP IPHASW D HRMM SECON CODA AMPLIT PERI AZIMU VELO AIN AR TRES W  DIS CAZ7
 BAR2 SZ EP        4 9 29.26                             170   -0.1210 23.2 194 
 BAR2 SZ ES   1    4 9 44.94                             170    0.59 7 23.2 194 
 BAR2 SZ I         4 9 45.68        50.9 0.09                          23.2 194 
 GIR2 SZ EP        4 9 29.26                             167   -0.1910 32.0 347 
 BRR  HZ EP        4 9 31.06                             151    0.0110 72.9 298 
 BRR  HZ I         4 9 31.54        41.1 0.13                          72.9 298 
 BRR  HN ES   1    4 9 47.92                             151    0.61 7 72.9 298 
 BRR  HN I         4 9 51.42        75.5 0.20                          72.9 298 
 PAM  SZ EP        4 9 32.00                             150    0.0210 76.7  38 
 PAM  SN ES   1    4 9 48.93                             150   -0.04 7 76.7  38 
 PAM  SZ I         4 9 49.85        17.8 0.12                          76.7  38 
 RUS  HZ EP   1    4 9 33.36                             143   -0.19 7  100 177 
 RUS  HN ES   1    4 9 51.59                             143   -0.17 7  100 177 
 PTB  HN ES   1    4 9 56.68                             131   -1.25 7  149 259 
 TAM  HZ EP   1    4 9 37.48                             130    0.06 7  153 105 
 TAM  HZ I         4 9 38.29        13.5 0.25                           153 105 
 ZAR  HZ EP   1    4 9 42.69                             121    0.11 6  206 292 
 ZAR  HN ES   1    410  7.41                             121   -0.44 6  206 292 
 CHI  HZ EP   1    4 9 47.79                             116    0.10 6  249 196 
 CHI  HN ES        410 16.96                             116    0.02 8  249 196 
 CHI  HZ I         410 25.27         4.6 0.41                           249 196 
 HEL  HZ EP   1    4 9 51.19                             114    0.80 6  274 256 
 HEL  HN ES   1    410 22.52                             114    0.77 6  274 256 
 HEL  HZ I         410 28.84         7.6 0.26                           274 256 
                                                                                
