 2012  928 0817  6.2 L   7.342 -73.194135.2  RSN  5 0.1 1.5LRSN                1
 GAP=175        0.30       7.8     2.7  5.7 -0.9574E+01  0.2499E+01 -0.5935E+01E
 Epicentro: RIONEGRO - SANTANDER                                               3
 ACTION:UPD 12-10-22 14:21 OP:ep   STATUS:               ID:20120928081706 L   I
 2012-09-28-0810-00M.COL___213                                                 6
 STAT SP IPHASW D HRMM SECON CODA AMPLIT PERI AZIMU VELO AIN AR TRES W  DIS CAZ7
 GIR2 SZ EP   1    817 24.64                             167    0.06 7 29.1 180 
 PAM  SZ EP   1    817 26.01                             157   -0.04 7 54.6  90 
 PAM  SN ES   2    817 41.42                             157   -0.10 5 54.6  90 
 PAM  SZ I         817 44.10         4.9 0.22                          54.6  90 
 BRR  HZ EP   1    817 25.80                             154    0.04 7 62.8 246 
 BRR  HN ES   2    817 41.12                             154    0.12 5 62.8 246 
 BRR  HZ I         817 42.52         9.6 0.14                          62.8 246 
 PTB  HN ES   2    817 55.60                             126   -0.14 5  165 238 
 ZAR  HN ES   2    817 59.09                             123   -0.06 4  184 275 
 ZAR  HZ I         818  2.17         4.6 0.16                           184 275 
                                                                                
