 2011  328 0404 33.9 L   6.801 -73.102149.6  RSN 17 0.4 2.5LRSN                1
 GAP=105        0.91       3.3     4.6  6.2 -0.2901E+01  0.3183E+01  0.6975E+01E
 Epicentro: LOS SANTOS - SANTANDER                                             3
 ACTION:UP  11-06-16 14:36 OP:jfem STATUS:               ID:20110328040434 L   I
 2011-03-28-0401-24S.COL___138                                                 6
 STAT SP IPHASW D HRMM SECON CODA AMPLIT PERI AZIMU VELO SNR AR TRES W  DIS CAZ7
 BTL  SZ IP        4 4 53.92                             171     0.010   22 305 
 BTL  SZ ES   2    4 5  9.43                             171    -0.2 5   22 305 
 BAR2 SZ IP        4 4 53.89                             170    -0.110   25 201 
 BAR2 SZ ES   3    4 5  9.24                             170    -0.5 2   25 201 
 BAR2 SZ I         4 5 10.40        82.2 0.59                            25 201 
 GIR2 SZ EP        4 4 52.91                             167    -1.110   32 342 
 PAM  SZ EP        4 4 56.71                             153     0.410   74  37 
 PAM  SN ES   2    4 5 13.71                             153    -0.1 5   74  37 
 BRR  HZ IP     D  4 4 55.75                             152     0.110   75 297 
 BRR  HZ I         4 4 55.91        72.2 0.15                            75 297 
 BRR  HN ES   1    4 5 13.13                             152     0.4 7   75 297 
 GRA  SZ IP        4 4 59.63                             138     0.310  124  15 
 GRA  SZ I         4 5  0.87        56.0 0.36                           124  15 
 GRA  SZ ES   1    4 5 19.48                             138     0.3 7  124  15 
 OCA  SZ EP        4 5  2.29                             130    -0.3 9  161 351 
 OCA  SZ ES   1    4 5 25.22                             130     0.3 7  161 351 
 OCA  SZ I         4 5 30.68        50.9 0.55                           161 351 
 YOP  SZ EP        4 5  4.34                             127     0.3 9  177 155 
 YOP  SZ I         4 5  4.71        17.6 0.44                           177 155 
 YOP  SN ES   1    4 5 27.91                             127     0.4 7  177 155 
 NOR  SZ EP   2    4 5  9.60                             119    -0.7 4  239 235 
 NOR  SN ES   3    4 5 37.25                             119    -1.4 2  239 235 
 CHI  HZ EP        4 5 11.87                             118    -0.1 8  250 196 
 CHI  HN ES   2    4 5 41.39                             118    -0.3 4  250 196 
 CHI  HZ I         4 5 45.07        13.7 0.67                           250 196 
 ROSC BZ EP   2    4 5 12.96                             117     0.5 4  255 212 
 ROSC BE ES   2    4 5 42.82                             117     0.2 4  255 212 
 HEL  HZ EP        4 5 15.10                             115     0.3 7  277 256 
 HEL  HN ES   2    4 5 46.31                             115    -0.4 4  277 256 
 HEL  HZ I         4 5 52.03        10.3 0.47                           277 256 
 RREF HZ EP   3    4 5 20.47                             111    -0.2 2  326 230 
 RREF HN ES   2    4 5 57.13                             111     0.1 3  326 230 
 RREF HZ I         4 6  2.47        23.5 0.22                           326 230 
 DBB  SZ EP        4 5 22.31                             110     0.2 7  344 274 
 TOL  SZ EP        4 5 23.35                             110     0.7 6  347 225 
 SDV  BZ EP        4 5 23.13                             109    -0.5 6  357  50 
 PRA  HZ EP        4 5 27.49                             107    -0.3 6  394 210 
 PRA  HN ES   2    4 6  9.98                             107     0.1 3  394 210 
                                                                                
