 2015  928 0127 28.9 L   6.804 -73.153149.6  RSN  6 0.4 1.5LRSN                1
 GAP=135        0.93       5.0     5.1  9.0 -0.4592E+01  0.9963E+01  0.1923E+01E
 Epicentro: LOS SANTOS - SANTANDER                                             3
 ACTION:UPD 15-10-28 16:28 OP:cam  STATUS:               ID:20150928012728 L   I
 OLDACT:DUP 15-09-28 19:16 OP:spq  STATUS:               ID:20150928011750d    3
 2015-09-28-0117-48M.COL___355                                                 6
 STAT SP IPHASW D HRMM SECON CODA AMPLIT PERI AZIMU VELO AIN AR TRES W  DIS CAZ7
 BRR  HZ EP        127 50.56                             153    0.1310 70.3 299 
 BRR  HE ES        128  7.87                             153    0.6610 70.3 299 
 BRR  HZ I         128 10.38         5.7 0.26            152           70.3 299 
 PAM  EZ EP     D  127 51.73                             151    0.1810 77.5  40 
 PAM  EE ES        128  9.09                             151   -0.1210 77.5  40 
 PAM  EZ I         128 10.88         6.8 0.44            154           77.5  40 
 RUS  HE ES   1    128 11.59                             144   -0.35 7  101 176 
 RUS  HZ I         128 12.60         3.5 0.36            148            101 176 
 PTB  HZ EP        127 56.34                             133    0.20 9  147 259 
 PTB  HN ES   1    128 16.63                             133   -0.74 7  147 259 
 PTB  HZ I         128 19.65         1.5 0.24            134            147 259 
 OCA  HE ES        128 19.28                             131   -0.47 9  160 353 
 OCA  HZ I         128 22.77         5.9 0.26            132            160 353 
 ZAR  HN ES   1    128 26.76                             123   -0.19 6  203 292 
 ZAR  HZ I         128 31.21         3.6 0.09            124            203 292 
                                                                                
