 2015 1228 0039 53.2 L   6.798 -73.109147.6  RSN 10 0.5 1.5LRSN                1
 GAP=141        1.17       3.5     4.8  6.6 -0.6788E+00  0.7934E+01 -0.5627E-01E
 Epicentro: LOS SANTOS - SANTANDER                                             3
 ACTION:UPD 16-02-04 15:08 OP:cam  STATUS:               ID:20151228003953 L   I
 OLDACT:REG 15-12-28 12:33 OP:ak   STATUS:               ID:20151228003745     3
 2015-12-28-0037-45M.COL___329                                                 6
 STAT SP IPHASW D HRMM SECON CODA AMPLIT PERI AZIMU VELO AIN AR TRES W  DIS CAZ7
 BAR2 EZ EP        040 13.20                             170    0.1410 24.2 200 
 BAR2 EZ ES        040 28.47                             170   -0.0910 24.2 200 
 BAR2 EZ I         040 30.21         9.5 0.32            169           24.2 200 
 BRR  HZ EP        040 15.14                             152    0.3910 74.9 297 
 BRR  HN ES        040 32.40                             152    0.8410 74.9 297 
 BRR  HZ I         040 37.36         5.7 0.16            150           74.9 297 
 PAM  EZ EP        040 16.08                             152    0.6210 75.0  37 
 PAM  EN ES        040 32.59                             152   -0.2510 75.0  37 
 PAM  EZ I         040 34.92         5.2 0.20            156           75.0  37 
 RUS  HZ EP        040 16.84                             144   -0.2510  100 178 
 RUS  HN ES        040 35.61                             144   -0.1310  100 178 
 RUS  HZ I         040 36.64         3.6 0.44            146            100 178 
 PTB  HZ EP   2    040 19.55                             132   -1.11 5  152 259 
 PTB  HN ES        040 41.21                             132   -0.89 9  152 259 
 PTB  HZ I         040 47.43         3.8 0.24            132            152 259 
 SPBC HN ES        040 44.59                             129    0.01 9  166 220 
 ZAR  HZ EP        040 26.59                             122    0.44 8  208 292 
 ZAR  HE ES        040 51.85                             122   -0.01 8  208 292 
 ZAR  HZ I         040 58.17         5.3 0.44            123            208 292 
 SML  HZ EP        040 29.53                             118   -0.60 8  246 334 
 SML  HE ES        040 58.24                             118   -0.70 8  246 334 
 CHI  HZ EP        040 30.89                             117   -0.19 8  250 196 
 CHI  HN ES        041  0.31                             117   -0.33 8  250 196 
 CHI  HZ I         041  7.18         0.9 0.45            119            250 196 
 GUY2CHZ EP   1    040 37.90                             112    0.66 5  304 235 
 GUY2CHE ES        041 12.33                             112    0.72 7  304 235 
 GUY2CHZ I         041 21.08         1.5 0.22                           304 235 
                                                                                
