 2014 1028 0618 59.8 L   6.804 -73.158147.0  RSN 11 0.4 2.1LRSN                1
 GAP=135        0.99       3.1     4.3  5.8 -0.3189E+01  0.6409E+01 -0.4184E+00E
 Epicentro: LOS SANTOS - SANTANDER                                             3
 ACTION:UPD 14-11-29 23:57 OP:nd   STATUS:               ID:20141028061859 L   I
 OLDACT:UP  14-10-30 17:51 OP:cam  STATUS:               ID:20141028061809     3
 OLDACT:UP  14-10-30 17:51 OP:cam  STATUS:               ID:20141028061809     3
 OLDACT:REG 14-10-30 15:08 OP:cam  STATUS:               ID:20141028061809     3
 2014-10-28-0618-09M.COL___271                                                 6
 STAT SP IPHASW D HRMM SECON CODA AMPLIT PERI AZIMU VELO AIN AR TRES W  DIS CAZ7
 BAR2 SZ EP     D  619 19.65                             170    0.1110 23.6 186 
 BAR2 SZ ES        619 34.56                             170   -0.4110 23.6 186 
 BAR2 SZ I         619 35.58        48.0 0.22            170           23.6 186 
 BRR  HZ IP     D  619 21.50                             153    0.5410 69.8 299 
 BRR  HN ES        619 38.27                             153    0.7710 69.8 299 
 BRR  HZ I         619 41.68        28.6 0.30            151           69.8 299 
 PAM  SZ EP     C  619 22.46                             151    0.3210 77.9  41 
 PAM  SN ES        619 39.43                             151   -0.1610 77.9  41 
 PAM  SZ I         619 41.86        22.5 0.64            154           77.9  41 
 RUS  HZ EP        619 23.68                             144    0.0110  101 175 
 RUS  HN ES        619 42.64                             144    0.3210  101 175 
 RUS  HZ I         619 43.19        13.6 0.28            146            101 175 
 PTB  HZ EP        619 26.34                             133   -0.37 9  146 259 
 PTB  HN ES        619 47.37                             133   -0.36 9  146 259 
 PTB  HZ I         619 49.72        14.2 0.14            132            146 259 
 OCA  HZ EP        619 27.87                             130   -0.24 9  160 354 
 OCA  HN ES        619 49.56                             130   -0.66 9  160 354 
 OCA  HZ I         619 52.96        15.8 0.22            131            160 354 
 SPBC HZ EP        619 28.47                             129    0.17 9  163 219 
 SPBC HN ES        619 50.43                             129   -0.14 9  163 219 
 SPBC HZ I         619 55.58        16.5 0.18            130            163 219 
 CHI  HN ES        620  6.47                             117   -0.53 8  249 195 
 CHI  HN I         620  9.95         9.3 0.34            119            249 195 
 HEL  HN ES        620 11.26                             115    0.06 8  271 256 
 HEL  HZ I         620 19.82         4.2 0.34            115            271 256 
 URE  HZ EP        619 41.04                             114    0.32 7  282 292 
 URE  HN ES   4    620 10.57                             114   -2.11 0  282 292 
 URE  HZ I         620 15.62         7.7 0.14            114            282 292 
 GUY2CHZ EP   4    619 45.93                             113    2.61 0  300 235 
 GUY2CHN ES   4    620 19.33                             113    2.02 0  300 235 
 GUY2CHZ I         620 24.06         3.9 0.28                           300 235 
 RREF HZ EP   4    619 44.09                             111   -1.78 0  321 229 
 MON  HZ EP   4    619 53.00                             109    4.35 0  352 308 
                                                                                
