 2012  428 0454 46.4 L   6.775 -73.120144.0  RSN  7 0.3 2.7LRSN                1
 GAP=141        0.65       3.5     6.1  5.0 -0.2021E+01  0.2358E+01  0.2817E+01E
 Epicentro: LOS SANTOS - SANTANDER                                             3
 ACTION:UPD 12-07-05 11:56 OP:tino STATUS:               ID:20120428045446 L   I
 2012-04-28-0450-00M.COL___189                                                 6
 STAT SP IPHASW D HRMM SECON CODA AMPLIT PERI AZIMU VELO AIN AR TRES W  DIS CAZ7
 BAR2 SZ EP        455  5.87                             171     0.110   21 199 
 BAR2 SZ ES   1    455 20.38                             171    -0.5 7   21 199 
 BAR2 SZ I         455 22.16        98.4 0.18                            21 199 
 BRR  HZ EP        455  7.63                             151     0.110   75 299 
 BRR  HN ES   1    455 24.30                             151     0.2 7   75 299 
 BRR  HZ I         455 28.75       133.4 0.18                            75 299 
 PAM  SZ EP        455  8.56                             150     0.110   78  37 
 PAM  SN ES   1    455 25.66                             150     0.0 7   78  37 
 RUS  HZ EP        455  9.80                             144     0.110   98 178 
 RUS  HE ES   1    455 27.93                             144     0.0 7   98 178 
 RUS  HZ I         455 29.41        57.8 0.20                            98 178 
 OCA  SZ EP   1    455 14.41                             128    -0.4 7  163 352 
 CHI  HZ EP        455 24.05                             117     0.3 8  247 196 
 CHI  HZ I         456  0.66        29.4 0.42                           247 196 
 PRA  HZ EP   1    455 39.03                             106    -0.7 4  391 210 
                                                                                
