 2012  128 0835  1.2 L   6.706 -73.181151.1  RSN  5 0.2 1.2LRSN                1
 GAP=175        0.49       8.9     5.5 10.0 -0.1297E+02 -0.2512E+02  0.4863E+02E
 Epicentro: VILLANUEVA - SANTANDER                                             3
 ACTION:UP  12-02-03 08:21 OP:REBC STATUS:               ID:20120128083501 L   I
 2012-01-28-0830-00M.COL___188                                                 6
 STAT SP IPHASW D HRMM SECON CODA AMPLIT PERI AZIMU VELO SNR AR TRES W  DIS CAZ7
 BAR2 SZ EP   1    835 21.30                             175     0.0 7   13 180 
 GIR2 SZ EP   1    835 21.42                             164    -0.4 7   41 358 
 BRR  HZ EP   1    835 23.24                             153     0.2 7   74 307 
 BRR  HE ES   1    835 40.23                             153     0.1 7   74 307 
 BRR  HZ I         835 41.49         4.5 0.01                            74 307 
 RUS  HZ EP   2    835 24.98                             148     0.2 5   91 173 
 RUS  HZ I         835 45.36         1.5 0.47                            91 173 
 PTB  HZ EP   1    835 28.18                             134     0.1 7  142 263 
 PTB  HN ES   1    835 48.89                             134    -0.2 7  142 263 
                                                                                
