 2011  828 0410 20.4 L   6.749 -73.085149.1  RSN  7 0.3 1.8LRSN                1
 GAP=147        0.56       2.6     5.7  4.3 -0.4462E+00  0.1240E+01  0.1174E+01E
 Epicentro: LOS SANTOS - SANTANDER                                             3
 ACTION:UPD 12-07-13 15:54 OP:ep   STATUS:               ID:20110828041020 L   I
 2011-08-28-0409-14S.COL___161                                                 6
 STAT SP IPHASW D HRMM SECON CODA AMPLIT PERI AZIMU VELO AIN AR TRES W  DIS CAZ7
 BAR2 SZ EP        410 40.31                             172   -0.0510 20.4 212 
 BAR2 SZ ES   1    410 55.73                             172   -0.21 7 20.4 212 
 BAR2 SZ I         410 57.10        12.3 0.35                          20.4 212 
 GIR2 SZ EP   1    410 40.86                             165    0.20 7 38.4 342 
 GIR2 SZ ES   1    410 56.66                             165    0.18 7 38.4 342 
 PAM  SZ EP   1    410 42.55                             151   -0.44 7 78.0  33 
 PAM  SN ES   1    411  0.44                             151   -0.18 7 78.0  33 
 BRR  HZ EP        410 42.21                             150   -0.1810 79.8 300 
 BRR  HE ES   1    410 59.41                             150   -0.15 7 79.8 300 
 BRR  HZ I         411  1.96        19.1 0.14                          79.8 300 
 RUS  HZ EP   1    410 44.19                             146    0.14 7 94.7 180 
 RUS  HZ I         410 45.37         5.9 0.46                          94.7 180 
 RUS  HN ES   1    411  2.92                             146    0.41 7 94.7 180 
 OCA  SZ EP   1    410 49.70                             129    0.13 7  167 351 
 OCA  SZ ES   1    411 12.67                             129    0.34 7  167 351 
 OCA  SZ I         411 16.77        12.0 0.24                           167 351 
 CHI  HZ EP   1    410 58.30                             118    0.42 6  245 197 
 CHI  HE ES   2    411 26.43                             118   -0.69 4  245 197 
 CHI  HZ I         411 31.80         3.2 0.41                           245 197 
                                                                                
