 2014  828 0630 49.1 L   6.775 -73.100146.6  RSN  8 0.5 1.4LRSN                1
 GAP=144        1.11       5.6     6.1  8.6 -0.6385E+01  0.1472E+02  0.1126E+02E
 Epicentro: LOS SANTOS - SANTANDER                                             3
 ACTION:UPD 14-09-15 21:53 OP:nd   STATUS:               ID:20140828063049 L   I
 OLDACT:REG 14-08-28 13:09 OP:fm   STATUS:               ID:20140828062816     3
 2014-08-28-0628-16M.COL___263                                                 6
 STAT SP IPHASW D HRMM SECON CODA AMPLIT PERI AZIMU VELO AIN AR TRES W  DIS CAZ7
 BAR2 SZ EP        631  9.07                             171    0.2310 22.2 204 
 BAR2 SZ ES   1    631 24.10                             171   -0.11 7 22.2 204 
 BAR2 SZ I         631 26.19         4.5 0.42            171           22.2 204 
 PAM  SN ES        631 28.09                             151   -0.6410 76.5  35 
 PAM  SZ I         631 31.55         3.7 0.62            155           76.5  35 
 BRR  HZ EP        631 11.11                             151    0.4010 76.9 299 
 BRR  HN ES        631 28.34                             151    0.8110 76.9 299 
 BRR  HZ I         631 32.79         3.2 0.26            152           76.9 299 
 RUS  HZ EP   1    631 12.56                             145   -0.20 7 97.6 179 
 RUS  HN ES        631 31.52                             145    0.3410 97.6 179 
 RUS  HZ I         631 34.58         2.2 0.42            148           97.6 179 
 PTB  HZ EP   1    631 16.03                             131   -0.55 7  152 260 
 PTB  HN ES        631 37.22                             131   -0.76 9  152 260 
 PTB  HZ I         631 39.31         3.5 0.10            134            152 260 
 SPBC HZ EP        631 17.86                             129    0.05 9  164 221 
 SPBC HN ES        631 39.86                             129   -0.31 9  164 221 
 SPBC HZ I         631 45.97         3.8 0.32            132            164 221 
 SML  HN ES   4    631 53.39                             117   -1.91 0  248 335 
 SML  HZ I         631 56.64         5.3 0.10            120            248 335 
 GUY2CHZ EP   1    631 33.45                             112    0.37 5  304 236 
 GUY2CHN ES   1    632  7.53                             112    0.18 5  304 236 
 GUY2CHZ I         632 15.69         1.1 0.56                           304 236 
                                                                                
