 2011  728 0000 28.3 L   6.756 -73.024135.8  RSN  6 0.4 1.2LRSN                1
 GAP=173        0.80       4.4     9.1  8.9 -0.9836E+01 -0.2403E+02  0.9576E+00E
 Epicentro: CEPITA - SANTANDER                                                 3
 ACTION:UPD 12-07-25 14:03 OP:epov STATUS:               ID:20110728000028 L   I
 2011-07-28-0000-00M.COL___142                                                 6
 STAT SP IPHASW D HRMM SECON CODA AMPLIT PERI AZIMU VELO AIN AR TRES W  DIS CAZ7
 BAR2 SZ EP   1    0 0 47.11                             169    0.29 8 25.2 224 
 BAR2 SZ I         0 0 47.71         3.1 0.57                          25.2 224 
 BTL  SZ EP   1    0 0 47.54                             166    0.53 8 32.4 304 
 GIR2 SZ EP   1    0 0 46.49                             163   -0.64 8 40.3 332 
 GIR2 SZ ES   1    0 1  1.21                             163   -0.57 8 40.3 332 
 BRR  HZ EP   1    0 0 49.11                             146   -0.22 8 85.4 297 
 BRR  HZ I         0 1  2.91         9.6 0.64                          85.4 297 
 BRR  HE ES   1    0 1  5.94                             146    0.23 8 85.4 297 
 RUS  HZ EP   2    0 0 50.10                             143   -0.66 5 95.7 184 
 RUS  HN ES   1    0 1  8.51                             143    0.26 8 95.7 184 
 RUS  HZ I         0 1 10.33         1.6 0.22                          95.7 184 
 GRA  SZ EP        0 0 52.95                             134    0.1110  127  11 
 GRA  SZ ES        0 1 12.07                             134    0.1310  127  11 
 GRA  SZ I         0 1 15.58         2.1 0.34                           127  11 
                                                                                
