 2010  828 0434 32.3 L   6.785 -73.087140.0  RSN  6 0.4 1.6LRSN                1
 GAP=192        0.85       9.2    11.4  9.5 -0.5413E+02 -0.3314E+02  0.6872E+01E
 Epicentro: LOS SANTOS - SANTANDER                                             3
 ACTION:UP  10-09-07 10:58 OP:vdl  STATUS:               ID:20100828043432 L   I
 2010-08-28-0432-57S.COL___119                                                 6
 STAT SP IPHASW D HRMM SECON CODA AMPLIT PERI AZIMU VELO SNR AR TRES W  DIS CAZ7
 BAR2 SZ ES   2    435  5.70                             170    -0.4 5   24 207 
 BTL  SZ EP        434 51.52                             169     0.210   25 306 
 BRR  HZ EP        434 53.26                                     0.010   78 297 
 BRR  HE ES   1    435  9.88                             149     0.3 7   78 297 
 BRR  HZ I         435 14.17         9.5 0.15                            78 297 
 BTN  SZ IP        434 53.61                             148    -0.310   82 359 
 BTN  SZ ES   2    435  9.96                             148    -0.9 5   82 359 
 GRA  SZ IP        434 57.26                             135     0.210  126  14 
 GRA  SZ I         434 58.54         4.3 0.44                           126  14 
 GRA  SZ ES   1    435 16.86                             135     0.5 7  126  14 
 OCA  SZ EP   1    435  0.09                             128    -0.4 7  163 351 
 OCA  SZ ES   3    435 21.30                                    -1.1 2  163 351 
 OCA  SZ I         435 25.74         4.2 0.31                           163 351 
                                                                                
