 2013  928 0633 35.0 L   6.009 -73.996  4.0  RSN  5 0.6 0.8LRSN                1
 GAP=138        1.51       4.3     4.2 11.2  0.5345E+01  0.2400E+02  0.1404E+02E
 Epicentro: LA BELLEZA - SANTANDER                                             3
 ACTION:UPD 13-10-22 09:25 OP:ep   STATUS:               ID:20130928063335 L   I
 OLDACT:DUP 13-09-28 13:51 OP:stll STATUS:               ID:20130928062837d    3
 2013-09-28-0628-36M.COL___247                                                 6
 STAT SP IPHASW D HRMM SECON CODA AMPLIT PERI AZIMU VELO AIN AR TRES W  DIS CAZ7
 SPBC HN ES        633 47.05                              95   -0.1010 40.4 192 
 PTB  HZ EP        633 47.63                              92    0.2210 77.7 319 
 PTB  HN ES        633 56.92                              92   -0.1510 77.7 319 
 PTB  HZ I         633 59.67         5.3 0.18             90           77.7 319 
 RUS  HZ EP        633 52.13                              92    0.5610  102  97 
 RUS  HN ES        634  3.91                              92   -0.5510  102  97 
 RUS  HZ I         634  4.73         1.7 0.46             90            102  97 
 HEL  HZ EP        634  1.18                              56   -0.72 9  171 277 
 HEL  HZ I         634 23.80         1.2 0.42             90            171 277 
 GUY2CHZ EP        634  3.88                              56    1.28 9  175 240 
 GUY2CHN ES        634 23.56                              56   -0.54 9  175 240 
 GUY2CHZ I         634 27.00         1.0 0.54                           175 240 
                                                                                
