 2016  928 0408 52.9 L   6.721 -73.202151.0  RSN  4 0.4 1.1LRSN                1
 GAP=224        0.91       9.4     7.9  8.5  0.1996E+02  0.1967E+02  0.8628E+01E
 Epicentro: VILLANUEVA - SANTANDER                                             3
 ACTION:UPD 17-08-17 21:17 OP:lp   STATUS:               ID:20160928040852 L   I
 OLDACT:REG 16-09-28 13:01 OP:dani STATUS:               ID:20160928040738     3
 2016-09-28-0408-00M.COL___384                                                 6
 STAT SP IPHASW D HRMM SECON CODA AMPLIT PERI AZIMU VELO AIN AR TRES W  DIS CAZ7
 BAR2 EZ ES        4 9 28.14                             174   -0.5610 14.4 171 
 BRR  HZ EP        4 9 14.57                             153   -0.0210 70.7 307 
 BRR  HE ES        4 9 31.92                             153    0.4210 70.7 307 
 BRR  HZ I         4 9 33.74         2.8 0.60            154           70.7 307 
 RUS  HZ EP   2    4 9 17.28                             147    0.67 5 92.5 172 
 RUS  HE ES   2    4 9 35.96                             147    0.85 5 92.5 172 
 RUS  HZ I         4 9 36.47         1.4 0.29            148           92.5 172 
 PTB  HZ EP        4 9 19.46                             135   -0.17 9  140 262 
 PTB  HN ES        4 9 40.39                             135   -0.08 9  140 262 
 PTB  HZ I         4 9 42.42         1.8 0.42            135            140 262 
                                                                                
