 2011 1228 0547  0.5 L   6.764 -73.150152.0  RSN  7 0.4 1.5LRSN                1
 GAP=138        0.74       4.9     4.4  5.9  0.1708E+01  0.6641E+01  0.5016E+00E
 Epicentro: LOS SANTOS - SANTANDER                                             3
 ACTION:UPD 12-07-13 16:19 OP:ep   STATUS:               ID:20111228054000 L   I
 2011-12-28-0540-00M.COL___186                                                 6
 STAT SP IPHASW D HRMM SECON CODA AMPLIT PERI AZIMU VELO AIN AR TRES W  DIS CAZ7
 BAR2 SZ EP   1    547 20.71                             172   -0.07 7 19.3 191 
 BAR2 SZ ES   1    547 36.34                             172   -0.27 7 19.3 191 
 GIR2 SZ EP   1    547 21.11                             166    0.12 7 35.1 352 
 GIR2 SZ ES   1    547 37.00                             166    0.01 7 35.1 352 
 BRR  HZ EP        547 22.66                             153    0.2810 72.8 301 
 BRR  HZ I         547 23.04        11.7 0.10                          72.8 301 
 BRR  HE ES   1    547 40.14                             153    0.67 7 72.8 301 
 PAM  SZ EP   1    547 23.64                             151    0.09 7 80.7  38 
 PAM  SZ I         547 23.81         2.7 0.19                          80.7  38 
 PAM  SN ES   1    547 40.96                             151   -0.58 7 80.7  38 
 RUS  HZ EP   1    547 24.82                             146    0.26 7 96.6 176 
 RUS  HN ES   1    547 43.58                             146    0.22 7 96.6 176 
 RUS  HZ I         547 44.62         2.8 0.33                          96.6 176 
 PTB  HZ EP   1    547 27.15                             134   -0.70 7  147 260 
 PTB  HN ES   1    547 48.73                             134   -0.47 7  147 260 
 ZAR  HZ EP   1    547 33.45                             123    0.01 6  205 293 
 ZAR  HN ES   1    547 59.26                             123    0.10 6  205 293 
 ZAR  HZ I         548  5.88         5.4 0.23                           205 293 
                                                                                
