 2011  628 0758 35.9 L   6.768 -73.060146.0  RSN  5 0.2 1.6LRSN                1
 GAP=169        0.54       2.7     6.0  5.4 -0.2234E+01 -0.3675E+01 -0.1452E+01E
 Epicentro: LOS SANTOS - SANTANDER                                             3
 ACTION:UP  11-07-14 19:08 OP:ep   STATUS:               ID:20110628075835 L   I
 2011-06-28-0755-55S.COL___140                                                 6
 STAT SP IPHASW D HRMM SECON CODA AMPLIT PERI AZIMU VELO SNR AR TRES W  DIS CAZ7
 BAR2 SZ EP        758 55.52                             170    -0.110   24 215 
 BAR2 SZ ES   1    759 10.71                             170    -0.2 7   24 215 
 BAR2 SZ I         759 12.34         9.5 0.29                            24 215 
 BRR  HZ IP     C  758 57.45                             149    -0.310   81 298 
 BRR  HZ I         758 57.74        18.3 0.15                            81 298 
 BRR  HN ES   1    759 15.06                             149     0.4 7   81 298 
 RUS  HZ EP   1    758 59.59                             145     0.1 7   97 182 
 RUS  HE ES   1    759 17.93                             145     0.2 7   97 182 
 RUS  HZ I         759 19.47         4.2 0.50                            97 182 
 GRA  SZ EP   1    759  1.35                             137     0.1 7  127  13 
 GRA  SZ ES        759 21.12                             137     0.110  127  13 
 GRA  SZ I         759 22.04         4.4 0.23                           127  13 
 OCA  SZ EP   2    759  4.91                             129     0.2 5  165 350 
 OCA  SZ ES   2    759 26.98                             129    -0.2 5  165 350 
 OCA  SZ I         759 32.07         5.6 0.30                           165 350 
                                                                                
