 2012  628 0941 28.1 L   6.801 -73.170137.2  RSN  7 0.4 1.7LRSN                1
 GAP=180        0.79       4.5     6.0  8.4  0.8199E+01  0.1140E+02  0.2397E+00E
 Epicentro: LOS SANTOS - SANTANDER                                             3
 ACTION:UPD 12-08-06 17:53 OP:ep   STATUS:               ID:20120628094128 L   I
 2012-06-28-0940-00M.COL___201                                                 6
 STAT SP IPHASW D HRMM SECON CODA AMPLIT PERI AZIMU VELO AIN AR TRES W  DIS CAZ7
 BAR2 SZ EP   1    941 47.10                             170    0.36 7 23.1 183 
 BAR2 SZ ES   1    942  1.22                             170   -0.02 7 23.1 183 
 BAR2 SZ I         942  3.45        11.5 0.31                          23.1 183 
 BRR  HZ EP   1    941 48.87                             152    0.64 7 68.8 300 
 BRR  HZ I         941 49.12        14.7 0.15                          68.8 300 
 RUS  HZ EP   1    941 51.23                             142    0.15 7  101 175 
 RUS  HN ES   1    942  8.91                             142   -0.07 7  101 175 
 RUS  HZ I         942 11.25         9.1 0.28                           101 175 
 PTB  HZ EP   1    941 53.77                             130   -0.41 7  145 259 
 PTB  HN ES   1    942 14.05                             130   -0.43 7  145 259 
 PTB  HZ I         942 18.75         3.9 0.14                           145 259 
 OCA  HN ES   1    942 16.70                             128   -0.61 7  160 354 
 ZAR  HN ES   1    942 25.01                             121    0.56 6  202 292 
 CHI  HZ EP   1    942  4.95                             115   -0.36 6  248 195 
 CHI  HZ I         942 42.31         2.7 0.37                           248 195 
                                                                                
