 2017  828 0815  0.4 L   6.782 -73.100144.4  RSN  9 0.3 1.6LRSN                1
 GAP=117        0.84       3.2     4.6  5.4 -0.1498E+00  0.9260E+00  0.5658E+01E
 Epicentro: LOS SANTOS - SANTANDER                                             3
 ACTION:UPD 17-09-04 20:25 OP:rebc STATUS:               ID:20170828081500 L   I
 OLDACT:UP  17-08-28 18:31 OP:edw  STATUS:               ID:20170828080736     3
 OLDACT:UP  17-08-28 18:31 OP:edw  STATUS:               ID:20170828080736     3
 OLDACT:UP  17-08-28 18:29 OP:edw  STATUS:               ID:20170828080736     3
 OLDACT:REG 17-08-28 13:00 OP:dhb  STATUS:               ID:20170828080736     3
 2017-08-28-0808-00M.COL___408                                                 6
 STAT SP IPHASW D HRMM SECON CODA AMPLIT PERI AZIMU VELO AIN AR TRES W  DIS CAZ7
 BAR2 EZ EP        815 19.80                             171   -0.0110 22.9 203 
 BAR2 EZ ES        815 35.28                             171    0.3010 22.9 203 
 BAR2 EZ I         815 37.00        13.3 0.28            167           22.9 203 
 PAM  EZ EP        815 21.58                             151   -0.7610 75.9  36 
 PAM  EN ES        815 39.65                             151    0.1710 75.9  36 
 PAM  EZ I         815 41.98         4.5 0.54            156           75.9  36 
 BRR  HZ EP        815 21.71                             151    0.0410 76.5 298 
 BRR  HN ES        815 38.45                             151    0.1610 76.5 298 
 BRR  HZ I         815 41.57         8.7 0.32            151           76.5 298 
 RUS  HZ EP        815 23.78                             144   -0.0310 98.4 179 
 RUS  HN ES        815 41.91                             144   -0.1910 98.4 179 
 RUS  HZ I         815 43.62         4.5 0.32            143           98.4 179 
 SPBC HZ EP        815 28.96                             128    0.05 9  165 221 
 SPBC HN ES   1    815 50.47                             128   -0.71 7  165 221 
 SPBC HZ I         815 54.43         7.2 0.20            128            165 221 
 YPLC HZ EP        815 30.22                             127    0.57 9  173 152 
 YPLC HN ES        815 52.41                             127   -0.08 9  173 152 
 YPLC HZ I         815 56.62         5.4 0.26            128            173 152 
 NOR  HN ES   4    816  3.65                             118   -0.73 0  238 236 
 CHI  HZ EP   4    815 39.51                             117    1.59 0  248 196 
 CHI  HE ES        816  7.33                             117    0.12 8  248 196 
 CHI  HZ I         816 17.17         1.7 0.34            117            248 196 
 GUY2CHZ EP   4    815 46.18                             112    1.94 0  304 236 
 GUY2CHN ES   4    816 22.05                             112    3.59 0  304 236 
 GUY2CHZ I         816 27.19         1.5 0.36                           304 236 
 PTGC HZ EP   4    815 42.58                             112   -1.16 0  305 159 
 PTGC HE ES   4    816 14.80                             112   -2.77 0  305 159 
 PRA  HZ EP        815 54.31                             106    0.39 6  393 210 
 PRA  HE ES   4    816 33.94                             106   -1.76 0  393 210 
 PRA  HZ I         816 43.18         1.4 0.50            107            393 210 
 SJC  HE ES   4    816 35.41                             105   -4.69 0  414 327 
                                                                                
