 2013  428 0937 59.8 L   6.074 -73.718110.7  RSN  7 0.5 1.6LRSN                1
 GAP=101        1.08       4.9     4.3 10.6  0.9055E+00  0.1995E+02  0.1373E+02E
 Epicentro: BOLIVAR - SANTANDER                                                3
 ACTION:UPD 13-05-22 14:41 OP:EP   STATUS:               ID:20130428093759 L   I
 2013-04-28-0930-00M.COL___248                                                 6
 STAT SP IPHASW D HRMM SECON CODA AMPLIT PERI AZIMU VELO AIN AR TRES W  DIS CAZ7
 RUS  HZ IP        938 17.76                             144   -0.3210 73.0 106 
 RUS  HN ES   1    938 32.40                             144    0.03 7 73.0 106 
 BAR2 SZ EP        938 18.54                             141    0.1210 82.4  46 
 BAR2 SZ ES   1    938 33.66                             141    0.69 7 82.4  46 
 BAR2 SZ I         938 34.13        15.0 0.12            146           82.4  46 
 PTB  HZ EP        938 18.42                             136   -0.8510 96.6 302 
 PTB  HN ES   1    938 33.78                             136   -0.70 7 96.6 302 
 PTB  HZ I         938 36.58         6.8 0.12            137           96.6 302 
 NOR  HZ EP   1    938 23.24                             124   -0.10 7  139 246 
 NOR  HN ES   1    938 42.49                             124    0.76 7  139 246 
 NOR  HZ I         938 44.00        11.0 0.16            125            139 246 
 ZAR  HZ EP   1    938 30.85                             114    0.97 6  201 321 
 ZAR  HN ES   1    938 53.34                             114   -0.03 6  201 321 
 ZAR  HZ I         938 55.64         6.1 0.26            116            201 321 
 HEL  HZ EP        938 30.68                             114    0.37 9  201 274 
 HEL  HN ES   1    938 54.45                             114    0.32 6  201 274 
 HEL  HZ I         938 58.49         2.8 0.54            116            201 274 
 PRA  HZ EP   1    938 40.01                             105   -0.31 5  291 206 
 PRA  HN ES        939 11.95                             105    0.01 7  291 206 
 PRA  HZ I         939 17.81         1.6 0.26            107            291 206 
                                                                                
