 2015  828 0850 59.0 L   6.255 -73.695108.5  RSN 13 0.4 1.7LRSN                1
 GAP= 84        0.96       2.4     3.0  5.6 -0.2941E+01  0.8157E+01 -0.3005E+01E
 Epicentro: SANTA HELENA DEL OPON - SANTANDER                                  3
 ACTION:UPD 15-09-15 23:05 OP:cam  STATUS:               ID:20150828085059 L   I
 OLDACT:UP  15-08-28 16:32 OP:ak   STATUS:               ID:20150828084750     3
 OLDACT:REG 15-08-28 14:46 OP:ak   STATUS:               ID:20150828084750     3
 2015-08-28-0847-50M.COL___355                                                 6
 STAT SP IPHASW D HRMM SECON CODA AMPLIT PERI AZIMU VELO AIN AR TRES W  DIS CAZ7
 BAR2 EZ EP        851 16.44                             146    0.1110 67.9  57 
 BAR2 EZ ES        851 29.87                             146   -0.0210 67.9  57 
 BAR2 EZ I         851 31.06        30.9 0.28            146           67.9  57 
 SPBC HZ EP        851 16.70                             141   -0.2110 78.6 212 
 SPBC HN ES        851 31.11                             141    0.2010 78.6 212 
 SPBC HZ I         851 33.68        10.3 0.08            141           78.6 212 
 RUS  HZ EP        851 17.54                             142    0.0710 78.7 121 
 RUS  HN ES        851 31.92                             142    0.0010 78.7 121 
 RUS  HZ I         851 32.87         4.0 0.31            142           78.7 121 
 NOR  HZ EP   1    851 22.78                             121   -0.77 7  151 240 
 NOR  HE ES        851 41.81                             121   -0.92 9  151 240 
 NOR  HZ I         851 45.61        15.6 0.12            121            151 240 
 CHI  HZ EP        851 26.95                             116   -0.16 9  180 181 
 CHI  HN ES        851 49.13                             116    0.06 9  180 181 
 CHI  HZ I         851 53.39         3.2 0.28            117            180 181 
 HEL  HZ EP        851 29.59                             113   -0.04 9  203 268 
 HEL  HN ES        851 53.48                             113   -0.08 9  203 268 
 HEL  HZ I         851 56.31         5.6 0.29            113            203 268 
 GUY2CHZ EP        851 31.67                             111    0.30 8  217 238 
 GUY2CHN ES        851 57.34                             111    0.69 8  217 238 
 GUY2CHZ I         852  2.38         7.5 0.18                           217 238 
 OCA  HZ EP        851 32.09                             111    0.44 8  223  11 
 OCA  HN ES        851 57.68                             111    0.53 8  223  11 
 OCA  HZ I         852  5.34         7.2 0.16            110            223  11 
 TOL  SZ EP        851 36.15                             107    0.28 8  258 224 
 TOL  SN ES        852  4.89                             107    0.22 8  258 224 
 CBOC HZ EP        851 36.02                             107    0.10 8  260 261 
 CBOC HN ES        852  5.41                             107    0.65 8  260 261 
 CBOC HZ I         852  7.26         3.2 0.84            107            260 261 
 SML  HZ EP        851 37.75                             105   -0.83 7  285 352 
 SML  HN ES        852  8.99                             105   -0.49 7  285 352 
 SML  HZ I         852 14.74         4.4 0.08            105            285 352 
 PRA  HZ EP        851 42.31                             103    0.62 7  310 205 
 PRA  HN ES        852 14.84                             103   -0.19 7  310 205 
 PRA  HZ I         852 22.93         3.6 0.26            103            310 205 
 ORTC HZ EP        851 41.05                             103   -0.73 7  311 214 
 ORTC HN ES        852 15.05                             103   -0.13 7  311 214 
 ORTC HZ I         852 22.30         1.9 0.23            103            311 214 
                                                                                
