 2016  428 0322 21.1 L   6.779 -73.126139.6  RSN 11 0.5 2.0LRSN                1
 GAP=140        0.94       4.3     4.0  6.7 -0.3284E+01  0.1191E+02 -0.1777E+01E
 Epicentro: LOS SANTOS - SANTANDER                                             3
 ACTION:UPD 16-05-05 14:24 OP:rebc STATUS:               ID:20160428032221 L   I
 OLDACT:REG 16-04-28 13:37 OP:dnl  STATUS:               ID:20160428031743     3
 2016-04-28-0317-43M.COL___313                                                 6
 STAT SP IPHASW D HRMM SECON CODA AMPLIT PERI AZIMU VELO AIN AR TRES W  DIS CAZ7
 BAR2 EZ IP     C  322 39.99                             171    0.0310 21.5 197 
 BAR2 EZ ES        322 54.34                             171   -0.3210 21.5 197 
 BAR2 EZ I         322 55.75        27.5 0.18            170           21.5 197 
 PAM  EZ EP        322 43.07                             149    0.3710 77.9  37 
 PAM  EN ES        322 59.66                             149    0.1210 77.9  37 
 PAM  EZ I         323  2.41        20.4 0.54            150           77.9  37 
 RUS  HZ EP        322 44.00                             143   -0.0710 98.1 177 
 RUS  HN ES        323  2.27                             143    0.2810 98.1 177 
 RUS  HZ I         323  3.22        10.5 0.22            143           98.1 177 
 PTB  HZ EP        322 46.65                             130   -1.08 9  149 260 
 PTB  HE ES        323  8.17                             130   -0.33 9  149 260 
 PTB  HZ I         323  9.98        19.7 0.18            130            149 260 
 OCA  HZ EP   2    322 48.68                             128   -0.51 5  163 352 
 OCA  HN ES   4    323  9.24                             128   -1.86 0  163 352 
 OCA  HZ I         323 14.40        33.6 0.38            128            163 352 
 ZAR  HZ EP   2    322 53.47                             120    0.01 4  207 293 
 ZAR  HN ES        323 19.14                             120    0.45 8  207 293 
 ZAR  HZ I         323 21.02         9.7 0.10            121            207 293 
 NOR  HZ EP   2    322 56.07                             117   -0.46 4  235 235 
 NOR  HE ES        323 24.47                             117    0.31 8  235 235 
 NOR  HZ I         323 25.90        10.6 0.16            117            235 235 
 CHI  HZ EP   2    322 58.14                             116   -0.14 4  247 196 
 CHI  HE ES   4    323 25.76                             116   -1.52 0  247 196 
 CHI  HZ I         323 35.11         2.8 0.40            116            247 196 
 URE  HZ EP   2    323  2.28                             112    0.07 4  287 292 
 URE  HN ES   4    323 32.49                             112   -1.78 0  287 292 
 URE  HZ I         323 34.14         6.7 0.14            112            287 292 
 GUY2CHZ EP   2    323  5.43                             111    0.95 4  302 235 
 GUY2CHN ES   4    323 39.73                             111    1.41 0  302 235 
 GUY2CHZ I         323 45.39         4.8 0.28                           302 235 
 CBOC HZ EP   2    323  8.45                             109    0.52 3  335 253 
 CBOC HN ES        323 45.11                             109    0.66 7  335 253 
 CBOC HZ I         323 47.78         2.5 0.26            109            335 253 
                                                                                
