 2013  128 0953 17.7 L   6.787 -73.216140.6  RSN  4 0.2 1.3LRSN                1
 GAP=227        0.52       4.2     4.2  4.5  0.4812E+01  0.4080E+01  0.9315E+01E
 Epicentro: ZAPATOCA - SANTANDER                                               3
 ACTION:UPD 13-02-15 09:17 OP:ep   STATUS:               ID:20130128095317 L   I
 2013-01-28-0948-40M.COL___168                                                 6
 STAT SP IPHASW D HRMM SECON CODA AMPLIT PERI AZIMU VELO AIN AR TRES W  DIS CAZ7
 BAR2 SZ EP   1    953 36.43                             171   -0.27 7 21.9 170 
 BAR2 SZ ES        953 51.40                             171   -0.1010 21.9 170 
 BAR2 SZ I         953 59.91         3.9 0.40            170           21.9 170 
 BRR  HZ EP   1    953 37.99                             154    0.02 7 65.2 303 
 BRR  HN ES        953 54.04                             154    0.2710 65.2 303 
 BRR  HN I         953 59.55         5.5 0.26            161           65.2 303 
 PTB  HZ EP        953 43.35                             132   -0.20 9  140 259 
 PTB  HN ES        954  3.59                             132   -0.10 9  140 259 
 CHI  HZ EP        953 55.13                             116    0.36 8  245 193 
 CHI  HN ES   1    954 23.71                             116    0.03 6  245 193 
                                                                                
