 2014  428 0232  9.1 L   6.799 -73.156143.3  RSN  6 0.4 1.2LRSN                1
 GAP=200        0.82       3.9     5.7  8.8  0.9140E+01 -0.1622E+01 -0.1129E+02E
 Epicentro: LOS SANTOS - SANTANDER                                             3
 ACTION:UPD 14-05-13 23:12 OP:nd   STATUS:               ID:20140428023209 L   I
 OLDACT:UP  14-04-28 16:01 OP:mh   STATUS:               ID:20140428022807     3
 OLDACT:REG 14-04-28 12:44 OP:mh   STATUS:               ID:20140428022807     3
 2014-04-28-0228-07M.COL___248                                                 6
 STAT SP IPHASW D HRMM SECON CODA AMPLIT PERI AZIMU VELO AIN AR TRES W  DIS CAZ7
 BRR  HZ EP        232 30.47                             152    0.5510 70.2 299 
 BRR  HN ES   1    232 46.57                             152    0.41 7 70.2 299 
 BRR  HZ I         232 50.71         3.7 0.10            155           70.2 299 
 RUS  HZ EP        232 32.51                             143   -0.0910  101 175 
 RUS  HN ES        232 50.70                             143   -0.2410  101 175 
 RUS  HZ I         232 52.98         1.8 0.28            149            101 175 
 PTB  HZ EP        232 35.51                             132   -0.24 9  147 259 
 PTB  HN ES   1    232 56.34                             132   -0.21 7  147 259 
 PTB  HZ I         232 58.87         2.1 0.14            136            147 259 
 SPBC HN ES        232 59.41                             129    0.06 9  162 219 
 ZAR  HZ EP   1    232 41.88                             122    0.61 6  203 292 
 ZAR  HN ES        233  6.27                             122   -0.10 9  203 292 
 SML  HN ES        233 13.39                             117   -0.57 8  243 336 
                                                                                
