 2013  328 0813 36.7 L   6.801 -73.147149.9  RSN 11 0.5 2.1LRSN                1
 GAP=136        0.99       3.4     4.8  6.5 -0.1535E+00  0.8131E+01  0.2674E+01E
 Epicentro: LOS SANTOS - SANTANDER                                             3
 ACTION:UPD 13-04-09 14:05 OP:ep   STATUS:               ID:20130328081336 L   I
 2013-03-28-0810-00M.COL___245                                                 6
 STAT SP IPHASW D HRMM SECON CODA AMPLIT PERI AZIMU VELO AIN AR TRES W  DIS CAZ7
 BAR2 SZ IP        813 56.69                             171   -0.1310 23.4 190 
 BAR2 SZ ES   1    814 12.38                             171   -0.14 7 23.4 190 
 BAR2 SZ I         814 13.42        42.8 0.36            169           23.4 190 
 BRR  HZ IP     C  813 58.55                             153    0.2810 71.0 299 
 BRR  HN ES   1    814 16.05                             153    0.94 7 71.0 299 
 BRR  HZ I         814 18.90        18.7 0.18            149           71.0 299 
 PAM  SZ EP        813 59.57                             152    0.2210 77.4  40 
 PAM  SN ES   1    814 16.93                             152   -0.09 7 77.4  40 
 PAM  SZ I         814 18.90        22.8 0.56            155           77.4  40 
 RUS  HZ EP        814  0.22                             145   -0.6310  101 176 
 RUS  HN ES   1    814 19.54                             145   -0.16 7  101 176 
 RUS  HZ I         814 20.43         7.6 0.16            147            101 176 
 PTB  HZ EP        814  3.71                             133   -0.27 9  148 259 
 PTB  HN ES   1    814 24.71                             133   -0.56 7  148 259 
 PTB  HZ I         814 31.98        29.4 0.30            131            148 259 
 OCA  HZ EP   1    814  5.17                             131   -0.14 7  160 353 
 OCA  HN ES   1    814 28.06                             131    0.42 7  160 353 
 OCA  HZ I         814 31.57        16.0 0.34            131            160 353 
 ZAR  HZ EP   1    814  9.19                             123   -0.20 6  204 292 
 ZAR  HN ES   1    814 35.05                             123    0.16 6  204 292 
 ZAR  HZ I         814 41.77        14.6 0.28            123            204 292 
 SML  HZ EP   1    814 12.97                             118   -0.56 6  244 335 
 SML  HN ES   1    814 41.67                             118   -0.60 6  244 335 
 SML  HZ I         814 50.41        16.1 0.10            119            244 335 
 CHI  HZ EP        814 14.81                             118    0.19 8  249 195 
 CHI  HN ES   1    814 44.62                             118    0.41 6  249 195 
 CHI  HZ I         814 49.23         3.5 0.60            120            249 195 
 HEL  HZ EP        814 18.02                             116    0.92 8  272 256 
 HEL  HN ES   1    814 47.54                             116   -1.08 6  272 256 
 HEL  HZ I         814 54.97         9.4 0.30            116            272 256 
 PRA  HZ EP   1    814 31.22                             107    0.87 4  392 210 
 PRA  HN ES   1    815 12.98                             107    0.77 4  392 210 
 PRA  HZ I         815 15.82         5.2 0.64            108            392 210 
                                                                                
