 2015  928 0530 18.4 L   6.633 -73.687108.0  RSN  4 0.4 1.2LRSN                1
 GAP=107        0.94       5.2     4.8  8.9 -0.4618E+01  0.5491E+01  0.1638E+02E
 Epicentro: EL CARMEN - SANTANDER                                              3
 ACTION:UPD 15-10-28 16:28 OP:cam  STATUS:               ID:20150928053018 L   I
 OLDACT:UP  15-09-28 19:14 OP:ak   STATUS:               ID:20150928051748d    3
 OLDACT:UP  15-09-28 19:14 OP:ak   STATUS:               ID:20150928051748d    3
 OLDACT:DUP 15-09-28 19:10 OP:ak   STATUS:               ID:20150928051748d    3
 OLDACT:UP  15-09-28 19:09 OP:ak   STATUS:               ID:20150928051747     3
 OLDACT:REG 15-09-28 12:58 OP:spq  STATUS:               ID:20150928051747     3
 2015-09-28-0517-47M.COL___349                                                 6
 STAT SP IPHASW D HRMM SECON CODA AMPLIT PERI AZIMU VELO AIN AR TRES W  DIS CAZ7
 BRR  HZ EP   1    530 34.65                             152    0.26 7 52.5 357 
 BRR  HN ES        530 47.21                             152    0.3410 52.5 357 
 BAR2 EZ EP        530 34.86                             151   -0.0710 56.0  95 
 BAR2 EZ ES        530 47.56                             151   -0.2910 56.0  95 
 BAR2 EZ I         530 48.51         9.6 0.16            153           56.0  95 
 PTB  HZ EP        530 36.05                             138   -0.6810 85.7 263 
 PTB  HE ES        530 51.02                             138   -0.0310 85.7 263 
 PTB  HZ I         530 52.78         2.2 0.08            140           85.7 263 
 SPBC HZ EP        530 40.10                             129    0.5410  117 201 
 SPBC HN ES        530 56.15                             129    0.0710  117 201 
 SPBC HZ I         531  1.07         2.9 0.07            129            117 201 
                                                                                
