 2013 1128 0835 23.7 L   6.833 -73.174149.7  RSN 10 0.5 1.8LRSN                1
 GAP=139        1.18       3.7     5.3  6.6 -0.7568E+01  0.2733E+01  0.2677E+01E
 Epicentro: LOS SANTOS - SANTANDER                                             3
 ACTION:UPD 14-01-09 16:31 OP:ep   STATUS:               ID:20131128083523 L   I
 OLDACT:REG 13-11-28 08:01 OP:stll STATUS:               ID:20131128082809     3
 2013-11-28-0828-09M.COL___238                                                 6
 STAT SP IPHASW D HRMM SECON CODA AMPLIT PERI AZIMU VELO AIN AR TRES W  DIS CAZ7
 BAR2 SZ EP        835 43.70                             169   -0.1610 26.7 182 
 BAR2 SZ ES        835 59.05                             169   -0.5510 26.7 182 
 BAR2 SZ I         836  1.30        15.2 0.28            171           26.7 182 
 BRR  HZ EP        835 45.50                             155    0.4710 66.7 297 
 BRR  HN ES        836  2.77                             155    1.1010 66.7 297 
 BRR  HZ I         836  6.45         6.4 0.56            150           66.7 297 
 PAM  SZ EP        835 46.60                             152    0.3110 76.7  43 
 PAM  SZ I         835 46.70        12.8 0.22            154           76.7  43 
 PAM  SN ES        836  3.72                             152   -0.1910 76.7  43 
 PTB  HZ EP        835 51.23                             133    0.45 9  145 257 
 PTB  HN ES        836 11.26                             133   -0.65 9  145 257 
 PTB  HZ I         836 17.36         7.0 0.24            132            145 257 
 CAPV BZ EP        835 51.45                             133    0.12 9  148  40 
 OCA  HN ES        836 13.83                             131   -0.15 9  156 354 
 OCA  HZ I         836 22.04         7.4 0.34            131            156 354 
 SPBC HZ EP        835 52.45                             130   -0.13 9  164 217 
 SPBC HN ES        836 14.96                             130   -0.16 9  164 217 
 SPBC HZ I         836 19.60         8.9 0.40            131            164 217 
 NOR  HZ EP        835 58.93                             119   -0.68 8  234 233 
 NOR  HN ES        836 28.05                             119    0.42 8  234 233 
 NOR  HZ I         836 31.39         4.4 0.26            120            234 233 
 SML  HZ EP        836  0.13                             119    0.09 8  239 336 
 SML  HN ES        836 27.58                             119   -0.82 8  239 336 
 SML  HZ I         836 34.91        11.7 0.10            119            239 336 
 CHI  HZ EP        836  1.91                             118    0.00 8  251 194 
 CHI  HZ I         836  2.46         2.4 0.22            120            251 194 
 CHI  HN ES        836 31.87                             118    0.15 8  251 194 
                                                                                
