 2016  728 0716  2.8 L   6.540 -73.588108.2  RSN  5 0.3 1.2LRSN                1
 GAP= 95        0.73       3.1     3.1  6.1  0.1163E+01  0.4248E+01  0.4486E+01E
 Epicentro: EL CARMEN - SANTANDER                                              3
 ACTION:UPD 17-03-29 16:55 OP:lp   STATUS:               ID:20160728071602 L   I
 OLDACT:DUP 16-07-28 17:27 OP:edw  STATUS:               ID:20160728070760d    3
 OLDACT:UP  16-07-28 17:21 OP:edw  STATUS:               ID:20160728070759     3
 OLDACT:REG 16-07-28 14:16 OP:edw  STATUS:               ID:20160728070759     3
 2016-07-28-0707-59S.COL___334                                                 6
 STAT SP IPHASW D HRMM SECON CODA AMPLIT PERI AZIMU VELO AIN AR TRES W  DIS CAZ7
 BAR2 EZ EP        716 18.80                             156    0.0510 45.2  83 
 BAR2 EZ ES        716 31.02                             156   -0.2110 45.2  83 
 BRR  HZ EP        716 19.58                             147    0.0610 64.2 348 
 BRR  HN ES        716 33.00                             147    0.4010 64.2 348 
 RUS  HZ EP        716 22.14                             137   -0.0710 90.8 142 
 RUS  HN ES        716 37.24                             137   -0.1410 90.8 142 
 RUS  HZ I         716 38.74         2.2 0.42            140           90.8 142 
 PTB  HZ EP        716 21.59                             135   -0.4110 96.0 270 
 PTB  HN ES        716 36.71                             135   -0.3010 96.0 270 
 PTB  HZ I         716 41.32         3.4 0.10            135           96.0 270 
 SPBC HZ EP        716 23.87                             130    0.3510  112 209 
 SPBC HN ES        716 40.00                             130    0.2910  112 209 
 SPBC HZ I         716 47.08         4.3 0.22            130            112 209 
                                                                                
