 2017  328 0631 27.9 L   6.801 -73.110146.3  RSN  5 0.1 1.3LRSN                1
 GAP=241        0.44       2.9     3.5  4.4  0.2516E+01  0.2506E+00  0.1649E+01E
 Epicentro: LOS SANTOS - SANTANDER                                             3
 ACTION:UPD 17-05-25 18:46 OP:jn   STATUS:               ID:20170328063127 L   I
 OLDACT:UP  17-03-28 16:07 OP:and  STATUS:               ID:20170328062740d    3
 OLDACT:DUP 17-03-28 16:05 OP:and  STATUS:               ID:20170328062740d    3
 2017-03-28-0628-00M.COL___360                                                 6
 STAT SP IPHASW D HRMM SECON CODA AMPLIT PERI AZIMU VELO AIN AR TRES W  DIS CAZ7
 BAR2 EZ EP   2    631 47.61                             170   -0.03 5 24.4 199 
 BAR2 EZ ES   2    632  2.65                             170   -0.37 5 24.4 199 
 BAR2 EZ I         632  5.73         4.8 0.20            169           24.4 199 
 BRR  HZ EP        631 49.22                             152   -0.1010 74.6 297 
 BRR  HN ES        632  6.18                             152    0.1610 74.6 297 
 BRR  HZ I         632  9.48         2.5 0.16            152           74.6 297 
 RUS  HZ EP        631 51.73                             144    0.0110  100 178 
 RUS  HN ES        632 10.36                             144    0.0810  100 178 
 RUS  HZ I         632 11.86         4.5 0.40            146            100 178 
 PTB  HZ EP   9    631 54.47                             131   -0.81 0  152 259 
 PTB  HN ES   2    632 15.24                             132   -0.58 5  152 259 
 PTB  HZ I         632 16.54         2.1 0.40            133            152 259 
 NOR  HN ES        632 32.13                             118   -0.07 8  238 235 
 NOR  HZ I         632 36.39         2.2 0.34            120            238 235 
                                                                                
