 2011  228 0234 30.8 L   6.789 -73.144133.6  RSN  6 0.2 1.9LRSN                1
 GAP=159        0.40       3.0     5.5  8.3 -0.6852E+01  0.2641E+02 -0.6611E+01E
 Epicentro: LOS SANTOS - SANTANDER                                             3
 ACTION:UP  11-03-28 15:11 OP:jfem STATUS:               ID:20110228023430 L   I
 2011-02-28-0234-45S.COL___134                                                 6
 STAT SP IPHASW D HRMM SECON CODA AMPLIT PERI AZIMU VELO SNR AR TRES W  DIS CAZ7
 BAR2 SZ EP   1    234 49.19                             170     0.2 7   22 191 
 BAR2 SZ I         235  5.30        21.9 0.17                            22 191 
 RUS  HZ EP   2    234 53.13                             141    -0.2 5   99 176 
 RUS  HN ES   2    235 10.83                             141     0.0 5   99 176 
 RUS  HZ I         235 13.85         7.9 0.46                            99 176 
 GRA  SZ EP   1    234 55.10                             134     0.0 7  127  17 
 GRA  SZ ES   2    235 13.76                             134    -0.3 5  127  17 
 GRA  SZ I         235 16.42        13.9 0.35                           127  17 
 CHI  HZ EP   2    235  7.91                             115     0.2 4  247 195 
 CHI  HE ES   2    235 36.11                             115    -0.4 4  247 195 
 CHI  HZ I         235 38.28         4.7 0.67                           247 195 
 HEL  HN ES   2    235 41.35                             112     0.0 4  272 256 
 HEL  HZ I         235 47.87         7.9 0.40                           272 256 
 DBB  SZ EP   1    235 17.78                             107    -0.1 5  340 274 
                                                                                
