 2013  228 0056 13.1 L   6.853 -73.139140.7  RSN 15 0.4 2.5LRSN                1
 GAP= 70        0.98       2.5     2.7  5.7 -0.1737E+00  0.3906E+01  0.3771E+00E
 Epicentro: LOS SANTOS - SANTANDER                                             3
 ACTION:UPD 13-03-12 09:36 OP:ep   STATUS:               ID:20130228005613 L   I
 2013-02-28-0050-00M.COL___228                                                 6
 STAT SP IPHASW D HRMM SECON CODA AMPLIT PERI AZIMU VELO AIN AR TRES W  DIS CAZ7
 BAR2 SZ IP        056 32.29                             168    0.0010 29.2 189 
 BAR2 SZ ES   1    056 46.91                             168   -0.32 7 29.2 189 
 BAR2 SZ I         056 48.49       113.8 0.19            169           29.2 189 
 BRR  HZ IP     C  056 34.14                             152    0.5210 69.3 294 
 BRR  HN ES   4    056 50.95                             152    1.35 0 69.3 294 
 BRR  HZ I         056 54.17        48.8 0.19            150           69.3 294 
 PAM  SZ IP        056 35.11                             151    0.6010 72.4  42 
 PAM  SE ES        056 51.67                             151    0.4810 72.4  42 
 PAM  SZ I         056 54.10        67.3 0.48            154           72.4  42 
 RUS  HZ EP     D  056 36.36                             141   -0.4610  106 177 
 RUS  HN ES        056 54.80                             141   -0.5010  106 177 
 RUS  HZ I         056 56.43        22.9 0.30            144            106 177 
 PTB  HZ EP        056 39.21                             130   -0.66 9  150 257 
 PTB  HE ES        057  0.55                             130   -0.18 9  150 257 
 PTB  HZ I         057  2.77        28.6 0.16            131            150 257 
 OCA  HZ EP        056 40.06                             129   -0.45 9  155 353 
 OCA  HN ES        057  1.83                             129   -0.03 9  155 353 
 TAM  HZ IP     D  056 40.66                             129    0.16 9  156 107 
 TAM  HZ EP        056 40.71                             129    0.21 9  156 107 
 TAM  HZ I         056 40.83        55.2 0.18            133            156 107 
 TAM  HN ES        057  1.72                             129   -0.12 9  156 107 
 ZAR  HZ EP        056 45.47                             121    0.37 9  203 291 
 ZAR  HN ES        057 10.52                             121    0.49 9  203 291 
 ZAR  HZ I         057 16.19        29.7 0.25            122            203 291 
 SML  HZ EP        056 48.45                             117   -0.48 8  239 335 
 SML  HE ES        057 16.25                             117   -0.60 8  239 335 
 SML  HZ I         057 25.25        28.3 0.10            118            239 335 
 CHI  HZ EP        056 50.77                             115   -0.43 8  255 195 
 CHI  HN ES        057 21.18                             115    0.29 8  255 195 
 ROSC BN ES        057 21.77                             115    0.20 8  258 211 
 HEL  HZ EP   2    056 54.34                             113    1.00 4  274 255 
 HEL  HE ES        057 24.58                             113   -0.12 8  274 255 
 HEL  HZ I         057 31.40        13.1 0.32            115            274 255 
 URE  HE ES   4    057 23.33                             113   -2.19 0  282 291 
 URE  HZ I         057 29.52        19.0 0.10            113            282 291 
 RREF HZ EP        057  0.32                             109    0.75 7  326 229 
 RREF HN ES        057 36.01                             109    0.23 7  326 229 
 RREF HZ I         057 41.63        10.1 0.24            111            326 229 
 COD  HZ EP   1    057  0.42                             108   -0.22 5  342 354 
 COD  HN ES   4    057 37.20                             108   -0.50 0  342 354 
                                                                                
