 2016  528 0722 58.1 L   6.840 -73.159144.2  RSN 19 0.5 2.5LRSN                1
 GAP= 69        1.14       3.2     3.4  5.2 -0.2097E+01  0.4611E+01  0.2419E+01E
 Epicentro: LOS SANTOS - SANTANDER                                             3
 ACTION:UPD 16-08-18 17:50 OP:cam  STATUS:               ID:20160528072258 L   I
 OLDACT:UP  16-05-28 15:54 OP:ar   STATUS:               ID:20160528071745d    3
 OLDACT:DUP 16-05-28 15:37 OP:ar   STATUS:               ID:20160528071745d    3
 OLDACT:UP  16-05-28 15:33 OP:ar   STATUS:               ID:20160528071744     3
 OLDACT:UP  16-05-28 15:32 OP:ar   STATUS:               ID:20160528071744     3
 OLDACT:REG 16-05-28 12:41 OP:ar   STATUS:               ID:20160528071744     3
 2016-05-28-0717-44M.COL___307                                                 6
 STAT SP IPHASW D HRMM SECON CODA AMPLIT PERI AZIMU VELO AIN AR TRES W  DIS CAZ7
 BAR2 EZ IP     C  723 17.68                             169    0.0210 27.5 185 
 BAR2 EZ ES        723 32.40                             169   -0.4910 27.5 185 
 BAR2 EZ I         723 33.53       103.2 0.34            167           27.5 185 
 BRR  HZ IP     D  723 19.44                             153    0.5210 67.9 296 
 BRR  HN ES        723 36.05                             153    0.9210 67.9 296 
 BRR  HZ I         723 39.20        87.2 0.22            151           67.9 296 
 PAM  EZ EP        723 20.49                             151    0.4610 75.0  43 
 PAM  EN ES        723 37.42                             151    0.3010 75.0  43 
 PAM  EZ I         723 39.48       124.3 0.52            155           75.0  43 
 RUS  HZ EP        723 21.92                             142   -0.1410  105 175 
 RUS  HN ES        723 40.52                             142   -0.2010  105 175 
 RUS  HZ I         723 42.14        26.1 0.14            142            105 175 
 PTB  HZ EP        723 24.34                             132   -0.58 9  147 257 
 PTB  HN ES        723 45.27                             132   -0.55 9  147 257 
 PTB  HZ I         723 46.71        43.3 0.20            131            147 257 
 OCA  HZ EP        723 25.57                             130   -0.32 9  156 353 
 OCA  HN ES        723 47.46                             130   -0.08 9  156 353 
 OCA  HZ I         723 50.44       132.4 0.18            132            156 353 
 TAM  HZ IP     C  723 26.13                             130    0.20 9  158 106 
 TAM  HE ES        723 46.84                             130   -0.77 9  158 106 
 TAM  HZ I         723 50.28        19.0 0.52            133            158 106 
 SPBC HZ EP        723 26.66                             128   -0.09 9  166 218 
 SPBC HN ES        723 49.29                             128    0.21 9  166 218 
 SPBC HZ I         723 54.64        47.4 0.18            128            166 218 
 NOR  HZ EP        723 34.16                             118    0.24 8  236 233 
 NOR  HN ES        724  2.08                             118    0.25 8  236 233 
 NOR  HZ I         724  6.13        18.2 0.20            118            236 233 
 CHI  HZ EP        723 36.34                             116    0.17 8  253 195 
 CHI  HN ES        724  5.57                             116   -0.26 8  253 195 
 CHI  HZ I         724  9.95        10.2 0.37            117            253 195 
 ROSC BZ EP        723 37.28                             116    0.78 8  256 210 
 ROSC BN ES   4    724  8.44                             116    2.01 0  256 210 
 ROSC BZ I         724 12.11        20.9 0.30            116            256 210 
 HEL  HZ EP   4    723 40.15                             114    1.92 0  272 255 
 HEL  HN ES   4    724 12.62                             114    3.12 0  272 255 
 HEL  HZ I         724 15.80        25.2 0.38            114            272 255 
 URE  HZ EP        723 38.05                             113   -0.74 7  281 291 
 URE  HN ES   4    724  8.57                             113   -1.93 0  281 291 
 URE  HZ I         724 14.09        32.0 0.16            114            281 291 
 PTGC HZ EP   4    723 41.02                             111   -1.43 0  313 159 
 PTGC HN ES   4    724 14.54                             111   -2.47 0  313 159 
 PTGC HZ I         724 17.15        15.0 0.40            112            313 159 
 CBOC HZ EP        723 46.05                             110    1.07 7  334 251 
 CBOC HE ES        724 20.86                             110   -0.66 7  334 251 
 CBOC HZ I         724 38.06         6.2 0.14            110            334 251 
 PRA  HZ EP        723 51.90                             106   -0.07 6  395 209 
 PRA  HN ES   4    724 32.99                             106   -0.96 0  395 209 
 PRA  HZ I         724 41.33        15.2 0.38            106            395 209 
 ORTC HZ EP        723 52.99                             106    0.67 6  398 216 
 ORTC HN ES        724 34.42                             106   -0.16 6  398 216 
 ORTC HZ I         724 40.21        11.5 0.28            106            398 216 
 SJC  HZ EP        723 51.92                             106   -1.19 6  405 327 
 SJC  HN ES   4    724 32.60                             106   -3.39 0  405 327 
 SJC  HZ I         724 36.90        13.6 0.50            106            405 327 
 PAL  HZ EP        723 53.76                             106    0.40 6  407 238 
 PAL  HN ES        724 36.14                             106   -0.30 6  407 238 
 PAL  HZ I         724 45.59         4.1 0.26            106            407 238 
                                                                                
