 2016  428 0409 47.9 L   6.922 -72.893  4.0  RSN 14 0.5 2.3LRSN                1
 GAP=166        1.24       2.7     4.7  6.6 -0.5492E+01  0.1414E+02 -0.3508E+01E
 Epicentro: GUACA - SANTANDER                                                  3
 ACTION:UPD 16-05-05 14:24 OP:rebc STATUS:               ID:20160428040947 L   I
 OLDACT:REG 16-04-28 13:39 OP:dnl  STATUS:               ID:20160428040744     3
 2016-04-28-0407-44M.COL___316                                                 6
 STAT SP IPHASW D HRMM SECON CODA AMPLIT PERI AZIMU VELO AIN AR TRES W  DIS CAZ7
 BAR2 EZ EP        4 9 55.55                              47   -0.5410 48.5 221 
 BAR2 EZ ES   4    410  0.79                              47   -1.69 0 48.5 221 
 BAR2 EZ I         410  2.90       148.3 0.52             47           48.5 221 
 PAM  EZ IP     C  4 9 57.19                              47    0.4910 50.9  25 
 PAM  EN ES        410  3.03                              47   -0.5410 50.9  25 
 PAM  EZ I         410  5.16       159.0 0.20             47           50.9  25 
 RUS  HZ EP        410  6.94                              47    0.4010  116 190 
 RUS  HN ES        410 20.66                              47   -0.4310  116 190 
 RUS  HZ I         410 23.29        33.9 0.28             47            116 190 
 TAM  HZ EP   4    410 12.52                              47    3.80 0  133 114 
 TAM  HE ES   4    410 29.92                              47    4.97 0  133 114 
 TAM  HZ I         410 35.53        24.1 0.42             47            133 114 
 OCA  HZ IP     C  410 12.47                              47    0.63 9  153 342 
 OCA  HN ES        410 29.87                              47   -0.64 9  153 342 
 OCA  HZ I         410 33.20        76.5 0.40             47            153 342 
 PTB  HZ IP     D  410 15.94                              37    0.53 9  178 256 
 PTB  HN ES        410 36.39                              37   -0.49 9  178 256 
 PTB  HZ I         410 39.95        27.6 0.22             47            178 256 
 SPBC HZ EP   4    410 18.35                              37    1.12 0  192 223 
 SPBC HE ES   4    410 41.36                              37    1.26 0  192 223 
 SPBC HZ I         410 46.53        69.5 0.24             37            192 223 
 ZAR  HZ EP        410 21.91                              37    0.50 8  226 286 
 ZAR  HE ES        410 47.94                              37    0.39 8  226 286 
 ZAR  HZ I         410 49.58        35.1 0.28             37            226 286 
 NOR  HZ EP   4    410 29.62                              37    3.24 0  265 236 
 NOR  HE ES        410 56.97                              37    0.57 8  265 236 
 NOR  HZ I         411  0.77        15.7 0.64             37            265 236 
 CHI  HZ EP   4    410 31.66                              37    4.26 0  270 200 
 CHI  HN ES   4    411  3.43                              37    5.21 0  270 200 
 CHI  HZ I         411 10.06         7.2 0.58             37            270 200 
 SOCV BZ EP   4    410 31.74                              37    4.73 0  271  56 
 SOCV BN ES   4    411  0.26                              37    2.75 0  271  56 
 HEL  HZ EP   4    410 32.57                              36    1.17 0  303 255 
 HEL  HN ES        411  4.65                              36   -0.68 7  303 255 
 HEL  HZ I         411 11.49         9.3 0.28             36            303 255 
 URE  HZ EP   2    410 31.41                              36    0.07 4  306 288 
 URE  HE ES   4    411  7.37                              36    2.14 0  306 288 
 URE  HZ I         411 13.52        10.4 0.22             36            306 288 
 LL6C HZ EP   4    410 38.23                              36    5.88 0  314 352 
 LL6C HN ES   4    411  9.72                              36    2.69 0  314 352 
 LL6C HZ I         411 20.75        10.5 0.48             36            314 352 
 SDV  BZ EP   4    410 39.18                              36    4.54 0  330  49 
 SDV  BE ES   4    411 14.74                              36    3.64 0  330  49 
 GUY2CHZ EP   4    410 37.44                              36    2.29 0  332 236 
 GUY2CHN ES   4    411 10.73                              36   -1.27 0  332 236 
 GUY2CHZ I         411 27.19         6.6 0.32                           332 236 
 CBOC HZ EP   4    410 42.32                              36    3.52 0  364 251 
 CBOC HE ES   4    411 20.53                              36    2.04 0  364 251 
                                                                                
