 2013  928 0835  4.9 L   6.785 -73.161140.0  RSN  9 0.5 1.8LRSN                1
 GAP=135        1.19       4.1     5.8  7.3 -0.2737E+01  0.4493E+01  0.8317E+01E
 Epicentro: LOS SANTOS - SANTANDER                                             3
 ACTION:UPD 13-10-22 09:25 OP:ep   STATUS:               ID:20130928083505 L   I
 OLDACT:UP  13-10-07 16:11 OP:ep   STATUS:               ID:20130928083505 L   3
 OLDACT:UP  13-10-07 14:45 OP:ep   STATUS:               ID:20130928083505 L   3
 OLDACT:REG 13-09-28 08:30 OP:stll STATUS:               ID:20130928082844     3
 2013-09-28-0828-44M.COL___244                                                 6
 STAT SP IPHASW D HRMM SECON CODA AMPLIT PERI AZIMU VELO AIN AR TRES W  DIS CAZ7
 BAR2 SZ EP        835 23.91                             171    0.1510 21.4 186 
 BAR2 SZ ES        835 38.50                             171    0.0010 21.4 186 
 BRR  HN ES        835 42.38                             152    1.0510 70.6 300 
 PAM  SZ EP        835 26.91                             149    0.3010 79.7  40 
 PAM  SN ES   4    835 41.71                             149   -1.87 0 79.7  40 
 RUS  HZ EP        835 27.86                             143   -0.0710 99.0 175 
 RUS  HZ I         835 29.02         6.7 0.10            143           99.0 175 
 RUS  HN ES        835 45.66                             143   -0.2710 99.0 175 
 PTB  HZ EP        835 30.61                             131   -0.57 9  146 259 
 PTB  HN ES        835 51.11                             131   -0.60 9  146 259 
 PTB  HZ I         835 53.98         8.3 0.30            130            146 259 
 OCA  HZ EP   4    835 34.93                             128    2.06 0  162 354 
 OCA  HN ES        835 53.93                             128   -0.79 9  162 354 
 NOR  HZ EP        835 40.59                             118    0.58 8  232 235 
 NOR  HN ES        836  7.64                             118    0.22 8  232 235 
 NOR  HZ I         836 10.20         6.9 0.16            117            232 235 
 CHI  HZ EP        835 42.22                             116    0.20 8  247 195 
 CHI  HN ES        836 10.53                             116   -0.47 8  247 195 
 PRA  HZ EP        835 58.27                             106    0.35 6  390 209 
 PRA  HN ES        836 39.46                             106    0.16 6  390 209 
                                                                                
