 2014  928 0705  7.0 L   6.799 -73.139148.0  RSN 18 0.4 1.8LRSN                1
 GAP= 71        0.90       2.7     2.9  5.0 -0.1433E+00  0.1684E+01  0.2750E+01E
 Epicentro: LOS SANTOS - SANTANDER                                             3
 ACTION:UPD 14-10-03 23:09 OP:nd   STATUS:               ID:20140928070507 L   I
 OLDACT:DUP 14-09-28 17:06 OP:spq  STATUS:               ID:20140928065819d    3
 2014-09-28-0658-18M.COL___295                                                 6
 STAT SP IPHASW D HRMM SECON CODA AMPLIT PERI AZIMU VELO AIN AR TRES W  DIS CAZ7
 BAR2 SZ EP        7 5 26.93                             171   -0.0110 23.4 192 
 BAR2 SZ ES   1    7 5 42.00                             171   -0.46 7 23.4 192 
 BAR2 SZ I         7 5 44.60        14.4 0.28            169           23.4 192 
 BRR  HZ EP        7 5 28.78                             153    0.3110 71.9 298 
 BRR  HN ES        7 5 46.18                             153    0.9910 71.9 298 
 BRR  HZ I         7 5 49.04         5.9 0.16            151           71.9 298 
 PAM  SZ EP        7 5 29.67                             151    0.2010 76.9  39 
 PAM  SN ES        7 5 46.87                             151   -0.0910 76.9  39 
 PAM  SZ I         7 5 49.07        11.8 0.20            154           76.9  39 
 RUS  HZ EP   1    7 5 30.69                             144   -0.31 7  100 176 
 RUS  HE ES   1    7 5 49.03                             144   -0.67 7  100 176 
 RUS  HZ I         7 5 50.32         5.5 0.26            144            100 176 
 PTB  HZ EP        7 5 33.87                             132   -0.39 9  149 259 
 PTB  HE ES        7 5 55.01                             132   -0.48 9  149 259 
 PTB  HZ I         7 6  0.85         9.8 0.15            131            149 259 
 TAM  HZ EP        7 5 35.08                             131    0.26 9  154 105 
 TAM  HN ES        7 5 56.59                             131    0.09 9  154 105 
 TAM  HZ I         7 6  3.80         6.0 0.50            133            154 105 
 OCA  HZ EP   1    7 5 35.08                             130   -0.46 7  160 353 
 OCA  HN ES        7 5 57.66                             130   -0.11 9  160 353 
 OCA  HZ I         7 6  5.30         7.7 0.36            131            160 353 
 SPBC HZ EP        7 5 35.80                             129    0.05 9  164 219 
 SPBC HN ES        7 5 58.34                             129    0.19 9  164 219 
 SPBC HZ I         7 6  2.98        14.0 0.24            129            164 219 
 ZAR  HE ES        7 6  5.18                             123   -0.01 9  205 292 
 ZAR  HZ I         7 6 15.83         7.0 0.34            123            205 292 
 SML  HZ EP   1    7 5 43.15                             118   -0.68 6  244 335 
 SML  HN ES   1    7 6 12.09                             118   -0.44 6  244 335 
 SML  HZ I         7 6 15.44        11.8 0.24            118            244 335 
 CHI  HZ EP   1    7 5 44.81                             118   -0.07 6  249 195 
 CHI  HE ES   1    7 6 14.44                             118    0.05 6  249 195 
 CHI  HZ I         7 6 22.81         2.6 0.34            118            249 195 
 ROSC BZ EP   4    7 5 46.82                             117    1.50 0  253 211 
 ROSC BN ES   4    7 6 17.93                             117    2.75 0  253 211 
 ROSC BZ I         7 6 24.68         8.0 0.45            117            253 211 
 GUY2CHZ EP   1    7 5 51.79                             113    0.97 5  302 235 
 GUY2CHE ES   4    7 6 27.44                             113    2.47 0  302 235 
 GUY2CHZ I         7 6 33.80         6.3 0.76                           302 235 
 TOL  SZ EP   1    7 5 55.90                             110    0.45 5  344 225 
 TOL  SE ES   4    7 6 35.76                             110    2.56 0  344 225 
 MON  HZ EP   4    7 5 54.13                             109   -2.07 0  354 308 
 MON  HN ES   4    7 6 32.78                             109   -1.77 0  354 308 
 MON  HZ I         7 6 35.26         1.2 0.42            109            354 308 
 PRA  HZ EP        7 6  0.56                             107   -0.12 6  392 210 
 PRA  HN ES   4    7 6 44.15                             107    1.64 0  392 210 
 PRA  HZ I         7 6 48.90         3.3 0.37            107            392 210 
 ORTC HZ EP        7 6  1.20                             107    0.11 6  396 216 
 ORTC HN ES   4    7 6 44.40                             107    1.16 0  396 216 
 ORTC HZ I         7 6 51.65         2.8 0.54            107            396 216 
 SJC  HZ EP   4    7 6  1.19                             106   -1.54 0  410 327 
 SJC  HN ES   4    7 6 41.57                             106   -4.60 0  410 327 
 SJC  HZ I         7 6 53.53         1.1 0.42            106            410 327 
                                                                                
