 2016  828 0352 47.7 L   6.815 -73.135145.8  RSN 15 0.5 2.0LRSN                1
 GAP=137        1.08       2.9     3.9  5.9 -0.1946E+01  0.6736E+01  0.2179E+01E
 Epicentro: LOS SANTOS - SANTANDER                                             3
 ACTION:UPD 16-10-29 15:40 OP:rebc STATUS:               ID:20160828035247 L   I
 OLDACT:DUP 16-08-28 14:46 OP:ak   STATUS:               ID:20160828034741d    3
 2016-08-28-0348-00M.COL___368                                                 6
 STAT SP IPHASW D HRMM SECON CODA AMPLIT PERI AZIMU VELO AIN AR TRES W  DIS CAZ7
 BAR2 EZ EP        353  6.66                             170   -0.6710 25.2 192 
 BAR2 EZ ES        353 22.20                             170   -0.4710 25.2 192 
 BAR2 EZ I         353 23.49        24.1 0.42                          25.2 192 
 BRR  HZ EP        353  9.21                             152    0.3910 71.5 297 
 BRR  HN ES        353 26.30                             152    0.9710 71.5 297 
 BRR  HZ I         353 30.25        14.3 0.34                          71.5 297 
 PAM  EZ EP        353 10.42                             151    0.6710 75.4  40 
 PAM  EN ES        353 27.37                             151    0.3810 75.4  40 
 PAM  EZ I         353 29.89        11.8 0.26                          75.4  40 
 RUS  HZ EP        353 11.37                             143   -0.1510  102 177 
 RUS  HN ES        353 30.11                             143   -0.0310  102 177 
 RUS  HZ I         353 31.54         5.9 0.32                           102 177 
 PTB  HZ EP        353 14.16                             132   -0.60 9  149 258 
 PTB  HN ES        353 35.29                             132   -0.61 9  149 258 
 PTB  HZ I         353 42.44         6.7 0.17                           149 258 
 OCA  HZ EP   2    353 15.40                             130   -0.42 5  159 353 
 OCA  HN ES        353 37.32                             130   -0.48 9  159 353 
 OCA  HZ I         353 46.85        17.0 0.18                           159 353 
 SPBC HZ EP   2    353 16.16                             129   -0.19 5  165 219 
 SPBC HN ES        353 38.54                             129   -0.19 9  165 219 
 SPBC HZ I         353 43.11        16.7 0.40                           165 219 
 ZAR  HZ EP   2    353 20.15                             122    0.00 4  205 292 
 ZAR  HN ES        353 45.44                             122   -0.05 9  205 292 
 ZAR  HZ I         353 50.80         9.1 0.35                           205 292 
 NOR  HZ EP        353 23.59                             118    0.00 8  237 234 
 NOR  HE ES        353 51.47                             118   -0.15 8  237 234 
 CHI  HZ EP        353 25.54                             117   -0.02 8  251 195 
 CHI  HN ES        353 55.20                             117    0.07 8  251 195 
 CHI  HZ I         353 58.53         6.6 0.54                           251 195 
 ROSC BZ EP   4    353 27.96                             116    1.97 0  255 211 
 ROSC BE ES        353 55.94                             116    0.04 8  255 211 
 ROSC BZ I         354  1.89        15.7 0.45                           255 211 
 HEL  HZ EP   2    353 28.49                             115    0.45 4  274 256 
 HEL  HN ES        353 59.83                             115    0.29 8  274 256 
 HEL  HZ I         354  5.88         3.9 0.40                           274 256 
 GUY2CHZ EP        353 32.39                             112    0.91 7  303 235 
 GUY2CHE ES        354  6.22                             112    0.56 7  303 235 
 GUY2CHZ I         354 13.83         4.8 0.60                           303 235 
 ELA  HZ EP   9    353 36.95                             110    2.22 0  331 229 
 ELA  HN ES        354 13.37                                   -0.30 7  331 229 
 ELA  HZ I         354 26.68         4.3 0.44                           331 229 
 SJC  HZ EP   4    353 41.69                             106   -1.44 0  408 327 
 SJC  HE ES        354 25.60                             106   -0.80 6  408 327 
 SJC  HZ I         354 35.00         1.7 0.21                           408 327 
                                                                                
