 2013 1028 0825 11.5 L   6.828 -73.152145.5  RSN  9 0.5 1.6LRSN                1
 GAP=134        1.13       4.3     6.2  8.0 -0.1030E+01  0.1533E+02 -0.7867E+01E
 Epicentro: LOS SANTOS - SANTANDER                                             3
 ACTION:UPD 13-11-25 09:24 OP:ep   STATUS:               ID:20131028082511 L   I
 OLDACT:REG 13-10-28 08:32 OP:jn   STATUS:               ID:20131028082000     3
 2013-10-28-0820-00M.COL___273                                                 6
 STAT SP IPHASW D HRMM SECON CODA AMPLIT PERI AZIMU VELO AIN AR TRES W  DIS CAZ7
 BAR2 SZ EP   1    825 31.29                             169    0.17 7 26.2 187 
 BAR2 SZ ES        825 45.86                             169   -0.5910 26.2 187 
 BAR2 SZ I         825 47.35        12.7 0.20            173           26.2 187 
 BRR  HZ EP        825 33.09                             153    0.6310 69.1 297 
 BRR  HE ES   1    825 49.69                             153    0.84 7 69.1 297 
 BRR  HZ I         825 53.76         4.1 0.30            152           69.1 297 
 PAM  SZ EP        825 34.21                             151    0.6710 75.5  41 
 PAM  SN ES        825 50.92                             151    0.1610 75.5  41 
 PAM  SZ I         825 53.09        10.8 0.54            152           75.5  41 
 RUS  HZ EP   1    825 35.42                             143    0.01 7  104 176 
 RUS  HN ES   1    825 53.51                             143   -0.58 7  104 176 
 PTB  HZ EP        825 37.94                             132   -0.45 9  148 258 
 PTB  HN ES   2    825 59.11                             132   -0.30 5  148 258 
 PTB  HZ I         826  1.19         5.5 0.12            134            148 258 
 OCA  HZ EP   1    825 39.55                             130    0.10 7  157 353 
 OCA  HE ES        826  1.08                             130   -0.21 9  157 353 
 OCA  HZ I         826  8.59         4.4 0.32            131            157 353 
 SPBC HN ES   2    826  2.84                             128    0.36 5  165 218 
 ZAR  HN ES   1    826  9.22                             122    0.37 6  202 291 
 SML  HZ EP        825 47.49                             118   -0.24 8  241 335 
 SML  HE ES        826 15.09                             118   -0.94 8  241 335 
                                                                                
