 2017  728 0847 21.4 L   6.765 -73.120143.0  RSN  8 0.4 1.3LRSN                1
 GAP=123        0.82       4.0     4.0  5.3  0.1737E+01  0.2381E+01 -0.2114E+01E
 Epicentro: LOS SANTOS - SANTANDER                                             3
 ACTION:UPD 17-08-30 15:37 OP:rebc STATUS:               ID:20170728084721 L   I
 OLDACT:UP  17-07-28 16:24 OP:and  STATUS:               ID:20170728083741d    3
 OLDACT:UP  17-07-28 16:24 OP:and  STATUS:               ID:20170728083741d    3
 OLDACT:UP  17-07-28 16:23 OP:and  STATUS:               ID:20170728083741d    3
 OLDACT:UP  17-07-28 16:23 OP:and  STATUS:               ID:20170728083741d    3
 OLDACT:UP  17-07-28 16:23 OP:and  STATUS:               ID:20170728083741d    3
 OLDACT:DUP 17-07-28 16:21 OP:and  STATUS:               ID:20170728083741d    3
 2017-07-28-0838-00M.COL___373                                                 6
 STAT SP IPHASW D HRMM SECON CODA AMPLIT PERI AZIMU VELO AIN AR TRES W  DIS CAZ7
 BAR2 EZ EP     C  847 40.50                             171   -0.1210 20.4 200 
 BAR2 EZ ES        847 55.11                             171   -0.5210 20.4 200 
 BAR2 EZ I         847 56.29         7.8 0.30            170           20.4 200 
 BRR  HZ EP        847 42.27                             151   -0.2110 75.5 300 
 BRR  HN ES        847 59.27                             151    0.3210 75.5 300 
 PAM  EZ EP     C  847 43.44                             150    0.0610 78.7  36 
 PAM  EN ES        848  0.61                             150    0.0710 78.7  36 
 PAM  EZ I         848  2.45         3.6 0.58            152           78.7  36 
 RUS  HZ EP   2    847 44.90                             144    0.33 5 96.6 178 
 RUS  HN ES        848  3.07                             144    0.4010 96.6 178 
 RUS  HZ I         848  3.93         3.8 0.36            145           96.6 178 
 PTB  HZ EP   9    847 47.04                             131   -1.27 0  150 260 
 PTB  HN ES        848  8.22                             132    0.17 9  150 260 
 PTB  HZ I         848 13.80         1.2 0.14            130            150 260 
 SPBC HZ EP   2    847 49.34                             129   -0.22 5  162 221 
 SPBC HN ES   2    848 11.21                             129   -0.33 5  162 221 
 SPBC HZ I         848 13.44         2.7 0.22            128            162 221 
 ZAR  HZ EP        847 54.73                             121    0.66 8  208 293 
 ZAR  HN ES        848 19.12                             121   -0.45 8  208 293 
 ZAR  HZ I         848 25.32         1.9 0.18            121            208 293 
 PTGC HZ EP   2    848  3.66                             111   -0.93 4  304 159 
                                                                                
