 2017  728 0748 54.1 L   6.793 -73.141139.0  RSN 22 0.5 2.2LRSN                1
 GAP= 66        0.84       2.6     2.3  4.2 -0.1554E+00  0.2998E+01  0.5002E+00E
 Epicentro: LOS SANTOS - SANTANDER                                             3
 ACTION:UPD 17-08-30 15:37 OP:rebc STATUS:               ID:20170728074854 L   I
 OLDACT:UP  17-07-28 16:05 OP:and  STATUS:               ID:20170728074742     3
 OLDACT:UP  17-07-28 16:04 OP:and  STATUS:               ID:20170728074742     3
 OLDACT:UP  17-07-28 16:03 OP:and  STATUS:               ID:20170728074742     3
 OLDACT:UP  17-07-28 15:53 OP:and  STATUS:               ID:20170728074742     3
 OLDACT:UP  17-07-28 15:52 OP:and  STATUS:               ID:20170728074742     3
 OLDACT:UP  17-07-28 15:51 OP:and  STATUS:               ID:20170728074742     3
 OLDACT:REG 17-07-28 12:45 OP:and  STATUS:               ID:20170728074742     3
 2017-07-28-0748-00M.COL___378                                                 6
 STAT SP IPHASW D HRMM SECON CODA AMPLIT PERI AZIMU VELO AIN AR TRES W  DIS CAZ7
 BAR2 EZ IP     C  749 12.77                             170   -0.0910 22.6 192 
 BAR2 EZ ES        749 27.25                             170   -0.2710 22.6 192 
 BAR2 EZ I         749 28.45        76.2 0.24            169           22.6 192 
 BRR  HZ IP     C  749 14.69                             151    0.1610 72.1 299 
 BRR  HN ES   2    749 31.63                             151    1.13 5 72.1 299 
 BRR  HZ I         749 35.83        39.2 0.12            151           72.1 299 
 PAM  EZ IP     D  749 15.76                             150    0.1810 77.7  39 
 PAM  EN ES        749 32.41                             150    0.0510 77.7  39 
 PAM  EZ I         749 34.99        69.1 0.56            154           77.7  39 
 RUS  HZ EP        749 17.15                             143    0.0710 99.7 176 
 RUS  HN ES        749 34.85                             143   -0.2010 99.7 176 
 RUS  HZ I         749 36.00        11.6 0.22            143           99.7 176 
 PTB  HZ EP   9    749 19.36                             130   -1.15 0  148 259 
 PTB  HN ES        749 40.47                             131    0.47 9  148 259 
 PTB  HZ I         749 43.26        30.9 0.14            131            148 259 
 TAM  HZ IP     D  749 21.15                             129    0.01 9  154 105 
 TAM  HN ES        749 42.48                             129    0.22 9  154 105 
 SPBC HZ EP        749 21.84                             128   -0.17 9  163 219 
 SPBC HN ES        749 43.48                             128   -0.34 9  163 219 
 SPBC HZ I         749 48.17        14.9 0.20            128            163 219 
 YPLC HZ EP        749 23.13                             125   -0.14 9  176 151 
 YPLC HN ES   2    749 46.77                             125    0.71 4  176 151 
 YPLC HZ I         749 49.62        17.2 0.22            127            176 151 
 ZAR  HZ EP        749 25.99                             121   -0.16 9  205 292 
 ZAR  HN ES        749 51.68                             121    0.49 9  205 292 
 ZAR  HZ I         749 53.53        19.5 0.18            122            205 292 
 NOR  HZ EP   3    749 30.55                             117    1.15 2  235 235 
 NOR  HN ES        749 57.33                             117    0.37 8  235 235 
 NOR  HZ I         749 58.68        10.3 0.22            118            235 235 
 CHI  HN ES        750  0.26                             116   -0.12 8  248 195 
 CHI  HZ I         750  4.29         3.9 0.36            117            248 195 
 HEL  HZ EP   2    749 34.78                             113    0.81 4  272 256 
 HEL  HE ES   2    750  4.42                             113   -0.68 4  272 256 
 HEL  HZ I         750 11.78        11.2 0.30            114            272 256 
 URE  HZ EP        749 33.77                             112   -1.13 7  285 292 
 URE  HE ES   3    750  4.92                             112   -1.83 2  285 292 
 URE  HZ I         750  6.75        14.2 0.15            114            285 292 
 GUY2CHZ EP   2    749 38.48                             111    1.13 4  301 235 
 GUY2CHN ES   4    750 14.27                             111    3.14 0  301 235 
 GUY2CHZ I         750 18.16         9.3 0.28                           301 235 
 PTGC HZ EP   9    749 35.94                             110   -1.57 0  308 159 
 PTGC HN ES        750  9.09                             111   -0.74 7  308 159 
 PTGC HZ I         750 11.52         8.0 0.38            112            308 159 
 LL6C HZ EP   3    749 37.86                             109   -1.72 2  326 357 
 LL6C HZ ES   4    750 17.24                             109    2.16 0  326 357 
 CBOC HZ EP        749 41.26                             109    0.53 7  334 252 
 CBOC HN ES        750 17.32                             109    0.19 7  334 252 
 CBOC HZ I         750 21.91         3.4 0.31            110            334 252 
 DBB  EZ EP   3    749 42.84                             108    1.51 2  340 274 
 DBB  EN ES        750 17.68                             108   -0.53 7  340 274 
 DBB  EZ I         750 20.34        10.1 0.40            109            340 274 
 PRA  HZ EP        749 46.91                             105   -0.39 6  392 210 
 PRA  HE ES        750 29.30                             105    0.48 6  392 210 
 PRA  HZ I         750 33.48         6.6 0.26            107            392 210 
 ORTC HZ EP   9    749 48.81                             105    1.10 0  395 216 
 ORTC HN ES   2    750 31.08                             106    0.42 3  395 216 
 ORTC HZ I         750 36.09         3.5 0.58            106            395 216 
 PAL  HZ IP     C  749 49.08                             105    0.08 6  406 239 
 PAL  HE ES   3    750 30.31                             105   -1.55 1  406 239 
 PAL  HZ I         750 34.12         2.8 0.22            106            406 239 
 SJC  HZ EP   3    749 47.73                             105   -1.79 1  410 327 
 SJC  HN ES   4    750 28.61                             105   -4.17 0  410 327 
 SJC  HZ I         750 33.17         5.4 0.58            106            410 327 
                                                                                
