 2014  628 0512 51.2 L   6.791 -73.162137.4  RSN 21 0.5 2.3LRSN                1
 GAP= 71        1.08       2.4     2.9  5.0 -0.7235E+00  0.4110E+01  0.1744E+01E
 Epicentro: LOS SANTOS - SANTANDER                                             3
 ACTION:UPD 14-07-01 22:57 OP:nd   STATUS:               ID:20140628051251 L   I
 OLDACT:REG 14-06-28 13:38 OP:spq  STATUS:               ID:20140628050814     3
 2014-06-28-0508-14M.COL___249                                                 6
 STAT SP IPHASW D HRMM SECON CODA AMPLIT PERI AZIMU VELO AIN AR TRES W  DIS CAZ7
 BAR2 SZ IP     D  513 10.20                             170    0.3810 22.1 186 
 BAR2 SZ ES   1    513 24.28                             170   -0.05 7 22.1 186 
 BAR2 SZ I         513 25.92        76.1 0.30            171           22.1 186 
 BRR  HZ IP     C  513 12.11                             151    0.7010 70.1 300 
 BRR  HN ES        513 27.84                             151    0.6910 70.1 300 
 BRR  HZ I         513 34.02        36.0 0.14            149           70.1 300 
 PAM  SZ EP        513 13.24                             149    0.5610 79.3  40 
 PAM  SN ES        513 29.28                             149   -0.1310 79.3  40 
 PAM  SZ I         513 32.61        42.3 0.62            149           79.3  40 
 RUS  HZ EP        513 14.15                             142    0.0510 99.7 175 
 RUS  HN ES        513 31.61                             142   -0.3310 99.7 175 
 RUS  HZ I         513 33.42        33.6 0.26            142           99.7 175 
 PTB  HZ EP        513 16.74                             130   -0.60 9  146 259 
 PTB  HN ES        513 37.13                             130   -0.57 9  146 259 
 PTB  HZ I         513 40.17        40.1 0.18            129            146 259 
 TAM  HZ IP     D  513 18.65                             128    0.25 9  157 104 
 TAM  HN ES   1    513 38.93                             128   -0.66 7  157 104 
 TAM  HZ I         513 40.65        17.4 0.22            129            157 104 
 SPBC HZ EP        513 19.02                             127    0.11 9  161 219 
 OCA  HZ I         513 42.50        30.5 0.19            127            161 354 
 SPBC HN ES        513 40.39                             127   -0.11 9  161 219 
 OCA  HZ EP        513 18.63                             128   -0.34 9  161 354 
 OCA  HE ES        513 40.31                             128   -0.31 9  161 354 
 SPBC HZ I         513 43.11        33.8 0.20            127            161 219 
 ZAR  HZ EP        513 22.93                             121   -0.07 9  203 293 
 ZAR  HE ES        513 47.96                             121    0.18 9  203 293 
 ZAR  HZ I         513 50.58        25.4 0.14            120            203 293 
 NOR  HZ EP        513 25.65                             117   -0.61 8  233 234 
 NOR  HN ES        513 53.59                             117    0.01 8  233 234 
 NOR  HZ I         513 59.86        18.3 0.22            116            233 234 
 SML  HZ EP        513 27.38                             116   -0.03 8  244 336 
 SML  HE ES        513 55.68                             116    0.04 8  244 336 
 SML  HZ I         513 58.29        28.1 0.10            115            244 336 
 CHI  HZ EP        513 27.61                             115   -0.70 8  247 195 
 CHI  HN ES        513 57.44                             115    0.20 8  247 195 
 CHI  HZ I         514  1.91         7.1 0.32            115            247 195 
 HEL  HZ EP        513 31.47                             113    0.67 8  270 256 
 HEL  HN ES        514  0.91                             113   -0.75 8  270 256 
 HEL  HZ I         514  9.22        12.9 0.28            112            270 256 
 URE  HZ EP        513 30.97                             112   -0.78 7  282 292 
 URE  HE ES        514  2.54                             112   -0.82 7  282 292 
 URE  HZ I         514  4.14        17.9 0.34            111            282 292 
 GUY2CHZ EP        513 34.78                             111    0.56 7  299 235 
 GUY2CHN ES        514  8.15                             111    0.39 7  299 235 
 GUY2CHZ I         514 15.60        12.5 0.26                           299 235 
 RREF HZ EP   4    513 38.70                             109    1.92 0  320 229 
 RREF HN ES   4    514 14.39                             109    2.07 0  320 229 
 RREF HZ I         514 19.35        10.5 0.24            109            320 229 
 CBOC HZ EP        513 38.36                             108    0.79 7  332 252 
 CBOC HN ES        514 14.55                             108    0.84 7  332 252 
 CBOC HZ I         514 23.65         4.2 0.46            108            332 252 
 TOL  SZ EP        513 38.69                             108   -0.23 7  342 225 
 TOL  SN ES        514 16.89                             108    0.76 7  342 225 
 TOL  SZ I         514 26.97        13.2 0.28            107            342 225 
 PRA  HZ EP        513 44.04                             105   -0.22 6  390 209 
 PRA  HN ES        514 25.38                             105   -0.25 6  390 209 
 PRA  HZ I         514 34.79         5.1 0.56            105            390 209 
 ORTC HZ EP        513 45.23                             105    0.58 6  394 216 
 ORTC HN ES        514 25.83                             105   -0.49 6  394 216 
 ORTC HZ I         514 31.85         5.4 0.60            105            394 216 
 SJC  HZ EP   4    513 44.85                             104   -1.65 0  409 327 
 SJC  HN ES   4    514 25.83                             104   -3.79 0  409 327 
 SJC  HZ I         514 30.33         4.8 0.44            104            409 327 
                                                                                
