 2017  828 0418 33.7 L   6.800 -73.139145.2  RSN  6 0.4 2.2LRSN                1
 GAP=137        0.95       4.7     5.5  7.3  0.5550E+01  0.8844E-01 -0.1931E+01E
 Epicentro: LOS SANTOS - SANTANDER                                             3
 ACTION:UPD 17-09-04 20:25 OP:rebc STATUS:               ID:20170828041833 L   I
 OLDACT:REG 17-08-28 12:25 OP:dhb  STATUS:               ID:20170828041551     3
 2017-08-28-0418-00M.COL___417                                                 6
 STAT SP IPHASW D HRMM SECON CODA AMPLIT PERI AZIMU VELO AIN AR TRES W  DIS CAZ7
 BAR2 EZ EP        418 53.17                             170   -0.1410 23.5 192 
 BAR2 EZ ES        419  7.82                             170   -0.7510 23.5 192 
 BAR2 EZ I         419  8.72     90052.7 0.01            168           23.5 192 
 BRR  HZ IP     D  418 54.85                             152   -0.0210 71.8 298 
 BRR  HN ES        419 11.91                             152    0.5710 71.8 298 
 BRR  HZ I         419 13.85         1.4 0.06            147           71.8 298 
 PAM  EZ IP     D  418 56.07                             151    0.1910 76.9  39 
 PAM  EZ I         419 19.38         1.3 0.36            133           76.9  39 
 RUS  HZ EP        418 57.32                             144   -0.1210  101 176 
 RUS  HN ES        419 16.41                             144    0.4910  101 176 
 RUS  HZ I         419 16.86         1.6 0.43            138            101 176 
 SPBC HZ EP        419  2.21                             129   -0.03 9  164 219 
 SPBC HN ES        419 24.47                             129   -0.00 9  164 219 
 SPBC HZ I         419 30.49        95.8 0.03            124            164 219 
 ZAR  HE ES        419 31.30                             122   -0.25 9  205 292 
                                                                                
