 2014 1028 0124 51.7 L   6.784 -73.146147.1  RSN  6 0.5 1.7LRSN                1
 GAP=137        1.19       6.3     6.1  8.0 -0.4602E+01  0.9565E+01  0.5687E+01E
 Epicentro: LOS SANTOS - SANTANDER                                             3
 ACTION:UPD 14-11-29 23:57 OP:nd   STATUS:               ID:20141028012451 L   I
 OLDACT:UP  14-10-30 16:41 OP:cam  STATUS:               ID:20141028011813d    3
 OLDACT:DUP 14-10-30 16:04 OP:cam  STATUS:               ID:20141028011813d    3
 2014-10-28-0118-12M.COL___271                                                 6
 STAT SP IPHASW D HRMM SECON CODA AMPLIT PERI AZIMU VELO AIN AR TRES W  DIS CAZ7
 BAR2 SZ EP        125 10.86                             171   -0.5910 21.6 191 
 BAR2 SZ ES        125 26.38                             171   -0.4810 21.6 191 
 BAR2 SZ I         125 28.21         7.4 0.40            170           21.6 191 
 BRR  HZ EP     D  125 13.38                             152    0.3410 72.1 300 
 BRR  HN ES        125 30.49                             152    0.8110 72.1 300 
 BRR  HN I         125 31.03        19.4 0.32            152           72.1 300 
 PAM  SZ EP        125 13.93                             151   -0.2010 78.8  39 
 PAM  SN ES        125 31.58                             151   -0.0510 78.8  39 
 PAM  SZ I         125 33.97         5.5 0.58            154           78.8  39 
 RUS  HZ EP        125 15.96                             145    0.5110 98.8 176 
 RUS  HN ES        125 34.26                             145    0.2810 98.8 176 
 RUS  HN I         125 35.91         6.1 0.48            146           98.8 176 
 PTB  HZ EP        125 18.37                             132   -0.37 9  147 260 
 PTB  HN ES        125 39.29                             132   -0.55 9  147 260 
 PTB  HZ I         125 46.65         5.9 0.38            133            147 260 
 GUY2CHZ EP        125 35.58                             113    0.33 7  300 235 
                                                                                
