 2017  128 0733 21.2 L   6.781 -73.425114.3  RSN  5 0.4 1.1LRSN                1
 GAP=169        0.95       5.9     5.2  7.0  0.1917E+02  0.1144E+02  0.5049E+01E
 Epicentro: SAN VICENTE DE CHUCURI - SANTANDER                                 3
 ACTION:UPD 17-05-22 16:04 OP:jn   STATUS:               ID:20170128073321 L   I
 OLDACT:REG 17-01-28 13:26 OP:lv   STATUS:               ID:20170128072741     3
 2017-01-28-0728-00M.COL___334                                                 6
 STAT SP IPHASW D HRMM SECON CODA AMPLIT PERI AZIMU VELO AIN AR TRES W  DIS CAZ7
 BAR2 EZ EP        733 37.34                             162   -0.0810 34.0 128 
 BAR2 EZ ES        733 50.04                             162   -0.0110 34.0 128 
 BAR2 EZ I         733 50.98         2.3 0.09            165           34.0 128 
 BRR  HZ EP        733 37.10                             156   -0.5810 48.0 319 
 BRR  HE ES        733 50.62                             156    0.1010 48.0 319 
 RUS  HZ EP        733 42.92                             135    0.4810  105 159 
 RUS  HN ES        733 59.10                             135    0.1210  105 159 
 PTB  HZ EP        733 42.39                             131   -0.4710  117 257 
 PTB  HN ES        733 59.52                             131   -0.2110  117 257 
 PTB  HZ I         734  3.71         2.7 0.34            130            117 257 
 ZAR  HZ EP        733 48.96                             118    0.10 9  177 296 
 ZAR  HN ES        734 11.10                             118    0.69 9  177 296 
 ZAR  HZ I         734 13.66         1.9 0.30            119            177 296 
                                                                                
