 2011  528 0442 43.0 L   6.569 -73.548106.7  RSN 12 0.3 2.0LRSN                1
 GAP= 84        0.61       2.9     3.8  5.6 -0.4909E+01  0.1060E+02 -0.1744E+01E
 Epicentro: EL CARMEN DE CHUCURI - SANTANDER                                   3
 ACTION:UP  11-06-29 08:56 OP:tino STATUS:               ID:20110528044243 L   I
 2011-05-28-0440-38S.COL___115                                                 6
 STAT SP IPHASW D HRMM SECON CODA AMPLIT PERI AZIMU VELO SNR AR TRES W  DIS CAZ7
 BAR2 SZ EP   1    442 58.78                             158     0.2 7   41  86 
 BAR2 SZ ES   1    443 10.68                             158    -0.1 7   41  86 
 BAR2 SZ I         443 12.58        49.4 0.36                            41  86 
 BTL  SZ EP        442 59.25                             153     0.210   50  39 
 BRR  HZ EP        442 59.28                             147    -0.210   62 343 
 BRR  HN ES   2    443 12.91                             147     0.6 5   62 343 
 BRR  HZ I         443 22.36        20.2 0.13                            62 343 
 GIR2 SZ EP        443  0.20                             145     0.110   69  35 
 RUS  HZ EP   1    443  2.50                             137     0.2 7   91 145 
 RUS  HN ES   2    443 16.66                             137    -0.7 5   91 145 
 BRI  SZ EP   2    443  7.70                             121     0.0 5  152  33 
 GRA  SZ EP   1    443  9.04                             118    -0.3 7  167  29 
 GRA  SZ ES   2    443 29.31                             118    -0.6 5  167  29 
 GRA  SZ I         443 32.15        16.4 0.32                           167  29 
 NOR  SZ EP   1    443 10.84                             115    -0.2 7  184 233 
 NOR  SN ES   2    443 32.09                             115    -0.8 4  184 233 
 OCA  SZ EP   1    443 11.28                             115    -0.1 7  186   8 
 OCA  SZ ES   2    443 33.56                             115    -0.1 4  186   8 
 OCA  SZ I         443 39.62        19.2 0.25                           186   8 
 HEL  HZ EP   1    443 16.25                             110     0.4 6  223 259 
 HEL  HE ES   2    443 40.99                             110    -0.5 4  223 259 
 HEL  HZ I         443 45.83         7.7 0.24                           223 259 
 RREF HZ EP   1    443 21.82                             106     0.0 6  272 227 
 RREF HN ES   2    443 52.21                             106     0.1 4  272 227 
 RREF HZ I         444  0.71         3.1 0.35                           272 227 
 PRA  HZ EP   2    443 30.08                             101    -0.2 3  349 205 
 PRA  HN ES   2    444  7.80                             101     0.7 3  349 205 
                                                                                
