 2013  628 0948 44.1 L   6.678 -73.146139.5  RSN  7 0.5 1.5LRSN                1
 GAP=182        1.04       5.7     7.0  9.8  0.3968E+01  0.2059E+02 -0.1613E+02E
 Epicentro: VILLANUEVA - SANTANDER                                             3
 ACTION:UPD 14-01-08 09:57 OP:ep   STATUS:               ID:20130628094844 L   I
 OLDACT:REG 13-06-28 08:37 OP:jn   STATUS:               ID:20130628094749     3
 2013-06-28-0947-49M.COL___229                                                 6
 STAT SP IPHASW D HRMM SECON CODA AMPLIT PERI AZIMU VELO AIN AR TRES W  DIS CAZ7
 BAR2 SZ EP        949  3.19                             176    0.3910 10.3 203 
 BAR2 SZ ES        949 17.24                             176   -0.1310 10.3 203 
 BAR2 SZ I         949 19.29         5.5 0.20            175           10.3 203 
 BRR  HZ EP        949  5.18                             149    0.1410 78.5 307 
 BRR  HE ES   1    949 22.10                             149    0.74 7 78.5 307 
 RUS  HN ES   1    949 23.24                             146   -0.38 7 87.1 175 
 PTB  HZ EP        949 10.50                             131    0.10 9  146 264 
 PTB  HN ES        949 30.33                             131   -0.56 9  146 264 
 PTB  HZ I         949 33.08         4.8 0.16            132            146 264 
 OCA  HE ES   1    949 35.89                             126   -0.10 7  174 354 
 ZAR  HE ES   1    949 42.79                             120    0.62 6  209 296 
 SML  HN ES   1    949 49.92                             115   -1.19 6  256 337 
                                                                                
