 2017  628 0519 40.7 L   6.854 -73.112151.0  RSN 25 0.6 2.4LRSN                1
 GAP=104        1.05       2.9     2.9  5.5  0.3690E+00  0.4010E+01 -0.2479E+01E
 Epicentro: LOS SANTOS - SANTANDER                                             3
 ACTION:UPD 17-09-14 16:56 OP:jn   STATUS:               ID:20170628051940 L   I
 OLDACT:UP  17-06-28 15:21 OP:and  STATUS:               ID:20170628051744     3
 OLDACT:UP  17-06-28 15:20 OP:and  STATUS:               ID:20170628051744     3
 OLDACT:UP  17-06-28 15:19 OP:and  STATUS:               ID:20170628051744     3
 OLDACT:UP  17-06-28 15:17 OP:and  STATUS:               ID:20170628051744     3
 OLDACT:UP  17-06-28 15:16 OP:and  STATUS:               ID:20170628051744     3
 OLDACT:UP  17-06-28 15:00 OP:and  STATUS:               ID:20170628051744     3
 OLDACT:UP  17-06-28 15:00 OP:and  STATUS:               ID:20170628051744     3
 OLDACT:REG 17-06-28 12:42 OP:and  STATUS:               ID:20170628051744     3
 2017-06-28-0518-00M.COL___367                                                 6
 STAT SP IPHASW D HRMM SECON CODA AMPLIT PERI AZIMU VELO AIN AR TRES W  DIS CAZ7
 BAR2 EZ IP     D  520  1.05                             168   -0.0710 29.9 195 
 BAR2 EZ ES        520 16.29                             168   -0.7410 29.9 195 
 BAR2 EZ I         520 17.78        42.0 0.36            164           29.9 195 
 BRR  HZ IP     C  520  2.98                             153    0.5110 72.0 293 
 BRR  HN ES   2    520 20.67                             153    1.23 5 72.0 293 
 BRR  HZ I         520 22.63        31.5 0.14            150           72.0 293 
 PTB  HZ EP        520  7.70                             132   -0.85 9  153 257 
 PTB  HN ES   2    520 28.98                             132   -1.28 5  153 257 
 PTB  HZ I         520 36.53        27.7 0.40            130            153 257 
 TAM  HZ IP     D  520  9.18                             132    0.54 9  153 107 
 TAM  HN ES        520 30.88                             132    0.47 9  153 107 
 SPBC HZ EP        520  9.90                             129   -0.37 9  170 219 
 SPBC HN ES        520 33.31                             129   -0.01 9  170 219 
 SPBC HZ I         520 39.22        63.1 0.34            128            170 219 
 YPLC HZ IP     D  520 11.20                             127   -0.03 9  180 153 
 YPLC HN ES        520 34.67                             127   -0.37 9  180 153 
 YPLC HZ I         520 35.97        16.5 0.30            129            180 153 
 ZAR  HZ EP        520 13.44                             123   -0.20 8  205 290 
 ZAR  HN ES        520 39.95                             123    0.63 8  205 290 
 ZAR  HZ I         520 45.54        33.9 0.20            123            205 290 
 TABC EZ EP   3    520 18.61                             119    1.09 2  237 211 
 TABC EZ ES   4    520 43.92                             119   -2.30 0  237 211 
 TABC EZ I         520 53.24        19.4 0.44            119            237 211 
 NOR  HZ EP        520 16.74                             119   -0.70 8  241 234 
 NOR  HN ES        520 45.90                             119   -0.19 8  241 234 
 NOR  HZ I         520 48.79        24.8 0.20            118            241 234 
 CHI  HZ EP     C  520 19.31                             117   -0.12 8  255 196 
 CHI  HN ES        520 49.21                             117   -0.42 8  255 196 
 CHI  HZ I         520 56.21         8.3 0.32            118            255 196 
 ROSC BZ EP        520 20.50                             117    0.62 8  260 211 
 ROSC BE ES   2    520 51.55                             117    1.12 4  260 211 
 ROSC BZ I         520 59.08        29.1 0.45            117            260 211 
 HEL  HZ EP        520 22.51                             115    0.75 7  277 255 
 HEL  HN ES        520 54.30                             115    0.53 7  277 255 
 HEL  HZ I         521  0.74        10.6 0.30            115            277 255 
 URE  HZ EP        520 21.69                             114   -0.50 7  285 291 
 URE  HN ES   3    520 53.29                             114   -1.25 2  285 291 
 URE  HZ I         520 59.58        15.6 0.18            114            285 291 
 GUY2CHZ EP        520 25.97                             113    0.67 7  308 234 
 GUY2CHE ES   4    521  2.27                             113    2.20 0  308 234 
 GUY2CHZ I         521  8.29        16.3 0.32                           308 234 
 PTGC HZ IP   3 D  520 23.86                             112   -1.43 2  313 160 
 PTGC HN ES   3    520 57.30                             112   -2.75 2  313 160 
 PTGC HZ I         521  4.50         6.9 0.38            113            313 160 
 LL6C HZ EP        520 26.18                             112    0.19 7  319 357 
 LL6C HN ES        521  1.39                             112    0.09 7  319 357 
 CBOC HZ EP        520 28.85                             110    0.38 7  339 251 
 CBOC HN ES        521  6.48                             110    0.77 7  339 251 
 CBOC HZ I         521 16.61         5.6 0.54            110            339 251 
 DBB  EZ EP        520 28.22                             110   -0.57 7  343 273 
 DBB  EN ES   3    521  7.50                             110    1.22 2  343 273 
 DBB  EZ I         521 12.66         6.1 0.30            110            343 273 
 ARGC HZ EP   4    520 31.98                             109    1.90 0  355 339 
 ARGC HN ES   2    521  8.84                             109    0.26 3  355 339 
 ARGC HZ I         521 16.68         6.2 0.28            110            355 339 
 APAC HZ EP   2    520 34.96                             107   -0.33 3  400 287 
 APAC HN ES        521 17.14                             107   -0.72 6  400 287 
 APAC HZ I         521 31.54         4.8 0.26            107            400 287 
 ORTC HZ EP        520 35.69                             107    0.06 6  402 216 
 ORTC HN ES        521 19.16                             107    0.69 6  402 216 
 ORTC HZ I         521 22.71         7.1 0.34            107            402 216 
 SJC  HZ EP        520 35.20                             106   -0.91 6  406 326 
 SJC  HN ES   4    521 16.10                             106   -3.22 0  406 326 
 SJC  HZ I         521 21.73         6.3 0.26            107            406 326 
 PAL  HZ EP        520 36.57                             106   -0.21 6  412 239 
 PAL  HN ES   3    521 19.28                             106   -1.23 1  412 239 
 PAL  HZ I         521 31.56         4.5 0.64            107            412 239 
 CRJC HZ EP   1    520 43.30                             104    0.66 4  461   3 
 CRJC HN ES   3    521 29.45                             104   -1.49 1  461   3 
 SMAR HZ EP        520 46.30                             103    0.15 4  492 346 
 SMAR HN ES   4    521 34.32                             103   -2.87 0  492 346 
                                                                                
