 2013  528 0250 27.3 L   7.410 -73.314114.0  RSN  6 0.5 1.7LRSN                1
 GAP=160        1.11       3.6     6.8  7.9  0.6004E+00  0.1635E+02 -0.5331E+01E
 Epicentro: EL PLAYON - SANTANDER                                              3
 ACTION:UPD 13-06-20 09:54 OP:ep   STATUS:               ID:20130528025027 L   I
 2013-05-28-0250-00M.COL___261                                                 6
 STAT SP IPHASW D HRMM SECON CODA AMPLIT PERI AZIMU VELO AIN AR TRES W  DIS CAZ7
 GIR2 SZ EP        250 43.76                             160    0.2110 39.0 160 
 GIR2 SZ ES        250 55.51                             160   -0.6910 39.0 160 
 GIR2 SZ I         250 57.38         8.4 0.12            163           39.0 160 
 BRR  HZ IP     D  250 44.55                             152    0.4010 55.3 233 
 BRR  HN ES        250 57.84                             152    0.5710 55.3 233 
 BRR  HZ I         251  6.68         6.8 0.42            149           55.3 233 
 BAR2 SZ IP     D  250 47.06                             139    0.0410 91.6 171 
 BAR2 SZ ES        251  2.23                             139   -0.1510 91.6 171 
 BAR2 SZ I         251  3.58        16.9 0.24            144           91.6 171 
 OCA  HZ EP   2    250 48.49                             138    1.58 5 91.6 360 
 OCA  HN ES        251  2.37                             138    0.1910 91.6 360 
 OCA  HZ I         251  4.52        11.8 0.30            143           91.6 360 
 PTB  HZ EP        250 52.86                             121   -0.20 9  159 233 
 PTB  HN ES        251 12.99                             121   -0.13 9  159 233 
 PTB  HZ I         251 18.39        10.7 0.86            124            159 233 
 SML  HZ EP        250 54.33                             119   -0.41 9  175 332 
 SML  HN ES        251 15.67                             119   -0.45 9  175 332 
 SML  HZ I         251 19.27        16.9 0.11            122            175 332 
                                                                                
