 2012  528 0043 53.3 L   6.868 -73.187136.6  RSN  9 0.4 1.7LRSN                1
 GAP=179        0.80       3.5     4.7  7.8  0.1598E+00  0.1149E+02 -0.2121E+01E
 Epicentro: ZAPATOCA - SANTANDER                                               3
 ACTION:UP  12-07-05 12:08 OP:pat  STATUS:               ID:20120528004353 L   I
 2012-05-28-0040-00M.COL___198                                                 6
 STAT SP IPHASW D HRMM SECON CODA AMPLIT PERI AZIMU VELO AIN AR TRES W  DIS CAZ7
 BAR2 SZ EP   1    044 12.19                             167     0.2 7   31 179 
 BAR2 SZ ES   1    044 26.95                             167     0.4 7   31 179 
 BAR2 SZ I         044 28.19        13.0 0.28                            31 179 
 RUS  HZ EP   1    044 16.72                             140     0.0 7  109 174 
 RUS  HN ES   1    044 34.69                             140    -0.4 7  109 174 
 RUS  HZ I         044 36.84         5.0 0.30                           109 174 
 PTB  HZ EP   1    044 18.87                             130    -0.4 7  145 256 
 PTB  HN ES   1    044 39.13                             130    -0.4 7  145 256 
 PTB  HZ I         044 42.82         5.0 0.14                           145 256 
 OCA  HZ EP   1    044 20.41                             129     0.3 7  152 355 
 OCA  HN ES   1    044 40.56                             129    -0.5 7  152 355 
 OCA  HZ I         044 46.84        13.0 0.14                           152 355 
 ZAR  HZ EP   1    044 24.40                             121     0.0 6  197 291 
 ZAR  HN ES   1    044 49.49                             121     0.8 6  197 291 
 ZAR  HZ I         044 53.04         7.4 0.12                           197 291 
 NOR  SN ES   1    044 55.86                             116    -0.3 6  236 232 
 CHI  HN ES   1    045  1.25                             114     0.5 6  255 194 
 HEL  HN ES   1    045  3.48                             113    -0.1 6  270 254 
 PRA  HZ EP   1    044 46.99                             105     0.0 4  396 208 
                                                                                
