 2013  628 0913 52.8 L   6.852 -73.336123.6  RSN  9 0.5 2.0LRSN                1
 GAP= 89        1.17       4.4     5.1  7.9  0.5907E+01 -0.7021E+00 -0.8944E+01E
 Epicentro: ZAPATOCA - SANTANDER                                               3
 ACTION:UPD 14-01-08 09:57 OP:ep   STATUS:               ID:20130628091352 L   I
 OLDACT:REG 13-06-28 08:03 OP:jn   STATUS:               ID:20130628090959     3
 2013-06-28-0909-59M.COL___266                                                 6
 STAT SP IPHASW D HRMM SECON CODA AMPLIT PERI AZIMU VELO AIN AR TRES W  DIS CAZ7
 GIR2 SZ EP        914 10.16                             166    0.3510 29.6  32 
 BAR2 SZ EP        914 10.55                             164    0.4710 33.4 149 
 BAR2 SZ ES        914 22.93                             164   -0.6110 33.4 149 
 BAR2 SZ I         914 24.84        35.9 0.34            167           33.4 149 
 BRR  HZ EP        914 11.06                             156    0.6410 50.2 304 
 BRR  HN ES        914 24.93                             156    0.7710 50.2 304 
 BRR  HZ I         914 25.89        42.3 0.14            154           50.2 304 
 RUS  HZ EP        914 15.30                             136    0.0810  110 165 
 RUS  HN ES   1    914 32.42                             136   -0.27 7  110 165 
 RUS  HZ I         914 34.07         8.1 0.20            139            110 165 
 PTB  HZ EP        914 15.82                             131   -0.4310  129 254 
 PTB  HN ES   1    914 33.68                             131   -0.85 7  129 254 
 PTB  HZ I         914 39.78         9.1 0.46            131            129 254 
 OCA  HZ EP        914 18.61                             125   -0.20 9  153   1 
 OCA  HN ES        914 38.47                             125   -0.62 9  153   1 
 OCA  HZ I         914 43.93        11.9 0.26            127            153   1 
 TAM  HZ I         914 42.64        10.7 0.42            124            177 105 
 TAM  HN ES   1    914 43.01                             121   -0.09 7  177 105 
 ZAR  HE ES   1    914 44.28                             120    0.22 7  182 293 
 ZAR  HZ I         914 49.03        15.4 0.38            121            182 293 
 SML  HZ EP        914 26.91                             114    0.11 8  230 339 
 SML  HN ES   1    914 52.89                             114   -0.41 6  230 339 
                                                                                
