 2011  528 0527 58.0 L   6.756 -73.138138.4  RSN 10 0.5 2.4LRSN                1
 GAP=183        1.07       4.7     8.4  8.6 -0.6643E+01  0.1652E+02 -0.9427E+00E
 Epicentro: LOS SANTOS - SANTANDER                                             3
 ACTION:UP  11-06-29 08:56 OP:tino STATUS:               ID:20110528052758 L   I
 2011-05-28-0527-06S.COL___112                                                 6
 STAT SP IPHASW D HRMM SECON CODA AMPLIT PERI AZIMU VELO SNR AR TRES W  DIS CAZ7
 BAR2 SZ EP        528 16.66                             172     0.010   19 195 
 BAR2 SZ ES   1    528 30.90                             172    -0.4 7   19 195 
 BAR2 SZ I         528 33.07        88.5 0.32                            19 195 
 BTL  SZ EP        528 17.66                             170     0.910   23 321 
 GIR2 SZ EP        528 17.15                             164     0.210   36 350 
 BRR  HZ IP     C  528 18.75                             150     0.210   74 302 
 BRR  HZ I         528 19.14        91.4 0.12                            74 302 
 BRR  HE ES   1    528 35.01                             150     0.4 7   74 302 
 RUS  HZ EP        528 20.90                             144     0.210   96 176 
 RUS  HN ES   1    528 37.69                             144    -0.7 7   96 176 
 RUS  HZ I         528 40.77        19.5 0.33                            96 176 
 OCA  SZ EP        528 25.67                             127    -0.6 9  165 353 
 OCA  SZ ES   1    528 47.56                             127    -0.7 7  165 353 
 OCA  SZ I         528 51.37        31.8 0.21                           165 353 
 NOR  SZ EP   1    528 33.33                             117     0.2 6  233 236 
 NOR  SN ES   1    529  0.22                             117    -0.3 6  233 236 
 HEL  HZ EP   2    528 37.73                             113    -0.1 4  272 257 
 RREF HZ EP   2    528 44.27                             109     0.7 3  319 230 
 RREF HN ES   2    529 18.49                             109    -0.6 3  319 230 
 RREF HZ I         529 30.50         5.5 0.30                           319 230 
 PRA  HZ EP   2    528 50.41                             105    -0.5 3  388 210 
 PRA  HN ES   2    529 31.54                             105    -0.5 3  388 210 
                                                                                
