 2016  928 0456 59.8 L   6.822 -73.129148.0  RSN 29 0.5 2.6LRSN                1
 GAP= 53        1.16       2.6     3.5  4.8 -0.1322E+01  0.2205E+01  0.1425E+01E
 Epicentro: LOS SANTOS - SANTANDER                                             3
 ACTION:UPD 17-08-17 21:17 OP:lp   STATUS:               ID:20160928045659 L   I
 OLDACT:UP  16-09-28 16:37 OP:dani STATUS:               ID:20160928044737     3
 OLDACT:UP  16-09-28 16:37 OP:dani STATUS:               ID:20160928044737     3
 OLDACT:UP  16-09-28 16:26 OP:dani STATUS:               ID:20160928044737     3
 OLDACT:UP  16-09-28 16:23 OP:dani STATUS:               ID:20160928044737     3
 OLDACT:UP  16-09-28 16:23 OP:dani STATUS:               ID:20160928044737     3
 OLDACT:UP  16-09-28 16:23 OP:dani STATUS:               ID:20160928044737     3
 OLDACT:REG 16-09-28 13:03 OP:dani STATUS:               ID:20160928044737     3
 2016-09-28-0448-00M.COL___384                                                 6
 STAT SP IPHASW D HRMM SECON CODA AMPLIT PERI AZIMU VELO AIN AR TRES W  DIS CAZ7
 BAR2 EZ EP     C  457 19.72                             170   -0.0210 26.1 193 
 BAR2 EZ ES        457 34.70                             170   -0.6110 26.1 193 
 BAR2 EZ I         457 36.60       104.6 0.54            169           26.1 193 
 BRR  HZ EP     C  457 21.53                             153    0.3310 71.7 296 
 BRR  HE ES        457 38.20                             153    0.2910 71.7 296 
 BRR  HZ I         457 42.56        61.0 0.38            146           71.7 296 
 PAM  EZ EP        457 22.74                             152    0.6810 74.3  40 
 PAM  EN ES        457 40.03                             152    0.5910 74.3  40 
 PAM  EZ I         457 41.93        95.3 0.46            144           74.3  40 
 RUS  HZ EP        457 23.72                             144   -0.2010  103 177 
 RUS  HN ES        457 42.78                             144    0.0310  103 177 
 RUS  HZ I         457 43.52        71.4 0.26            138            103 177 
 PTB  HZ EP   4    457 26.09                             132   -1.05 0  150 258 
 PTB  HN ES        457 47.54                             132   -0.94 9  150 258 
 PTB  HZ I         457 54.52        55.8 0.48            125            150 258 
 TAM  HZ EP        457 28.17                             131    0.63 9  154 106 
 TAM  HZ I         457 59.28        16.8 0.52            124            154 106 
 OCA  HZ EP        457 27.98                             130   -0.08 9  158 352 
 OCA  HE ES        457 49.77                             130   -0.35 9  158 352 
 OCA  HZ I         457 54.65        86.2 0.42            122            158 352 
 SPBC HZ EP        457 28.45                             129   -0.29 9  166 219 
 SPBC HN ES        457 51.02                             129   -0.31 9  166 219 
 SPBC HZ I         457 53.32        78.5 0.40            122            166 219 
 ZAR  HZ EP        457 32.27                             123   -0.18 9  205 291 
 ZAR  HE ES        457 57.73                             123   -0.21 9  205 291 
 ZAR  HZ I         458  3.13        44.8 0.38            116            205 291 
 NOR  HZ EP        457 36.00                             119    0.05 8  238 234 
 NOR  HZ I         458  8.90        43.2 0.46            112            238 234 
 CHI  HZ EP        457 37.93                             117    0.02 8  251 195 
 CHI  HN ES     D  458  7.25                             117   -0.40 8  251 195 
 CHI  HZ I         458 10.53        32.0 0.40            111            251 195 
 ROSC BZ EP   4    457 39.43                             117    1.08 0  256 211 
 ROSC BE ES        458  9.13                             117    0.69 8  256 211 
 ROSC BZ I         458 17.95        39.5 0.35            111            256 211 
 HEL  HZ EP        457 40.89                             115    0.52 8  274 255 
 HEL  HE ES   4    458 10.52                             115   -1.51 0  274 255 
 HEL  HZ I         458 17.39        23.0 0.36            109            274 255 
 URE  HZ EP   4    457 39.55                             114   -1.50 0  285 291 
 URE  HZ I         458 20.01        20.1 0.40            108            285 291 
 SOCV BZ EP        457 42.62                             113    0.01 7  298  57 
 SOCV BN ES   4    458 14.62                             113   -1.40 0  298  57 
 LL1C HZ EP   9    457 45.96                             112    2.73 0  304 351 
 LL1C HN ES        458 20.70                             112    0.84 7  304 351 
 GUY2CHZ EP        457 44.02                             112    0.20 7  304 235 
 GUY2CHE ES   4    458 19.63                             112    1.46 0  304 235 
 GUY2CHZ I         458 25.00        23.2 0.64                           304 235 
 VIL  EZ EP        457 43.39                             112   -0.22 7  306 192 
 VIL  EN ES        458 17.92                             112    0.12 7  306 192 
 VIL  EZ I         458 20.68        34.8 0.48            106            306 192 
 PTGC HZ EP        457 42.88                             112   -1.04 7  310 159 
 PTGC HE ES   4    458 16.21                             112   -2.14 0  310 159 
 PTGC HZ I         458 21.20        30.5 0.28            106            310 159 
 ELA  HZ EP   4    457 48.27                             110    1.21 0  332 229 
 ELA  HE ES   4    458 26.65                             110    2.70 0  332 229 
 ELA  HZ I         458 39.21        19.1 0.56            105            332 229 
 CBOC HZ EP   4    457 48.03                             110    0.96 0  336 252 
 CBOC HE ES        458 24.62                             110    0.66 7  336 252 
 CBOC HZ I         458 27.79         8.3 0.42            104            336 252 
 DBB  HZ EP        457 47.96                             110    0.42 7  341 274 
 ARGC HZ EP        457 47.98                             109   -1.35 6  358 340 
 ARGC HE ES        458 28.54                             109    0.57 6  358 340 
 ARGC HZ I         458 38.26         9.7 0.27            103            358 340 
 ANIL HZ EP        457 50.40                             109    0.38 6  360 224 
 ANIL HN ES        458 29.80                             109    0.59 6  360 224 
 SJC  HZ EP        457 53.96                             106   -1.33 6  408 327 
 SJC  HN ES   4    458 34.95                             106   -3.64 0  408 327 
 SJC  HZ I         458 41.43         4.6 0.22            101            408 327 
 PAL  HZ EP        457 55.17                             106   -0.17 6  408 239 
 PAL  HN ES        458 39.33                             106    0.65 6  408 239 
 PAL  HZ I         458 41.63         6.8 0.16            101            408 239 
 CRJC HZ EP   9    458  0.18                             104   -1.86 0  465   3 
 CRJC HN ES        458 47.89                             104   -0.85 5  465   3 
 CRJC HZ I         458 55.09        13.8 0.39             99            465   3 
 YOT  HZ EP   4    458  4.23                             103    0.99 0  475 229 
 GUA  EE ES   4    458 49.64                             103   -3.13 0  476 173 
 GUA  EZ I         458 54.95        14.3 0.28             98            476 173 
 MACC HZ EP   4    458  6.74                             102   -2.13 0  523 189 
 MACC HN ES   4    458 58.88                             102   -3.87 0  523 189 
 MACC HZ I         459  2.17         5.5 0.51             97            523 189 
                                                                                
