 2015 1028 0642 17.4 L   6.759 -73.082155.7  RSN  8 0.3 1.9LRSN                1
 GAP=147        0.82       2.9     4.0  6.0 -0.1794E+00  0.5245E+01 -0.2357E+01E
 Epicentro: LOS SANTOS - SANTANDER                                             3
 ACTION:UPD 15-12-22 20:43 OP:cam  STATUS:               ID:20151028064217 L   I
 OLDACT:UP  15-10-28 17:00 OP:mh   STATUS:               ID:20151028063740     3
 OLDACT:REG 15-10-28 12:37 OP:mh   STATUS:               ID:20151028063740     3
 2015-10-28-0637-40M.COL___319                                                 6
 STAT SP IPHASW D HRMM SECON CODA AMPLIT PERI AZIMU VELO AIN AR TRES W  DIS CAZ7
 BAR2 EZ EP        642 38.01                             172   -0.1510 21.5 211 
 BAR2 EZ I         642 54.60        15.6 0.14            171           21.5 211 
 PAM  EZ EP        642 40.97                             153    0.3510 76.9  33 
 PAM  EN ES        642 58.44                             153   -0.3110 76.9  33 
 PAM  EZ I         643  0.74         8.9 0.30            152           76.9  33 
 BRR  HZ EP        642 40.51                             151    0.4510 79.5 299 
 BRR  HN ES        642 58.24                             151    0.4810 79.5 299 
 BRR  HZ I         642 59.63         8.9 0.28            152           79.5 299 
 RUS  HZ EP        642 41.64                             147   -0.1410 95.8 180 
 RUS  HN ES        643  0.62                             147   -0.2110 95.8 180 
 RUS  HZ I         643  1.72         6.3 0.30            146           95.8 180 
 OCA  HZ EP        642 47.01                             131    0.04 9  166 351 
 OCA  HN ES        643 10.17                             131    0.12 9  166 351 
 OCA  HZ I         643 12.58        16.3 0.18            130            166 351 
 ZAR  HZ EP   1    642 51.74                             123    0.43 6  212 293 
 ZAR  HN ES        643 17.16                             123   -0.62 8  212 293 
 ZAR  HZ I         643 22.30         6.4 0.34            123            212 293 
 NOR  HN ES        643 22.71                             120    0.09 8  238 236 
 NOR  HZ I         643 24.12         7.0 0.16            119            238 236 
 SML  HZ EP        642 54.90                             119   -0.42 8  251 334 
 SML  HN ES        643 24.71                             119   -0.22 8  251 334 
 SML  HZ I         643 28.85         8.5 0.10            118            251 334 
                                                                                
