 2015  628 0632 33.2 L   6.832 -73.072148.9  RSN 11 0.4 2.1LRSN                1
 GAP=215        0.99       3.3     5.7  5.7 -0.4266E+01  0.7166E+01  0.3503E+01E
 Epicentro: LOS SANTOS - SANTANDER                                             3
 ACTION:UPD 15-09-10 22:15 OP:cam  STATUS:               ID:20150628063233 L   I
 OLDACT:REG 15-06-28 12:43 OP:drio STATUS:               ID:20150628062749     3
 2015-06-28-0627-49M.COL___310                                                 6
 STAT SP IPHASW D HRMM SECON CODA AMPLIT PERI AZIMU VELO AIN AR TRES W  DIS CAZ7
 BAR2 EZ EP        632 53.54                             168    0.1710 29.2 205 
 BAR2 EZ ES        633  8.49                             168   -0.5810 29.2 205 
 BAR2 EZ I         633 10.14        31.7 0.14            166           29.2 205 
 BRR  HZ EP        632 55.36                             151    0.3110 76.9 293 
 BRR  HE ES        633 12.76                             151    0.7010 76.9 293 
 BRR  HZ I         633 13.43        15.9 0.12            144           76.9 293 
 OCA  HZ EP        633  2.11                             131    0.54 9  158 350 
 OCA  HN ES        633 23.36                             131   -0.31 9  158 350 
 OCA  HZ I         633 28.32        20.3 0.30            128            158 350 
 ZAR  HZ EP        633  6.11                             122   -0.41 8  210 290 
 ZAR  HN ES        633 32.07                             122   -0.42 8  210 290 
 ZAR  HZ I         633 37.32         8.5 0.22            119            210 290 
 NOR  HZ EP        633  9.32                             118   -0.75 8  243 235 
 NOR  HN ES   4    633 37.40                             118   -1.41 0  243 235 
 NOR  HZ I         633 40.83         8.6 0.14            117            243 235 
 SML  HZ EP        633 10.31                             118    0.24 8  244 333 
 SML  HN ES        633 38.38                             118   -0.42 8  244 333 
 SML  HZ I         633 46.26        14.3 0.10            116            244 333 
 HEL  HZ EP        633 14.86                             115    0.29 7  281 256 
 HEL  HN ES        633 46.78                             115   -0.03 7  281 256 
 HEL  HZ I         633 52.66         3.6 0.22            113            281 256 
 GUY2CHZ EP        633 18.49                             112    0.53 7  310 235 
 GUY2CHE ES        633 53.36                             112    0.51 7  310 235 
 GUY2CHZ I         633 58.58         4.7 0.30                           310 235 
 MON  HZ EP   4    633 21.71                             109   -1.13 0  358 307 
 MON  HN ES   4    633 59.62                             109   -1.92 0  358 307 
 MON  HZ I         634 14.00         3.4 0.78            108            358 307 
 PRA  HZ EP        633 27.28                             107   -0.42 6  399 210 
 PRA  HN ES        634 10.25                             107    0.08 6  399 210 
 PRA  HZ I         634 15.52         3.6 0.40            107            399 210 
 ORTC HZ EP        633 27.78                             106   -0.38 6  403 217 
 ORTC HN ES        634 10.87                             106   -0.13 6  403 217 
                                                                                
