 2013  128 0832 59.9 L   5.749 -73.925 96.6  RSN  4 0.2 1.4LRSN                1
 GAP=156        0.59       2.2     4.1  8.4  0.2354E+01 -0.9552E+01 -0.2833E+01E
 Epicentro: ALBANIA - SANTANDER                                                3
 ACTION:UPD 13-02-15 09:17 OP:ep   STATUS:               ID:20130128083259 L   I
 2013-01-28-0828-48M.COL___171                                                 6
 STAT SP IPHASW D HRMM SECON CODA AMPLIT PERI AZIMU VELO AIN AR TRES W  DIS CAZ7
 PTB  HZ EP        833 18.63                             129   -0.3910  105 326 
 PTB  HN ES        833 34.09                             129    0.1410  105 326 
 PTB  HN I         833 38.59         5.7 0.26            137            105 326 
 BAR2 SZ EP        833 21.13                             124   -0.0610  124  41 
 BAR2 SZ ES   1    833 37.70                             124   -0.12 7  124  41 
 CHI  HZ EP   1    833 21.58                             124    0.03 7  126 170 
 CHI  HN ES        833 38.50                             124    0.0410  126 170 
 CHI  HN I         833 41.80         4.0 0.18            133            126 170 
 BRR  HZ EP        833 24.19                             118    0.38 9  152   9 
 BRR  HN ES   4    833 44.50                             118    2.01 0  152   9 
 BRR  HN I         833 46.14         6.5 0.18            126            152   9 
                                                                                
