 2013  328 0932  9.4 L   6.793 -73.165138.8  RSN 15 0.5 2.6LRSN                1
 GAP= 70        0.93       3.2     3.3  6.2  0.4443E+00  0.6889E+01  0.2807E+01E
 Epicentro: LOS SANTOS - SANTANDER                                             3
 ACTION:UPD 13-04-09 14:05 OP:ep   STATUS:               ID:20130328093209 L   I
 2013-03-28-0930-00M.COL___245                                                 6
 STAT SP IPHASW D HRMM SECON CODA AMPLIT PERI AZIMU VELO AIN AR TRES W  DIS CAZ7
 BAR2 SZ IP        932 28.33                             170    0.1710 22.2 185 
 BAR2 SZ ES   1    932 42.60                             170   -0.20 7 22.2 185 
 BAR2 SZ I         932 44.33       213.3 0.26            167           22.2 185 
 BRR  HZ IP     D  932 30.27                             152    0.5610 69.7 300 
 BRR  HN ES   4    932 47.12                             152    1.57 0 69.7 300 
 BRR  HZ I         932 52.39        70.3 0.16            151           69.7 300 
 PAM  SZ IP     D  932 31.24                             149    0.2410 79.4  40 
 PAM  SN ES   1    932 48.05                             149    0.20 7 79.4  40 
 PAM  SZ I         932 50.23        46.7 0.46            157           79.4  40 
 RUS  HZ EP        932 32.32                             142   -0.1010 99.9 175 
 RUS  HN ES   1    932 50.12                             142   -0.25 7 99.9 175 
 RUS  HZ I         932 51.28        66.4 0.44            145           99.9 175 
 PTB  HZ EP        932 34.95                             131   -0.64 9  145 259 
 PTB  HN ES   1    932 55.54                             131   -0.49 7  145 259 
 PTB  HZ I         932 59.98        34.0 0.22            131            145 259 
 TAM  HZ IP     D  932 36.70                             128   -0.01 9  157 104 
 TAM  HN ES   1    932 57.97                             128   -0.04 7  157 104 
 TAM  HZ I         932 58.65        35.6 0.20            135            157 104 
 OCA  HZ EP   1    932 36.70                             128   -0.53 7  161 354 
 OCA  HN ES   1    932 58.34                             128   -0.60 7  161 354 
 OCA  HZ I         933  1.81        62.7 0.46            132            161 354 
 ZAR  HZ EP        932 41.68                             121    0.46 9  202 293 
 ZAR  HN ES   1    933  7.04                             121    1.00 6  202 293 
 ZAR  HZ I         933 13.48        41.6 0.44            123            202 293 
 SML  HZ EP   4    932 45.17                             116   -0.45 0  244 336 
 SML  HN ES   4    933 12.19                             116   -1.69 0  244 336 
 SML  HZ I         933 16.44        51.8 0.10            116            244 336 
 CHI  HZ EP        932 46.56                             116   -0.01 8  247 195 
 CHI  HN ES   1    933 15.31                             116   -0.25 6  247 195 
 CHI  HZ I         933 22.92        10.0 0.48            118            247 195 
 ROSC BZ EP   1    932 47.28                             115    0.33 6  251 211 
 ROSC BN ES   1    933 16.80                             115    0.57 6  251 211 
 ROSC BZ I         933 25.93        26.7 0.35            118            251 211 
 HEL  HZ EP        932 49.64                             113    0.63 8  270 256 
 HEL  HN ES   2    933 20.11                             113    0.21 4  270 256 
 HEL  HZ I         933 28.91        15.9 0.26            115            270 256 
 URE  HZ EP   1    932 48.84                             112   -1.11 6  282 292 
 URE  HN ES   1    933 20.84                             112   -0.73 6  282 292 
 PRA  HZ EP        933  2.08                             105   -0.40 6  390 209 
 PRA  HN ES   1    933 43.73                             105   -0.15 4  390 209 
 PRA  HZ I         933 51.25        10.4 0.48            108            390 209 
 SJC  HZ EP   4    933  2.84                             104   -1.84 0  409 327 
 SJC  HN ES   4    933 44.32                             104   -3.48 0  409 327 
 SJC  HZ I         933 48.72        17.3 0.56            107            409 327 
                                                                                
