 2012  628 0616 48.7 L   6.703 -73.181159.3  RSN  4 0.3 1.1LRSN                1
 GAP=226        0.70       8.2     8.0 10.1  0.2726E+02 -0.2868E+01 -0.1558E+02E
 Epicentro: VILLANUEVA - SANTANDER                                             3
 ACTION:UPD 12-08-06 17:53 OP:ep   STATUS:               ID:20120628061648 L   I
 2012-06-28-0610-00M.COL___201                                                 6
 STAT SP IPHASW D HRMM SECON CODA AMPLIT PERI AZIMU VELO AIN AR TRES W  DIS CAZ7
 BAR2 SZ EP   1    617 10.05                             175    0.26 7 12.3 181 
 BRR  HZ EP   1    617 10.83                             154   -0.62 7 73.7 307 
 BRR  HN ES   1    617 29.43                             154    0.23 7 73.7 307 
 BRR  HZ I         617 31.45         3.5 0.14                          73.7 307 
 RUS  HN ES   1    617 32.09                             149   -0.09 7 90.3 173 
 RUS  HZ I         617 35.37         1.2 0.26                          90.3 173 
 PTB  HZ EP   1    617 16.74                             136    0.43 7  142 263 
 PTB  HN ES   1    617 37.67                             136   -0.19 7  142 263 
 PTB  HZ I         617 40.14         2.0 0.13                           142 263 
                                                                                
