 2015  928 0241 14.6 L   6.787 -73.163153.7  RSN  7 0.3 1.4LRSN                1
 GAP=181        0.76       3.6     4.4  6.2  0.2895E+01  0.6603E+00  0.2202E+01E
 Epicentro: LOS SANTOS - SANTANDER                                             3
 ACTION:UPD 15-10-28 16:28 OP:cam  STATUS:               ID:20150928024114 L   I
 OLDACT:REG 15-09-28 12:49 OP:spq  STATUS:               ID:20150928023748     3
 2015-09-28-0237-48M.COL___343                                                 6
 STAT SP IPHASW D HRMM SECON CODA AMPLIT PERI AZIMU VELO AIN AR TRES W  DIS CAZ7
 BAR2 EZ EP        241 34.87                             172   -0.3010 21.6 186 
 BAR2 EZ ES   1    241 51.12                             172   -0.08 7 21.6 186 
 BAR2 EZ I         241 52.56         3.5 0.48            172           21.6 186 
 BRR  HZ EP        241 36.76                             154    0.1910 70.3 300 
 BRR  HN ES        241 54.21                             154    0.5010 70.3 300 
 BRR  HZ I         241 58.00         3.6 0.18            152           70.3 300 
 RUS  HZ EP        241 39.31                             146    0.2510 99.3 175 
 RUS  HE ES   1    241 57.93                             146   -0.20 7 99.3 175 
 RUS  HZ I         241 59.53         1.0 0.24            150           99.3 175 
 PTB  HZ EP        241 41.79                             134   -0.26 9  146 259 
 PTB  HN ES        242  3.01                             134   -0.45 9  146 259 
 PTB  HZ I         242  8.72         3.5 0.22            134            146 259 
 SPBC HZ EP        241 43.85                             131    0.33 9  161 219 
 SPBC HE ES        242  5.97                             131   -0.10 9  161 219 
 SPBC HZ I         242  9.90         3.2 0.21            133            161 219 
 OCA  HE ES   1    242  5.87                             131   -0.45 7  161 354 
 OCA  HZ I         242 10.76         4.7 0.30            132            161 354 
 ZAR  HN ES        242 13.30                             124    0.20 9  203 293 
 ZAR  HZ I         242 19.77         3.1 0.29            125            203 293 
                                                                                
