 2010  328 0430 14.0 L   6.804 -72.987147.1  RSN  9 0.4 2.2LRSN                1
 GAP=199        0.77       3.3     7.7  5.9 -0.3329E+01  0.4633E+01  0.4060E+01E
 Epicentro: CEPITA - SANTANDER                                                 3
 ACTION:UP  10-08-24 09:56 OP:vdl  STATUS:               ID:20100328043014 L   I
 2010-03-28-0427-38S.COL___098                                                 6
 STAT SP IPHASW D HRMM SECON CODA AMPLIT PERI AZIMU VELO SNR AR TRES W  DIS CAZ7
 BAR2 SZ IP        430 34.30                             167     0.310   32 223 
 BAR2 SZ ES   1    430 49.36                             167    -0.3 7   32 223 
 BRR  HZ IP        430 36.34                             148     0.110   87 293 
 BRR  HE ES   1    430 53.60                             148     0.0 7   87 293 
 BRR  HZ I         430 55.04        35.5 0.09                            87 293 
 RUS  HZ EP   1    430 37.73                             144    -0.2 7  101 186 
 RUS  HE ES   2    430 57.18                             144     0.6 5  101 186 
 RUS  HZ I         430 59.83         6.9 0.24                           101 186 
 OCA  SZ EP        430 42.84                             129     0.2 9  163 347 
 OCA  SZ ES   1    431  4.65                             129    -0.4 7  163 347 
 OCA  SZ I         431  9.34        37.1 0.37                           163 347 
 CHI  HZ EP        430 52.49                             117     0.1 8  254 199 
 CHI  HE ES   1    431 21.58                             117    -0.7 6  254 199 
 CHI  HZ I         431 25.22         8.5 0.68                           254 199 
 RREF BZ EP   2    431  2.46                             110     0.7 3  335 231 
 RREF BN ES   1    431 39.86                             110     0.8 5  335 231 
 TOL  SZ EP   1    431  4.05                             109     0.2 5  356 227 
 DBB  SZ EP   1    431  2.89                             109    -0.7 5  357 274 
 PRA  HZ EP   1    431  8.57                             106    -0.1 4  401 212 
 PRA  HN ES   1    431 50.60                             106    -0.7 4  401 212 
 PRA  HZ I         431 55.96         6.1 0.38                           401 212 
                                                                                
