 2016  928 0836 49.6 L   6.808 -73.169150.3  RSN 16 0.4 2.0LRSN                1
 GAP= 70        0.90       2.8     2.7  4.6 -0.2258E+01  0.4060E+00  0.2268E+01E
 Epicentro: LOS SANTOS - SANTANDER                                             3
 ACTION:UPD 17-08-17 21:17 OP:lp   STATUS:               ID:20160928083649 L   I
 OLDACT:UP  16-09-28 19:27 OP:dani STATUS:               ID:20160928082731     3
 OLDACT:REG 16-09-28 13:17 OP:dani STATUS:               ID:20160928082731     3
 2016-09-28-0828-00M.COL___375                                                 6
 STAT SP IPHASW D HRMM SECON CODA AMPLIT PERI AZIMU VELO AIN AR TRES W  DIS CAZ7
 BAR2 EZ EP        837  9.76                             171   -0.0510 23.9 183 
 BAR2 EZ ES        837 24.99                             171   -0.5610 23.9 183 
 BAR2 EZ I         837 27.59        26.0 0.30            169           23.9 183 
 BRR  HZ EP     C  837 11.51                             154    0.4010 68.4 299 
 BRR  HE ES        837 28.27                             154    0.3910 68.4 299 
 BRR  HZ I         837 32.59        15.9 0.32            144           68.4 299 
 PAM  EZ EP        837 12.78                             151    0.4010 78.4  41 
 PAM  EE ES        837 30.19                             151    0.0610 78.4  41 
 PAM  EZ I         837 31.95        19.3 0.41            149           78.4  41 
 RUS  HZ EP        837 13.83                             144   -0.0710  102 175 
 RUS  HN ES   2    837 32.93                             144    0.09 5  102 175 
 RUS  HZ I         837 33.80        15.0 0.31            145            102 175 
 PTB  HZ EP        837 16.26                             133   -0.49 9  145 258 
 PTB  HE ES        837 37.64                             133   -0.27 9  145 258 
 PTB  HZ I         837 44.72        11.3 0.27            127            145 258 
 TAM  HZ EP        837 18.14                             131    0.23 9  158 105 
 OCA  HZ EP        837 18.57                             131    0.40 9  159 354 
 OCA  HE ES        837 40.08                             131   -0.37 9  159 354 
 OCA  HZ I         837 46.61        19.5 0.41            125            159 354 
 SPBC HZ EP        837 18.27                             130   -0.11 9  162 218 
 SPBC HN ES        837 41.04                             130    0.22 9  162 218 
 SPBC HZ I         837 47.80        18.0 0.28            126            162 218 
 ZAR  HZ EP   4    837 19.92                             124   -2.16 0  201 292 
 ZAR  HN ES        837 47.68                             124    0.28 9  201 292 
 ZAR  HZ I         837 56.60         9.6 0.24            118            201 292 
 NOR  HZ EP        837 24.86                             120   -0.58 8  233 234 
 NOR  HE ES        837 53.53                             120    0.14 8  233 234 
 NOR  HZ I         837 58.93         9.3 0.48            115            233 234 
 CHI  HZ EP        837 27.93                             118    0.34 8  249 195 
 CHI  HN ES        837 57.08                             118   -0.14 8  249 195 
 CHI  HZ I         838  0.73         5.7 0.38            116            249 195 
 ROSC BZ EP   4    837 30.05                             118    2.12 0  252 210 
 HEL  HZ EP   4    837 31.10                             116    1.29 0  270 255 
 HEL  HE ES        838  0.74                             116   -0.42 8  270 255 
 HEL  HZ I         838 10.03         5.9 0.30            112            270 255 
 URE  HZ EP        837 30.20                             115   -0.40 7  281 292 
 URE  HZ I         838 12.48         4.4 0.17            110            281 292 
 GUY2CHZ EP   4    837 35.50                             113    2.24 0  300 234 
 GUY2CHN ES        838  8.31                             113    1.01 7  300 234 
 GUY2CHZ I         838 15.15         4.4 0.27                           300 234 
 SOCV BZ EP        837 32.58                             113   -0.49 7  303  57 
 SOCV BN ES   4    838  5.19                             113   -1.77 0  303  57 
 CBOC HZ EP   4    837 38.34                             111    1.87 0  331 252 
 CBOC HN ES        838 12.78                             111   -0.24 7  331 252 
 CBOC HZ I         838 20.07         1.6 0.50            107            331 252 
                                                                                
