 2012  928 0047 57.6 L   6.749 -73.332125.8  RSN  5 0.2 1.9LRSN                1
 GAP=132        0.50       3.4     3.7  5.3  0.5108E+01  0.8054E+01  0.1899E+01E
 Epicentro: ZAPATOCA - SANTANDER                                               3
 ACTION:UPD 12-10-22 14:21 OP:ep   STATUS:               ID:20120928004757 L   I
 2012-09-28-0040-00M.COL___213                                                 6
 STAT SP IPHASW D HRMM SECON CODA AMPLIT PERI AZIMU VELO AIN AR TRES W  DIS CAZ7
 BAR2 SZ EP   1    048 14.83                             169    0.01 7 24.0 136 
 BAR2 SZ ES   1    048 28.10                             169   -0.18 7 24.0 136 
 BAR2 SZ I         048 29.22        49.0 0.20                          24.0 136 
 BRR  HZ EP        048 15.52                             154   -0.2810 57.7 313 
 BRR  HZ I         048 15.77       101.7 0.12                          57.7 313 
 BRR  HN ES   1    048 29.97                             154   -0.06 7 57.7 313 
 PAM  SE ES   1    048 35.97                             141    0.22 7 95.6  47 
 PAM  SN I         048 37.44         8.8 0.37                          95.6  47 
 PAM  SZ I         048 37.53         8.7 0.30                          95.6  47 
 RUS  HZ EP   1    048 19.07                             140   -0.19 7 98.7 164 
 RUS  HE ES   1    048 36.50                             140    0.32 7 98.7 164 
 RUS  HZ I         048 37.87         3.1 0.44                          98.7 164 
 ZAR  HZ EP   1    048 27.27                             120    0.24 7  188 296 
 ZAR  HN ES   1    048 50.27                             120    0.26 7  188 296 
 ZAR  HN I         048 51.36        18.5 0.14                           188 296 
                                                                                
