 2013 1028 0417 57.4 L   6.819 -73.131148.0  RSN  6 0.4 1.3LRSN                1
 GAP=202        0.81       5.0     7.5  6.5  0.2815E+01  0.7197E+00  0.6681E+01E
 Epicentro: LOS SANTOS - SANTANDER                                             3
 ACTION:UPD 13-11-25 09:24 OP:ep   STATUS:               ID:20131028041757 L   I
 OLDACT:REG 13-10-28 08:14 OP:jn   STATUS:               ID:20131028041000     3
 2013-10-28-0410-00M.COL___273                                                 6
 STAT SP IPHASW D HRMM SECON CODA AMPLIT PERI AZIMU VELO AIN AR TRES W  DIS CAZ7
 BAR2 SZ EP        418 17.46                             170    0.0710 25.7 193 
 BAR2 SZ ES        418 32.62                             170   -0.3310 25.7 193 
 BAR2 SZ I         418 33.35         8.7 0.28            155           25.7 193 
 BRR  HZ EP        418 19.30                             152    0.4410 71.7 296 
 BRR  HN ES        418 35.94                             152    0.3710 71.7 296 
 BRR  HZ I         418 39.20         4.9 0.44            136           71.7 296 
 RUS  HZ EP        418 21.48                             144   -0.0810  103 177 
 RUS  HZ I         418 41.37         1.0 0.30            125            103 177 
 PTB  HZ EP   1    418 24.31                             132   -0.47 7  150 258 
 PTB  HZ I         418 50.24         2.9 0.28            115            150 258 
 SPBC HZ EP        418 26.51                             129    0.14 9  166 219 
 SPBC HN ES        418 48.70                             129   -0.23 9  166 219 
 SPBC HZ I         418 56.64         2.3 0.30            112            166 219 
 SML  HN ES   2    419  1.60                             118   -1.02 4  242 335 
                                                                                
