 2012  228 0327 49.1 L   6.771 -73.084148.5  RSN  7 0.4 1.7LRSN                1
 GAP=146        0.79       3.4     6.6  6.1 -0.8340E+00  0.2600E+01  0.2876E+01E
 ACTION:UP  12-03-07 16:34 OP:epov STATUS:               ID:20120228032749 L   I
 2012-02-28-0320-00M.COL___191                                                 6
 STAT SP IPHASW D HRMM SECON CODA AMPLIT PERI AZIMU VELO AIN AR TRES W  DIS CAZ7
 BAR2 SZ EP   1    328  9.26                             171    0.25 7 22.5 209 
 BAR2 SZ ES   1    328 23.93                             171   -0.63 7 22.5 209 
 BAR2 SZ I         328 27.01        14.4 0.41                          22.5 209 
 PAM  SZ EP   1    328 11.77                             152    0.29 7 75.9  34 
 PAM  SN ES   1    328 29.13                             152    0.16 7 75.9  34 
 BRR  HZ EP        328 10.95                             150    0.0110 78.7 298 
 BRR  HN ES        328 28.47                             150    0.4710 78.7 298 
 BRR  HZ I         328 32.95        17.7 0.22                          78.7 298 
 RUS  HZ EP   1    328 12.84                             145    0.00 7 97.1 180 
 RUS  HN ES   1    328 30.90                             145   -0.49 7 97.1 180 
 RUS  HZ I         328 32.90         5.6 0.32                          97.1 180 
 PTB  HZ EP   1    328 16.17                             131   -0.64 7  154 260 
 OCA  SZ EP   1    328 17.62                             129   -0.35 7  164 351 
 OCA  SZ ES   1    328 40.41                             129   -0.11 7  164 351 
 CHI  HZ EP   1    328 27.09                             118    0.31 6  247 197 
 CHI  HZ I         328 28.03         2.3 0.48                           247 197 
 CHI  HN ES   1    328 56.72                             118    0.51 6  247 197 
                                                                                
