 2012  528 0914  6.3 L   6.777 -73.181140.3  RSN 16 0.4 3.2LRSN                1
 GAP=133        0.85       2.6     4.0  5.5 -0.1933E+01  0.9189E+01 -0.1258E+00E
 Epicentro: LOS SANTOS - SANTANDER                                             3
 SPEC SD       MO  0.0 ST0.000 OM  3.3 f00.000 R0.0000 AL      WI      MW  0.0 3
 SPEC RUS HH Z MO 14.2 ST 10.8 OM  2.6 f0 3.58 R0.4106 AL 2.35 WI 20.9 MW  3.4 3
 SPEC RUS HH Z T 91442 K 0.020 GD  171 VS 4.20 DE 3.20 Q0230.0 QA 0.60 VS 4.20 3
 ACTION:UP  12-07-05 12:08 OP:pat  STATUS:               ID:20120528091406 L   I
 2012-05-28-0910-00M.COL___198                                                 6
 STAT SP IPHASW D HRMM SECON CODA AMPLIT PERI AZIMU VELO AIN AR TRES W  DIS CAZ7
 BAR2 SZ EP   1    914 25.47                             171     0.2 7   20 180 
 BAR2 SZ ES   1    914 39.89                             171    -0.1 7   20 180 
 BAR2 SZ I         914 41.36       487.0 0.20                            20 180 
 PAM  SZ EP   1    914 28.50                             148     0.3 7   82  41 
 PAM  SN ES   1    914 45.73                             148     0.4 7   82  41 
 PAM  SZ I         914 47.54       143.7 0.42                            82  41 
 RUS  HZ EP   1    914 29.32                             143     0.0 7   98 174 
 RUS  HN ES        914 47.52                             143     0.210   98 174 
 RUS  HZ I         914 48.81       318.7 0.22                            98 174 
 PTB  HZ EP   1    914 31.98                             132    -0.5 7  143 260 
 PTB  HN ES   1    914 52.50                             132    -0.3 7  143 260 
 PTB  HZ I         914 56.11       138.8 0.18                           143 260 
 OCA  HZ EP   1    914 34.06                             128    -0.3 7  162 355 
 OCA  HN ES   1    914 55.33                             128    -1.0 7  162 355 
 OCA  HZ I         915  1.32       362.0 0.28                           162 355 
 ZAR  HZ EP   1    914 38.62                             121     0.5 6  201 293 
 ZAR  HN ES   1    915  3.41                             121     0.5 6  201 293 
 ZAR  HZ I         915  9.61       259.2 0.28                           201 293 
 NOR  SZ EP   1    914 41.44                             118     0.2 6  230 234 
 NOR  SN ES   1    915  8.72                             118     0.3 6  230 234 
 CHI  HZ EP   1    914 43.44                             116     0.1 6  245 194 
 CHI  HN ES   1    915 11.99                             116    -0.2 6  245 194 
 CHI  HZ I         915 15.70        73.9 0.39                           245 194 
 HEL  HZ EP   1    914 46.17                             114     0.4 6  268 256 
 HEL  HN ES   1    915 15.88                             114    -0.6 6  268 256 
 HEL  HZ I         915 22.43        87.2 0.25                           268 256 
 VIL  SZ EP   1    914 48.46                             111    -0.6 5  300 191 
 VIL  SN ES   1    915 21.87                             111    -0.6 5  300 191 
 VIL  SZ I         915 29.13        48.1 0.42                           300 191 
 RREF HZ EP   1    914 52.52                             110     0.8 5  317 229 
 RREF HN ES   1    915 26.96                             110    -0.1 5  317 229 
 RREF HZ I         915 36.15        63.3 0.37                           317 229 
 DBB  SZ EP   1    914 53.38                             109     0.2 5  336 275 
 DBB  SZ I         915 31.59        24.0 0.20                           336 275 
 COD  HZ EP   1    914 54.31                             108    -0.4 5  350 355 
 COD  HN ES   1    915 33.00                             108     0.5 5  350 355 
 PRA  HZ EP   1    914 58.86                             106    -0.3 4  388 209 
 PRA  HN ES   1    915 40.32                             106    -0.1 4  388 209 
 PRA  HZ I         915 45.78       193.2 0.30                           388 209 
 PAL  HZ EP   1    915  1.38                             105     0.6 4  401 239 
 YOT  HZ EP   1    915  8.23                             102    -0.4 4  467 229 
 YOT  HZ I         915 11.43        21.7 0.47                           467 229 
 YOT  HN ES   1    915 57.34                             102     0.1 4  467 229 
                                                                                
