 2017  928 0949 38.6 L   6.824 -73.129142.0  RSN  5 0.3 1.2LRSN                1
 GAP=138        0.85       4.2     4.6  7.9 -0.3064E+01  0.1408E+02 -0.7154E+00E
 Epicentro: LOS SANTOS - SANTANDER                                             3
 ACTION:UPD 17-10-05 19:17 OP:rebc STATUS:               ID:20170928094938 L   I
 OLDACT:REG 17-09-28 13:51 OP:edw  STATUS:               ID:20170928094743     3
 2017-09-28-0948-00M.COL___413                                                 6
 STAT SP IPHASW D HRMM SECON CODA AMPLIT PERI AZIMU VELO AIN AR TRES W  DIS CAZ7
 BAR2 EZ EP        949 57.57                             169   -0.3110 26.3 193 
 BAR2 EZ ES        950 12.51                             169   -0.3810 26.3 193 
 BAR2 EZ I         950 14.17         6.9 0.70            169           26.3 193 
 PAM  EZ EP        950  0.60                             151    0.3410 74.2  40 
 PAM  EN ES        950 17.25                             151    0.1210 74.2  40 
 PAM  EZ I         950 17.95         4.0 0.18            152           74.2  40 
 RUS  HZ EP        950  1.78                             142   -0.4210  103 177 
 RUS  HN ES        950 21.05                             142    0.4710  103 177 
 RUS  HZ I         950 21.44         1.5 0.34            143            103 177 
 ZAR  HN ES        950 36.12                             121    0.02 9  205 291 
 NOR  HN ES        950 42.68                             117    0.25 8  238 234 
                                                                                
