 2011  728 0722 13.5 L   6.787 -73.062145.7  RSN  4 0.3 1.0LRSN                1
 GAP=168        0.71       7.2    11.8  9.2  0.4006E+02 -0.5268E+02 -0.2717E+02E
 Epicentro: LOS SANTOS - SANTANDER                                             3
 ACTION:UPD 12-07-25 14:03 OP:epov STATUS:               ID:20110728072213 L   I
 2011-07-28-0720-00M.COL___142                                                 6
 STAT SP IPHASW D HRMM SECON CODA AMPLIT PERI AZIMU VELO AIN AR TRES W  DIS CAZ7
 BAR2 SZ EP   1    722 32.89                             170   -0.32 7 25.3 212 
 BAR2 SZ ES   1    722 48.21                             170   -0.33 7 25.3 212 
 BAR2 SZ I         722 51.00         3.0 0.47                          25.3 212 
 BRR  HZ EP        722 34.90                             150   -0.3110 80.1 296 
 BRR  HN ES   1    722 52.55                             150    0.44 7 80.1 296 
 RUS  HZ EP   1    722 37.51                             144    0.34 7 98.9 181 
 RUS  HE ES   2    722 55.93                             144    0.34 5 98.9 181 
 RUS  HZ I         722 57.11         1.1 0.41                          98.9 181 
 GRA  SZ EP   1    722 38.98                             137    0.29 7  125  13 
                                                                                
