 2014  528 0554 14.1 L   6.778 -73.154151.6  RSN  7 0.4 1.8LRSN                1
 GAP=200        0.95       4.0     5.7  6.3  0.6432E+01  0.3629E+01 -0.4886E+01E
 Epicentro: LOS SANTOS - SANTANDER                                             3
 ACTION:UPD 15-03-16 17:01 OP:nd   STATUS:               ID:20140528055414 L   I
 OLDACT:UP  14-05-28 14:16 OP:cam  STATUS:               ID:20140528055000     3
 OLDACT:UP  14-05-28 14:16 OP:cam  STATUS:               ID:20140528055000     3
 OLDACT:UP  14-05-28 14:15 OP:cam  STATUS:               ID:20140528055000     3
 OLDACT:UP  14-05-28 14:15 OP:cam  STATUS:               ID:20140528055000     3
 OLDACT:REG 14-05-28 12:59 OP:cam  STATUS:               ID:20140528055000     3
 2014-05-28-0550-00M.COL___276                                                 6
 STAT SP IPHASW D HRMM SECON CODA AMPLIT PERI AZIMU VELO AIN AR TRES W  DIS CAZ7
 BAR2 SZ EP        554 34.26                             172   -0.0810 20.8 189 
 BAR2 SZ ES        554 49.83                             172   -0.3310 20.8 189 
 BAR2 SZ I         554 50.90         8.6 0.16            172           20.8 189 
 BRR  HZ IP     C  554 36.11                             153    0.2510 71.6 301 
 BRR  HN ES        554 53.67                             153    0.8010 71.6 301 
 BRR  HZ I         554 54.25         8.7 0.28            152           71.6 301 
 RUS  HZ EP        554 38.45                             146    0.2310 98.2 175 
 RUS  HE ES        554 56.84                             146   -0.2210 98.2 175 
 RUS  HZ I         554 57.71         5.9 0.32            147           98.2 175 
 PTB  HZ EP        554 40.84                             134   -0.54 9  146 260 
 PTB  HN ES        555  2.30                             134   -0.40 9  146 260 
 PTB  HZ I         555  4.53         6.2 0.48            133            146 260 
 SPBC HZ EP        554 43.03                             131    0.26 9  161 219 
 SPBC HN ES        555  5.29                             131    0.11 9  161 219 
 SPBC HZ I         555  7.46         8.8 0.18            131            161 219 
 ZAR  HZ EP        554 47.33                             124    0.44 9  204 293 
 ZAR  HN ES   1    555 12.35                             124   -0.16 6  204 293 
 ZAR  HZ I         555 15.20         7.0 0.14            124            204 293 
 SML  HZ EP   1    554 50.94                             118   -0.27 6  246 336 
 SML  HE ES        555 19.72                             118   -0.47 8  246 336 
 SML  HZ I         555 23.02         8.3 0.10            119            246 336 
 HEL  HZ EP   4    554 56.18                             116    1.77 0  271 256 
 GUY2CHZ EP   4    554 59.29                             114    1.60 0  299 235 
                                                                                
