 2015  428 0518 16.4 L   6.819 -73.153144.7  RSN  8 0.6 1.6LRSN                1
 GAP=182        1.53       4.9     7.8  9.5  0.3917E+01  0.5909E+01 -0.1100E+02E
 Epicentro: LOS SANTOS - SANTANDER                                             3
 ACTION:UPD 15-06-03 16:58 OP:cam  STATUS:               ID:20150428051816 L   I
 OLDACT:REG 15-04-28 12:51 OP:drio STATUS:               ID:20150428050748     3
 2015-04-28-0507-48M.COL___285                                                 6
 STAT SP IPHASW D HRMM SECON CODA AMPLIT PERI AZIMU VELO AIN AR TRES W  DIS CAZ7
 BAR2 EZ EP        518 36.88                             170    0.9110 25.2 187 
 BAR2 EZ ES        518 50.90                             170   -0.3210 25.2 187 
 BAR2 EZ I         518 51.95         9.2 0.14            169           25.2 187 
 BRR  HZ EP        518 37.72                             153    0.3510 69.5 297 
 BRR  HN ES        518 54.80                             153    1.0910 69.5 297 
 RUS  HZ EP        518 40.25                             143    0.0210  103 176 
 RUS  HN ES        518 58.44                             143   -0.3610  103 176 
 RUS  HZ I         518 59.72         2.5 0.46            145            103 176 
 PTB  HZ EP        518 42.63                             132   -0.65 9  147 258 
 PTB  HE ES        519  4.14                             132   -0.08 9  147 258 
 PTB  HZ I         519 12.22         2.5 0.28            131            147 258 
 OCA  HZ EP        518 44.69                             130    0.24 9  158 353 
 OCA  HE ES        519  5.31                             130   -1.01 9  158 353 
 OCA  HZ I         519  9.22         7.9 0.22            131            158 353 
 SPBC HZ EP        518 44.91                             129   -0.04 9  164 218 
 SPBC HE ES        519  6.63                             129   -0.57 9  164 218 
 SPBC HZ I         519  8.06         6.0 0.24            129            164 218 
 ZAR  HZ EP        518 49.78                             122    1.13 9  203 292 
 ZAR  HE ES        519 13.45                             122   -0.33 9  203 292 
 ZAR  HZ I         519 19.91         4.4 0.32            122            203 292 
 SML  HZ EP        518 52.21                             117   -0.54 8  242 335 
 SML  HE ES        519 20.86                             117   -0.23 8  242 335 
 SML  HZ I         519 23.65         3.4 0.10            118            242 335 
                                                                                
