 2013  228 0110 33.6 L   6.767 -73.211160.5  RSN  7 0.4 1.5LRSN                1
 GAP=193        0.85       5.2     6.9  7.8  0.1909E+02 -0.6681E+01 -0.5117E+01E
 Epicentro: ZAPATOCA - SANTANDER                                               3
 ACTION:UPD 13-03-12 09:36 OP:ep   STATUS:               ID:20130228011033 L   I
 2013-02-28-0110-00M.COL___228                                                 6
 STAT SP IPHASW D HRMM SECON CODA AMPLIT PERI AZIMU VELO AIN AR TRES W  DIS CAZ7
 BAR2 SZ EP   1    110 55.21                             173    0.25 7 19.6 171 
 BAR2 SZ I         111 14.42         5.6 0.17            173           19.6 171 
 BRR  HZ EP        110 56.61                             156    0.4510 66.9 304 
 BRR  HN ES   1    111 13.71                             156   -0.04 7 66.9 304 
 BRR  HN I         111 15.09         9.7 0.20            157           66.9 304 
 RUS  HZ EP   1    110 58.62                             147   -0.03 7 97.7 172 
 RUS  HN ES   1    111 17.71                             147   -0.48 7 97.7 172 
 RUS  HZ I         111 18.43         1.8 0.31            148           97.7 172 
 PTB  HZ EP   1    111  1.72                             137    0.56 7  140 260 
 PTB  HN ES   1    111 22.70                             137    0.05 7  140 260 
 PTB  HZ I         111 29.97         4.7 0.52            138            140 260 
 ZAR  HZ EP        111  5.63                             126   -0.92 9  199 294 
 ZAR  HN ES        111 32.31                             126    0.08 9  199 294 
 ZAR  HZ I         111 39.73         2.8 0.13            127            199 294 
 CHI  HZ EP        111 11.74                             121    0.13 8  243 194 
 SML  HZ EP   1    111 11.10                             120   -0.06 6  244 337 
 SML  HN ES   1    111 40.36                             120   -0.08 6  244 337 
                                                                                
