 2013  928 0229 30.6 L   6.781 -73.156134.1  RSN 11 0.6 2.0LRSN 2.5WRSN        1
 SPEC AVERAGE  MO 12.9 ST 74.9 OM  1.3 f0 19.9 R0.1271 AL 0.00 WI 20.0 MW  2.5 3
 SPEC SD       MO  0.2 ST102.4 OM  0.5 f0 11.9 R0.0538 AL      WI      MW  0.1 3
 GAP= 97        1.59       6.5     5.4  8.2 -0.1447E+02  0.6544E+01  0.5161E+01E
 Epicentro: LOS SANTOS - SANTANDER                                             3
 SPEC BAR2SH Z MO 13.0 ST 35.3 OM  1.2 f0 17.8 R0.1081 AL-0.00 WI 20.0 MW  2.6 3
 SPEC BAR2SH Z T 22960 K 0.050 GD  135 VS 5.20 DE 3.20 Q0750.0 QA 1.50 VS 5.20 3
 SPEC BRR HH Z MO 13.1 ST 10.7 OM  1.2 f0 11.5 R0.1673 AL-0.00 WI 20.0 MW  2.6 3
 SPEC BRR HH Z T 230 5 K 0.050 GD  151 VS 5.20 DE 3.20 Q0750.0 QA 1.50 VS 5.20 3
 SPEC RUS HH Z MO 12.6 ST  2.7 OM  0.7 f0 10.4 R0.1850 AL-0.00 WI 20.0 MW  2.3 3
 SPEC RUS HH Z T 230 9 K 0.050 GD  166 VS 5.20 DE 3.20 Q0750.0 QA 1.50 VS 5.20 3
 SPEC NOR HH Z MO 12.8 ST251.0 OM  0.7 f0 40.0 R0.0481 AL-0.00 WI 20.0 MW  2.5 3
 SPEC NOR HH Z T 23029 K 0.050 GD  268 VS 5.20 DE 3.20 Q0750.0 QA 1.50 VS 5.20 3
 SPECGUY2CHH Z MO 15.3 ST  0.0 OM  3.1 f00.140 R  13.8 AL-0.00 WI 20.0 MW  4.1 3
 SPECGUY2CHH Z T 23044 K 0.050 GD327.7 VS 5.20 DE 3.20 Q0750.0 QA 1.50 VS 5.20 3
 OLDACT:REG 13-09-28 08:14 OP:stll STATUS:               ID:20130928022849     3
 ACTION:UPD 13-10-22 09:25 OP:ep   STATUS:               ID:20130928022930 L   I
 OLDACT:UP  13-09-28 12:24 OP:stll STATUS:               ID:20130928022849     3
 2013-09-28-0228-49M.COL___247                                                 6
 STAT SP IPHASW D HRMM SECON CODA AMPLIT PERI AZIMU VELO AIN AR TRES W  DIS CAZ7
 BAR2 SZ EP        229 49.01                             171    0.2210 21.1 188 
 BAR2 SZ ES        230  1.81                             171   -1.1710 21.1 188 
 BAR2 SZ I         230  4.92        34.3 0.34            170           21.1 188 
 BRR  HZ IP     D  229 50.86                             150    0.3510 71.2 300 
 BRR  HN ES        230  7.13                             150    1.0910 71.2 300 
 BRR  SZ I         230 10.21        17.5 0.18            151           71.2 300 
 PAM  SZ EP        229 51.51                             148   -0.2410 79.7  39 
 PAM  SN ES        230  7.98                             148   -0.2610 79.7  39 
 PAM  SZ I         230 10.76        22.7 0.62            152           79.7  39 
 RUS  HZ EP        229 53.38                             142    0.3010 98.6 175 
 RUS  HN ES        230 11.28                             142    0.6710 98.6 175 
 RUS  SZ I         230 12.57         9.1 0.40            144           98.6 175 
 PTB  HZ EP        229 55.82                             129   -0.69 9  146 260 
 PTB  HN ES        230 16.33                             129   -0.38 9  146 260 
 PTB  SZ I         230 18.81        10.3 0.26            131            146 260 
 CAPV BZ EP        229 57.01                             129   -0.30 9  152  38 
 TAM  HZ EP        229 57.52                             128    0.07 9  156 104 
 SPBC HZ EP        229 58.02                             127    0.01 9  161 219 
 SPBC HN ES        230 20.13                             127    0.75 9  161 219 
 SPBC SZ I         230 26.11         9.6 0.28            128            161 219 
 NOR  HZ EP        230  5.45                             116   -0.00 8  233 235 
 NOR  HN ES        230 31.27                             116   -1.36 8  233 235 
 NOR  SZ I         230 36.50         6.9 0.34            118            233 235 
 HEL  HZ EP        230 11.18                             112    1.11 8  270 256 
 HEL  HN ES        230 41.36                             112    0.51 8  270 256 
 HEL  SZ I         230 46.87         7.1 0.50            114            270 256 
 GUY2CHZ EP        230 13.20                             110   -0.26 7  299 235 
 GUY2CHN ES        230 46.18                             110   -0.70 7  299 235 
 GUY2CSZ I         230 55.94         5.1 1.96                           299 235 
                                                                                
