 2011  428 0533 37.2 L   6.782 -73.931 22.6  RSN  5 0.4 1.8LRSN                1
 GAP=144        0.88       4.1     3.2  4.7  0.8605E+00  0.4996E+01  0.9967E+01E
 Epicentro: PUERTO PARRA - SANTANDER                                           3
 ACTION:UP  11-06-22 15:33 OP:REBC STATUS:               ID:20110428053337 L   I
 2011-04-28-0530-17S.COL___138                                                 6
 STAT SP IPHASW D HRMM SECON CODA AMPLIT PERI AZIMU VELO SNR AR TRES W  DIS CAZ7
 BRR  HZ EP        533 44.94                             115     0.010   43  34 
 BRR  HE ES   1    533 51.43                             115     0.4 7   43  34 
 BRR  HZ I         533 52.58        70.2 0.10                            43  34 
 BAR2 SZ IP        533 51.10                             103    -0.210   85 104 
 BAR2 SZ ES   1    534  1.84                             103    -0.4 7   85 104 
 BAR2 SZ I         534  2.13        22.5 0.28                            85 104 
 RUS  HZ EP   1    533 58.95                              56     0.5 7  136 136 
 RUS  HN ES   1    534 15.42                              56     0.4 7  136 136 
 RUS  HZ I         534 16.80        20.6 0.30                           136 136 
 PAM  SZ EP   1    534  0.20                              56     0.1 7  149  66 
 PAM  SN ES   1    534 17.57                              56    -0.4 7  149  66 
 PAM  SZ I         534 18.95         7.7 0.22                           149  66 
 HEL  HZ EP   1    534  5.10                              56     0.3 7  188 250 
 HEL  HE ES   1    534 25.89                              56    -0.5 7  188 250 
 HEL  HZ I         534 26.64         8.1 0.26                           188 250 
                                                                                
