 2017  228 0721 12.4 L   6.832 -73.285125.3  RSN  9 0.3 1.8LRSN                1
 GAP=106        0.79       3.2     2.2  4.7  0.3774E+00  0.1286E+01  0.1531E+01E
 Epicentro: ZAPATOCA - SANTANDER                                               3
 ACTION:UPD 17-05-24 15:41 OP:jn   STATUS:               ID:20170228072112 L   I
 OLDACT:UP  17-03-01 02:01 OP:ar   STATUS:               ID:20170228071744     3
 OLDACT:UP  17-03-01 01:51 OP:ar   STATUS:               ID:20170228071744     3
 OLDACT:UP  17-03-01 01:49 OP:ar   STATUS:               ID:20170228071744     3
 OLDACT:REG 17-02-28 20:41 OP:and  STATUS:               ID:20170228071744     3
 2017-02-28-0718-00M.COL___366                                                 6
 STAT SP IPHASW D HRMM SECON CODA AMPLIT PERI AZIMU VELO AIN AR TRES W  DIS CAZ7
 BAR2 EZ EP        721 29.59                             166   -0.1610 28.9 157 
 BAR2 EZ ES        721 42.97                             166   -0.2910 28.9 157 
 BRR  HZ EP        721 30.12                             154   -0.4010 56.1 303 
 BRR  HN ES        721 44.46                             154   -0.1710 56.1 303 
 BRR  HZ I         721 45.11        20.3 0.12            153           56.1 303 
 PAM  EZ EP        721 32.86                             144   -0.2310 85.6  49 
 PAM  EN ES        721 49.86                             144    0.6710 85.6  49 
 PAM  EZ I         721 51.50        12.1 0.26            145           85.6  49 
 RUS  HZ EP        721 34.55                             137   -0.1410  106 168 
 RUS  HN ES        721 51.96                             137   -0.1010  106 168 
 RUS  HZ I         721 54.00         6.3 0.32            135            106 168 
 PTB  HZ EP   4    721 34.90                             130   -1.55 0  133 256 
 PTB  HN ES        721 55.47                             130    0.3010  133 256 
 PTB  HZ I         721 57.10        15.3 0.36            128            133 256 
 TAM  HZ EP        721 40.31                             122    0.14 9  171 105 
 TAM  HN ES        722  1.93                             122    0.12 9  171 105 
 ZAR  HZ EP        721 41.59                             120   -0.37 9  188 293 
 ZAR  HE ES        722  5.15                             120    0.17 9  188 293 
 ZAR  HZ I         722 10.12         5.4 0.28            118            188 293 
 NOR  HZ EP        721 46.28                             115    0.35 8  225 231 
 NOR  HN ES        722 12.44                             115    0.38 8  225 231 
 NOR  HZ I         722 15.17         5.3 0.16            113            225 231 
 URE  HZ EP   4    721 51.86                             110    1.07 0  268 292 
 URE  HE ES   4    722 17.42                             110   -3.30 0  268 292 
 PRA  HZ EP   4    722  7.17                             103    2.35 0  388 207 
 PRA  HE ES   4    722 49.59                             103    3.91 0  388 207 
 PRA  HZ I         722 58.18         2.2 0.50            102            388 207 
                                                                                
