 2014  228 0909 12.9 L   6.797 -73.121139.9  RSN 15 0.4 2.3LRSN 2.7WRSN        1
 SPEC AVERAGE  MO 13.2 ST  1.6 OM  1.3 f0 4.55 R0.7187 AL 0.00 WI 80.0 MW  2.7 3
 SPEC SD       MO  0.5 ST 13.9 OM  0.5 f0 3.18 R0.3971 AL      WI      MW  0.3 3
 GAP=140        0.81       2.4     3.3  5.1 -0.8403E+00  0.6736E+01  0.1918E+01E
 Epicentro: LOS SANTOS - SANTANDER                                             3
 SPEC PAM SH Z MO 13.7 ST0.094 OM  1.8 f0 1.43 R1.3455 AL-0.00 WI 80.0 MW  3.1 3
 SPEC PAM SH Z T 9 950 K 0.000 GD  159 VS 5.20 DE 3.50 Q0750.0 QA 1.50 VS 5.20 3
 SPEC RUS HH Z MO 13.3 ST0.117 OM  1.4 f0 2.04 R0.9431 AL-0.00 WI 80.0 MW  2.8 3
 SPEC RUS HH Z T 9 952 K 0.000 GD  171 VS 5.20 DE 3.50 Q0750.0 QA 1.50 VS 5.20 3
 SPEC PTB HH Z MO 12.9 ST  3.2 OM  0.9 f0 8.51 R0.2261 AL-0.00 WI 80.0 MW  2.6 3
 SPEC PTB HH Z T 9 959 K 0.000 GD  205 VS 5.20 DE 3.50 Q0750.0 QA 1.50 VS 5.20 3
 SPEC ZAR HH Z MO 13.0 ST  2.4 OM  0.9 f0 7.25 R0.2654 AL-0.00 WI 80.0 MW  2.6 3
 SPEC ZAR HH Z T 910 9 K 0.000 GD  249 VS 5.20 DE 3.50 Q0750.0 QA 1.50 VS 5.20 3
 SPEC NOR HH Z MO 13.2 ST0.290 OM  1.0 f0 3.21 R0.5994 AL-0.00 WI 80.0 MW  2.7 3
 SPEC NOR HH Z T 91014 K 0.000 GD  275 VS 5.20 DE 3.50 Q0750.0 QA 1.50 VS 5.20 3
 SPEC SML HH Z MO 13.0 ST  8.4 OM  0.8 f0 11.4 R0.1688 AL-0.00 WI 80.0 MW  2.6 3
 SPEC SML HH Z T 91015 K 0.000 GD  282 VS 5.20 DE 3.50 Q0750.0 QA 1.50 VS 5.20 3
 SPEC CHI HH Z MO 13.3 ST0.088 OM  1.1 f0 1.97 R0.9766 AL-0.00 WI 80.0 MW  2.8 3
 SPEC CHI HH Z T 91017 K 0.000 GD  285 VS 5.20 DE 3.50 Q0750.0 QA 1.50 VS 5.20 3
 SPEC HEL HH Z MO 12.9 ST0.096 OM  0.7 f0 2.69 R0.7152 AL-0.00 WI 80.0 MW  2.5 3
 SPEC HEL HH Z T 91023 K 0.000 GD  308 VS 5.20 DE 3.50 Q0750.0 QA 1.50 VS 5.20 3
 SPEC URE HH Z MO 12.9 ST  1.0 OM  0.7 f0 5.83 R0.3300 AL-0.00 WI 80.0 MW  2.6 3
 SPEC URE HH Z T 91022 K 0.000 GD  318 VS 5.20 DE 3.50 Q0750.0 QA 1.50 VS 5.20 3
 SPECGUY2CHH Z MO 13.6 ST  0.0 OM  1.4 f0 1.04 R  1.84 AL-0.00 WI 80.0 MW  3.0 3
 SPECGUY2CHH Z T 91029 K       GD333.7 VS 5.20 DE 3.50 Q0750.0 QA 1.50 VS 5.20 3
 SPEC PRA HH Z MO 13.5 ST0.035 OM  1.2 f0 1.19 R1.6168 AL-0.00 WI 80.0 MW  3.0 3
 SPEC PRA HH Z T 91046 K 0.000 GD  417 VS 5.20 DE 3.50 Q0750.0 QA 1.50 VS 5.20 3
 OLDACT:REG 14-02-28 09:24 OP:fm   STATUS:               ID:20140228090809     3
 ACTION:UPD 14-03-10 08:14 OP:ep   STATUS:               ID:20140228090912 L   I
 OLDACT:UP  14-02-28 10:40 OP:fm   STATUS:               ID:20140228090809     3
 OLDACT:UP  14-02-28 10:39 OP:fm   STATUS:               ID:20140228090809     3
 2014-02-28-0908-09M.COL___171                                                 6
 STAT SP IPHASW D HRMM SECON CODA AMPLIT PERI AZIMU VELO AIN AR TRES W  DIS CAZ7
 BAR2 SZ EP        9 9 32.02                             170    0.1510 23.6 197 
 BAR2 SZ ES   1    9 9 46.68                             170    0.04 7 23.6 197 
 BAR2 SZ I         9 9 48.15        65.4 0.20            170           23.6 197 
 PAM  SZ EP        9 9 35.01                             150    0.5610 76.0  38 
 PAM  SE ES        9 9 51.53                             150    0.3110 76.0  38 
 PAM  SZ I         9 9 53.38        64.5 0.58            153           76.0  38 
 RUS  HZ EP        9 9 36.08                             143   -0.0010  100 178 
 RUS  HN ES        9 9 53.85                             143   -0.2910  100 178 
 RUS  SZ I         9 9 55.38        19.2 0.26            146            100 178 
 PTB  HZ EP        9 9 39.20                             130   -0.47 9  150 259 
 PTB  HE ES        910  0.76                             130    0.23 9  150 259 
 PTB  SZ I         910  2.93        21.9 0.42            130            150 259 
 OCA  HZ EP   1    9 9 40.44                             128   -0.42 7  161 352 
 OCA  HE ES        910  1.94                             128   -0.71 9  161 352 
 OCA  SZ I         910 11.77        21.1 0.38            129            161 352 
 SPBC HN ES   4    910  1.04                             127   -2.09 0  165 220 
 ZAR  HZ EP        9 9 45.20                             121   -0.08 8  207 292 
 ZAR  HN ES        910 10.98                             121    0.47 8  207 292 
 ZAR  SZ I         910 16.21        20.0 0.28            121            207 292 
 NOR  HZ EP   1    9 9 48.75                             117    0.20 6  237 235 
 NOR  HE ES   1    910 15.64                             117   -0.69 6  237 235 
 NOR  SZ I         910 23.35        15.6 0.18            118            237 235 
 SML  HZ EP   4    9 9 48.32                             116   -1.08 0  245 335 
 SML  HN ES   2    910 17.16                             116   -0.68 4  245 335 
 SML  SZ I         910 24.23        35.7 0.08            117            245 335 
 CHI  HZ EP        9 9 50.47                             116    0.11 8  249 196 
 CHI  HN ES        910 19.20                             116   -0.35 8  249 196 
 CHI  SZ I         910 22.74         7.9 0.60            118            249 196 
 ROSC BZ EP   1    9 9 50.03                             115   -0.84 6  254 212 
 ROSC BN ES   1    910 20.66                             115    0.21 6  254 212 
 ROSC SZ I         910 29.81        12.9 0.45            117            254 212 
 HEL  HZ EP   1    9 9 53.77                             113    0.63 6  275 256 
 HEL  HN ES   1    910 24.60                             113    0.10 6  275 256 
 HEL  SZ I         910 30.77         7.3 0.28            114            275 256 
 URE  HZ EP   4    9 9 52.68                             112   -1.35 0  286 292 
 URE  HN ES   4    910 23.83                             112   -2.25 0  286 292 
 URE  SZ I         910 26.10        20.3 0.14            113            286 292 
 GUY2CHZ EP   1    9 9 57.00                             111    0.49 5  303 235 
 GUY2CHE ES   1    910 30.94                             111    0.44 5  303 235 
 GUY2CSZ I         910 38.07         7.4 0.84                           303 235 
 CBOC HZ EP   2    910  0.02                             109    0.12 3  336 252 
 CBOC HN ES   2    910 36.44                             109   -0.09 3  336 252 
 CBOC SZ I         910 38.99         3.4 1.94            110            336 252 
 PRA  HZ EP        910  6.79                             105    0.41 6  393 210 
 PRA  HN ES   1    910 48.04                             105   -0.03 4  393 210 
 PRA  SZ I         910 49.93         5.9 1.20            107            393 210 
                                                                                
