 2017  928 0655 58.1 L   6.143 -73.656114.3  RSN  5 0.1 1.0LRSN                1
 GAP=136        0.38       1.5     2.3  3.9 -0.9712E+00  0.9700E+00  0.7769E+00E
 Epicentro: LA PAZ - SANTANDER                                                 3
 ACTION:UPD 17-10-05 19:17 OP:rebc STATUS:               ID:20170928065558 L   I
 OLDACT:UP  17-10-03 20:53 OP:dnl  STATUS:               ID:20170928065558 L   3
 OLDACT:UP  17-10-03 20:52 OP:dnl  STATUS:               ID:20170928065558 L   3
 OLDACT:UP  17-10-03 20:50 OP:dnl  STATUS:               ID:20170928065558 L   3
 OLDACT:UP  17-10-01 06:04 OP:leo  STATUS:               ID:20170928065558 L   3
 OLDACT:UP  17-09-28 18:16 OP:edw  STATUS:               ID:20170928064744     3
 OLDACT:UP  17-09-28 18:15 OP:edw  STATUS:               ID:20170928064744     3
 OLDACT:REG 17-09-28 13:32 OP:edw  STATUS:               ID:20170928064744     3
 2017-09-28-0648-00M.COL___414                                                 6
 STAT SP IPHASW D HRMM SECON CODA AMPLIT PERI AZIMU VELO AIN AR TRES W  DIS CAZ7
 RUS  HZ EP        656 16.51                             147    0.0310 69.3 114 
 RUS  HN ES        656 31.01                             147    0.1610 69.3 114 
 RUS  HZ I         656 31.49         1.0 0.32            150           69.3 114 
 SPBC HZ EP        656 16.14                             146    0.1010 71.2 220 
 SPBC HN ES        656 30.09                             146    0.0210 71.2 220 
 SPBC HZ I         656 32.21         6.0 0.26            146           71.2 220 
 BAR2 EZ EP        656 16.34                             146    0.0210 72.2  47 
 BAR2 EZ ES        656 30.38                             146   -0.1810 72.2  47 
 BRR  HE ES        656 34.85                             134    0.0010  107 357 
 NOR  HN ES   4    656 41.41                             123   -0.74 0  149 245 
 CHI  HE ES        656 46.27                             120   -0.18 9  168 183 
 GUY2CHE ES   4    656 57.79                             113    2.04 0  215 242 
                                                                                
