 2017  828 0943  7.6 L   5.942 -73.651127.2  RSN  6 0.3 1.2LRSN                1
 GAP=141        0.71       3.6     3.3  5.7 -0.5125E+01  0.5445E+01 -0.4311E+01E
 Epicentro: BARBOSA - SANTANDER                                                3
 ACTION:UPD 17-09-04 20:25 OP:rebc STATUS:               ID:20170828094307 L   I
 OLDACT:UP  17-08-28 18:01 OP:edw  STATUS:               ID:20170828093738d    3
 OLDACT:DUP 17-08-28 17:58 OP:edw  STATUS:               ID:20170828093738d    3
 OLDACT:UP  17-08-28 17:57 OP:edw  STATUS:               ID:20170828093737     3
 OLDACT:REG 17-08-28 13:11 OP:dhb  STATUS:               ID:20170828093737     3
 2017-08-28-0938-00M.COL___402                                                 6
 STAT SP IPHASW D HRMM SECON CODA AMPLIT PERI AZIMU VELO AIN AR TRES W  DIS CAZ7
 SPBC HZ EP        943 25.96                             154   -0.1310 56.6 236 
 SPBC HE ES        943 40.70                             154    0.2010 56.6 236 
 SPBC HZ I         943 41.65         6.2 0.26            155           56.6 236 
 RUS  HZ EP        943 26.81                             152   -0.2210 63.1  95 
 RUS  HE ES        943 41.84                             152   -0.3210 63.1  95 
 RUS  HZ I         943 42.33         1.4 0.22            157           63.1  95 
 BAR2 EZ EP        943 28.70                             143    0.3610 88.7  36 
 BAR2 EZ ES        943 44.59                             143    0.0910 88.7  36 
 BAR2 EZ I         943 45.72         5.0 0.32            144           88.7  36 
 BRR  HZ EP        943 31.74                             131    0.3710  129 357 
 BRR  HN ES        943 49.78                             131   -0.1010  129 357 
 BRR  HZ I         943 53.82         3.8 0.54            132            129 357 
 NOR  HZ EP        943 32.34                             129   -0.24 9  141 253 
 NOR  HN ES        943 52.22                             129    0.17 9  141 253 
 NOR  HZ I         943 55.93         2.2 0.44            130            141 253 
 ZAR  HN ES   2    944  4.95                             116   -0.97 4  217 322 
                                                                                
