 2013  828 0640 55.7 L   5.758 -73.987106.0  RSN 13 0.3 1.5LRSN                1
 GAP= 86        0.81       2.2     2.8  4.6 -0.1087E+00 -0.1015E+01 -0.1510E+01E
 Epicentro: FLORIAN - SANTANDER                                                3
 ACTION:UPD 14-01-14 09:07 OP:ep   STATUS:               ID:20130828064055 L   I
 OLDACT:REG 13-08-28 07:33 OP:nd   STATUS:               ID:20130828063959     3
 2013-08-28-0639-59M.COL___270                                                 6
 STAT SP IPHASW D HRMM SECON CODA AMPLIT PERI AZIMU VELO AIN AR TRES W  DIS CAZ7
 SPBC HZ EP        641 10.29                             171    0.1410 15.1 219 
 SPBC HN ES        641 21.13                             171   -0.3010 15.1 219 
 SPBC HZ I         641 22.49        26.4 0.26            173           15.1 219 
 NOR  HZ EP        641 15.34                             133    0.1910  100 258 
 NOR  HN ES        641 30.36                             133    0.0310  100 258 
 NOR  HZ I         641 32.77         8.5 0.18            132            100 258 
 RUS  HZ EP        641 15.63                             133   -0.2110  101  82 
 RUS  HN ES   2    641 31.31                             133   -0.24 5  101  82 
 RUS  HZ I         641 34.56         1.5 0.30            130            101  82 
 PTB  HZ IP     D  641 14.90                             133   -0.2610  101 329 
 PTB  HN ES        641 30.07                             133   -0.2710  101 329 
 PTB  HZ I         641 36.73         3.6 0.10            130            101 329 
 BAR2 SZ EP        641 18.35                             125    0.3010  128  44 
 BAR2 SZ ES        641 35.32                             125   -0.1610  128  44 
 BAR2 SZ I         641 40.12         5.7 0.40            122            128  44 
 CHI  HZ EP        641 17.96                             125   -0.3110  128 167 
 CHI  HN ES        641 36.63                             125    0.7610  128 167 
 CHI  HZ I         641 38.44         2.7 0.20            124            128 167 
 BRR  HZ EP        641 20.66                             120    0.46 9  152  11 
 BRR  HN ES   2    641 39.28                             120   -0.04 5  152  11 
 BRR  HZ I         641 43.01         7.3 0.42            118            152  11 
 GUY2CHZ EP   4    641 22.54                             118    0.49 0  164 249 
 GUY2CHN ES   4    641 43.14                             118    0.53 0  164 249 
 GUY2CHZ I         641 49.53         2.1 0.30                           164 249 
 HEL  HZ EP   4    641 24.15                             116    0.76 0  177 286 
 HEL  HN ES   4    641 46.13                             116    1.14 0  177 286 
 HEL  HZ I         641 50.46         1.6 0.30            115            177 286 
 ZAR  HZ EP        641 27.09                             111   -0.01 8  215 333 
 ZAR  HN ES        641 52.10                             111    0.50 8  215 333 
 ZAR  HZ I         641 55.51         4.2 0.32            110            215 333 
 PRA  HZ EP        641 30.42                             107   -0.48 8  247 204 
 PRA  HN ES   2    641 57.75                             107   -0.61 4  247 204 
 PRA  HZ I         642  4.73         2.7 0.18            107            247 204 
 SML  HZ EP        641 41.04                             101   -0.39 7  337 358 
 SML  HN ES   2    642 17.40                             101    0.31 3  337 358 
 SML  HZ I         642 21.53         3.9 0.10            102            337 358 
 SJC  HZ EP   4    641 56.59                              95   -1.78 0  476 344 
 SJC  HN ES   4    642 43.73                              95   -3.52 0  476 344 
 SJC  HZ I         642 45.61         1.3 0.26                           476 344 
                                                                                
