 2013  328 0524 11.1 L   6.827 -73.135145.8  RSN 12 0.5 2.3LRSN                1
 GAP= 71        0.97       3.4     3.6  6.5  0.6445E+00  0.3876E+01  0.1196E+01E
 Epicentro: LOS SANTOS - SANTANDER                                             3
 ACTION:UPD 13-04-09 14:05 OP:ep   STATUS:               ID:20130328052411 L   I
 2013-03-28-0520-00M.COL___245                                                 6
 STAT SP IPHASW D HRMM SECON CODA AMPLIT PERI AZIMU VELO AIN AR TRES W  DIS CAZ7
 BAR2 SZ EP        524 30.69                             169   -0.0810 26.4 191 
 BAR2 SZ ES   1    524 45.71                             169   -0.43 7 26.4 191 
 BAR2 SZ I         524 46.76        66.8 0.24            169           26.4 191 
 BRR  HZ EP        524 32.57                             153    0.3610 70.9 296 
 BRR  HN ES   1    524 49.77                             153    1.08 7 70.9 296 
 BRR  HZ I         524 54.59        36.8 0.14            150           70.9 296 
 PAM  SZ EP   1    524 33.64                             152    0.53 7 74.4  40 
 PAM  SN ES   1    524 50.60                             152    0.30 7 74.4  40 
 PAM  SZ I         524 52.86        61.8 0.70            155           74.4  40 
 RUS  HZ EP   1    524 34.74                             143   -0.29 7  103 177 
 RUS  HN ES   1    524 53.10                             143   -0.62 7  103 177 
 RUS  HZ I         524 54.58        18.6 0.36            145            103 177 
 PTB  HZ EP   1    524 38.44                             132    0.24 7  150 258 
 PTB  HE ES   1    524 59.27                             132   -0.09 7  150 258 
 PTB  HZ I         525  1.68        19.7 0.32            131            150 258 
 TAM  HZ IP     D  524 39.04                             131    0.32 9  155 106 
 TAM  HN ES   1    525  0.17                             131   -0.11 7  155 106 
 TAM  HZ I         525  0.98        14.6 0.26            135            155 106 
 OCA  HZ EP   1    524 39.08                             130   -0.05 7  158 353 
 OCA  HN ES   1    524 59.80                             130   -1.21 7  158 353 
 OCA  HZ I         525  5.98        28.1 0.22            131            158 353 
 ZAR  HZ EP   1    524 42.69                             122   -0.83 6  204 291 
 ZAR  HN ES   1    525  8.65                             122   -0.18 6  204 291 
 ZAR  HZ I         525 14.54        22.3 0.46            122            204 291 
 SML  HZ EP   1    524 47.68                             118    0.21 6  242 335 
 SML  HN ES   1    525 15.87                             118    0.02 6  242 335 
 SML  HZ I         525 20.17        32.4 0.10            119            242 335 
 CHI  HZ EP   1    524 48.92                             117   -0.19 6  252 195 
 CHI  HN ES   1    525 18.22                             117   -0.56 6  252 195 
 CHI  HZ I         525 21.45         5.1 0.32            118            252 195 
 ROSC BZ EP   2    524 50.03                             116    0.49 4  256 211 
 ROSC BN ES   1    525 20.50                             116    0.97 6  256 211 
 ROSC BZ I         525 28.54         9.5 0.35            117            256 211 
 HEL  HZ EP   1    524 51.34                             115   -0.16 6  274 255 
 HEL  HN ES   1    525 22.83                             115   -0.19 6  274 255 
 HEL  HZ I         525 29.72        14.4 0.54            115            274 255 
 URE  HZ EP   4    524 51.17                             114   -0.98 0  284 291 
 URE  HN ES   4    525 22.06                             114   -2.12 0  284 291 
                                                                                
