 2010  728 0909 44.6 L   6.782 -73.090148.7  RSN  7 0.1 2.0LRSN                1
 GAP=165        0.33       1.8     3.8  3.2 -0.3292E+00 -0.2954E+01 -0.1817E+01E
 Epicentro: LOS SANTOS - SANTANDER                                             3
 ACTION:UPD 10-12-01 15:20 OP:pat  STATUS:               ID:20100728090944 L   I
 2010-07-28-0907-27S.COL___123                                                 6
 STAT SP IPHASW D HRMM SECON CODA AMPLIT PERI AZIMU VELO AIN AR TRES W  DIS CAZ7
 BAR2 SZ EP        910  4.55                             171     0.010   24 206 
 BAR2 SZ ES   1    910 20.17                             171     0.0 7   24 206 
 BAR2 SZ I         910 21.29        25.0 0.26                            24 206 
 GIR2 SZ EP   1    910  4.65                             166     0.0 7   35 341 
 BRR  HZ IP     C  910  6.39                             151     0.010   78 298 
 BRR  HZ I         910  6.65        58.9 0.16                            78 298 
 BRR  HN ES   1    910 23.48                             151     0.0 7   78 298 
 RUS  HZ EP   1    910  8.42                             145     0.0 7   98 180 
 RUS  HN ES   1    910 27.11                             145     0.0 7   98 180 
 RUS  HZ I         910 28.36         8.8 0.35                            98 180 
 GUE  SZ EP   1    910  9.47                             140    -0.2 7  117   9 
 GRA  SZ IP        910 10.31                             138     0.210  126  14 
 GRA  SZ ES   1    910 29.93                             138    -0.1 7  126  14 
 GRA  SZ I         910 35.96         8.5 0.40                           126  14 
 OCA  SZ EP   1    910 13.38                             130     0.0 7  163 351 
 OCA  SZ I         910 41.54        12.1 0.67                           163 351 
                                                                                
