 2011  128 0955  2.6 L   6.831 -73.224142.5  RSN  4 0.2 1.4LRSN                1
 GAP=189        0.45       4.1    16.7  5.1 -0.5501E+02  0.4423E+02 -0.7179E+01E
 Epicentro: ZAPATOCA - SANTANDER                                               3
 ACTION:UP  11-02-08 08:43 OP:pat  STATUS:               ID:20110128095502 L   I
 2011-01-28-0953-50S.COL___138                                                 6
 STAT SP IPHASW D HRMM SECON CODA AMPLIT PERI AZIMU VELO SNR AR TRES W  DIS CAZ7
 BAR2 SZ EP   1    955 21.82                             169    -0.1 8   27 171 
 BAR2 SZ ES   1    955 36.90                             169    -0.1 8   27 171 
 RUS  HZ EP        955 26.22                             142    -0.210  105 171 
 RUS  HE ES   1    955 45.11                             142     0.2 7  105 171 
 RUS  HZ I         955 45.69         4.0 0.32                           105 171 
 GRA  SZ EP   1    955 27.75                             136     0.2 7  125  22 
 GRA  SZ ES   1    955 47.07                             136     0.1 7  125  22 
 CHI  HZ EP        955 40.29                             116     0.0 8  250 193 
 CHI  HZ I         955 42.73         2.1 0.68                           250 193 
 CHI  HE ES   2    956 10.20                             116     0.5 4  250 193 
                                                                                
