 2017  828 0141 46.0 L   6.811 -73.077145.4  RSN 15 0.6 1.8LRSN                1
 GAP=118        1.22       3.7     4.2  6.0  0.2414E+01  0.5402E+01  0.7105E+01E
 Epicentro: LOS SANTOS - SANTANDER                                             3
 ACTION:UPD 17-09-04 20:25 OP:rebc STATUS:               ID:20170828014146 L   I
 OLDACT:UP  17-08-28 13:38 OP:dhb  STATUS:               ID:20170828013738     3
 OLDACT:REG 17-08-28 12:10 OP:dhb  STATUS:               ID:20170828013738     3
 2017-08-28-0138-00M.COL___417                                                 6
 STAT SP IPHASW D HRMM SECON CODA AMPLIT PERI AZIMU VELO AIN AR TRES W  DIS CAZ7
 BAR2 EZ IP     D  142  5.53                             169   -0.1710 26.9 206 
 BAR2 EZ ES        142 20.90                             169   -0.1410 26.9 206 
 BAR2 EZ I         142 22.03        17.2 0.15            167           26.9 206 
 PAM  EZ IP     C  142  8.51                             152    0.6210 71.7  35 
 PAM  EN ES        142 25.35                             152    0.4210 71.7  35 
 PAM  EZ I         142 28.14         5.1 0.27            156           71.7  35 
 BRR  HZ IP     C  142  7.35                             150   -0.1710 77.5 295 
 BRR  HN ES        142 23.90                             150   -0.3610 77.5 295 
 BRR  HZ I         142 27.54        16.9 0.23            150           77.5 295 
 RUS  HZ EP        142  9.63                             143   -0.2010  102 180 
 RUS  HN ES        142 28.43                             143    0.0510  102 180 
 RUS  HZ I         142 30.27         5.6 0.33            144            102 180 
 SPBC HZ IP     C  142 14.54                             128   -0.53 9  169 221 
 SPBC HE ES        142 37.14                             128   -0.57 9  169 221 
 SPBC HZ I         142 43.61        11.2 0.08            128            169 221 
 YPLC HZ IP     D  142 16.08                             127    0.51 9  174 154 
 YPLC HN ES        142 38.83                             127    0.23 9  174 154 
 YPLC HZ I         142 42.84         9.7 0.09            128            174 154 
 ZAR  HZ EP        142 19.05                             121   -0.10 8  211 291 
 ZAR  HE ES        142 44.32                             121   -0.66 8  211 291 
 ZAR  HZ I         142 51.29         7.1 0.13            122            211 291 
 NOR  HZ EP   9    142 21.81                             117   -0.69 0  242 235 
 NOR  HE ES        142 49.75                                   -0.49 8  242 235 
 NOR  HZ I         142 52.90         7.0 0.06            118            242 235 
 CHI  HZ EP        142 24.66                             116    0.58 8  252 197 
 CHI  HN ES        142 54.09                             116    0.35 8  252 197 
 CHI  HZ I         142 56.33         3.2 0.35            117            252 197 
 HEL  HZ EP        142 27.17                             114    0.08 7  280 256 
 HEL  HN ES   2    143  0.84                             114    1.73 4  280 256 
 HEL  HZ I         143  5.78         5.1 0.17            115            280 256 
 PTGC HZ IP     C  142 28.93                             111   -0.78 7  307 160 
 PTGC HE ES    2   143  2.31                             111   -1.46 7  307 160 
 PTGC HZ I         143 10.03         5.1 0.24            113            307 160 
 GUY2CHZ EP        142 31.11                             111    0.69 7  308 235 
 GUY2CHN ES   2    143  6.92                             111    1.88 4  308 235 
 GUY2CHZ I         143 13.88         4.5 0.20                           308 235 
 ELA  HN ES        143 11.50                             110    0.74 7  336 230 
 PRA  HZ EP        142 39.39                             106   -0.73 6  397 210 
 PRA  HE ES        143 22.75                             106    0.45 6  397 210 
 PRA  HZ I         143 26.85         2.0 0.24            107            397 210 
 ORTC HZ EP        142 41.22                             106    0.62 6  401 217 
 ORTC HN ES   3    143 25.55                             106    2.40 1  401 217 
 ORTC HZ I         143 27.09         1.1 0.41            107            401 217 
                                                                                
