 2017  628 0108 35.6 L   6.694 -73.173137.2  RSN  6 0.2 1.4LRSN                1
 GAP=201        0.60       6.1     4.3  5.1  0.1647E+02  0.2865E+01  0.7885E+01E
 Epicentro: VILLANUEVA - SANTANDER                                             3
 ACTION:UPD 17-09-14 16:56 OP:jn   STATUS:               ID:20170628010835 L   I
 OLDACT:UP  17-06-28 13:28 OP:and  STATUS:               ID:20170628010739     3
 OLDACT:REG 17-06-28 12:26 OP:and  STATUS:               ID:20170628010739     3
 2017-06-28-0108-00M.COL___370                                                 6
 STAT SP IPHASW D HRMM SECON CODA AMPLIT PERI AZIMU VELO AIN AR TRES W  DIS CAZ7
 BAR2 EZ ES        1 9  8.34                             175   -0.0110 11.3 185 
 BAR2 EZ I         1 9  9.83         8.2 0.30            171           11.3 185 
 BRR  HZ EP        1 8 55.63                             150   -0.4110 75.1 308 
 BRR  HN ES        1 9 12.20                             150    0.1910 75.1 308 
 PTB  HZ EP   2    1 9  1.71                             131    0.30 5  143 263 
 PTB  HN ES        1 9 21.41                             131   -0.16 9  143 263 
 PTB  HZ I         1 9 24.64         2.5 0.28            130            143 263 
 YPLC HZ EP        1 9  4.10                             126    0.20 9  168 149 
 ZAR  HN ES        1 9 32.93                             120    0.19 8  206 295 
 ZAR  HZ I         1 9 34.53         3.8 0.34            121            206 295 
 GUY2CHZ EP   4    1 9 21.21                             111    3.45 0  292 236 
 GUY2CHN ES   4    1 9 56.28                             111    5.61 0  292 236 
 GUY2CHZ I         1 9 59.13         0.7 0.26                           292 236 
                                                                                
