 2014  628 0602 38.9 L   6.772 -73.170136.2  RSN  6 0.5 1.2LRSN                1
 GAP=233        1.16       6.8     7.0  9.1  0.2180E+02  0.9969E+01 -0.5055E+01E
 Epicentro: LOS SANTOS - SANTANDER                                             3
 ACTION:UPD 14-07-01 22:57 OP:nd   STATUS:               ID:20140628060238 L   I
 OLDACT:REG 14-06-28 13:42 OP:spq  STATUS:               ID:20140628055820     3
 2014-06-28-0558-20M.COL___249                                                 6
 STAT SP IPHASW D HRMM SECON CODA AMPLIT PERI AZIMU VELO AIN AR TRES W  DIS CAZ7
 BAR2 SZ EP        6 2 57.40                             171    0.0910 20.0 184 
 BAR2 SZ ES   1    6 3 11.69                             171    0.03 7 20.0 184 
 BAR2 SZ I         6 3 14.30         3.2 0.28            170           20.0 184 
 BRR  HN ES   1    6 3 15.37                             151    0.74 7 70.4 302 
 BRR  HZ I         6 3 46.89         8.8 0.34            149           70.4 302 
 RUS  HZ EP        6 3  1.53                             142    0.0310 97.8 174 
 RUS  HN ES        6 3 18.57                             142   -0.5710 97.8 174 
 RUS  HZ I         6 3 21.06         1.2 0.30            166           97.8 174 
 PTB  HZ EP        6 3  4.32                             130   -0.48 9  145 260 
 PTB  HN ES        6 3 24.65                             130   -0.36 9  145 260 
 PTB  HZ I         6 3 28.90         2.0 0.12            140            145 260 
 SPBC HZ EP        6 3  6.30                             127    0.02 9  159 219 
 SPBC HN ES        6 3 28.49                             127    0.85 9  159 219 
 SPBC HZ I         6 3 31.30         2.3 0.30            145            159 219 
 ZAR  HZ EP        6 3 11.21                             120    0.61 9  203 293 
 ZAR  HN ES        6 3 34.75                             120   -0.58 9  203 293 
                                                                                
