 2012 1028 0836 36.6 L   6.865 -73.142150.0  RSN  4 0.3 2.0LRSN                1
 GAP=196        0.75       6.4     6.7  9.6 -0.3078E+01  0.1431E+01  0.9702E+01E
 Epicentro: LOS SANTOS - SANTANDER                                             3
 ACTION:UPD 12-11-22 17:06 OP:ep   STATUS:               ID:20121028083636 L   I
 2012-10-28-0830-00M.COL___231                                                 6
 STAT SP IPHASW D HRMM SECON CODA AMPLIT PERI AZIMU VELO AIN AR TRES W  DIS CAZ7
 BAR2 SZ EP   1    836 56.51                             168   -0.39 7 30.5 188 
 BRR  HZ EP   1    836 58.04                             154   -0.01 7 68.4 293 
 BRR  HN ES        837 15.07                             154    0.2910 68.4 293 
 BRR  HN I         837 18.22        18.6 0.18                          68.4 293 
 OCA  HN ES        837 26.36                             132   -0.05 9  153 353 
 OCA  HN I         837 29.41        16.3 0.20                           153 353 
 ZAR  HZ EP   1    837  9.74                             124    0.65 6  202 290 
 ZAR  HN ES        837 34.04                             124   -0.39 9  202 290 
 ZAR  HN I         837 42.58         6.2 0.16                           202 290 
                                                                                
