 2016  328 0524 34.5 L   6.821 -73.190140.8  RSN  9 0.3 1.5LRSN                1
 GAP=130        0.74       2.9     3.2  4.9 -0.5353E+00  0.5057E+01  0.2024E+01E
 Epicentro: ZAPATOCA - SANTANDER                                               3
 ACTION:UPD 16-05-13 21:28 OP:cam  STATUS:               ID:20160328051747 L   I
 OLDACT:UPD 16-03-28 15:59 OP:Mher STATUS:               ID:20160328051747 L   3
 2016-03-28-0517-47M.COL___297                                                 6
 STAT SP IPHASW D HRMM SECON CODA AMPLIT PERI AZIMU VELO AIN AR TRES W  DIS CAZ7
 BAR2 EZ EP        524 53.62                             169   -0.0110 25.3 178 
 BAR2 EZ ES        525  8.41                             169   -0.1010 25.3 178 
 BAR2 EZ I         525 10.26         6.9 0.14            169           25.3 178 
 PAM  EZ EP        524 56.48                             149    0.1510 78.9  43 
 PAM  EN ES        525 13.38                             149    0.0610 78.9  43 
 PAM  EZ I         525 15.77         5.8 0.52            152           78.9  43 
 RUS  HZ EP        524 57.99                             142   -0.0310  103 173 
 RUS  HN ES        525 16.25                             142   -0.0810  103 173 
 RUS  HZ I         525 17.40         2.8 0.26            144            103 173 
 PTB  HZ EP        525  0.37                             132   -0.35 9  143 258 
 PTB  HN ES        525 20.89                             132   -0.24 9  143 258 
 PTB  HZ I         525 23.47         3.6 0.16            133            143 258 
 SPBC HZ EP        525  2.50                             128   -0.05 9  162 217 
 SPBC HN ES        525 25.10                             128    0.70 9  162 217 
 SPBC HZ I         525 29.03         7.1 0.20            130            162 217 
 ZAR  HN ES        525 30.81                             122    0.08 9  199 292 
 CHI  HZ EP        525 11.86                             116   -0.23 8  250 194 
 CHI  HN ES        525 40.95                             116   -0.42 8  250 194 
 GUY2CHZ EP        525 18.38                             111    0.75 7  299 234 
 GUY2CHE ES   4    525 54.79                             111    3.55 0  299 234 
 GUY2CHZ I         525 59.89         2.1 0.36                           299 234 
 MON  HE ES   2    525 59.72                             108   -0.62 3  348 309 
                                                                                
