 2012  228 0734 58.7 L   6.763 -73.133137.6  RSN  5 0.2 2.0LRSN                1
 GAP=140        0.51       3.3     2.8  4.9  0.1013E+01  0.2454E+01 -0.1893E+01E
 ACTION:UP  12-03-07 16:35 OP:epov STATUS:               ID:20120228073458 L   I
 2012-02-28-0730-00M.COL___191                                                 6
 STAT SP IPHASW D HRMM SECON CODA AMPLIT PERI AZIMU VELO AIN AR TRES W  DIS CAZ7
 BAR2 SZ EP        735 17.29                             171    0.0510 19.7 196 
 BAR2 SZ ES   1    735 31.50                             171   -0.23 7 19.7 196 
 BAR2 SZ I         735 32.93        30.4 0.34                          19.7 196 
 BRR  HZ EP        735 19.16                             150    0.0310 74.4 301 
 BRR  HE ES        735 35.43                             150    0.3410 74.4 301 
 BRR  HZ I         735 40.55        20.5 0.22                          74.4 301 
 PAM  SZ EP        735 20.23                             149    0.0710 79.7  37 
 PAM  SE ES        735 36.79                             149   -0.1410 79.7  37 
 RUS  HN ES   1    735 38.96                             143   -0.02 7 96.4 177 
 ZAR  HE ES        735 55.72                             120   -0.30 8  207 293 
 ZAR  HZ I         736  1.17         7.5 0.57                           207 293 
                                                                                
