 2017  228 0539 21.1 L   6.753 -73.105166.0  RSN  4 0.2 1.3LRSN                1
 GAP=238        0.62       5.5     5.4  6.2  0.1522E+02 -0.6634E+01 -0.5425E+01E
 Epicentro: LOS SANTOS - SANTANDER                                             3
 ACTION:UPD 17-05-24 15:41 OP:jn   STATUS:               ID:20170228053921 L   I
 OLDACT:REG 17-02-28 20:40 OP:and  STATUS:               ID:20170228053740     3
 2017-02-28-0538-00M.COL___366                                                 6
 STAT SP IPHASW D HRMM SECON CODA AMPLIT PERI AZIMU VELO AIN AR TRES W  DIS CAZ7
 BAR2 EZ EP        539 42.85                             173   -0.2810 19.8 206 
 BAR2 EZ I         540  1.18         3.2 0.28            169           19.8 206 
 BRR  HZ EP        539 44.92                             154    0.1010 77.7 300 
 BRR  HE ES        540  3.38                             154    0.0610 77.7 300 
 BRR  HZ I         540 12.48         7.2 0.32            152           77.7 300 
 RUS  HZ EP        539 46.96                             149    0.4010 95.2 179 
 RUS  HN ES        540  6.28                             149   -0.1310 95.2 179 
 RUS  HZ I         540  7.81         1.4 0.52            158           95.2 179 
 PTB  HZ EP        539 49.84                             135   -0.27 9  151 261 
 PTB  HN ES        540 12.81                             135    0.09 9  151 261 
 PTB  HZ I         540 14.90         1.7 0.36            143            151 261 
                                                                                
