 2016  928 0229  8.2 L   7.247 -73.241 10.1  RSN  4 0.3 1.2LRSN                1
 GAP=255        0.88       6.5     5.2  5.2  0.2453E+02  0.8939E+00 -0.8878E+01E
 Epicentro: RIONEGRO - SANTANDER                                               3
 ACTION:UPD 17-08-17 21:17 OP:lp   STATUS:               ID:20160928022908 L   I
 OLDACT:REG 16-09-28 12:54 OP:dani STATUS:               ID:20160928022733     3
 2016-09-28-0228-00M.COL___384                                                 6
 STAT SP IPHASW D HRMM SECON CODA AMPLIT PERI AZIMU VELO AIN AR TRES W  DIS CAZ7
 BRR  HZ EP        229 16.52                              97   -0.6110 54.3 253 
 BRR  HN ES        229 24.40                              97    0.3510 54.3 253 
 BRR  HZ I         229 27.14         6.4 0.26             99           54.3 253 
 RUS  HZ EP        229 32.60                              92    0.38 9  151 173 
 RUS  HN ES        229 50.70                              92   -0.21 9  151 173 
 RUS  HZ I         229 52.23         2.3 0.23             56            151 173 
 PTB  HZ EP        229 32.75                              56    0.32 9  155 240 
 PTB  HE ES        229 51.11                              56   -0.19 9  155 240 
 PTB  HZ I         229 52.31         9.6 0.27             56            155 240 
 ZAR  HN ES        229 56.87                              56    0.00 9  181 279 
                                                                                
