 2012  328 0321 23.3 L   6.781 -73.151146.5  RSN 10 0.4 1.8LRSN                1
 GAP=137        0.92       4.6     6.3  6.7 -0.5409E+00  0.8290E+01  0.2233E+01E
 ACTION:UP  12-03-31 23:23 OP:EP   STATUS:               ID:20120328032123 L   I
 2012-03-28-0320-00M.COL___196                                                 6
 STAT SP IPHASW D HRMM SECON CODA AMPLIT PERI AZIMU VELO SNR AR TRES W  DIS CAZ7
 BAR2 SZ EP        321 42.82                             172    -0.110   21 190 
 BAR2 SZ I         321 42.98        14.8 0.40                            21 190 
 BAR2 SZ ES   1    321 57.80                             172    -0.5 7   21 190 
 BRR  HZ EP        321 44.83                             152     0.310   72 300 
 BRR  HZ I         321 46.49        13.1 0.12                            72 300 
 BRR  HE ES   1    322  2.06                             152     0.9 7   72 300 
 PAM  SZ EP        321 45.75                             151     0.110   79  39 
 PAM  SN ES   1    322  2.84                             151    -0.3 7   79  39 
 RUS  HZ EP        321 46.71                             145    -0.210   98 176 
 RUS  HN ES   1    322  5.75                             145     0.3 7   98 176 
 RUS  HZ I         322  7.00         5.8 0.42                            98 176 
 PTB  HZ EP        321 49.72                             132    -0.5 9  147 260 
 PTB  HN ES   3    322 10.50                             132    -0.7 2  147 260 
 PTB  HZ I         322 13.05         4.9 0.16                           147 260 
 OCA  SZ EP        321 51.90                             129     0.1 9  162 353 
 ZAR  HZ EP   3    321 56.11                             122     0.3 2  204 293 
 ZAR  HE ES   2    322 20.92                             122    -0.2 4  204 293 
 ZAR  HZ I         322 28.41         5.9 0.28                           204 293 
 CHI  HZ EP        322  0.98                             118     0.2 8  246 195 
 CHI  HZ I         322 38.66         3.3 0.42                           246 195 
 RREF HE ES   3    322 45.26                             111     0.2 2  320 230 
 RREF HZ I         322 52.50         5.2 0.30                           320 230 
 PRA  HZ EP   2    322 17.14                             107     0.6 3  390 210 
                                                                                
