 2013  128 0446  7.7 L   6.793 -73.179144.0  RSN  4 0.3 1.4LRSN                1
 GAP=275        0.73       5.7     5.4  8.1  0.1093E+02 -0.8168E-01 -0.3688E+01E
 Epicentro: LOS SANTOS - SANTANDER                                             3
 ACTION:UPD 13-02-15 09:17 OP:ep   STATUS:               ID:20130128044607 L   I
 2013-01-28-0438-48M.COL___175                                                 6
 STAT SP IPHASW D HRMM SECON CODA AMPLIT PERI AZIMU VELO AIN AR TRES W  DIS CAZ7
 BAR2 SZ EP        446 26.96                             171   -0.1510 22.2 181 
 RUS  HZ EP        446 31.01                             144   -0.2510  100 174 
 RUS  HE ES        446 49.88                             144    0.2610  100 174 
 RUS  HZ I         446 50.43         3.3 0.30            143            100 174 
 PTB  HZ EP        446 34.23                             132    0.04 9  144 259 
 PTB  HN ES        446 54.86                             132    0.01 9  144 259 
 PTB  HZ I         446 59.58         3.4 0.16            130            144 259 
 CHI  HZ EP        446 45.72                             117    0.59 8  247 194 
 CHI  HE ES        447 13.87                             117   -0.44 8  247 194 
 CHI  HE I         447 17.79         1.5 0.44            117            247 194 
                                                                                
