 2013  428 0915  0.6 L   6.828 -73.156144.4  RSN 15 0.5 2.7LRSN                1
 GAP=111        0.99       3.2     3.7  5.6  0.7990E+00  0.3053E+01 -0.5450E+00E
 Epicentro: LOS SANTOS - SANTANDER                                             3
 ACTION:UPD 13-05-22 14:41 OP:EP   STATUS:               ID:20130428091500 L   I
 2013-04-28-0910-00M.COL___248                                                 6
 STAT SP IPHASW D HRMM SECON CODA AMPLIT PERI AZIMU VELO AIN AR TRES W  DIS CAZ7
 BAR2 SZ IP     D  915 20.25                             169    0.1310 26.3 186 
 BAR2 SZ ES   1    915 35.26                             169   -0.09 7 26.3 186 
 BAR2 SZ I         915 36.15       160.5 0.32            168           26.3 186 
 GIR2 SZ IP     C  915 20.21                             169    0.2010 28.0 352 
 GIR2 SZ ES   1    915 34.55                             169   -0.61 7 28.0 352 
 GIR2 SZ I         915 36.98        96.0 0.24            167           28.0 352 
 BRR  HZ IP     D  915 22.01                             153    0.5610 68.7 297 
 BRR  HE ES   1    915 38.97                             153    1.25 7 68.7 297 
 BRR  HZ I         915 42.38       165.9 0.50            149           68.7 297 
 RUS  HZ IP     C  915 24.33                             143   -0.1110  104 176 
 RUS  HN ES   1    915 43.01                             143   -0.04 7  104 176 
 RUS  HZ I         915 44.67        46.3 0.32            142            104 176 
 PTB  HZ EP        915 26.87                             132   -0.53 9  147 258 
 PTB  HN ES   1    915 47.75                             132   -0.56 7  147 258 
 PTB  HZ I         915 49.37        68.4 0.20            129            147 258 
 TAM  HZ IP     C  915 28.69                             130    0.35 9  157 106 
 TAM  HN ES   1    915 49.64                             130   -0.35 7  157 106 
 TAM  HZ I         915 51.04        20.1 0.68            132            157 106 
 OCA  HZ EP   1    915 28.29                             130   -0.20 7  157 353 
 OCA  HN ES   1    915 50.07                             130   -0.18 7  157 353 
 OCA  HZ I         915 54.92        83.8 0.36            129            157 353 
 ZAR  HZ EP        915 32.74                             122    0.03 9  202 291 
 ZAR  HN ES   1    915 58.11                             122    0.34 6  202 291 
 ZAR  HZ I         916  4.05        73.7 0.32            120            202 291 
 NOR  HZ EP   1    915 36.90                             118    0.57 6  236 234 
 NOR  HN ES   1    916  3.48                             118   -0.74 6  236 234 
 NOR  HZ I         916 10.09        38.3 0.20            117            236 234 
 SML  HZ EP        915 36.11                             118   -0.66 8  240 335 
 SML  HE ES   1    916  4.15                             118   -0.85 6  240 335 
 SML  HZ I         916  9.52        95.9 0.24            116            240 335 
 HEL  HZ EP   1    915 41.68                             115    0.99 6  272 255 
 HEL  HE ES   2    916 11.79                             115   -0.18 4  272 255 
 HEL  HZ I         916 18.53        37.7 0.38            113            272 255 
 URE  HZ EP   4    915 39.40                             114   -1.94 0  282 291 
 URE  HE ES   4    916 11.63                             114   -1.49 0  282 291 
 URE  HZ I         916 22.36        44.3 0.28            112            282 291 
 VIL  SN ES   2    916 18.42                             112    0.09 4  306 191 
 VIL  SZ I         916 30.38        24.1 0.28            111            306 191 
 COD  HZ EP   1    915 48.13                             109   -0.41 5  345 355 
 COD  HE ES   1    916 26.67                             109    0.74 5  345 355 
 COD  HZ I         916 34.68         7.2 0.46            108            345 355 
 PRA  HZ EP        915 54.37                             106    0.06 6  394 209 
 PRA  HN ES   1    916 35.92                             106   -0.30 4  394 209 
 PRA  HZ I         916 42.19        23.3 0.30            106            394 209 
 SJC  HZ EP   4    915 54.55                             106   -1.17 0  406 327 
 SJC  HN ES   4    916 35.45                             106   -3.27 0  406 327 
                                                                                
