 2013 1128 0527 30.4 L   6.799 -73.145144.1  RSN 18 0.6 2.3LRSN 2.7WRSN        1
 SPEC AVERAGE  MO 13.1 ST199.8 OM  1.2 f0 18.5 R0.2067 AL 0.00 WI 20.0 MW  2.7 3
 SPEC SD       MO  0.2 ST279.0 OM  0.3 f0 14.5 R0.1549 AL      WI      MW  0.1 3
 GAP= 71        1.40       3.2     3.6  6.2 -0.2190E+01  0.5083E+01  0.2337E+01E
 Epicentro: LOS SANTOS - SANTANDER                                             3
 SPEC BAR2SH Z MO 13.4 ST 48.4 OM  1.6 f0 14.2 R0.1355 AL-0.00 WI 20.0 MW  2.9 3
 SPEC BAR2SH Z T 528 2 K 0.050 GD  145 VS 5.20 DE 3.20 Q0750.0 QA 1.50 VS 5.20 3
 SPEC BRR HH Z MO 13.2 ST597.6 OM  1.3 f0 40.0 R0.0481 AL-0.00 WI 20.0 MW  2.7 3
 SPEC BRR HH Z T 528 7 K 0.050 GD  160 VS 5.20 DE 3.20 Q0750.0 QA 1.50 VS 5.20 3
 SPEC PAM SH Z MO 12.9 ST  6.3 OM  1.0 f0 11.0 R0.1749 AL-0.00 WI 20.0 MW  2.5 3
 SPEC PAM SH Z T 528 8 K 0.050 GD  163 VS 5.20 DE 3.20 Q0750.0 QA 1.50 VS 5.20 3
 SPEC RUS HH Z MO 12.8 ST 14.0 OM  0.9 f0 15.1 R0.1274 AL-0.00 WI 20.0 MW  2.5 3
 SPEC RUS HH Z T 52810 K 0.050 GD  175 VS 5.20 DE 3.20 Q0750.0 QA 1.50 VS 5.20 3
 SPEC PTB HH Z MO 13.2 ST609.9 OM  1.2 f0 40.0 R0.0481 AL-0.00 WI 20.0 MW  2.7 3
 SPEC PTB HH Z T 52815 K 0.050 GD  206 VS 5.20 DE 3.20 Q0750.0 QA 1.50 VS 5.20 3
 SPEC SPBCHH Z MO 13.2 ST370.6 OM  1.2 f0 33.3 R0.0578 AL-0.00 WI 20.0 MW  2.8 3
 SPEC SPBCHH Z T 52818 K 0.050 GD  217 VS 5.20 DE 3.20 Q0750.0 QA 1.50 VS 5.20 3
 SPEC ZAR HH Z MO 13.3 ST737.4 OM  1.2 f0 40.0 R0.0481 AL-0.00 WI 20.0 MW  2.8 3
 SPEC ZAR HH Z T 52826 K 0.050 GD  249 VS 5.20 DE 3.20 Q0750.0 QA 1.50 VS 5.20 3
 SPEC NOR HH Z MO 13.2 ST 10.4 OM  1.1 f0 10.1 R0.1905 AL-0.00 WI 20.0 MW  2.8 3
 SPEC NOR HH Z T 52832 K 0.050 GD  275 VS 5.20 DE 3.20 Q0750.0 QA 1.50 VS 5.20 3
 SPEC CHI HH Z MO 12.9 ST0.331 OM  0.8 f0 3.97 R0.4846 AL-0.00 WI 20.0 MW  2.6 3
 SPEC CHI HH Z T 52835 K 0.050 GD  287 VS 5.20 DE 3.20 Q0750.0 QA 1.50 VS 5.20 3
 SPEC HEL HH Z MO 13.2 ST0.878 OM  1.0 f0 4.61 R0.4174 AL-0.00 WI 20.0 MW  2.7 3
 SPEC HEL HH Z T 52841 K 0.050 GD  307 VS 5.20 DE 3.20 Q0750.0 QA 1.50 VS 5.20 3
 SPEC PRA HH Z MO 13.0 ST0.743 OM  0.7 f0 4.96 R0.3879 AL-0.00 WI 20.0 MW  2.6 3
 SPEC PRA HH Z T 529 2 K 0.050 GD  417 VS 5.20 DE 3.20 Q0750.0 QA 1.50 VS 5.20 3
 SPEC ORTCHH Z MO 13.0 ST0.939 OM  0.7 f0 5.35 R0.3596 AL-0.00 WI 20.0 MW  2.6 3
 SPEC ORTCHH Z T 529 4 K 0.050 GD  420 VS 5.20 DE 3.20 Q0750.0 QA 1.50 VS 5.20 3
 OLDACT:REG 13-11-28 07:57 OP:stll STATUS:               ID:20131128051809     3
 ACTION:UPD 14-01-09 16:31 OP:ep   STATUS:               ID:20131128052730 L   I
 OLDACT:UP  13-11-28 10:45 OP:stll STATUS:               ID:20131128051809     3
 2013-11-28-0518-09M.COL___244                                                 6
 STAT SP IPHASW D HRMM SECON CODA AMPLIT PERI AZIMU VELO AIN AR TRES W  DIS CAZ7
 BAR2 SZ IP     D  527 50.02                             170    0.2210 23.2 190 
 BAR2 SZ ES        528  4.48                             170   -0.4810 23.2 190 
 BAR2 SZ I         528  7.48        77.8 0.30            172           23.2 190 
 BRR  HZ IP     C  527 51.84                             152    0.4910 71.3 299 
 BRR  HN ES        528  9.15                             152    1.4410 71.3 299 
 BRR  SZ I         528 11.95        23.8 0.18            153           71.3 299 
 PAM  SZ IP     C  527 52.75                             150    0.3410 77.4  39 
 PAM  SN ES        528  9.98                             150    0.3710 77.4  39 
 PAM  SZ I         528 14.70        14.5 0.50            153           77.4  39 
 RUS  HZ EP        527 53.88                             144   -0.0710  100 176 
 RUS  HN ES        528 12.02                             144   -0.3210  100 176 
 RUS  SZ I         528 13.78        18.3 0.70            146            100 176 
 PTB  HZ EP        527 56.79                             132   -0.41 9  148 259 
 PTB  HN ES        528 17.43                             132   -0.71 9  148 259 
 PTB  SZ I         528 19.65        19.8 0.12            133            148 259 
 CAPV BZ IP     C  527 57.82                             131    0.18 9  149  38 
 TAM  HZ IP     D  527 58.14                             130    0.23 9  155 105 
 TAM  HN ES        528 19.18                             130   -0.21 9  155 105 
 TAM  SZ I         528 24.08        10.8 0.52            133            155 105 
 OCA  HZ EP        527 57.88                             129   -0.68 9  160 353 
 OCA  HE ES        528 20.22                             129   -0.34 9  160 353 
 OCA  SZ I         528 26.63        24.2 0.16            131            160 353 
 SPBC HZ EP        527 58.80                             129    0.07 9  163 219 
 SPBC HN ES        528 20.33                             129   -0.53 9  163 219 
 SPBC SZ I         528 25.28        24.6 0.36            131            163 219 
 ZAR  HZ EP        528  2.68                             122   -0.04 9  204 292 
 ZAR  HN ES        528 27.65                             122   -0.30 9  204 292 
 ZAR  SZ I         528 30.16        19.8 0.08            124            204 292 
 NOR  HZ EP        528  5.87                             118   -0.13 8  235 234 
 NOR  HN ES        528 33.55                             118   -0.24 8  235 234 
 NOR  SZ I         528 39.18        17.7 0.22            120            235 234 
 SML  HZ EP        528  6.00                             117   -0.92 8  244 335 
 SML  HN ES        528 34.51                             117   -0.92 8  244 335 
 SML  SZ I         528 41.58        29.0 0.08            119            244 335 
 CHI  HZ EP        528  8.06                             117    0.10 8  249 195 
 CHI  HZ I         528  8.56         6.2 0.42            119            249 195 
 CHI  HE ES        528 37.46                             117    0.17 8  249 195 
 HEL  HZ EP        528 12.27                             114    1.77 8  272 256 
 HEL  HE ES        528 42.84                             114    1.04 8  272 256 
 HEL  SZ I         528 50.01         9.6 0.38            116            272 256 
 GUY2CHZ EP        528 14.60                             112    0.70 7  301 235 
 GUY2CHN ES        528 47.72                             112   -0.13 7  301 235 
 GUY2CSZ I         528 57.06        10.4 0.34                           301 235 
 RREF HZ EP        528 17.11                             111    0.68 7  322 229 
 RREF HN ES        528 52.04                             111   -0.32 7  322 229 
 PRA  HZ EP        528 23.49                             106   -0.33 6  392 210 
 PRA  HN ES        529  4.38                             106   -1.13 6  392 210 
 PRA  SZ I         529 10.22         7.9 0.64            108            392 210 
 ORTC HZ EP        528 23.98                             106   -0.24 6  395 216 
 ORTC HN ES        529  6.28                             106    0.05 6  395 216 
 ORTC SZ I         529 11.68         6.9 2.00            108            395 216 
                                                                                
