 2010  528 0843 18.4 L   6.835 -73.201141.8  RSN  4 0.1 1.6LRSN                1
 GAP=155        0.38       5.8    11.6  5.5 -0.5817E+02  0.3326E+02 -0.1792E+02E
 Epicentro: ZAPATOCA - SANTANDER                                               3
 ACTION:UP  10-08-24 10:07 OP:vdl  STATUS:               ID:20100528084318 L   I
 2010-05-28-0842-00S.COL___108                                                 6
 STAT SP IPHASW D HRMM SECON CODA AMPLIT PERI AZIMU VELO SNR AR TRES W  DIS CAZ7
 BAR2 SZ EP        843 37.46                             169    -0.110   27 176 
 BAR2 SZ ES   1    843 52.72                             169     0.1 7   27 176 
 GUE  SZ EP   1    843 42.56                             139     0.0 7  114  16 
 GRA  SZ EP        843 43.23                             136     0.110  124  21 
 GRA  SZ ES   1    844  2.28                             136    -0.1 7  124  21 
 RREF BN ES   2    844 39.79                             110     0.0 3  320 228 
 RREF BZ I         844 49.13         1.8 0.64                           320 228 
                                                                                
