 2017  228 0427 26.3 L   6.816 -73.127151.2  RSN 17 0.6 2.2LRSN                1
 GAP=120        1.25       3.9     4.3  6.0 -0.7088E+00  0.6377E+01  0.3353E+01E
 Epicentro: LOS SANTOS - SANTANDER                                             3
 ACTION:UPD 17-05-24 15:41 OP:jn   STATUS:               ID:20170228042726 L   I
 OLDACT:UP  17-03-01 03:13 OP:ar   STATUS:               ID:20170228041748d    3
 OLDACT:UP  17-03-01 03:12 OP:ar   STATUS:               ID:20170228041748d    3
 OLDACT:DUP 17-03-01 03:09 OP:ar   STATUS:               ID:20170228041748d    3
 OLDACT:UP  17-03-01 01:00 OP:ar   STATUS:               ID:20170228041747     3
 OLDACT:UP  17-03-01 00:58 OP:ar   STATUS:               ID:20170228041747     3
 OLDACT:UP  17-03-01 00:57 OP:ar   STATUS:               ID:20170228041747     3
 OLDACT:UP  17-03-01 00:53 OP:ar   STATUS:               ID:20170228041747     3
 OLDACT:REG 17-02-28 20:39 OP:and  STATUS:               ID:20170228041747     3
 2017-02-28-0418-00M.COL___372                                                 6
 STAT SP IPHASW D HRMM SECON CODA AMPLIT PERI AZIMU VELO AIN AR TRES W  DIS CAZ7
 BAR2 EZ IP     C  427 46.71                             170    0.0610 25.4 194 
 BAR2 EZ ES        428  1.89                             170   -0.6110 25.4 194 
 BAR2 EZ I         428  3.32        64.3 0.14            169           25.4 194 
 BRR  HZ IP     C  427 48.55                             153    0.4310 72.2 297 
 BRR  HN ES        428  5.74                             153    0.6310 72.2 297 
 BRR  HZ I         428 11.78        24.2 0.14            150           72.2 297 
 PAM  HZ EP        427 49.64                             152    0.6710 74.7  39 
 PAM  HN ES        428  7.39                             152    0.7610 74.7  39 
 PAM  HZ I         428 10.35         8.8 0.16            155           74.7  39 
 RUS  HZ EP        427 50.72                             145   -0.0010  102 177 
 RUS  HN ES        428  9.27                             145   -0.4810  102 177 
 RUS  HZ I         428 10.61        26.4 0.42            146            102 177 
 PTB  HZ EP        427 53.39                             133   -0.56 9  150 258 
 PTB  HN ES        428 14.66                             133   -0.83 9  150 258 
 PTB  HZ I         428 16.43        19.7 0.14            131            150 258 
 ZAR  HZ EP        427 59.32                             123    0.06 8  205 291 
 ZAR  HN ES        428 24.80                             123   -0.14 8  205 291 
 ZAR  HZ I         428 30.94        24.0 0.38            122            205 291 
 NOR  HZ EP        428  3.13                             119    0.47 8  237 234 
 NOR  HE ES        428 31.02                             119    0.03 8  237 234 
 NOR  HZ I         428 36.36         7.8 0.22            119            237 234 
 CHI  HZ EP        428  4.85                             118    0.29 8  251 196 
 CHI  HN ES        428 34.21                             118   -0.18 8  251 196 
 CHI  HZ I         428 39.62         6.2 0.66            118            251 196 
 ROSC BZ EP   4    428  7.11                             118    2.09 0  255 211 
 ROSC BN ES   4    428 38.51                             118    3.31 0  255 211 
 ROSC BZ I         428 44.28        17.8 0.35            118            255 211 
 HEL  HZ EP   4    428  8.45                             116    1.37 0  274 256 
 HEL  HN ES        428 38.89                             116    0.02 8  274 256 
 HEL  HZ I         428 45.61         6.2 0.52            115            274 256 
 URE  HZ EP        428  7.26                             115   -0.54 7  285 291 
 URE  HN ES   4    428 37.52                             115   -2.64 0  285 291 
 URE  HZ I         428 48.08        15.0 0.20            114            285 291 
 PTGC HZ EP        428 10.02                             112   -0.50 7  310 159 
 PTGC HN ES   4    428 43.25                             112   -1.75 0  310 159 
 PTGC HZ I         428 46.60         5.5 0.38            113            310 159 
 CBOC HZ EP   4    428 15.14                             111    1.39 0  336 252 
 CBOC HN ES        428 51.42                             111    0.68 7  336 252 
 CBOC HZ I         428 53.54         1.7 0.36            110            336 252 
 PRA  HZ EP        428 20.38                             107    0.05 6  395 210 
 PRA  HN ES        429  2.47                             107    0.02 6  395 210 
 PRA  HZ I         429  9.75         6.2 0.24            107            395 210 
 ORTC HZ EP        428 21.79                             107    1.05 6  398 216 
 ORTC HE ES   4    429  5.20                             107    2.02 0  398 216 
 ORTC HZ I         429  7.58         2.8 0.54            107            398 216 
 SJC  HZ EP        428 20.79                             107   -1.24 6  409 327 
 SJC  HN ES   4    429  3.70                             107   -1.78 0  409 327 
 SJC  HZ I         429 21.04         3.6 0.48            107            409 327 
 CRJC HZ EP   4    428 26.94                             104   -1.82 0  466   3 
 CRJC HN ES        429 15.98                             104   -1.48 5  466   3 
                                                                                
