 2016  228 0328 50.5 L   6.822 -73.207137.0  RSN  8 0.3 1.6LRSN                1
 GAP=147        0.72       3.3     3.5  4.8 -0.4808E+01  0.4945E+01  0.1682E+01E
 Epicentro: ZAPATOCA - SANTANDER                                               3
 ACTION:UPD 16-03-04 21:30 OP:rebc STATUS:               ID:20160228032850 L   I
 OLDACT:REG 16-02-28 12:31 OP:drio STATUS:               ID:20160228031747     3
 2016-02-28-0317-47M.COL___322                                                 6
 STAT SP IPHASW D HRMM SECON CODA AMPLIT PERI AZIMU VELO AIN AR TRES W  DIS CAZ7
 BAR2 EZ EP        329  8.63                             169   -0.4710 25.6 174 
 BAR2 EZ ES        329 23.65                             169    0.0210 25.6 174 
 BAR2 EZ I         329 24.84         8.6 0.20            169           25.6 174 
 PAM  EZ EP        329 12.06                             148    0.1210 80.1  44 
 PAM  EE ES        329 28.77                             148    0.0910 80.1  44 
 PAM  EZ I         329 30.93         8.9 0.52            153           80.1  44 
 RUS  HZ EP        329 13.45                             141   -0.1610  104 172 
 RUS  HE ES        329 31.76                             141    0.1110  104 172 
 RUS  HZ I         329 33.14         6.0 0.44            143            104 172 
 PTB  HZ EP        329 15.82                             131   -0.35 9  142 257 
 PTB  HN ES        329 36.56                             131    0.35 9  142 257 
 PTB  HZ I         329 39.86         6.2 0.12            131            142 257 
 SPBC HZ EP        329 18.08                             127   -0.02 9  161 217 
 SPBC HN ES        329 39.73                             127    0.09 9  161 217 
 SPBC HZ I         329 43.30         7.5 0.12            128            161 217 
 ZAR  HE ES   4    329 47.87                             121    1.98 0  197 292 
 NOR  HZ EP        329 25.84                             117    0.57 8  231 233 
 NOR  HE ES        329 51.92                             117   -0.49 8  231 233 
 NOR  HZ I         330  0.33         3.7 0.26            118            231 233 
 CHI  HZ EP        329 28.11                             115    0.33 8  249 194 
 CHI  HN ES        329 56.84                             115   -0.03 8  249 194 
 CHI  HZ I         329 59.88         2.0 0.58            117            249 194 
 GUY2CHZ EP   4    329 34.63                             111    1.40 0  297 234 
 GUY2CHN ES   4    330  8.72                             111    2.15 0  297 234 
 GUY2CHZ I         330 16.19         1.7 0.34                           297 234 
                                                                                
