 2014  928 0751 10.2 L   6.774 -73.139148.9  RSN 13 0.4 1.7LRSN                1
 GAP=139        0.94       3.2     4.2  5.8 -0.1247E+01  0.4175E+01  0.1336E+01E
 Epicentro: LOS SANTOS - SANTANDER                                             3
 ACTION:UPD 14-10-03 23:09 OP:nd   STATUS:               ID:20140928075110 L   I
 OLDACT:DUP 14-09-28 18:48 OP:spq  STATUS:               ID:20140928074820d    3
 2014-09-28-0748-19M.COL___295                                                 6
 STAT SP IPHASW D HRMM SECON CODA AMPLIT PERI AZIMU VELO AIN AR TRES W  DIS CAZ7
 BAR2 SZ EP        751 30.22                             172    0.0310 20.7 193 
 BAR2 SZ ES   1    751 45.48                             172   -0.28 7 20.7 193 
 BAR2 SZ I         751 46.26        10.8 0.20            165           20.7 193 
 BRR  HZ EP        751 32.08                             152    0.2510 73.3 300 
 BRR  HN ES        751 49.38                             152    0.6910 73.3 300 
 BRR  HZ I         751 50.29         7.1 0.14            150           73.3 300 
 PAM  SZ EP        751 32.98                             151    0.1010 79.1  38 
 PAM  SN ES   1    751 50.46                             151   -0.10 7 79.1  38 
 PAM  SZ I         751 53.05         4.0 0.56            145           79.1  38 
 RUS  HZ EP   1    751 33.66                             145   -0.43 7 97.7 176 
 RUS  HN ES   1    751 52.64                             145   -0.06 7 97.7 176 
 RUS  HZ I         751 54.13         5.3 0.32            135           97.7 176 
 PTB  HZ EP        751 36.85                             133   -0.62 9  148 260 
 PTB  HN ES        751 58.04                             133   -0.69 9  148 260 
 PTB  HZ I         752  2.84         5.9 0.16            126            148 260 
 SPBC HZ EP     D  751 38.91                             130    0.10 9  161 220 
 SPBC HN ES        752  1.57                             130    0.47 9  161 220 
 SPBC HZ I         752  7.76         8.2 0.34            122            161 220 
 OCA  HN ES   1    752  1.42                             130   -0.12 7  163 353 
 OCA  HZ I         752  5.91         4.8 0.26            124            163 353 
 ZAR  HE ES        752  8.83                             123    0.16 8  206 293 
 ZAR  HZ I         752 13.99         5.7 0.32            116            206 293 
 CHI  HZ EP   1    751 47.55                             118   -0.28 6  246 196 
 CHI  HZ I         752 23.27         1.4 0.19            110            246 196 
 SML  HZ EP   1    751 48.07                             118    0.73 6  247 335 
 SML  HE ES        752 15.64                             118   -0.66 8  247 335 
 SML  HZ I         752 19.89         7.0 0.10            112            247 335 
 GUY2CHZ EP   1    751 53.74                             113   -0.13 5  300 235 
 GUY2CHN ES   1    752 28.02                             113    0.11 5  300 235 
 GUY2CHZ I         752 36.14         3.1 0.28                           300 235 
 CBOC HZ EP        751 57.87                             111    0.61 7  333 253 
 TOL  SN ES   4    752 36.05                             110    0.01 0  342 225 
 TOL  SZ I         752 40.59         3.3 0.26            104            342 225 
                                                                                
