 2014 1028 0824  3.1 L   6.808 -73.162146.0  RSN 12 0.4 1.9LRSN                1
 GAP=134        1.02       3.5     4.9  5.5 -0.4306E+01  0.5193E+01  0.1966E+01E
 Epicentro: LOS SANTOS - SANTANDER                                             3
 ACTION:UPD 14-11-29 23:57 OP:nd   STATUS:               ID:20141028082403 L   I
 OLDACT:UP  14-10-30 18:27 OP:cam  STATUS:               ID:20141028081810     3
 OLDACT:REG 14-10-30 15:29 OP:cam  STATUS:               ID:20141028081810     3
 2014-10-28-0818-10M.COL___271                                                 6
 STAT SP IPHASW D HRMM SECON CODA AMPLIT PERI AZIMU VELO AIN AR TRES W  DIS CAZ7
 BAR2 SZ EP        824 22.84                             170    0.1110 24.0 185 
 BAR2 SZ ES        824 37.88                             170   -0.1910 24.0 185 
 BAR2 SZ I         824 39.20        24.7 0.20            168           24.0 185 
 BRR  HZ IP     D  824 24.57                             153    0.4510 69.2 299 
 BRR  HN ES        824 41.45                             153    0.9010 69.2 299 
 BRR  HZ I         824 45.02        18.9 0.46            150           69.2 299 
 PAM  SZ IP     C  824 25.77                             151    0.4410 77.9  41 
 PAM  SN ES        824 42.64                             151   -0.0610 77.9  41 
 PAM  SZ I         824 44.69        13.7 0.44            156           77.9  41 
 RUS  HZ EP        824 26.89                             144   -0.0110  102 175 
 RUS  HE ES        824 45.06                             144   -0.4410  102 175 
 RUS  HZ I         824 47.55         7.2 0.30            146            102 175 
 PTB  HZ EP        824 29.29                             132   -0.61 9  146 258 
 PTB  HN ES        824 50.52                             132   -0.31 9  146 258 
 PTB  HZ I         824 56.04        12.2 0.30            132            146 258 
 OCA  HZ EP        824 30.82                             130   -0.46 9  159 354 
 OCA  HN ES        824 52.82                             130   -0.48 9  159 354 
 OCA  HZ I         824 55.70        14.4 0.20            132            159 354 
 SPBC HZ EP        824 31.74                             129    0.21 9  163 218 
 SPBC HN ES        824 53.74                             129    0.00 9  163 218 
 SPBC HZ I         825  2.10         8.9 0.16            130            163 218 
 CHI  HZ EP   1    824 41.25                             117    0.44 6  249 195 
 HEL  HZ EP        824 42.79                             115   -0.32 8  271 256 
 URE  HZ EP   4    824 46.91                             114    3.00 0  282 292 
 URE  HN ES   4    825 14.27                             114   -1.51 0  282 292 
 URE  HZ I         825 23.07         5.6 0.16            115            282 292 
 GUY2CHZ EP   4    824 48.99                             112    2.42 0  300 234 
 RREF HZ EP   4    824 47.74                             111   -1.38 0  321 229 
 MON  HZ EP   4    824 49.21                             109   -2.63 0  352 308 
 PRA  HZ EP        824 56.76                             107    0.19 6  392 209 
 ORTC HZ EP        824 57.48                             106    0.54 6  395 216 
                                                                                
