 2014 1228 0602 23.9 L   6.789 -73.145141.4  RSN 10 0.4 1.9LRSN                1
 GAP=137        0.93       3.2     3.7  5.8 -0.2386E+01  0.8129E+01  0.2232E-01E
 Epicentro: LOS SANTOS - SANTANDER                                             3
 ACTION:UPD 15-02-10 17:07 OP:nd   STATUS:               ID:20141228060223 L   I
 OLDACT:REG 14-12-28 12:55 OP:mh   STATUS:               ID:20141228055743     3
 2014-12-28-0557-43M.COL___262                                                 6
 STAT SP IPHASW D HRMM SECON CODA AMPLIT PERI AZIMU VELO AIN AR TRES W  DIS CAZ7
 BAR2 EZ EP        6 2 43.20                             171    0.1910 22.2 191 
 BAR2 EZ ES        6 2 57.62                             171   -0.2710 22.2 191 
 BAR2 EZ I         6 3  0.45        15.8 0.39            169           22.2 191 
 BRR  HZ EP   1    6 2 44.46                             151   -0.18 7 71.8 299 
 BRR  HN ES        6 3  1.44                             151    0.6410 71.8 299 
 BRR  HZ I         6 3 12.46         8.4 0.48            149           71.8 299 
 PAM  SZ EP        6 2 45.54                             150   -0.1910 78.2  39 
 PAM  SN ES        6 3  2.79                             150    0.0510 78.2  39 
 PAM  SZ I         6 3  3.27        13.9 0.36            155           78.2  39 
 RUS  HZ EP   1    6 2 47.25                             143    0.09 7 99.4 176 
 RUS  HN ES        6 3  5.60                             143    0.3110 99.4 176 
 RUS  HZ I         6 3  5.97         7.1 0.22            149           99.4 176 
 PTB  HZ EP   1    6 2 49.97                             131   -0.56 7  148 259 
 PTB  HN ES        6 3 10.58                             131   -0.70 9  148 259 
 PTB  HZ I         6 3 13.02        15.7 0.16            132            148 259 
 OCA  HN ES        6 3 13.49                             128   -0.43 9  161 353 
 OCA  HZ I         6 3 15.20         8.3 0.71            131            161 353 
 SPBC HZ EP   1    6 2 52.24                             128    0.23 7  162 219 
 SPBC HN ES        6 3 13.38                             128   -0.53 9  162 219 
 SPBC HZ I         6 3 17.13         9.3 0.24            131            162 219 
 ZAR  HZ EP        6 2 56.46                             121    0.32 9  205 292 
 ZAR  HN ES        6 3 21.76                             121    0.49 9  205 292 
 ZAR  HZ I         6 3 29.94         8.8 0.54            123            205 292 
 NOR  HZ EP   1    6 2 59.29                             118   -0.05 6  234 235 
 NOR  HN ES        6 3 27.51                             118    0.55 8  234 235 
 NOR  HZ I         6 3 32.58         7.4 0.36            120            234 235 
 HEL  HZ EP        6 3  4.10                             114    0.20 8  272 256 
 HEL  HN ES        6 3 34.79                             114   -0.28 8  272 256 
 HEL  HZ I         6 3 42.07         6.1 0.28            116            272 256 
 TOL  SZ EP   4    6 3 13.66                             108    1.74 0  343 225 
 TOL  SN ES   4    6 3 49.70                             108    0.35 0  343 225 
                                                                                
