 2013  928 0225 56.7 L   6.858 -73.000177.4  RSN  4 0.3 1.3LRSN                1
 GAP=256        0.73       6.9     6.6  6.0  0.2230E+02 -0.4266E+01 -0.6363E+01E
 Epicentro: CEPITA - SANTANDER                                                 3
 ACTION:UPD 13-10-22 09:25 OP:ep   STATUS:               ID:20130928022556 L   I
 OLDACT:DUP 13-09-28 12:10 OP:stll STATUS:               ID:20130928021848d    3
 2013-09-28-0218-47M.COL___247                                                 6
 STAT SP IPHASW D HRMM SECON CODA AMPLIT PERI AZIMU VELO AIN AR TRES W  DIS CAZ7
 BAR2 SZ EP        226 20.83                             168    0.4410 35.6 214 
 BAR2 SZ ES        226 38.81                             168   -0.0710 35.6 214 
 BRR  HZ EP        226 21.49                             154   -0.4610 83.3 289 
 BRR  HN ES        226 41.77                             154    0.1210 83.3 289 
 RUS  HZ EP        226 24.29                             148    0.2010  107 185 
 RUS  HZ I         226 41.91         1.9 0.58            137            107 185 
 RUS  HN ES        226 45.22                             148   -0.2310  107 185 
 PTB  HZ EP        226 27.65                             135   -0.18 9  165 258 
 PTB  HZ I         226 28.17         2.5 0.14            132            165 258 
 PTB  HN ES        226 52.28                             135    0.17 9  165 258 
                                                                                
