 2010 1228 0430  5.9 L   6.815 -73.159138.0  RSN  7 0.5 1.9LRSN                1
 GAP=157        0.99       4.8    10.6 10.5 -0.2324E+02  0.3235E+02 -0.1469E+02E
 Epicentro: LOS SANTOS - SANTANDER                                             3
 ACTION:UP  11-01-14 15:27 OP:pat  STATUS:               ID:20101228043005 L   I
 2010-12-28-0420-00M.COL___136                                                 6
 STAT SP IPHASW D HRMM SECON CODA AMPLIT PERI AZIMU VELO SNR AR TRES W  DIS CAZ7
 BTL  SZ EP   1    430 25.24                             173     0.8 8   17 314 
 BAR2 SZ EP   1    430 24.70                             169     0.1 8   25 186 
 BAR2 SZ ES   1    430 39.11                             169    -0.1 8   25 186 
 BAR2 SZ I         430 40.90        24.8 0.17                            25 186 
 RUS  HZ EP   1    430 28.89                             141    -0.1 8  102 175 
 RUS  HZ I         430 30.05         9.5 0.13                           102 175 
 RUS  HN ES   1    430 46.56                             141    -0.5 8  102 175 
 GRA  SZ EP        430 30.72                             135     0.410  125  18 
 GRA  SZ ES   1    430 49.48                             135     0.1 7  125  18 
 GRA  SZ I         430 52.29         9.8 0.38                           125  18 
 OCA  SZ EP   1    430 32.76                             128    -0.6 7  158 354 
 OCA  SZ ES   1    430 54.30                             128    -0.6 7  158 354 
 OCA  SZ I         430 57.55         9.9 0.35                           158 354 
 NOR  SN ES   1    431  8.93                             116     0.3 6  235 234 
 PRA  HZ EP   2    430 58.42                             105    -0.8 3  393 209 
                                                                                
