 2016  728 0815  9.4 L   6.716 -73.173134.5  RSN  6 0.2 1.1LRSN                1
 GAP=228        0.60       3.5     3.8  4.9  0.4413E+01  0.4513E+01  0.1471E+01E
 Epicentro: VILLANUEVA - SANTANDER                                             3
 ACTION:UPD 17-03-29 16:55 OP:lp   STATUS:               ID:20160728081509 L   I
 OLDACT:UP  16-07-28 17:45 OP:edw  STATUS:               ID:20160728080759     3
 OLDACT:REG 16-07-28 14:24 OP:edw  STATUS:               ID:20160728080759     3
 2016-07-28-0807-59S.COL___334                                                 6
 STAT SP IPHASW D HRMM SECON CODA AMPLIT PERI AZIMU VELO AIN AR TRES W  DIS CAZ7
 BAR2 EZ ES        815 41.53                             174   -0.0910 13.8 184 
 BRR  HZ EP        815 29.06                             150   -0.4110 73.6 306 
 BRR  HN ES        815 45.33                             150    0.1910 73.6 306 
 BRR  HZ I         815 49.50         3.6 0.24            151           73.6 306 
 RUS  HZ EP        815 31.76                             144    0.3810 91.6 174 
 RUS  HN ES   2    815 48.41                             144   -0.13 5 91.6 174 
 RUS  HZ I         815 50.91         2.3 0.28            147           91.6 174 
 PTB  HZ EP        815 35.10                             130    0.06 9  143 262 
 PTB  HE ES        815 55.22                             130    0.18 9  143 262 
 PTB  HZ I         815 58.42         1.2 0.19            133            143 262 
 SPBC HZ EP   4    815 32.72                             128   -3.44 0  154 220 
 SPBC HN ES        815 56.80                             128   -0.25 9  154 220 
 ZAR  HZ EP   2    815 41.05                             120   -0.17 4  205 295 
 ZAR  HN ES        816  6.06                             120    0.01 9  205 295 
                                                                                
