 2017  728 0343 58.8 L   7.084 -73.377116.5  RSN 31 0.7 2.7LRSN                1
 GAP= 53        1.05       3.0     2.6  4.8 -0.1905E+00  0.3081E+01  0.3080E+00E
 Epicentro: LEBRIJA - SANTANDER                                                3
 ACTION:UPD 17-08-30 15:37 OP:rebc STATUS:               ID:20170728034358 L   I
 OLDACT:UP  17-07-28 14:27 OP:and  STATUS:               ID:20170728033741     3
 OLDACT:UP  17-07-28 14:23 OP:and  STATUS:               ID:20170728033741     3
 OLDACT:UP  17-07-28 14:23 OP:and  STATUS:               ID:20170728033741     3
 OLDACT:UP  17-07-28 14:20 OP:and  STATUS:               ID:20170728033741     3
 OLDACT:UP  17-07-28 14:19 OP:and  STATUS:               ID:20170728033741     3
 OLDACT:UP  17-07-28 14:18 OP:and  STATUS:               ID:20170728033741     3
 OLDACT:UP  17-07-28 14:18 OP:and  STATUS:               ID:20170728033741     3
 OLDACT:UP  17-07-28 14:16 OP:and  STATUS:               ID:20170728033741     3
 OLDACT:UP  17-07-28 14:14 OP:and  STATUS:               ID:20170728033741     3
 OLDACT:UP  17-07-28 14:14 OP:and  STATUS:               ID:20170728033741     3
 OLDACT:REG 17-07-28 12:27 OP:and  STATUS:               ID:20170728033741     3
 2017-07-28-0338-00M.COL___380                                                 6
 STAT SP IPHASW D HRMM SECON CODA AMPLIT PERI AZIMU VELO AIN AR TRES W  DIS CAZ7
 BRR  HZ IP     D  344 15.28                             161    0.2310 37.1 274 
 BRR  HN ES        344 28.21                             161    0.5110 37.1 274 
 BRR  HZ I         344 28.61       229.4 0.12            154           37.1 274 
 BAR2 EZ IP     C  344 16.54                             152    0.0910 58.5 158 
 BAR2 EZ ES        344 30.00                             152   -0.2010 58.5 158 
 BAR2 EZ I         344 32.04       400.0 0.40            149           58.5 158 
 PAM  EZ EP        344 18.55                             143    0.3310 80.0  69 
 PAM  EN ES        344 33.53                             143    0.1910 80.0  69 
 PAM  EZ I         344 34.78       113.4 0.16            143           80.0  69 
 PTB  HZ IP     D  344 21.32                             127   -0.8810  134 243 
 PTB  HN ES   2    344 38.98                             127   -1.44 5  134 243 
 PTB  HZ I         344 43.30        79.9 0.28            121            134 243 
 RUS  HZ EP        344 22.37                             128   -0.66 9  136 166 
 RUS  HN ES        344 41.30                             128   -0.61 9  136 166 
 RUS  HZ I         344 45.67        45.4 0.22            123            136 166 
 ZAR  HZ EP        344 26.49                             120    0.65 9  170 286 
 ZAR  HN ES   3    344 48.78                             120    1.88 2  170 286 
 ZAR  HZ I         344 51.44       169.8 0.38            115            170 286 
 SPBC HZ EP        344 26.02                             119   -0.60 9  176 206 
 SPBC HE ES   4    344 51.01                             119    2.71 0  176 206 
 SPBC HZ I         344 55.90        91.9 0.24            114            176 206 
 TAM  HZ IP     C  344 28.14                             117    0.14 9  189 112 
 TAM  HN ES        344 50.60                             117   -0.15 9  189 112 
 TAM  HZ I         344 51.83        23.5 0.27            114            189 112 
 YPLC HZ IP     C  344 31.11                             114    0.05 8  217 149 
 YPLC HN ES   2    344 56.69                             114    0.49 4  217 149 
 YPLC HZ I         344 59.16        35.6 0.30            110            217 149 
 NOR  HZ EP   2    344 32.57                             112   -0.59 4  236 225 
 NOR  HN ES        344 59.88                             112   -0.05 8  236 225 
 NOR  HZ I         345  5.10        49.3 0.48            107            236 225 
 TABC EZ EP        344 35.14                             111    0.19 8  247 202 
 TABC EZ ES   4    345  6.16                             111    3.04 0  247 202 
 TABC EZ I         345  8.93        51.7 0.52            106            247 202 
 URE  HZ EP        344 33.93                             110   -0.71 8  249 287 
 URE  HN ES   3    345  1.01                             110   -1.57 2  249 287 
 URE  HZ I         345  8.68        49.7 0.30            106            249 287 
 HEL  HZ EP   3    344 37.25                             109    1.18 2  258 248 
 HEL  HE ES        345  5.47                             109    0.36 8  258 248 
 HEL  HZ I         345 10.10        46.4 0.24            105            258 248 
 ROSC BZ EP   4    344 39.67                             109    2.24 0  269 203 
 ROSC BN ES   2    345  8.98                             109    1.43 4  269 203 
 ROSC BZ I         345 17.27        35.3 0.40            105            269 203 
 CHI  HZ EP   1    344 38.62                             108    0.57 6  274 188 
 CHI  HN ES   4    345 10.46                             108    1.83 0  274 188 
 CHI  HZ I         345 18.73        21.3 0.44            104            274 188 
 LL6C HZ EP   2    344 39.49                             106   -0.26 4  293   2 
 LL6C HZ ES        345 11.90                             106    0.23 7  293   2 
 LL6C HZ I         345 21.49        18.1 0.30            103            293   2 
 GUY2CHZ EP   9    344 42.81                             106    1.55 0  301 227 
 GUY2CHN ES        345 15.68                             105   -0.23 7  301 227 
 GUY2CHZ I         345 22.80        37.3 0.52                           301 227 
 DBB  EZ EP        344 42.87                             105    0.71 7  313 269 
 DBB  EN ES        345 15.72                             105   -0.24 7  313 269 
 DBB  EZ I         345 17.08        22.9 0.16            101            313 269 
 ARGC HZ EP   3    344 44.44                             105    1.40 2  321 343 
 ARGC HE ES   4    345 23.36                             105    5.84 0  321 343 
 ARGC HZ I         345 28.64        12.9 0.32            101            321 343 
 CBOC HZ EP   9    344 44.52                             105    1.29 0  321 245 
 CBOC HN ES        345 19.04                             104   -0.12 7  321 245 
 CBOC HZ I         345 24.03         9.4 0.36            101            321 245 
 ELA  HZ EP   4    344 47.55                             104    2.52 0  333 222 
 ELA  HN ES   4    345 18.77                             104   -2.30 0  333 222 
 ELA  HZ I         345 32.23        28.7 0.38            100            333 222 
 PTGC HZ EP        344 45.38                             103   -0.76 6  348 157 
 SJC  HZ EP   3    344 47.88                             102   -0.88 2  369 328 
 SJC  HN ES   4    345 25.49                             102   -2.22 0  369 328 
 SJC  HZ I         345 44.85         9.5 0.52             98            369 328 
 PAL  HZ IP     D  344 53.26                             101    0.54 6  402 233 
 PAL  HE ES   4    345 31.94                             101   -2.82 0  402 233 
 PAL  HZ I         345 47.12         8.0 0.42             97            402 233 
 ORTC HZ EP        344 53.94                             100    0.57 6  408 211 
 ORTC HN ES   4    345 38.33                             100    2.42 0  408 211 
 ORTC HZ I         345 44.37        15.3 0.30             96            408 211 
 PRA  HZ EP   2    344 55.03                             100    1.55 3  409 204 
 PRA  HE ES   2    345 39.58                             100    3.48 3  409 204 
 PRA  HZ I         345 42.12        31.5 0.24             96            409 204 
 SMAR HZ EP   4    345  1.18                              98    1.48 0  461 348 
 SMAR HN ES   4    345 45.85                              98   -1.33 0  461 348 
 SMAR HZ I         345 52.47         6.9 0.62             94            461 348 
 GUA  EZ EP   9    345  3.50                              97   -2.03 0  509 171 
 GUA  EN ES        345 55.40                              97   -0.13 4  509 171 
 GUA  EZ I         346  3.03        20.8 0.26             93            509 171 
 URI  HZ EP   3    345  7.22                              96   -1.20 1  533  16 
 URI  HN ES        346  2.68                              96   -0.01 4  533  16 
 MACC HZ EP   9    345  8.91                              96   -1.46 0  549 185 
 MACC HN ES        346  4.23                              96   -0.48 4  549 185 
 MACC HZ I         346 11.62         6.8 0.28             92            549 185 
 FLO2 HZ EP        345 23.46                              94   -0.29 2  659 203 
                                                                                
