 2012 1228 0603 52.9 L   6.815 -73.134145.5  RSN  8 0.5 1.8LRSN                1
 GAP=184        1.03       5.7     6.8  8.2  0.7824E+01  0.1724E+02  0.2910E+01E
 Epicentro: LOS SANTOS - SANTANDER                                             3
 ACTION:UPD 13-01-04 14:31 OP:ep   STATUS:               ID:20121228060352 L   I
 2012-12-28-0600-00M.COL___243                                                 6
 STAT SP IPHASW D HRMM SECON CODA AMPLIT PERI AZIMU VELO AIN AR TRES W  DIS CAZ7
 BAR2 SZ EP        6 4 12.36                             170   -0.1310 25.2 192 
 BAR2 SZ ES   1    6 4 27.69                             170   -0.11 7 25.2 192 
 BAR2 SZ I         6 4 28.68        30.6 0.20                          25.2 192 
 GIR2 SZ EP   1    6 4 12.37                             168   -0.08 7 29.8 347 
 GIR2 SZ ES   1    6 4 28.18                             168    0.44 7 29.8 347 
 GIR2 SZ I         6 4 29.42         7.9 0.42                          29.8 347 
 BRR  HZ IP     C  6 4 14.17                             152    0.1810 71.5 297 
 BRR  HN ES   1    6 4 31.17                             152    0.70 7 71.5 297 
 BRR  HZ I         6 4 33.65         8.4 0.16                          71.5 297 
 RUS  HZ EP   1    6 4 16.74                             143    0.05 7  102 177 
 RUS  HE ES   1    6 4 35.32                             143    0.03 7  102 177 
 RUS  HZ I         6 4 36.37        12.5 0.26                           102 177 
 PTB  HZ EP   1    6 4 19.16                             132   -0.78 7  149 258 
 PTB  HN ES   1    6 4 40.08                             132   -0.98 7  149 258 
 PTB  HZ I         6 4 41.56         6.4 0.20                           149 258 
 OCA  HN ES   1    6 4 42.14                             130   -0.81 7  159 353 
 ZAR  HZ EP   1    6 4 26.45                             122    1.12 6  205 292 
 ZAR  HN ES   1    6 4 50.53                             122   -0.14 6  205 292 
 ZAR  HZ I         6 4 56.92         6.8 0.42                           205 292 
 HEL  HZ EP   1    6 4 33.63                             115    0.40 6  274 256 
 HEL  HN ES   2    6 5  5.35                             115    0.63 4  274 256 
 HEL  HZ I         6 5 12.84         2.8 0.50                           274 256 
                                                                                
