 2016  428 0927 36.4 L   6.319 -73.571117.7  RSN  5 0.4 1.2LRSN                1
 GAP=102        0.67       4.1     3.9  8.4 -0.2736E+01  0.1685E+02 -0.1426E+02E
 Epicentro: SANTA HELENA DEL OPON - SANTANDER                                  3
 ACTION:UPD 16-05-05 14:24 OP:rebc STATUS:               ID:20160428091744dL   I
 OLDACT:DUP 16-04-28 17:15 OP:dnl  STATUS:               ID:20160428091744dL   3
 2016-04-28-0917-42M.COL___305                                                 6
 STAT SP IPHASW D HRMM SECON CODA AMPLIT PERI AZIMU VELO AIN AR TRES W  DIS CAZ7
 BAR2 EZ EP        927 54.20                             154    0.3810 52.5  55 
 BAR2 EZ ES        928  7.29                             154   -0.1110 52.5  55 
 BAR2 EZ I         928  8.63         5.8 0.24            157           52.5  55 
 RUS  HZ EP   3    927 54.87                             146   -0.46 2 71.7 131 
 RUS  HN ES   2    928  9.59                             146   -0.51 5 71.7 131 
 RUS  HZ I         928 13.55         1.4 0.14            148           71.7 131 
 SPBC HE ES        928 11.95                             139    0.1510 92.4 217 
 SPBC HZ I         928 15.90         4.9 0.38            139           92.4 217 
 PTB  HZ EP        927 56.80                             136   -0.0910  101 284 
 PTB  HN ES   2    928 12.20                             136   -0.67 5  101 284 
 PTB  HZ I         928 13.26         3.0 0.42            137            101 284 
 ZAR  HZ EP   2    928  5.15                             117   -0.78 4  193 312 
 ZAR  HN ES        928 29.15                             117    0.19 9  193 312 
 ZAR  HZ I         928 34.85         2.6 0.10            118            193 312 
                                                                                
