 2011  628 0922  8.2 L   6.755 -73.157144.0  RSN  4 0.4 1.3LRSN                1
 GAP=158        0.66       9.4    16.2 11.8  0.8820E+02 -0.8059E+02 -0.5138E+02E
 Epicentro: LOS SANTOS - SANTANDER                                             3
 ACTION:UP  11-07-14 19:08 OP:ep   STATUS:               ID:20110628092208 L   I
 2011-06-28-0918-52S.COL___140                                                 6
 STAT SP IPHASW D HRMM SECON CODA AMPLIT PERI AZIMU VELO SNR AR TRES W  DIS CAZ7
 BAR2 SZ EP   1    922 27.33                             173    -0.2 7   18 189 
 BAR2 SZ ES   2    922 42.04                             173    -0.5 5   18 189 
 BAR2 SZ I         922 43.41         4.9 0.31                            18 189 
 BRR  HZ EP   1    922 29.07                             152    -0.1 7   73 302 
 BRR  HZ I         922 29.60         7.6 0.10                            73 302 
 BRR  HN ES   2    922 45.99                             152     0.4 5   73 302 
 RUS  HZ EP   2    922 31.24                             145    -0.2 5   96 175 
 RUS  HN ES   2    922 50.09                             145     0.6 5   96 175 
 RUS  HZ I         922 50.81         1.7 0.36                            96 175 
 GRA  SZ EP   2    922 34.09                             135     0.4 5  131  17 
 GRA  SZ I         922 53.80         2.7 0.44                           131  17 
                                                                                
