 2013  928 0638 16.0 L   7.175 -73.060152.1  RSN  8 0.5 2.0LRSN 2.6WRSN        1
 SPEC AVERAGE  MO 13.0 ST153.7 OM  1.4 f0 23.4 R0.1024 AL 0.00 WI 20.0 MW  2.6 3
 SPEC SD       MO  0.1 ST191.8 OM  0.4 f0 11.8 R0.0403 AL      WI      MW  0.0 3
 GAP=126        1.21       6.1     5.8  7.2 -0.1815E+02 -0.1884E+01 -0.1468E+01E
 Epicentro: BUCARAMANGA - SANTANDER                                            3
 SPEC BAR2SH Z MO 12.9 ST 22.9 OM  1.0 f0 16.8 R0.1145 AL-0.00 WI 20.0 MW  2.5 3
 SPEC BAR2SH Z T 63853 K 0.050 GD  165 VS 5.20 DE 3.20 Q0750.0 QA 1.50 VS 5.20 3
 SPEC OCA HH Z MO 13.0 ST 13.3 OM  1.0 f0 13.3 R0.1447 AL-0.00 WI 20.0 MW  2.6 3
 SPEC OCA HH Z T 63859 K 0.050 GD  194 VS 5.20 DE 3.20 Q0750.0 QA 1.50 VS 5.20 3
 SPEC PTB HH Z MO 13.0 ST425.0 OM  1.0 f0 40.0 R0.0481 AL-0.00 WI 20.0 MW  2.6 3
 SPEC PTB HH Z T 639 6 K 0.050 GD  228 VS 5.20 DE 3.20 Q0750.0 QA 1.50 VS 5.20 3
 OLDACT:REG 13-09-28 08:23 OP:stll STATUS:               ID:20130928062836     3
 ACTION:UPD 13-10-22 09:25 OP:ep   STATUS:               ID:20130928063816 L   I
 OLDACT:UP  13-09-28 14:00 OP:stll STATUS:               ID:20130928062836     3
 2013-09-28-0628-36M.COL___247                                                 6
 STAT SP IPHASW D HRMM SECON CODA AMPLIT PERI AZIMU VELO AIN AR TRES W  DIS CAZ7
 PAM  SZ EP        638 37.51                             163    0.1810 43.8  65 
 PAM  SN ES        638 53.70                             163   -0.2710 43.8  65 
 PAM  SZ I         638 56.27        13.6 0.86            165           43.8  65 
 BAR2 SZ EP        638 38.19                             155    0.2810 65.8 192 
 BAR2 SZ ES        638 54.91                             155   -0.0910 65.8 192 
 BAR2 SZ I         638 59.75        16.1 0.44            155           65.8 192 
 BRR  HZ EP        638 38.16                             153    0.2510 72.3 264 
 BRR  HZ I         638 38.71        21.1 0.16            154           72.3 264 
 BRR  HE ES        638 55.17                             153    0.1810 72.3 264 
 CCUC3EZ EP        638 40.30                             145    0.7010 98.4  38 
 CCUC3EN ES        638 58.00                             145    0.0010 98.4  38 
 CAPV BZ EP        638 41.06                             142    0.2010  112  47 
 OCA  HZ EP        638 41.97                             139    0.5310  121 346 
 OCA  HE ES        639  0.78                             139   -0.5010  121 346 
 OCA  HZ I         639  2.58        18.4 0.16            143            121 346 
 PTB  HZ EP        638 45.27                             129   -0.22 9  170 246 
 PTB  HN ES        639  7.96                             129   -0.54 9  170 246 
 PTB  HZ I         639 11.07        12.6 0.20            131            170 246 
 SOCV BZ EP        638 54.69                             116   -1.45 8  272  63 
                                                                                
