 2015  928 1002 36.7 L   7.461 -73.179132.3  RSN  6 0.4 1.8LRSN                1
 GAP=190        0.85       3.7     5.8  8.0 -0.6334E+01  0.6180E+01  0.2868E+01E
 Epicentro: EL PLAYON - SANTANDER                                              3
 ACTION:UPD 15-10-28 16:28 OP:cam  STATUS:               ID:20150928095749dL   I
 OLDACT:UPD 15-09-28 21:29 OP:nlst STATUS:               ID:20150928095748 L   3
 2015-09-28-0957-48M.COL___352                                                 6
 STAT SP IPHASW D HRMM SECON CODA AMPLIT PERI AZIMU VELO AIN AR TRES W  DIS CAZ7
 BRR  HZ EP   2   10 2 56.55                             150    0.22 5 70.7 236 
 BRR  HN ES   2   10 3 11.83                             150    0.15 5 70.7 236 
 BRR  HZ I        10 3 13.94        11.1 0.26            151           70.7 236 
 OCA  HZ EP       10 2 58.06                             145    0.4110 87.4 350 
 OCA  HN ES       10 3 14.14                             145    0.1110 87.4 350 
 OCA  HZ I        10 3 16.49        16.7 0.50            146           87.4 350 
 BAR2 EZ EP   2   10 2 58.57                             142    0.16 5 96.1 180 
 BAR2 EZ ES   2   10 3 14.96                             142   -0.41 5 96.1 180 
 BAR2 EZ I        10 3 15.77        13.6 0.14            146           96.1 180 
 PTB  HZ EP       10 3  5.01                             124   -0.14 9  174 234 
 PTB  HN ES       10 3 26.93                             124   -0.45 9  174 234 
 PTB  HZ I        10 3 28.85         5.1 0.18            126            174 234 
 SML  HZ EP       10 3  5.25                             123   -0.25 9  178 326 
 SML  HE ES       10 3 27.35                             123   -0.66 9  178 326 
 SML  HZ I        10 3 30.52        10.3 0.30            125            178 326 
 ZAR  HZ EP       10 3  6.47                             122    0.17 9  185 271 
 ZAR  HE ES       10 3 30.07                             122    0.65 9  185 271 
 ZAR  HZ I        10 3 33.03         5.7 0.36            124            185 271 
                                                                                
