 2015  328 0826 16.7 L   6.828 -73.154139.0  RSN 20 0.4 2.3LRSN                1
 GAP= 70        1.02       2.4     2.7  4.6 -0.8697E+00  0.3782E+01  0.6960E+00E
 Epicentro: LOS SANTOS - SANTANDER                                             3
 ACTION:UPD 15-04-30 16:30 OP:nd   STATUS:               ID:20150328082616 L   I
 OLDACT:REG 15-03-28 13:40 OP:fm   STATUS:               ID:20150328081741     3
 2015-03-28-0817-41M.COL___275                                                 6
 STAT SP IPHASW D HRMM SECON CODA AMPLIT PERI AZIMU VELO AIN AR TRES W  DIS CAZ7
 BAR2 EZ EP        826 35.76                             169    0.1710 26.2 187 
 BAR2 EZ ES        826 50.05                             169   -0.2610 26.2 187 
 BAR2 EZ I         826 53.55        37.7 0.14            169           26.2 187 
 BRR  HZ EP        826 37.39                             152    0.3910 68.9 297 
 BRR  HE ES        826 53.07                             152    0.2510 68.9 297 
 BRR  HZ I         826 58.47        43.2 0.22            152           68.9 297 
 PAM  SZ EP     D  826 38.52                             150    0.4210 75.7  42 
 PAM  SN ES        826 54.74                             150   -0.0510 75.7  42 
 PAM  SZ I         826 57.10        31.0 0.34            153           75.7  42 
 RUS  HZ EP        826 39.89                             141   -0.1510  104 176 
 RUS  HN ES        826 57.87                             141   -0.3610  104 176 
 RUS  HZ I         827  0.41        28.2 0.46            144            104 176 
 PTB  HZ EP        826 42.28                             130   -0.82 9  147 258 
 PTB  HE ES        827  4.20                             130    0.51 9  147 258 
 PTB  HZ I         827  7.30        45.2 0.10            131            147 258 
 TAM  HZ IP     D  826 44.07                             129    0.05 9  157 106 
 TAM  HE ES        827  5.31                             129   -0.02 9  157 106 
 TAM  HZ I         827  6.36        10.4 0.22            133            157 106 
 OCA  HZ EP        826 43.96                             129   -0.24 9  157 353 
 OCA  HE ES        827  6.35                             129    0.71 9  157 353 
 OCA  HZ I         827 12.36        38.7 0.30            131            157 353 
 SPBC HZ IP     D  826 44.79                             127   -0.08 9  165 218 
 SPBC HE ES        827  6.06                             127   -0.78 9  165 218 
 SPBC HZ I         827  9.76        36.7 0.34            129            165 218 
 ZAR  HZ EP        826 48.69                             121    0.18 9  202 291 
 ZAR  HN ES        827 13.29                             121   -0.02 9  202 291 
 ZAR  HZ I         827 19.30        40.8 0.42            122            202 291 
 NOR  HZ EP        826 52.19                             117    0.02 8  236 234 
 NOR  HE ES        827 19.50                             117   -0.32 8  236 234 
 NOR  HZ I         827 24.93        19.3 0.34            119            236 234 
 SML  HZ EP        826 51.90                             116   -0.71 8  241 335 
 SML  HE ES        827 19.91                             116   -0.71 8  241 335 
 SML  HZ I         827 27.47        30.7 0.22            118            241 335 
 ROSC BZ EP        826 55.74                             115    1.03 8  255 210 
 ROSC BN ES        827 24.71                             115    0.37 8  255 210 
 ROSC BZ I         827 30.69        17.7 0.40            117            255 210 
 HEL  HZ EP        826 56.75                             113    0.18 8  272 255 
 HEL  HN ES        827 27.68                             113    0.02 8  272 255 
 HEL  HZ I         827 35.52        12.4 0.42            115            272 255 
 URE  HZ EP        826 56.70                             112   -0.53 7  282 291 
 URE  HE ES   4    827 26.40                             112   -2.43 0  282 291 
 URE  HZ I         827 30.03        15.7 0.14            114            282 291 
 GUY2CHZ EP        827  0.44                             111    0.31 7  302 234 
 GUY2CHE ES        827 34.21                             111    0.22 7  302 234 
 GUY2CHZ I         827 43.97        12.0 0.60                           302 234 
 PTGC HZ EP   4    826 58.99                             110   -1.65 0  312 159 
 PTGC HE ES   4    827 31.48                             110   -3.42 0  312 159 
 PTGC HZ I         827 39.76         9.7 0.42            112            312 159 
 CBOC HZ EP        827  3.54                             109    0.18 7  334 252 
 CBOC HN ES   4    827 37.04                             109   -2.70 0  334 252 
 CBOC HZ I         827 43.04         3.2 0.16            110            334 252 
 MON  HZ EP   4    827  1.35                             107   -3.80 0  351 308 
 MON  HE ES   4    827 41.43                             107   -1.50 0  351 308 
 MON  HZ I         827 45.45         5.7 0.72            109            351 308 
 SDV  BE ES   4    827 41.12                             107   -3.96 0  359  51 
 SDV  BZ I         827 44.90         4.3 0.30            109            359  51 
 ORTC HZ EP        827 10.25                             105   -0.38 6  397 216 
 ORTC HN ES        827 53.29                             105    0.60 6  397 216 
 ORTC HZ I         827 59.96         4.6 0.24            107            397 216 
                                                                                
