 2010  928 0244  4.0 L   6.826 -73.001140.5  RSN  5 0.6 1.9LRSN                1
 GAP=181        1.54      10.6    20.9 18.8  0.9212E+02 -0.2344E+03 -0.6455E+02E
 Epicentro: CEPITA - SANTANDER                                                 3
 ACTION:UP  11-02-18 11:06 OP:tino STATUS:               ID:20100928024404 L   I
 2010-09-28-0238-09S.COL___122                                                 6
 STAT SP IPHASW D HRMM SECON CODA AMPLIT PERI AZIMU VELO SNR AR TRES W  DIS CAZ7
 BAR2 SZ EP        244 23.47                             167     0.210   33 218 
 BAR2 SZ ES   2    244 38.56                             167     0.3 5   33 218 
 BAR2 SZ I         244 39.56        49.5 0.18                            33 218 
 GIR2 SZ EP        244 21.99                             165    -1.210   35 323 
 GIR2 SZ ES   2    244 37.60                             165    -0.5 5   35 323 
 BRR  HZ EP        244 25.21                             147    -0.210   85 292 
 BRR  HN ES        244 42.45                             147     0.310   85 292 
 RUS  HZ EP        244 27.60                             142     0.110  104 185 
 RUS  HN ES   1    244 45.96                             142     0.2 7  104 185 
 RUS  HZ I         244 47.28        12.7 0.30                           104 185 
 GUE  SZ EP        244 28.61                             140     0.810  111   4 
 GUE  SZ I         244 29.45         3.9 0.13                           111   4 
                                                                                
