 2010  828 0644 45.5 L   6.768 -73.089146.0  RSN  4 0.1 1.7LRSN                1
 GAP=194        0.39       5.2     5.7  4.8  0.5427E+01 -0.1259E+02 -0.1103E+02E
 Epicentro: LOS SANTOS - SANTANDER                                             3
 ACTION:UP  10-09-07 10:58 OP:vdl  STATUS:               ID:20100828064445 L   I
 2010-08-28-0641-45S.COL___119                                                 6
 STAT SP IPHASW D HRMM SECON CODA AMPLIT PERI AZIMU VELO SNR AR TRES W  DIS CAZ7
 BAR2 SZ IP        645  5.25                             171     0.110   22 208 
 BAR2 SZ ES   1    645 20.44                             171     0.0 7   22 208 
 BAR2 SZ I         645 21.25        10.2 0.22                            22 208 
 BTL  SZ IP        645  5.30                             169     0.010   26 310 
 BTL  SZ ES   2    645 20.41                             169    -0.2 5   26 310 
 BRR  HZ IP     C  645  6.99                             150    -0.110   78 299 
 BRR  HZ I         645  7.22        20.0 0.15                            78 299 
 BRR  HN ES   1    645 24.14                             150     0.2 7   78 299 
 GRA  SZ IP        645 10.96                             137     0.010  127  14 
 GRA  SZ I         645 33.32         3.6 0.41                           127  14 
                                                                                
