 2012  328 0229 36.6 L   6.742 -73.163145.4  RSN  8 0.4 2.1LRSN                1
 GAP=137        0.89       5.0     5.5  6.9 -0.2264E+00  0.9535E+01 -0.6354E+01E
 ACTION:UP  12-03-31 23:23 OP:EP   STATUS:               ID:20120328022936 L   I
 2012-03-28-0228-08M.COL___181                                                 6
 STAT SP IPHASW D HRMM SECON CODA AMPLIT PERI AZIMU VELO SNR AR TRES W  DIS CAZ7
 BAR2 SZ IP     C  229 56.07                             173     0.010   17 188 
 BAR2 SZ I         229 56.17        26.1 0.20                            17 188 
 BAR2 SZ ES   1    230 11.21                             173     0.0 7   17 188 
 BRR  HZ IP     D  229 58.15                             152     0.410   73 304 
 BRR  HZ I         230  0.58        31.7 0.12                            73 304 
 BRR  HN ES   1    230 15.07                             152     0.7 7   73 304 
 PAM  SZ EP        229 59.19                             149     0.110   84  38 
 PAM  SN ES   1    230 16.11                             149    -0.6 7   84  38 
 RUS  HZ EP        229 59.87                             146     0.010   94 175 
 RUS  HN ES   1    230 18.08                             146     0.1 7   94 175 
 RUS  HZ I         230 19.71        14.4 0.36                            94 175 
 PTB  HZ EP        230  2.90                             133    -0.4 9  145 261 
 PTB  HN ES   2    230 22.91                             133    -1.1 5  145 261 
 PTB  HZ I         230 28.95         9.5 0.70                           145 261 
 OCA  SZ EP        230  5.37                             128    -0.1 9  166 354 
 ZAR  HZ EP        230  9.25                             122     0.2 9  205 294 
 ZAR  HN ES   2    230 34.27                             122    -0.2 4  205 294 
 ZAR  HZ I         230 40.20        16.1 0.34                           205 294 
 NOR  SZ EP   3    230 11.23                             119    -0.5 2  229 235 
                                                                                
