 2012  728 0612  1.9 L   6.769 -73.164128.3  RSN  4 0.3 1.1LRSN                1
 GAP=233        0.37      12.8     9.7 24.4  0.3754E+02  0.3314E+01 -0.2382E+03E
 Epicentro: LOS SANTOS - SANTANDER                                             3
 ACTION:UPD 12-08-14 11:46 OP:ep   STATUS:               ID:20120728061201 L   I
 2012-07-28-0610-00M.COL___215                                                 6
 STAT SP IPHASW D HRMM SECON CODA AMPLIT PERI AZIMU VELO AIN AR TRES W  DIS CAZ7
 BAR2 SZ EP   2    612 19.23                             170    -0.1 5   20 186 
 BAR2 SZ I         612 19.43         3.6 0.20            168             20 186 
 BRR  HZ EP   3    612 21.53                             149     0.3 2   71 302 
 RUS  HZ EP   3    612 23.45                             140    -0.3 2   97 175 
 RUS  HN ES   2    612 40.85                             140     0.1 5   97 175 
 RUS  HZ I         612 42.71         2.6 0.32            143             97 175 
 PTB  HZ EP   3    612 27.67                             128     0.4 2  145 260 
 PTB  HN ES   3    612 46.65                             128    -0.4 2  145 260 
 PTB  HZ I         612 49.68         1.8 0.16            130            145 260 
