 2014  628 0658 16.6 L   6.800 -73.173144.7  RSN  4 0.3 1.0LRSN                1
 GAP=242        0.85       8.7     6.5  8.1  0.3723E+02  0.5361E+01 -0.1177E+02E
 Epicentro: LOS SANTOS - SANTANDER                                             3
 ACTION:UPD 14-07-01 22:57 OP:nd   STATUS:               ID:20140628065816 L   I
 OLDACT:REG 14-06-28 13:46 OP:spq  STATUS:               ID:20140628064816     3
 2014-06-28-0648-16M.COL___246                                                 6
 STAT SP IPHASW D HRMM SECON CODA AMPLIT PERI AZIMU VELO AIN AR TRES W  DIS CAZ7
 BAR2 SZ EP        658 36.14                             170    0.0310 23.0 182 
 BAR2 SZ ES        658 51.03                             170   -0.2910 23.0 182 
 BAR2 SZ I         658 52.51         2.6 0.14            168           23.0 182 
 RUS  HZ EP        658 40.50                             143    0.2210  101 174 
 RUS  HN ES        658 59.03                             143    0.2910  101 174 
 RUS  HZ I         658 59.75         0.9 0.32            145            101 174 
 PTB  HZ EP        658 42.66                             132   -0.57 9  145 259 
 PTB  HE ES        659  3.84                             132   -0.14 9  145 259 
 PTB  HZ I         659  9.94         1.7 0.60            130            145 259 
 ZAR  HE ES        659 14.23                             122    0.50 9  201 292 
 ZAR  HZ I         659 20.49         1.5 0.18            122            201 292 
                                                                                
