 2013  828 0744 40.5 L   6.817 -73.149147.1  RSN  7 0.4 1.4LRSN                1
 GAP=201        0.82       3.6     4.8  6.1  0.3484E+01  0.1714E+01 -0.6032E+01E
 Epicentro: LOS SANTOS - SANTANDER                                             3
 ACTION:UPD 14-01-14 09:07 OP:ep   STATUS:               ID:20130828074440 L   I
 OLDACT:DUP 13-08-28 13:41 OP:nd   STATUS:               ID:20130828073901d    3
 2013-08-28-0739-59M.COL___270                                                 6
 STAT SP IPHASW D HRMM SECON CODA AMPLIT PERI AZIMU VELO AIN AR TRES W  DIS CAZ7
 BAR2 SZ EP        745  0.37                             170    0.0910 25.1 189 
 BAR2 SZ ES        745 15.81                             170    0.0610 25.1 189 
 BAR2 SZ I         745 16.69         2.7 0.16            167           25.1 189 
 BRR  HZ EP        745  2.35                             153    0.6610 70.0 297 
 BRR  HN ES   2    745 18.36                             153    0.12 5 70.0 297 
 BRR  HZ I         745 21.98         3.1 0.14            150           70.0 297 
 RUS  HZ EP        745  4.48                             144    0.0010  102 176 
 RUS  HN ES   2    745 22.48                             144   -0.73 5  102 176 
 RUS  HZ I         745 24.71         1.0 0.36            145            102 176 
 PTB  HZ EP        745  7.20                             132   -0.34 9  148 258 
 PTB  HN ES        745 28.14                             132   -0.52 9  148 258 
 PTB  HZ I         745 33.45         2.7 0.20            131            148 258 
 SPBC HZ EP        745  9.28                             129    0.10 9  164 218 
 SPBC HN ES        745 31.78                             129    0.20 9  164 218 
 SPBC HZ I         745 37.69         3.5 0.26            129            164 218 
 ZAR  HZ EP        745 13.03                             123    0.14 9  203 292 
 ZAR  HN ES        745 38.48                             123    0.30 9  203 292 
 ZAR  HZ I         745 45.58         3.2 0.26            123            203 292 
 SML  HN EP        745 16.44                             118   -0.52 8  242 335 
 SML  HZ EP        745 17.57                                            242 335 
 SML  HE ES        745 45.19                             118   -0.24 8  242 335 
 SML  HZ I         745 47.50         2.2 0.10            120            242 335 
 SML  HN I         745 55.39         4.4 0.10                           242 335 
                                                                                
