 2016  128 0716  7.5 L   6.845 -73.199142.2  RSN  7 0.4 1.2LRSN                1
 GAP=128        1.08       3.5     5.4  7.1 -0.3632E+01  0.1262E+02 -0.2207E+01E
 Epicentro: ZAPATOCA - SANTANDER                                               3
 ACTION:UPD 16-03-09 23:29 OP:cam  STATUS:               ID:20160128071607 L   I
 OLDACT:REG 16-01-28 13:55 OP:cara STATUS:               ID:20160128070735     3
 2016-01-28-0707-35M.COL___327                                                 6
 STAT SP IPHASW D HRMM SECON CODA AMPLIT PERI AZIMU VELO AIN AR TRES W  DIS CAZ7
 BAR2 EZ EP        716 27.03                             168    0.2210 28.1 176 
 BAR2 EZ ES        716 41.93                             168    0.0610 28.1 176 
 BAR2 EZ I         716 43.16         3.3 0.14            170           28.1 176 
 PAM  EZ EP        716 30.10                             150    0.7510 77.7  45 
 PAM  EN ES        716 46.32                             150   -0.0710 77.7  45 
 PAM  EZ I         716 49.57         3.1 0.34            153           77.7  45 
 RUS  HZ EP        716 31.10                             141   -0.2210  106 173 
 RUS  HE ES        716 49.45                             141   -0.4410  106 173 
 RUS  HZ I         716 50.64         1.8 0.36            145            106 173 
 PTB  HZ EP        716 34.28                             132    0.53 9  143 256 
 PTB  HN ES        716 54.59                             132    0.37 9  143 256 
 PTB  HZ I         716 57.25         1.9 0.28            133            143 256 
 SPBC HZ EP        716 36.17                             128    0.41 9  164 216 
 SPBC HN ES        716 57.34                             128   -0.47 9  164 216 
 SPBC HZ I         717  4.95         1.9 0.36            130            164 216 
 SML  HZ EP        716 42.31                             117   -0.86 8  237 336 
 SML  HN ES        717 10.50                             117   -0.48 8  237 336 
 SML  HZ I         717 16.21         2.2 0.10            119            237 336 
 CHI  HZ EP        716 45.14                             116   -0.24 8  252 194 
 CHI  HN ES        717 14.85                             116   -0.07 8  252 194 
                                                                                
