 2011  528 0329  2.8 L   6.140 -73.863 88.9  RSN  4 0.1 1.3LRSN                1
 GAP=133        0.34       2.7     2.5  6.9 -0.2082E+01  0.5803E+01  0.2123E+01E
 Epicentro: EL PEON - SANTANDER                                                3
 ACTION:UP  11-06-29 08:56 OP:tino STATUS:               ID:20110528032902 L   I
 2011-05-28-0328-08S.COL___115                                                 6
 STAT SP IPHASW D HRMM SECON CODA AMPLIT PERI AZIMU VELO SNR AR TRES W  DIS CAZ7
 BAR2 SZ EP        329 20.26                             131     0.110   90  56 
 BAR2 SZ ES   1    329 33.69                             131    -0.1 7   90  56 
 BAR2 SZ I         329 35.72        14.7 0.32                            90  56 
 RUS  HZ EP   1    329 20.67                             131     0.1 7   91 108 
 RUS  HZ I         329 21.26         1.5 0.10                            91 108 
 RUS  HE ES   2    329 34.31                             131    -0.1 5   91 108 
 BRR  HZ EP   2    329 21.40                             125    -0.2 5  108   9 
 BRR  HZ I         329 22.67         6.2 0.61                           108   9 
 BRR  HE ES   2    329 36.44                             125     0.1 5  108   9 
 NOR  SZ EP   2    329 23.62                             120    -0.2 5  128 240 
 NOR  SN ES   2    329 40.24                             120     0.1 5  128 240 
                                                                                
