 2017  328 0350 49.4 L   6.754 -73.180150.0  RSN  4 0.2 0.9LRSN                1
 GAP=230        0.41       9.8     5.5  5.0  0.1051E+02  0.5620E+01 -0.7876E+01E
 Epicentro: LOS SANTOS - SANTANDER                                             3
 ACTION:UPD 17-05-25 18:46 OP:jn   STATUS:               ID:20170328035049 L   I
 OLDACT:REG 17-03-28 12:35 OP:and  STATUS:               ID:20170328034740     3
 2017-03-28-0348-00M.COL___360                                                 6
 STAT SP IPHASW D HRMM SECON CODA AMPLIT PERI AZIMU VELO AIN AR TRES W  DIS CAZ7
 BAR2 EZ EP        351  9.25                             173   -0.2210 17.9 181 
 BAR2 EZ ES        351 25.24                             173    0.1310 17.9 181 
 BRR  HZ EP   2    351 11.23                             153    0.23 5 70.6 304 
 RUS  HZ EP   2    351 13.36                             146    0.09 5 95.8 174 
 RUS  HN ES   3    351 31.89                             146    0.03 2 95.8 174 
 PTB  HZ EP   2    351 16.53                             134    0.20 5  143 261 
 PTB  HN ES   2    351 37.14                             134   -0.18 5  143 261 
 PTB  HZ I         351 42.97         0.9 0.30            129            143 261 
                                                                                
