 2012 1128 0427 22.1 L   6.829 -73.163143.6  RSN  6 0.3 1.8LRSN                1
 GAP=133        0.82       3.5     3.8  6.0  0.1897E+00  0.6521E+01  0.3881E+01E
 Epicentro: LOS SANTOS - SANTANDER                                             3
 ACTION:UPD 12-12-05 15:36 OP:}ep  STATUS:               ID:20121128042722 L   I
 2012-11-28-0420-00M.COL___234                                                 6
 STAT SP IPHASW D HRMM SECON CODA AMPLIT PERI AZIMU VELO AIN AR TRES W  DIS CAZ7
 BAR2 SZ EP        427 41.27                             169   -0.2710 26.2 185 
 BAR2 SZ ES        427 56.58                             169   -0.1210 26.2 185 
 BAR2 SZ I         427 58.93        15.5 0.22                          26.2 185 
 PAM  SZ EP        427 44.58                             151    0.5510 76.3  42 
 PAM  SN ES        428  0.98                             151   -0.1410 76.3  42 
 PAM  SN I         428  2.73        11.2 0.70                          76.3  42 
 RUS  HZ EP        427 45.69                             142   -0.2010  104 175 
 RUS  HN ES        428  4.63                             142    0.1910  104 175 
 RUS  HN I         428  5.89         6.5 0.36                           104 175 
 PTB  HZ EP        427 48.36                             132   -0.43 9  146 257 
 PTB  HN ES        428  9.46                             132   -0.13 9  146 257 
 PTB  HN I         428 13.56         6.8 0.22                           146 257 
 ZAR  HN ES        428 19.47                             122    0.41 9  201 292 
 ZAR  HN I         428 25.34         6.8 0.46                           201 292 
 CHI  HZ EP        427 59.75                             116   -0.22 8  251 195 
 CHI  HN ES        428 30.01                             116    0.51 8  251 195 
 CHI  HN I         428 31.67         5.0 0.36                           251 195 
                                                                                
