 2014  428 0006 53.4 L   6.838 -73.191137.7  RSN  5 0.2 1.2LRSN                1
 GAP=129        0.47       3.7     2.5  5.5 -0.7189E+00  0.2488E+01  0.3714E+01E
 Epicentro: ZAPATOCA - SANTANDER                                               3
 ACTION:UPD 14-05-13 23:11 OP:nd   STATUS:               ID:20140428000653 L   I
 OLDACT:DUP 14-04-28 13:23 OP:mh   STATUS:               ID:20140428000003d    3
 2014-04-28-0000-02M.COL___248                                                 6
 STAT SP IPHASW D HRMM SECON CODA AMPLIT PERI AZIMU VELO AIN AR TRES W  DIS CAZ7
 BRR  HZ EP   1    0 7 13.37                             153    0.08 8 64.8 297 
 BRR  HZ I         0 7 24.66         4.2 0.31            150           64.8 297 
 BRR  HN ES   1    0 7 28.53                             153   -0.29 8 64.8 297 
 PAM  SZ EP   1    0 7 14.92                             149    0.18 8 77.6  44 
 PAM  SN ES   1    0 7 31.47                             149    0.05 8 77.6  44 
 PAM  SZ I         0 7 34.19         3.4 0.49            144           77.6  44 
 RUS  HZ EP   2    0 7 16.44                             141   -0.25 5  105 173 
 RUS  HN ES   2    0 7 34.85                             141   -0.03 5  105 173 
 PTB  HZ EP        0 7 19.13                             131   -0.1910  144 257 
 PTB  HN ES        0 7 39.88                             131    0.3210  144 257 
 PTB  HZ I         0 7 43.37         2.1 0.20            128            144 257 
 ZAR  HN ES     C  0 7 48.97                             121   -0.08 9  198 292 
                                                                                
