 2014  928 0619 12.5 L   6.859 -73.286128.8  RSN 10 0.4 1.5LRSN                1
 GAP=160        0.94       3.1     5.1  6.8 -0.9806E-01  0.5903E+01 -0.2935E+01E
 Epicentro: BETULIA - SANTANDER                                                3
 ACTION:UPD 14-10-03 23:09 OP:nd   STATUS:               ID:20140928061912 L   I
 OLDACT:REG 14-09-28 13:29 OP:spq  STATUS:               ID:20140928061820     3
 2014-09-28-0618-20M.COL___295                                                 6
 STAT SP IPHASW D HRMM SECON CODA AMPLIT PERI AZIMU VELO AIN AR TRES W  DIS CAZ7
 BAR2 SZ EP     D  619 30.78                             165    0.4610 31.7 159 
 BAR2 SZ ES   1    619 44.30                             165    0.08 7 31.7 159 
 BAR2 SZ I         619 45.27        20.6 0.22            169           31.7 159 
 BRR  HZ EP        619 31.13                             156    0.2310 54.4 300 
 BRR  HN ES        619 45.27                             156    0.0310 54.4 300 
 BRR  HZ I         619 47.00         6.0 0.21            155           54.4 300 
 RUS  HN ES   1    619 52.93                             137   -0.19 7  109 168 
 RUS  HZ I         619 54.40         2.0 0.40            141            109 168 
 PTB  HZ EP        619 35.98                             131   -0.8810  134 255 
 PTB  HE ES   1    619 55.34                             131   -0.51 7  134 255 
 PTB  HZ I         619 57.80         3.6 0.16            132            134 255 
 OCA  HZ EP   1    619 38.77                             127   -0.03 7  153 359 
 OCA  HN ES        619 58.92                             127   -0.39 9  153 359 
 OCA  HZ I         620  4.04         5.6 0.18            128            153 359 
 SPBC HZ EP        619 39.82                             126    0.44 9  159 213 
 SPBC HE ES        620  0.22                             126   -0.11 9  159 213 
 SPBC HZ I         620  1.87         4.3 0.22            128            159 213 
 ZAR  HZ EP   1    619 42.35                             121    0.23 7  187 292 
 ZAR  HN ES        620  5.79                             121    0.58 9  187 292 
 ZAR  HZ I         620  8.63         3.1 0.26            122            187 292 
 SML  HZ EP   1    619 46.47                             115   -0.42 6  232 338 
 SML  HE ES   1    620 13.91                             115    0.21 6  232 338 
 SML  HZ I         620 17.53         7.2 0.10            116            232 338 
 GUY2CHN ES   4    620 25.90                             109   -1.18 0  293 232 
 GUY2CHZ I         620 32.91         0.8 0.40                           293 232 
 MON  HZ EP   4    619 57.46                             106   -1.54 0  337 309 
 MON  HN ES   4    620 33.27                             106   -1.99 0  337 309 
 MON  HZ I         620 36.49         0.7 0.41            107            337 309 
                                                                                
