 2010  428 0631 33.4 L   6.819 -72.960144.9  RSN  4 0.2 1.9LRSN                1
 GAP=226        0.43       5.0     8.6  6.3  0.1712E+02 -0.1786E+02 -0.5649E+01E
 Epicentro: CEPITA - SANTANDER                                                 3
 ACTION:UPD 10-08-24 10:01 OP:vdl  STATUS:               ID:20100428063134 L   I
 2010-04-28-0628-54S.COL___104                                                 6
 STAT SP IPHASW D HRMM SECON CODA AMPLIT PERI AZIMU VELO AIN AR TRES W  DIS CAZ7
 BAR2 SZ IP        631 53.26                             165     0.110   35 224 
 BAR2 SZ ES   1    632  8.47                             165    -0.2 7   35 224 
 BRR  HZ EP   1    631 55.77                             146     0.2 7   89 291 
 BRR  HN ES   1    632 12.82                             146     0.0 7   89 291 
 BRR  HZ I         632 16.66        16.1 0.27                            89 291 
 OCA  SZ ES   2    632 23.59                             129    -0.3 5  162 346 
 PRA  HZ EP   3    632 28.07                             105    -0.2 1  404 212 
 PRA  HZ I         632 49.87         1.8 0.23                           404 212 
 PRA  HE ES   3    633 10.28                             105    -0.9 1  404 212 
                                                                                
