 2012  728 0313 43.7 L   6.682 -73.154152.7  RSN  4 0.4 1.6LRSN                1
 GAP=228        0.57      10.2    10.2 10.4  0.1665E+02 -0.2772E+02  0.8544E+01E
 Epicentro: VILLANUEVA - SANTANDER                                             3
 ACTION:UPD 12-08-14 11:45 OP:ep   STATUS:               ID:20120728031343 L   I
 2012-07-28-0310-00M.COL___215                                                 6
 STAT SP IPHASW D HRMM SECON CODA AMPLIT PERI AZIMU VELO AIN AR TRES W  DIS CAZ7
 BAR2 SZ EP   3    314  3.93                             176    -0.1 2   10 197 
 BAR2 SZ ES   3    314 19.89                             176     0.0 2   10 197 
 BRR  HZ EP        314  6.24                             151     0.210   78 307 
 BRR  HE ES   1    314 23.05                             151    -0.3 7   78 307 
 BRR  HZ I         314 25.75         7.8 0.14            143             78 307 
 RUS  HZ EP   3    314  5.98                             148    -1.3 2   88 175 
 RUS  HN ES   3    314 26.33                             148     0.6 2   88 175 
 PTB  HZ EP   3    314 11.03                             134     0.0 2  145 264 
 PTB  HN ES   2    314 32.21                             134    -0.1 5  145 264 
 PTB  HZ I         314 39.51         4.2 0.42            127            145 264 
