 2015 1128 0758 10.2 L   6.780 -73.164147.2  RSN  7 0.4 1.7LRSN                1
 GAP=135        0.97       4.0     4.3  6.5  0.2039E+01  0.4936E+01 -0.5321E+01E
 Epicentro: LOS SANTOS - SANTANDER                                             3
 ACTION:UPD 15-12-28 16:13 OP:cam  STATUS:               ID:20151128075810 L   I
 OLDACT:REG 15-11-28 12:30 OP:drio STATUS:               ID:20151128074737     3
 2015-11-28-0747-37M.COL___304                                                 6
 STAT SP IPHASW D HRMM SECON CODA AMPLIT PERI AZIMU VELO AIN AR TRES W  DIS CAZ7
 BAR2 EZ EP        758 30.13                             172    0.1710 20.9 186 
 BAR2 EZ ES        758 44.77                             172   -0.6110 20.9 186 
 BAR2 EZ I         758 47.04         8.5 0.34            172           20.9 186 
 BRR  HZ EP     C  758 32.00                             153    0.5310 70.5 301 
 BRR  HN ES        758 48.83                             153    0.7710 70.5 301 
 BRR  HZ I         758 53.45         6.3 0.12            150           70.5 301 
 PAM  EZ EP        758 32.87                             150    0.1210 80.4  40 
 PAM  EN ES        758 50.21                             150   -0.1310 80.4  40 
 PAM  EZ I         758 52.43         4.5 0.48            153           80.4  40 
 RUS  HZ EP        758 34.21                             145    0.2510 98.6 175 
 RUS  HN ES        758 52.26                             145   -0.2210 98.6 175 
 RUS  HZ I         758 53.97         5.0 0.28            149           98.6 175 
 PTB  HZ EP        758 36.83                             133   -0.25 9  145 260 
 PTB  HE ES        758 58.01                             133   -0.02 9  145 260 
 PTB  HZ I         759  3.85         5.6 0.48            133            145 260 
 ZAR  HZ EP   4    758 43.94                             123    1.30 0  203 293 
 ZAR  HN ES        759  7.58                             123   -0.36 9  203 293 
 ZAR  HZ I         759 15.19         7.7 0.34            123            203 293 
 SML  HZ EP        758 46.67                             118   -0.37 8  245 336 
 SML  HN ES        759 15.53                             118   -0.23 8  245 336 
 SML  HZ I         759 20.57         7.1 0.26            119            245 336 
                                                                                
