 2014  928 0747 37.0 L   6.797 -73.150144.7  RSN 11 0.4 1.6LRSN                1
 GAP=136        0.96       3.3     4.2  6.6 -0.1069E+01  0.3863E+01  0.3892E+01E
 Epicentro: LOS SANTOS - SANTANDER                                             3
 ACTION:UPD 14-10-03 23:09 OP:nd   STATUS:               ID:20140928074737 L   I
 OLDACT:REG 14-09-28 13:44 OP:spq  STATUS:               ID:20140928073821     3
 2014-09-28-0738-21M.COL___295                                                 6
 STAT SP IPHASW D HRMM SECON CODA AMPLIT PERI AZIMU VELO AIN AR TRES W  DIS CAZ7
 BAR2 SZ EP        747 56.58                             171    0.0510 22.9 189 
 BAR2 SZ ES   1    748 11.22                             171   -0.51 7 22.9 189 
 BAR2 SZ I         748 12.97         7.5 0.16            169           22.9 189 
 BRR  HZ EP     C  747 58.31                             152    0.2510 71.0 299 
 BRR  HN ES        748 15.28                             152    0.8310 71.0 299 
 BRR  HZ I         748 18.73         5.3 0.20            152           71.0 299 
 PAM  SZ EP        747 59.51                             150    0.3410 78.0  40 
 PAM  SE ES   1    748 16.03                             150   -0.40 7 78.0  40 
 PAM  SZ I         748 18.45         6.5 0.48            154           78.0  40 
 RUS  HZ EP   1    748  0.74                             144    0.08 7  100 176 
 RUS  HN ES   1    748 18.66                             144   -0.42 7  100 176 
 RUS  HZ I         748 21.02         4.9 0.16            145            100 176 
 PTB  HZ EP        748  3.24                             132   -0.63 9  147 259 
 PTB  HN ES        748 24.33                             132   -0.47 9  147 259 
 PTB  HZ I         748 26.74         4.4 0.46            132            147 259 
 OCA  HN ES   1    748 27.07                             129   -0.26 7  161 353 
 OCA  HZ I         748 29.68         4.1 0.36            131            161 353 
 SPBC HZ EP        748  5.86                             129    0.46 9  163 219 
 SPBC HN ES        748 28.00                             129    0.48 9  163 219 
 SPBC HZ I         748 35.50         4.9 0.14            129            163 219 
 ZAR  HN ES        748 34.36                             122   -0.25 9  204 292 
 ZAR  HZ I         748 40.66         4.5 0.34            123            204 292 
 SML  HE ES   1    748 41.82                             117   -0.33 6  244 335 
 SML  HZ I         748 45.82         5.1 0.10            119            244 335 
 CHI  HZ EP   1    748 14.37                             117   -0.25 6  248 195 
 CHI  HN ES   1    748 43.59                             117   -0.35 6  248 195 
 CHI  HZ I         748 51.27         1.5 0.54            118            248 195 
 GUY2CHZ EP   1    748 20.75                             112    0.22 5  301 235 
 GUY2CHN ES   1    748 54.35                             112   -0.10 5  301 235 
 GUY2CHZ I         749  4.41         1.6 0.58                           301 235 
                                                                                
