 2012 1228 0522 33.0 L   6.783 -73.167147.2  RSN  7 0.4 1.5LRSN                1
 GAP=180        0.78       4.5     6.0  7.3  0.5108E+01  0.6984E+01  0.1584E+01E
 Epicentro: LOS SANTOS - SANTANDER                                             3
 ACTION:UPD 13-01-04 14:30 OP:ep   STATUS:               ID:20121228052233 L   I
 2012-12-28-0520-00M.COL___243                                                 6
 STAT SP IPHASW D HRMM SECON CODA AMPLIT PERI AZIMU VELO AIN AR TRES W  DIS CAZ7
 BAR2 SZ EP   1    522 52.79                             171    0.04 7 21.2 185 
 BAR2 SZ ES   1    523  8.05                             171   -0.12 7 21.2 185 
 BAR2 SZ I         523  8.82        12.4 0.18                          21.2 185 
 GIR2 SZ EP   1    522 52.99                             167    0.12 7 32.9 355 
 GIR2 SZ ES   1    523  8.34                             167   -0.05 7 32.9 355 
 GIR2 SZ I         523  9.53         6.6 0.50                          32.9 355 
 BRR  HZ EP   1    522 54.76                             153    0.53 7 70.1 301 
 BRR  HN ES   1    523 11.54                             153    0.73 7 70.1 301 
 BRR  HZ I         523 14.69         5.5 0.26                          70.1 301 
 RUS  HZ EP   1    522 56.89                             145    0.13 7 98.9 175 
 RUS  HN ES   1    523 15.10                             145   -0.20 7 98.9 175 
 RUS  HZ I         523 16.34         2.7 0.28                          98.9 175 
 PTB  HZ EP   1    522 59.62                             133   -0.22 7  145 259 
 PTB  HN ES   1    523 20.19                             133   -0.59 7  145 259 
 PTB  HZ I         523 24.46         5.7 0.14                           145 259 
 OCA  HN ES   1    523 23.14                             130   -0.71 7  162 354 
 ZAR  HE ES   2    523 31.00                             123    0.35 4  203 293 
 ZAR  HZ I         523 37.11         4.4 0.56                           203 293 
 MON  HZ EP   4    523 20.74                             109   -1.23 0  353 309 
 MON  HN ES   4    523 59.79                             109   -0.39 0  353 309 
                                                                                
