 2015  528 0200 20.4 L   6.779 -73.126149.2  RSN  8 0.3 1.5LRSN                1
 GAP=140        0.63       3.1     4.1  5.4 -0.4633E+00  0.3301E+01 -0.3481E+01E
 Epicentro: LOS SANTOS - SANTANDER                                             3
 ACTION:UPD 15-09-10 22:07 OP:cam  STATUS:               ID:20150528020020 L   I
 OLDACT:REG 15-05-28 12:35 OP:spq  STATUS:               ID:20150528015746     3
 2015-05-28-0157-46M.COL___309                                                 6
 STAT SP IPHASW D HRMM SECON CODA AMPLIT PERI AZIMU VELO AIN AR TRES W  DIS CAZ7
 BAR2 EZ ES   1    2 0 55.55                             172   -0.43 7 21.5 197 
 BAR2 EZ I         2 0 56.50         9.7 0.14            169           21.5 197 
 BRR  HZ EP   1    2 0 41.89                             152   -0.16 7 74.2 299 
 BRR  HN ES        2 0 59.47                             152    0.4910 74.2 299 
 BRR  HZ I         2 1  2.84         5.2 0.33            150           74.2 299 
 PAM  SZ EP        2 0 43.06                             151    0.0910 77.9  37 
 PAM  SE ES   1    2 1  0.57                             151   -0.04 7 77.9  37 
 PAM  SZ I         2 1  2.02         4.4 0.68            155           77.9  37 
 RUS  HE ES   1    2 1  2.91                             145   -0.02 7 98.1 177 
 RUS  HZ I         2 1  3.99         4.2 0.28            146           98.1 177 
 SPBC HZ EP   1    2 0 49.06                             130   -0.02 7  163 220 
 SPBC HE ES   1    2 1 11.46                             130   -0.03 7  163 220 
 SPBC HZ I         2 1 15.97         6.4 0.22            130            163 220 
 ZAR  HE ES   1    2 1 18.68                             123   -0.37 6  207 293 
 ZAR  HZ I         2 1 23.49         2.2 0.30            123            207 293 
 SML  HZ EP   1    2 0 57.88                             118    0.37 6  247 335 
 SML  HN ES   1    2 1 26.01                             118   -0.48 6  247 335 
 GUY2CHZ EP   4    2 1  5.79                             113    1.61 0  302 235 
 GUY2CHN ES   4    2 1 40.49                             113    2.14 0  302 235 
 GUY2CHZ I         2 1 44.41         1.4 0.24                           302 235 
                                                                                
