 2013  728 0511 58.9 L   6.788 -73.172149.3  RSN  6 0.5 1.7LRSN                1
 GAP=179        1.27       7.0     8.8  8.6  0.1813E+02  0.5335E+01 -0.8433E+01E
 Epicentro: LOS SANTOS - SANTANDER                                             3
 ACTION:UPD 13-08-12 10:40 OP:ep   STATUS:               ID:20130728051158 L   I
 OLDACT:UP  13-07-28 09:39 OP:cam  STATUS:               ID:20130728050959     3
 OLDACT:REG 13-07-28 08:15 OP:cam  STATUS:               ID:20130728050959     3
 2013-07-28-0509-59M.COL___268                                                 6
 STAT SP IPHASW D HRMM SECON CODA AMPLIT PERI AZIMU VELO AIN AR TRES W  DIS CAZ7
 BAR2 SZ EP        512 18.82                             171   -0.0910 21.6 183 
 BAR2 SZ ES        512 33.74                             171   -0.7810 21.6 183 
 BAR2 SZ I         512 35.17         7.9 0.26            173           21.6 183 
 GIR2 SZ ES   1    512 34.66                             167   -0.03 7 32.3 356 
 BRR  HZ EP        512 20.72                             154    0.4010 69.4 301 
 BRR  HN ES        512 37.95                             154    0.9210 69.4 301 
 BRR  HZ I         512 40.38         5.6 0.28            153           69.4 301 
 RUS  HZ EP        512 23.50                             145    0.6010 99.4 174 
 RUS  HN ES   1    512 41.43                             145   -0.21 7 99.4 174 
 PTB  HZ EP        512 25.40                             133   -0.47 9  145 259 
 PTB  HN ES        512 46.72                             133   -0.19 9  145 259 
 PTB  HZ I         512 48.24         5.0 0.40            134            145 259 
 SML  HZ EP        512 35.65                             118   -0.07 8  244 336 
 SML  HN ES   1    513  3.60                             118   -0.85 6  244 336 
 SML  HZ I         513  6.08         6.7 0.24            119            244 336 
                                                                                
