 2010  128 0212 41.9 L   5.992 -73.664113.9  RSN  4 0.1 1.5LRSN                1
 GAP=169        0.37       3.0     8.2  7.8 -0.1551E+02  0.5094E+02 -0.7126E+01E
 Epicentro: VELEZ - SANTANDER                                                  3
 ACTION:UP  10-08-24 09:46 OP:vdl  STATUS:               ID:20100128021241 L   I
 2010-01-28-0206-48S.COL___093                                                 6
 STAT SP IPHASW D HRMM SECON CODA AMPLIT PERI AZIMU VELO SNR AR TRES W  DIS CAZ7
 RUS  BZ EP        213  0.03                             148     0.010   65 100 
 RUS  BN ES   1    213 14.32                             148     0.2 7   65 100 
 RUS  BZ I         213 15.57         8.9 0.76                            65 100 
 BAR2 SZ EP   1    213  1.01                             140     0.0 7   85  39 
 BAR2 SZ ES   1    213 15.88                             140    -0.1 7   85  39 
 CHI  HZ EP        213  7.29                             123     0.0 9  151 183 
 CHI  HN ES   1    213 26.96                             123    -0.2 7  151 183 
 TOL  SZ EP   2    213 17.37                             110     0.3 4  241 230 
                                                                                
