 2015  428 0746 53.3 L   6.877 -73.321119.9  RSN  8 0.7 1.7LRSN                1
 GAP=154        1.79       5.0     7.7 10.9  0.4201E+01  0.1185E+02 -0.1172E+02E
 Epicentro: BETULIA - SANTANDER                                                3
 ACTION:UPD 15-06-03 16:58 OP:cam  STATUS:               ID:20150428074653 L   I
 OLDACT:REG 15-04-28 13:02 OP:drio STATUS:               ID:20150428073739     3
 2015-04-28-0737-39M.COL___283                                                 6
 STAT SP IPHASW D HRMM SECON CODA AMPLIT PERI AZIMU VELO AIN AR TRES W  DIS CAZ7
 BAR2 EZ IP     D  747 10.43                             163    0.2810 35.0 154 
 BAR2 EZ ES        747 23.55                             163    0.2310 35.0 154 
 BAR2 EZ I         747 24.76        29.8 0.30            166           35.0 154 
 BRR  HZ EP        747 10.72                             156    0.2710 50.1 301 
 BRR  HN ES        747 24.45                             156    0.5910 50.1 301 
 BRR  HZ I         747 26.60         9.4 0.16            154           50.1 301 
 RUS  HZ EP        747 15.62                             134    0.0810  112 166 
 RUS  HN ES        747 32.28                             134   -0.6310  112 166 
 RUS  HZ I         747 34.86         1.9 0.12            137            112 166 
 PTB  HZ EP        747 15.78                             129   -0.8410  131 254 
 PTB  HZ I         747 17.58         6.9 0.36            130            131 254 
 PTB  HN ES        747 33.37                             129   -1.4710  131 254 
 OCA  HZ EP        747 18.65                             125   -0.08 9  151   0 
 OCA  HN ES        747 38.30                             125   -0.28 9  151   0 
 OCA  HZ I         747 39.65        16.3 0.28            126            151   0 
 SPBC HZ EP        747 20.72                             123    1.24 9  159 212 
 SPBC HE ES        747 39.84                             123   -0.09 9  159 212 
 SPBC HZ I         747 41.44         8.8 0.22            125            159 212 
 ZAR  HZ EP        747 22.44                             119    0.56 9  183 292 
 ZAR  HN ES        747 45.48                             119    1.29 9  183 292 
 ZAR  HZ I         747 50.54         4.3 0.24            120            183 292 
 SML  HZ EP        747 26.46                             113   -0.38 8  228 339 
 SML  HN ES        747 52.18                             113   -0.85 8  228 339 
 SML  HZ I         747 58.49         7.7 0.10            114            228 339 
                                                                                
