 2017  928 0216 28.7 L   6.773 -73.129142.0  RSN 19 0.3 2.3LRSN                1
 GAP= 97        0.75       2.3     2.0  3.7  0.1964E+00  0.2116E+01  0.2956E+01E
 Epicentro: LOS SANTOS - SANTANDER                                             3
 ACTION:UPD 17-10-05 19:17 OP:rebc STATUS:               ID:20170928021628 L   I
 OLDACT:UP  17-09-28 15:05 OP:edw  STATUS:               ID:20170928020037d    3
 OLDACT:UP  17-09-28 15:05 OP:edw  STATUS:               ID:20170928020037d    3
 OLDACT:UP  17-09-28 15:04 OP:edw  STATUS:               ID:20170928020037d    3
 OLDACT:DUP 17-09-28 14:49 OP:edw  STATUS:               ID:20170928020037d    3
 OLDACT:UP  17-09-28 14:43 OP:edw  STATUS:               ID:20170928020036     3
 OLDACT:REG 17-09-28 12:55 OP:edw  STATUS:               ID:20170928020036     3
 2017-09-28-0208-00M.COL___420                                                 6
 STAT SP IPHASW D HRMM SECON CODA AMPLIT PERI AZIMU VELO AIN AR TRES W  DIS CAZ7
 BAR2 EZ EP        216 47.75                             171   -0.0510 20.8 196 
 BAR2 EZ ES        217  2.08                             171   -0.6410 20.8 196 
 BAR2 EZ I         217  3.75        59.0 0.16            167           20.8 196 
 BRR  HZ EP        216 49.80                             151    0.2110 74.2 300 
 BRR  HN ES        217  6.47                             151    0.5610 74.2 300 
 BRR  HZ I         217 10.65        33.3 0.12            150           74.2 300 
 PAM  EZ EP     C  216 50.71                             150    0.1510 78.6  37 
 PAM  EN ES        217  7.52                             150   -0.1110 78.6  37 
 PAM  EZ I         217  9.55        55.2 0.54            156           78.6  37 
 RUS  HZ EP        216 51.69                             144   -0.1410 97.5 177 
 RUS  HN ES        217  9.84                             144   -0.0510 97.5 177 
 RUS  HZ I         217 11.87        42.5 0.38            144           97.5 177 
 TAM  HZ IP     D  216 56.06                             130    0.24 9  153 104 
 TAM  HE ES        217 17.01                             130    0.02 9  153 104 
 YPLC HZ EP        216 58.16                             126    0.31 9  173 151 
 YPLC HN ES        217 20.79                             126    0.18 9  173 151 
 YPLC HZ I         217 24.56        41.2 0.28            128            173 151 
 ZAR  HZ EP        217  0.74                             121   -0.42 8  207 293 
 ZAR  HN ES        217 26.58                             121    0.07 8  207 293 
 ZAR  HZ I         217 32.49        12.3 0.14            122            207 293 
 NOR  HZ EP        217  4.15                             118   -0.01 8  234 235 
 NOR  HN ES        217 31.43                             118   -0.41 8  234 235 
 NOR  HZ I         217 38.84        13.0 0.42            118            234 235 
 CHI  HZ EP        217  6.02                             116    0.12 8  246 196 
 CHI  HN ES        217 34.98                             116    0.04 8  246 196 
 CHI  HZ I         217 38.56         5.1 0.50            117            246 196 
 ROSC BZ EP        217  6.56                             116    0.15 8  251 212 
 ROSC BN ES        217 36.18                             116    0.33 8  251 212 
 ROSC BZ I         217 42.37         9.0 0.35            117            251 212 
 HEL  HZ EP        217  8.80                             114   -0.01 8  273 257 
 HEL  HN ES        217 39.84                             114   -0.28 8  273 257 
 HEL  HZ I         217 46.71        11.3 0.50            115            273 257 
 GUY2CHZ EP   4    217 14.25                             111    2.17 0  301 235 
 GUY2CHN ES        217 46.33                             111    0.39 7  301 235 
 GUY2CHZ I         217 54.35         8.0 0.34                           301 235 
 PTGC HZ EP        217 11.01                             111   -0.96 7  305 159 
 PTGC HN ES   4    217 44.29                             111   -1.45 0  305 159 
 ELA  HZ EP   4    217 12.36                             110   -2.94 0  329 230 
 ELA  HN ES   4    217 55.27                             110    3.60 0  329 230 
 ELA  HZ I         218  3.41         6.2 0.34            110            329 230 
 CBOC HZ EP   4    217 16.78                             109    1.25 0  334 253 
 CBOC HN ES        217 51.92                             109   -0.15 7  334 253 
 CBOC HZ I         217 54.46         2.8 0.38            110            334 253 
 ANIL HZ EP   4    217 19.84                             108    1.61 0  357 225 
 ANIL HN ES   4    217 58.45                             108    1.56 0  357 225 
 ANIL HZ I         218  3.74        17.4 0.34            109            357 225 
 PRA  HZ EP        217 21.32                             106   -0.54 6  390 210 
 PRA  HN ES        218  3.65                             106    0.29 6  390 210 
 PRA  HZ I         218 10.72         5.6 0.32            107            390 210 
 ORTC HZ EP        217 22.77                             106    0.46 6  394 217 
 ORTC HN ES        218  4.16                             106    0.02 6  394 217 
 ORTC HZ I         218 10.48         4.0 0.14            107            394 217 
 SJC  HZ EP   4    217 22.58                             105   -1.94 0  413 327 
 SJC  HN ES   4    218  4.02                             105   -4.06 0  413 327 
 SJC  HZ I         218  7.46         4.8 0.38            106            413 327 
 CRJC HZ EP   4    217 28.55                             103   -2.86 0  470   3 
 CRJC HN ES   4    218 10.36                             103   -10.0 0  470   3 
                                                                                
