 2015 1128 0220 57.7 L   6.830 -73.189140.8  RSN  9 0.5 1.7LRSN                1
 GAP=130        1.15       3.8     4.6  7.0 -0.2038E+01  0.1102E+02 -0.2132E+01E
 Epicentro: ZAPATOCA - SANTANDER                                               3
 ACTION:UPD 15-12-28 16:13 OP:cam  STATUS:               ID:20151128022058 L   I
 OLDACT:UP  15-12-01 10:59 OP:ak   STATUS:               ID:20151128022058 L   3
 OLDACT:REG 15-11-28 12:20 OP:drio STATUS:               ID:20151128021747     3
 2015-11-28-0217-47M.COL___307                                                 6
 STAT SP IPHASW D HRMM SECON CODA AMPLIT PERI AZIMU VELO AIN AR TRES W  DIS CAZ7
 BAR2 EZ EP        221 16.82                             169   -0.0110 26.3 178 
 BAR2 EZ ES        221 31.13                             169   -0.6010 26.3 178 
 BAR2 EZ I         221 34.57         7.3 0.48            173           26.3 178 
 BRR  HZ EP        221 18.69                             154    0.6610 65.5 298 
 BRR  HN ES   1    221 34.83                             154    0.98 7 65.5 298 
 BRR  HZ I         221 41.60         5.6 0.36            152           65.5 298 
 PAM  EZ EP        221 19.46                             150   -0.0110 78.1  44 
 PAM  EN ES        221 36.92                             150    0.5010 78.1  44 
 PAM  EZ I         221 38.85        13.6 0.56            153           78.1  44 
 RUS  HZ EP        221 20.72                             142   -0.5610  104 174 
 RUS  HN ES        221 39.39                             142   -0.2510  104 174 
 RUS  HZ I         221 42.35         5.6 0.36            149            104 174 
 PTB  HZ EP        221 23.78                             132   -0.16 9  144 257 
 PTB  HN ES        221 44.35                             132   -0.02 9  144 257 
 PTB  HZ I         221 47.18         7.0 0.20            134            144 257 
 SPBC HZ EP        221 25.97                             128    0.15 9  163 217 
 SPBC HN ES        221 48.00                             128    0.27 9  163 217 
 ZAR  HN ES        221 53.11                             122   -0.77 9  198 292 
 ZAR  HZ I         222  1.48         5.8 0.46            124            198 292 
 SML  HZ EP        221 33.27                             117   -0.28 8  239 336 
 SML  HN ES        222  1.13                             117   -0.35 8  239 336 
 SML  HZ I         222  8.18        10.7 0.10            120            239 336 
 GUY2CHZ EP        221 41.76                             111    0.86 7  299 234 
 GUY2CHN ES        222 14.64                             111    0.08 7  299 234 
 GUY2CHZ I         222 23.60         3.5 0.68                           299 234 
                                                                                
