 2013  228 0838 13.3 L   6.744 -73.139140.5  RSN  5 0.4 1.4LRSN                1
 GAP=234        0.76       8.6     9.5  9.2  0.4794E+02  0.2363E+02 -0.1755E+01E
 Epicentro: JORDAN - SANTANDER                                                 3
 ACTION:UPD 13-03-12 09:36 OP:ep   STATUS:               ID:20130228083813 L   I
 2013-02-28-0836-37M.COL___193                                                 6
 STAT SP IPHASW D HRMM SECON CODA AMPLIT PERI AZIMU VELO AIN AR TRES W  DIS CAZ7
 BAR2 SZ EP   1    838 32.42                             173    0.25 7 17.5 196 
 BAR2 SZ ES   1    838 46.22                             173   -0.68 7 17.5 196 
 BAR2 SZ I         838 49.54         8.3 0.18            172           17.5 196 
 BRR  HZ EP   1    838 34.27                             150    0.18 7 75.0 302 
 BRR  HN ES   1    838 50.63                             150    0.31 7 75.0 302 
 BRR  HZ I         838 51.81         4.6 0.54            151           75.0 302 
 RUS  HN ES   1    838 54.20                             144    0.36 7 94.3 176 
 PTB  HZ EP   1    838 39.20                             131   -0.60 7  147 261 
 PTB  HN ES   2    839  0.63                             131    0.15 5  147 261 
 PTB  HZ I         839  2.23         2.4 0.18            133            147 261 
 ZAR  HN ES   2    839 11.12                             121    0.11 4  207 294 
                                                                                
