 2016 1228 0105 12.4 L   6.788 -73.128143.4  RSN 15 0.4 2.0LRSN                1
 GAP= 72        0.92       3.6     3.7  4.9 -0.1699E+00  0.2305E+01  0.3714E+01E
 Epicentro: LOS SANTOS - SANTANDER                                             3
 ACTION:UPD 17-01-11 20:19 OP:rebc STATUS:               ID:20161228010512 L   I
 OLDACT:UP  16-12-28 14:12 OP:edw  STATUS:               ID:20161228005749     3
 OLDACT:UP  16-12-28 14:11 OP:edw  STATUS:               ID:20161228005749     3
 OLDACT:REG 16-12-28 12:39 OP:edw  STATUS:               ID:20161228005749     3
 2016-12-28-0058-00M.COL___369                                                 6
 STAT SP IPHASW D HRMM SECON CODA AMPLIT PERI AZIMU VELO AIN AR TRES W  DIS CAZ7
 BAR2 EZ IP     D  1 5 31.50                             171   -0.2110 22.5 196 
 BAR2 EZ ES        1 5 46.34                             171   -0.4410 22.5 196 
 BAR2 EZ I         1 5 47.75        28.6 0.28            169           22.5 196 
 BRR  HZ IP     C  1 5 33.34                             151   -0.0710 73.6 299 
 BRR  HN ES        1 5 50.30                             151    0.4910 73.6 299 
 BRR  HZ I         1 5 53.69        32.2 0.30            149           73.6 299 
 PAM  EZ EP     C  1 5 34.50                             150    0.1710 77.1  38 
 PAM  EN ES        1 5 51.66                             150    0.2210 77.1  38 
 PAM  EZ I         1 5 53.69        30.2 0.52            153           77.1  38 
 RUS  HZ EP        1 5 35.41                             144   -0.3810 99.2 177 
 RUS  HN ES        1 5 54.05                             144   -0.0110 99.2 177 
 RUS  HZ I         1 5 55.41        12.5 0.30            144           99.2 177 
 PTB  HZ EP   9    1 5 38.33                             131   -0.98 0  149 259 
 PTB  HN ES        1 5 59.47                             131    0.13 9  149 259 
 PTB  HZ I         1 6  0.25        12.7 0.18            130            149 259 
 TAM  HZ EP     D  1 5 39.91                             130    0.25 9  153 105 
 ZAR  HZ EP        1 5 44.04                             121   -0.87 8  206 292 
 ZAR  HN ES        1 6 10.10                             121   -0.18 8  206 292 
 ZAR  HZ I         1 6 15.74        14.3 0.24            121            206 292 
 NOR  HZ EP        1 5 48.15                             118    0.08 8  236 235 
 NOR  HN ES   4    1 6 14.56                             118   -1.34 0  236 235 
 NOR  HZ I         1 6 19.66         5.5 0.26            118            236 235 
 CHI  HZ EP        1 5 49.82                             117   -0.05 8  248 196 
 CHI  HN ES   4    1 6 18.35                             117   -0.76 0  248 196 
 CHI  HZ I         1 6 22.57         4.8 0.34            117            248 196 
 ROSC BZ EP   4    1 5 51.94                             116    1.58 0  253 212 
 ROSC BN ES        1 6 20.20                             116    0.21 8  253 212 
 ROSC BZ I         1 6 25.14         9.7 0.35            116            253 212 
 URE  HZ EP   4    1 5 55.55                             113    1.96 0  286 292 
 URE  HN ES   4    1 6 30.22                             113    4.48 0  286 292 
 URE  HZ I         1 6 33.12         9.8 0.18            113            286 292 
 GUY2CHZ EP        1 5 57.07                             112    1.09 7  302 235 
 GUY2CHN ES   4    1 6 33.92                             112    3.93 0  302 235 
 GUY2CHZ I         1 6 36.70         3.0 0.28                           302 235 
 ELA  HE ES   2    1 6 36.21                             110    0.48 3  330 230 
 DBB  EN ES   4    1 6 36.13                             109   -1.01 0  342 274 
 ANIL HN ES   4    1 6 43.31                             108    2.34 0  358 225 
 SJC  HZ EP   4    1 6  5.27                             105   -2.85 0  411 327 
 SJC  HN ES   4    1 6 47.13                             105   -4.46 0  411 327 
 SJC  HZ I         1 6 50.44         2.1 0.64            106            411 327 
 CRJC HZ EP   9    1 6 12.01                             103   -2.94 0  469   3 
 CRJC HN ES        1 7  1.14                             103    0.33 5  469   3 
                                                                                
