 2015 1128 0126  2.0 L   6.727 -73.147146.3  RSN  4 0.5 1.2LRSN                1
 GAP=232        1.22       9.6     9.3  9.8  0.4421E+02  0.9033E+01  0.1384E+01E
 Epicentro: JORDAN - SANTANDER                                                 3
 ACTION:UPD 15-12-28 16:13 OP:cam  STATUS:               ID:20151128012601 L   I
 OLDACT:UP  15-12-10 16:35 OP:cam  STATUS:               ID:20151128012601 L   3
 OLDACT:UP  15-12-01 10:59 OP:ak   STATUS:               ID:20151128012601 L   3
 OLDACT:REG 15-11-28 12:18 OP:drio STATUS:               ID:20151128011750     3
 2015-11-28-0117-50M.COL___307                                                 6
 STAT SP IPHASW D HRMM SECON CODA AMPLIT PERI AZIMU VELO AIN AR TRES W  DIS CAZ7
 BAR2 EZ EP        126 21.03                             174   -0.5210 15.4 195 
 BAR2 EZ ES        126 36.13                             174   -0.6810 15.4 195 
 BAR2 EZ I         126 40.85         3.4 0.24            168           15.4 195 
 BRR  HZ EP        126 23.51                             151    0.0710 75.3 304 
 BRR  HE ES        126 40.90                             151    0.7410 75.3 304 
 RUS  HZ EP        126 25.60                             146    0.3710 92.5 176 
 RUS  HN ES        126 43.78                             146    0.4210 92.5 176 
 RUS  HZ I         126 45.77         1.4 0.20            146           92.5 176 
 PTB  HZ EP        126 28.75                             132   -0.12 9  146 262 
 PTB  HE ES        126 49.51                             132   -0.33 9  146 262 
 PTB  HZ I         126 55.55         3.6 0.20            132            146 262 
                                                                                
