 2010 1228 0200 22.5 L   6.785 -73.110143.7  RSN  8 0.2 2.0LRSN                1
 GAP=163        0.51       2.9     5.4  4.0 -0.9897E+01  0.6792E+01 -0.1799E+01E
 Epicentro: LOS SANTOS - SANTANDER                                             3
 ACTION:UP  11-01-14 15:27 OP:pat  STATUS:               ID:20101228020022 L   I
 2010-12-28-0156-55S.COL___134                                                 6
 STAT SP IPHASW D HRMM SECON CODA AMPLIT PERI AZIMU VELO SNR AR TRES W  DIS CAZ7
 BTL  SZ EP   1    2 0 42.14                             171     0.2 7   23 310 
 BTL  SZ ES   1    2 0 56.77                             171    -0.2 7   23 310 
 BAR2 SZ EP        2 0 42.03                             170     0.110   23 201 
 BAR2 SZ ES   1    2 0 57.15                             170     0.1 7   23 201 
 BAR2 SZ I         2 1  0.05        16.5 0.27                            23 201 
 RUS  HZ EP   1    2 0 45.91                             144     0.0 7   99 178 
 RUS  HE ES   1    2 1  4.11                             144    -0.1 7   99 178 
 RUS  HZ I         2 1  5.97         7.0 0.21                            99 178 
 GRA  SZ EP        2 0 47.83                             136     0.210  126  16 
 GRA  SZ ES   1    2 1  6.86                             136    -0.3 7  126  16 
 GRA  SZ I         2 1  8.60        18.0 0.32                           126  16 
 OCA  SZ EP   1    2 0 50.66                             129    -0.2 7  162 352 
 OCA  SZ I         2 1 18.34        11.8 0.20                           162 352 
 NOR  SZ EP   1    2 0 58.21                             118    -0.2 6  237 235 
 NOR  SE ES   1    2 1 26.67                             118     0.3 6  237 235 
 ROSC BN ES   2    2 1 30.11                             116    -0.2 4  253 212 
 ROSC BZ I         2 1 38.15        12.7 0.56                           253 212 
 PRA  HZ EP   1    2 1 15.93                             106    -0.1 4  393 210 
 PRA  HN ES   1    2 1 57.31                             106    -0.5 4  393 210 
                                                                                
