 2017  328 0230 28.8 L   6.770 -73.031138.0  RSN  5 0.2 1.1LRSN                1
 GAP=247        0.54       3.3     4.5  4.9  0.2570E+01 -0.4939E+01 -0.1708E+01E
 Epicentro: CEPITA - SANTANDER                                                 3
 ACTION:UPD 17-05-25 18:46 OP:jn   STATUS:               ID:20170328023028 L   I
 OLDACT:REG 17-03-28 12:31 OP:and  STATUS:               ID:20170328022751     3
 2017-03-28-0228-00M.COL___360                                                 6
 STAT SP IPHASW D HRMM SECON CODA AMPLIT PERI AZIMU VELO AIN AR TRES W  DIS CAZ7
 BAR2 EZ EP        230 47.68                             169    0.1710 25.9 220 
 BAR2 EZ ES        231  2.17                             169    0.0310 25.9 220 
 BAR2 EZ I         231  4.02         2.2 0.14            166           25.9 220 
 BRR  HZ EP        230 49.73                             147   -0.1510 84.0 296 
 BRR  HN ES        231  6.33                             147   -0.0210 84.0 296 
 BRR  HZ I         231 12.11         3.2 0.19            146           84.0 296 
 RUS  HZ EP   2    230 52.11                             143    0.61 5 97.2 183 
 RUS  HN ES        231  9.18                             143   -0.0610 97.2 183 
 RUS  HZ I         231 10.87         2.1 0.23            144           97.2 183 
 PTB  HZ EP   9    230 54.56                             128   -1.67 0  160 261 
 PTB  HN ES        231 16.35                                    0.36 9  160 261 
 PTB  HZ I         231 18.08         1.3 0.15            128            160 261 
 SPBC HN ES        231 19.31                             126   -0.15 9  169 223 
 SPBC HZ I         231 24.47         2.4 0.12            127            169 223 
                                                                                
