 2017  928 0207 38.5 L   6.745 -73.051147.4  RSN  6 0.4 1.5LRSN                1
 GAP=221        0.87       5.1     4.5  7.4  0.8694E+01  0.4454E+01  0.1328E+02E
 Epicentro: JORDAN - SANTANDER                                                 3
 ACTION:UPD 17-10-05 19:17 OP:rebc STATUS:               ID:20170928020738 L   I
 OLDACT:UP  17-09-28 15:13 OP:edw  STATUS:               ID:20170928020038d    3
 OLDACT:UP  17-09-28 15:13 OP:edw  STATUS:               ID:20170928020038d    3
 OLDACT:UP  17-09-28 15:12 OP:edw  STATUS:               ID:20170928020038d    3
 OLDACT:DUP 17-09-28 15:07 OP:edw  STATUS:               ID:20170928020038d    3
 OLDACT:UP  17-09-28 15:05 OP:edw  STATUS:               ID:20170928020037d    3
 OLDACT:UP  17-09-28 15:05 OP:edw  STATUS:               ID:20170928020037d    3
 OLDACT:UP  17-09-28 15:04 OP:edw  STATUS:               ID:20170928020037d    3
 OLDACT:DUP 17-09-28 14:49 OP:edw  STATUS:               ID:20170928020037d    3
 OLDACT:UP  17-09-28 14:43 OP:edw  STATUS:               ID:20170928020036     3
 OLDACT:REG 17-09-28 12:55 OP:edw  STATUS:               ID:20170928020036     3
 2017-09-28-0158-00M.COL___420                                                 6
 STAT SP IPHASW D HRMM SECON CODA AMPLIT PERI AZIMU VELO AIN AR TRES W  DIS CAZ7
 BRR  HZ EP        2 8  0.12                             149   -0.4610 83.3 299 
 BRR  HN ES        2 8 17.75                             149   -0.0310 83.3 299 
 BRR  HZ I         2 8 20.58         5.4 0.14            148           83.3 299 
 RUS  HZ EP        2 8  2.34                             146    0.3410 94.3 182 
 RUS  HN ES        2 8 20.52                             146    0.2010 94.3 182 
 RUS  HZ I         2 8 21.68         4.0 0.30            146           94.3 182 
 NOR  HZ EP   4    2 8 13.83                             118   -1.09 0  240 237 
 NOR  HN ES        2 8 43.39                             118    0.09 8  240 237 
 NOR  HZ I         2 8 47.48         2.3 0.20            119            240 237 
 HEL  HZ EP   4    2 8 20.86                             114    1.06 0  281 258 
 HEL  HE ES        2 8 52.37                             114    0.37 7  281 258 
 HEL  HZ I         2 8 56.15         2.7 0.34            115            281 258 
 PTGC HZ EP        2 8 21.39                             113   -0.01 7  299 160 
 PTGC HN ES        2 8 54.40                             113   -0.44 7  299 160 
 GUY2CHZ EP        2 8 23.40                             112    0.59 7  306 237 
 GUY2CHE ES        2 8 56.57                             112   -0.77 7  306 237 
 GUY2CHZ I         2 9  6.82         2.0 0.56                           306 237 
                                                                                
