 2015  828 0712 14.3 L   6.789 -73.092148.9  RSN 10 0.5 1.6LRSN                1
 GAP=205        1.04       3.3     6.2  5.9  0.4683E+01  0.1005E+02  0.1181E+01E
 Epicentro: LOS SANTOS - SANTANDER                                             3
 ACTION:UPD 15-09-15 23:05 OP:cam  STATUS:               ID:20150828071214 L   I
 OLDACT:REG 15-08-28 14:39 OP:ak   STATUS:               ID:20150828070749     3
 2015-08-28-0707-49M.COL___352                                                 6
 STAT SP IPHASW D HRMM SECON CODA AMPLIT PERI AZIMU VELO AIN AR TRES W  DIS CAZ7
 BAR2 EZ EP        712 34.70                             171    0.4310 23.9 205 
 BAR2 EZ ES        712 49.84                             171   -0.0510 23.9 205 
 BAR2 EZ I         712 51.10        10.9 0.15            171           23.9 205 
 BRR  HZ EP        712 36.62                             151    0.5410 77.1 297 
 BRR  HN ES        712 53.11                             151    0.0110 77.1 297 
 BRR  HZ I         712 54.67         4.6 0.11            149           77.1 297 
 RUS  HZ EP   4    712 36.58                             145   -1.63 0 99.1 179 
 RUS  HN ES        712 56.85                             145   -0.0510 99.1 179 
 RUS  HZ I         712 59.10         5.5 0.38            148           99.1 179 
 SPBC HZ EP        712 43.64                             129    0.37 9  166 221 
 SPBC HN ES        713  5.94                             129    0.04 9  166 221 
 SPBC HZ I         713  8.46        10.1 0.16            130            166 221 
 ZAR  HZ EP        712 47.44                             122   -0.08 8  210 292 
 ZAR  HN ES        713 12.90                             122   -0.57 8  210 292 
 ZAR  HZ I         713 19.37         2.0 0.21            122            210 292 
 SML  HZ EP        712 51.72                             118    0.27 8  247 334 
 SML  HE ES        713 19.68                             118   -0.79 8  247 334 
 SML  HZ I         713 28.96         3.7 0.14            118            247 334 
 CHI  HZ EP        712 51.90                             118   -0.28 8  249 197 
 CHI  HN ES        713 20.82                             118   -0.93 8  249 197 
 HEL  HN ES        713 28.17                             115    0.97 7  278 256 
 GUY2CHZ EP        712 58.11                             113   -0.37 7  305 236 
 PRA  HZ EP        713  8.15                             107    0.04 6  394 210 
 PRA  HN ES        713 49.98                             107   -0.13 6  394 210 
                                                                                
