 2012 1228 0212 41.4 L   6.579 -73.726 93.6  RSN  8 0.4 1.6LRSN                1
 GAP=121        0.91       4.1     3.5  8.3  0.2139E+01  0.1248E+02  0.3861E+01E
 Epicentro: EL CARMEN DE CHUCURI - SANTANDER                                   3
 ACTION:UPD 13-01-04 14:30 OP:ep   STATUS:               ID:20121228021241 L   I
 2012-12-28-0210-00M.COL___243                                                 6
 STAT SP IPHASW D HRMM SECON CODA AMPLIT PERI AZIMU VELO AIN AR TRES W  DIS CAZ7
 BRR  HE ES   1    213  8.18                             145    0.32 7 58.4   2 
 BAR2 SZ EP   1    212 56.77                             145    0.05 7 60.1  89 
 BAR2 SZ ES   1    213  9.25                             145    0.57 7 60.1  89 
 BAR2 SZ I         213 10.40        37.9 0.48                          60.1  89 
 GIR2 SZ EP   1    212 58.07                             136   -0.13 7 80.7  47 
 GIR2 SZ ES   1    213 10.95                             136   -0.37 7 80.7  47 
 GIR2 SZ I         213 12.70         8.9 0.64                          80.7  47 
 PTB  HZ IP     C  212 57.39                             136   -0.6510 80.9 267 
 PTB  HN ES   1    213 10.52                             136   -0.52 7 80.9 267 
 PTB  HZ I         213 12.28         9.3 0.18                          80.9 267 
 RUS  HZ EP   1    213  0.40                             129   -0.40 7  104 137 
 RUS  HN ES   1    213 16.22                             129    0.28 7  104 137 
 RUS  HZ I         213 17.05         4.1 0.30                           104 137 
 ZAR  HZ EP   1    213  6.56                             116    0.44 7  161 309 
 ZAR  HE ES   1    213 25.81                             116    0.39 7  161 309 
 ZAR  HZ I         213 30.78        11.5 0.42                           161 309 
 HEL  HZ EP   1    213 12.33                             110    0.83 6  204 258 
 HEL  HE ES   1    213 35.31                             110    0.32 6  204 258 
 HEL  HZ I         213 39.58         4.9 0.34                           204 258 
 SML  HE ES   1    213 43.22                             106   -0.27 6  249 351 
 MON  HZ EP   4    213 23.91                             102   -1.38 0  324 319 
 MON  HE ES   4    213 59.07                             102   -0.47 0  324 319 
                                                                                
