 2014  928 0710  8.5 L   6.813 -73.156148.0  RSN 19 0.4 2.2LRSN                1
 GAP= 70        0.90       2.5     2.8  4.5 -0.9210E-01  0.2149E+01  0.2255E+01E
 Epicentro: LOS SANTOS - SANTANDER                                             3
 ACTION:UPD 14-10-03 23:09 OP:nd   STATUS:               ID:20140928071008 L   I
 OLDACT:REG 14-09-28 13:43 OP:spq  STATUS:               ID:20140928070816     3
 2014-09-28-0708-16M.COL___295                                                 6
 STAT SP IPHASW D HRMM SECON CODA AMPLIT PERI AZIMU VELO AIN AR TRES W  DIS CAZ7
 BAR2 SZ EP     D  710 28.38                             170   -0.0810 24.6 187 
 BAR2 SZ ES   1    710 43.53                             170   -0.47 7 24.6 187 
 BAR2 SZ I         710 45.19        38.9 0.18            169           24.6 187 
 BRR  HZ IP     C  710 30.21                             153    0.3710 69.5 298 
 BRR  HN ES        710 47.46                             153    1.0110 69.5 298 
 BRR  HZ I         710 50.75        27.4 0.28            152           69.5 298 
 PAM  SZ EP        710 31.26                             151    0.2910 77.0  41 
 PAM  SN ES        710 48.44                             151   -0.0210 77.0  41 
 PAM  SZ I         710 50.61        33.0 0.50            154           77.0  41 
 RUS  HZ EP   1    710 32.19                             144   -0.43 7  102 176 
 RUS  HN ES   1    710 51.06                             144   -0.34 7  102 176 
 RUS  HZ I         710 52.84        20.0 0.40            145            102 176 
 PTB  HZ EP        710 34.93                             133   -0.69 9  147 258 
 PTB  HN ES        710 56.45                             133   -0.29 9  147 258 
 PTB  HZ I         710 59.49        10.9 0.08            132            147 258 
 TAM  HZ IP     C  710 36.66                             131    0.14 9  157 105 
 TAM  HN ES        710 58.54                             131    0.19 9  157 105 
 TAM  HZ I         711  6.37         9.8 0.44            133            157 105 
 OCA  HZ EP        710 36.49                             130   -0.38 9  159 353 
 OCA  HE ES        710 58.48                             130   -0.50 9  159 353 
 OCA  HZ I         711  3.40        12.8 0.22            131            159 353 
 SPBC HZ EP        710 37.29                             129    0.04 9  164 218 
 SPBC HE ES        710 59.48                             129   -0.17 9  164 218 
 SPBC HZ I         711  3.98        30.0 0.40            129            164 218 
 ZAR  HZ EP        710 40.82                             123   -0.15 9  202 292 
 ZAR  HN ES        711  6.45                             123    0.18 9  202 292 
 ZAR  HZ I         711 13.18         9.6 0.14            123            202 292 
 SML  HZ EP        710 45.10                             118    0.00 8  242 335 
 SML  HN ES   1    711 13.39                             118   -0.22 6  242 335 
 SML  HZ I         711 17.58        22.7 0.10            119            242 335 
 CHI  HZ EP        710 46.44                             117   -0.04 8  250 195 
 CHI  HN ES   1    711 15.80                             117   -0.28 6  250 195 
 CHI  HZ I         711 19.24         6.6 0.50            118            250 195 
 ROSC BZ EP        710 47.35                             117    0.49 8  253 211 
 ROSC BN ES   4    711 18.47                             117    1.73 0  253 211 
 ROSC BZ I         711 26.11        16.8 0.40            117            253 211 
 GUY2CHZ EP        710 52.71                             113    0.46 7  301 234 
 GUY2CHN ES   4    711 28.76                             113    2.42 0  301 234 
 GUY2CHZ I         711 34.60         6.3 0.36                           301 234 
 PTGC HZ EP   4    710 51.29                             112   -1.40 0  310 159 
 PTGC HN ES   4    711 24.99                             112   -2.15 0  310 159 
 PTGC HZ I         711 27.30         5.7 0.50            113            310 159 
 TOL  SZ EP        710 57.40                             110    0.48 7  344 224 
 TOL  SN ES   4    711 36.09                             110    1.44 0  344 224 
 TOL  SZ I         711 42.46        19.5 0.64            110            344 224 
 MON  HZ EP   4    710 55.36                             109   -2.06 0  352 308 
 MON  HN ES   4    711 34.31                             109   -1.24 0  352 308 
 MON  HZ I         711 48.58         2.8 0.50            109            352 308 
 PRA  HZ EP        711  2.21                             107   -0.01 6  393 209 
 PRA  HN ES   4    711 44.52                             107    0.42 0  393 209 
 PRA  HZ I         711 49.15         5.2 0.30            107            393 209 
 ORTC HZ EP        711  2.58                             107   -0.02 6  396 216 
 ORTC HE ES   4    711 45.74                             107    0.98 0  396 216 
 ORTC HZ I         711 49.31         3.6 0.32            107            396 216 
 SJC  HZ EP   4    711  2.51                             106   -1.45 0  407 327 
 SJC  HN ES   4    711 43.79                             106   -3.40 0  407 327 
 SJC  HZ I         711 50.84         2.4 0.28            107            407 327 
                                                                                
