 2017  928 0555 25.5 L   6.778 -73.088141.0  RSN  4 0.1 1.5LRSN                1
 GAP=145        0.43       2.4     3.7  4.8 -0.1280E+01 -0.4401E+01  0.2999E+01E
 Epicentro: LOS SANTOS - SANTANDER                                             3
 ACTION:UPD 17-10-05 19:17 OP:rebc STATUS:               ID:20170928055525 L   I
 OLDACT:REG 17-09-28 13:23 OP:edw  STATUS:               ID:20170928054740     3
 2017-09-28-0548-00M.COL___417                                                 6
 STAT SP IPHASW D HRMM SECON CODA AMPLIT PERI AZIMU VELO AIN AR TRES W  DIS CAZ7
 BAR2 EZ EP        555 44.24                             170   -0.2610 23.0 207 
 PAM  EZ EP     C  555 47.15                             151    0.1010 75.5  35 
 PAM  EN ES        556  3.87                             151   -0.0210 75.5  35 
 PAM  EZ I         556  6.04         6.3 0.50            151           75.5  35 
 BRR  HN ES        556  2.96                             149    0.0510 78.0 298 
 RUS  HZ EP        555 48.64                             144    0.1010 97.9 180 
 RUS  HE ES        556  6.58                             144    0.0310 97.9 180 
 RUS  HZ I         556  7.66         6.1 0.32            145           97.9 180 
                                                                                
