 2017  328 0943 31.3 L   6.722 -73.128140.7  RSN  5 0.5 1.1LRSN                1
 GAP=168        0.64       8.3     5.2  6.5 -0.1669E+02  0.1377E+02 -0.2064E+02E
 Epicentro: JORDAN - SANTANDER                                                 3
 ACTION:UPD 17-05-25 18:46 OP:jn   STATUS:               ID:20170328094331 L   I
 OLDACT:UP  17-03-28 18:29 OP:and  STATUS:               ID:20170328093746d    3
 OLDACT:UP  17-03-28 18:29 OP:and  STATUS:               ID:20170328093746d    3
 OLDACT:UP  17-03-28 18:28 OP:and  STATUS:               ID:20170328093746d    3
 OLDACT:DUP 17-03-28 18:27 OP:and  STATUS:               ID:20170328093746d    3
 OLDACT:UP  17-03-28 18:26 OP:and  STATUS:               ID:20170328093745     3
 OLDACT:UP  17-03-28 18:25 OP:and  STATUS:               ID:20170328093745     3
 OLDACT:REG 17-03-28 12:55 OP:and  STATUS:               ID:20170328093745     3
 2017-03-28-0938-00M.COL___351                                                 6
 STAT SP IPHASW D HRMM SECON CODA AMPLIT PERI AZIMU VELO AIN AR TRES W  DIS CAZ7
 BAR2 EZ IP     D  943 50.44                             173    0.2910 15.5 203 
 BAR2 EZ ES        944  4.86                             173   -0.0310 15.5 203 
 BAR2 EZ I         944  5.60         7.1 0.38            171           15.5 203 
 BRR  HZ EP   2    943 52.27                             150    0.03 5 77.3 303 
 BRR  HE ES   3    944 10.36                             150    1.77 2 77.3 303 
 PAM  EZ EP        943 53.21                             148   -0.1010 83.1  35 
 PAM  EN ES   2    944 10.01                             148   -0.49 5 83.1  35 
 PAM  EZ I         944 13.00         1.7 0.14            145           83.1  35 
 PTB  HZ EP        943 57.80                             131   -0.07 9  148 262 
 PTB  HN ES   2    944 18.02                             131   -0.60 5  148 262 
 PTB  HZ I         944 21.27         0.9 0.16            130            148 262 
 ZAR  HZ EP   2    944  4.49                             120    0.57 4  209 294 
 ZAR  HN ES   2    944 29.01                             120   -0.39 4  209 294 
 ZAR  HZ I         944 34.61         1.7 0.28            120            209 294 
                                                                                
