 2017  328 0304 39.2 L   6.804 -73.116145.3  RSN 19 0.6 2.2LRSN                1
 GAP=121        1.18       3.6     4.0  5.6 -0.8203E+00  0.5457E+01  0.4022E+01E
 Epicentro: LOS SANTOS - SANTANDER                                             3
 ACTION:UPD 17-05-25 18:46 OP:jn   STATUS:               ID:20170328030439 L   I
 OLDACT:UP  17-03-28 14:03 OP:and  STATUS:               ID:20170328025728d    3
 OLDACT:UP  17-03-28 14:03 OP:and  STATUS:               ID:20170328025728d    3
 OLDACT:UP  17-03-28 14:02 OP:and  STATUS:               ID:20170328025728d    3
 OLDACT:UP  17-03-28 14:02 OP:and  STATUS:               ID:20170328025728d    3
 OLDACT:UP  17-03-28 13:59 OP:and  STATUS:               ID:20170328025728d    3
 OLDACT:UP  17-03-28 13:57 OP:and  STATUS:               ID:20170328025728d    3
 OLDACT:UP  17-03-28 13:57 OP:and  STATUS:               ID:20170328025728d    3
 OLDACT:DUP 17-03-28 13:55 OP:and  STATUS:               ID:20170328025728d    3
 2017-03-28-0258-00M.COL___360                                                 6
 STAT SP IPHASW D HRMM SECON CODA AMPLIT PERI AZIMU VELO AIN AR TRES W  DIS CAZ7
 BAR2 EZ IP     D  3 4 58.90                             170    0.1410 24.6 197 
 BAR2 EZ ES        3 5 14.01                             170   -0.0410 24.6 197 
 BAR2 EZ I         3 5 15.14        30.5 0.26            169           24.6 197 
 BRR  HZ EP        3 5  0.73                             152    0.3210 73.9 297 
 BRR  HN ES        3 5 17.63                             152    0.6510 73.9 297 
 BRR  HZ I         3 5 21.80        19.2 0.32            150           73.9 297 
 PAM  EZ EP        3 5  1.74                             151    0.5610 75.0  38 
 PAM  EN ES        3 5 18.64                             151    0.2810 75.0  38 
 PAM  EZ I         3 5 21.05        43.1 0.50            154           75.0  38 
 RUS  HZ EP        3 5  2.91                             144    0.0210  101 178 
 RUS  HN ES        3 5 21.09                             144   -0.3010  101 178 
 RUS  HZ I         3 5 22.79        32.5 0.32            144            101 178 
 PTB  HZ EP        3 5  5.66                             131   -0.73 9  151 259 
 PTB  HN ES        3 5 26.54                             131   -1.09 9  151 259 
 PTB  HZ I         3 5 30.30        12.1 0.18            131            151 259 
 SPBC HZ EP        3 5  7.63                             129   -0.22 9  166 220 
 SPBC HN ES        3 5 29.89                             129   -0.35 9  166 220 
 SPBC HZ I         3 5 32.34        29.9 0.26            128            166 220 
 ZAR  HZ EP        3 5 11.95                             122    0.08 8  207 292 
 ZAR  HE ES        3 5 36.58                             122   -0.80 8  207 292 
 ZAR  HZ I         3 5 43.61        10.2 0.12            122            207 292 
 NOR  HZ EP   3    3 5 16.26                             118    1.08 2  238 235 
 NOR  HN ES        3 5 44.02                             118    0.75 8  238 235 
 NOR  HZ I         3 5 45.38         8.6 0.28            118            238 235 
 CHI  HZ EP        3 5 17.18                             117    0.20 8  250 196 
 CHI  HN ES        3 5 46.78                             117    0.31 8  250 196 
 CHI  HZ I         3 5 49.91         8.3 0.46            118            250 196 
 HEL  HZ EP   2    3 5 21.86                             114    2.15 4  275 256 
 HEL  HN ES        3 5 51.64                             114    0.30 7  275 256 
 HEL  HZ I         3 5 57.90         5.8 0.32            114            275 256 
 URE  HZ EP        3 5 19.61                             113   -0.92 7  287 292 
 URE  HE ES   4    3 5 50.22                             113   -2.57 0  287 292 
 URE  HZ I         3 6  0.69         9.4 0.30            113            287 292 
 PTGC HZ EP        3 5 22.08                             111   -0.83 7  308 159 
 PTGC HN ES   3    3 5 55.55                             111   -1.49 2  308 159 
 PTGC HZ I         3 6  0.33        11.6 0.32            113            308 159 
 CBOC HZ EP        3 5 27.02                             110    0.59 7  337 252 
 CBOC HN ES        3 6  3.27                             110   -0.03 7  337 252 
 ANIL HE ES   3    3 6 10.52                             108    2.20 2  360 225 
 ANIL HZ I         3 6 13.35        15.5 0.28            109            360 225 
 PRA  HZ EP        3 5 32.75                             106   -0.15 6  394 210 
 PRA  HN ES        3 6 14.71                             106   -0.11 6  394 210 
 PRA  HZ I         3 6 20.98         4.9 0.28            107            394 210 
 ORTC HZ EP        3 5 34.16                             106    0.83 6  398 217 
 ORTC HN ES   2    3 6 16.83                             106    1.24 3  398 217 
 ORTC HZ I         3 6 22.09         3.9 0.38            107            398 217 
 SJC  HZ EP   4    3 5 33.08                             106   -1.79 0  411 327 
 SJC  HN ES   4    3 6 14.17                             106   -4.15 0  411 327 
 SJC  HZ I         3 6 18.63         2.3 0.60            106            411 327 
 CRJC HZ EP   9    3 5 39.43                             103   -2.14 0  467   3 
 CRJC HE ES        3 6 28.45                             104    0.34 5  467   3 
 MACC HZ EP   4    3 5 46.01                             101   -1.96 0  522 189 
 URI  HZ EP   4    3 5 49.40                             101   -2.61 0  556  13 
 URI  HN ES        3 6 48.58                             101   -0.25 4  556  13 
                                                                                
