 2010  128 0312 59.7 L   6.806 -73.388148.2  RSN  7 0.6 1.4LRSN                1
 GAP=112        1.26       5.6    15.5 14.0  0.9345E+01  0.1513E+03 -0.7703E+01E
 Epicentro: SAN VICENTE DE CHUCURI - SANTANDER                                 3
 ACTION:UP  10-08-24 09:46 OP:vdl  STATUS:               ID:20100128031259 L   I
 2010-01-28-0259-50S.COL___087                                                 6
 STAT SP IPHASW D HRMM SECON CODA AMPLIT PERI AZIMU VELO SNR AR TRES W  DIS CAZ7
 BAR2 SZ EP        313 19.64                             167    -0.210   33 136 
 BAR2 SZ ES   1    313 35.82                             167     0.2 7   33 136 
 RUS  HZ EP        313 24.01                             142    -0.110  106 162 
 RUS  HN ES        313 42.72                             142    -0.510  106 162 
 RUS  HZ I         313 43.31         2.7 0.21                           106 162 
 GUE  SZ EP   1    313 25.79                             138     0.5 7  124  24 
 OCA  SZ EP   1    313 27.64                             130    -0.5 7  159   3 
 OCA  SZ ES   1    313 51.02                             130     0.8 7  159   3 
 CHI  HZ EP        313 37.87                             118     0.8 8  244 189 
 CHI  HE ES   2    314  7.04                             118     0.9 4  244 189 
 CHI  HZ I         314 12.03         2.6 0.55                           244 189 
 DBB  SZ EP        313 44.56                             112     0.3 7  313 274 
 MON  HZ EP        313 45.26                             110    -1.1 7  332 311 
                                                                                
