 2010 1028 0252 50.6 L   6.831 -73.066145.6  RSN  6 0.3 1.5LRSN                1
 GAP=248        0.57       4.1     6.9  5.4  0.7168E+01  0.6400E+01  0.7170E+01E
 Epicentro: LOS SANTOS - SANTANDER                                             3
 ACTION:UP  11-02-18 11:12 OP:tino STATUS:               ID:20101028025250 L   I
 2010-10-28-0248-30S.COL___127                                                 6
 STAT SP IPHASW D HRMM SECON CODA AMPLIT PERI AZIMU VELO SNR AR TRES W  DIS CAZ7
 BAR2 SZ EP   1    253 10.38                             168     0.0 7   29 206 
 BAR2 SZ ES   1    253 25.83                             168     0.1 7   29 206 
 BAR2 SZ I         253 26.54         8.3 0.40                            29 206 
 BRR  HZ IP     C  253 12.25                             150     0.110   78 293 
 BRR  HN ES   1    253 28.91                             150     0.0 7   78 293 
 BRR  HZ I         253 30.00         9.6 0.45                            78 293 
 RUS  HZ EP   1    253 14.34                             143    -0.2 7  104 181 
 RUS  HZ I         253 15.57         3.3 0.16                           104 181 
 RUS  HN ES   1    253 33.18                             143    -0.1 7  104 181 
 NOR  SE ES   2    253 55.08                             117    -0.9 4  244 235 
 CHI  HZ EP   1    253 28.85                             116    -0.1 6  254 197 
 CHI  HE ES   2    253 59.53                             116     0.7 4  254 197 
 CHI  HZ I         254  8.40         1.5 0.42                           254 197 
 PRA  HZ EP   1    253 44.84                             106    -0.1 4  399 210 
 PRA  HN ES   1    254 27.95                             106     0.6 4  399 210 
                                                                                
