 2017  528 0547 47.5 L   6.768 -73.142148.0  RSN 18 0.5 2.5LRSN                1
 GAP=170        0.95       3.0     3.3  5.6  0.3102E+01  0.8239E+00  0.9451E+00E
 Epicentro: LOS SANTOS - SANTANDER                                             3
 ACTION:UPD 17-06-16 13:39 OP:jn   STATUS:               ID:20170528054747 L   I
 OLDACT:UP  17-05-28 17:29 OP:dnl  STATUS:               ID:20170528053739     3
 OLDACT:UP  17-05-28 17:28 OP:dnl  STATUS:               ID:20170528053739     3
 OLDACT:REG 17-05-28 13:20 OP:dnl  STATUS:               ID:20170528053739     3
 2017-05-28-0538-00M.COL___335                                                 6
 STAT SP IPHASW D HRMM SECON CODA AMPLIT PERI AZIMU VELO AIN AR TRES W  DIS CAZ7
 BRR  HZ IP     D  548  9.02                             152   -0.0210 73.3 301 
 BRR  HN ES        548 26.26                             152    0.4510 73.3 301 
 BRR  HZ I         548 30.79        61.3 0.12            150           73.3 301 
 RUS  HZ EP        548 10.88                             145   -0.3610 97.0 176 
 RUS  HN ES        548 29.86                             145    0.1110 97.0 176 
 RUS  HZ I         548 30.89        49.4 0.24            143           97.0 176 
 PTB  HZ EP        548 14.02                             133   -0.64 9  148 260 
 PTB  HN ES        548 34.76                             133   -1.06 9  148 260 
 PTB  HZ I         548 37.62        39.1 0.36            130            148 260 
 SPBC HZ EP        548 15.98                             130    0.02 9  161 220 
 SPBC HN ES        548 38.28                             130    0.13 9  161 220 
 SPBC HZ I         548 40.10        60.0 0.46            127            161 220 
 YPLC HZ IP     D  548 17.20                             128    0.04 9  173 151 
 YPLC HN ES        548 40.83                             128    0.55 9  173 151 
 YPLC HZ I         548 41.71        43.2 0.26            127            173 151 
 ZAR  HZ EP        548 20.04                             123   -0.26 8  206 293 
 ZAR  HE ES        548 46.01                             123    0.15 8  206 293 
 ZAR  HZ I         548 49.46        21.3 0.32            122            206 293 
 NOR  HZ EP        548 23.41                             119    0.21 8  233 235 
 NOR  HE ES        548 51.26                             119    0.23 8  233 235 
 NOR  HZ I         548 57.81        20.1 0.16            117            233 235 
 CHI  HZ EP        548 24.99                             118   -0.00 8  245 195 
 CHI  HN ES        548 53.75                             118   -0.46 8  245 195 
 CHI  HZ I         548 59.75         9.4 0.22            117            245 195 
 ROSC BZ EP   4    548 26.77                             118    1.31 0  250 212 
 ROSC BN ES   4    548 58.67                             118    3.62 0  250 212 
 ROSC BZ I         548 59.04        15.0 0.35            116            250 212 
 HEL  HZ EP   2    548 27.67                             115   -0.13 4  272 257 
 HEL  HE ES        548 59.42                             115    0.20 8  272 257 
 HEL  HZ I         549  5.46        19.9 0.28            114            272 257 
 VIL  EZ EP   2    548 30.86                             113    0.20 4  300 192 
 VIL  EN ES        549  4.54                             113    0.23 7  300 192 
 VIL  EZ I         549 15.25        15.6 0.40            112            300 192 
 PTGC HZ EP        548 30.17                             112   -0.92 7  305 158 
 PTGC HN ES   4    549  3.00                             112   -2.07 0  305 158 
 PTGC HZ I         549  7.79        19.7 0.36            112            305 158 
 ELA  HZ EP   4    548 36.41                             111    2.16 0  327 230 
 ELA  HN ES        549 11.63                             111    0.94 7  327 230 
 ELA  HZ I         549 18.19        16.1 0.44            110            327 230 
 CBOC HZ EP   4    548 35.95                             110    1.49 0  333 253 
 CBOC HN ES        549 11.36                             110    0.30 7  333 253 
 CBOC HZ I         549 14.31         7.4 0.36            109            333 253 
 ANIL HZ EP   2    548 38.00                             109    0.84 3  355 225 
 ANIL HE ES   4    549 19.22                             109    3.35 0  355 225 
 ANIL HZ I         549 27.85        30.7 0.24            108            355 225 
 ARGC HZ EP   2    548 38.44                             109    0.77 3  363 340 
 ARGC HN ES        549 17.26                             109    0.48 6  363 340 
 ARGC HZ I         549 19.38         5.3 0.28            109            363 340 
 ORTC HZ EP   2    548 41.88                             107    0.66 3  393 217 
 ORTC HN ES   4    549 25.51                             107    2.41 0  393 217 
 ORTC HZ I         549 32.23         6.1 0.42            106            393 217 
 PAL  HZ EP        548 42.95                             106    0.36 6  404 240 
 PAL  HN ES        549 25.29                             106   -0.25 6  404 240 
 PAL  HZ I         549 31.48         8.6 0.22            106            404 240 
                                                                                
