 2013  228 0713 56.3 L   6.788 -73.187149.0  RSN  6 0.4 1.1LRSN                1
 GAP=179        0.80       4.9     6.1  8.5  0.9514E+01  0.6745E+01 -0.1538E+01E
 Epicentro: LOS SANTOS - SANTANDER                                             3
 ACTION:UPD 13-03-12 09:36 OP:ep   STATUS:               ID:20130228071356 L   I
 2013-02-28-0710-00M.COL___228                                                 6
 STAT SP IPHASW D HRMM SECON CODA AMPLIT PERI AZIMU VELO AIN AR TRES W  DIS CAZ7
 BAR2 SZ EP   1    714 15.82                             171   -0.47 7 21.6 179 
 BAR2 SZ ES   1    714 31.40                             171   -0.48 7 21.6 179 
 BRR  HZ EP   1    714 17.96                             154    0.34 7 67.9 301 
 BRR  HN ES   1    714 34.73                             154    0.47 7 67.9 301 
 BRR  HZ I         714 38.50         4.6 0.36            148           67.9 301 
 RUS  HZ EP   1    714 20.54                             145    0.24 7 99.6 173 
 RUS  HN ES   1    714 39.50                             145    0.47 7 99.6 173 
 RUS  HZ I         714 39.79         0.9 0.37            146           99.6 173 
 PTB  HZ EP   1    714 22.82                             134   -0.29 7  143 259 
 PTB  HN ES   1    714 43.50                             134   -0.52 7  143 259 
 PTB  HZ I         714 50.96         2.3 0.26            130            143 259 
 OCA  HN ES   1    714 47.12                             130   -0.17 7  161 355 
 ZAR  HN ES   1    714 54.15                             124    0.39 6  200 293 
 ZAR  HZ I         715  1.08         1.3 0.44            122            200 293 
                                                                                
