 2012  328 0150 31.9 L   6.760 -73.152145.9  RSN  5 0.3 1.3LRSN                1
 GAP=138        0.57       6.0     5.0  8.2 -0.2392E+01 -0.8097E+01 -0.2630E+01E
 ACTION:UP  12-03-31 23:23 OP:EP   STATUS:               ID:20120328015031 L   I
 2012-03-28-0150-00M.COL___196                                                 6
 STAT SP IPHASW D HRMM SECON CODA AMPLIT PERI AZIMU VELO SNR AR TRES W  DIS CAZ7
 BAR2 SZ EP     C  150 51.46                             172     0.010   19 190 
 BAR2 SZ I         150 51.90         5.2 0.40                            19 190 
 BRR  HZ EP        150 53.31                             152     0.110   73 302 
 BRR  HZ I         150 56.06         7.9 0.30                            73 302 
 BRR  HN ES   1    151  9.91                             152     0.2 7   73 302 
 PAM  SZ EP        150 54.26                             150    -0.110   81  38 
 PAM  SN ES   3    151 11.37                             150    -0.5 2   81  38 
 RUS  HE ES   2    151 13.80                             145     0.1 5   96 175 
 RUS  HZ I         151 14.70         2.7 0.22                            96 175 
 PTB  HZ EP   1    150 58.87                             132     0.1 7  146 260 
 PTB  HN ES   2    151 18.91                             132    -0.8 5  146 260 
 PTB  HZ I         151 26.01         1.6 0.62                           146 260 
                                                                                
