 2017  528 0900 25.4 L   6.781 -73.206145.8  RSN  5 0.5 1.5LRSN                1
 GAP=206        0.75       4.7     6.4  9.2  0.9842E+01 -0.3226E+02  0.6596E-01E
 Epicentro: ZAPATOCA - SANTANDER                                               3
 ACTION:UPD 17-06-16 13:39 OP:jn   STATUS:               ID:20170528090025 L   I
 OLDACT:UP  17-05-28 16:08 OP:cog  STATUS:               ID:20170528085729     3
 OLDACT:UP  17-05-28 16:08 OP:cog  STATUS:               ID:20170528085729     3
 OLDACT:REG 17-05-28 13:27 OP:dnl  STATUS:               ID:20170528085729     3
 2017-05-28-0858-00M.COL___323                                                 6
 STAT SP IPHASW D HRMM SECON CODA AMPLIT PERI AZIMU VELO AIN AR TRES W  DIS CAZ7
 BRR  HZ EP        9 0 45.83                             155   -0.4310 66.5 303 
 BRR  HE ES        9 1  2.79                             155    0.2310 66.5 303 
 BRR  HZ I         9 1  6.70         9.9 0.25            152           66.5 303 
 RUS  HZ EP        9 0 49.43                             145    0.4110 99.2 172 
 RUS  HN ES   3    9 1  6.10                             145   -1.37 2 99.2 172 
 RUS  HZ I         9 1  7.45         2.5 0.07            145           99.2 172 
 PTB  HZ EP   9    9 0 51.26                             134   -0.45 0  141 259 
 PTB  HN ES        9 1 11.73                             133   -0.08 9  141 259 
 PTB  HZ I         9 1 14.09         6.1 0.22            133            141 259 
 SPBC HE ES        9 1 14.96                             131   -0.16 9  157 218 
 SPBC HZ I         9 1 19.43         4.9 0.36            130            157 218 
 YPLC HZ EP   3    9 0 54.44                             127   -0.87 2  178 149 
 YPLC HN ES        9 1 18.73                             127    0.07 9  178 149 
                                                                                
