 2012  628 0650 28.5 L   6.685 -73.221145.8  RSN  4 0.3 1.1LRSN                1
 GAP=207        0.57       6.0     5.8  6.8  0.1357E+02  0.9751E+01 -0.2065E+01E
 Epicentro: BARICHARA - SANTANDER                                              3
 ACTION:UPD 12-08-06 17:53 OP:ep   STATUS:               ID:20120628065028 L   I
 2012-06-28-0650-00M.COL___201                                                 6
 STAT SP IPHASW D HRMM SECON CODA AMPLIT PERI AZIMU VELO AIN AR TRES W  DIS CAZ7
 BAR2 SZ EP   1    650 47.78                             175   -0.21 7 11.1 157 
 BAR2 SZ ES   1    651  2.76                             175   -0.41 7 11.1 157 
 BAR2 SZ I         651  3.69         4.2 0.14                          11.1 157 
 BRR  HZ EP   1    650 49.88                             152    0.16 7 71.6 311 
 BRR  HZ I         650 50.88         2.4 0.12                          71.6 311 
 BRR  HN ES   1    651  6.56                             152    0.33 7 71.6 311 
 RUS  HN ES   1    651  9.73                             147    0.34 7 88.9 170 
 PTB  HZ EP   1    650 54.55                             134   -0.05 7  138 263 
 PTB  HN ES   1    651 14.76                             134   -0.17 7  138 263 
 PTB  HZ I         651 19.37         1.4 0.18                           138 263 
                                                                                
