 2011  828 0931 43.9 L   6.743 -73.136148.2  RSN  6 0.4 1.6LRSN                1
 GAP=183        0.66       4.2     8.1  6.4  0.6613E+01  0.2794E+01  0.4841E+01E
 Epicentro: JORDAN - SANTANDER                                                 3
 ACTION:UPD 12-07-13 15:54 OP:ep   STATUS:               ID:20110828093143 L   I
 2011-08-28-0930-36S.COL___161                                                 6
 STAT SP IPHASW D HRMM SECON CODA AMPLIT PERI AZIMU VELO AIN AR TRES W  DIS CAZ7
 BAR2 SZ EP   1    932  3.37                             173   -0.36 7 17.4 197 
 BAR2 SZ ES   1    932 18.87                             173   -0.32 7 17.4 197 
 BAR2 SZ I         932 21.22        13.3 0.29                          17.4 197 
 BRR  HZ EP   1    932  5.23                             152   -0.33 7 75.3 302 
 BRR  HN ES   1    932 22.73                             152    0.29 7 75.3 302 
 BRR  HZ I         932 24.50         7.1 0.15                          75.3 302 
 RUS  HZ EP   1    932  7.48                             146    0.02 7 94.2 176 
 RUS  HN ES   1    932 26.34                             146    0.52 7 94.2 176 
 RUS  HZ I         932 27.12         3.1 0.31                          94.2 176 
 OCA  SZ EP   2    932 13.49                             129    0.47 5  167 353 
 OCA  SZ I         932 38.17         3.8 0.26                           167 353 
 NOR  SN ES   2    932 47.45                             119    0.21 4  232 236 
 CHI  HZ EP   1    932 21.46                             118    0.34 6  243 196 
 CHI  HE ES   1    932 49.71                             118   -0.43 6  243 196 
 CHI  HZ I         932 56.47         2.5 0.69                           243 196 
                                                                                
