 2014  828 0858 33.5 L   6.847 -73.136145.3  RSN 32 0.6 2.9LRSN                1
 GAP= 66        1.12       2.4     2.9  4.8 -0.8286E+00  0.4493E+01  0.8654E+00E
 Epicentro: LOS SANTOS - SANTANDER                                             3
 ACTION:UPD 14-09-15 21:53 OP:nd   STATUS:               ID:20140828085833 L   I
 OLDACT:REG 14-08-28 13:24 OP:fm   STATUS:               ID:20140828085816     3
 2014-08-28-0858-16M.COL___263                                                 6
 STAT SP IPHASW D HRMM SECON CODA AMPLIT PERI AZIMU VELO AIN AR TRES W  DIS CAZ7
 BAR2 SZ EP     D  858 53.21                             169    0.0410 28.6 190 
 BAR2 SZ ES   1    859  7.93                             169   -0.60 7 28.6 190 
 BAR2 SZ I         859  9.34       199.4 0.18            168           28.6 190 
 BRR  HZ EP     D  858 55.06                             153    0.5610 69.9 294 
 BRR  HN ES        859 11.76                             153    0.8610 69.9 294 
 BRR  HZ I         859 15.90       179.5 0.44            150           69.9 294 
 PAM  SZ EP     D  858 56.02                             152    0.6510 72.8  41 
 PAM  SN ES        859 12.63                             152    0.1810 72.8  41 
 PAM  SZ I         859 14.94       145.8 0.42            154           72.8  41 
 RUS  HZ EP        858 57.21                             142   -0.3510  106 177 
 RUS  HE ES        859 15.55                             142   -0.7810  106 177 
 RUS  HZ I         859 17.95        57.3 0.34            143            106 177 
 PTB  HZ EP        859  0.09                             131   -0.51 9  150 257 
 PTB  HN ES        859 22.10                             131    0.34 9  150 257 
 PTB  HZ I         859 23.60       139.6 0.12            130            150 257 
 OCA  HZ EP        859  1.40                             130    0.11 9  155 353 
 OCA  HN ES        859 22.82                             130   -0.16 9  155 353 
 OCA  HZ I         859 26.40       125.6 0.42            130            155 353 
 TAM  HZ IP     C  859  1.63                             130    0.48 9  155 107 
 TAM  HN ES        859 22.56                             130   -0.18 9  155 107 
 TAM  HZ I         859 24.31        55.4 0.24            133            155 107 
 SPBC HZ EP        859  2.29                             128   -0.10 9  168 218 
 SPBC HN ES        859 24.29                             128   -0.65 9  168 218 
 SPBC HZ I         859 33.59        89.1 0.16            127            168 218 
 ZAR  HZ EP        859  6.00                             122    0.20 9  203 291 
 ZAR  HN ES        859 31.01                             122   -0.00 9  203 291 
 ZAR  HZ I         859 39.77       114.4 0.36            121            203 291 
 SML  HZ EP        859  9.40                             118   -0.22 8  239 335 
 SML  HN ES   4    859 36.35                             118   -1.46 0  239 335 
 SML  HZ I         859 43.07        77.1 0.10            117            239 335 
 NOR  HZ EP        859  9.79                             118    0.19 8  239 234 
 NOR  HN ES        859 37.28                             118   -0.49 8  239 234 
 NOR  HZ I         859 43.15        73.1 0.20            117            239 234 
 CHI  HZ EP   1    859 11.56                             116   -0.16 6  254 195 
 CHI  HN ES        859 40.96                             116   -0.59 8  254 195 
 CHI  HZ I         859 44.31        24.9 0.62            117            254 195 
 ROSC BZ EP   4    859 14.05                             116    1.93 0  258 211 
 ROSC BN ES        859 42.93                             116    0.68 8  258 211 
 ROSC BZ I         859 49.42        54.2 0.40            116            258 211 
 HEL  HZ EP   4    859 15.53                             114    1.60 0  274 255 
 HEL  HN ES   4    859 43.22                             114   -2.26 0  274 255 
 HEL  HZ I         859 51.93        44.5 0.40            114            274 255 
 URE  HZ EP        859 13.57                             113   -0.86 7  283 291 
 URE  HE ES   4    859 44.03                             113   -2.34 0  283 291 
 URE  HZ I         859 46.80        75.6 0.12            113            283 291 
 GUY2CHZ EP        859 17.96                             112    0.45 7  305 234 
 GUY2CHN ES   1    859 52.10                             112    0.26 5  305 234 
 GUY2CHZ I         859 58.68        39.5 0.32                           305 234 
 CBOC HZ EP        859 21.56                             110    0.88 7  336 251 
 CBOC HE ES        859 57.38                             110   -0.11 7  336 251 
 CBOC HZ I         9 0  1.32        15.2 0.54            109            336 251 
 DBB  SZ EP        859 21.35                             109    0.33 7  340 273 
 DBB  SZ ES   1    859 57.06                             109   -1.04 5  340 273 
 DBB  SZ I         9 0  0.07        90.9 0.42            109            340 273 
 TOL  SZ EP        859 22.64                             109    0.41 6  348 224 
 TOL  SN ES        9 0  0.24                             109   -0.01 6  348 224 
 TOL  SZ I         9 0  7.53        63.9 0.52            109            348 224 
 MON  HZ EP        859 20.92                             109   -1.27 6  351 308 
 MON  HN ES        859 59.46                             109   -0.73 6  351 308 
 MON  HZ I         9 0  0.30        17.4 0.14            108            351 308 
 ARGC HZ EP   1    859 22.87                             108    0.27 5  355 340 
 ARGC HN ES   1    9 0  0.98                             108    0.07 5  355 340 
 ARGC HZ I         9 0 12.50        15.8 0.42            108            355 340 
 ANIL HZ EP   1    859 25.54                             108    1.76 5  362 224 
 ANIL HN ES        9 0  3.45                             108    0.44 6  362 224 
 ANIL HZ I         9 0  8.36         8.3 0.30            108            362 224 
 PRA  HZ EP        859 27.00                             106   -0.57 6  397 209 
 PRA  HN ES        9 0 10.13                             106    0.37 6  397 209 
 PRA  HZ I         9 0 15.57        39.6 0.26            106            397 209 
 ORTC HZ EP        859 28.20                             106    0.25 6  400 216 
 ORTC HN ES        9 0 10.65                             106    0.22 6  400 216 
 ORTC HZ I         9 0 18.82        18.9 0.40            106            400 216 
 SJC  HZ EP   4    859 27.47                             106   -1.12 0  406 326 
 SJC  HN ES   4    9 0  8.64                             106   -2.93 0  406 326 
 SJC  HZ I         9 0 12.66        34.2 0.50            106            406 326 
 LCBC HN ES   4    9 0  8.76                             105   -5.70 0  420 302 
 LCBC HZ I         9 0 20.17        15.7 0.22            105            420 302 
 YOT  HZ EP   4    859 35.28                             103   -1.73 0  476 228 
 YOT  HN ES   1    9 0 27.03                             103    0.47 3  476 228 
 GUA  SZ EP        859 36.24                             103   -0.97 5  479 173 
 GUA  SN ES   4    9 0 24.43                             103   -2.49 0  479 173 
 GUA  SZ I         9 0 29.50        38.0 0.20            103            479 173 
 SMAR HZ EP   1    859 38.17                             102   -0.60 3  492 346 
 SMAR HE ES   4    9 0 26.16                             102   -3.54 0  492 346 
 SMAR HZ I         9 0 27.58        15.6 0.18            102            492 346 
 CAP2 HZ EP   4    859 37.94                             102   -2.56 0  507 293 
 CAP2 HZ I         9 0 32.40         7.8 0.16            102            507 293 
 MACC HZ EP   4    859 40.74                             101   -2.07 0  526 189 
 MACC HN ES   4    9 0 32.04                             101   -4.84 0  526 189 
 MACC HZ I         9 0 39.19         9.9 0.38            102            526 189 
 URI  HZ EP   4    859 43.75                             101   -2.09 0  551  13 
 URI  HE ES   4    9 0 40.37                             101   -1.91 0  551  13 
 URI  HZ I         9 0 46.54         3.8 0.60            101            551  13 
                                                                                
