 2013  128 0901 13.8 L   6.804 -73.163143.7  RSN 12 0.5 2.6LRSN                1
 GAP= 70        1.16       3.3     3.4  6.4 -0.4466E+00  0.3900E+01  0.3081E+01E
 Epicentro: LOS SANTOS - SANTANDER                                             3
 ACTION:UPD 13-02-15 09:17 OP:ep   STATUS:               ID:20130128090113 L   I
 2013-01-28-0858-48M.COL___168                                                 6
 STAT SP IPHASW D HRMM SECON CODA AMPLIT PERI AZIMU VELO AIN AR TRES W  DIS CAZ7
 BAR2 SZ IP        9 1 33.31                             170    0.1210 23.5 185 
 BAR2 SZ I         9 1 33.52        64.1 0.36            169           23.5 185 
 BAR2 SZ ES        9 1 48.03                             170   -0.2810 23.5 185 
 BRR  HZ IP     C  9 1 35.04                             153    0.4210 69.3 299 
 BRR  HN ES        9 1 51.84                             153    0.9810 69.3 299 
 BRR  HE I         9 1 52.83       194.7 0.30            151           69.3 299 
 PAM  SZ IP        9 1 36.32                             150    0.4610 78.3  41 
 PAM  SZ I         9 1 36.50        32.7 0.20            153           78.3  41 
 PAM  SN ES        9 1 53.21                             150    0.1510 78.3  41 
 RUS  HZ EP        9 1 37.22                             143   -0.1810  101 175 
 RUS  HN ES        9 1 55.77                             143   -0.0310  101 175 
 RUS  HE I         9 1 57.08        30.7 0.20            143            101 175 
 PTB  HZ EP        9 1 39.80                             132   -0.64 9  146 259 
 PTB  HN ES        9 2  0.90                             132   -0.31 9  146 259 
 PTB  HE I         9 2  6.16        44.2 0.58            130            146 259 
 TAM  HZ EP        9 1 41.74                             130    0.23 9  157 105 
 TAM  HN ES        9 2  2.96                             130   -0.16 9  157 105 
 TAM  HE I         9 2  4.72        28.3 0.66            132            157 105 
 OCA  HZ EP        9 1 41.90                             129    0.01 9  160 354 
 OCA  HE ES        9 2  3.00                             129   -0.80 9  160 354 
 OCA  HN I         9 2  7.22        72.1 0.20            130            160 354 
 ZAR  HZ EP        9 1 45.79                             122   -0.12 9  202 292 
 ZAR  HE ES        9 2 10.74                             122   -0.22 9  202 292 
 ZAR  HE I         9 2 17.51        84.2 0.46            121            202 292 
 CHI  HZ EP        9 1 51.63                             117    0.25 8  249 195 
 CHI  HN ES        9 2 20.26                             117   -0.43 8  249 195 
 CHI  HE I         9 2 23.95        27.8 0.34            116            249 195 
 ROSC BN ES        9 2 20.75                             116   -0.59 8  252 211 
 ROSC BZ I         9 2 28.07        21.6 0.40            116            252 211 
 HEL  HZ EP   4    9 1 55.56                             115    1.84 0  270 256 
 HEL  HN ES        9 2 24.78                             115   -0.06 8  270 256 
 HEL  HE I         9 2 32.52        10.1 0.52            114            270 256 
 ANIL HN ES        9 2 43.50                             108    1.40 6  356 224 
 ANIL HN I         9 2 46.96        24.4 0.38            108            356 224 
 SJC  HN EP   4    9 2  7.31                             105   -1.82 0  408 327 
                                                                                
