 2013  728 0413 22.8 L   6.690 -73.162144.8  RSN  4 0.4 1.2LRSN                1
 GAP=196        0.90      12.3     7.3  9.0 -0.1390E+02 -0.3811E+00  0.2040E+02E
 Epicentro: VILLANUEVA - SANTANDER                                             3
 ACTION:UPD 13-08-12 10:40 OP:ep   STATUS:               ID:20130728041322 L   I
 OLDACT:REG 13-07-28 08:12 OP:cam  STATUS:               ID:20130728040959     3
 2013-07-28-0409-59M.COL___268                                                 6
 STAT SP IPHASW D HRMM SECON CODA AMPLIT PERI AZIMU VELO AIN AR TRES W  DIS CAZ7
 BAR2 SZ EP   1    413 42.12                             176   -0.00 7 11.0 192 
 BAR2 SZ ES   1    413 57.32                             176    0.12 7 11.0 192 
 GIR2 SZ EP   1    413 42.12                             162   -0.61 7 43.1 355 
 BRR  HZ EP        413 44.02                             151   -0.1110 76.3 307 
 BRR  HZ I         413 49.28         3.9 0.40            145           76.3 307 
 BRR  HN ES        414  1.05                             151    0.2710 76.3 307 
 PTB  HZ EP        413 49.94                             132    0.59 9  144 263 
 PTB  HN ES        414  9.61                             132   -0.45 9  144 263 
 PTB  HZ I         414 14.29         1.5 0.44            128            144 263 
                                                                                
