 2010  628 0954  8.1 L   6.795 -73.076144.5  RSN  5 0.3 1.8LRSN                1
 GAP=172        0.59       3.8     7.7  5.8  0.2731E+01 -0.9956E+01 -0.3243E+01E
 Epicentro: LOS SANTOS - SANTANDER                                             3
 ACTION:UP  10-08-24 10:13 OP:vdl  STATUS:               ID:20100628095408 L   I
 2010-06-28-0952-49S.COL___118                                                 6
 STAT SP IPHASW D HRMM SECON CODA AMPLIT PERI AZIMU VELO SNR AR TRES W  DIS CAZ7
 BAR2 SZ EP   1    954 27.64                             169     0.1 8   25 208 
 BAR2 SZ ES   1    954 42.32                             169    -0.5 8   25 208 
 BRR  HZ EP   1    954 29.42                             150    -0.1 8   78 296 
 BRR  HZ I         954 29.60        26.5 0.18                            78 296 
 BRR  HN ES   1    954 46.47                             150     0.3 8   78 296 
 RUS  HZ EP   1    954 31.91                             143     0.3 8  100 180 
 RUS  HN ES   1    954 50.18                             143     0.2 8  100 180 
 RUS  HZ I         954 53.59         3.3 0.36                           100 180 
 GUE  SZ EP        954 32.54                             139    -0.110  116   8 
 PRA  HZ EP   1    955  2.07                             106     0.1 4  395 211 
 PRA  HE ES   2    955 43.17                             106    -0.8 3  395 211 
 PRA  HZ I         955 48.99         2.9 0.37                           395 211 
                                                                                
