 2017  428 0022 40.7 L   6.827 -73.132149.5  RSN  6 0.3 1.4LRSN                1
 GAP=137        0.72       3.5     3.3  5.9 -0.7259E+00  0.8300E+00  0.2690E+01E
 Epicentro: LOS SANTOS - SANTANDER                                             3
 ACTION:UPD 17-05-30 21:16 OP:jn   STATUS:               ID:20170428002240 L   I
 OLDACT:UP  17-04-28 14:02 OP:and  STATUS:               ID:20170428001746     3
 OLDACT:UP  17-04-28 14:02 OP:and  STATUS:               ID:20170428001746     3
 OLDACT:REG 17-04-28 12:24 OP:and  STATUS:               ID:20170428001746     3
 2017-04-28-0018-00M.COL___362                                                 6
 STAT SP IPHASW D HRMM SECON CODA AMPLIT PERI AZIMU VELO AIN AR TRES W  DIS CAZ7
 BRR  HZ EP        023  2.32                             153    0.0510 71.1 296 
 BRR  HN ES        023 19.44                             153    0.3610 71.1 296 
 PAM  EZ EP        023  3.51                             153    0.3710 74.1  40 
 PAM  EN ES        023 20.33                             153   -0.3110 74.1  40 
 PAM  EZ I         023 22.86         3.4 0.28            155           74.1  40 
 RUS  HZ EP        023  4.99                             144   -0.0510  103 177 
 RUS  HN ES        023 23.89                             144   -0.1310  103 177 
 RUS  HZ I         023 24.85         4.0 0.52            145            103 177 
 PTB  HZ EP   9    023  7.36                             132   -0.81 0  150 258 
 PTB  HN ES        023 28.94                             133    0.16 9  150 258 
 PTB  HZ I         023 35.24         2.6 0.34            131            150 258 
 ZAR  HN ES        023 38.44                             123   -0.51 9  204 291 
 ZAR  HZ I         023 44.11         2.7 0.26            122            204 291 
 NOR  HE ES        023 45.38                             119    0.12 8  238 234 
 NOR  HZ I         023 49.83         2.1 0.16            119            238 234 
                                                                                
