 2014  928 0539 27.4 L   6.690 -73.119147.9  RSN  5 0.3 1.1LRSN                1
 GAP=232        0.71       6.1     5.4  6.5  0.1670E+02  0.3253E+01  0.4178E+00E
 Epicentro: JORDAN - SANTANDER                                                 3
 ACTION:UPD 14-10-03 23:09 OP:nd   STATUS:               ID:20140928053927 L   I
 OLDACT:REG 14-09-28 13:27 OP:spq  STATUS:               ID:20140928053816     3
 2014-09-28-0538-16M.COL___292                                                 6
 STAT SP IPHASW D HRMM SECON CODA AMPLIT PERI AZIMU VELO AIN AR TRES W  DIS CAZ7
 BAR2 SZ EP     C  539 47.21                             175    0.1010 12.9 213 
 BAR2 SZ ES   1    540  2.23                             175   -0.26 7 12.9 213 
 BAR2 SZ I         540  3.60         3.1 0.10            173           12.9 213 
 BRR  HZ EP        539 49.20                             150   -0.0910 80.2 305 
 BRR  HE ES        540  6.39                             150    0.0210 80.2 305 
 BRR  HZ I         540  7.35         2.9 0.29            150           80.2 305 
 RUS  HZ EP   1    539 50.83                             148    0.32 7 88.3 177 
 RUS  HN ES   1    540  8.81                             148    0.27 7 88.3 177 
 RUS  HZ I         540 10.76         1.0 0.28            148           88.3 177 
 PTB  HZ EP        539 54.18                             132   -0.44 9  149 264 
 PTB  HE ES        540 15.71                             132   -0.16 9  149 264 
 PTB  HZ I         540 16.49         1.0 0.18            132            149 264 
 ZAR  HE ES   1    540 27.55                             122    0.77 6  212 295 
 ZAR  HZ I         540 31.35         1.4 0.25            122            212 295 
                                                                                
