 2010  428 0649 24.7 L   6.811 -73.041146.3  RSN 10 0.3 2.2LRSN                1
 GAP=162        0.50       3.6     5.2  4.3 -0.1074E+02 -0.4111E+01  0.1933E+01E
 Epicentro: LOS SANTOS - SANTANDER                                             3
 ACTION:UPD 10-08-24 10:01 OP:vdl  STATUS:               ID:20100428064924 L   I
 2010-04-28-0648-12S.COL___104                                                 6
 STAT SP IPHASW D HRMM SECON CODA AMPLIT PERI AZIMU VELO AIN AR TRES W  DIS CAZ7
 BAR2 SZ EP        649 44.16                             168    -0.310   29 213 
 BAR2 SZ ES   1    650  0.07                             168     0.1 7   29 213 
 BRR  HZ EP        649 46.51                             149     0.110   81 294 
 BRR  HE ES   2    650  3.61                             149     0.2 5   81 294 
 BRR  HZ I         650  8.38        17.5 0.21                            81 294 
 GUE  SZ EP   1    649 49.09                             140    -0.1 7  113   7 
 GRA  SZ IP        649 49.91                             138     0.310  122  12 
 GRA  SZ ES   1    650  9.14                             138     0.1 7  122  12 
 OCA  SZ EP   2    649 53.16                             130     0.1 5  161 349 
 OCA  SZ ES   2    650 14.45                             130    -0.8 5  161 349 
 HEL  HZ EP   2    650  6.26                             114     0.1 4  284 256 
 HEL  HZ I         650 43.09         8.0 0.29                           284 256 
 RREF BZ EP   2    650 12.07                             110     0.2 3  331 231 
 RREF BE ES   3    650 49.02                             110     0.2 2  331 231 
 RREF BZ I         650 54.12         8.5 0.31                           331 231 
 SDV  BZ IP     D  650 13.54                             109    -0.1 6  351  49 
 SDV  BZ I         650 52.80         3.0 0.33                           351  49 
 TOL  SZ EP   2    650 14.12                             109     0.1 3  353 226 
 PRA  HZ EP   2    650 19.27                             106     0.3 3  399 211 
 PRA  HN ES   2    651  1.12                             106    -0.3 3  399 211 
 PRA  HZ I         651  6.80         6.3 0.41                           399 211 
                                                                                
