 2016  128 0257 50.1 L   6.803 -73.118146.7  RSN  6 0.3 1.5LRSN                1
 GAP=140        0.83       4.0     4.7  5.7 -0.7338E+01  0.5481E+01  0.3182E+01E
 Epicentro: LOS SANTOS - SANTANDER                                             3
 ACTION:UPD 16-03-09 23:29 OP:cam  STATUS:               ID:20160128025750 L   I
 OLDACT:DUP 16-01-28 15:59 OP:cara STATUS:               ID:20160128024739d    3
 2016-01-28-0247-37M.COL___334                                                 6
 STAT SP IPHASW D HRMM SECON CODA AMPLIT PERI AZIMU VELO AIN AR TRES W  DIS CAZ7
 BAR2 EZ EP        258  9.92                             170    0.0210 24.4 197 
 BAR2 EZ ES        258 24.60                             170   -0.7210 24.4 197 
 BAR2 EZ I         258 26.21         6.7 0.44            168           24.4 197 
 PAM  EZ EP        258 12.45                             152    0.1310 75.2  38 
 PAM  EN ES        258 30.01                             152    0.3810 75.2  38 
 PAM  EZ I         258 31.76         5.6 0.54            155           75.2  38 
 RUS  HZ EP        258 13.79                             144   -0.2010  101 178 
 RUS  HN ES        258 32.81                             144    0.2110  101 178 
 RUS  HZ I         258 33.48         3.8 0.20            144            101 178 
 PTB  HZ EP        258 17.10                             132   -0.36 9  151 259 
 PTB  HN ES        258 39.11                             132    0.34 9  151 259 
 PTB  HZ I         258 39.63         3.5 0.12            132            151 259 
 SPBC HZ EP        258 18.68                             129   -0.23 9  165 220 
 SPBC HN ES        258 41.58                             129    0.22 9  165 220 
 SPBC HZ I         258 47.97         8.0 0.28            129            165 220 
 CHI  HZ EP        258 28.07                             117    0.06 8  250 196 
 CHI  HE ES        258 57.82                             117    0.27 8  250 196 
 CHI  HZ I         259  1.43         1.7 0.34            118            250 196 
                                                                                
