 2010  528 0331 57.0 L   6.778 -73.101132.8  RSN  9 0.6 2.1LRSN                1
 GAP=155        1.31       7.3     8.2  8.8 -0.3438E+02  0.1203E+02 -0.3975E+01E
 Epicentro: LOS SANTOS - SANTANDER                                             3
 ACTION:UP  10-08-24 10:07 OP:vdl  STATUS:               ID:20100528033157 L   I
 2010-05-28-0327-34S.COL___108                                                 6
 STAT SP IPHASW D HRMM SECON CODA AMPLIT PERI AZIMU VELO SNR AR TRES W  DIS CAZ7
 BAR2 SZ EP        332 15.34                             170     0.310   23 204 
 BAR2 SZ ES   1    332 29.21                             170     0.1 7   23 204 
 GIR2 SZ EP        332 14.52                             164    -0.710   35 343 
 GIR2 SZ ES   1    332 29.12                             164    -0.3 7   35 343 
 GUE  SZ EP        332 20.46                             136    -0.210  118   9 
 GUE  SZ ES   1    332 39.19                             136     0.1 7  118   9 
 GRA  SZ EP        332 22.32                             134     1.210  127  15 
 GRA  SZ ES   2    332 40.27                             134     0.2 5  127  15 
 OCA  SZ EP        332 24.57                             126     0.0 9  163 352 
 OCA  SZ ES        332 46.04                             126    -0.1 9  163 352 
 OCA  SZ I         332 49.19        32.2 0.47                           163 352 
 HEL  HZ EP        332 37.81                             112     0.8 7  276 257 
 HEL  HN ES        333  7.74                             112    -0.5 7  276 257 
 HEL  HZ I         333 16.45         4.8 0.88                           276 257 
 RREF BN ES   2    333 18.79                             108     0.2 3  324 230 
 RREF BZ I         333 27.49         6.1 0.29                           324 230 
 DBB  SZ EP   1    332 44.09                             107    -0.5 5  345 275 
 SDV  BZ EP        332 45.20                             106    -1.1 6  358  49 
 SDV  BN ES   2    333 24.14                             106    -0.6 3  358  49 
 SDV  BZ I         333 25.27         4.2 0.06                           358  49 
                                                                                
