 2014  228 0830 45.1 L   6.817 -73.223134.6  RSN  5 0.4 1.5LRSN                1
 GAP=125        1.02       4.2     5.3  8.0 -0.2595E+01  0.1526E+02 -0.1128E+02E
 Epicentro: ZAPATOCA - SANTANDER                                               3
 OLDACT:DUP 14-02-28 12:45 OP:stll STATUS:               ID:20140228082812d    3
 ACTION:UPD 14-03-10 08:14 OP:ep   STATUS:               ID:20140228083045 L   I
 OLDACT:UP  14-02-28 12:50 OP:stll STATUS:               ID:20140228082812d    3
 2014-02-28-0828-11M.COL___171                                                 6
 STAT SP IPHASW D HRMM SECON CODA AMPLIT PERI AZIMU VELO AIN AR TRES W  DIS CAZ7
 BAR2 SZ EP        831  3.65                             169    0.2410 25.2 170 
 BAR2 SZ ES        831 17.57                             169   -0.1410 25.2 170 
 BAR2 SZ I         831 20.75        13.7 1.02            171           25.2 170 
 PAM  SZ IP     C  831  6.80                             147    0.3910 81.8  45 
 PAM  SN ES        831 23.35                             147    0.3110 81.8  45 
 PAM  SZ I         831 24.56         3.1 1.08            150           81.8  45 
 RUS  HZ EP        831  8.06                             141    0.0910  103 171 
 RUS  HN ES        831 25.09                             141   -0.7310  103 171 
 RUS  SZ I         831 27.63         5.5 2.70            144            103 171 
 PTB  HZ EP        831 10.48                             131    0.06 9  140 257 
 PTB  HN ES        831 30.64                             131    0.46 9  140 257 
 PTB  SZ I         831 32.84         5.0 1.38            133            140 257 
 SML  HZ EP        831 20.24                             115   -0.30 8  239 337 
 SML  HN ES        831 47.49                             115   -0.70 8  239 337 
 SML  HZ I         831 52.13         3.6 0.10            118            239 337 
                                                                                
