 2011 1228 0930 18.1 L   6.720 -73.180152.5  RSN  5 0.3 1.5LRSN                1
 GAP=227        0.52      10.4     7.0  8.8  0.3267E+02  0.8032E+01 -0.1175E+02E
 Epicentro: VILLANUEVA - SANTANDER                                             3
 ACTION:UPD 12-07-13 16:19 OP:ep   STATUS:               ID:20111228093000 L   I
 2011-12-28-0930-00M.COL___186                                                 6
 STAT SP IPHASW D HRMM SECON CODA AMPLIT PERI AZIMU VELO AIN AR TRES W  DIS CAZ7
 BAR2 SZ EP   2    930 38.25                             175   -0.17 5 14.1 181 
 BAR2 SZ ES   2    930 54.04                             175   -0.21 5 14.1 181 
 BRR  HZ EP   1    930 40.29                             153    0.20 7 72.7 306 
 BRR  HZ I         930 41.58         6.4 0.28                          72.7 306 
 RUS  HZ EP   2    930 42.53                             148    0.56 5 92.1 173 
 PTB  HZ EP   1    930 44.88                             135   -0.31 7  143 262 
 PTB  HN ES   2    931  6.32                             135    0.02 5  143 262 
 ZAR  HZ EP   2    930 50.52                             124   -0.50 4  204 295 
 ZAR  HN ES   2    931 17.13                             124    0.45 4  204 295 
 ZAR  HZ I         931 22.75         2.0 0.39                           204 295 
                                                                                
