 2010 1228 0334 40.4 L   7.437 -73.645 99.9  RSN  4 0.3 2.0LRSN                1
 GAP=222        0.82       3.5    13.9 15.0  0.4444E+01  0.1243E+03  0.1434E+02E
 Epicentro: SABANA DE TORRES - SANTANDER                                       3
 ACTION:UP  11-01-14 15:27 OP:pat  STATUS:               ID:20101228033440 L   I
 2010-12-28-0320-00M.COL___136                                                 6
 STAT SP IPHASW D HRMM SECON CODA AMPLIT PERI AZIMU VELO SNR AR TRES W  DIS CAZ7
 OCA  SZ EP        334 58.88                             133    -0.210   96  22 
 OCA  SZ ES   1    335 13.65                             133     0.0 7   96  22 
 OCA  SZ I         335 17.12        24.2 0.23                            96  22 
 GRA  SZ EP   1    335  0.33                             130     0.4 7  105  62 
 GRA  SZ ES   1    335 15.07                             130    -0.2 7  105  62 
 GRA  SZ I         335 16.77        21.5 0.27                           105  62 
 BAR2 SZ EP   1    335  0.84                             130     0.7 7  106 151 
 BAR2 SZ ES   1    335 15.80                             130     0.2 7  106 151 
 BAR2 SZ I         335 16.71        23.3 0.14                           106 151 
 RUS  HZ EP   1    335  8.13                             115    -0.3 7  182 160 
 RUS  HE ES   1    335 29.74                             115    -0.5 7  182 160 
                                                                                
