 2011  828 0114  6.0 L   6.755 -73.083144.0  RSN  8 0.3 2.0LRSN                1
 GAP=147        0.60       3.5     4.7  6.1 -0.3461E+01  0.7218E+01  0.6537E+01E
 Epicentro: LOS SANTOS - SANTANDER                                             3
 ACTION:UPD 12-07-13 15:54 OP:ep   STATUS:               ID:20110828011406 L   I
 2011-08-28-0112-21S.COL___161                                                 6
 STAT SP IPHASW D HRMM SECON CODA AMPLIT PERI AZIMU VELO AIN AR TRES W  DIS CAZ7
 BAR2 SZ EP   1    114 24.98                             171   -0.38 7 21.1 211 
 BAR2 SZ I         114 41.97        16.5 0.30                          21.1 211 
 PAM  SZ EP   1    114 28.09                             151    0.08 7 77.3  33 
 PAM  SN ES   1    114 45.25                             151    0.07 7 77.3  33 
 BRR  HZ EP   1    114 27.05                             150   -0.40 7 79.6 299 
 BRR  HE ES   1    114 44.46                             150    0.28 7 79.6 299 
 BRR  HZ I         114 46.74        34.9 0.12                          79.6 299 
 RUS  HZ EP   1    114 28.98                             145   -0.21 7 95.4 180 
 RUS  HN ES   1    114 47.69                             145    0.40 7 95.4 180 
 RUS  HZ I         114 48.75         8.4 0.30                          95.4 180 
 NOR  SN ES   1    115  9.54                             118   -0.41 6  238 236 
 CHI  HZ EP   1    114 43.19                             117   -0.08 6  246 197 
 CHI  HN ES   1    115 12.29                             117   -0.07 6  246 197 
 CHI  HZ I         115 20.34         7.1 0.41                           246 197 
 HEL  HZ EP   1    114 47.19                             114    0.47 6  278 257 
 HEL  HZ I         115 24.37         6.5 0.38                           278 257 
 RREF HZ EP   1    114 52.85                             111    0.56 5  324 231 
                                                                                
