 2014 1028 0440 58.9 L   6.770 -73.149145.6  RSN  6 0.4 1.4LRSN                1
 GAP=137        1.13       5.4     5.6  8.2 -0.7351E+01  0.5568E+01  0.1421E+01E
 Epicentro: LOS SANTOS - SANTANDER                                             3
 ACTION:UPD 14-11-29 23:57 OP:nd   STATUS:               ID:20141028044058 L   I
 OLDACT:UP  14-10-30 17:20 OP:cam  STATUS:               ID:20141028043819     3
 OLDACT:REG 14-10-30 15:04 OP:cam  STATUS:               ID:20141028043819     3
 2014-10-28-0438-19M.COL___271                                                 6
 STAT SP IPHASW D HRMM SECON CODA AMPLIT PERI AZIMU VELO AIN AR TRES W  DIS CAZ7
 BAR2 SZ EP        441 18.54                             172    0.0710 19.9 191 
 BAR2 SZ ES        441 34.10                             172    0.3910 19.9 191 
 BAR2 SZ I         441 34.95         5.9 0.28            170           19.9 191 
 BRR  HZ EP        441 20.28                             152    0.1510 72.5 301 
 BRR  HN ES        441 37.36                             152    0.6910 72.5 301 
 BRR  HN I         441 37.50        16.8 0.30            153           72.5 301 
 PAM  SZ EP     C  441 21.48                             150    0.1910 80.2  38 
 PAM  SN ES        441 37.95                             150   -0.7910 80.2  38 
 PAM  SZ I         441 41.48         2.2 0.34            153           80.2  38 
 RUS  HZ EP        441 22.69                             145    0.2710 97.3 176 
 RUS  HN ES        441 40.53                             145   -0.2110 97.3 176 
 RUS  HZ I         441 42.47         2.2 0.22            145           97.3 176 
 PTB  HZ EP        441 25.67                             132   -0.11 9  147 260 
 PTB  HE ES        441 45.99                             132   -0.74 9  147 260 
 PTB  HZ I         441 48.81         2.3 0.14            133            147 260 
 SPBC HE ES        441 49.11                             129   -0.03 9  160 220 
 SPBC HE I         441 55.38         7.0 0.42            130            160 220 
                                                                                
