 2010 1028 0321 16.6 L   6.789 -73.003146.7  RSN 10 0.4 1.9LRSN                1
 GAP=175        0.75       3.4     7.0  5.8 -0.8194E+01  0.2213E+01  0.4206E+01E
 Epicentro: CEPITA - SANTANDER                                                 3
 ACTION:UP  11-02-18 11:12 OP:tino STATUS:               ID:20101028032116 L   I
 2010-10-28-0319-12S.COL___128                                                 6
 STAT SP IPHASW D HRMM SECON CODA AMPLIT PERI AZIMU VELO SNR AR TRES W  DIS CAZ7
 BAR2 SZ IP        321 36.78                             168     0.310   30 222 
 BAR2 SZ ES   1    321 52.28                             168     0.3 7   30 222 
 BAR2 SZ I         321 53.36         8.7 0.33                            30 222 
 BRR  HZ IP     C  321 38.67                             148    -0.110   86 294 
 BRR  HZ I         321 40.38        11.7 0.10                            86 294 
 BRR  HE ES   1    321 55.92                             148    -0.1 7   86 294 
 RUS  HZ EP   1    321 40.56                             144     0.2 7   99 185 
 RUS  HE ES   2    321 58.05                             144    -0.8 5   99 185 
 RUS  HZ I         322  0.74         4.8 0.37                            99 185 
 GRA  SZ IP        321 41.58                             138    -0.110  123  10 
 GRA  SZ ES   1    322  0.86                             138    -0.4 7  123  10 
 GRA  SZ I         322  3.52         8.4 0.34                           123  10 
 OCA  SZ EP   1    321 45.55                             129     0.2 7  164 348 
 OCA  SZ ES   1    322  8.13                             129     0.4 7  164 348 
 OCA  SZ I         322 12.16        12.8 0.18                           164 348 
 NOR  SZ EP   1    321 52.86                             117    -0.9 6  247 237 
 CHI  HZ EP   1    321 54.82                             117     0.1 6  252 199 
 CHI  HE ES   2    322 24.87                             117     0.4 4  252 199 
 HEL  HZ EP   2    321 58.14                             114    -0.4 4  287 257 
 HEL  HZ I         322 37.47         4.4 0.31                           287 257 
 RREF HZ EP   1    322  4.46                             110     0.4 5  333 231 
 RREF HN ES   2    322 41.29                             110     0.2 3  333 231 
 RREF HZ I         322 45.27         4.4 0.24                           333 231 
 PRA  HZ EP   1    322 10.93                             106     0.0 4  399 212 
 PRA  HE ES   2    322 53.35                             106     0.0 3  399 212 
 PRA  HZ I         322 59.37         9.7 0.23                           399 212 
                                                                                
