 2010 1228 0427 26.4 L   6.833 -73.263137.5  RSN  8 0.4 2.1LRSN                1
 GAP=138        0.84       4.0    10.5  8.8 -0.1986E+02  0.3495E+02 -0.9448E+01E
 Epicentro: ZAPATOCA - SANTANDER                                               3
 ACTION:UP  11-01-14 15:27 OP:pat  STATUS:               ID:20101228042726 L   I
 2010-12-28-0420-00M.COL___136                                                 6
 STAT SP IPHASW D HRMM SECON CODA AMPLIT PERI AZIMU VELO SNR AR TRES W  DIS CAZ7
 BTL  SZ EP   1    427 45.38                             176     0.5 8    9 357 
 BAR2 SZ EP   1    427 45.35                             168     0.2 8   28 162 
 BAR2 SZ ES   1    427 59.51                             168    -0.3 8   28 162 
 BAR2 SZ I         428  1.31        19.2 0.23                            28 162 
 RUS  HZ EP   1    427 49.37                             141    -0.4 8  106 169 
 RUS  HN ES   1    428  8.07                             141     0.1 8  106 169 
 RUS  HZ I         428  9.89        15.3 0.21                           106 169 
 GRA  SZ EP        427 51.07                             135     0.010  127  24 
 GRA  SZ ES   1    428 10.57                             135     0.3 7  127  24 
 GRA  SZ I         428 11.84        29.0 0.24                           127  24 
 OCA  SZ EP   1    427 52.85                             129    -0.8 7  156 358 
 OCA  SZ ES   1    428 15.08                             129     0.2 7  156 358 
 OCA  SZ I         428 18.87        14.1 0.24                           156 358 
 NOR  SN ES   2    428 27.55                             118    -0.1 4  227 232 
 ROSC BE ES   2    428 33.05                             115     0.2 4  250 208 
 ROSC BZ I         428 40.88        14.9 0.38                           250 208 
 PRA  HZ EP   1    428 20.04                             105     0.7 5  389 208 
                                                                                
