 2010  928 0131 40.3 L   6.790 -73.078140.0  RSN  8 0.3 1.7LRSN                1
 GAP=166        0.84       4.3     9.6  8.6  0.1441E+02 -0.4507E+02 -0.1904E+02E
 Epicentro: LOS SANTOS - SANTANDER                                             3
 ACTION:UP  11-02-18 11:06 OP:tino STATUS:               ID:20100928013140 L   I
 2010-09-28-0126-52S.COL___122                                                 6
 STAT SP IPHASW D HRMM SECON CODA AMPLIT PERI AZIMU VELO SNR AR TRES W  DIS CAZ7
 BAR2 SZ EP        131 59.18                             170     0.010   25 208 
 BAR2 SZ ES   1    132 13.58                             170    -0.4 7   25 208 
 BAR2 SZ I         132 15.20        22.3 0.17                            25 208 
 BTL  SZ EP        131 59.75                             169     0.510   25 304 
 BRR  HZ EP        132  1.07                             149    -0.110   78 297 
 BRR  HZ I         132  3.47        19.0 0.14                            78 297 
 BRR  HE ES        132 17.68                             149     0.110   78 297 
 RUS  HZ EP        132  3.14                             143    -0.210   99 180 
 RUS  HN ES        132 21.51                             143     0.210   99 180 
 RUS  HZ I         132 23.58         5.0 0.96                            99 180 
 GUE  SZ EP        132  4.29                             138    -0.110  116   8 
 GUE  SZ I         132  5.18         4.7 0.11                           116   8 
 GRA  SZ EP        132  5.16                             136     0.310  125  14 
 GRA  SZ I         132  6.27         7.2 0.39                           125  14 
 OCA  SZ EP        132  8.00                             128    -0.3 9  162 351 
 OCA  SZ I         132 31.15         7.4 0.33                           162 351 
 CHI  HN ES   2    132 46.92                             116    -0.1 4  250 197 
 CHI  HZ I         132 56.97         2.9 0.54                           250 197 
                                                                                
