 2012  428 0657 12.4 L   6.770 -73.154148.9  RSN  8 0.4 2.1LRSN                1
 GAP=137        0.79       4.6     4.4  6.2  0.1887E+00  0.4500E+01 -0.2742E+01E
 Epicentro: LOS SANTOS - SANTANDER                                             3
 ACTION:UPD 12-07-05 11:56 OP:tino STATUS:               ID:20120428065712 L   I
 2012-04-28-0650-00M.COL___189                                                 6
 STAT SP IPHASW D HRMM SECON CODA AMPLIT PERI AZIMU VELO AIN AR TRES W  DIS CAZ7
 BAR2 SZ EP        657 32.35                             172     0.010   20 189 
 BAR2 SZ ES   1    657 47.84                             172     0.0 7   20 189 
 BAR2 SZ I         657 49.06        29.9 0.24                            20 189 
 BRR  HZ IP     C  657 34.19                             153     0.310   72 301 
 BRR  HZ I         657 34.45        52.6 0.13                            72 301 
 BRR  HE ES   1    657 51.44                             153     0.7 7   72 301 
 PAM  SZ EP        657 35.25                             150     0.110   81  39 
 PAM  SN ES   1    657 52.55                             150    -0.3 7   81  39 
 RUS  HZ EP   1    657 36.17                             145    -0.1 7   97 175 
 RUS  HN ES   1    657 54.54                             145    -0.3 7   97 175 
 PTB  HZ EP   1    657 38.93                             133    -0.5 7  146 260 
 PTB  HN ES   1    658  0.33                             133    -0.3 7  146 260 
 PTB  HZ I         658  7.55         7.5 0.48                           146 260 
 OCA  SZ EP   1    657 41.21                             130     0.0 7  163 354 
 ZAR  HZ EP   1    657 44.83                             123    -0.3 6  204 293 
 ZAR  HN ES   1    658 10.37                             123    -0.2 6  204 293 
 ZAR  HZ I         658 13.80         6.8 0.14                           204 293 
 PRA  HZ EP   1    658  6.63                             107     1.0 4  389 210 
                                                                                
