 2014 1228 0338 48.5 L   6.541 -73.540110.0  RSN 18 0.5 2.5LRSN                1
 GAP= 51        1.07       2.7     2.4  5.2 -0.7443E+00  0.3836E+01  0.4705E+00E
 Epicentro: EL CARMEN - SANTANDER                                              3
 ACTION:UPD 15-02-10 17:07 OP:nd   STATUS:               ID:20141228033848 L   I
 OLDACT:UP  14-12-28 16:07 OP:mh   STATUS:               ID:20141228033739d    3
 OLDACT:UP  14-12-28 16:06 OP:mh   STATUS:               ID:20141228033739d    3
 OLDACT:UP  14-12-28 16:04 OP:mh   STATUS:               ID:20141228033739d    3
 OLDACT:UP  14-12-28 16:04 OP:mh   STATUS:               ID:20141228033739d    3
 OLDACT:DUP 14-12-28 15:49 OP:mh   STATUS:               ID:20141228033739d    3
 2014-12-28-0337-38M.COL___262                                                 6
 STAT SP IPHASW D HRMM SECON CODA AMPLIT PERI AZIMU VELO AIN AR TRES W  DIS CAZ7
 BAR2 EZ IP     D  339  4.97                             159    0.4910 40.0  82 
 BAR2 EZ ES        339 17.34                             159    0.4310 40.0  82 
 BAR2 EZ I         339 18.84       336.3 0.26            157           40.0  82 
 BRR  HZ IP     D  339  5.77                             147    0.2110 65.4 343 
 BRR  HN ES        339 19.14                             147    0.3110 65.4 343 
 BRR  HZ I         339 29.04        47.4 0.13            148           65.4 343 
 RUS  HZ EP        339  7.87                             139   -0.0310 87.7 145 
 RUS  HN ES        339 23.05                             139    0.0510 87.7 145 
 RUS  HZ I         339 24.41        39.0 0.56            137           87.7 145 
 PTB  HZ EP     D  339  7.79                             134   -0.5910  101 270 
 PTB  HN ES   1 C  339 23.21                             134   -0.66 7  101 270 
 PTB  HZ I         339 23.56        92.9 0.36            134            101 270 
 SPBC HZ EP        339  9.74                             130    0.0510  115 211 
 SPBC HN ES   1    339 25.47                             130   -0.71 7  115 211 
 SPBC HZ I         339 38.58        44.4 0.38            129            115 211 
 PAM  SZ EP        339 11.73                             127    0.2210  128  46 
 PAM  SN ES        339 29.37                             127   -0.0710  128  46 
 PAM  SZ I         339 30.63        76.8 0.24            127            128  46 
 ZAR  HZ EP   1    339 16.90                             117    0.67 7  180 306 
 ZAR  HN ES        339 38.11                             117    0.27 9  180 306 
 NOR  HZ EP        339 16.34                             116   -0.27 9  183 234 
 NOR  HN ES   1    339 37.66                             116   -0.85 7  183 234 
 NOR  HZ I         339 39.88        37.7 0.38            116            183 234 
 OCA  HZ EP        339 17.08                             115   -0.40 9  189   7 
 OCA  HN ES        339 40.12                             115    0.06 9  189   7 
 OCA  HZ I         339 45.95        56.2 0.52            115            189   7 
 TAM  HZ EP        339 17.71                             115   -0.12 9  194  93 
 TAM  HZ I         339 39.81        12.0 0.10            114            194  93 
 TAM  HN ES        339 39.92                             115   -0.77 9  194  93 
 ROSC BZ EP   4    339 21.04                             113    1.29 0  207 205 
 ROSC BN ES   4    339 45.89                             113    1.79 0  207 205 
 ROSC BZ I         339 50.68        19.7 0.40            112            207 205 
 HEL  HZ EP        339 21.47                             111   -0.11 8  223 260 
 HEL  HN ES        339 47.40                             111    0.05 8  223 260 
 HEL  HZ I         339 50.72        25.7 0.38            111            223 260 
 SML  HZ EP        339 24.83                             108   -0.11 8  257 347 
 SML  HN ES   4    339 54.48                             108    1.14 0  257 347 
 SML  HZ I         339 56.68        64.1 0.30            108            257 347 
 URE  HZ EP   1    339 24.23                             108   -0.84 6  258 301 
 URE  HN ES        339 52.74                             108   -0.83 8  258 301 
 URE  HZ I         340  3.23        20.3 0.24            108            258 301 
 VIL  SZ EP   1    339 26.85                             107    0.29 6  269 184 
 VIL  SN ES   4    340  1.23                             107    5.01 0  269 184 
 VIL  SZ I         340  6.01        14.7 0.54            106            269 184 
 CBOC HZ EP   1    339 29.32                             106    1.01 6  284 255 
 CBOC HN ES        340  0.31                             106    0.98 7  284 255 
 TOL  SZ EP        339 30.42                             105    0.84 7  293 222 
 TOL  SN ES   4    340  3.66                             105    2.07 0  293 222 
 ANIL HZ EP   1    339 31.55                             104    0.38 5  307 222 
 ANIL HN ES   1    340  4.76                             104    0.34 5  307 222 
                                                                                
