 2012  928 0744 54.6 L   6.782 -73.128147.7  RSN  4 0.4 1.2LRSN                1
 GAP=140        0.62       5.9     6.5 10.5  0.6703E+01  0.2682E+01  0.6406E+01E
 Epicentro: LOS SANTOS - SANTANDER                                             3
 ACTION:UPD 12-10-22 14:21 OP:ep   STATUS:               ID:20120928074454 L   I
 2012-09-28-0740-00M.COL___213                                                 6
 STAT SP IPHASW D HRMM SECON CODA AMPLIT PERI AZIMU VELO AIN AR TRES W  DIS CAZ7
 BRR  HZ EP   1    745 16.37                             152    0.23 7 73.9 299 
 BRR  HN ES   2    745 33.45                             152    0.53 5 73.9 299 
 BRR  HZ I         745 37.09         3.3 0.14                          73.9 299 
 PAM  SZ EP   1    745 16.83                             151   -0.25 7 77.8  37 
 PAM  SN ES   2    745 34.56                             151   -0.03 5 77.8  37 
 PAM  SZ I         745 36.65         3.7 0.21                          77.8  37 
 RUS  HZ EP   1    745 18.68                             145    0.26 7 98.4 177 
 RUS  HZ I         745 19.02         1.9 0.25                          98.4 177 
 RUS  HE ES   2    745 36.49                             145   -0.49 5 98.4 177 
 ZAR  HN ES   2    745 52.30                             122   -0.77 4  207 292 
                                                                                
