 2017  828 0740 16.2 L   6.754 -73.132144.2  RSN  5 0.4 1.3LRSN                1
 GAP=140        0.94       4.5     6.3  7.6 -0.8441E+01 -0.9949E+00  0.2421E+01E
 Epicentro: LOS SANTOS - SANTANDER                                             3
 ACTION:UPD 17-09-04 20:25 OP:rebc STATUS:               ID:20170828074016 L   I
 OLDACT:UP  17-08-28 18:08 OP:edw  STATUS:               ID:20170828073744     3
 OLDACT:REG 17-08-28 12:58 OP:dhb  STATUS:               ID:20170828073744     3
 2017-08-28-0738-00M.COL___408                                                 6
 STAT SP IPHASW D HRMM SECON CODA AMPLIT PERI AZIMU VELO AIN AR TRES W  DIS CAZ7
 BAR2 EZ EP        740 35.50                             172   -0.0610 18.7 197 
 BAR2 EZ ES        740 50.37                             172   -0.2810 18.7 197 
 BAR2 EZ I         740 54.06         3.7 0.54            172           18.7 197 
 BRR  HZ EP        740 37.27                             151   -0.1310 75.0 301 
 BRR  HN ES        740 54.49                             151    0.5510 75.0 301 
 PAM  EZ EP        740 38.46                             149    0.0210 80.5  36 
 PAM  EN ES        740 55.46                             149   -0.3210 80.5  36 
 PAM  EZ I         740 57.62         4.0 0.44            152           80.5  36 
 RUS  HZ EP        740 39.76                             145    0.3310 95.4 177 
 RUS  HN ES        740 57.94                             145    0.4010 95.4 177 
 RUS  HZ I         740 59.21         1.8 0.24            146           95.4 177 
 SPBC HZ EP   4    740 40.36                             129   -3.94 0  160 221 
 SPBC HN ES        741  5.60                             129   -0.61 9  160 221 
 SPBC HZ I         741  8.88         3.2 0.30            131            160 221 
                                                                                
