 2015  128 0822 35.8 L   6.756 -73.137155.7  RSN  5 0.4 1.3LRSN                1
 GAP=201        0.95       5.4     8.6  7.1  0.2279E+02 -0.1379E+01 -0.1150E+02E
 Epicentro: LOS SANTOS - SANTANDER                                             3
 ACTION:UPD 15-03-02 15:43 OP:nd   STATUS:               ID:20150128081814 L   I
 OLDACT:UPD 15-01-28 15:03 OP:CF   STATUS:               ID:20150128081814 L   3
 2015-01-28-0818-14M.COL___268                                                 6
 STAT SP IPHASW D HRMM SECON CODA AMPLIT PERI AZIMU VELO AIN AR TRES W  DIS CAZ7
 BAR2 EZ EP   1    822 55.72                             173   -0.80 7 18.8 196 
 BAR2 EZ ES        823 12.19                             173   -0.5110 18.8 196 
 BRR  HZ EP   1    822 58.50                             153    0.32 7 74.5 301 
 BRR  HN ES        823 16.10                             153    0.4410 74.5 301 
 BRR  HN I         823 19.15         6.3 0.18            148           74.5 301 
 RUS  HZ EP        823  0.51                             147    0.3310 95.7 176 
 RUS  HZ I         823  1.51         0.8 0.22            148           95.7 176 
 RUS  HN ES        823 19.53                             147    0.3110 95.7 176 
 PTB  HZ EP        823  3.56                             134   -0.02 9  148 261 
 PTB  HN ES   1    823 24.80                             134   -0.46 7  148 261 
 PTB  HZ I         823 30.45         1.9 0.40            131            148 261 
 SML  HZ EP        823 13.22                             119   -0.27 8  249 336 
 SML  HN ES        823 43.08                             119    0.17 8  249 336 
 SML  HZ I         823 48.65         2.7 0.28            118            249 336 
                                                                                
