 2017  128 0048 21.3 L   6.746 -73.151138.4  RSN  6 0.4 1.5LRSN                1
 GAP=138        1.10       5.3     4.8  8.0  0.2068E+01  0.8079E+01  0.1422E+00E
 Epicentro: LOS SANTOS - SANTANDER                                             3
 ACTION:UPD 17-05-22 16:04 OP:jn   STATUS:               ID:20170128004821 L   I
 OLDACT:REG 17-01-28 13:05 OP:lv   STATUS:               ID:20170128003746     3
 2017-01-28-0038-00M.COL___346                                                 6
 STAT SP IPHASW D HRMM SECON CODA AMPLIT PERI AZIMU VELO AIN AR TRES W  DIS CAZ7
 BAR2 EZ EP        048 40.12                             172    0.1810 17.4 191 
 BAR2 EZ ES        048 54.76                             172    0.2810 17.4 191 
 BAR2 EZ I         048 56.23         8.3 0.23            172           17.4 191 
 BRR  HZ EP        048 42.01                             150    0.2010 73.7 303 
 BRR  HN ES        048 57.95                             150    0.1410 73.7 303 
 BRR  HZ I         049  0.67        12.5 0.14            149           73.7 303 
 PAM  EZ EP        048 43.07                             148    0.0110 82.4  37 
 PAM  EN ES        048 59.53                             148   -0.5010 82.4  37 
 PAM  EZ I         049  0.57         3.7 0.21            151           82.4  37 
 RUS  HZ EP        048 44.15                             144    0.2410 94.7 175 
 RUS  HN ES        049  1.65                             144    0.1110 94.7 175 
 RUS  HZ I         049  3.74         2.7 0.28            146           94.7 175 
 PTB  HZ EP        048 46.96                             131   -0.57 9  146 261 
 PTB  HN ES        049  7.16                             131   -0.83 9  146 261 
 PTB  HZ I         049 10.09         3.8 0.10            131            146 261 
 ZAR  HN ES        049 19.34                             120    0.79 8  206 294 
 ZAR  HZ I         049 24.88         3.8 0.14            121            206 294 
                                                                                
