 2013  228 0957 47.3 L   6.345 -73.557108.2  RSN 12 0.4 2.1LRSN                1
 GAP= 80        0.80       2.8     2.8  5.9  0.1489E+00  0.3364E+01 -0.4569E-01E
 Epicentro: SANTA HELENA DEL OPON - SANTANDER                                  3
 ACTION:UPD 13-03-12 09:36 OP:ep   STATUS:               ID:20130228095747 L   I
 2013-02-28-0950-00M.COL___228                                                 6
 STAT SP IPHASW D HRMM SECON CODA AMPLIT PERI AZIMU VELO AIN AR TRES W  DIS CAZ7
 BAR2 SZ EP        958  3.89                             153    0.3510 49.6  57 
 BAR2 SZ ES   1    958 16.25                             153    0.06 7 49.6  57 
 BAR2 SZ I         958 18.29        53.1 0.50            157           49.6  57 
 RUS  HZ EP   1    958  5.37                             144    0.02 7 72.4 134 
 RUS  HN ES   1    958 19.67                             144    0.26 7 72.4 134 
 RUS  HZ I         958 21.47        21.0 0.20            149           72.4 134 
 BRR  HZ EP   1    958  5.64                             138   -0.05 7 86.0 349 
 BRR  HN ES   1    958 20.50                             138    0.47 7 86.0 349 
 BRR  HZ I         958 27.98        25.9 0.14            141           86.0 349 
 PTB  HZ IP     D  958  6.45                             133   -0.6110  102 282 
 PTB  HN ES   1    958 21.60                             133   -0.86 7  102 282 
 PAM  SZ EP   1    958 11.68                             122   -0.20 7  145  41 
 PAM  SE ES   1    958 30.90                             122   -0.13 7  145  41 
 PAM  SZ I         958 32.62        13.5 0.26            126            145  41 
 CHI  HZ EP   1    958 16.71                             115    0.06 7  191 186 
 CHI  HN ES   1    958 39.75                             115    0.22 7  191 186 
 CHI  HZ I         958 44.40         5.3 0.66            119            191 186 
 ZAR  HZ EP   1    958 16.07                             114   -0.19 7  192 312 
 ZAR  HN ES   1    958 38.89                             114    0.05 7  192 312 
 ZAR  HZ I         958 46.29        21.8 0.39            117            192 312 
 TAM  HZ EP   1    958 16.45                             114   -0.28 6  196  87 
 TAM  HN ES   2    958 39.04                             114   -0.63 4  196  87 
 TAM  HZ I         958 43.64         7.8 0.18            118            196  87 
 OCA  HZ EP   1    958 19.53                             112    0.92 6  211   7 
 OCA  HN ES   1    958 42.80                             112   -0.22 6  211   7 
 OCA  HZ I         958 47.89        21.0 0.22            115            211   7 
 HEL  HZ EP   1    958 20.46                             111    0.70 6  219 266 
 HEL  HE ES   1    958 45.33                             111    0.26 6  219 266 
 HEL  HZ I         958 48.40         6.8 0.22            114            219 266 
 URE  HZ EP   4    958 23.58                             106   -1.43 0  268 306 
 URE  HN ES   4    958 51.97                             106   -2.44 0  268 306 
 URE  HZ I         958 55.61        18.2 0.12            109            268 306 
 SML  HZ EP   2    958 25.66                             105   -0.43 4  278 348 
 SML  HN ES   2    958 56.72                             105    0.38 4  278 348 
                                                                                
