 2013  128 0959 25.2 L   6.785 -73.153141.5  RSN  6 0.4 1.7LRSN                1
 GAP= 99        0.94       5.1     4.4  7.1 -0.2255E+01  0.2211E+00  0.2249E+01E
 Epicentro: LOS SANTOS - SANTANDER                                             3
 ACTION:UPD 13-02-15 09:17 OP:ep   STATUS:               ID:20130128095925 L   I
 2013-01-28-0948-40M.COL___168                                                 6
 STAT SP IPHASW D HRMM SECON CODA AMPLIT PERI AZIMU VELO AIN AR TRES W  DIS CAZ7
 BAR2 SZ EP   1    959 44.52                             171    0.21 7 21.6 189 
 BAR2 SZ ES   1    959 58.77                             171   -0.42 7 21.6 189 
 BAR2 SZ I        10 0  0.39        13.8 0.22            170           21.6 189 
 BRR  HZ EP        959 45.88                             152   -0.0510 71.3 300 
 BRR  HN ES       10 0  2.84                             152    0.7710 71.3 300 
 BRR  HN I        10 0  6.92        16.4 0.42            150           71.3 300 
 PAM  SZ EP        959 47.32                             149    0.2110 79.2  39 
 PAM  SZ I         959 47.53        11.4 0.22            152           79.2  39 
 PAM  SN ES       10 0  3.67                             149   -0.4910 79.2  39 
 RUS  HZ EP   1    959 48.48                             143    0.03 7 99.0 176 
 RUS  HN ES       10 0  6.75                             143    0.1910 99.0 176 
 RUS  HN I        10 0  7.83         5.0 0.22            145           99.0 176 
 PTB  HZ EP        959 51.59                             131   -0.17 9  147 259 
 PTB  HN ES       10 0 11.93                             131   -0.51 9  147 259 
 PTB  HN I        10 0 17.70         5.2 0.24            131            147 259 
 TAM  HZ EP   1    959 52.73                             129    0.12 7  155 104 
 TAM  HZ I         959 52.73         3.9 0.30            133            155 104 
                                                                                
