 2015  128 0319  4.4 L   6.905 -73.115148.8  RSN  4 0.3 1.5LRSN                1
 GAP=283        0.76       7.9     5.6  8.3  0.1840E+02 -0.2917E+01 -0.1763E+02E
 Epicentro: PIEDECUESTA - SANTANDER                                            3
 ACTION:UPD 15-03-02 15:43 OP:nd   STATUS:               ID:20150128031904 L   I
 OLDACT:REG 15-01-28 13:28 OP:cam  STATUS:               ID:20150128031818     3
 2015-01-28-0318-18M.COL___280                                                 6
 STAT SP IPHASW D HRMM SECON CODA AMPLIT PERI AZIMU VELO AIN AR TRES W  DIS CAZ7
 RUS  HZ EP        319 29.30                             141   -0.0210  112 178 
 RUS  HN ES        319 48.72                             141   -0.0210  112 178 
 RUS  HN I         319 49.91         3.1 0.38            136            112 178 
 PTB  HZ EP        319 32.65                             131    0.46 9  154 255 
 PTB  HN ES        319 53.61                             131   -0.23 9  154 255 
 PTB  HZ I         319 59.55         3.1 0.22            126            154 255 
 NOR  HZ EP        319 40.67                             118   -0.70 8  244 233 
 NOR  HN ES        320 10.49                             118    0.31 8  244 233 
 NOR  HN I         320 21.43         5.4 0.20            115            244 233 
 CHI  HZ EP        319 43.77                             116    0.16 8  261 195 
 CHI  HE ES   1    320 14.12                             116   -0.05 6  261 195 
                                                                                
