 2016  728 0022 53.7 L   6.633 -73.094150.4  RSN  7 0.5 1.7LRSN                1
 GAP=232        1.18       6.9     6.3  8.1  0.1304E+02  0.2112E+02  0.1138E+02E
 Epicentro: CURITI - SANTANDER                                                 3
 ACTION:UPD 17-03-29 16:55 OP:lp   STATUS:               ID:20160728002253 L   I
 OLDACT:UP  16-07-28 14:58 OP:edw  STATUS:               ID:20160728001745     3
 OLDACT:REG 16-07-28 12:38 OP:edw  STATUS:               ID:20160728001745     3
 2016-07-28-0017-45M.COL___347                                                 6
 STAT SP IPHASW D HRMM SECON CODA AMPLIT PERI AZIMU VELO AIN AR TRES W  DIS CAZ7
 BAR2 EZ EP        023 14.43                             176    0.7010 10.7 245 
 BAR2 EZ ES        023 29.99                             176    0.6610 10.7 245 
 RUS  HZ EP        023 16.08                             150   -0.6210 81.9 179 
 RUS  HN ES        023 34.07                             150   -0.5610 81.9 179 
 RUS  HZ I         023 37.91         6.8 0.20            148           81.9 179 
 BRR  HZ EP        023 16.32                             149    0.0710 86.1 308 
 BRR  HN ES        023 33.78                             149   -0.0510 86.1 308 
 PAM  EZ EP   4    023 33.81                             148   16.64 0 89.4  29 
 PAM  EE ES   4    023 57.10                             148   21.64 0 89.4  29 
 PTB  HZ EP        023 21.10                             132   -0.26 9  151 266 
 PTB  HN ES        023 42.83                             132   -0.09 9  151 266 
 PTB  HZ I         023 46.10         5.2 0.10            132            151 266 
 ZAR  HZ EP   4    023 13.04                             122   -14.7 0  217 296 
 ZAR  HE ES        023 53.47                             122   -0.88 8  217 296 
 HEL  HZ EP        023 34.78                             116    0.42 8  274 260 
 HEL  HE ES        024  6.44                             116    0.39 8  274 260 
 HEL  HZ I         024 13.34         3.2 0.28            116            274 260 
 GUY2CHN EP        023 37.12                             114    0.18 7  296 238 
 GUY2CHE ES        024 10.96                             114    0.31 7  296 238 
 GUY2CHN I         024 24.44         3.1 0.46                           296 238 
 LCBC HZ EP   4    023 38.34                             105   -14.3 0  437 304 
 LCBC HE ES   4    024 14.96                             105   -23.6 0  437 304 
                                                                                
