 2014  928 0338 50.6 L   6.682 -73.087146.5  RSN  6 0.3 1.3LRSN                1
 GAP=235        0.63       3.6     4.9  6.2  0.7836E+01 -0.4237E-01  0.2355E+01E
 Epicentro: JORDAN - SANTANDER                                                 3
 ACTION:UPD 14-10-03 23:09 OP:nd   STATUS:               ID:20140928033850 L   I
 OLDACT:REG 14-09-28 13:16 OP:spq  STATUS:               ID:20140928033820     3
 2014-09-28-0338-20M.COL___292                                                 6
 STAT SP IPHASW D HRMM SECON CODA AMPLIT PERI AZIMU VELO AIN AR TRES W  DIS CAZ7
 BRR  HZ EP        339 12.69                             149    0.1610 83.5 304 
 BRR  HN ES        339 29.87                             149    0.2010 83.5 304 
 BRR  HZ I         339 33.73         2.7 0.27            149           83.5 304 
 RUS  HZ EP   1    339 13.74                             148    0.26 7 87.3 180 
 RUS  HN ES   1    339 30.84                             148   -0.51 7 87.3 180 
 RUS  HZ I         339 34.64         1.9 0.42            149           87.3 180 
 PTB  HZ EP        339 17.96                             131   -0.04 9  152 264 
 PTB  HE ES        339 39.27                             131   -0.13 9  152 264 
 PTB  HZ I         339 44.50         2.5 0.28            132            152 264 
 SPBC HZ EP        339 18.31                             130   -0.29 9  158 224 
 SPBC HN ES   1    339 40.84                             130    0.37 7  158 224 
 SPBC HZ I         339 47.44         3.1 0.18            131            158 224 
 ZAR  HN ES        339 50.23                             121   -0.23 8  215 295 
 ZAR  HZ I         339 55.56         2.7 0.12            124            215 295 
 CHI  HE ES   1    339 56.09                             118    0.41 6  238 198 
                                                                                
