 2017  428 0911 34.5 L   6.516 -74.148 23.2  RSN  6 0.4 1.0LRSN                1
 GAP= 84        0.97       2.3     2.2  3.0  0.1364E+00 -0.7984E+00  0.3743E+00E
 Epicentro: PUERTO PARRA - SANTANDER                                           3
 ACTION:UPD 17-05-30 21:16 OP:jn   STATUS:               ID:20170428091134 L   I
 OLDACT:UP  17-04-28 19:00 OP:and  STATUS:               ID:20170428090749d    3
 OLDACT:DUP 17-04-28 18:58 OP:and  STATUS:               ID:20170428090749d    3
 OLDACT:UP  17-04-28 18:55 OP:and  STATUS:               ID:20170428090748     3
 OLDACT:UP  17-04-28 18:55 OP:and  STATUS:               ID:20170428090748     3
 OLDACT:UP  17-04-28 18:52 OP:and  STATUS:               ID:20170428090748     3
 OLDACT:UP  17-04-28 18:51 OP:and  STATUS:               ID:20170428090748     3
 OLDACT:UP  17-04-28 18:50 OP:and  STATUS:               ID:20170428090748     3
 OLDACT:UP  17-04-28 18:50 OP:and  STATUS:               ID:20170428090748     3
 OLDACT:UP  17-04-28 18:50 OP:and  STATUS:               ID:20170428090748     3
 OLDACT:UP  17-04-28 18:48 OP:and  STATUS:               ID:20170428090748     3
 OLDACT:UP  17-04-28 18:48 OP:and  STATUS:               ID:20170428090748     3
 OLDACT:UP  17-04-28 18:47 OP:and  STATUS:               ID:20170428090748     3
 OLDACT:UP  17-04-28 18:47 OP:and  STATUS:               ID:20170428090748     3
 OLDACT:REG 17-04-28 12:56 OP:and  STATUS:               ID:20170428090748     3
 2017-04-28-0908-00M.COL___362                                                 6
 STAT SP IPHASW D HRMM SECON CODA AMPLIT PERI AZIMU VELO AIN AR TRES W  DIS CAZ7
 PTB  HZ EP        911 41.51                             122    0.3310 34.2 274 
 PTB  HN ES        911 46.79                             122    0.4310 34.2 274 
 PTB  HZ I         911 47.13         8.1 0.14            122           34.2 274 
 BRR  HZ IP     C  911 47.51                             104   -0.2910 81.2  36 
 BRR  HN ES        911 57.85                             104   -0.2810 81.2  36 
 BRR  HZ I         911 59.07         5.8 0.12            104           81.2  36 
 SPBC HN ES        912  1.68                             102   -0.4810 95.9 175 
 SPBC HZ I         912  3.15         5.7 0.12            102           95.9 175 
 ZAR  HZ EP   2    911 54.71                              56   -0.15 5  133 324 
 ZAR  HE ES        912 10.75                              56    0.0510  133 324 
 ZAR  HZ I         912 11.55         1.7 0.04             56            133 324 
 RUS  HZ EP        911 56.08                              56    0.27 9  136 120 
 RUS  HN ES        912 12.96                              56    0.56 9  136 120 
 RUS  HZ I         912 13.36         1.6 0.30             56            136 120 
 HEL  HN ES        912 16.16                              56   -0.54 9  157 257 
 HEL  HZ I         912 17.19         6.2 0.20             56            157 257 
                                                                                
