 2013  128 0357 21.8 L   6.802 -73.167144.7  RSN  7 0.5 2.3LRSN                1
 GAP=181        1.16       4.8     5.5  8.9  0.1492E+01  0.1222E+02 -0.1126E+02E
 Epicentro: LOS SANTOS - SANTANDER                                             3
 ACTION:UP  13-02-15 09:17 OP:ep   STATUS:               ID:20130128035722 L   I
 2013-01-28-0348-48M.COL___171                                                 6
 STAT SP IPHASW D HRMM SECON CODA AMPLIT PERI AZIMU VELO AIN AR TRES W  DIS CAZ7
 BAR2 SZ EP        357 41.29                             170   -0.0410 23.3 184 
 BAR2 SZ I         357 56.91        76.5 0.32            170           23.3 184 
 BAR2 SZ ES        357 56.93                             170    0.3910 23.3 184 
 BRR  HZ EP        357 43.07                             153    0.3310 69.0 299 
 BRR  HN ES   2    358  0.04                             153    0.99 5 69.0 299 
 RUS  HZ EP        357 45.39                             143   -0.1210  101 175 
 RUS  HN ES        358  3.77                             143   -0.2110  101 175 
 RUS  HZ I         358  5.52        13.4 0.32            142            101 175 
 PTB  HZ EP        357 48.24                             132   -0.26 9  146 259 
 PTB  HN ES        358  8.90                             132   -0.41 9  146 259 
 PTB  HZ I         358 11.09        16.9 0.40            131            146 259 
 OCA  HZ EP        357 49.98                             129   -0.02 9  160 354 
 OCA  HN ES        358 11.21                             129   -0.77 9  160 354 
 OCA  HZ I         358 15.81        25.8 0.34            128            160 354 
 ZAR  HZ EP        357 55.10                             122    1.13 9  202 292 
 ZAR  HN ES        358 19.21                             122    0.17 9  202 292 
 ZAR  HZ I         358 24.74        23.7 0.32            121            202 292 
 HEL  HZ EP   4    358  3.84                             115    2.10 0  270 256 
 HEL  HN ES        358 32.35                             115   -0.52 8  270 256 
 HEL  HZ I         358 39.18        11.4 0.46            113            270 256 
                                                                                
