 2017  728 0828  2.7 L   6.766 -73.161156.0  RSN  6 0.3 1.2LRSN                1
 GAP=233        0.54       6.2     4.6  5.6  0.8878E+01  0.4128E+00  0.6654E+01E
 Epicentro: LOS SANTOS - SANTANDER                                             3
 ACTION:UPD 17-08-30 15:37 OP:rebc STATUS:               ID:20170728082802 L   I
 OLDACT:UP  17-07-28 16:15 OP:and  STATUS:               ID:20170728082740     3
 OLDACT:REG 17-07-28 12:46 OP:and  STATUS:               ID:20170728082740     3
 2017-07-28-0828-00M.COL___373                                                 6
 STAT SP IPHASW D HRMM SECON CODA AMPLIT PERI AZIMU VELO AIN AR TRES W  DIS CAZ7
 BAR2 EZ EP   2    828 23.24                             173   -0.28 5 19.4 187 
 BAR2 EZ ES   2    828 39.39                             173   -0.35 5 19.4 187 
 BAR2 EZ I         828 39.66         2.5 0.18            172           19.4 187 
 BRR  HZ EP        828 25.04                             154    0.0310 71.6 302 
 BRR  HN ES        828 42.60                             154    0.2010 71.6 302 
 BRR  HZ I         828 47.26         3.0 0.29            151           71.6 302 
 RUS  HZ EP   2    828 27.70                             147    0.45 5 97.0 175 
 PTB  HZ EP        828 29.99                             135   -0.35 9  145 260 
 PTB  HN ES        828 52.03                             135    0.14 9  145 260 
 PTB  HZ I         828 56.34         1.1 0.21            134            145 260 
 SPBC HZ EP   3    828 32.52                             132    0.85 2  159 219 
 ZAR  HZ EP   2    828 36.21                             125    0.36 4  204 293 
 ZAR  HE ES        829  1.54                             125   -0.15 9  204 293 
 ZAR  HZ I         829  6.41         1.7 0.40            125            204 293 
                                                                                
