 2016  228 0119 36.4 L   7.413 -73.194128.6  RSN  9 0.4 2.0LRSN                1
 GAP=107        0.84       2.7     3.5  6.1 -0.3048E+00  0.9948E+01  0.3722E+01E
 Epicentro: EL PLAYON - SANTANDER                                              3
 ACTION:UPD 16-03-04 21:30 OP:rebc STATUS:               ID:20160228011936 L   I
 OLDACT:REG 16-02-28 12:26 OP:drio STATUS:               ID:20160228011749     3
 2016-02-28-0117-49M.COL___322                                                 6
 STAT SP IPHASW D HRMM SECON CODA AMPLIT PERI AZIMU VELO AIN AR TRES W  DIS CAZ7
 PAM  EZ EP        119 55.82                             156    0.3410 55.2  98 
 PAM  EN ES        120 10.65                             156    0.2510 55.2  98 
 PAM  EZ I         120 12.35        16.8 0.14            161           55.2  98 
 BAR2 EZ EP        119 57.37                             143    0.0210 90.7 179 
 BAR2 EZ ES        120 13.56                             143   -0.1710 90.7 179 
 BAR2 EZ I         120 14.97        17.3 0.28            144           90.7 179 
 OCA  HZ EP        119 57.31                             142   -0.0510 92.4 351 
 OCA  HN ES        120 13.34                             142   -0.4010 92.4 351 
 OCA  HZ I         120 16.00        44.2 0.36            146           92.4 351 
 RUS  HZ EP        120  4.58                             124   -0.09 9  169 176 
 RUS  HN ES        120 26.40                             124   -0.35 9  169 176 
 PTB  HZ EP        120  3.72                             124   -0.43 9  170 235 
 PTB  HN ES        120 25.64                             124   -0.19 9  170 235 
 PTB  HZ I         120 29.27         8.8 0.40            125            170 235 
 ZAR  HZ EP        120  5.45                             121   -0.16 9  184 273 
 ZAR  HE ES        120 29.12                             121    0.70 9  184 273 
 ZAR  HZ I         120 31.66        13.9 0.34            123            184 273 
 SPBC HZ EP        120  9.63                             117    0.32 8  218 207 
 SPBC HN ES        120 35.59                             117    0.57 8  218 207 
 SPBC HZ I         120 43.31        12.6 0.20            119            218 207 
 NOR  HZ EP        120 16.02                             111    0.22 7  276 222 
 NOR  HE ES        120 46.59                             111    0.03 7  276 222 
 NOR  HZ I         120 52.12         7.2 0.20            113            276 222 
 GUY2CHZ EP   4    120 26.19                             106    2.34 0  341 225 
 GUY2CHN ES        121  0.19                             106   -0.71 7  341 225 
 GUY2CHZ I         121 13.14         3.6 0.40                           341 225 
                                                                                
