 2013  328 0459 55.5 L   6.795 -73.151146.4  RSN  8 0.4 1.9LRSN                1
 GAP=136        0.84       3.7     4.9  6.2 -0.1597E+01  0.5272E+01 -0.6691E+00E
 Epicentro: LOS SANTOS - SANTANDER                                             3
 ACTION:UPD 13-04-09 14:05 OP:ep   STATUS:               ID:20130328045955 L   I
 2013-03-28-0500-00M.COL___245                                                 6
 STAT SP IPHASW D HRMM SECON CODA AMPLIT PERI AZIMU VELO AIN AR TRES W  DIS CAZ7
 BAR2 SZ IP        5 0 15.24                             171    0.0310 22.7 189 
 BAR2 SZ ES   1    5 0 30.35                             171   -0.22 7 22.7 189 
 BAR2 SZ I         5 0 34.52        20.1 0.14            169           22.7 189 
 BRR  HZ IP     C  5 0 17.00                             153    0.2810 70.9 299 
 BRR  HN ES   1    5 0 33.99                             153    0.74 7 70.9 299 
 PAM  SZ EP        5 0 18.17                             151    0.3210 78.2  40 
 PAM  SN ES   1    5 0 35.26                             151   -0.01 7 78.2  40 
 PAM  SZ I         5 0 36.36        10.5 0.28            156           78.2  40 
 RUS  HZ EP   1    5 0 19.48                             144    0.18 7  100 176 
 RUS  HN ES   1    5 0 37.39                             144   -0.45 7  100 176 
 RUS  HZ I         5 0 39.28         8.8 0.24            147            100 176 
 PTB  HZ EP        5 0 22.04                             132   -0.43 9  147 259 
 PTB  HN ES   1    5 0 42.99                             132   -0.51 7  147 259 
 PTB  HZ I         5 0 48.90         9.4 0.50            133            147 259 
 OCA  HZ EP        5 0 23.38                             130   -0.54 9  161 353 
 OCA  HN ES   2    5 0 45.62                             130   -0.45 5  161 353 
 OCA  HZ I         5 0 49.64        12.5 0.34            133            161 353 
 ZAR  HZ EP   1    5 0 27.91                             123   -0.06 6  204 292 
 ZAR  HN ES   2    5 0 54.24                             123    0.97 4  204 292 
 ZAR  HZ I         5 0 58.77        13.6 0.40            124            204 292 
 CHI  HZ EP   1    5 0 33.67                             117    0.49 6  248 195 
 CHI  HN ES   1    5 1  2.80                             117    0.25 6  248 195 
 CHI  HZ I         5 1  6.61         2.7 0.24            120            248 195 
                                                                                
