 2012  428 0741 15.4 L   6.737 -73.167150.8  RSN  4 0.3 1.4LRSN                1
 GAP=230        0.64       6.8     6.5  6.8  0.2178E+02  0.3904E+01  0.5955E+00E
 Epicentro: VILLANUEVA - SANTANDER                                             3
 ACTION:UPD 12-07-05 11:56 OP:tino STATUS:               ID:20120428074115 L   I
 2012-04-28-0740-00M.COL___189                                                 6
 STAT SP IPHASW D HRMM SECON CODA AMPLIT PERI AZIMU VELO AIN AR TRES W  DIS CAZ7
 BAR2 SZ EP   1    741 35.36                             174    -0.1 7   16 186 
 BAR2 SZ ES   1    741 50.70                             174    -0.5 7   16 186 
 BAR2 SZ I         741 51.86         7.3 0.18                            16 186 
 BRR  HZ EP   1    741 37.32                             153     0.2 7   73 304 
 BRR  HN ES   1    741 54.45                             153     0.3 7   73 304 
 BRR  HZ I         741 57.06         4.4 0.13                            73 304 
 RUS  HZ EP   1    741 39.09                             147    -0.1 7   94 174 
 RUS  HE ES   1    741 58.07                             147     0.4 7   94 174 
 RUS  HZ I         741 58.33         2.8 0.83                            94 174 
 PTB  HZ EP   1    741 42.31                             134    -0.1 7  144 261 
 PTB  HN ES   1    742  3.40                             134    -0.1 7  144 261 
                                                                                
