 2014  328 0502 56.3 L   6.799 -73.131146.5  RSN 13 0.4 2.2LRSN                1
 GAP= 72        1.07       2.7     3.1  5.7 -0.1110E+01  0.5495E+01 -0.3218E+00E
 Epicentro: LOS SANTOS - SANTANDER                                             3
 ACTION:UPD 14-04-09 23:21 OP:nd   STATUS:               ID:20140328050256 L   I
 OLDACT:REG 14-03-28 07:42 OP:carl STATUS:               ID:20140328050040     3
 2014-03-28-0500-40M.COL___253                                                 6
 STAT SP IPHASW D HRMM SECON CODA AMPLIT PERI AZIMU VELO AIN AR TRES W  DIS CAZ7
 BAR2 SZ EP        5 3 16.08                             170    0.0610 23.6 194 
 BAR2 SZ ES        5 3 31.56                             170    0.1610 23.6 194 
 BAR2 SZ I         5 3 34.75        49.6 0.78            170           23.6 194 
 PAM  SZ EP        5 3 18.95                             151    0.4210 76.4  39 
 PAM  SN ES        5 3 36.15                             151    0.2710 76.4  39 
 PAM  SZ I         5 3 38.63        11.2 0.56            156           76.4  39 
 RUS  HZ EP        5 3 20.22                             144    0.1210  100 177 
 RUS  HN ES        5 3 39.06                             144    0.3910  100 177 
 RUS  HZ I         5 3 41.33        14.3 0.50            147            100 177 
 PTB  HZ EP        5 3 22.61                             132   -0.85 9  149 259 
 PTB  HN ES        5 3 44.18                             132   -0.48 9  149 259 
 PTB  HZ I         5 3 50.02        23.1 0.42            133            149 259 
 TAM  HZ EP        5 3 24.23                             131    0.35 9  153 105 
 TAM  HN ES        5 3 44.37                             131   -1.03 9  153 105 
 OCA  HZ EP        5 3 25.07                             130    0.38 9  161 353 
 OCA  HN ES        5 3 47.16                             130    0.32 9  161 353 
 OCA  HZ I         5 3 50.84        10.4 0.42            133            161 353 
 SPBC HZ EP        5 3 25.04                             129    0.10 9  164 219 
 SPBC HN ES        5 3 47.12                             129   -0.16 9  164 219 
 SPBC HZ I         5 3 52.10        20.2 0.20            131            164 219 
 ZAR  HZ EP        5 3 28.78                             122   -0.17 8  206 292 
 ZAR  HE ES        5 3 54.51                             122    0.10 8  206 292 
 ZAR  HZ I         5 4  0.95        13.5 0.44            124            206 292 
 NOR  HZ EP        5 3 31.95                             118   -0.25 8  236 235 
 NOR  HN ES        5 4  0.47                             118    0.26 8  236 235 
 NOR  HZ I         5 4  4.32        16.5 0.20            121            236 235 
 SML  HZ EP        5 3 32.81                             117   -0.23 8  244 335 
 SML  HN ES        5 4  0.85                             117   -0.86 8  244 335 
 SML  HZ I         5 4  6.42        20.0 0.10            120            244 335 
 CHI  HZ EP        5 3 34.13                             117    0.06 8  249 196 
 CHI  HN ES        5 4  2.95                             117   -0.58 8  249 196 
 CHI  HZ I         5 4 11.68         6.1 0.46            120            249 196 
 HEL  HZ EP        5 3 37.29                             115    0.57 8  274 256 
 HEL  HN ES        5 4  8.02                             115   -0.22 8  274 256 
 HEL  HZ I         5 4 14.34         8.6 0.34            117            274 256 
 URE  HZ EP   4    5 3 36.71                             114   -0.86 0  285 292 
 URE  HN ES   4    5 4  6.34                             114   -3.43 0  285 292 
 GUY2CHZ EP        5 3 40.72                             112    0.64 7  302 235 
 GUY2CHN ES        5 4 14.82                             112    0.59 7  302 235 
 GUY2CHZ I         5 4 22.88         7.6 0.74                           302 235 
                                                                                
