 2012  828 0852 52.6 L   6.737 -73.163138.0  RSN  7 0.4 1.5LRSN                1
 GAP=137        0.61       6.7     5.8  7.8 -0.8485E+01  0.1067E+02 -0.1277E+02E
 Epicentro: VILLANUEVA - SANTANDER                                             3
 ACTION:UPD 12-09-10 11:58 OP:ep   STATUS:               ID:20120828085252 L   I
 2012-08-28-0850-00M.COL___218                                                 6
 STAT SP IPHASW D HRMM SECON CODA AMPLIT PERI AZIMU VELO AIN AR TRES W  DIS CAZ7
 BAR2 SZ EP   3    853 11.39                             173    0.20 2 16.2 188 
 BAR2 SZ ES   2    853 25.05                             173   -0.62 5 16.2 188 
 BAR2 SZ I         853 28.36        11.1 0.22                          16.2 188 
 GIR2 SZ EP   3    853 11.48                             164   -0.10 2 37.9 355 
 GIR2 SZ ES   3    853 26.31                             164   -0.05 2 37.9 355 
 BRR  HZ EP        853 13.34                             151    0.2810 73.2 304 
 BRR  HE ES   2    853 29.62                             151    0.63 5 73.2 304 
 BRR  HZ I         853 34.51         5.4 0.16                          73.2 304 
 PAM  SZ EP        853 14.37                             148   -0.0710 84.0  38 
 PAM  SZ I         853 14.50         7.6 0.20                          84.0  38 
 PAM  SN ES   3    853 30.70                             148   -0.76 2 84.0  38 
 RUS  HN ES   2    853 33.33                             145    0.66 5 93.8 175 
 PTB  HZ EP        853 18.32                             131   -0.37 9  145 261 
 PTB  HN ES   3    853 38.46                             131   -0.56 2  145 261 
 PTB  HZ I         853 42.06         2.9 0.60                           145 261 
 ZAR  HN ES   3    853 50.01                             121    0.33 2  205 294 
                                                                                
