 2014  428 0003 21.3 L   6.746 -73.107151.1  RSN  7 0.3 1.4LRSN                1
 GAP=144        0.77       4.1     4.2  7.5 -0.1527E+01  0.5106E+01  0.2688E+01E
 Epicentro: JORDAN - SANTANDER                                                 3
 ACTION:UPD 14-05-13 23:11 OP:nd   STATUS:               ID:20140428000321 L   I
 OLDACT:REG 14-04-28 12:41 OP:mh   STATUS:               ID:20140428000002     3
 2014-04-28-0000-02M.COL___248                                                 6
 STAT SP IPHASW D HRMM SECON CODA AMPLIT PERI AZIMU VELO AIN AR TRES W  DIS CAZ7
 BRR  HZ EP     C  0 3 43.63                             151    0.2210 77.9 301 
 BRR  HN ES        0 4  0.54                             151   -0.1110 77.9 301 
 BRR  HZ I         0 4  1.32         5.8 0.14            153           77.9 301 
 PAM  SZ EP        0 3 44.58                             151    0.3610 79.6  34 
 PAM  SN ES   1    0 4  1.73                             151   -0.37 7 79.6  34 
 PAM  SZ I         0 4  4.33         4.6 0.63            152           79.6  34 
 RUS  HZ EP   1    0 3 44.98                             147   -0.18 7 94.4 178 
 RUS  HN ES   1    0 4  3.80                             147    0.04 7 94.4 178 
 RUS  HZ I         0 4  5.27         2.7 0.18            148           94.4 178 
 PTB  HZ EP        0 3 48.47                             133   -0.53 9  151 261 
 PTB  HN ES   4    0 4  8.98                             133   -1.61 0  151 261 
 PTB  HZ I         0 4 11.47         3.6 0.24            135            151 261 
 SPBC HN ES   1    0 4 13.07                             131    0.61 7  161 222 
 ZAR  HN ES        0 4 21.02                             123    0.20 8  210 293 
 NOR  HE ES   1    0 4 25.05                             120   -0.43 6  235 236 
                                                                                
