 2017  228 0846 37.4 L   6.787 -73.141138.4  RSN 14 0.5 2.1LRSN                1
 GAP= 99        1.20       4.7     3.2  5.9  0.9606E+00  0.6523E+01  0.4650E+01E
 Epicentro: LOS SANTOS - SANTANDER                                             3
 ACTION:UPD 17-05-24 15:41 OP:jn   STATUS:               ID:20170228084637 L   I
 OLDACT:UP  17-03-01 02:48 OP:ar   STATUS:               ID:20170228083744     3
 OLDACT:REG 17-02-28 20:42 OP:and  STATUS:               ID:20170228083744     3
 2017-02-28-0838-00M.COL___360                                                 6
 STAT SP IPHASW D HRMM SECON CODA AMPLIT PERI AZIMU VELO AIN AR TRES W  DIS CAZ7
 BAR2 EZ IP     C  846 55.89                             171   -0.2610 22.1 192 
 BAR2 EZ ES        847 10.54                             171   -0.2110 22.1 192 
 BAR2 EZ I         847 11.59        57.7 0.20            167           22.1 192 
 BRR  HZ IP     C  846 57.83                             151   -0.0310 72.3 299 
 BRR  HN ES        847 14.57                             151    0.7810 72.3 299 
 BRR  HZ I         847 18.63        21.6 0.14            152           72.3 299 
 PAM  EZ EP        846 58.96                             149    0.0410 78.1  39 
 PAM  EN ES        847 15.63                             149   -0.0510 78.1  39 
 PAM  EZ I         847 18.07        29.4 0.58            154           78.1  39 
 RUS  HZ EP        846 59.89                             143   -0.4710 99.2 176 
 RUS  HN ES        847 18.06                             143   -0.1910 99.2 176 
 RUS  HZ I         847 19.57        15.9 0.50            142           99.2 176 
 PTB  HZ EP   4    847  2.49                             130   -1.34 0  148 259 
 PTB  HN ES        847 23.57                             130   -0.85 9  148 259 
 PTB  HZ I         847 26.07        22.2 0.50            131            148 259 
 TAM  HZ IP     D  847  4.32                             129   -0.14 9  154 105 
 TAM  HN ES        847 25.93                             129    0.39 9  154 105 
 TAM  HZ I         847 26.20         8.3 0.32            132            154 105 
 ZAR  HZ EP        847  9.05                             120   -0.47 9  205 292 
 ZAR  HN ES        847 35.17                             120    0.63 9  205 292 
 ZAR  HZ I         847 38.00        11.7 0.54            122            205 292 
 NOR  HZ EP        847 12.31                             117   -0.40 8  234 235 
 NOR  HN ES        847 40.74                             117    0.53 8  234 235 
 NOR  HZ I         847 41.57         9.6 0.16            118            234 235 
 CHI  HZ EP        847 14.77                             116    0.17 8  247 195 
 CHI  HN ES   4    847 42.92                             116   -0.67 0  247 195 
 CHI  HZ I         847 52.44         4.6 0.40            116            247 195 
 ROSC BZ EP        847 16.12                             115    1.06 8  252 211 
 ROSC BN ES   4    847 48.45                             115    4.04 0  252 211 
 ROSC BZ I         847 51.75        12.7 0.45            116            252 211 
 HEL  HZ EP        847 18.32                             113    1.02 8  272 256 
 HEL  HE ES        847 47.79                             113   -0.61 8  272 256 
 HEL  HZ I         847 54.54         9.7 0.28            114            272 256 
 URE  HZ EP        847 17.52                             112   -0.75 7  285 292 
 URE  HN ES   4    847 48.34                             112   -1.78 0  285 292 
 URE  HZ I         847 49.79         8.9 0.18            113            285 292 
 CBOC HZ EP        847 24.44                             108    0.38 7  334 252 
 CBOC HN ES        848  1.02                             108    0.59 7  334 252 
 CBOC HZ I         848  4.73         2.6 0.28            110            334 252 
 DBB  EZ EP        847 24.37                             108   -0.32 7  340 274 
 DBB  EN ES        848  1.19                             108   -0.36 7  340 274 
 DBB  EZ I         848  3.18         5.4 0.38            109            340 274 
                                                                                
