 2012  328 0535 58.8 L   6.780 -73.154139.1  RSN  9 0.5 2.0LRSN                1
 GAP=136        1.03       5.0     5.2  8.0 -0.3576E+01  0.1013E+02  0.5309E+01E
 ACTION:UP  12-03-31 23:23 OP:EP   STATUS:               ID:20120328053558 L   I
 2012-03-28-0530-00M.COL___196                                                 6
 STAT SP IPHASW D HRMM SECON CODA AMPLIT PERI AZIMU VELO SNR AR TRES W  DIS CAZ7
 BAR2 SZ IP        536 17.73                             171     0.110   21 189 
 BAR2 SZ ES   1    536 32.15                             171    -0.1 7   21 189 
 BAR2 SZ I         536 34.73        24.5 0.24                            21 189 
 BRR  HZ IP     C  536 19.58                             151     0.310   72 300 
 BRR  HZ I         536 19.91        42.4 0.12                            72 300 
 BRR  HE ES   1    536 35.96                             151     0.7 7   72 300 
 PAM  SZ IP        536 20.71                             149     0.210   80  39 
 PAM  SN ES   1    536 37.31                             149    -0.1 7   80  39 
 RUS  HZ EP        536 21.84                             143     0.110   98 175 
 RUS  HN ES   2    536 39.36                             143    -0.3 5   98 175 
 RUS  HZ I         536 42.35         8.3 0.38                            98 175 
 PTB  HZ EP        536 24.39                             131    -0.8 9  146 260 
 PTB  HN ES   1    536 44.96                             131    -0.7 7  146 260 
 PTB  HZ I         536 48.08        10.7 0.36                           146 260 
 OCA  SZ EP   2    536 26.59                             128    -0.2 5  162 354 
 OCA  SZ ES   1    536 47.84                             128    -0.8 7  162 354 
 ZAR  HZ EP   1    536 31.23                             121     0.4 6  204 293 
 ZAR  HN ES   1    536 56.17                             121     0.3 6  204 293 
 ZAR  HZ I         537  1.72        12.9 0.42                           204 293 
 NOR  SZ EP        536 34.09                             117     0.1 8  233 235 
 NOR  SN ES   1    537  1.70                             117     0.3 6  233 235 
 HEL  HZ EP   3    536 40.01                             114     1.4 2  271 256 
 HEL  HZ I         537 15.88         5.0 0.54                           271 256 
                                                                                
