 2013  128 0855 36.6 L   6.775 -73.162143.5  RSN  7 0.5 1.7LRSN                1
 GAP=136        1.25       4.6     6.6  9.5 -0.5102E+01  0.1266E+02  0.1185E+01E
 Epicentro: LOS SANTOS - SANTANDER                                             3
 ACTION:UPD 13-02-15 09:17 OP:ep   STATUS:               ID:20130128085536 L   I
 2013-01-28-0848-48M.COL___171                                                 6
 STAT SP IPHASW D HRMM SECON CODA AMPLIT PERI AZIMU VELO AIN AR TRES W  DIS CAZ7
 BAR2 SZ EP        855 56.01                             172    0.0910 20.4 186 
 BAR2 SZ ES        856 10.47                             172   -0.5010 20.4 186 
 BAR2 SZ I         856 11.98         8.6 0.44            171           20.4 186 
 BRR  HZ EP        855 58.16                             152    0.6510 71.0 301 
 BRR  HN ES        856 14.62                             152    0.8110 71.0 301 
 BRR  HN I         856 19.78        15.2 0.16            149           71.0 301 
 PAM  SZ EP        855 59.11                             149    0.3210 80.6  39 
 PAM  SZ I         855 59.22         6.3 0.20            152           80.6  39 
 PAM  SN ES        856 16.02                             149   -0.0610 80.6  39 
 RUS  HN ES        856 18.34                             144    0.1810 98.0 175 
 PTB  HZ EP        856  2.97                             132   -0.22 9  146 260 
 PTB  HN ES        856 23.59                             132   -0.33 9  146 260 
 PTB  HN I         856 29.09         6.4 0.44            131            146 260 
 OCA  HN ES        856 26.21                             129   -0.91 9  163 354 
 OCA  HN I         856 29.76        12.2 0.34            129            163 354 
 CHI  HN ES        856 42.48                             117   -0.41 8  246 195 
                                                                                
