 2011  528 0043 47.3 L   6.815 -73.061147.0  RSN 10 0.3 2.0LRSN                1
 GAP=168        0.50       2.6     4.4  4.7 -0.4011E+01  0.2884E+01 -0.1033E+01E
 Epicentro: LOS SANTOS - SANTANDER                                             3
 ACTION:UP  11-06-29 08:56 OP:tino STATUS:               ID:20110528004347 L   I
 2011-05-28-0043-41S.COL___115                                                 6
 STAT SP IPHASW D HRMM SECON CODA AMPLIT PERI AZIMU VELO SNR AR TRES W  DIS CAZ7
 BTL  SZ EP        044  7.42                             170     0.310   26 297 
 BAR2 SZ EP   2    044  7.00                             169    -0.2 5   28 209 
 BAR2 SZ ES   2    044 22.84                             169     0.1 5   28 209 
 GIR2 SZ EP   1    044  7.08                             167    -0.1 7   33 333 
 BRR  HZ EP   1    044  9.27                             150     0.2 7   79 294 
 BRR  HN ES   1    044 26.36                             150     0.3 7   79 294 
 BRR  HZ I         044 29.98        27.5 0.17                            79 294 
 RUS  HZ EP   2    044 11.43                             144     0.1 5  102 181 
 RUS  HN ES   1    044 29.83                             144    -0.2 7  102 181 
 RUS  HZ I         044 31.75         6.5 0.33                           102 181 
 GRA  SZ EP   1    044 12.35                             138     0.0 7  122  13 
 GRA  SZ ES   1    044 31.60                             138    -0.3 7  122  13 
 GRA  SZ I         044 33.62        12.1 0.31                           122  13 
 OCA  SZ EP        044 15.80                             130     0.1 9  160 350 
 OCA  SZ ES   2    044 37.15                             130    -0.7 5  160 350 
 OCA  SZ I         044 40.62        14.5 0.12                           160 350 
 NOR  SZ EP   2    044 23.84                             118    -0.2 4  243 235 
 NOR  SN ES   2    044 52.07                             118    -0.7 4  243 235 
 HEL  HZ EP   2    044 28.67                             114     0.0 4  282 256 
 HEL  HN ES   2    045  0.70                             114    -0.2 4  282 256 
 HEL  HZ I         045  6.33         7.6 0.43                           282 256 
 PRA  HZ EP   2    044 41.71                             106     0.1 3  398 211 
 PRA  HN ES   2    045 23.85                             106    -0.1 3  398 211 
                                                                                
