 2017  228 0219 53.9 L   6.854 -73.314120.9  RSN 13 0.5 2.1LRSN                1
 GAP=109        1.21       4.5     2.9  6.3  0.1427E+01  0.5685E+01 -0.1645E+00E
 Epicentro: BETULIA - SANTANDER                                                3
 ACTION:UPD 17-05-24 15:41 OP:jn   STATUS:               ID:20170228021953 L   I
 OLDACT:UP  17-03-01 00:22 OP:ar   STATUS:               ID:20170228021747     3
 OLDACT:REG 17-02-28 20:35 OP:and  STATUS:               ID:20170228021747     3
 2017-02-28-0218-00M.COL___375                                                 6
 STAT SP IPHASW D HRMM SECON CODA AMPLIT PERI AZIMU VELO AIN AR TRES W  DIS CAZ7
 BAR2 EZ EP     C  220 10.65                             164   -0.1610 32.4 153 
 BAR2 EZ ES        220 23.59                             164   -0.4110 32.4 153 
 BRR  HN IP     C  220 11.05                             155   -0.2510 52.1 303 
 BRR  HZ IP     D  220 11.06                             155   -0.2410 52.1 303 
 BRR  HN ES        220 25.25                             155    0.3810 52.1 303 
 BRR  HZ I         220 25.54        36.5 0.12            152           52.1 303 
 PAM  EZ EP        220 14.14                             142   -0.0610 86.5  52 
 PAM  EN ES        220 30.19                             142    0.1710 86.5  52 
 PAM  EZ I         220 31.34        23.8 0.20            133           86.5  52 
 RUS  HZ EP        220 15.77                             135   -0.2610  109 166 
 RUS  HN ES        220 33.35                             135    0.0610  109 166 
 RUS  HZ I         220 35.95         8.7 0.28            128            109 166 
 PTB  HZ EP   2    220 16.00                             129   -1.34 5  131 255 
 PTB  HN ES        220 36.04                             129    0.4110  131 255 
 PTB  HZ I         220 37.87        41.8 0.44            124            131 255 
 TAM  HZ IP     C  220 21.53                             121   -0.22 9  175 105 
 TAM  HN ES        220 43.65                             121    0.19 9  175 105 
 TAM  HZ I         221  0.82        11.8 0.36            114            175 105 
 ZAR  HZ EP        220 22.87                             119    0.11 9  185 293 
 ZAR  HN ES        220 46.15                             119    0.89 9  185 293 
 ZAR  HZ I         220 47.51        22.6 0.26            114            185 293 
 NOR  HZ EP   2    220 28.23                             114    1.16 4  224 230 
 NOR  HN ES        220 53.45                             114    0.50 8  224 230 
 NOR  HZ I         220 57.66         9.3 0.36            110            224 230 
 HEL  HZ EP        220 31.83                             111    0.73 8  256 253 
 HEL  HN ES        220 59.16                             111   -0.95 8  256 253 
 HEL  HZ I         221  5.55         8.7 0.24            107            256 253 
 URE  HZ EP        220 31.81                             110    0.17 8  264 292 
 URE  HE ES        221  0.20                             110   -0.88 8  264 292 
 URE  HZ I         221  7.73        15.9 0.20            106            264 292 
 CBOC HZ EP   9    220 38.70                             106    0.63 0  318 250 
 CBOC HN ES        221 11.97                                   -1.18 7  318 250 
 CBOC HZ I         221 15.20         6.1 0.30            103            318 250 
 DBB  EZ EP        220 38.93                             106    0.67 7  321 273 
 DBB  EN ES        221 12.12                             106   -0.73 7  321 273 
 DBB  EZ I         221 15.22         6.1 0.22            103            321 273 
 SJC  HZ EP   4    220 44.80                             102   -2.17 0  394 329 
 SJC  HZ I         221 14.40         2.3 0.62            100            394 329 
 SJC  HN ES   4    221 24.61                             102   -3.75 0  394 329 
                                                                                
