 2016 1128 0845 16.0 L   6.758 -73.114140.0  RSN 12 0.4 2.1LRSN                1
 GAP=161        0.97       4.1     4.0  5.7 -0.2658E+01  0.6277E+01  0.8808E+01E
 Epicentro: LOS SANTOS - SANTANDER                                             3
 ACTION:UPD 17-10-26 21:12 OP:lp   STATUS:               ID:20161128084516 L   I
 OLDACT:UP  16-11-28 16:29 OP:dnl  STATUS:               ID:20161128083747     3
 OLDACT:UP  16-11-28 16:27 OP:dnl  STATUS:               ID:20161128083747     3
 OLDACT:UP  16-11-28 16:27 OP:dnl  STATUS:               ID:20161128083747     3
 OLDACT:REG 16-11-28 12:49 OP:dani STATUS:               ID:20161128083747     3
 2016-11-28-0838-00M.COL___345                                                 6
 STAT SP IPHASW D HRMM SECON CODA AMPLIT PERI AZIMU VELO AIN AR TRES W  DIS CAZ7
 BAR2 EZ IP     C  845 34.86                             171   -0.0110 19.9 202 
 BAR2 EZ ES        845 49.88                             171    0.2910 19.9 202 
 BAR2 EZ I         845 53.64        19.6 0.48            168           19.9 202 
 BRR  HZ EP        845 36.77                             150   -0.0710 76.5 300 
 BRR  HN ES        845 53.51                             150    0.4110 76.5 300 
 BRR  HZ I         845 56.83        15.9 0.24            148           76.5 300 
 PAM  EZ EP     C  845 37.77                             150    0.0710 78.9  35 
 PAM  EN ES        845 54.43                             150   -0.1910 78.9  35 
 PAM  EZ I         845 55.32        22.9 0.28            153           78.9  35 
 PTB  HZ EP        845 41.61                             130   -1.14 9  150 261 
 PTB  HE ES        846  3.52                             130   -0.09 9  150 261 
 PTB  HZ I         846  4.95        20.2 0.18            129            150 261 
 ZAR  HZ EP        845 48.76                             121    0.16 8  209 293 
 ZAR  HE ES        846 14.27                             121    0.25 8  209 293 
 ZAR  HZ I         846 21.91        12.4 0.54            121            209 293 
 NOR  HZ EP        845 51.24                             117   -0.19 8  235 236 
 NOR  HN ES        846 18.49                             117   -0.57 8  235 236 
 NOR  HZ I         846 24.51        13.4 0.40            117            235 236 
 CHI  HZ EP        845 52.95                             116   -0.05 8  245 196 
 CHI  HN ES        846 21.81                             116   -0.05 8  245 196 
 CHI  HZ I         846 29.76         6.1 0.46            117            245 196 
 ROSC BZ EP   4    845 55.17                             116    1.59 0  251 212 
 ROSC BN ES   4    846 26.17                             116    3.28 0  251 212 
 ROSC BZ I         846 31.19        16.4 0.50            116            251 212 
 CBOC HZ EP        846  3.43                             109    0.52 7  336 253 
 CBOC HN ES        846 39.46                             109   -0.03 7  336 253 
 CBOC HZ I         846 42.70         3.8 0.26            109            336 253 
 ORTC HZ EP        846 10.19                             106    0.65 6  394 217 
 ORTC HN ES        846 52.36                             106    1.06 6  394 217 
 ORTC HZ I         846 57.93         3.7 0.50            106            394 217 
 PAL  HZ EP        846 11.15                             105    0.10 6  406 240 
 PAL  HN ES   4    846 52.25                             105   -1.74 0  406 240 
 PAL  HZ I         846 55.92         3.5 0.66            105            406 240 
 SJC  HZ EP   4    846  9.00                             105   -3.06 0  415 327 
 SJC  HN ES   4    846 47.84                             105   -7.94 0  415 327 
 SJC  HZ I         847  9.14         1.5 0.38            105            415 327 
                                                                                
