 2016  228 0602  9.9 L   6.773 -73.163138.8  RSN  6 0.3 1.4LRSN                1
 GAP=136        0.91       4.0     4.0  6.6 -0.2256E+01  0.1024E+02 -0.3131E+01E
 Epicentro: LOS SANTOS - SANTANDER                                             3
 ACTION:UPD 16-03-04 21:30 OP:rebc STATUS:               ID:20160228060209 L   I
 OLDACT:REG 16-02-28 12:39 OP:drio STATUS:               ID:20160228055748     3
 2016-02-28-0557-48M.COL___315                                                 6
 STAT SP IPHASW D HRMM SECON CODA AMPLIT PERI AZIMU VELO AIN AR TRES W  DIS CAZ7
 BAR2 EZ EP        6 2 28.47                             171   -0.2110 20.1 186 
 BAR2 EZ ES        6 2 42.75                             171   -0.5410 20.1 186 
 BAR2 EZ I         6 2 45.09         5.3 0.16            170           20.1 186 
 PAM  EZ EP        6 2 31.54                             148   -0.1110 80.9  39 
 PAM  EE ES        6 2 48.73                             148    0.1610 80.9  39 
 PAM  EZ I         6 2 50.57         5.9 0.52            153           80.9  39 
 RUS  HZ EP        6 2 32.80                             143   -0.0110 97.8 175 
 RUS  HN ES        6 2 51.42                             143    0.7710 97.8 175 
 RUS  HZ I         6 2 52.30         2.1 0.34            146           97.8 175 
 PTB  HZ EP        6 2 35.76                             131   -0.37 9  145 260 
 PTB  HE ES        6 2 56.59                             131    0.04 9  145 260 
 PTB  HZ I         6 2 58.68         3.0 0.44            131            145 260 
 SPBC HZ EP        6 2 37.57                             128   -0.01 9  160 219 
 SPBC HN ES        6 2 58.84                             128   -0.30 9  160 219 
 SPBC HZ I         6 3  6.76         3.0 0.22            129            160 219 
 ZAR  HZ EP        6 2 42.14                             121    0.26 9  203 293 
 ZAR  HN ES        6 3  7.21                             121    0.42 9  203 293 
 ZAR  HZ I         6 3 13.23         4.3 0.18            122            203 293 
                                                                                
