 2012 1128 0817 53.8 L   6.809 -73.257141.0  RSN  5 0.1 2.1LRSN                1
 GAP=146        0.35       1.3     3.4  3.3 -0.2981E+00  0.5912E+01 -0.6050E+00E
 Epicentro: ZAPATOCA - SANTANDER                                               3
 ACTION:UPD 12-12-05 15:36 OP:}ep  STATUS:               ID:20121128081753 L   I
 2012-11-28-0810-00M.COL___234                                                 6
 STAT SP IPHASW D HRMM SECON CODA AMPLIT PERI AZIMU VELO AIN AR TRES W  DIS CAZ7
 BAR2 SZ EP        818 12.95                             169    0.0810 25.4 161 
 BAR2 SZ ES        818 27.81                             169    0.0410 25.4 161 
 BAR2 SZ I         818 29.82        30.9 0.20                          25.4 161 
 PAM  SZ EP        818 16.02                             147    0.0610 85.0  46 
 PAM  SN ES        818 33.17                             147   -0.1010 85.0  46 
 PAM  SN I         818 33.73         9.7 0.26                          85.0  46 
 OCA  HZ EP   1    818 21.31                             129   -0.20 7  158 358 
 OCA  HE ES        818 43.25                             129    0.09 9  158 358 
 OCA  HN I         818 46.41        23.2 0.22                           158 358 
 SML  HZ EP   1    818 29.71                             117    0.22 6  238 338 
 SML  HN ES        818 57.23                             117   -0.12 8  238 338 
 SML  HN I         819  4.58        17.6 0.10                           238 338 
 CHI  HN ES        818 59.94                             116   -0.09 8  247 192 
 CHI  HN I         819  3.05         9.1 0.70                           247 192 
                                                                                
