 2013  428 0442  1.5 L   6.812 -73.148144.2  RSN 14 0.5 2.4LRSN                1
 GAP= 71        1.00       3.5     3.7  5.5 -0.1269E+01  0.4292E+01 -0.7716E+00E
 Epicentro: LOS SANTOS - SANTANDER                                             3
 ACTION:UPD 13-05-22 14:41 OP:EP   STATUS:               ID:20130428044201 L   I
 2013-04-28-0440-00M.COL___248                                                 6
 STAT SP IPHASW D HRMM SECON CODA AMPLIT PERI AZIMU VELO AIN AR TRES W  DIS CAZ7
 BAR2 SZ IP     D  442 20.97                             170   -0.0310 24.6 189 
 BAR2 SZ ES   1    442 35.50                             170   -0.69 7 24.6 189 
 BAR2 SZ I         442 36.62        69.1 0.24            172           24.6 189 
 GIR2 SZ IP     C  442 21.09                             168    0.1110 29.9 350 
 GIR2 SZ ES   1    442 36.42                             168    0.26 7 29.9 350 
 GIR2 SZ I         442 37.63        50.6 0.66            164           29.9 350 
 BRR  HZ IP     C  442 22.90                             153    0.4410 70.3 298 
 BRR  HN ES   1    442 39.45                             153    0.66 7 70.3 298 
 PAM  SZ IP     C  442 23.81                             151    0.2810 76.5  40 
 PAM  SN ES   1    442 40.75                             151    0.06 7 76.5  40 
 PAM  SZ I         442 42.97        89.3 0.46            151           76.5  40 
 RUS  HZ EP   1    442 25.12                             143   -0.11 7  102 176 
 RUS  HN ES   1    442 43.19                             143   -0.52 7  102 176 
 RUS  HZ I         442 44.18        14.3 0.22            146            102 176 
 PTB  HZ EP        442 27.66                             132   -0.71 9  148 258 
 PTB  HN ES   1    442 48.28                             132   -1.03 7  148 258 
 PTB  HZ I         442 50.92        51.3 0.18            131            148 258 
 TAM  HZ IP     D  442 29.32                             130    0.18 9  156 105 
 TAM  HN ES   2    442 51.23                             130    0.55 5  156 105 
 TAM  HZ I         442 51.24        17.8 0.24            133            156 105 
 OCA  HZ EP        442 29.43                             129   -0.16 9  159 353 
 OCA  HN ES   2    442 51.33                             129   -0.15 5  159 353 
 OCA  HZ I         442 56.14        46.8 0.18            128            159 353 
 ZAR  HZ EP        442 34.19                             122    0.39 9  203 292 
 ZAR  HN ES   1    442 59.88                             122    0.92 6  203 292 
 ZAR  HZ I         443  3.67        25.8 0.10            121            203 292 
 NOR  HZ EP        442 37.57                             118    0.34 8  235 234 
 NOR  HN ES   1    443  6.08                             118    1.01 6  235 234 
 SML  HZ EP        442 37.35                             117   -0.58 8  242 335 
 SML  HN ES   1    443  5.52                             117   -0.79 6  242 335 
 SML  HZ I         443 15.96        38.5 0.10            117            242 335 
 HEL  HZ EP   1    442 42.09                             114    0.42 6  272 256 
 HEL  HN ES   1    443 12.86                             114   -0.12 6  272 256 
 HEL  HZ I         443 19.98        14.0 0.34            114            272 256 
 COD  HZ EP   1    442 49.30                             109   -0.39 5  347 355 
 COD  HN ES   2    443 26.61                             109   -0.64 3  347 355 
 PRA  HZ EP   1    442 55.31                             106    0.19 4  393 209 
 PRA  HN ES   1    443 36.13                             106   -0.78 4  393 209 
 PRA  HZ I         443 41.54         8.6 0.22            107            393 209 
                                                                                
