 2014 1028 0711 47.8 L   6.727 -73.284131.6  RSN  8 0.5 1.5LRSN                1
 GAP= 99        1.25       4.2     5.5  7.9 -0.6091E+01  0.6197E+01 -0.2470E+01E
 Epicentro: GALAN - SANTANDER                                                  3
 ACTION:UPD 14-11-29 23:57 OP:nd   STATUS:               ID:20141028071147 L   I
 OLDACT:UP  14-10-30 18:10 OP:cam  STATUS:               ID:20141028070805     3
 OLDACT:UP  14-10-30 18:10 OP:cam  STATUS:               ID:20141028070805     3
 OLDACT:REG 14-10-30 15:26 OP:cam  STATUS:               ID:20141028070805     3
 2014-10-28-0708-05M.COL___271                                                 6
 STAT SP IPHASW D HRMM SECON CODA AMPLIT PERI AZIMU VELO AIN AR TRES W  DIS CAZ7
 BAR2 SZ EP        712  5.79                             172    0.1610 18.7 143 
 BAR2 SZ ES        712 19.07                             172   -0.4710 18.7 143 
 BAR2 SZ I         712 22.25         5.2 0.52            170           18.7 143 
 BRR  HZ EP        712  7.48                             153    0.5210 63.2 312 
 BRR  HN ES        712 22.55                             153    0.6410 63.2 312 
 BRR  HN I         712 23.37        44.4 0.46            140           63.2 312 
 PAM  SZ EP        712 10.37                             143    0.7310 93.6  44 
 PAM  SN ES        712 26.57                             143   -0.1210 93.6  44 
 PAM  SZ I         712 28.07         5.2 0.26            138           93.6  44 
 RUS  HZ EP        712  9.17                             142   -0.5810 95.0 166 
 RUS  HN ES        712 26.89                             142    0.0110 95.0 166 
 RUS  HZ I         712 27.82         2.8 0.16            134           95.0 166 
 PTB  HZ EP        712 11.33                             132   -0.7810  131 261 
 PTB  HE ES        712 30.78                             132   -0.2910  131 261 
 PTB  HZ I         712 36.35         3.8 0.22            120            131 261 
 SPBC HZ EP        712 14.28                             129    0.57 9  147 216 
 SPBC HE ES        712 34.14                             129    0.21 9  147 216 
 SPBC HZ I         712 39.48         4.3 0.28            118            147 216 
 OCA  HZ EP        712 15.39                             125   -0.34 9  167 359 
 OCA  HN ES        712 37.11                             125   -0.41 9  167 359 
 OCA  HZ I         712 41.69         7.6 0.30            116            167 359 
 HEL  HZ EP   4    712 27.18                             113    1.75 0  255 257 
 HEL  HZ I         713  1.26         1.4 0.36            104            255 257 
                                                                                
