 2017  228 0420 59.1 L   6.789 -73.105143.7  RSN 19 0.5 2.5LRSN                1
 GAP= 99        1.13       3.5     3.5  5.3  0.2770E+00  0.4182E+01  0.6005E+01E
 Epicentro: LOS SANTOS - SANTANDER                                             3
 ACTION:UPD 17-05-24 15:41 OP:jn   STATUS:               ID:20170228042059 L   I
 OLDACT:UP  17-03-01 01:00 OP:ar   STATUS:               ID:20170228041747     3
 OLDACT:UP  17-03-01 00:58 OP:ar   STATUS:               ID:20170228041747     3
 OLDACT:UP  17-03-01 00:57 OP:ar   STATUS:               ID:20170228041747     3
 OLDACT:UP  17-03-01 00:53 OP:ar   STATUS:               ID:20170228041747     3
 OLDACT:REG 17-02-28 20:39 OP:and  STATUS:               ID:20170228041747     3
 2017-02-28-0418-00M.COL___372                                                 6
 STAT SP IPHASW D HRMM SECON CODA AMPLIT PERI AZIMU VELO AIN AR TRES W  DIS CAZ7
 BAR2 EZ IP     D  421 18.36                             170   -0.1410 23.3 201 
 BAR2 EZ ES        421 33.15                             170   -0.4610 23.3 201 
 BAR2 EZ I         421 34.18        65.0 0.16            166           23.3 201 
 PAM  EZ EP        421 21.33                             151    0.3310 75.6  36 
 PAM  EN ES        421 38.24                             151    0.1610 75.6  36 
 PAM  EZ I         421 40.11       109.5 0.52            157           75.6  36 
 BRR  HZ IP        421 20.27                             151   -0.0410 75.8 298 
 BRR  HN ES        421 37.13                             151    0.3010 75.8 298 
 BRR  HZ I         421 41.32        45.7 0.12            151           75.8 298 
 RUS  HZ EP        421 22.40                             144   -0.1610 99.1 179 
 RUS  HE ES        421 40.76                             144   -0.0810 99.1 179 
 RUS  HZ I         421 42.42        47.3 0.38            143           99.1 179 
 TAM  HZ IP     D  421 26.74                             131    0.54 9  150 105 
 PTB  HZ EP        421 25.20                             131   -1.10 9  152 260 
 PTB  HN ES        421 47.86                             131    0.36 9  152 260 
 PTB  HZ I         421 49.05        28.8 0.20            131            152 260 
 ZAR  HZ EP        421 32.48                             121    0.57 8  209 292 
 ZAR  HN ES        421 57.48                             121   -0.01 8  209 292 
 ZAR  HZ I         422  2.47        35.9 0.28            122            209 292 
 NOR  HZ EP        421 34.99                             118   -0.06 8  238 235 
 NOR  HE ES        422  3.28                             118    0.21 8  238 235 
 NOR  HZ I         422  9.69        25.2 0.16            118            238 235 
 CHI  HZ EP        421 36.86                             117    0.16 8  249 196 
 CHI  HN ES        422  5.75                             117   -0.27 8  249 196 
 CHI  HZ I         422  8.93        12.0 0.28            117            249 196 
 ROSC BZ EP   4    421 38.53                             116    1.27 0  254 212 
 ROSC BN ES   4    422  8.94                             116    1.92 0  254 212 
 ROSC BZ I         422 17.78        20.2 0.45            117            254 212 
 HEL  HZ EP        421 40.35                             114    0.67 7  276 256 
 HEL  HN ES        422 10.69                             114   -0.62 7  276 256 
 HEL  HZ I         422 15.23        13.7 0.30            115            276 256 
 URE  HZ EP        421 39.70                             113   -0.91 7  288 292 
 URE  HN ES   4    422 11.12                             113   -1.85 0  288 292 
 URE  HZ I         422 12.08        25.8 0.36            114            288 292 
 VIL  EZ EP        421 42.03                             112   -0.38 7  303 192 
 VIL  EN ES        422 16.61                             112    0.44 7  303 192 
 VIL  EZ I         422 25.70        12.5 0.48            112            303 192 
 PTGC HZ EP        421 41.62                             111   -0.95 7  306 159 
 PTGC HN ES   4    422 14.96                             111   -1.49 0  306 159 
 PTGC HZ I         422 17.05        27.0 0.34            113            306 159 
 CBOC HZ EP        421 46.95                             109    0.55 7  338 253 
 CBOC HN ES        422 22.69                             109   -0.58 7  338 253 
 CBOC HZ I         422 26.86         5.5 0.48            110            338 253 
 DBB  EZ EP   4    421 48.77                             109    1.73 0  344 274 
 DBB  EN ES   4    422 22.44                             109   -1.98 0  344 274 
 DBB  EZ I         422 27.04         7.7 0.18            110            344 274 
 PRA  HZ EP        421 52.39                             106   -0.31 6  393 210 
 PRA  HN ES        422 35.06                             106    0.56 6  393 210 
 PRA  HZ I         422 40.16         7.9 0.30            107            393 210 
 ORTC HZ EP        421 53.76                             106    0.60 6  397 217 
 ORTC HN ES        422 36.67                             106    1.35 6  397 217 
 ORTC HZ I         422 41.46         9.4 0.46            107            397 217 
 SJC  HZ EP   4    421 53.09                             105   -1.94 0  413 327 
 SJC  HN ES   4    422 34.50                             105   -4.13 0  413 327 
 SJC  HZ I         422 38.07        13.1 0.52            107            413 327 
 CRJC HZ EP   4    421 59.17                             103   -2.51 0  469   3 
 CRJC HN ES   4    422 48.14                             103   -2.33 0  469   3 
                                                                                
