 2013 1028 0710 31.7 L   6.811 -73.163143.8  RSN 16 0.6 2.3LRSN                1
 GAP=112        1.30       3.3     4.2  6.4  0.1797E-01  0.6572E+01  0.3749E+01E
 Epicentro: LOS SANTOS - SANTANDER                                             3
 ACTION:UPD 13-11-25 09:24 OP:ep   STATUS:               ID:20131028071031 L   I
 OLDACT:REG 13-10-28 08:30 OP:jn   STATUS:               ID:20131028071000     3
 2013-10-28-0710-00M.COL___273                                                 6
 STAT SP IPHASW D HRMM SECON CODA AMPLIT PERI AZIMU VELO AIN AR TRES W  DIS CAZ7
 BAR2 SZ EP        710 51.15                             170    0.0810 24.3 185 
 BAR2 SZ ES        711  5.64                             170   -0.5710 24.3 185 
 BAR2 SZ I         711  7.82        71.5 0.34            169           24.3 185 
 BRR  HZ EP        710 52.90                             153    0.4410 68.9 298 
 BRR  HE ES        711 10.20                             153    1.5210 68.9 298 
 BRR  HZ I         711 13.27        27.9 0.28            147           68.9 298 
 PAM  SZ EP        710 54.06                             150    0.3810 77.7  41 
 PAM  SN ES        711 10.59                             150   -0.2710 77.7  41 
 PAM  SZ I         711 13.28        21.2 0.44            149           77.7  41 
 RUS  HZ EP        710 55.09                             143   -0.2310  102 175 
 RUS  HN ES        711 13.74                             143   -0.0310  102 175 
 RUS  HZ I         711 14.90        22.2 0.26            141            102 175 
 PTB  HZ EP        710 57.70                             132   -0.61 9  146 258 
 PTB  HN ES        711 18.44                             132   -0.66 9  146 258 
 PTB  HZ I         711 20.84        26.0 0.42            127            146 258 
 OCA  HZ EP        710 59.23                             129   -0.45 9  159 354 
 OCA  HN ES        711 20.94                             129   -0.59 9  159 354 
 OCA  HZ I         711 29.58        24.9 0.24            126            159 354 
 SPBC HZ EP        710 59.88                             129   -0.10 9  163 218 
 SPBC HE ES        711 22.07                             129   -0.00 9  163 218 
 SPBC HZ I         711 26.42        32.8 0.44            125            163 218 
 YOP  SZ EP        711  1.87                             125    0.11 9  181 153 
 YOP  SN ES        711 25.63                             125    0.39 9  181 153 
 YOP  SZ I         711 30.28        12.1 0.60            123            181 153 
 ZAR  HZ EP   1    711  5.16                             122    1.42 6  202 292 
 ZAR  HN ES   1    711 28.71                             122   -0.05 6  202 292 
 ZAR  HZ I         711 34.48        24.7 0.42            118            202 292 
 NOR  HZ EP        711  7.09                             118   -0.09 8  234 234 
 NOR  HN ES        711 35.01                             118    0.12 8  234 234 
 NOR  HZ I         711 40.57        11.6 0.22            115            234 234 
 SML  HN ES   1    711 35.39                             117   -0.88 6  242 336 
 CHI  HZ EP        711  9.35                             117    0.02 8  249 195 
 CHI  HN ES        711 38.59                             117   -0.12 8  249 195 
 CHI  HZ I         711 43.98        13.4 0.34            114            249 195 
 ROSC BN ES   4    711 41.16                             116    1.82 0  253 210 
 HEL  HZ EP        711 12.57                             114    0.97 8  270 255 
 HEL  HE ES        711 42.17                             114   -0.57 8  270 255 
 HEL  HZ I         711 49.23        11.8 0.26            111            270 255 
 VIL  SN ES   2    711 48.51                             112   -0.44 4  304 191 
 CBOC HZ EP        711 18.80                             110    0.48 7  332 252 
 CBOC HZ I         712  1.04         3.1 0.18            107            332 252 
 PRA  HZ EP        711 24.71                             106   -0.42 6  392 209 
 PRA  HE ES   1    712  6.32                             106   -0.51 4  392 209 
 PRA  HZ I         712 13.61        12.5 0.24            104            392 209 
                                                                                
