 2015  128 0553  0.4 L   6.659 -73.416 38.1  RSN  5 0.3 1.2LRSN                1
 GAP=107        0.83       2.3     2.3  6.0  0.8068E+00  0.4612E+01  0.2246E+00E
 Epicentro: EL CARMEN - SANTANDER                                              3
 ACTION:UPD 15-03-02 15:43 OP:nd   STATUS:               ID:20150128054813 L   I
 OLDACT:UPD 15-01-28 15:03 OP:CF   STATUS:               ID:20150128054813 L   3
 2015-01-28-0548-13M.COL___271                                                 6
 STAT SP IPHASW D HRMM SECON CODA AMPLIT PERI AZIMU VELO AIN AR TRES W  DIS CAZ7
 BAR2 EZ EP     D  553  7.36                             138   -0.4310 26.9 106 
 BAR2 EZ ES        553 13.56                             138   -0.0010 26.9 106 
 BAR2 EZ I         553 14.07         5.7 0.10            139           26.9 106 
 BRR  HZ IP     C  553 10.83                             108   -0.0910 59.4 327 
 BRR  HN ES        553 19.73                             108    0.5910 59.4 327 
 BRR  HZ I         553 19.85        18.0 0.10            108           59.4 327 
 RUS  HZ EP        553 15.52                              98   -0.0510 92.4 156 
 RUS  HN ES        553 27.91                              98    0.5110 92.4 156 
 RUS  HZ I         553 28.02         7.3 0.16             98           92.4 156 
 PAM  SZ EP     C  553 17.66                              96    0.0110  109  46 
 PAM  SN ES        553 30.99                              96   -0.1210  109  46 
 PAM  SZ I         553 31.91         6.3 0.14             96            109  46 
 PTB  HZ EP        553 17.73                              95   -0.1610  116 264 
 PTB  HN ES        553 31.28                              95   -0.2610  116 264 
 PTB  HZ I         553 32.74         4.5 0.26             95            116 264 
 SPBC HN ES   4    553 37.65                              94    2.14 0  133 213 
                                                                                
