 2012  628 0025 36.8 L   6.725 -73.165147.9  RSN  5 0.3 1.5LRSN                1
 GAP=229        0.57       6.1     6.0  6.3  0.2382E+02  0.8907E+01  0.2606E+01E
 Epicentro: VILLANUEVA - SANTANDER                                             3
 ACTION:UPD 12-08-06 17:53 OP:ep   STATUS:               ID:20120628002536 L   I
 2012-06-28-0020-00M.COL___201                                                 6
 STAT SP IPHASW D HRMM SECON CODA AMPLIT PERI AZIMU VELO AIN AR TRES W  DIS CAZ7
 BAR2 SZ ES   1    026 11.41                             174   -0.50 7 14.9 187 
 BRR  HZ EP   1    025 58.35                             152    0.07 7 73.7 305 
 BRR  HN ES   1    026 15.46                             152    0.39 7 73.7 305 
 BRR  HZ I         026 16.76        10.6 0.54                          73.7 305 
 RUS  HZ EP   1    026  0.32                             147    0.15 7 92.5 174 
 RUS  HN ES   1    026 18.63                             147    0.21 7 92.5 174 
 RUS  HZ I         026 19.74         2.8 0.27                          92.5 174 
 PTB  HZ EP   1    026  3.28                             133   -0.31 7  144 262 
 PTB  HN ES   1    026 24.54                             133    0.02 7  144 262 
 PTB  HZ I         026 26.79         3.7 0.10                           144 262 
 ZAR  HN ES   1    026 34.93                             123   -0.07 6  205 294 
                                                                                
