 2011  528 0231 38.8 L   6.781 -73.136137.9  RSN  7 0.4 1.4LRSN                1
 GAP=160        0.70       5.1     7.4  7.7 -0.1029E+02  0.1964E+01  0.5115E+00E
 Epicentro: LOS SANTOS - SANTANDER                                             3
 ACTION:UP  11-06-29 08:56 OP:tino STATUS:               ID:20110528023138 L   I
 2011-05-28-0226-33S.COL___115                                                 6
 STAT SP IPHASW D HRMM SECON CODA AMPLIT PERI AZIMU VELO SNR AR TRES W  DIS CAZ7
 BTL  SZ EP   1    231 57.75                             171     0.3 7   21 316 
 BAR2 SZ ES   2    232 10.99                             171    -1.0 5   21 194 
 GIR2 SZ EP   2    231 57.48                             166    -0.1 5   34 349 
 BRR  HZ EP   1    231 59.06                             150    -0.1 7   73 300 
 BRR  HN ES   1    232 15.34                             150     0.2 7   73 300 
 BRR  HZ I         232 17.60         7.1 0.10                            73 300 
 RUS  HZ EP   2    232  1.82                             143     0.2 5   98 177 
 RUS  HE ES   2    232 19.84                             143     0.4 5   98 177 
 RUS  HZ I         232 21.16         3.7 0.41                            98 177 
 GRA  SZ EP   1    232  3.23                             135    -0.3 7  127  17 
 GRA  SZ ES   1    232 22.91                             135     0.2 7  127  17 
 GRA  SZ I         232 24.96         2.9 0.25                           127  17 
 HEL  HZ EP   1    232 18.48                             113    -0.2 6  273 256 
 HEL  HZ I         232 21.32         1.8 0.33                           273 256 
                                                                                
