 2017  828 0344 46.9 L   6.824 -73.126142.4  RSN 16 0.6 2.1LRSN                1
 GAP=104        1.23       3.6     3.2  6.1  0.1058E+01  0.6687E+01  0.4599E+01E
 Epicentro: LOS SANTOS - SANTANDER                                             3
 ACTION:UPD 17-09-04 20:25 OP:rebc STATUS:               ID:20170828034446 L   I
 OLDACT:REG 17-08-28 12:22 OP:dhb  STATUS:               ID:20170828033740     3
 2017-08-28-0338-00M.COL___417                                                 6
 STAT SP IPHASW D HRMM SECON CODA AMPLIT PERI AZIMU VELO AIN AR TRES W  DIS CAZ7
 BAR2 EZ IP     C  345  5.91                             169   -0.2910 26.4 194 
 BAR2 EZ ES        345 20.64                             169   -0.6010 26.4 194 
 BAR2 EZ I         345 22.26        30.1 0.10            168           26.4 194 
 BRR  HZ IP     C  345  7.73                             151   -0.0010 71.9 296 
 BRR  HN ES        345 24.67                             151    0.6910 71.9 296 
 BRR  HZ I         345 27.91        10.8 0.10            151           71.9 296 
 PAM  EZ IP     D  345  8.85                             151    0.2910 73.9  40 
 PAM  EN ES        345 25.79                             151    0.3510 73.9  40 
 PAM  EZ I         345 28.68        26.1 0.79            154           73.9  40 
 RUS  HZ EP        345  9.94                             142   -0.5710  103 177 
 RUS  HN ES        345 28.37                             142   -0.5610  103 177 
 RUS  HZ I         345 29.29        15.8 0.24            143            103 177 
 TAM  HZ IP     D  345 14.21                             130    0.02 9  154 106 
 TAM  HE ES        345 35.77                             130    0.30 9  154 106 
 TAM  HZ I         345 40.49         9.0 0.64            133            154 106 
 SPBC HZ EP        345 14.91                             128   -0.57 9  167 219 
 SPBC HE ES        345 36.98                             128   -0.78 9  167 219 
 SPBC HZ I         345 42.79        14.0 0.59            128            167 219 
 YPLC HZ IP     C  345 16.35                             125   -0.24 9  178 152 
 YPLC HN ES        345 40.24                             125    0.50 9  178 152 
 YPLC HZ I         345 42.73        11.9 0.44            127            178 152 
 ZAR  HZ EP        345 19.21                             121   -0.03 9  205 291 
 ZAR  HE ES        345 44.99                             121    0.53 9  205 291 
 ZAR  HZ I         345 49.95        17.3 0.13            122            205 291 
 NOR  HZ EP        345 22.37                             117   -0.43 8  238 234 
 NOR  HE ES        345 50.75                             117   -0.05 8  238 234 
 NOR  HZ I         345 56.79       514.0 0.03            118            238 234 
 CHI  HZ EP   2    345 26.66                             116    1.90 4  252 195 
 CHI  HN ES        345 54.67                             116    0.38 8  252 195 
 CHI  HZ I         346  0.38         2.5 0.59            117            252 195 
 HEL  HZ EP        345 27.49                             114    0.23 8  275 255 
 HEL  HE ES        345 58.90                             114    0.17 8  275 255 
 HEL  HZ I         346  4.42         5.0 0.32            114            275 255 
 URE  HZ IP     C  345 27.01                             113   -0.92 7  285 291 
 URE  HE ES        345 59.37                             113   -0.56 7  285 291 
 URE  HZ I         346 10.30         6.6 0.14            113            285 291 
 GUY2CHZ EP        345 31.61                             111    0.88 7  305 235 
 GUY2CHE ES        346  5.53                             111    0.61 7  305 235 
 GUY2CHZ I         346 12.72         7.6 0.84                           305 235 
 ELA  HN ES   2    346 12.70                             109    1.96 3  333 229 
 ELA  HZ I         346 23.12         2.6 0.41            110            333 229 
 PRA  HZ EP        345 40.58                             106   -0.13 6  395 210 
 PRA  HE ES        346 23.87                             106    1.20 6  395 210 
 PRA  HZ I         346 28.67         5.6 0.83            106            395 210 
 ORTC HE ES        346 23.29                             105   -0.11 6  399 216 
                                                                                
