 2013  228 0051 46.3 L   6.756 -73.133141.9  RSN  6 0.5 1.4LRSN                1
 GAP=140        1.18       7.4     6.9  9.3  0.1379E+02 -0.1794E+01 -0.1158E+02E
 Epicentro: LOS SANTOS - SANTANDER                                             3
 ACTION:UPD 13-03-12 09:36 OP:ep   STATUS:               ID:20130228005146 L   I
 2013-02-28-0050-00M.COL___228                                                 6
 STAT SP IPHASW D HRMM SECON CODA AMPLIT PERI AZIMU VELO AIN AR TRES W  DIS CAZ7
 BAR2 SZ ES        052 20.21                             172   -0.0310 18.9 197 
 BAR2 SZ I         052 21.70        13.7 0.15            177           18.9 197 
 BRR  HZ EP        052  7.04                             151   -0.1710 74.8 301 
 BRR  HZ I         052 23.48         7.9 0.54            146           74.8 301 
 BRR  HN ES        052 23.91                             151    0.3610 74.8 301 
 PAM  SZ EP        052  7.93                             149   -0.3310 80.4  37 
 RUS  HZ EP        052  9.22                             144   -0.0710 95.7 177 
 RUS  HN ES        052 27.63                             144    0.3910 95.7 177 
 RUS  HZ I         052 28.80         2.0 0.21            145           95.7 177 
 PTB  HZ EP        052 13.63                             131    0.66 9  148 261 
 PTB  HN ES        052 32.79                             131   -1.00 9  148 261 
 PTB  HZ I         052 35.24         2.6 0.14            128            148 261 
 ZAR  HN ES   2    052 44.95                             121    0.79 4  207 293 
                                                                                
