 2014  828 0305 45.2 L   6.844 -73.158144.9  RSN 26 0.5 2.5LRSN                1
 GAP= 69        1.11       2.7     3.0  5.3 -0.7472E+00  0.4151E+01  0.2412E+01E
 Epicentro: LOS SANTOS - SANTANDER                                             3
 ACTION:UPD 14-09-15 21:53 OP:nd   STATUS:               ID:20140828030545 L   I
 OLDACT:DUP 14-08-28 14:12 OP:fm   STATUS:               ID:20140828025819d    3
 2014-08-28-0258-18M.COL___263                                                 6
 STAT SP IPHASW D HRMM SECON CODA AMPLIT PERI AZIMU VELO AIN AR TRES W  DIS CAZ7
 BAR2 SZ EP        3 6  4.75                             169   -0.1010 28.0 185 
 BAR2 SZ ES   1    3 6 20.01                             169   -0.15 7 28.0 185 
 BAR2 SZ I         3 6 20.98        48.5 0.24            167           28.0 185 
 BRR  HZ EP        3 6  6.53                             154    0.4510 67.7 295 
 BRR  HN ES        3 6 23.30                             154    0.9510 67.7 295 
 BRR  HZ I         3 6 23.97        94.2 0.32            149           67.7 295 
 PAM  SZ EP     C  3 6  7.64                             151    0.4610 74.6  43 
 PAM  SN ES        3 6 24.44                             151    0.1410 74.6  43 
 PAM  SZ I         3 6 26.96        37.2 0.52            155           74.6  43 
 RUS  HZ EP        3 6  8.81                             142   -0.4410  106 175 
 RUS  HN ES        3 6 27.91                             142   -0.0810  106 175 
 RUS  HZ I         3 6 29.32        43.2 0.32            144            106 175 
 PTB  HZ EP        3 6 11.32                             132   -0.76 9  147 257 
 PTB  HN ES        3 6 32.48                             132   -0.56 9  147 257 
 PTB  HZ I         3 6 39.67        49.9 0.42            130            147 257 
 OCA  HZ EP        3 6 12.73                             130   -0.26 9  155 353 
 OCA  HN ES        3 6 34.28                             130   -0.37 9  155 353 
 OCA  HZ I         3 6 41.97        33.7 0.20            130            155 353 
 TAM  HZ EP     D  3 6 13.19                             130    0.11 9  158 107 
 TAM  HN ES        3 6 34.82                             130    0.01 9  158 107 
 SPBC HZ EP        3 6 13.63                             128   -0.30 9  166 218 
 SPBC HN ES        3 6 36.02                             128   -0.31 9  166 218 
 SPBC HZ I         3 6 41.89        56.6 0.24            127            166 218 
 ZAR  HZ EP        3 6 17.99                             123    0.71 9  201 291 
 ZAR  HN ES        3 6 42.12                             123   -0.18 9  201 291 
 ZAR  HZ I         3 6 49.89        33.1 0.26            121            201 291 
 NOR  HZ EP        3 6 21.13                             118    0.05 8  236 233 
 NOR  HN ES        3 6 48.51                             118   -0.55 8  236 233 
 NOR  HZ I         3 6 52.45        22.3 0.34            117            236 233 
 SML  HZ EP        3 6 21.11                             118   -0.14 8  239 335 
 SML  HN ES   4    3 6 51.07                             118    1.72 0  239 335 
 SML  HZ I         3 6 54.98        42.0 0.10            117            239 335 
 CHI  HZ EP        3 6 23.32                             116   -0.02 8  253 195 
 CHI  HN ES        3 6 52.23                             116   -0.85 8  253 195 
 CHI  HZ I         3 7  1.56        15.3 0.36            117            253 195 
 ROSC BZ EP   4    3 6 25.16                             116    1.49 0  256 210 
 ROSC BN ES   4    3 6 55.89                             116    2.22 0  256 210 
 ROSC BZ I         3 7  0.13        34.7 0.35            116            256 210 
 HEL  HZ EP   4    3 6 26.78                             115    1.41 0  272 255 
 HEL  HN ES   4    3 6 55.40                             115   -1.29 0  272 255 
 HEL  HZ I         3 7  3.41        17.5 0.28            114            272 255 
 URE  HN ES   4    3 6 54.59                             114   -3.03 0  281 291 
 URE  HZ I         3 7  4.99        25.3 0.22            113            281 291 
 GUY2CHZ EP   4    3 6 30.29                             112    1.31 0  303 234 
 GUY2CHN ES        3 7  3.94                             112    0.83 7  303 234 
 GUY2CHZ I         3 7 11.16        17.1 0.34                           303 234 
 VIL  SZ EP        3 6 29.01                             111   -0.10 7  308 191 
 VIL  SN ES   4    3 7  1.63                             111   -1.71 0  308 191 
 VIL  SZ I         3 7  6.57        38.6 0.84            112            308 191 
 CBOC HZ EP        3 6 32.66                             110    0.54 7  334 251 
 CBOC HN ES   4    3 7  7.33                             110   -1.37 0  334 251 
 CBOC HZ I         3 7 16.91         6.4 0.76            109            334 251 
 DBB  SZ EP   1    3 6 33.15                             109    0.69 5  338 273 
 DBB  SZ ES   1    3 7  8.61                             109   -0.69 5  338 273 
 TOL  SZ EP   4    3 6 34.93                             109    1.20 0  346 224 
 TOL  SN ES        3 7 12.11                             109    0.54 6  346 224 
 TOL  SZ I         3 7 18.10        31.5 0.54            109            346 224 
 MON  HZ EP   4    3 6 31.17                             109   -2.53 0  350 308 
 MON  HN ES        3 7 10.64                             109   -0.88 6  350 308 
 MON  HZ I         3 7 29.89         7.2 0.40            108            350 308 
 ANIL HZ EP   1    3 6 36.24                             108    0.96 5  360 224 
 ANIL HN ES        3 7 15.20                             108    0.87 6  360 224 
 ANIL HZ I         3 7 21.50         4.3 0.26            108            360 224 
 PRA  HZ EP   1    3 6 38.41                             106   -0.72 4  396 209 
 PRA  HN ES        3 7 21.42                             106    0.25 6  396 209 
 PRA  HZ I         3 7 28.26        17.2 0.44            106            396 209 
 ORTC HZ EP   1    3 6 39.65                             106    0.18 4  399 216 
 ORTC HN ES        3 7 22.71                             106    0.92 6  399 216 
 ORTC HZ I         3 7 27.32        11.8 0.46            106            399 216 
 SJC  HZ EP   4    3 6 38.62                             106   -1.56 0  404 327 
 SJC  HN ES   4    3 7 18.89                             106   -4.15 0  404 327 
 SJC  HZ I         3 7 24.21         5.2 0.26            106            404 327 
 MACC HZ EP   4    3 6 51.52                             101   -2.94 0  525 188 
 MACC HN ES   4    3 7 44.05                             101   -4.42 0  525 188 
 MACC HZ I         3 7 50.87         2.7 0.50            102            525 188 
                                                                                
