 2011 1228 0626  6.9 L   6.577 -73.175146.0  RSN  5 0.4 1.6LRSN                1
 GAP=198        0.71      12.0     8.5  8.9  0.5409E+02  0.2204E+02  0.2772E+02E
 Epicentro: PINCHOTE - SANTANDER                                               3
 ACTION:UPD 12-07-13 16:19 OP:ep   STATUS:               ID:20111228062000 L   I
 2011-12-28-0620-00M.COL___186                                                 6
 STAT SP IPHASW D HRMM SECON CODA AMPLIT PERI AZIMU VELO AIN AR TRES W  DIS CAZ7
 BAR2 SZ EP   1    626 26.31                             179    0.03 7 1.89 335 
 BAR2 SZ ES   2    626 40.86                             179   -0.57 5 1.89 335 
 RUS  HZ EP   3    626 29.16                             151    0.12 2 76.3 172 
 BRR  HZ EP   1    626 28.44                             149   -0.32 7 83.4 315 
 BRR  HZ I         626 28.75         8.6 0.20                          83.4 315 
 BRR  HN ES   1    626 46.44                             149    0.59 7 83.4 315 
 PTB  HZ EP   1    626 33.38                             133    0.08 7  142 268 
 PTB  HN ES   2    626 54.21                             133    0.28 5  142 268 
 ZAR  HZ EP   1    626 40.46                             121    0.35 6  212 299 
 ZAR  HE ES   1    627  5.37                             121   -0.68 6  212 299 
 ZAR  HZ I         627 11.69         2.7 0.23                           212 299 
                                                                                
