 2010 1128 0735 25.0 L   6.805 -73.077143.0  RSN  8 0.4 1.7LRSN                1
 GAP=190        0.82       4.7     8.5  8.1  0.6259E+01  0.1268E+02  0.3733E+01E
 Epicentro: LOS SANTOS - SANTANDER                                             3
 ACTION:UP  10-12-17 16:55 OP:REBC STATUS:               ID:20101128073525 L   I
 2010-11-28-0733-00S.COL___125                                                 6
 STAT SP IPHASW D HRMM SECON CODA AMPLIT PERI AZIMU VELO SNR AR TRES W  DIS CAZ7
 BAR2 SZ EP   1    735 44.14                             169    -0.2 7   26 207 
 BAR2 SZ I         736  1.25         9.1 0.00                            26 207 
 BRR  HZ IP     D  735 45.95                             150    -0.310   78 296 
 BRR  HN ES   1    736  3.09                             150     0.3 7   78 296 
 BRR  HZ I         736  4.96         9.7 0.10                            78 296 
 RUS  HZ EP   1    735 48.43                             143    -0.1 7  101 180 
 RUS  HE ES   1    736  6.98                             143     0.2 7  101 180 
 RUS  HZ I         736  9.19         4.7 0.48                           101 180 
 OCA  SZ EP   1    735 53.44                             129     0.3 7  161 350 
 OCA  SZ I         736 22.69         7.2 0.10                           161 350 
 NOR  SZ EP   1    736  0.74                             117    -0.6 6  241 236 
 CHI  HZ EP   2    736  2.56                             116    -0.3 4  251 197 
 CHI  HN ES   1    736 32.35                             116     0.0 6  251 197 
 CHI  HZ I         736 35.29         4.9 0.30                           251 197 
 HEL  HZ EP   2    736  6.09                             114     0.2 4  280 256 
 HEL  HN ES   2    736 37.23                             114    -0.6 4  280 256 
 HEL  HZ I         736 43.20         2.7 0.47                           280 256 
 RREF HZ EP        736 12.53                             110     0.8 7  328 230 
 RREF HZ I         736 53.71         3.3 0.22                           328 230 
                                                                                
