 2011  528 0436 45.6 L   6.809 -73.129138.5  RSN 10 0.2 1.8LRSN                1
 GAP=157        0.40       2.1     3.7  4.6 -0.3091E+01 -0.3102E+01  0.2520E+01E
 Epicentro: LOS SANTOS - SANTANDER                                             3
 ACTION:UP  11-06-29 08:56 OP:tino STATUS:               ID:20110528043645 L   I
 2011-05-28-0434-04S.COL___115                                                 6
 STAT SP IPHASW D HRMM SECON CODA AMPLIT PERI AZIMU VELO SNR AR TRES W  DIS CAZ7
 BTL  SZ EP   1    437  4.69                             172     0.4 7   19 308 
 BAR2 SZ EP   2    437  4.52                             169     0.1 5   25 194 
 GIR2 SZ EP   2    437  4.56                             167     0.1 5   31 347 
 BRR  HZ EP        437  6.11                             151     0.110   72 297 
 BRR  HZ I         437  8.17        11.9 0.12                            72 297 
 BRR  HE ES   1    437 21.98                             151     0.0 7   72 297 
 RUS  HZ EP   1    437  8.48                             142    -0.2 7  101 177 
 RUS  HE ES   2    437 26.63                             142    -0.1 5  101 177 
 RUS  HZ I         437 28.00         5.7 0.36                           101 177 
 BRI  SZ EP   1    437  8.92                             140     0.2 7  107  20 
 GRA  SZ EP   1    437 10.01                             136    -0.1 7  124  17 
 GRA  SZ ES   1    437 28.97                             136    -0.2 7  124  17 
 GRA  SZ I         437 31.55        10.8 0.34                           124  17 
 OCA  SZ EP   1    437 13.33                             128     0.0 7  159 352 
 OCA  SZ ES   1    437 34.72                             128    -0.2 7  159 352 
 OCA  SZ I         437 40.52         9.1 0.33                           159 352 
 NOR  SZ EP   2    437 21.10                             117    -0.1 4  237 235 
 NOR  SN ES   2    437 48.65                             117    -0.2 4  237 235 
 PRA  HZ EP   2    437 38.80                             105    -0.3 3  394 210 
 PRA  HN ES   2    438 20.95                             105     0.1 3  394 210 
                                                                                
