 2012  628 0227 45.3 L   6.692 -73.228155.4  RSN  4 0.1 1.2LRSN                1
 GAP=219        0.34       3.8     3.7  4.5  0.9429E+01 -0.1373E+00 -0.1041E+01E
 Epicentro: BARICHARA - SANTANDER                                              3
 ACTION:UPD 12-08-06 17:53 OP:ep   STATUS:               ID:20120628022745 L   I
 2012-06-28-0220-00M.COL___201                                                 6
 STAT SP IPHASW D HRMM SECON CODA AMPLIT PERI AZIMU VELO AIN AR TRES W  DIS CAZ7
 BRR  HZ EP   1    228  7.26                             154   -0.19 7 70.4 311 
 BRR  HE ES   1    228 24.79                             154    0.06 7 70.4 311 
 RUS  HZ EP   1    228  9.32                             149    0.03 7 89.9 170 
 RUS  HN ES   1    228 28.04                             149    0.03 7 89.9 170 
 RUS  HZ I         228 29.25         1.9 0.25                          89.9 170 
 PTB  HZ EP   1    228 12.24                             136    0.12 7  137 263 
 PTB  HN ES   1    228 32.91                             136   -0.14 7  137 263 
 PTB  HZ I         228 36.83         2.4 0.11                           137 263 
 ZAR  HN ES   1    228 43.69                             125    0.12 6  201 296 
                                                                                
