 2014  228 0548 53.2 L   6.819 -73.175142.8  RSN 16 0.4 2.1LRSN                1
 GAP=132        0.75       2.1     3.0  4.7 -0.6131E+00  0.4639E+01  0.8097E+00E
 Epicentro: LOS SANTOS - SANTANDER                                             3
 OLDACT:REG 14-02-28 09:13 OP:fm   STATUS:               ID:20140228054809     3
 ACTION:UPD 14-03-10 08:14 OP:ep   STATUS:               ID:20140228054853 L   I
 OLDACT:UP  14-02-28 13:24 OP:fm   STATUS:               ID:20140228054809     3
 2014-02-28-0548-09M.COL___174                                                 6
 STAT SP IPHASW D HRMM SECON CODA AMPLIT PERI AZIMU VELO AIN AR TRES W  DIS CAZ7
 BAR2 SZ EP        549 12.52                             170    0.0210 25.1 182 
 BAR2 SZ ES   1    549 27.68                             170    0.12 7 25.1 182 
 BAR2 SZ I         549 28.98        51.3 0.32            167           25.1 182 
 PAM  SZ EP        549 15.46                             150    0.3410 78.0  42 
 PAM  SN ES        549 32.55                             150    0.3210 78.0  42 
 PAM  SZ I         549 34.18        12.2 0.44            155           78.0  42 
 RUS  HZ EP        549 16.50                             142   -0.3210  103 174 
 RUS  HN ES        549 34.98                             142   -0.2710  103 174 
 RUS  SZ I         549 36.22         8.3 0.68            142            103 174 
 PTB  HZ EP   1    549 19.42                             132   -0.24 7  145 258 
 PTB  HN ES        549 39.96                             132   -0.35 9  145 258 
 PTB  SZ I         549 45.87        11.0 0.54            129            145 258 
 OCA  HN ES   1    549 42.67                             129   -0.09 7  158 354 
 SPBC HN ES   1    549 43.61                             128    0.17 7  163 218 
 ZAR  HZ EP   2    549 25.58                             122    0.54 4  200 292 
 ZAR  HN ES        549 50.48                             122    0.58 9  200 292 
 ZAR  SZ I         549 55.62         8.7 0.26            121            200 292 
 NOR  HZ EP        549 28.69                             118    0.10 8  233 234 
 NOR  HN ES        549 55.76                             118   -0.45 8  233 234 
 NOR  SZ I         550  5.97         5.7 0.44            117            233 234 
 SML  HZ EP        549 28.83                             117   -0.46 8  240 336 
 SML  HN ES        549 56.97                             117   -0.49 8  240 336 
 SML  SZ I         550  1.57        16.5 0.10            117            240 336 
 CHI  HZ EP        549 30.88                             116    0.03 8  250 194 
 CHI  HN ES        550  0.26                             116    0.04 8  250 194 
 CHI  SZ I         550 13.24         5.0 1.52            116            250 194 
 ROSC BZ EP   4    549 32.90                             116    1.74 0  253 210 
 ROSC BN ES   4    550  2.72                             116    1.95 0  253 210 
 ROSC SZ I         550  7.00        17.5 0.40            115            253 210 
 HEL  HZ EP   4    549 34.42                             114    1.47 0  269 255 
 HEL  HN ES   1    550  4.26                             114    0.29 6  269 255 
 HEL  SZ I         550 10.77         5.0 0.34            113            269 255 
 GUY2CHZ EP   1    549 37.26                             112    0.77 5  300 234 
 GUY2CHN ES   4    550 15.26                             112    4.99 0  300 234 
 GUY2CSZ I         550 18.56         6.1 0.38                           300 234 
 PRA  HZ EP        549 46.49                             106   -0.14 6  392 209 
 PRA  HN ES   1    550 29.31                             106    1.00 4  392 209 
 PRA  SZ I         550 32.64         6.8 0.78            106            392 209 
 ORTC HZ EP   1    549 47.13                             106    0.16 4  395 216 
 ORTC HN ES   4    550 31.15                             106    2.22 0  395 216 
 ORTC SZ I         550 33.61         3.6 0.56            106            395 216 
 SJC  HZ EP   4    549 46.74                             105   -1.49 0  406 327 
 SJC  HN ES   4    550 29.41                             105   -1.76 0  406 327 
 SJC  SZ I         550 41.89         8.6 2.12            105            406 327 
                                                                                
