 2011  228 0241  8.1 L   6.812 -73.129144.3  RSN 15 0.5 3.5LRSN                1
 GAP=104        1.09       3.7     7.9  7.7 -0.1105E+02  0.1534E+02 -0.1711E+01E
 Epicentro: LOS SANTOS - SANTANDER                                             3
 ACTION:UP  11-03-28 15:11 OP:jfem STATUS:               ID:20110228024108 L   I
 2011-02-28-0238-50S.COL___135                                                 6
 STAT SP IPHASW D HRMM SECON CODA AMPLIT PERI AZIMU VELO SNR AR TRES W  DIS CAZ7
 BAR2 SZ IP        241 28.08                             170     0.510   25 194 
 BAR2 SZ ES   1    241 42.95                             170     0.1 7   25 194 
 BAR2 SZ I         241 46.18      1639.9 0.43                            25 194 
 RUS  HZ IP        241 31.92                             143     0.110  102 177 
 RUS  HN ES   1    241 49.97                             143    -0.3 7  102 177 
 RUS  HZ I         241 52.01       544.1 0.26                           102 177 
 GUE  SZ EP   1    241 32.02                             139    -0.5 7  115  11 
 GUE  SZ I         241 33.69         1.6 0.06                           115  11 
 GRA  SZ IP        241 33.91                             137     0.810  124  17 
 GRA  SZ I         241 35.41       793.8 0.35                           124  17 
 GRA  SZ ES   1    241 51.65                             137    -0.9 7  124  17 
 OCA  SZ IP        241 36.23                             129     0.0 9  159 352 
 OCA  SZ I         242  5.44       649.6 0.28                           159 352 
 YOP  SZ IP        241 38.54                             126     0.4 9  179 154 
 YOP  SZ I         241 39.29       214.7 0.55                           179 154 
 YOP  SN ES   1    242  1.30                             126    -0.2 7  179 154 
 CHI  HZ EP   1    241 45.67                             117    -0.3 6  250 195 
 CHI  HN ES   1    242 15.75                             117     0.3 6  250 195 
 CHI  HZ I         242 23.27       236.4 0.36                           250 195 
 ROSC BZ EP   3    241 47.50                             116     1.1 2  255 211 
 ROSC BN ES   1    242 15.91                             116    -0.3 6  255 211 
 ROSC BZ I         242 24.13       690.6 0.59                           255 211 
 HEL  HZ EP   2    241 48.47                             114     0.0 4  274 256 
 HEL  HZ I         242 26.49       261.8 0.32                           274 256 
 VIL  SZ EP        241 50.93                             112    -0.5 7  303 190 
 VIL  SE ES   1    242 24.85                             112    -0.4 5  303 190 
 VIL  SZ I         242 36.04       283.5 0.43                           303 190 
 RREF HZ EP   1    241 53.99                             110    -0.5 5  324 229 
 RREF HZ I         242 40.72       298.4 0.41                           324 229 
 DBB  SZ EP   2    241 55.62                             109    -0.1 3  341 274 
 DBB  SZ I         242 36.18        36.7 0.34                           341 274 
 TOL  SZ EP        241 56.61                             109     0.0 6  346 225 
 SDV  BZ EP        241 57.32                             108    -0.5 6  358  50 
 PRA  HN ES   1    242 43.82                             106     0.1 4  394 210 
 PRA  HZ I         242 46.98       577.1 0.23                           394 210 
                                                                                
