 2016  228 0451 27.7 L   6.852 -73.165145.6  RSN  4 0.3 1.1LRSN                1
 GAP=279        0.68       6.8     4.9  5.9  0.8873E+01  0.7055E+01 -0.2579E+01E
 Epicentro: ZAPATOCA - SANTANDER                                               3
 ACTION:UPD 16-03-04 21:30 OP:rebc STATUS:               ID:20160228045127 L   I
 OLDACT:UP  16-02-28 14:47 OP:drio STATUS:               ID:20160228044746     3
 OLDACT:REG 16-02-28 12:36 OP:drio STATUS:               ID:20160228044746     3
 2016-02-28-0447-46M.COL___318                                                 6
 STAT SP IPHASW D HRMM SECON CODA AMPLIT PERI AZIMU VELO AIN AR TRES W  DIS CAZ7
 BAR2 EZ ES        452  3.01                             168    0.2210 28.8 184 
 RUS  HZ EP        451 52.02                             142    0.1910  107 175 
 RUS  HN ES        452 10.25                             142   -0.4310  107 175 
 RUS  HZ I         452 12.01         1.4 0.42            139            107 175 
 PTB  HZ EP        451 54.43                             132   -0.10 9  147 256 
 PTB  HE ES        452 15.31                             132   -0.18 9  147 256 
 PTB  HZ I         452 22.65         1.5 0.34            128            147 256 
 SPBC HZ EP        451 56.41                             128   -0.04 9  166 217 
 SPBC HN ES        452 19.27                             128    0.36 9  166 217 
 SPBC HZ I         452 25.60         1.8 0.36            125            166 217 
                                                                                
