 2017  728 0647  3.4 L   6.541 -73.527110.5  RSN  5 0.3 1.2LRSN                1
 GAP=130        0.62       3.9     4.5  6.9  0.1268E+01  0.1015E+02  0.3252E+01E
 Epicentro: EL CARMEN - SANTANDER                                              3
 ACTION:UPD 17-08-30 15:37 OP:rebc STATUS:               ID:20170728064703 L   I
 OLDACT:UP  17-07-28 15:26 OP:and  STATUS:               ID:20170728063742     3
 OLDACT:UP  17-07-28 15:25 OP:and  STATUS:               ID:20170728063742     3
 OLDACT:UP  17-07-28 15:25 OP:and  STATUS:               ID:20170728063742     3
 OLDACT:UP  17-07-28 15:24 OP:and  STATUS:               ID:20170728063742     3
 OLDACT:UP  17-07-28 15:24 OP:and  STATUS:               ID:20170728063742     3
 OLDACT:UP  17-07-28 15:24 OP:and  STATUS:               ID:20170728063742     3
 OLDACT:REG 17-07-28 12:39 OP:and  STATUS:               ID:20170728063742     3
 2017-07-28-0638-00M.COL___379                                                 6
 STAT SP IPHASW D HRMM SECON CODA AMPLIT PERI AZIMU VELO AIN AR TRES W  DIS CAZ7
 BAR2 EZ IP     C  647 19.46                             158    0.1110 38.5  82 
 BAR2 EZ ES        647 31.89                             158    0.1210 38.5  82 
 BAR2 EZ I         647 33.22         6.0 0.34            158           38.5  82 
 BRR  HZ EP   2    647 19.94                             146   -0.57 5 65.9 342 
 BRR  HN ES        647 33.71                             146   -0.1410 65.9 342 
 PTB  HZ IP   9 D  647 22.03                             133   -1.40 0  103 270 
 PTB  HN ES   2    647 36.81                             135   -0.83 5  103 270 
 PTB  HZ I         647 37.56         2.2 0.05            130            103 270 
 SPBC HN ES   1    647 41.12                             130   -0.13 7  115 212 
 SPBC HZ I         647 47.04         2.4 0.10            125            115 212 
 ZAR  HZ EP   2    647 31.27                             116    0.00 4  181 306 
 ZAR  HE ES   2    647 53.61                             116    0.62 4  181 306 
 ZAR  HZ I         647 57.52         2.0 0.16            115            181 306 
                                                                                
