 2011 1128 0637 32.3 L   6.820 -73.056149.1  RSN  4 0.1 1.3LRSN                1
 GAP=147        0.31       5.4     8.0  7.1  0.2860E+02 -0.5309E+01  0.9872E+01E
 Epicentro: LOS SANTOS - SANTANDER                                             3
 ACTION:UPD 12-07-13 16:12 OP:ep   STATUS:               ID:20111128063732 L   I
 2011-11-28-0635-50S.COL___160                                                 6
 STAT SP IPHASW D HRMM SECON CODA AMPLIT PERI AZIMU VELO AIN AR TRES W  DIS CAZ7
 BAR2 SZ EP   3    637 52.59                             169    0.13 2 28.8 209 
 PAM  SE ES   3    638 11.68                             154   -0.03 2 69.6  34 
 BRR  HZ EP        637 54.32                             150    0.0510 79.1 294 
 BRR  HZ I         637 54.34         3.7 0.36                          79.1 294 
 BRR  HE ES   2    638 11.29                             150   -0.12 5 79.1 294 
 RUS  HZ EP        637 56.50                             144   -0.0410  103 182 
 RUS  HE ES   3    638 15.68                             144    0.25 2  103 182 
                                                                                
