 2017  128 0804 49.7 L   6.768 -73.158142.9  RSN  8 0.4 1.3LRSN                1
 GAP=119        1.00       4.7     4.2  6.1  0.3962E+01  0.4327E+01  0.2750E+01E
 Epicentro: LOS SANTOS - SANTANDER                                             3
 ACTION:UPD 17-05-22 16:04 OP:jn   STATUS:               ID:20170128080449 L   I
 OLDACT:REG 17-01-28 13:27 OP:lv   STATUS:               ID:20170128075741     3
 2017-01-28-0758-00M.COL___334                                                 6
 STAT SP IPHASW D HRMM SECON CODA AMPLIT PERI AZIMU VELO AIN AR TRES W  DIS CAZ7
 BAR2 EZ EP        8 5  8.93                             172    0.0210 19.6 188 
 BAR2 EZ ES        8 5 23.63                             172   -0.2710 19.6 188 
 BAR2 EZ I         8 5 25.45         3.5 0.10            169           19.6 188 
 BRR  HZ EP        8 5 10.62                             152    0.0510 71.8 302 
 BRR  HN ES        8 5 26.90                             152    0.0510 71.8 302 
 BRR  HZ I         8 5 27.88         3.8 0.20            151           71.8 302 
 PAM  EZ EP        8 5 11.87                             149    0.0410 81.0  39 
 PAM  EN ES        8 5 28.91                             149   -0.1810 81.0  39 
 PAM  EZ I         8 5 29.42         3.7 0.28            153           81.0  39 
 RUS  HZ EP        8 5 13.16                             144    0.2410 97.2 175 
 RUS  HN ES        8 5 31.70                             144    0.6610 97.2 175 
 RUS  HZ I         8 5 33.45         1.6 0.19            143           97.2 175 
 PTB  HZ EP        8 5 15.78                             132   -0.47 9  146 260 
 PTB  HN ES        8 5 36.45                             132   -0.51 9  146 260 
 PTB  HZ I         8 5 40.21         2.6 0.12            131            146 260 
 ZAR  HZ EP        8 5 22.77                             122    0.80 9  204 293 
 ZAR  HN ES        8 5 47.20                             122    0.06 9  204 293 
 ZAR  HZ I         8 5 52.67         3.5 0.29            122            204 293 
 CHI  HE ES   4    8 5 57.24                             117    1.45 0  245 195 
 CHI  HZ I         8 6  0.49         1.2 0.21            117            245 195 
 PTGC HZ EP        8 5 32.37                             111   -0.75 7  306 158 
 PTGC HE ES   4    8 6  5.20                             111   -1.78 0  306 158 
 SJC  HZ EP   4    8 5 43.33                             105   -2.10 0  411 327 
 SJC  HN ES   4    8 6 25.00                             105   -3.90 0  411 327 
                                                                                
