 2010  728 0644 21.0 L   6.830 -73.055135.1  RSN 11 0.4 2.4LRSN                1
 GAP=168        0.75       3.7     5.8  6.9 -0.7050E+01  0.3374E+01  0.1757E+01E
 Epicentro: LOS SANTOS - SANTANDER                                             3
 ACTION:UPD 10-12-01 15:20 OP:pat  STATUS:               ID:20100728064421 L   I
 2010-07-28-0642-17S.COL___123                                                 6
 STAT SP IPHASW D HRMM SECON CODA AMPLIT PERI AZIMU VELO AIN AR TRES W  DIS CAZ7
 BAR2 SZ EP        644 39.50                             167     0.010   30 208 
 BAR2 SZ I         644 55.91        47.6 0.11                            30 208 
 GIR2 SZ EP   1    644 39.50                             166     0.1 7   31 331 
 BRR  HZ IP     D  644 41.27                             148    -0.210   79 293 
 BRR  HE ES   1    644 57.65                             148     0.2 7   79 293 
 BRR  HZ I         645  2.15        62.6 0.24                            79 293 
 RUS  HZ EP   1    644 43.57                             140    -0.4 7  104 182 
 RUS  HN ES   1    645  1.85                             140     0.0 7  104 182 
 RUS  HZ I         645  4.00        24.1 0.25                           104 182 
 GUE  SZ EP   1    644 44.26                             138    -0.1 7  112   7 
 GRA  SZ IP     C  644 45.16                             136     0.310  120  13 
 GRA  SZ I         645  7.07        33.7 0.47                           120  13 
 OCA  SZ EP   2    644 47.49                             127    -0.8 5  159 349 
 OCA  SZ I         645 13.46        39.8 0.11                           159 349 
 ROSC BZ EP        644 59.95                             113     0.5 8  261 213 
 ROSC BE ES   1    645 29.30                             113    -0.2 6  261 213 
 ROSC BZ I         645 35.04        21.8 0.42                           261 213 
 HEL  HZ EP   1    645  1.86                             111     0.0 6  283 256 
 HEL  HN ES   2    645 33.22                             111    -0.6 4  283 256 
 HEL  HZ I         645 39.00        15.1 0.38                           283 256 
 RREF HZ EP   1    645  7.74                             108    -0.1 5  332 230 
 RREF HN ES   2    645 45.43                                     1.1 3  332 230 
 RREF HZ I         645 49.98        13.7 0.07                           332 230 
 PRA  HZ EP   1    645 14.95                             104    -0.2 4  400 211 
 PRA  HZ I         645 59.28        14.0 0.36                           400 211 
                                                                                
