 2016  128 0553 41.1 L   6.790 -73.159138.2  RSN  5 0.2 1.3LRSN                1
 GAP=141        0.58       3.2     3.4  4.7 -0.5395E+01  0.2707E+01  0.5742E+00E
 Epicentro: LOS SANTOS - SANTANDER                                             3
 ACTION:UPD 16-03-09 23:29 OP:cam  STATUS:               ID:20160128055341 L   I
 OLDACT:REG 16-01-28 13:47 OP:cara STATUS:               ID:20160128054747     3
 2016-01-28-0547-47M.COL___331                                                 6
 STAT SP IPHASW D HRMM SECON CODA AMPLIT PERI AZIMU VELO AIN AR TRES W  DIS CAZ7
 BAR2 EZ IP     C  553 59.71                             171   -0.1110 22.0 187 
 BAR2 EZ ES        554 14.17                             171   -0.2210 22.0 187 
 BAR2 EZ I         554 19.63         2.6 0.46            171           22.0 187 
 PAM  EZ EP        554  2.78                             149    0.1310 79.2  40 
 PAM  EN ES        554 19.49                             149    0.0510 79.2  40 
 PAM  EZ I         554 21.62         6.4 0.46            153           79.2  40 
 RUS  HZ EP        554  3.75                             142   -0.3110 99.5 175 
 RUS  HE ES        554 22.31                             142    0.3610 99.5 175 
 RUS  HZ I         554 23.28         2.6 0.32            147           99.5 175 
 PTB  HZ EP   4 D  554  9.05                             131    1.72 0  146 259 
 PTB  HE ES        554 27.90                             131    0.12 9  146 259 
 PTB  HZ I         554 31.44         2.2 0.20            133            146 259 
 SPBC HZ EP        554  9.04                             128    0.16 9  161 219 
 SPBC HN ES        554 30.37                             128   -0.16 9  161 219 
 SPBC HZ I         554 33.98         4.1 0.22            131            161 219 
                                                                                
