 2017  728 0803 48.5 L   6.712 -73.126146.3  RSN  4 0.2 1.0LRSN                1
 GAP=261        0.57       7.2     4.5  5.1  0.6750E+01  0.4635E+01  0.2676E+01E
 Epicentro: JORDAN - SANTANDER                                                 3
 ACTION:UPD 17-08-30 15:37 OP:rebc STATUS:               ID:20170728080348 L   I
 OLDACT:UP  17-07-28 16:08 OP:and  STATUS:               ID:20170728075746     3
 OLDACT:REG 17-07-28 12:45 OP:and  STATUS:               ID:20170728075746     3
 2017-07-28-0758-00M.COL___377                                                 6
 STAT SP IPHASW D HRMM SECON CODA AMPLIT PERI AZIMU VELO AIN AR TRES W  DIS CAZ7
 BAR2 EZ EP        8 4  8.24                             174    0.2410 14.7 205 
 BAR2 EZ ES        8 4 23.03                             174   -0.2210 14.7 205 
 BAR2 EZ I         8 4 24.09         3.0 0.42            172           14.7 205 
 BRR  HZ EP        8 4 10.16                             150    0.1010 78.1 304 
 BRR  HN ES        8 4 26.95                             150    0.0410 78.1 304 
 PTB  HZ EP        8 4 15.16                             132   -0.36 9  148 263 
 PTB  HN ES        8 4 36.86                             132    0.23 9  148 263 
 PTB  HZ I         8 4 37.52         1.0 0.44            132            148 263 
 ZAR  HZ EP   3    8 4 21.94                             122    0.40 2  210 294 
 ZAR  HN ES   2    8 4 46.92                             122   -0.42 4  210 294 
                                                                                
