 2013 1028 0826 26.2 L   6.783 -73.124150.1  RSN  7 0.3 1.1LRSN                1
 GAP=140        0.65       4.2     4.4  7.2  0.6521E+01  0.4789E+01 -0.2964E+01E
 Epicentro: LOS SANTOS - SANTANDER                                             3
 ACTION:UPD 13-11-25 09:24 OP:ep   STATUS:               ID:20131028082626 L   I
 OLDACT:DUP 13-10-28 10:43 OP:jn   STATUS:               ID:20131028082001d    3
 OLDACT:REG 13-10-28 08:32 OP:jn   STATUS:               ID:20131028082000     3
 2013-10-28-0820-00M.COL___273                                                 6
 STAT SP IPHASW D HRMM SECON CODA AMPLIT PERI AZIMU VELO AIN AR TRES W  DIS CAZ7
 BAR2 SZ EP   1    826 46.49                             172    0.20 7 22.0 197 
 BRR  HZ EP   1    826 48.45                             152    0.50 7 74.3 299 
 BRR  HN ES   1    827  5.36                             152    0.42 7 74.3 299 
 BRR  HZ I         827  6.77         2.2 0.18            152           74.3 299 
 PAM  SN ES   2    827  5.87                             151   -0.65 5 77.4  37 
 RUS  HZ EP   1    826 50.25                             145    0.05 7 98.5 177 
 RUS  HN ES        827  8.94                             145   -0.0010 98.5 177 
 RUS  HZ I         827 10.65         1.4 0.26            146           98.5 177 
 PTB  HZ EP        826 53.55                             133   -0.12 9  150 260 
 PTB  HN ES        827 14.72                             133   -0.40 9  150 260 
 PTB  HZ I         827 19.77         2.7 0.36            133            150 260 
 ZAR  HN ES   1    827 24.97                             123    0.01 6  207 292 
 SML  HN ES   2    827 32.02                             118   -0.30 4  246 335 
                                                                                
