 2010  428 0606 20.1 L   6.794 -73.042147.5  RSN  5 0.3 2.0LRSN                1
 GAP=222        0.52       4.8     9.5  6.3  0.1446E+01 -0.3151E+01 -0.6672E+01E
 Epicentro: LOS SANTOS - SANTANDER                                             3
 ACTION:UP  10-08-24 10:01 OP:vdl  STATUS:               ID:20100428060618 L   I
 2010-04-28-0604-55S.COL___104                                                 6
 STAT SP IPHASW D HRMM SECON CODA AMPLIT PERI AZIMU VELO AIN AR TRES W  DIS CAZ7
 BAR2 SZ EP        6 6 40.29                             169     0.210   27 215 
 BAR2 SZ ES   1    6 6 55.23                             169    -0.4 7   27 215 
 BRR  HZ EP   1    6 6 42.26                             149     0.2 7   82 295 
 BRR  HN ES   2    6 6 59.51                             149     0.3 5   82 295 
 BRR  HZ I         6 7  4.00        11.6 0.20                            82 295 
 OCA  SZ EP   1    6 6 48.77                             129     0.0 7  163 349 
 OCA  SZ ES   2    6 7 10.72                             129    -0.5 5  163 349 
 HEL  HE ES   3    6 7 33.46                             114    -0.6 2  283 257 
 PRA  HZ EP   2    6 7 14.09                             106    -0.2 3  397 211 
 PRA  HN ES   3    6 7 55.90                             106    -0.7 1  397 211 
 PRA  HZ I         6 8  2.42         3.4 0.37                           397 211 
                                                                                
