 2010  928 0239 57.4 L   6.830 -73.025144.8  RSN  5 0.4 1.7LRSN                1
 GAP=178        1.01       6.2    13.0 10.2  0.1681E+02 -0.5390E+02  0.7549E+01E
 Epicentro: CEPITA - SANTANDER                                                 3
 ACTION:UP  11-02-18 11:06 OP:tino STATUS:               ID:20100928023957 L   I
 2010-09-28-0234-26S.COL___122                                                 6
 STAT SP IPHASW D HRMM SECON CODA AMPLIT PERI AZIMU VELO SNR AR TRES W  DIS CAZ7
 BAR2 SZ EP        240 17.06                             167     0.010   32 214 
 BAR2 SZ I         240 17.61        13.6 0.25                            32 214 
 BAR2 SZ ES   1    240 32.55                             167     0.1 7   32 214 
 BRR  HZ EP        240 18.76                             149    -0.310   82 292 
 BRR  HZ I         240 20.39        21.4 0.13                            82 292 
 BRR  HN ES        240 35.93                             149     0.010   82 292 
 RUS  HZ EP        240 21.15                             143    -0.110  104 184 
 RUS  HZ I         240 21.84         6.5 0.35                           104 184 
 RUS  HN ES   2    240 39.41                             143    -0.5 5  104 184 
 GUE  SZ EP   1    240 22.20                             141     0.6 7  111   6 
 GUE  SZ I         240 42.44         2.3 0.14                           111   6 
 CHI  HZ EP   1    240 35.23                             116    -0.5 6  256 198 
 CHI  HN ES   1    241  6.73                             116     1.0 6  256 198 
 CHI  HZ I         241 15.21         3.1 0.53                           256 198 
                                                                                
