 2015  128 0332 36.1 L   6.762 -73.113138.5  RSN  6 0.4 1.8LRSN                1
 GAP=161        1.02       5.4     5.4  7.2 -0.9080E+01  0.9499E+01  0.1543E+02E
 Epicentro: LOS SANTOS - SANTANDER                                             3
 ACTION:UPD 15-03-02 15:43 OP:nd   STATUS:               ID:20150128033235 L   I
 OLDACT:UP  15-01-29 07:39 OP:CF   STATUS:               ID:20150128033235 L   3
 OLDACT:UPD 15-01-28 15:03 OP:CF   STATUS:               ID:20150128033235 L   3
 2015-01-28-0328-18M.COL___280                                                 6
 STAT SP IPHASW D HRMM SECON CODA AMPLIT PERI AZIMU VELO AIN AR TRES W  DIS CAZ7
 BAR2 EZ EP        332 54.52                             171   -0.2410 20.2 202 
 BAR2 EZ ES        333  8.90                             171   -0.4410 20.2 202 
 BAR2 EZ I         333 12.79        14.9 0.16            168           20.2 202 
 BRR  HZ EP     C  332 56.40                             149   -0.3410 76.4 300 
 BRR  HE ES        333 13.57                             149    0.6910 76.4 300 
 BRR  HZ I         333 15.84        14.4 0.12            151           76.4 300 
 PAM  SZ EP     D  332 57.52                             149   -0.0610 78.5  36 
 PAM  SN ES        333 14.53                             149    0.1610 78.5  36 
 PAM  SZ I         333 16.27        13.2 0.50            155           78.5  36 
 CHI  HZ EP        333 13.16                             116    0.13 8  246 196 
 CHI  HN ES        333 42.23                             116    0.37 8  246 196 
 CHI  HZ I         333 47.35         3.1 0.32            118            246 196 
 HEL  HZ EP        333 16.62                             113    0.43 8  275 257 
 HEL  HN ES        333 46.50                             113   -0.99 8  275 257 
 HEL  HZ I         333 52.90         4.2 0.32            115            275 257 
 GUY2CHZ EP        333 19.50                             111    0.10 7  302 236 
 GUY2CHN ES        333 53.57                             111    0.36 7  302 236 
 GUY2CHZ I         334  1.60         3.0 0.34                           302 236 
                                                                                
