 2016 1028 0617  3.1 L   7.194 -74.117  4.0  RSN  7 0.5 1.5LRSN                1
 GAP=209        1.28       8.4     4.0  7.9 -0.2508E+02 -0.1141E+02  0.3656E+02E
 Epicentro: PUERTO WILCHES - SANTANDER                                         3
 ACTION:UPD 16-11-09 19:23 OP:rebc STATUS:               ID:20161028061703 L   I
 OLDACT:UP  16-10-28 20:19 OP:cog  STATUS:               ID:20161028060744     3
 OLDACT:UP  16-10-28 20:11 OP:cog  STATUS:               ID:20161028060744     3
 OLDACT:REG 16-10-28 14:44 OP:cog  STATUS:               ID:20161028060744     3
 2016-10-28-0608-00M.COL___349                                                 6
 STAT SP IPHASW D HRMM SECON CODA AMPLIT PERI AZIMU VELO AIN AR TRES W  DIS CAZ7
 BRR  HZ EP        617 10.32                              47   -0.3410 45.7 102 
 BRR  HE ES        617 15.77                              47   -0.7610 45.7 102 
 BRR  HZ I         617 17.27        27.7 0.16             47           45.7 102 
 PTB  HZ EP        617 16.24                              47    0.1310 81.5 207 
 PTB  HE ES        617 26.30                              47    0.0810 81.5 207 
 PTB  HZ I         617 26.78        22.8 0.16             47           81.5 207 
 PAM  EZ EP        617 28.62                              47    0.54 9  157  84 
 PAM  EZ I         617 34.18         7.0 0.20             47            157  84 
 PAM  EN ES        617 47.44                              47   -0.09 9  157  84 
 RUS  HZ EP        617 32.76                              37    0.79 9  184 141 
 RUS  HZ I         617 38.64         2.8 0.16             37            184 141 
 RUS  HE ES        617 55.13                              37    0.68 9  184 141 
 HEL  HZ EP        617 33.19                              37    0.40 9  192 235 
 HEL  HE ES        617 55.23                              37   -0.68 9  192 235 
 HEL  HZ I         617 56.71         3.7 0.26             37            192 235 
 NOR  HN ES        617 56.24                              37   -0.57 9  199 205 
 ANWB B2 E         613 38.28                                           1771  48 
                                                                                
