 2011  328 0135 33.5 L   6.805 -73.085148.0  RSN  6 0.3 1.7LRSN                1
 GAP=190        0.73       5.6     9.7  9.6 -0.1951E+02 -0.3777E+02  0.1191E+02E
 Epicentro: LOS SANTOS - SANTANDER                                             3
 ACTION:UP  11-06-16 14:36 OP:jfem STATUS:               ID:20110328013533 L   I
 2011-03-28-0131-34S.COL___138                                                 6
 STAT SP IPHASW D HRMM SECON CODA AMPLIT PERI AZIMU VELO SNR AR TRES W  DIS CAZ7
 BTL  SZ EP        135 53.66                             171     0.210   24 302 
 BAR2 SZ EP        135 53.24                             170    -0.310   26 205 
 BAR2 SZ I         135 53.53         7.6 0.29                            26 205 
 GIR2 SZ EP   3    135 53.39                             167    -0.1 2   33 338 
 GIR2 SZ ES   3    136  8.06                             167    -1.0 2   33 338 
 BRR  HZ EP        135 55.26                             152     0.010   77 296 
 BRR  HN ES   1    136 12.54                             152     0.3 7   77 296 
 BRR  HZ I         136 14.44         9.6 0.17                            77 296 
 GRA  SZ EP        135 59.09                             139     0.310  123  15 
 GRA  SZ ES   1    136 18.68                             139     0.2 7  123  15 
 GRA  SZ I         136 19.91         6.8 0.54                           123  15 
 OCA  SZ EP        136  1.68                             131    -0.4 9  161 351 
 OCA  SZ ES   1    136 24.07                             131    -0.2 7  161 351 
 OCA  SZ I         136 28.59         5.2 0.41                           161 351 
                                                                                
