 2014 1228 0321 47.5 L   6.798 -73.136145.7  RSN  8 0.5 1.5LRSN                1
 GAP=138        1.06       4.0     5.0  6.6  0.1172E+01  0.5687E+01 -0.4663E+01E
 Epicentro: LOS SANTOS - SANTANDER                                             3
 ACTION:UPD 15-02-10 17:07 OP:nd   STATUS:               ID:20141228032147 L   I
 OLDACT:UP  14-12-28 15:27 OP:mh   STATUS:               ID:20141228031739     3
 OLDACT:UP  14-12-28 15:27 OP:mh   STATUS:               ID:20141228031739     3
 OLDACT:REG 14-12-28 12:51 OP:mh   STATUS:               ID:20141228031739     3
 2014-12-28-0317-39M.COL___262                                                 6
 STAT SP IPHASW D HRMM SECON CODA AMPLIT PERI AZIMU VELO AIN AR TRES W  DIS CAZ7
 BAR2 EZ EP   1    322  7.40                             171    0.32 7 23.4 193 
 BAR2 EZ ES        322 22.29                             171   -0.1010 23.4 193 
 BAR2 EZ I         322 22.97         6.8 0.11            168           23.4 193 
 BRR  HZ EP        322  8.85                             152    0.1910 72.2 298 
 BRR  HN ES        322 25.66                             152    0.4710 72.2 298 
 BRR  HZ I         322 25.77         5.4 0.26            152           72.2 298 
 PAM  SZ EP     C  322 10.02                             151    0.3810 76.8  39 
 PAM  SN ES   1    322 26.38                             151   -0.55 7 76.8  39 
 PAM  SZ I         322 28.98         6.4 0.54            155           76.8  39 
 RUS  HZ EP        322 11.06                             144   -0.1310  100 177 
 RUS  HN ES        322 29.47                             144   -0.2210  100 177 
 RUS  HZ I         322 31.68         1.6 0.37            144            100 177 
 PTB  HZ EP        322 13.69                             132   -0.83 9  149 259 
 PTB  HN ES        322 35.14                             132   -0.47 9  149 259 
 PTB  HZ I         322 40.11         4.5 0.06            131            149 259 
 SPBC HZ EP        322 16.55                             129    0.54 9  164 219 
 SPBC HN ES   1    322 39.05                             129    0.78 7  164 219 
 SPBC HZ I         322 46.01         5.2 0.20            129            164 219 
 ZAR  HZ EP   1    322 19.92                             122   -0.09 6  205 292 
 ZAR  HN ES   1    322 45.11                             122   -0.29 6  205 292 
 SML  HZ EP        322 23.63                             117   -0.52 8  244 335 
 SML  HN ES        322 53.30                             117    0.54 8  244 335 
 SML  HZ I         322 54.57         5.2 0.26            119            244 335 
                                                                                
