 2017  428 0932 20.2 L   6.768 -73.157140.0  RSN  5 0.4 1.3LRSN                1
 GAP=234        0.60       4.6     5.7  5.9  0.1819E+02  0.3505E+01  0.2884E+01E
 Epicentro: LOS SANTOS - SANTANDER                                             3
 ACTION:UPD 17-05-30 21:16 OP:jn   STATUS:               ID:20170428093220 L   I
 OLDACT:UP  17-04-28 19:13 OP:and  STATUS:               ID:20170428092739     3
 OLDACT:UP  17-04-28 19:13 OP:and  STATUS:               ID:20170428092739     3
 OLDACT:UP  17-04-28 19:12 OP:and  STATUS:               ID:20170428092739     3
 OLDACT:UP  17-04-28 19:12 OP:and  STATUS:               ID:20170428092739     3
 OLDACT:UP  17-04-28 19:12 OP:and  STATUS:               ID:20170428092739     3
 OLDACT:UP  17-04-28 19:12 OP:and  STATUS:               ID:20170428092739     3
 OLDACT:UP  17-04-28 19:11 OP:and  STATUS:               ID:20170428092739     3
 OLDACT:UP  17-04-28 19:11 OP:and  STATUS:               ID:20170428092739     3
 OLDACT:REG 17-04-28 12:57 OP:and  STATUS:               ID:20170428092739     3
 2017-04-28-0928-00M.COL___362                                                 6
 STAT SP IPHASW D HRMM SECON CODA AMPLIT PERI AZIMU VELO AIN AR TRES W  DIS CAZ7
 BRR  HZ EP        932 40.80                             151    0.0010 71.8 301 
 BRR  HE ES        932 57.04                             151    0.2010 71.8 301 
 RUS  HZ EP        932 43.07                             144   -0.1010 97.2 175 
 RUS  HN ES        933  0.98                             144   -0.0810 97.2 175 
 RUS  HZ I         933  2.34         1.8 0.20            142           97.2 175 
 PTB  HZ EP   2    932 46.35                             131   -0.21 5  146 260 
 PTB  HN ES   2    933  6.43                             131   -0.66 5  146 260 
 PTB  HZ I         933  9.07         2.4 0.44            128            146 260 
 SPBC HZ EP        932 48.01                             128    0.06 9  160 219 
 SPBC HN ES   2    933 10.45                             128    0.87 5  160 219 
 SPBC HZ I         933 12.80         4.7 0.10            126            160 219 
 ZAR  HZ EP   3    932 53.83                             121    1.50 2  204 293 
 ZAR  HN ES        933 17.19                             121   -0.17 9  204 293 
 ZAR  HZ I         933 22.91         2.7 0.12            120            204 293 
                                                                                
