 2011  928 0157 39.7 L   6.774 -73.150145.2  RSN 15 0.5 3.3LRSN                1
 GAP=114        0.81       2.7     3.5  5.3 -0.5509E+00  0.6501E+01  0.2671E+01E
 Epicentro: LOS SANTOS - SANTANDER                                             3
 ACTION:UPD 12-07-13 16:00 OP:ep   STATUS:               ID:20110928015739 L   I
 2011-09-28-0156-05S.COL___165                                                 6
 STAT SP IPHASW D HRMM SECON CODA AMPLIT PERI AZIMU VELO AIN AR TRES W  DIS CAZ7
 BAR2 SZ IP     C  157 59.35                             172    0.1110 20.4 190 
 BAR2 SZ ES   1    158 14.35                             172   -0.10 7 20.4 190 
 BAR2 SZ I         158 17.40       566.6 0.30                          20.4 190 
 BTL  SZ EP   1    157 59.37                             172    0.12 7 20.6 321 
 BRR  HZ IP     C  158  1.27                             152    0.3910 72.2 301 
 BRR  HE ES   1    158 18.12                             152    0.75 7 72.2 301 
 BRR  HZ I         158 21.51       674.4 0.22                          72.2 301 
 PAM  SZ EP   1    158  2.16                             150    0.12 7 79.9  38 
 PAM  SN ES   1    158 18.87                             150   -0.57 7 79.9  38 
 PAM  SZ I         158 21.59       320.7 0.29                          79.9  38 
 RUS  HZ EP   1    158  3.14                             145   -0.09 7 97.7 176 
 RUS  HN ES   1    158 21.81                             145    0.26 7 97.7 176 
 RUS  HZ I         158 23.05       157.2 0.26                          97.7 176 
 OCA  SZ EP        158  7.84                             129   -0.43 9  163 353 
 OCA  SZ ES   1    158 30.91                             129    0.39 7  163 353 
 OCA  SZ I         158 38.62       212.1 0.38                           163 353 
 YOP  SZ EP   1    158  9.73                             127    0.23 7  177 153 
 YOP  SZ I         158 10.58        96.3 0.43                           177 153 
 YOP  SE ES   1    158 32.20                             127   -0.52 7  177 153 
 ZAR  HZ EP   1    158 11.49                             122   -0.72 6  205 293 
 ZAR  HN ES   1    158 37.35                             122   -0.19 6  205 293 
 ZAR  HZ I         158 43.23       410.1 0.35                           205 293 
 NOR  SZ EP   1    158 14.91                             119   -0.30 6  233 235 
 NOR  SN ES        158 42.45                             119   -0.43 8  233 235 
 NOR  SZ I         158 51.25        12.8 0.22                           233 235 
 CHI  HZ EP   1    158 16.93                             117   -0.15 6  246 195 
 CHI  HN ES   1    158 46.28                             117    0.07 6  246 195 
 CHI  HZ I         158 54.61       151.9 0.39                           246 195 
 HEL  HZ EP   1    158 19.69                             115   -0.10 6  271 256 
 HEL  HN ES   1    158 50.43                             115   -0.60 6  271 256 
 RREF HZ EP   1    158 26.27                             111    0.68 5  320 230 
 RREF HN ES   1    159  0.55                             111   -0.81 5  320 230 
 RREF HZ I         159 11.95       209.9 0.35                           320 230 
 DBB  SZ EP   1    158 27.53                             109    0.37 5  339 275 
 TOL  SZ EP   1    158 28.68                             109    0.99 5  341 225 
 TOL  SZ ES   1    159  5.86                             109    0.77 5  341 225 
 PRA  HZ EP   1    158 32.62                             107   -0.29 4  389 210 
 PRA  HN ES   1    159 15.03                             107    0.64 4  389 210 
 PRA  HZ I         159 18.69       335.7 0.35                           389 210 
                                                                                
