 2014  528 0314 28.2 L   6.821 -73.150139.1  RSN  7 0.4 1.6LRSN                1
 GAP=201        0.96       4.0     5.5  7.9 -0.1392E+01  0.1385E+02 -0.1038E+02E
 Epicentro: LOS SANTOS - SANTANDER                                             3
 ACTION:UPD 15-03-16 17:01 OP:nd   STATUS:               ID:20140528031428 L   I
 OLDACT:UP  14-05-28 13:38 OP:cam  STATUS:               ID:20140528031001d    3
 OLDACT:DUP 14-05-28 13:35 OP:cam  STATUS:               ID:20140528031001d    3
 OLDACT:UP  14-05-28 13:35 OP:cam  STATUS:               ID:20140528031000     3
 OLDACT:UP  14-05-28 13:35 OP:cam  STATUS:               ID:20140528031000     3
 OLDACT:REG 14-05-28 12:53 OP:cam  STATUS:               ID:20140528031000     3
 2014-05-28-0310-00M.COL___276                                                 6
 STAT SP IPHASW D HRMM SECON CODA AMPLIT PERI AZIMU VELO AIN AR TRES W  DIS CAZ7
 BAR2 SZ EP        314 46.91                             169   -0.1310 25.5 188 
 BAR2 SZ ES        315  1.49                             169   -0.2810 25.5 188 
 BAR2 SZ I         315  4.72         7.6 0.40            169           25.5 188 
 BRR  HZ EP        314 49.15                             152    0.6410 69.7 297 
 BRR  HE ES   4    315  6.64                             152    2.26 0 69.7 297 
 BRR  HZ I         315 10.35         6.9 0.18            149           69.7 297 
 RUS  HZ EP        314 51.47                             142    0.0310  103 176 
 RUS  HN ES        315  9.88                             142    0.2810  103 176 
 RUS  HZ I         315 10.91         2.6 0.42            149            103 176 
 PTB  HZ EP        314 53.89                             130   -0.71 9  148 258 
 PTB  HN ES        315 15.04                             130   -0.18 9  148 258 
 PTB  HZ I         315 20.86         6.1 0.58            132            148 258 
 SPBC HZ EP   2    314 55.66                             127   -0.65 5  165 218 
 SPBC HN ES        315 18.07                             127   -0.19 9  165 218 
 SPBC HZ I         315 21.95         7.5 0.24            131            165 218 
 NOR  HZ EP   1    315  3.36                             117   -0.26 6  236 234 
 NOR  HE ES        315 32.07                             117    0.79 8  236 234 
 NOR  HZ I         315 36.38         3.2 0.52            120            236 234 
 SML  HZ EP   1    315  4.35                             116    0.18 6  241 335 
 SML  HE ES        315 32.34                             116    0.08 8  241 335 
 SML  HZ I         315 39.88         6.8 0.26            119            241 335 
                                                                                
