 2017  228 0351 20.8 L   6.343 -73.577118.2  RSN  6 0.3 1.2LRSN                1
 GAP=150        0.72       4.0     3.2  5.6  0.5501E+01  0.2342E+01 -0.1405E+01E
 Epicentro: SANTA HELENA DEL OPON - SANTANDER                                  3
 ACTION:UPD 17-05-24 15:41 OP:jn   STATUS:               ID:20170228035120 L   I
 OLDACT:REG 17-03-01 00:43 OP:ar   STATUS:               ID:20170228034745     3
 2017-02-28-0348-00M.COL___375                                                 6
 STAT SP IPHASW D HRMM SECON CODA AMPLIT PERI AZIMU VELO AIN AR TRES W  DIS CAZ7
 BAR2 EZ EP        351 38.40                             155    0.2110 51.6  58 
 BAR2 EZ ES        351 51.41                             155   -0.3710 51.6  58 
 RUS  HZ EP        351 40.04                             146    0.1410 74.0 132 
 RUS  HN ES        351 54.69                             146   -0.1310 74.0 132 
 RUS  HZ I         351 55.38         1.9 0.22            149           74.0 132 
 BRR  HZ EP        351 40.13                             141    0.0810 85.8 350 
 BRR  HE ES        351 55.54                             141    0.4410 85.8 350 
 PTB  HZ EP        351 41.14                             137   -0.0410 99.7 283 
 PTB  HN ES        351 57.28                             137    0.1710 99.7 283 
 PTB  HZ I         351 59.23         3.6 0.28            135           99.7 283 
 PAM  EZ EP        351 46.07                             125   -0.10 9  147  41 
 ZAR  HN ES        352 12.38                             117   -0.55 9  190 312 
 ZAR  HZ I         352 19.15         3.6 0.18            117            190 312 
                                                                                
