 2015  828 0446 41.9 L   6.817 -73.149148.1  RSN 20 0.4 2.0LRSN                1
 GAP=118        0.92       2.0     3.1  4.1 -0.1106E+01  0.3891E+01  0.6403E+00E
 Epicentro: LOS SANTOS - SANTANDER                                             3
 ACTION:UPD 15-09-15 23:05 OP:cam  STATUS:               ID:20150828044641 L   I
 OLDACT:UP  15-08-28 18:17 OP:ak   STATUS:               ID:20150828043747     3
 OLDACT:REG 15-08-28 13:36 OP:ak   STATUS:               ID:20150828043747     3
 2015-08-28-0437-47M.COL___358                                                 6
 STAT SP IPHASW D HRMM SECON CODA AMPLIT PERI AZIMU VELO AIN AR TRES W  DIS CAZ7
 BAR2 EZ EP        447  2.09                             170    0.2210 25.1 188 
 BAR2 EZ ES        447 17.03                             170   -0.4010 25.1 188 
 BRR  HZ IP     C  447  3.93                             153    0.6810 70.0 297 
 BRR  HN ES        447 19.78                             153   -0.1110 70.0 297 
 BRR  HZ I         447 21.73        11.0 0.08            150           70.0 297 
 PAM  EZ EP        447  5.03                             152    0.7210 76.2  41 
 PAM  EN ES        447 22.14                             152    0.3610 76.2  41 
 PAM  EZ I         447 24.37        21.9 0.50            155           76.2  41 
 RUS  HZ EP        447  5.85                             144   -0.1910  103 176 
 RUS  HN ES        447 24.63                             144   -0.2210  103 176 
 RUS  HZ I         447 26.01        22.7 0.30            145            103 176 
 OCA  HZ EP        447 10.28                             130    0.05 9  158 353 
 OCA  HN ES        447 31.94                             130   -0.37 9  158 353 
 OCA  HZ I         447 35.96        19.7 0.19            131            158 353 
 SPBC HZ EP        447 11.12                             129    0.40 9  164 218 
 SPBC HN ES        447 32.98                             129   -0.20 9  164 218 
 SPBC HZ I         447 35.73        22.1 0.24            129            164 218 
 ZAR  HZ EP        447 14.76                             123    0.35 9  203 292 
 ZAR  HN ES        447 40.19                             123    0.44 9  203 292 
 ZAR  HZ I         447 46.54         6.9 0.24            122            203 292 
 NOR  HZ EP   1    447 18.49                             119    0.62 6  235 234 
 NOR  HE ES        447 45.48                             119   -0.43 8  235 234 
 NOR  HZ I         447 48.39         7.4 0.12            118            235 234 
 SML  HZ EP   2    447 18.13                             118   -0.34 4  242 335 
 SML  HN ES        447 46.79                             118   -0.19 8  242 335 
 SML  HZ I         447 49.71        13.9 0.13            118            242 335 
 CHI  HZ EP        447 19.93                             117   -0.01 8  250 195 
 CHI  HN ES        447 49.23                             117   -0.36 8  250 195 
 CHI  HZ I         447 55.23         5.1 0.12            118            250 195 
 ROSC BZ EP   9    447 22.30                             117    1.98 0  254 211 
 ROSC BN ES        447 52.85                                    0.60 8  254 211 
 ROSC BZ I         447 57.57         8.9 0.33            117            254 211 
 HEL  HZ EP   1    447 21.59                             115   -0.67 6  272 255 
 HEL  HN ES        447 53.24                             115   -0.49 8  272 255 
 HEL  HZ I         448  1.12         5.0 0.40            115            272 255 
 URE  HZ EP        447 22.44                             114   -0.55 7  283 292 
 URE  HN ES   4    447 53.52                             114   -1.50 0  283 292 
 URE  HZ I         448  3.65         8.0 0.20            114            283 292 
 GUY2CHZ EP   1    447 25.49                             113   -0.24 5  302 234 
 GUY2CHN ES        447 59.87                             113   -0.02 7  302 234 
 GUY2CHZ I         448 12.26         5.1 0.52                           302 234 
 PTGC HZ EP        447 25.32                             112   -0.78 7  311 159 
 PTGC HN ES   4    447 58.61                             112   -1.95 0  311 159 
 CBOC HZ EP   1    447 29.25                             110    0.29 5  334 252 
 CBOC HN ES        448  6.03                             110    0.38 7  334 252 
 CBOC HZ I         448 10.07         1.5 0.17            110            334 252 
 TOL  SZ EP        447 30.51                             110    0.11 7  345 224 
 TOL  SZ E         447 31.08                                            345 224 
 TOL  SN ES        448  8.95                             110    0.74 7  345 224 
 TOL  SZ I         448 15.96         4.2 0.32            110            345 224 
 ARGC HZ EP        447 30.75                             109   -0.69 6  357 340 
 ARGC HN ES        448  9.40                             109   -0.67 6  357 340 
 ARGC HZ I         448 18.22         2.3 0.48            109            357 340 
 PRA  HZ EP        447 35.76                             107    0.07 6  393 209 
 PRA  HN ES        448 17.43                             107   -0.21 6  393 209 
 PRA  HZ I         448 24.16         4.6 0.39            107            393 209 
 ORTC HZ EP        447 36.42                             107    0.35 6  397 216 
 ORTC HE ES        448 18.48                             107    0.17 6  397 216 
 ORTC HZ I         448 24.91         3.2 0.40            107            397 216 
                                                                                
