 2014  928 0341 55.3 L   6.799 -73.108147.2  RSN  5 0.3 1.3LRSN                1
 GAP=163        0.81       6.0     5.7  7.2 -0.1257E+02  0.2139E+01  0.1411E+02E
 Epicentro: LOS SANTOS - SANTANDER                                             3
 ACTION:UPD 14-10-03 23:09 OP:nd   STATUS:               ID:20140928034155 L   I
 OLDACT:DUP 14-09-28 15:15 OP:spq  STATUS:               ID:20140928033821d    3
 OLDACT:REG 14-09-28 13:16 OP:spq  STATUS:               ID:20140928033820     3
 2014-09-28-0338-20M.COL___292                                                 6
 STAT SP IPHASW D HRMM SECON CODA AMPLIT PERI AZIMU VELO AIN AR TRES W  DIS CAZ7
 BAR2 SZ EP        342 15.21                             170    0.1310 24.3 200 
 BAR2 SZ ES   1    342 29.92                             170   -0.62 7 24.3 200 
 BAR2 SZ I         342 31.40         3.7 0.22            167           24.3 200 
 PAM  SN ES   1    342 34.83                             152    0.01 7 74.9  37 
 PAM  SZ I         342 37.08         3.6 0.58            156           74.9  37 
 BRR  HZ IP     C  342 17.00                             152    0.2210 75.0 297 
 BRR  HN ES        342 33.85                             152    0.2910 75.0 297 
 BRR  HZ I         342 34.42         2.7 0.12            155           75.0 297 
 PTB  HZ EP        342 22.23                             132   -0.48 9  152 259 
 PTB  HN ES        342 43.84                             132   -0.29 9  152 259 
 PTB  HZ I         342 45.55         2.2 0.16            133            152 259 
 SPBC HZ EP        342 24.12                             129    0.01 9  166 220 
 SPBC HN ES        342 47.04                             129    0.43 9  166 220 
 SPBC HZ I         342 52.35         2.3 0.22            130            166 220 
                                                                                
