 2017  628 0900  9.4 L   6.727 -73.662100.8  RSN  5 0.3 1.6LRSN                1
 GAP=120        0.66       3.7     4.5  7.9  0.4843E+01  0.2603E+02  0.9735E+01E
 Epicentro: EL CARMEN - SANTANDER                                              3
 ACTION:UPD 17-09-14 16:56 OP:jn   STATUS:               ID:20170628090009 L   I
 OLDACT:UP  17-06-28 17:23 OP:and  STATUS:               ID:20170628085737     3
 OLDACT:UP  17-06-28 17:23 OP:and  STATUS:               ID:20170628085737     3
 OLDACT:REG 17-06-28 12:58 OP:and  STATUS:               ID:20170628085737     3
 2017-06-28-0858-00M.COL___364                                                 6
 STAT SP IPHASW D HRMM SECON CODA AMPLIT PERI AZIMU VELO AIN AR TRES W  DIS CAZ7
 BRR  HZ EP   2    9 0 23.46                             155   -0.60 5 42.4 353 
 BRR  HE ES        9 0 35.30                             155   -0.2110 42.4 353 
 BAR2 EZ EP   2    9 0 25.33                             149    0.20 5 55.1 106 
 BAR2 EZ ES        9 0 37.60                             149    0.1910 55.1 106 
 BAR2 EZ I         9 0 39.03         7.6 0.16            144           55.1 106 
 PTB  HZ IP   4 C  9 0 25.90                             134   -1.58 0 90.2 257 
 PTB  HN ES   4    9 0 38.38                             134   -3.22 0 90.2 257 
 PTB  HZ I         9 0 39.50        12.3 0.14            133           90.2 257 
 ZAR  HZ EP        9 0 33.86                             117   -0.24 9  157 303 
 ZAR  HN ES        9 0 53.79                             117    0.40 9  157 303 
 ZAR  HZ I         9 0 55.99         8.6 0.26            115            157 303 
 NOR  HZ EP   2    9 0 37.87                             113    0.55 4  185 226 
 NOR  HN ES        9 0 58.94                             113   -0.17 9  185 226 
 NOR  HZ I         9 1  0.75         3.3 0.16            111            185 226 
                                                                                
