 2015 1128 0424  2.6 L   6.752 -73.218145.0  RSN  4 0.2 1.3LRSN                1
 GAP=222        0.59       4.6     4.3  4.8  0.9880E+01  0.2445E+01  0.1122E+01E
 Epicentro: ZAPATOCA - SANTANDER                                               3
 ACTION:UPD 15-12-28 16:13 OP:cam  STATUS:               ID:20151128042402 L   I
 OLDACT:REG 15-11-28 12:24 OP:drio STATUS:               ID:20151128041750     3
 2015-11-28-0417-50M.COL___304                                                 6
 STAT SP IPHASW D HRMM SECON CODA AMPLIT PERI AZIMU VELO AIN AR TRES W  DIS CAZ7
 BAR2 EZ EP        424 21.67                             173   -0.3510 18.1 168 
 BAR2 EZ ES        424 36.97                             173   -0.2110 18.1 168 
 BAR2 EZ I         424 38.00         5.8 0.24            169           18.1 168 
 BRR  HZ EP        424 23.46                             154    0.0410 67.3 306 
 BRR  HN ES        424 39.98                             154    0.3010 67.3 306 
 RUS  HZ EP        424 26.16                             145    0.2210 96.2 171 
 RUS  HE ES        424 44.30                             145    0.1410 96.2 171 
 RUS  HZ I         424 45.98         2.6 0.48            144           96.2 171 
 PTB  HZ EP        424 28.70                             134    0.01 9  139 260 
 PTB  HE ES        424 48.90                             134   -0.16 9  139 260 
 PTB  HZ I         424 52.01         2.8 0.38            133            139 260 
                                                                                
