 2016  928 0006  2.8 L   6.762 -73.152143.9  RSN  8 0.4 1.9LRSN                1
 GAP=137        0.96       4.2     4.3  6.4  0.1112E+01  0.3887E+01 -0.2586E+01E
 Epicentro: LOS SANTOS - SANTANDER                                             3
 ACTION:UPD 17-08-17 21:17 OP:lp   STATUS:               ID:20160928000602 L   I
 OLDACT:UP  16-09-28 13:48 OP:dani STATUS:               ID:20160927235960d    3
 OLDACT:UP  16-09-28 13:48 OP:dani STATUS:               ID:20160927235960d    3
 OLDACT:DUP 16-09-28 13:39 OP:dani STATUS:               ID:20160927235960d    3
 OLDACT:UP  16-09-28 13:38 OP:dani STATUS:               ID:20160927235959     3
 OLDACT:UP  16-09-28 13:37 OP:dani STATUS:               ID:20160927235959     3
 OLDACT:UP  16-09-28 13:37 OP:dani STATUS:               ID:20160927235959     3
 OLDACT:UP  16-09-28 13:36 OP:dani STATUS:               ID:20160927235959     3
 OLDACT:UP  16-09-28 13:35 OP:dani STATUS:               ID:20160927235959     3
 OLDACT:UP  16-09-28 13:35 OP:dani STATUS:               ID:20160927235959     3
 OLDACT:UP  16-09-28 13:34 OP:dani STATUS:               ID:20160927235959     3
 OLDACT:UP  16-09-28 13:34 OP:dani STATUS:               ID:20160927235959     3
 OLDACT:UP  16-09-28 13:34 OP:dani STATUS:               ID:20160927235959     3
 OLDACT:UP  16-09-28 13:34 OP:dani STATUS:               ID:20160927235959     3
 OLDACT:REG 16-09-28 12:27 OP:dani STATUS:               ID:20160927235959     3
 2016-09-28-0000-15M.COL___384                                                 6
 STAT SP IPHASW D HRMM SECON CODA AMPLIT PERI AZIMU VELO AIN AR TRES W  DIS CAZ7
 BAR2 HZ EP        0 6 22.21                             172    0.0510 19.1 190 
 BAR2 HZ ES        0 6 36.90                             172   -0.3410 19.1 190 
 BAR2 HZ I         0 6 37.95        32.5 0.30            175           19.1 190 
 BRR  HZ EP     D  0 6 23.77                             152   -0.1010 72.6 302 
 BRR  HN ES        0 6 40.89                             152    0.6210 72.6 302 
 BRR  HZ I         0 6 43.24        16.0 0.14            149           72.6 302 
 PAM  EZ EP        0 6 25.07                             149   -0.0110 81.1  38 
 PAM  EZ I         0 6 44.71        16.1 0.29            140           81.1  38 
 RUS  HZ EP        0 6 26.07                             145   -0.0410 96.5 175 
 RUS  HE ES        0 6 44.15                             145   -0.1110 96.5 175 
 RUS  HZ I         0 6 46.55         6.8 0.16            145           96.5 175 
 PTB  HZ EP        0 6 28.85                             132   -0.67 9  146 260 
 PTB  HE ES        0 6 49.79                             132   -0.54 9  146 260 
 PTB  HZ I         0 6 54.50         8.9 0.18            131            146 260 
 SPBC HZ EP        0 6 31.33                             129    0.49 9  159 220 
 SPBC HE ES        0 6 53.28                             129    0.59 9  159 220 
 SPBC HZ I         0 6 56.91        10.3 0.15            130            159 220 
 ZAR  HZ EP        0 6 35.55                             122    0.29 9  205 293 
 ZAR  HE ES        0 7  0.49                             122   -0.05 9  205 293 
 ZAR  HZ I         0 7  7.77         8.6 0.29            119            205 293 
 NOR  HE ES        0 7  5.53                             118   -0.14 8  232 235 
 CHI  HE ES   4    0 7 11.55                             117    2.61 0  244 195 
                                                                                
