 2017  528 0042 29.8 L   7.028 -73.542130.0  RSN  5 0.3 1.5LRSN                1
 GAP=223        0.79       4.5     4.6  7.1  0.9486E+01 -0.3212E+00  0.4593E+01E
 Epicentro: SAN VICENTE DE CHUCURI - SANTANDER                                 3
 ACTION:UPD 17-06-16 13:39 OP:jn   STATUS:               ID:20170528004229 L   I
 OLDACT:UP  17-05-28 13:54 OP:dnl  STATUS:               ID:20170528003736     3
 OLDACT:REG 17-05-28 13:10 OP:dnl  STATUS:               ID:20170528003736     3
 2017-05-28-0038-00M.COL___341                                                 6
 STAT SP IPHASW D HRMM SECON CODA AMPLIT PERI AZIMU VELO AIN AR TRES W  DIS CAZ7
 BRR  HZ EP        042 46.97                             170   -0.1310 20.7 295 
 BRR  HE ES        043  0.77                             170    0.1610 20.7 295 
 BRR  HZ I         043  3.67        11.0 0.44            168           20.7 295 
 PTB  HZ EP        042 52.26                             136   -0.2410  115 242 
 PTB  HN ES        043  9.67                             136   -0.5410  115 242 
 PTB  HZ I         043 11.74         8.1 0.24            136            115 242 
 RUS  HZ EP        042 54.91                             131   -0.08 9  135 158 
 RUS  HN ES        043 14.64                             131   -0.02 9  135 158 
 RUS  HZ I         043 17.96         2.0 0.24            133            135 158 
 ZAR  HZ EP   2    042 56.56                             127    0.45 5  154 290 
 ZAR  HN ES        043 16.96                             127    0.31 9  154 290 
 ZAR  HZ I         043 23.23         3.7 0.22            128            154 290 
 SPBC HZ EP   4    042 58.62                             125    1.52 0  163 201 
 SPBC HN ES        043 18.96                             125    0.54 9  163 201 
 SPBC HZ I         043 24.27         4.5 0.36            126            163 201 
                                                                                
