 2011  128 0958  8.1 L   6.751 -73.148143.3  RSN  5 0.2 1.4LRSN                1
 GAP=159        0.46       3.4    13.5  5.2 -0.3487E+02  0.1406E+02 -0.4478E+01E
 Epicentro: LOS SANTOS - SANTANDER                                             3
 ACTION:UP  11-02-08 08:43 OP:pat  STATUS:               ID:20110128095808 L   I
 2011-01-28-0955-50S.COL___138                                                 6
 STAT SP IPHASW D HRMM SECON CODA AMPLIT PERI AZIMU VELO SNR AR TRES W  DIS CAZ7
 BAR2 SZ EP        958 27.17                             172    -0.210   18 192 
 BAR2 SZ ES   1    958 42.11                             172    -0.2 7   18 192 
 BTL  SZ EP        958 27.60                             170     0.210   23 325 
 RUS  HZ EP   1    958 31.06                             145    -0.1 7   95 176 
 RUS  HE ES   1    958 49.42                             145     0.2 7   95 176 
 RUS  HZ I         958 51.01         4.1 0.27                            95 176 
 GRA  SZ EP        958 33.49                             135    -0.110  131  17 
 GRA  SZ ES   1    958 53.59                             135     0.2 7  131  17 
 CHI  HN ES   1    959 14.04                             117     0.1 6  243 195 
 CHI  HZ I         959 21.95         1.6 0.46                           243 195 
                                                                                
