 2016  328 0805 58.5 L   6.819 -73.165137.6  RSN  5 0.2 1.1LRSN                1
 GAP=133        0.52       2.0     3.1  5.7 -0.1987E+01  0.6965E+01 -0.1209E+01E
 Epicentro: LOS SANTOS - SANTANDER                                             3
 ACTION:UPD 16-05-13 21:28 OP:cam  STATUS:               ID:20160328075743 L   I
 OLDACT:UP  16-03-28 18:34 OP:y    STATUS:               ID:20160328075743 L   3
 OLDACT:UPD 16-03-28 15:59 OP:Mher STATUS:               ID:20160328075743 L   3
 2016-03-28-0757-43M.COL___295                                                 6
 STAT SP IPHASW D HRMM SECON CODA AMPLIT PERI AZIMU VELO AIN AR TRES W  DIS CAZ7
 PAM  EN ES        8 6 36.43                             149   -0.0110 77.2  42 
 RUS  HZ EP        8 6 21.82                             141    0.2310  103 175 
 RUS  HN ES        8 6 39.57                             141   -0.0510  103 175 
 RUS  HZ I         8 6 41.31         1.0 0.44            145            103 175 
 PTB  HZ EP        8 6 24.34                             130   -0.28 9  146 258 
 PTB  HN ES        8 6 45.31                             130    0.29 9  146 258 
 PTB  HZ I         8 6 47.63         1.0 0.07            132            146 258 
 OCA  HZ EP   1    8 6 26.07                             128    0.15 7  158 354 
 OCA  HN ES        8 6 47.25                             128   -0.10 9  158 354 
 OCA  HZ I         8 6 53.03         3.9 0.06            130            158 354 
 SPBC HE ES        8 6 47.95                             127   -0.20 9  164 218 
 SPBC HZ I         8 6 50.69         2.4 0.36            130            164 218 
                                                                                
