 2012  228 0748 28.0 L   6.801 -73.161144.8  RSN 10 0.3 2.2LRSN                1
 GAP=135        0.68       3.0     3.3  4.3 -0.1329E+01  0.4025E+01  0.2247E+01E
 ACTION:UP  12-03-07 16:35 OP:epov STATUS:               ID:20120228074828 L   I
 2012-02-28-0740-00M.COL___191                                                 6
 STAT SP IPHASW D HRMM SECON CODA AMPLIT PERI AZIMU VELO AIN AR TRES W  DIS CAZ7
 BAR2 SZ EP        748 47.45                             170   -0.0210 23.3 186 
 BAR2 SZ ES        749  3.00                             170    0.3210 23.3 186 
 BAR2 SZ I         749  5.48        23.6 0.25                          23.3 186 
 BRR  HZ IP     D  748 49.22                             153    0.3010 69.7 299 
 BRR  HZ I         748 49.65        42.7 0.16                          69.7 299 
 BRR  HN ES   1    749  5.71                             153    0.45 7 69.7 299 
 PAM  SZ EP        748 50.23                             150    0.1010 78.3  41 
 PAM  SN ES        749  7.04                             150   -0.3710 78.3  41 
 RUS  HZ EP        748 51.56                             143   -0.0810  101 175 
 RUS  HZ I         748 52.82        15.7 0.17                           101 175 
 RUS  HE ES   1    749  9.73                             143   -0.37 7  101 175 
 PTB  HZ EP        748 54.13                             132   -0.57 9  146 259 
 PTB  HE ES   1    749 15.46                             132   -0.10 7  146 259 
 OCA  SZ EP   1    748 56.36                             129    0.20 7  160 354 
 ZAR  HN ES   1    749 24.95                             122   -0.36 6  202 292 
 NOR  SZ EP        749  3.51                             118    0.01 8  233 234 
 NOR  SE ES   1    749 31.12                             118   -0.10 6  233 234 
 CHI  HZ EP        749  5.91                             117    0.33 8  248 195 
 CHI  HN ES   1    749 34.99                             117    0.08 6  248 195 
 HEL  HZ EP   1    749  8.27                             115    0.32 6  271 256 
 HEL  HZ I         749 46.92        14.4 0.46                           271 256 
                                                                                
