 2012  528 0823 24.9 L   6.773 -73.196150.0  RSN  6 0.4 1.4LRSN                1
 GAP=239        0.79       7.4     8.3 12.0  0.3578E+02  0.1351E+02 -0.4529E+00E
 Epicentro: VILLANUEVA - SANTANDER                                             3
 ACTION:UP  12-07-05 12:08 OP:pat  STATUS:               ID:20120528082324 L   I
 2012-05-28-0820-00M.COL___198                                                 6
 STAT SP IPHASW D HRMM SECON CODA AMPLIT PERI AZIMU VELO AIN AR TRES W  DIS CAZ7
 BAR2 SZ EP   1    823 44.96                             172    -0.1 7   20 176 
 BAR2 SZ I         824  8.73         5.2 0.24                            20 176 
 RUS  HN ES   1    824  7.87                             146     0.2 7   98 173 
 PTB  HZ EP   1    823 51.05                             134    -0.7 7  142 260 
 PTB  HN ES   1    824 12.52                             134    -0.1 7  142 260 
 PTB  HZ I         824 16.01         2.9 0.10                           142 260 
 ZAR  HN ES   1    824 22.93                             124     0.5 6  200 294 
 CHI  HN ES   1    824 31.51                             119    -0.1 6  244 194 
 PRA  HZ EP   1    824 18.75                             108     0.8 4  387 209 
                                                                                
