 2013  228 0240 58.9 L   6.789 -73.121150.0  RSN  7 0.3 1.6LRSN                1
 GAP=203        0.80       3.6     5.0  5.2  0.8453E+01  0.1963E+01 -0.2352E+01E
 Epicentro: LOS SANTOS - SANTANDER                                             3
 ACTION:UPD 13-03-12 09:36 OP:ep   STATUS:               ID:20130228024058 L   I
 2013-02-28-0240-00M.COL___228                                                 6
 STAT SP IPHASW D HRMM SECON CODA AMPLIT PERI AZIMU VELO AIN AR TRES W  DIS CAZ7
 BAR2 SZ EP        241 18.63                             171   -0.4010 22.8 197 
 BAR2 SZ ES        241 35.07                             171    0.3410 22.8 197 
 BAR2 SZ I         241 36.89        11.2 0.20            167           22.8 197 
 BRR  HZ EP        241 21.23                             152    0.5610 74.2 298 
 BRR  HN ES        241 37.28                             152   -0.3810 74.2 298 
 BRR  HZ I         241 56.62         7.0 0.30            151           74.2 298 
 RUS  HZ EP        241 22.98                             145    0.0110 99.2 178 
 RUS  HN ES        241 41.78                             145    0.0310 99.2 178 
 PTB  HZ EP        241 26.10                             132   -0.33 9  150 259 
 PTB  HN ES        241 47.82                             132   -0.09 9  150 259 
 PTB  HZ I         241 53.25         6.7 0.25            134            150 259 
 ZAR  HZ EP        241 31.71                             123   -0.22 8  207 292 
 ZAR  HN ES        241 58.24                             123    0.55 8  207 292 
 ZAR  HZ I         242  3.77         5.2 0.18            126            207 292 
 SML  HZ EP   1    241 36.20                             118    0.19 6  246 335 
 SML  HN ES        242  4.72                             118   -0.23 8  246 335 
 CHI  HZ EP   1    241 37.10                             118    0.31 6  248 196 
 CHI  HN ES   1    242  6.15                             118   -0.19 6  248 196 
 CHI  HZ I         242 14.43         1.3 0.34            123            248 196 
                                                                                
