 2011  828 0054  1.9 L   6.770 -73.355121.0  RSN  6 0.2 1.6LRSN                1
 GAP= 87        0.43       2.5     3.3  4.3  0.2903E-01  0.3299E+01  0.2323E+01E
 Epicentro: ZAPATOCA - SANTANDER                                               3
 ACTION:UPD 12-07-13 15:54 OP:ep   STATUS:               ID:20110828005401 L   I
 2011-08-28-0051-35S.COL___161                                                 6
 STAT SP IPHASW D HRMM SECON CODA AMPLIT PERI AZIMU VELO AIN AR TRES W  DIS CAZ7
 BAR2 SZ EP   1    054 18.80                             166    0.16 7 27.4 136 
 BAR2 SZ ES   1    054 31.70                             166   -0.02 7 27.4 136 
 BAR2 SZ I         054 32.68        14.8 0.31                          27.4 136 
 GIR2 SZ EP        054 18.78                             161   -0.0910 38.5  28 
 GIR2 SZ ES   1    054 32.22                             161    0.09 7 38.5  28 
 BRR  HZ EP        054 19.21                             154   -0.1910 54.3 313 
 BRR  HZ I         054 19.38        23.6 0.14                          54.3 313 
 BRR  HE ES   1    054 33.08                             154    0.02 7 54.3 313 
 PAM  SN ES   1    054 39.48                             139    0.18 7 95.9  49 
 RUS  HZ EP   1    054 23.60                             138    0.24 7  102 163 
 RUS  HN ES   1    054 39.84                             138   -0.28 7  102 163 
 RUS  HZ I         054 41.82         2.4 0.26                           102 163 
 NOR  SN ES   2    054 59.49                             115    0.41 4  214 232 
                                                                                
