 2012  328 0626 43.0 L   6.455 -73.582104.4  RSN  5 0.5 1.8LRSN                1
 GAP=137        1.21      10.7     7.0 14.4  0.3110E+02  0.3250E+02 -0.1457E+02E
 ACTION:UP  12-03-31 23:23 OP:EP   STATUS:               ID:20120328062643 L   I
 2012-03-28-0620-00M.COL___196                                                 6
 STAT SP IPHASW D HRMM SECON CODA AMPLIT PERI AZIMU VELO SNR AR TRES W  DIS CAZ7
 BAR2 SZ EP        626 58.80                             154     0.110   47  71 
 BAR2 SZ ES   1    627 10.76                             154    -0.1 7   47  71 
 BAR2 SZ I         627 12.32        39.6 0.40                            47  71 
 BRR  HZ EP        626 59.62                             142    -0.510   74 349 
 BRR  HZ I         627 19.31         9.9 0.14                            74 349 
 RUS  HZ EP   1    627  1.66                             139     0.1 7   83 138 
 RUS  HN ES   2    627 16.96                             139     1.0 5   83 138 
 PTB  HZ EP        627  1.63                             133    -0.410   97 276 
 PTB  HE ES   1    627 16.68                             133    -0.2 7   97 276 
 ZAR  HZ EP   1    627 10.99                             115     0.3 7  182 309 
 ZAR  HE ES   1    627 33.45                             115     1.2 7  182 309 
 ZAR  HZ I         627 35.45         6.4 0.28                           182 309 
                                                                                
