 2011  628 0427 34.1 L   6.800 -73.019145.8  RSN  4 0.1 1.4LRSN                1
 GAP=173        0.42       4.2     6.6  5.5  0.1478E+02 -0.2179E+02 -0.9566E+01E
 Epicentro: CEPITA - SANTANDER                                                 3
 ACTION:UP  11-07-14 19:08 OP:ep   STATUS:               ID:20110628042734 L   I
 2011-06-28-0425-15S.COL___140                                                 6
 STAT SP IPHASW D HRMM SECON CODA AMPLIT PERI AZIMU VELO SNR AR TRES W  DIS CAZ7
 BAR2 SZ EP   1    427 53.84                             168     0.0 7   29 218 
 BAR2 SZ ES   1    428  9.11                             168    -0.2 7   29 218 
 BAR2 SZ I         428 10.73         6.2 0.20                            29 218 
 BRR  HZ EP        427 55.85                             148    -0.210   84 294 
 BRR  HN ES        428 13.22                             148     0.110   84 294 
 BRR  HZ I         428 16.14         5.8 0.11                            84 294 
 RUS  HZ EP   1    427 57.97                             144     0.1 7  101 184 
 RUS  HN ES   2    428 16.54                             144     0.2 5  101 184 
 RUS  HZ I         428 18.09         2.8 0.48                           101 184 
 GRA  SZ EP   1    427 59.17                             138     0.1 7  122  11 
                                                                                
