 2012 1028 0241 13.9 L   6.814 -73.129146.3  RSN  4 0.1 1.6LRSN                1
 GAP=138        0.33       3.1     3.4  5.5  0.1805E+01  0.8073E+00  0.2134E+01E
 Epicentro: LOS SANTOS - SANTANDER                                             3
 ACTION:UPD 12-11-22 17:06 OP:ep   STATUS:               ID:20121028024113 L   I
 2012-10-28-0240-00M.COL___231                                                 6
 STAT SP IPHASW D HRMM SECON CODA AMPLIT PERI AZIMU VELO AIN AR TRES W  DIS CAZ7
 BRR  HZ EP   1    241 35.03                             152   -0.14 7 72.2 297 
 BRR  HN ES   2    241 51.73                             152   -0.02 5 72.2 297 
 BRR  HN I         241 52.19        19.5 0.20                          72.2 297 
 PAM  SZ EP   1    241 36.19                             152    0.15 7 75.0  39 
 PAM  SN ES   2    241 53.19                             152   -0.11 5 75.0  39 
 PAM  SN I         241 54.80         7.0 0.38                          75.0  39 
 RUS  HZ EP   1    241 37.76                             143   -0.05 7  102 177 
 RUS  HN ES   2    241 56.58                             143    0.12 5  102 177 
 RUS  HN I         241 57.69         2.5 0.40                           102 177 
 ZAR  HE ES   2    242 12.09                             122    0.15 4  205 292 
                                                                                
