 2011  928 0937 54.2 L   7.215 -73.965 85.4  RSN  5 0.4 1.2LRSN                1
 GAP=105        0.79       4.5     4.3  8.1  0.4418E+01  0.8724E+01  0.7512E+01E
 Epicentro: PUERTO WILCHES - SANTANDER                                         3
 ACTION:UPD 12-07-13 16:00 OP:ep   STATUS:               ID:20110928093754 L   I
 2011-09-28-0934-17S.COL___165                                                 6
 STAT SP IPHASW D HRMM SECON CODA AMPLIT PERI AZIMU VELO AIN AR TRES W  DIS CAZ7
 BRR  HZ EP   1    938  7.28                             159    0.73 7 30.4 113 
 BRR  HZ I         938  7.98        17.9 0.09                          30.4 113 
 BRR  HN ES   1    938 15.89                             159   -0.29 7 30.4 113 
 ZAR  HZ EP   1    938 12.26                             125   -0.02 7  103 287 
 ZAR  HN ES   1    938 26.51                             125    0.12 7  103 287 
 ZAR  HZ I         938 31.06         7.0 0.09                           103 287 
 OCA  SZ EP   1    938 15.20                             118   -0.50 7  134  32 
 OCA  SZ I         938 42.24         5.4 0.17                           134  32 
 RUS  HN ES   1    938 41.72                             111    0.09 7  176 146 
 NOR  SZ EP   1    938 24.43                             107    0.36 6  208 209 
 NOR  SN ES   1    938 46.79                             107   -0.59 6  208 209 
 NOR  SZ I         938 51.39         0.3 0.21                           208 209 
                                                                                
