 2014  928 0423 52.2 L   6.534 -73.550108.7  RSN 14 0.5 1.6LRSN                1
 GAP= 73        1.01       2.6     3.8  5.6  0.6205E+00  0.4882E+01  0.1890E+00E
 Epicentro: EL CARMEN - SANTANDER                                              3
 ACTION:UPD 14-10-03 23:09 OP:nd   STATUS:               ID:20140928042352 L   I
 OLDACT:REG 14-09-28 13:20 OP:spq  STATUS:               ID:20140928041819     3
 2014-09-28-0418-19M.COL___295                                                 6
 STAT SP IPHASW D HRMM SECON CODA AMPLIT PERI AZIMU VELO AIN AR TRES W  DIS CAZ7
 BAR2 SZ EP        424  8.20                             158    0.1210 41.2  81 
 BAR2 SZ ES   1    424 20.45                             158    0.01 7 41.2  81 
 BAR2 SZ I         424 22.00        27.4 0.38            160           41.2  81 
 BRR  HZ EP        424  9.05                             146   -0.1010 65.9 344 
 BRR  HN ES        424 23.10                             146    0.7610 65.9 344 
 BRR  HZ I         424 29.79         7.0 0.16            147           65.9 344 
 RUS  HZ EP   1    424 10.94                             138   -0.53 7 87.7 144 
 RUS  HE ES   1    424 26.55                             138    0.07 7 87.7 144 
 RUS  HZ I         424 30.21         3.6 0.28            140           87.7 144 
 PTB  HZ EP     D  424 11.06                             134   -0.8110  100 270 
 PTB  HE ES        424 26.76                             134   -0.4310  100 270 
 PTB  HZ I         424 29.62         8.5 0.20            134            100 270 
 SPBC HZ EP        424 12.81                             130   -0.3510  113 211 
 SPBC HN ES        424 29.22                             130   -0.2610  113 211 
 SPBC HZ I         424 33.39        10.2 0.08            131            113 211 
 ZAR  HZ EP        424 20.31                             116    0.50 9  179 306 
 ZAR  HN ES        424 41.79                             116    0.47 9  179 306 
 ZAR  HZ I         424 46.61         8.8 0.36            117            179 306 
 OCA  HZ EP   1    424 21.31                             115    0.10 7  190   8 
 OCA  HN ES   1    424 43.39                             115   -0.43 7  190   8 
 OCA  HZ I         424 51.03         6.6 0.24            116            190   8 
 CHI  HZ EP   1    424 23.89                             112   -0.03 6  212 185 
 CHI  HN ES   1    424 49.15                             112    0.51 6  212 185 
 CHI  HZ I         424 53.84         1.5 0.30            113            212 185 
 GUY2CHZ EP   1    424 28.60                             108    0.46 6  248 234 
 GUY2CHE ES   1    424 56.55                             108    0.40 6  248 234 
 GUY2CHZ I         425  3.78         2.8 0.54                           248 234 
 SML  HZ EP        424 28.50                             107   -0.15 8  257 347 
 SML  HE ES   1    424 57.16                             107    0.10 6  257 347 
 SML  HZ I         425  6.31         8.6 0.10            108            257 347 
 TOL  SN ES   4    425  6.27                             105    1.34 0  291 222 
 TOL  SZ I         425 11.44         5.4 0.27            106            291 222 
 MON  HZ EP   4    424 37.03                             101   -1.48 0  341 317 
 MON  HN ES        425 13.87                             101   -0.74 7  341 317 
 MON  HZ I         425 15.15         1.8 0.38            102            341 317 
 PRA  HZ EP        424 39.63                             101    0.52 7  345 205 
 PRA  HN ES   4    425 16.82                             101    1.14 0  345 205 
 PRA  HZ I         425 21.32         1.7 0.36            102            345 205 
 ORTC HZ EP        424 39.98                             101    0.80 6  346 213 
 ORTC HN ES   4    425 16.97                             101    1.17 0  346 213 
 ORTC HZ I         425 23.28         1.4 0.24            102            346 213 
                                                                                
