 2016 1228 0309 42.3 L   6.811 -73.116151.2  RSN 16 0.4 2.1LRSN                1
 GAP= 68        0.92       3.2     2.8  4.5 -0.7594E+00  0.2135E+01  0.3791E+01E
 Epicentro: LOS SANTOS - SANTANDER                                             3
 ACTION:UPD 17-01-11 20:19 OP:rebc STATUS:               ID:20161228030942 L   I
 OLDACT:UP  16-12-28 15:28 OP:edw  STATUS:               ID:20161228030750     3
 OLDACT:REG 16-12-28 13:05 OP:edw  STATUS:               ID:20161228030750     3
 2016-12-28-0308-00M.COL___366                                                 6
 STAT SP IPHASW D HRMM SECON CODA AMPLIT PERI AZIMU VELO AIN AR TRES W  DIS CAZ7
 BAR2 EZ IP     C  310  2.49                             170   -0.1310 25.3 197 
 BAR2 EZ ES        310 18.36                             170   -0.1110 25.3 197 
 BAR2 EZ I         310 18.67        26.5 0.28            168           25.3 197 
 BRR  HZ EP     C  310  4.36                             153    0.2010 73.5 296 
 BRR  HN ES        310 21.41                             153    0.1910 73.5 296 
 BRR  HZ I         310 22.70        14.2 0.30            150           73.5 296 
 PAM  EZ IP     C  310  5.24                             153    0.3210 74.4  38 
 PAM  EN ES        310 22.35                             153   -0.2210 74.4  38 
 PAM  EZ I         310 24.63        51.4 0.54            155           74.4  38 
 RUS  HZ EP     C  310  6.44                             145   -0.2210  102 178 
 RUS  HN ES        310 25.13                             145   -0.5310  102 178 
 RUS  HZ I         310 28.02        12.9 0.30            144            102 178 
 PTB  HZ EP   9    310  9.15                             132   -0.86 0  151 259 
 PTB  HN ES        310 30.57                             133   -0.20 9  151 259 
 PTB  HZ I         310 36.20        13.2 0.20            130            151 259 
 TAM  HZ IP     C  310 10.71                             132    0.56 9  152 106 
 TAM  HN ES        310 32.35                             132    0.47 9  152 106 
 ZAR  HZ EP   4    310 15.81                             123    0.45 0  207 291 
 ZAR  HN ES        310 41.14                             123   -0.01 8  207 291 
 ZAR  HZ I         310 46.60        17.3 0.26            122            207 291 
 CHI  HZ EP        310 20.69                             118    0.17 8  251 196 
 CHI  HN ES        310 49.98                             118   -0.35 8  251 196 
 CHI  HZ I         310 53.82         4.0 0.36            117            251 196 
 ROSC BZ EP   4    310 22.16                             117    1.15 0  255 212 
 ROSC BN ES        310 51.41                             117    0.20 8  255 212 
 ROSC BZ I         310 58.49        11.9 0.35            117            255 212 
 GUY2CHZ EP   4    310 27.61                             113    1.08 0  305 235 
 GUY2CHE ES        311  0.90                             113   -0.14 7  305 235 
 GUY2CHZ I         311  9.66         4.8 0.26                           305 235 
 PTGC HZ EP        310 25.49                             113   -0.90 7  309 159 
 PTGC HN ES   4    310 58.52                             113   -2.27 0  309 159 
 ELA  HZ EP        310 30.05                             111    0.30 7  332 230 
 ELA  HE ES        311  6.90                             111    0.13 7  332 230 
 ELA  HZ I         311 13.91         6.1 0.42            110            332 230 
 CBOC HZ EP        310 30.46                             111    0.63 7  337 252 
 CBOC HN ES        311  6.76                             111   -0.15 7  337 252 
 CBOC HZ I         311 13.35         1.7 0.36            110            337 252 
 ARGC HZ EP   4    310 33.16                             109    1.01 0  359 340 
 ARGC HN ES   4    311 12.05                             109    1.01 0  359 340 
 ORTC HZ EP        310 37.30                             107    0.56 6  398 216 
 ORTC HN ES   4    311 21.35                             107    2.14 0  398 216 
 ORTC HZ I         311 27.02         3.9 0.52            107            398 216 
 SJC  HZ EP        310 36.59                             106   -1.53 6  410 326 
 SJC  HN ES   4    311 17.52                             106   -4.15 0  410 326 
 SJC  HZ I         311 22.26         4.6 0.34            106            410 326 
 CRJC HZ EP   9    310 42.33                             104   -2.45 0  466   3 
 CRJC HN ES        311 30.99                             104   -0.08 5  466   3 
 CRJC HZ I         311 38.89         4.9 0.32            104            466   3 
                                                                                
