 2011  428 0229 24.2 L   6.803 -73.155148.1  RSN 14 0.4 3.8LRSN                1
 GAP=113        0.79       2.8     4.6  5.3 -0.2930E+01  0.4902E+01  0.2608E+01E
 Epicentro: LOS SANTOS - SANTANDER                                             3
 ACTION:UP  11-06-22 15:33 OP:REBC STATUS:               ID:20110428022924 L   I
 2011-04-28-0227-28S.COL___139                                                 6
 STAT SP IPHASW D HRMM SECON CODA AMPLIT PERI AZIMU VELO SNR AR TRES W  DIS CAZ7
 BTL  SZ EP   1    229 44.45                             173     0.4 7   18 316 
 BAR2 SZ IP        229 44.05                             171    -0.110   23 187 
 BAR2 SZ ES   1    229 59.27                             171    -0.4 7   23 187 
 BAR2 SZ I         230  0.61      3084.5 0.24                            23 187 
 BRR  HZ IP     C  229 45.91                             153     0.310   70 299 
 BRR  HE ES   1    230  2.87                             153     0.6 7   70 299 
 BRR  HZ I         230  5.42      1381.6 0.23                            70 299 
 PAM  SZ EP   1    229 46.85                             151     0.1 7   78  40 
 PAM  SN ES   1    230  4.19                             151    -0.1 7   78  40 
 PAM  SZ I         230  6.28       353.3 0.42                            78  40 
 RUS  HZ EP   1    229 47.86                             144    -0.4 7  101 175 
 RUS  HN ES   1    230  6.84                             144    -0.1 7  101 175 
 RUS  HZ I         230  7.86      1313.8 0.26                           101 175 
 BRI  SZ EP   1    229 48.57                             142     0.2 7  108  21 
 BRI  SZ ES   2    230  6.47                             142    -0.7 5  108  21 
 BRI  SZ I         230 10.60       514.7 0.40                           108  21 
 GRA  SZ IP        229 49.86                             137     0.210  126  18 
 GRA  SZ ES   1    230  9.28                             137    -0.3 7  126  18 
 GRA  SZ I         230 11.09       773.3 0.30                           126  18 
 OCA  SZ EP   1    229 52.17                             130    -0.5 7  160 353 
 OCA  SZ ES   1    230 14.76                             130    -0.1 7  160 353 
 OCA  SZ I         230 19.02      1104.8 0.26                           160 353 
 YOP  SZ EP   1    229 54.52                             127     0.0 7  180 153 
 YOP  SE ES   1    230 18.58                             127     0.4 7  180 153 
 YOP  SZ I         230 23.35       358.7 0.29                           180 153 
 NOR  SZ EP   1    229 59.68                             119    -0.3 6  234 234 
 NOR  SN ES   1    230 27.23                             119    -0.7 6  234 234 
 ROSC BZ EP   1    230  2.69                             117     0.2 6  253 211 
 ROSC BZ I         230 37.30       758.9 0.50                           253 211 
 TOL  SZ EP   1    230 12.51                             110     0.0 5  343 224 
 TOL  SZ ES   2    230 50.91                             110     0.7 3  343 224 
 PRA  HZ EP   1    230 17.68                             107    -0.1 4  392 209 
 PRA  HN ES   2    230 59.93                             107     0.3 3  392 209 
 MARA HZ EP   1    230 34.57                             101    -0.7 3  537 215 
 MARA HZ I         230 36.62        31.7 0.19                           537 215 
                                                                                
