 2015  528 0648 24.9 L   7.513 -73.108124.3  RSN  4 0.2 1.7LRSN                1
 GAP=275        0.56       6.3     5.2  7.0  0.1972E+02 -0.8877E+01 -0.1723E+02E
 Epicentro: EL PLAYON - SANTANDER                                              3
 ACTION:UPD 15-09-10 22:07 OP:cam  STATUS:               ID:20150528064824 L   I
 OLDACT:DUP 15-05-28 17:46 OP:spq  STATUS:               ID:20150528063746d    3
 OLDACT:DUP 15-05-28 17:42 OP:spq  STATUS:               ID:20150528063745d    3
 2015-05-28-0637-43M.COL___309                                                 6
 STAT SP IPHASW D HRMM SECON CODA AMPLIT PERI AZIMU VELO AIN AR TRES W  DIS CAZ7
 BRR  HZ EP        648 44.61                             145    0.2110 80.4 236 
 BRR  HN ES        648 59.81                             145    0.2110 80.4 236 
 BRR  HZ I         649  0.27         8.0 0.10            129           80.4 236 
 BAR2 EZ EP        648 46.38                             138   -0.0110  102 185 
 BAR2 EZ ES   1    649  2.71                             138   -0.44 7  102 185 
 BAR2 EZ I         649  3.94        18.6 0.14            125            102 185 
 ZAR  HZ EP   1    648 54.79                             119   -0.09 7  193 269 
 ZAR  HN ES        649 18.00                             119   -0.26 9  193 269 
 ZAR  HZ I         649 22.25         3.2 0.42            110            193 269 
 SPBC HN ES   1    649 26.16                             114    0.19 6  232 207 
 SPBC HZ I         649 31.83         3.5 0.26            106            232 207 
                                                                                
