 2010  828 0639 16.1 L   6.773 -73.062145.6  RSN  4 0.1 1.4LRSN                1
 GAP=201        0.36       4.9     5.4  4.2 -0.4939E+01 -0.5113E+01 -0.6118E-01E
 Epicentro: LOS SANTOS - SANTANDER                                             3
 ACTION:UP  10-09-07 10:58 OP:vdl  STATUS:               ID:20100828063916 L   I
 2010-08-28-0637-11S.COL___119                                                 6
 STAT SP IPHASW D HRMM SECON CODA AMPLIT PERI AZIMU VELO SNR AR TRES W  DIS CAZ7
 BAR2 SZ EP   2    639 35.65                             170    -0.1 5   24 214 
 BAR2 SZ ES   2    639 51.10                             170     0.0 5   24 214 
 BAR2 SZ I         639 52.49         5.8 0.11                            24 214 
 BTL  SZ EP        639 35.99                                     0.110   28 305 
 BTL  SZ ES   1    639 51.16                             169    -0.1 7   28 305 
 BRR  HZ IP     D  639 37.70                             149    -0.110   81 297 
 BRR  HZ I         639 54.03         3.7 0.65                            81 297 
 BRR  HN ES   1    639 54.85                             149     0.1 7   81 297 
 GRA  SZ EP   2    639 41.55                             137     0.2 5  126  13 
 GRA  SZ ES   2    640  1.02                             137    -0.1 5  126  13 
 GRA  SZ I         640  2.79         3.2 0.35                           126  13 
                                                                                
