 2017  128 0240  3.2 L   6.791 -73.149144.7  RSN 10 0.4 1.6LRSN                1
 GAP=137        0.94       3.4     3.7  5.6 -0.5108E+00  0.3969E+01  0.6449E+01E
 Epicentro: LOS SANTOS - SANTANDER                                             3
 ACTION:UPD 17-05-22 16:04 OP:jn   STATUS:               ID:20170128024003 L   I
 OLDACT:REG 17-01-28 13:10 OP:lv   STATUS:               ID:20170128023741     3
 2017-01-28-0238-00M.COL___346                                                 6
 STAT SP IPHASW D HRMM SECON CODA AMPLIT PERI AZIMU VELO AIN AR TRES W  DIS CAZ7
 BAR2 EZ EP        240 22.50                             171   -0.1710 22.3 190 
 BAR2 EZ ES        240 37.65                             171   -0.2110 22.3 190 
 BAR2 EZ I         240 39.66         9.8 0.43            171           22.3 190 
 BRR  HZ IP     C  240 24.23                             152    0.0010 71.4 299 
 BRR  HN ES        240 41.18                             152    0.5410 71.4 299 
 BRR  HZ I         240 45.17         8.0 0.24            150           71.4 299 
 PAM  EZ EP        240 25.40                             150    0.0610 78.3  39 
 PAM  EN ES        240 42.65                             150    0.0210 78.3  39 
 PAM  EZ I         240 44.75         6.9 0.51            152           78.3  39 
 PAM  EN I         241 11.00         3.8 0.38                          78.3  39 
 RUS  HZ EP        240 26.68                             144   -0.0810 99.6 176 
 RUS  HN ES        240 45.36                             144    0.2110 99.6 176 
 RUS  HZ I         240 46.23         6.6 0.24            146           99.6 176 
 PTB  HZ EP        240 29.26                             132   -0.76 9  147 259 
 PTB  HN ES        240 50.28                             132   -0.67 9  147 259 
 ZAR  HN ES        241  0.88                             122    0.05 9  204 292 
 NOR  HZ EP        240 38.97                             118    0.21 8  234 235 
 NOR  HN ES        241  7.36                             118    0.85 8  234 235 
 NOR  HZ I         241 11.09         4.3 0.28            119            234 235 
 CHI  HZ EP        240 40.87                             117    0.16 8  248 195 
 CHI  HN ES        241  9.66                             117   -0.32 8  248 195 
 CHI  HZ I         241 12.44         3.3 0.36            118            248 195 
 ROSC BZ EP        240 41.69                             117    0.55 8  252 211 
 ROSC BN ES        241 10.58                             117   -0.16 8  252 211 
 URE  HZ EP   9    240 42.09                             113   -2.12 0  284 292 
 URE  HN ES        241 14.07                                   -0.02 7  284 292 
 URE  HZ I         241 25.58         4.2 0.11            114            284 292 
                                                                                
