 2010 1028 0043 45.8 L   6.776 -73.096143.3  RSN 16 0.5 3.0LRSN                1
 GAP=130        1.09       3.8     6.6  6.8 -0.1075E+02  0.5661E+01  0.4776E+01E
 Epicentro: LOS SANTOS - SANTANDER                                             3
 ACTION:UP  11-02-18 11:12 OP:tino STATUS:               ID:20101028004345 L   I
 2010-10-28-0040-28S.COL___128                                                 6
 STAT SP IPHASW D HRMM SECON CODA AMPLIT PERI AZIMU VELO SNR AR TRES W  DIS CAZ7
 BAR2 SZ IP        044  5.33                             171     0.210   23 205 
 BAR2 SZ ES   1    044 19.78                             171    -0.5 7   23 205 
 BAR2 SZ I         044 23.32       243.2 0.53                            23 205 
 BTL  SZ EP        044  6.07                             170     0.910   25 310 
 BRR  HZ IP     C  044  7.12                             150     0.010   77 298 
 BRR  HN ES   1    044 24.06                             150     0.4 7   77 298 
 BRR  HZ I         044 28.26       224.4 0.15                            77 298 
 RUS  HZ EP        044  9.38                             144     0.210   98 179 
 RUS  HE ES   1    044 27.35                             144     0.0 7   98 179 
 RUS  HZ I         044 29.88       155.8 0.32                            98 179 
 GRA  SZ IP        044 11.06                             136     0.110  127  15 
 GRA  SZ I         044 12.20        93.6 0.29                           127  15 
 GRA  SZ ES   1    044 30.11                             136    -0.4 7  127  15 
 OCA  SZ EP        044 13.60                             129    -0.7 9  164 351 
 OCA  SZ ES   1    044 36.42                             129     0.0 7  164 351 
 OCA  SZ I         044 38.79       150.5 0.20                           164 351 
 NOR  SZ EP        044 21.38                             118    -0.4 8  238 236 
 NOR  SE ES   1    044 48.96                             118    -0.8 6  238 236 
 CHI  HZ IP     C  044 23.68                             117     0.4 8  248 197 
 CHI  HE ES   1    044 51.55                             117    -1.0 6  248 197 
 CHI  HZ I         045  0.30        55.6 0.40                           248 197 
 CVER SZ EP   2    044 27.09                             114     1.0 4  272 204 
 HEL  HZ EP   2    044 26.68                             114     0.2 4  277 257 
 VIL  SZ EP   2    044 29.18                             112     0.4 4  300 191 
 VIL  SN ES   2    045  2.19                             112    -0.1 4  300 191 
 GUY  SZ EP   1    044 30.26                             112     0.6 5  304 236 
 GUY  SE ES   1    045  4.08                             112     0.2 5  304 236 
 GUY  SZ I         045 12.82        84.5 0.52                           304 236 
 RREF HZ EP   1    044 31.47                             110    -0.7 5  324 230 
 RREF HN ES   1    045  8.59                             110     0.3 5  324 230 
 RREF HZ I         045 13.72        51.4 0.59                           324 230 
 TOL  SZ EP   1    044 34.98                             109     0.7 5  346 226 
 SDV  BZ EP   1    044 34.68                             108    -0.8 5  358  49 
 SDV  BZ I         045 14.19        29.9 0.40                           358  49 
 PRA  HZ EP        044 38.89                             106    -0.4 6  392 210 
 PRA  HN ES   1    045 20.28                             106    -0.8 4  392 210 
                                                                                
