 2013  128 0628 51.5 L   6.797 -73.154145.9  RSN 12 0.5 2.4LRSN 2.9WRSN        1
 SPEC AVERAGE  MO 13.4 ST  4.0 OM  1.9 f0 4.32 R0.3515 AL 2.46 WI 20.4 MW  2.9 3
 SPEC SD       MO  0.2 ST  2.9 OM  0.4 f00.690 R0.0740 AL      WI      MW  0.2 3
 GAP= 71        1.16       3.5     3.6  6.1 -0.4491E+00  0.1602E+01  0.2294E+01E
 Epicentro: LOS SANTOS - SANTANDER                                             3
 SPEC ZAR HH N MO 13.6 ST  5.3 OM  1.8 f0 4.61 R0.3189 AL 2.24 WI 25.7 MW  3.0 3
 SPEC ZAR HH N T 62948 K 0.000 GD  249 VS 4.20 DE 3.20 Q0300.0 QA 0.60 VS 4.20 3
 SPEC TAM HH N MO 13.4 ST0.717 OM  1.7 f0 2.69 R0.5465 AL 2.00 WI 12.8 MW  2.9 3
 SPEC TAM HH N T 62940 K 0.000 GD  213 VS 4.20 DE 3.20 Q0300.0 QA 0.60 VS 4.20 3
 SPEC RUS HH Z MO 13.4 ST  3.2 OM  1.0 f0 4.46 R0.3296 AL 1.52 WI 16.2 MW  2.9 3
 SPEC RUS HH Z T 62914 K 0.000 GD  176 VP 7.60 DE 3.20 Q0300.0 QA 0.60 VS 4.20 3
 SPEC OCA HH N MO 13.8 ST 10.5 OM  2.1 f0 4.81 R0.3056 AL 2.44 WI 31.6 MW  3.2 3
 SPEC OCA HH N T 62940 K 0.000 GD  217 VS 4.20 DE 3.20 Q0300.0 QA 0.60 VS 4.20 3
 SPEC PTB HH N MO 13.5 ST  4.5 OM  1.8 f0 4.65 R0.3161 AL 1.84 WI 23.6 MW  3.0 3
 SPEC PTB HH N T 62937 K 0.000 GD  207 VS 4.20 DE 3.20 Q0300.0 QA 0.60 VS 4.20 3
 SPEC PAM SH N MO 12.9 ST  1.5 OM  1.3 f0 5.12 R0.2871 AL 3.33 WI 12.8 MW  2.6 3
 SPEC PAM SH N T 62930 K 0.000 GD  165 VS 4.20 DE 3.20 Q0300.0 QA 0.60 VS 4.20 3
 SPEC HEL HH N MO 13.3 ST  1.8 OM  1.4 f0 4.05 R0.3630 AL 2.46 WI 24.3 MW  2.8 3
 SPEC HEL HH N T 630 2 K 0.000 GD  307 VS 4.20 DE 3.20 Q0300.0 QA 0.60 VS 4.20 3
 SPEC CHI HH N MO 13.6 ST  2.1 OM  1.7 f0 3.50 R0.4200 AL 2.80 WI 21.7 MW  3.0 3
 SPEC CHI HH N T 62957 K 0.000 GD  287 VS 4.20 DE 3.20 Q0300.0 QA 0.60 VS 4.20 3
 SPEC BRR HH N MO 13.7 ST  7.4 OM  2.1 f0 4.72 R0.3114 AL 3.62 WI 16.7 MW  3.1 3
 SPEC BRR HH N T 62930 K 0.000 GD  162 VS 4.20 DE 3.20 Q0300.0 QA 0.60 VS 4.20 3
 SPEC BAR2SH Z MO 13.3 ST  2.5 OM  1.7 f0 4.64 R0.3168 AL 2.32 WI 18.6 MW  2.8 3
 SPEC BAR2SH Z T 62925 K 0.000 GD  147 VS 4.20 DE 3.20 Q0300.0 QA 0.60 VS 4.20 3
 ACTION:UPD 13-02-15 09:17 OP:ep   STATUS:               ID:20130128062851 L   I
 2013-01-28-0618-49M.COL___174                                                 6
 STAT SP IPHASW D HRMM SECON CODA AMPLIT PERI AZIMU VELO AIN AR TRES W  DIS CAZ7
 BAR2 SZ IP        629 11.21                             171    0.0710 22.8 188 
 BAR2 SZ ES        629 25.98                             171   -0.4810 22.8 188 
 BAR2 SZ I         629 28.03        43.0 0.22            167           22.8 188 
 BRR  HZ IP     C  629 13.21                             153    0.5810 70.6 299 
 BRR  HE ES        629 30.20                             153    1.0810 70.6 299 
 BRR  HN I         629 31.23       103.4 0.22            143           70.6 299 
 PAM  SZ EP        629 14.20                             150    0.4210 78.2  40 
 PAM  SN ES        629 31.08                             150   -0.0810 78.2  40 
 PAM  SN I         629 32.56        45.1 0.48            149           78.2  40 
 RUS  HZ EP        629 15.02                             144   -0.2310  100 176 
 RUS  HZ I         629 16.11        12.1 0.16            139            100 176 
 RUS  HN ES        629 33.71                             144   -0.0610  100 176 
 PTB  HZ EP        629 17.79                             132   -0.61 9  147 259 
 PTB  HN ES        629 38.52                             132   -0.86 9  147 259 
 PTB  HN I         629 44.43        45.5 0.38            124            147 259 
 TAM  HZ IP     C  629 19.45                             130    0.19 9  156 105 
 TAM  HZ I         629 19.60        13.8 0.20            128            156 105 
 TAM  HN ES        629 40.90                             130   -0.01 9  156 105 
 OCA  HZ EP        629 19.83                             130   -0.02 9  161 353 
 OCA  HN ES        629 41.52                             130   -0.44 9  161 353 
 OCA  HN I         629 45.34        60.9 0.30            124            161 353 
 ZAR  HN ES        629 48.96                             122   -0.19 9  203 292 
 CHI  HZ IP     C  629 29.11                             117   -0.04 8  248 195 
 CHI  HZ I         629 31.64         6.5 0.38            112            248 195 
 CHI  HN ES        629 58.63                             117    0.12 8  248 195 
 HEL  HZ EP        629 32.18                             115    0.56 8  271 256 
 HEL  HN I         630 10.18        10.8 0.24            109            271 256 
 ANIL HN ES        630 20.51                             108    0.53 6  356 224 
 ANIL HN I         630 27.86        24.9 0.26            104            356 224 
 SDV  BZ EP        629 40.99                             108   -0.66 6  361  50 
                                                                                
