 2010  828 0814 21.2 L   6.797 -73.044142.0  RSN  5 0.3 1.5LRSN                1
 GAP=170        0.59       4.2     8.4  8.0  0.2553E+01 -0.2760E+02 -0.9495E+01E
 Epicentro: LOS SANTOS - SANTANDER                                             3
 ACTION:UP  10-09-07 10:58 OP:vdl  STATUS:               ID:20100828081421 L   I
 2010-08-28-0810-56S.COL___119                                                 6
 STAT SP IPHASW D HRMM SECON CODA AMPLIT PERI AZIMU VELO SNR AR TRES W  DIS CAZ7
 BAR2 SZ EP   2    814 40.77                             169     0.3 5   27 214 
 BAR2 SZ ES   2    814 55.45                             169     0.0 5   27 214 
 BAR2 SZ I         814 56.77         6.7 0.30                            27 214 
 BRR  HZ EP   1    814 42.39                             149    -0.1 7   81 295 
 BRR  HE ES   1    814 59.39                             149     0.2 7   81 295 
 BRR  HZ I         815  3.53         7.9 0.13                            81 295 
 RUS  HZ EP   2    814 44.38                             143    -0.1 5  100 182 
 RUS  HE ES   2    815  2.46                             143    -0.3 5  100 182 
 RUS  HZ I         815  4.84         2.5 0.22                           100 182 
 GRA  SZ EP   1    814 46.34                             137     0.5 7  123  12 
 GRA  SZ ES   2    815  4.99                             137    -0.1 5  123  12 
 GRA  SZ I         815  7.25         4.2 0.19                           123  12 
 OCA  SZ EP   1    814 49.11                             128    -0.3 7  162 349 
 OCA  SZ ES   2    815 10.95                             128    -0.4 5  162 349 
 OCA  SZ I         815 15.74         5.4 0.19                           162 349 
                                                                                
