 2012 1028 0828 53.5 L   6.828 -73.128144.0  RSN 12 0.4 3.0LRSN 3.4WRSN        1
 SPEC AVERAGE  MO 14.2 ST 25.5 OM  3.0 f0 4.65 R0.3187 AL 2.98 WI 23.5 MW  3.4 3
 SPEC SD       MO  0.3 ST 14.6 OM  0.7 f00.404 R0.0292 AL      WI      MW  0.2 3
 GAP= 66        0.71       3.3     3.3  5.5  0.7218E+00  0.2178E+01  0.8547E+01E
 Epicentro: LOS SANTOS - SANTANDER                                             3
 SPEC RREFHH Z MO 13.7 ST  5.0 OM  1.8 f0 4.03 R0.3648 AL 3.33 WI 25.0 MW  3.1 3
 SPEC RREFHH Z T 83015 K 0.000 GD  355 VS 4.20 DE 3.20 Q0230.0 QA 0.60 VS 4.20 3
 SPEC OCA HH N MO 14.2 ST 29.1 OM  2.5 f0 5.01 R0.2934 AL 3.08 WI 20.6 MW  3.4 3
 SPEC OCA HH N T 82939 K 0.000 GD  213 VS 4.20 DE 3.20 Q0230.0 QA 0.60 VS 4.20 3
 SPEC RREFHH N MO 14.5 ST 45.8 OM  2.6 f0 4.55 R0.3231 AL 3.08 WI 23.3 MW  3.6 3
 SPEC RREFHH N T 83016 K 0.000 GD  355 VS 4.20 DE 3.20 Q0230.0 QA 0.60 VS 4.20 3
 SPEC BRR HH N MO 14.1 ST 22.0 OM  2.5 f0 5.01 R0.2934 AL 2.45 WI 25.3 MW  3.3 3
 SPEC BRR HH N T 82930 K 0.000 GD  160 VS 4.20 DE 3.20 Q0230.0 QA 0.60 VS 4.20 3
 ACTION:UPD 12-11-22 17:06 OP:ep   STATUS:               ID:20121028082853 L   I
 2012-10-28-0826-39M.COL___191                                                 6
 STAT SP IPHASW D HRMM SECON CODA AMPLIT PERI AZIMU VELO AIN AR TRES W  DIS CAZ7
 BAR2 SZ EP        829 12.82                             169   -0.2210 26.7 193 
 GIR2 SZ EP        829 12.82                             168   -0.1210 28.7 345 
 BRR  HZ IP     C  829 14.61                             152    0.0910 71.5 296 
 BRR  HN ES        829 31.30                             152    0.4210 71.5 296 
 BRR  HN I         829 32.02       356.0 0.24                          71.5 296 
 PAM  SZ EP        829 15.55                             152    0.1910 73.8  40 
 PAM  SN ES        829 32.35                             152   -0.0210 73.8  40 
 PAM  SN I         829 33.70       186.2 0.44                          73.8  40 
 RUS  HZ EP   1    829 17.35                             143    0.01 7  104 177 
 RUS  HN ES   2    829 35.31                             143   -0.59 5  104 177 
 RUS  HN I         829 37.16       152.1 0.42                           104 177 
 TAM  HZ IP     C  829 21.19                             130    0.20 9  154 106 
 TAM  HN ES   2    829 42.60                             130    0.21 5  154 106 
 TAM  HN I         829 43.49        70.2 0.54                           154 106 
 OCA  HZ EP   1    829 21.22                             130   -0.23 7  157 352 
 OCA  HN ES   2    829 42.42                             130   -0.80 5  157 352 
 OCA  HN I         829 45.75       257.8 0.26                           157 352 
 YOP  SZ EP   1    829 23.66                             126    0.01 7  181 154 
 YOP  SN ES   2    829 46.50                             126   -0.63 4  181 154 
 YOP  SN I         829 48.58       117.5 0.46                           181 154 
 ZAR  HZ EP   1    829 25.41                             122   -0.53 6  205 291 
 ZAR  HN ES   2    829 50.83                             122   -0.38 4  205 291 
 ZAR  HN I         829 59.36        91.3 0.32                           205 291 
 ROSC BZ EP   1    829 32.83                             116    0.87 6  256 211 
 RREF HZ EP   1    829 40.74                             110    0.73 5  325 229 
 PRA  HZ EP   1    829 46.87                             106   -0.56 4  396 210 
 PRA  HN ES        830 29.10                             106   -0.36 6  396 210 
 PRA  HN I         830 33.46        23.3 0.38                           396 210 
                                                                                
