 2011 1228 0713 42.0 L   6.733 -73.160157.6  RSN  6 0.2 1.3LRSN                1
 GAP=180        0.38       4.1     4.4  5.1  0.1018E+02  0.5514E+01  0.1222E+01E
 Epicentro: VILLANUEVA - SANTANDER                                             3
 ACTION:UPD 12-07-13 16:19 OP:ep   STATUS:               ID:20111228071000 L   I
 2011-12-28-0710-00M.COL___186                                                 6
 STAT SP IPHASW D HRMM SECON CODA AMPLIT PERI AZIMU VELO AIN AR TRES W  DIS CAZ7
 BAR2 SZ EP   1    714  2.91                             174   -0.08 7 15.7 189 
 GIR2 SZ ES   2    714 19.57                             166   -0.37 5 38.4 355 
 BRR  HZ EP   1    714  4.87                             154    0.24 7 73.7 304 
 BRR  HZ I         714  5.15         6.2 0.15                          73.7 304 
 BRR  HE ES   1    714 22.40                             154    0.16 7 73.7 304 
 RUS  HN ES   1    714 25.61                             148    0.03 7 93.3 175 
 RUS  HZ I         714 26.53         1.5 0.38                          93.3 175 
 PTB  HZ EP   1    714  9.64                             135   -0.12 7  145 262 
 PTB  HN ES   2    714 31.34                             135   -0.04 5  145 262 
 ZAR  HE ES   1    714 41.37                             125   -0.11 6  205 294 
 ZAR  HZ I         714 48.06         2.3 0.19                           205 294 
                                                                                
