 2015 1228 0937 45.0 L   6.820 -73.134140.5  RSN 18 0.5 2.0LRSN                1
 GAP=137        1.08       2.5     3.6  4.9 -0.1623E+01  0.5237E+01  0.1708E+01E
 Epicentro: LOS SANTOS - SANTANDER                                             3
 ACTION:UPD 16-02-04 15:08 OP:cam  STATUS:               ID:20151228093745 L   I
 OLDACT:REG 15-12-28 13:47 OP:ak   STATUS:               ID:20151228092750     3
 2015-12-28-0927-50M.COL___331                                                 6
 STAT SP IPHASW D HRMM SECON CODA AMPLIT PERI AZIMU VELO AIN AR TRES W  DIS CAZ7
 BAR2 EZ EP     C  938  4.29                             169    0.1910 25.8 192 
 BAR2 EZ ES        938 18.73                             169   -0.2410 25.8 192 
 BAR2 EZ I         938 20.16        12.2 0.36            168           25.8 192 
 BRR  HZ EP        938  6.03                             152    0.3910 71.3 296 
 BRR  HN ES        938 22.53                             152    0.8310 71.3 296 
 BRR  HZ I         938 26.03        21.1 0.42            149           71.3 296 
 PAM  EZ EP        938  7.06                             151    0.5110 74.8  40 
 PAM  EN ES        938 23.44                             151    0.1110 74.8  40 
 PAM  EZ I         938 25.92         8.9 0.36            154           74.8  40 
 RUS  HZ EP        938  8.47                             142    0.0210  103 177 
 RUS  HN ES        938 26.54                             142   -0.1610  103 177 
 RUS  HZ I         938 29.29         6.0 0.34            145            103 177 
 PTB  HZ EP        938 10.86                             130   -0.89 9  149 258 
 PTB  HN ES        938 31.79                             130   -0.79 9  149 258 
 PTB  HZ I         938 37.48        12.0 0.26            130            149 258 
 OCA  HZ EP        938 13.00                             129    0.24 9  158 353 
 OCA  HE ES        938 34.10                             129   -0.27 9  158 353 
 OCA  HZ I         938 38.81        28.0 0.30            130            158 353 
 SPBC HZ EP        938 13.25                             127   -0.15 9  166 219 
 SPBC HN ES        938 35.29                             127   -0.22 9  166 219 
 SPBC HZ E      D  938 39.76                                            166 219 
 ZAR  HZ EP        938 16.74                             121   -0.45 9  204 291 
 ZAR  HE ES        938 42.80                             121    0.53 9  204 291 
 ZAR  HZ I         938 47.36         9.1 0.28            121            204 291 
 NOR  HZ EP        938 20.83                             117    0.10 8  237 234 
 NOR  HE ES        938 47.87                             117   -0.70 8  237 234 
 NOR  HZ I         938 54.05         7.9 0.16            118            237 234 
 SML  HZ EP        938 20.39                             116   -0.83 8  242 335 
 SML  HN ES        938 48.71                             116   -0.73 8  242 335 
 SML  HZ I         938 56.24        14.9 0.10            117            242 335 
 CHI  HZ EP        938 22.59                             116   -0.14 8  251 195 
 CHI  HN ES        938 52.01                             116   -0.12 8  251 195 
 CHI  HZ I         938 55.16         2.9 0.34            117            251 195 
 HEL  HZ EP        938 26.01                             114    0.81 8  274 255 
 HEL  HN ES        938 57.16                             114    0.64 8  274 255 
 HEL  HZ I         939  3.07         6.3 0.52            114            274 255 
 URE  HZ EP   9    938 24.16                             112   -1.75 0  284 291 
 URE  HE ES        938 55.96                                   -0.07 7  284 291 
 URE  HZ I         939  7.02         7.5 0.16            113            284 291 
 GUY2CHZ EP        938 29.44                             111    0.76 7  304 235 
 GUY2CHE ES        939  2.90                             111    0.18 7  304 235 
 GUY2CHZ I         939 12.46         5.2 0.56                           304 235 
 CBOC HZ EP        938 32.09                             109    0.12 7  336 252 
 CBOC HN ES        939  8.62                             109    0.05 7  336 252 
 ANIL HZ EP   2    938 35.66                             107    0.72 3  360 224 
 ANIL HN ES   1    939 14.37                             107    0.50 5  360 224 
 ANIL HZ I         939 21.89         9.7 0.30            108            360 224 
 PRA  HZ EP        938 38.79                             105    0.10 6  395 210 
 PRA  HN ES        939 20.02                             105   -0.52 6  395 210 
 PRA  HZ I         939 26.76         2.7 0.28            107            395 210 
 ORTC HZ EP        938 39.03                             105   -0.06 6  398 216 
 ORTC HE ES        939 21.95                             105    0.70 6  398 216 
 ORTC HZ I         939 27.26         2.4 0.42            106            398 216 
                                                                                
