 2010 1028 0457 51.8 L   6.762 -73.079150.6  RSN  5 0.3 1.4LRSN                1
 GAP=242        0.64       6.5     8.6  7.7  0.1920E+02  0.2124E+01  0.1216E+02E
 Epicentro: LOS SANTOS - SANTANDER                                             3
 ACTION:UP  11-02-18 11:12 OP:tino STATUS:               ID:20101028045751 L   I
 2010-10-28-0453-34S.COL___127                                                 6
 STAT SP IPHASW D HRMM SECON CODA AMPLIT PERI AZIMU VELO SNR AR TRES W  DIS CAZ7
 BAR2 SZ EP   1    458 12.07                             171     0.1 7   22 212 
 BAR2 SZ I         458 12.65         4.7 0.12                            22 212 
 BAR2 SZ ES   2    458 27.95                             171     0.2 5   22 212 
 BRR  HZ IP     D  458 14.08                             150     0.110   80 299 
 BRR  HZ I         458 27.12         8.5 0.42                            80 299 
 BRR  HE ES   1    458 31.18                             150    -0.1 7   80 299 
 RUS  HZ EP   1    458 15.19                             146    -0.5 7   96 180 
 RUS  HE ES   2    458 34.59                             146     0.2 5   96 180 
 RUS  HZ I         458 37.12         2.3 0.66                            96 180 
 NOR  SZ EP   2    458 28.51                             119     0.3 4  239 236 
 NOR  SN ES   2    458 56.27                             119    -0.4 4  239 236 
 CHI  HZ EP   2    458 30.28                             118     0.7 4  247 197 
 CHI  HZ I         458 31.11         1.4 0.45                           247 197 
                                                                                
