 2012  128 0437 12.9 L   6.737 -73.172153.8  RSN  5 0.2 1.5LRSN                1
 GAP=178        0.52       5.2     5.3  6.9  0.1200E+02 -0.6616E+01 -0.6254E+01E
 Epicentro: VILLANUEVA - SANTANDER                                             3
 ACTION:UP  12-02-03 08:21 OP:REBC STATUS:               ID:20120128043712 L   I
 2012-01-28-0430-00M.COL___188                                                 6
 STAT SP IPHASW D HRMM SECON CODA AMPLIT PERI AZIMU VELO SNR AR TRES W  DIS CAZ7
 BAR2 SZ EP   1    437 33.28                             174    -0.1 7   16 184 
 BAR2 SZ I         437 49.74         9.6 0.20                            16 184 
 GIR2 SZ EP   2    437 33.07                             165    -0.6 5   38 356 
 BRR  HZ EP        437 35.08                             154     0.110   72 304 
 BRR  HN ES   1    437 52.35                             154     0.2 7   72 304 
 BRR  HZ I         437 55.42         6.6 0.12                            72 304 
 RUS  HZ EP   1    437 37.20                             147     0.2 7   94 174 
 RUS  HN ES   1    437 55.70                             147    -0.1 7   94 174 
 RUS  HZ I         437 57.03         3.4 0.33                            94 174 
 PTB  HZ EP   1    437 40.12                             135     0.0 7  144 261 
 PTB  HE ES   1    438  1.23                             135    -0.2 7  144 261 
                                                                                
