 2014  728 0718 44.2 L   6.282 -74.066 29.3  RSN  5 0.3 1.7LRSN                1
 GAP=127        0.64       2.2     1.8  3.2  0.1252E+01 -0.2601E+01 -0.1906E+01E
 Epicentro: CIMITARRA - SANTANDER                                              3
 ACTION:UPD 15-03-16 20:47 OP:nd   STATUS:               ID:20140728071844 L   I
 OLDACT:UP  14-07-28 16:41 OP:mh   STATUS:               ID:20140728071748     3
 OLDACT:REG 14-07-28 14:21 OP:mh   STATUS:               ID:20140728071748     3
 2014-07-28-0717-48M.COL___257                                                 6
 STAT SP IPHASW D HRMM SECON CODA AMPLIT PERI AZIMU VELO AIN AR TRES W  DIS CAZ7
 PTB  HZ EP        718 53.38                             112   -0.1110 51.7 303 
 PTB  HN ES   1    719  0.73                             112   -0.02 7 51.7 303 
 SPBC HZ EP        718 56.07                             104    0.0510 69.7 181 
 SPBC HN ES        719  5.08                             104   -0.1810 69.7 181 
 SPBC HZ I         719  6.65        32.3 0.19             95           69.7 181 
 BAR2 SZ EP   1    719  0.81                              61    0.24 7  104  71 
 BAR2 SZ ES   1    719 12.86                              61   -0.49 7  104  71 
 BAR2 SZ I         719 13.93        20.5 0.15             61            104  71 
 RUS  HZ EP        719  2.93                              61    0.3810  117 112 
 RUS  HN ES        719 16.80                              61   -0.0910  117 112 
 RUS  HZ I         719 18.33        21.9 0.15             61            117 112 
 HEL  HZ EP        719  8.44                              61    0.38 9  162 266 
 HEL  HN ES        719 26.44                              61   -0.25 9  162 266 
 HEL  HZ I         719 28.47         6.2 0.16             61            162 266 
                                                                                
