 2016 1228 0457 21.3 L   6.658 -73.220157.1  RSN  4 0.4 1.1LRSN                1
 GAP=217        1.07       9.0     8.9  9.5  0.5351E+02 -0.1994E+01 -0.1368E+02E
 Epicentro: BARICHARA - SANTANDER                                              3
 ACTION:UPD 17-01-11 20:19 OP:rebc STATUS:               ID:20161228045721 L   I
 OLDACT:DUP 16-12-28 17:58 OP:edw  STATUS:               ID:20161228044746d    3
 OLDACT:UP  16-12-28 17:56 OP:edw  STATUS:               ID:20161228044745     3
 OLDACT:UP  16-12-28 17:55 OP:edw  STATUS:               ID:20161228044745     3
 OLDACT:UP  16-12-28 17:53 OP:edw  STATUS:               ID:20161228044745     3
 OLDACT:REG 16-12-28 13:11 OP:edw  STATUS:               ID:20161228044745     3
 2016-12-28-0448-00M.COL___365                                                 6
 STAT SP IPHASW D HRMM SECON CODA AMPLIT PERI AZIMU VELO AIN AR TRES W  DIS CAZ7
 BRR  HZ EP        457 43.37                             154   -0.4410 73.6 312 
 BRR  HN ES        458  1.36                             154   -0.0110 73.6 312 
 RUS  HZ EP        457 45.84                             150    0.6010 86.0 170 
 RUS  HN ES        458  3.82                             150   -0.0910 86.0 170 
 RUS  HZ I         458  6.81         2.0 0.52            149           86.0 170 
 PTB  HZ EP        457 47.56                             137   -0.76 9  137 265 
 PTB  HN ES        458  9.44                             137    0.04 9  137 265 
 PTB  HZ I         458 11.69         1.7 0.36            137            137 265 
 ZAR  HZ EP        457 54.77                             125    0.36 9  203 297 
 ZAR  HN ES        458 20.67                             125    0.43 9  203 297 
                                                                                
