 2013  928 0037 11.4 L   6.788 -73.127147.4  RSN 11 0.5 1.9LRSN 2.5WRSN        1
 SPEC AVERAGE  MO 12.9 ST 64.6 OM  1.3 f0 12.1 R0.2995 AL 0.00 WI 20.0 MW  2.5 3
 SPEC SD       MO  0.3 ST110.8 OM  0.4 f0 11.4 R0.1697 AL      WI      MW  0.2 3
 GAP=139        1.24       3.7     5.2  6.4 -0.8925E+01  0.3372E+01  0.3622E+01E
 Epicentro: LOS SANTOS - SANTANDER                                             3
 SPEC RUS HH Z MO 12.6 ST  1.1 OM  0.7 f0 7.54 R0.2552 AL-0.00 WI 20.0 MW  2.4 3
 SPEC RUS HH Z T 03751 K 0.050 GD  177 VS 5.20 DE 3.20 Q0750.0 QA 1.50 VS 5.20 3
 SPEC PTB HH Z MO 13.0 ST0.283 OM  1.0 f0 3.59 R0.5359 AL-0.00 WI 20.0 MW  2.6 3
 SPEC PTB HH Z T 03757 K 0.050 GD  210 VS 5.20 DE 3.20 Q0750.0 QA 1.50 VS 5.20 3
 SPEC SPBCHH Z MO 13.1 ST256.5 OM  1.1 f0 31.7 R0.0607 AL-0.00 WI 20.0 MW  2.7 3
 SPEC SPBCHH Z T 038 1 K 0.050 GD  219 VS 5.20 DE 3.20 Q0750.0 QA 1.50 VS 5.20 3
 SPECGUY2CHH Z MO 12.8 ST  0.2 OM  0.6 f0 3.69 R 0.521 AL-0.00 WI 20.0 MW  2.5 3
 SPECGUY2CHH Z T 03827 K 0.050 GD336.1 VS 5.20 DE 3.20 Q0750.0 QA 1.50 VS 5.20 3
 SPEC PRA HH Z MO 12.8 ST0.663 OM  0.5 f0 5.56 R0.3460 AL-0.00 WI 20.0 MW  2.5 3
 SPEC PRA HH Z T 03844 K 0.050 GD  418 VS 5.20 DE 3.20 Q0750.0 QA 1.50 VS 5.20 3
 OLDACT:REG 13-09-28 08:09 OP:stll STATUS:               ID:20130928002835     3
 ACTION:UPD 13-10-22 09:25 OP:ep   STATUS:               ID:20130928003711 L   I
 OLDACT:UP  13-09-28 09:43 OP:stll STATUS:               ID:20130928002835     3
 2013-09-28-0028-35M.COL___247                                                 6
 STAT SP IPHASW D HRMM SECON CODA AMPLIT PERI AZIMU VELO AIN AR TRES W  DIS CAZ7
 BAR2 SZ EP        037 31.33                             171    0.1610 22.5 196 
 BAR2 SZ ES        037 46.83                             171    0.2010 22.5 196 
 BAR2 SZ I         037 49.15        14.8 0.36            170           22.5 196 
 BRR  HZ IP     C  037 33.20                             152    0.3710 73.6 299 
 BRR  HZ I         037 33.49        19.3 0.28            151           73.6 299 
 BRR  HN ES        037 50.59                             152    1.0210 73.6 299 
 PAM  SZ EP        037 34.07                             151    0.3310 77.1  38 
 PAM  SZ I         037 34.45        29.6 0.22            153           77.1  38 
 PAM  SN ES        037 50.79                             151   -0.4010 77.1  38 
 RUS  HZ EP        037 35.81                             145    0.6410 99.1 177 
 RUS  HN ES        037 53.22                             145   -0.5310 99.1 177 
 RUS  SZ I         037 56.35         8.5 0.56            146           99.1 177 
 CAPV BZ EP        037 39.10                             132    0.23 9  149  37 
 CAPV BZ ES        037 59.96                             132   -0.37 9  149  37 
 PTB  HZ EP        037 38.12                             132   -0.50 9  150 259 
 PTB  HN ES        037 58.89                             132   -1.00 9  150 259 
 PTB  SZ I         038  4.77         7.3 0.26            132            150 259 
 OCA  HZ EP        037 39.41                             130   -0.54 9  162 352 
 OCA  HE ES        038  1.93                             130   -0.31 9  162 352 
 OCA  SZ I         038  7.01         9.0 0.30            131            162 352 
 SPBC HZ EP        037 40.35                             129    0.34 9  163 220 
 SPBC HN ES        038  2.66                             129    0.30 9  163 220 
 SPBC SZ I         038  4.14        20.9 0.18            130            163 220 
 CHI  HZ EP        037 49.07                             117   -0.00 8  248 196 
 CHI  HZ I         037 51.47         3.3 0.16            118            248 196 
 CHI  HN ES        038 18.17                             117   -0.32 8  248 196 
 GUY2CHZ EP        037 55.76                             113    0.61 7  302 235 
 GUY2CHE ES        038 29.48                             113    0.17 7  302 235 
 GUY2CHZ I         038 36.41         3.0 0.46                           302 235 
 PRA  HZ EP        038  4.73                             107   -0.19 6  392 210 
 PRA  HN ES        038 45.80                             107   -0.90 6  392 210 
 PRA  SZ I         038 54.05         3.9 2.00            107            392 210 
                                                                                
