 2013  828 0846 55.3 L   6.815 -73.028150.6  RSN  4 0.6 1.3LRSN                1
 GAP=282        1.38      11.3    15.8 14.9 -0.4143E+02 -0.5540E+02  0.5527E+02E
 Epicentro: CEPITA - SANTANDER                                                 3
 ACTION:UPD 14-01-14 09:07 OP:ep   STATUS:               ID:20130828084655 L   I
 OLDACT:REG 13-08-28 07:41 OP:nd   STATUS:               ID:20130828083959     3
 2013-08-28-0839-59M.COL___270                                                 6
 STAT SP IPHASW D HRMM SECON CODA AMPLIT PERI AZIMU VELO AIN AR TRES W  DIS CAZ7
 BAR2 SZ EP        847 14.90                             168   -0.7510 30.0 215 
 BAR2 SZ ES   2    847 31.53                             168   -0.00 5 30.0 215 
 BAR2 SZ I         847 32.95         3.9 0.26            167           30.0 215 
 BRR  HZ IP     C  847 18.52                             149    0.9110 82.2 293 
 BRR  HN ES        847 34.96                             149   -0.0510 82.2 293 
 BRR  HZ I         847 39.33         3.0 0.38            151           82.2 293 
 PTB  HZ EP        847 23.20                             130   -0.65 9  161 259 
 PTB  HN ES   2    847 45.18                             130   -0.95 5  161 259 
 PTB  HZ I         847 46.66         2.1 0.48            132            161 259 
 SPBC HZ EP        847 25.64                             128    0.55 9  173 222 
 SPBC HN ES        847 48.57                             128    0.24 9  173 222 
 SPBC HZ I         847 52.15         2.0 0.22            130            173 222 
                                                                                
