 2011 1128 0036 54.2 L   6.783 -73.124142.0  RSN  6 0.2 1.8LRSN                1
 GAP=140        0.44       2.1     4.1  4.0 -0.2820E+00 -0.2614E+00  0.1048E+01E
 Epicentro: LOS SANTOS - SANTANDER                                             3
 ACTION:UPD 12-07-13 16:12 OP:ep   STATUS:               ID:20111128003654 L   I
 2011-11-28-0033-38S.COL___160                                                 6
 STAT SP IPHASW D HRMM SECON CODA AMPLIT PERI AZIMU VELO AIN AR TRES W  DIS CAZ7
 BAR2 SZ EP        037 13.09                             171   -0.2410 22.0 197 
 BAR2 SZ ES   1    037 28.14                             171   -0.12 7 22.0 197 
 BAR2 SZ I         037 29.48        15.2 0.40                          22.0 197 
 BRR  HZ EP        037 14.99                             151   -0.1110 74.2 299 
 BRR  HE ES   1    037 31.47                             151    0.06 7 74.2 299 
 BRR  HZ I         037 35.42        18.0 0.42                          74.2 299 
 PAM  SZ EP        037 16.04                             150    0.0510 77.4  37 
 PAM  SN ES   1    037 32.91                             150   -0.10 7 77.4  37 
 RUS  HZ EP        037 17.41                             144    0.0010 98.5 177 
 RUS  HE ES   1    037 35.90                             144    0.37 7 98.5 177 
 OCA  SZ ES   1    037 44.76                             128    0.33 7  162 352 
 CHI  HZ EP   2    037 31.79                             116    0.25 4  247 196 
 CHI  HN ES   2    038  0.60                             116   -0.08 4  247 196 
 CHI  HZ I         038  7.84         2.0 0.40                           247 196 
                                                                                
