 2013 1028 0602 41.4 L   6.709 -73.183142.2  RSN  5 0.4 1.4LRSN                1
 GAP=226        1.03       6.3     6.8  8.7  0.1348E+02  0.2672E+01  0.4553E+01E
 Epicentro: VILLANUEVA - SANTANDER                                             3
 ACTION:UPD 13-11-25 09:24 OP:ep   STATUS:               ID:20131028060241 L   I
 OLDACT:DUP 13-10-28 09:49 OP:jn   STATUS:               ID:20131028060001d    3
 OLDACT:REG 13-10-28 08:19 OP:jn   STATUS:               ID:20131028060000     3
 2013-10-28-0600-00M.COL___273                                                 6
 STAT SP IPHASW D HRMM SECON CODA AMPLIT PERI AZIMU VELO AIN AR TRES W  DIS CAZ7
 BAR2 SZ EP        6 3  0.38                             175   -0.1010 12.9 180 
 BAR2 SZ ES   2    6 3 15.14                             175   -0.19 5 12.9 180 
 BAR2 SZ I         6 3 18.39        10.8 0.74            171           12.9 180 
 BRR  HZ EP        6 3  2.30                             151   -0.0210 73.2 307 
 BRR  HN ES        6 3 19.12                             151    0.5110 73.2 307 
 BRR  HZ I         6 3 22.03         4.8 0.38            152           73.2 307 
 RUS  HZ EP        6 3  4.32                             146    0.1610 91.0 173 
 RUS  HE ES        6 3 21.55                             146   -0.3410 91.0 173 
 RUS  HZ I         6 3 23.80         2.1 0.32            148           91.0 173 
 PTB  HZ EP        6 3  7.20                             132   -0.40 9  142 262 
 PTB  HN ES        6 3 27.34                             132   -0.67 9  142 262 
 PTB  HZ I         6 3 33.36         3.5 0.30            133            142 262 
 SPBC HZ EP        6 3  9.13                             130    0.44 9  153 220 
 SPBC HE ES   1    6 3 30.79                             130    0.85 7  153 220 
 SPBC HZ I         6 3 34.54         3.1 0.18            132            153 220 
                                                                                
