 2012 1028 0215 34.4 L   6.815 -73.132145.4  RSN  6 0.3 2.1LRSN                1
 GAP=137        0.56       2.8     3.8  6.9  0.1631E+01  0.4566E+01  0.5397E+01E
 Epicentro: LOS SANTOS - SANTANDER                                             3
 ACTION:UPD 12-11-22 17:06 OP:ep   STATUS:               ID:20121028021534 L   I
 2012-10-28-0210-00M.COL___231                                                 6
 STAT SP IPHASW D HRMM SECON CODA AMPLIT PERI AZIMU VELO AIN AR TRES W  DIS CAZ7
 BRR  HZ EP   1    215 55.73                             152    0.18 8 71.7 297 
 BRR  HN ES   2    216 12.58                             152    0.54 5 71.7 297 
 BRR  HN I         216 17.00        45.5 0.16                          71.7 297 
 PAM  SZ EP   1    215 56.71                             151    0.25 8 75.1  40 
 PAM  SN ES   2    216 13.82                             151    0.17 5 75.1  40 
 PAM  SN I         216 14.79        18.9 0.42                          75.1  40 
 RUS  HZ EP   1    215 58.45                             143    0.21 8  102 177 
 RUS  HN ES   2    216 16.45                             143   -0.38 5  102 177 
 RUS  HN I         216 18.27        17.4 0.34                           102 177 
 OCA  HZ EP   1    216  2.41                             130   -0.14 7  159 353 
 OCA  HE ES        216 24.07                             130   -0.4310  159 353 
 OCA  HE I         216 29.97        23.0 0.17                           159 353 
 ZAR  HZ EP   1    216  7.33                             122    0.42 7  205 292 
 ZAR  HN ES        216 32.09                             122   -0.16 9  205 292 
 ZAR  HN I         216 33.20        11.9 0.10                           205 292 
 CHI  HZ EP   1    216 12.23                             117   -0.08 6  251 195 
 CHI  HN ES   2    216 41.61                             117   -0.26 4  251 195 
 CHI  HN I         216 48.12         6.2 0.42                           251 195 
                                                                                
