 2016  528 0237 23.0 L   6.605 -73.403126.8  RSN  5 0.4 1.1LRSN                1
 GAP=111        1.06       5.2     4.6  7.9 -0.8066E+00  0.3495E+01  0.1059E+00E
 Epicentro: HATO - SANTANDER                                                   3
 ACTION:UPD 16-08-18 17:50 OP:cam  STATUS:               ID:20160528023723 L   I
 OLDACT:REG 16-05-28 12:10 OP:ar   STATUS:               ID:20160528022743     3
 2016-05-28-0227-43M.COL___316                                                 6
 STAT SP IPHASW D HRMM SECON CODA AMPLIT PERI AZIMU VELO AIN AR TRES W  DIS CAZ7
 BAR2 EZ EP        237 40.41                             168    0.0010 24.4  93 
 BAR2 EZ ES        237 54.38                             168    0.4210 24.4  93 
 BAR2 EZ I         237 55.93         2.6 0.24            170           24.4  93 
 BRR  HZ EP        237 41.63                             151   -0.1610 65.2 328 
 BRR  HN ES        237 55.70                             151   -0.7210 65.2 328 
 BRR  HZ I         237 57.03         4.7 0.16            152           65.2 328 
 RUS  HZ EP        237 44.01                             144    0.1210 86.4 156 
 RUS  HN ES        237 59.73                             144   -0.4310 86.4 156 
 RUS  HZ I         238  0.16         1.8 0.42            146           86.4 156 
 PAM  EZ EP        237 46.09                             136    0.1610  112  44 
 PAM  EN ES        238  4.04                             136    0.2510  112  44 
 PTB  HZ EP        237 45.34                             134   -0.3110  117 266 
 PTB  HN ES        238  4.00                             134    0.7010  117 266 
 PTB  HZ I         238  4.62         2.9 0.16            136            117 266 
                                                                                
