 2012 1228 0618 27.5 L   6.800 -73.174146.0  RSN  6 0.4 1.7LRSN                1
 GAP=180        0.74       4.5     5.5  7.7  0.9154E+01  0.3811E+01  0.1864E+01E
 Epicentro: LOS SANTOS - SANTANDER                                             3
 ACTION:UPD 13-01-04 14:31 OP:ep   STATUS:               ID:20121228061827 L   I
 2012-12-28-0610-00M.COL___243                                                 6
 STAT SP IPHASW D HRMM SECON CODA AMPLIT PERI AZIMU VELO AIN AR TRES W  DIS CAZ7
 BAR2 SZ EP   1    618 47.11                             171   -0.08 8 23.0 182 
 BAR2 SZ ES   1    619  2.01                             171   -0.51 8 23.0 182 
 BAR2 SZ I         619  4.80        17.1 0.32                          23.0 182 
 BRR  HN ES   1    619  5.68                             153    0.72 8 68.5 300 
 RUS  HZ EP        618 51.63                             144    0.3010  101 174 
 RUS  HN ES   1    619  9.90                             144    0.01 7  101 174 
 RUS  HZ I         619 10.88         6.3 0.22                           101 174 
 PTB  HZ EP   1    618 53.92                             133   -0.33 7  145 259 
 PTB  HN ES   1    619 14.82                             133   -0.26 7  145 259 
 PTB  HZ I         619 18.50         6.6 0.16                           145 259 
 OCA  HN ES   1    619 17.67                             130   -0.23 7  160 354 
 ZAR  HE ES   1    619 24.86                             123    0.07 6  201 292 
                                                                                
