 2013  828 0420  0.8 L   6.803 -73.153142.4  RSN  6 0.3 1.3LRSN                1
 GAP=200        0.82       3.5     5.4  6.2  0.2514E+01  0.5193E+01 -0.6945E+01E
 Epicentro: LOS SANTOS - SANTANDER                                             3
 ACTION:UPD 14-01-14 09:07 OP:ep   STATUS:               ID:20130828042000 L   I
 OLDACT:REG 13-08-28 07:21 OP:nd   STATUS:               ID:20130828041959     3
 2013-08-28-0419-59M.COL___270                                                 6
 STAT SP IPHASW D HRMM SECON CODA AMPLIT PERI AZIMU VELO AIN AR TRES W  DIS CAZ7
 BAR2 SZ EP   2    420 19.55                             170   -0.47 5 23.5 188 
 BAR2 SZ ES        420 35.23                             170    0.2110 23.5 188 
 BAR2 SZ I         420 38.06         4.5 0.26            168           23.5 188 
 BRR  HZ IP     C  420 22.16                             152    0.6310 70.3 299 
 BRR  HN ES   2    420 38.14                             152    0.43 5 70.3 299 
 BRR  HZ I         420 41.56         2.3 0.46            149           70.3 299 
 RUS  HZ EP        420 24.36                             143    0.1210  101 176 
 RUS  HN ES        420 42.03                             143   -0.5010  101 176 
 RUS  HZ I         420 44.20         2.0 0.34            147            101 176 
 PTB  HZ EP        420 27.26                             131   -0.16 9  147 259 
 PTB  HN ES        420 47.94                             131   -0.25 9  147 259 
 PTB  HZ I         420 55.75         2.6 0.46            131            147 259 
 SPBC HZ EP        420 29.26                             128    0.25 9  163 219 
 SPBC HN ES        420 51.10                             128    0.08 9  163 219 
 SPBC HZ I         420 55.32         3.3 0.40            130            163 219 
 SML  HZ EP        420 37.03                             117   -0.13 8  243 335 
 SML  HN ES        421  5.11                             117   -0.42 8  243 335 
 SML  HZ I         421  9.46         4.5 0.22            119            243 335 
                                                                                
