 2013  128 0553 52.4 L   6.749 -73.152139.3  RSN  7 0.3 1.7LRSN                1
 GAP= 95        0.87       4.3     3.5  6.5  0.1651E+00 -0.5612E+00  0.4150E+01E
 Epicentro: LOS SANTOS - SANTANDER                                             3
 ACTION:UPD 13-02-15 09:17 OP:ep   STATUS:               ID:20130128055352 L   I
 2013-01-28-0548-45M.COL___174                                                 6
 STAT SP IPHASW D HRMM SECON CODA AMPLIT PERI AZIMU VELO AIN AR TRES W  DIS CAZ7
 BAR2 SZ EP        554 11.48                             172    0.3110 17.7 191 
 BAR2 SZ ES        554 26.13                             172    0.3410 17.7 191 
 BAR2 SZ I         554 27.17        20.2 0.14            159           17.7 191 
 BRR  HZ EP        554 13.21                             151    0.2010 73.5 303 
 BRR  HN ES        554 29.44                             151    0.3710 73.5 303 
 BRR  HN I         554 30.21        15.1 0.20            141           73.5 303 
 PAM  SZ EP        554 14.23                             148   -0.0310 82.2  37 
 PAM  SZ I         554 14.42         8.2 0.26            145           82.2  37 
 PAM  SN ES        554 30.92                             148   -0.3710 82.2  37 
 RUS  HZ EP        554 15.20                             144    0.0610 95.0 175 
 RUS  HZ I         554 16.29         4.1 0.12            129           95.0 175 
 RUS  HN ES        554 32.79                             144   -0.0710 95.0 175 
 PTB  HN ES        554 38.46                             131   -0.77 9  146 261 
 PTB  HN I         554 41.20        11.5 0.26            118            146 261 
 TAM  HE ES        554 40.43                             129   -0.25 9  154 103 
 CHI  HZ EP   1    554 29.38                             116    0.22 6  243 195 
 CHI  HN I         555  1.71         2.1 0.62            107            243 195 
                                                                                
