 2016 1128 0021 28.6 L   6.756 -73.155146.9  RSN  5 0.2 1.4LRSN                1
 GAP=152        0.52       4.7     3.1  3.9 -0.6570E+01  0.1661E-01  0.5746E+01E
 Epicentro: LOS SANTOS - SANTANDER                                             3
 ACTION:UPD 17-10-26 21:12 OP:lp   STATUS:               ID:20161128002128 L   I
 OLDACT:UP  16-11-28 12:59 OP:dani STATUS:               ID:20161128001744     3
 OLDACT:REG 16-11-28 12:17 OP:dani STATUS:               ID:20161128001744     3
 2016-11-28-0018-00M.COL___341                                                 6
 STAT SP IPHASW D HRMM SECON CODA AMPLIT PERI AZIMU VELO AIN AR TRES W  DIS CAZ7
 BAR2 EZ EP        021 48.38                             173    0.1010 18.3 190 
 BAR2 EZ ES        022  3.62                             173   -0.0110 18.3 190 
 BAR2 EZ I         022  6.13         5.3 0.16            174           18.3 190 
 BRR  HZ EP        021 50.15                             152    0.1810 72.8 302 
 BRR  HN ES        022  6.91                             152    0.2810 72.8 302 
 BRR  HZ I         022 10.87         5.2 0.27            153           72.8 302 
 PAM  EZ EP        021 51.09                             150   -0.1210 81.8  38 
 PAM  EE ES        022  8.71                             150   -0.1310 81.8  38 
 PAM  EZ I         022 10.47         4.5 0.46            151           81.8  38 
 PTB  HZ EP        021 55.34                             133   -0.16 9  146 261 
 PTB  HN ES        022 16.18                             133   -0.29 9  146 261 
 PTB  HZ I         022 17.23         2.7 0.21            135            146 261 
 PRA  HZ EP        022 21.91                             107    0.30 6  387 210 
                                                                                
