 2011  628 0354  3.0 L   6.804 -73.039135.7  RSN  4 0.4 1.5LRSN                1
 GAP=202        0.95      10.5    13.2 12.9 -0.1462E+02 -0.5684E+02 -0.3631E+02E
 Epicentro: CEPITA - SANTANDER                                                 3
 ACTION:UP  11-07-14 19:08 OP:ep   STATUS:               ID:20110628035403 L   I
 2011-06-28-0340-00M.COL___124                                                 6
 STAT SP IPHASW D HRMM SECON CODA AMPLIT PERI AZIMU VELO SNR AR TRES W  DIS CAZ7
 BTL  SZ EP   1    354 22.15                             168     0.6 7   28 297 
 BAR2 SZ EP   1    354 21.57                             168     0.0 7   28 214 
 BAR2 SZ ES   1    354 35.85                             168    -0.2 7   28 214 
 BAR2 SZ I         354 37.41         7.7 0.23                            28 214 
 BRR  HZ EP   1    354 23.00                             147    -0.8 7   82 294 
 BRR  HZ I         354 23.68        10.2 0.30                            82 294 
 BRR  HE ES   1    354 40.20                             147     0.3 7   82 294 
 GRA  SZ EP   1    354 27.33                             135     0.2 7  122  12 
 GRA  SZ ES   2    354 45.52                             135    -0.3 5  122  12 
 GRA  SZ I         354 50.88         3.1 0.30                           122  12 
                                                                                
