 2012  328 0837 50.7 L   6.726 -73.230144.2  RSN  4 0.2 1.4LRSN                1
 GAP=212        0.38       5.2     7.0  6.2  0.1880E+02  0.1570E+02  0.3723E+01E
 ACTION:UP  12-03-31 23:23 OP:EP   STATUS:               ID:20120328083750 L   I
 2012-03-28-0830-00M.COL___196                                                 6
 STAT SP IPHASW D HRMM SECON CODA AMPLIT PERI AZIMU VELO SNR AR TRES W  DIS CAZ7
 BAR2 SZ ES   3    838 25.12                             173     0.0 2   16 160 
 BRR  HZ EP        838 11.62                             153     0.110   68 308 
 BRR  HE ES   2    838 27.46                             153    -0.3 5   68 308 
 BRR  HZ I         838 29.10        11.7 0.58                            68 308 
 RUS  HZ EP   2    838 13.57                             145    -0.2 5   94 170 
 RUS  HN ES   2    838 31.93                             145     0.1 5   94 170 
 RUS  HZ I         838 33.76         2.6 0.58                            94 170 
 PTB  HZ EP        838 16.57                             134     0.0 9  137 261 
 PTB  HN ES   3    838 37.00                             134     0.2 2  137 261 
 PTB  HZ I         838 39.15         1.8 0.30                           137 261 
                                                                                
