 2012  828 0310 59.0 L   6.774 -73.135142.6  RSN 10 0.5 2.1LRSN                1
 GAP=111        0.82       4.3     4.3  6.6  0.4479E+01 -0.1598E+01 -0.6085E+00E
 Epicentro: LOS SANTOS - SANTANDER                                             3
 ACTION:UPD 12-09-10 11:58 OP:ep   STATUS:               ID:20120828031059 L   I
 2012-08-28-0310-00M.COL___218                                                 6
 STAT SP IPHASW D HRMM SECON CODA AMPLIT PERI AZIMU VELO AIN AR TRES W  DIS CAZ7
 BAR2 SZ EP        311 18.26                             172    0.0310 20.8 195 
 BAR2 SZ ES   2    311 32.65                             172   -0.56 5 20.8 195 
 BAR2 SZ I         311 34.20        51.1 0.26                          20.8 195 
 GIR2 SZ EP        311 18.47                             166    0.0610 34.3 349 
 GIR2 SZ ES   2    311 33.57                             166    0.04 5 34.3 349 
 BRR  HZ EP        311 20.31                             152    0.3310 73.6 300 
 BRR  HZ I         311 22.37        41.1 0.10                          73.6 300 
 BRR  HN ES   1    311 37.37                             152    1.05 7 73.6 300 
 RUS  HZ EP        311 22.22                             144   -0.0410 97.7 177 
 RUS  HN ES   1    311 40.49                             144    0.11 7 97.7 177 
 RUS  HZ I         311 41.58         8.0 0.28                          97.7 177 
 PTB  HZ EP        311 25.40                             132   -0.40 9  148 260 
 PTB  HN ES   1    311 45.94                             132   -0.74 7  148 260 
 PTB  HZ I         311 51.69         8.8 0.16                           148 260 
 TAM  HZ EP        311 26.57                             130    0.28 9  153 104 
 TAM  HZ I         311 26.72        36.2 0.18                           153 104 
 TAM  HE ES   3    311 46.35                             130   -1.20 2  153 104 
 OCA  HZ EP   2    311 27.00                             129   -0.38 5  163 353 
 OCA  HN ES   1    311 48.82                             129   -0.67 7  163 353 
 OCA  HZ I         311 52.87        30.2 0.52                           163 353 
 ZAR  HZ EP        311 31.39                             122   -0.11 8  206 293 
 ZAR  HE ES   2    311 57.31                             122    0.49 4  206 293 
 ZAR  HZ I         312  3.06        20.1 0.30                           206 293 
 CHI  HE ES   3    312  5.66                             117    0.31 2  246 196 
 CHI  HZ I         312 11.44         2.4 0.34                           246 196 
 PRA  HZ EP   3    311 52.48                             106    0.26 1  390 210 
 PRA  HN ES   3    312 33.71                             106    0.00 1  390 210 
 PRA  HZ I         312 40.74         3.6 0.50                           390 210 
                                                                                
