 2011 1028 0520 19.6 L   7.438 -73.122141.3  RSN  8 0.2 1.9LRSN                1
 GAP=117        0.32       2.3     2.7  4.0  0.2968E+00  0.3632E+01  0.1522E+01E
 Epicentro: EL PLAYON - SANTANDER                                              3
 ACTION:UPD 12-07-13 16:06 OP:ep   STATUS:               ID:20111028052019 L   I
 2011-10-28-0516-51S.COL___174                                                 6
 STAT SP IPHASW D HRMM SECON CODA AMPLIT PERI AZIMU VELO AIN AR TRES W  DIS CAZ7
 PAM  SZ EP   2    520 40.15                             160    0.28 5 47.9 103 
 PAM  SN ES   2    520 55.80                             160    0.15 5 47.9 103 
 BRR  HZ EP   1    520 40.47                             151   -0.04 7 74.7 241 
 BRR  HZ I         520 40.72        19.0 0.15                          74.7 241 
 BRR  HE ES   2    520 57.01                             151    0.22 5 74.7 241 
 OCA  SZ EP   2    520 41.81                             145    0.00 5 91.2 346 
 OCA  SZ ES   2    520 59.00                             145   -0.10 5 91.2 346 
 OCA  SZ I         521  1.44        11.0 0.34                          91.2 346 
 BAR2 SZ EP   1    520 42.11                             145    0.01 7 93.7 184 
 BAR2 SZ I         520 42.53         8.7 0.40                          93.7 184 
 BAR2 SZ ES   2    520 59.35                             145   -0.27 5 93.7 184 
 RUS  HZ EP   2    520 49.23                             127    0.15 4  171 179 
 RUS  HN ES   2    521 11.72                             127   -0.33 4  171 179 
 ZAR  HZ EP   2    520 50.26                             123   -0.26 4  192 272 
 ZAR  HN ES   2    521 14.47                             123   -0.14 4  192 272 
 ZAR  HZ I         521 17.29        19.4 0.21                           192 272 
 NOR  SN ES   2    521 32.73                             113    0.38 4  283 223 
 HEL  HZ EP   2    521  2.61                             111   -0.12 4  300 243 
 HEL  HN ES   2    521 36.54                             111    0.20 4  300 243 
 HEL  HZ I         521 44.64         3.2 0.32                           300 243 
                                                                                
