 2015  928 0337 16.8 L   6.675 -73.181133.6  RSN  4 0.4 1.1LRSN                1
 GAP=224        1.02       7.6     7.6  8.4  0.3002E+02  0.1357E+02  0.6002E+01E
 Epicentro: VILLANUEVA - SANTANDER                                             3
 ACTION:UPD 15-10-28 16:28 OP:cam  STATUS:               ID:20150928033716 L   I
 OLDACT:UP  15-09-28 19:30 OP:ak   STATUS:               ID:20150928032746     3
 OLDACT:REG 15-09-28 12:52 OP:spq  STATUS:               ID:20150928032746     3
 2015-09-28-0327-46M.COL___343                                                 6
 STAT SP IPHASW D HRMM SECON CODA AMPLIT PERI AZIMU VELO AIN AR TRES W  DIS CAZ7
 BAR2 EZ EP   1    337 35.44                             176    0.71 7 9.18 181 
 BAR2 EZ ES        337 48.12                             176   -0.6110 9.18 181 
 BAR2 EZ I         337 50.76         4.4 0.23            176           9.18 181 
 BRR  HZ EP        337 36.61                             149   -0.3010 75.7 309 
 BRR  HN ES        337 53.10                             149    0.4910 75.7 309 
 BRR  HZ I         337 56.47                             150           75.7 309 
 RUS  HZ EP        337 38.19                             145   -0.1910 87.2 173 
 RUS  HN ES        337 55.59                             145    0.3710 87.2 173 
 RUS  HZ I         337 57.75         1.9 0.44            148           87.2 173 
 PTB  HZ EP        337 42.23                             130   -0.01 9  142 264 
 PTB  HN ES        338  1.92                             130   -0.17 9  142 264 
 PTB  HZ I         338  3.63         1.8 0.06            133            142 264 
                                                                                
