 2015  328 0140  3.9 L   6.802 -73.196143.8  RSN  6 0.4 1.6LRSN                1
 GAP=232        1.05       5.5     7.4 10.1  0.1187E+02  0.2261E+02  0.6761E+01E
 Epicentro: ZAPATOCA - SANTANDER                                               3
 ACTION:UPD 15-04-30 16:30 OP:nd   STATUS:               ID:20150328014003 L   I
 OLDACT:REG 15-03-28 13:25 OP:fm   STATUS:               ID:20150328013749     3
 2015-03-28-0137-49M.COL___281                                                 6
 STAT SP IPHASW D HRMM SECON CODA AMPLIT PERI AZIMU VELO AIN AR TRES W  DIS CAZ7
 BRR  HZ EP        140 24.91                             154    0.3210 66.3 301 
 BRR  HN ES        140 41.22                             154    0.5110 66.3 301 
 BRR  HZ I         140 43.15         8.1 0.44            149           66.3 301 
 RUS  HN ES        140 45.41                             143   -0.5510  101 173 
 PTB  HZ EP   1    140 29.75                             133   -0.49 7  142 258 
 PTB  HE ES        140 50.67                             133   -0.10 9  142 258 
 PTB  HZ I         140 53.20         3.5 0.18            129            142 258 
 SPBC HN ES        140 54.13                             129    0.30 9  160 217 
 SPBC HZ I         141  1.47         4.9 0.48            127            160 217 
 ZAR  HN ES        140 59.73                             123   -0.76 9  199 293 
 ZAR  HZ I         141  7.69         3.6 0.46            121            199 293 
 NOR  HZ EP        140 39.40                             119    0.33 8  230 234 
 NOR  HN ES        141  6.69                             119    0.20 8  230 234 
 NOR  HZ I         141 14.13         3.0 0.16            117            230 234 
                                                                                
