 2011 1128 0444  6.3 L   6.754 -73.082146.3  RSN  7 0.2 1.5LRSN                1
 GAP=147        0.49       2.7     4.6  4.9 -0.2434E+01  0.1484E+01  0.2920E+01E
 Epicentro: LOS SANTOS - SANTANDER                                             3
 ACTION:UPD 12-07-13 16:12 OP:ep   STATUS:               ID:20111128044406 L   I
 2011-11-28-0442-42S.COL___160                                                 6
 STAT SP IPHASW D HRMM SECON CODA AMPLIT PERI AZIMU VELO AIN AR TRES W  DIS CAZ7
 BAR2 SZ EP        444 25.74                             171   -0.1910 21.0 212 
 BAR2 SZ I         444 42.41         8.1 0.48                          21.0 212 
 PAM  SZ EP        444 28.64                             151    0.0910 77.3  33 
 PAM  SN ES   1    444 46.03                             151    0.11 7 77.3  33 
 BRR  HZ EP        444 27.73                             150   -0.2610 79.8 299 
 BRR  HZ I         444 28.01        12.5 0.18                          79.8 299 
 BRR  HN ES   1    444 45.06                             150    0.13 7 79.8 299 
 RUS  HZ EP        444 29.61                             145   -0.1010 95.3 180 
 RUS  HN ES   2    444 48.03                             145    0.05 5 95.3 180 
 RUS  HZ I         444 50.39         2.3 0.18                          95.3 180 
 OCA  SZ EP        444 35.26                             129    0.06 9  166 351 
 OCA  SZ I         445  1.64         3.7 0.17                           166 351 
 CTAU SZ EP        444 39.61                             123    0.40 9  202 212 
 CHI  HE ES   2    445 12.70                             117   -0.17 4  246 197 
                                                                                
