 2011  128 0521 40.6 L   6.711 -72.841140.1  RSN  5 0.6 1.4LRSN                1
 GAP=195        1.57       8.4    17.9 13.3 -0.9610E+02  0.1012E+02  0.8065E+01E
 Epicentro: MOLAGAVITA - SANTANDER                                             3
 ACTION:UP  11-02-08 08:43 OP:pat  STATUS:               ID:20110128052140 L   I
 2011-01-28-0520-01S.COL___138                                                 6
 STAT SP IPHASW D HRMM SECON CODA AMPLIT PERI AZIMU VELO SNR AR TRES W  DIS CAZ7
 BAR2 SZ EP        521 59.38                             163    -0.610   40 251 
 BAR2 SZ ES        522 14.48                             163    -0.710   40 251 
 BAR2 SZ I         522 15.82         8.3 0.30                            40 251 
 RUS  HZ EP   1    522  3.31                             144     0.0 7   94 197 
 RUS  HN ES   1    522 22.32                             144     1.2 7   94 197 
 RUS  HZ I         522 23.76         2.6 0.46                            94 197 
 GRA  SZ EP        522  6.07                             134     0.410  130   2 
 GRA  SZ ES        522 25.59                             134     0.310  130   2 
 GRA  SZ I         522 26.76         4.0 0.47                           130   2 
 CHI  HZ EP   1    522 17.58                             115    -0.6 6  250 203 
 CHI  HE ES   1    522 47.58                             115     0.1 6  250 203 
 CHI  HZ I         522 55.52         1.4 0.79                           250 203 
 GUY  SN ES        523  3.04                             109     0.5 7  324 240 
                                                                                
