 2017  628 0421 10.9 L   6.643 -73.292132.0  RSN  5 0.4 1.3LRSN                1
 GAP=157        0.70       4.2     4.9  6.4  0.2317E+01  0.1197E+02  0.1154E+01E
 Epicentro: GALAN - SANTANDER                                                  3
 ACTION:UPD 17-09-14 16:56 OP:jn   STATUS:               ID:20170628042110 L   I
 OLDACT:UP  17-06-28 14:35 OP:and  STATUS:               ID:20170628041738     3
 OLDACT:REG 17-06-28 12:38 OP:and  STATUS:               ID:20170628041738     3
 2017-06-28-0418-00M.COL___367                                                 6
 STAT SP IPHASW D HRMM SECON CODA AMPLIT PERI AZIMU VELO AIN AR TRES W  DIS CAZ7
 BAR2 EZ EP        421 28.58                             175   -0.1610 13.4 115 
 BAR2 EZ ES        421 42.78                             175    0.1610 13.4 115 
 BAR2 EZ I         421 43.71         6.1 0.24            173           13.4 115 
 BRR  HZ IP     C  421 30.38                             151   -0.1110 69.2 318 
 BRR  HN ES        421 46.00                             151    0.2510 69.2 318 
 BRR  HZ I         421 49.41         3.4 0.14            150           69.2 318 
 PTB  HZ EP        421 34.62                             133   -0.4910  129 265 
 PTB  HN ES   2    421 53.63                             133   -0.33 5  129 265 
 PTB  HZ I         421 55.85         2.3 0.12            132            129 265 
 SPBC HZ EP   3    421 37.65                             131    1.50 2  140 218 
 SPBC HN ES        421 56.00                             131    0.19 9  140 218 
 SPBC HZ I         422  3.57         2.3 0.10            130            140 218 
 ZAR  HZ EP   3    421 43.17                             121    1.41 2  197 299 
 ZAR  HN ES        422  5.90                             121    0.10 9  197 299 
 ZAR  HZ I         422 11.17         3.5 0.28            122            197 299 
                                                                                
