 2015 1228 0957 17.7 L   6.802 -73.182146.9  RSN  9 0.2 1.6LRSN                1
 GAP=132        0.59       1.8     2.5  3.7 -0.2084E+00  0.2019E+01 -0.6565E+00E
 Epicentro: ZAPATOCA - SANTANDER                                               3
 ACTION:UPD 16-02-04 15:08 OP:cam  STATUS:               ID:20151228095717 L   I
 OLDACT:UP  15-12-28 17:37 OP:ak   STATUS:               ID:20151228094747     3
 OLDACT:REG 15-12-28 13:50 OP:ak   STATUS:               ID:20151228094747     3
 2015-12-28-0947-47M.COL___331                                                 6
 STAT SP IPHASW D HRMM SECON CODA AMPLIT PERI AZIMU VELO AIN AR TRES W  DIS CAZ7
 BAR2 EZ EP        957 37.49                             171    0.0110 23.2 180 
 BAR2 EZ ES        957 52.83                             171   -0.0610 23.2 180 
 BAR2 EZ I         957 55.47         9.6 0.32            172           23.2 180 
 BRR  HN ES        957 55.45                             154    0.2310 67.6 300 
 BRR  HZ I         957 59.05         9.0 0.16            153           67.6 300 
 PAM  EZ EP        957 40.55                             150    0.3510 79.8  42 
 PAM  EN ES        957 57.81                             150    0.0910 79.8  42 
 PAM  EZ I         958  0.92         5.1 0.21            153           79.8  42 
 RUS  HZ EP        957 41.80                             144    0.1810  101 174 
 RUS  HN ES        957 59.76                             144   -0.5110  101 174 
 RUS  HZ I         958  1.77         2.9 0.32            147            101 174 
 PTB  HZ EP        957 44.35                             133   -0.08 9  144 258 
 PTB  HN ES        958  5.28                             133    0.01 9  144 258 
 PTB  HZ I         958  8.01         3.8 0.16            134            144 258 
 OCA  HZ EP   4    957 43.92                             130   -2.13 0  160 355 
 OCA  HN ES        958  8.03                             130   -0.12 9  160 355 
 OCA  HZ I         958 11.64         8.1 0.20            132            160 355 
 SPBC HZ EP        957 46.22                             130    0.13 9  161 218 
 SPBC HN ES        958  8.30                             130    0.08 9  161 218 
 SPBC HZ I         958 13.35         6.9 0.42            132            161 218 
 ZAR  HZ EP   2    957 49.65                             123   -0.20 4  200 292 
 ZAR  HN ES        958 15.11                             123    0.20 9  200 292 
 ZAR  HZ I         958 20.87         4.2 0.26            124            200 292 
 SML  HZ EP        957 54.02                             118   -0.19 8  242 336 
 SML  HN ES        958 22.21                             118   -0.45 8  242 336 
 SML  HZ I         958 26.88         6.6 0.07            120            242 336 
                                                                                
