 2013 1228 0717 30.6 L   6.812 -73.149151.4  RSN  4 0.5 1.5LRSN                1
 GAP=196        1.33       8.9    11.2 13.2 -0.2813E+02 -0.2932E+01  0.1113E+02E
 Epicentro: LOS SANTOS - SANTANDER                                             3
 ACTION:UPD 14-01-13 10:21 OP:ep   STATUS:               ID:20131228071730 L   I
 OLDACT:DUP 13-12-28 12:58 OP:mh   STATUS:               ID:20131228071001d    3
 2013-12-28-0710-00M.COL___285                                                 6
 STAT SP IPHASW D HRMM SECON CODA AMPLIT PERI AZIMU VELO AIN AR TRES W  DIS CAZ7
 BAR2 SZ EP        717 51.15                             170    0.2110 24.6 189 
 BAR2 SZ ES   1    718  6.16                             170   -0.64 7 24.6 189 
 BRR  HZ EP        717 53.08                             154    0.7710 70.3 298 
 BRR  HN ES        718  9.85                             154    0.6010 70.3 298 
 BRR  HZ I         718 13.29         8.2 0.19            152           70.3 298 
 PTB  HZ EP        717 57.45                             133   -0.58 9  148 258 
 PTB  HN ES        718 19.15                             133   -0.28 9  148 258 
 PTB  HZ I         718 21.39         3.0 0.21            134            148 258 
 OCA  HN ES        718 21.00                             131   -0.57 9  159 353 
 OCA  HZ I         718 25.38         2.4 0.20            131            159 353 
                                                                                
