 2013  128 0053 24.5 L   6.839 -73.040153.8  RSN  6 0.4 1.6LRSN                1
 GAP=194        0.94       4.5     8.2  8.9  0.1580E+02  0.5522E+01  0.7525E+01E
 Epicentro: CEPITA - SANTANDER                                                 3
 ACTION:UPD 13-02-15 09:17 OP:ep   STATUS:               ID:20130128005325 L   I
 2013-01-28-0048-50M.COL___168                                                 6
 STAT SP IPHASW D HRMM SECON CODA AMPLIT PERI AZIMU VELO AIN AR TRES W  DIS CAZ7
 BRR  HZ EP        053 47.51                             151    0.5210 79.9 292 
 BRR  HN ES        054  4.87                             151    0.3210 79.9 292 
 BRR  HZ I         054 16.81         6.8 0.44            129           79.9 292 
 RUS  HZ EP   1    053 49.45                             144    0.13 7  105 183 
 RUS  HN ES        054  8.37                             144   -0.3310  105 183 
 RUS  HZ I         054  9.63         4.6 0.22            130            105 183 
 OCA  HN ES        054 15.30                             132   -0.31 9  158 349 
 PTB  HZ EP   1    053 52.22                             131   -1.00 7  160 258 
 PTB  HZ I         054 19.98         4.6 0.40            114            160 258 
 ZAR  HN ES        054 24.79                             123   -0.08 8  213 290 
 CHI  HZ EP        054  3.75                             118    0.32 8  256 197 
 CHI  HZ I         054  5.37         2.3 0.18            108            256 197 
 CHI  HN ES   2    054 33.93                             118    0.12 4  256 197 
                                                                                
