 2014  428 0913  4.1 L   6.807 -73.181140.1  RSN  6 0.4 1.4LRSN                1
 GAP=132        0.93       3.9     5.2  9.6 -0.9249E+01  0.2579E+02 -0.1490E+02E
 Epicentro: LOS SANTOS - SANTANDER                                             3
 ACTION:UPD 14-05-13 23:12 OP:nd   STATUS:               ID:20140428091304 L   I
 OLDACT:REG 14-04-28 13:15 OP:mh   STATUS:               ID:20140428090815     3
 2014-04-28-0908-15M.COL___241                                                 6
 STAT SP IPHASW D HRMM SECON CODA AMPLIT PERI AZIMU VELO AIN AR TRES W  DIS CAZ7
 PAM  SZ EP        913 26.22                             149    0.3510 79.3  42 
 PAM  SN ES        913 43.11                             149    0.2910 79.3  42 
 PAM  SZ I         913 45.93         2.8 0.50            152           79.3  42 
 RUS  HN ES        913 44.92                             142   -0.6510  102 174 
 RUS  HZ I         913 47.59         2.8 0.24            148            102 174 
 PTB  HZ EP        913 29.90                             131   -0.40 9  144 258 
 PTB  HN ES        913 50.59                             131   -0.13 9  144 258 
 PTB  HZ I         913 53.81         2.7 0.15            133            144 258 
 SPBC HZ EP   1    913 32.27                             128    0.25 7  161 218 
 SPBC HE ES   1    913 54.30                             128    0.52 7  161 218 
 NOR  HE ES        914  7.18                             117    0.55 8  232 234 
 NOR  HZ I         914 13.56         2.9 0.06            120            232 234 
 SML  HZ EP        913 40.04                             116   -0.15 8  241 336 
 SML  HN ES        914  8.08                             116   -0.24 8  241 336 
 SML  HZ I         914 16.89         3.5 0.13            118            241 336 
                                                                                
