 2014  628 0958  7.2 L   6.836 -73.180144.4  RSN  7 0.4 1.5LRSN                1
 GAP=131        0.97       3.5     4.4  7.1 -0.2066E+01  0.1207E+02 -0.1653E+01E
 Epicentro: ZAPATOCA - SANTANDER                                               3
 ACTION:UPD 14-07-01 22:57 OP:nd   STATUS:               ID:20140628095807 L   I
 OLDACT:REG 14-06-28 13:59 OP:spq  STATUS:               ID:20140628094813     3
 2014-06-28-0948-13M.COL___240                                                 6
 STAT SP IPHASW D HRMM SECON CODA AMPLIT PERI AZIMU VELO AIN AR TRES W  DIS CAZ7
 BAR2 SZ ES        958 42.02                             169    0.0410 26.9 181 
 BAR2 SZ I         958 42.99         7.4 0.22            170           26.9 181 
 PAM  SZ EP        958 29.72                             151    0.4810 76.9  44 
 PAM  SE ES        958 46.66                             151    0.2310 76.9  44 
 PAM  SZ I         958 48.86         7.5 0.52            153           76.9  44 
 RUS  HZ EP        958 30.74                             142   -0.3810  105 174 
 RUS  HE ES        958 49.94                             142    0.1510  105 174 
 RUS  HZ I         958 50.66         4.8 0.30            145            105 174 
 PTB  HZ EP        958 33.57                             132   -0.22 9  145 257 
 PTB  HN ES        958 54.48                             132   -0.06 9  145 257 
 PTB  HZ I         958 57.50         3.6 0.16            133            145 257 
 OCA  HN ES        958 55.86                             130   -0.82 9  156 354 
 SPBC HZ EP        958 35.89                             129    0.23 9  164 217 
 SPBC HN ES        958 57.47                             129   -0.40 9  164 217 
 SPBC HZ I         959  0.34         6.5 0.34            130            164 217 
 ZAR  HZ EP        958 39.19                             123    0.15 9  199 291 
 ZAR  HN ES        959  4.48                             123    0.60 9  199 291 
 ZAR  HZ I         959  6.86         2.5 0.32            124            199 291 
                                                                                
