 2015  128 1746  1.4 L   6.787 -73.160146.6  RSN  5 0.3 1.4LRSN                1
 GAP=135        0.70       4.4     4.2  6.1 -0.2920E+01  0.3577E+00  0.5175E+01E
 Epicentro: LOS SANTOS - SANTANDER                                             3
 ACTION:UPD 15-03-02 15:43 OP:nd   STATUS:               ID:20150128174601 L   I
 OLDACT:DUP 15-01-29 01:05 OP:spq  STATUS:               ID:20150128173747d    3
 2015-01-28-1737-45M.COL___268                                                 6
 STAT SP IPHASW D HRMM SECON CODA AMPLIT PERI AZIMU VELO AIN AR TRES W  DIS CAZ7
 BAR2 EZ ES   1   1746 36.21                             171   -0.28 7 21.7 187 
 BAR2 EZ I        1746 38.27         6.6 0.18            170           21.7 187 
 BRR  HZ EP   1   1746 22.82                             153    0.19 7 70.5 300 
 BRR  HN ES       1746 39.56                             153    0.4010 70.5 300 
 BRR  HZ I        1746 40.64        14.5 0.43            154           70.5 300 
 PAM  SZ EP       1746 24.04                             150    0.1910 79.5  40 
 PAM  SN ES       1746 41.04                             150   -0.3110 79.5  40 
 PAM  SZ I        1746 42.44         3.5 0.42            153           79.5  40 
 RUS  HZ EP       1746 25.26                             144    0.0910 99.3 175 
 RUS  HN ES   1   1746 43.88                             144    0.19 7 99.3 175 
 RUS  HZ I        1746 45.49         2.5 0.18            145           99.3 175 
 PTB  HZ EP   1   1746 27.78                             132   -0.52 7  146 259 
 PTB  HN ES   1   1746 48.90                             132   -0.36 7  146 259 
 PTB  HZ I        1746 50.79         2.4 0.18            134            146 259 
                                                                                
