 2012  928 1452  1.8 L   6.638 -73.342132.6  RSN  6 0.4 2.2LRSN                1
 GAP=104        0.94       6.6     6.2  8.4  0.1644E+02  0.1158E+02  0.6596E+00E
 Epicentro: GALAN - SANTANDER                                                  3
 ACTION:UPD 12-10-22 14:21 OP:ep   STATUS:               ID:20120928145201 L   I
 2012-09-28-1450-00M.COL___213                                                 6
 STAT SP IPHASW D HRMM SECON CODA AMPLIT PERI AZIMU VELO AIN AR TRES W  DIS CAZ7
 BAR2 SZ EP       1452 19.69                             172   -0.0210 18.4 106 
 BAR2 SZ ES   1   1452 33.52                             172   -0.20 7 18.4 106 
 GIR2 SZ EP       1452 20.33                             158   -0.3210 51.4  19 
 GIR2 SZ ES   1   1452 34.86                             158   -0.51 7 51.4  19 
 BRR  HZ EP       1452 21.48                             152    0.2810 66.0 322 
 BRR  HE ES   1   1452 37.16                             152    0.80 7 66.0 322 
 BRR  HE I        1452 37.82        86.0 0.16                          66.0 322 
 RUS  HZ EP   1   1452 23.37                             145    0.11 7 87.3 161 
 RUS  HN ES   1   1452 40.50                             145    0.47 7 87.3 161 
 PTB  HE ES   1   1452 43.15                             134   -0.85 7  124 265 
 PTB  HE I        1452 47.29        11.8 0.20                           124 265 
 ZAR  HZ EP   1   1452 31.96                             121   -0.19 7  192 300 
 ZAR  HN ES   1   1452 56.34                             121    0.50 7  192 300 
 ZAR  HN I        1453  0.83        14.5 0.32                           192 300 
                                                                                
