 2014 1128 1657 45.1 L   6.710 -73.111151.2  RSN  7 0.4 1.6LRSN                1
 GAP=145        1.14       5.7     5.4  7.6 -0.1023E+02  0.1032E+02  0.6017E+01E
 Epicentro: JORDAN - SANTANDER                                                 3
 ACTION:UPD 14-12-19 15:48 OP:nd   STATUS:               ID:20141128165745 L   I
 OLDACT:REG 14-11-28 21:17 OP:fm   STATUS:               ID:20141128164747     3
 2014-11-28-1647-47M.COL___309                                                 6
 STAT SP IPHASW D HRMM SECON CODA AMPLIT PERI AZIMU VELO AIN AR TRES W  DIS CAZ7
 BAR2 SZ EP       1658  5.64                             174    0.4110 15.2 211 
 BAR2 SZ ES       1658 21.33                             174    0.3710 15.2 211 
 BAR2 SZ I        1658 23.34         8.9 0.20            173           15.2 211 
 BRR  HZ EP       1658  7.40                             151    0.1010 79.6 304 
 BRR  HN ES       1658 25.24                             151    0.6010 79.6 304 
 BRR  HZ I        1658 29.73        13.6 0.42            151           79.6 304 
 PAM  SZ EP       1658  8.46                             150    0.2410 83.1  33 
 PAM  SN ES       1658 25.67                             150   -0.6010 83.1  33 
 PAM  SZ I        1658 27.75         5.5 0.56            153           83.1  33 
 RUS  HZ EP       1658  8.47                             148   -0.2110 90.4 178 
 RUS  HN ES       1658 26.88                             148   -0.2110 90.4 178 
 RUS  HZ I        1658 29.04         2.6 0.42            150           90.4 178 
 PTB  HZ EP       1658 12.21                             133   -0.48 9  150 263 
 PTB  HN ES       1658 33.32                             133   -0.91 9  150 263 
 PTB  HZ I        1658 35.84         4.8 0.18            134            150 263 
 NOR  HZ EP       1658 21.15                             120    0.28 8  232 237 
 NOR  HE ES       1658 49.26                             120    0.47 8  232 237 
 NOR  HZ I        1658 53.46         3.6 0.22            122            232 237 
 GUY2CHE ES       1659  2.68                             114    0.01 7  299 237 
 GUY2CHZ I        1659 11.16         2.4 0.24                           299 237 
                                                                                
