 2010 1028 1458 52.2 L   6.797 -73.019142.0  RSN  6 0.3 1.9LRSN                1
 GAP=173        0.77       4.0     9.1  7.5 -0.1521E+02 -0.2259E+02  0.4267E+01E
 Epicentro: CEPITA - SANTANDER                                                 3
 ACTION:UP  11-02-18 11:12 OP:tino STATUS:               ID:20101028145852 L   I
 2010-10-28-1455-31S.COL___127                                                 6
 STAT SP IPHASW D HRMM SECON CODA AMPLIT PERI AZIMU VELO SNR AR TRES W  DIS CAZ7
 BAR2 SZ IP       1459 11.46                             168     0.010   29 219 
 BAR2 SZ ES   1   1459 26.78                             168     0.2 7   29 219 
 BAR2 SZ I        1459 28.25        31.2 0.36                            29 219 
 BRR  HZ EP   1   1459 13.36                             147    -0.3 7   84 294 
 BRR  HE ES   1   1459 30.63                             147     0.1 7   84 294 
 BRR  HZ I        1459 32.10        19.7 0.11                            84 294 
 RUS  HZ EP   1   1459 15.31                             143    -0.2 7  100 184 
 RUS  HE ES   2   1459 33.87                             143     0.1 5  100 184 
 RUS  HZ I        1459 35.29         5.6 0.23                           100 184 
 GUE  SZ EP       1459 16.66                             139     0.310  115   5 
 GRA  SZ EP       1459 17.22                             137     0.410  123  11 
 GRA  SZ I        1459 18.38        10.3 0.25                           123  11 
 GRA  SZ ES       1459 35.57                             137    -0.510  123  11 
 CHI  HZ EP   2   1459 29.93                             116    -0.1 4  252 198 
 CHI  HN ES   2   1459 59.24                             116    -0.4 4  252 198 
 CHI  HZ I        15 0  8.34         4.2 0.86                           252 198 
                                                                                
