 2017  328 1655 17.2 L   6.761 -73.168137.2  RSN  6 0.5 1.2LRSN                1
 GAP=135        1.34       6.5     5.8  9.8  0.3178E+01  0.1202E+02  0.5284E+00E
 Epicentro: LOS SANTOS - SANTANDER                                             3
 ACTION:UPD 17-05-25 18:46 OP:jn   STATUS:               ID:20170328165517 L   I
 OLDACT:DUP 17-03-29 00:36 OP:lv   STATUS:               ID:20170328164750d    3
 2017-03-28-1648-00M.COL___367                                                 6
 STAT SP IPHASW D HRMM SECON CODA AMPLIT PERI AZIMU VELO AIN AR TRES W  DIS CAZ7
 BAR2 EZ EP       1655 35.66                             172   -0.0310 18.7 185 
 BAR2 EZ ES       1655 50.15                             172    0.0210 18.7 185 
 BAR2 EZ I        1655 53.20         6.0 0.36            172           18.7 185 
 BRR  HZ EP       1655 38.18                             151    0.7710 71.3 303 
 BRR  HN ES       1655 53.37                             151    0.1810 71.3 303 
 PAM  EZ EP       1655 38.67                             148   -0.1310 82.3  39 
 PAM  EN ES       1655 55.18                             148   -0.4910 82.3  39 
 PAM  EZ I        1655 56.81         3.0 0.17            150           82.3  39 
 RUS  HZ EP       1655 40.01                             143    0.2210 96.5 174 
 RUS  HN ES       1655 57.80                             143    0.3710 96.5 174 
 RUS  HZ I        1655 58.53         1.8 0.07            145           96.5 174 
 PTB  HZ EP       1655 42.33                             131   -0.83 9  145 260 
 PTB  HN ES       1656  2.56                             131   -0.87 9  145 260 
 PTB  HZ I        1656  5.92         2.2 0.17            132            145 260 
 ZAR  HE ES       1656 14.64                             120    0.79 9  203 294 
                                                                                
