 2017  528 1005 12.4 L   6.806 -73.115146.0  RSN 17 0.6 2.2LRSN                1
 GAP=216        1.31       4.9     4.7  7.2  0.1003E+02  0.2911E+01 -0.1904E+00E
 Epicentro: LOS SANTOS - SANTANDER                                             3
 ACTION:UPD 17-06-16 13:39 OP:jn   STATUS:               ID:20170528100512 L   I
 OLDACT:UP  17-05-28 23:08 OP:ar   STATUS:               ID:20170528095734     3
 OLDACT:UP  17-05-28 23:06 OP:ar   STATUS:               ID:20170528095734     3
 OLDACT:UP  17-05-28 23:05 OP:ar   STATUS:               ID:20170528095734     3
 OLDACT:UP  17-05-28 23:04 OP:ar   STATUS:               ID:20170528095734     3
 OLDACT:REG 17-05-28 22:10 OP:ar   STATUS:               ID:20170528095734     3
 2017-05-28-0958-00M.COL___335                                                 6
 STAT SP IPHASW D HRMM SECON CODA AMPLIT PERI AZIMU VELO AIN AR TRES W  DIS CAZ7
 BRR  HZ IP     C 10 5 33.80                             152    0.1110 73.9 297 
 BRR  HN ES       10 5 50.68                             152    0.3510 73.9 297 
 BRR  HZ I        10 5 54.69        39.8 0.16            150           73.9 297 
 RUS  HZ EP       10 5 36.17                             144    0.0010  101 178 
 RUS  HN ES       10 5 54.33                             144   -0.4110  101 178 
 RUS  HZ I        10 5 55.49        17.1 0.32            143            101 178 
 PTB  HZ EP       10 5 38.97                             132   -0.70 9  151 259 
 PTB  HN ES       10 6  1.08                             132    0.12 9  151 259 
 PTB  HZ I        10 6  4.88        17.6 0.34            131            151 259 
 SPBC HZ EP       10 5 41.72                             129    0.59 9  166 220 
 SPBC HN ES       10 6  3.12                             129   -0.45 9  166 220 
 SPBC HZ I        10 6  5.38        22.0 0.24            128            166 220 
 YPLC HZ EP       10 5 42.30                             127    0.23 9  176 152 
 YPLC HN ES       10 6  6.09                             127    0.85 9  176 152 
 YPLC HZ I        10 6  8.66        14.1 0.24            129            176 152 
 ZAR  HZ EP       10 5 45.04                             122   -0.09 8  207 292 
 ZAR  HN ES       10 6 10.92                             122    0.24 8  207 292 
 ZAR  HZ I        10 6 16.48        37.8 0.68            123            207 292 
 TABC EZ EP   4   10 5 46.73                             119   -1.64 0  232 211 
 NOR  HZ EP       10 5 48.41                             118   -0.03 8  238 235 
 NOR  HN ES       10 6 16.23                             118   -0.36 8  238 235 
 NOR  HZ I        10 6 22.30        12.5 0.54            118            238 235 
 CHI  HZ EP       10 5 50.21                             117   -0.03 8  250 196 
 CHI  HN ES       10 6 18.68                             117   -1.10 8  250 196 
 CHI  HZ I        10 6 25.40         7.3 0.28            118            250 196 
 ROSC BZ EP   9   10 5 52.39                             117    1.64 0  255 212 
 ROSC BN ES       10 6 23.49                             116    1.16 8  255 212 
 ROSC BZ I        10 6 30.39        13.7 0.30            117            255 212 
 HEL  HZ EP       10 5 53.87                             115    0.90 7  276 256 
 HEL  HN ES   4   10 6 28.35                             115    3.70 0  276 256 
 HEL  HZ I        10 6 31.11         9.3 0.42            115            276 256 
 PTGC HZ EP       10 5 55.14                             112   -1.02 7  308 159 
 PTGC HE ES   4   10 6 28.48                             112   -1.83 0  308 159 
 PTGC HZ I        10 6 30.82         8.0 0.32            113            308 159 
 CBOC HZ EP       10 6  0.67                             110    0.99 7  337 252 
 CBOC HN ES       10 6 37.01                             110    0.42 7  337 252 
 CBOC HZ I        10 6 41.49         2.5 0.20            110            337 252 
 DBB  EZ EP   2   10 5 59.95                             109   -0.29 3  343 274 
 DBB  EN ES       10 6 36.62                             109   -0.96 7  343 274 
 DBB  EZ I        10 6 38.99         5.6 0.68            110            343 274 
 ORTC HZ EP   4   10 6  8.12                             106    1.53 0  398 217 
 ORTC HE ES       10 6 49.22                             106    0.34 6  398 217 
 ORTC HZ I        10 6 53.57         4.8 0.54            107            398 217 
 APAC HZ EP       10 6  6.39                             106   -0.53 6  401 288 
 APAC HN ES       10 6 48.57                             106   -0.90 6  401 288 
 APAC HZ I        10 6 57.38         4.5 0.48            107            401 288 
 PAL  HZ EP       10 6  8.07                             106    0.16 6  409 239 
 PAL  HE ES       10 6 52.61                             106    1.37 6  409 239 
 PAL  HZ I        10 6 54.53         2.8 0.42            106            409 239 
 SJC  HZ EP   4   10 6  6.50                             106   -1.59 0  411 327 
 SJC  HN ES   4   10 6 47.92                             106   -3.64 0  411 327 
 SJC  HZ I        10 6 52.05         4.4 0.48            107            411 327 
                                                                                
