 2013  628 1115  1.9 L   6.771 -73.099146.2  RSN  7 0.4 1.8LRSN                1
 GAP=196        0.86       5.3     6.0  8.2  0.1034E+02  0.1589E+02 -0.4244E+01E
 Epicentro: LOS SANTOS - SANTANDER                                             3
 ACTION:UPD 14-01-08 09:57 OP:ep   STATUS:               ID:20130628111501 L   I
 OLDACT:REG 13-06-28 15:57 OP:carl STATUS:               ID:20130628110959     3
 2013-06-28-1109-59M.COL___267                                                 6
 STAT SP IPHASW D HRMM SECON CODA AMPLIT PERI AZIMU VELO AIN AR TRES W  DIS CAZ7
 BAR2 SZ EP   1   1115 21.47                             171   -0.08 7 21.8 205 
 BAR2 SZ ES   1   1115 36.68                             171   -0.21 7 21.8 205 
 BAR2 SZ I        1115 38.10        11.0 0.26            172           21.8 205 
 GIR2 SZ EP   1   1115 21.68                             166   -0.07 7 35.6 343 
 BRR  HZ EP   1   1115 23.75                             151    0.30 7 77.3 299 
 BRR  HN ES   1   1115 40.51                             151    0.25 7 77.3 299 
 BRR  HN I        1115 41.11        28.8 0.18            150           77.3 299 
 RUS  HZ EP   1   1115 25.48                             145    0.03 7 97.2 179 
 RUS  HN ES       1115 43.90                             145    0.0810 97.2 179 
 RUS  HZ I        1115 45.13         6.1 0.36            147           97.2 179 
 PTB  HZ EP   1   1115 28.26                             131   -1.06 7  152 260 
 PTB  HN ES   4   1115 48.89                             131   -1.81 0  152 260 
 PTB  HZ I        1115 50.36         5.4 0.14            132            152 260 
 ZAR  HZ EP   1   1115 35.90                             122    0.91 6  210 292 
 ZAR  HE ES       1116  0.52                             122   -0.29 8  210 292 
 ZAR  HZ I        1116  4.87         5.5 0.30            122            210 292 
 NOR  HN ES       1116  6.24                             118    0.23 8  237 236 
                                                                                
