 2013  628 1748 28.1 L   6.184 -73.888 88.4  RSN  9 0.5 1.9LRSN                1
 GAP= 64        1.25       3.5     3.6 11.0  0.5241E-01  0.1144E+02  0.1084E+02E
 Epicentro: LANDAZURI - SANTANDER                                              3
 ACTION:UPD 14-01-08 09:57 OP:ep   STATUS:               ID:20130628174828 L   I
 OLDACT:REG 13-06-28 16:07 OP:carl STATUS:               ID:20130628173959     3
 2013-06-28-1739-59M.COL___267                                                 6
 STAT SP IPHASW D HRMM SECON CODA AMPLIT PERI AZIMU VELO AIN AR TRES W  DIS CAZ7
 PTB  HZ IP     C 1748 43.13                             136   -0.6310 74.2 302 
 PTB  HN ES       1748 55.99                             136    0.0510 74.2 302 
 PTB  HZ I        1748 56.90        21.7 0.10            139           74.2 302 
 BAR2 SZ EP   1   1748 45.86                             131    0.38 7 90.2  60 
 BAR2 SZ ES   1   1748 59.24                             131    0.23 7 90.2  60 
 BAR2 SZ I        1749  1.21        22.7 0.24            135           90.2  60 
 RUS  HZ EP   1   1748 46.27                             129    0.02 7 94.7 110 
 RUS  HN ES       1748 59.39                             129   -0.9910 94.7 110 
 BRR  HZ EP       1748 46.58                             126    0.0910  104  11 
 BRR  HN ES   1   1749  1.70                             126    0.89 7  104  11 
 BRR  HZ I        1749  2.59        14.5 0.12            131            104  11 
 NOR  HZ EP   1   1748 49.07                             120   -0.04 7  129 238 
 NOR  HE ES   1   1749  4.92                             120   -0.55 7  129 238 
 NOR  HZ I        1749  9.44        25.4 0.12            122            129 238 
 CHI  HZ EP   1   1748 53.83                             112   -0.64 7  173 174 
 CHI  HN ES       1749 16.28                             112    1.27 9  173 174 
 CHI  HZ I        1749 20.15         4.0 0.26            114            173 174 
 ZAR  HZ EP   1   1748 54.79                             111   -0.02 7  180 324 
 ZAR  HE ES       1749 15.62                             111    0.00 9  180 324 
 ZAR  HZ I        1749 18.19        18.5 0.30            114            180 324 
 GUY2CHZ EP   1   1748 56.82                             109   -0.30 6  195 237 
 GUY2CHN ES       1749 19.90                             109    0.17 9  195 237 
 GUY2CHZ I        1749 24.22        10.8 0.34                           195 237 
 RREF HZ EP   1   1748 59.42                             107   -0.25 6  215 229 
 RREF HN ES       1749 24.70                             107    0.44 8  215 229 
 RREF HZ I        1749 31.12         9.6 0.28            109            215 229 
                                                                                
