 2013  628 1021 12.5 L   6.825 -73.142142.5  RSN  8 0.5 1.7LRSN                1
 GAP=136        0.93       3.8     4.7  7.5  0.1340E+00  0.1288E+02  0.5967E+01E
 Epicentro: LOS SANTOS - SANTANDER                                             3
 ACTION:UPD 14-01-08 09:57 OP:ep   STATUS:               ID:20130628102112 L   I
 OLDACT:REG 13-06-28 15:56 OP:carl STATUS:               ID:20130628101959     3
 2013-06-28-1019-59M.COL___267                                                 6
 STAT SP IPHASW D HRMM SECON CODA AMPLIT PERI AZIMU VELO AIN AR TRES W  DIS CAZ7
 BAR2 SZ EP       1021 31.79                             169   -0.0310 26.1 190 
 BAR2 SZ ES   1   1021 47.12                             169    0.25 7 26.1 190 
 BAR2 SZ I        1021 48.04         4.2 0.22            170           26.1 190 
 BRR  HZ EP   1   1021 33.63                             152    0.36 7 70.2 296 
 BRR  HE ES   1   1021 50.13                             152    0.68 7 70.2 296 
 BRR  HE I        1021 51.02        37.2 0.30            151           70.2 296 
 PAM  SZ EP   1   1021 34.66                             151    0.41 7 75.1  41 
 PAM  SN ES       1021 51.06                             151   -0.1410 75.1  41 
 PAM  SZ I        1021 53.60         9.9 0.54            153           75.1  41 
 RUS  HZ EP   1   1021 35.94                             142   -0.22 7  103 176 
 RUS  HN ES   1   1021 54.73                             142    0.14 7  103 176 
 RUS  HZ I        1021 55.91         4.0 0.22            145            103 176 
 PTB  HZ EP   1   1021 39.27                             131   -0.04 7  149 258 
 PTB  HN ES   1   1021 59.55                             131   -0.65 7  149 258 
 PTB  HZ I        1022  0.94         3.6 0.20            132            149 258 
 OCA  HN ES       1022  1.30                             130   -0.72 9  158 353 
 ZAR  HZ EP   1   1021 45.77                             122    1.08 6  203 291 
 ZAR  HE ES       1022  9.70                             122   -0.07 9  203 291 
 ZAR  HZ I        1022 16.16         6.0 0.42            122            203 291 
 PRA  HZ EP   1   1022  5.98                             106   -0.25 4  395 209 
 PRA  HN ES       1022 47.71                             106   -0.41 6  395 209 
                                                                                
