 2010  428 1535 48.7 L   6.764 -73.106146.0  RSN 14 0.6 3.1LRSN                1
 GAP=147        1.38       6.8     9.8  9.9 -0.3332E+02 -0.8049E+01  0.1613E+02E
 Epicentro: LOS SANTOS - SANTANDER                                             3
 ACTION:UPD 10-08-24 10:01 OP:vdl  STATUS:               ID:20100428153555 L   I
 2010-04-28-1534-06S.COL___104                                                 6
 STAT SP IPHASW D HRMM SECON CODA AMPLIT PERI AZIMU VELO AIN AR TRES W  DIS CAZ7
 BAR2 SZ IP       1536  7.91                             171    -0.410   21 204 
 BAR2 SZ ES   1   1536 22.75                             171    -0.9 7   21 204 
 BRR  HZ IP     C 1536 10.31                             150     0.110   77 300 
 BRR  HE ES   1   1536 27.12                             150     0.1 7   77 300 
 BRR  HZ I        1536 29.30       114.3 0.18                            77 300 
 BRI  SZ IP       1536 13.48                             141     0.710  111  18 
 GRA  SZ IP       1536 14.70                             136     0.510  128  15 
 OCA  SZ ES   2   1536 39.73                             129    -0.2 5  165 352 
 OCA  SZ I        1536 46.47       153.3 0.44                           165 352 
 CHI  HZ EP   1   1536 26.12                             117     0.0 6  246 196 
 CHI  HN ES   1   1536 55.61                             117     0.3 6  246 196 
 CHI  HZ I        1536 59.15        63.7 0.58                           246 196 
 ROSC BZ IP     C 1536 28.02                             117     1.3 8  252 212 
 ROSC BZ I        1537  2.58        94.5 0.37                           252 212 
 HEL  HZ EP   2   1536 28.88                             114    -0.4 4  275 257 
 HEL  HE ES   2   1537  1.36                             114     0.4 4  275 257 
 HEL  HZ I        1537  6.46        43.9 0.32                           275 257 
 RREF BZ EP   1   1536 34.53                             111    -0.4 5  323 230 
 RREF BN ES   2   1537 11.81                             111     0.8 3  323 230 
 RREF BZ I        1537 19.64        47.4 0.49                           323 230 
 TOL  SZ EP   2   1536 36.31                             109    -0.7 3  344 226 
 DBB  SZ IP       1536 35.71                             109    -1.0 7  344 275 
 ANIL BZ EP   2   1536 38.13                             108    -0.4 3  358 225 
 ANIL BZ I        1537 28.12        98.6 0.28                           358 225 
 SDV  BZ IP     D 1536 37.58                             108    -1.1 6  360  49 
 SDV  BZ I        1536 38.50        26.1 0.37                           360  49 
 PRA  HZ EP   1   1536 41.94                             106    -0.2 4  391 210 
 PRA  HN ES   1   1537 23.35                             106    -0.4 4  391 210 
 PRA  HZ I        1537 28.65        50.5 0.65                           391 210 
                                                                                
