 2011 1128 1219 26.1 L   6.769 -73.105142.0  RSN  6 0.2 1.9LRSN                1
 GAP=143        0.48       3.2     4.3  4.2 -0.2776E+01  0.3528E+01  0.1543E+01E
 Epicentro: LOS SANTOS - SANTANDER                                             3
 ACTION:UPD 12-07-13 16:12 OP:ep   STATUS:               ID:20111128121926 L   I
 2011-11-28-1217-38S.COL___160                                                 6
 STAT SP IPHASW D HRMM SECON CODA AMPLIT PERI AZIMU VELO AIN AR TRES W  DIS CAZ7
 BAR2 SZ EP       1219 45.14                             171   -0.1410 21.4 203 
 BAR2 SZ ES   1   1220  0.40                             171    0.19 7 21.4 203 
 BAR2 SZ I        1220  4.42        16.1 0.24                          21.4 203 
 BRR  HZ EP   1   1219 47.07                             150   -0.14 7 76.7 299 
 BRR  HN ES   1   1220  3.63                             150   -0.02 7 76.7 299 
 BRR  HZ I        1220  5.42        15.4 0.16                          76.7 299 
 PAM  SZ EP       1219 48.02                             150    0.0610 77.4  35 
 PAM  SE ES   1   1220  5.02                             150    0.05 7 77.4  35 
 RUS  HZ EP   1   1219 49.16                             144   -0.10 7 97.0 179 
 RUS  HE ES   1   1220  7.30                             144    0.00 7 97.0 179 
 RUS  HZ I        1220  9.35        11.4 0.41                          97.0 179 
 NOR  SZ EP   1   1220  1.50                             118   -0.34 6  236 236 
 GUY  SZ EP   1   1220 10.79                             111    0.75 5  305 236 
 GUY  SZ I        1220 51.56         6.0 0.32                           305 236 
                                                                                
