 2017  728 1913 16.8 L   6.805 -73.179147.6  RSN  8 0.4 1.9LRSN                1
 GAP=211        1.03       4.8     4.5  6.5  0.1000E+02  0.2030E+01  0.1052E+01E
 Epicentro: ZAPATOCA - SANTANDER                                               3
 ACTION:UPD 17-08-30 15:37 OP:rebc STATUS:               ID:20170728191316 L   I
 OLDACT:UP  17-07-29 00:28 OP:dani STATUS:               ID:20170728190741d    3
 OLDACT:DUP 17-07-29 00:25 OP:dani STATUS:               ID:20170728190741d    3
 2017-07-28-1908-00M.COL___401                                                 6
 STAT SP IPHASW D HRMM SECON CODA AMPLIT PERI AZIMU VELO AIN AR TRES W  DIS CAZ7
 BAR2 EZ EP       1913 36.43                             171   -0.2510 23.5 181 
 BAR2 EZ ES       1913 51.60                             171   -0.5710 23.5 181 
 BAR2 EZ I        1913 52.66        20.5 0.28            165           23.5 181 
 BRR  HZ EP       1913 38.17                             154    0.1810 67.7 300 
 BRR  HE ES       1913 55.17                             154    0.6910 67.7 300 
 BRR  HZ I        1913 56.30        23.5 0.25            151           67.7 300 
 RUS  HZ EP       1913 40.81                             144   -0.0110  101 174 
 RUS  HN ES       1913 59.23                             144   -0.3110  101 174 
 RUS  HZ I        1914  0.53         7.1 0.28            142            101 174 
 PTB  HZ EP       1913 42.89                             133   -0.74 9  144 258 
 PTB  HN ES       1914  4.29                             133   -0.24 9  144 258 
 PTB  HZ I        1914  7.86         5.2 0.12            130            144 258 
 SPBC HZ EP       1913 45.70                             130    0.41 9  161 218 
 SPBC HE ES       1914  7.81                             130    0.32 9  161 218 
 SPBC HZ I        1914 14.42        13.2 0.25            127            161 218 
 YPLC HZ EP       1913 46.91                             127   -0.07 9  179 150 
 YPLC HN ES       1914 11.16                             127    0.66 9  179 150 
 YPLC HZ I        1914 11.97         8.2 0.26            127            179 150 
 ZAR  HZ EP       1913 48.94                             123   -0.08 9  200 292 
 ZAR  HN ES       1914 14.37                             123    0.24 9  200 292 
 ZAR  HZ I        1914 20.14         6.9 0.14            122            200 292 
 NOR  HN ES       1914 20.04                             119   -0.07 8  232 234 
 NOR  HZ I        1914 26.50         5.5 0.30            118            232 234 
                                                                                
