 2011  628 1302 28.3 L   6.771 -73.025133.0  RSN  4 0.1 1.5LRSN                1
 GAP=208        0.30       4.5     4.9  5.9  0.2379E-01 -0.1111E+02 -0.1359E+02E
 Epicentro: CEPITA - SANTANDER                                                 3
 ACTION:UP  11-07-14 19:08 OP:ep   STATUS:               ID:20110628130228 L   I
 2011-06-28-1257-19S.COL___140                                                 6
 STAT SP IPHASW D HRMM SECON CODA AMPLIT PERI AZIMU VELO SNR AR TRES W  DIS CAZ7
 BAR2 SZ EP       13 2 46.45                             168     0.010   26 221 
 BAR2 SZ ES   2   13 3  0.60                             168     0.0 5   26 221 
 BAR2 SZ I        13 3  2.34         5.5 0.31                            26 221 
 BRR  HZ EP       13 2 48.89                             146     0.010   85 296 
 BRR  HZ I        13 2 50.92         9.2 0.34                            85 296 
 BRR  HN ES   2   13 3  5.09                             146     0.1 5   85 296 
 BRI  SZ EP   3   13 2 50.67                             139    -0.2 2  107  14 
 GRA  SZ EP       13 2 52.41                             134     0.010  126  11 
 GRA  SZ I        13 2 55.37         3.8 0.43                           126  11 
                                                                                
