 2017  328 1246  9.2 L   6.830 -73.051132.4  RSN  4 0.4 1.3LRSN                1
 GAP=174        0.93       8.2     5.1  8.4 -0.9150E+00  0.9270E+01 -0.1019E+02E
 Epicentro: LOS SANTOS - SANTANDER                                             3
 ACTION:UPD 17-05-25 18:46 OP:jn   STATUS:               ID:20170328124609 L   I
 OLDACT:DUP 17-03-28 22:00 OP:lv   STATUS:               ID:20170328123744d    3
 2017-03-28-1238-00M.COL___367                                                 6
 STAT SP IPHASW D HRMM SECON CODA AMPLIT PERI AZIMU VELO AIN AR TRES W  DIS CAZ7
 BAR2 EZ EP       1246 27.08                             167   -0.3210 30.0 209 
 BAR2 EZ ES       1246 41.69                             167    0.1010 30.0 209 
 BAR2 EZ I        1246 43.09         7.1 0.06            171           30.0 209 
 PAM  EZ EP       1246 30.10                             151    0.6410 68.4  35 
 PAM  EN ES       1246 44.86                             151   -0.4110 68.4  35 
 PAM  EZ I        1246 49.71         2.3 0.30            150           68.4  35 
 BRR  HZ EP       1246 29.22                             147   -0.2110 79.2 293 
 BRR  HN ES       1246 45.54                             147    0.3310 79.2 293 
 BRR  HZ I        1246 50.12         4.5 0.07            146           79.2 293 
 ZAR  HN ES       1247  6.92                             118   -0.18 8  213 290 
 ZAR  HZ I        1247 10.73         2.8 0.19            120            213 290 
                                                                                
