 2014  828 1747 11.8 L   6.748 -73.178138.1  RSN  9 0.5 2.1LRSN                1
 GAP=135        1.22       5.0     5.2  7.2 -0.6678E+01  0.9394E+01  0.1148E+02E
 Epicentro: LOS SANTOS - SANTANDER                                             3
 ACTION:UPD 14-09-15 21:54 OP:nd   STATUS:               ID:20140828174711 L   I
 OLDACT:DUP 14-08-29 01:18 OP:stll STATUS:               ID:20140828173819d    3
 2014-08-28-1738-18M.COL___266                                                 6
 STAT SP IPHASW D HRMM SECON CODA AMPLIT PERI AZIMU VELO AIN AR TRES W  DIS CAZ7
 BAR2 SZ IP     C 1747 30.63                             172    0.2510 17.2 182 
 BAR2 SZ ES       1747 45.44                             172    0.5510 17.2 182 
 BAR2 SZ I        1747 46.90        31.4 0.18            168           17.2 182 
 BRR  HZ IP     D 1747 32.55                             151    0.4410 71.1 304 
 BRR  HZ I        1747 32.79        38.3 0.24            152           71.1 304 
 BRR  HE ES       1747 48.24                             151    0.2810 71.1 304 
 PAM  SZ IP     D 1747 33.46                             147   -0.1710 84.1  39 
 PAM  SZ I        1747 33.79        59.0 0.26            152           84.1  39 
 PAM  SE ES       1747 49.88                             147   -0.7810 84.1  39 
 RUS  HZ EP       1747 34.70                             144    0.3110 95.1 174 
 RUS  HE ES       1747 52.14                             144    0.1210 95.1 174 
 RUS  HZ I        1747 53.77        16.3 0.46            142           95.1 174 
 PTB  HZ EP       1747 37.38                             131   -0.34 9  143 261 
 PTB  HN ES       1747 57.65                             131   -0.30 9  143 261 
 PTB  HZ I        1748  1.17        14.8 0.36            130            143 261 
 NOR  HZ EP       1747 46.15                             118   -0.25 8  228 235 
 NOR  HE ES       1748 12.44                             118   -0.96 8  228 235 
 NOR  HZ I        1748 22.65        12.5 0.46            117            228 235 
 CHI  HZ EP   1   1747 48.72                             116    0.36 6  242 195 
 CHI  HE ES   1   1748 15.57                             116   -1.31 6  242 195 
 CHI  HZ I        1748 23.78         5.3 0.26            116            242 195 
 GUY2CHZ EP       1747 55.28                             111    0.94 7  295 235 
 GUY2CHN ES       1748 28.05                             111    0.52 7  295 235 
 GUY2CHZ I        1748 35.81         6.1 0.44                           295 235 
 PRA  HZ EP       1748  3.82                             106   -0.43 6  385 210 
 PRA  HE ES       1748 45.50                             106    0.32 6  385 210 
 PRA  HZ I        1748 53.14         4.9 0.28            106            385 210 
                                                                                
