 2012  328 1049 53.5 L   6.609 -73.471 25.0  RSN  7 0.2 1.6LRSN                1
 GAP=107        0.56       2.0     2.0  3.8  0.6456E+00  0.2769E+01 -0.9982E+00E
 ACTION:UP  12-03-31 23:23 OP:EP   STATUS:               ID:20120328104953 L   I
 2012-03-28-1047-59S.COL___204                                                 6
 STAT SP IPHASW D HRMM SECON CODA AMPLIT PERI AZIMU VELO SNR AR TRES W  DIS CAZ7
 BAR2 SZ IP       1050  0.50                             123     0.310   32  93 
 BRR  HE ES   1   1050 11.67                              97    -0.4 7   61 334 
 BRR  HZ I        1050 12.18        37.8 0.12                            61 334 
 RUS  HZ EP   1   1050  8.61                              90     0.0 7   90 152 
 RUS  HN ES   1   1050 19.89                              90    -0.5 7   90 152 
 RUS  HZ I        1050 20.42         8.9 0.19                            90 152 
 PTB  HZ EP       1050 10.78                              61     0.210  109 266 
 PTB  HN ES   2   1050 24.07                              61     0.1 5  109 266 
 PTB  HZ I        1050 25.34        30.2 0.43                           109 266 
 PAM  SZ EP   1   1050 12.31                              61     0.1 7  117  47 
 PAM  SN ES   1   1050 26.70                              61    -0.1 7  117  47 
 ZAR  HZ EP   2   1050 19.66                              61     0.0 4  182 303 
 ZAR  HE ES   2   1050 39.88                              61    -0.2 4  182 303 
 ZAR  HZ I        1050 42.91         3.5 0.36                           182 303 
 HEL  HN ES   2   1050 52.09                              61     0.0 4  232 259 
                                                                                
