 2011  528 1442  4.7 L   6.769 -73.078143.1  RSN  7 0.3 1.8LRSN                1
 GAP=164        0.76       3.6     6.2  6.6 -0.8952E+01  0.6624E+01 -0.2129E+01E
 Epicentro: LOS SANTOS - SANTANDER                                             3
 ACTION:UP  11-06-29 08:56 OP:tino STATUS:               ID:20110528144204 L   I
 2011-05-28-1439-14S.COL___115                                                 6
 STAT SP IPHASW D HRMM SECON CODA AMPLIT PERI AZIMU VELO SNR AR TRES W  DIS CAZ7
 BAR2 SZ EP   1   1442 23.92                             171     0.0 7   23 211 
 BAR2 SZ ES   1   1442 38.56                             171    -0.4 7   23 211 
 BAR2 SZ I        1442 41.22        17.4 0.33                            23 211 
 BTL  SZ EP   1   1442 24.05                             169     0.0 7   27 308 
 BRR  HZ EP   1   1442 25.84                             149    -0.2 7   79 298 
 BRR  HN ES   1   1442 43.18                             149     0.5 7   79 298 
 BRR  HZ I        1442 44.07        30.7 0.18                            79 298 
 RUS  HZ EP   1   1442 27.84                             144     0.0 7   97 180 
 RUS  HN ES       1442 46.18                             144     0.210   97 180 
 RUS  HZ I        1442 48.06         7.3 0.40                            97 180 
 BRI  SZ EP   1   1442 28.53                             141     0.2 7  109  16 
 BRI  SZ ES   1   1442 47.02                             141     0.2 7  109  16 
 BRI  SZ I        1442 48.91        12.4 0.25                           109  16 
 GRA  SZ EP   1   1442 29.51                             136    -0.3 7  127  14 
 GRA  SZ ES   1   1442 49.14                             136    -0.2 7  127  14 
 GRA  SZ I        1442 50.52        13.0 0.40                           127  14 
 NOR  SZ EP   1   1442 41.27                             117     0.6 6  239 236 
 NOR  SN ES   1   1443  8.14                             117    -0.6 6  239 236 
 NOR  SZ I        1443 11.87         1.1 0.31                           239 236 
                                                                                
