 2010 1028 1549 50.6 L   6.156 -73.662110.6  RSN 13 0.4 2.5LRSN                1
 GAP= 86        0.75       3.0     2.8  6.5 -0.1763E+01  0.6172E+01  0.5808E+01E
 Epicentro: LA PAZ - SANTANDER                                                 3
 ACTION:UP  11-02-18 11:12 OP:tino STATUS:               ID:20101028154950 L   I
 2010-10-28-1548-46S.COL___124                                                 6
 STAT SP IPHASW D HRMM SECON CODA AMPLIT PERI AZIMU VELO SNR AR TRES W  DIS CAZ7
 RUS  HZ IP     D 1550  8.56                             145    -0.210   70 114 
 RUS  HN ES   1   1550 22.87                             145     0.0 7   70 114 
 RUS  HZ I        1550 23.90        58.0 0.39                            70 114 
 BAR2 SZ IP       1550  8.52                             145     0.110   72  48 
 BAR2 SZ ES   1   1550 22.22                             145    -0.1 7   72  48 
 BAR2 SZ I        1550 23.76       239.1 0.21                            72  48 
 BRR  HZ EP   1   1550 10.64                             133    -0.2 7  105 357 
 BRR  HZ I        1550 11.06        92.2 0.12                           105 357 
 BRR  HE ES   1   1550 26.65                             133     0.0 7  105 357 
 GIR2 SZ EP       1550 11.93                             130     0.110  114  27 
 NOR  SZ EP       1550 14.49                             122    -0.7 9  149 244 
 NOR  SN ES       1550 34.32                             122     0.0 9  149 244 
 YOP  SZ EP   1   1550 16.94                             119     0.2 7  164 123 
 YOP  SN ES   2   1550 38.00                             119     0.9 5  164 123 
 CHI  HZ EP       1550 17.55                             119    -0.2 9  169 183 
 CHI  HE ES   2   1550 38.78                             119    -0.1 5  169 183 
 CHI  HZ I        1550 41.34        32.0 0.47                           169 183 
 CVER SZ EP   2   1550 20.66                             116     1.0 4  186 194 
 HEL  HZ EP   1   1550 22.15                             113     0.4 6  207 271 
 HEL  HN ES   2   1550 46.73                             113     0.6 4  207 271 
 HEL  HZ I        1550 52.29        20.5 0.46                           207 271 
 GUY  SZ EP   1   1550 23.34                             112     0.5 6  215 242 
 GUY  SN ES   2   1550 48.17                             112     0.1 4  215 242 
 GUY  SZ I        1550 54.31        46.3 0.30                           215 242 
 RREF HZ EP   1   1550 24.90                             110    -0.2 6  233 233 
 RREF HN ES   2   1550 52.74                             110     0.8 4  233 233 
 RREF HZ I        1550 57.03        25.3 0.19                           233 233 
 TOL  SZ EP   1   1550 27.28                             108     0.3 6  253 227 
 PRA  HZ EP   1   1550 32.08                             104    -0.3 5  302 207 
 PRA  HN ES   1   1551  4.58                             104    -0.5 5  302 207 
                                                                                
