 2017  628 1027 34.0 L   6.775 -73.070157.3  RSN  7 0.4 1.8LRSN                1
 GAP=223        0.86       4.4     5.3  5.9  0.1158E+02  0.4578E+01  0.9394E+01E
 Epicentro: LOS SANTOS - SANTANDER                                             3
 ACTION:UPD 17-09-14 16:56 OP:jn   STATUS:               ID:20170628102734 L   I
 OLDACT:DUP 17-06-28 22:45 OP:osc  STATUS:               ID:20170628101745d    3
 OLDACT:UP  17-06-28 22:35 OP:osc  STATUS:               ID:20170628101744d    3
 OLDACT:DUP 17-06-28 22:26 OP:osc  STATUS:               ID:20170628101744d    3
 OLDACT:REG 17-06-28 20:27 OP:osc  STATUS:               ID:20170628101743     3
 2017-06-28-1018-00M.COL___357                                                 6
 STAT SP IPHASW D HRMM SECON CODA AMPLIT PERI AZIMU VELO AIN AR TRES W  DIS CAZ7
 BAR2 EZ EP     C 1027 55.12                             171    0.1010 23.8 212 
 BAR2 EZ ES       1028 11.06                             171   -0.3710 23.8 212 
 BAR2 EZ I        1028 13.57         7.9 0.22            168           23.8 212 
 BRR  HZ EP       1027 57.22                             152    0.3310 79.9 297 
 BRR  HE ES       1028 15.25                             152    0.5110 79.9 297 
 PTB  HZ EP       1028  2.05                             133   -0.56 9  156 260 
 PTB  HE ES   4   1028 24.01                             133   -0.92 0  156 260 
 PTB  HZ I        1028 25.22         7.0 0.14            133            156 260 
 ZAR  HZ EP       1028  7.95                             124   -0.16 8  213 292 
 ZAR  HN ES       1028 34.25                             124   -0.46 8  213 292 
 ZAR  HZ I        1028 38.79         7.0 0.30            124            213 292 
 NOR  HZ EP       1028 11.26                             120    0.28 8  240 236 
 NOR  HE ES       1028 39.87                             120    0.04 8  240 236 
 NOR  HZ I        1028 42.57         3.4 0.20            120            240 236 
 CHI  HZ EP       1028 12.47                             119    0.14 8  248 197 
 CHI  HN ES       1028 42.54                             119    0.31 8  248 197 
 CHI  HZ I        1028 46.56         3.4 0.38            120            248 197 
 PTGC HZ EP       1028 18.07                             114    0.30 7  303 160 
 PTGC HE ES       1028 51.34                             114   -0.58 7  303 160 
                                                                                
