 2010  928 1048 31.1 L   6.811 -73.087143.8  RSN 16 0.4 2.8LRSN                1
 GAP=130        0.89       3.3     5.5  5.8 -0.6796E+01  0.4450E+01  0.1381E+01E
 Epicentro: LOS SANTOS - SANTANDER                                             3
 ACTION:UP  11-02-18 11:06 OP:tino STATUS:               ID:20100928104831 L   I
 2010-09-28-1047-57S.COL___123                                                 6
 STAT SP IPHASW D HRMM SECON CODA AMPLIT PERI AZIMU VELO SNR AR TRES W  DIS CAZ7
 BAR2 SZ IP       1048 50.92                             169     0.310   26 204 
 BAR2 SZ ES   1   1049  5.29                             169    -0.5 7   26 204 
 BAR2 SZ I        1049  7.01       154.0 0.27                            26 204 
 GIR2 SZ EP   2   1048 50.84                             167     0.3 5   32 338 
 BRR  HZ EP       1048 52.70                             150     0.310   76 295 
 BRR  HN ES   1   1049  9.64                             150     0.7 7   76 295 
 BRR  HZ I        1049 13.82       113.3 0.12                            76 295 
 RUS  HZ EP       1048 54.87                             143     0.110  102 180 
 RUS  HN ES   1   1049 13.24                             143     0.1 7  102 180 
 RUS  HZ I        1049 15.40        70.1 0.31                           102 180 
 GRA  SZ EP       1048 55.69                             137    -0.210  123  15 
 GRA  SZ ES   1   1049 14.58                             137    -0.7 7  123  15 
 GRA  SZ I        1049 16.42        51.1 0.31                           123  15 
 OCA  SZ EP       1048 59.52                             129     0.3 9  160 351 
 OCA  SZ ES   2   1049 20.84                             129    -0.3 5  160 351 
 OCA  SZ I        1049 24.26        80.9 0.11                           160 351 
 NOR  SZ EP   1   1049  7.09                             117    -0.3 6  241 235 
 NOR  SE ES   1   1049 35.12                             117    -0.6 6  241 235 
 CHI  HZ EP       1049  9.04                             116     0.0 8  252 197 
 CHI  HE ES   1   1049 37.88                             116    -0.7 6  252 197 
 CHI  HZ I        1049 43.14        26.3 0.61                           252 197 
 ROSC BZ EP   2   1049  9.93                             116     0.3 4  257 212 
 ROSC BN ES   2   1049 40.41                             116     0.8 4  257 212 
 ROSC BZ I        1049 45.46        42.2 0.46                           257 212 
 CVER SZ EP   2   1049 12.56                             114     0.8 4  276 203 
 CVER SZ I        1049 54.90        57.2 1.10                           276 203 
 HEL  HZ EP   1   1049 11.58                             114    -0.4 6  279 256 
 HEL  HE ES   2   1049 43.37                             114    -0.4 4  279 256 
 HEL  HZ I        1049 50.01        37.7 0.60                           279 256 
 RREF HZ EP   1   1049 17.61                             110    -0.2 5  327 230 
 RREF HN ES   2   1049 53.99                             110    -0.3 3  327 230 
 RREF HZ I        1050  0.80        26.5 0.48                           327 230 
 DBB  SZ EP   1   1049 18.80                             109    -0.4 5  346 274 
 TOL  SZ EP   2   1049 20.65                             109     0.7 3  349 225 
 SDV  BZ EP   1   1049 20.34                             108    -0.1 5  355  50 
 SDV  BZ I        1049 21.27        12.4 0.16                           355  50 
 ANIL HZ EP   2   1049 20.86                             108    -0.6 3  363 225 
 ANIL HZ I        1050  5.80        61.5 0.27                           363 225 
                                                                                
