 2010  228 1458  7.2 L   6.796 -73.052140.7  RSN  8 0.4 2.2LRSN                1
 GAP=192        0.86       4.0     8.4  6.8  0.5315E+01  0.1525E+02  0.3501E+01E
 Epicentro: LOS SANTOS - SANTANDER                                             3
 ACTION:UP  10-08-24 09:51 OP:vdl  STATUS:               ID:20100228145807 L   I
 2010-02-28-1457-19S.COL___093                                                 6
 STAT SP IPHASW D HRMM SECON CODA AMPLIT PERI AZIMU VELO SNR AR TRES W  DIS CAZ7
 BAR2 SZ IP       1458 26.58                             169     0.310   27 213 
 BAR2 SZ ES   2   1458 40.09                             169    -1.1 5   27 213 
 BRR  HZ IP       1458 28.43                             148     0.010   81 295 
 BRR  HZ I        1458 28.87        60.3 0.13                            81 295 
 BRR  HE ES   1   1458 45.16                             148     0.2 7   81 295 
 RUS  BZ EP       1458 30.47                             143     0.010  100 182 
 RUS  BE ES   1   1458 48.94                             143     0.4 7  100 182 
 RUS  BZ I        1458 50.57        16.0 0.49                           100 182 
 OCA  SZ EP       1458 35.29                             128    -0.1 9  162 350 
 OCA  SZ ES   2   1458 56.74                             128    -0.5 5  162 350 
 CHI  HZ EP       1458 44.52                             116    -0.4 8  251 197 
 CHI  HZ I        1458 47.43         5.0 0.47                           251 197 
 CHI  HE ES   2   1459 14.10                             116    -0.2 4  251 197 
 HEL  HZ EP       1458 48.91                             113     0.6 7  282 256 
 HEL  HZ I        1459 25.67        10.1 0.72                           282 256 
 DBB  SZ EP       1458 55.26                             108    -0.4 6  350 274 
 PRA  HZ EP       1459  1.15                             105     0.0 6  397 211 
 PRA  HE ES   1   1459 42.61                             105    -0.6 4  397 211 
 PRA  HZ I        1459 47.23         5.4 0.70                           397 211 
                                                                                
