 2012  128 1314 47.0 L   6.801 -73.212137.6  RSN  7 0.4 1.9LRSN                1
 GAP=128        1.04       7.1     6.1  8.3 -0.6787E+01  0.4220E+01  0.1268E+02E
 Epicentro: ZAPATOCA - SANTANDER                                               3
 ACTION:UP  12-02-03 08:21 OP:REBC STATUS:               ID:20120128131447 L   I
 2012-01-28-1310-00M.COL___188                                                 6
 STAT SP IPHASW D HRMM SECON CODA AMPLIT PERI AZIMU VELO SNR AR TRES W  DIS CAZ7
 BAR2 SZ EP       1315  5.58                             170     0.010   23 172 
 BAR2 SZ I        1315  5.93        20.6 0.34                            23 172 
 BAR2 SZ ES   1   1315 20.18                             170     0.0 7   23 172 
 GIR2 SZ EP       1315  5.60                             167     0.010   31   4 
 GIR2 SZ ES   1   1315 21.03                             167     0.8 7   31   4 
 BRR  HZ EP       1315  7.36                             153     0.510   65 301 
 BRR  HN ES   1   1315 21.27                             153    -1.1 7   65 301 
 BRR  HZ I        1315 24.10        38.6 0.38                            65 301 
 PAM  SZ EP       1315  8.49                             148    -0.110   82  44 
 PAM  SN ES   1   1315 25.40                             148    -0.1 7   82  44 
 RUS  HZ EP       1315  9.90                             142    -0.110  101 172 
 RUS  HN ES   2   1315 27.85                             142    -0.1 5  101 172 
 RUS  HZ I        1315 29.68         8.8 0.30                           101 172 
 PTB  HZ EP       1315 12.44                             132    -0.2 9  141 258 
 PTB  HN ES   1   1315 33.00                             132     0.4 7  141 258 
 PTB  HZ I        1315 38.91         4.7 0.18                           141 258 
 ZAR  HE ES   3   1315 42.85                             121     0.3 2  197 293 
                                                                                
