 2015  228 1238  9.7 L   6.798 -73.175138.3  RSN 15 0.4 2.1LRSN                1
 GAP=133        1.01       3.2     4.6  6.4 -0.1384E+01  0.4920E+01  0.6217E+01E
 Epicentro: LOS SANTOS - SANTANDER                                             3
 ACTION:UPD 15-04-30 21:29 OP:nd   STATUS:               ID:20150228123809 L   I
 OLDACT:UP  15-03-01 00:34 OP:mh   STATUS:               ID:20150228123746     3
 OLDACT:UP  15-03-01 00:33 OP:mh   STATUS:               ID:20150228123746     3
 OLDACT:UP  15-03-01 00:33 OP:mh   STATUS:               ID:20150228123746     3
 OLDACT:UP  15-03-01 00:32 OP:mh   STATUS:               ID:20150228123746     3
 OLDACT:UP  15-03-01 00:29 OP:mh   STATUS:               ID:20150228123746     3
 OLDACT:REG 15-02-28 22:03 OP:y    STATUS:               ID:20150228123746     3
 2015-02-28-1237-46M.COL___293                                                 6
 STAT SP IPHASW D HRMM SECON CODA AMPLIT PERI AZIMU VELO AIN AR TRES W  DIS CAZ7
 BAR2 EZ EP   1   1238 28.76                             170    0.32 7 22.8 182 
 BAR2 EZ I        1238 45.29        18.1 0.34            164           22.8 182 
 BRR  HZ EP       1238 30.71                             152    0.8010 68.5 300 
 BRR  HN ES       1238 45.16                             152   -0.5010 68.5 300 
 BRR  HZ I        1240 17.15        19.7 0.30            147           68.5 300 
 PAM  SZ EP   1   1238 31.61                             149    0.33 7 79.6  41 
 PAM  SN ES       1238 48.59                             149    0.4810 79.6  41 
 PAM  SZ I        1238 50.74        15.9 0.50            156           79.6  41 
 RUS  HZ EP       1238 32.48                             142   -0.2710  101 174 
 RUS  HN ES   1   1238 50.12                             142   -0.59 7  101 174 
 PTB  HZ EP       1238 35.33                             131   -0.46 9  145 259 
 PTB  HN ES       1238 56.72                             131    0.59 9  145 259 
 PTB  HZ I        1239  2.46        19.8 0.40            136            145 259 
 OCA  HZ EP   4   1238 33.48                             128   -3.96 0  160 354 
 OCA  HN ES       1238 58.38                             128   -0.69 9  160 354 
 OCA  HZ I        1239  7.05        14.0 0.28            135            160 354 
 SPBC HZ EP       1238 37.58                             128    0.13 9  161 218 
 SPBC HN ES   1   1238 58.71                             128   -0.36 7  161 218 
 SPBC HZ I        1239  6.73        30.1 0.34            139            161 218 
 ZAR  HZ EP   1   1238 41.37                             121   -0.01 6  201 293 
 ZAR  HN ES   1   1239  6.26                             121    0.18 6  201 293 
 ZAR  HZ I        1239 13.40        16.5 0.10            127            201 293 
 SML  HZ EP       1238 45.56                             116   -0.25 8  243 336 
 SML  HZ I        1239 18.64        17.7 0.07            124            243 336 
 CHI  HZ EP       1238 46.65                             116   -0.25 8  248 194 
 CHI  HN ES       1239 16.12                             116    0.22 8  248 194 
 CHI  HZ I        1239 20.36         5.4 0.28            131            248 194 
 GUY2CHZ EP   4   1238 53.50                             111    0.82 0  298 234 
 GUY2CHN ES   4   1239 30.18                             111    3.99 0  298 234 
 GUY2CHZ I        1239 35.99         7.0 0.28                           298 234 
 RREF HZ EP       1238 55.70                             110    0.45 7  319 229 
 RREF HN ES   4   1239 33.54                             110    2.77 0  319 229 
 RREF HZ I        1239 37.24         7.9 0.26            120            319 229 
 TOL  SZ EP       1238 57.20                             108   -0.21 7  341 224 
 TOL  SN ES   4   1239 34.77                             108    0.17 0  341 224 
 MON  HZ EP   4   1238 55.60                             107   -2.56 0  351 309 
 MON  HN ES   4   1239 34.26                             107   -1.69 0  351 309 
 MON  HZ I        1239 38.51         2.5 0.32            115            351 309 
 PRA  HZ EP   1   1239  2.57                             105   -0.21 4  390 209 
 PRA  HN ES   4   1239 45.97                             105    1.80 0  390 209 
                                                                                
