 2012  828 1517 18.2 L   7.224 -73.447107.0  RSN  4 0.4 1.7LRSN                1
 GAP=199        0.92       9.8     5.6 11.2  0.1142E+02  0.2864E+02 -0.3131E+01E
 Epicentro: SABANA DE TORRES - SANTANDER                                       3
 ACTION:UPD 12-09-10 11:58 OP:ep   STATUS:               ID:20120828151718 L   I
 2012-08-28-1510-00M.COL___218                                                 6
 STAT SP IPHASW D HRMM SECON CODA AMPLIT PERI AZIMU VELO AIN AR TRES W  DIS CAZ7
 GIR2 SZ EP       1517 33.16                             162   -0.1510 32.2 120 
 GIR2 SZ ES   1   1517 44.65                             162   -0.48 7 32.2 120 
 BAR2 SZ EP       1517 36.37                             142    0.4010 75.7 157 
 BAR2 SZ ES   1   1517 50.33                             142    0.48 7 75.7 157 
 BAR2 SZ I        1517 52.45        14.8 0.17                          75.7 157 
 PTB  HZ EP       1517 40.53                             124   -0.4410  135 236 
 PTB  HN ES   1   1517 58.48                             124   -0.28 7  135 236 
 PTB  HZ I        1518  3.51         5.6 0.23                           135 236 
 ZAR  HN ES   1   1518  3.75                             119    0.61 7  159 281 
 ZAR  HZ I        1518  5.97         9.7 0.29                           159 281 
                                                                                
