 2015  828 1151 29.9 L   6.821 -73.071142.9  RSN 11 0.4 1.9LRSN                1
 GAP=191        0.77       2.6     4.3  5.3 -0.3639E+00  0.4243E+01  0.1405E+01E
 Epicentro: LOS SANTOS - SANTANDER                                             3
 ACTION:UPD 15-09-15 23:05 OP:cam  STATUS:               ID:20150828115129 L   I
 OLDACT:REG 15-08-28 21:49 OP:spq  STATUS:               ID:20150828114750     3
 2015-08-28-1147-50M.COL___355                                                 6
 STAT SP IPHASW D HRMM SECON CODA AMPLIT PERI AZIMU VELO AIN AR TRES W  DIS CAZ7
 BAR2 EZ EP       1151 49.33                             168    0.0010 28.1 206 
 BAR2 EZ ES   1   1152  3.98                             168   -0.47 7 28.1 206 
 BAR2 EZ I        1152  5.50         9.6 0.24            167           28.1 206 
 BRR  HZ EP   1   1151 51.36                             150    0.21 7 77.6 294 
 BRR  HE ES       1152  7.74                             150    0.0410 77.6 294 
 BRR  HZ I        1152 12.69        11.7 0.42            147           77.6 294 
 RUS  HZ EP   1   1151 53.89                             143    0.33 7  103 181 
 RUS  HN ES   1   1152 12.29                             143    0.31 7  103 181 
 RUS  HZ I        1152 13.75         6.1 0.22            145            103 181 
 OCA  HE ES   1   1152 20.35                             129    0.60 7  159 350 
 OCA  HZ I        1152 24.77        17.2 0.18            130            159 350 
 SPBC HZ EP       1151 58.13                             127   -0.77 9  170 221 
 SPBC HN ES       1152 21.48                             127   -0.01 9  170 221 
 SPBC HZ I        1152 26.57        10.4 0.38            128            170 221 
 ZAR  HN ES       1152 28.48                             121   -0.15 8  211 291 
 ZAR  HZ I        1152 33.51         6.5 0.24            121            211 291 
 NOR  HZ EP   1   1152  5.88                             117   -0.50 6  243 235 
 NOR  HN ES       1152 34.77                             117   -0.03 8  243 235 
 NOR  HZ I        1152 39.04         6.6 0.18            118            243 235 
 SML  HZ EP       1152  6.59                             117    0.02 8  245 333 
 SML  HE ES   1   1152 34.91                             117   -0.23 6  245 333 
 SML  HZ I        1152 38.93         8.5 0.05            118            245 333 
 HEL  HE ES   1   1152 43.27                             113    0.31 6  281 256 
 HEL  HZ I        1152 47.86         5.7 0.36            114            281 256 
 GUY2CHE ES   1   1152 49.37                             111    0.41 5  309 235 
 GUY2CHZ I        1153  0.03         2.5 0.58                           309 235 
 PRA  HZ EP       1152 23.98                             106   -0.10 6  398 210 
 PRA  HN ES       1153  7.19                             106    0.88 6  398 210 
 PRA  HZ I        1153 11.32         1.9 0.42            107            398 210 
                                                                                
