 2012  228 1925 19.4 L   6.799 -73.187135.7  RSN 10 0.4 2.4LRSN                1
 GAP=131        0.80       3.8     4.1  6.5 -0.9223E+00  0.1200E+02  0.2791E+01E
 ACTION:UP  12-03-07 16:35 OP:epov STATUS:               ID:20120228192519 L   I
 2012-02-28-1920-00M.COL___191                                                 6
 STAT SP IPHASW D HRMM SECON CODA AMPLIT PERI AZIMU VELO AIN AR TRES W  DIS CAZ7
 BAR2 SZ EP       1925 37.76                             170   -0.0410 22.9 179 
 BAR2 SZ I        1925 38.07        48.0 0.10                          22.9 179 
 BAR2 SZ ES   1   1925 52.12                             170   -0.03 7 22.9 179 
 BRR  HZ EP       1925 39.51                             152    0.2810 67.3 300 
 BRR  HZ I        1925 57.19        78.7 0.14                          67.3 300 
 PAM  SZ EP   1   1925 40.62                             148   -0.12 7 80.4  42 
 PAM  SN ES   1   1925 57.64                             148    0.26 7 80.4  42 
 PAM  SZ I        1925 59.75        38.5 0.45                          80.4  42 
 RUS  HZ EP       1925 41.85                             142   -0.3410  101 173 
 RUS  HZ I        1925 43.00        27.5 0.15                           101 173 
 RUS  HN ES   1   1926  0.06                             142    0.09 7  101 173 
 PTB  HZ EP       1925 44.31                             131   -0.83 9  143 259 
 PTB  HN ES   1   1926  4.96                             131   -0.26 7  143 259 
 ZAR  HZ EP   1   1925 50.91                             121    0.15 6  200 293 
 ZAR  HN ES   1   1926 15.45                             121    0.22 6  200 293 
 ZAR  HZ I        1926 21.84        29.6 0.40                           200 293 
 NOR  SZ EP   1   1925 54.31                             117    0.16 6  231 234 
 NOR  SN ES   1   1926 21.88                             117    0.62 6  231 234 
 CHI  HZ EP   1   1925 56.36                             115   -0.05 6  247 194 
 CHI  HN ES   1   1926 25.80                             115    0.51 6  247 194 
 CHI  HZ I        1926 29.44        15.8 0.43                           247 194 
 HEL  HZ EP   1   1925 59.07                             113    0.46 6  268 256 
 GUY  SZ EP   1   1926  3.21                             110    0.82 5  300 235 
 GUY  SE ES   1   1926 35.39                             110   -0.53 5  300 235 
 GUY  SZ I        1926 46.49        16.1 0.32                           300 235 
                                                                                
