 2010  628 1736 33.5 L   6.773 -73.073151.1  RSN  9 0.4 2.3LRSN                1
 GAP=132        0.77       3.4     6.5  5.6 -0.9079E+01 -0.8939E+01  0.2659E+01E
 Epicentro: LOS SANTOS - SANTANDER                                             3
 ACTION:UP  10-08-24 10:13 OP:vdl  STATUS:               ID:20100628173633 L   I
 2010-06-28-1733-32S.COL___118                                                 6
 STAT SP IPHASW D HRMM SECON CODA AMPLIT PERI AZIMU VELO SNR AR TRES W  DIS CAZ7
 BAR2 SZ EP   1   1736 53.55                             171    -0.2 7   23 211 
 BAR2 SZ ES   1   1737  8.97                             171    -0.6 7   23 211 
 BRR  HZ IP     C 1736 55.55                             151    -0.210   80 298 
 BRR  HE ES       1737 13.03                             151     0.010   80 298 
 BRR  HZ I        1737 15.29        49.7 0.15                            80 298 
 RUS  HZ EP   1   1736 57.45                             146    -0.1 7   97 181 
 RUS  HE ES   1   1737 16.49                             146     0.2 7   97 181 
 RUS  HZ I        1737 18.07        12.1 0.42                            97 181 
 BRI  SZ IP       1736 58.22                             142     0.310  109  16 
 BRI  SZ ES   1   1737 17.51                             142     0.5 7  109  16 
 GRA  SZ IP       1736 59.45                             138     0.210  127  14 
 GRA  SZ ES   1   1737 19.30                             138    -0.1 7  127  14 
 OCA  SZ EP   1   1737  2.20                             130    -0.4 7  164 350 
 OCA  SZ I        1737 28.87        35.3 0.33                           164 350 
 CHI  HZ EP   2   1737 11.40                             118     0.0 4  248 197 
 CHI  HE ES   2   1737 41.13                             118     0.1 4  248 197 
 CHI  HZ I        1737 44.63        10.2 0.53                           248 197 
 SDV  BZ EP   1   1737 22.49                             109    -0.8 5  356  49 
 SDV  BZ I        1737 23.84         3.1 0.21                           356  49 
 PRA  HZ EP   1   1737 27.41                             107     0.1 4  393 211 
 PRA  HE ES   1   1738 10.17                             107     0.8 4  393 211 
 PRA  HZ I        1738 15.36        11.9 0.33                           393 211 
                                                                                
