 2012  628 1812 56.7 L   6.800 -73.154145.4  RSN  7 0.5 2.5LRSN                1
 GAP=135        1.05       5.8     6.2  9.5 -0.1283E+02  0.4476E+01  0.9938E+01E
 Epicentro: LOS SANTOS - SANTANDER                                             3
 ACTION:UPD 12-08-06 17:53 OP:ep   STATUS:               ID:20120628181256 L   I
 2012-06-28-1810-00M.COL___201                                                 6
 STAT SP IPHASW D HRMM SECON CODA AMPLIT PERI AZIMU VELO AIN AR TRES W  DIS CAZ7
 BAR2 SZ I        1813 16.39       101.8 0.42                          23.2 188 
 BAR2 SZ IP       1813 16.41                             171    0.1810 23.2 188 
 BRR  HZ IP       1813 18.33                             153    0.6210 70.4 299 
 BRR  HN ES   1   1813 34.92                             153    0.78 7 70.4 299 
 BRR  HZ I        1813 38.94        98.2 0.28                          70.4 299 
 PAM  SZ EP       1813 19.20                             151    0.3410 78.0  40 
 PAM  SN ES   1   1813 35.62                             151   -0.56 7 78.0  40 
 PAM  SZ I        1813 38.52        39.4 0.56                          78.0  40 
 RUS  HZ EP       1813 20.20                             144   -0.1710  101 176 
 RUS  HN ES   2   1813 38.52                             144   -0.34 5  101 176 
 RUS  HZ I        1813 39.73        26.5 0.36                           101 176 
 PTB  HZ EP       1813 22.94                             132   -0.56 9  147 259 
 PTB  HN ES   1   1813 43.70                             132   -0.74 7  147 259 
 PTB  HZ I        1813 51.52        41.4 0.40                           147 259 
 OCA  HZ EP       1813 24.54                             130   -0.38 9  160 353 
 OCA  HN ES   2   1813 46.44                             130   -0.53 5  160 353 
 OCA  HZ I        1813 52.65        64.9 0.44                           160 353 
 NOR  SZ EP       1813 32.65                             118    0.38 8  234 234 
 NOR  SN ES   1   1814  0.12                             118    0.06 6  234 234 
                                                                                
