 2017  128 1658 14.4 L   6.678 -73.192141.0  RSN  4 0.2 1.5LRSN                1
 GAP=224        0.43       4.9     3.0  4.1  0.5595E+01  0.2804E+01 -0.1660E+01E
 Epicentro: VILLANUEVA - SANTANDER                                             3
 ACTION:UPD 17-05-22 16:04 OP:jn   STATUS:               ID:20170128165814 L   I
 OLDACT:DUP 17-01-29 00:23 OP:dnl  STATUS:               ID:20170128164746d    3
 2017-01-28-1648-00M.COL___348                                                 6
 STAT SP IPHASW D HRMM SECON CODA AMPLIT PERI AZIMU VELO AIN AR TRES W  DIS CAZ7
 BAR2 EZ EP       1658 33.06                             176   -0.1610 9.53 174 
 BAR2 EZ ES       1658 48.11                             176    0.1810 9.53 174 
 BAR2 EZ I        1658 49.06         6.3 0.34            164           9.53 174 
 BRR  HZ EP       1658 35.30                             151    0.1010 74.6 310 
 BRR  HN ES       1658 51.28                             151   -0.1710 74.6 310 
 BRR  HZ I        1658 54.21        12.9 0.28            160           74.6 310 
 PTB  HZ EP   2   1658 40.50                             132    0.20 5  141 264 
 PTB  HN ES       1659  0.44                             132   -0.10 9  141 264 
 PTB  HZ I        1659  4.51         2.8 0.30            135            141 264 
 ZAR  HZ EP   2   1658 46.44                             121   -0.16 4  205 296 
 ZAR  HE ES       1659 11.90                             121    0.16 9  205 296 
 ZAR  HZ I        1659 18.77         3.1 0.40            127            205 296 
                                                                                
