 2016  528 1822 10.6 L   6.795 -73.176144.2  RSN  5 0.2 1.8LRSN                1
 GAP=142        0.46       3.5     3.2  4.6 -0.7257E+01  0.2692E+01 -0.9525E+00E
 Epicentro: LOS SANTOS - SANTANDER                                             3
 ACTION:UPD 16-08-18 17:50 OP:cam  STATUS:               ID:20160528182210 L   I
 OLDACT:DUP 16-05-28 23:46 OP:dnl  STATUS:               ID:20160528181744d    3
 OLDACT:REG 16-05-28 21:57 OP:mh   STATUS:               ID:20160528181743     3
 2016-05-28-1817-43M.COL___313                                                 6
 STAT SP IPHASW D HRMM SECON CODA AMPLIT PERI AZIMU VELO AIN AR TRES W  DIS CAZ7
 BAR2 EZ EP       1822 29.96                             171   -0.0810 22.4 182 
 BAR2 EZ ES       1822 45.07                             171   -0.1310 22.4 182 
 BAR2 EZ I        1822 46.66        13.3 0.14            171           22.4 182 
 PAM  EZ EP       1822 32.97                             150    0.1410 80.0  41 
 PAM  EE ES       1822 50.12                             150   -0.0310 80.0  41 
 PAM  EZ I        1822 52.23        14.3 0.52            153           80.0  41 
 RUS  HZ EP   2   1822 34.04                             144   -0.16 5  100 174 
 RUS  HN ES   2   1822 52.99                             144    0.40 5  100 174 
 RUS  HZ I        1822 54.26         8.4 0.26            146            100 174 
 PTB  HZ EP   2   1822 36.70                             132   -0.45 5  144 259 
 PTB  HE ES       1822 58.09                             132    0.25 9  144 259 
 PTB  HZ I        1823  2.61         3.7 0.14            133            144 259 
 SPBC HZ EP   3   1822 39.46                             129    0.70 2  161 218 
 SPBC HN ES       1823  0.56                             129   -0.14 9  161 218 
 SPBC HZ I        1823  3.77        15.2 0.10            130            161 218 
                                                                                
