 2011 1228 1828 18.4 L   6.800 -73.163141.8  RSN 12 0.5 2.8LRSN                1
 GAP=134        0.74       3.7     4.8  5.8 -0.1639E+01  0.8594E+01  0.3771E+01E
 Epicentro: LOS SANTOS - SANTANDER                                             3
 ACTION:UPD 12-07-13 16:19 OP:ep   STATUS:               ID:20111228182818 L   I
 2011-12-28-1827-49S.COL___157                                                 6
 STAT SP IPHASW D HRMM SECON CODA AMPLIT PERI AZIMU VELO AIN AR TRES W  DIS CAZ7
 GIR2 SZ EP   1   1828 37.62                             167    0.05 7 31.0 354 
 GIR2 SZ ES   2   1828 52.24                             167   -0.30 5 31.0 354 
 BRR  HZ EP   1   1828 39.39                             152    0.39 7 69.5 299 
 BRR  HN ES   1   1828 55.70                             152    0.61 7 69.5 299 
 PAM  SZ EP   1   1828 40.49                             150    0.25 7 78.6  41 
 PAM  SN ES   2   1828 57.07                             150   -0.23 5 78.6  41 
 PAM  SZ I        1828 59.34        27.4 0.15                          78.6  41 
 RUS  HZ EP   1   1828 41.56                             143   -0.19 7  101 175 
 RUS  HN ES   1   1828 59.90                             143   -0.09 7  101 175 
 RUS  HZ I        1829  2.69        57.6 0.35                           101 175 
 PTB  HZ EP   1   1828 44.03                             131   -0.82 7  146 259 
 PTB  HN ES   2   1829  4.75                             131   -0.76 5  146 259 
 OCA  SZ EP   1   1828 46.18                             129   -0.18 7  160 354 
 OCA  SZ ES   2   1829  8.11                             129   -0.07 5  160 354 
 OCA  SZ I        1829 12.93        74.2 0.35                           160 354 
 ZAR  HZ EP   1   1828 49.92                             122   -0.46 6  202 292 
 ZAR  HN ES   2   1829 15.20                             122   -0.15 4  202 292 
 ZAR  HZ I        1829 20.89        67.6 0.14                           202 292 
 NOR  SZ EP   1   1828 53.57                             118   -0.15 6  233 234 
 NOR  SE ES   2   1829 21.53                             118    0.25 4  233 234 
 GUY  SZ EP   1   1829  2.82                             111    0.92 5  302 235 
 GUY  SZ I        1829 46.30        50.3 0.45                           302 235 
 DBB  SZ EP   1   1829  5.74                             109    0.26 5  338 274 
 TOL  SZ EP   1   1829  7.27                             109    0.95 5  342 224 
 PRA  HZ EP   1   1829 11.42                             106   -0.24 4  391 209 
 PRA  HN ES   2   1829 52.71                             106   -0.51 3  391 209 
 PRA  HZ I        1829 56.67        91.0 0.21                           391 209 
                                                                                
