 2016  928 1631 12.5 L   6.809 -73.120157.9  RSN  5 0.3 1.4LRSN                1
 GAP=246        0.74       6.2     6.0  7.8  0.1851E+02 -0.9454E+01 -0.1282E+02E
 Epicentro: LOS SANTOS - SANTANDER                                             3
 ACTION:UPD 17-08-17 21:17 OP:lp   STATUS:               ID:20160928163112 L   I
 OLDACT:UP  16-09-29 00:20 OP:edw  STATUS:               ID:20160928162733     3
 OLDACT:UP  16-09-29 00:14 OP:edw  STATUS:               ID:20160928162733     3
 OLDACT:REG 16-09-28 21:20 OP:edw  STATUS:               ID:20160928162733     3
 2016-09-28-1628-00M.COL___378                                                 6
 STAT SP IPHASW D HRMM SECON CODA AMPLIT PERI AZIMU VELO AIN AR TRES W  DIS CAZ7
 RUS  HZ EP       1631 37.66                             146    0.1910  101 178 
 RUS  HE ES       1631 56.88                             146   -0.1110  101 178 
 RUS  HZ I        1631 58.34         1.8 0.20            141            101 178 
 PTB  HZ EP       1631 40.92                             134    0.23 9  151 259 
 PTB  HE ES       1632  2.62                             134   -0.10 9  151 259 
 PTB  HZ I        1632  5.88         2.9 0.13            130            151 259 
 SPBC HZ EP       1631 42.30                             131    0.16 9  166 220 
 SPBC HN ES       1632  5.11                             131   -0.19 9  166 220 
 SPBC HZ I        1632 11.73         4.1 0.20            127            166 220 
 ZAR  HN ES   2   1632 12.08                             125    0.02 4  206 292 
 CHI  HZ EP       1631 50.28                             119   -0.76 8  250 196 
 CHI  HN ES       1632 21.62                             119    0.49 8  250 196 
 CHI  HZ I        1632 26.01         1.7 0.16            117            250 196 
                                                                                
