 2013  128 1131 31.9 L   6.784 -73.149145.6  RSN  5 0.3 1.7LRSN                1
 GAP=236        0.75       4.7     5.5  5.8  0.1129E+02  0.2384E+01  0.6030E+01E
 Epicentro: LOS SANTOS - SANTANDER                                             3
 ACTION:UPD 13-02-15 09:17 OP:ep   STATUS:               ID:20130128113131 L   I
 2013-01-28-1130-00M.COL___239                                                 6
 STAT SP IPHASW D HRMM SECON CODA AMPLIT PERI AZIMU VELO AIN AR TRES W  DIS CAZ7
 BAR2 SZ EP       1131 51.33                             171   -0.1410 21.5 190 
 BAR2 SZ ES   1   1132  6.24                             171   -0.50 7 21.5 190 
 BAR2 SZ I        1132  7.47        18.9 0.39            168           21.5 190 
 BRR  HZ EP       1131 53.32                             152    0.2610 71.8 300 
 BRR  HZ I        1131 58.93        12.2 0.49            150           71.8 300 
 BRR  HE ES       1132  9.96                             152    0.3910 71.8 300 
 RUS  HZ EP       1131 55.63                             144    0.1310 98.8 176 
 RUS  HE ES       1132 13.86                             144   -0.0610 98.8 176 
 RUS  HE I        1132 16.12        10.4 0.20            142           98.8 176 
 PTB  HZ EP       1131 58.22                             132   -0.57 9  147 259 
 PTB  HE ES       1132 19.71                             132   -0.06 9  147 259 
 PTB  HZ I        1132 22.95         4.1 0.23            129            147 259 
 CHI  HZ EP       1132  9.61                             117    0.22 8  247 195 
 CHI  HE ES   1   1132 38.94                             117    0.31 6  247 195 
 CHI  HZ I        1132 44.63         1.9 0.53            116            247 195 
                                                                                
