 2011  928 1731 39.1 L   6.849 -73.113131.2  RSN  4 0.3 1.5LRSN                1
 GAP=187        0.60       6.4    11.6  7.8  0.5764E+02 -0.5831E+02 -0.3000E+02E
 Epicentro: LOS SANTOS - SANTANDER                                             3
 ACTION:UPD 12-07-13 16:00 OP:ep   STATUS:               ID:20110928173139 L   I
 2011-09-28-1728-00S.COL___162                                                 6
 STAT SP IPHASW D HRMM SECON CODA AMPLIT PERI AZIMU VELO AIN AR TRES W  DIS CAZ7
 BAR2 SZ EP       1731 57.28                             167    0.1110 29.4 195 
 BAR2 SZ I        1731 57.67         6.8 0.05                          29.4 195 
 BAR2 SZ ES   1   1732 11.06                             167   -0.18 7 29.4 195 
 BRR  HZ EP       1731 58.96                             149    0.1710 72.1 293 
 BRR  HZ I        1732 11.77        13.7 0.47                          72.1 293 
 BRR  HE ES       1732 14.01                             149   -0.1110 72.1 293 
 RUS  HZ EP   1   1732  1.35                             139   -0.54 7  106 178 
 RUS  HZ I        1732  2.07         2.9 0.37                           106 178 
 RUS  HN ES   1   1732 20.00                             139    0.35 7  106 178 
 OCA  SZ EP   1   1732  5.95                             127    0.07 7  155 352 
 OCA  SZ I        1732  9.80         3.2 0.31                           155 352 
                                                                                
