 2016 1028 1719 33.3 L   6.779 -73.130146.0  RSN  7 0.6 1.7LRSN                1
 GAP=140        1.09       5.5     5.9  7.4 -0.8862E+01  0.1265E+02  0.4726E+01E
 Epicentro: LOS SANTOS - SANTANDER                                             3
 ACTION:UPD 16-11-09 19:23 OP:rebc STATUS:               ID:20161028171933 L   I
 OLDACT:UP  16-10-29 00:11 OP:dani STATUS:               ID:20161028171747     3
 OLDACT:UP  16-10-29 00:09 OP:dani STATUS:               ID:20161028171747     3
 OLDACT:UP  16-10-29 00:08 OP:dani STATUS:               ID:20161028171747     3
 OLDACT:REG 16-10-28 20:50 OP:edw  STATUS:               ID:20161028171747     3
 2016-10-28-1718-00M.COL___348                                                 6
 STAT SP IPHASW D HRMM SECON CODA AMPLIT PERI AZIMU VELO AIN AR TRES W  DIS CAZ7
 BAR2 EZ EP       1719 52.75                             171   -0.1810 21.4 196 
 BAR2 EZ ES       1720  8.09                             171   -0.1410 21.4 196 
 BAR2 EZ I        1720  8.80        15.4 0.42            171           21.4 196 
 BRR  HZ EP       1719 54.30                             152   -0.3310 73.9 299 
 BRR  HN ES       1720 11.56                             152    0.2910 73.9 299 
 BRR  HZ I        1720 12.33        15.4 0.30            152           73.9 299 
 PAM  EZ EP       1719 55.75                             151    0.1610 78.1  37 
 PAM  EN ES       1720 13.28                             151    0.3110 78.1  37 
 PAM  EZ I        1720 14.72         6.5 0.58            152           78.1  37 
 RUS  HZ EP       1719 56.75                             145   -0.1610 98.1 177 
 RUS  HE ES       1720 15.35                             145    0.0410 98.1 177 
 RUS  HZ I        1720 16.42         4.1 0.32            145           98.1 177 
 PTB  HZ EP       1719 59.81                             132   -0.60 9  149 260 
 PTB  HN ES   2   1720 20.61                             132   -0.94 5  149 260 
 PTB  HZ I        1720 22.82         8.6 0.14            132            149 260 
 NOR  HZ EP   4   1720  5.91                             119   -3.15 0  235 235 
 NOR  HN ES       1720 37.01                             119    0.07 8  235 235 
 NOR  HZ I        1720 39.09         4.1 0.20            119            235 235 
 GUY2CHZ EP       1720 17.64                             112    0.70 7  301 235 
 GUY2CHN ES   2   1720 53.70                             112    2.73 4  301 235 
 GUY2CHZ I        1720 57.41         2.2 0.42                           301 235 
                                                                                
