 2013 1228 1224 18.3 L   6.809 -73.165138.4  RSN  5 0.2 1.6LRSN                1
 GAP=199        0.39       3.4     3.0  5.4  0.3164E+01  0.4423E+01 -0.6113E+01E
 Epicentro: LOS SANTOS - SANTANDER                                             3
 ACTION:UPD 14-01-13 10:21 OP:ep   STATUS:               ID:20131228122418 L   I
 OLDACT:DUP 13-12-28 16:32 OP:jn   STATUS:               ID:20131228122002d    3
 OLDACT:REG 13-12-28 14:31 OP:jn   STATUS:               ID:20131228122000     3
 2013-12-28-1220-00M.COL___285                                                 6
 STAT SP IPHASW D HRMM SECON CODA AMPLIT PERI AZIMU VELO AIN AR TRES W  DIS CAZ7
 BAR2 SZ EP       1224 37.12                             170    0.1010 24.0 185 
 BAR2 SZ ES       1224 51.57                             170   -0.0810 24.0 185 
 BAR2 SZ I        1224 53.52        11.9 0.50            165           24.0 185 
 RUS  HN ES       1224 59.44                             142    0.0310  102 175 
 PTB  HZ EP   2   1224 44.10                             130   -0.36 5  146 258 
 PTB  HN ES       1225  4.87                             130   -0.02 9  146 258 
 PTB  HZ I        1225 12.42         4.9 0.46            129            146 258 
 ZAR  HN ES   2   1225 15.17                             121    0.44 4  202 292 
 SML  HE ES   2   1225 22.24                             116   -0.15 4  242 336 
                                                                                
