 2012  728 1539 48.2 L   6.794 -73.161141.6  RSN  8 0.4 2.3LRSN                1
 GAP=135        1.06       5.0     5.4  8.7 -0.3794E+01  0.1038E+02 -0.5327E+01E
 Epicentro: LOS SANTOS - SANTANDER                                             3
 ACTION:UPD 12-08-14 11:46 OP:ep   STATUS:               ID:20120728153948 L   I
 2012-07-28-1540-00M.COL___215                                                 6
 STAT SP IPHASW D HRMM SECON CODA AMPLIT PERI AZIMU VELO AIN AR TRES W  DIS CAZ7
 BAR2 SZ EP       1540  7.53                             171     0.210   22 186 
 BAR2 SZ ES   1   1540 21.54                             171    -0.7 7   22 186 
 BAR2 SZ I        1540 23.61        48.4 0.37            172             22 186 
 BRR  HZ EP       1540  9.32                             152     0.510   70 300 
 BRR  HZ I        1540  9.50        66.5 0.15            151             70 300 
 BRR  HN ES   1   1540 25.61                             152     0.7 7   70 300 
 PAM  SZ EP       1540 10.29                             149     0.210   79  40 
 PAM  SN ES   1   1540 27.09                             149    -0.1 7   79  40 
 RUS  HZ EP   1   1540 11.81                             143     0.3 7  100 175 
 RUS  HN ES   1   1540 29.62                             143    -0.1 7  100 175 
 RUS  HZ I        1540 31.60        17.7 0.35            146            100 175 
 PTB  HZ EP   1   1540 14.13                             131    -0.6 7  146 259 
 PTB  HN ES   1   1540 34.84                             131    -0.5 7  146 259 
 PTB  HZ I        1540 36.99         9.7 0.20            132            146 259 
 OCA  HZ EP   1   1540 15.91                             128    -0.3 7  161 354 
 OCA  HN ES   1   1540 37.71                             128    -0.4 7  161 354 
 OCA  HZ I        1540 41.32        40.9 0.27            130            161 354 
 ZAR  HZ EP   1   1540 19.53                             122    -0.7 6  203 292 
 ZAR  HN ES   1   1540 45.76                             122     0.5 6  203 292 
 ZAR  HZ I        1540 51.38        16.8 0.25            122            203 292 
 NOR  SN ES   1   1540 51.23                             118     0.2 6  233 234 
