 2014  128 1101 43.2 L   6.263 -73.672 19.9  RSN  4 0.1 1.5LRSN                1
 GAP=167        0.34       2.0     1.1  6.5  0.7043E+00  0.2296E+01 -0.3435E-01E
 Epicentro: SANTA HELENA DEL OPON - SANTANDER                                  3
 ACTION:UPD 14-03-13 09:59 OP:ep   STATUS:               ID:20140128110143 L   I
 OLDACT:UP  14-02-03 10:19 OP:ep   STATUS:               ID:20140128110143 L   3
 OLDACT:REG 14-01-28 16:37 OP:fm   STATUS:               ID:20140128110000     3
 2014-01-28-1100-00M.COL___285                                                 6
 STAT SP IPHASW D HRMM SECON CODA AMPLIT PERI AZIMU VELO AIN AR TRES W  DIS CAZ7
 BAR2 SZ EP   1   11 1 54.32                             105    0.05 7 65.3  56 
 BAR2 SZ ES   1   11 2  2.89                             105   -0.01 7 65.3  56 
 BAR2 SZ I        11 2  3.77        66.4 0.19            117           65.3  56 
 RUS  HZ EP   1   11 1 56.06                             103   -0.20 7 77.0 122 
 RUS  HN ES   1   11 2  6.59                             103    0.16 7 77.0 122 
 RUS  HZ I        11 2  6.98         4.1 0.34            111           77.0 122 
 PTB  HZ EP       11 1 57.92                             100   -0.0610 92.0 289 
 PTB  HN ES   1   11 2  9.58                             100    0.08 7 92.0 289 
 PTB  HZ I        11 2 10.35        15.7 0.14            103           92.0 289 
 SML  HZ EP   2   11 2 22.76                              55    0.15 4  284 351 
 SML  HN ES   4   11 2 49.50                              55   -3.83 0  284 351 
 SML  HZ I        11 2 51.18         2.2 0.18             92            284 351 
                                                                                
