 2010  428 1828 41.6 L   6.863 -73.237127.9  RSN 11 0.5 2.5LRSN                1
 GAP=142        0.75       3.8     5.9  6.5 -0.1150E+02  0.2006E+00  0.5115E+01E
 Epicentro: ZAPATOCA - SANTANDER                                               3
 ACTION:UPD 10-08-24 10:01 OP:vdl  STATUS:               ID:20100428182841 L   I
 2010-04-28-1827-06S.COL___104                                                 6
 STAT SP IPHASW D HRMM SECON CODA AMPLIT PERI AZIMU VELO AIN AR TRES W  DIS CAZ7
 BAR2 SZ IP       1828 59.10                             166    -0.110   31 169 
 BAR2 SZ ES   2   1829 12.45                             166    -0.6 5   31 169 
 BRR  HZ IP     D 1829  0.24                             153     0.110   59 297 
 BRR  HZ I        1829  0.49        92.6 0.11                            59 297 
 BRR  HE ES   1   1829 14.76                             153     0.2 7   59 297 
 BRI  SZ IP       1829  3.32                             137    -0.310  106  27 
 GUE  SZ IP       1829  4.44                             136     0.110  112  18 
 GUE  SZ ES   1   1829 21.86                             136    -0.2 7  112  18 
 GRA  SZ ES   2   1829 24.67                             133     1.4 5  123  23 
 OCA  SZ IP       1829  7.73                             126     0.0 9  152 357 
 OCA  SZ ES   1   1829 28.08                             126    -0.1 7  152 357 
 CHI  HZ EP   2   1829 19.25                             112     0.4 4  253 193 
 CHI  HE ES   2   1829 48.04                             112     0.1 4  253 193 
 CHI  HZ I        1829 53.25        11.7 0.53                           253 193 
 HEL  HZ EP   2   1829 20.46                             111     0.4 4  264 254 
 HEL  HN ES   2   1829 49.68                             111    -0.4 4  264 254 
 HEL  HZ I        1829 53.70        16.1 0.34                           264 254 
 RREF BZ EP   2   1829 27.75                             107     1.1 3  319 227 
 RREF BE ES   2   1830  1.75                             107    -0.1 3  319 227 
 RREF BZ I        1830  7.09        12.8 0.27                           319 227 
 DBB  SZ EP   2   1829 26.02                             106    -1.1 3  329 273 
 PRA  HZ EP   2   1829 34.65                             103     0.0 3  393 208 
 PRA  HE ES   2   1830 16.33                             103     0.2 3  393 208 
 PRA  HZ I        1830 23.81        17.8 0.43                           393 208 
                                                                                
