 2013 1128 1622  3.3 L   6.804 -73.171150.9  RSN  5 0.4 1.6LRSN                1
 GAP=133        0.93       8.5     5.4  7.8 -0.1858E+02 -0.2142E+01  0.1986E+02E
 Epicentro: LOS SANTOS - SANTANDER                                             3
 ACTION:UPD 14-01-09 16:31 OP:ep   STATUS:               ID:20131128162203 L   I
 OLDACT:REG 13-11-28 14:59 OP:cam  STATUS:               ID:20131128162000     3
 2013-11-28-1620-00M.COL___282                                                 6
 STAT SP IPHASW D HRMM SECON CODA AMPLIT PERI AZIMU VELO AIN AR TRES W  DIS CAZ7
 BAR2 SZ EP       1622 23.59                             171    0.0610 23.4 183 
 BAR2 SZ ES       1622 39.45                             171    0.1210 23.4 183 
 BAR2 SZ I        1622 41.28        10.3 0.32            169           23.4 183 
 BRR  HN ES       1622 42.21                             154    0.5410 68.6 299 
 PAM  SZ EP       1622 26.49                             151    0.3510 78.9  41 
 PAM  SN ES       1622 43.37                             151   -0.5910 78.9  41 
 PAM  SZ I        1622 43.90         4.2 0.18            154           78.9  41 
 RUS  HZ EP   1   1622 27.67                             145    0.08 7  101 174 
 PTB  HZ EP       1622 30.26                             134   -0.18 9  145 258 
 PTB  HN ES       1622 51.20                             134   -0.42 9  145 258 
 PTB  HZ I        1622 53.55         9.3 0.14            134            145 258 
                                                                                
