 2013 1228 1412 40.0 L   6.764 -73.163139.8  RSN  6 0.5 1.6LRSN                1
 GAP=136        1.31       6.4     6.0  8.8 -0.9313E+01  0.1255E+02  0.7365E+01E
 Epicentro: LOS SANTOS - SANTANDER                                             3
 ACTION:UPD 14-01-13 10:21 OP:ep   STATUS:               ID:20131228141240 L   I
 OLDACT:REG 13-12-28 14:36 OP:jn   STATUS:               ID:20131228141001d    3
 2013-12-28-1410-00M.COL___285                                                 6
 STAT SP IPHASW D HRMM SECON CODA AMPLIT PERI AZIMU VELO AIN AR TRES W  DIS CAZ7
 BAR2 SZ EP       1412 58.89                             172    0.0410 19.1 186 
 BAR2 SZ ES       1413 12.54                             172   -1.0010 19.1 186 
 BAR2 SZ I        1413 17.71        14.9 0.44            169           19.1 186 
 BRR  HZ EP       1413  0.86                             151    0.3210 71.5 302 
 BRR  HN ES       1413 17.41                             151    0.8610 71.5 302 
 PAM  SZ EP       1413  1.74                             148   -0.1310 81.7  39 
 PAM  SN ES       1413 18.86                             148   -0.0610 81.7  39 
 PAM  SZ I        1413 19.54         5.8 0.28            154           81.7  39 
 RUS  HZ EP       1413  2.89                             144   -0.0210 96.8 175 
 RUS  HN ES       1413 21.45                             144    0.6910 96.8 175 
 RUS  HZ I        1413 23.88         2.8 0.26            144           96.8 175 
 PTB  HZ EP       1413  5.63                             131   -0.63 9  145 260 
 PTB  HN ES       1413 26.40                             131   -0.33 9  145 260 
 PTB  HZ I        1413 29.50         6.4 0.18            132            145 260 
 NOR  HZ EP       1413 15.30                             118    0.32 8  231 235 
 NOR  HN ES       1413 42.16                             118   -0.10 8  231 235 
 NOR  HZ I        1413 49.17         4.5 0.18            119            231 235 
                                                                                
