 2013 1128 1524 55.5 L   6.816 -73.136152.9  RSN  6 0.2 2.0LRSN                1
 GAP=152        0.53       2.8     3.7  3.9 -0.3899E+01  0.3198E+01  0.8368E-01E
 Epicentro: LOS SANTOS - SANTANDER                                             3
 ACTION:UPD 14-01-09 16:31 OP:ep   STATUS:               ID:20131128152455 L   I
 OLDACT:UP  13-11-28 15:56 OP:cam  STATUS:               ID:20131128152001d    3
 OLDACT:DUP 13-11-28 15:53 OP:cam  STATUS:               ID:20131128152001d    3
 OLDACT:UP  13-11-28 15:53 OP:cam  STATUS:               ID:20131128152000     3
 OLDACT:REG 13-11-28 14:54 OP:cam  STATUS:               ID:20131128152000     3
 2013-11-28-1520-00M.COL___282                                                 6
 STAT SP IPHASW D HRMM SECON CODA AMPLIT PERI AZIMU VELO AIN AR TRES W  DIS CAZ7
 BAR2 SZ EP       1525 15.91                             170   -0.1510 25.3 192 
 BAR2 SZ ES       1525 31.90                             170   -0.1710 25.3 192 
 BAR2 SZ I        1525 33.38        25.3 0.18            162           25.3 192 
 BRR  HZ EP       1525 17.63                             154    0.1710 71.3 297 
 BRR  HN ES       1525 34.84                             154    0.2810 71.3 297 
 PAM  SZ EP       1525 18.67                             153    0.2710 75.4  40 
 PAM  SN ES       1525 36.09                             153   -0.1410 75.4  40 
 PAM  SZ I        1525 38.11        10.4 0.62            150           75.4  40 
 PTB  HZ EP   1   1525 23.28                             133    0.07 7  149 258 
 PTB  HZ I        1525 52.32         6.9 0.28            121            149 258 
 SPBC HZ EP       1525 24.77                             130   -0.01 9  165 219 
 SPBC HN ES       1525 47.51                             130   -0.07 9  165 219 
 SPBC HZ I        1525 53.79        16.8 0.38            119            165 219 
 SML  HZ EP   2   1525 32.18                             119   -0.27 4  243 335 
 SML  HE ES   1   1526  0.69                             119   -0.55 6  243 335 
 SML  HZ I        1526  5.03        17.2 0.10            111            243 335 
                                                                                
