 2013  228 1439 48.6 L   6.295 -73.714 95.6  RSN  8 0.5 2.0LRSN                1
 GAP= 62        1.29       4.9     4.4 11.1  0.6798E+01  0.2570E+02  0.1095E+02E
 Epicentro: SANTA HELENA DEL OPON - SANTANDER                                  3
 ACTION:UPD 13-03-12 09:36 OP:ep   STATUS:               ID:20130228143948 L   I
 2013-02-28-1438-48M.COL___203                                                 6
 STAT SP IPHASW D HRMM SECON CODA AMPLIT PERI AZIMU VELO AIN AR TRES W  DIS CAZ7
 BAR2 SZ EP       1440  4.83                             142    0.2110 67.4  61 
 BAR2 SZ ES       1440 17.86                             142    0.7110 67.4  61 
 BAR2 SZ I        1440 19.00        49.8 0.14            104           67.4  61 
 RUS  HZ EP       1440  6.19                             136   -0.0210 82.8 122 
 RUS  HN ES       1440 19.81                             136   -0.1710 82.8 122 
 PTB  HZ EP       1440  4.98                             135   -0.8910 86.4 288 
 PTB  HN ES       1440 18.80                             135   -0.5710 86.4 288 
 PTB  HN I        1440 19.56        24.6 0.18            101           86.4 288 
 BRR  HZ EP   1   1440  5.13                             133   -1.02 7 89.8   0 
 BRR  HN I        1440 21.92        21.0 0.22                          89.8   0 
 NOR  HZ EP       1440 12.44                             118    0.02 9  151 238 
 NOR  HN I        1440 34.66        23.4 0.16             81            151 238 
 ZAR  HZ EP       1440 16.06                             113    0.16 9  183 316 
 ZAR  HN ES       1440 37.67                             113    0.44 9  183 316 
 CHI  HN ES       1440 38.46                             113    0.10 9  184 181 
 CHI  HN I        1440 40.39         5.9 0.62             81            184 181 
 HEL  HZ EP       1440 18.57                             111    0.15 9  201 267 
 HEL  HN ES       1440 42.57                             111    0.85 9  201 267 
                                                                                
