 2013  128 1648 55.1 L   6.808 -73.137146.0  RSN 12 0.4 2.7LRSN                1
 GAP=137        0.91       3.0     3.7  5.1 -0.8042E+00  0.6016E+01  0.1346E+01E
 Epicentro: LOS SANTOS - SANTANDER                                             3
 ACTION:UPD 13-02-15 09:17 OP:ep   STATUS:               ID:20130128164855 L   I
 2013-01-28-1644-52M.COL___204                                                 6
 STAT SP IPHASW D HRMM SECON CODA AMPLIT PERI AZIMU VELO AIN AR TRES W  DIS CAZ7
 BAR2 SZ EP       1649 14.76                             170    0.0210 24.4 192 
 BAR2 SZ ES       1649 30.20                             170    0.1110 24.4 192 
 BAR2 SZ I        1649 31.27        96.9 0.16            163           24.4 192 
 BRR  HZ EP       1649 16.44                             152    0.1910 71.6 298 
 BRR  HN ES       1649 33.50                             152    0.7110 71.6 298 
 BRR  HN I        1649 37.25       204.5 0.14            147           71.6 298 
 PAM  SZ IP       1649 17.64                             151    0.4210 76.1  39 
 PAM  SN ES       1649 34.29                             151   -0.2210 76.1  39 
 RUS  HZ EP       1649 18.86                             144   -0.0310  101 177 
 RUS  HN ES       1649 37.12                             144   -0.3710  101 177 
 RUS  HN I        1649 38.63        68.1 0.08            136            101 177 
 PTB  HZ EP       1649 21.48                             132   -0.66 9  149 259 
 PTB  HN ES   1   1649 42.45                             132   -0.82 7  149 259 
 PTB  HZ I        1649 47.50        49.3 0.15            124            149 259 
 OCA  HZ EP       1649 22.76                             130   -0.55 9  159 353 
 OCA  HN ES   1   1649 45.53                             130    0.18 7  159 353 
 OCA  HZ I        1649 49.06        52.6 0.24            126            159 353 
 ZAR  HZ EP       1649 27.60                             122    0.03 9  205 292 
 ZAR  HE ES       1649 52.63                             122   -0.30 9  205 292 
 ZAR  HZ I        1649 59.64        47.2 0.18            116            205 292 
 NOR  HZ EP       1649 31.23                             118    0.29 8  236 234 
 NOR  HN ES       1649 58.92                             118   -0.01 8  236 234 
 NOR  HZ I        1650  5.18        29.8 0.12            112            236 234 
 CHI  HZ EP       1649 32.90                             117    0.01 8  250 195 
 CHI  HN ES       1650  2.73                             117    0.33 8  250 195 
 CHI  HZ I        1650 10.40        23.2 0.39            111            250 195 
 ROSC BZ EP   4   1649 35.22                             117    1.89 0  254 211 
 ROSC BZ I        1650 11.19        36.5 0.41            111            254 211 
 HEL  HZ EP   1   1649 35.97                             115    0.56 6  273 256 
 HEL  HN ES   1   1650  7.50                             115    0.62 6  273 256 
 HEL  HZ I        1650 14.65        17.1 0.23            109            273 256 
 DBB  SZ EP   1   1649 42.43                             110   -0.21 5  340 274 
                                                                                
