 2011 1028 1436  8.3 L   6.759 -73.096142.0  RSN  5 0.4 1.6LRSN                1
 GAP=145        1.07       7.0    11.7 10.6 -0.1008E+02  0.1132E+02 -0.4396E+01E
 Epicentro: LOS SANTOS - SANTANDER                                             3
 ACTION:UPD 12-07-13 16:06 OP:ep   STATUS:               ID:20111028143608 L   I
 2011-10-28-1434-58S.COL___175                                                 6
 STAT SP IPHASW D HRMM SECON CODA AMPLIT PERI AZIMU VELO AIN AR TRES W  DIS CAZ7
 BAR2 SZ EP       1436 27.10                             171   -0.3410 20.8 207 
 BAR2 SZ ES   1   1436 41.98                             171   -0.38 7 20.8 207 
 BAR2 SZ I        1436 43.36        13.1 0.44                          20.8 207 
 BTL  SZ EP       1436 28.55                             169    1.0010 25.8 313 
 PAM  SZ EP       1436 30.07                             150   -0.0810 77.7  34 
 PAM  SE ES   1   1436 47.09                             150   -0.09 7 77.7  34 
 BRR  HZ EP       1436 29.20                             149   -0.2710 78.1 300 
 BRR  HZ I        1436 33.95        13.5 0.38                          78.1 300 
 BRR  HN ES   2   1436 45.96                             149   -0.02 5 78.1 300 
 RUS  HZ EP       1436 31.08                             144   -0.2710 95.9 179 
 RUS  HN ES   1   1436 49.73                             144    0.40 7 95.9 179 
 RUS  HZ I        1436 51.44         3.8 0.44                          95.9 179 
                                                                                
