 2010  928 1645 27.5 L   6.744 -73.096144.4  RSN  7 0.4 1.7LRSN                1
 GAP=170        0.76       6.8     9.5 10.3  0.1083E+02 -0.2495E+02 -0.2214E+01E
 Epicentro: JORDAN - SANTANDER                                                 3
 ACTION:UP  11-02-18 11:06 OP:tino STATUS:               ID:20100928164527 L   I
 2010-09-28-1641-37S.COL___122                                                 6
 STAT SP IPHASW D HRMM SECON CODA AMPLIT PERI AZIMU VELO SNR AR TRES W  DIS CAZ7
 BAR2 SZ EP   1   1645 46.77                             172    -0.1 7   19 210 
 BAR2 SZ ES   2   1646  1.60                             172    -0.4 5   19 210 
 BAR2 SZ I        1646  2.81        14.6 0.17                            19 210 
 BTL  SZ EP   1   1645 47.86                             169     0.8 7   27 316 
 GIR2 SZ EP   2   1645 46.94                             164    -0.3 5   39 344 
 BRR  HZ EP   1   1645 48.53                             150    -0.4 7   79 301 
 BRR  HZ I        1645 48.99        17.2 0.22                            79 301 
 BRR  HN ES   1   1646  5.88                             150     0.2 7   79 301 
 RUS  HZ EP   1   1645 50.74                             145     0.1 7   94 179 
 RUS  HN ES   2   1646  8.73                             145     0.0 5   94 179 
 RUS  HZ I        1646 10.22         3.9 0.23                            94 179 
 GUE  SZ EP   2   1645 52.28                             138    -0.2 5  122   9 
 NOR  SE ES   2   1646 31.11                             118    -0.1 4  236 237 
                                                                                
