 2012 1128 1933 21.8 L   6.879 -73.400114.3  RSN  9 0.3 2.7LRSN                1
 GAP= 90        0.83       3.4     2.9  6.2  0.4114E+00  0.2669E+01 -0.6240E+01E
 Epicentro: SAN VICENTE DE CHUCURI - SANTANDER                                 3
 ACTION:UPD 12-12-05 15:36 OP:}ep  STATUS:               ID:20121128193321 L   I
 2012-11-28-1930-00M.COL___237                                                 6
 STAT SP IPHASW D HRMM SECON CODA AMPLIT PERI AZIMU VELO AIN AR TRES W  DIS CAZ7
 GIR2 SZ EP       1933 38.07                             163    0.3010 31.8  46 
 GIR2 SZ I        1933 52.01       130.7 0.48                          31.8  46 
 BAR2 SZ IP       1933 38.54                             160    0.3110 39.8 143 
 BAR2 SZ ES       1933 50.92                             160   -0.1210 39.8 143 
 BAR2 SZ I        1933 52.53       641.5 0.34                          39.8 143 
 PAM  SZ EP       1933 42.40                             138    0.4510 92.6  57 
 RUS  HZ EP       1933 43.67                             132   -0.1610  115 162 
 RUS  HE ES       1934  1.08                             132    0.0610  115 162 
 RUS  HE I        1934  2.87        59.2 0.31                           115 162 
 PTB  HZ IP     D 1933 43.26                             129   -0.6810  123 252 
 PTB  HN ES       1934  0.96                             129   -0.2610  123 252 
 PTB  HZ I        1934  4.86        73.9 0.21                           123 252 
 OCA  HZ EP   1   1933 46.60                             123   -0.29 7  151   3 
 OCA  HN ES   1   1934  5.96                             123   -0.50 7  151   3 
 OCA  HZ I        1934 11.35        39.6 0.22                           151   3 
 ZAR  HZ EP       1933 49.44                             119    0.23 9  175 293 
 ZAR  HN ES   1   1934 11.12                             119    0.52 7  175 293 
 ZAR  HZ I        1934 15.50        58.7 0.41                           175 293 
 TAM  HZ EP       1933 50.08                             117   -0.23 9  185 105 
 HEL  HZ EP   1   1933 58.15                             110    0.38 6  247 252 
 HEL  HN ES   1   1934 25.95                             110    0.12 6  247 252 
 HEL  HZ I        1934 31.53        53.5 0.43                           247 252 
                                                                                
