 2014 1128 1007 57.5 L   6.185 -73.190179.0  RSN 17 0.5 2.3LRSN                1
 GAP=137        1.06       3.3     3.7  5.2 -0.3310E+01  0.5234E+01  0.1941E+01E
 Epicentro: ENCINO - SANTANDER                                                 3
 ACTION:UPD 14-12-19 15:48 OP:nd   STATUS:               ID:20141128100758dL   I
 OLDACT:DUP 14-11-28 21:48 OP:fm   STATUS:               ID:20141128095750d    3
 OLDACT:REG 14-11-28 20:58 OP:fm   STATUS:               ID:20141128095749     3
 2014-11-28-0957-49M.COL___309                                                 6
 STAT SP IPHASW D HRMM SECON CODA AMPLIT PERI AZIMU VELO AIN AR TRES W  DIS CAZ7
 RUS  HZ EP       10 8 21.87                             169    0.0910 34.5 160 
 RUS  HN ES       10 8 40.51                             169   -0.1810 34.5 160 
 RUS  HZ I        10 8 42.87        14.6 0.24            170           34.5 160 
 BAR2 SZ EP     C 10 8 21.52                             165   -0.1710 45.0   1 
 BAR2 SZ ES       10 8 40.76                             165    0.2410 45.0   1 
 BAR2 SZ I        10 8 41.87        50.2 0.46            167           45.0   1 
 SPBC HZ EP       10 8 25.22                             146    0.2410  114 239 
 SPBC HE ES       10 8 46.64                             146    0.2510  114 239 
 SPBC HZ I        10 8 51.32        34.0 0.38            147            114 239 
 BRR  HZ EP       10 8 25.60                             145    0.5410  117 331 
 BRR  HN ES       10 8 46.96                             145    0.4310  117 331 
 BRR  HZ I        10 8 49.60        24.1 0.20            147            117 331 
 PAM  SZ EP       10 8 27.23                             141   -0.10 9  139  23 
 PAM  SN ES       10 8 50.18                             141   -0.39 9  139  23 
 PAM  SZ I        10 8 56.67         7.0 0.46            144            139  23 
 PTB  HZ EP       10 8 26.90                             139   -0.30 9  145 286 
 PTB  HN ES       10 8 50.77                             139    0.43 9  145 286 
 PTB  HZ I        10 8 52.04        29.3 0.34            140            145 286 
 CHI  HZ EP       10 8 30.37                             133   -0.51 9  182 199 
 CHI  HN ES       10 8 56.70                             133   -0.18 9  182 199 
 CHI  HZ I        10 8 59.72         7.1 0.34            134            182 199 
 NOR  HZ EP       10 8 32.33                             130    0.47 9  198 250 
 NOR  HN ES       10 8 57.95                             130   -0.68 9  198 250 
 NOR  HZ I        10 9  4.35        21.7 0.46            131            198 250 
 ZAR  HZ EP       10 8 34.68                             125   -0.61 8  234 308 
 ZAR  HN ES       10 9  4.31                             125   -0.43 8  234 308 
 ZAR  HZ I        10 9  6.09        23.5 0.20            127            234 308 
 HEL  HZ EP       10 8 38.35                             122    0.09 8  259 270 
 HEL  HN ES       10 9  9.22                             122   -0.81 8  259 270 
 HEL  HZ I        10 9 14.67        14.2 0.28            124            259 270 
 GUY2CHZ EP       10 8 40.19                             122    1.32 8  263 246 
 GUY2CHE ES       10 9 11.35                             122    0.25 8  263 246 
 GUY2CHZ I        10 9 16.87        11.5 0.56                           263 246 
 TOL  SZ EP       10 8 42.23                             119    0.20 7  295 233 
 TOL  SN ES       10 9 16.70                             119   -0.03 7  295 233 
 TOL  SZ I        10 9 19.51        10.2 0.32            120            295 233 
 URE  HZ EP   4   10 8 42.07                             117   -1.31 0  311 304 
 URE  HN ES   4   10 9 17.00                             117   -2.15 0  311 304 
 URE  HZ I        10 9 20.16        19.9 0.22            119            311 304 
 CBOC HZ EP       10 8 44.60                             117    0.69 7  314 264 
 CBOC HN ES       10 9 20.42                             117    0.34 7  314 264 
 CBOC HZ I        10 9 25.01        11.2 0.58            118            314 264 
 ORTC HZ EP       10 8 45.90                             115   -0.60 7  340 222 
 ORTC HN ES       10 9 23.99                             115   -0.70 7  340 222 
 ORTC HZ I        10 9 29.55         4.3 0.44            117            340 222 
 PAL  HZ EP       10 8 50.17                             113    0.15 6  371 248 
 PAL  HN ES       10 9 31.08                             113    0.13 6  371 248 
 PAL  HZ I        10 9 38.76         5.6 0.30            114            371 248 
 MON  HZ EP   4   10 8 51.00                             111   -1.78 0  396 317 
 MON  HN ES       10 9 34.99                             111   -0.87 6  396 317 
 MON  HZ I        10 9 36.53         4.9 0.18            113            396 317 
                                                                                
