 2016 1028 1403  3.3 L   5.986 -74.009 84.5  RSN  5 0.2 1.0LRSN                1
 GAP=145        0.54       2.7     1.5  5.9 -0.1749E+01 -0.8052E+00  0.6332E+01E
 Epicentro: LA BELLEZA - SANTANDER                                             3
 ACTION:UPD 16-11-09 19:23 OP:rebc STATUS:               ID:20161028140303 L   I
 OLDACT:UP  16-10-28 23:28 OP:edw  STATUS:               ID:20161028135744     3
 OLDACT:REG 16-10-28 20:29 OP:edw  STATUS:               ID:20161028135744     3
 2016-10-28-1358-00M.COL___349                                                 6
 STAT SP IPHASW D HRMM SECON CODA AMPLIT PERI AZIMU VELO AIN AR TRES W  DIS CAZ7
 PTB  HZ EP       14 3 19.15                             133    0.2110 78.7 321 
 PTB  HN ES       14 3 31.08                             133   -0.0910 78.7 321 
 PTB  HZ I        14 3 34.24         2.0 0.22            138           78.7 321 
 RUS  HZ EP       14 3 21.78                             125   -0.1210  103  96 
 RUS  HN ES       14 3 36.54                             125    0.1010  103  96 
 NOR  HZ EP       14 3 21.28                             124   -0.3510  106 244 
 NOR  HN ES       14 3 35.98                             124    0.0210  106 244 
 NOR  HZ I        14 3 39.13         4.2 0.38            130            106 244 
 BAR2 EZ EP       14 3 22.47                             122   -0.1710  113  54 
 BAR2 EZ ES       14 3 37.85                             122    0.1010  113  54 
 BAR2 EZ I        14 3 41.99         1.9 0.07            128            113  54 
 GUY2CHZ EP       14 3 29.80                             111    0.36 9  172 241 
 GUY2CHN ES       14 3 49.86                             111    0.01 9  172 241 
 GUY2CHZ I        14 3 54.47         1.4 0.50                           172 241 
                                                                                
