 2014  628 1219 43.1 L   6.829 -73.150147.0  RSN  8 0.5 1.7LRSN                1
 GAP=135        1.14       3.7     5.0  7.3 -0.4432E+00  0.1342E+02  0.3738E+00E
 Epicentro: LOS SANTOS - SANTANDER                                             3
 ACTION:UPD 14-07-01 22:57 OP:nd   STATUS:               ID:20140628121943 L   I
 OLDACT:REG 14-06-28 22:00 OP:carl STATUS:               ID:20140628121821     3
 2014-06-28-1218-21M.COL___243                                                 6
 STAT SP IPHASW D HRMM SECON CODA AMPLIT PERI AZIMU VELO AIN AR TRES W  DIS CAZ7
 BAR2 SZ EP       1220  2.85                             169   -0.0910 26.4 188 
 BAR2 SZ ES       1220 18.57                             169    0.1510 26.4 188 
 BAR2 SZ I        1220 19.37         8.6 0.44            169           26.4 188 
 PAM  SZ EP       1220  5.69                             152    0.3710 75.3  41 
 PAM  SN ES       1220 22.85                             152    0.1910 75.3  41 
 PAM  SZ I        1220 24.86         6.2 0.22            153           75.3  41 
 RUS  HZ EP       1220  6.77                             143   -0.4310  104 176 
 RUS  HN ES       1220 25.84                             143   -0.1610  104 176 
 RUS  HZ I        1220 26.33         6.5 0.38            143            104 176 
 PTB  HZ EP       1220  9.60                             132   -0.57 9  148 258 
 PTB  HN ES       1220 30.45                             132   -0.85 9  148 258 
 PTB  HZ I        1220 32.96         8.9 0.16            133            148 258 
 ZAR  HN ES       1220 41.23                             123    0.54 9  202 291 
 SML  HZ EP       1220 19.36                             118   -0.10 8  241 335 
 SML  HN ES       1220 47.77                             118   -0.05 8  241 335 
 CHI  HZ EP       1220 20.65                             117   -0.53 8  252 195 
 CHI  HN ES       1220 51.61                             117    0.73 8  252 195 
 CHI  HZ I        1220 55.45         2.8 0.76            117            252 195 
 GUY2CHZ EP       1220 27.72                             112    0.80 7  303 234 
 GUY2CHN ES       1221  1.84                             112    0.74 7  303 234 
 GUY2CHZ I        1221  9.61         4.2 0.72                           303 234 
                                                                                
