 2017  328 1304 24.1 L   6.805 -73.179144.0  RSN 14 0.4 2.2LRSN                1
 GAP=132        0.98       3.6     3.4  5.3 -0.3940E+00  0.5941E+01  0.2328E+01E
 Epicentro: ZAPATOCA - SANTANDER                                               3
 ACTION:UPD 17-05-25 18:46 OP:jn   STATUS:               ID:20170328130424 L   I
 OLDACT:REG 17-03-28 20:18 OP:lv   STATUS:               ID:20170328125740     3
 2017-03-28-1258-00M.COL___367                                                 6
 STAT SP IPHASW D HRMM SECON CODA AMPLIT PERI AZIMU VELO AIN AR TRES W  DIS CAZ7
 BAR2 EZ EP       13 4 43.26                             170   -0.2310 23.6 181 
 BAR2 EZ ES       13 4 58.25                             170   -0.3910 23.6 181 
 BAR2 EZ I        13 4 59.40        67.5 0.16            168           23.6 181 
 BRR  HZ EP       13 4 45.13                             154    0.3010 67.6 300 
 BRR  HN ES       13 5  1.95                             154    0.9310 67.6 300 
 BRR  HZ I        13 5  2.90        33.7 0.19            152           67.6 300 
 PAM  EZ EP       13 4 46.22                             150    0.0010 79.4  42 
 PAM  EE ES       13 5  3.37                             150   -0.1210 79.4  42 
 PAM  EZ I        13 5  7.73        19.2 0.45            154           79.4  42 
 RUS  HZ EP       13 4 47.65                             143   -0.0610  101 174 
 RUS  HN ES       13 5  6.38                             143    0.2310  101 174 
 RUS  HZ I        13 5  6.99        18.2 0.28            143            101 174 
 PTB  HZ EP       13 4 49.97                             132   -0.60 9  144 258 
 PTB  HN ES       13 5 10.81                             132   -0.43 9  144 258 
 PTB  HZ I        13 5 12.74        18.7 0.20            131            144 258 
 SPBC HZ EP       13 4 52.25                             129   -0.00 9  161 218 
 SPBC HN ES       13 5 14.21                             129   -0.03 9  161 218 
 SPBC HZ I        13 5 19.24        26.7 0.08            128            161 218 
 ZAR  HZ EP   4   13 4 57.35                             123    1.33 0  200 292 
 ZAR  HN ES       13 5 21.40                             123    0.46 9  200 292 
 ZAR  HZ I        13 5 27.40        22.0 0.23            122            200 292 
 NOR  HZ EP       13 4 59.60                             119    0.19 8  232 234 
 NOR  HN ES       13 5 26.87                             119   -0.10 8  232 234 
 NOR  HZ I        13 5 31.29        11.6 0.07            118            232 234 
 HEL  HZ EP   4   13 5  6.09                             115    2.29 0  269 255 
 HEL  HE ES       13 5 34.76                             115   -0.04 8  269 255 
 HEL  HZ I        13 5 43.18         8.2 0.47            114            269 255 
 URE  HZ EP       13 5  4.27                             114   -0.37 7  280 292 
 URE  HN ES       13 5 35.64                             114   -0.64 7  280 292 
 ELA  HZ EP   4   13 5 15.86                             110    5.30 0  327 229 
 ELA  HN ES   4   13 5 50.66                             110    3.83 0  327 229 
 ELA  HZ I        13 5 55.62         5.9 0.15            110            327 229 
 PRA  HZ EP       13 5 17.71                             106    0.34 6  391 209 
 PRA  HN ES   4   13 5 57.73                             106   -1.22 0  391 209 
 PRA  HZ I        13 6  6.42         4.3 0.29            106            391 209 
 ORTC HZ EP       13 5 18.70                             106    0.98 6  394 216 
 ORTC HN ES   4   13 6  1.76                             106    2.18 0  394 216 
 ORTC HZ I        13 6  6.54         3.5 0.18            106            394 216 
 PAL  HZ EP   9   13 5 17.61                             106   -1.22 0  403 239 
 PAL  HN ES       13 6  0.84                                    0.52 6  403 239 
 PAL  HZ I        13 6  3.73         2.2 0.16            106            403 239 
 SJC  HZ EP   4   13 5 17.94                             106   -1.34 0  407 327 
 SJC  HN ES   4   13 5 58.61                             106   -3.73 0  407 327 
                                                                                
