 2013  528 1938  0.7 L   6.781 -73.125150.1  RSN  4 0.2 2.0LRSN                1
 GAP=190        0.61       3.9     4.3  5.1  0.4424E+01  0.2268E+01  0.3850E+01E
 Epicentro: LOS SANTOS - SANTANDER                                             3
 ACTION:UPD 13-06-20 09:54 OP:ep   STATUS:               ID:20130528193759 L   I
 OLDACT:UP  13-05-31 22:29 OP:Juan STATUS:               ID:20130528193759 L   3
 2013-05-28-1928-50M.COL___218                                                 6
 STAT SP IPHASW D HRMM SECON CODA AMPLIT PERI AZIMU VELO AIN AR TRES W  DIS CAZ7
 GIR2 SZ EP       1938 20.52                             167   -0.3910 33.8 347 
 GIR2 SZ ES       1938 36.67                             167   -0.0410 33.8 347 
 BRR  HZ EP       1938 22.68                             152    0.2410 74.2 299 
 BRR  HN ES       1938 39.63                             152    0.2010 74.2 299 
 BRR  HE I        1938 43.44        17.1 0.18            151           74.2 299 
 RUS  HZ EP       1938 24.97                             145    0.2910 98.3 177 
 RUS  HN ES       1938 43.32                             145   -0.0910 98.3 177 
 RUS  HE I        1938 45.25        11.4 0.46            146           98.3 177 
 PTB  HZ EP       1938 28.00                             133   -0.14 9  150 260 
 PTB  HN ES       1938 49.48                             133   -0.11 9  150 260 
 PTB  HE I        1938 54.30        15.1 0.32            132            150 260 
                                                                                
