 2015 1228 1031 23.3 L   6.630 -73.586 96.0  RSN  7 0.4 1.5LRSN                1
 GAP= 86        0.75       4.6     3.5  7.2 -0.2973E+01  0.7194E+01 -0.1369E+02E
 Epicentro: EL CARMEN - SANTANDER                                              3
 ACTION:UPD 16-02-04 15:08 OP:cam  STATUS:               ID:20151228103123 L   I
 OLDACT:REG 15-12-28 20:09 OP:dnl  STATUS:               ID:20151228102747     3
 2015-12-28-1027-47M.COL___332                                                 6
 STAT SP IPHASW D HRMM SECON CODA AMPLIT PERI AZIMU VELO AIN AR TRES W  DIS CAZ7
 BAR2 EZ IP     C 1031 38.22                             154    0.2610 44.9  95 
 BAR2 EZ ES       1031 49.45                             154    0.0810 44.9  95 
 BAR2 EZ I        1031 51.68        12.8 0.21            157           44.9  95 
 PTB  HZ IP     C 1031 41.28                             132   -0.3410 96.7 264 
 PTB  HN ES       1031 55.94                             132    0.0710 96.7 264 
 PTB  HZ I        1031 57.48         4.4 0.10            130           96.7 264 
 RUS  HZ EP   2   1031 42.00                             132   -0.45 5 98.7 146 
 RUS  HE ES   2   1031 56.79                             132   -0.56 5 98.7 146 
 RUS  HZ I        1031 59.47         3.0 0.15            133           98.7 146 
 SPBC HZ EP   2   1031 44.83                             125    0.77 5  121 206 
 SPBC HN ES   2   1032  0.43                             125    0.21 5  121 206 
 SPBC HZ I        1032  6.98         5.4 0.06            125            121 206 
 ZAR  HZ EP   4   1031 50.76                             115    1.55 0  170 304 
 ZAR  HE ES   4   1032 12.60                             115    3.21 0  170 304 
 ZAR  HZ I        1032 15.15         3.8 0.17            115            170 304 
 OCA  HZ EP   1   1031 49.93                             114   -0.66 7  180   9 
 OCA  HN ES   2   1032 11.90                             114    0.06 4  180   9 
 OCA  HZ I        1032 15.60        10.7 0.37            114            180   9 
 SML  HZ EP   1   1031 58.65                             107    0.65 6  246 347 
 SML  HE ES   4   1032 24.72                             107   -0.31 0  246 347 
 SML  HZ I        1032 30.45         4.9 0.07            107            246 347 
                                                                                
