 2011 1128 1354 54.8 L   6.767 -73.108135.1  RSN  4 0.1 1.8LRSN                1
 GAP=143        0.31       2.7     4.0  4.2 -0.2882E+01 -0.6683E+00  0.2465E+01E
 Epicentro: LOS SANTOS - SANTANDER                                             3
 ACTION:UPD 12-07-13 16:12 OP:ep   STATUS:               ID:20111128135454 L   I
 2011-11-28-1351-02S.COL___160                                                 6
 STAT SP IPHASW D HRMM SECON CODA AMPLIT PERI AZIMU VELO AIN AR TRES W  DIS CAZ7
 BAR2 SZ EP   1   1355 13.06                             171   -0.04 7 21.0 203 
 BAR2 SZ ES   2   1355 27.18                             171   -0.20 5 21.0 203 
 BAR2 SZ I        1355 29.58         6.0 0.49                          21.0 203 
 BRR  HZ EP   2   1355 14.95                             149   -0.19 5 76.6 299 
 BRR  HN ES   2   1355 31.20                             149    0.19 5 76.6 299 
 BRR  HE I        1355 35.69        27.1 0.29                          76.6 299 
 PAM  SZ EP   1   1355 15.99                             149    0.08 7 77.7  35 
 PAM  SN ES   1   1355 32.36                             149   -0.02 7 77.7  35 
 RUS  HZ EP   1   1355 17.24                             143    0.01 7 96.8 178 
 RUS  HE ES   2   1355 34.84                             143    0.11 5 96.8 178 
                                                                                
