 2012  928 1910 37.9 L   6.778 -73.103141.6  RSN 10 0.2 2.4LRSN                1
 GAP=143        0.48       2.2     2.5  3.4 -0.3996E+00  0.2625E+01  0.1799E+01E
 Epicentro: LOS SANTOS - SANTANDER                                             3
 ACTION:UPD 12-10-22 14:21 OP:ep   STATUS:               ID:20120928191037 L   I
 2012-09-28-1910-00M.COL___213                                                 6
 STAT SP IPHASW D HRMM SECON CODA AMPLIT PERI AZIMU VELO AIN AR TRES W  DIS CAZ7
 BAR2 SZ IP       1910 56.96                             171    0.0010 22.4 203 
 BAR2 SZ ES   1   1911 11.50                             171   -0.37 7 22.4 203 
 BAR2 SZ I        1911 12.59        77.9 0.28                          22.4 203 
 GIR2 SZ EP       1910 57.07                             165   -0.0610 34.7 343 
 GIR2 SZ ES   1   1911 11.96                             165   -0.21 7 34.7 343 
 PAM  SZ EP       1910 59.84                             150    0.2710 76.4  36 
 PAM  SN ES   1   1911 16.56                             150    0.05 7 76.4  36 
 PAM  SN I        1911 17.82        43.8 0.22                          76.4  36 
 BRR  HZ EP       1910 58.93                             150    0.0610 76.5 298 
 BRR  HN ES   1   1911 15.68                             150    0.42 7 76.5 298 
 RUS  HZ EP       1911  0.92                             144   -0.0810 97.9 179 
 RUS  HE ES   1   1911 19.13                             144    0.07 7 97.9 179 
 ZAR  HZ EP   1   1911  9.93                             121   -0.65 6  209 292 
 ZAR  HN ES   1   1911 36.01                             121   -0.10 6  209 292 
 ZAR  HN I        1911 42.36        48.9 0.40                           209 292 
 NOR  SN ES   1   1911 41.66                             117    0.15 6  237 236 
 CHI  HZ EP   2   1911 15.02                             116   -0.19 4  248 196 
 CHI  HN ES   2   1911 44.23                             116   -0.12 4  248 196 
 CHI  HN I        1911 50.99        11.0 0.34                           248 196 
 HEL  HZ EP   1   1911 18.39                             113    0.09 6  276 257 
 HEL  HN ES   1   1911 49.91                             113    0.05 6  276 257 
 HEL  HN I        1911 54.99        10.3 0.42                           276 257 
 PRA  HZ EP   1   1911 31.41                             106    0.15 4  392 210 
 PRA  HN ES   1   1912 13.23                             106    0.31 4  392 210 
 PRA  HN I        1912 17.74         4.9 0.56                           392 210 
                                                                                
