 2011  328 1455 46.3 L   6.831 -73.086146.4  RSN 11 0.4 2.2LRSN                1
 GAP=119        0.84       4.9     7.3 11.2 -0.1368E+02 -0.7730E+01  0.2972E+02E
 Epicentro: LOS SANTOS - SANTANDER                                             3
 ACTION:UP  11-06-16 14:36 OP:jfem STATUS:               ID:20110328145546 L   I
 2011-03-28-1454-34S.COL___137                                                 6
 STAT SP IPHASW D HRMM SECON CODA AMPLIT PERI AZIMU VELO SNR AR TRES W  DIS CAZ7
 BAR2 SZ IP       1456  6.03                             168    -0.110   29 202 
 BAR2 SZ I        1456 22.26        51.5 0.14                            29 202 
 GIR2 SZ EP   1   1456  6.11                             168     0.1 7   30 337 
 PAM  SZ EP   1   1456  8.97                             153     0.8 7   71  37 
 PAM  SZ I        1456 28.01        16.1 0.26                            71  37 
 BRR  HZ EP       1456  7.82                             151     0.010   76 294 
 BRR  HE ES   2   1456 24.35                             151    -0.2 5   76 294 
 BRR  HZ I        1456 29.49        36.6 0.17                            76 294 
 GRA  SZ IP       1456 10.88                             139    -0.310  121  15 
 GRA  SZ ES   1   1456 30.14                             139    -0.5 7  121  15 
 GRA  SZ I        1456 31.42        24.1 0.42                           121  15 
 OCA  SZ EP   1   1456 13.88                             130    -0.6 7  158 351 
 OCA  SZ ES   1   1456 37.10                             130     0.7 7  158 351 
 OCA  SZ I        1456 41.22        21.4 0.23                           158 351 
 YOP  SZ EP   1   1456 16.78                             126     0.3 7  179 156 
 YOP  SZ I        1456 19.14        13.5 0.21                           179 156 
 NOR  SZ EP   1   1456 22.69                             118    -0.2 6  242 235 
 NOR  SN ES   2   1456 51.76                             118     0.3 4  242 235 
 CHI  HZ EP   2   1456 24.42                             117    -0.2 4  254 196 
 CHI  HE ES   2   1456 54.01                             117    -0.5 4  254 196 
 CHI  HZ I        1457  0.46         6.7 0.45                           254 196 
 HEL  HZ EP   2   1456 27.51                             114     0.1 4  279 255 
 HEL  HZ I        1457  4.50        10.9 0.32                           279 255 
 PRA  HZ EP   1   1456 40.77                             106     0.2 4  398 210 
 PRA  HE ES   2   1457 23.01                             106     0.1 3  398 210 
                                                                                
