 2012  328 1338 26.8 L   6.738 -73.171152.7  RSN  4 0.1 1.3LRSN                1
 GAP=146        0.37       7.0     5.4  4.3  0.1045E+02  0.2547E+01  0.1497E+01E
 ACTION:UP  12-03-31 23:23 OP:EP   STATUS:               ID:20120328133826 L   I
 2012-03-28-1330-00M.COL___197                                                 6
 STAT SP IPHASW D HRMM SECON CODA AMPLIT PERI AZIMU VELO SNR AR TRES W  DIS CAZ7
 BAR2 SZ EP   1   1338 47.14                             174     0.0 7   16 185 
 BAR2 SZ ES   1   1339  2.97                             174     0.0 7   16 185 
 BAR2 SZ I        1339  3.95         4.9 0.27                            16 185 
 BRR  HZ EP   1   1338 48.91                             153     0.2 7   72 304 
 BRR  HE ES   1   1339  5.81                             153     0.0 7   72 304 
 PAM  SZ EP   2   1338 49.97                             150    -0.2 5   84  38 
 PAM  SZ I        1338 50.27         2.4 0.14                            84  38 
 PTB  HZ EP   1   1338 53.86                             134    -0.1 7  144 261 
 PTB  HZ I        1339 21.70         2.2 0.33                           144 261 
                                                                                
