 2016 1228 1214 41.5 L   6.850 -73.354122.5  RSN  7 0.6 1.4LRSN                1
 GAP=107        1.22       4.7     5.3  8.3  0.5443E+01  0.1586E+02  0.6693E+01E
 Epicentro: SAN VICENTE DE CHUCURI - SANTANDER                                 3
 ACTION:UPD 17-01-11 20:20 OP:rebc STATUS:               ID:20161228121441 L   I
 OLDACT:REG 16-12-28 21:01 OP:cog  STATUS:               ID:20161228120750     3
 2016-12-28-1208-00M.COL___369                                                 6
 STAT SP IPHASW D HRMM SECON CODA AMPLIT PERI AZIMU VELO AIN AR TRES W  DIS CAZ7
 BAR2 EZ EP       1214 58.79                             163    0.1010 34.2 146 
 BAR2 EZ ES       1215 11.71                             163   -0.3710 34.2 146 
 BRR  HZ EP       1214 59.25                             157    0.3110 48.7 306 
 BRR  HE ES       1215 13.37                             157    0.8510 48.7 306 
 BRR  HZ I        1215 15.77        14.9 0.32            157           48.7 306 
 PAM  EZ EP       1215  2.37                             141    0.1010 90.3  53 
 PAM  EN ES       1215 17.79                             141   -0.6510 90.3  53 
 RUS  HZ EP       1215  3.83                             136   -0.0310  110 164 
 RUS  HE ES       1215 21.64                             136    0.3710  110 164 
 RUS  HZ I        1215 22.44         2.3 0.24            138            110 164 
 PTB  HZ EP       1215  4.23                             131   -0.4610  127 254 
 PTB  HN ES   3   1215 20.94                             131   -1.81 2  127 254 
 ZAR  HZ EP       1215 10.80                             120    0.73 9  181 293 
 ZAR  HN ES       1215 31.70                             120   -0.63 9  181 293 
 CHI  HZ EP   3   1215 19.58                             112    1.48 2  249 190 
 CHI  HN ES       1215 46.18                             112   -0.44 8  249 190 
                                                                                
