 2010  828 1512  1.7 L   6.782 -73.062143.8  RSN  4 0.2 1.6LRSN                1
 GAP=199        0.63       9.6    10.1 10.7  0.1769E+02 -0.7404E+02 -0.3553E+02E
 Epicentro: LOS SANTOS - SANTANDER                                             3
 ACTION:UP  10-09-07 10:58 OP:vdl  STATUS:               ID:20100828151201 L   I
 2010-08-28-1508-16S.COL___120                                                 6
 STAT SP IPHASW D HRMM SECON CODA AMPLIT PERI AZIMU VELO SNR AR TRES W  DIS CAZ7
 BAR2 SZ EP   1   1512 21.36                             170     0.2 7   25 213 
 BAR2 SZ ES   2   1512 36.08                             170    -0.2 5   25 213 
 BAR2 SZ I        1512 37.92         7.7 0.64                            25 213 
 BRR  HZ EP       1512 23.12                             149    -0.110   80 297 
 BRR  HE ES       1512 40.04                             149     0.110   80 297 
 BRR  HZ I        1512 44.19         9.2 0.50                            80 297 
 BTN  SZ EP       1512 23.46                             149    -0.310   82 357 
 GRA  SZ EP   1   1512 27.14                             137     0.4 7  125  13 
                                                                                
