 2012 1228 1757 34.0 L   6.759 -73.130151.2  RSN  7 0.4 2.2LRSN                1
 GAP=184        0.96       5.8     5.6  6.7  0.7024E+01  0.4482E+01 -0.2030E+01E
 Epicentro: LOS SANTOS - SANTANDER                                             3
 ACTION:UPD 13-01-04 14:31 OP:ep   STATUS:               ID:20121228175734 L   I
 2012-12-28-1750-00M.COL___242                                                 6
 STAT SP IPHASW D HRMM SECON CODA AMPLIT PERI AZIMU VELO AIN AR TRES W  DIS CAZ7
 BAR2 SZ IP       1757 54.35                             173    0.1010 19.3 198 
 BAR2 SZ ES       1758  9.49                             173   -0.5210 19.3 198 
 BAR2 SZ I        1758 10.99        76.0 0.17                          19.3 198 
 BRR  HZ IP     C 1757 56.27                             152    0.2810 75.0 301 
 BRR  HN ES       1758 13.87                             152    0.7610 75.0 301 
 BRR  HZ I        1758 16.62        25.5 0.21                          75.0 301 
 RUS  HZ EP       1757 57.93                             146   -0.0710 95.9 177 
 RUS  HN ES   1   1758 16.83                             146    0.14 7 95.9 177 
 RUS  HN I        1758 18.65        15.6 0.47                          95.9 177 
 PTB  HZ EP       1758  1.25                             133   -0.29 9  149 261 
 PTB  HE ES       1758 22.47                             133   -0.51 9  149 261 
 PTB  HZ I        1758 29.71        17.5 0.26                           149 261 
 OCA  HZ EP   1   1758  3.10                             130   -0.12 7  165 353 
 ZAR  HZ EP   1   1758  6.92                             123   -0.27 6  207 293 
 ZAR  HE ES   1   1758 32.59                             123   -0.45 6  207 293 
 ZAR  HZ I        1758 38.83        20.3 0.41                           207 293 
 NOR  HZ EP   1   1758 10.71                             120    0.75 6  234 236 
 NOR  HE ES   1   1758 38.34                             120    0.35 6  234 236 
 NOR  HZ I        1758 42.45        12.3 0.24                           234 236 
                                                                                
