 2011  328 1302 52.2 L   6.737 -73.077139.6  RSN  5 0.4 2.0LRSN                1
 GAP=257        0.88       7.2    11.0  8.9 -0.3395E+01  0.2348E+02  0.3168E+02E
 Epicentro: JORDAN - SANTANDER                                                 3
 ACTION:UP  11-06-16 14:36 OP:jfem STATUS:               ID:20110328130252 L   I
 2011-03-28-1259-00S.COL___132                                                 6
 STAT SP IPHASW D HRMM SECON CODA AMPLIT PERI AZIMU VELO SNR AR TRES W  DIS CAZ7
 BAR2 SZ IP       13 3 11.19                             171     0.210   20 216 
 BAR2 SZ I        13 3 11.57        25.8 0.10                            20 216 
 BAR2 SZ ES   1   13 3 25.17                             171    -0.5 7   20 216 
 BRR  HZ EP       13 3 13.16                             148    -0.110   81 300 
 BRR  HE ES   1   13 3 30.24                             148     0.5 7   81 300 
 BRR  HZ I        13 3 34.40        24.9 0.28                            81 300 
 NOR  SZ EP       13 3 27.18                             117    -0.6 8  237 237 
 NOR  SE ES   2   13 3 55.16                             117    -0.4 4  237 237 
 CHI  HZ EP   3   13 3 29.33                             116     0.3 2  244 197 
 CHI  HE ES   2   13 3 57.98                             116     0.2 4  244 197 
 CHI  HZ I        13 4  2.08         5.8 0.56                           244 197 
 PRA  HZ EP       13 3 45.55                             106     0.4 6  390 211 
 PRA  HE ES   1   13 4 27.40                             106     0.8 4  390 211 
                                                                                
