 2011  928 1115 51.1 L   6.019 -73.800100.4  RSN  4 0.2 1.4LRSN                1
 GAP=147        0.48       3.1     2.7  7.3 -0.3212E+01  0.8144E+01 -0.2358E+01E
 Epicentro: EL PEON - SANTANDER                                                3
 ACTION:UPD 12-07-13 16:00 OP:ep   STATUS:               ID:20110928111551 L   I
 2011-09-28-1112-07S.COL___165                                                 6
 STAT SP IPHASW D HRMM SECON CODA AMPLIT PERI AZIMU VELO AIN AR TRES W  DIS CAZ7
 RUS  HZ EP   1   1116  8.95                             138   -0.02 7 80.5 100 
 RUS  HE ES   1   1116 22.73                             138   -0.21 7 80.5 100 
 RUS  HZ I        1116 25.84         3.7 0.33                          80.5 100 
 BAR2 SZ EP       1116  9.96                             133    0.2610 93.2  47 
 BAR2 SZ ES   1   1116 24.36                             133    0.13 7 93.2  47 
 BAR2 SZ I        1116 28.03         5.2 0.41                          93.2  47 
 BRR  HZ EP   1   1116 11.57                             125   -0.41 7  121   5 
 BRR  HZ I        1116 17.19        10.5 0.33                           121   5 
 BRR  HN ES   1   1116 28.26                             125   -0.03 7  121   5 
 NOR  SZ EP   1   1116 12.86                             123    0.01 7  129 247 
 NOR  SN ES   1   1116 29.90                             123    0.05 7  129 247 
                                                                                
