 2016  228 1057  6.9 L   6.208 -73.749 96.0  RSN  4 0.3 1.0LRSN                1
 GAP=206        0.64       4.5     4.4  6.4 -0.1240E+02  0.3558E+01  0.1468E+01E
 Epicentro: LANDAZURI - SANTANDER                                              3
 ACTION:UPD 16-03-04 21:30 OP:rebc STATUS:               ID:20160228105706 L   I
 OLDACT:UP  16-02-28 23:00 OP:mh   STATUS:               ID:20160228104748     3
 OLDACT:REG 16-02-28 21:14 OP:mh   STATUS:               ID:20160228104748     3
 2016-02-28-1047-48M.COL___306                                                 6
 STAT SP IPHASW D HRMM SECON CODA AMPLIT PERI AZIMU VELO AIN AR TRES W  DIS CAZ7
 SPBC HZ EP       1057 22.72                             141   -0.3510 71.1 210 
 SPBC HN ES       1057 35.85                             141    0.1610 71.1 210 
 SPBC HZ I        1057 38.42         5.6 0.24            142           71.1 210 
 BAR2 EZ EP   1   1057 23.74                             140    0.10 7 75.7  56 
 BAR2 EZ ES       1057 36.88                             140    0.1810 75.7  56 
 BAR2 EZ I        1057 39.20         6.2 0.22            143           75.7  56 
 RUS  HZ EP       1057 24.17                             138   -0.2910 81.5 115 
 RUS  HN ES       1057 38.13                             138   -0.0410 81.5 115 
 RUS  HZ I        1057 39.74         0.7 0.24            139           81.5 115 
 CHI  HZ EP   1   1057 34.35                             115    0.55 7  175 179 
 CHI  HN ES   2   1057 54.96                             115    0.16 4  175 179 
 CHI  HZ I        1057 58.26         0.9 0.46            116            175 179 
                                                                                
