 2010 1228 1058 55.9 L   6.796 -73.089143.3  RSN  4 0.2 1.3LRSN                1
 GAP=165        0.39       3.6    15.1  5.7 -0.2655E+02 -0.3615E+02  0.2257E+01E
 Epicentro: LOS SANTOS - SANTANDER                                             3
 ACTION:UP  11-01-14 15:27 OP:pat  STATUS:               ID:20101228105855 L   I
 2010-12-28-1055-13S.COL___136                                                 6
 STAT SP IPHASW D HRMM SECON CODA AMPLIT PERI AZIMU VELO SNR AR TRES W  DIS CAZ7
 BTL  SZ EP   1   1059 15.35                             170     0.1 7   24 304 
 BTL  SZ ES   2   1059 30.47                             170     0.1 5   24 304 
 BAR2 SZ EP   1   1059 15.07                             170    -0.2 7   25 205 
 BAR2 SZ ES   2   1059 30.13                             170    -0.2 5   25 205 
 BAR2 SZ I        1059 31.47         6.7 0.39                            25 205 
 RUS  HZ EP   1   1059 19.50                             143     0.2 7  100 180 
 RUS  HN ES   2   1059 37.63                             143     0.0 5  100 180 
 RUS  HZ I        1059 39.67         1.5 0.23                           100 180 
 GRA  SZ EP   1   1059 20.67                             137    -0.1 7  124  15 
 GRA  SZ ES   2   1059 40.42                             137     0.2 5  124  15 
 GRA  SZ I        1059 41.13         4.3 0.43                           124  15 
                                                                                
