 2014 1128 1434  4.4 L   6.828 -73.202134.9  RSN 14 0.5 2.1LRSN                1
 GAP=128        1.11       3.5     4.0  5.9 -0.2239E+01  0.8681E+01  0.3402E+01E
 Epicentro: ZAPATOCA - SANTANDER                                               3
 ACTION:UPD 14-12-19 15:48 OP:nd   STATUS:               ID:20141128143404 L   I
 OLDACT:REG 14-11-28 21:12 OP:fm   STATUS:               ID:20141128142747     3
 2014-11-28-1427-47M.COL___309                                                 6
 STAT SP IPHASW D HRMM SECON CODA AMPLIT PERI AZIMU VELO AIN AR TRES W  DIS CAZ7
 BAR2 SZ EP       1434 22.98                             168    0.1810 26.1 175 
 BAR2 SZ ES       1434 37.13                             168   -0.0110 26.1 175 
 BAR2 SZ I        1434 38.69        29.2 0.32            167           26.1 175 
 BRR  HZ EP       1434 24.25                             153    0.2610 64.3 299 
 BRR  HN ES       1434 39.62                             153    0.3610 64.3 299 
 BRR  HZ I        1434 47.04        19.1 0.38            151           64.3 299 
 PAM  SZ IP     D 1434 25.89                             148    0.2910 79.2  44 
 PAM  SN ES       1434 42.56                             148    0.4410 79.2  44 
 PAM  SZ I        1434 45.03        29.7 0.50            156           79.2  44 
 RUS  HZ EP       1434 26.84                             140   -0.5510  104 173 
 RUS  HN ES       1434 45.18                             140   -0.1310  104 173 
 RUS  HZ I        1434 47.00         7.6 0.22            143            104 173 
 PTB  HZ EP       1434 29.15                             130   -0.85 9  142 257 
 PTB  HE ES       1434 50.09                             130    0.13 9  142 257 
 PTB  HZ I        1434 52.52        22.0 0.16            131            142 257 
 OCA  HN ES       1434 51.84                             128   -0.86 9  157 355 
 SPBC HZ EP       1434 31.61                             127   -0.35 9  162 217 
 SPBC HE ES       1434 53.09                             127   -0.36 9  162 217 
 SPBC HZ I        1435  0.34        13.5 0.20            128            162 217 
 ZAR  HZ EP       1434 35.93                             121    0.49 9  197 292 
 ZAR  HN ES       1434 59.22                             121   -0.42 9  197 292 
 ZAR  HZ I        1435  7.53        22.8 0.28            122            197 292 
 NOR  HZ EP       1434 39.60                             116    0.42 8  232 233 
 NOR  HE ES       1435  6.11                             116   -0.19 8  232 233 
 NOR  HZ I        1435 10.76        12.4 0.40            118            232 233 
 HEL  HZ EP       1434 44.42                             113    0.92 8  267 255 
 HEL  HN ES       1435 14.07                             113    0.08 8  267 255 
 HEL  HZ I        1435 21.33         8.2 0.40            115            267 255 
 GUY2CHZ EP       1434 47.51                             110    0.35 7  298 234 
 GUY2CHE ES   4   1435 22.94                             110    2.43 0  298 234 
 GUY2CHZ I        1435 29.32         6.8 0.56                           298 234 
 RREF HN ES   4   1435 28.55                             109    3.35 0  319 228 
 RREF HZ I        1435 36.63         5.7 0.30            111            319 228 
 TOL  SZ EP       1434 51.50                             107   -0.50 7  341 224 
 TOL  SN ES       1435 30.04                             107    0.92 7  341 224 
 TOL  SZ I        1435 40.25         9.8 0.36            109            341 224 
 ORTC HZ EP       1434 57.73                             104   -0.11 6  394 215 
 SJC  HN ES   4   1435 37.74                             104   -3.71 0  403 327 
                                                                                
