 2015  128 1514 43.9 L   6.593 -73.589111.6  RSN  7 0.2 1.5LRSN                1
 GAP=143        0.61       3.0     2.3  5.3 -0.3595E+01  0.2186E+01  0.1220E+00E
 Epicentro: EL CARMEN - SANTANDER                                              3
 ACTION:UPD 15-03-02 15:43 OP:nd   STATUS:               ID:20150128151443 L   I
 OLDACT:REG 15-01-28 20:19 OP:spq  STATUS:               ID:20150128150749     3
 2015-01-28-1507-49M.COL___268                                                 6
 STAT SP IPHASW D HRMM SECON CODA AMPLIT PERI AZIMU VELO AIN AR TRES W  DIS CAZ7
 BAR2 EZ EP       1515  0.52                             157    0.2810 45.0  90 
 BAR2 EZ ES   1   1515 13.20                             157    0.20 7 45.0  90 
 BAR2 EZ I        1515 14.14        27.6 0.46            158           45.0  90 
 RUS  HZ EP       1515  3.66                             137   -0.3710 95.5 144 
 RUS  HN ES   1   1515 19.44                             137   -0.30 7 95.5 144 
 RUS  HZ I        1515 20.84         2.4 0.28            138           95.5 144 
 PTB  HZ EP     C 1515  3.41                             136   -0.0110 96.1 267 
 PTB  HN ES       1515 18.46                             136   -0.2010 96.1 267 
 PTB  HZ I        1515 19.72         7.7 0.15            138           96.1 267 
 SPBC HZ EP       1515  5.81                             130    0.4310  117 207 
 SPBC HN ES       1515 22.32                             130    0.1710  117 207 
 SPBC HZ I        1515 25.49         7.0 0.10            131            117 207 
 PAM  SZ EP   1   1515  6.78                             127   -0.23 7  128  50 
 PAM  SN ES       1515 25.05                             127    0.0110  128  50 
 PAM  SZ I        1515 26.56         3.3 0.18            130            128  50 
 NOR  HZ EP   1   1515 12.13                             117    0.17 7  182 231 
 NOR  HE ES       1515 33.73                             117   -0.13 9  182 231 
 NOR  HZ I        1515 37.20         3.7 0.24            118            182 231 
 GUY2CHZ EP   4   1515 22.61                             109    2.65 0  248 233 
 GUY2CHN ES   1   1515 47.91                             109   -0.19 6  248 233 
 GUY2CHZ I        1515 54.43         3.2 0.28                           248 233 
                                                                                
