 2013  128 1859 58.7 L   6.723 -73.390128.3  RSN  5 0.2 1.6LRSN                1
 GAP=101        0.49       3.1     2.6  4.3  0.1001E+01  0.2666E+01  0.3178E+01E
 Epicentro: EL CARMEN DE CHUCURI - SANTANDER                                   3
 ACTION:UPD 13-02-15 09:17 OP:ep   STATUS:               ID:20130128185958 L   I
 2013-01-28-1900-00M.COL___241                                                 6
 STAT SP IPHASW D HRMM SECON CODA AMPLIT PERI AZIMU VELO AIN AR TRES W  DIS CAZ7
 BAR2 SZ ES       19 0 30.15                             167    0.0610 27.1 122 
 BAR2 SZ I        19 0 30.31        20.1 0.24            171           27.1 122 
 BRR  HZ EP       19 0 17.30                             155    0.1910 55.5 320 
 BRR  HE ES       19 0 31.64                             155    0.1910 55.5 320 
 BRR  HE I        19 0 37.54        18.6 0.32            154           55.5 320 
 RUS  HZ EP       19 0 20.72                             141    0.1310 97.9 160 
 RUS  HE ES   1   19 0 37.53                             141   -0.11 7 97.9 160 
 RUS  HE I        19 0 39.52         4.7 0.57            144           97.9 160 
 PAM  SE ES   1   19 0 37.91                             139   -0.34 7  102  48 
 PTB  HZ EP       19 0 21.62                             134   -0.1210  120 260 
 PTB  HZ I        19 0 23.74         3.9 0.17            135            120 260 
 PTB  HN ES       19 0 39.47                             134   -0.2110  120 260 
                                                                                
