 2014  528 1953 11.8 L   6.775 -73.154138.4  RSN 14 0.5 2.2LRSN                1
 GAP=182        1.05       3.4     5.0  6.3  0.2276E+00  0.8879E+01  0.5467E+01E
 Epicentro: LOS SANTOS - SANTANDER                                             3
 ACTION:UPD 15-03-16 17:01 OP:nd   STATUS:               ID:20140528195311 L   I
 OLDACT:REG 14-05-28 22:18 OP:stll STATUS:               ID:20140528194818     3
 2014-05-28-1948-18M.COL___250                                                 6
 STAT SP IPHASW D HRMM SECON CODA AMPLIT PERI AZIMU VELO AIN AR TRES W  DIS CAZ7
 BAR2 SZ IP     D 1953 30.80                             171    0.3010 20.5 189 
 BAR2 SZ ES       1953 44.90                             171   -0.1710 20.5 189 
 BAR2 SZ I        1953 46.94        18.2 0.28            169           20.5 189 
 BRR  HZ IP     C 1953 32.70                             151    0.5010 71.8 301 
 BRR  HN ES       1953 48.94                             151    0.8410 71.8 301 
 BRR  HZ I        1953 53.48        22.8 0.28            149           71.8 301 
 RUS  HZ IP     C 1953 34.69                             143    0.0410 97.9 175 
 RUS  HN ES       1953 52.44                             143   -0.0210 97.9 175 
 RUS  HZ I        1953 54.30        28.6 0.32            144           97.9 175 
 PTB  HZ EP       1953 37.41                             131   -0.64 9  146 260 
 PTB  HN ES       1953 57.60                             131   -0.93 9  146 260 
 PTB  HZ I        1954  0.86        14.0 0.14            130            146 260 
 SPBC HZ EP   1   1953 39.72                             128    0.23 7  160 219 
 SPBC HN ES   1   1954  0.72                             128   -0.36 7  160 219 
 SPBC HZ I        1954  5.06        30.4 0.20            128            160 219 
 OCA  HE ES       1954  0.94                             127   -0.71 9  163 354 
 OCA  HZ I        1954  4.40        18.8 0.40            129            163 354 
 ZAR  HZ EP   1   1953 44.15                             121    0.34 6  204 293 
 ZAR  HN ES   1   1954  9.13                             121    0.37 6  204 293 
 ZAR  HZ I        1954 14.95        21.6 0.32            121            204 293 
 NOR  HE ES       1954 14.61                             117    0.40 8  232 235 
 NOR  HZ I        1954 16.64        11.0 0.16            117            232 235 
 CHI  HZ EP   1   1953 47.91                             116   -0.88 6  246 195 
 CHI  HN ES   1   1954 17.81                             116    0.17 6  246 195 
 CHI  HZ I        1954 22.62         5.7 0.40            117            246 195 
 GUY2CHZ EP   1   1953 55.35                             111    0.53 5  299 235 
 GUY2CHN ES   1   1954 28.20                             111   -0.17 5  299 235 
 GUY2CHZ I        1954 34.02         7.3 0.34                           299 235 
 RREF HZ EP   1   1953 57.73                             110    0.37 5  319 230 
 RREF HE ES   1   1954 32.82                             110   -0.06 5  319 230 
 RREF HZ I        1954 39.33         7.9 0.24            110            319 230 
 PRA  HZ EP       1954  4.83                             105    0.08 6  389 210 
 PRA  HE ES       1954 46.26                             105    0.22 6  389 210 
 PRA  HZ I        1954 53.92         4.9 0.31            106            389 210 
 ORTC HE ES   1   1954 46.44                             105   -0.34 4  393 216 
 ORTC HZ I        1954 53.86         5.1 0.34            106            393 216 
 SJC  HZ EP   4   1954  5.17                             104   -2.18 0  411 327 
 SJC  HN ES   4   1954 44.16                             104   -6.51 0  411 327 
 SJC  HZ I        1954 50.40         2.6 0.34            105            411 327 
                                                                                
