 2010  828 1432 18.7 L   6.760 -72.986142.0  RSN  4 0.2 1.6LRSN                1
 GAP=195        0.63       5.4     8.4  7.8  0.4885E+01 -0.2269E+02 -0.2563E+01E
 Epicentro: CEPITA - SANTANDER                                                 3
 ACTION:UP  10-09-07 10:58 OP:vdl  STATUS:               ID:20100828143218 L   I
 2010-08-28-1430-57S.COL___120                                                 6
 STAT SP IPHASW D HRMM SECON CODA AMPLIT PERI AZIMU VELO SNR AR TRES W  DIS CAZ7
 BAR2 SZ EP   1   1432 38.44                             167     0.4 7   29 230 
 BAR2 SZ ES   2   1432 52.69                             167    -0.4 5   29 230 
 BAR2 SZ I        1432 55.07         6.8 0.17                            29 230 
 BTN  SZ EP       1432 40.61                             148    -0.210   85 351 
 BTN  SZ ES   1   1432 58.27                                     0.3 7   85 351 
 BTN  SZ I        1432 59.46        33.5 0.07                            85 351 
 BRR  HZ EP       1432 40.41                             146    -0.210   89 296 
 BRR  HN ES       1432 57.73                             146     0.110   89 296 
 RUS  HN ES   2   1432 59.90                             143     0.1 5   97 186 
 RUS  HZ I        1433  4.17         2.4 0.27                            97 186 
                                                                                
