 2010  228 1127 29.4 L   6.911 -72.886132.5  RSN  4 0.3 1.8LRSN                1
 GAP=209        0.70       9.2    19.3 12.4  0.1405E+03 -0.1377E+03 -0.6439E+02E
 Epicentro: GUACA - SANTANDER                                                  3
 ACTION:UP  10-08-24 09:51 OP:vdl  STATUS:               ID:20100228112729 L   I
 2010-02-28-1124-26S.COL___093                                                 6
 STAT SP IPHASW D HRMM SECON CODA AMPLIT PERI AZIMU VELO SNR AR TRES W  DIS CAZ7
 BAR2 SZ IP       1127 48.71                             161     0.410   48 223 
 BAR2 SZ ES   2   1128  2.93                             161    -0.1 5   48 223 
 BRR  HZ IP       1127 50.49                             144    -0.210   94 283 
 BRR  HZ I        1127 50.65        10.8 0.15                            94 283 
 BRR  HN ES   2   1128  7.36                             144     0.1 5   94 283 
 RUS  BZ EP       1127 53.06                             138     0.010  115 191 
 RUS  BN ES   1   1128 10.95                             138    -0.5 7  115 191 
 RUS  BZ I        1128 12.76         5.1 0.24                           115 191 
 OCA  SZ EP   3   1127 55.68                             127    -0.5 2  154 342 
 OCA  SZ ES   3   1128 16.59                             127    -0.4 2  154 342 
 OCA  SZ I        1128 21.97        13.5 0.24                           154 342 
                                                                                
