 2013  728 1713 32.4 L   6.586 -73.201142.0  RSN  4 0.3 1.7LRSN                1
 GAP=215        0.62       9.2     8.2  9.7  0.5915E+02  0.3548E+01 -0.1185E+02E
 Epicentro: CABRERA - SANTANDER                                                3
 ACTION:UPD 13-08-12 10:40 OP:ep   STATUS:               ID:20130728171332 L   I
 OLDACT:DUP 13-07-28 16:39 OP:mh   STATUS:               ID:20130728170960d    3
 2013-07-28-1709-59M.COL___267                                                 6
 STAT SP IPHASW D HRMM SECON CODA AMPLIT PERI AZIMU VELO AIN AR TRES W  DIS CAZ7
 RUS  HZ EP   1   1713 54.27                             150    0.01 7 77.8 170 
 RUS  HN ES   1   1714 11.52                             150    0.21 7 77.8 170 
 RUS  HN I        1714 15.03         5.0 0.36            147           77.8 170 
 BRR  HE ES   2   1714  9.93                             149   -0.43 5 80.6 316 
 PTB  HZ EP   1   1713 58.00                             133   -0.28 7  139 268 
 PTB  HN ES   1   1714 18.22                             133   -0.23 7  139 268 
 PTB  HN I        1714 24.43         8.0 0.36            130            139 268 
 ZAR  HE ES   1   1714 31.20                             121    0.60 6  209 299 
 ZAR  HE I        1714 35.31         9.4 0.52            122            209 299 
                                                                                
