 2013 1028 1828  7.1 L   6.826 -73.173143.4  RSN  4 0.2 1.6LRSN                1
 GAP=199        0.51       3.3     4.1  7.6  0.5935E+01 -0.7497E+01 -0.1615E+02E
 Epicentro: LOS SANTOS - SANTANDER                                             3
 ACTION:UPD 13-11-25 09:24 OP:ep   STATUS:               ID:20131028182807 L   I
 OLDACT:REG 13-10-28 17:13 OP:nd   STATUS:               ID:20131028182000     3
 2013-10-28-1820-00M.COL___273                                                 6
 STAT SP IPHASW D HRMM SECON CODA AMPLIT PERI AZIMU VELO AIN AR TRES W  DIS CAZ7
 RUS  HZ EP       1828 30.71                             142   -0.1310  104 175 
 RUS  HN ES       1828 49.44                             142    0.0810  104 175 
 RUS  HZ I        1828 52.49         2.7 0.30            150            104 175 
 PTB  HZ EP       1828 33.52                             132   -0.14 9  145 258 
 PTB  HN ES       1828 54.45                             132    0.07 9  145 258 
 PTB  HZ I        1828 56.73         6.2 0.44            137            145 258 
 ZAR  HZ EP   4   1828 19.95                             122   -19.0 0  200 292 
 ZAR  HN ES   4   1829  5.11                             122    1.24 0  200 292 
 ZAR  HZ I        1829 10.68         3.7 0.26            127            200 292 
 SML  HZ EP       1828 43.56                             117    0.38 8  240 336 
 SML  HN ES       1829 11.11                             117   -0.20 8  240 336 
 SML  HZ I        1829 15.38         6.9 0.10            121            240 336 
                                                                                
