 2011  528 1513 49.3 L   6.774 -73.075150.8  RSN 12 0.3 2.5LRSN                1
 GAP=164        0.73       3.2     5.2  4.8 -0.7729E+01  0.4749E+01  0.1487E+01E
 Epicentro: LOS SANTOS - SANTANDER                                             3
 ACTION:UP  11-06-29 08:56 OP:tino STATUS:               ID:20110528151349 L   I
 2011-05-28-1512-35S.COL___115                                                 6
 STAT SP IPHASW D HRMM SECON CODA AMPLIT PERI AZIMU VELO SNR AR TRES W  DIS CAZ7
 BAR2 SZ IP       1514  9.48                             171     0.010   23 211 
 BAR2 SZ ES   1   1514 25.00                             171    -0.3 7   23 211 
 BAR2 SZ I        1514 27.18        63.6 0.25                            23 211 
 BTL  SZ EP   1   1514  9.72                             170     0.1 7   27 307 
 GIR2 SZ EP   1   1514  9.43                             166    -0.2 7   36 339 
 GIR2 SZ ES   1   1514 26.02                             166     0.4 7   36 339 
 BRR  HZ EP   1   1514 11.23                             151    -0.2 7   79 298 
 BRR  HN ES   1   1514 28.97                             151     0.2 7   79 298 
 BRR  HZ I        1514 30.64        84.8 0.20                            79 298 
 RUS  HZ EP   1   1514 13.28                             146     0.0 7   97 181 
 RUS  HN ES   1   1514 32.13                             146     0.1 7   97 181 
 RUS  HZ I        1514 33.14        29.2 0.23                            97 181 
 BRI  SZ EP   1   1514 13.99                             142     0.3 7  109  16 
 BRI  SZ ES   1   1514 33.04                             142     0.4 7  109  16 
 BRI  SZ I        1514 35.69        32.3 0.26                           109  16 
 GRA  SZ EP       1514 15.27                             138     0.210  126  14 
 GRA  SZ ES   1   1514 34.83                             138    -0.3 7  126  14 
 GRA  SZ I        1514 36.13        47.9 0.54                           126  14 
 OCA  SZ EP   1   1514 18.23                             130    -0.1 7  164 351 
 OCA  SZ ES   1   1514 40.33                             130    -0.7 7  164 351 
 NOR  SZ EP   1   1514 25.28                             119    -0.5 6  239 236 
 NOR  SN ES   1   1514 53.59                             119    -0.7 6  239 236 
 HEL  HZ EP   1   1514 30.95                             115     0.4 6  279 257 
 HEL  HN ES   2   1515  3.49                             115     0.8 4  279 257 
 HEL  HZ I        1515  8.15        12.5 0.27                           279 257 
 TOL  SZ EP   1   1514 38.31                             110     0.2 5  347 226 
 PRA  HZ EP   1   1514 43.23                             107     0.1 4  393 211 
 PRA  HN ES   1   1515 25.23                             107     0.1 4  393 211 
 PRA  HZ I        1515 29.53        41.4 0.32                           393 211 
                                                                                
