 2013  928 1655 48.5 L   6.801 -73.147139.9  RSN 15 0.5 2.6LRSN                1
 GAP= 71        1.18       3.0     3.4  5.8 -0.1492E+01  0.5209E+01  0.6633E+00E
 Epicentro: LOS SANTOS - SANTANDER                                             3
 ACTION:UPD 13-10-22 09:25 OP:ep   STATUS:               ID:20130928165548 L   I
 OLDACT:REG 13-09-28 15:58 OP:jn   STATUS:               ID:20130928164959     3
 2013-09-28-1649-59M.COL___272                                                 6
 STAT SP IPHASW D HRMM SECON CODA AMPLIT PERI AZIMU VELO AIN AR TRES W  DIS CAZ7
 BAR2 SZ EP       1656  7.67                             170    0.2310 23.4 190 
 BAR2 SZ ES       1656 21.94                             170   -0.2610 23.4 190 
 BAR2 SZ I        1656 23.56        71.1 0.16            167           23.4 190 
 BRR  HZ IP     C 1656  9.63                             152    0.6110 71.0 299 
 BRR  HN ES   1   1656 25.97                             152    0.95 7 71.0 299 
 BRR  HZ I        1656 29.73        55.0 0.20            147           71.0 299 
 PAM  SZ EP       1656 10.54                             150    0.4310 77.4  40 
 PAM  SN ES       1656 27.06                             150    0.1010 77.4  40 
 PAM  SZ I        1656 29.61        87.5 0.50            150           77.4  40 
 RUS  HZ EP       1656 11.58                             142   -0.1210  101 176 
 RUS  HN ES       1656 29.86                             142    0.0810  101 176 
 RUS  HZ I        1656 31.22        59.5 0.30            140            101 176 
 PTB  HZ EP       1656 14.56                             131   -0.44 9  148 259 
 PTB  HN ES       1656 35.02                             131   -0.64 9  148 259 
 PTB  HZ I        1656 39.40        43.2 0.18            127            148 259 
 TAM  HZ EP       1656 15.99                             129    0.24 9  155 105 
 TAM  HN ES   1   1656 36.90                             129   -0.09 7  155 105 
 OCA  HZ EP       1656 16.33                             128   -0.04 9  160 353 
 OCA  HN ES       1656 37.59                             128   -0.50 9  160 353 
 OCA  HZ I        1656 39.74        40.3 0.58            126            160 353 
 SPBC HZ EP       1656 16.73                             128    0.16 9  163 219 
 SPBC HN ES       1656 38.23                             128   -0.21 9  163 219 
 SPBC HZ I        1656 41.09        58.3 0.32            124            163 219 
 ZAR  HZ EP       1656 20.83                             121    0.26 9  204 292 
 ZAR  HN ES       1656 46.43                             121    0.86 9  204 292 
 ZAR  HZ I        1656 52.73        48.5 0.22            118            204 292 
 NOR  HZ EP       1656 24.17                             117    0.27 8  235 234 
 NOR  HE ES       1656 51.12                             117   -0.38 8  235 234 
 NOR  HZ I        1656 57.45        25.8 0.18            114            235 234 
 SML  HN EP       1656 23.72                             116   -1.09 8  244 335 
 SML  HE ES   1   1656 51.95                             116   -1.16 6  244 335 
 CHI  HZ EP       1656 25.87                             116   -0.03 8  249 195 
 CHI  HN ES       1656 54.17                             116   -0.88 8  249 195 
 CHI  HZ I        1656 58.52        16.4 0.54            113            249 195 
 HEL  HZ EP   1   1656 29.46                             113    1.04 6  272 256 
 HEL  HN ES       1656 58.98                             113   -0.57 8  272 256 
 HEL  HZ I        1657  7.12        23.6 0.36            111            272 256 
 GUY2CHZ EP       1656 32.31                             111    0.46 7  301 235 
 GUY2CHN ES       1657  6.23                             111    0.58 7  301 235 
 GUY2CHZ I        1657 12.71        23.2 0.28                           301 235 
 RREF HZ EP   1   1656 34.61                             110    0.21 5  322 229 
 RREF HZ I        1657 16.33        18.0 0.36            107            322 229 
                                                                                
