 2017  128 1826 51.9 L   6.778 -73.212148.2  RSN  4 0.3 1.3LRSN                1
 GAP=143        0.86       5.3     5.0  7.4 -0.8174E+01  0.1024E+02 -0.4300E+01E
 Epicentro: ZAPATOCA - SANTANDER                                               3
 ACTION:UPD 17-05-22 16:04 OP:jn   STATUS:               ID:20170128182651 L   I
 OLDACT:DUP 17-01-29 00:21 OP:dani STATUS:               ID:20170128181745d    3
 2017-01-28-1818-00M.COL___351                                                 6
 STAT SP IPHASW D HRMM SECON CODA AMPLIT PERI AZIMU VELO AIN AR TRES W  DIS CAZ7
 BAR2 EZ ES       1827 27.27                             172   -0.0110 20.8 171 
 BAR2 EZ I        1827 28.07         6.2 0.26            175           20.8 171 
 PAM  EZ EP       1827 15.19                             149    0.4110 84.0  42 
 PAM  EE ES       1827 32.39                             149   -0.2310 84.0  42 
 PAM  EZ I        1827 37.14         2.3 0.45            150           84.0  42 
 RUS  HZ EP       1827 15.95                             145    0.1710 98.9 172 
 RUS  HN ES       1827 34.30                             145   -0.0910 98.9 172 
 RUS  HZ I        1827 35.52         2.5 0.27            150           98.9 172 
 PTB  HZ EP       1827 17.77                             134   -0.63 9  140 259 
 PTB  HN ES       1827 39.41                             134    0.35 9  140 259 
 PTB  HZ I        1827 43.74         3.0 0.15            135            140 259 
                                                                                
