 2011  828 1356 29.6 L   6.825 -73.037144.0  RSN  4 0.2 1.5LRSN                1
 GAP=250        0.42       4.3     8.5  4.4  0.2310E+02 -0.2657E+01  0.2392E+01E
 Epicentro: CEPITA - SANTANDER                                                 3
 ACTION:UPD 12-07-13 15:54 OP:ep   STATUS:               ID:20110828135629 L   I
 2011-08-28-1340-00M.COL___162                                                 6
 STAT SP IPHASW D HRMM SECON CODA AMPLIT PERI AZIMU VELO AIN AR TRES W  DIS CAZ7
 BAR2 SZ EP   1   1356 49.29                             168    0.12 7 30.3 212 
 BAR2 SZ ES   1   1357  4.54                             168    0.10 7 30.3 212 
 BAR2 SZ I        1357  5.78         8.0 0.29                          30.3 212 
 BRR  HZ EP   1   1356 51.04                             149   -0.08 7 80.8 293 
 BRR  HN ES   1   1357  7.89                             149   -0.03 7 80.8 293 
 RUS  HZ EP   1   1356 53.55                             143    0.19 7  103 183 
 RUS  HZ I        1356 54.73         4.3 0.11                           103 183 
 RUS  HN ES   1   1357 11.66                             143   -0.25 7  103 183 
 CHI  HZ EP   1   1357  7.57                             116   -0.28 6  255 198 
 CHI  HN ES   2   1357 38.19                             116    0.49 4  255 198 
 CHI  HZ I        1357 43.09         1.8 0.28                           255 198 
                                                                                
