 2013  928 1031 18.7 L   6.828 -73.206143.7  RSN  5 0.5 1.4LRSN                1
 GAP=179        1.10       6.0     8.5 10.6 -0.4282E+01  0.2292E+02 -0.1709E+02E
 Epicentro: ZAPATOCA - SANTANDER                                               3
 ACTION:UPD 13-10-22 09:25 OP:ep   STATUS:               ID:20130928103118 L   I
 OLDACT:REG 13-09-28 15:08 OP:jn   STATUS:               ID:20130928102959     3
 2013-09-28-1029-59M.COL___272                                                 6
 STAT SP IPHASW D HRMM SECON CODA AMPLIT PERI AZIMU VELO AIN AR TRES W  DIS CAZ7
 BAR2 SZ EP       1031 38.26                             169    0.1010 26.2 174 
 BAR2 SZ ES       1031 52.90                             169   -0.4210 26.2 174 
 BAR2 SZ I        1031 54.59         6.7 0.18            148           26.2 174 
 BRR  HZ EP       1031 39.68                             154    0.4410 63.9 299 
 BRR  HN ES   1   1031 56.33                             154    1.08 7 63.9 299 
 PTB  HZ EP       1031 44.99                             132    0.00 9  142 257 
 PTB  HN ES       1032  5.04                             132   -0.44 9  142 257 
 PTB  HZ I        1032  9.06         3.0 0.28            121            142 257 
 OCA  HZ I        1031 48.58         3.1 0.28            133            157 355 
 OCA  HN ES   1   1032  7.57                             130   -0.63 7  157 355 
 SML  HE ES       1032 22.58                             117   -0.06 8  238 336 
                                                                                
