 2011  528 1957 54.6 L   6.773 -73.083150.6  RSN 16 0.4 2.8LRSN                1
 GAP=131        0.87       3.6     5.4  5.4 -0.9419E+01  0.7326E+01  0.1909E+01E
 Epicentro: LOS SANTOS - SANTANDER                                             3
 ACTION:UP  11-06-29 08:57 OP:tino STATUS:               ID:20110528195754 L   I
 2011-05-28-1955-27S.COL___115                                                 6
 STAT SP IPHASW D HRMM SECON CODA AMPLIT PERI AZIMU VELO SNR AR TRES W  DIS CAZ7
 BAR2 SZ EP   1   1958 14.50                             171    -0.3 7   23 209 
 BAR2 SZ ES   1   1958 29.86                             171    -0.7 7   23 209 
 BAR2 SZI         1958 33.15       164.7 0.48                            23 209 
 PAM  SZ EP   1   1958 17.15                             152     0.0 7   76  34 
 PAM  SZ I        1958 17.71        78.0 0.22                            76  34 
 PAM  SN ES   1   1958 34.70                             152    -0.1 7   76  34 
 BRR  HZ EP       1958 16.42                             151    -0.210   79 298 
 BRR  HN ES   1   1958 34.38                             151     0.5 7   79 298 
 BRR  HZ I        1958 36.36       102.2 0.21                            79 298 
 RUS  HZ EP   1   1958 18.43                             145    -0.1 7   97 180 
 RUS  HN ES   1   1958 37.56                             145     0.3 7   97 180 
 RUS  HZ I        1958 38.93        89.4 0.41                            97 180 
 BRI  SZ EP       1958 19.07                             142     0.110  109  17 
 BRI  SZ ES   1   1958 38.78                             142     0.8 7  109  17 
 BRI  SZ I        1958 42.89        67.8 0.40                           109  17 
 GRA  SZ IP       1958 20.33                             138     0.010  127  14 
 GRA  SZ ES   1   1958 40.27                             138    -0.1 7  127  14 
 GRA  SZ I        1958 40.94        69.0 0.27                           127  14 
 OCA  SZ EP   1   1958 23.33                             130    -0.3 7  164 351 
 OCA  SZ I        1958 50.53        52.3 0.17                           164 351 
 NOR  SZ EP   1   1958 30.44                             119    -0.6 6  239 236 
 NOR  SZ I        1959  2.76        11.8 0.18                           239 236 
 ROSC BZ EP   1   1958 33.88                             117     0.8 6  254 213 
 HEL  HZ EP   1   1958 36.14                             115     0.5 6  278 257 
 HEL  HN ES   1   1959  7.01                             115    -0.7 6  278 257 
 VIL  SN ES   1   1959 12.01                             113     0.1 5  302 193 
 GUY  SZ EP   1   1958 39.38                             113     0.3 5  308 236 
 TOL  SZ EP   1   1958 43.98                             110     0.6 5  346 226 
 DBB  SZ EP   1   1958 43.12                             110     0.1 5  347 275 
 SDV  BZ IP   1   1958 43.81                             109    -0.6 5  357  49 
 PRA  HZ EP   1   1958 48.17                             107    -0.2 4  393 211 
 PRA  HN ES   1   1959 30.59                             107     0.3 4  393 211 
 PRA  HZ I        1959 36.72        98.0 0.22                           393 211 
                                                                                
