 2014  228 1700 23.5 L   6.806 -73.163142.0  RSN 11 0.4 1.8LRSN                1
 GAP=134        0.91       3.3     4.4  5.9 -0.4368E+01  0.1117E+02 -0.9499E+00E
 Epicentro: LOS SANTOS - SANTANDER                                             3
 ACTION:UPD 14-03-10 08:14 OP:ep   STATUS:               ID:20140228170023 L   I
 OLDACT:UP  14-02-28 17:14 OP:cam  STATUS:               ID:20140228165818     3
 OLDACT:UP  14-02-28 17:05 OP:cam  STATUS:               ID:20140228165818     3
 OLDACT:REG 14-02-28 15:34 OP:cam  STATUS:               ID:20140228165818     3
 2014-02-28-1658-18M.COL___236                                                 6
 STAT SP IPHASW D HRMM SECON CODA AMPLIT PERI AZIMU VELO AIN AR TRES W  DIS CAZ7
 BAR2 SZ EP       17 0 42.60                             170   -0.1110 23.8 185 
 BAR2 SZ ES       17 0 57.70                             170    0.0310 23.8 185 
 BAR2 SZ I        17 0 58.90        13.1 0.40            168           23.8 185 
 BRR  HZ EP       17 0 44.60                             153    0.4510 69.2 299 
 BRR  HN ES   4   17 1  2.06                             153    1.82 0 69.2 299 
 BRR  HZ I        17 1  5.77        11.3 0.12            147           69.2 299 
 PAM  SZ EP       17 0 45.51                             150    0.1310 78.1  41 
 PAM  SN ES       17 1  2.85                             150    0.4210 78.1  41 
 PAM  SZ I        17 1  4.85         5.3 0.22            155           78.1  41 
 RUS  HZ EP       17 0 46.48                             143   -0.4910  101 175 
 RUS  HN ES       17 1  4.92                             143   -0.3310  101 175 
 RUS  HZ I        17 1  6.40         4.7 0.26            149            101 175 
 PTB  HZ EP       17 0 49.49                             132   -0.54 9  146 258 
 PTB  HN ES       17 1 10.72                             132    0.01 9  146 258 
 PTB  HZ I        17 1 16.57         7.3 0.24            131            146 258 
 SPBC HZ EP       17 0 51.55                             129   -0.13 9  163 218 
 SPBC HN ES       17 1 14.20                             129    0.57 9  163 218 
 SPBC HZ I        17 1 20.52        18.8 0.18            130            163 218 
 ZAR  HZ EP   2   17 0 54.80                             122   -0.72 4  202 292 
 ZAR  HE ES   4   17 1 19.72                             122   -0.75 0  202 292 
 ZAR  HZ I        17 1 28.84         6.1 0.24            122            202 292 
 NOR  HZ EP       17 0 58.58                             118   -0.34 8  234 234 
 NOR  HE ES       17 1 26.61                             118    0.09 8  234 234 
 NOR  HZ I        17 1 33.69         6.8 0.16            120            234 234 
 SML  HN ES       17 1 27.72                             117   -0.35 8  242 336 
 SML  HZ I        17 1 34.17         9.1 0.30            119            242 336 
 GUY2CHZ EP   1   17 1  7.87                             112    1.04 5  300 234 
 GUY2CHN ES   4   17 1 43.85                             112    3.24 0  300 234 
 GUY2CHZ I        17 1 49.68         3.2 0.32                           300 234 
 PRA  HZ EP   1   17 1 17.50                             106    0.62 4  392 209 
 PRA  HE ES       17 1 58.78                             106    0.28 6  392 209 
                                                                                
