 2016  828 1046 48.5 L   6.751 -73.143149.8  RSN  7 0.4 1.6LRSN                1
 GAP=139        1.05       4.6     4.6  7.1 -0.1278E+01  0.6217E+01  0.2371E+01E
 Epicentro: LOS SANTOS - SANTANDER                                             3
 ACTION:UPD 16-10-29 15:40 OP:rebc STATUS:               ID:20160828104648 L   I
 OLDACT:REG 16-08-28 21:08 OP:ar   STATUS:               ID:20160828103732     3
 2016-08-28-1038-00M.COL___368                                                 6
 STAT SP IPHASW D HRMM SECON CODA AMPLIT PERI AZIMU VELO AIN AR TRES W  DIS CAZ7
 BAR2 EZ EP       1047  8.62                             173    0.1310 18.1 194 
 BAR2 EZ ES       1047 23.42                             173   -0.6810 18.1 194 
 BAR2 EZ I        1047 24.50         8.6 0.34                          18.1 194 
 BRR  HZ EP       1047 10.55                             152    0.3310 74.2 302 
 BRR  HN ES       1047 27.70                             152    0.5210 74.2 302 
 BRR  HZ I        1047 29.26         6.5 0.12                          74.2 302 
 PAM  EZ EP       1047 11.58                             150    0.2210 81.5  37 
 PAM  EE ES       1047 28.89                             150   -0.3110 81.5  37 
 PAM  EZ I        1047 30.95         8.1 0.64                          81.5  37 
 RUS  HZ EP       1047 12.52                             146    0.2810 95.1 176 
 RUS  HN ES       1047 31.11                             146    0.3310 95.1 176 
 RUS  HZ I        1047 32.64         2.5 0.28                          95.1 176 
 PTB  HZ EP       1047 15.46                             133   -0.24 9  147 261 
 PTB  HE ES       1047 36.77                             133   -0.18 9  147 261 
 PTB  HZ I        1047 39.02         5.1 0.18                           147 261 
 SPBC HZ EP       1047 16.07                             131   -0.83 9  159 220 
 SPBC HN ES       1047 39.41                             131    0.33 9  159 220 
 SPBC HZ I        1047 43.51         4.4 0.10                           159 220 
 ZAR  HZ EP   4   1047 23.02                             123    1.60 0  206 294 
 ZAR  HN ES       1047 47.07                             123   -0.05 8  206 294 
 ZAR  HZ I        1047 53.53         7.2 0.30                           206 294 
                                                                                
