 2012  228 1249 23.9 L   6.786 -73.183137.3  RSN 10 0.2 2.0LRSN                1
 GAP=133        0.48       2.7     2.5  3.9 -0.1055E+01  0.3033E+01  0.1663E+01E
 ACTION:UP  12-03-07 16:35 OP:epov STATUS:               ID:20120228124923 L   I
 2012-02-28-1247-59S.COL___194                                                 6
 STAT SP IPHASW D HRMM SECON CODA AMPLIT PERI AZIMU VELO AIN AR TRES W  DIS CAZ7
 BAR2 SZ EP       1249 42.42                             171   -0.0510 21.4 180 
 BAR2 SZ ES   1   1249 56.94                             171   -0.02 7 21.4 180 
 BAR2 SZ I        1250  0.46        20.3 0.28                          21.4 180 
 BRR  HZ EP   1   1249 44.16                             152    0.19 7 68.4 301 
 BRR  HZ I        1250  2.08        24.5 0.16                          68.4 301 
 PAM  SZ EP       1249 45.33                             148   -0.1310 81.3  41 
 PAM  SE ES   1   1250  2.43                             148    0.14 7 81.3  41 
 PAM  SZ I        1250  4.39        20.0 0.37                          81.3  41 
 RUS  HZ EP   1   1249 46.78                             142    0.05 7 99.4 174 
 RUS  HN ES   1   1250  4.65                             142    0.11 7 99.4 174 
 RUS  HZ I        1250  6.99        14.4 0.36                          99.4 174 
 PTB  HZ EP   1   1249 49.30                             131   -0.48 7  143 259 
 PTB  HN ES   1   1250  9.56                             131   -0.41 7  143 259 
 ZAR  HN ES   1   1250 20.41                             121    0.32 6  201 293 
 ZAR  HZ I        1250 27.61        10.1 0.28                           201 293 
 NOR  SZ EP   1   1249 58.95                             117    0.28 6  230 234 
 NOR  SN ES   1   1250 26.09                             117    0.28 6  230 234 
 CHI  HZ EP   1   1250  0.87                             116    0.02 6  246 194 
 CHI  HZ I        1250 33.56         7.8 0.36                           246 194 
 RREF HZ EP   2   1250  9.73                             109    0.53 3  318 229 
 RREF HZ I        1250 54.45         8.0 0.35                           318 229 
 PRA  HZ EP       1250 16.55                             105   -0.18 6  389 209 
                                                                                
