 2013  728 1053  4.4 L   6.799 -73.170138.9  RSN  7 0.4 1.8LRSN                1
 GAP=179        0.83       5.0     5.5  8.6  0.2410E+01  0.1078E+02 -0.1052E+02E
 Epicentro: LOS SANTOS - SANTANDER                                             3
 ACTION:UPD 13-08-12 10:40 OP:ep   STATUS:               ID:20130728105304 L   I
 OLDACT:UP  13-07-28 14:59 OP:mh   STATUS:               ID:20130728104959     3
 OLDACT:REG 13-07-28 14:21 OP:mh   STATUS:               ID:20130728104959     3
 2013-07-28-1049-59M.COL___268                                                 6
 STAT SP IPHASW D HRMM SECON CODA AMPLIT PERI AZIMU VELO AIN AR TRES W  DIS CAZ7
 BAR2 SZ EP   1   1053 23.17                             170   -0.05 8 22.9 183 
 BAR2 SZ ES   1   1053 37.64                             170   -0.24 8 22.9 183 
 BAR2 SZ I        1053 38.92         7.7 0.30            172           22.9 183 
 GIR2 SZ EP   1   1053 23.16                             167   -0.11 8 31.1 355 
 BRR  HZ EP   1   1053 25.03                             152    0.33 8 68.9 300 
 BRR  HN ES   1   1053 40.91                             152    0.40 8 68.9 300 
 BRR  HN I        1053 42.36        30.7 0.34            150           68.9 300 
 RUS  HN ES   1   1053 45.96                             142    0.44 8  101 174 
 RUS  HN I        1053 47.19         5.2 0.24            145            101 174 
 PTB  HZ EP   1   1053 29.97                             131   -0.62 7  145 259 
 PTB  HN ES       1053 50.52                             131   -0.4810  145 259 
 PTB  HN I        1053 51.98        10.1 0.28            131            145 259 
 OCA  HN ES   1   1053 53.51                             128   -0.34 7  160 354 
 OCA  HN I        1053 56.24        17.4 0.18            128            160 354 
 ZAR  HZ EP   1   1053 36.62                             121    0.45 7  202 292 
 ZAR  HE ES   1   1054  1.59                             121    0.66 7  202 292 
 ZAR  HZ I        1054  8.78         3.5 0.38            121            202 292 
                                                                                
