 2017  228 1038 36.3 L   6.790 -73.176139.8  RSN  6 0.2 1.4LRSN                1
 GAP=133        0.68       3.4     3.5  5.0  0.2317E+01  0.4501E+01  0.8684E+00E
 Epicentro: LOS SANTOS - SANTANDER                                             3
 ACTION:UPD 17-05-24 15:41 OP:jn   STATUS:               ID:20170228103836 L   I
 OLDACT:DUP 17-02-28 21:30 OP:lv   STATUS:               ID:20170228102744d    3
 OLDACT:DUP 17-02-28 21:26 OP:lv   STATUS:               ID:20170228102743d    3
 OLDACT:DUP 17-02-28 21:15 OP:lv   STATUS:               ID:20170228102742d    3
 2017-02-28-1028-00M.COL___372                                                 6
 STAT SP IPHASW D HRMM SECON CODA AMPLIT PERI AZIMU VELO AIN AR TRES W  DIS CAZ7
 BAR2 EZ EP       1038 55.19                             171    0.0110 21.9 182 
 BAR2 EZ ES       1039  9.33                             171   -0.5810 21.9 182 
 BAR2 EZ I        1039 12.28         5.3 0.26            171           21.9 182 
 BRR  HZ EP       1038 56.65                             152   -0.0210 68.8 301 
 BRR  HE ES       1039 12.89                             152    0.3410 68.8 301 
 PAM  EZ EP       1038 58.03                             149   -0.0410 80.4  41 
 PAM  EN ES       1039 15.16                             149    0.1110 80.4  41 
 PAM  EZ I        1039 17.29         6.2 0.52            150           80.4  41 
 RUS  HZ EP       1038 59.43                             143    0.0210 99.8 174 
 RUS  HN ES       1039 17.76                             143    0.3310 99.8 174 
 RUS  HZ I        1039 18.94         4.4 0.37            144           99.8 174 
 PTB  HZ EP       1039  2.30                             131   -0.16 9  144 259 
 ZAR  HN ES       1039 32.83                             121   -0.04 9  201 293 
                                                                                
