 2012 1128 1549 52.7 L   6.792 -73.201142.1  RSN  6 0.1 2.0LRSN                1
 GAP=171        0.35       3.2     2.3  3.5  0.3267E+01  0.7214E+00 -0.8564E+00E
 Epicentro: ZAPATOCA - SANTANDER                                               3
 ACTION:UPD 12-12-05 15:36 OP:}ep  STATUS:               ID:20121128154952 L   I
 2012-11-28-1550-00M.COL___237                                                 6
 STAT SP IPHASW D HRMM SECON CODA AMPLIT PERI AZIMU VELO AIN AR TRES W  DIS CAZ7
 BAR2 SZ EP       1550 11.98                             171    0.1510 22.2 175 
 BAR2 SZ ES   1   1550 26.64                             171   -0.14 7 22.2 175 
 BAR2 SZ I        1550 28.03        26.4 0.31                          22.2 175 
 GIR2 SZ EP   1   1550 11.98                             167    0.07 7 31.7   2 
 RUS  HZ EP       1550 15.99                             143   -0.0510  100 173 
 RUS  HE ES   1   1550 34.27                             143    0.00 7  100 173 
 RUS  HE I        1550 36.84        18.2 0.29                           100 173 
 PTB  HZ EP       1550 18.60                             132   -0.17 9  142 259 
 PTB  HN ES       1550 39.26                             132    0.13 9  142 259 
 PTB  HZ I        1550 42.39        15.1 0.23                           142 259 
 ZAR  HN ES   1   1550 48.94                             122   -0.07 6  199 293 
 ZAR  HZ I        1550 56.25         9.9 0.26                           199 293 
 PRA  HZ EP   1   1550 45.64                             106    0.03 4  388 209 
                                                                                
