 2017  628 1549 44.8 L   7.430 -73.143128.7  RSN  6 0.2 1.9LRSN                1
 GAP=270        0.57       4.5     3.7  4.6  0.5008E+01  0.1795E+01 -0.3992E+01E
 Epicentro: EL PLAYON - SANTANDER                                              3
 ACTION:UPD 17-09-14 16:56 OP:jn   STATUS:               ID:20170628154944 L   I
 OLDACT:REG 17-06-28 21:07 OP:osc  STATUS:               ID:20170628154740     3
 2017-06-28-1548-00M.COL___364                                                 6
 STAT SP IPHASW D HRMM SECON CODA AMPLIT PERI AZIMU VELO AIN AR TRES W  DIS CAZ7
 BRR  HZ EP       1550  4.24                             149    0.0710 72.2 240 
 BRR  HE ES       1550 19.51                             149    0.2110 72.2 240 
 BRR  HZ I        1550 20.70        28.4 0.12            144           72.2 240 
 BAR2 EZ EP       1550  6.17                             142    0.2410 92.7 183 
 BAR2 EZ ES       1550 22.15                             142   -0.2810 92.7 183 
 BAR2 EZ I        1550 23.86        13.0 0.11            138           92.7 183 
 PTB  HZ EP       1550 12.83                             123   -0.33 9  175 236 
 PTB  HE ES       1550 35.18                             123   -0.12 9  175 236 
 PTB  HZ I        1550 36.03         7.5 0.20            121            175 236 
 ZAR  HZ EP       1550 14.40                             120   -0.22 9  189 272 
 ZAR  HE ES       1550 37.91                             120    0.02 9  189 272 
 ZAR  HZ I        1550 38.74        13.4 0.16            119            189 272 
 NOR  HZ EP       1550 25.14                             110    0.33 7  281 223 
 NOR  HE ES       1550 56.19                             110    0.15 7  281 223 
 NOR  HZ I        1551  2.08         4.2 0.20            109            281 223 
 GUY2CHZ EP   4   1550 35.85                             106    2.95 0  346 225 
 GUY2CHN ES   4   1551 12.24                             106    1.80 0  346 225 
 GUY2CHZ I        1551 22.02         2.6 0.42                           346 225 
                                                                                
