 2010  828 1526 53.2 L   6.676 -74.139 76.8  RSN  6 0.5 1.8LRSN                1
 GAP=156        1.19      10.4     7.2 13.7 -0.4075E+02  0.1274E+02  0.3195E+02E
 Epicentro: PUERTO PARRA - SANTANDER                                           3
 ACTION:UP  10-09-07 10:58 OP:vdl  STATUS:               ID:20100828152653 L   I
 2010-08-28-1521-47S.COL___120                                                 6
 STAT SP IPHASW D HRMM SECON CODA AMPLIT PERI AZIMU VELO SNR AR TRES W  DIS CAZ7
 BRR  HZ EP       1527  6.79                             135    -0.310   67  45 
 BRR  HN ES       1527 18.28                             135     0.310   67  45 
 BRR  HZ I        1527 19.49        27.2 0.21                            67  45 
 BAR2 SZ EP       1527 11.31                             121     0.010  106  95 
 BAR2 SZ ES   2   1527 25.19                             121    -0.2 5  106  95 
 BAR2 SZ I        1527 26.24        21.3 0.30                           106  95 
 GIR2 SZ ES   2   1527 26.56                             119     0.0 5  114  67 
 HEL  HZ EP   1   1527 17.51                                    -0.3 7  163 251 
 HEL  HN ES   2   1527 37.01                             109     0.0 5  163 251 
 HEL  HZ I        1527 38.78         7.3 0.18                           163 251 
 GUE  SZ EP       1527 21.28                             107     0.9 9  185  46 
 GUE  SZ ES   1   1527 40.47                             107    -1.1 7  185  46 
 GUE  SZ I        1527 44.04         7.8 0.04                           185  46 
 GRA  SZ ES   2   1527 43.97                             105    -0.2 4  199  48 
                                                                                
