 2013 1128 1941 54.6 L   6.801 -73.165147.4  RSN  7 0.4 2.0LRSN                1
 GAP=144        0.78       4.1     3.9  5.8 -0.4055E+01  0.3749E+01  0.2267E+01E
 Epicentro: LOS SANTOS - SANTANDER                                             3
 ACTION:UPD 14-01-09 16:31 OP:ep   STATUS:               ID:20131128194154 L   I
 OLDACT:UP  13-11-28 16:50 OP:cam  STATUS:               ID:20131128194000     3
 OLDACT:UP  13-11-28 16:48 OP:cam  STATUS:               ID:20131128194000     3
 OLDACT:REG 13-11-28 15:08 OP:cam  STATUS:               ID:20131128194000     3
 2013-11-28-1940-00M.COL___282                                                 6
 STAT SP IPHASW D HRMM SECON CODA AMPLIT PERI AZIMU VELO AIN AR TRES W  DIS CAZ7
 BAR2 SZ EP       1942 14.31                             171   -0.0610 23.1 185 
 BAR2 SZ ES   1   1942 29.38                             171   -0.45 7 23.1 185 
 BAR2 SZ I        1942 30.34        33.9 0.12            169           23.1 185 
 BRR  HZ EP   1   1942 16.30                             153    0.53 7 69.3 299 
 BRR  HN ES       1942 32.53                             153    0.2110 69.3 299 
 PAM  SZ EP       1942 17.17                             151    0.1510 78.7  41 
 PAM  SN ES       1942 34.52                             151   -0.0210 78.7  41 
 PAM  SZ I        1942 35.86         7.9 0.38            153           78.7  41 
 PTB  HZ EP       1942 20.87                             133   -0.59 9  146 259 
 PTB  HN ES       1942 42.11                             133   -0.34 9  146 259 
 PTB  HZ I        1942 43.46        11.8 0.12            131            146 259 
 SPBC HZ EP       1942 23.15                             130    0.10 9  162 218 
 SPBC HN ES   1   1942 45.96                             130    0.68 7  162 218 
 SPBC HZ I        1942 52.92        13.5 0.20            129            162 218 
 ZAR  HZ EP   2   1942 26.87                             123   -0.02 4  202 292 
 ZAR  HE ES   1   1942 52.62                             123    0.50 6  202 292 
 ZAR  HZ I        1942 59.36        10.8 0.30            122            202 292 
 NOR  HZ EP   4   1942 30.27                             119    0.08 0  233 234 
 SML  HZ EP   2   1942 31.31                             118    0.15 4  243 336 
 SML  HN ES   1   1942 59.39                             118   -0.33 6  243 336 
 SML  HZ I        1943  2.82        11.1 0.20            118            243 336 
 GUY2CHZ EP   4   1942 37.34                             113   -0.70 0  299 235 
                                                                                
