 2010  228 1833  2.2 L   6.811 -73.071141.9  RSN  7 0.4 1.8LRSN                1
 GAP=191        0.73       4.1    11.3  7.3  0.1017E+02  0.4160E+01 -0.3759E+01E
 Epicentro: LOS SANTOS - SANTANDER                                             3
 ACTION:UP  10-08-24 09:51 OP:vdl  STATUS:               ID:20100228183302 L   I
 2010-02-28-1831-29S.COL___093                                                 6
 STAT SP IPHASW D HRMM SECON CODA AMPLIT PERI AZIMU VELO SNR AR TRES W  DIS CAZ7
 BAR2 SZ ES   2   1833 35.94                             169    -0.6 5   27 207 
 BRR  HZ EP       1833 23.42                             149     0.010   78 295 
 BRR  HN ES   2   1833 40.27                             149     0.4 5   78 295 
 RUS  BZ EP       1833 26.16                             143     0.510  102 181 
 RUS  BN ES   1   1833 43.72                             143    -0.2 7  102 181 
 RUS  BZ I        1833 46.17         4.4 0.52                           102 181 
 OCA  SZ EP       1833 30.07                             129    -0.2 9  160 350 
 OCA  SZ I        1833 56.25        10.6 0.09                           160 350 
 CHI  HZ EP   1   1833 39.47                             116    -0.6 6  252 197 
 CHI  HE ES   2   1834  9.55                             116    -0.1 4  252 197 
 CHI  HZ I        1834 16.87         2.8 0.44                           252 197 
 MON  HZ EP   2   1833 51.42                             107    -0.3 3  359 307 
 PRA  HZ EP   1   1833 56.46                             105     0.2 4  397 211 
 PRA  HN ES   2   1834 38.26                             105    -0.1 3  397 211 
 PRA  HZ I        1834 45.89         4.3 0.27                           397 211 
                                                                                
