 2010 1128 1228 51.1 L   6.815 -72.976148.0  RSN  7 0.3 1.8LRSN                1
 GAP=178        0.58       2.9     6.3  5.3 -0.3318E+01 -0.5314E+01 -0.1218E+01E
 Epicentro: CEPITA - SANTANDER                                                 3
 ACTION:UP  10-12-17 16:55 OP:REBC STATUS:               ID:20101128122851 L   I
 2010-11-28-1225-37S.COL___131                                                 6
 STAT SP IPHASW D HRMM SECON CODA AMPLIT PERI AZIMU VELO SNR AR TRES W  DIS CAZ7
 BAR2 SZ EP   1   1229 11.35                             167     0.1 8   34 223 
 BAR2 SZ ES   1   1229 26.96                             167     0.0 8   34 223 
 BAR2 SZ I        1229 29.94        10.8 0.58                            34 223 
 BRR  HZ EP   1   1229 12.97                             148    -0.5 8   88 292 
 BRR  HZ I        1229 13.66        24.9 0.26                            88 292 
 BRR  HE ES   1   1229 30.77                             148    -0.2 8   88 292 
 RUS  HZ EP   1   1229 15.34                             144     0.1 8  103 187 
 RUS  HE ES   1   1229 34.11                             144     0.1 8  103 187 
 RUS  HZ I        1229 36.49         5.2 0.54                           103 187 
 GRA  SZ IP       1229 16.18                             139     0.110  120   9 
 GRA  SZ ES   2   1229 35.18                             139    -0.4 5  120   9 
 GRA  SZ I        1229 36.95         7.5 0.38                           120   9 
 OCA  SZ EP   1   1229 19.86                             130     0.1 7  162 346 
 OCA  SZ I        1229 31.58         6.8 0.43                           162 346 
 OCA  SZ ES   2   1229 42.66                             130     0.6 5  162 346 
 CHI  HZ EP   2   1229 29.28                             117    -0.4 4  256 199 
 CHI  HZ I        1229 31.12         2.7 0.46                           256 199 
 CHI  HE ES   2   1229 59.64                             117    -0.2 4  256 199 
 RREF HZ EP   2   1229 39.32                             110     0.2 3  337 231 
 RREF HE ES   2   1230 17.30                             110     0.7 3  337 231 
 RREF HZ I        1230 22.85         3.4 0.41                           337 231 
                                                                                
