 2011  528 1120 10.0 L   6.799 -73.110145.0  RSN  9 0.3 2.0LRSN                1
 GAP=163        0.60       3.7     5.9  5.4 -0.1212E+02  0.2255E+01  0.5037E+00E
 Epicentro: LOS SANTOS - SANTANDER                                             3
 ACTION:UP  11-06-29 08:56 OP:tino STATUS:               ID:20110528112010 L   I
 2011-05-28-1118-02S.COL___115                                                 6
 STAT SP IPHASW D HRMM SECON CODA AMPLIT PERI AZIMU VELO SNR AR TRES W  DIS CAZ7
 BTL  SZ IP   1   1120 29.51                             171     0.0 7   22 307 
 BAR2 SZ EP   1   1120 29.35                             170    -0.2 7   24 199 
 BAR2 SZ ES   1   1120 44.61                             170    -0.2 7   24 199 
 GIR2 SZ IP   1   1120 29.39                             167    -0.2 7   32 343 
 BRR  HZ EP   1   1120 31.06                             151    -0.2 7   75 297 
 BRR  HZ I        1120 36.09        16.0 0.11                            75 297 
 BRR  HN ES   1   1120 48.23                             151     0.4 7   75 297 
 RUS  HE ES   2   1120 52.45                             144     0.4 5  100 178 
 GRA  SZ EP   1   1120 35.04                             137     0.0 7  125  16 
 GRA  SZ ES   1   1120 54.56                             137    -0.1 7  125  16 
 GRA  SZ I        1120 59.35         3.3 0.34                           125  16 
 OCA  SZ EP   1   1120 38.48                             129     0.2 7  161 352 
 NOR  SN ES   1   1121 13.50                             118    -0.6 6  238 235 
 PRA  HZ EP   1   1121  3.65                             106     0.0 4  394 210 
 PRA  HN ES   1   1121 46.39                             106     0.8 4  394 210 
 PRA  HZ I        1121 50.67        10.6 0.23                           394 210 
                                                                                
