 2010 1128 1629 32.7 L   6.770 -73.064149.2  RSN 11 0.3 2.1LRSN                1
 GAP=168        0.61       2.5     4.8  4.6 -0.3705E+01  0.4671E+01  0.1647E+01E
 Epicentro: LOS SANTOS - SANTANDER                                             3
 ACTION:UP  10-12-17 16:55 OP:REBC STATUS:               ID:20101128162932 L   I
 2010-11-28-1625-07S.COL___132                                                 6
 STAT SP IPHASW D HRMM SECON CODA AMPLIT PERI AZIMU VELO SNR AR TRES W  DIS CAZ7
 BAR2 SZ IP       1629 52.69                             171    -0.110   24 214 
 BAR2 SZ ES   1   1630  8.25                             171    -0.1 7   24 214 
 BAR2 SZ I        1630  8.87        20.9 0.56                            24 214 
 BTL  SZ EP       1629 52.88                             169     0.010   28 306 
 BRR  HZ IP     C 1629 54.62                             150    -0.210   81 298 
 BRR  HZ I        1629 54.86        43.7 0.12                            81 298 
 BRR  HE ES   1   1630 12.04                             150     0.0 7   81 298 
 RUS  HZ EP   1   1629 56.55                             145     0.0 7   97 181 
 RUS  HE ES   1   1630 15.04                             145    -0.1 7   97 181 
 RUS  HZ I        1630 18.79         7.1 0.40                            97 181 
 GRA  SZ EP   1   1629 58.50                             137     0.2 7  127  13 
 GRA  SZ ES   1   1630 18.95                             137     0.6 7  127  13 
 GRA  SZ I        1630 20.42        14.8 0.28                           127  13 
 OCA  SZ EP   1   1630  1.45                             129    -0.3 7  165 350 
 OCA  SZ ES   1   1630 24.01                             129    -0.3 7  165 350 
 OCA  SZ I        1630 28.98        23.3 0.18                           165 350 
 NOR  SZ EP   2   1630  8.36                             119    -0.9 4  240 236 
 CHI  HZ EP   1   1630 10.49                             118     0.0 6  248 197 
 CHI  HN ES   2   1630 40.19                             118     0.2 4  248 197 
 CHI  HZ I        1630 44.13         4.1 0.47                           248 197 
 HEL  HZ EP   2   1630 13.71                             115    -0.3 4  280 257 
 HEL  HE ES   2   1630 46.78                             115     0.6 4  280 257 
 HEL  HZ I        1630 52.36         6.9 0.26                           280 257 
 RREF HZ EP   1   1630 20.01                             111     0.5 5  327 231 
 RREF HE ES   1   1630 56.34                             111     0.3 5  327 231 
 RREF HZ I        1631  1.13         7.3 0.22                           327 231 
 PRA  HZ EP   1   1630 26.75                             107     0.2 4  394 211 
 PRA  HZ I        1630 28.33        15.1 0.14                           394 211 
 PRA  HN ES   1   1631  8.58                             107     0.1 4  394 211 
                                                                                
