 2013  328 1627 16.7 L   6.738 -73.169154.9  RSN  5 0.2 1.9LRSN                1
 GAP=230        0.48       4.2     4.3  4.1  0.1197E+02  0.2082E+01  0.3370E+00E
 Epicentro: VILLANUEVA - SANTANDER                                             3
 ACTION:UPD 13-04-09 14:05 OP:ep   STATUS:               ID:20130328162716 L   I
 2013-03-28-1620-00M.COL___245                                                 6
 STAT SP IPHASW D HRMM SECON CODA AMPLIT PERI AZIMU VELO AIN AR TRES W  DIS CAZ7
 BAR2 SZ EP   1   1627 36.89                             174   -0.38 7 16.2 185 
 BAR2 SZ ES       1627 53.30                             174   -0.0510 16.2 185 
 BAR2 SZ I        1627 53.70        13.0 0.42            175           16.2 185 
 BRR  HZ EP       1627 38.76                             154   -0.1110 72.5 304 
 BRR  HN ES       1627 56.39                             154    0.1910 72.5 304 
 BRR  HN I        1628  0.30        19.4 0.20            152           72.5 304 
 RUS  HZ EP       1627 41.05                             147    0.1810 94.0 174 
 RUS  HE ES       1627 59.77                             147    0.0110 94.0 174 
 RUS  HE I        1628  2.18         6.9 0.56            150           94.0 174 
 PTB  HZ EP   1   1627 44.29                             135    0.23 7  144 261 
 PTB  HN ES   1   1628  5.17                             135   -0.26 7  144 261 
 PTB  HN I        1628  5.44         8.1 0.24            135            144 261 
 ZAR  HN ES   1   1628 15.56                             124    0.01 6  204 294 
 ZAR  HN I        1628 21.06         9.4 0.28            125            204 294 
                                                                                
