 2010  228 1839 34.9 L   7.414 -73.204125.1  RSN 10 0.5 2.4LRSN                1
 GAP=183        0.84       4.3     7.4  6.5  0.2476E+01  0.1017E+02  0.5042E+01E
 Epicentro: EL PLAYON - SANTANDER                                              3
 ACTION:UP  10-08-24 09:51 OP:vdl  STATUS:               ID:20100228183934 L   I
 2010-02-28-1837-51S.COL___093                                                 6
 STAT SP IPHASW D HRMM SECON CODA AMPLIT PERI AZIMU VELO SNR AR TRES W  DIS CAZ7
 BRR  HZ IP       1839 53.68                             150     0.110   66 239 
 BRR  HZ I        1839 53.87        71.0 0.19                            66 239 
 BRR  HN ES   1   1840  8.50                             150     0.5 7   66 239 
 BAR2 SZ IP       1839 55.63                             142     0.010   91 179 
 BAR2 SZ ES   1   1840 11.26                             142    -0.5 7   91 179 
 OCA  SZ EP       1839 55.50                             141    -0.110   92 352 
 OCA  SZ ES   2   1840 12.03                             141     0.3 5   92 352 
 OCA  SZ I        1840 14.18        90.4 0.24                            92 352 
 RUS  BZ EP       1840  2.68                             123    -0.3 9  169 175 
 HEL  HZ EP       1840 15.72                             109    -0.6 7  290 242 
 HEL  HN ES   3   1840 46.50                             109    -2.0 2  290 242 
 HEL  HZ I        1840 57.48        10.7 0.47                           290 242 
 CHI  HZ EP       1840 19.32                             107     0.3 7  313 191 
 CHI  HN ES   2   1840 54.22                             107     0.8 3  313 191 
 CHI  HZ I        1841  0.62         4.9 0.59                           313 191 
 DBB  SZ EP       1840 20.78                             106    -0.3 7  335 263 
 RREF BZ EP       1840 26.14                             104     0.8 6  365 221 
 RREF BN ES   3   1841  4.44                             104    -0.3 2  365 221 
 RREF BZ I        1841 15.46         8.6 0.28                           365 221 
 TOL  SZ EP   2   1840 28.80                             103     0.8 3  391 217 
 PRA  HZ EP   2   1840 34.56                             101    -0.1 3  450 205 
 PRA  HE ES   3   1841 21.14                             101    -0.2 1  450 205 
 PRA  HZ I        1841 30.36         5.6 0.57                           450 205 
                                                                                
