 2013  628 1224 27.0 L   6.797 -73.140149.5  RSN 12 0.5 2.4LRSN                1
 GAP=137        1.08       3.1     4.2  5.9 -0.1065E+01  0.6921E+01  0.4645E+00E
 Epicentro: LOS SANTOS - SANTANDER                                             3
 ACTION:UPD 14-01-08 09:57 OP:ep   STATUS:               ID:20130628122427 L   I
 OLDACT:REG 13-06-28 15:58 OP:carl STATUS:               ID:20130628121959     3
 2013-06-28-1219-59M.COL___266                                                 6
 STAT SP IPHASW D HRMM SECON CODA AMPLIT PERI AZIMU VELO AIN AR TRES W  DIS CAZ7
 BAR2 SZ EP       1224 47.00                             171   -0.0510 23.2 192 
 BAR2 SZ ES   1   1225  2.41                             171   -0.30 7 23.2 192 
 BAR2 SZ I        1225  4.72        46.0 0.30            170           23.2 192 
 GIR2 SZ EP       1224 47.12                             167    0.0210 31.7 349 
 GIR2 SZ ES       1225  3.25                             167    0.4510 31.7 349 
 BRR  HZ IP     C 1224 48.89                             153    0.3310 71.9 298 
 BRR  HN ES   1   1225  6.38                             153    0.98 7 71.9 298 
 BRR  HN I        1225 11.91        82.4 0.18            150           71.9 298 
 PAM  SZ EP       1224 49.78                             152    0.2110 77.2  39 
 PAM  SN ES   1   1225  6.91                             152   -0.30 7 77.2  39 
 PAM  SZ I        1225  9.21        21.5 0.52            156           77.2  39 
 RUS  HZ EP       1224 50.85                             145   -0.2210  100 176 
 RUS  HN ES       1225  9.27                             145   -0.5910  100 176 
 RUS  HZ I        1225 10.72        17.0 0.26            149            100 176 
 PTB  HZ EP       1224 53.69                             133   -0.60 9  148 259 
 PTB  HN ES       1225 14.99                             133   -0.62 9  148 259 
 PTB  HZ I        1225 20.69        42.4 0.38            133            148 259 
 OCA  HZ EP   1   1224 56.04                             130    0.44 7  161 353 
 OCA  HE ES       1225 18.27                             130    0.33 9  161 353 
 OCA  HZ I        1225 23.44        21.2 0.44            132            161 353 
 ZAR  HZ EP       1224 59.88                             123    0.15 9  205 292 
 ZAR  HE ES       1225 25.18                             123   -0.10 9  205 292 
 ZAR  HZ I        1225 32.23        25.1 0.26            124            205 292 
 NOR  HZ EP   1   1225  3.08                             119    0.13 6  235 235 
 NOR  HN ES       1225 30.92                             119   -0.10 8  235 235 
 NOR  HN I        1225 37.19        49.3 0.18            121            235 235 
 SML  HZ EP       1225  3.27                             118   -0.59 8  244 335 
 SML  HN ES       1225 31.77                             118   -0.87 8  244 335 
 SML  HZ I        1225 35.53        36.1 0.24            120            244 335 
 CHI  HZ EP       1225  5.23                             118    0.37 8  249 195 
 CHI  HN ES   1   1225 35.33                             118    0.91 6  249 195 
 HEL  HZ EP   1   1225  8.09                             115    0.66 6  273 256 
 HEL  HN ES       1225 39.61                             115    0.62 8  273 256 
 HEL  HZ I        1225 45.43        13.7 0.32            117            273 256 
                                                                                
