 2010  928 1120 46.4 L   6.763 -73.195146.7  RSN  5 0.2 1.5LRSN                1
 GAP=198        0.47       6.3    12.9  6.4  0.5058E+02  0.1493E+02  0.1098E+02E
 Epicentro: VILLANUEVA - SANTANDER                                             3
 ACTION:UP  11-02-18 11:06 OP:tino STATUS:               ID:20100928112046 L   I
 2010-09-28-1119-16S.COL___122                                                 6
 STAT SP IPHASW D HRMM SECON CODA AMPLIT PERI AZIMU VELO SNR AR TRES W  DIS CAZ7
 BAR2 SZ EP   2   1121  5.62                             172    -0.5 5   19 176 
 BAR2 SZ ES   2   1121 21.66                             172     0.2 5   19 176 
 BAR2 SZ I        1121 26.84         9.3 0.61                            19 176 
 BTL  SZ EP   1   1121  6.10                             172     0.0 7   19 335 
 BRR  HZ EP   1   1121  7.59                             153     0.0 7   69 304 
 BRR  HE ES   2   1121 23.97                             153     0.0 5   69 304 
 BRR  HZ I        1121 30.08        14.1 0.33                            69 304 
 RUS  HZ EP   2   1121 10.43                             145     0.4 5   97 173 
 RUS  HE ES   2   1121 28.22                             145    -0.2 5   97 173 
 RUS  HZ I        1121 29.61         3.0 0.33                            97 173 
 CHI  HZ EP   1   1121 23.59                             118     0.0 6  243 194 
 CHI  HZ I        1121 34.28         1.5 0.39                           243 194 
                                                                                
