 2012 1228 1442 23.5 L   6.737 -73.166147.5  RSN  4 0.2 1.9LRSN                1
 GAP=230        0.59       5.7     5.5  5.3  0.1561E+02  0.2352E+01  0.2734E+00E
 Epicentro: VILLANUEVA - SANTANDER                                             3
 ACTION:UPD 13-01-04 14:31 OP:ep   STATUS:               ID:20121228144223 L   I
 2012-12-28-1440-00M.COL___243                                                 6
 STAT SP IPHASW D HRMM SECON CODA AMPLIT PERI AZIMU VELO AIN AR TRES W  DIS CAZ7
 BAR2 SZ EP       1442 43.04                             173   -0.1610 16.1 186 
 BAR2 SZ ES       1442 58.25                             173   -0.3210 16.1 186 
 BAR2 SZ I        1442 59.55        27.3 0.19                          16.1 186 
 BRR  HZ EP       1442 45.12                             152    0.2010 72.9 304 
 BRR  HZ I        1442 53.03        17.0 0.42                          72.9 304 
 BRR  HE ES   1   1443  1.94                             152    0.31 7 72.9 304 
 RUS  HZ EP       1442 47.08                             146    0.1510 93.8 174 
 RUS  HN ES   1   1443  5.47                             146    0.25 7 93.8 174 
 RUS  HN I        1443  8.28         6.4 0.16                          93.8 174 
 PTB  HZ EP   1   1442 49.94                             133   -0.34 7  144 261 
 PTB  HE ES   1   1443 11.14                             133   -0.04 7  144 261 
 PTB  HZ I        1443 13.89         8.2 0.24                           144 261 
                                                                                
