 2012  628 1204  6.9 L   6.714 -73.176145.6  RSN  4 0.3 1.5LRSN                1
 GAP=227        0.58       7.0     6.8  6.8  0.2078E+02  0.7200E+01  0.5016E+01E
 Epicentro: VILLANUEVA - SANTANDER                                             3
 ACTION:UPD 12-08-06 17:53 OP:ep   STATUS:               ID:20120628120406 L   I
 2012-06-28-1200-00M.COL___201                                                 6
 STAT SP IPHASW D HRMM SECON CODA AMPLIT PERI AZIMU VELO AIN AR TRES W  DIS CAZ7
 BAR2 SZ EP       12 4 26.22                             174   -0.1310 13.5 183 
 BAR2 SZ ES   2   12 4 40.80                             174   -0.72 5 13.5 183 
 BAR2 SZ I        12 4 44.07        10.4 0.30                          13.5 183 
 BRR  HZ EP       12 4 28.25                             152    0.0910 73.5 306 
 BRR  HN ES   1   12 4 45.02                             152    0.28 7 73.5 306 
 BRR  HZ I        12 4 45.85         9.2 0.50                          73.5 306 
 RUS  HZ EP   2   12 4 30.08                             146    0.08 5 91.4 174 
 RUS  HN ES   2   12 4 48.63                             146    0.62 5 91.4 174 
 RUS  HZ I        12 4 50.36         4.3 0.22                          91.4 174 
 PTB  HZ EP       12 4 33.39                             133   -0.03 9  143 262 
 PTB  HN ES   2   12 4 53.74                             133   -0.36 5  143 262 
 PTB  HZ I        12 4 56.60         2.2 0.12                           143 262 
                                                                                
