 2016 1028 1546 51.3 L   6.864 -73.286122.6  RSN 14 0.5 2.2LRSN                1
 GAP=108        1.01       3.3     4.2  5.3 -0.5001E+01  0.7634E+01  0.1219E+01E
 Epicentro: BETULIA - SANTANDER                                                3
 ACTION:UPD 16-11-09 19:23 OP:rebc STATUS:               ID:20161028154651 L   I
 OLDACT:UP  16-10-29 01:21 OP:edw  STATUS:               ID:20161028153745     3
 OLDACT:UP  16-10-29 01:20 OP:edw  STATUS:               ID:20161028153745     3
 OLDACT:REG 16-10-28 20:41 OP:edw  STATUS:               ID:20161028153745     3
 2016-10-28-1538-00M.COL___349                                                 6
 STAT SP IPHASW D HRMM SECON CODA AMPLIT PERI AZIMU VELO AIN AR TRES W  DIS CAZ7
 BAR2 EZ IP       1547  8.39                             165   -0.0610 32.2 159 
 BAR2 EZ ES       1547 21.62                             165   -0.1610 32.2 159 
 BRR  HZ IP     D 1547  8.77                             154   -0.2710 54.2 300 
 BRR  HN ES       1547 22.96                             154    0.1310 54.2 300 
 BRR  HZ I        1547 24.84        32.8 0.14            152           54.2 300 
 PAM  EZ EP       1547 11.74                             144    0.1710 83.4  51 
 PAM  EN ES       1547 27.98                             144    0.6410 83.4  51 
 PAM  EZ I        1547 30.19        36.1 0.26            144           83.4  51 
 RUS  HZ EP       1547 13.48                             136   -0.1810  110 168 
 RUS  HN ES       1547 30.68                             136   -0.3810  110 168 
 PTB  HZ EP   4   1547 13.64                             129   -1.59 0  134 255 
 PTB  HN ES   4   1547 30.83                             129   -3.03 0  134 255 
 PTB  HZ I        1547 35.61        35.5 0.36            127            134 255 
 SPBC HZ EP       1547 18.65                             124    0.81 9  160 213 
 SPBC HN ES       1547 38.40                             124   -0.10 9  160 213 
 SPBC HZ I        1547 40.16        19.8 0.12            123            160 213 
 NOR  HZ EP       1547 24.99                             114    0.04 8  227 231 
 NOR  HN ES       1547 50.35                             114   -0.81 8  227 231 
 NOR  HZ I        1547 55.24        11.2 0.36            113            227 231 
 CHI  HZ EP       1547 28.36                             111    0.11 8  252 191 
 CHI  HN ES       1547 56.46                             111   -0.58 8  252 191 
 CHI  HZ I        1548  2.35         4.5 0.28            111            252 191 
 GUY2CHZ EP   4   1547 29.08                             108   -3.96 0  293 232 
 GUY2CHE ES       1548  5.92                             108    0.36 7  293 232 
 GUY2CHZ I        1548 12.02         7.6 0.36                           293 232 
 CBOC HZ EP       1547 36.16                             106    0.20 7  321 250 
 CBOC HN ES       1548 11.25                             106    0.50 7  321 250 
 ELA  HZ EP   4   1547 34.18                             106   -2.35 0  322 227 
 ELA  HN ES   4   1548 14.57                             106    2.80 0  322 227 
 ELA  HZ I        1548 24.17         7.2 0.46            105            322 227 
 PRA  HZ EP       1547 44.36                             102    0.32 6  391 207 
 PRA  HN ES   4   1548 28.90                             102    3.77 0  391 207 
 SJC  HZ EP   4   1547 42.70                             102   -1.83 0  395 328 
 SJC  HN ES   4   1548 22.84                             102   -3.18 0  395 328 
 SJC  HZ I        1548 27.21         2.9 0.28            101            395 328 
 CRJC HZ EP       1547 52.68                              99    0.10 5  462   5 
 CRJC HN ES       1548 38.87                              99   -1.47 5  462   5 
 CRJC HZ I        1548 48.08         7.5 0.31             99            462   5 
                                                                                
