 2013 1128 1313 37.1 L   6.795 -73.171146.5  RSN  9 0.3 2.4LRSN                1
 GAP=134        0.81       3.5     3.6  5.2 -0.1296E+01  0.4193E+01  0.4973E-02E
 Epicentro: LOS SANTOS - SANTANDER                                             3
 ACTION:UPD 14-01-09 16:31 OP:ep   STATUS:               ID:20131128131337 L   I
 OLDACT:UP  13-11-28 15:30 OP:cam  STATUS:               ID:20131128131000     3
 OLDACT:REG 13-11-28 14:49 OP:cam  STATUS:               ID:20131128131000     3
 2013-11-28-1310-00M.COL___282                                                 6
 STAT SP IPHASW D HRMM SECON CODA AMPLIT PERI AZIMU VELO AIN AR TRES W  DIS CAZ7
 BAR2 SZ EP       1313 56.92                             171    0.0710 22.5 183 
 BAR2 SZ ES       1314 12.13                             171   -0.0810 22.5 183 
 BAR2 SZ I        1314 13.00        88.8 0.22            171           22.5 183 
 BRR  HZ EP       1313 58.70                             153    0.4510 69.0 300 
 BRR  HN ES       1314 15.31                             153    0.6010 69.0 300 
 BRR  HZ I        1314 16.51        30.9 0.12            150           69.0 300 
 PAM  SZ EP       1313 59.79                             150    0.2210 79.6  41 
 PAM  SN ES       1314 16.63                             150   -0.4310 79.6  41 
 PAM  SZ I        1314 18.88        52.8 0.44            153           79.6  41 
 RUS  HZ EP   2   1314  0.81                             144   -0.14 5  100 174 
 PTB  HZ EP       1314  3.35                             133   -0.56 9  145 259 
 PTB  HN ES       1314 24.53                             133   -0.26 9  145 259 
 PTB  HZ I        1314 31.47        29.1 0.24            132            145 259 
 OCA  HZ EP   4   1314  6.00                             130    0.47 0  160 354 
 SPBC HZ EP       1314  5.76                             130    0.27 9  161 218 
 SPBC HN ES   1   1314 27.28                             130   -0.33 7  161 218 
 SPBC HZ I        1314 30.18        46.7 0.30            130            161 218 
 ZAR  HZ EP   1   1314  9.64                             123    0.25 6  202 293 
 ZAR  HN ES       1314 34.47                             123   -0.07 9  202 293 
 ZAR  HZ I        1314 41.83        16.3 0.52            123            202 293 
 SML  HZ EP   1   1314 13.35                             118   -0.38 6  243 336 
 SML  HE ES       1314 42.09                             118   -0.18 8  243 336 
 SML  HZ I        1314 45.06        25.6 0.10            118            243 336 
 CHI  HZ EP   2   1314 15.12                             117    0.37 4  247 195 
 HEL  HZ EP   4   1314 19.07                             115    1.99 0  269 256 
 SJC  HZ EP   4   1314 31.09                             106   -1.51 0  408 327 
                                                                                
