 2013  628 1928 34.7 L   6.811 -73.158144.2  RSN 12 0.5 2.2LRSN                1
 GAP=134        1.08       3.3     5.0  6.4 -0.6274E+00  0.8739E+01  0.2367E+01E
 Epicentro: LOS SANTOS - SANTANDER                                             3
 ACTION:UPD 14-01-08 09:57 OP:ep   STATUS:               ID:20130628192834 L   I
 OLDACT:REG 13-06-28 17:27 OP:carl STATUS:               ID:20130628192649     3
 2013-06-28-1926-49M.COL___232                                                 6
 STAT SP IPHASW D HRMM SECON CODA AMPLIT PERI AZIMU VELO AIN AR TRES W  DIS CAZ7
 BAR2 SZ EP       1928 54.00                             170   -0.1310 24.3 186 
 BAR2 SZ ES   1   1929  8.77                             170   -0.54 7 24.3 186 
 BAR2 SZ I        1929 10.12        26.7 0.16            169           24.3 186 
 GIR2 SZ EP       1928 54.30                             168    0.1910 29.9 353 
 GIR2 SZ ES       1929  9.73                             168    0.4410 29.9 353 
 GIR2 SZ I        1929 10.27        11.5 0.20            166           29.9 353 
 BRR  HZ EP       1928 56.11                             153    0.5710 69.4 298 
 BRR  HE ES   1   1929 12.63                             153    0.80 7 69.4 298 
 BRR  HZ I        1929 17.24        33.4 0.12            150           69.4 298 
 PAM  SZ IP     C 1928 57.13                             150    0.4210 77.4  41 
 PAM  SN ES   1   1929 14.00                             150    0.09 7 77.4  41 
 PAM  SZ I        1929 16.23        53.5 0.62            154           77.4  41 
 RUS  HZ EP   1   1928 58.13                             143   -0.22 7  102 175 
 RUS  HN ES   1   1929 16.11                             143   -0.72 7  102 175 
 RUS  HZ I        1929 17.79        17.2 0.24            145            102 175 
 PTB  HZ EP   1   1929  1.27                             132   -0.13 7  147 258 
 PTB  HN ES   1   1929 22.28                             132    0.02 7  147 258 
 PTB  HZ I        1929 25.13        20.1 0.16            131            147 258 
 OCA  HZ EP   1   1929  2.29                             130   -0.44 7  159 354 
 OCA  HN ES       1929 24.25                             130   -0.37 9  159 354 
 ZAR  HZ EP   1   1929  8.29                             122    1.46 6  202 292 
 ZAR  HE ES       1929 31.48                             122   -0.44 9  202 292 
 ZAR  HZ I        1929 38.15        27.2 0.36            122            202 292 
 NOR  HZ EP   1   1929 10.56                             118    0.31 6  234 234 
 NOR  HN ES   1   1929 37.68                             118   -0.34 6  234 234 
 NOR  HZ I        1929 43.31        10.6 0.34            118            234 234 
 SML  HZ EP   1   1929 10.28                             117   -0.74 6  242 335 
 SML  HN ES       1929 38.52                             117   -0.87 8  242 335 
 SML  HZ I        1929 46.02        25.9 0.10            118            242 335 
 CHI  HZ EP   1   1929 12.50                             117    0.14 6  249 195 
 CHI  HN ES   1   1929 41.19                             117   -0.57 6  249 195 
 CHI  HZ I        1929 45.79         5.3 0.26            118            249 195 
 PRA  HZ EP   1   1929 28.57                             106    0.40 4  392 209 
 PRA  HN ES   1   1930 10.11                             106    0.21 4  392 209 
 PRA  HZ I        1930 12.98         5.2 0.26            107            392 209 
                                                                                
