 2015 1128 1405 56.3 L   6.752 -73.193143.1  RSN  5 0.4 1.8LRSN                1
 GAP=136        0.87       7.1     4.0  6.6 -0.5929E+01  0.6837E+01 -0.1534E+01E
 Epicentro: VILLANUEVA - SANTANDER                                             3
 ACTION:UPD 15-12-28 16:14 OP:cam  STATUS:               ID:20151128140556 L   I
 OLDACT:UP  15-11-28 23:51 OP:ak   STATUS:               ID:20151128135749     3
 OLDACT:REG 15-11-28 20:55 OP:ak   STATUS:               ID:20151128135749     3
 2015-11-28-1357-49M.COL___307                                                 6
 STAT SP IPHASW D HRMM SECON CODA AMPLIT PERI AZIMU VELO AIN AR TRES W  DIS CAZ7
 BAR2 EZ EP       14 6 15.59                             172    0.1110 17.7 176 
 BAR2 EZ ES       14 6 30.72                             172    0.2610 17.7 176 
 BAR2 EZ I        14 6 30.99        16.7 0.24            176           17.7 176 
 BRR  HZ EP       14 6 17.22                             153    0.1810 69.5 304 
 BRR  HN ES       14 6 33.58                             153    0.3510 69.5 304 
 BRR  HZ I        14 6 35.91        11.6 0.32            147           69.5 304 
 PAM  EZ EP       14 6 18.71                             148    0.0410 84.8  40 
 PAM  EN ES       14 6 35.67                             148   -0.4710 84.8  40 
 PAM  EZ I        14 6 37.68        14.7 0.38            146           84.8  40 
 PTB  HZ EP       14 6 22.07                             133   -0.40 9  142 261 
 PTB  HN ES       14 6 42.52                             133   -0.38 9  142 261 
 PTB  HZ I        14 6 43.06         4.9 0.26            132            142 261 
 ZAR  HZ EP   1   14 6 29.08                             122    0.82 6  201 294 
 ZAR  HN ES       14 6 53.03                             122   -0.18 9  201 294 
 ZAR  HZ I        14 7  1.45         5.4 0.20            121            201 294 
                                                                                
