 2017  628 1930 59.6 L   6.286 -72.809  0.2  RSN 12 0.7 2.4LRSN                1
 GAP=129        1.72       4.6     3.6  6.7  0.6020E+01  0.8595E+01  0.8744E+01E
 Epicentro: ONZAGA - SANTANDER                                                 3
 ACTION:UPD 17-09-14 16:56 OP:jn   STATUS:               ID:20170628193059 L   I
 OLDACT:REG 17-06-28 21:58 OP:osc  STATUS:               ID:20170628192738     3
 2017-06-28-1928-00M.COL___370                                                 6
 STAT SP IPHASW D HRMM SECON CODA AMPLIT PERI AZIMU VELO AIN AR TRES W  DIS CAZ7
 BAR2 EZ EP       1931  7.75                              47   -1.2810 53.3 309 
 BAR2 EZ ES       1931 15.01                              47   -1.4110 53.3 309 
 BAR2 EZ I        1931 16.11        92.0 0.24             47           53.3 309 
 YPLC HZ EP   4   1931 15.42                              47   -1.92 0  109 154 
 YPLC HE ES       1931 30.27                              47   -0.9310  109 154 
 YPLC HZ I        1931 32.72        66.0 0.40             47            109 154 
 TAM  HZ EP       1931 18.31                              47    0.3110  114  82 
 TAM  HE ES       1931 32.88                              47    0.5110  114  82 
 BRR  HZ EP       1931 21.57                              47    0.4310  135 312 
 BRR  HE ES       1931 38.68                              47    0.7110  135 312 
 BRR  HZ I        1931 43.15        41.8 0.26             47            135 312 
 SPBC HZ EP   9   1931 22.18                              47   -2.32 0  156 243 
 SPBC HE ES       1931 40.59                                   -1.04 9  156 243 
 SPBC HZ I        1931 43.40        71.2 0.32             47            156 243 
 PTB  HZ EP       1931 28.38                              37   -0.14 9  184 279 
 PTB  HE ES       1931 51.78                              37    0.68 9  184 279 
 PTB  HZ I        1931 53.72        62.1 0.42             37            184 279 
 CHI  HZ EP   9   1931 31.27                              37   -0.91 0  210 209 
 CHI  HE ES       1931 56.26                                   -0.45 8  210 209 
 CHI  HZ I        1932  9.90        23.3 0.52             37            210 209 
 NOR  HZ EP       1931 36.48                              37    0.75 8  242 251 
 NOR  HE ES       1932  4.59                              37    0.65 8  242 251 
 NOR  HZ I        1932  5.07        31.4 0.30             37            242 251 
 VIL  EZ EP       1931 38.15                              37    0.08 8  260 202 
 VIL  EE ES   4   1932 11.59                              37    3.49 0  260 202 
 VIL  EZ I        1932 18.48        56.3 0.42             37            260 202 
 ZAR  HZ EP   9   1931 40.61                              37    2.30 0  263 301 
 ZAR  HE ES       1932 10.92                                    0.09 8  263 301 
 ZAR  HZ I        1932 12.10        22.2 0.32             37            263 301 
 HEL  HZ EP       1931 43.90                              36    0.36 7  301 268 
 HEL  HE ES       1932 17.78                              36   -0.05 7  301 268 
 HEL  HZ I        1932 19.84        18.8 0.30             36            301 268 
 GUY2CHZ EP       1931 44.50                              36    0.18 7  306 248 
 GUY2CHE ES       1932 19.58                              36    0.35 7  306 248 
 GUY2CHZ I        1932 27.35        13.7 0.58                           306 248 
                                                                                
