 2011  528 1142 24.6 L   6.806 -73.084144.7  RSN  6 0.1 1.6LRSN                1
 GAP=202        0.35       2.7     3.5  3.9  0.9150E+00  0.3590E+00 -0.1918E+00E
 Epicentro: LOS SANTOS - SANTANDER                                             3
 ACTION:UP  11-06-29 08:56 OP:tino STATUS:               ID:20110528114224 L   I
 2011-05-28-1138-42S.COL___115                                                 6
 STAT SP IPHASW D HRMM SECON CODA AMPLIT PERI AZIMU VELO SNR AR TRES W  DIS CAZ7
 BTL  SZ EP   1   1142 44.35                             170     0.2 7   24 302 
 BAR2 SZ EP   1   1142 44.10                             169    -0.1 7   26 205 
 BAR2 SZ ES   1   1142 59.38                             169    -0.1 7   26 205 
 GIR2 SZ EP   1   1142 44.31                             167     0.1 7   32 338 
 BRR  HZ EP   1   1142 45.79                             150    -0.2 7   77 296 
 BRR  HZ I        1142 46.34        11.1 0.13                            77 296 
 BRR  HN ES   1   1143  2.66                             150     0.0 7   77 296 
 RUS  HZ EP   1   1142 48.22                             143    -0.1 7  101 180 
 RUS  HN ES   1   1143  6.80                             143     0.0 7  101 180 
 RUS  HZ I        1143  9.10         4.7 0.33                           101 180 
 NOR  SN ES   1   1143 29.30                             118     0.1 6  241 235 
                                                                                
