 2013  928 1334 10.1 L   6.804 -73.184142.6  RSN 16 0.5 2.6LRSN 3.0WRSN        1
 SPEC AVERAGE  MO 13.6 ST 13.2 OM  2.0 f0 5.91 R0.3654 AL 0.00 WI 16.9 MW  3.0 3
 SPEC SD       MO  0.2 ST 19.8 OM  0.5 f0 3.01 R0.1597 AL      WI      MW  0.1 3
 GAP=132        1.07       3.2     4.2  5.4 -0.1833E+01  0.8017E+01  0.1353E+01E
 Epicentro: LOS SANTOS - SANTANDER                                             3
 SPEC ZAR HH N MO 13.7 ST 56.8 OM  1.9 f0 10.0 R0.1554 AL 0.00 WI 24.9 MW  3.1 3
 SPEC ZAR HH N T1335 5 K 0.000 GD  245 VS 4.20 DE 3.20 Q0300.0 QA 0.60 VS 4.20 3
 SPEC PTB HH N MO 13.7 ST  5.0 OM  2.0 f0 4.39 R0.3540 AL 0.00 WI 24.3 MW  3.1 3
 SPEC PTB HH N T133455 K 0.000 GD  202 VS 4.20 DE 3.20 Q0300.0 QA 0.60 VS 4.20 3
 SPEC RUS HH N MO 13.5 ST  2.1 OM  1.9 f0 3.74 R0.4155 AL 0.00 WI 10.6 MW  3.0 3
 SPEC RUS HH N T133451 K 0.000 GD  174 VS 4.20 DE 3.20 Q0300.0 QA 0.60 VS 4.20 3
 SPEC PAM SH N MO 13.6 ST0.579 OM  2.0 f0 2.30 R0.6757 AL 0.00 WI 10.6 MW  3.0 3
 SPEC PAM SH N T133448 K 0.000 GD  163 VS 4.20 DE 3.20 Q0300.0 QA 0.60 VS 4.20 3
 SPEC BRR HH N MO 13.9 ST 11.4 OM  2.3 f0 5.00 R0.3108 AL 0.00 WI 18.1 MW  3.2 3
 SPEC BRR HH N T133447 K 0.000 GD  157 VS 4.20 DE 3.20 Q0300.0 QA 0.60 VS 4.20 3
 SPEC BAR2SH Z MO 13.2 ST  3.3 OM  0.9 f0 10.0 R0.2812 AL 0.00 WI 12.8 MW  2.8 3
 SPEC BAR2SH Z T133429 K 0.000 GD  144 VP 7.60 DE 3.20 Q0300.0 QA 0.60 VS 4.20 3
 ACTION:UPD 13-10-22 09:25 OP:ep   STATUS:               ID:20130928133410 L   I
 OLDACT:UP  13-09-28 17:57 OP:jn   STATUS:               ID:20130928132960d    3
 OLDACT:DUP 13-09-28 17:52 OP:jn   STATUS:               ID:20130928132960d    3
 OLDACT:REG 13-09-28 15:46 OP:jn   STATUS:               ID:20130928132959     3
 2013-09-28-1329-59M.COL___272                                                 6
 STAT SP IPHASW D HRMM SECON CODA AMPLIT PERI AZIMU VELO AIN AR TRES W  DIS CAZ7
 BAR2 SZ EP       1334 29.48                             170    0.1210 23.4 180 
 BAR2 SZ ES       1334 43.93                             170   -0.4510 23.4 180 
 BAR2 SZ I        1334 45.60        92.3 0.24            170           23.4 180 
 BRR  HZ EP     C 1334 31.14                             153    0.4410 67.3 300 
 BRR  HN ES   1   1334 47.67                             153    0.91 7 67.3 300 
 BRR  HZ I        1334 49.27        50.8 0.16            142           67.3 300 
 PAM  SZ EP       1334 32.34                             149    0.2110 79.8  42 
 PAM  SN ES       1334 48.94                             149   -0.3810 79.8  42 
 PAM  SZ I        1334 51.52        71.9 0.44            142           79.8  42 
 RUS  HZ EP       1334 33.47                             143   -0.1410  101 174 
 RUS  HN ES       1334 52.34                             143    0.4010  101 174 
 RUS  HZ I        1334 53.13        58.1 0.28            137            101 174 
 PTB  HZ EP       1334 36.06                             132   -0.39 9  144 258 
 PTB  HN ES       1334 56.90                             132   -0.10 9  144 258 
 PTB  HZ I        1334 59.28        45.1 0.58            122            144 258 
 SPBC HZ EP       1334 38.28                             129    0.13 9  161 218 
 SPBC HN ES       1335  0.01                             129   -0.01 9  161 218 
 SPBC HZ I        1335  2.82        69.9 0.28            120            161 218 
 ZAR  HZ EP       1334 41.91                             122   -0.02 9  200 292 
 ZAR  HN ES   1   1335  6.96                             122    0.21 6  200 292 
 ZAR  HZ I        1335 12.66        34.4 0.54            113            200 292 
 NOR  HZ EP       1334 45.46                             118    0.15 8  232 234 
 NOR  HN ES       1335 12.63                             118   -0.15 8  232 234 
 NOR  HZ I        1335 15.93        23.9 0.18            110            232 234 
 SML  HZ EP       1334 45.50                             117   -0.82 8  242 336 
 SML  HE ES   1   1335 14.33                             117   -0.25 6  242 336 
 CHI  HZ EP       1334 47.54                             116   -0.02 8  248 194 
 CHI  HN ES       1335 16.50                             116   -0.27 8  248 194 
 CHI  HZ I        1335 20.17        23.4 0.36            109            248 194 
 ROSC BZ EP   2   1334 49.10                             116    1.24 4  251 210 
 HEL  HZ EP       1334 51.21                             114    1.49 8  268 255 
 HEL  HE ES   1   1335 19.59                             114   -1.03 6  268 255 
 HEL  HZ I        1335 27.46        24.3 0.28            107            268 255 
 URE  HZ EP   4   1334 49.84                             113   -0.73 0  280 292 
 URE  HZ I        1335 27.08        20.1 0.36            105            280 292 
 GUY2CHZ EP       1334 53.37                             112    0.16 7  298 234 
 GUY2CHZ I        1335 35.68        18.8 0.34                           298 234 
 RREF HZ EP       1334 55.35                             110   -0.43 7  319 229 
 RREF HZ I        1335 41.61        26.5 0.40            104            319 229 
 PRA  HZ EP       1335  3.25                             106   -0.07 6  390 209 
 PRA  HN ES       1335 44.08                             106   -0.75 6  390 209 
 PRA  HZ I        1335 49.87        16.6 0.70            100            390 209 
                                                                                
