 2012  128 1127 48.5 L   6.779 -73.158143.9  RSN  7 0.3 1.5LRSN                1
 GAP=136        0.85       5.0     6.0  6.8 -0.2272E+01  0.5794E+01  0.7062E+01E
 Epicentro: LOS SANTOS - SANTANDER                                             3
 ACTION:UP  12-02-03 08:21 OP:REBC STATUS:               ID:20120128112748 L   I
 2012-01-28-1120-00M.COL___188                                                 6
 STAT SP IPHASW D HRMM SECON CODA AMPLIT PERI AZIMU VELO SNR AR TRES W  DIS CAZ7
 BAR2 SZ EP       1128  7.80                             171    -0.110   21 187 
 BAR2 SZ ES   1   1128 22.96                             171     0.0 7   21 187 
 BAR2 SZ I        1128 24.24        12.2 0.42                            21 187 
 GIR2 SZ EP       1128  7.88                             166    -0.210   33 353 
 BRR  HZ EP       1128  9.61                             152     0.110   71 301 
 BRR  HN ES   1   1128 26.49                             152     0.7 7   71 301 
 BRR  HZ I        1128 27.78         8.6 0.60                            71 301 
 PAM  SZ EP       1128 10.68                             150     0.010   80  39 
 PAM  SN ES   1   1128 27.66                             150    -0.3 7   80  39 
 RUS  HZ EP       1128 12.43                             144     0.510   98 175 
 RUS  HN ES   1   1128 29.99                             144    -0.2 7   98 175 
 RUS  HZ I        1128 32.15         6.7 0.44                            98 175 
 PTB  HZ EP       1128 14.88                             132    -0.3 9  146 260 
 PTB  HN ES   2   1128 35.29                             132    -0.7 5  146 260 
 PTB  HZ I        1128 37.44         2.0 0.28                           146 260 
 CHI  HZ EP       1128 25.84                             117     0.0 8  246 195 
 CHI  HZ I        1128 26.35         2.0 0.14                           246 195 
                                                                                
