 2015 1128 1503 23.4 L   6.716 -73.386123.1  RSN  5 0.4 1.9LRSN                1
 GAP=161        0.88       5.3     4.8  6.9  0.1044E+01  0.1407E+02  0.4548E+01E
 Epicentro: GALAN - SANTANDER                                                  3
 ACTION:UPD 15-12-28 16:14 OP:cam  STATUS:               ID:20151128150323 L   I
 OLDACT:UP  15-11-29 00:13 OP:ak   STATUS:               ID:20151128145750d    3
 OLDACT:DUP 15-11-29 00:07 OP:ak   STATUS:               ID:20151128145750d    3
 2015-11-28-1457-49M.COL___310                                                 6
 STAT SP IPHASW D HRMM SECON CODA AMPLIT PERI AZIMU VELO AIN AR TRES W  DIS CAZ7
 BAR2 EZ EP       15 3 40.46                             167    0.0410 26.3 121 
 BAR2 EZ ES       15 3 53.79                             167    0.1210 26.3 121 
 BAR2 EZ I        15 3 54.75        25.9 0.26            168           26.3 121 
 BRR  HZ EP     C 15 3 41.18                             154   -0.1210 56.3 320 
 BRR  HN ES       15 3 55.35                             154    0.1210 56.3 320 
 PTB  HZ EP   1   15 3 45.42                             133   -0.62 7  120 261 
 PTB  HE ES       15 4  2.99                             133   -0.6810  120 261 
 PTB  HZ I        15 4  8.15        11.4 0.30            130            120 261 
 ZAR  HZ EP       15 3 52.32                             120   -0.03 9  184 298 
 ZAR  HN ES       15 4 15.38                             120    0.47 9  184 298 
 ZAR  HZ I        15 4 18.99        10.5 0.30            120            184 298 
 NOR  HZ EP   1   15 3 55.26                             116    0.27 6  208 232 
 NOR  HN ES       15 4 20.09                             116    0.50 8  208 232 
 NOR  HZ I        15 4 27.23         5.1 0.32            116            208 232 
                                                                                
