 2012 1228 1302  9.5 L   6.682 -73.162151.9  RSN  4 0.2 1.7LRSN                1
 GAP=227        0.58       5.1     4.6  5.5  0.9883E+01  0.1649E+01 -0.5051E+01E
 Epicentro: VILLANUEVA - SANTANDER                                             3
 ACTION:UPD 13-01-04 14:31 OP:ep   STATUS:               ID:20121228130209 L   I
 2012-12-28-1300-00M.COL___243                                                 6
 STAT SP IPHASW D HRMM SECON CODA AMPLIT PERI AZIMU VELO AIN AR TRES W  DIS CAZ7
 BAR2 SZ EP       13 2 29.67                             176    0.0210 10.2 193 
 BAR2 SZ ES   1   13 2 45.15                             176   -0.24 7 10.2 193 
 BAR2 SZ I        13 2 46.73         8.7 0.11                          10.2 193 
 BRR  HZ EP     C 13 2 31.80                             152    0.2110 76.8 308 
 BRR  HZ I        13 2 35.34        15.4 0.49                          76.8 308 
 BRR  HN ES   1   13 2 48.82                             152   -0.03 7 76.8 308 
 RUS  HZ EP   1   13 2 32.41                             149   -0.55 7 87.8 174 
 RUS  HN ES       13 2 51.55                             149    0.2510 87.8 174 
 RUS  HN I        13 2 53.82         5.5 0.45                          87.8 174 
 PTB  HZ EP       13 2 36.67                             134    0.07 9  144 264 
 PTB  HE ES       13 2 57.68                             134   -0.09 9  144 264 
 PTB  HZ I        13 2 59.83         5.0 0.11                           144 264 
                                                                                
