 2017  628 1637 39.7 L   6.640 -74.173 73.1  RSN  6 0.3 1.4LRSN                1
 GAP=120        0.80       3.0     2.5  6.4 -0.1011E+01 -0.1361E+01 -0.7095E+00E
 Epicentro: PUERTO PARRA - SANTANDER                                           3
 ACTION:UPD 17-09-14 16:56 OP:jn   STATUS:               ID:20170628163739 L   I
 OLDACT:REG 17-06-28 21:10 OP:osc  STATUS:               ID:20170628162749     3
 2017-06-28-1628-00M.COL___364                                                 6
 STAT SP IPHASW D HRMM SECON CODA AMPLIT PERI AZIMU VELO AIN AR TRES W  DIS CAZ7
 PTB  HZ EP       1637 50.48                             153   -0.3910 33.2 251 
 PTB  HE ES       1637 59.40                             153   -0.1510 33.2 251 
 PTB  HZ I        1638  0.96         7.3 0.06            155           33.2 251 
 BRR  HZ EP       1637 53.64                             131   -0.2510 72.6  45 
 BRR  HE ES       1638  5.05                             131    0.1310 72.6  45 
 BRR  HZ I        1638  5.47        10.1 0.17            132           72.6  45 
 BAR2 EZ IP     D 1637 58.00                             118   -0.0010  110  93 
 BAR2 EZ ES       1638 12.45                             118    0.2110  110  93 
 BAR2 EZ I        1638 14.50        11.6 0.25            120            110  93 
 ZAR  HZ EP       1637 58.58                             115   -0.3710  121 321 
 ZAR  HE ES       1638 14.44                             115    0.5110  121 321 
 ZAR  HZ I        1638 16.24        11.0 0.33            117            121 321 
 NOR  HE ES       1638 18.61                             111    0.36 9  142 213 
 GUY2CHZ EP   4   1638 12.09                             104    2.76 0  205 220 
 GUY2CHZ I        1638 35.81         1.8 0.44                           205 220 
                                                                                
