 2010 1128 1837 31.6 L   6.192 -73.604120.3  RSN  5 0.2 1.5LRSN                1
 GAP=169        0.47       3.2     7.8  7.9  0.9801E+01  0.3538E+02  0.1144E+02E
 Epicentro: LA PAZ - SANTANDER                                                 3
 ACTION:UP  10-12-17 16:55 OP:REBC STATUS:               ID:20101128183731 L   I
 2010-11-28-1833-38S.COL___132                                                 6
 STAT SP IPHASW D HRMM SECON CODA AMPLIT PERI AZIMU VELO SNR AR TRES W  DIS CAZ7
 BAR2 SZ EP   1   1837 50.18                             150     0.3 7   64  46 
 BAR2 SZ ES   1   1838  3.95                             150    -0.3 7   64  46 
 BAR2 SZ I        1838  5.50        14.9 0.53                            64  46 
 RUS  HZ EP   1   1837 50.47                             149     0.0 7   66 120 
 RUS  HZ I        1837 50.82         3.1 0.16                            66 120 
 RUS  HE ES   2   1838  5.35                             149     0.2 5   66 120 
 BTL  SZ EP   2   1837 51.33                             141    -0.3 5   89  25 
 BRR  HZ EP   1   1837 52.45                             137     0.1 7  102 353 
 BRR  HZ I        1837 52.80         8.3 0.11                           102 353 
 BRR  HN ES   1   1838  8.56                             137     0.0 7  102 353 
 CHI  HZ EP   2   1837 59.34                             121    -0.4 4  173 185 
 CHI  HE ES   2   1838 21.77                             121     0.1 4  173 185 
 CHI  HZ I        1838 27.42         2.9 0.50                           173 185 
                                                                                
