 2012 1028 1559 11.9 L   7.040 -73.051159.7  RSN  5 0.2 2.1LRSN                1
 GAP=132        0.55       4.4     4.6  5.3  0.1537E+01  0.2225E+00  0.2385E+01E
 Epicentro: PIEDECUESTA - SANTANDER                                            3
 ACTION:UPD 12-11-22 17:06 OP:ep   STATUS:               ID:20121028155911 L   I
 2012-10-28-1554-50M.COL___202                                                 6
 STAT SP IPHASW D HRMM SECON CODA AMPLIT PERI AZIMU VELO AIN AR TRES W  DIS CAZ7
 PAM  SZ EP       1559 34.67                             162    0.2810 51.0  49 
 PAM  SZ I        1559 35.02        23.1 0.16                          51.0  49 
 PAM  SE ES   1   1559 51.57                             162   -0.35 7 51.0  49 
 BAR2 SZ EP       1559 33.87                             161   -0.1710 51.6 196 
 BAR2 SZ I        1559 52.56        36.3 0.06                          51.6 196 
 BRR  HZ EP       1559 34.86                             154    0.1610 73.4 276 
 BRR  HZ I        1559 35.63        34.2 0.09                          73.4 276 
 BRR  HE ES       1559 52.60                             154    0.1310 73.4 276 
 RUS  HZ EP   1   1559 38.95                             140   -0.04 7  127 182 
 RUS  HN ES   1   16 0  0.07                             140   -0.03 7  127 182 
 RUS  HZ I        16 0  1.26        10.8 0.36                           127 182 
 ZAR  HZ EP   1   1559 45.05                             125   -0.42 6  206 284 
 ZAR  HZ I        16 0 18.36        10.1 0.37                           206 284 
                                                                                
