 2012 1228 1455 46.4 L   6.498 -73.233146.6  RSN  4 0.4 1.8LRSN                1
 GAP=273        1.02      25.8    15.8  9.8  0.3256E+03  0.3033E+02  0.3551E+01E
 Epicentro: SOCORRO - SANTANDER                                                3
 ACTION:UPD 13-01-04 14:31 OP:ep   STATUS:               ID:20121228145546 L   I
 2012-12-28-1450-00M.COL___243                                                 6
 STAT SP IPHASW D HRMM SECON CODA AMPLIT PERI AZIMU VELO AIN AR TRES W  DIS CAZ7
 BAR2 SZ EP       1456  6.34                             176    0.3610 11.8  28 
 BAR2 SZ ES       1456 20.84                             176   -0.3910 11.8  28 
 BAR2 SZ I        1456 27.88         9.9 0.52                          11.8  28 
 GIR2 SZ EP       1456  7.02                             155   -0.4810 64.4   4 
 BRR  HZ EP       1456  8.97                             148    0.4310 85.7 322 
 BRR  HE ES   1   1456 26.39                             148    0.60 7 85.7 322 
 BRR  HZ I        1456 31.20        23.2 0.56                          85.7 322 
 ZAR  HZ EP   1   1456 19.55                             121   -0.05 6  211 302 
 ZAR  HE ES   1   1456 44.88                             121   -0.59 6  211 302 
 ZAR  HZ I        1456 52.08         3.7 0.26                           211 302 
                                                                                
