 2013  328 1254 35.5 L   6.775 -73.189152.9  RSN  4 0.2 1.7LRSN                1
 GAP=231        0.49       4.3     4.0  4.6  0.7520E+01  0.1899E+01 -0.2390E+01E
 Epicentro: LOS SANTOS - SANTANDER                                             3
 ACTION:UPD 13-04-09 14:05 OP:ep   STATUS:               ID:20130328125435 L   I
 2013-03-28-1250-00M.COL___245                                                 6
 STAT SP IPHASW D HRMM SECON CODA AMPLIT PERI AZIMU VELO AIN AR TRES W  DIS CAZ7
 BAR2 SZ EP   1   1254 55.53                             172   -0.40 7 20.2 178 
 BAR2 SZ ES       1255 11.75                             172   -0.1110 20.2 178 
 BAR2 SZ I        1255 12.19        15.7 0.82            168           20.2 178 
 BRR  HZ EP       1254 57.36                             155    0.0910 68.4 302 
 BRR  HN ES   1   1255 14.50                             155    0.24 7 68.4 302 
 BRR  HN I        1255 15.23        12.4 0.24            152           68.4 302 
 RUS  HZ EP   1   1254 59.82                             146    0.02 7 98.3 173 
 RUS  HN ES       1255 18.89                             146    0.1410 98.3 173 
 RUS  HN I        1255 20.08         3.9 0.30            144           98.3 173 
 PTB  HZ EP   1   1255  2.81                             135    0.22 7  143 260 
 PTB  HN ES       1255 23.56                             135   -0.17 9  143 260 
 PTB  HN I        1255 28.44         6.4 0.54            132            143 260 
                                                                                
