 2015 1228 1303 35.5 L   6.798 -73.148145.8  RSN 23 0.5 2.7LRSN                1
 GAP= 71        1.11       3.2     3.1  5.3 -0.1076E+01  0.4224E+01  0.3724E+01E
 Epicentro: LOS SANTOS - SANTANDER                                             3
 ACTION:UPD 16-02-04 15:08 OP:cam  STATUS:               ID:20151228130335 L   I
 OLDACT:REG 15-12-28 20:17 OP:dnl  STATUS:               ID:20151228125751     3
 2015-12-28-1257-51M.COL___334                                                 6
 STAT SP IPHASW D HRMM SECON CODA AMPLIT PERI AZIMU VELO AIN AR TRES W  DIS CAZ7
 BAR2 EZ IP     D 13 3 55.08                             171   -0.0910 23.1 189 
 BAR2 EZ ES       13 4 10.30                             171   -0.1810 23.1 189 
 BAR2 EZ I        13 4 11.29       100.7 0.42            170           23.1 189 
 BRR  HZ EP       13 3 56.87                             152    0.1910 71.1 299 
 BRR  HN ES       13 4 13.92                             152    0.7410 71.1 299 
 BRR  HZ I        13 4 18.20        78.0 0.14            149           71.1 299 
 PAM  EZ EP       13 3 57.93                             151    0.1510 77.7  40 
 PAM  EN ES       13 4 15.00                             151   -0.1210 77.7  40 
 PAM  EZ I        13 4 17.28       112.8 0.49            152           77.7  40 
 RUS  HZ EP       13 3 59.10                             144   -0.1810  100 176 
 RUS  HE ES       13 4 17.80                             144    0.0110  100 176 
 RUS  HZ I        13 4 18.87        32.3 0.23            146            100 176 
 PTB  HZ EP       13 4  1.60                             132   -0.88 9  147 259 
 PTB  HE ES       13 4 23.59                             132    0.09 9  147 259 
 PTB  HZ I        13 4 29.59        34.2 0.23            130            147 259 
 TAM  HZ EP       13 4  3.46                             130    0.22 9  155 105 
 TAM  HN ES       13 4 24.42                             130   -0.42 9  155 105 
 TAM  HZ I        13 4 24.72        28.2 0.14            134            155 105 
 SPBC HZ EP       13 4  4.06                             129    0.05 9  163 219 
 SPBC HN ES       13 4 26.36                             129    0.15 9  163 219 
 SPBC HZ I        13 4 29.40        79.7 0.09            129            163 219 
 ZAR  HZ EP   2   13 4  7.76                             122   -0.21 4  204 292 
 ZAR  HN ES   1   13 4 31.75                             122   -1.52 6  204 292 
 ZAR  HZ I        13 4 40.35        40.4 0.25            121            204 292 
 NOR  HZ EP     D 13 4 11.30                             118    0.07 8  234 234 
 NOR  HN ES       13 4 38.70                             118   -0.37 8  234 234 
 NOR  HZ I        13 4 45.02        33.8 0.22            118            234 234 
 SML  HZ EP   2   13 4 11.18                             117   -1.00 4  244 335 
 SML  HN ES       13 4 41.58                             117    0.83 8  244 335 
 SML  HZ I        13 4 43.21        74.2 0.12            117            244 335 
 CHI  HZ EP     C 13 4 13.13                             117   -0.08 8  248 195 
 CHI  HN ES       13 4 42.59                             117    0.00 8  248 195 
 CHI  HZ I        13 4 46.12        35.1 0.57            118            248 195 
 ROSC BZ EP   4   13 4 15.73                             117    2.10 0  252 211 
 ROSC BE ES   4   13 4 41.10                             117   -2.23 0  252 211 
 ROSC BZ I        13 4 49.59        64.8 0.42            117            252 211 
 HEL  HZ EP   4   13 4 16.92                             115    1.20 0  272 256 
 HEL  HE ES       13 4 46.08                             115   -0.98 8  272 256 
 HEL  HZ I        13 4 53.16        21.9 0.35            114            272 256 
 URE  HZ EP   4   13 4 15.15                             114   -1.44 0  284 292 
 URE  HN ES   4   13 4 46.50                             114   -2.11 0  284 292 
 URE  HZ I        13 4 57.84        32.1 0.09            113            284 292 
 GUY2CHZ EP       13 4 20.31                             112    1.20 7  301 235 
 GUY2CHE ES       13 4 53.86                             112    0.76 7  301 235 
 GUY2CHZ I        13 4 59.28        16.9 0.26                           301 235 
 PTGC HZ EP   4   13 4 18.30                             112   -1.09 0  309 159 
 PTGC HN ES   4   13 4 51.93                             112   -1.65 0  309 159 
 PTGC HZ I        13 4 53.62        33.8 0.12            113            309 159 
 LL6C HZ EP   4   13 4 19.76                             110   -1.51 0  325 358 
 LL6C HZ ES   4   13 4 53.66                             110   -3.27 0  325 358 
 LL6C HZ I        13 5  2.08        13.1 0.49            111            325 358 
 DBB  SZ EP       13 4 22.52                             109   -0.47 7  339 274 
 DBB  SZ ES   4   13 4 55.75                             109   -4.25 0  339 274 
 DBB  SZ I        13 5  2.92        50.6 0.15            109            339 274 
 ANIL HZ EP       13 4 25.90                             108    0.59 6  357 225 
 ANIL HE ES   2   13 5  4.99                             108    0.87 3  357 225 
 PRA  HZ EP       13 4 28.87                             106   -0.15 6  392 210 
 PRA  HN ES       13 5 10.86                             106    0.12 6  392 210 
 PRA  HZ I        13 5 16.30        25.7 0.30            107            392 210 
 ORTC HZ EP       13 4 29.47                             106    0.05 6  395 216 
 ORTC HN ES       13 5 11.88                             106    0.43 6  395 216 
 ORTC HZ I        13 5 16.53        16.4 0.18            107            395 216 
 SJC  HZ EP   4   13 4 29.12                             106   -1.99 0  409 327 
 SJC  HN ES   4   13 5 10.42                             106   -4.03 0  409 327 
 SJC  HZ I        13 5 22.73         9.3 0.31            106            409 327 
 CRJC HZ EP   4   13 4 35.50                             103   -2.57 0  468   4 
 CRJC HE ES   4   13 5 21.62                             103   -5.22 0  468   4 
 CRJC HZ I        13 5 30.47        14.7 0.37            104            468   4 
                                                                                
