 2014  828 1228 20.6 L   6.957 -73.155134.4  RSN  6 0.5 1.4LRSN                1
 GAP=183        1.34       5.2     8.1  9.9  0.2193E+01  0.6976E+01  0.6023E+01E
 Epicentro: PIEDECUESTA - SANTANDER                                            3
 ACTION:UPD 14-09-15 21:53 OP:nd   STATUS:               ID:20140828122820 L   I
 OLDACT:REG 14-08-28 20:30 OP:stll STATUS:               ID:20140828121816     3
 2014-08-28-1218-16M.COL___260                                                 6
 STAT SP IPHASW D HRMM SECON CODA AMPLIT PERI AZIMU VELO AIN AR TRES W  DIS CAZ7
 BAR2 SZ EP       1228 40.30                             162    0.9110 40.4 184 
 BAR2 SZ I        1228 40.73         3.6 0.40            158           40.4 184 
 BAR2 SZ ES       1228 53.78                             162   -0.2510 40.4 184 
 BRR  HZ EP       1228 40.42                             153    0.3010 63.7 285 
 BRR  HN ES       1228 55.95                             153    0.6210 63.7 285 
 BRR  HZ I        1228 56.56         7.5 0.42            149           63.7 285 
 RUS  HZ EP       1228 44.70                             137    0.0410  118 176 
 RUS  HN ES       1229  3.29                             137   -0.1310  118 176 
 RUS  HZ I        1229  6.22         2.4 0.18            135            118 176 
 OCA  HN ES       1229  5.65                             130   -0.90 9  143 353 
 PTB  HZ EP       1228 47.27                             129    0.27 9  151 252 
 PTB  HN ES       1229  7.60                             129    0.02 9  151 252 
 PTB  HZ I        1229 14.22         4.1 0.40            126            151 252 
 SPBC HZ EP       1228 49.22                             124   -0.37 9  176 215 
 SPBC HN ES       1229 11.37                             124   -0.81 9  176 215 
 SPBC HZ I        1229 18.27         5.0 0.26            122            176 215 
                                                                                
