 2012  328 1502 21.7 L   6.801 -73.171147.2  RSN  8 0.3 2.0LRSN                1
 GAP=133        0.67       3.9     3.9  6.8 -0.1867E+01  0.1072E+02 -0.3222E+01E
 ACTION:UP  12-03-31 23:23 OP:EP   STATUS:               ID:20120328150221 L   I
 2012-03-28-1500-00M.COL___197                                                 6
 STAT SP IPHASW D HRMM SECON CODA AMPLIT PERI AZIMU VELO SNR AR TRES W  DIS CAZ7
 BAR2 SZ EP   1   15 2 41.30                             171    -0.2 7   23 183 
 BAR2 SZ ES   1   15 2 57.22                             171     0.3 7   23 183 
 BAR2 SZ I        15 2 59.12        15.9 0.19                            23 183 
 BRR  HZ EP       15 2 43.29                             154     0.510   69 300 
 BRR  HZ I        15 2 44.83        26.1 0.13                            69 300 
 PAM  SZ EP   1   15 2 44.17                             150     0.0 7   79  41 
 PAM  SZ I        15 2 44.46        14.8 0.20                            79  41 
 PAM  SN ES   1   15 3  1.25                             150    -0.4 7   79  41 
 RUS  HZ EP   1   15 2 45.46                             144    -0.1 7  101 174 
 RUS  HE ES   1   15 3  4.32                             144     0.1 7  101 174 
 RUS  HZ I        15 3  6.46         7.7 0.29                           101 174 
 PTB  HZ EP   1   15 2 48.20                             133    -0.3 7  145 259 
 PTB  HN ES   1   15 3  9.07                             133    -0.4 7  145 259 
 PTB  HZ I        15 3 15.21        10.1 0.41                           145 259 
 ZAR  HZ EP   1   15 2 54.03                             123     0.1 6  201 292 
 ZAR  HE ES   1   15 3 19.13                             123     0.0 6  201 292 
 ZAR  HZ I        15 3 25.79        16.0 0.38                           201 292 
 NOR  SE ES   1   15 3 25.00                             119     0.0 6  232 234 
 CHI  HN ES   2   15 3 28.67                             117    -0.1 4  248 195 
                                                                                
