 2014  628 1735 33.7 L   6.820 -73.173142.9  RSN 14 0.4 2.5LRSN                1
 GAP=132        0.84       2.0     3.3  4.4 -0.1456E+01  0.5564E+01  0.6130E+00E
 Epicentro: LOS SANTOS - SANTANDER                                             3
 ACTION:UPD 14-07-01 22:57 OP:nd   STATUS:               ID:20140628173533 L   I
 OLDACT:DUP 14-06-28 22:56 OP:carl STATUS:               ID:20140628172821d    3
 2014-06-28-1728-20M.COL___239                                                 6
 STAT SP IPHASW D HRMM SECON CODA AMPLIT PERI AZIMU VELO AIN AR TRES W  DIS CAZ7
 BAR2 SZ EP       1735 53.11                             170    0.1310 25.2 182 
 BAR2 SZ ES       1736  8.23                             170    0.1810 25.2 182 
 BAR2 SZ I        1736  9.71        31.2 0.20            169           25.2 182 
 PAM  SZ EP       1735 56.14                             150    0.5610 77.7  42 
 PAM  SN ES       1736 13.04                             150    0.3610 77.7  42 
 PAM  SZ I        1736 15.18        63.0 0.46            154           77.7  42 
 RUS  HZ EP       1735 57.12                             142   -0.1810  103 174 
 RUS  HN ES       1736 15.17                             142   -0.5710  103 174 
 RUS  HZ I        1736 17.11        20.5 0.28            145            103 174 
 PTB  HZ EP       1735 59.84                             132   -0.32 9  145 258 
 PTB  HN ES       1736 20.70                             132   -0.13 9  145 258 
 PTB  HZ I        1736 23.28        22.2 0.20            132            145 258 
 OCA  HZ EP       1736  1.20                             129   -0.30 9  158 354 
 OCA  HE ES       1736 23.08                             129   -0.15 9  158 354 
 OCA  HZ I        1736 28.38        26.9 0.34            131            158 354 
 SPBC HZ EP       1736  1.75                             128   -0.17 9  163 218 
 SPBC HN ES       1736 23.85                             128   -0.11 9  163 218 
 SPBC HZ I        1736 30.22        32.6 0.24            129            163 218 
 ZAR  HZ EP       1736  5.32                             122   -0.22 9  200 292 
 ZAR  HN ES       1736 31.16                             122    0.75 9  200 292 
 ZAR  HZ I        1736 37.44        19.8 0.22            123            200 292 
 SML  HZ EP       1736  9.32                             117   -0.45 8  240 336 
 SML  HN ES       1736 37.52                             117   -0.42 8  240 336 
 SML  HZ I        1736 41.33        41.2 0.28            119            240 336 
 CHI  HZ EP       1736 11.13                             116   -0.21 8  250 194 
 CHI  HN ES       1736 40.70                             116   -0.04 8  250 194 
 CHI  HZ I        1736 46.53        12.9 0.60            118            250 194 
 GUY2CHZ EP       1736 17.46                             112    0.46 7  300 234 
 GUY2CHN ES       1736 50.19                             112   -0.62 7  300 234 
 GUY2CHZ I        1737  3.30        11.9 0.44                           300 234 
 RREF HZ EP       1736 19.85                             110    0.27 7  321 229 
 RREF HE ES       1736 55.58                             110    0.18 7  321 229 
 RREF HZ I        1737  0.06        10.8 0.60            111            321 229 
 TOL  SZ EP       1736 22.25                             109    0.52 7  343 224 
 TOL  SN ES       1736 59.29                             109    0.05 7  343 224 
 TOL  SZ I        1737  7.52        32.8 0.48            110            343 224 
 PRA  HZ EP       1736 27.08                             106   -0.05 6  392 209 
 PRA  HN ES       1737  9.07                             106    0.23 6  392 209 
 PRA  HZ I        1737 14.75        13.1 0.34            107            392 209 
 ORTC HZ EP       1736 27.80                             106    0.32 6  395 216 
 ORTC HN ES       1737 10.30                             106    0.84 6  395 216 
 ORTC HZ I        1737 16.40        24.8 0.92            107            395 216 
                                                                                
