 2012  128 1727 52.3 L   6.782 -73.134149.4  RSN  6 0.3 1.7LRSN                1
 GAP=139        0.70       7.4     7.0  7.5 -0.3503E+00  0.1144E+02  0.1811E+02E
 Epicentro: LOS SANTOS - SANTANDER                                             3
 ACTION:UP  12-02-03 08:21 OP:REBC STATUS:               ID:20120128172752 L   I
 2012-01-28-1720-00M.COL___188                                                 6
 STAT SP IPHASW D HRMM SECON CODA AMPLIT PERI AZIMU VELO SNR AR TRES W  DIS CAZ7
 BAR2 SZ EP       1728 12.27                             171    -0.110   22 194 
 BAR2 SZ ES   1   1728 27.79                             171    -0.2 7   22 194 
 BAR2 SZ I        1728 29.01         8.2 0.38                            22 194 
 GIR2 SZ EP       1728 12.52                             167     0.010   33 349 
 BRR  HZ EP       1728 14.15                             152     0.210   73 299 
 BRR  HZ I        1728 14.43        21.6 0.44                            73 299 
 BRR  HN ES   1   1728 31.15                             152     0.3 7   73 299 
 PAM  SZ EP   3   1728 15.01                             151     0.0 2   78  38 
 PAM  SN ES   1   1728 32.44                             151    -0.2 7   78  38 
 RUS  HZ EP   1   1728 16.66                             145     0.4 7   99 177 
 RUS  HZ I        1728 35.99         3.0 0.24                            99 177 
 PTB  HZ EP   1   1728 19.03                             133    -0.6 7  149 260 
 PTB  HZ I        1728 47.58         6.0 0.46                           149 260 
                                                                                
