 2016 1228 1452 45.1 L   6.848 -73.162140.0  RSN  7 0.5 1.5LRSN                1
 GAP=132        1.01       7.1     5.5  8.3 -0.1130E+02  0.1511E+02 -0.1455E+02E
 Epicentro: LOS SANTOS - SANTANDER                                             3
 ACTION:UPD 17-01-11 20:20 OP:rebc STATUS:               ID:20161228145246dL   I
 OLDACT:REG 16-12-28 21:21 OP:cog  STATUS:               ID:20161228144742     3
 2016-12-28-1448-00M.COL___381                                                 6
 STAT SP IPHASW D HRMM SECON CODA AMPLIT PERI AZIMU VELO AIN AR TRES W  DIS CAZ7
 BAR2 HZ EP       1453  4.53                             168    0.3610 28.3 185 
 BAR2 HZ ES       1453 18.99                             168   -0.0410 28.3 185 
 BAR2 HZ I        1453 20.68         6.0 0.28            171           28.3 185 
 PAM  EZ EP       1453  6.30                             151   -0.2510 74.6  43 
 PAM  EN ES   3   1453 22.04                             151   -1.23 2 74.6  43 
 PAM  EZ I        1453 26.22         2.3 0.38            154           74.6  43 
 RUS  HZ EP     D 1453  8.36                             141   -0.3510  106 175 
 RUS  HN ES       1453 27.41                             141    0.3010  106 175 
 RUS  HZ I        1453 31.22         2.0 0.58            147            106 175 
 PTB  HZ EP       1453 11.49                             131   -0.06 9  147 257 
 PTB  HN ES       1453 32.55                             131    0.37 9  147 257 
 PTB  HZ I        1453 34.94         4.5 0.34            132            147 257 
 ZAR  HZ EP   3   1453 17.31                             122    0.50 2  200 291 
 ZAR  HE ES   4   1453 37.54                             122   -3.99 0  200 291 
 ZAR  HZ I        1453 48.97         4.9 0.56            123            200 291 
 NOR  HZ EP       1453 21.32                             117    0.63 8  236 233 
 NOR  HN ES       1453 47.45                             117   -0.99 8  236 233 
 NOR  HZ I        1453 52.52         3.4 0.18            120            236 233 
 GUY2CHZ EP   4   1453 31.42                             111    2.78 0  303 234 
 GUY2CHE ES   4   1454  7.09                             111    4.50 0  303 234 
 GUY2CHZ I        1454 11.37         2.4 0.56                           303 234 
                                                                                
