 2012  128 1852  1.5 L   6.835 -73.151143.2  RSN 17 0.4 2.8LRSN                1
 GAP=134        1.08       4.3     5.1  5.9 -0.1713E+01  0.8842E+01  0.6902E+01E
 Epicentro: LOS SANTOS - SANTANDER                                             3
 ACTION:UP  12-02-03 08:21 OP:REBC STATUS:               ID:20120128185201 L   I
 2012-01-28-1850-00M.COL___188                                                 6
 STAT SP IPHASW D HRMM SECON CODA AMPLIT PERI AZIMU VELO SNR AR TRES W  DIS CAZ7
 BAR2 SZ IP       1852 20.93                             169     0.010   27 187 
 GIR2 SZ IP       1852 20.79                             169     0.010   27 350 
 GIR2 SZ ES   1   1852 35.45                             169    -0.4 7   27 350 
 BAR2 SZ ES   1   1852 35.94                             169    -0.1 7   27 187 
 BAR2 SZ I        1852 36.80        94.0 0.26                            27 187 
 BRR  HZ IP     C 1852 22.56                             153     0.310   69 296 
 BRR  HZ I        1852 24.08       113.4 0.10                            69 296 
 BRR  HE ES   1   1852 39.48                             153     1.0 7   69 296 
 PAM  SZ EP       1852 23.44                             151     0.110   75  42 
 PAM  SN ES   1   1852 40.46                             151     0.2 7   75  42 
 RUS  HZ EP       1852 25.36                             142     0.110  104 176 
 RUS  HN ES   1   1852 43.50                             142    -0.4 7  104 176 
 RUS  HZ I        1852 45.11        35.9 0.40                           104 176 
 PTB  HZ IP     C 1852 27.47                             131    -0.8 9  148 257 
 PTB  HN ES   1   1852 48.49                             131    -0.7 7  148 257 
 PTB  HZ I        1852 51.19        48.0 0.16                           148 257 
 OCA  SZ EP       1852 28.87                             130    -0.4 9  156 353 
 OCA  SZ I        1852 55.70        69.4 0.30                           156 353 
 ZAR  HZ EP   2   1852 33.73                             122     0.1 4  202 291 
 ZAR  HN ES   1   1852 58.51                             122    -0.1 6  202 291 
 ZAR  HZ I        1853  4.09        74.8 0.48                           202 291 
 NOR  SZ EP       1852 37.13                             118    -0.2 8  236 234 
 NOR  SE ES   1   1853  5.17                             118     0.0 6  236 234 
 CHI  HZ EP       1852 39.46                             116     0.0 8  252 195 
 CHI  HN ES   1   1853  9.72                             116     0.7 6  252 195 
 CHI  HZ I        1853 16.63        26.5 0.48                           252 195 
 HEL  HZ EP   1   1852 42.10                             114     0.5 6  272 255 
 HEL  HZ I        1853 20.63        18.8 0.44                           272 255 
 GUY  SZ EP       1852 45.86                             111     0.4 7  305 234 
 GUY  SZ I        1853 29.16        36.3 0.44                           305 234 
 VIL  SZ EP       1852 44.81                             111    -0.4 7  307 191 
 VIL  SZ I        1853 29.98        18.5 0.44                           307 191 
 RREF HZ EP       1852 48.69                             110     0.9 7  324 229 
 RREF HZ I        1853 31.36        26.3 0.30                           324 229 
 DBB  SZ EP       1852 48.87                             109     0.1 7  339 274 
 ANIL HZ EP   3   1852 50.45                             108    -1.0 2  360 224 
 ANIL HZ I        1853 35.52        57.3 0.30                           360 224 
 PRA  HZ EP       1852 55.26                             106     0.0 6  395 209 
 PRA  HZ I        1853 40.78        46.1 0.16                           395 209 
                                                                                
