 2016  428 1329 45.1 L   6.750 -73.199145.2  RSN  5 0.3 1.5LRSN                1
 GAP=132        0.78       4.2     3.6  6.5 -0.2443E+00  0.6777E+01 -0.2638E+01E
 Epicentro: VILLANUEVA - SANTANDER                                             3
 ACTION:UPD 16-05-05 14:24 OP:rebc STATUS:               ID:20160428132945 L   I
 OLDACT:REG 16-04-28 21:47 OP:cara STATUS:               ID:20160428132748     3
 2016-04-28-1327-48M.COL___321                                                 6
 STAT SP IPHASW D HRMM SECON CODA AMPLIT PERI AZIMU VELO AIN AR TRES W  DIS CAZ7
 BAR2 EZ IP       1330  4.73                             173    0.2010 17.5 174 
 BAR2 EZ ES       1330 20.07                             173    0.3610 17.5 174 
 BAR2 EZ I        1330 21.38         8.6 0.28            175           17.5 174 
 PAM  EZ IP       1330  7.73                             148   -0.0010 85.4  40 
 PAM  EN ES       1330 25.06                             148   -0.3410 85.4  40 
 PAM  EZ I        1330 27.13         4.0 0.44            150           85.4  40 
 RUS  HZ EP       1330  8.35                             145   -0.0710 95.6 172 
 RUS  HN ES       1330 26.66                             145    0.0310 95.6 172 
 RUS  HZ I        1330 28.23         3.8 0.34            149           95.6 172 
 PTB  HZ EP       1330 11.41                             133    0.02 9  141 261 
 PTB  HN ES       1330 31.33                             133   -0.58 9  141 261 
 PTB  HZ I        1330 33.28         4.1 0.14            134            141 261 
 ZAR  HN ES       1330 42.61                             123    0.44 9  201 294 
 ZAR  HZ I        1330 49.25         4.0 0.34            123            201 294 
                                                                                
