 2017  228 1204 14.5 L   6.651 -73.144151.1  RSN  5 0.4 1.0LRSN                1
 GAP=227        1.10       8.5     7.9  8.8  0.4107E+02  0.1090E+02 -0.3347E+00E
 Epicentro: VILLANUEVA - SANTANDER                                             3
 ACTION:UPD 17-05-24 15:41 OP:jn   STATUS:               ID:20170228120414 L   I
 OLDACT:REG 17-03-01 01:39 OP:lv   STATUS:               ID:20170228115746     3
 2017-02-28-1158-00M.COL___375                                                 6
 STAT SP IPHASW D HRMM SECON CODA AMPLIT PERI AZIMU VELO AIN AR TRES W  DIS CAZ7
 BAR2 EZ EP       12 4 35.06                             177    0.4710 7.81 213 
 BAR2 EZ ES       12 4 50.19                             177   -0.0510 7.81 213 
 BAR2 EZ I        12 4 52.02         3.2 0.21            175           7.81 213 
 BRR  HZ EP       12 4 37.11                             150    0.3210 80.5 309 
 BRR  HN ES       12 4 53.78                             150   -0.3710 80.5 309 
 RUS  HZ EP       12 4 36.79                             150   -0.9310 84.2 175 
 RUS  HN ES       12 4 56.22                             150    0.4110 84.2 175 
 RUS  HZ I        12 4 56.88         0.8 0.27            150           84.2 175 
 PTB  HZ EP       12 4 41.92                             134    0.17 9  146 265 
 PTB  HN ES       12 5  2.93                             134   -0.05 9  146 265 
 PTB  HZ I        12 5  4.86         1.6 0.12            134            146 265 
 ZAR  HN ES       12 5 14.22                             123    0.06 8  211 296 
                                                                                
