 2012  328 1934 49.3 L   6.789 -73.128144.4  RSN  6 0.3 2.0LRSN                1
 GAP=139        0.53       5.0     3.5  7.1 -0.1761E+01  0.1206E+01 -0.6520E+01E
 ACTION:UP  12-03-31 23:23 OP:EP   STATUS:               ID:20120328193449 L   I
 2012-03-28-1930-00M.COL___197                                                 6
 STAT SP IPHASW D HRMM SECON CODA AMPLIT PERI AZIMU VELO SNR AR TRES W  DIS CAZ7
 BAR2 SZ EP   1   1935  8.42                             171    -0.3 8   23 195 
 BAR2 SZ ES   2   1935 23.99                             171     0.1 5   23 195 
 BAR2 SZ I        1935 24.89        32.3 0.23                            23 195 
 BRR  HZ EP   1   1935 10.40                             151     0.0 8   73 299 
 BRR  HZ I        1935 10.54        34.8 0.13                            73 299 
 BRR  HE ES   2   1935 27.37                             151     0.5 5   73 299 
 PAM  SZ EP   1   1935 11.54                             151     0.2 8   77  38 
 PAM  SN ES   2   1935 28.27                             151    -0.3 5   77  38 
 RUS  HZ EP   2   1935 12.79                             144     0.0 5   99 177 
 RUS  HZ I        1935 31.14         7.3 0.12                            99 177 
 RUS  HN ES   2   1935 31.36                             144     0.2 5   99 177 
 PTB  HN ES       1935 37.30                             131    -0.110  149 259 
 ZAR  HZ EP   2   1935 22.53                             122     0.6 5  206 292 
 ZAR  HN ES   2   1935 46.89                             122    -0.4 5  206 292 
 ZAR  HZ I        1935 53.16         8.1 0.39                           206 292 
                                                                                
