 2010  128 1230 47.6 L   6.828 -72.998133.7  RSN  5 0.3 1.8LRSN                1
 GAP=223        0.64       5.4    20.1  8.2 -0.3379E+01  0.1812E+02  0.4872E+01E
 Epicentro: CEPITA - SANTANDER                                                 3
 ACTION:UP  10-08-24 09:46 OP:vdl  STATUS:               ID:20100128123046 L   I
 2010-01-28-1228-25S.COL___093                                                 6
 STAT SP IPHASW D HRMM SECON CODA AMPLIT PERI AZIMU VELO SNR AR TRES W  DIS CAZ7
 BAR2 SZ EP       1231  6.02                             165     0.010   33 218 
 BAR2 SZ ES   2   1231 20.16                             165    -0.2 5   33 218 
 GIR2 SZ EP   1   1231  6.13                             164     0.2 7   35 322 
 GIR2 SZ ES   2   1231 20.08                             164    -0.2 5   35 322 
 RUS  BZ EP   1   1231 10.02                             140    -0.4 7  104 185 
 RUS  BE ES   1   1231 28.66                             140     0.4 7  104 185 
 RUS  BZ I        1231 30.09         6.0 0.27                           104 185 
 CHI  HN ES   2   1231 54.46                             114    -0.6 4  256 199 
 RREF BZ EP   2   1231 35.49                             108     0.6 3  336 231 
 RREF BZ I        1232 17.83         3.9 0.36                           336 231 
                                                                                
