 2012 1128 1437 18.6 L   6.801 -73.194144.7  RSN  8 0.2 2.1LRSN                1
 GAP=131        0.47       2.3     2.6  4.3 -0.3710E+00  0.3975E+01  0.1953E+01E
 Epicentro: ZAPATOCA - SANTANDER                                               3
 ACTION:UPD 12-12-05 15:36 OP:}ep  STATUS:               ID:20121128143718 L   I
 2012-11-28-1430-00M.COL___237                                                 6
 STAT SP IPHASW D HRMM SECON CODA AMPLIT PERI AZIMU VELO AIN AR TRES W  DIS CAZ7
 BAR2 SZ EP       1437 38.21                             170    0.1110 23.1 177 
 BAR2 SZ ES   2   1437 53.95                             170    0.64 5 23.1 177 
 BAR2 SZ I        1437 54.97        41.2 0.22                          23.1 177 
 GIR2 SZ EP       1437 38.29                             167    0.1510 30.7   0 
 GIR2 SZ I        1437 55.70        15.6 0.30                          30.7   0 
 PAM  SZ EP       1437 41.06                             149    0.1410 80.8  43 
 PAM  SN ES       1437 58.11                             149   -0.2110 80.8  43 
 PAM  SZ I        1438  0.52        20.0 0.54                          80.8  43 
 RUS  HZ EP       1437 42.18                             143   -0.1210  101 173 
 RUS  HE ES   1   1438  0.58                             143   -0.20 7  101 173 
 RUS  HE I        1438  1.92        30.5 0.51                           101 173 
 PTB  HZ EP       1437 44.89                             133   -0.13 9  143 258 
 PTB  HN ES   1   1438  5.58                             133   -0.04 7  143 258 
 PTB  HZ I        1438 11.65        12.7 0.26                           143 258 
 ZAR  HZ EP   1   1437 50.13                             123   -0.34 6  199 293 
 ZAR  HN ES   1   1438 15.42                             123    0.10 6  199 293 
 ZAR  HZ I        1438 23.31        19.6 0.29                           199 293 
 CHI  HZ EP   1   1437 56.27                             117    0.16 6  247 194 
 CHI  HN ES   1   1438 25.25                             117   -0.11 6  247 194 
 PRA  HZ EP   1   1438 12.24                             106    0.44 4  390 209 
 PRA  HZ I        1438 57.84         4.9 0.53                           390 209 
                                                                                
