 2014  528 1033 44.1 L   6.769 -73.215138.8  RSN  6 0.4 1.6LRSN                1
 GAP=225        1.05       7.1     7.0  7.2  0.3036E+02  0.1262E+02  0.4660E+01E
 Epicentro: ZAPATOCA - SANTANDER                                               3
 ACTION:UPD 15-03-16 17:01 OP:nd   STATUS:               ID:20140528103344 L   I
 OLDACT:DUP 14-05-28 22:32 OP:stll STATUS:               ID:20140528102809d    3
 2014-05-28-1028-08M.COL___257                                                 6
 STAT SP IPHASW D HRMM SECON CODA AMPLIT PERI AZIMU VELO AIN AR TRES W  DIS CAZ7
 BAR2 SZ EP       1034  2.78                             172   -0.0610 19.9 170 
 BAR2 SZ ES       1034 16.60                             172   -0.8410 19.9 170 
 BAR2 SZ I        1034 18.50         8.0 0.32            146           19.9 170 
 BRR  HZ EP       1034  4.47                             153    0.2310 66.5 304 
 BRR  HN ES       1034 20.73                             153    0.7910 66.5 304 
 RUS  HZ EP       1034  7.04                             143    0.0410 98.0 171 
 RUS  HN ES       1034 25.13                             143    0.2910 98.0 171 
 RUS  HZ I        1034 27.18         4.8 0.20            122           98.0 171 
 PTB  HZ EP       1034  9.56                             132   -0.22 9  140 260 
 PTB  HN ES       1034 29.65                             132   -0.14 9  140 260 
 PTB  HZ I        1034 33.03         7.9 0.14            115            140 260 
 SPBC HZ EP       1034 11.65                             129    0.27 9  156 218 
 SPBC HZ I        1034 40.72         5.5 0.30            112            156 218 
 ZAR  HZ EP       1034 15.24                             122   -0.28 9  198 294 
 ZAR  HN ES       1034 39.80                             122   -0.22 9  198 294 
 ZAR  HZ I        1034 46.76         3.1 0.12            110            198 294 
                                                                                
