 2017  828 1421 45.4 L   6.827 -73.135147.0  RSN 11 0.4 1.9LRSN                1
 GAP=112        0.92       3.4     4.0  5.3 -0.1864E+01  0.3120E+01  0.6550E+01E
 Epicentro: LOS SANTOS - SANTANDER                                             3
 ACTION:UPD 17-09-04 20:25 OP:rebc STATUS:               ID:20170828142145 L   I
 OLDACT:UP  17-08-28 23:19 OP:dani STATUS:               ID:20170828141739     3
 OLDACT:REG 17-08-28 20:22 OP:dani STATUS:               ID:20170828141739     3
 2017-08-28-1418-00M.COL___414                                                 6
 STAT SP IPHASW D HRMM SECON CODA AMPLIT PERI AZIMU VELO AIN AR TRES W  DIS CAZ7
 BAR2 EZ EP       1422  4.90                             169   -0.3210 26.5 191 
 BAR2 EZ ES       1422 20.16                             169   -0.5410 26.5 191 
 BAR2 EZ I        1422 21.75        18.9 0.40            168           26.5 191 
 BRR  HZ EP       1422  6.64                             153   -0.0010 70.9 296 
 BRR  HE ES       1422 23.62                             153    0.4010 70.9 296 
 BRR  HZ I        1422 29.06        15.6 0.42            150           70.9 296 
 PAM  EZ EP       1422  7.83                             152    0.2910 74.3  40 
 PAM  EN ES       1422 25.04                             152    0.2110 74.3  40 
 PAM  EZ I        1422 26.99        12.1 0.54            156           74.3  40 
 RUS  HZ EP       1422  9.11                             143   -0.3510  104 177 
 RUS  HN ES       1422 27.89                             143   -0.3610  104 177 
 RUS  HZ I        1422 28.66         9.2 0.20            145            104 177 
 SPBC HZ EP       1422 14.07                             129   -0.20 9  166 219 
 SPBC HN ES       1422 37.19                             129    0.39 9  166 219 
 SPBC HZ I        1422 41.76        14.1 0.16            129            166 219 
 YPLC HZ EP       1422 15.35                             127   -0.12 9  179 152 
 YPLC HN ES       1422 39.38                             127    0.45 9  179 152 
 ZAR  HE ES   3   1422 42.60                             123   -0.67 2  204 291 
 NOR  HZ EP       1422 21.52                             118    0.05 8  237 234 
 NOR  HN ES       1422 49.39                             118   -0.24 8  237 234 
 NOR  HZ I        1422 56.72         6.4 0.22            119            237 234 
 CHI  HZ EP       1422 23.18                             117   -0.32 8  252 195 
 CHI  HN ES       1422 54.31                             117    1.08 8  252 195 
 CHI  HZ I        1422 56.51         4.4 0.60            118            252 195 
 GUY2CHZ EP   3   1422 31.12                             112    1.77 2  304 234 
 GUY2CHN ES   4   1423  7.60                             112    3.95 0  304 234 
 GUY2CHZ I        1423 15.17         3.1 0.44                           304 234 
 PRA  HZ EP       1422 39.28                             107   -0.04 6  395 210 
 PRA  HN ES       1423 21.03                             107   -0.36 6  395 210 
 PRA  HZ I        1423 24.82         2.5 0.33            108            395 210 
                                                                                
