 2013  328 1502 24.5 L   6.777 -73.140151.7  RSN  6 0.3 2.0LRSN                1
 GAP=138        0.81       4.6     4.2  7.2 -0.1568E+01  0.3428E+01  0.2454E+01E
 Epicentro: LOS SANTOS - SANTANDER                                             3
 ACTION:UPD 13-04-09 14:05 OP:ep   STATUS:               ID:20130328150224 L   I
 2013-03-28-1500-00M.COL___245                                                 6
 STAT SP IPHASW D HRMM SECON CODA AMPLIT PERI AZIMU VELO AIN AR TRES W  DIS CAZ7
 BAR2 SZ EP       15 2 44.71                             172   -0.0810 21.0 193 
 BRR  HZ EP       15 2 46.52                             153    0.1410 73.0 300 
 BRR  HN ES       15 3  4.04                             153    0.5910 73.0 300 
 BRR  HN I        15 3  4.82        21.9 0.26            150           73.0 300 
 PAM  SZ EP       15 2 47.49                             151    0.0710 78.9  38 
 PAM  SN ES       15 3  4.91                             151   -0.4010 78.9  38 
 PAM  SN I        15 3  6.04         8.7 0.20            154           78.9  38 
 RUS  HZ EP   1   15 2 49.11                             146    0.46 7 98.0 176 
 RUS  HN ES       15 3  7.48                             146   -0.0110 98.0 176 
 RUS  HN I        15 3  9.06         6.9 0.22            147           98.0 176 
 PTB  HZ EP       15 2 51.78                             133   -0.18 9  148 260 
 PTB  HN ES       15 3 12.91                             133   -0.47 9  148 260 
 PTB  HN I        15 3 17.80        17.2 0.30            132            148 260 
 ZAR  HE ES   2   15 3 23.19                             123   -0.03 4  206 293 
 ZAR  HE I        15 3 28.72        23.7 0.44            123            206 293 
                                                                                
