 2017  128 1330 19.5 L   6.658 -73.207139.5  RSN  5 0.4 1.3LRSN                1
 GAP=208        0.83       6.8     6.4  7.7  0.2048E+02  0.1469E+02  0.6274E+01E
 Epicentro: BARICHARA - SANTANDER                                              3
 ACTION:UPD 17-05-22 16:04 OP:jn   STATUS:               ID:20170128133019 L   I
 OLDACT:REG 17-01-28 21:30 OP:dnl  STATUS:               ID:20170128132744     3
 2017-01-28-1328-00M.COL___339                                                 6
 STAT SP IPHASW D HRMM SECON CODA AMPLIT PERI AZIMU VELO AIN AR TRES W  DIS CAZ7
 BAR2 EZ EP       1330 37.74                             177   -0.4210 7.79 159 
 BAR2 EZ ES       1330 52.62                             177   -0.0910 7.79 159 
 BAR2 EZ I        1330 53.50         5.2 0.32            178           7.79 159 
 BRR  HZ EP   2   1330 41.06                             150    0.87 5 74.7 312 
 BRR  HN ES       1330 56.51                             150    0.1910 74.7 312 
 BRR  HZ I        1331  3.80         5.2 0.52            148           74.7 312 
 RUS  HZ EP   2   1330 42.50                             147    0.90 5 85.7 171 
 RUS  HE ES       1330 58.96                             147    0.1310 85.7 171 
 RUS  HZ I        1331  2.02         2.4 0.32            153           85.7 171 
 PTB  HZ EP       1330 44.80                             133   -0.35 9  139 265 
 PTB  HN ES       1331  5.22                             133    0.08 9  139 265 
 PTB  HZ I        1331  6.38         2.3 0.34            134            139 265 
 ZAR  HE ES   4   1331 18.41                             121    1.80 0  204 297 
 ZAR  HZ I        1331 22.46         3.7 0.44            122            204 297 
                                                                                
