 2016  328 1945 26.7 L   6.804 -73.164152.0  RSN  4 0.4 1.5LRSN                1
 GAP=142        0.89       5.5     5.1  8.5 -0.1175E+02  0.1531E+02  0.7072E-03E
 Epicentro: LOS SANTOS - SANTANDER                                             3
 ACTION:UPD 16-05-13 21:28 OP:cam  STATUS:               ID:20160328194526 L   I
 OLDACT:REG 16-03-28 21:09 OP:drio STATUS:               ID:20160328193745     3
 2016-03-28-1937-45M.COL___325                                                 6
 STAT SP IPHASW D HRMM SECON CODA AMPLIT PERI AZIMU VELO AIN AR TRES W  DIS CAZ7
 PAM  EZ EP       1945 50.10                             151    0.4810 78.3  41 
 PAM  EN ES       1946  7.42                             151   -0.0910 78.3  41 
 PAM  EZ I        1946  9.26         6.8 0.52            155           78.3  41 
 RUS  HZ EP       1945 50.62                             145   -0.4710  101 175 
 RUS  HE ES       1946 10.25                             145    0.1210  101 175 
 RUS  HZ I        1946 11.40         3.7 0.42            147            101 175 
 PTB  HZ EP       1945 53.93                             134   -0.06 9  146 258 
 PTB  HN ES       1946 14.96                             134   -0.34 9  146 258 
 PTB  HZ I        1946 17.79         4.6 0.14            134            146 258 
 NOR  HZ EP       1946  2.46                             120   -0.17 8  233 234 
 NOR  HE ES       1946 31.32                             120    0.65 8  233 234 
 NOR  HZ I        1946 36.55         2.3 0.14            121            233 234 
                                                                                
