 2014  928 1246 34.5 L   6.840 -73.150144.6  RSN 18 0.5 3.2LRSN 3.8WRSN        1
 SPEC AVERAGE  MO 14.7 ST  1.5 OM  2.8 f0 1.33 R1.9244 AL 0.00 WI 30.0 MW  3.8 3
 SPEC SD       MO  0.4 ST  2.4 OM  0.4 f0 1.25 R0.9690 AL      WI      MW  0.3 3
 GAP= 69        1.09       3.5     3.4  5.2  0.1818E+00  0.3712E+01  0.2806E+01E
 Epicentro: LOS SANTOS - SANTANDER                                             3
     128.0      73.0     -82.0 20.0 12.0 29.0  0.2  0.2           RSN FPFIT    F
 SPEC BAR2SH Z MO 14.5 ST  3.4 OM  2.6 f0 2.64 R0.7288 AL-0.00 WI 30.0 MW  3.6 3
 SPEC BAR2SH Z T1247 7 K 0.000 GD  147 VS 5.20 DE 3.50 Q0750.0 QA 1.50 VS 5.20 3
 SPEC RUS HH Z MO 14.6 ST0.893 OM  2.6 f0 1.58 R1.2177 AL-0.00 WI 30.0 MW  3.7 3
 SPEC RUS HH Z T124715 K 0.000 GD  178 VS 5.20 DE 3.50 Q0750.0 QA 1.50 VS 5.20 3
 SPEC ZAR HH Z MO 14.7 ST  7.4 OM  2.6 f0 2.87 R0.6704 AL-0.00 WI 30.0 MW  3.7 3
 SPEC ZAR HH Z T124730 K 0.000 GD  248 VS 5.20 DE 3.50 Q0750.0 QA 1.50 VS 5.20 3
 SPEC CHI HH Z MO 14.7 ST0.194 OM  2.5 f00.871 R2.2090 AL-0.00 WI 30.0 MW  3.7 3
 SPEC CHI HH Z T124740 K 0.000 GD  291 VS 5.20 DE 3.50 Q0750.0 QA 1.50 VS 5.20 3
 SPEC ROSCBH Z MO 14.8 ST0.323 OM  2.6 f00.953 R2.0189 AL-0.00 WI 30.0 MW  3.8 3
 SPEC ROSCBH Z T124743 K 0.000 GD  294 VS 5.20 DE 3.50 Q0750.0 QA 1.50 VS 5.20 3
 SPECGUY2CHH Z MO 14.7 ST  0.2 OM  2.5 f00.919 R  2.09 AL-0.00 WI 30.0 MW  3.7 3
 SPECGUY2CHH Z T124751 K       GD335.7 VS 5.20 DE 3.50 Q0750.0 QA 1.50 VS 5.20 3
 SPEC PTGCHH Z MO 15.0 ST0.128 OM  2.8 f00.569 R3.3814 AL-0.00 WI 30.0 MW  4.0 3
 SPEC PTGCHH Z T124749 K 0.000 GD  344 VS 5.20 DE 3.50 Q0750.0 QA 1.50 VS 5.20 3
 SPEC PRA HH Z MO 14.9 ST0.252 OM  2.6 f00.778 R2.4730 AL-0.00 WI 30.0 MW  3.9 3
 SPEC PRA HH Z T1248 9 K 0.000 GD  421 VS 5.20 DE 3.50 Q0750.0 QA 1.50 VS 5.20 3
 SPEC SJC HH Z MO 14.5 ST0.237 OM  2.2 f0 1.03 R1.8680 AL-0.00 WI 30.0 MW  3.6 3
 SPEC SJC HH Z T1248 6 K 0.000 GD  430 VS 5.20 DE 3.50 Q0750.0 QA 1.50 VS 5.20 3
 SPEC MACCHH Z MO 14.8 ST0.149 OM  2.4 f00.699 R2.7525 AL-0.00 WI 30.0 MW  3.8 3
 SPEC MACCHH Z T124832 K 0.000 GD  544 VS 5.20 DE 3.50 Q0750.0 QA 1.50 VS 5.20 3
 OLDACT:UP  14-09-28 22:26 OP:cam  STATUS:               ID:20140928124000     3
 OLDACT:UP  14-09-28 22:25 OP:cam  STATUS:               ID:20140928124000     3
 OLDACT:UP  14-09-28 22:24 OP:cam  STATUS:               ID:20140928124000     3
 OLDACT:REG 14-09-28 20:14 OP:cam  STATUS:               ID:20140928124000     3
 ACTION:UPD 14-10-03 23:09 OP:nd   STATUS:               ID:20140928124634 L   I
 OLDACT:UP  14-09-28 22:27 OP:cam  STATUS:               ID:20140928124000     3
 OLDACT:UP  14-09-28 22:26 OP:cam  STATUS:               ID:20140928124000     3
 2014-09-28-1240-00M.COL___252                                                 6
 STAT SP IPHASW D HRMM SECON CODA AMPLIT PERI AZIMU VELO AIN AR TRES W  DIS CAZ7
 BAR2 SZ IP     D 1246 54.09                             169    0.0310 27.6 187 
 BAR2 SZ ES       1247  9.03                             169   -0.3110 27.6 187 
 BAR2 SZ I        1247 10.66       453.7 0.26            168           27.6 187 
 BRR  HZ IP     C 1246 55.69                             153    0.3310 68.8 295 
 BRR  HN ES       1247 12.59                             153    0.9310 68.8 295 
 BRR  HZ I        1247 15.87       552.3 0.14            153           68.8 295 
 PAM  SZ EP     C 1246 56.52                             151    0.1310 74.3  42 
 PAM  SN ES       1247 13.39                             151   -0.0910 74.3  42 
 PAM  SZ I        1247 16.07       126.9 0.20            148           74.3  42 
 RUS  HZ EP       1246 58.42                             142   -0.0210  105 176 
 RUS  HN ES       1247 16.79                             142   -0.3410  105 176 
 RUS  HZ I        1247 18.81       256.2 0.26            140            105 176 
 PTB  HZ IP     D 1247  0.72                             132   -0.67 9  148 257 
 PTB  HN ES       1247 22.08                             132   -0.30 9  148 257 
 PTB  HZ I        1247 27.13       297.1 0.16            130            148 257 
 TAM  HZ IP     C 1247  2.38                             130    0.17 9  157 106 
 TAM  HZ I        1247 23.03        96.9 0.20            126            157 106 
 TAM  HN ES       1247 23.90                             130    0.05 9  157 106 
 SPBC HZ EP       1247  3.16                             128   -0.03 9  166 218 
 SPBC HN ES       1247 24.88                             128   -0.70 9  166 218 
 SPBC HZ I        1247 28.51       199.5 0.24            126            166 218 
 ZAR  HZ EP       1247  6.78                             122    0.15 9  202 291 
 ZAR  HN ES       1247 32.11                             122    0.39 9  202 291 
 CTAB SZ EP   4   1247 12.10                             119    1.56 0  233 210 
 SML  HZ EP       1247  9.55                             118   -1.03 8  240 335 
 SML  HE ES   4   1247 36.54                             118   -2.20 0  240 335 
 SML  HZ I        1247 47.74       212.3 0.12            116            240 335 
 CHI  HZ EP       1247 12.59                             116    0.03 8  253 195 
 CHI  HN ES       1247 42.27                             116    0.00 8  253 195 
 CHI  HZ I        1247 50.32        84.5 0.42            114            253 195 
 ROSC BZ EP   4   1247 14.18                             116    1.26 0  256 210 
 ROSC BN ES   4   1247 44.85                             116    1.94 0  256 210 
 ROSC BZ I        1247 50.41       151.8 0.35            114            256 210 
 CVER SZ EP       1247 16.06                             114    0.85 7  276 202 
 GUY2CHZ EP       1247 18.74                             112    0.46 7  303 234 
 GUY2CHZ I        1248  5.49        91.2 0.52                           303 234 
 PTGC HZ EP   4   1247 17.51                             111   -1.26 0  313 159 
 PTGC HE ES   4   1247 51.35                             111   -1.96 0  313 159 
 PTGC HZ I        1247 57.52        45.1 0.20            109            313 159 
 DBB  SZ EP       1247 21.67                             109   -0.15 7  339 274 
 PRA  HZ EP       1247 27.95                             106   -0.43 6  396 209 
 PRA  HE ES       1248 11.37                             106    0.95 6  396 209 
 PRA  HZ I        1248 19.56        94.8 0.50            105            396 209 
 SJC  HZ EP   4   1247 27.41                             106   -2.12 0  405 327 
 SJC  HN ES   4   1248  8.04                             106   -4.44 0  405 327 
 SJC  HZ I        1248 12.47        38.5 0.44            104            405 327 
 MACC HZ EP   4 C 1247 41.60                             101   -2.07 0  525 189 
 MACC HE ES   4   1248 34.41                             101   -3.23 0  525 189 
 MACC HZ I        1248 38.12        21.1 0.66            100            525 189 
                                                                                
