 2016  328 1452 10.8 L   6.815 -73.197149.0  RSN  4 0.2 1.3LRSN                1
 GAP=146        0.59       3.7     3.5  5.0 -0.3960E+01  0.4537E+01 -0.1765E+01E
 Epicentro: ZAPATOCA - SANTANDER                                               3
 ACTION:UPD 16-05-13 21:28 OP:cam  STATUS:               ID:20160328145210 L   I
 OLDACT:REG 16-03-28 20:48 OP:drio STATUS:               ID:20160328144747     3
 2016-03-28-1447-47M.COL___310                                                 6
 STAT SP IPHASW D HRMM SECON CODA AMPLIT PERI AZIMU VELO AIN AR TRES W  DIS CAZ7
 BAR2 EZ EP       1452 30.95                             170    0.0710 24.7 176 
 BAR2 EZ ES       1452 46.88                             170    0.3610 24.7 176 
 BAR2 EZ I        1452 47.26         5.4 0.14            173           24.7 176 
 PAM  EZ EP       1452 33.73                             151    0.1810 79.9  43 
 PAM  EN ES       1452 50.97                             151   -0.2910 79.9  43 
 PAM  EZ I        1452 55.36         4.5 0.48            153           79.9  43 
 RUS  HZ EP       1452 35.14                             144    0.0810  103 173 
 RUS  HE ES       1452 53.71                             144   -0.2510  103 173 
 RUS  HZ I        1452 54.90         2.0 0.36            149            103 173 
 PTB  HZ EP       1452 37.47                             134   -0.14 9  143 258 
 PTB  HE ES       1452 58.45                             134   -0.04 9  143 258 
 PTB  HZ I        1453  5.76         2.7 0.22            134            143 258 
                                                                                
