 2013  128 1942  3.8 L   6.791 -73.142141.8  RSN 16 0.4 3.4LRSN 3.3WRSN        1
 SPEC AVERAGE  MO 14.1 ST 16.2 OM  2.6 f0 4.30 R0.3662 AL 2.77 WI 15.5 MW  3.3 3
 SPEC SD       MO  0.2 ST 14.0 OM  0.3 f0 1.19 R0.0912 AL      WI      MW  0.1 3
 GAP= 72        0.85       2.2     2.5  4.0 -0.3775E+00  0.1885E+01  0.1634E+01E
 Epicentro: LOS SANTOS - SANTANDER                                             3
 SPEC ROSCBH Z MO 14.4 ST  8.1 OM  2.5 f0 2.95 R0.4983 AL 3.47 WI 22.6 MW  3.5 3
 SPEC ROSCBH Z T194310 K 0.000 GD  289 VS 4.20 DE 3.20 Q0300.0 QA 0.60 VS 4.20 3
 SPEC TAM HH Z MO 13.9 ST 23.6 OM  2.2 f0 5.91 R0.2487 AL 4.59 WI 16.0 MW  3.2 3
 SPEC TAM HH Z T194247 K 0.000 GD  209 VS 4.20 DE 3.20 Q0300.0 QA 0.60 VS 4.20 3
 SPEC RUS HH Z MO 13.8 ST  5.7 OM  2.2 f0 3.93 R0.3740 AL 2.69 WI  9.8 MW  3.2 3
 SPEC RUS HH Z T194244 K 0.000 GD  173 VS 4.20 DE 3.20 Q0300.0 QA 0.60 VS 4.20 3
 SPEC OCA HH Z MO 14.3 ST 27.5 OM  2.6 f0 4.54 R0.3238 AL 2.14 WI 14.4 MW  3.5 3
 SPEC OCA HH Z T194253 K 0.000 GD  214 VS 4.20 DE 3.20 Q0300.0 QA 0.60 VS 4.20 3
 SPEC PAM SH Z MO 13.9 ST  5.4 OM  2.3 f0 3.66 R0.4016 AL 2.34 WI  8.8 MW  3.2 3
 SPEC PAM SH Z T194241 K 0.000 GD  161 VS 4.20 DE 3.20 Q0300.0 QA 0.60 VS 4.20 3
 SPEC HEL HH Z MO 14.0 ST  3.8 OM  2.1 f0 3.06 R0.4804 AL 1.98 WI 22.1 MW  3.3 3
 SPEC HEL HH Z T194311 K 0.000 GD  306 VS 4.20 DE 3.20 Q0300.0 QA 0.60 VS 4.20 3
 SPEC BRR HH Z MO 14.1 ST 46.2 OM  2.5 f0 6.44 R0.2283 AL 2.91 WI 22.1 MW  3.3 3
 SPEC BRR HH Z T194240 K 0.000 GD  159 VS 4.20 DE 3.20 Q0300.0 QA 0.60 VS 4.20 3
 SPEC BAR2SH Z MO 14.1 ST  9.5 OM  2.5 f0 3.93 R0.3740 AL 2.02 WI  8.1 MW  3.3 3
 SPEC BAR2SH Z T194236 K 0.000 GD  143 VS 4.20 DE 3.20 Q0300.0 QA 0.60 VS 4.20 3
 ACTION:UPD 13-02-15 09:17 OP:ep   STATUS:               ID:20130128194203 L   I
 2013-01-28-1940-00M.COL___241                                                 6
 STAT SP IPHASW D HRMM SECON CODA AMPLIT PERI AZIMU VELO AIN AR TRES W  DIS CAZ7
 BAR2 SZ IP       1942 23.13                             171    0.1810 22.4 191 
 BAR2 SZ ES       1942 37.63                             171   -0.2510 22.4 191 
 BAR2 SZ I        1942 39.43       753.7 0.32            165           22.4 191 
 BRR  HZ IP     D 1942 25.12                             152    0.5310 72.0 299 
 BRR  HN ES       1942 41.21                             152    0.4210 72.0 299 
 BRR  HN I        1942 46.39      1004.0 0.25            140           72.0 299 
 PAM  SZ IP       1942 26.05                             150    0.4010 77.9  39 
 PAM  SZ I        1942 26.91       542.7 0.19            147           77.9  39 
 PAM  SN ES       1942 42.65                             150   -0.0210 77.9  39 
 RUS  HZ IP     C 1942 27.12                             143    0.0210 99.5 176 
 RUS  HE ES       1942 45.23                             143   -0.0410 99.5 176 
 RUS  HE I        1942 47.17       433.0 0.40            138           99.5 176 
 PTB  HZ EP       1942 30.06                             131   -0.42 9  148 259 
 PTB  HE ES   1   1942 50.95                             131   -0.33 7  148 259 
 PTB  HZ I        1942 53.55       210.6 0.23            121            148 259 
 TAM  HZ IP     C 1942 31.52                             130    0.40 9  154 105 
 TAM  HZ I        1942 31.76       311.4 0.21            127            154 105 
 TAM  HE ES       1942 52.38                             130   -0.04 9  154 105 
 OCA  HZ EP       1942 31.62                             128   -0.30 9  161 353 
 OCA  HN ES       1942 53.32                             128   -0.53 9  161 353 
 OCA  HZ I        1942 56.62       332.2 0.26            121            161 353 
 ZAR  HZ EP       1942 36.17                             121    0.09 9  205 292 
 ZAR  HN ES       1943  1.33                             121    0.08 9  205 292 
 ZAR  HZ I        1943  7.83       164.5 0.41            113            205 292 
 CTAB SZ EP   4   1942 40.26                             118    1.00 0  229 211 
 NOR  HZ EP       1942 38.84                             118   -0.45 8  234 235 
 NOR  HN ES       1943  7.07                             118    0.11 8  234 235 
 NOR  HZ I        1943 13.62        96.0 0.24            111            234 235 
 CHI  HZ EP       1942 41.40                             116    0.20 8  248 195 
 CHI  HE ES       1943  9.99                             116   -0.37 8  248 195 
 CHI  HE I        1943 13.78       192.5 0.26            111            248 195 
 ROSC BZ EP       1942 42.43                             116    0.78 8  252 211 
 ROSC BN ES   1   1943 10.80                             116   -0.36 6  252 211 
 ROSC BZ I        1943 16.78        91.7 0.41            110            252 211 
 HEL  HZ EP   1   1942 44.01                             114    0.17 6  272 256 
 HEL  HZ I        1943 22.52        83.7 0.58            107            272 256 
 URE  HZ EP   4   1942 42.99                             113   -1.79 0  285 292 
 VIL  SZ EP       1942 46.64                             111   -0.31 7  302 192 
 VIL  SN ES       1943 20.32                             111   -0.28 7  302 192 
 VIL  SZ I        1943 26.41        92.7 0.46            106            302 192 
 DBB  SZ EP       1942 51.22                             109    0.03 7  340 274 
 DBB  SZ I        1943 30.01       109.1 0.39            103            340 274 
 ANIL HZ EP   1   1942 54.34                             108    0.92 5  357 225 
 ANIL HE ES   1   1943 31.82                             108   -0.29 5  357 225 
 SDV  BZ EP       1942 52.82                             107   -0.93 6  361  50 
                                                                                
