 2013  528 1402 40.2 L   6.812 -73.142150.7  RSN  6 0.5 2.1LRSN                1
 GAP=187        1.29       6.1     9.0  8.3  0.1811E+02  0.8967E+01 -0.7485E+01E
 Epicentro: LOS SANTOS - SANTANDER                                             3
 ACTION:UPD 13-06-20 09:54 OP:ep   STATUS:               ID:20130528140240 L   I
 2013-05-28-1358-51M.COL___221                                                 6
 STAT SP IPHASW D HRMM SECON CODA AMPLIT PERI AZIMU VELO AIN AR TRES W  DIS CAZ7
 BAR2 SZ EP       14 3  0.32                             170   -0.1510 24.8 190 
 BAR2 SZ ES       14 3 16.03                             170   -0.2310 24.8 190 
 BAR2 SZ I        14 3 18.40         9.5 0.38            168           24.8 190 
 GIR2 SZ ES       14 3 15.78                             168   -0.4410 30.0 349 
 BRR  HZ EP       14 3  2.66                             153    0.7810 70.9 297 
 BRR  HN ES       14 3 19.80                             153    1.0210 70.9 297 
 BRR  HN I        14 3 23.95        28.3 0.18            150           70.9 297 
 RUS  HZ EP       14 3  4.92                             144    0.3710  102 176 
 RUS  HE ES       14 3 23.16                             144   -0.3710  102 176 
 RUS  HN I        14 3 24.68        13.6 0.20            146            102 176 
 PTB  HZ EP       14 3  7.46                             133   -0.19 9  148 258 
 PTB  HN ES       14 3 28.60                             133   -0.44 9  148 258 
 PTB  HE I        14 3 34.33        20.9 0.24            132            148 258 
 SML  HZ EP       14 3 16.86                             118   -0.15 8  243 335 
 SML  HN ES       14 3 45.16                             118   -0.54 8  243 335 
 SML  HE I        14 3 48.85        17.7 0.10            120            243 335 
                                                                                
