 2017  228 1034 22.3 L   6.842 -73.150149.5  RSN  8 0.4 1.1LRSN                1
 GAP=134        0.95       4.7     4.4  8.5  0.4858E+01  0.1726E+02  0.9029E+01E
 Epicentro: LOS SANTOS - SANTANDER                                             3
 ACTION:UPD 17-05-24 15:41 OP:jn   STATUS:               ID:20170228103422 L   I
 OLDACT:DUP 17-02-28 21:26 OP:lv   STATUS:               ID:20170228102743d    3
 OLDACT:DUP 17-02-28 21:15 OP:lv   STATUS:               ID:20170228102742d    3
 2017-02-28-1028-00M.COL___372                                                 6
 STAT SP IPHASW D HRMM SECON CODA AMPLIT PERI AZIMU VELO AIN AR TRES W  DIS CAZ7
 BAR2 EZ EP       1034 41.97                             169   -0.5010 27.8 187 
 BAR2 EZ ES       1034 57.87                             169   -0.3410 27.8 187 
 BAR2 EZ I        1034 58.85         2.3 0.21            168           27.8 187 
 BRR  HN ES       1035  0.42                             154    0.0010 68.6 295 
 PAM  EN ES       1035  2.78                             152    0.5510 74.2  42 
 RUS  HZ EP       1034 46.67                             143   -0.0810  105 176 
 RUS  HN ES       1035  5.92                             143    0.1010  105 176 
 RUS  HZ I        1035  6.46         1.0 0.32            144            105 176 
 PTB  HN ES       1035 10.68                             133   -0.24 9  148 257 
 PTB  HZ I        1035 15.40         1.2 0.09            132            148 257 
 ZAR  HN ES       1035 19.94                             123   -0.15 9  202 291 
 ZAR  HZ I        1035 23.45         2.3 0.05            123            202 291 
 NOR  HE ES       1035 27.58                             119    0.86 8  237 233 
 URE  HN ES       1035 35.36                             114    0.06 7  282 291 
                                                                                
