 2010 1028 1854 23.4 L   6.119 -73.740107.0  RSN  4 0.4 1.6LRSN                1
 GAP=135        0.84       6.6     6.9 15.3 -0.6799E+01  0.5621E+02 -0.1661E+02E
 Epicentro: BOLIVAR - SANTANDER                                                3
 ACTION:UP  11-02-18 11:12 OP:tino STATUS:               ID:20101028185423 L   I
 2010-10-28-1850-48S.COL___126                                                 6
 STAT SP IPHASW D HRMM SECON CODA AMPLIT PERI AZIMU VELO SNR AR TRES W  DIS CAZ7
 RUS  HZ EP   1   1854 41.82                             141     0.2 7   77 109 
 RUS  HZ I        1854 42.28         6.4 0.11                            77 109 
 RUS  HN ES   1   1854 55.47                             141    -0.4 7   77 109 
 BAR2 SZ EP   1   1854 42.14                             140     0.6 7   81  50 
 BAR2 SZ ES   2   1854 55.82                             140     0.1 5   81  50 
 BAR2 SZ I        1854 57.28        12.1 0.29                            81  50 
 BRR  HZ EP   1   1854 43.29                             130    -0.4 7  109   2 
 BRR  HN ES   2   1854 59.41                             130    -0.1 5  109   2 
 BRR  HZ I        1855  2.67         9.2 0.46                           109   2 
 NOR  SZ EP   2   1854 45.98                             123    -0.7 5  140 244 
 NOR  SN ES   2   1855  5.41                             123     0.5 5  140 244 
                                                                                
