 2011  928 1446 43.6 L   6.778 -73.102137.1  RSN  7 0.4 1.8LRSN                1
 GAP=187        0.84       3.2     6.2  5.8  0.2380E+01  0.2372E+01 -0.2617E+00E
 Epicentro: LOS SANTOS - SANTANDER                                             3
 ACTION:UPD 12-07-13 16:00 OP:ep   STATUS:               ID:20110928144643 L   I
 2011-09-28-1441-31S.COL___165                                                 6
 STAT SP IPHASW D HRMM SECON CODA AMPLIT PERI AZIMU VELO AIN AR TRES W  DIS CAZ7
 BAR2 SZ EP       1447  2.34                             170    0.1410 22.3 203 
 BAR2 SZ ES       1447 16.05                             170   -0.6310 22.3 203 
 BAR2 SZ I        1447 20.23        11.7 0.26                          22.3 203 
 BRR  HZ EP       1447  4.13                             149   -0.0510 76.6 298 
 BRR  HN ES       1447 20.95                             149    0.7510 76.6 298 
 BRR  HZ I        1447 23.46        23.6 0.15                          76.6 298 
 RUS  HZ EP       1447  6.62                             143    0.2810 97.9 179 
 RUS  HE ES   1   1447 24.08                             143    0.03 7 97.9 179 
 RUS  HZ I        1447 27.45         5.5 0.25                          97.9 179 
 OCA  SZ EP       1447 11.41                             127   -0.17 9  163 352 
 OCA  SZ ES       1447 33.33                             127   -0.05 9  163 352 
 OCA  SZ I        1447 38.60        15.2 0.28                           163 352 
 ZAR  HZ EP   1   1447 15.49                             120   -0.60 6  209 292 
 ZAR  HE ES   2   1447 40.81                             120   -0.60 4  209 292 
 ZAR  HZ I        1447 47.87         7.3 0.18                           209 292 
 NOR  SZ EP   2   1447 19.21                             116    0.07 4  237 236 
 NOR  SN ES   1   1447 46.68                             116   -0.17 6  237 236 
 CHI  HZ EP   1   1447 20.81                             115    0.07 6  248 196 
 CHI  HZ I        1447 22.48         3.0 0.23                           248 196 
 CHI  HE ES   2   1447 49.98                             115    0.29 4  248 196 
                                                                                
