 2013  728 1703 30.4 L   6.680 -73.159141.7  RSN  8 0.5 2.0LRSN                1
 GAP=140        1.14       5.8     6.4  8.9  0.7997E+01  0.1976E+02  0.2654E+01E
 Epicentro: VILLANUEVA - SANTANDER                                             3
 ACTION:UPD 13-08-12 10:40 OP:ep   STATUS:               ID:20130728170330 L   I
 OLDACT:REG 13-07-28 14:35 OP:mh   STATUS:               ID:20130728165959     3
 2013-07-28-1659-59M.COL___268                                                 6
 STAT SP IPHASW D HRMM SECON CODA AMPLIT PERI AZIMU VELO AIN AR TRES W  DIS CAZ7
 BAR2 SZ EP   1   17 3 49.98                             176    0.63 7 10.1 195 
 BAR2 SZ ES   1   17 4  4.38                             176    0.26 7 10.1 195 
 BAR2 SZ I        17 4  6.57        11.7 0.42            173           10.1 195 
 GIR2 SZ EP   1   17 3 50.08                             162    0.05 7 44.2 355 
 BRR  HZ IP       17 3 51.91                             150    0.4310 77.2 308 
 BRR  HN ES       17 4  8.52                             150    0.6110 77.2 308 
 BRR  HN I        17 4 10.09        19.4 0.20            149           77.2 308 
 RUS  HZ EP       17 3 53.31                             147    0.4610 87.5 175 
 RUS  HN ES       17 4  9.75                             147   -0.5910 87.5 175 
 RUS  HN I        17 4 14.14        10.1 0.18            149           87.5 175 
 PAM  SZ EP   1   17 3 52.67                             146   -0.26 7 88.8  35 
 PAM  SN ES       17 4 10.00                             146   -0.4910 88.8  35 
 PAM  SN I        17 4 10.99        18.7 0.48            151           88.8  35 
 PTB  HZ EP       17 3 56.33                             132   -0.41 9  144 264 
 SPBC HN ES   4   17 4 21.13                             130    2.40 0  152 222 
 OCA  HN ES   4   17 4 20.98                             126   -1.51 0  173 354 
 OCA  HN I        17 4 23.95        36.5 0.22            129            173 354 
 ZAR  HZ EP   1   17 4  3.16                             121    0.14 6  208 296 
 ZAR  HE ES       17 4 27.76                             121   -0.69 8  208 296 
 ZAR  HZ I        17 4 34.90        10.1 0.34            122            208 296 
                                                                                
