 2011  728 1726 39.1 L   6.786 -73.117146.5  RSN  7 0.5 2.3LRSN                1
 GAP=159        0.93       3.7     9.7  7.5 -0.8408E+01  0.5939E+01  0.4536E+01E
 Epicentro: LOS SANTOS - SANTANDER                                             3
 ACTION:UPD 12-07-25 14:04 OP:epov STATUS:               ID:20110728172639 L   I
 2011-07-28-1723-18S.COL___138                                                 6
 STAT SP IPHASW D HRMM SECON CODA AMPLIT PERI AZIMU VELO AIN AR TRES W  DIS CAZ7
 BAR2 SZ EP       1726 58.92                             171    0.1210 22.6 199 
 BAR2 SZ ES   1   1727 13.63                             171   -0.54 7 22.6 199 
 BAR2 SZ I        1727 15.59        63.3 0.20                          22.6 199 
 BRR  HZ EP       1727  0.85                             151    0.3310 74.7 298 
 BRR  HN ES   1   1727 17.82                             151    0.58 7 74.7 298 
 BRR  HZ I        1727 20.16        37.1 0.12                          74.7 298 
 RUS  HZ EP   1   1727  2.86                             144    0.06 7 98.9 178 
 RUS  HE ES   1   1727 21.19                             144   -0.10 7 98.9 178 
 RUS  HZ I        1727 22.90        26.3 0.29                          98.9 178 
 BRI  SZ EP   1   1727  3.41                             141    0.32 7  109  19 
 BRI  SZ ES   1   1727 22.33                             141    0.53 7  109  19 
 BRI  SZ I        1727 27.35        20.0 0.46                           109  19 
 OCA  SZ EP   1   1727  7.01                             129   -0.63 7  162 352 
 OCA  SZ ES   1   1727 28.80                             129   -1.11 7  162 352 
 OCA  SZ I        1727 34.11        20.1 0.34                           162 352 
 CHI  HZ EP   1   1727 17.16                             117    0.40 6  248 196 
 CHI  HN ES   1   1727 45.61                             117   -0.54 6  248 196 
 CHI  HZ I        1727 51.99        10.8 0.25                           248 196 
 PRA  HZ EP   1   1727 32.66                             107   -0.01 4  392 210 
 PRA  HN ES   1   1728 14.22                             107   -0.23 4  392 210 
                                                                                
