 2017  428 1039  4.8 L   6.808 -73.079145.6  RSN 20 0.8 2.8LRSN                1
 GAP=118        1.50       4.3     4.8  8.0  0.1393E+01  0.1094E+02  0.1089E+02E
 Epicentro: LOS SANTOS - SANTANDER                                             3
 ACTION:UPD 17-05-30 21:16 OP:jn   STATUS:               ID:20170428103904 L   I
 OLDACT:UP  17-04-28 21:45 OP:dani STATUS:               ID:20170428103739     3
 OLDACT:UP  17-04-28 21:40 OP:dani STATUS:               ID:20170428103739     3
 OLDACT:UP  17-04-28 21:39 OP:dani STATUS:               ID:20170428103739     3
 OLDACT:REG 17-04-28 20:09 OP:dani STATUS:               ID:20170428103739     3
 2017-04-28-1038-00M.COL___368                                                 6
 STAT SP IPHASW D HRMM SECON CODA AMPLIT PERI AZIMU VELO AIN AR TRES W  DIS CAZ7
 PAM  EZ EP       1039 27.43                             152    0.6910 72.2  36 
 PAM  EN ES       1039 44.14                             152    0.3310 72.2  36 
 PAM  EZ I        1039 46.45       140.8 0.54            158           72.2  36 
 BRR  HZ IP     C 1039 26.45                             150    0.1210 77.3 295 
 BRR  HN ES       1039 43.32                             150    0.2310 77.3 295 
 BRR  HZ I        1039 46.64       120.8 0.20            151           77.3 295 
 RUS  HZ EP       1039 28.51                             144   -0.1110  101 180 
 RUS  HN ES       1039 46.89                             144   -0.2810  101 180 
 RUS  HZ I        1039 48.17        72.4 0.32            144            101 180 
 PTB  HZ EP   3   1039 31.15                             130   -1.32 2  155 259 
 PTB  HN ES   4   1039 51.59                             130   -2.43 0  155 259 
 PTB  HZ I        1039 55.66        75.6 0.36            131            155 259 
 SPBC HZ EP       1039 33.61                             128   -0.23 9  169 221 
 SPBC HN ES   3   1039 55.39                             128   -1.07 2  169 221 
 SPBC HZ I        1039 58.21       168.7 0.14            129            169 221 
 YPLC HZ EP       1039 34.97                             127    0.60 9  174 154 
 YPLC HN ES   3   1039 58.78                             127    1.38 2  174 154 
 YPLC HZ I        1040  3.54        36.7 0.50            130            174 154 
 ZAR  HZ EP       1039 37.56                             121   -0.38 8  211 291 
 ZAR  HN ES       1040  3.32                             121   -0.44 8  211 291 
 ZAR  HZ I        1040  9.60       106.6 0.34            123            211 291 
 TABC EZ EP   3   1039 42.41                             119    1.34 2  235 212 
 TABC EZ ES       1040  9.78                             119    0.45 8  235 212 
 TABC EZ I        1040 14.02        79.6 0.62            120            235 212 
 NOR  HZ EP       1039 41.11                             118   -0.15 8  241 235 
 NOR  HE ES       1040  8.52                             118   -1.15 8  241 235 
 NOR  HZ I        1040 13.80        51.7 0.26            119            241 235 
 CHI  HZ EP       1039 42.84                             117   -0.00 8  252 197 
 CHI  HN ES       1040 12.00                             117   -0.48 8  252 197 
 CHI  HZ I        1040 18.70        25.0 0.28            119            252 197 
 ROSC BZ EP       1039 44.45                             116    1.00 8  257 212 
 ROSC BN ES       1040 12.52                             116   -1.05 8  257 212 
 ROSC BZ I        1040 22.24        79.3 0.40            118            257 212 
 HEL  HZ EP       1039 46.22                             114    0.36 7  279 256 
 HEL  HE ES       1040 18.82                             114    0.97 7  279 256 
 HEL  HZ I        1040 22.87        49.4 0.38            116            279 256 
 PTGC HZ EP       1039 47.73                             112   -0.76 7  307 160 
 PTGC HN ES       1040 21.11                             112   -1.43 7  307 160 
 PTGC HZ I        1040 23.40        30.5 0.36            114            307 160 
 LL6C HN EP   9   1039 29.95                             110   -20.5 0  324 356 
 LL6C HN ES       1040  4.26                                   -1.28 7  324 356 
 ELA  HN ES   4   1040 32.55                             110    3.07 0  335 230 
 CBOC HZ EP       1039 52.62                             109    0.04 7  341 252 
 CBOC HN ES       1040 29.46                             109   -0.36 7  341 252 
 CBOC HZ I        1040 41.40        14.1 0.28            111            341 252 
 DBB  EZ EP       1039 52.64                             109   -0.50 6  347 274 
 DBB  EN ES   3   1040 28.64                             109   -2.18 2  347 274 
 DBB  EZ I        1040 38.75        13.3 0.28            111            347 274 
 ANIL HZ EP       1039 56.65                             108    1.34 6  363 225 
 ANIL HN ES       1040 36.44                             108    1.76 6  363 225 
 ORTC HZ EP       1039 59.27                             106   -0.08 6  401 217 
 ORTC HN ES       1040 43.61                             106    1.74 6  401 217 
 ORTC HZ I        1040 46.85        17.8 0.54            108            401 217 
 PAL  HZ EP       1040  0.58                             105   -0.21 6  412 239 
 PAL  HE ES       1040 43.49                             105   -0.94 6  412 239 
 SJC  HZ EP       1039 59.24                             105   -1.54 6  412 326 
 SJC  HN ES   4   1040 40.59                             105   -3.82 0  412 326 
 SJC  HZ I        1040 44.68        18.5 0.46            108            412 326 
 PAL  HZ I        1040 47.31        10.7 0.24            107            412 239 
                                                                                
