 2017  528 1736 27.7 L   6.795 -73.193150.0  RSN  6 0.5 1.9LRSN                1
 GAP=232        1.10       5.9     7.5  9.3  0.2087E+02 -0.2354E+01  0.5535E+01E
 Epicentro: ZAPATOCA - SANTANDER                                               3
 ACTION:UPD 17-06-16 13:39 OP:jn   STATUS:               ID:20170528173628 L   I
 OLDACT:UP  17-06-05 17:38 OP:nlst STATUS:               ID:20170528173628 L   3
 OLDACT:UP  17-05-29 01:26 OP:ar   STATUS:               ID:20170528172742     3
 OLDACT:UP  17-05-29 01:24 OP:ar   STATUS:               ID:20170528172742     3
 OLDACT:REG 17-05-28 22:42 OP:ar   STATUS:               ID:20170528172742     3
 2017-05-28-1728-00M.COL___341                                                 6
 STAT SP IPHASW D HRMM SECON CODA AMPLIT PERI AZIMU VELO AIN AR TRES W  DIS CAZ7
 BRR  HZ IP     C 1736 48.97                             155   -0.1310 66.9 301 
 BRR  HN ES       1737  6.17                             155    0.3910 66.9 301 
 BRR  HZ I        1737  9.72        15.3 0.30            153           66.9 301 
 RUS  HZ EP       1736 51.75                             145   -0.1410  101 173 
 RUS  HN ES       1737 10.61                             145   -0.1310  101 173 
 RUS  HZ I        1737 11.55         9.7 0.32            145            101 173 
 PTB  HZ EP       1736 54.17                             134   -0.40 9  143 259 
 PTB  HN ES       1737 14.91                             134   -0.61 9  143 259 
 PTB  HZ I        1737 17.44         6.0 0.50            133            143 259 
 SPBC HZ EP       1736 55.80                             131   -0.41 9  160 218 
 SPBC HN ES       1737 18.51                             131    0.09 9  160 218 
 SPBC HZ I        1737 20.80        12.3 0.20            130            160 218 
 ZAR  HZ EP   4   1737  2.45                             124    2.47 0  199 293 
 ZAR  HN ES       1737 25.70                             124    0.57 9  199 293 
 ZAR  HZ I        1737 30.71        11.0 0.22            124            199 293 
 CHI  HZ EP   1   1737  6.51                             118    1.05 6  247 194 
 CHI  HN ES   1   1737 35.96                             118    1.07 6  247 194 
 CHI  HZ I        1737 42.16         3.4 0.50            119            247 194 
                                                                                
