 2016 1028 1433 14.5 L   6.809 -73.163144.0  RSN  6 0.4 1.7LRSN                1
 GAP=134        0.93       4.7     4.4  6.2 -0.5062E+01  0.6202E+01  0.3980E+01E
 Epicentro: LOS SANTOS - SANTANDER                                             3
 ACTION:UPD 16-11-09 19:23 OP:rebc STATUS:               ID:20161028143314 L   I
 OLDACT:DUP 16-10-28 23:35 OP:edw  STATUS:               ID:20161028142749d    3
 2016-10-28-1428-00M.COL___349                                                 6
 STAT SP IPHASW D HRMM SECON CODA AMPLIT PERI AZIMU VELO AIN AR TRES W  DIS CAZ7
 BAR2 EZ EP       1433 33.59                             170   -0.3110 24.1 185 
 BAR2 EZ ES       1433 48.76                             170   -0.3010 24.1 185 
 BAR2 EZ I        1433 49.79        19.1 0.16            159           24.1 185 
 BRR  HZ EP       1433 35.54                             153    0.2310 69.0 299 
 BRR  HN ES       1433 51.86                             153    0.3010 69.0 299 
 PAM  EZ EP       1433 36.43                             150   -0.0910 77.8  41 
 PAM  EN ES       1433 53.94                             150    0.2210 77.8  41 
 RUS  HZ EP       1433 37.80                             143   -0.3310  102 175 
 RUS  HZ I        1433 56.86         5.8 0.46            132            102 175 
 RUS  HN ES       1433 56.96                             143    0.3710  102 175 
 PTB  HZ EP       1433 40.67                             132   -0.47 9  146 258 
 PTB  HN ES       1434  1.60                             132   -0.35 9  146 258 
 PTB  HZ I        1434  6.87         5.8 0.58            127            146 258 
 NOR  HZ EP       1433 50.82                             118    0.82 8  234 234 
 NOR  HN ES       1434 17.86                             118    0.15 8  234 234 
 NOR  HZ I        1434 22.82         3.5 0.14            112            234 234 
                                                                                
