 2010  328 1626 14.0 L   6.859 -73.081145.6  RSN  4 0.3 1.5LRSN                1
 GAP=330        0.49       8.1    17.3  7.3 -0.7186E+02  0.5168E+02  0.1504E+01E
 Epicentro: LOS SANTOS - SANTANDER                                             3
 ACTION:UP  10-08-24 09:56 OP:vdl  STATUS:               ID:20100328162614 L   I
 2010-03-28-1622-28S.COL___098                                                 6
 STAT SP IPHASW D HRMM SECON CODA AMPLIT PERI AZIMU VELO SNR AR TRES W  DIS CAZ7
 BAR2 SZ EP   1   1626 33.90                             167     0.1 7   32 201 
 BAR2 SZ ES   2   1626 49.10                             167    -0.2 5   32 201 
 RUS  HZ EP   1   1626 38.32                             142     0.1 7  107 180 
 RUS  HZ I        1626 39.09         2.7 0.11                           107 180 
 RUS  HN ES   2   1626 57.14                             142     0.1 5  107 180 
 CHI  HZ EP   1   1626 52.50                             116    -0.1 6  257 196 
 CHI  HE ES   2   1627 22.17                             116    -0.5 4  257 196 
 CHI  HZ I        1627 30.88         1.7 0.74                           257 196 
 PRA  HZ EP   1   1627  8.17                             106    -0.4 4  401 210 
 PRA  HN ES   2   1627 52.03                             106     0.9 3  401 210 
 PRA  HZ I        1627 56.54         2.1 0.42                           401 210 
                                                                                
