 2016 1128 1542 22.6 L   6.802 -73.149146.0  RSN 11 0.4 2.1LRSN                1
 GAP=149        1.04       4.6     4.5  6.3 -0.2532E+01  0.5741E+01  0.1109E+02E
 Epicentro: LOS SANTOS - SANTANDER                                             3
 ACTION:UPD 17-10-26 21:12 OP:lp   STATUS:               ID:20161128154222 L   I
 OLDACT:REG 16-11-28 21:10 OP:lv   STATUS:               ID:20161128153750     3
 2016-11-28-1538-00M.COL___334                                                 6
 STAT SP IPHASW D HRMM SECON CODA AMPLIT PERI AZIMU VELO AIN AR TRES W  DIS CAZ7
 BAR2 EZ EP       1542 42.09                             170   -0.1410 23.5 189 
 BAR2 EZ ES       1542 56.92                             170   -0.6510 23.5 189 
 BAR2 EZ I        1542 59.94        34.5 0.34            167           23.5 189 
 BRR  HZ EP       1542 44.01                             153    0.2910 70.8 298 
 BRR  HN ES       1543  0.98                             153    0.7710 70.8 298 
 BRR  HZ I        1543  5.09        21.8 0.22            154           70.8 298 
 PAM  EZ EP       1542 45.04                             151    0.2310 77.4  40 
 PAM  EN ES       1543  2.20                             151    0.0410 77.4  40 
 PAM  EZ I        1543  5.39        17.9 0.35            157           77.4  40 
 PTB  HZ EP       1542 48.84                             132   -0.69 9  147 259 
 PTB  HN ES       1543 10.36                             132   -0.20 9  147 259 
 PTB  HZ I        1543 12.56        12.2 0.16            133            147 259 
 ZAR  HZ EP       1542 54.27                             122   -0.72 9  204 292 
 ZAR  HN ES       1543 20.33                             122    0.06 9  204 292 
 ZAR  HZ I        1543 25.47        12.2 0.29            125            204 292 
 NOR  HZ EP       1542 58.29                             119   -0.01 8  235 234 
 NOR  HN ES       1543 26.45                             119    0.28 8  235 234 
 NOR  HZ I        1543 32.92         7.6 0.19            120            235 234 
 CHI  HZ EP       1543  0.54                             117    0.24 8  249 195 
 CHI  HN ES       1543 29.90                             117    0.17 8  249 195 
 CHI  HZ I        1543 35.11         7.0 0.30            118            249 195 
 ROSC BZ EP   4   1543  2.99                             117    2.28 0  253 211 
 ROSC BE ES   4   1543 31.92                             117    1.47 0  253 211 
 ROSC BZ I        1543 36.82        16.9 0.40            118            253 211 
 PRA  HZ EP       1543 16.09                             106   -0.01 6  392 210 
 PRA  HN ES   4   1543 56.62                             106   -1.24 0  392 210 
 PRA  HZ I        1544  4.75         7.5 0.35            108            392 210 
 ORTC HZ EP       1543 17.32                             106    0.82 6  395 216 
 ORTC HN ES   4   1544  0.31                             106    1.75 0  395 216 
 ORTC HZ I        1544  5.29         3.6 0.28            108            395 216 
 SJC  HZ EP   4   1543 16.42                             106   -1.67 0  409 327 
 SJC  HN ES   4   1543 57.30                             106   -4.10 0  409 327 
 SJC  HZ I        1544  1.49         2.0 0.32            108            409 327 
                                                                                
