 2012  128 1421  5.3 L   6.745 -73.240148.1  RSN  4 0.2 1.5LRSN                1
 GAP=212        0.59       7.7     8.4  9.9  0.3817E+02  0.1688E+02  0.1179E+02E
 Epicentro: VILLANUEVA - SANTANDER                                             3
 ACTION:UP  12-02-03 08:21 OP:REBC STATUS:               ID:20120128142105 L   I
 2012-01-28-1420-00M.COL___188                                                 6
 STAT SP IPHASW D HRMM SECON CODA AMPLIT PERI AZIMU VELO SNR AR TRES W  DIS CAZ7
 BAR2 SZ EP       1421 24.92                             173    -0.210   18 159 
 BAR2 SZ I        1421 49.73         6.3 0.56                            18 159 
 BRR  HZ EP       1421 26.41                             155     0.010   66 308 
 BRR  HN ES   2   1421 43.27                             155     0.4 5   66 308 
 BRR  HZ I        1421 44.00        13.2 0.34                            66 308 
 RUS  HZ EP       1421 29.26                             145     0.310   96 170 
 RUS  HE ES   2   1421 47.12                             145    -0.3 5   96 170 
 RUS  HZ I        1421 48.51         3.5 0.48                            96 170 
 PTB  HZ EP       1421 31.44                             135     0.0 9  136 260 
 PTB  HN ES   3   1421 51.95                             135     0.1 2  136 260 
 PTB  HZ I        1421 58.38         3.5 0.36                           136 260 
                                                                                
