 2012  528 1137 31.1 L   6.798 -73.193140.8  RSN  4 0.2 1.5LRSN                1
 GAP=275        0.43       4.7     3.8  4.4  0.5302E+01  0.5516E+01  0.3131E+01E
 Epicentro: ZAPATOCA - SANTANDER                                               3
 ACTION:UP  12-07-05 12:08 OP:pat  STATUS:               ID:20120528113731 L   I
 2012-05-28-1130-00M.COL___197                                                 6
 STAT SP IPHASW D HRMM SECON CODA AMPLIT PERI AZIMU VELO AIN AR TRES W  DIS CAZ7
 BAR2 SZ EP   1   1137 50.22                             171     0.1 8   23 177 
 BAR2 SZ ES   1   1138  5.16                             171     0.2 8   23 177 
 BAR2 SZ I        1138  6.76        13.3 0.29                            23 177 
 RUS  HZ EP       1137 54.26                             143    -0.110  101 173 
 RUS  HZ I        1137 55.14         3.1 0.12                           101 173 
 RUS  HN ES   1   1138 12.31                             143    -0.2 7  101 173 
 PTB  HZ EP       1137 57.15                             132     0.0 9  143 259 
 PTB  HN ES   1   1138 17.42                             132    -0.1 7  143 259 
 PTB  HZ I        1138 25.25         3.9 0.39                           143 259 
 PRA  HZ EP   1   1138 24.36                             106     0.3 4  389 209 
 PRA  HE ES   1   1139  5.76                             106     0.3 4  389 209 
                                                                                
