 2014  528 1132 28.8 L   6.823 -73.175137.5  RSN 20 0.6 2.5LRSN 3.1WRSN        1
 SPEC AVERAGE  MO 13.8 ST0.177 OM  2.1 f0 1.56 R1.4588 AL 0.00 WI 50.0 MW  3.1 3
 SPEC SD       MO  0.4 ST0.561 OM  0.6 f0 1.48 R0.6869 AL      WI      MW  0.2 3
 GAP=132        1.24       2.7     4.2  5.5 -0.2526E+01  0.7337E+01  0.2332E+01E
 Epicentro: LOS SANTOS - SANTANDER                                             3
 SPEC OCA HH Z MO 13.5 ST0.507 OM  1.5 f0 2.89 R0.6657 AL-0.00 WI 50.0 MW  3.0 3
 SPEC OCA HH Z T113315 K 0.000 GD  208 VS 5.20 DE 3.50 Q0750.0 QA 1.50 VS 5.20 3
 SPEC ROSCBH Z MO 14.0 ST0.083 OM  1.8 f0 1.13 R1.7027 AL-0.00 WI 50.0 MW  3.3 3
 SPEC ROSCBH Z T113334 K 0.000 GD  287 VS 5.20 DE 3.50 Q0750.0 QA 1.50 VS 5.20 3
 SPECGUY2CHH Z MO 13.7 ST  0.1 OM  1.5 f0 1.37 R  1.41 AL-0.00 WI 50.0 MW  3.1 3
 SPECGUY2CHH Z T113344 K       GD330.0 VS 5.20 DE 3.50 Q0750.0 QA 1.50 VS 5.20 3
 SPEC RREFHH Z MO 13.8 ST0.059 OM  1.5 f0 1.19 R1.6168 AL-0.00 WI 50.0 MW  3.1 3
 SPEC RREFHH Z T113348 K 0.000 GD  349 VS 5.20 DE 3.50 Q0750.0 QA 1.50 VS 5.20 3
 SPEC PRA HH Z MO 13.9 ST0.059 OM  1.6 f0 1.04 R1.8500 AL-0.00 WI 50.0 MW  3.2 3
 SPEC PRA HH Z T1134 2 K 0.000 GD  416 VS 5.20 DE 3.50 Q0750.0 QA 1.50 VS 5.20 3
 OLDACT:UP  14-05-29 00:54 OP:stll STATUS:               ID:20140528112812d    3
 OLDACT:DUP 14-05-29 00:04 OP:stll STATUS:               ID:20140528112812d    3
 ACTION:UPD 15-03-16 17:01 OP:nd   STATUS:               ID:20140528113228 L   I
 OLDACT:UP  14-05-29 00:55 OP:stll STATUS:               ID:20140528112812d    3
 2014-05-28-1128-11M.COL___254                                                 6
 STAT SP IPHASW D HRMM SECON CODA AMPLIT PERI AZIMU VELO AIN AR TRES W  DIS CAZ7
 BAR2 SZ IP     D 1132 47.60                             169    0.0810 25.5 182 
 BAR2 SZ I        1132 48.12        45.5 0.18            167           25.5 182 
 BAR2 SZ ES       1133  2.45                             169    0.3610 25.5 182 
 BRR  HZ IP     C 1132 49.43                             152    0.5710 67.1 298 
 BRR  HN ES       1133  5.07                             152    0.5910 67.1 298 
 BRR  HZ I        1133 10.19        59.1 0.12            149           67.1 298 
 PAM  SZ EP       1132 50.33                             149    0.1510 77.6  43 
 PAM  SZ I        1132 50.66        35.0 0.22            156           77.6  43 
 PAM  SN ES       1133  7.16                             149    0.3210 77.6  43 
 RUS  HZ EP       1132 51.46                             141   -0.5310  103 174 
 RUS  HN ES       1133  9.59                             141   -0.4710  103 174 
 RUS  HZ I        1133 11.23        34.6 0.24            144            103 174 
 PTB  HZ EP       1132 54.09                             131   -0.80 9  145 258 
 PTB  HN ES       1133 15.10                             131   -0.12 9  145 258 
 PTB  HZ I        1133 22.85        40.0 0.50            130            145 258 
 OCA  HZ IP     D 1132 56.30                             128    0.07 9  157 354 
 OCA  HN ES       1133 17.08                             128   -0.52 9  157 354 
 OCA  HZ I        1133 24.46        25.8 0.40            131            157 354 
 SPBC HZ EP       1132 56.63                             127   -0.08 9  163 218 
 SPBC HN ES       1133 18.21                             127   -0.24 9  163 218 
 SPBC HZ I        1133 25.94        46.0 0.16            128            163 218 
 ZAR  HZ EP       1133  0.23                             121   -0.10 9  200 292 
 ZAR  HN ES       1133 24.95                             121    0.04 9  200 292 
 ZAR  HN I        1133 33.73        88.6 0.42            121            200 292 
 NOR  HZ EP       1133  3.46                             117   -0.51 8  234 233 
 NOR  HN ES       1133 30.99                             117   -0.39 8  234 233 
 NOR  HZ I        1133 37.96        23.8 0.16            118            234 233 
 SML  HZ EP       1133  3.71                             116   -0.89 8  240 336 
 SML  HN ES       1133 32.03                             116   -0.47 8  240 336 
 SML  HZ I        1133 39.49        38.6 0.10            118            240 336 
 CHI  HZ EP       1133  5.92                             115   -0.34 8  250 194 
 CHI  HN ES       1133 34.64                             115   -0.82 8  250 194 
 CHI  HZ I        1133 45.09         8.4 0.32            117            250 194 
 ROSC BZ EP       1133  7.91                             115    1.34 8  253 210 
 ROSC BN ES       1133 36.26                             115    0.25 8  253 210 
 ROSC BZ I        1133 40.82        25.6 0.35            117            253 210 
 HEL  HZ EP       1133  9.34                             113    0.99 8  270 255 
 HEL  HN ES       1133 38.46                             113   -0.72 8  270 255 
 HEL  HZ I        1133 47.61        14.9 0.24            114            270 255 
 GUY2CHZ EP       1133 12.77                             111    0.83 7  300 234 
 GUY2CHE ES       1133 46.47                             111    0.91 7  300 234 
 GUY2CHZ I        1133 56.11        14.0 0.48                           300 234 
 RREF HZ EP       1133 15.38                             109    0.84 7  321 229 
 RREF HE ES       1133 50.00                             109   -0.19 7  321 229 
 RREF HZ I        1133 59.35        15.9 0.28            111            321 229 
 DBB  SZ EP       1133 15.83                             108    0.24 7  336 274 
 TOL  SZ EP       1133 17.76                             108    1.05 7  343 224 
 TOL  SZ ES       1133 53.87                             108   -0.20 7  343 224 
 TOL  SZ I        1133 59.76         7.0 0.25            109            343 224 
 ANIL HZ EP       1133 19.02                             107    0.74 6  357 224 
 ANIL HN ES       1133 56.27                             107   -0.58 6  357 224 
 ANIL HZ I        1134  9.04        38.2 0.32            109            357 224 
 PRA  HZ EP       1133 21.52                             105   -0.63 6  393 209 
 PRA  HN ES       1134  3.75                             105    0.01 6  393 209 
 PRA  HZ I        1134 11.18        10.5 0.24            107            393 209 
 ORTC HZ EP       1133 22.11                             105   -0.39 6  396 216 
 ORTC HE ES       1134  4.58                             105    0.22 6  396 216 
 ORTC HZ I        1134  9.77         7.2 0.64            107            396 216 
                                                                                
