 2013 1228 1105  5.8 L   6.810 -73.168138.8  RSN  9 0.5 1.8LRSN                1
 GAP=133        1.19       3.4     5.3  7.8 -0.4026E+00  0.1671E+02  0.1095E+01E
 Epicentro: LOS SANTOS - SANTANDER                                             3
 ACTION:UPD 14-01-13 10:21 OP:ep   STATUS:               ID:20131228110505 L   I
 OLDACT:REG 13-12-28 14:15 OP:jn   STATUS:               ID:20131228110000     3
 2013-12-28-1100-00M.COL___285                                                 6
 STAT SP IPHASW D HRMM SECON CODA AMPLIT PERI AZIMU VELO AIN AR TRES W  DIS CAZ7
 BAR2 SZ EP       11 5 24.97                             170    0.3910 24.1 184 
 BAR2 SZ ES       11 5 39.33                             170    0.0910 24.1 184 
 BAR2 SZ I        11 5 41.97        18.8 0.24            170           24.1 184 
 PAM  SZ EP   2   11 5 28.80                             149    1.51 5 78.1  41 
 PAM  SN ES       11 5 44.23                             149    0.1510 78.1  41 
 PAM  SZ I        11 5 46.75        15.9 0.42            153           78.1  41 
 RUS  HZ EP       11 5 29.06                             142    0.1210  102 175 
 RUS  HN ES       11 5 46.87                             142   -0.1310  102 175 
 RUS  HZ I        11 5 49.22         8.8 0.42            145            102 175 
 PTB  HZ EP       11 5 31.85                             131   -0.13 9  146 258 
 PTB  HN ES       11 5 51.98                             131   -0.43 9  146 258 
 PTB  HZ I        11 5 55.73         9.5 0.20            133            146 258 
 OCA  HN ES       11 5 54.42                             128   -0.56 9  159 354 
 ZAR  HE ES       11 6  3.10                             121    0.87 9  201 292 
 ZAR  HZ I        11 6  5.88         7.2 0.12            123            201 292 
 NOR  HZ EP       11 5 41.56                             117    0.60 8  233 234 
 NOR  HN ES       11 6  8.65                             117    0.25 8  233 234 
 NOR  HZ I        11 6 11.13         3.4 0.16            119            233 234 
 SML  HZ EP       11 5 41.14                             116   -0.66 8  242 336 
 SML  HE ES       11 6  9.51                             116   -0.38 8  242 336 
 CHI  HZ EP       11 5 43.24                             116    0.10 8  249 195 
 CHI  HN ES       11 6 11.26                             116   -1.02 8  249 195 
                                                                                
