 2015  728 1133 32.6 L   6.815 -73.173141.2  RSN 15 0.5 2.3LRSN                1
 GAP=132        1.08       2.8     4.0  5.8 -0.2254E+01  0.1023E+02 -0.7222E+00E
 Epicentro: LOS SANTOS - SANTANDER                                             3
 ACTION:UPD 15-09-08 21:51 OP:cam  STATUS:               ID:20150728113332 L   I
 OLDACT:UP  15-07-28 22:43 OP:stll STATUS:               ID:20150728112749d    3
 OLDACT:DUP 15-07-28 22:01 OP:stll STATUS:               ID:20150728112749d    3
 2015-07-28-1127-48M.COL___334                                                 6
 STAT SP IPHASW D HRMM SECON CODA AMPLIT PERI AZIMU VELO AIN AR TRES W  DIS CAZ7
 BAR2 EZ IP     D 1133 52.04                             170    0.2910 24.6 182 
 BAR2 EZ ES       1134  6.67                             170    0.0110 24.6 182 
 BAR2 EZ I        1134  8.41        42.2 0.14            170           24.6 182 
 PAM  EZ EP       1133 54.99                             150    0.5710 78.1  42 
 PAM  EE ES       1134 11.54                             150    0.1310 78.1  42 
 PAM  EZ I        1134 14.30        15.8 0.40            150           78.1  42 
 RUS  HZ EP       1133 55.83                             142   -0.2510  102 174 
 RUS  HN ES       1134 13.96                             142   -0.4110  102 174 
 RUS  HZ I        1134 16.52        16.4 0.42            144            102 174 
 CPBEREZ EP       1133 58.85                             131   -0.15 9  145 258 
 CPBEREN ES       1134 19.61                             131    0.05 9  145 258 
 OCA  HZ EP       1133 59.93                             129   -0.48 9  158 354 
 OCA  HN ES       1134 22.39                             129    0.32 9  158 354 
 OCA  HZ I        1134 27.28        34.9 0.22            127            158 354 
 ZAR  HZ EP       1134  4.65                             122    0.22 9  201 292 
 ZAR  HE ES       1134 29.63                             122    0.40 9  201 292 
 ZAR  HZ I        1134 35.81        22.8 0.38            119            201 292 
 NOR  HZ EP       1134  7.55                             118   -0.39 8  233 234 
 NOR  HE ES       1134 35.34                             118   -0.14 8  233 234 
 SML  HZ EP       1134  8.30                             117   -0.41 8  241 336 
 SML  HN ES       1134 36.37                             117   -0.48 8  241 336 
 SML  HZ I        1134 44.36        19.0 0.24            115            241 336 
 CHI  HZ EP       1134 10.26                             116    0.08 8  249 194 
 CHI  HE ES       1134 38.89                             116   -0.57 8  249 194 
 CHI  HZ I        1134 41.93        10.5 0.32            116            249 194 
 HEL  HZ EP       1134 13.11                             114    0.77 8  270 255 
 HEL  HN ES       1134 42.63                             114   -0.68 8  270 255 
 HEL  HZ I        1134 50.90        12.4 0.30            112            270 255 
 URE  HZ EP   4   1134 11.86                             113   -1.24 0  280 292 
 URE  HN ES   4   1134 42.95                             113   -1.72 0  280 292 
 URE  HZ I        1134 53.62        14.8 0.16            111            280 292 
 GUY2CHZ EP       1134 16.81                             112    0.94 7  300 234 
 GUY2CHE ES       1134 49.55                             112   -0.03 7  300 234 
 GUY2CHZ I        1134 57.95         8.0 0.40                           300 234 
 DBB  SZ EP       1134 19.51                             109   -0.06 7  336 274 
 DBB  SZ I        1134 59.67        21.7 0.76            107            336 274 
 TOL  SZ EP       1134 21.63                             108    1.03 7  343 224 
 TOL  SN ES       1134 58.48                             108    0.46 7  343 224 
 TOL  SZ I        1135  4.30         7.5 0.70            108            343 224 
 SJC  HZ EP       1134 26.17                             105   -1.53 6  406 327 
 SJC  HZ I        1134 26.33         2.4 0.22            104            406 327 
 SJC  HN ES   4   1135  5.75                             105   -4.89 0  406 327 
                                                                                
