 2013  328 1105 34.2 L   7.069 -73.347  7.1  RSN  6 0.3 1.3LRSN                1
 GAP=160        0.74       3.2     2.0  5.3  0.2239E+01  0.2580E+01 -0.4541E+01E
 Epicentro: LEBRIJA - SANTANDER                                                3
 ACTION:UPD 13-04-09 14:05 OP:ep   STATUS:               ID:20130328110534 L   I
 2013-03-28-1100-00M.COL___244                                                 6
 STAT SP IPHASW D HRMM SECON CODA AMPLIT PERI AZIMU VELO AIN AR TRES W  DIS CAZ7
 GIR2 SZ EP       11 5 37.37                             105   -0.2110 16.9  86 
 BRR  HZ IP     D 11 5 40.80                              95   -0.1710 40.6 276 
 BRR  HE ES       11 5 46.49                              95    0.2510 40.6 276 
 BRR  HE I        11 5 46.68        13.8 0.20             47           40.6 276 
 BAR2 SZ EP       11 5 43.50                              94   -0.0110 55.7 161 
 BAR2 SZ ES   1   11 5 50.73                              94   -0.03 7 55.7 161 
 BAR2 SZ I        11 5 50.98        11.6 0.19             47           55.7 161 
 RUS  HZ EP   1   11 5 55.95                              91    0.44 7  133 167 
 PTB  HZ EP   1   11 5 55.61                              91    0.19 7  136 245 
 PTB  HN ES       11 6 11.64                              91   -0.32 9  136 245 
 PTB  HN I        11 6 13.41         7.3 0.48             47            136 245 
 ZAR  HZ EP   1   11 6  1.69                              56    0.81 7  173 286 
 ZAR  HN ES       11 6 21.37                              56   -0.31 9  173 286 
 ZAR  HN I        11 6 23.24         4.1 0.24             47            173 286 
                                                                                
