 2015  828 1527 51.7 L   6.894 -73.147147.0  RSN 18 0.4 2.5LRSN                1
 GAP=131        0.88       2.5     3.9  4.8 -0.5985E+00  0.5840E+01  0.2150E+01E
 Epicentro: PIEDECUESTA - SANTANDER                                            3
 ACTION:UPD 15-09-15 23:05 OP:cam  STATUS:               ID:20150828152751 L   I
 OLDACT:REG 15-08-28 21:58 OP:spq  STATUS:               ID:20150828151749     3
 2015-08-28-1517-49M.COL___361                                                 6
 STAT SP IPHASW D HRMM SECON CODA AMPLIT PERI AZIMU VELO AIN AR TRES W  DIS CAZ7
 BAR2 EZ IP     D 1528 11.53                             166   -0.2010 33.5 187 
 BAR2 EZ ES   1   1528 27.16                             166   -0.19 7 33.5 187 
 BAR2 EZ I        1528 28.58        48.1 0.28            164           33.5 187 
 BRR  HZ EP       1528 13.00                             154    0.2510 66.7 291 
 BRR  HN ES       1528 29.81                             154    0.6610 66.7 291 
 BRR  HZ I        1528 31.97        38.3 0.13            149           66.7 291 
 PAM  EZ EP     C 1528 13.99                             154    0.3610 69.8  45 
 PAM  EE ES   1   1528 30.87                             154    0.15 7 69.8  45 
 PAM  EZ I        1528 32.81        46.4 0.34            159           69.8  45 
 RUS  HZ EP       1528 15.91                             141   -0.4410  111 176 
 RUS  HE ES   1   1528 35.67                             141    0.11 7  111 176 
 RUS  HZ I        1528 36.37        20.1 0.42            142            111 176 
 OCA  HZ EP       1528 18.92                             132   -0.25 9  150 353 
 OCA  HE ES       1528 39.96                             132   -0.62 9  150 353 
 OCA  HZ I        1528 44.36        51.1 0.44            133            150 353 
 SPBC HZ EP       1528 21.10                             128    0.03 9  171 217 
 SPBC HN ES   1   1528 43.78                             128   -0.19 7  171 217 
 SPBC HZ I        1528 46.54        45.7 0.10            127            171 217 
 ZAR  HZ EP       1528 23.41                             123   -0.43 9  200 289 
 ZAR  HN ES       1528 48.97                             123    0.06 9  200 289 
 ZAR  HZ I        1528 54.39        41.2 0.22            122            200 289 
 SML  HZ EP       1528 27.24                             119   -0.15 8  234 334 
 SML  HN ES   1   1528 55.36                             119    0.14 6  234 334 
 SML  HZ I        1529  2.43        27.8 0.24            119            234 334 
 NOR  HZ EP       1528 27.90                             118   -0.26 8  241 232 
 NOR  HE ES   4   1528 55.07                             118   -1.51 0  241 232 
 NOR  HZ I        1529  0.77        30.8 0.22            118            241 232 
 CHI  HZ EP   1   1528 30.31                             116   -0.25 6  259 195 
 CHI  HE ES   1   1529  0.84                             116   -0.02 6  259 195 
 CHI  HZ I        1529  6.92        10.4 0.38            117            259 195 
 HEL  HZ EP       1528 33.17                             115    0.90 8  275 254 
 HEL  HN ES   1   1529  3.21                             115   -0.69 6  275 254 
 HEL  HZ I        1529 11.03        21.4 0.26            114            275 254 
 URE  HZ EP   4   1528 30.65                             114   -1.76 0  280 290 
 URE  HN ES   4   1529  1.41                             114   -2.74 0  280 290 
 URE  HZ I        1529 12.13        23.2 0.16            114            280 290 
 GUY2CHZ EP       1528 36.78                             112    0.73 7  307 233 
 GUY2CHE ES   1   1529  9.99                             112   -0.64 5  307 233 
 GUY2CHZ I        1529 19.08        14.3 0.46                           307 233 
 DBB  SZ EP       1528 39.15                             110    0.00 7  339 273 
 DBB  SZ ES   4   1529 14.49                             110   -1.66 0  339 273 
 DBB  SZ I        1529 21.37        25.8 0.26            110            339 273 
 TOL  SZ EP   4   1528 42.07                             109    1.21 0  351 223 
 TOL  SE ES   4   1529 21.22                             109    2.03 0  351 223 
 TOL  SZ I        1529 29.30         8.6 0.36            109            351 223 
 SJC  HZ EP   4   1528 44.33                             106   -1.96 0  400 326 
 SJC  HE ES   4   1529 24.88                             106   -3.98 0  400 326 
 SJC  HZ I        1529 29.10         4.6 0.48            107            400 326 
 PRA  HZ EP       1528 46.57                             106    0.25 6  401 209 
 PRA  HE ES       1529 28.82                             106   -0.09 6  401 209 
 PRA  HZ I        1529 34.91         8.4 0.21            107            401 209 
 ORTC HZ EP   1   1528 47.62                             106    0.98 4  404 215 
 ORTC HN ES   4   1529 30.96                             106    1.47 0  404 215 
 ORTC HZ I        1529 40.06         6.1 0.38            107            404 215 
                                                                                
