 2012  228 1015 39.5 L   6.772 -73.159145.6  RSN  7 0.4 1.7LRSN                1
 GAP=136        0.78       4.7     4.5  6.3  0.3862E+01  0.6976E+01  0.4681E+01E
 ACTION:UP  12-03-07 16:35 OP:epov STATUS:               ID:20120228101539 L   I
 2012-02-28-1010-00M.COL___191                                                 6
 STAT SP IPHASW D HRMM SECON CODA AMPLIT PERI AZIMU VELO AIN AR TRES W  DIS CAZ7
 BAR2 SZ EP   1   1015 59.00                             172   -0.08 7 20.1 187 
 BAR2 SZ ES   1   1016 14.51                             172    0.18 7 20.1 187 
 BAR2 SZ I        1016 14.96        11.2 0.30                          20.1 187 
 BRR  HZ EP   1   1016  0.81                             152    0.13 7 71.4 301 
 BRR  HN ES   1   1016 17.73                             152    0.56 7 71.4 301 
 BRR  HZ I        1016 20.80        14.9 0.16                          71.4 301 
 PAM  SZ EP   1   1016  1.93                             150    0.00 7 80.7  39 
 PAM  SZ I        1016  2.16         8.4 0.15                          80.7  39 
 PAM  SN ES   1   1016 18.97                             150   -0.43 7 80.7  39 
 RUS  HZ EP       1016  3.08                             145    0.0210 97.6 175 
 RUS  HN ES   1   1016 21.44                             145    0.04 7 97.6 175 
 RUS  HZ I        1016 23.37         4.2 0.27                          97.6 175 
 PTB  HZ EP       1016  5.77                             132   -0.53 9  146 260 
 PTB  HN ES   1   1016 26.76                             132   -0.42 7  146 260 
 ZAR  HZ EP   1   1016 12.83                             122    0.88 6  204 293 
 ZAR  HN ES   1   1016 37.06                             122   -0.17 6  204 293 
 ZAR  HZ I        1016 42.82         6.3 0.14                           204 293 
 CHI  HZ EP   1   1016 17.25                             117    0.39 6  245 195 
 CHI  HZ I        1016 50.38         2.5 0.25                           245 195 
                                                                                
