 2017  928 1701 37.3 L   6.784 -73.104145.1  RSN  7 0.3 1.7LRSN                1
 GAP=143        0.64       2.7     2.9  4.1 -0.7701E+00  0.4876E+01  0.1360E+01E
 Epicentro: LOS SANTOS - SANTANDER                                             3
 ACTION:UPD 17-10-05 19:17 OP:rebc STATUS:               ID:20170928170137 L   I
 OLDACT:REG 17-09-28 20:54 OP:osc  STATUS:               ID:20170928165746     3
 2017-09-28-1658-00M.COL___443                                                 6
 STAT SP IPHASW D HRMM SECON CODA AMPLIT PERI AZIMU VELO AIN AR TRES W  DIS CAZ7
 BAR2 EZ EP       17 1 56.61                             171   -0.2610 22.9 202 
 BAR2 EZ ES       17 2 12.16                             171    0.0510 22.9 202 
 BAR2 EZ I        17 2 12.60         9.2 0.14            170           22.9 202 
 PAM  EZ EP       17 1 59.42                             151    0.0410 75.9  36 
 PAM  EE ES       17 2 16.64                             151    0.0510 75.9  36 
 PAM  EZ I        17 2 18.90        10.7 0.68            153           75.9  36 
 BRR  HZ EP       17 1 58.63                             151   -0.0610 76.1 298 
 BRR  HE ES       17 2 15.72                             151    0.3710 76.1 298 
 RUS  HZ EP       17 2  0.95                             144    0.0910 98.6 179 
 RUS  HE ES       17 2 19.01                             144   -0.2210 98.6 179 
 RUS  HZ I        17 2 20.18         5.3 0.32            146           98.6 179 
 ZAR  HZ EP       17 2 10.25                             122    0.01 8  209 292 
 ZAR  HN ES       17 2 35.42                             122   -0.50 8  209 292 
 ZAR  HZ I        17 2 41.38         8.3 0.38            122            209 292 
 NOR  HZ EP       17 2 13.12                             118   -0.19 8  237 235 
 NOR  HE ES       17 2 41.30                             118   -0.08 8  237 235 
 NOR  HZ I        17 2 45.47         2.1 0.17            119            237 235 
 GUY2CHZ EP       17 2 21.86                             112    0.65 7  304 236 
 GUY2CHE ES       17 2 55.73                             112    0.28 7  304 236 
 GUY2CHZ I        17 3  1.61         2.3 0.30                           304 236 
                                                                                
