 2011 1028 1253 28.0 L   6.756 -73.099138.2  RSN  5 0.2 1.7LRSN                1
 GAP=145        0.57       4.2     7.1  6.6  0.1104E+02 -0.1960E+02 -0.9182E+01E
 Epicentro: LOS SANTOS - SANTANDER                                             3
 ACTION:UPD 12-07-13 16:06 OP:ep   STATUS:               ID:20111028125328 L   I
 2011-10-28-1240-00M.COL___177                                                 6
 STAT SP IPHASW D HRMM SECON CODA AMPLIT PERI AZIMU VELO AIN AR TRES W  DIS CAZ7
 BAR2 SZ EP       1253 46.76                             171    0.1110 20.3 207 
 BAR2 SZ ES   1   1254  1.27                             171    0.07 7 20.3 207 
 BAR2 SZ I        1254  2.67        15.4 0.28                          20.3 207 
 GIR2 SZ EP       1253 46.75                             164   -0.2010 37.2 344 
 BRR  HZ EP       1253 48.52                             149   -0.2310 78.1 300 
 BRR  HN ES   1   1254  5.16                             149    0.23 7 78.1 300 
 BRR  HZ I        1254  6.09        18.6 0.12                          78.1 300 
 PAM  SZ EP       1253 49.51                             149    0.0610 78.2  34 
 RUS  HZ EP       1253 50.93                             144    0.3010 95.5 179 
 RUS  HZ I        1253 51.94         4.2 0.14                          95.5 179 
 RUS  HE ES   1   1254  7.90                             144   -0.38 7 95.5 179 
                                                                                
