 2015 1228 1056 42.3 L   6.461 -73.639130.0  RSN 10 0.4 1.7LRSN                1
 GAP=109        0.76       2.2     4.3  5.6  0.1275E+00 -0.3703E+00 -0.4571E+00E
 Epicentro: SANTA HELENA DEL OPON - SANTANDER                                  3
 ACTION:UPD 16-02-04 15:08 OP:cam  STATUS:               ID:20151228105642 L   I
 OLDACT:UP  15-12-28 21:25 OP:dnl  STATUS:               ID:20151228104748     3
 OLDACT:REG 15-12-28 20:11 OP:dnl  STATUS:               ID:20151228104748     3
 2015-12-28-1047-48M.COL___335                                                 6
 STAT SP IPHASW D HRMM SECON CODA AMPLIT PERI AZIMU VELO AIN AR TRES W  DIS CAZ7
 BAR2 EZ EP       1057  1.09                             157   -0.0310 52.6  74 
 BAR2 EZ ES   2   1057 15.07                             157   -0.71 5 52.6  74 
 BAR2 EZ I        1057 16.53        23.7 0.21            161           52.6  74 
 BRR  HZ EP   2   1057  2.15                             149    0.30 5 72.0 354 
 BRR  HE ES       1057 17.59                             149    0.5210 72.0 354 
 BRR  HZ I        1057 21.23         5.4 0.15            151           72.0 354 
 RUS  HE ES   4   1057 17.70                             144   -2.53 0 87.9 136 
 PTB  HZ EP       1057  2.72                             143   -0.4510 90.8 276 
 PTB  HE ES   2   1057 19.26                             143   -0.15 5 90.8 276 
 PTB  HZ I        1057 21.08         7.2 0.10            143           90.8 276 
 SPBC HZ EP       1057  4.30                             140    0.2210  101 208 
 SPBC HN ES       1057 20.82                             140   -0.2210  101 208 
 SPBC HZ I        1057 26.50        13.7 0.07            142            101 208 
 NOR  HN ES   4   1057 30.48                             124   -1.38 0  168 234 
 NOR  HZ I        1057 33.13         6.5 0.33            126            168 234 
 ZAR  HZ EP       1057 11.00                             123    0.08 9  177 310 
 ZAR  HN ES       1057 33.56                             123    0.35 9  177 310 
 ZAR  HZ I        1057 40.24         5.0 0.26            125            177 310 
 OCA  HZ EP       1057 13.67                             120    0.13 9  200  10 
 OCA  HE ES   2   1057 38.21                             120    0.33 4  200  10 
 OCA  HZ I        1057 40.22        10.8 0.16            122            200  10 
 CHI  HZ EP       1057 14.15                             119   -0.04 9  203 183 
 CHI  HN ES       1057 39.25                             119    0.21 9  203 183 
 CHI  HZ I        1057 42.35         2.6 0.35            122            203 183 
 GUY2CHZ EP   4   1057 21.03                             115    3.25 0  235 235 
 GUY2CHN ES   2   1057 45.34                             115   -0.08 4  235 235 
 GUY2CHZ I        1057 53.27         3.6 0.40                           235 235 
 SML  HZ EP   2   1057 20.25                             112   -0.07 4  263 350 
 SML  HE ES       1057 49.11                             112   -0.83 8  263 350 
 SML  HZ I        1057 53.95         7.6 0.08            114            263 350 
                                                                                
