 2016 1228 1054 34.8 L   6.785 -73.180137.6  RSN  7 0.4 1.4LRSN                1
 GAP=133        0.94       3.7     4.0  6.2  0.1425E+01  0.5088E+01  0.5509E+01E
 Epicentro: LOS SANTOS - SANTANDER                                             3
 ACTION:UPD 17-01-11 20:20 OP:rebc STATUS:               ID:20161228105434 L   I
 OLDACT:REG 16-12-28 20:55 OP:cog  STATUS:               ID:20161228104747     3
 2016-12-28-1048-00M.COL___366                                                 6
 STAT SP IPHASW D HRMM SECON CODA AMPLIT PERI AZIMU VELO AIN AR TRES W  DIS CAZ7
 BAR2 EZ EP       1054 53.39                             171   -0.0210 21.3 181 
 BAR2 EZ ES       1055  7.71                             171   -0.2110 21.3 181 
 BAR2 EZ I        1055  9.64        16.1 0.38            167           21.3 181 
 BRR  HZ EP       1054 55.57                             152    0.6410 68.8 301 
 BRR  HE ES       1055 11.10                             152    0.4710 68.8 301 
 BRR  HZ I        1055 13.15         6.4 0.40            152           68.8 301 
 PAM  EZ EP       1054 56.27                             148   -0.1210 81.1  41 
 PAM  EE ES       1055 13.08                             148   -0.1510 81.1  41 
 PAM  EZ I        1055 15.62         5.5 0.38            154           81.1  41 
 RUS  HZ EP       1054 57.30                             142   -0.3610 99.2 174 
 RUS  HE ES       1055 15.68                             142    0.2010 99.2 174 
 RUS  HZ I        1055 17.09         3.0 0.40            142           99.2 174 
 PTB  HZ EP       1055  0.28                             131   -0.46 9  144 259 
 PTB  HN ES       1055 20.35                             131   -0.62 9  144 259 
 PTB  HZ I        1055 28.30         2.4 0.40            131            144 259 
 ZAR  HZ EP   3   1055  7.49                             121    1.06 2  201 293 
 ZAR  HE ES       1055 31.15                             121    0.05 9  201 293 
 CHI  HZ EP       1055 11.89                             116    0.12 8  246 194 
 CHI  HN ES       1055 41.15                             116    0.54 8  246 194 
 CHI  HZ I        1055 50.66         1.2 0.52            116            246 194 
                                                                                
