 2010  728 1649 17.7 L   6.765 -73.144144.6  RSN  6 0.3 1.6LRSN                1
 GAP=164        0.69       5.6    11.9  8.5  0.1268E+02 -0.1407E+02 -0.1004E+01E
 Epicentro: LOS SANTOS - SANTANDER                                             3
 ACTION:UPD 10-12-01 15:20 OP:pat  STATUS:               ID:20100728164917 L   I
 2010-07-28-1646-44S.COL___123                                                 6
 STAT SP IPHASW D HRMM SECON CODA AMPLIT PERI AZIMU VELO AIN AR TRES W  DIS CAZ7
 BAR2 SZ EP   1   1649 36.87                             172    -0.2 7   20 193 
 BAR2 SZ ES   2   1649 52.11                             172    -0.2 5   20 193 
 BAR2 SZ I        1649 52.90         8.8 0.31                            20 193 
 GIR2 SZ EP   1   1649 36.93                             166    -0.4 7   35 351 
 BRR  HZ EP   1   1649 38.62                             152    -0.2 7   73 301 
 BRR  HZ I        1649 38.88        17.3 0.16                            73 301 
 BRR  HE ES   2   1649 55.69                             152     0.4 5   73 301 
 RUS  HZ EP       1649 41.05                             145     0.010   97 176 
 RUS  HE ES   2   1649 59.69                             145     0.4 5   97 176 
 RUS  HZ I        1650  1.20         2.4 0.32                            97 176 
 GUE  SZ EP   1   1649 43.15                             138     0.5 7  120  12 
 PRA  HZ EP   1   1650 11.13                             106     0.3 4  389 210 
                                                                                
