 2015  128 1105 33.6 L   6.809 -73.144148.9  RSN  9 0.4 1.5LRSN                1
 GAP=136        0.93       3.5     4.6  6.3 -0.1857E+01  0.5183E+01  0.2224E+01E
 Epicentro: LOS SANTOS - SANTANDER                                             3
 ACTION:UPD 15-03-02 15:43 OP:nd   STATUS:               ID:20150128110533 L   I
 OLDACT:REG 15-01-28 19:48 OP:spq  STATUS:               ID:20150128105744     3
 2015-01-28-1057-44M.COL___271                                                 6
 STAT SP IPHASW D HRMM SECON CODA AMPLIT PERI AZIMU VELO AIN AR TRES W  DIS CAZ7
 BAR2 EZ EP   1   11 5 53.47                             170   -0.14 7 24.4 190 
 BAR2 EZ ES   1   11 6  9.27                             170    0.04 7 24.4 190 
 BAR2 EZ I        11 6 13.81         5.5 0.32            170           24.4 190 
 BRR  HZ EP       11 5 55.28                             153    0.2310 70.9 298 
 BRR  HE ES       11 6 12.40                             153    0.6010 70.9 298 
 BRR  HZ I        11 6 16.54        11.3 0.36            153           70.9 298 
 PAM  SZ EP       11 5 56.31                             152    0.2410 76.4  40 
 PAM  SE ES       11 6 13.42                             152   -0.2010 76.4  40 
 PAM  SZ I        11 6 16.09         3.3 0.48            157           76.4  40 
 RUS  HZ EP   1   11 5 57.91                             144    0.20 7  102 176 
 RUS  HE ES   1   11 6 15.91                             144   -0.63 7  102 176 
 RUS  HZ I        11 6 17.65         2.3 0.52            147            102 176 
 PTB  HZ EP       11 6  0.12                             133   -0.72 9  148 258 
 PTB  HE ES   1   11 6 21.41                             133   -0.70 7  148 258 
 PTB  HZ I        11 6 26.73         3.7 0.18            134            148 258 
 SPBC HZ EP       11 6  2.70                             130    0.29 9  164 219 
 SPBC HE ES       11 6 24.77                             130   -0.13 9  164 219 
 SPBC HZ I        11 6 26.97         3.9 0.10            132            164 219 
 ZAR  HN ES   1   11 6 32.23                             123    0.57 6  204 292 
 ZAR  HZ I        11 6 36.51         4.9 0.44            125            204 292 
 SML  HZ EP   1   11 6 10.05                             118   -0.24 6  243 335 
 SML  HN ES   1   11 6 38.31                             118   -0.61 6  243 335 
 CHI  HZ EP   1   11 6 12.04                             118    0.48 6  250 195 
 CHI  HE ES   1   11 6 41.64                             118    0.45 6  250 195 
 CHI  HZ I        11 6 45.66         1.6 0.26            121            250 195 
                                                                                
