 2012  628 1139 59.6 L   6.729 -73.214151.9  RSN  4 0.1 1.8LRSN                1
 GAP=220        0.41       4.8     4.7  5.5  0.1156E+02 -0.7914E-01  0.5045E+01E
 Epicentro: VILLANUEVA - SANTANDER                                             3
 ACTION:UPD 12-08-06 17:53 OP:ep   STATUS:               ID:20120628113959 L   I
 2012-06-28-1140-00M.COL___201                                                 6
 STAT SP IPHASW D HRMM SECON CODA AMPLIT PERI AZIMU VELO AIN AR TRES W  DIS CAZ7
 BAR2 SZ IP       1140 19.60                             174   -0.2310 15.5 167 
 BAR2 SZ I        1140 35.93        21.7 0.18                          15.5 167 
 BRR  HZ EP       1140 21.44                             154    0.1410 69.2 307 
 BRR  HN ES   1   1140 38.26                             154    0.03 7 69.2 307 
 BRR  HZ I        1140 40.79        13.2 0.32                          69.2 307 
 RUS  HZ EP       1140 23.61                             147    0.1410 93.6 171 
 RUS  HN ES   2   1140 42.13                             147    0.03 5 93.6 171 
 RUS  HZ I        1140 43.18         7.0 0.18                          93.6 171 
 PTB  HZ EP       1140 26.23                             135   -0.07 9  139 261 
 PTB  HN ES   2   1140 47.11                             135   -0.02 5  139 261 
 PTB  HZ I        1140 50.57         6.8 0.22                           139 261 
                                                                                
