 2014 1028 1733 50.7 L   6.798 -73.155145.6  RSN 11 0.4 2.0LRSN                1
 GAP=135        1.01       3.5     4.3  5.5 -0.2260E+01  0.7031E+01  0.4883E+01E
 Epicentro: LOS SANTOS - SANTANDER                                             3
 ACTION:UPD 14-11-29 23:58 OP:nd   STATUS:               ID:20141028173350 L   I
 OLDACT:DUP 14-10-30 20:55 OP:fm   STATUS:               ID:20141028172749d    3
 2014-10-28-1727-48M.COL___274                                                 6
 STAT SP IPHASW D HRMM SECON CODA AMPLIT PERI AZIMU VELO AIN AR TRES W  DIS CAZ7
 BAR2 SZ EP       1734 10.41                             171    0.1210 23.0 188 
 BAR2 SZ ES       1734 25.29                             171   -0.2810 23.0 188 
 BAR2 SZ I        1734 26.56        21.2 0.42            170           23.0 188 
 BRR  HZ EP       1734 12.22                             153    0.4510 70.4 299 
 BRR  HN ES       1734 29.17                             153    0.9610 70.4 299 
 BRR  HZ I        1734 33.15        13.1 0.12            151           70.4 299 
 PAM  SZ EP       1734 13.16                             150    0.2310 78.2  40 
 PAM  SN ES       1734 30.00                             150   -0.2810 78.2  40 
 PAM  SZ I        1734 32.38        27.0 0.50            153           78.2  40 
 RUS  HZ EP       1734 14.35                             144   -0.0610  100 175 
 RUS  HN ES       1734 32.70                             144   -0.2110  100 175 
 RUS  HZ I        1734 34.01        14.9 0.34            145            100 175 
 PTB  HZ EP       1734 17.41                             132   -0.13 9  147 259 
 PTB  HN ES       1734 37.88                             132   -0.61 9  147 259 
 PTB  HZ I        1734 40.45        11.8 0.32            132            147 259 
 SPBC HZ EP       1734 19.04                             129   -0.05 9  162 219 
 SPBC HN ES       1734 41.20                             129   -0.05 9  162 219 
 SPBC HZ I        1734 43.87        22.6 0.18            129            162 219 
 CHI  HZ EP       1734 28.10                             117   -0.22 8  248 195 
 CHI  HN ES       1734 57.61                             117   -0.07 8  248 195 
 CHI  HZ I        1735  1.11         3.8 0.38            118            248 195 
 GUY2CHZ EP       1734 34.24                             112    0.06 7  300 235 
 GUY2CHN ES       1735  8.59                             112    0.49 7  300 235 
 GUY2CHZ I        1735 16.64         4.2 0.44                           300 235 
 TOL  SZ EP       1734 39.53                             109    0.70 7  343 225 
 TOL  SE ES       1735 16.58                             109    0.19 7  343 225 
 TOL  SZ I        1735 24.80         9.5 0.24            110            343 225 
 MON  HN ES       1735 16.47                             109   -1.28 6  353 309 
 MON  HZ I        1735 23.61         2.2 0.26            109            353 309 
 PRA  HZ EP       1734 43.81                             106   -0.31 6  391 209 
 PRA  HN ES       1735 25.68                             106   -0.12 6  391 209 
 PRA  HZ I        1735 31.34         3.6 0.52            107            391 209 
                                                                                
