 2014  528 1129 51.0 L   6.803 -73.167141.2  RSN 14 0.5 2.0LRSN                1
 GAP=134        1.22       2.9     4.3  6.1 -0.2200E+01  0.7119E+01  0.1085E+01E
 Epicentro: LOS SANTOS - SANTANDER                                             3
 ACTION:UPD 15-03-16 17:01 OP:nd   STATUS:               ID:20140528112950 L   I
 OLDACT:UP  14-05-29 08:32 OP:nlst STATUS:               ID:20140528112950 L   3
 OLDACT:REG 14-05-28 21:42 OP:stll STATUS:               ID:20140528112811     3
 2014-05-28-1128-11M.COL___254                                                 6
 STAT SP IPHASW D HRMM SECON CODA AMPLIT PERI AZIMU VELO AIN AR TRES W  DIS CAZ7
 BAR2 SZ EP       1130 10.17                             170    0.1210 23.4 184 
 BAR2 SZ ES       1130 24.38                             170   -0.5610 23.4 184 
 BAR2 SZ I        1130 26.22        31.6 0.32            168           23.4 184 
 BRR  HZ IP     C 1130 12.10                             153    0.6010 69.0 299 
 BRR  HN ES       1130 28.32                             153    0.8010 69.0 299 
 BRR  HZ I        1130 31.95        26.4 0.32            150           69.0 299 
 PAM  SZ EP       1130 13.05                             150    0.2710 78.7  41 
 PAM  SN ES       1130 29.93                             150    0.1410 78.7  41 
 PAM  SZ I        1130 32.22        25.8 0.48            155           78.7  41 
 RUS  HZ EP       1130 14.47                             143    0.1610  101 175 
 RUS  HZ I        1130 15.58         9.3 0.14            145            101 175 
 RUS  HN ES       1130 32.59                             143    0.0710  101 175 
 PTB  HZ EP       1130 17.01                             131   -0.35 9  146 259 
 PTB  HN ES       1130 37.48                             131   -0.47 9  146 259 
 PTB  HZ I        1130 43.57        12.9 0.30            131            146 259 
 OCA  HZ EP       1130 18.61                             129   -0.26 9  160 354 
 OCA  HN ES       1130 40.12                             129   -0.52 9  160 354 
 SPBC HZ EP       1130 19.51                             128    0.51 9  162 218 
 SPBC HN ES       1130 41.29                             128    0.42 9  162 218 
 SPBC HZ I        1130 49.28        11.5 0.22            129            162 218 
 ZAR  HZ EP       1130 23.15                             122    0.27 9  202 292 
 ZAR  HN ES       1130 48.09                             122    0.32 9  202 292 
 ZAR  HZ I        1130 58.48        12.7 0.28            122            202 292 
 NOR  HZ EP   2   1130 26.64                             118    0.39 4  233 234 
 NOR  HN ES       1130 53.36                             118   -0.41 8  233 234 
 NOR  HZ I        1131  0.19         7.0 0.16            118            233 234 
 SML  HZ EP       1130 26.51                             117   -0.69 8  242 336 
 SML  HN ES       1130 54.82                             117   -0.65 8  242 336 
 SML  HZ I        1130 57.94        17.6 0.22            118            242 336 
 CHI  HZ EP       1130 28.64                             116    0.25 8  248 195 
 CHI  HN ES       1130 56.45                             116   -1.12 8  248 195 
 CHI  HZ I        1131  1.82         2.3 0.32            118            248 195 
 HEL  HN ES       1131  2.20                             114    0.50 8  270 256 
 HEL  HZ I        1131  8.61         6.5 0.34            115            270 256 
 GUY2CHZ EP   1   1130 35.77                             112    1.60 5  299 234 
 GUY2CHE ES       1131  7.09                             112   -0.78 7  299 234 
 GUY2CHZ I        1131 17.18         4.0 0.42                           299 234 
 PRA  HZ EP       1130 44.18                             106   -0.05 6  391 209 
 PRA  HN ES       1131 25.35                             106   -0.43 6  391 209 
 PRA  HZ I        1131 32.46         4.9 0.30            107            391 209 
                                                                                
