 2013  328 1915 54.4 L   6.779 -73.144149.7  RSN  6 0.4 2.0LRSN                1
 GAP=138        0.94       4.9     4.3  8.1  0.1958E+01  0.4514E+01  0.2927E+01E
 Epicentro: LOS SANTOS - SANTANDER                                             3
 ACTION:UPD 13-04-09 14:05 OP:ep   STATUS:               ID:20130328191554 L   I
 2013-03-28-1910-00M.COL___245                                                 6
 STAT SP IPHASW D HRMM SECON CODA AMPLIT PERI AZIMU VELO AIN AR TRES W  DIS CAZ7
 BAR2 SZ EP       1916 14.34                             172   -0.0910 21.1 192 
 BRR  HZ IP     C 1916 16.23                             153    0.2110 72.5 300 
 BRR  HE ES       1916 33.37                             153    0.4710 72.5 300 
 BRR  HE I        1916 33.83        26.8 0.20            154           72.5 300 
 PAM  SZ EP       1916 17.28                             151    0.1810 79.0  38 
 PAM  SN ES       1916 34.31                             151   -0.5210 79.0  38 
 PAM  SN I        1916 35.06        17.6 0.26            157           79.0  38 
 RUS  HZ EP       1916 18.27                             145   -0.0810 98.3 176 
 RUS  HE ES       1916 37.41                             145    0.3610 98.3 176 
 RUS  HE I        1916 43.37         6.0 0.52            144           98.3 176 
 PTB  HZ EP   1   1916 21.33                             133   -0.31 7  148 260 
 PTB  HN ES       1916 42.18                             133   -0.73 9  148 260 
 PTB  HN I        1916 47.09        13.5 0.46            133            148 260 
 ZAR  HZ EP   2   1916 27.58                             123    0.40 4  205 293 
 ZAR  HE ES       1916 53.05                             123    0.27 9  205 293 
 ZAR  HE I        1916 57.95        22.5 0.48            125            205 293 
                                                                                
