 2013  828 1842 11.8 L   7.426 -73.198131.0  RSN 12 0.5 2.2LRSN                1
 GAP=105        1.15       3.1     4.1  7.3  0.3620E+00  0.5741E+01 -0.4919E+00E
 Epicentro: EL PLAYON - SANTANDER                                              3
 ACTION:UPD 14-01-14 09:08 OP:ep   STATUS:               ID:20130828184211 L   I
 OLDACT:REG 13-08-28 14:59 OP:jn   STATUS:               ID:20130828183959     3
 2013-08-28-1839-59M.COL___236                                                 6
 STAT SP IPHASW D HRMM SECON CODA AMPLIT PERI AZIMU VELO AIN AR TRES W  DIS CAZ7
 PAM  SZ IP     C 1842 31.70                             156    0.4410 55.8 100 
 PAM  SN ES   1   1842 46.87                             156    0.46 7 55.8 100 
 PAM  SZ I        1842 49.62        33.6 0.32            154           55.8 100 
 BRR  HZ EP       1842 31.51                             151    0.3610 66.8 238 
 BRR  HN ES   1   1842 46.49                             151    0.28 7 66.8 238 
 BRR  HZ I        1842 48.68        41.9 0.18            149           66.8 238 
 OCA  HZ EP       1842 33.08                             143    0.1110 90.9 352 
 OCA  HN ES   1   1842 49.53                             143    0.09 7 90.9 352 
 OCA  HZ I        1842 51.84        37.8 0.18            144           90.9 352 
 BAR2 SZ EP       1842 33.41                             143    0.2310 92.2 179 
 BAR2 SZ ES   1   1842 49.43                             143   -0.39 7 92.2 179 
 BAR2 SZ I        1842 50.98        52.7 0.16            140           92.2 179 
 RUS  HZ EP       1842 40.59                             125    0.13 9  170 176 
 RUS  HN ES       1843  1.80                             125   -0.99 9  170 176 
 RUS  HZ I        1843  3.60         4.0 0.26            122            170 176 
 PTB  HZ EP       1842 40.00                             124    0.15 9  170 235 
 PTB  HN ES   1   1843  1.46                             124   -0.23 7  170 235 
 PTB  HZ I        1843  7.06        13.5 0.20            122            170 235 
 SML  HZ EP       1842 40.13                             123   -0.70 9  180 328 
 SML  HN ES   1   1843  2.47                             123   -0.97 7  180 328 
 SML  HZ I        1843  3.74        58.9 0.24            122            180 328 
 ZAR  HZ EP       1842 41.33                             122    0.13 9  183 272 
 ZAR  HN ES   1   1843  4.70                             122    0.61 7  183 272 
 ZAR  HZ I        1843  8.16        33.2 0.26            121            183 272 
 TAM  HZ EP       1842 41.47                             121   -0.47 9  190 125 
 TAM  HN ES   1   1843  5.63                             121    0.21 7  190 125 
 TAM  HZ I        1843  7.03        17.3 0.26            119            190 125 
 URE  HZ EP   4   1842 48.14                             113   -1.41 0  260 278 
 URE  HN ES   4   1843 16.97                             113   -1.99 0  260 278 
 NOR  HN ES       1843 22.64                             111    0.25 7  277 222 
 COD  HZ EP   1   1842 51.81                             111    0.17 6  279 354 
 COD  HN ES       1843 22.38                             111   -0.30 7  279 354 
 GUY2CHZ EP       1843  0.91                             107    1.40 7  342 225 
 GUY2CHE ES       1843 35.62                             107   -1.07 7  342 225 
                                                                                
