 2011  328 1811 27.5 L   6.709 -73.097132.0  RSN  8 0.4 2.0LRSN                1
 GAP=165        0.87       5.5     7.6  8.3 -0.2127E+02 -0.7188E+01  0.1185E+02E
 Epicentro: JORDAN - SANTANDER                                                 3
 ACTION:UP  11-06-16 14:36 OP:jfem STATUS:               ID:20110328181127 L   I
 2011-03-28-1809-39S.COL___138                                                 6
 STAT SP IPHASW D HRMM SECON CODA AMPLIT PERI AZIMU VELO SNR AR TRES W  DIS CAZ7
 BAR2 SZ IP       1811 45.49                             173     0.110   16 217 
 BAR2 SZ ES   2   1811 58.50                             173    -0.8 5   16 217 
 BAR2 SZ I        1812  1.42        25.6 0.30                            16 217 
 GIR2 SZ EP   1   1811 45.61                             162    -0.3 7   42 345 
 BRR  HZ IP     C 1811 47.37                             147    -0.510   81 303 
 BRR  HN ES   1   1812  4.35                             147     0.7 7   81 303 
 BRR  HZ I        1812  5.48        20.8 0.22                            81 303 
 PAM  SZ IP       1811 48.45                             147    -0.210   82  32 
 PAM  SE ES   1   1812  5.38                             147     0.3 7   82  32 
 GRA  SZ EP       1811 52.44                             132     0.110  134  14 
 GRA  SZ ES   1   1812 11.81                             132     0.2 7  134  14 
 GRA  SZ I        1812 12.99        13.6 0.44                           134  14 
 OCA  SZ EP   1   1811 55.57                             125    -0.3 7  171 352 
 OCA  SZ I        1812 19.30        15.6 0.24                           171 352 
 NOR  SN ES   2   1812 29.39                             116    -0.2 4  234 237 
 CHI  HZ EP   1   1812  4.10                             115     0.5 6  240 197 
 CHI  HN ES   2   1812 31.97                             115     0.3 4  240 197 
 CHI  HZ I        1812 40.27         4.3 0.50                           240 197 
                                                                                
