 2017  328 1525  3.2 L   6.782 -73.144141.6  RSN  5 0.5 1.1LRSN                1
 GAP=138        1.17       6.1     5.5  9.8 -0.1034E+01  0.1709E+02 -0.4975E+01E
 Epicentro: LOS SANTOS - SANTANDER                                             3
 ACTION:UPD 17-05-25 18:46 OP:jn   STATUS:               ID:20170328152503 L   I
 OLDACT:REG 17-03-28 20:31 OP:lv   STATUS:               ID:20170328151748     3
 2017-03-28-1518-00M.COL___370                                                 6
 STAT SP IPHASW D HRMM SECON CODA AMPLIT PERI AZIMU VELO AIN AR TRES W  DIS CAZ7
 BAR2 EZ EP       1525 22.45                             171    0.1410 21.4 191 
 BAR2 EZ ES       1525 37.63                             171    0.4310 21.4 191 
 BAR2 EZ I        1525 39.02         7.5 0.07            171           21.4 191 
 PAM  EZ EP       1525 25.43                             150    0.3510 78.8  39 
 PAM  EN ES       1525 41.49                             150   -0.6410 78.8  39 
 PAM  EZ I        1525 44.69         1.7 0.49            153           78.8  39 
 RUS  HZ EP       1525 26.55                             143    0.1410 98.6 176 
 RUS  HN ES       1525 44.56                             143    0.0510 98.6 176 
 RUS  HZ I        1525 47.05         1.4 0.38            146           98.6 176 
 PTB  HZ EP       1525 29.22                             131   -0.61 9  148 260 
 PTB  HE ES       1525 50.03                             131   -0.55 9  148 260 
 PTB  HZ I        1525 55.50         1.6 0.20            133            148 260 
 ZAR  HE ES       1526  1.39                             121    0.73 9  205 293 
                                                                                
