 2012  628 1945 27.2 L   6.775 -73.108143.1  RSN  5 0.5 1.6LRSN                1
 GAP=143        0.84       8.0    10.4  9.3  0.3195E+02  0.7026E+00  0.1438E+02E
 Epicentro: LOS SANTOS - SANTANDER                                             3
 ACTION:UPD 12-08-06 17:53 OP:ep   STATUS:               ID:20120628194527 L   I
 2012-06-28-1940-00M.COL___201                                                 6
 STAT SP IPHASW D HRMM SECON CODA AMPLIT PERI AZIMU VELO AIN AR TRES W  DIS CAZ7
 BAR2 SZ EP       1945 46.62                             170    0.1710 21.8 202 
 BAR2 SZ ES   1   1946  0.86                             170   -0.62 7 21.8 202 
 BAR2 SZ I        1946  3.85         9.7 0.20                          21.8 202 
 BRR  HZ EP       1945 48.28                             150   -0.0510 76.2 299 
 BRR  HZ I        1945 48.40        23.8 0.14                          76.2 299 
 BRR  HN ES   1   1946  5.25                             150    0.42 7 76.2 299 
 PAM  SN ES   2   1946  5.91                             151   -0.26 5 77.0  36 
 RUS  HZ EP       1945 50.35                             144   -0.0910 97.6 178 
 RUS  HE ES   2   1946  9.56                             144    0.97 5 97.6 178 
 RUS  HZ I        1946 10.89         2.3 0.24                          97.6 178 
 PTB  HN ES   3   1946 13.64                             130   -1.74 2  151 260 
                                                                                
