 2016 1228 1856 23.5 L   6.830 -73.144145.9  RSN  5 0.2 1.4LRSN                1
 GAP=135        0.47       2.6     2.3  4.0 -0.1094E+00  0.2776E+01 -0.6515E+00E
 Epicentro: LOS SANTOS - SANTANDER                                             3
 ACTION:UPD 17-01-11 20:20 OP:rebc STATUS:               ID:20161228185623 L   I
 OLDACT:REG 16-12-28 21:50 OP:cog  STATUS:               ID:20161228184743     3
 2016-12-28-1848-00M.COL___375                                                 6
 STAT SP IPHASW D HRMM SECON CODA AMPLIT PERI AZIMU VELO AIN AR TRES W  DIS CAZ7
 BAR2 EZ EP       1856 43.17                             169   -0.0810 26.7 189 
 BAR2 HN ES       1856 58.71                             169    0.0910 26.7 189 
 BAR2 EZ I        1856 59.23         5.4 0.26            169           26.7 189 
 PAM  EZ EP       1856 45.58                             152   -0.0210 74.7  41 
 PAM  EE ES       1857  2.73                             152   -0.0810 74.7  41 
 PAM  EZ I        1857  4.81         7.3 0.50            154           74.7  41 
 RUS  HZ EP       1856 47.81                             143    0.2710  104 176 
 RUS  HN ES       1857  6.23                             143   -0.0310  104 176 
 RUS  HZ I        1857  7.60         3.5 0.46            145            104 176 
 PTB  HZ EP       1856 50.35                             132   -0.24 9  149 258 
 PTB  HN ES       1857 11.54                             132   -0.16 9  149 258 
 PTB  HZ I        1857 16.71         3.3 0.11            132            149 258 
 ZAR  HE ES       1857 21.38                             122    0.27 9  203 291 
 GUY2CHZ EP   4   1857  9.32                             112    1.93 0  303 234 
 GUY2CHN ES   4   1857 42.00                             112    0.41 0  303 234 
                                                                                
