 2012  628 1451  4.0 L   6.727 -73.200150.0  RSN  4 0.3 1.4LRSN                1
 GAP=225        0.58       8.0     6.7  7.9  0.2478E+02  0.7335E+01  0.1343E+02E
 Epicentro: VILLANUEVA - SANTANDER                                             3
 ACTION:UPD 12-08-06 17:53 OP:ep   STATUS:               ID:20120628145104 L   I
 2012-06-28-1450-00M.COL___201                                                 6
 STAT SP IPHASW D HRMM SECON CODA AMPLIT PERI AZIMU VELO AIN AR TRES W  DIS CAZ7
 BAR2 SZ EP       1451 23.62                             174   -0.3610 15.1 173 
 BAR2 SZ ES   2   1451 39.51                             174   -0.07 5 15.1 173 
 BAR2 SZ I        1451 41.50         4.8 0.24                          15.1 173 
 BRR  HZ EP       1451 25.57                             154    0.0310 70.5 307 
 BRR  HZ I        1451 26.77        13.5 0.44                          70.5 307 
 BRR  HN ES   2   1451 42.95                             154    0.59 5 70.5 307 
 RUS  HZ EP       1451 27.94                             147    0.3110 93.2 172 
 RUS  HZ I        1451 27.99         1.9 0.16                          93.2 172 
 RUS  HE ES   3   1451 45.84                             147   -0.25 2 93.2 172 
 PTB  HZ EP       1451 30.56                             135   -0.09 9  141 262 
 PTB  HN ES   2   1451 51.39                             135   -0.07 5  141 262 
 PTB  HZ I        1451 58.80         3.5 0.46                           141 262 
                                                                                
