 2010  428 1154 16.2 L   6.745 -72.986135.3  RSN  8 0.3 2.1LRSN                1
 GAP=216        0.47       3.6     5.2  4.3 -0.1075E+02 -0.7918E+00  0.3001E+01E
 Epicentro: CEPITA - SANTANDER                                                 3
 ACTION:UPD 10-08-24 10:01 OP:vdl  STATUS:               ID:20100428114957 L   I
 2010-04-28-1149-57S.COL___104                                                 6
 STAT SP IPHASW D HRMM SECON CODA AMPLIT PERI AZIMU VELO AIN AR TRES W  DIS CAZ7
 BAR2 SZ IP       1154 34.74                             168     0.110   28 232 
 BAR2 SZ ES   1   1154 48.94                             168    -0.1 7   28 232 
 BRR  HZ IP     C 1154 37.24                             146    -0.210   90 297 
 BRR  HZ I        1154 37.68        31.2 0.08                            90 297 
 BRR  HE ES   1   1154 53.88                             146    -0.1 7   90 297 
 BRI  SZ EP   2   1154 39.51                             140     0.4 5  109  11 
 GUE  SZ EP   1   1154 40.02                             137    -0.2 7  120   3 
 GUE  SZ ES   1   1154 59.17                             137     0.2 7  120   3 
 GRA  SZ EP   2   1154 40.43                             135    -0.2 5  128   9 
 GRA  SZ ES   2   1155  0.18                             135     0.4 5  128   9 
 HEL  HZ EP   2   1154 57.44                             112    -0.2 4  288 258 
 HEL  HZ I        1155 33.77         6.1 0.27                           288 258 
 RREF BZ EP   1   1155  3.29                             109     0.3 5  332 232 
 RREF BN ES   2   1155 40.25                             109     0.7 3  332 232 
 RREF BZ I        1155 43.98         4.2 0.26                           332 232 
 TOL  SZ EP   2   1155  4.72                             107    -0.3 3  352 227 
                                                                                
