 2015  728 1009  5.0 L   6.786 -73.137136.4  RSN  5 0.3 1.6LRSN                1
 GAP=138        0.80       4.6     5.7  7.6  0.1167E+02  0.3825E+01 -0.1449E+02E
 Epicentro: LOS SANTOS - SANTANDER                                             3
 ACTION:UPD 15-09-08 21:51 OP:cam  STATUS:               ID:20150728100905 L   I
 OLDACT:DUP 15-07-28 21:00 OP:stll STATUS:               ID:20150728100750d    3
 2015-07-28-1007-49M.COL___334                                                 6
 STAT SP IPHASW D HRMM SECON CODA AMPLIT PERI AZIMU VELO AIN AR TRES W  DIS CAZ7
 BAR2 EZ EP       10 9 23.53                             170    0.0810 22.0 193 
 BAR2 EZ ES       10 9 37.92                             170    0.0510 22.0 193 
 BAR2 EZ I        10 9 39.54         7.7 0.20            170           22.0 193 
 PAM  EZ EP       10 9 26.62                             149    0.3810 77.9  38 
 PAM  EZ I        10 9 26.78        16.3 0.22            151           77.9  38 
 RUS  HZ EP       10 9 27.78                             142    0.0910 99.0 177 
 RUS  HN ES       10 9 45.05                             142   -0.3710 99.0 177 
 RUS  HZ I        10 9 47.06         3.1 0.32            147           99.0 177 
 ZAR  HZ EP       10 9 36.72                             120   -0.26 8  206 292 
 ZAR  HN ES       1010  2.39                             120    0.44 8  206 292 
 ZAR  HZ I        1010 10.26         4.7 0.50            120            206 292 
 SML  HN ES       1010  9.05                             115   -0.57 8  246 335 
 SML  HZ I        1010 18.45         4.1 0.10            116            246 335 
                                                                                
