 2010  928 1952 11.5 L   6.756 -73.124146.6  RSN  4 0.1 1.7LRSN                1
 GAP=219        0.35       7.8    12.3  6.2  0.8391E+02 -0.4653E+02 -0.2385E+02E
 Epicentro: LOS SANTOS - SANTANDER                                             3
 ACTION:UP  11-02-18 11:06 OP:tino STATUS:               ID:20100928195211 L   I
 2010-09-28-1949-50S.COL___125                                                 6
 STAT SP IPHASW D HRMM SECON CODA AMPLIT PERI AZIMU VELO SNR AR TRES W  DIS CAZ7
 BAR2 SZ ES   2   1952 46.51                             172     0.0 5   19 200 
 BAR2 SZ I        1952 47.59        14.3 0.28                            19 200 
 BTL  SZ EP   1   1952 31.22                             170     0.0 7   24 319 
 BRR  HZ EP   1   1952 32.90                             151    -0.1 7   76 301 
 BRR  HZ I        1952 40.43        13.2 0.53                            76 301 
 BRR  HE ES       1952 49.79                             151     0.010   76 301 
 RUS  HZ EP   2   1952 35.21                             145     0.2 5   96 177 
 RUS  HN ES   2   1952 53.14                             145    -0.1 5   96 177 
 RUS  HZ I        1952 54.84         5.1 0.24                            96 177 
                                                                                
