 2016  628 1639 46.8 L   6.788 -73.392122.0  RSN  4 0.2 1.6LRSN                1
 GAP=178        0.41       2.9     2.6  4.1  0.3418E+01  0.1801E+01  0.1384E+01E
 Epicentro: SAN VICENTE DE CHUCURI - SANTANDER                                 3
 ACTION:UPD 16-07-21 22:23 OP:rebc STATUS:               ID:20160628163946 L   I
 OLDACT:REG 16-06-28 21:14 OP:ak   STATUS:               ID:20160628163749     3
 2016-06-28-1637-49M.COL___343                                                 6
 STAT SP IPHASW D HRMM SECON CODA AMPLIT PERI AZIMU VELO AIN AR TRES W  DIS CAZ7
 BAR2 EZ IP     D 1640  3.61                             165   -0.1710 31.7 133 
 BAR2 EZ ES       1640 17.17                             165    0.1210 31.7 133 
 BAR2 EZ I        1640 17.94        19.3 0.26                          31.7 133 
 BRR  HZ EP       1640  4.18                             156    0.0010 50.0 315 
 BRR  HN ES       1640 17.76                             156   -0.0010 50.0 315 
 BRR  HZ I        1640 18.93        19.1 0.19                          50.0 315 
 RUS  HZ EP   2   1640  8.62                             137    0.02 5  105 161 
 RUS  HN ES       1640 25.62                             137   -0.0110  105 161 
 RUS  HZ I        1640 27.08         5.2 0.30                           105 161 
 PTB  HZ EP   2   1640  9.93                             132    0.57 5  121 257 
 PTB  HN ES       1640 26.90                             132   -0.0810  121 257 
 PTB  HZ I        1640 31.11         3.9 0.11                           121 257 
                                                                                
