 2017  828 1145 55.4 L   6.804 -73.134145.3  RSN 15 0.4 2.3LRSN                1
 GAP=113        0.95       2.8     3.3  4.8  0.3753E+00  0.3889E+01  0.2055E+01E
 Epicentro: LOS SANTOS - SANTANDER                                             3
 ACTION:UPD 17-09-04 20:25 OP:rebc STATUS:               ID:20170828114555 L   I
 OLDACT:UP  17-08-28 22:11 OP:dani STATUS:               ID:20170828113741     3
 OLDACT:UP  17-08-28 22:10 OP:dani STATUS:               ID:20170828113741     3
 OLDACT:UP  17-08-28 22:10 OP:dani STATUS:               ID:20170828113741     3
 OLDACT:UP  17-08-28 22:09 OP:dani STATUS:               ID:20170828113741     3
 OLDACT:UP  17-08-28 22:08 OP:dani STATUS:               ID:20170828113741     3
 OLDACT:REG 17-08-28 20:08 OP:dani STATUS:               ID:20170828113741     3
 2017-08-28-1138-00M.COL___408                                                 6
 STAT SP IPHASW D HRMM SECON CODA AMPLIT PERI AZIMU VELO AIN AR TRES W  DIS CAZ7
 BAR2 EZ EP     C 1146 14.75                             170   -0.2810 24.1 193 
 BAR2 EZ ES       1146 29.99                             170   -0.3210 24.1 193 
 BAR2 EZ I        1146 31.62        43.0 0.58            170           24.1 193 
 BRR  HZ EP     C 1146 16.59                             152   -0.0010 72.1 298 
 BRR  HN ES       1146 33.62                             152    0.5310 72.1 298 
 BRR  HZ I        1146 36.80        34.6 0.40            150           72.1 298 
 PAM  EZ EP     C 1146 17.56                             151    0.0210 76.2  39 
 PAM  EN ES       1146 34.80                             151    0.0310 76.2  39 
 PAM  EZ I        1146 36.96        55.2 0.48            152           76.2  39 
 RUS  HZ EP       1146 19.25                             144    0.0710  101 177 
 RUS  HE ES       1146 37.50                             144   -0.1910  101 177 
 RUS  HZ I        1146 38.66        30.0 0.32            144            101 177 
 SPBC HZ EP       1146 24.02                             129    0.00 9  164 219 
 SPBC HE ES       1146 45.55                             129   -0.76 9  164 219 
 SPBC HZ I        1146 48.35        38.8 0.32            128            164 219 
 YPLC HZ EP       1146 25.30                             126    0.11 9  177 152 
 YPLC HN ES       1146 49.23                             126    0.84 9  177 152 
 YPLC HZ I        1146 50.15        31.4 0.26            127            177 152 
 ZAR  HZ EP       1146 27.98                             122    0.02 9  205 292 
 ZAR  HN ES       1146 52.84                             122   -0.48 9  205 292 
 ZAR  HZ I        1146 58.46        18.4 0.30            121            205 292 
 NOR  HZ EP       1146 31.75                             118    0.46 8  236 235 
 NOR  HE ES       1146 59.35                             118    0.11 8  236 235 
 NOR  HZ I        1147  4.40        10.6 0.26            118            236 235 
 CHI  HZ EP       1146 33.00                             117   -0.20 8  249 195 
 CHI  HN ES       1147  2.52                             117   -0.13 8  249 195 
 CHI  HZ I        1147  5.79         9.4 0.34            117            249 195 
 HEL  HZ EP   4   1146 39.97                             114    4.19 0  273 256 
 HEL  HN ES       1147  8.21                             114    0.97 8  273 256 
 HEL  HZ I        1147 13.58         6.7 0.41            114            273 256 
 GUY2CHZ EP   3   1146 40.83                             112    1.65 2  302 235 
 GUY2CHN ES   4   1147 16.49                             112    3.20 0  302 235 
 GUY2CHZ I        1147 25.00         9.6 0.42                           302 235 
 PTGC HZ EP   9   1146 37.96                             111   -1.32 0  309 159 
 PTGC HN ES       1147 11.49                             112   -0.66 7  309 159 
 PTGC HZ I        1147 17.72        13.3 0.14            112            309 159 
 LL6C HZ EP       1146 40.88                             110   -0.19 7  324 357 
 LL6C HE ES   4   1147 14.72                             110   -1.94 0  324 357 
 LL6C HZ I        1147 21.88         4.4 0.32            110            324 357 
 PRA  HZ EP       1146 48.50                             106   -0.57 6  393 210 
 PRA  HE ES       1147 30.58                             106   -0.32 6  393 210 
 PRA  HZ I        1147 36.93         8.3 0.54            106            393 210 
 SJC  HZ EP   3   1146 49.58                             105   -1.44 1  409 327 
 SJC  HE ES   4   1147 30.39                             105   -3.98 0  409 327 
 SJC  HZ I        1147 36.57         3.2 0.38            106            409 327 
                                                                                
