 2012  128 1132 53.4 L   5.944 -73.748107.8  RSN  7 0.2 1.3LRSN                1
 GAP= 85        0.51       2.5     2.2  5.7 -0.1295E+01 -0.4884E-01  0.3610E+01E
 Epicentro: GUAVATA - SANTANDER                                                3
 ACTION:UP  12-02-03 08:21 OP:REBC STATUS:               ID:20120128113253 L   I
 2012-01-28-1130-00M.COL___188                                                 6
 STAT SP IPHASW D HRMM SECON CODA AMPLIT PERI AZIMU VELO SNR AR TRES W  DIS CAZ7
 RUS  HZ EP       1133 11.56                             143     0.110   74  94 
 RUS  HZ I        1133 11.86         3.6 0.34                            74  94 
 RUS  HN ES   2   1133 25.60                             143     0.0 5   74  94 
 BAR2 SZ EP       1133 13.02                             135     0.210   95  41 
 BAR2 SZ ES   1   1133 27.66                             135    -0.3 7   95  41 
 BAR2 SZ I        1133 29.84        23.0 0.50                            95  41 
 PTB  HZ EP       1133 12.84                             133    -0.310  102 310 
 PTB  HN ES   1   1133 28.56                             133     0.0 7  102 310 
 PTB  HZ I        1133 29.28         2.4 0.46                           102 310 
 BRR  HZ EP       1133 15.66                             126     0.110  129   2 
 BRR  HN ES   2   1133 32.83                             126    -0.1 5  129   2 
 NOR  SZ EP       1133 15.94                             125     0.010  131 251 
 NOR  SN ES   1   1133 33.74                             125     0.3 7  131 251 
 GIR2 SZ EP       1133 16.96                             123     0.1 9  140  26 
 CHI  HZ EP       1133 17.61                             122    -0.2 9  145 179 
 CHI  HZ I        1133 18.10         1.9 0.22                           145 179 
                                                                                
