 2015  528 1348 18.6 L   6.806 -73.121144.4  RSN 13 0.5 2.5LRSN                1
 GAP=139        1.14       2.8     4.4  5.8 -0.1446E+01  0.1022E+02 -0.2069E+00E
 Epicentro: LOS SANTOS - SANTANDER                                             3
 ACTION:UPD 15-09-10 22:07 OP:cam  STATUS:               ID:20150528134818 L   I
 OLDACT:REG 15-05-28 21:12 OP:ar   STATUS:               ID:20150528134750     3
 2015-05-28-1347-50M.COL___306                                                 6
 STAT SP IPHASW D HRMM SECON CODA AMPLIT PERI AZIMU VELO AIN AR TRES W  DIS CAZ7
 BAR2 EZ EP     D 1348 37.99                             170   -0.1110 24.6 196 
 BAR2 EZ ES       1348 52.97                             170   -0.3310 24.6 196 
 BAR2 EZ I        1348 53.96        46.6 0.16            170           24.6 196 
 BRR  HZ EP       1348 39.90                             152    0.1710 73.3 297 
 BRR  HE ES       1348 57.08                             152    0.8810 73.3 297 
 BRR  HZ I        1349  0.71        46.6 0.32            147           73.3 297 
 PAM  SZ EP       1348 40.96                             151    0.4210 75.2  38 
 PAM  SN ES       1348 57.82                             151    0.1610 75.2  38 
 PAM  SZ I        1348 59.76        89.5 0.54            150           75.2  38 
 RUS  HZ EP       1348 42.37                             143    0.1110  101 178 
 RUS  HN ES       1349  0.64                             143   -0.0710  101 178 
 RUS  HZ I        1349  1.59        30.8 0.24            144            101 178 
 OCA  HZ EP       1348 46.67                             129   -0.11 9  160 352 
 OCA  HN ES       1349  7.84                             129   -0.91 9  160 352 
 OCA  HZ I        1349 11.93        76.7 0.18            126            160 352 
 SPBC HZ EP       1348 47.20                             128   -0.01 9  165 220 
 SPBC HN ES       1349  8.75                             128   -0.78 9  165 220 
 SPBC HZ I        1349 14.36        48.2 0.30            127            165 220 
 ZAR  HZ EP       1348 51.02                             122   -0.18 8  206 292 
 ZAR  HE ES       1349 17.47                             122    0.86 8  206 292 
 ZAR  HZ I        1349 21.96        32.0 0.32            119            206 292 
 NOR  HZ EP       1348 54.64                             118    0.10 8  237 235 
 NOR  HE ES       1349 21.84                             118   -0.72 8  237 235 
 NOR  HZ I        1349 23.91        18.5 0.12            116            237 235 
 SML  HZ EP       1348 54.74                             117   -0.47 8  244 335 
 SML  HN ES       1349 23.89                             117    0.13 8  244 335 
 SML  HZ I        1349 28.82        33.8 0.10            115            244 335 
 CHI  HZ EP       1348 56.29                             117   -0.09 8  250 196 
 CHI  HN ES       1349 26.06                             117    0.22 8  250 196 
 CHI  HZ I        1349 29.69         8.6 0.56            116            250 196 
 GUY2CHZ EP       1349  3.01                             112    0.56 7  304 235 
 GUY2CHN ES       1349 37.08                             112    0.44 7  304 235 
 GUY2CHZ I        1349 45.43        12.4 0.58                           304 235 
 CBOC HZ EP       1349  6.59                             109    0.81 7  336 252 
 CBOC HN ES       1349 42.07                             109   -0.51 7  336 252 
 CBOC HZ I        1349 46.96         4.3 0.16            108            336 252 
 MON  HZ EP       1349  7.92                             108    0.17 6  355 308 
 MON  HZ I        1349 45.08        11.8 0.18            106            355 308 
 MON  HE ES       1349 45.13                             108   -0.95 6  355 308 
                                                                                
