 2010  528 1021 20.8 L   6.802 -73.226137.7  RSN  4 0.1 1.9LRSN                1
 GAP=188        0.31       2.8     8.9  3.6 -0.1362E+02  0.9168E+01 -0.3937E+01E
 Epicentro: ZAPATOCA - SANTANDER                                               3
 ACTION:UP  10-08-24 10:07 OP:vdl  STATUS:               ID:20100528102120 L   I
 2010-05-28-1018-25S.COL___108                                                 6
 STAT SP IPHASW D HRMM SECON CODA AMPLIT PERI AZIMU VELO SNR AR TRES W  DIS CAZ7
 BAR2 SZ EP   1   1021 39.44                             170    -0.1 8   24 169 
 BAR2 SZ ES   1   1021 54.08                             170     0.0 8   24 169 
 GUE  SZ EP   1   1021 45.08                             137     0.1 8  118  16 
 GUE  SZ ES   1   1022  3.92                             137     0.1 8  118  16 
 GRA  SZ EP       1021 45.54                             134    -0.110  128  21 
 GRA  SZ ES   1   1022  4.82                             134    -0.1 7  128  21 
 OCA  SZ EP   1   1021 48.50                             128     0.1 7  159 356 
 OCA  SZ ES   2   1022  9.82                             128    -0.1 5  159 356 
 OCA  SZ I        1022 13.39        10.8 0.37                           159 356 
                                                                                
