 2012 1128 1743 21.7 L   6.781 -73.165147.7  RSN  7 0.3 1.7LRSN                1
 GAP=135        0.63       4.1     3.8  5.3  0.5367E+00  0.5357E+01  0.1627E+01E
 Epicentro: LOS SANTOS - SANTANDER                                             3
 ACTION:UPD 12-12-05 15:36 OP:}ep  STATUS:               ID:20121128174321 L   I
 2012-11-28-1740-00M.COL___237                                                 6
 STAT SP IPHASW D HRMM SECON CODA AMPLIT PERI AZIMU VELO AIN AR TRES W  DIS CAZ7
 BAR2 SZ EP       1743 40.92                             171   -0.5910 21.0 185 
 BAR2 SZ ES       1743 57.08                             171    0.1110 21.0 185 
 BAR2 SZ I        1743 58.42        11.7 0.18                          21.0 185 
 GIR2 SZ EP   1   1743 41.85                             167    0.20 7 33.0 355 
 PAM  SZ EP   1   1743 44.49                             150    0.19 7 80.4  40 
 PAM  SN ES   1   1744  1.95                             150    0.03 7 80.4  40 
 PAM  SZ I        1744  4.20         4.9 0.62                          80.4  40 
 RUS  HZ EP       1743 45.69                             145    0.1810 98.7 175 
 RUS  HN ES   1   1744  4.06                             145   -0.01 7 98.7 175 
 RUS  HN I        1744  6.06         7.1 0.19                          98.7 175 
 PTB  HZ EP       1743 48.38                             133   -0.22 9  145 259 
 PTB  HE ES   1   1744  9.69                             133    0.11 7  145 259 
 PTB  HZ I        1744 17.27        10.7 0.43                           145 259 
 ZAR  HN ES   1   1744 19.60                             123    0.15 6  203 293 
 ZAR  HZ I        1744 25.28         5.5 0.19                           203 293 
 CHI  HZ EP   1   1743 59.62                             118    0.39 6  246 195 
 CHI  HZ I        1744 36.66         2.9 0.60                           246 195 
                                                                                
