 2011 1028 1350  4.6 L   6.786 -73.130146.0  RSN 14 0.4 3.0LRSN                1
 GAP=116        0.86       3.6     5.4  5.6 -0.3599E+01  0.1287E+02  0.2896E+01E
 Epicentro: LOS SANTOS - SANTANDER                                             3
 ACTION:UPD 12-07-13 16:06 OP:ep   STATUS:               ID:20111028135004 L   I
 2011-10-28-1348-02S.COL___175                                                 6
 STAT SP IPHASW D HRMM SECON CODA AMPLIT PERI AZIMU VELO AIN AR TRES W  DIS CAZ7
 BTL  SZ EP       1350 24.97                             171    0.7510 21.1 314 
 BAR2 SZ IP       1350 24.09                             171   -0.1510 22.2 195 
 BAR2 SZ I        1350 24.27       217.2 0.20                          22.2 195 
 BAR2 SZ ES   1   1350 39.28                             171   -0.27 7 22.2 195 
 BRR  HZ IP     C 1350 26.01                             152    0.1010 73.5 299 
 BRR  HZ I        1350 26.43       220.1 0.10                          73.5 299 
 BRR  HN ES   1   1350 43.06                             152    0.54 7 73.5 299 
 PAM  SZ IP       1350 26.94                             151    0.0910 77.5  38 
 PAM  SN ES   1   1350 44.00                             151   -0.20 7 77.5  38 
 RUS  HZ IP     C 1350 28.05                             144   -0.2110 98.9 177 
 RUS  HN ES   1   1350 46.57                             144   -0.14 7 98.9 177 
 OCA  SZ EP       1350 32.86                             129   -0.23 9  162 353 
 OCA  SZ ES   1   1350 55.20                             129   -0.12 7  162 353 
 OCA  SZ I        1350 59.06        62.7 0.33                           162 353 
 YOP  SZ EP   2   1350 34.67                             127    0.22 4  177 154 
 ZAR  HZ EP       1350 36.85                             122   -0.44 8  206 292 
 ZAR  HZ I        1351  9.13        99.5 0.32                           206 292 
 NOR  SZ EP       1350 40.00                             119   -0.40 8  235 235 
 NOR  SE ES   1   1351  8.26                             119   -0.07 6  235 235 
 HEL  HZ EP       1350 44.70                             115   -0.28 8  273 256 
 HEL  HZ I        1351 23.28        36.2 0.26                           273 256 
 RREF HZ EP       1350 50.35                             111   -0.44 7  322 230 
 RREF HZ I        1351 32.58        41.4 0.44                           322 230 
 TOL  SZ EP       1350 53.60                             109    0.71 7  344 225 
 ANIL HZ EP       1350 55.40                             109    0.97 6  357 225 
 ANIL HZ I        1351 40.85       102.2 0.26                           357 225 
 PRA  HZ EP       1350 57.89                             107   -0.19 6  392 210 
                                                                                
