 2014  828 1606 47.5 L   6.808 -73.152142.3  RSN  7 0.3 1.8LRSN                1
 GAP=102        0.81       3.8     3.5  5.1 -0.3114E+01 -0.7165E+00  0.3001E+01E
 Epicentro: LOS SANTOS - SANTANDER                                             3
 ACTION:UPD 14-09-15 21:53 OP:nd   STATUS:               ID:20140828160647 L   I
 OLDACT:DUP 14-08-29 01:08 OP:stll STATUS:               ID:20140828155818d    3
 2014-08-28-1558-16M.COL___263                                                 6
 STAT SP IPHASW D HRMM SECON CODA AMPLIT PERI AZIMU VELO AIN AR TRES W  DIS CAZ7
 BAR2 SZ EP       16 7  6.65                             170   -0.0310 24.1 188 
 BAR2 SZ ES       16 7 21.16                             170   -0.5210 24.1 188 
 BAR2 SZ I        16 7 24.01        10.1 0.20            160           24.1 188 
 BRR  HZ EP       16 7  8.42                             152    0.2510 70.1 298 
 BRR  HE ES       16 7 24.85                             152    0.5310 70.1 298 
 BRR  HZ I        16 7 29.33        11.4 0.14            139           70.1 298 
 PAM  SZ EP       16 7  9.40                             150    0.1110 77.2  40 
 PAM  SZ I        16 7  9.69        15.8 0.20            153           77.2  40 
 PAM  SN ES       16 7 26.19                             150   -0.1310 77.2  40 
 RUS  HZ EP       16 7 11.00                             143    0.0610  102 176 
 RUS  HE ES       16 7 29.41                             143    0.1610  102 176 
 RUS  HZ I        16 7 31.04         5.4 0.40            144            102 176 
 PTB  HZ EP       16 7 13.59                             131   -0.50 9  147 258 
 PTB  HN ES       16 7 34.52                             131   -0.34 9  147 258 
 PTB  HZ I        16 7 37.72         9.8 0.16            124            147 258 
 TAM  HZ I        16 7 14.93        15.1 0.36            140            156 105 
 TAM  HZ EP       16 7 14.98                             130    0.03 9  156 105 
 SPBC HZ EP       16 7 15.65                             128   -0.06 9  163 219 
 SPBC HN ES       16 7 38.13                             128    0.38 9  163 219 
 SPBC HZ I        16 7 41.85         6.9 0.36            124            163 219 
                                                                                
