 2012  428 1144 42.8 L   6.774 -73.164134.6  RSN  4 0.3 1.5LRSN                1
 GAP=135        0.71       4.9     4.5 10.7 -0.7984E+00  0.1771E+02 -0.1681E+01E
 Epicentro: LOS SANTOS - SANTANDER                                             3
 ACTION:UP  12-07-05 11:56 OP:tino STATUS:               ID:20120428114442 L   I
 2012-04-28-1140-00M.COL___189                                                 6
 STAT SP IPHASW D HRMM SECON CODA AMPLIT PERI AZIMU VELO AIN AR TRES W  DIS CAZ7
 PAM  SZ EP   1   1145  4.10                             147     0.0 7   81  39 
 PAM  SN ES   1   1145 20.72                             147     0.1 7   81  39 
 RUS  HZ EP   1   1145  5.64                             142     0.4 7   98 175 
 RUS  HE ES   1   1145 22.42                             142    -0.4 7   98 175 
 PTB  HZ EP   1   1145  8.36                             130    -0.3 7  145 260 
 PTB  HN ES   1   1145 29.38                             130     0.6 7  145 260 
 PTB  HZ I        1145 29.45         4.2 0.68                           145 260 
 ZAR  HN ES   1   1145 38.80                             120    -0.4 6  203 293 
                                                                                
