 2013  728 1320 16.8 L   6.794 -73.142148.0  RSN 10 0.4 2.1LRSN                1
 GAP=183        0.77       3.3     4.7  5.5  0.2507E+01  0.4725E+01  0.4867E+01E
 Epicentro: LOS SANTOS - SANTANDER                                             3
 ACTION:UPD 13-08-12 10:40 OP:ep   STATUS:               ID:20130728132016 L   I
 OLDACT:REG 13-07-28 14:26 OP:mh   STATUS:               ID:20130728131959     3
 2013-07-28-1319-59M.COL___267                                                 6
 STAT SP IPHASW D HRMM SECON CODA AMPLIT PERI AZIMU VELO AIN AR TRES W  DIS CAZ7
 BAR2 SZ EP   1   1320 36.76                             171    0.05 7 22.8 191 
 BAR2 SZ ES   1   1320 52.01                             171   -0.22 7 22.8 191 
 BAR2 SZ I        1320 53.35        16.3 0.22            170           22.8 191 
 BRR  HZ EP   1   1320 38.54                             153    0.29 7 71.9 299 
 BRR  HN ES       1320 55.55                             153    0.5810 71.9 299 
 BRR  HN I        1320 56.63        33.0 0.24            150           71.9 299 
 RUS  HZ EP   1   1320 40.69                             144   -0.06 7 99.9 176 
 RUS  HN ES   1   1320 59.12                             144   -0.29 7 99.9 176 
 RUS  HN I        1321  1.48         6.9 0.26            146           99.9 176 
 PTB  HZ EP   1   1320 43.69                             132   -0.31 7  148 259 
 PTB  HN ES   1   1321  4.50                             132   -0.70 7  148 259 
 PTB  HN I        1321  9.97        17.9 0.52            131            148 259 
 OCA  HN ES   1   1321  7.24                             130   -0.40 7  161 353 
 OCA  HN I        1321 11.58        21.5 0.20            131            161 353 
 SPBC HZ EP   1   1320 45.65                             130    0.18 7  163 219 
 SPBC HN ES       1321  7.96                             130    0.14 9  163 219 
 SPBC HN I        1321  9.81        29.7 0.14            129            163 219 
 ZAR  HE ES       1321 14.85                             123   -0.11 9  205 292 
 ZAR  HE I        1321 21.20        20.1 0.28            122            205 292 
 NOR  HZ EP       1320 52.11                             119   -0.57 8  235 235 
 NOR  HN ES   1   1321 20.87                             119    0.22 6  235 235 
 NOR  HN I        1321 25.53        12.5 0.14            119            235 235 
 CHI  HZ EP   1   1320 55.11                             118    0.52 6  248 195 
 CHI  HN ES   1   1321 23.93                             118   -0.12 6  248 195 
 CHI  HN I        1321 28.11         6.3 0.42            118            248 195 
 GUY2CHZ EP       1321  1.05                             113    0.52 7  301 235 
 GUY2CHN ES   4   1321 37.46                             113    2.83 0  301 235 
 SJC  HZ EP   4   1321 10.60                             106   -1.95 0  410 327 
 SJC  HE ES   4   1321 51.88                             106   -4.14 0  410 327 
                                                                                
