 2012  428 1411 17.2 L   6.760 -73.129144.8  RSN  6 0.4 1.6LRSN                1
 GAP=140        0.89       5.5     5.1  8.5 -0.8203E+00  0.1168E+02  0.3577E+01E
 Epicentro: LOS SANTOS - SANTANDER                                             3
 ACTION:UPD 12-07-05 11:56 OP:tino STATUS:               ID:20120428141117 L   I
 2012-04-28-1410-00M.COL___189                                                 6
 STAT SP IPHASW D HRMM SECON CODA AMPLIT PERI AZIMU VELO AIN AR TRES W  DIS CAZ7
 BAR2 SZ EP   1   1411 36.72                             172     0.1 7   19 198 
 BAR2 SZ ES   1   1411 51.41                             172    -0.4 7   19 198 
 BAR2 SZ I        1411 52.88        13.4 0.22                            19 198 
 BRR  HZ EP   1   1411 38.75                             151     0.3 7   75 301 
 BRR  HN ES   1   1411 55.88                             151     0.8 7   75 301 
 BRR  HZ I        1411 57.02        15.2 0.16                            75 301 
 PAM  SZ EP   1   1411 39.37                             150    -0.1 7   80  36 
 PAM  SN ES       1411 56.56                             150    -0.210   80  36 
 PAM  SZ I        1411 59.06         4.3 0.34                            80  36 
 RUS  HZ EP   1   1411 40.88                             145     0.4 7   96 177 
 RUS  HN ES   1   1411 58.72                             145     0.0 7   96 177 
 RUS  HZ I        1412  1.08         4.7 0.41                            96 177 
 PTB  HZ EP   1   1411 43.82                             131    -0.3 7  149 261 
 PTB  HN ES   1   1412  4.92                             131    -0.3 7  149 261 
 PTB  HZ I        1412  6.02         4.6 0.11                           149 261 
 ZAR  HN ES   1   1412 15.19                             122    -0.3 6  207 293 
                                                                                
