 2015  828 1230 30.2 L   6.824 -73.089148.9  RSN 12 0.4 2.0LRSN                1
 GAP=206        0.87       3.0     5.3  5.2  0.2058E+01  0.4965E+01  0.2247E+01E
 Epicentro: LOS SANTOS - SANTANDER                                             3
 ACTION:UPD 15-09-15 23:05 OP:cam  STATUS:               ID:20150828123030 L   I
 OLDACT:REG 15-08-28 21:52 OP:spq  STATUS:               ID:20150828122749     3
 2015-08-28-1227-49M.COL___355                                                 6
 STAT SP IPHASW D HRMM SECON CODA AMPLIT PERI AZIMU VELO AIN AR TRES W  DIS CAZ7
 BAR2 EZ EP     D 1230 50.16                             169   -0.1210 27.7 202 
 BAR2 EZ ES   1   1231  5.85                             169   -0.11 7 27.7 202 
 BAR2 EZ I        1231  7.86        13.6 0.28            166           27.7 202 
 BRR  HZ EP   1   1230 52.18                             152    0.26 7 75.6 294 
 BRR  HN ES       1231  9.32                             152    0.4410 75.6 294 
 BRR  HZ I        1231 14.04        15.5 0.26            149           75.6 294 
 RUS  HZ EP   1   1230 54.58                             144    0.16 7  103 180 
 RUS  HN ES   1   1231 13.21                             144   -0.11 7  103 180 
 RUS  HZ I        1231 13.90         7.0 0.30            146            103 180 
 SPBC HZ EP       1230 59.17                             129   -0.32 9  169 220 
 SPBC HE ES       1231 22.13                             129   -0.23 9  169 220 
 SPBC HZ I        1231 28.30        20.4 0.38            129            169 220 
 ZAR  HZ EP   1   1231  3.08                             122   -0.25 6  209 291 
 ZAR  HE ES       1231 28.46                             122   -0.72 8  209 291 
 ZAR  HZ I        1231 34.68        13.0 0.62            123            209 291 
 NOR  HZ EP       1231  6.23                             118   -0.58 8  241 235 
 NOR  HE ES   1   1231 35.16                             118   -0.21 6  241 235 
 NOR  HZ I        1231 37.95         6.6 0.26            119            241 235 
 SML  HZ EP       1231  6.84                             118   -0.17 8  244 334 
 SML  HN ES   1   1231 36.31                             118    0.57 6  244 334 
 SML  HZ I        1231 41.16        12.5 0.10            120            244 334 
 CHI  HZ EP       1231  8.08                             117   -0.44 8  253 196 
 CHI  HN ES   1   1231 39.12                             117    0.70 6  253 196 
 CHI  HZ I        1231 43.48         3.7 0.34            119            253 196 
 HEL  HZ EP       1231 11.88                             115    0.58 7  279 256 
 GUY2CHZ EP       1231 15.47                             112    0.78 7  308 235 
 GUY2CHE ES   4   1231 51.00                             112    1.60 0  308 235 
 GUY2CHZ I        1231 57.40         5.8 0.62                           308 235 
 TOL  SZ EP   4   1231 20.84                             109    1.55 0  350 225 
 TOL  SN ES       1231 58.09                             109    0.50 6  350 225 
 TOL  SZ I        1232  3.36         3.8 0.52            111            350 225 
 PRA  HZ EP       1231 24.67                             107    0.22 6  397 210 
 PRA  HE ES       1232  6.82                             107    0.05 6  397 210 
 PRA  HZ I        1232  9.43         3.7 0.22            108            397 210 
                                                                                
