 2011  728 1739 10.5 L   7.152 -73.041152.3  RSN  4 0.2 1.7LRSN                1
 GAP=171        0.41      10.8    10.4  8.7 -0.9959E+02 -0.6544E+02  0.6638E+02E
 Epicentro: BUCARAMANGA - SANTANDER                                            3
 ACTION:UPD 12-07-25 14:04 OP:epov STATUS:               ID:20110728173910 L   I
 2011-07-28-1736-01S.COL___138                                                 6
 STAT SP IPHASW D HRMM SECON CODA AMPLIT PERI AZIMU VELO AIN AR TRES W  DIS CAZ7
 BAR2 SZ EP   2   1739 32.25                             156   -0.10 5 63.8 194 
 BAR2 SZ I        1739 51.42         4.7 0.09                          63.8 194 
 BRI  SZ EP   1   1739 32.79                             155    0.32 7 68.0  23 
 BRI  SZ I        1739 50.74         7.7 0.49                          68.0  23 
 BRR  HZ EP   1   1739 32.46                             153   -0.09 7 74.2 266 
 BRR  HZ I        1739 33.23        12.4 0.29                          74.2 266 
 BRR  HN ES   1   1739 49.79                             153    0.06 7 74.2 266 
 GRA  SZ EP   1   1739 33.28                             149   -0.15 7 85.1  18 
 GRA  SZ ES   1   1739 51.20                             149   -0.09 7 85.1  18 
 GRA  SZ I        1739 52.34        16.9 0.38                          85.1  18 
                                                                                
