 2013  128 1903 52.9 L   6.864 -73.302127.3  RSN  5 0.3 1.6LRSN                1
 GAP=111        0.80       4.8     5.0  6.4 -0.5529E+00  0.7515E+01  0.4056E+01E
 Epicentro: BETULIA - SANTANDER                                                3
 ACTION:UPD 13-02-15 09:17 OP:ep   STATUS:               ID:20130128190352 L   I
 2013-01-28-1900-00M.COL___241                                                 6
 STAT SP IPHASW D HRMM SECON CODA AMPLIT PERI AZIMU VELO AIN AR TRES W  DIS CAZ7
 BAR2 SZ EP       19 4 10.89                             165    0.3510 32.8 156 
 BAR2 SZ ES       19 4 24.27                             165   -0.0610 32.8 156 
 BAR2 SZ I        19 4 25.16        19.5 0.23            162           32.8 156 
 BRR  HZ EP       19 4 11.41                             156    0.4110 52.7 301 
 BRR  HE ES       19 4 25.26                             156    0.1110 52.7 301 
 BRR  HE I        19 4 26.72        30.2 0.18            141           52.7 301 
 PAM  SZ EP   1   19 4 13.56                             145   -0.10 7 84.8  52 
 PAM  SN ES       19 4 29.63                             145   -0.2510 84.8  52 
 PAM  SZ I        19 4 32.74         4.8 0.40            140           84.8  52 
 RUS  HZ EP   1   19 4 15.90                             137    0.27 7  110 167 
 RUS  HE ES   1   19 4 33.22                             137   -0.15 7  110 167 
 RUS  HE I        19 4 34.68         5.8 0.30            129            110 167 
 PTB  HZ EP       19 4 16.34                             131   -0.6210  133 254 
 PTB  HZ I        19 4 37.73         3.5 0.12            118            133 254 
                                                                                
