 2011  228 1109 55.2 L   6.800 -73.112141.8  RSN  4 0.1 1.4LRSN                1
 GAP=177        0.30       3.3    13.6  3.9 -0.3400E+02  0.1299E+02 -0.9914E+00E
 Epicentro: LOS SANTOS - SANTANDER                                             3
 ACTION:UP  11-03-28 15:11 OP:jfem STATUS:               ID:20110228110955 L   I
 2011-02-28-1107-35S.COL___135                                                 6
 STAT SP IPHASW D HRMM SECON CODA AMPLIT PERI AZIMU VELO SNR AR TRES W  DIS CAZ7
 BAR2 SZ EP       1110 14.36                             170     0.010   24 199 
 BAR2 SZ ES   2   1110 29.29                             170     0.0 5   24 199 
 BAR2 SZ I        1110 30.78         8.7 0.13                            24 199 
 RUS  HZ EP       1110 18.47                             143    -0.110  100 178 
 RUS  HZ I        1110 19.22         2.7 0.11                           100 178 
 RUS  HN ES   2   1110 36.83                             143     0.1 5  100 178 
 GRA  SZ EP   1   1110 20.06                             136     0.1 7  125  16 
 GRA  SZ ES   2   1110 39.22                             136    -0.1 5  125  16 
 GRA  SZ I        1110 40.59         5.4 0.34                           125  16 
 CHI  HZ EP       1110 32.76                             116     0.0 8  250 196 
 CHI  HZ I        1111  9.00         1.6 0.48                           250 196 
                                                                                
