 2015  128 1808  9.7 L   6.799 -73.161148.0  RSN  6 0.3 1.3LRSN                1
 GAP=142        0.67       4.5     3.8  5.7 -0.8369E+01  0.5740E+01  0.2645E+01E
 Epicentro: LOS SANTOS - SANTANDER                                             3
 ACTION:UPD 15-03-02 15:43 OP:nd   STATUS:               ID:20150128180809 L   I
 OLDACT:REG 15-01-28 20:32 OP:spq  STATUS:               ID:20150128175746     3
 2015-01-28-1757-46M.COL___259                                                 6
 STAT SP IPHASW D HRMM SECON CODA AMPLIT PERI AZIMU VELO AIN AR TRES W  DIS CAZ7
 BAR2 EZ EP       18 8 29.53                             171   -0.0210 23.0 186 
 BAR2 EZ ES   1   18 8 45.07                             171    0.00 7 23.0 186 
 BAR2 EZ I        18 8 47.26         4.0 0.36            168           23.0 186 
 PAM  SZ EP       18 8 32.55                             151    0.3710 78.5  40 
 PAM  SN ES       18 8 49.72                             151   -0.0310 78.5  40 
 PAM  SZ I        18 8 50.31         3.2 0.22            157           78.5  40 
 RUS  HZ EP       18 8 33.34                             144   -0.2910  101 175 
 RUS  HE ES   1   18 8 52.33                             144   -0.00 7  101 175 
 RUS  HZ I        18 8 54.32         1.3 0.17            146            101 175 
 PTB  HZ EP       18 8 36.14                             133   -0.52 9  146 259 
 PTB  HN ES       18 8 57.68                             133   -0.04 9  146 259 
 PTB  HZ I        18 9  3.79         3.2 0.64            133            146 259 
 SPBC HZ EP   1   18 8 38.52                             130    0.29 7  162 219 
 NOR  HZ EP   1   18 8 45.55                             119    0.18 6  233 234 
 NOR  HN ES       18 9 13.64                             119    0.42 8  233 234 
 NOR  HZ I        18 9 21.24         2.2 0.18            120            233 234 
                                                                                
