 2015 1228 1912  8.5 L   6.348 -73.604108.4  RSN 18 0.5 2.4LRSN                1
 GAP= 71        1.18       2.9     3.1  6.2 -0.1946E+01  0.6286E+01  0.3923E+01E
 Epicentro: SANTA HELENA DEL OPON - SANTANDER                                  3
 ACTION:UPD 16-02-04 15:08 OP:cam  STATUS:               ID:20151228191208 L   I
 OLDACT:REG 15-12-28 20:35 OP:dnl  STATUS:               ID:20151228190747     3
 2015-12-28-1907-47M.COL___340                                                 6
 STAT SP IPHASW D HRMM SECON CODA AMPLIT PERI AZIMU VELO AIN AR TRES W  DIS CAZ7
 BAR2 EZ EP       1912 25.45                             152    0.4310 53.9  60 
 BAR2 EZ ES       1912 38.35                             152    0.4810 53.9  60 
 BAR2 EZ I        1912 39.44       104.2 0.36            151           53.9  60 
 RUS  HZ EP       1912 26.84                             142   -0.0410 76.6 131 
 RUS  HN ES   1   1912 41.30                             142    0.10 7 76.6 131 
 RUS  HZ I        1912 43.79        31.3 0.29            143           76.6 131 
 BRR  HZ EP       1912 27.14                             139    0.3110 84.8 352 
 BRR  HZ I        1912 41.88        36.0 0.17            138           84.8 352 
 BRR  HN ES       1912 42.04                             139    0.9410 84.8 352 
 SPBC HZ EP       1912 27.45                             136   -0.1710 92.8 214 
 SPBC HE ES   2   1912 42.17                             136   -0.33 5 92.8 214 
 SPBC HZ I        1912 44.96        71.6 0.15            136           92.8 214 
 PTB  HZ IP     D 1912 27.21                             135   -0.6310 96.6 283 
 PTB  HN ES       1912 42.31                             135   -0.5910 96.6 283 
 PTB  HZ I        1912 44.76        79.9 0.10            134           96.6 283 
 PAM  EZ EP       1912 33.45                             122    0.02 9  148  42 
 PAM  EE ES       1912 51.98                             122   -0.88 9  148  42 
 PAM  EZ I        1912 57.97        20.2 0.33            121            148  42 
 NOR  HZ EP       1912 34.16                             119   -0.44 9  165 238 
 NOR  HN ES       1912 54.52                             119   -0.41 9  165 238 
 NOR  HZ I        1912 57.18        42.1 0.11            118            165 238 
 ZAR  HZ EP       1912 37.10                             115    0.07 9  188 312 
 ZAR  HN ES   2   1912 58.73                             115   -0.53 4  188 312 
 ZAR  HZ I        1913  4.80        27.4 0.09            114            188 312 
 CHI  HZ EP       1912 37.72                             115   -0.15 9  191 184 
 CHI  HE ES       1913  0.12                             115   -0.63 9  191 184 
 CHI  HZ I        1913  5.06        15.9 0.32            114            191 184 
 HEL  HZ EP       1912 41.22                             112    0.81 8  214 265 
 HEL  HE ES       1913  5.10                             112   -0.17 8  214 265 
 HEL  HZ I        1913 11.18        22.6 0.23            111            214 265 
 GUY2CHZ EP       1912 42.68                             110    0.14 8  231 238 
 GUY2CHE ES       1913  8.61                             110   -0.46 8  231 238 
 GUY2CHZ I        1913 17.34        24.5 0.35                           231 238 
 ELA  HZ EP   1   1912 46.49                             107    0.77 6  258 231 
 ELA  HE ES       1913 15.40                             107    0.67 8  258 231 
 ELA  HZ I        1913 22.74        12.4 0.53            107            258 231 
 URE  HZ EP   4   1912 44.49                             107   -1.22 0  264 306 
 URE  HN ES   4   1913 12.57                             107   -2.14 0  264 306 
 URE  HZ I        1913 15.59        49.6 0.14            106            264 306 
 SML  HZ EP       1912 46.66                             106   -0.49 7  276 349 
 SML  HE ES   4   1913 15.42                             106   -1.86 0  276 349 
 SML  HZ I        1913 23.47        25.7 0.10            105            276 349 
 ANIL HZ EP       1912 49.75                             105    1.04 7  286 224 
 ANIL HE ES   2   1913 21.22                             105    1.17 4  286 224 
 ANIL HZ I        1913 25.27        28.5 0.28            104            286 224 
 DBB  SZ EP       1912 49.68                             104   -0.10 7  297 285 
 DBB  SZ ES       1913 21.92                             104   -0.03 7  297 285 
 PRA  HZ EP       1912 52.41                             102   -0.48 7  324 206 
 PRA  HE ES       1913 28.11                             102    0.61 7  324 206 
 PRA  HZ I        1913 34.88        14.0 0.25            102            324 206 
 ORTC HZ EP       1912 53.14                             102    0.10 7  325 214 
 ORTC HN ES   4   1913 29.50                             102    1.74 0  325 214 
 ORTC HZ I        1913 35.93         7.2 0.29            102            325 214 
                                                                                
