 2016  928 1500 44.1 L   6.814 -73.074147.3  RSN 19 0.5 2.3LRSN                1
 GAP=104        1.09       3.8     3.4  4.8 -0.2575E+01  0.5804E+00  0.1139E+01E
 Epicentro: LOS SANTOS - SANTANDER                                             3
 ACTION:UPD 17-08-17 21:17 OP:lp   STATUS:               ID:20160928150044 L   I
 OLDACT:UP  16-09-28 23:46 OP:edw  STATUS:               ID:20160928145738     3
 OLDACT:UP  16-09-28 23:45 OP:edw  STATUS:               ID:20160928145738     3
 OLDACT:UP  16-09-28 23:43 OP:edw  STATUS:               ID:20160928145738     3
 OLDACT:REG 16-09-28 21:12 OP:edw  STATUS:               ID:20160928145738     3
 2016-09-28-1458-00M.COL___384                                                 6
 STAT SP IPHASW D HRMM SECON CODA AMPLIT PERI AZIMU VELO AIN AR TRES W  DIS CAZ7
 BAR2 EZ EP       15 1  4.17                             169    0.1510 27.3 206 
 BAR2 EZ ES       15 1 19.71                             169    0.1710 27.3 206 
 BAR2 EZ I        15 1 21.99        43.3 0.30            166           27.3 206 
 PAM  EZ EP   9   15 1  7.15                             153    1.00 0 71.3  35 
 PAM  EN ES       15 1 24.33                             153   -0.0110 71.3  35 
 PAM  EZ I        15 1 26.35        46.6 0.48            157           71.3  35 
 BRR  HZ EP       15 1  6.20                             151    0.4010 77.5 295 
 BRR  HN ES       15 1 22.88                             151    0.1710 77.5 295 
 BRR  HZ I        15 1 27.16        27.0 0.14            150           77.5 295 
 RUS  HZ EP       15 1  8.42                             144    0.3010  102 181 
 RUS  HN ES       15 1 26.94                             144    0.1010  102 181 
 RUS  HZ I        15 1 28.05        28.3 0.28            143            102 181 
 PTB  HZ EP   9   15 1 11.02                             131   -0.92 0  156 259 
 PTB  HN ES       15 1 31.92                             130   -0.80 9  156 259 
 PTB  HZ I        15 1 35.64        10.5 0.13            131            156 259 
 SPBC HZ EP       15 1 13.41                             128    0.08 9  169 221 
 SPBC HN ES       15 1 35.41                             128   -0.70 9  169 221 
 SPBC HZ I        15 1 36.90        31.9 0.18            128            169 221 
 ZAR  HZ EP       15 1 16.59                             122   -0.77 8  211 291 
 ZAR  HN ES       15 1 42.76                             122   -0.52 8  211 291 
 ZAR  HZ I        15 1 45.75         8.1 0.34            122            211 291 
 NOR  HZ EP       15 1 20.35                             118   -0.37 8  242 235 
 NOR  HN ES       15 1 48.58                             118   -0.70 8  242 235 
 NOR  HZ I        15 1 53.80        17.8 0.18            118            242 235 
 CHI  HZ EP       15 1 22.47                             117    0.17 8  252 197 
 CHI  HN ES       15 1 51.68                             117   -0.40 8  252 197 
 CHI  HZ I        15 1 57.41         6.7 0.30            117            252 197 
 ROSC BZ EP   4   15 1 24.23                             116    1.31 0  258 212 
 ROSC BN ES   4   15 1 55.07                             116    1.89 0  258 212 
 ROSC BZ I        15 2  2.14        16.5 0.45            117            258 212 
 HEL  HZ EP       15 1 25.98                             114    0.68 7  280 256 
 HEL  HN ES       15 1 58.25                             114    0.83 7  280 256 
 HEL  HZ I        15 2  3.82         8.5 0.32            115            280 256 
 SOCV BZ EP       15 1 27.10                             113    0.70 7  294  56 
 SOCV BN ES       15 1 58.64                             113   -0.73 7  294  56 
 PTGC HZ EP       15 1 27.60                             112   -0.30 7  307 160 
 PTGC HN ES   4   15 2  0.66                             112   -1.38 0  307 160 
 PTGC HZ I        15 2  3.17        22.9 0.32            113            307 160 
 GUY2CHZ EP   4   15 1 30.37                             112    1.74 0  309 235 
 GUY2CHN ES   4   15 2  6.78                             112    3.44 0  309 235 
 GUY2CHZ I        15 2 10.33        10.7 0.32                           309 235 
 ELA  HZ EP   4   15 1 35.36                             110    3.52 0  336 230 
 ELA  HN ES       15 2 10.02                             110    0.96 7  336 230 
 ELA  HZ I        15 2 18.76         7.0 0.30            110            336 230 
 CBOC HZ EP       15 1 32.21                             110    0.20 7  342 252 
 CBOC HN ES       15 2  9.29                             110   -0.07 7  342 252 
 ANIL HZ EP   4   15 1 34.12                             108   -0.63 0  364 225 
 ANIL HN ES   4   15 2 17.57                             108    3.32 0  364 225 
 ANIL HZ I        15 2 23.44        20.7 0.24            109            364 225 
 PAL  HZ EP       15 1 39.98                             106   -0.23 6  413 239 
 PAL  HN ES       15 2 23.50                             106   -0.47 6  413 239 
 PAL  HZ I        15 2 25.77         3.7 0.20            106            413 239 
 CRJC HZ EP   9   15 1 44.73                             103   -1.69 0  466   3 
 CRJC HN ES       15 2 33.70                             103    0.37 5  466   3 
                                                                                
