 2016 1028 1132  2.7 L   6.765 -73.130149.8  RSN  9 0.3 1.7LRSN                1
 GAP=140        0.68       2.8     3.4  4.1 -0.2259E+01  0.1403E+01  0.3183E+01E
 Epicentro: LOS SANTOS - SANTANDER                                             3
 ACTION:UPD 16-11-09 19:23 OP:rebc STATUS:               ID:20161028113202 L   I
 OLDACT:UP  16-10-28 22:01 OP:edw  STATUS:               ID:20161028112746     3
 OLDACT:UP  16-10-28 21:59 OP:edw  STATUS:               ID:20161028112746     3
 OLDACT:UP  16-10-28 21:59 OP:edw  STATUS:               ID:20161028112746     3
 OLDACT:REG 16-10-28 20:15 OP:edw  STATUS:               ID:20161028112746     3
 2016-10-28-1128-00M.COL___340                                                 6
 STAT SP IPHASW D HRMM SECON CODA AMPLIT PERI AZIMU VELO AIN AR TRES W  DIS CAZ7
 BAR2 EZ EP       1132 22.64                             172   -0.1410 20.0 197 
 BAR2 EZ ES       1132 38.20                             172   -0.2210 20.0 197 
 BAR2 EZ I        1132 38.79        11.4 0.30            170           20.0 197 
 BRR  HZ IP     D 1132 24.71                             152    0.2110 74.6 300 
 BRR  HN ES       1132 42.04                             152    0.5510 74.6 300 
 PAM  EZ EP       1132 25.72                             151    0.2410 79.3  37 
 PAM  EN ES       1132 43.03                             151   -0.2010 79.3  37 
 PAM  EZ I        1132 44.91        22.2 0.90            154           79.3  37 
 RUS  HZ EP       1132 26.54                             146   -0.0610 96.6 177 
 RUS  HN ES       1132 45.20                             146   -0.0210 96.6 177 
 RUS  HZ I        1132 46.30         4.2 0.54            146           96.6 177 
 PTB  HZ EP       1132 29.68                             133   -0.44 9  149 260 
 PTB  HN ES       1132 51.00                             133   -0.48 9  149 260 
 PTB  HZ I        1132 55.34         5.1 0.22            132            149 260 
 SPBC HZ EP       1132 31.25                             130   -0.11 9  161 220 
 SPBC HN ES       1132 54.00                             130    0.30 9  161 220 
 SPBC HZ I        1132 56.04         6.6 0.30            130            161 220 
 NOR  HZ EP   2   1132 38.83                             119    0.22 4  234 235 
 NOR  HN ES   2   1133  6.81                             119    0.21 4  234 235 
 NOR  HZ I        1133 14.01         3.0 0.48            119            234 235 
 CHI  HZ EP       1132 40.43                             118    0.13 8  245 196 
 CHI  HN ES       1133  9.78                             118    0.17 8  245 196 
 PRA  HZ EP       1132 56.16                             107    0.06 6  390 210 
 PRA  HN ES   4   1133 39.73                             107    2.00 0  390 210 
 SJC  HZ EP   4   1132 57.12                             106   -1.79 0  413 327 
 SJC  HN ES   4   1133 38.91                             106   -3.83 0  413 327 
                                                                                
