 2013  428 1023 17.3 L   6.711 -73.166144.6  RSN  7 0.5 1.8LRSN                1
 GAP=228        1.08      10.0     9.3  8.6  0.4248E+02  0.2695E+02  0.1188E+02E
 Epicentro: VILLANUEVA - SANTANDER                                             3
 ACTION:UPD 13-05-22 14:41 OP:EP   STATUS:               ID:20130428102317 L   I
 2013-04-28-1020-00M.COL___248                                                 6
 STAT SP IPHASW D HRMM SECON CODA AMPLIT PERI AZIMU VELO AIN AR TRES W  DIS CAZ7
 BAR2 SZ EP       1023 36.30                             174   -0.3410 13.3 188 
 BAR2 SZ ES       1023 51.59                             174   -0.1310 13.3 188 
 BAR2 SZ I        1023 54.14        14.6 0.26            169           13.3 188 
 BRR  HZ EP       1023 38.39                             151   -0.1410 74.5 306 
 BRR  HN ES   1   1023 55.90                             151    0.82 7 74.5 306 
 BRR  HZ I        1023 57.84         7.7 0.12            146           74.5 306 
 RUS  HZ EP       1023 40.65                             146    0.3710 91.0 174 
 RUS  HN ES   1   1023 58.27                             146    0.07 7 91.0 174 
 RUS  HZ I        1023 59.83         5.3 0.44            149           91.0 174 
 PTB  HZ EP       1023 43.21                             132   -0.63 9  144 262 
 PTB  HN ES   1   1024  4.15                             132   -0.38 7  144 262 
 PTB  HZ I        1024 10.35         5.4 0.12            130            144 262 
 OCA  HZ EP   4   1023 50.08                             128    3.64 0  170 354 
 OCA  HN ES   4   1024  7.48                             128   -1.68 0  170 354 
 OCA  HZ I        1024 12.39         9.7 0.18            129            170 354 
 SML  HZ EP   4   1023 52.80                             116   -1.95 0  252 337 
 SML  HN ES   4   1024 21.31                             116   -2.64 0  252 337 
 SML  HZ I        1024 27.72         8.8 0.10            117            252 337 
 HEL  HZ EP       1023 57.79                             115    0.82 8  268 258 
 HEL  HN ES   4   1024 32.67                             115    4.77 0  268 258 
 HEL  HZ I        1024 36.84         3.0 0.48            115            268 258 
 SJC  HZ EP   4   1024  9.96                             105   -3.70 0  416 328 
 SJC  HN ES   4   1024 50.98                             105   -6.63 0  416 328 
                                                                                
