 2017  728 1446 12.2 L   5.990 -74.228  4.2  RSN  4 0.3 1.1LRSN                1
 GAP=141        0.78       2.2     1.8  5.3 -0.7184E+00  0.5057E+00 -0.5102E+00E
 Epicentro: LA BELLEZA - SANTANDER                                             3
 ACTION:UPD 17-08-30 15:37 OP:rebc STATUS:               ID:20170728144612 L   I
 OLDACT:UP  17-07-28 21:19 OP:dani STATUS:               ID:20170728142323     3
 OLDACT:REG 17-07-28 20:26 OP:dani STATUS:               ID:20170728142323     3
 2017-07-28-1438-00M.COL___380                                                 6
 STAT SP IPHASW D HRMM SECON CODA AMPLIT PERI AZIMU VELO AIN AR TRES W  DIS CAZ7
 PTB  HZ EP       1446 22.71                              47   -0.0910 65.9 337 
 PTB  HN ES       1446 31.01                              47   -0.0510 65.9 337 
 PTB  HZ I        1446 31.52        13.1 0.18             99           65.9 337 
 NOR  HZ EP       1446 25.94                              47    0.1610 85.2 236 
 NOR  HN ES       1446 36.13                              47   -0.2310 85.2 236 
 NOR  HZ I        1446 37.18         4.8 0.11             97           85.2 236 
 RUS  HZ EP       1446 33.02                              47    0.4310  127  95 
 RUS  HN ES       1446 48.06                              47   -0.4210  127  95 
 RUS  HZ I        1446 50.33         6.3 0.41             95            127  95 
 GUY2CHZ EP       1446 36.74                              47    0.45 9  152 236 
 GUY2CHE ES   1   1446 54.70                              47   -0.38 7  152 236 
 GUY2CHZ I        1446 56.98         1.4 0.35                           152 236 
                                                                                
