 2015  528 1109 51.8 L   6.816 -73.099147.5  RSN 20 0.5 2.7LRSN                1
 GAP=122        1.11       2.1     4.0  4.6 -0.6107E+00  0.3545E+01  0.4851E+00E
 Epicentro: LOS SANTOS - SANTANDER                                             3
 ACTION:UPD 15-09-10 22:07 OP:cam  STATUS:               ID:20150528110951 L   I
 OLDACT:REG 15-05-28 20:41 OP:ar   STATUS:               ID:20150528110748     3
 2015-05-28-1107-48M.COL___306                                                 6
 STAT SP IPHASW D HRMM SECON CODA AMPLIT PERI AZIMU VELO AIN AR TRES W  DIS CAZ7
 BAR2 EZ EP     D 1110 11.66                             169   -0.0210 26.5 201 
 BAR2 EZ ES       1110 26.47                             169   -0.7310 26.5 201 
 BAR2 EZ I        1110 28.63        68.0 0.32            168           26.5 201 
 PAM  SZ EP       1110 14.55                             153    0.6410 72.7  37 
 PAM  SN ES       1110 31.48                             153    0.3110 72.7  37 
 PAM  SZ I        1110 33.76       125.0 0.48            152           72.7  37 
 BRR  HZ EP     D 1110 13.49                             152    0.1610 75.0 295 
 BRR  HE ES       1110 30.73                             152    0.5910 75.0 295 
 BRR  HZ I        1110 34.58        63.5 0.22            148           75.0 295 
 RUS  HZ EP       1110 15.77                             144   -0.0410  102 179 
 RUS  HN ES       1110 34.51                             144   -0.0410  102 179 
 RUS  HZ I        1110 35.49        64.6 0.32            142            102 179 
 OCA  HZ EP       1110 20.00                             130   -0.12 9  159 351 
 OCA  HN ES       1110 41.59                             130   -0.64 9  159 351 
 OCA  HZ I        1110 46.46        96.0 0.54            128            159 351 
 SPBC HZ EP       1110 20.64                             129   -0.21 9  168 220 
 SPBC HE ES       1110 42.83                             129   -0.70 9  168 220 
 SPBC HZ I        1110 45.09        81.1 0.36            126            168 220 
 ZAR  HZ EP       1110 24.25                             122   -0.51 8  208 291 
 ZAR  HE ES       1110 50.86                             122    0.37 8  208 291 
 ZAR  HZ I        1110 55.80        39.6 0.60            120            208 291 
 NOR  HZ EP       1110 27.85                             118   -0.32 8  240 235 
 NOR  HN ES       1110 56.25                             118   -0.31 8  240 235 
 NOR  HZ I        1111  3.19        31.9 0.58            116            240 235 
 SML  HZ EP       1110 28.04                             118   -0.52 8  244 334 
 SML  HN ES       1110 57.59                             118    0.33 8  244 334 
 SML  HZ I        1110 59.83        62.8 0.28            116            244 334 
 CHI  HZ EP       1110 29.93                             117    0.02 8  252 196 
 CHI  HN ES       1111  0.58                             117    0.93 8  252 196 
 CHI  HZ I        1111  2.62        24.4 0.36            115            252 196 
 ROSC BZ EP       1110 31.38                             117    0.93 8  257 212 
 ROSC BE ES       1111  1.55                             117    0.93 8  257 212 
 ROSC BZ I        1111  5.19        44.3 0.30            115            257 212 
 URE  HZ EP       1110 32.43                             113   -0.97 7  288 291 
 URE  HE ES   4   1111  4.36                             113   -1.50 0  288 291 
 URE  HZ I        1111 14.49        28.6 0.36            112            288 291 
 GUY2CHZ EP       1110 36.40                             112    0.34 7  306 235 
 GUY2CHN ES       1111 10.72                             112    0.12 7  306 235 
 GUY2CHZ I        1111 21.81        18.0 0.46                           306 235 
 VIL  SZ EP       1110 35.39                             112   -0.20 7  306 192 
 VIL  SE ES       1111  9.47                             112   -0.30 7  306 192 
 VIL  SZ I        1111 12.23        27.2 0.38            110            306 192 
 PTGC HZ EP       1110 34.94                             112   -0.75 7  309 160 
 PTGC HN ES       1111  9.93                             112   -0.01 7  309 160 
 PTGC HZ I        1111 13.16        38.2 0.30            110            309 160 
 LL4C HZ EP       1110 37.86                             111    0.62 7  322 351 
 LL4C HN ES       1111 12.30                             111   -0.40 7  322 351 
 LL4C HZ I        1111 16.39        38.1 0.22            109            322 351 
 LL3C HZ EP       1110 37.42                             111    0.02 7  324 354 
 LL3C HN ES   4   1111 15.04                             111    2.05 0  324 354 
 LL3C HZ I        1111 19.88        16.0 0.24            109            324 354 
 ARGC HZ EP       1110 42.08                             108    0.57 6  359 339 
 ARGC HE ES       1111 20.58                             108    0.28 6  359 339 
 ARGC HZ I        1111 25.20        28.3 0.38            107            359 339 
 PRA  HZ EP       1110 45.37                             107   -0.47 6  396 210 
 PRA  HE ES       1111 27.68                             107   -0.33 6  396 210 
 PRA  HZ I        1111 33.45        15.3 0.22            105            396 210 
 ORTC HZ EP       1110 46.77                             106    0.48 6  400 217 
 ORTC HN ES   4   1111 29.53                             106    0.73 0  400 217 
 ORTC HZ I        1111 35.69        16.3 0.82            105            400 217 
                                                                                
