 2013  528 1604 44.9 L   6.735 -73.168148.0  RSN  7 0.4 1.9LRSN                1
 GAP=230        1.01       7.2     6.9  7.0  0.2822E+02  0.1696E+02  0.1311E+02E
 Epicentro: VILLANUEVA - SANTANDER                                             3
 ACTION:UPD 13-06-20 09:54 OP:ep   STATUS:               ID:20130528160444 L   I
 2013-05-28-1558-52M.COL___215                                                 6
 STAT SP IPHASW D HRMM SECON CODA AMPLIT PERI AZIMU VELO AIN AR TRES W  DIS CAZ7
 BAR2 SZ EP       16 5  4.40                             174   -0.2410 15.9 186 
 BAR2 SZ ES       16 5 19.65        11.9 0.28            174   -0.4110 15.9 186 
 BAR2 SZ I        16 5 20.98        11.9 0.28            169           15.9 186 
 BRR  HZ EP       16 5  6.38                             152    0.0410 72.8 304 
 BRR  HN ES       16 5 23.77                             152    0.6710 72.8 304 
 BRR  HE I        16 5 27.22        24.0 0.20            152           72.8 304 
 RUS  HZ EP       16 5  8.43                             146    0.0810 93.6 174 
 RUS  HN ES       16 5 26.93                             146    0.2610 93.6 174 
 RUS  HE I        16 5 30.10        12.5 0.64            146           93.6 174 
 PTB  HZ EP       16 5 11.15                             133   -0.53 9  144 261 
 PTB  HN ES       16 5 32.34                             133   -0.26 9  144 261 
 PTB  HE I        16 5 38.13        20.7 0.28            133            144 261 
 ZAR  HN ES       16 5 42.89                             123   -0.08 9  205 294 
 NOR  HZ EP       16 5 19.88                             120   -0.19 8  229 236 
 GUY2CHZ EP       16 5 28.83                             113    0.95 7  295 236 
                                                                                
