 2014  928 1040 32.9 L   6.803 -73.158159.3  RSN  4 0.4 1.5LRSN                1
 GAP=283        0.96       7.0    10.1  9.3 -0.1619E+02 -0.2723E+02 -0.6111E+01E
 Epicentro: LOS SANTOS - SANTANDER                                             3
 ACTION:UPD 14-10-03 23:09 OP:nd   STATUS:               ID:20140928104032 L   I
 OLDACT:UP  14-09-28 21:09 OP:cam  STATUS:               ID:20140928104000     3
 OLDACT:REG 14-09-28 20:05 OP:cam  STATUS:               ID:20140928104000     3
 2014-09-28-1040-00M.COL___252                                                 6
 STAT SP IPHASW D HRMM SECON CODA AMPLIT PERI AZIMU VELO AIN AR TRES W  DIS CAZ7
 BRR  HZ EP       1040 55.79                             155    0.2810 69.8 299 
 BRR  HN ES       1041 13.28                             155    0.1810 69.8 299 
 BRR  HN I        1041 16.67         8.2 0.16            152           69.8 299 
 PTB  HZ EP       1041  0.86                             135   -0.08 9  147 259 
 PTB  HN ES       1041 22.14                             135   -0.64 9  147 259 
 PTB  HZ I        1041 24.73         1.9 0.16            135            147 259 
 ZAR  HZ EP       1041  6.34                             125    0.17 9  203 292 
 ZAR  HN ES       1041 32.75                             125    0.66 9  203 292 
 ZAR  HZ I        1041 37.88         2.6 0.28            125            203 292 
 SML  HZ EP       1041 10.17                             120   -0.10 8  243 336 
 SML  HN ES       1041 38.80                             120   -0.59 8  243 336 
 SML  HZ I        1041 41.62         4.1 0.10            121            243 336 
                                                                                
