 2012 1228 1101 11.2 L   6.784 -73.156147.5  RSN 10 0.3 2.4LRSN                1
 GAP=183        0.70       3.5     4.7  4.6  0.7145E+01  0.5102E+01  0.2871E+01E
 Epicentro: LOS SANTOS - SANTANDER                                             3
 ACTION:UPD 13-01-04 14:31 OP:ep   STATUS:               ID:20121228110111 L   I
 2012-12-28-1100-00M.COL___243                                                 6
 STAT SP IPHASW D HRMM SECON CODA AMPLIT PERI AZIMU VELO AIN AR TRES W  DIS CAZ7
 BAR2 SZ IP       11 1 31.01                             171   -0.0210 21.4 188 
 BAR2 SZ ES       11 1 46.28                             171   -0.2010 21.4 188 
 BAR2 SZ I        11 1 47.69       105.5 0.25                          21.4 188 
 GIR2 SZ EP       11 1 31.15                             167    0.0010 32.8 353 
 BRR  HZ EP       11 1 33.00                             153    0.4510 71.0 300 
 BRR  HN ES       11 1 49.55                             153    0.3610 71.0 300 
 BRR  HZ I        11 1 53.16        34.4 0.29                          71.0 300 
 RUS  HZ EP       11 1 34.94                             145   -0.0910 98.9 175 
 RUS  HN ES       11 1 53.40                             145   -0.2010 98.9 175 
 RUS  HN I        11 1 55.63        44.2 0.30                          98.9 175 
 PTB  HZ EP       11 1 37.64                             133   -0.56 9  146 259 
 PTB  HE ES   1   11 1 59.18                             133   -0.07 7  146 259 
 PTB  HZ I        11 2  3.99        28.1 0.26                           146 259 
 ZAR  HZ EP   1   11 1 43.43                             123   -0.31 6  204 293 
 ZAR  HE ES   1   11 2  8.88                             123   -0.23 6  204 293 
 ZAR  HZ I        11 2 13.93        16.3 0.31                           204 293 
 CHI  HZ EP       11 1 49.08                             118    0.28 8  247 195 
 CHI  HZ I        11 1 49.83        10.1 0.20                           247 195 
 CHI  HE ES       11 2 18.48                             118    0.36 8  247 195 
 ROSC BZ EP   4   11 1 49.41                             117    0.20 0  251 211 
 ROSC BZ I        11 2 25.47        19.9 0.62                           251 211 
 HEL  HZ EP   1   11 1 51.47                             115    0.12 6  271 256 
 HEL  HZ I        11 2 31.42        13.3 0.34                           271 256 
 TOL  SZ EP   4   11 2  0.60                             110    1.29 0  341 225 
 TOL  SZ I        11 2 45.76         6.1 0.19                           341 225 
                                                                                
