 2016  128 1641 15.5 L   6.779 -73.128146.0  RSN 11 0.5 1.9LRSN                1
 GAP=140        1.05       3.3     4.2  6.2 -0.2639E+01  0.9902E+01 -0.1175E+01E
 Epicentro: LOS SANTOS - SANTANDER                                             3
 ACTION:UPD 16-03-09 23:29 OP:cam  STATUS:               ID:20160128164115 L   I
 OLDACT:DUP 16-01-29 00:43 OP:ak   STATUS:               ID:20160128162601d    3
 2016-01-28-1625-59S.COL___220                                                 6
 STAT SP IPHASW D HRMM SECON CODA AMPLIT PERI AZIMU VELO AIN AR TRES W  DIS CAZ7
 BAR2 EZ EP       1641 35.47                             171    0.3410 21.5 196 
 BAR2 EZ ES       1641 50.38                             171   -0.0510 21.5 196 
 BAR2 EZ I        1641 53.33        11.4 0.34            171           21.5 196 
 PAM  EZ EP       1641 38.19                             151    0.4110 78.0  37 
 PAM  EN ES       1641 55.40                             151    0.2410 78.0  37 
 PAM  EZ I        1641 57.60         8.2 0.52            153           78.0  37 
 RUS  HZ EP       1641 39.10                             145   -0.0010 98.1 177 
 RUS  HN ES       1641 56.89                             145   -0.6210 98.1 177 
 RUS  HZ I        1641 59.03         8.7 0.30            147           98.1 177 
 PTB  HZ EP       1641 42.86                             132    0.24 9  149 260 
 PTB  HN ES       1642  3.43                             132   -0.35 9  149 260 
 PTB  HZ I        1642  5.52        11.0 0.12            132            149 260 
 SPBC HZ EP       1641 43.11                             129   -0.85 9  163 220 
 SPBC HN ES       1642  6.41                             129    0.24 9  163 220 
 SPBC HZ I        1642 10.60        12.9 0.17            131            163 220 
 ZAR  HZ EP       1641 47.52                             122   -0.72 8  207 293 
 ZAR  HN ES       1642 13.73                             122   -0.04 8  207 293 
 ZAR  HZ I        1642 19.01         8.4 0.34            123            207 293 
 NOR  HZ EP   1   1641 52.10                             118    0.83 6  235 235 
 NOR  HN ES       1642 19.33                             118    0.16 8  235 235 
 NOR  HZ I        1642 23.81         6.1 0.18            120            235 235 
 SML  HZ EP       1641 52.22                             117   -0.24 8  247 335 
 SML  HN ES       1642 21.35                             117    0.06 8  247 335 
 SML  HZ I        1642 27.02        12.1 0.11            119            247 335 
 GUY2CHZ EP   1   1641 59.60                             112    0.45 5  301 235 
 GUY2CHN ES       1642 34.00                             112    0.81 7  301 235 
 GUY2CHZ I        1642 41.50         4.3 0.30                           301 235 
 MON  HZ EP   9   1642  2.51                             108   -2.34 0  357 308 
 MON  HN ES       1642 41.59                                    0.58 6  357 308 
 MON  HZ I        1642 44.85         1.5 0.38            110            357 308 
 PRA  HZ EP       1642  8.20                             107   -0.70 6  391 210 
 PRA  HN ES       1642 51.23                             107    0.67 6  391 210 
 PRA  HZ I        1642 55.47         4.0 0.36            108            391 210 
                                                                                
