 2010  928 1857 33.1 L   6.765 -73.097138.8  RSN  4 0.2 1.3LRSN                1
 GAP=227        0.50       9.7    18.1  9.9  0.1360E+03 -0.9130E+02 -0.4717E+02E
 Epicentro: LOS SANTOS - SANTANDER                                             3
 ACTION:UP  11-02-18 11:06 OP:tino STATUS:               ID:20100928185733 L   I
 2010-09-28-1854-19S.COL___125                                                 6
 STAT SP IPHASW D HRMM SECON CODA AMPLIT PERI AZIMU VELO SNR AR TRES W  DIS CAZ7
 BAR2 SZ EP   2   1857 51.35                             172    -0.5 5   21 207 
 BAR2 SZ ES   2   1858  6.21                             172    -0.2 5   21 207 
 BTL  SZ EP       1857 52.10                             169     0.210   25 312 
 BRR  HZ EP   2   1857 53.79                             149    -0.1 5   78 299 
 BRR  HE ES   2   1858 10.00                             149    -0.1 5   78 299 
 BRR  HZ I        1858 13.07         8.1 0.13                            78 299 
 RUS  HZ EP   2   1857 55.54                             144    -0.3 5   96 179 
 RUS  HE ES   2   1858 13.84                             144     0.3 5   96 179 
 RUS  HZ I        1858 15.03         1.9 0.31                            96 179 
                                                                                
