 2016 1228 1418 14.4 L   6.726 -73.228101.1  RSN  6 0.5 1.4LRSN                1
 GAP=120        1.15       4.2     6.7 10.1  0.3965E+01  0.4358E+02  0.3971E+01E
 Epicentro: VILLANUEVA - SANTANDER                                             3
 ACTION:UPD 17-01-11 20:20 OP:rebc STATUS:               ID:20161228141814 L   I
 OLDACT:UP  16-12-28 22:53 OP:cog  STATUS:               ID:20161228140344     3
 OLDACT:REG 16-12-28 21:16 OP:cog  STATUS:               ID:20161228140344     3
 2016-12-28-1408-00M.COL___384                                                 6
 STAT SP IPHASW D HRMM SECON CODA AMPLIT PERI AZIMU VELO AIN AR TRES W  DIS CAZ7
 BAR2 EZ EP       1418 29.33                             171    0.7910 15.7 161 
 BAR2 EZ ES       1418 39.26                             171   -0.2810 15.7 161 
 BAR2 EZ I        1418 47.28        10.0 0.30            172           15.7 161 
 PAM  EZ EP   3   1418 32.33                             135   -0.82 2 89.5  41 
 PAM  EE ES       1418 47.48                             135   -0.2610 89.5  41 
 PAM  EZ I        1418 52.75         4.4 0.40            147           89.5  41 
 RUS  HZ EP       1418 33.52                             134    0.0210 93.6 170 
 RUS  HN ES       1418 48.55                             134    0.1810 93.6 170 
 RUS  HZ I        1418 53.12         3.1 0.42            143           93.6 170 
 PTB  HZ EP       1418 36.22                             121   -0.89 9  137 261 
 PTB  HE ES   4   1418 57.48                             121    2.69 0  137 261 
 PTB  HZ I        1418 59.27         4.0 0.16            128            137 261 
 ZAR  HZ EP       1418 44.45                             111    0.60 9  199 295 
 ZAR  HE ES       1419  6.92                             111    0.12 9  199 295 
 ZAR  HZ I        1419 12.80         4.5 0.44            118            199 295 
 CHI  HZ EP   4   1418 47.68                             107   -1.24 0  238 194 
 CHI  HE ES       1419 15.60                             107   -0.21 8  238 194 
 CHI  HZ I        1419 19.32         2.3 0.40            115            238 194 
                                                                                
