 2013 1228 1958 32.1 L   6.775 -73.135149.1  RSN  7 0.5 1.9LRSN                1
 GAP=139        1.16       5.0     5.3  7.9 -0.1265E+01  0.9074E+01  0.3264E+01E
 Epicentro: LOS SANTOS - SANTANDER                                             3
 ACTION:UPD 14-01-13 10:22 OP:ep   STATUS:               ID:20131228195832 L   I
 OLDACT:REG 13-12-28 15:39 OP:jn   STATUS:               ID:20131228195646     3
 2013-12-28-1956-46M.COL___234                                                 6
 STAT SP IPHASW D HRMM SECON CODA AMPLIT PERI AZIMU VELO AIN AR TRES W  DIS CAZ7
 BAR2 SZ EP       1958 52.05                             172   -0.0310 20.9 195 
 BAR2 SZ ES       1959  7.90                             172    0.2310 20.9 195 
 BAR2 SZ I        1959  8.83        31.8 0.22            169           20.9 195 
 BRR  HZ EP     C 1958 53.94                             152    0.2010 73.6 300 
 BRR  HN ES       1959 11.45                             152    0.8310 73.6 300 
 BRR  HZ I        1959 14.28        12.6 0.40            150           73.6 300 
 PAM  SZ EP       1958 54.91                             151    0.1610 78.8  38 
 PAM  SE ES       1959 11.93                             151   -0.4910 78.8  38 
 PAM  SZ I        1959 14.35        11.3 0.54            155           78.8  38 
 RUS  HZ EP       1958 55.99                             145    0.0210 97.7 177 
 RUS  HN ES       1959 14.09                             145   -0.5110 97.7 177 
 RUS  HZ I        1959 15.92         4.8 0.26            147           97.7 177 
 PTB  HZ EP       1958 59.00                             133   -0.39 9  148 260 
 PTB  HN ES   1   1959 19.87                             133   -0.82 7  148 260 
 PTB  HZ I        1959 25.79         8.0 0.28            132            148 260 
 SPBC HZ EP       1959  1.40                             130    0.68 9  162 220 
 SPBC HN ES       1959 23.22                             130    0.17 9  162 220 
 SPBC HZ I        1959 30.00        11.2 0.24            130            162 220 
 ZAR  HN ES       1959 30.10                             123   -0.53 8  206 293 
 ZAR  HZ I        1959 37.02         6.2 0.32            123            206 293 
                                                                                
