 2015 1228 1228 47.7 L   6.674 -73.186134.6  RSN  4 0.4 1.6LRSN                1
 GAP=228        0.57      12.1     8.1  9.2  0.3426E+02  0.2221E+02 -0.2240E+01E
 Epicentro: VILLANUEVA - SANTANDER                                             3
 ACTION:UPD 16-02-04 15:08 OP:cam  STATUS:               ID:20151228122847 L   I
 OLDACT:REG 15-12-28 20:15 OP:dnl  STATUS:               ID:20151228122747     3
 2015-12-28-1227-47M.COL___334                                                 6
 STAT SP IPHASW D HRMM SECON CODA AMPLIT PERI AZIMU VELO AIN AR TRES W  DIS CAZ7
 BAR2 EZ EP   2   1229  5.80                             176    0.01 5 9.04 178 
 BAR2 EZ ES   2   1229 20.30                             176    0.41 5 9.04 178 
 BAR2 EZ I        1229 22.48         7.7 0.13            165           9.04 178 
 BRR  HZ EP   2   1229  7.41                             149   -0.52 5 75.4 310 
 BRR  HE ES   2   1229 23.42                             149   -0.27 5 75.4 310 
 BRR  HZ I        1229 27.83         9.3 0.22            145           75.4 310 
 PTB  HZ EP   2   1229 12.77                             131   -0.43 5  141 264 
 PTB  HE ES   2   1229 33.03                             131   -0.04 5  141 264 
 PTB  HZ I        1229 40.87         4.3 0.25            129            141 264 
 ZAR  HZ EP   2   1229 20.52                             120    0.88 4  206 296 
 ZAR  HE ES   2   1229 44.77                             120    0.23 4  206 296 
 ZAR  HZ I        1229 50.04         6.0 0.16            121            206 296 
                                                                                
