 2017  928 1618 41.1 L   6.778 -73.074142.0  RSN  6 0.4 1.3LRSN                1
 GAP=147        0.75       3.7     4.1  5.9  0.2011E+01  0.4110E+01  0.4435E+00E
 Epicentro: LOS SANTOS - SANTANDER                                             3
 ACTION:UPD 17-10-05 19:17 OP:rebc STATUS:               ID:20170928161841 L   I
 OLDACT:REG 17-09-28 20:51 OP:osc  STATUS:               ID:20170928161739     3
 2017-09-28-1618-00M.COL___443                                                 6
 STAT SP IPHASW D HRMM SECON CODA AMPLIT PERI AZIMU VELO AIN AR TRES W  DIS CAZ7
 BAR2 EZ EP       1619  0.08                             170   -0.2310 23.8 210 
 BAR2 EZ ES       1619 15.25                             170   -0.0210 23.8 210 
 PAM  EZ EP       1619  2.78                             151    0.0110 74.6  34 
 PAM  EN ES       1619 19.99                             151    0.3410 74.6  34 
 PAM  EZ I        1619 22.12         4.1 0.47            151           74.6  34 
 BRR  HZ EP       1619  1.83                             149   -0.5310 79.4 297 
 BRR  HN ES       1619 18.86                             149   -0.0610 79.4 297 
 RUS  HZ EP       1619  4.47                             144    0.1610 97.9 181 
 RUS  HN ES       1619 22.39                             144   -0.0110 97.9 181 
 RUS  HZ I        1619 23.81         3.7 0.36            145           97.9 181 
 ZAR  HE ES       1619 40.23                             121    0.24 8  212 292 
 NOR  HE ES   4   1619 42.44                             117   -2.89 0  240 236 
 GUY2CHE ES   2   1620  0.82                             111    1.33 4  306 236 
                                                                                
