 2017  928 1258 20.2 L   6.818 -73.165145.0  RSN 10 0.6 1.7LRSN                1
 GAP=109        1.20       5.0     5.3  7.4  0.1177E+01  0.3658E+01  0.8022E+01E
 Epicentro: LOS SANTOS - SANTANDER                                             3
 ACTION:UPD 17-10-05 19:17 OP:rebc STATUS:               ID:20170928125820 L   I
 OLDACT:UP  17-09-28 22:13 OP:osc  STATUS:               ID:20170928124745     3
 OLDACT:REG 17-09-28 20:26 OP:osc  STATUS:               ID:20170928124745     3
 2017-09-28-1248-00M.COL___428                                                 6
 STAT SP IPHASW D HRMM SECON CODA AMPLIT PERI AZIMU VELO AIN AR TRES W  DIS CAZ7
 BAR2 EZ EP       1258 39.45                             170   -0.3210 25.1 184 
 BAR2 EZ ES       1258 55.17                             170    0.1310 25.1 184 
 BAR2 EZ I        1258 57.27        14.8 0.30            165           25.1 184 
 BRR  HZ EP       1258 41.24                             153    0.1310 68.4 298 
 BRR  HE ES       1258 57.88                             153    0.4710 68.4 298 
 BRR  HZ I        1258 59.40         7.3 0.14            154           68.4 298 
 PAM  EZ EP       1258 42.46                             151    0.1410 77.2  42 
 PAM  EE ES   2   1258 58.52                             151   -1.06 5 77.2  42 
 RUS  HZ EP   2   1258 46.19                             143    2.15 5  103 175 
 RUS  HN ES       1259  2.20                             143   -0.4210  103 175 
 RUS  HZ I        1259  3.50         7.9 0.32            141            103 175 
 SPBC HZ EP       1258 48.67                             129    0.01 9  163 218 
 SPBC HN ES       1259 10.16                             129   -0.70 9  163 218 
 SPBC HZ I        1259 12.91        12.0 0.30            128            163 218 
 YPLC HZ EP       1258 49.82                             126   -0.40 9  180 151 
 YPLC HE ES       1259 14.26                             126    0.64 9  180 151 
 YPLC HZ I        1259 16.76         6.0 0.38            126            180 151 
 ZAR  HE ES   2   1259 16.09                             123   -1.27 4  201 292 
 NOR  HZ EP       1258 55.88                             118    0.05 8  234 234 
 NOR  HE ES       1259 24.11                             118    0.50 8  234 234 
 NOR  HZ I        1259 29.08         2.6 0.26            118            234 234 
 CHI  HZ EP       1258 57.73                             117   -0.28 8  250 195 
 CHI  HN ES   3   1259 26.32                             117   -1.18 2  250 195 
 CHI  HZ I        1259 36.86         2.3 0.40            117            250 195 
 GUY2CHE ES   2   1259 38.35                             112    0.70 4  301 234 
                                                                                
