 2014  428 1340 43.0 L   7.485 -73.354123.1  RSN  6 0.6 1.6LRSN                1
 GAP=100        1.17       8.7     6.1 15.6  0.2596E+02  0.5993E+02  0.6899E+02E
 Epicentro: EL PLAYON - SANTANDER                                              3
 OLDACT:REG 14-04-28 21:16 OP:fm   STATUS:               ID:20140428133819     3
 ACTION:UPD 14-05-13 23:12 OP:nd   STATUS:               ID:20140428134043 L   I
 OLDACT:UP  14-04-29 00:07 OP:fm   STATUS:               ID:20140428133819     3
 2014-04-28-1338-19M.COL___248                                                 6
 STAT SP IPHASW D HRMM SECON CODA AMPLIT PERI AZIMU VELO AIN AR TRES W  DIS CAZ7
 PAM  SZ EP       1341  3.23                             147    0.6210 74.0 103 
 PAM  SN ES       1341 17.62                             147   -0.3010 74.0 103 
 PAM  SZ I        1341 19.95         8.4 0.38             91           74.0 103 
 OCA  HN ES   1   1341 18.26                             143    0.03 7 83.4   3 
 ZAR  HZ EP       1341 10.43                             122    0.41 9  166 270 
 ZAR  HN ES       1341 31.52                             122    0.41 9  166 270 
 ZAR  SZ I        1341 33.86         4.8 0.10             91            166 270 
 SML  HN ES   1   1341 30.39                             122   -0.62 7  166 332 
 RUS  HZ EP   1   1341 11.04                             121   -0.92 7  179 170 
 RUS  SZ I        1341 38.52         5.5 3.00             56            179 170 
 URE  HN ES   1   1341 44.96                             112   -0.87 6  242 277 
                                                                                
