 2013 1128 1526 37.7 L   6.903 -73.151147.9  RSN  7 0.3 2.0LRSN                1
 GAP=140        0.77       3.5     4.9  5.5 -0.4001E+01  0.7965E+01 -0.6105E+00E
 Epicentro: BETULIA - SANTANDER                                                3
 ACTION:UPD 14-01-09 16:31 OP:ep   STATUS:               ID:20131128152637 L   I
 OLDACT:UP  13-11-28 15:58 OP:cam  STATUS:               ID:20131128152002d    3
 OLDACT:DUP 13-11-28 15:56 OP:cam  STATUS:               ID:20131128152002d    3
 OLDACT:UP  13-11-28 15:56 OP:cam  STATUS:               ID:20131128152001d    3
 OLDACT:DUP 13-11-28 15:53 OP:cam  STATUS:               ID:20131128152001d    3
 OLDACT:UP  13-11-28 15:53 OP:cam  STATUS:               ID:20131128152000     3
 OLDACT:REG 13-11-28 14:54 OP:cam  STATUS:               ID:20131128152000     3
 2013-11-28-1520-00M.COL___282                                                 6
 STAT SP IPHASW D HRMM SECON CODA AMPLIT PERI AZIMU VELO AIN AR TRES W  DIS CAZ7
 BAR2 SZ EP       1526 57.80                             166   -0.0710 34.5 186 
 BAR2 SZ ES       1527 13.22                             166   -0.3810 34.5 186 
 BAR2 SZ I        1527 14.53        22.4 0.50            157           34.5 186 
 BRR  HZ EP       1526 59.07                             154    0.2610 66.0 290 
 BRR  HN ES       1527 15.71                             154    0.4410 66.0 290 
 PAM  SZ EP       1526 59.98                             154    0.2810 69.4  46 
 PAM  SE ES       1527 16.71                             154   -0.1510 69.4  46 
 PAM  SZ I        1527 17.64        16.5 0.30            157           69.4  46 
 PTB  HZ EP       1527  4.41                             132   -0.63 9  150 255 
 PTB  HZ I        1527 36.01         6.5 0.40            120            150 255 
 SPBC HZ EP   1   1527  7.40                             128    0.20 7  172 216 
 SPBC HN ES       1527 30.38                             128    0.18 9  172 216 
 SPBC HZ I        1527 37.07        13.8 0.20            118            172 216 
 SML  HZ EP   2   1527 13.09                             119   -0.24 4  233 334 
 SML  HE ES       1527 40.98                             119   -0.13 8  233 334 
 CHI  HZ EP   2   1527 17.06                             116    0.35 4  259 194 
                                                                                
