 2013 1128 1905 36.3 L   6.798 -73.137151.1  RSN  8 0.4 2.4LRSN                1
 GAP=153        0.95       4.0     4.6  6.2 -0.6563E+01  0.8091E+01 -0.1889E+01E
 Epicentro: LOS SANTOS - SANTANDER                                             3
 ACTION:UPD 14-01-09 16:31 OP:ep   STATUS:               ID:20131128190536 L   I
 OLDACT:UP  13-11-28 16:42 OP:cam  STATUS:               ID:20131128190000     3
 OLDACT:REG 13-11-28 15:05 OP:cam  STATUS:               ID:20131128190000     3
 2013-11-28-1900-00M.COL___282                                                 6
 STAT SP IPHASW D HRMM SECON CODA AMPLIT PERI AZIMU VELO AIN AR TRES W  DIS CAZ7
 BAR2 SZ EP       19 5 56.60                             171    0.0510 23.2 192 
 BAR2 SZ ES       19 6 12.08                             171   -0.2810 23.2 192 
 BAR2 SZ I        19 6 14.40        70.0 0.34            170           23.2 192 
 BRR  HZ EP       19 5 58.35                             153    0.2910 72.1 298 
 BRR  HN ES       19 6 15.82                             153    0.7710 72.1 298 
 BRR  HZ I        19 6 19.25        18.4 0.34            149           72.1 298 
 PAM  SZ EP       19 5 59.26                             152    0.2110 77.0  39 
 PAM  SN ES       19 6 16.64                             152   -0.1610 77.0  39 
 PAM  SZ I        19 6 18.67        21.3 0.50            155           77.0  39 
 PTB  HZ EP       19 6  3.20                             133   -0.57 9  149 259 
 PTB  HN ES       19 6 24.60                             133   -0.60 9  149 259 
 PTB  HZ I        19 6 32.02        29.5 0.36            132            149 259 
 SPBC HZ EP   1   19 6  5.57                             130    0.34 7  164 219 
 SPBC HN ES       19 6 27.67                             130   -0.14 9  164 219 
 SPBC HZ I        19 6 33.04        38.1 0.38            132            164 219 
 ZAR  HZ EP   1   19 6  9.81                             123    0.63 6  205 292 
 ZAR  HN ES   1   19 6 35.04                             123    0.20 6  205 292 
 ZAR  HZ I        19 6 41.64        19.3 0.30            123            205 292 
 NOR  HZ EP   1   19 6 12.56                             120    0.17 6  235 235 
 NOR  HN ES       19 6 40.80                             120    0.25 8  235 235 
 NOR  HZ I        19 6 44.55        21.0 0.22            121            235 235 
 SML  HZ EP   1   19 6 12.75                             118   -0.53 6  244 335 
 SML  HE ES       19 6 41.70                             118   -0.44 8  244 335 
 SML  HZ I        19 6 50.49        23.3 0.10            119            244 335 
 CHI  HZ EP   4   19 6 14.67                             118    0.39 0  249 195 
 GUY2CHZ EP   4   19 6 21.09                             113    0.88 0  302 235 
 COD  HZ EP   4   19 6 24.30                             110   -0.62 0  349 354 
 PRA  HZ EP   4   19 6 30.85                             107    0.83 0  392 210 
                                                                                
