 2016  328 1502 26.5 L   6.563 -73.767 88.0  RSN  8 0.4 1.6LRSN                1
 GAP=103        1.11       4.0     3.1  8.1 -0.5074E+01  0.7427E+01 -0.4685E+01E
 Epicentro: SANTA HELENA DEL OPON - SANTANDER                                  3
 ACTION:UPD 16-05-13 21:28 OP:cam  STATUS:               ID:20160328150226 L   I
 OLDACT:REG 16-03-28 20:48 OP:drio STATUS:               ID:20160328145750     3
 2016-03-28-1457-50M.COL___310                                                 6
 STAT SP IPHASW D HRMM SECON CODA AMPLIT PERI AZIMU VELO AIN AR TRES W  DIS CAZ7
 BAR2 EZ EP       15 2 41.83                             141    0.2110 64.7  87 
 BAR2 EZ ES       15 2 54.01                             141    0.6010 64.7  87 
 BAR2 EZ I        15 2 54.83        23.2 0.28            145           64.7  87 
 PTB  HZ EP       15 2 41.84                             136   -0.4210 76.3 268 
 PTB  HN ES       15 2 54.09                             136   -0.4610 76.3 268 
 PTB  HZ I        15 2 57.69         8.5 0.16            140           76.3 268 
 SPBC HZ EP       15 2 45.09                             126   -0.0910  106 199 
 SPBC HE ES       15 3  0.13                             126    0.3810  106 199 
 SPBC HZ I        15 3  3.70        10.1 0.22            130            106 199 
 RUS  HZ EP       15 2 45.32                             126   -0.3610  106 134 
 RUS  HE ES       15 3  0.14                             126   -0.5010  106 134 
 RUS  HZ I        15 3  7.06         3.1 0.36            131            106 134 
 PAM  EZ EP       15 2 49.74                             117   -0.15 9  146  54 
 PAM  EE ES       15 3  8.27                             117    0.13 9  146  54 
 PAM  EZ I        15 3 13.79         4.2 0.20            120            146  54 
 ZAR  HZ EP       15 2 51.01                             114    0.34 9  158 311 
 ZAR  HE ES   4   15 3 11.98                             114    2.45 0  158 311 
 ZAR  HZ I        15 3 14.14         8.3 0.40            117            158 311 
 NOR  HZ EP       15 2 50.80                             113   -0.64 9  165 228 
 NOR  HE ES       15 3 10.88                             113   -0.02 9  165 228 
 NOR  HZ I        15 3 14.34         9.8 0.18            117            165 228 
 GUY2CHZ EP       15 3  0.06                             106    0.40 8  231 230 
 GUY2CHN ES       15 3 26.50                             106    0.97 8  231 230 
 GUY2CHZ I        15 3 34.00         3.1 0.36                           231 230 
                                                                                
