 2016 1128 1731 35.7 L   6.814 -73.168145.2  RSN 19 0.4 2.9LRSN                1
 GAP= 78        0.89       3.0     2.5  4.7 -0.9072E+00  0.2341E+01  0.3792E+01E
 Epicentro: LOS SANTOS - SANTANDER                                             3
 ACTION:UPD 17-10-26 21:12 OP:lp   STATUS:               ID:20161128173135 L   I
 OLDACT:REG 16-11-28 21:32 OP:lv   STATUS:               ID:20161128172746     3
 2016-11-28-1728-00M.COL___342                                                 6
 STAT SP IPHASW D HRMM SECON CODA AMPLIT PERI AZIMU VELO AIN AR TRES W  DIS CAZ7
 BAR2 EZ IP     D 1731 55.25                             170   -0.0710 24.6 184 
 BAR2 EZ ES       1732 10.04                             170   -0.5610 24.6 184 
 BAR2 EZ I        1732 11.65       360.2 0.30            167           24.6 184 
 BRR  HZ IP     C 1731 57.04                             153    0.3810 68.2 298 
 BRR  HN ES       1732 13.58                             153    0.6010 68.2 298 
 BRR  HZ I        1732 17.43       155.1 0.25            156           68.2 298 
 PAM  EZ EP       1731 58.07                             150    0.1510 77.8  42 
 PAM  EN ES       1732 15.22                             150    0.0010 77.8  42 
 PAM  EZ I        1732 17.72       234.0 0.72            155           77.8  42 
 PTB  HZ EP       1732  1.83                             132   -0.63 9  146 258 
 PTB  HN ES       1732 22.91                             132   -0.40 9  146 258 
 PTB  HZ I        1732 28.61        97.9 0.17            134            146 258 
 TAM  HZ IP     D 1732  3.69                             130    0.06 9  158 105 
 TAM  HE ES       1732 25.47                             130    0.08 9  158 105 
 TAM  HZ I        1732 45.56        77.4 0.40            132            158 105 
 ZAR  HZ EP       1732  7.79                             123   -0.05 9  201 292 
 ZAR  HN ES       1732 32.90                             123    0.01 9  201 292 
 ZAR  HZ I        1732 39.49       100.3 0.35            125            201 292 
 NOR  HZ EP       1732 11.55                             118    0.24 8  234 234 
 NOR  HN ES       1732 38.75                             118   -0.31 8  234 234 
 NOR  HZ I        1732 43.41        37.4 0.24            120            234 234 
 CHI  HZ EP       1732 13.54                             117    0.05 8  249 195 
 CHI  HN ES       1732 42.57                             117   -0.38 8  249 195 
 CHI  HZ I        1732 46.34        30.9 0.42            118            249 195 
 ROSC BZ EP   4   1732 15.50                             116    1.67 0  253 210 
 ROSC BN ES       1732 44.07                             116    0.53 8  253 210 
 ROSC BZ I        1732 51.46        52.5 0.40            118            253 210 
 URE  HZ EP       1732 16.02                             114   -0.43 7  281 292 
 URE  HE ES   4   1732 46.78                             114   -1.43 0  281 292 
 URE  HZ I        1732 57.14        52.7 0.16            116            281 292 
 PTGC HZ EP   4   1732 18.39                             111   -1.44 0  311 158 
 PTGC HN ES   4   1732 51.90                             111   -2.33 0  311 158 
 PTGC HZ I        1732 54.84        44.7 0.27            112            311 158 
 LL6C HZ EP   9   1731 59.88                             110   -21.3 0  323 358 
 LL6C HN ES       1732 36.18                                    0.82 7  323 358 
 LL6C HZ I        1732 38.89        21.8 0.34            113            323 358 
 ELA  HZ EP   4   1732 26.43                             110    3.97 0  328 229 
 ELA  HE ES       1732 59.61                             110    0.71 7  328 229 
 ELA  HZ I        1733  7.71        21.9 0.52            112            328 229 
 CBOC HZ EP   4   1732 23.65                             110    1.24 0  332 252 
 CBOC HE ES       1732 58.91                             110    0.10 7  332 252 
 DBB  HN ES   4   1732 58.54                             109   -1.12 0  337 274 
 ARGC HZ EP   9   1732 27.44                             108    2.34 0  357 341 
 ARGC HN ES       1733  5.39                                   -0.56 6  357 341 
 ARGC HZ I        1733  8.48        20.3 0.36            111            357 341 
 ANIL HZ EP   9   1732 27.06                             108    1.62 0  357 224 
 ANIL HN ES       1733  6.21                                    0.38 6  357 224 
 ANIL HZ I        1733  9.88        66.5 0.36            110            357 224 
 ORTC HZ EP       1732 30.01                             106    0.40 6  395 216 
 ORTC HN ES   4   1733 13.27                             106    1.64 0  395 216 
 ORTC HZ I        1733 16.25        19.6 0.28            107            395 216 
 SJC  HZ EP   4   1732 29.94                             106   -1.02 0  407 327 
 SJC  HN ES   4   1733 10.23                             106   -3.81 0  407 327 
 SJC  HZ I        1733 24.86        18.2 0.32            108            407 327 
 SMAR HZ EP       1732 41.14                             102   -0.20 4  495 347 
 SMAR HE ES   4   1733 28.65                             102   -3.86 0  495 347 
                                                                                
