 2012  228 1236 13.4 L   6.793 -73.157145.2  RSN  6 0.2 1.6LRSN                1
 GAP=135        0.53       3.7     3.9  4.8  0.7119E-01  0.4926E+01 -0.4306E+00E
 ACTION:UP  12-03-07 16:35 OP:epov STATUS:               ID:20120228123613 L   I
 2012-02-28-1230-00M.COL___191                                                 6
 STAT SP IPHASW D HRMM SECON CODA AMPLIT PERI AZIMU VELO AIN AR TRES W  DIS CAZ7
 BAR2 SZ EP       1236 32.91                             171   -0.0610 22.4 187 
 BAR2 SZ ES   1   1236 47.83                             171   -0.38 7 22.4 187 
 BAR2 SZ I        1236 51.65         6.2 0.42                          22.4 187 
 BRR  HZ EP   1   1236 34.66                             153    0.18 7 70.5 300 
 BRR  HN ES   1   1236 51.19                             153    0.30 7 70.5 300 
 BRR  HZ I        1236 52.29        14.6 0.14                          70.5 300 
 PAM  SZ EP   1   1236 35.80                             150    0.13 7 78.8  40 
 PAM  SN ES   1   1236 52.89                             150   -0.12 7 78.8  40 
 RUS  HZ EP   1   1236 37.19                             144    0.11 7 99.9 175 
 RUS  HN ES   1   1236 55.78                             144    0.26 7 99.9 175 
 RUS  HZ I        1236 57.99         5.8 0.30                          99.9 175 
 PTB  HZ EP   1   1236 39.70                             132   -0.53 7  146 259 
 PTB  HE ES   2   1237  1.17                             132    0.04 5  146 259 
 ZAR  HZ EP   1   1236 45.86                             122    0.10 6  203 292 
 ZAR  HZ I        1237 17.03         4.4 0.18                           203 292 
                                                                                
