 2011 1028 1100 46.5 L   6.837 -73.102145.2  RSN 12 0.4 2.3LRSN                1
 GAP=117        0.86       3.8     5.5  5.9 -0.1374E+01  0.9746E+01  0.7215E+01E
 Epicentro: LOS SANTOS - SANTANDER                                             3
 ACTION:UPD 12-07-13 16:06 OP:ep   STATUS:               ID:20111028110046 L   I
 2011-10-28-1058-30S.COL___176                                                 6
 STAT SP IPHASW D HRMM SECON CODA AMPLIT PERI AZIMU VELO AIN AR TRES W  DIS CAZ7
 BAR2 SZ IP       11 1  5.93                             168   -0.2110 28.4 198 
 BAR2 SZ I        11 1  6.25        44.7 0.36                          28.4 198 
 BAR2 SZ ES   1   11 1 21.41                             168   -0.08 7 28.4 198 
 PAM  SZ EP       11 1  8.66                             153    0.4010 71.2  39 
 PAM  SN ES   1   11 1 25.64                             153    0.37 7 71.2  39 
 BRR  HZ IP     D 11 1  7.68                             152   -0.0210 73.7 294 
 BRR  HE ES   1   11 1 24.70                             152    0.44 7 73.7 294 
 BRR  HZ I        11 1 29.68        37.1 0.12                          73.7 294 
 RUS  HZ EP       11 1 10.05                             143   -0.3910  104 179 
 RUS  HZ I        11 1 11.20        22.3 0.14                           104 179 
 RUS  HE ES   2   11 1 28.83                             143   -0.31 5  104 179 
 OCA  SZ EP       11 1 14.40                             130   -0.02 9  157 351 
 OCA  SZ ES   1   11 1 35.42                             130   -0.80 7  157 351 
 OCA  SZ I        11 1 39.22        23.8 0.40                           157 351 
 YOP  SZ EP       11 1 16.79                             126    0.17 9  180 155 
 YOP  SZ I        11 1 20.25        11.9 0.42                           180 155 
 ZAR  HZ EP   2   11 1 18.43                             122   -0.75 4  207 291 
 ZAR  HZ I        11 1 36.97        25.9 0.26                           207 291 
 NOR  SZ EP       11 1 22.21                             118   -0.62 8  241 234 
 HEL  HZ EP       11 1 27.78                             114    0.50 7  278 255 
 HEL  HZ I        11 2  5.37        16.7 0.46                           278 255 
 RREF HZ EP       11 1 34.18                             110    0.88 7  328 229 
 RREF HN ES   2   11 2 10.42                             110    0.59 3  328 229 
 RREF HZ I        11 2 17.82        13.2 0.26                           328 229 
 TOL  SZ EP   1   11 1 35.61                             109    0.19 5  350 225 
 PRA  HZ EP       11 1 40.48                             106   -0.17 6  398 210 
 PRA  HN ES   2   11 2 22.15                             106   -0.77 3  398 210 
                                                                                
