 2010  228 1432 11.2 L   6.742 -73.107154.7  RSN  5 0.4 1.7LRSN                1
 GAP=186        0.87       4.9    14.1  7.8  0.1872E+02 -0.2211E+02  0.7276E+00E
 Epicentro: JORDAN - SANTANDER                                                 3
 ACTION:UP  10-08-24 09:51 OP:vdl  STATUS:               ID:20100228143211 L   I
 2010-02-28-1430-41S.COL___093                                                 6
 STAT SP IPHASW D HRMM SECON CODA AMPLIT PERI AZIMU VELO SNR AR TRES W  DIS CAZ7
 BAR2 SZ EP       1432 32.08                             173     0.210   19 207 
 BAR2 SZ ES   1   1432 47.64                             173    -0.3 7   19 207 
 BRR  HZ IP       1432 34.12                             152     0.410   78 301 
 BRR  HZ I        1432 35.55         8.8 0.15                            78 301 
 BRR  HE ES   1   1432 51.07                             152    -0.2 7   78 301 
 RUS  BZ EP       1432 35.67                             147     0.310   94 178 
 RUS  BN ES   2   1432 54.11                             147    -0.2 5   94 178 
 RUS  BZ I        1432 55.68         3.2 0.34                            94 178 
 OCA  SZ EP       1432 40.57                             130    -0.3 9  167 352 
 OCA  SZ ES   2   1433  4.10                             130     0.1 5  167 352 
 OCA  SZ I        1433  7.58        12.4 0.01                           167 352 
 CHI  HZ EP       1432 48.21                             119    -0.7 8  244 197 
 CHI  HE ES   2   1433 18.92                             119     0.6 4  244 197 
                                                                                
