 2010  428 1857 47.6 L   6.590 -72.938122.0  RSN  4 0.6 1.8LRSN                1
 GAP=265        1.18      14.4    15.7 16.6 -0.1086E+03 -0.1227E+03  0.1787E+02E
 Epicentro: MOGOTES - SANTANDER                                                3
 ACTION:UPD 10-08-24 10:01 OP:vdl  STATUS:               ID:20100428185747 L   I
 2010-04-28-1854-28S.COL___104                                                 6
 STAT SP IPHASW D HRMM SECON CODA AMPLIT PERI AZIMU VELO SNR AR TRES W  DIS CAZ7
 BAR2 SZ EP   2   1858  5.83                             170     1.4 5   27 271 
 BAR2 SZ ES   2   1858 16.97                             170    -0.6 5   27 271 
 BRR  HZ IP     C 1858  8.54                             141     0.010  103 304 
 BRR  HE ES   1   1858 25.12                             141     0.1 7  103 304 
 BRR  HZ I        1858 29.52        12.9 0.12                           103 304 
 GUE  SZ IP       1858 11.35                             132    -0.710  137   1 
 GRA  SZ IP       1858 12.77                             130     0.2 9  144   6 
 GRA  SZ ES   1   1858 32.47                             130     0.5 7  144   6 
                                                                                
