 2017  128 1217 28.0 L   6.800 -73.151147.5  RSN  9 0.4 2.3LRSN                1
 GAP=136        1.05       4.1     4.6  6.6  0.8588E+00  0.4547E+01  0.4239E+01E
 Epicentro: LOS SANTOS - SANTANDER                                             3
 ACTION:UPD 17-05-22 16:04 OP:jn   STATUS:               ID:20170128121728 L   I
 OLDACT:UP  17-01-28 23:22 OP:dnl  STATUS:               ID:20170128120745     3
 OLDACT:REG 17-01-28 21:28 OP:dnl  STATUS:               ID:20170128120745     3
 2017-01-28-1208-00M.COL___339                                                 6
 STAT SP IPHASW D HRMM SECON CODA AMPLIT PERI AZIMU VELO AIN AR TRES W  DIS CAZ7
 BAR2 EZ EP       1217 47.72                             170   -0.1510 23.2 188 
 BAR2 EZ ES       1218  2.66                             170   -0.6810 23.2 188 
 BAR2 EZ I        1218  3.96        44.7 0.22            168           23.2 188 
 BRR  HZ EP       1217 49.67                             153    0.3310 70.7 299 
 BRR  HE ES       1218  6.83                             153    0.8710 70.7 299 
 BRR  HZ I        1218  9.74        26.0 0.46            150           70.7 299 
 PAM  EZ EP       1217 50.78                             151    0.3310 77.8  40 
 PAM  EN ES       1218  7.67                             151   -0.2810 77.8  40 
 PAM  EZ I        1218  9.90        49.5 0.50            155           77.8  40 
 RUS  HZ EP       1217 51.96                             144    0.0010  101 176 
 RUS  HE ES       1218 10.84                             144    0.2210  101 176 
 RUS  HZ I        1218 11.50        24.9 0.24            145            101 176 
 PTB  HZ EP       1217 54.49                             133   -0.59 9  147 259 
 PTB  HE ES       1218 16.10                             133   -0.09 9  147 259 
 PTB  HZ I        1218 22.42        23.6 0.78            131            147 259 
 ZAR  HZ EP   2   1218  0.34                             123   -0.19 4  203 292 
 ZAR  HE ES       1218 25.57                             123   -0.31 9  203 292 
 ZAR  HZ I        1218 31.29        15.1 0.38            122            203 292 
 CHI  HZ EP       1218  5.90                             118    0.09 8  248 195 
 CHI  HE ES       1218 35.49                             118    0.22 8  248 195 
 CHI  HZ I        1218 38.73        12.8 0.52            118            248 195 
 ROSC BZ EP   9   1218  7.87                             117    1.66 0  252 211 
 ROSC BN ES       1218 38.23                             116    0.58 8  252 211 
 ROSC BZ I        1218 41.55        19.0 0.50            117            252 211 
 PTGC HZ EP   4   1218 10.96                             112   -1.03 0  309 159 
 PTGC HE ES   4   1218 44.17                             112   -2.11 0  309 159 
 PTGC HZ I        1218 46.78        26.0 0.36            113            309 159 
                                                                                
