 2010 1128 1509 20.7 L   6.789 -73.090146.0  RSN 15 0.4 2.5LRSN                1
 GAP=130        0.75       3.0     4.8  4.9 -0.6490E+01  0.1107E+01  0.1728E+01E
 Epicentro: LOS SANTOS - SANTANDER                                             3
 ACTION:UP  10-12-17 16:55 OP:REBC STATUS:               ID:20101128150920 L   I
 2010-11-28-1506-47S.COL___132                                                 6
 STAT SP IPHASW D HRMM SECON CODA AMPLIT PERI AZIMU VELO SNR AR TRES W  DIS CAZ7
 BAR2 SZ IP       15 9 40.46                             170     0.010   24 206 
 BAR2 SZ ES   1   15 9 55.21                             170    -0.6 7   24 206 
 BAR2 SZ I        15 9 58.25       100.1 0.19                            24 206 
 BTL  SZ EP       15 9 40.48                             170     0.110   24 306 
 BRR  HZ IP     C 15 9 42.27                             150     0.010   77 297 
 BRR  HE ES   1   15 9 59.07                             150     0.0 7   77 297 
 BRR  HZ I        1510  1.75        52.8 0.15                            77 297 
 RUS  HZ EP   1   15 9 44.45                             144     0.0 7   99 180 
 RUS  HN ES   1   1510  3.23                             144     0.4 7   99 180 
 RUS  HZ I        1510  4.38        38.2 0.40                            99 180 
 GRA  SZ IP       15 9 46.25                             137     0.310  125  15 
 GRA  SZ I        15 9 47.36        30.2 0.25                           125  15 
 GRA  SZ ES   1   1510  5.72                             137     0.1 7  125  15 
 OCA  SZ EP   1   15 9 48.82                             129    -0.4 7  162 351 
 OCA  SZ ES   2   1510 11.72                             129     0.2 5  162 351 
 OCA  SZ I        1510 14.19        28.0 0.24                           162 351 
 NOR  SZ EP   2   15 9 56.25                             118    -0.7 4  239 236 
 NOR  SE ES   2   1510 24.40                             118    -0.8 4  239 236 
 CHI  HZ EP   1   15 9 58.45                             117    -0.1 6  249 197 
 CHI  HE ES   1   1510 27.65                             117    -0.3 6  249 197 
 CHI  HZ I        1510 31.70        15.2 0.57                           249 197 
 ROSC BZ EP   2   15 9 59.86                             116     0.7 4  255 212 
 ROSC BN ES   2   1510 28.98                             116    -0.1 4  255 212 
 ROSC BZ I        1510 35.07        27.3 0.32                           255 212 
 HEL  HZ EP   1   1510  2.05                             114     0.4 6  278 256 
 HEL  HE ES   2   1510 32.97                             114    -0.5 4  278 256 
 HEL  HZ I        1510 38.96        14.6 0.40                           278 256 
 RREF HZ EP   1   1510  8.20                             110     0.9 5  326 230 
 RREF HE ES   1   1510 44.05                             110     0.4 5  326 230 
 RREF HZ I        1510 47.70        16.2 0.67                           326 230 
 TOL  SZ EP   2   1510  8.56                             109    -0.9 3  347 226 
 SDV  BZ IP     C 1510  9.99                             108    -0.3 6  356  49 
 SDV  BZ I        1510 10.65         9.3 0.23                           356  49 
 PRA  HZ EP   1   1510 14.46                             106     0.0 4  394 210 
 PRA  HE ES   1   1510 56.90                             106     0.5 4  394 210 
 SJA  SZ EP   2   1510 14.15                             106    -1.2 3  400 194 
                                                                                
