 2012  528 1722 18.2 L   6.856 -73.179140.7  RSN  5 0.3 1.6LRSN                1
 GAP=243        0.54       6.9     5.8  9.7  0.2493E+02  0.8530E+01 -0.6983E+01E
 Epicentro: ZAPATOCA - SANTANDER                                               3
 ACTION:UP  12-07-05 12:08 OP:pat  STATUS:               ID:20120528172218 L   I
 2012-05-28-1720-00M.COL___200                                                 6
 STAT SP IPHASW D HRMM SECON CODA AMPLIT PERI AZIMU VELO AIN AR TRES W  DIS CAZ7
 BAR2 SZ EP   2   1722 37.87                             168     0.5 5   29 181 
 BAR2 SZ ES   2   1722 52.47                             168     0.2 5   29 181 
 BAR2 SZ I        1722 56.41         9.1 0.37                            29 181 
 RUS  HZ EP   1   1722 41.80                             141    -0.1 7  107 174 
 RUS  HN ES   1   1723  0.25                             141    -0.2 7  107 174 
 RUS  HZ I        1723  2.21         4.9 0.58                           107 174 
 PTB  HN ES   2   1723  5.16                             131     0.1 5  146 256 
 PTB  HZ I        1723  7.81         4.5 0.18                           146 256 
 ZAR  HN ES   1   1723 14.09                             122    -0.2 6  198 291 
 ZAR  HZ I        1723 21.40         5.2 0.31                           198 291 
 NOR  SE ES   2   1723 21.78                             117     0.4 4  235 233 
                                                                                
