 2013  128 1219  2.8 L   6.757 -73.162138.7  RSN  5 0.3 1.6LRSN                1
 GAP=136        0.63       3.9     3.7  5.6 -0.1607E+01  0.2496E+01  0.3407E+01E
 Epicentro: LOS SANTOS - SANTANDER                                             3
 ACTION:UPD 13-02-15 09:17 OP:ep   STATUS:               ID:20130128121902 L   I
 2013-01-28-1214-52M.COL___177                                                 6
 STAT SP IPHASW D HRMM SECON CODA AMPLIT PERI AZIMU VELO AIN AR TRES W  DIS CAZ7
 BAR2 SZ EP       1219 21.65                             172    0.1810 18.4 187 
 BAR2 SZ ES   1   1219 36.32                             172    0.28 7 18.4 187 
 BAR2 SZ I        1219 37.70        17.8 0.27            172           18.4 187 
 BRR  HZ EP       1219 23.65                             151    0.4310 72.0 303 
 BRR  HE ES       1219 38.90                             151   -0.2610 72.0 303 
 BRR  HE I        1219 41.14        19.8 0.19            152           72.0 303 
 PAM  SZ EP   1   1219 24.56                             148    0.00 7 82.2  38 
 PAM  SN ES       1219 41.37                             148   -0.1610 82.2  38 
 PAM  SZ I        1219 43.91         5.3 0.45            150           82.2  38 
 RUS  HZ EP   1   1219 25.08                             143   -0.43 7 96.0 175 
 RUS  HN ES   1   1219 43.30                             143    0.06 7 96.0 175 
 RUS  HN I        1219 44.85         5.5 0.19            146           96.0 175 
 PTB  HZ EP   1   1219 28.65                             131   -0.29 7  145 261 
 PTB  HE ES   1   1219 49.35                             131    0.01 7  145 261 
 PTB  HZ I        1219 51.41         3.5 0.60            133            145 261 
                                                                                
