 2017  228 1448  4.2 L   6.791 -73.231143.1  RSN  6 0.2 1.4LRSN                1
 GAP=122        0.57       2.8     2.4  4.1  0.6821E+00  0.1810E+01  0.2246E+00E
 Epicentro: ZAPATOCA - SANTANDER                                               3
 ACTION:UPD 17-05-24 15:41 OP:jn   STATUS:               ID:20170228144804 L   I
 OLDACT:UP  17-03-01 00:22 OP:lv   STATUS:               ID:20170228143742d    3
 OLDACT:DUP 17-03-01 00:17 OP:lv   STATUS:               ID:20170228143742d    3
 2017-02-28-1438-00M.COL___388                                                 6
 STAT SP IPHASW D HRMM SECON CODA AMPLIT PERI AZIMU VELO AIN AR TRES W  DIS CAZ7
 BAR2 EZ EP       1448 23.53                             171    0.0910 22.7 166 
 BAR2 EZ ES       1448 38.42                             171   -0.0710 22.7 166 
 BAR2 EZ I        1448 41.77         5.5 0.30            173           22.7 166 
 BRR  HZ EP       1448 24.74                             155    0.1510 63.6 303 
 BRR  HE ES       1448 40.89                             155    0.3610 63.6 303 
 PAM  EZ EP       1448 26.49                             148   -0.0310 84.4  44 
 PAM  EN ES       1448 43.78                             148   -0.1810 84.4  44 
 PAM  EZ I        1448 45.84         3.0 0.41            151           84.4  44 
 RUS  HZ EP       1448 27.48                             143   -0.1710  101 171 
 RUS  HN ES       1448 46.01                             143    0.0410  101 171 
 RUS  HZ I        1448 46.67         2.2 0.26            147            101 171 
 PTB  HZ EP       1448 30.34                             133    0.29 9  138 258 
 PTB  HN ES       1448 49.99                             133   -0.25 9  138 258 
 PTB  HZ I        1448 55.08         5.7 0.14            134            138 258 
 ZAR  HZ EP   4   1448 38.46                             123    2.90 0  196 293 
 ZAR  HN ES       1448 59.76                             123   -0.30 9  196 293 
 ZAR  HZ I        1449  7.61         4.8 0.37            124            196 293 
                                                                                
