 2011  428 1307  9.7 L   6.762 -73.053150.2  RSN  5 0.5 1.3LRSN                1
 GAP=151        1.28      10.0    12.1 19.0 -0.4503E+01 -0.3581E+02 -0.9934E+01E
 Epicentro: LOS SANTOS - SANTANDER                                             3
 ACTION:UP  11-06-22 15:33 OP:REBC STATUS:               ID:20110428130709 L   I
 2011-04-28-1302-58S.COL___139                                                 6
 STAT SP IPHASW D HRMM SECON CODA AMPLIT PERI AZIMU VELO SNR AR TRES W  DIS CAZ7
 BAR2 SZ EP   1   13 7 30.19                             171     0.3 7   24 217 
 BAR2 SZ I        13 7 46.94         6.4 0.21                            24 217 
 PAM  SZ EP   1   13 7 31.39                             152    -0.9 7   75  31 
 PAM  SZ I        13 7 53.47         0.9 0.37                            75  31 
 BRR  HZ EP   1   13 7 32.23                             150     0.2 7   82 298 
 BRR  HE ES   1   13 7 49.61                             150     0.2 7   82 298 
 BRR  HZ I        13 7 54.20         9.8 0.14                            82 298 
 RUS  HZ EP   1   13 7 34.36                             146     0.8 7   96 182 
 RUS  HN ES   1   13 7 51.93                             146    -0.3 7   96 182 
 RUS  HZ I        13 7 54.11         3.1 0.40                            96 182 
 NOR  SE ES   1   13 8 14.28                             119    -0.7 6  241 237 
                                                                                
