 2010 1228 1421 56.2 L   6.752 -73.145144.9  RSN  8 0.4 2.2LRSN                1
 GAP=159        0.67       4.1     8.9  6.6 -0.1961E+02  0.1957E+02 -0.8255E+00E
 Epicentro: LOS SANTOS - SANTANDER                                             3
 ACTION:UP  11-01-14 15:27 OP:pat  STATUS:               ID:20101228142156 L   I
 2010-12-28-1420-00M.COL___136                                                 6
 STAT SP IPHASW D HRMM SECON CODA AMPLIT PERI AZIMU VELO SNR AR TRES W  DIS CAZ7
 BAR2 SZ EP   1   1422 15.38                             172    -0.313   18 194 
 BAR2 SZ ES   2   1422 30.75                             172    -0.1 8   18 194 
 BAR2 SZ I        1422 32.14        31.3 0.38                            18 194 
 BTL  SZ EP   1   1422 15.58                             171    -0.213   23 324 
 BTL  SZ ES   2   1422 31.05                             171     0.1 8   23 324 
 RUS  HZ EP   1   1422 19.33                             145    -0.213   95 176 
 RUS  HN ES   2   1422 37.92                             145     0.2 8   95 176 
 RUS  HZ I        1422 41.48        13.1 0.38                            95 176 
 GRA  SZ EP   1   1422 22.23                             136     0.412  131  17 
 GRA  SZ ES   2   1422 42.10                             136     0.3 8  131  17 
 GRA  SZ I        1422 44.75        16.4 0.37                           131  17 
 OCA  SZ EP   1   1422 24.92                             128    -0.112  166 353 
 OCA  SZ ES   2   1422 46.99                             128    -0.4 8  166 353 
 OCA  SZ I        1422 51.92        29.4 0.25                           166 353 
 NOR  SZ EP   1   1422 31.47                             119    -0.110  232 236 
 NOR  SN ES   2   1422 59.55                             119     0.3 7  232 236 
 ROSC BZ EP   1   1422 34.71                             117     0.910  248 212 
 ROSC BN ES   2   1423  3.17                             117     0.0 7  248 212 
 ROSC BZ I        1423  9.85        19.8 0.43                           248 212 
 PRA  HZ EP       1422 48.64                             107    -0.610  387 210 
                                                                                
