 2011 1028 1400 53.7 L   6.760 -73.056143.5  RSN  4 0.2 1.5LRSN                1
 GAP=150        0.39       7.5     8.8  7.9  0.3947E+02 -0.1801E+02  0.8950E+01E
 Epicentro: LOS SANTOS - SANTANDER                                             3
 ACTION:UPD 12-07-13 16:06 OP:ep   STATUS:               ID:20111028140053 L   I
 2011-10-28-1358-35S.COL___175                                                 6
 STAT SP IPHASW D HRMM SECON CODA AMPLIT PERI AZIMU VELO AIN AR TRES W  DIS CAZ7
 BAR2 SZ EP       14 1 13.14                             171    0.0910 23.2 217 
 BAR2 SZ I        14 1 29.77         7.9 0.40                          23.2 217 
 PAM  SE ES   3   14 1 32.69                             152    0.11 2 75.2  32 
 BRR  HZ EP       14 1 15.07                             150   -0.1810 82.0 298 
 BRR  HZ I        14 1 16.99        12.5 0.40                          82.0 298 
 BRR  HN ES   1   14 1 32.16                             150    0.10 7 82.0 298 
 RUS  HZ EP   2   14 1 17.11                             145    0.21 5 96.0 182 
 RUS  HN ES   3   14 1 34.62                             145   -0.37 2 96.0 182 
 RUS  HZ I        14 1 36.74         2.5 0.26                          96.0 182 
                                                                                
