 2011 1128 1746 32.2 L   6.760 -73.082138.8  RSN  4 0.1 1.7LRSN                1
 GAP=147        0.36       2.4     3.8  3.9 -0.1166E+01 -0.3253E+01  0.2901E+00E
 Epicentro: LOS SANTOS - SANTANDER                                             3
 ACTION:UPD 12-07-13 16:12 OP:ep   STATUS:               ID:20111128174632 L   I
 2011-11-28-1742-06S.COL___160                                                 6
 STAT SP IPHASW D HRMM SECON CODA AMPLIT PERI AZIMU VELO AIN AR TRES W  DIS CAZ7
 BAR2 SZ EP       1746 50.79                             171   -0.1610 21.6 211 
 BAR2 SZ ES   1   1747  5.73                             171    0.15 7 21.6 211 
 BAR2 SZ I        1747  6.82        10.6 0.33                          21.6 211 
 PAM  SZ EP       1746 53.77                             150    0.1410 76.8  33 
 PAM  SN ES   1   1747 10.25                             150   -0.11 7 76.8  33 
 BRR  HZ EP   2   1746 53.28                             149    0.18 5 79.5 299 
 BRR  HE ES   1   1747  9.35                             149   -0.06 7 79.5 299 
 BRR  HZ I        1747 16.06        12.7 0.45                          79.5 299 
 RUS  HZ EP   1   1746 54.85                             144   -0.07 7 95.9 180 
 RUS  HN ES   1   1747 12.71                             144    0.06 7 95.9 180 
                                                                                
