 2014  828 1743 26.5 L   6.759 -73.227138.2  RSN  5 0.3 1.6LRSN                1
 GAP=123        0.81       5.0     4.6  6.2  0.5101E+01 -0.1494E+01 -0.3989E+01E
 Epicentro: ZAPATOCA - SANTANDER                                               3
 ACTION:UPD 14-09-15 21:53 OP:nd   STATUS:               ID:20140828174326 L   I
 OLDACT:REG 14-08-28 20:48 OP:stll STATUS:               ID:20140828173818     3
 2014-08-28-1738-18M.COL___266                                                 6
 STAT SP IPHASW D HRMM SECON CODA AMPLIT PERI AZIMU VELO AIN AR TRES W  DIS CAZ7
 BAR2 SZ EP       1743 45.15                             172    0.0510 19.1 165 
 BAR2 SZ ES       1744  0.01                             172    0.3710 19.1 165 
 BAR2 SZ I        1744  1.59        11.4 0.22            172           19.1 165 
 BRR  HZ EP       1743 47.07                             153    0.5710 66.0 306 
 BRR  HN ES       1744  1.87                             153   -0.2610 66.0 306 
 PAM  SZ EP       1743 48.08                             146   -0.4010 86.7  42 
 PAM  SZ I        1743 48.28         9.5 0.22            149           86.7  42 
 RUS  HZ EP       1743 49.15                             143   -0.0710 97.1 171 
 RUS  HN ES       1744  6.83                             143   -0.1510 97.1 171 
 PTB  HZ EP       1743 52.08                             132    0.14 9  138 260 
 PTB  HN ES       1744 11.57                             132   -0.24 9  138 260 
 PTB  HZ I        1744 14.84         4.6 0.24            132            138 260 
                                                                                
