 2016  128 1218 39.4 L   6.788 -73.139136.0  RSN  4 0.4 1.3LRSN                1
 GAP=138        1.07       5.6     6.9  9.8  0.4430E+01  0.2793E+02 -0.3405E+01E
 Epicentro: LOS SANTOS - SANTANDER                                             3
 ACTION:UPD 16-03-09 23:29 OP:cam  STATUS:               ID:20160128121839 L   I
 OLDACT:UP  16-01-28 23:29 OP:ak   STATUS:               ID:20160128121600     3
 OLDACT:REG 16-01-28 21:34 OP:ak   STATUS:               ID:20160128121600     3
 2016-01-28-1215-59S.COL___220                                                 6
 STAT SP IPHASW D HRMM SECON CODA AMPLIT PERI AZIMU VELO AIN AR TRES W  DIS CAZ7
 BAR2 EZ EP       1218 58.28                             170    0.4510 22.2 192 
 BAR2 EZ ES       1219 12.20                             170   -0.0010 22.2 192 
 BAR2 EZ I        1219 14.10         4.4 0.46            171           22.2 192 
 PAM  EZ EP   1   1219  0.82                             149    0.21 7 78.0  39 
 PAM  EN ES       1219 17.03                             149   -0.1410 78.0  39 
 PAM  EZ I        1219 20.02         6.9 0.44            151           78.0  39 
 RUS  HZ EP       1219  1.26                             142   -0.8410 99.2 176 
 RUS  HE ES       1219 20.13                             142    0.3310 99.2 176 
 RUS  HZ I        1219 22.60         3.5 0.34            145           99.2 176 
 ZAR  HZ EP   1   1219 12.03                             120    0.69 6  205 292 
 ZAR  HN ES       1219 35.98                             120   -0.28 9  205 292 
 ZAR  HZ I        1219 38.78         1.6 0.08            122            205 292 
                                                                                
