 2014  228 1046 32.2 L   6.785 -73.171140.3  RSN  5 0.3 1.3LRSN                1
 GAP=134        0.75       3.9     3.5  6.5 -0.3111E+00  0.6349E+01 -0.2372E+01E
 Epicentro: LOS SANTOS - SANTANDER                                             3
 ACTION:UPD 14-03-10 08:14 OP:ep   STATUS:               ID:20140228104632 L   I
 OLDACT:REG 14-02-28 15:10 OP:cam  STATUS:               ID:20140228103811     3
 2014-02-28-1038-11M.COL___171                                                 6
 STAT SP IPHASW D HRMM SECON CODA AMPLIT PERI AZIMU VELO AIN AR TRES W  DIS CAZ7
 BAR2 SZ EP       1046 51.01                             171   -0.1010 21.4 183 
 BAR2 SZ ES       1047  6.03                             171    0.1510 21.4 183 
 PAM  SZ EP     D 1046 53.95                             149   -0.0510 80.4  40 
 PAM  SN ES       1047 10.86                             149   -0.1710 80.4  40 
 PAM  SZ I        1047 13.42         5.5 0.38            151           80.4  40 
 RUS  HZ EP       1046 55.51                             143    0.2210 99.2 174 
 RUS  HN ES       1047 13.45                             143    0.1310 99.2 174 
 RUS  HZ I        1047 14.48         1.6 0.18            145           99.2 174 
 PTB  HZ EP   1   1046 58.12                             131   -0.30 7  145 259 
 PTB  HN ES       1047 18.37                             131   -0.52 9  145 259 
 PTB  HZ I        1047 22.50         3.1 0.18            133            145 259 
 ZAR  HN ES       1047 29.53                             121    0.59 9  202 293 
                                                                                
