 2010  828 1613 10.6 L   6.077 -73.671111.3  RSN 10 0.4 2.1LRSN                1
 GAP= 84        1.04       4.1     6.7 10.6 -0.9298E+01  0.3937E+02 -0.4631E+00E
 Epicentro: CHIPATA - SANTANDER                                                3
 ACTION:UP  10-09-07 10:58 OP:vdl  STATUS:               ID:20100828161310 L   I
 2010-08-28-1609-03S.COL___120                                                 6
 STAT SP IPHASW D HRMM SECON CODA AMPLIT PERI AZIMU VELO SNR AR TRES W  DIS CAZ7
 RUS  HZ EP       1613 28.67                             144     0.110   68 107 
 RUS  HZ I        1613 28.90        27.2 0.29                            68 107 
 RUS  HN ES   1   1613 42.68                             144     0.0 7   68 107 
 BAR2 SZ EP       1613 29.23                             141     0.310   78  43 
 BAR2 SZ ES   1   1613 43.44                             141     0.1 7   78  43 
 BAR2 SZ I        1613 46.76        54.8 0.41                            78  43 
 BRR  HZ EP       1613 31.25                             130    -0.410  114 358 
 BRR  HN ES   1   1613 47.54                             130    -0.5 7  114 358 
 BRR  HZ I        1613 50.02        23.0 0.05                           114 358 
 GIR2 SZ EP   1   1613 32.81                             127     0.2 7  123  25 
 CHI  HZ EP       1613 36.50                             119    -0.3 9  160 182 
 CHI  HN ES   2   1613 56.90                             119    -0.3 5  160 182 
 CHI  HZ I        1614  0.61        13.2 0.50                           160 182 
 HEL  HZ EP   1   1613 41.44                             113    -0.3 6  206 274 
 HEL  HZ I        1614 10.97        11.8 0.25                           206 274 
 GUE  SZ EP       1613 42.82                             112     0.7 8  211  23 
 GUE  SZ I        1614 11.37         8.6 0.10                           211  23 
 GRA  SZ ES   2   1614  8.58                             110    -0.1 4  222  26 
 GRA  SZ I        1614 11.87        12.1 0.12                           222  26 
 RREF HZ EP   1   1613 44.03                             110    -0.3 6  227 235 
 RREF HN ES   1   1614 11.82                             110     1.1 6  227 235 
 RREF HZ I        1614 15.68        12.4 0.65                           227 235 
 PRA  HZ EP   1   1613 50.68                             104    -0.7 5  294 207 
 PRA  HE ES   2   1614 23.64                             104     0.3 4  294 207 
 PRA  HZ I        1614 29.39        11.6 0.62                           294 207 
                                                                                
