 2011  128 1303 30.6 L   6.781 -73.168140.0  RSN  7 0.4 2.0LRSN                1
 GAP=156        0.77       5.9     9.8  6.3 -0.3761E+02  0.2203E+02 -0.6387E+01E
 Epicentro: LOS SANTOS - SANTANDER                                             3
 ACTION:UP  11-02-08 08:43 OP:pat  STATUS:               ID:20110128130330 L   I
 2011-01-28-1302-44S.COL___138                                                 6
 STAT SP IPHASW D HRMM SECON CODA AMPLIT PERI AZIMU VELO SNR AR TRES W  DIS CAZ7
 BTL  SZ ES   1   13 4  4.26                             172     0.1 7   19 324 
 BAR2 SZ EP       13 3 49.56                             171     0.110   21 185 
 BAR2 SZ ES   1   13 4  4.65                             171     0.4 7   21 185 
 BAR2 SZ I        13 4  6.33        29.4 0.18                            21 185 
 GIR2 SZ EP       13 3 49.74                             166     0.110   33 355 
 GIR2 SZ ES   2   13 4  3.94                             166    -0.6 5   33 355 
 RUS  HZ EP   2   13 3 53.67                             143     0.0 5   99 175 
 RUS  HN ES   2   13 4 11.34                             143    -0.3 5   99 175 
 RUS  HZ I        13 4 13.44         8.5 0.68                            99 175 
 GRA  SZ IP       13 3 55.37                             135    -0.210  128  18 
 GRA  SZ ES   1   13 4 15.09                             135     0.0 7  128  18 
 GRA  SZ I        13 4 17.17        17.7 0.13                           128  18 
 NOR  SZ EP       13 4  5.46                             118    -0.2 8  232 235 
 NOR  SN ES   2   13 4 32.36                             118    -0.7 4  232 235 
 HEL  HZ EP   2   13 4 11.75                             114     1.5 4  269 256 
 HEL  HZ I        13 4 48.18         7.9 0.44                           269 256 
                                                                                
