 2012  928 1918 58.7 L   6.787 -73.176145.6  RSN  6 0.4 1.9LRSN                1
 GAP=133        0.71       5.0     6.0  7.4 -0.1771E+01 -0.1304E+01  0.3208E+01E
 Epicentro: LOS SANTOS - SANTANDER                                             3
 ACTION:UPD 12-10-22 14:21 OP:ep   STATUS:               ID:20120928191858 L   I
 2012-09-28-1910-00M.COL___213                                                 6
 STAT SP IPHASW D HRMM SECON CODA AMPLIT PERI AZIMU VELO AIN AR TRES W  DIS CAZ7
 BAR2 SZ EP   2   1919 18.15                             171   -0.11 5 21.6 182 
 BAR2 SZ ES   1   1919 33.32                             171   -0.21 7 21.6 182 
 BAR2 SZ I        1919 34.91        12.9 0.60                          21.6 182 
 GIR2 SZ ES   2   1919 34.27                             167    0.55 5 32.3 357 
 BRR  HZ EP   1   1919 20.00                             153    0.30 7 69.0 301 
 BRR  HN ES   1   1919 36.45                             153    0.37 7 69.0 301 
 BRR  HN I        1919 37.49        26.1 0.26                          69.0 301 
 PAM  SZ EP   1   1919 21.11                             150    0.03 7 80.6  41 
 PAM  SN ES   1   1919 38.07                             150   -0.48 7 80.6  41 
 PAM  SN I        1919 39.38         9.0 0.62                          80.6  41 
 RUS  HZ EP   1   1919 22.24                             144   -0.10 7 99.5 174 
 RUS  HN ES   1   1919 41.09                             144    0.30 7 99.5 174 
 PTB  HN ES   2   1919 45.07                             133   -1.02 5  144 259 
 PTB  HN I        1919 50.01        11.0 0.26                           144 259 
                                                                                
