 2013 1228 1118  9.5 L   6.802 -73.200140.0  RSN  5 0.1 1.7LRSN                1
 GAP=130        0.38       1.8     2.2  3.7 -0.1252E+01  0.3154E+01 -0.1768E+01E
 Epicentro: ZAPATOCA - SANTANDER                                               3
 ACTION:UPD 14-01-13 10:21 OP:ep   STATUS:               ID:20131228111809 L   I
 OLDACT:REG 13-12-28 14:18 OP:jn   STATUS:               ID:20131228111000     3
 2013-12-28-1110-00M.COL___285                                                 6
 STAT SP IPHASW D HRMM SECON CODA AMPLIT PERI AZIMU VELO AIN AR TRES W  DIS CAZ7
 BAR2 SZ EP       1118 28.56                             170    0.1310 23.2 175 
 BAR2 SZ ES       1118 43.24                             170    0.0410 23.2 175 
 BAR2 SZ I        1118 44.39        17.8 0.22            171           23.2 175 
 PAM  SZ EP       1118 31.46                             148    0.1210 81.2  43 
 PAM  SN ES       1118 48.36                             148   -0.0210 81.2  43 
 PAM  SZ I        1118 50.53        13.5 0.58            151           81.2  43 
 RUS  HN ES       1118 50.74                             142   -0.1410  101 173 
 RUS  HZ I        1118 52.69         4.1 0.24            145            101 173 
 PTB  HZ EP       1118 35.31                             132   -0.15 9  142 258 
 PTB  HN ES       1118 55.83                             132    0.11 9  142 258 
 PTB  HZ I        1118 59.21         6.7 0.38            133            142 258 
 OCA  HN ES       1118 58.85                             128   -0.12 9  159 355 
                                                                                
