 2016  428 1145 35.5 L   6.795 -73.187137.7  RSN  4 0.1 1.6LRSN                1
 GAP=143        0.38       2.2     2.2  3.2 -0.1494E+01  0.1968E+01 -0.7142E+00E
 Epicentro: ZAPATOCA - SANTANDER                                               3
 ACTION:UPD 16-05-05 14:24 OP:rebc STATUS:               ID:20160428114535 L   I
 OLDACT:DUP 16-04-28 23:07 OP:cara STATUS:               ID:20160428113748d    3
 OLDACT:REG 16-04-28 21:41 OP:cara STATUS:               ID:20160428113747     3
 2016-04-28-1137-47M.COL___309                                                 6
 STAT SP IPHASW D HRMM SECON CODA AMPLIT PERI AZIMU VELO AIN AR TRES W  DIS CAZ7
 BAR2 EZ IP       1145 54.20                             170    0.0210 22.4 179 
 BAR2 EZ ES       1146  8.91                             170    0.2010 22.4 179 
 BAR2 EZ I        1146  9.97         7.9 0.12            170           22.4 179 
 PAM  EZ IP       1145 57.23                             148    0.1210 80.8  42 
 PAM  EZ I        1145 57.43        13.6 0.22            152           80.8  42 
 PAM  EE ES       1146 13.78                             148   -0.1610 80.8  42 
 RUS  HZ EP       1145 58.48                             142   -0.0110  100 173 
 RUS  HN ES       1146 16.29                             142   -0.1010  100 173 
 RUS  HZ I        1146 18.24         5.5 0.30            143            100 173 
 PTB  HZ EP       1146  1.43                             131   -0.00 9  143 259 
 PTB  HN ES       1146 21.57                             131   -0.06 9  143 259 
 PTB  HZ I        1146 26.39         4.0 0.14            131            143 259 
                                                                                
