 2011  328 1707 43.8 L   6.547 -73.534113.0  RSN  8 0.4 2.0LRSN                1
 GAP=151        0.81       5.8     6.2  7.7 -0.1654E+02  0.6601E+01  0.1388E+01E
 Epicentro: EL CARMEN DE CHUCURI - SANTANDER                                   3
 ACTION:UP  11-06-16 14:36 OP:jfem STATUS:               ID:20110328170743 L   I
 2011-03-28-1706-45S.COL___138                                                 6
 STAT SP IPHASW D HRMM SECON CODA AMPLIT PERI AZIMU VELO SNR AR TRES W  DIS CAZ7
 BAR2 SZ IP       17 8  0.26                             160     0.210   39  83 
 BAR2 SZ ES   1   17 8 12.29                             160    -0.4 7   39  83 
 BAR2 SZ I        17 8 14.01       174.5 0.41                            39  83 
 BTL  SZ IP       17 8  0.72                             154     0.210   51  36 
 BRR  HZ EP       17 8  1.00                             148    -0.110   65 342 
 BRR  HN ES   1   17 8 15.01                             148     0.4 7   65 342 
 BRR  HZ I        17 8 20.82        37.4 0.12                            65 342 
 GIR2 SZ EP       17 8  1.73                             146     0.110   70  33 
 PAM  SZ EP   1   17 8  7.13                             128     0.3 7  127  46 
 PAM  SN ES   2   17 8 24.12                             128    -0.8 5  127  46 
 PAM  SZ I        17 8 29.05         2.7 0.27                           127  46 
 GRA  SZ EP   1   17 8 10.30                             119    -0.3 7  168  29 
 GRA  SZ ES   2   17 8 31.53                             119     0.0 5  168  29 
 GRA  SZ I        17 8 41.92         6.9 0.20                           168  29 
 NOR  SZ EP   1   17 8 12.18                             117     0.1 7  184 234 
 NOR  SN ES   2   17 8 33.34                             117    -0.9 4  184 234 
 OCA  SZ ES   2   17 8 34.64                             116    -0.8 4  189   7 
 OCA  SZ I        17 8 44.64        12.8 0.20                           189   7 
                                                                                
