 2010  128 1842 38.5 L   6.801 -73.074136.8  RSN  5 0.1 1.8LRSN                1
 GAP=204        0.33       3.2    11.6  4.1 -0.1486E+02  0.1133E+02  0.1872E+00E
 Epicentro: LOS SANTOS - SANTANDER                                             3
 ACTION:UP  10-08-24 09:46 OP:vdl  STATUS:               ID:20100128184238 L   I
 2010-01-28-1840-56S.COL___094                                                 6
 STAT SP IPHASW D HRMM SECON CODA AMPLIT PERI AZIMU VELO SNR AR TRES W  DIS CAZ7
 BAR2 SZ IP       1842 57.15                             169     0.010   26 208 
 BAR2 SZ ES   1   1843 11.57                             169    -0.1 7   26 208 
 GIR2 SZ EP   2   1842 57.21                             166     0.0 5   33 337 
 RUS  BZ EP   1   1843  1.23                             142    -0.1 7  100 181 
 RUS  BN ES   1   1843 19.31                             142     0.1 7  100 181 
 RUS  BZ I        1843 21.53        10.5 0.42                           100 181 
 CHI  HE ES   1   1843 45.12                             115    -0.1 6  251 197 
 CHI  HZ I        1843 58.47         3.6 0.64                           251 197 
 PRA  HZ EP   2   1843 32.47                             105     0.3 3  396 211 
                                                                                
