 2010 1228 1416 13.7 L   6.768 -73.108148.6  RSN  4 0.3 1.7LRSN                1
 GAP=163        0.56       5.3     8.9  8.2 -0.2838E+02  0.2998E+02 -0.1139E+02E
 Epicentro: LOS SANTOS - SANTANDER                                             3
 ACTION:UP  11-01-14 15:27 OP:pat  STATUS:               ID:20101228141613 L   I
 2010-12-28-1400-00M.COL___136                                                 6
 STAT SP IPHASW D HRMM SECON CODA AMPLIT PERI AZIMU VELO SNR AR TRES W  DIS CAZ7
 BAR2 SZ EP   1   1416 33.48                             172    -0.2 7   21 203 
 BAR2 SZ ES   2   1416 48.74                             172    -0.5 5   21 203 
 BAR2 SZ I        1416 51.41        20.9 0.33                            21 203 
 RUS  HZ EP   1   1416 37.44                             145    -0.1 7   97 178 
 RUS  HE ES   2   1416 56.52                             145     0.5 5   97 178 
 RUS  HZ I        1416 58.89         4.8 0.19                            97 178 
 GRA  SZ EP   1   1416 39.29                             137    -0.1 7  128  15 
 GRA  SZ ES   2   1416 59.98                             137     0.5 5  128  15 
 GRA  SZ I        1417  4.25         6.1 0.38                           128  15 
 NOR  SZ EP   1   1416 49.94                             119     0.2 6  236 236 
 NOR  SN ES   2   1417 17.96                             119     0.1 4  236 236 
                                                                                
