 2016  228 1452 30.2 L   6.799 -73.119145.3  RSN 14 0.4 2.6LRSN                1
 GAP=140        0.94       2.9     3.9  5.5 -0.1884E+01  0.7124E+01  0.5872E+00E
 Epicentro: LOS SANTOS - SANTANDER                                             3
 ACTION:UPD 16-03-04 21:30 OP:rebc STATUS:               ID:20160228145230 L   I
 OLDACT:UP  16-02-29 00:25 OP:mh   STATUS:               ID:20160228144750     3
 OLDACT:UP  16-02-29 00:24 OP:mh   STATUS:               ID:20160228144750     3
 OLDACT:REG 16-02-28 21:22 OP:mh   STATUS:               ID:20160228144750     3
 2016-02-28-1447-50M.COL___322                                                 6
 STAT SP IPHASW D HRMM SECON CODA AMPLIT PERI AZIMU VELO AIN AR TRES W  DIS CAZ7
 BAR2 EZ EP       1452 49.91                             170    0.0910 23.9 197 
 BAR2 EZ ES       1453  4.94                             170   -0.1610 23.9 197 
 BAR2 EZ I        1453  7.70        56.9 0.24            167           23.9 197 
 PAM  EZ IP     C 1452 52.86                             151    0.5610 75.6  38 
 PAM  EN ES   1   1453  9.84                             151    0.33 7 75.6  38 
 PAM  EZ I        1453 11.81        74.8 0.56            156           75.6  38 
 RUS  HZ EP       1452 53.70                             144   -0.2210  100 178 
 RUS  HN ES       1453 12.55                             144    0.1610  100 178 
 RUS  HZ I        1453 13.54        20.5 0.36            146            100 178 
 PTB  HZ EP   1   1452 56.62                             131   -0.81 7  151 259 
 PTB  HN ES       1453 18.26                             131   -0.38 9  151 259 
 PTB  HZ I        1453 24.80        74.1 0.44            130            151 259 
 OCA  HZ EP   1   1452 57.96                             129   -0.60 7  161 352 
 OCA  HN ES       1453 20.35                             129   -0.30 9  161 352 
 OCA  HZ I        1453 23.87        73.1 0.18            131            161 352 
 SPBC HZ EP   1   1452 58.80                             129   -0.07 7  165 220 
 SPBC HN ES       1453 21.16                             129   -0.04 9  165 220 
 SPBC HZ I        1453 24.76        56.7 0.16            129            165 220 
 ZAR  HZ EP       1453  2.35                             122   -0.59 8  207 292 
 ZAR  HN ES       1453 29.34                             122    0.89 8  207 292 
 ZAR  HZ I        1453 34.33        59.7 0.30            122            207 292 
 NOR  HZ EP   1   1453  5.68                             118   -0.51 6  237 235 
 NOR  HN ES     C 1453 34.15                             118   -0.09 8  237 235 
 NOR  HZ I        1453 38.45        25.6 0.26            119            237 235 
 CHI  HZ EP       1453  8.01                             117    0.02 8  249 196 
 CHI  HN ES       1453 37.19                             117   -0.24 8  249 196 
 CHI  HZ I        1453 45.27        18.8 0.34            119            249 196 
 ROSC BZ EP   1   1453  9.13                             116    0.64 6  254 212 
 ROSC BN ES   4   1453 40.12                             116    1.80 0  254 212 
 URE  HZ EP   4   1453  9.74                             113   -1.86 0  287 292 
 URE  HN ES   4   1453 42.37                             113   -1.49 0  287 292 
 URE  HZ I        1453 53.87        31.3 0.26            114            287 292 
 GUY2CHZ EP       1453 14.53                             112    0.44 7  304 235 
 GUY2CHN ES   4   1453 50.42                             112    2.12 0  304 235 
 GUY2CHZ I        1453 54.65        19.4 0.34                           304 235 
 ELA  HZ EP   4   1453 18.94                             110    1.62 0  331 230 
 ELA  HN ES   1   1453 54.68                             110    0.64 5  331 230 
 ELA  HZ I        1454  2.08        16.5 0.50            111            331 230 
 CBOC HZ EP       1453 18.13                             110    0.67 7  336 252 
 CBOC HN ES   1   1453 54.17                             110   -0.11 5  336 252 
 CBOC HZ I        1453 59.39         6.0 0.19            110            336 252 
                                                                                
