 2016  928 1636 32.7 L   6.819 -73.154141.7  RSN  8 0.2 1.6LRSN                1
 GAP=135        0.96       4.7     5.1  7.5 -0.2426E+01  0.4081E+01 -0.9393E+00E
 Epicentro: LOS SANTOS - SANTANDER                                             3
 ACTION:UPD 17-08-17 21:17 OP:lp   STATUS:               ID:20160928163632 L   I
 OLDACT:UP  16-09-29 00:30 OP:edw  STATUS:               ID:20160928162734d    3
 OLDACT:UP  16-09-29 00:29 OP:edw  STATUS:               ID:20160928162734d    3
 OLDACT:UP  16-09-29 00:29 OP:edw  STATUS:               ID:20160928162734d    3
 OLDACT:UP  16-09-29 00:28 OP:edw  STATUS:               ID:20160928162734d    3
 OLDACT:UP  16-09-29 00:27 OP:edw  STATUS:               ID:20160928162734d    3
 OLDACT:DUP 16-09-29 00:21 OP:edw  STATUS:               ID:20160928162734d    3
 OLDACT:UP  16-09-29 00:20 OP:edw  STATUS:               ID:20160928162733     3
 OLDACT:UP  16-09-29 00:14 OP:edw  STATUS:               ID:20160928162733     3
 OLDACT:REG 16-09-28 21:20 OP:edw  STATUS:               ID:20160928162733     3
 2016-09-28-1628-00M.COL___378                                                 6
 STAT SP IPHASW D HRMM SECON CODA AMPLIT PERI AZIMU VELO AIN AR TRES W  DIS CAZ7
 BAR2 EZ EP       1636 51.82                             170   -0.0510 25.2 187 
 BAR2 EZ ES       1637  6.76                             170   -0.0710 25.2 187 
 BAR2 EZ I        1637  8.07        12.2 0.42            171           25.2 187 
 PAM  EZ IP     C 1636 54.62                             151    0.2110 76.4  41 
 PAM  EE ES       1637 11.43                             151    0.0710 76.4  41 
 PAM  EZ I        1637 13.52        10.7 0.50            152           76.4  41 
 RUS  HZ EP       1636 56.28                             143    0.0810  103 176 
 RUS  HN ES       1637 14.53                             143   -0.0010  103 176 
 RUS  HZ I        1637 15.99         3.6 0.38            146            103 176 
 PTB  HZ EP   9   1636 58.97                             132   -0.31 0  147 258 
 PTB  HE ES       1637 20.89                             127    1.18 9  147 258 
 PTB  HZ I        1637 22.39         5.1 0.13            131            147 258 
 SPBC HZ EP   4   1637  6.52                             129    5.55 0  164 218 
 SPBC HE ES   2   1637 23.25                             129    0.22 5  164 218 
 ZAR  HZ EP   4   1636 58.94                             122   -5.76 0  202 292 
 ZAR  HN ES       1637 29.48                             122   -0.18 9  202 292 
 ZAR  HZ I        1637 35.97         4.5 0.10            122            202 292 
 NOR  HE ES   2   1637 35.39                             118   -0.56 4  235 234 
 CHI  HN ES   2   1637 39.26                             117   -0.47 4  250 195 
 GUY2CHZ EP   4   1637 21.98                             112    5.82 0  302 234 
 GUY2CHN ES   4   1637 54.91                             112    4.85 0  302 234 
                                                                                
