 2013  928 1837 55.7 L   6.761 -73.146141.7  RSN  5 0.3 1.5LRSN                1
 GAP=138        0.80       4.1     4.8  6.0  0.3239E+01  0.4700E+01 -0.8457E+00E
 Epicentro: LOS SANTOS - SANTANDER                                             3
 ACTION:UPD 13-10-22 09:25 OP:ep   STATUS:               ID:20130928183755 L   I
 OLDACT:REG 13-09-28 16:04 OP:jn   STATUS:               ID:20130928182960d    3
 2013-09-28-1829-59M.COL___272                                                 6
 STAT SP IPHASW D HRMM SECON CODA AMPLIT PERI AZIMU VELO AIN AR TRES W  DIS CAZ7
 BAR2 SZ EP       1838 14.91                             172    0.1810 19.1 192 
 BAR2 SZ ES       1838 29.67                             172    0.0710 19.1 192 
 BAR2 SZ I        1838 32.52         8.3 0.26            174           19.1 192 
 BRR  HZ EP       1838 16.42                             151   -0.0910 73.4 301 
 BRR  HN ES       1838 33.28                             151    0.5210 73.4 301 
 BRR  HZ I        1838 38.13         9.0 0.30            153           73.4 301 
 PAM  SZ EP       1838 17.61                             149   -0.0510 80.7  38 
 PAM  SN ES       1838 34.60                             149   -0.2110 80.7  38 
 PAM  SZ I        1838 38.07         4.6 0.46            152           80.7  38 
 RUS  HZ EP       1838 18.81                             144    0.0910 96.3 176 
 RUS  HN ES       1838 36.43                             144   -0.2610 96.3 176 
 RUS  HZ I        1838 38.82         3.8 0.20            149           96.3 176 
 ZAR  HZ EP   1   1838 28.37                             121    0.34 6  206 293 
 ZAR  HN ES   1   1838 52.32                             121   -0.95 6  206 293 
                                                                                
