 2015 1028 1051 11.2 L   6.780 -73.123144.6  RSN 13 0.4 2.0LRSN                1
 GAP=140        0.81       3.2     3.7  5.0 -0.1025E+01  0.7611E+01  0.1093E+01E
 Epicentro: LOS SANTOS - SANTANDER                                             3
 ACTION:UPD 15-12-22 20:43 OP:cam  STATUS:               ID:20151028105111 L   I
 OLDACT:UP  15-10-28 22:21 OP:ar   STATUS:               ID:20151028104745     3
 OLDACT:REG 15-10-28 21:11 OP:ar   STATUS:               ID:20151028104745     3
 2015-10-28-1047-45M.COL___319                                                 6
 STAT SP IPHASW D HRMM SECON CODA AMPLIT PERI AZIMU VELO AIN AR TRES W  DIS CAZ7
 BAR2 EZ EP     C 1051 30.41                             171   -0.2010 21.8 198 
 BAR2 EZ ES       1051 45.21                             171   -0.5910 21.8 198 
 BAR2 EZ I        1051 46.40        29.7 0.22            168           21.8 198 
 BRR  HZ EP     C 1051 32.37                             151    0.0010 74.5 299 
 BRR  HN ES       1051 49.37                             151    0.4610 74.5 299 
 BRR  HZ I        1051 50.32        22.6 0.20            148           74.5 299 
 PAM  EZ EP       1051 33.42                             151    0.1610 77.6  37 
 PAM  EN ES       1051 50.40                             151   -0.1010 77.6  37 
 PAM  EZ I        1051 52.69        15.9 0.54            154           77.6  37 
 RUS  HZ EP       1051 34.82                             144    0.2010 98.2 177 
 RUS  HE ES       1051 53.13                             144    0.2010 98.2 177 
 RUS  HZ I        1051 53.75        12.7 0.22            145           98.2 177 
 OCA  HN ES   4   1052  0.51                             129   -1.30 0  163 352 
 SPBC HZ EP   2   1051 39.38                             129   -0.17 5  163 220 
 SPBC HN ES   2   1052  1.35                             129   -0.35 5  163 220 
 ZAR  HZ EP       1051 44.31                             122    0.46 8  207 292 
 ZAR  HE ES       1052  9.51                             122    0.16 8  207 292 
 ZAR  HZ I        1052 14.85        16.6 0.38            121            207 292 
 NOR  HZ EP       1051 47.02                             118    0.12 8  235 235 
 NOR  HE ES       1052 14.52                             118   -0.26 8  235 235 
 NOR  HZ I        1052 18.67        13.2 0.18            118            235 235 
 CHI  HZ EP   2   1051 48.38                             117   -0.25 4  247 196 
 CHI  HN ES   2   1052 18.77                             117    0.91 4  247 196 
 CHI  HZ I        1052 20.85         2.6 0.28            118            247 196 
 HEL  HN ES   4   1052 22.44                             114   -0.56 0  274 256 
 HEL  HZ I        1052 30.15         7.0 0.28            114            274 256 
 URE  HZ EP       1051 51.53                             113   -0.99 7  287 292 
 URE  HN ES   4   1052 22.68                             113   -2.11 0  287 292 
 URE  HZ I        1052 34.65         6.1 0.12            113            287 292 
 GUY2CHZ EP   4   1051 57.19                             112    2.40 0  302 235 
 GUY2CHN ES       1052 28.97                             112    0.13 7  302 235 
 GUY2CHZ I        1052 36.99         9.8 0.36                           302 235 
 MON  HN ES   4   1052 36.71                             108   -2.27 0  357 308 
 MON  HZ I        1052 37.59         2.2 0.22            108            357 308 
 PAL  HZ EP   2   1052  6.21                             106   -0.18 3  407 240 
 PAL  HN ES   4   1052 51.00                             106    1.52 0  407 240 
 PAL  HZ I        1052 53.41         2.4 0.22            106            407 240 
 LCBC HZ EP   4   1052  6.54                             105   -1.93 0  425 303 
 LCBC HN ES   4   1052 48.89                             105   -4.29 0  425 303 
                                                                                
