 2016  428 1048 44.6 L   6.799 -73.189140.5  RSN  6 0.3 1.6LRSN                1
 GAP=131        0.89       3.9     3.9  6.5 -0.1924E+01  0.9552E+01 -0.2906E+01E
 Epicentro: ZAPATOCA - SANTANDER                                               3
 ACTION:UPD 16-05-05 14:24 OP:rebc STATUS:               ID:20160428104844 L   I
 OLDACT:REG 16-04-28 21:39 OP:cara STATUS:               ID:20160428104748     3
 2016-04-28-1047-48M.COL___313                                                 6
 STAT SP IPHASW D HRMM SECON CODA AMPLIT PERI AZIMU VELO AIN AR TRES W  DIS CAZ7
 BAR2 EZ EP       1049  3.78                             170    0.2210 22.8 178 
 BAR2 EZ ES       1049 18.47                             170    0.1010 22.8 178 
 BAR2 EZ I        1049 19.48        12.8 0.28            172           22.8 178 
 PAM  EZ EP       1049  6.11                             149   -0.3210 80.6  42 
 PAM  EN ES       1049 23.42                             149   -0.0610 80.6  42 
 PAM  EZ I        1049 25.85         8.0 0.64            152           80.6  42 
 RUS  HZ EP       1049  8.27                             143    0.4410  101 173 
 RUS  HN ES       1049 25.87                             143   -0.1010  101 173 
 RUS  HZ I        1049 27.24         2.8 0.18            147            101 173 
 PTB  HZ EP       1049  9.82                             132   -0.86 9  143 259 
 PTB  HN ES       1049 30.88                             132   -0.16 9  143 259 
 PTB  HZ I        1049 34.64         4.0 0.46            132            143 259 
 SPBC HZ EP       1049 12.46                             128    0.09 9  160 218 
 SPBC HN ES       1049 34.03                             128   -0.03 9  160 218 
 SPBC HZ I        1049 36.49         6.3 0.24            130            160 218 
 ZAR  HZ EP       1049 16.66                             122    0.44 9  200 293 
 ZAR  HN ES       1049 41.24                             122    0.33 9  200 293 
 ZAR  HZ I        1049 47.31         4.2 0.12            123            200 293 
                                                                                
