 2012 1228 1226  3.8 L   6.749 -73.165146.4  RSN  5 0.2 1.7LRSN                1
 GAP=231        0.47       4.3     3.6  4.1  0.6194E+01  0.1684E+01 -0.2840E+01E
 Epicentro: VILLANUEVA - SANTANDER                                             3
 ACTION:UPD 13-01-04 14:31 OP:ep   STATUS:               ID:20121228122603 L   I
 2012-12-28-1220-00M.COL___243                                                 6
 STAT SP IPHASW D HRMM SECON CODA AMPLIT PERI AZIMU VELO AIN AR TRES W  DIS CAZ7
 BAR2 SZ EP       1226 23.48                             173    0.0410 17.4 186 
 BAR2 SZ I        1226 23.78        18.3 0.15                          17.4 186 
 BAR2 SZ ES       1226 38.56                             173   -0.1710 17.4 186 
 BRR  HZ EP       1226 25.21                             152    0.0910 72.2 303 
 BRR  HZ I        1226 28.31        16.0 0.45                          72.2 303 
 BRR  HN ES   1   1226 41.76                             152    0.05 7 72.2 303 
 RUS  HZ EP   1   1226 27.27                             145    0.00 7 95.1 175 
 RUS  HN ES   1   1226 45.76                             145    0.22 7 95.1 175 
 RUS  HN I        1226 46.51         3.8 0.29                          95.1 175 
 PTB  HZ EP   1   1226 30.08                             133   -0.50 7  145 261 
 PTB  HN ES       1226 51.49                             133    0.06 9  145 261 
 PTB  HZ I        1226 56.76         4.0 0.11                           145 261 
 ZAR  HZ EP   1   1226 36.58                             122    0.23 6  204 294 
 ZAR  HZ I        1227  7.94         4.7 0.31                           204 294 
                                                                                
