 2017  428 1301 18.4 L   6.762 -73.243152.3  RSN  5 0.4 1.7LRSN                1
 GAP=223        0.88       4.9     6.4  6.9  0.1916E+02  0.2299E+01  0.3704E+01E
 Epicentro: ZAPATOCA - SANTANDER                                               3
 ACTION:UPD 17-05-30 21:16 OP:jn   STATUS:               ID:20170428130118 L   I
 OLDACT:UP  17-04-28 22:48 OP:dani STATUS:               ID:20170428124010     3
 OLDACT:REG 17-04-28 20:17 OP:dani STATUS:               ID:20170428124010     3
 2017-04-28-1258-00M.COL___374                                                 6
 STAT SP IPHASW D HRMM SECON CODA AMPLIT PERI AZIMU VELO AIN AR TRES W  DIS CAZ7
 BRR  HZ EP       13 1 39.92                             156    0.0710 64.3 306 
 BRR  HN ES       13 1 56.75                             156    0.1310 64.3 306 
 BRR  HZ I        13 1 57.53        13.2 0.50            151           64.3 306 
 RUS  HZ EP       13 1 42.73                             146    0.1810 97.8 170 
 RUS  HN ES       13 2  1.18                             146   -0.2510 97.8 170 
 RUS  HZ I        13 2  1.81         8.4 0.33            145           97.8 170 
 PTB  HZ EP       13 1 44.83                             136   -0.04 9  136 260 
 PTB  HN ES       13 2  5.47                             136   -0.08 9  136 260 
 PTB  HZ I        13 2  8.18         4.3 0.53            132            136 260 
 ZAR  HZ EP       13 1 50.86                             125    0.46 9  196 294 
 ZAR  HN ES       13 2 15.09                             125   -0.31 9  196 294 
 ZAR  HZ I        13 2 24.81         4.6 0.22            123            196 294 
 CHI  HZ EP       13 1 54.87                             119   -0.83 8  242 193 
 CHI  HN ES       13 2 25.47                             119    0.63 8  242 193 
 CHI  HZ I        13 2 28.81         2.3 0.20            118            242 193 
                                                                                
