 2016  928 1912 31.4 L   6.800 -73.144151.2  RSN 11 0.5 1.9LRSN                1
 GAP=137        1.15       4.1     5.3  6.2 -0.2355E+00  0.5572E+01  0.1520E+01E
 Epicentro: LOS SANTOS - SANTANDER                                             3
 ACTION:UPD 17-08-17 21:17 OP:lp   STATUS:               ID:20160928191231 L   I
 OLDACT:UP  16-09-29 01:29 OP:edw  STATUS:               ID:20160928190746d    3
 OLDACT:UP  16-09-29 01:29 OP:edw  STATUS:               ID:20160928190746d    3
 OLDACT:DUP 16-09-29 01:24 OP:edw  STATUS:               ID:20160928190746d    3
 OLDACT:UP  16-09-29 01:23 OP:edw  STATUS:               ID:20160928190745     3
 OLDACT:UP  16-09-29 01:22 OP:edw  STATUS:               ID:20160928190745     3
 OLDACT:UP  16-09-29 01:20 OP:edw  STATUS:               ID:20160928190745     3
 OLDACT:REG 16-09-28 21:36 OP:edw  STATUS:               ID:20160928190745     3
 2016-09-28-1908-00M.COL___368                                                 6
 STAT SP IPHASW D HRMM SECON CODA AMPLIT PERI AZIMU VELO AIN AR TRES W  DIS CAZ7
 BAR2 EZ EP       1912 51.47                             171   -0.1910 23.4 190 
 BAR2 EZ ES       1913  7.25                             171   -0.2310 23.4 190 
 BAR2 EZ I        1913  7.69        19.9 0.22            168           23.4 190 
 BRR  HZ EP       1912 53.56                             153    0.4410 71.3 298 
 BRR  HN ES       1913 10.76                             153    0.6810 71.3 298 
 PAM  EZ IP     C 1912 54.56                             151    0.4010 77.3  39 
 PAM  HN ES       1913 11.78                             151   -0.1610 77.3  39 
 PAM  EZ I        1913 14.21        15.2 0.64            155           77.3  39 
 RUS  HZ EP       1912 55.40                             145   -0.2610  101 176 
 RUS  HN ES       1913 14.07                             145   -0.5410  101 176 
 RUS  HZ I        1913 15.43         7.7 0.24            144            101 176 
 PTB  HZ EP   9   1912 58.69                             133   -0.11 0  148 259 
 PTB  HN ES       1913 19.65                                   -0.44 9  148 259 
 PTB  HZ I        1913 22.84         8.7 0.12            131            148 259 
 SPBC HZ EP   4   1912 52.69                             130   -7.62 0  163 219 
 SPBC HN ES       1913 22.76                             130   -0.11 9  163 219 
 SPBC HZ I        1913 26.88        11.1 0.20            129            163 219 
 ZAR  HZ EP       1913  4.67                             123    0.48 9  204 292 
 ZAR  HN ES       1913 28.94                             123   -0.85 9  204 292 
 ZAR  HZ I        1913 35.40        14.3 0.32            122            204 292 
 NOR  HZ EP       1913  7.65                             119    0.21 8  235 234 
 NOR  HN ES   4   1913 33.74                             119   -1.83 0  235 234 
 NOR  HZ I        1913 42.72         6.3 0.48            119            235 234 
 CHI  HZ EP       1913  9.26                             118   -0.13 8  249 195 
 CHI  HN ES       1913 39.82                             118    0.79 8  249 195 
 CHI  HZ I        1913 43.75         2.9 0.36            118            249 195 
 GUY2CHZ EP   4   1913 17.31                             113    2.06 0  301 235 
 GUY2CHN ES   4   1913 53.88                             113    4.40 0  301 235 
 GUY2CHZ I        1913 57.56         4.4 0.26                           301 235 
 SJC  HZ EP       1913 26.14                             106   -0.99 6  409 327 
 SJC  HN ES   4   1914  7.19                             106   -3.42 0  409 327 
                                                                                
