 2017  628 2156 18.4 L   6.828 -73.119145.2  RSN 10 0.6 2.2LRSN                1
 GAP=217        1.23       5.0     5.8  7.6  0.8641E+01  0.7488E+01  0.7190E+01E
 Epicentro: LOS SANTOS - SANTANDER                                             3
 ACTION:UPD 17-09-14 16:56 OP:jn   STATUS:               ID:20170628215618 L   I
 OLDACT:UP  17-06-29 04:21 OP:dnl  STATUS:               ID:20170628214744     3
 OLDACT:REG 17-06-29 03:47 OP:dnl  STATUS:               ID:20170628214744     3
 2017-06-28-2148-00M.COL___367                                                 6
 STAT SP IPHASW D HRMM SECON CODA AMPLIT PERI AZIMU VELO AIN AR TRES W  DIS CAZ7
 BAR2 EZ EP   2   2156 37.62                             169   -0.45 5 27.0 195 
 BAR2 EZ ES       2156 53.05                             169   -0.3410 27.0 195 
 BAR2 EZ I        2156 54.78        29.2 0.68            166           27.0 195 
 BRR  HZ EP       2156 39.64                             152    0.0510 72.5 295 
 BRR  HE ES       2156 56.91                             152    0.8210 72.5 295 
 BRR  HZ I        2156 59.93        19.6 0.14            153           72.5 295 
 PTB  HZ EP       2156 44.67                             131   -1.00 9  151 258 
 PTB  HE ES       2157  6.74                             131   -0.18 9  151 258 
 PTB  HZ I        2157  8.10        14.5 0.42            131            151 258 
 SPBC HZ EP       2156 47.10                             128   -0.19 9  167 219 
 SPBC HE ES       2157  9.62                             128   -0.18 9  167 219 
 SPBC HZ I        2157 12.35        30.6 0.10            128            167 219 
 YPLC HE ES       2157 12.11                             126    0.49 9  178 153 
 YPLC HZ I        2157 14.89        12.3 0.34            127            178 153 
 ZAR  HZ EP       2156 51.99                             122    0.99 8  206 291 
 ZAR  HN ES       2157 15.74                             122   -0.67 8  206 291 
 ZAR  HZ I        2157 21.34        24.1 0.32            123            206 291 
 NOR  HZ EP       2156 54.19                             118   -0.38 8  239 234 
 NOR  HE ES       2157 23.17                             118    0.40 8  239 234 
 NOR  HZ I        2157 27.14        14.2 0.22            118            239 234 
 CHI  HZ EP       2156 56.33                             117   -0.17 8  252 196 
 CHI  HN ES       2157 25.95                             117   -0.25 8  252 196 
 CHI  HZ I        2157 32.73         5.2 0.42            117            252 196 
 ROSC BZ EP   9   2156 58.88                             116    1.91 0  257 211 
 ROSC BE ES       2157 28.80                             116   -0.14 8  257 211 
 ROSC BZ I        2157 32.16        14.7 0.55            117            257 211 
 GUY2CHZ EP   2   2157  3.43                             112    0.95 4  305 235 
 GUY2CHN ES       2157 37.64                             112    0.79 7  305 235 
 GUY2CHZ I        2157 44.43         6.4 0.26                           305 235 
                                                                                
