 2012  228 2211 32.6 L   6.809 -73.074151.7  RSN  9 0.4 1.9LRSN                1
 GAP=145        0.55       4.3     4.4  7.8 -0.1488E+01  0.4246E+01  0.1638E+02E
 ACTION:UP  12-03-07 16:35 OP:epov STATUS:               ID:20120228221132 L   I
 2012-02-28-2210-00M.COL___191                                                 6
 STAT SP IPHASW D HRMM SECON CODA AMPLIT PERI AZIMU VELO AIN AR TRES W  DIS CAZ7
 PAM  SZ EP   2   2211 55.10                             154    0.00 5 71.8  35 
 PAM  SN ES   2   2212 12.48                             154   -0.20 5 71.8  35 
 BRR  HZ EP   2   2211 55.53                             151    0.80 5 77.8 295 
 BRR  HN ES   2   2212 12.60                             151    0.58 5 77.8 295 
 BRR  HZ I        2212 18.20        24.1 0.53                          77.8 295 
 RUS  HZ EP   2   2211 56.64                             145   -0.31 5  101 181 
 PTB  HZ EP   2   2212  0.00                             132   -0.74 5  156 259 
 PTB  HE ES   2   2212 21.99                             132   -0.72 5  156 259 
 ZAR  HZ EP   2   2212  6.11                             123   -0.01 4  211 291 
 ZAR  HE ES   2   2212 31.97                             123   -0.32 4  211 291 
 ZAR  HZ I        2212 36.41         8.9 0.24                           211 291 
 NOR  SZ EP   2   2212  9.26                             119   -0.13 4  242 235 
 NOR  SE ES   2   2212 37.95                             119   -0.17 4  242 235 
 CHI  HZ EP   1   2212 10.90                             118   -0.03 6  252 197 
 CHI  HN ES   1   2212 40.95                             118    0.09 6  252 197 
 CHI  HZ I        2212 46.02         2.9 0.36                           252 197 
 HEL  HZ EP   2   2212 13.99                             115    0.03 4  280 256 
 HEL  HN ES   2   2212 46.68                             115    0.44 4  280 256 
 RREF HZ EP   2   2212 20.35                             111    0.63 3  328 230 
 RREF HN ES   2   2212 56.90                             111    0.39 3  328 230 
 RREF HZ I        2213  4.61         3.5 0.25                           328 230 
                                                                                
