 2017  328 2345 13.3 L   6.848 -73.133152.0  RSN  6 0.4 1.6LRSN                1
 GAP=136        0.79       3.6     3.6  6.2 -0.7306E+00  0.3283E+01  0.3721E+01E
 Epicentro: LOS SANTOS - SANTANDER                                             3
 ACTION:UPD 17-05-25 18:46 OP:jn   STATUS:               ID:20170328234513 L   I
 OLDACT:UP  17-03-29 06:21 OP:dani STATUS:               ID:20170328233744     3
 OLDACT:REG 17-03-29 03:31 OP:dani STATUS:               ID:20170328233744     3
 2017-03-28-2338-00M.COL___365                                                 6
 STAT SP IPHASW D HRMM SECON CODA AMPLIT PERI AZIMU VELO AIN AR TRES W  DIS CAZ7
 BRR  HZ EP       2345 35.33                             154    0.2210 70.1 294 
 BRR  HN ES       2345 52.44                             154    0.3510 70.1 294 
 BRR  HZ I        2345 53.01         5.5 0.26            153           70.1 294 
 PAM  EZ EP       2345 36.12                             154    0.1810 72.4  41 
 PAM  EE ES       2345 53.25                             154   -0.3210 72.4  41 
 PAM  EZ I        2345 55.86         4.0 0.44            156           72.4  41 
 RUS  HZ EP       2345 38.06                             144   -0.0210  106 177 
 RUS  HN ES       2345 57.47                             144    0.0910  106 177 
 RUS  HZ I        2345 58.38         3.9 0.40            145            106 177 
 PTB  HZ EP       2345 40.47                             133   -0.58 9  150 257 
 PTB  HN ES       2346  2.22                             133   -0.44 9  150 257 
 PTB  HZ I        2346  3.86         5.5 0.50            133            150 257 
 SPBC HZ EP       2345 42.77                             130   -0.03 9  168 218 
 SPBC HE ES       2346  6.03                             130    0.26 9  168 218 
 SPBC HZ I        2346 10.21         5.6 0.17            130            168 218 
 ZAR  HZ EP   3   2345 47.90                             124    1.76 2  203 291 
 ZAR  HN ES       2346 11.88                             124    0.16 9  203 291 
 ZAR  HZ I        2346 17.20         4.3 0.29            124            203 291 
                                                                                
