 2010  828 2147 22.4 L   6.769 -73.093144.5  RSN 10 0.5 2.2LRSN                1
 GAP=165        0.94       3.9     8.5  6.6 -0.1267E+02  0.2492E+01  0.2837E+01E
 Epicentro: LOS SANTOS - SANTANDER                                             3
 ACTION:UP  10-09-07 10:59 OP:vdl  STATUS:               ID:20100828214722 L   I
 2010-08-28-2144-15S.COL___120                                                 6
 STAT SP IPHASW D HRMM SECON CODA AMPLIT PERI AZIMU VELO SNR AR TRES W  DIS CAZ7
 BAR2 SZ EP       2147 41.74                             171    -0.110   22 207 
 BAR2 SZ ES   1   2147 56.53                             171    -0.5 7   22 207 
 BAR2 SZ I        2147 58.03        54.7 0.17                            22 207 
 GIR2 SZ EP   1   2147 42.89                             166     0.8 7   36 342 
 GIR2 SZ ES   2   2147 57.89                             166     0.5 5   36 342 
 BRR  HZ IP     C 2147 43.69                             151    -0.110   78 299 
 BRR  HN ES   1   2148  0.55                             151     0.0 7   78 299 
 BRR  HZ I        2148  3.95        45.0 0.14                            78 299 
 RUS  HZ EP       2147 45.61                             145    -0.210   97 179 
 RUS  HZ I        2147 46.60        14.8 0.13                            97 179 
 RUS  HE ES   1   2148  4.45                             145     0.5 7   97 179 
 GUE  SZ EP   1   2147 46.84                             139    -0.3 7  119   9 
 GRA  SZ EP       2147 47.72                             137     0.010  127  15 
 GRA  SZ ES   1   2148  7.39                             137     0.0 7  127  15 
 GRA  SZ I        2148  8.42        15.0 0.46                           127  15 
 OCA  SZ EP   1   2147 50.73                             129    -0.3 7  164 351 
 OCA  SZ I        2148 17.16        23.9 0.25                           164 351 
 CHI  HZ EP   1   2147 59.90                             117     0.1 6  247 197 
 CHI  HE ES   1   2148 28.68                             117    -0.4 6  247 197 
 CHI  HZ I        2148 35.28         7.2 0.31                           247 197 
 RREF HZ EP   1   2148 10.08                             111     1.3 5  324 231 
 RREF HN ES   2   2148 43.98                             111    -0.9 3  324 231 
 RREF HZ I        2148 50.46        10.6 0.38                           324 231 
 PRA  HZ EP   1   2148 15.43                             107    -0.4 4  392 211 
 PRA  HN ES   1   2148 57.65                             107     0.1 4  392 211 
                                                                                
