 2016  728 2332 57.7 L   6.783 -73.099133.8  RSN 10 0.5 1.9LRSN                1
 GAP=241        1.24       5.1     6.1  6.9  0.4736E+01  0.1069E+02  0.5980E+01E
 Epicentro: LOS SANTOS - SANTANDER                                             3
 ACTION:UPD 17-03-29 16:56 OP:lp   STATUS:               ID:20160728233257 L   I
 OLDACT:REG 16-07-29 02:53 OP:lv   STATUS:               ID:20160728232759     3
 2016-07-28-2327-59S.COL___343                                                 6
 STAT SP IPHASW D HRMM SECON CODA AMPLIT PERI AZIMU VELO AIN AR TRES W  DIS CAZ7
 BAR2 EZ EP       2333 15.98                             170    0.0610 23.0 204 
 BAR2 EZ ES       2333 29.27                             170   -0.8410 23.0 204 
 BAR2 EZ I        2333 31.99        19.7 0.17            165           23.0 204 
 BRR  HZ EP       2333 17.85                             148   -0.0910 76.6 298 
 BRR  HN ES       2333 34.55                             148    0.8510 76.6 298 
 BRR  HZ I        2333 37.73        13.2 0.35            146           76.6 298 
 RUS  HZ EP       2333 19.93                             142   -0.2410 98.5 179 
 RUS  HN ES       2333 38.38                             142    0.7110 98.5 179 
 RUS  HZ I        2333 39.65         6.9 0.30            143           98.5 179 
 PTB  HZ EP   9   2333 22.83                             128   -1.37 0  152 260 
 PTB  HN ES       2333 43.02                                   -0.45 9  152 260 
 PTB  HZ I        2333 51.05         8.5 0.23            127            152 260 
 SPBC HZ EP       2333 24.95                             126   -0.57 9  165 221 
 SPBC HE ES       2333 47.33                             126    0.13 9  165 221 
 SPBC HZ I        2333 50.28        12.2 0.08            126            165 221 
 ZAR  HZ EP       2333 30.16                             119    0.15 8  210 292 
 ZAR  HN ES       2333 55.05                             119   -0.13 8  210 292 
 ZAR  HZ I        2334  0.31         9.4 0.27            119            210 292 
 NOR  HZ EP       2333 32.51                             115   -0.63 8  238 236 
 NOR  HE ES       2333 59.99                             115   -0.76 8  238 236 
 NOR  HZ I        2334  6.45         5.8 0.18            116            238 236 
 GUY2CHZ EP       2333 41.77                             110    0.60 7  304 236 
 GUY2CHN ES       2334 15.36                             110    0.30 7  304 236 
 GUY2CHZ I        2334 21.15         3.7 0.38                           304 236 
 PRA  HZ EP       2333 51.61                             104    0.64 6  393 210 
 PRA  HE ES       2334 32.82                             104    0.32 6  393 210 
 PRA  HZ I        2334 39.27         5.0 0.34            106            393 210 
 SJC  HZ EP   4   2333 50.87                             103   -2.57 0  414 327 
 SJC  HE ES   4   2334 33.02                             103   -3.88 0  414 327 
 SJC  HZ I        2334 35.94         3.8 0.43            105            414 327 
                                                                                
