 2013  528 2226 30.8 L   6.801 -73.154143.5  RSN 17 0.5 3.1LRSN 3.5WRSN        1
 SPEC AVERAGE  MO 14.3 ST  5.5 OM  2.8 f0 2.63 R0.6684 AL 2.10 WI 28.5 MW  3.5 3
 SPEC SD       MO  0.1 ST  6.5 OM  0.4 f00.688 R0.1627 AL      WI      MW  0.1 3
 GAP= 57        1.19       2.9     3.3  5.1  0.1164E+01  0.2257E+01  0.1591E+01E
 Epicentro: LOS SANTOS - SANTANDER                                             3
 SPEC YOP SH Z MO 14.5 ST  2.3 OM  2.7 f0 1.89 R0.8222 AL 2.23 WI 29.5 MW  3.6 3
 SPEC YOP SH Z T222719 K 0.000 GD  229 VS 4.20 DE 3.20 Q0300.0 QA 0.60 VS 4.20 3
 SPEC RUS HH N MO 14.2 ST  4.0 OM  2.6 f0 2.71 R0.5734 AL 2.60 WI 31.9 MW  3.4 3
 SPEC RUS HH N T222711 K 0.000 GD  175 VS 4.20 DE 3.20 Q0300.0 QA 0.60 VS 4.20 3
 SPEC PRA HH N MO 14.4 ST  2.5 OM  2.4 f0 2.01 R0.7731 AL 1.89 WI 30.8 MW  3.6 3
 SPEC PRA HH N T2228 3 K 0.000 GD  417 VS 4.20 DE 3.20 Q0300.0 QA 0.60 VS 4.20 3
 SPEC PTB HH N MO 14.2 ST  5.4 OM  2.5 f0 3.06 R0.5078 AL 2.09 WI 36.0 MW  3.4 3
 SPEC PTB HH N T222716 K 0.000 GD  205 VS 4.20 DE 3.20 Q0300.0 QA 0.60 VS 4.20 3
 SPEC HEL HH N MO 14.2 ST  2.6 OM  2.3 f0 2.43 R0.6395 AL 2.15 WI 45.7 MW  3.4 3
 SPEC HEL HH N T222739 K 0.000 GD  306 VS 4.20 DE 3.20 Q0300.0 QA 0.60 VS 4.20 3
 SPEC NOR HH N MO 14.4 ST 24.1 OM  2.6 f0 4.23 R0.3674 AL 2.95 WI 29.2 MW  3.6 3
 SPEC NOR HH N T222733 K 0.000 GD  274 VS 4.20 DE 3.20 Q0300.0 QA 0.60 VS 4.20 3
 SPEC OCA HH Z MO 14.4 ST  1.5 OM  1.9 f0 3.10 R0.9071 AL 1.60 WI 21.1 MW  3.5 3
 SPEC OCA HH Z T222657 K 0.000 GD  214 VP 7.60 DE 3.20 Q0300.0 QA 0.60 VS 4.20 3
 SPEC CHI HH N MO 14.5 ST  4.1 OM  2.6 f0 2.32 R0.6698 AL 2.37 WI 22.9 MW  3.6 3
 SPEC CHI HH N T222736 K 0.000 GD  286 VS 4.20 DE 3.20 Q0300.0 QA 0.60 VS 4.20 3
 SPEC BAR2SH Z MO 14.2 ST0.999 OM  2.6 f0 1.81 R0.8586 AL 1.53 WI 19.7 MW  3.4 3
 SPEC BAR2SH Z T2227 3 K 0.000 GD  145 VS 4.20 DE 3.20 Q0300.0 QA 0.60 VS 4.20 3
 SPEC BRR HH N MO 14.5 ST  7.7 OM  2.9 f0 2.75 R0.5651 AL 1.57 WI 18.4 MW  3.6 3
 SPEC BRR HH N T2227 7 K 0.000 GD  159 VS 4.20 DE 3.20 Q0300.0 QA 0.60 VS 4.20 3
 ACTION:UPD 13-06-20 09:54 OP:ep   STATUS:               ID:20130528222630 L   I
 2013-05-28-2220-00M.COL___261                                                 6
 STAT SP IPHASW D HRMM SECON CODA AMPLIT PERI AZIMU VELO AIN AR TRES W  DIS CAZ7
 BAR2 SZ EP       2226 50.38                             170    0.2010 23.3 188 
 BAR2 SZ ES       2227  5.03                             170   -0.2510 23.3 188 
 BAR2 SZ I        2227  6.03       339.9 0.24            169           23.3 188 
 GIR2 SZ EP       2226 50.47                             167    0.2510 31.0 352 
 GIR2 SZ ES       2227  5.17                             167   -0.1810 31.0 352 
 GIR2 SZ I        2227  7.04       486.4 0.48            168           31.0 352 
 BRR  HZ EP       2226 52.28                             152    0.6010 70.4 299 
 BRR  HE ES       2227  8.96                             152    1.0110 70.4 299 
 BRR  HZ I        2227 12.21       292.5 0.32            151           70.4 299 
 RUS  HZ EP       2226 54.26                             143   -0.1010  101 176 
 RUS  HN ES       2227 12.54                             143   -0.1910  101 176 
 RUS  HZ I        2227 14.41       140.8 0.30            144            101 176 
 PTB  HZ EP       2226 56.98                             132   -0.55 9  147 259 
 PTB  HN ES       2227 17.49                             132   -0.87 9  147 259 
 PTB  HZ I        2227 25.23       205.4 0.32            131            147 259 
 TAM  HZ EP       2226 58.73                             130    0.33 9  156 105 
 TAM  HE ES       2227 19.74                             130   -0.18 9  156 105 
 OCA  HZ EP       2226 58.69                             129   -0.25 9  160 353 
 OCA  HE ES       2227 20.20                             129   -0.67 9  160 353 
 OCA  HZ I        2227 24.53       240.0 0.16            131            160 353 
 YOP  SZ EP       2227  1.13                             126    0.38 9  179 153 
 YOP  SN ES       2227 24.58                             126    0.48 9  179 153 
 YOP  SZ I        2227 27.99       168.8 0.42            128            179 153 
 ZAR  HZ EP       2227  3.53                             122    0.50 9  203 292 
 ZAR  HE ES   1   2227 28.96                             122    0.80 6  203 292 
 ZAR  HZ I        2227 34.47       214.9 0.32            122            203 292 
 NOR  HZ EP       2227  6.46                             118    0.11 8  234 234 
 NOR  HN ES       2227 34.13                             118    0.07 8  234 234 
 NOR  HZ I        2227 36.21        61.5 0.20            119            234 234 
 SML  HZ EP       2227  6.64                             117   -0.63 8  243 335 
 SML  HE ES       2227 35.51                             117   -0.19 8  243 335 
 CHI  HZ EP       2227  8.66                             117    0.28 8  248 195 
 CHI  HE ES       2227 37.06                             117   -0.62 8  248 195 
 CHI  HZ I        2227 42.14        57.5 0.32            118            248 195 
 HEL  HZ EP       2227 11.37                             114    0.54 8  271 256 
 HEL  HN ES       2227 41.61                             114   -0.42 8  271 256 
 HEL  HZ I        2227 49.08        49.5 0.26            115            271 256 
 URE  HZ EP   4   2227 10.97                             113   -0.72 0  283 292 
 URE  HN ES   4   2227 42.03                             113   -1.53 0  283 292 
 GUY2CHZ EP       2227 15.16                             112    0.91 7  301 235 
 VIL  SZ EP   1   2227 13.51                             112   -0.62 5  303 191 
 SDV  BZ EP       2227 20.06                             108   -0.79 6  361  50 
 PRA  HZ EP       2227 24.28                             106    0.06 6  392 209 
 PRA  HN ES   1   2228  4.46                             106   -1.42 4  392 209 
 PRA  HZ I        2228 11.49        53.1 0.24            107            392 209 
                                                                                
