 2010 1028 2212 47.0 L   6.773 -73.129140.0  RSN 12 0.4 2.4LRSN                1
 GAP=158        0.95       4.4     7.0  7.0 -0.1317E+02  0.9043E+01  0.1423E+01E
 Epicentro: LOS SANTOS - SANTANDER                                             3
 ACTION:UP  11-02-18 11:12 OP:tino STATUS:               ID:20101028221247 L   I
 2010-10-28-2209-57S.COL___127                                                 6
 STAT SP IPHASW D HRMM SECON CODA AMPLIT PERI AZIMU VELO SNR AR TRES W  DIS CAZ7
 BAR2 SZ IP       2213  5.78                             171    -0.110   21 197 
 BAR2 SZ ES   1   2213 20.62                             171     0.0 7   21 197 
 BAR2 SZ I        2213 22.43        70.4 0.23                            21 197 
 GIR2 SZ EP   1   2213  5.84                             165    -0.2 7   35 348 
 BRR  HZ EP       2213  7.62                             150    -0.110   74 300 
 BRR  HE ES   1   2213 24.17                             150     0.3 7   74 300 
 BRR  HZ I        2213 28.35        71.3 0.07                            74 300 
 RUS  HZ IP     C 2213  9.69                             143    -0.310   98 177 
 RUS  HN ES   1   2213 28.30                             143     0.4 7   98 177 
 RUS  HZ I        2213 30.07        37.7 0.24                            98 177 
 BRI  SZ EP   2   2213 10.96                             140     0.4 5  111  19 
 GUE  SZ EP   1   2213 10.72                             137    -0.7 7  119  11 
 GUE  SZ I        2213 37.35         7.9 0.06                           119  11 
 GRA  SZ EP       2213 12.48                             135     0.510  128  16 
 GRA  SZ ES   1   2213 31.20                             135    -0.2 7  128  16 
 GRA  SZ I        2213 38.10        21.3 0.23                           128  16 
 NOR  SZ EP   1   2213 21.57                             117    -0.8 6  235 235 
 NOR  SE ES   1   2213 49.59                             117    -0.4 6  235 235 
 ROSC BZ EP   2   2213 25.31                             116     0.7 4  251 212 
 ROSC BZ I        2213 59.08        22.7 0.49                           251 212 
 HEL  HZ EP   1   2213 27.79                             113     0.7 6  273 256 
 TOL  SZ EP   1   2213 35.71                             108     0.8 5  343 225 
 PRA  HZ EP   1   2213 40.15                             106     0.0 4  390 210 
 PRA  HE ES   1   2214 21.53                             106    -0.1 4  390 210 
 PRA  HZ I        2214 26.72        34.4 0.08                           390 210 
                                                                                
