 2017  128 2101 54.4 L   6.804 -73.154140.4  RSN  9 0.3 2.3LRSN                1
 GAP=135        0.74       2.7     3.0  4.2  0.3039E+00  0.4135E+01  0.1715E+01E
 Epicentro: LOS SANTOS - SANTANDER                                             3
 ACTION:UPD 17-05-22 16:04 OP:jn   STATUS:               ID:20170128210154 L   I
 OLDACT:REG 17-01-29 03:25 OP:edw  STATUS:               ID:20170128205748     3
 2017-01-28-2058-00M.COL___351                                                 6
 STAT SP IPHASW D HRMM SECON CODA AMPLIT PERI AZIMU VELO AIN AR TRES W  DIS CAZ7
 BAR2 EZ EP     C 21 2 13.44                             170    0.0210 23.6 188 
 BAR2 EZ ES       21 2 27.85                             170   -0.3810 23.6 188 
 BAR2 EZ I        21 2 29.33        58.0 0.22            169           23.6 188 
 BRR  HZ IP     D 21 2 15.24                             152    0.3010 70.2 299 
 BRR  HN ES       21 2 31.57                             152    0.6310 70.2 299 
 BRR  HZ I        21 2 35.03        50.3 0.30            151           70.2 299 
 PAM  EZ EP     C 21 2 16.13                             150    0.0410 77.7  40 
 PAM  EN ES       21 2 32.76                             150   -0.2310 77.7  40 
 PAM  EZ I        21 2 35.13        53.0 0.44            154           77.7  40 
 RUS  HZ EP       21 2 17.54                             143   -0.1510  101 176 
 RUS  HN ES       21 2 36.06                             143    0.2310  101 176 
 RUS  HZ I        21 2 37.87        16.1 0.30            144            101 176 
 PTB  HZ EP       21 2 20.53                             131   -0.35 9  147 259 
 PTB  HN ES       21 2 41.02                             131   -0.50 9  147 259 
 PTB  HZ I        21 2 42.72        24.0 0.44            131            147 259 
 ZAR  HZ EP       21 2 26.52                             121    0.10 9  203 292 
 ZAR  HN ES       21 2 51.51                             121    0.13 9  203 292 
 ZAR  HZ I        21 2 55.99        23.5 0.32            122            203 292 
 NOR  HZ EP       21 2 29.73                             117   -0.06 8  234 234 
 NOR  HN ES       21 2 57.33                             117   -0.05 8  234 234 
 NOR  HZ I        21 3  3.42        11.5 0.20            118            234 234 
 CHI  HZ EP       21 2 32.13                             116    0.28 8  249 195 
 CHI  HN ES       21 3  1.26                             116    0.22 8  249 195 
 CHI  HZ I        21 3  5.97         4.3 0.32            117            249 195 
 URE  HZ EP       21 2 34.93                             113   -0.20 7  283 292 
 URE  HN ES   4   21 3  4.90                             113   -1.97 0  283 292 
 URE  HZ I        21 3  8.92        18.8 0.14            114            283 292 
                                                                                
