 2012  728 2158 19.4 L   6.740 -73.133143.3  RSN  5 0.3 1.7LRSN                1
 GAP=163        0.84       8.7     4.8  8.3 -0.1829E+02  0.6855E+01  0.3172E+01E
 Epicentro: JORDAN - SANTANDER                                                 3
 ACTION:UPD 12-08-14 11:46 OP:ep   STATUS:               ID:20120728215819 L   I
 2012-07-28-2150-00M.COL___215                                                 6
 STAT SP IPHASW D HRMM SECON CODA AMPLIT PERI AZIMU VELO AIN AR TRES W  DIS CAZ7
 BAR2 SZ EP   1   2158 39.00                             173     0.4 7   17 199 
 BAR2 SZ ES   1   2158 53.23                             173    -0.4 7   17 199 
 BAR2 SZ I        2158 56.41         8.7 0.21            173             17 199 
 BRR  HZ EP   1   2158 40.42                             150    -0.2 7   76 302 
 BRR  HZ I        2158 46.39        16.8 0.26            147             76 302 
 BRR  HN ES   1   2158 57.69                             150     0.6 7   76 302 
 PAM  SZ EP       2158 41.84                             149     0.210   82  36 
 PAM  SN ES       2158 58.76                             149    -0.210   82  36 
 PTB  HZ EP   1   2158 45.88                             131    -0.3 7  148 261 
 PTB  HN ES       2159  7.22                             131     0.1 9  148 261 
 PTB  HZ I        2159  9.55         4.9 0.20            130            148 261 
 ZAR  HN ES   1   2159 17.24                             121    -0.4 6  208 294 
 ZAR  HZ I        2159 23.47         5.0 0.17            120            208 294 
