 2014 1228 2002 22.0 L   7.429 -73.149139.7  RSN 11 0.5 1.6LRSN                1
 GAP=113        1.25       4.5     4.9  7.5 -0.1078E+01  0.1308E+02  0.4820E+01E
 Epicentro: EL PLAYON - SANTANDER                                              3
 ACTION:UPD 15-02-10 17:07 OP:nd   STATUS:               ID:20141228200222 L   I
 OLDACT:REG 14-12-29 03:28 OP:fm   STATUS:               ID:20141228195748     3
 2014-12-28-1957-48M.COL___265                                                 6
 STAT SP IPHASW D HRMM SECON CODA AMPLIT PERI AZIMU VELO AIN AR TRES W  DIS CAZ7
 PAM  SZ EP       20 2 42.57                             159    0.4110 50.6 101 
 PAM  SE ES       20 2 57.39                             159   -0.5010 50.6 101 
 PAM  SZ I        20 2 58.82         9.3 0.24            163           50.6 101 
 BRR  HZ EP       20 2 42.78                             151    0.2610 71.6 240 
 BRR  HN ES       20 2 59.18                             151    0.6510 71.6 240 
 BRR  HZ I        20 3  0.12        12.0 0.12            149           71.6 240 
 OCA  HZ EP       20 2 43.85                             145   -0.1810 91.5 348 
 OCA  HN ES       20 3  0.77                             145   -0.4310 91.5 348 
 OCA  HZ I        20 3  4.36         5.8 0.18            147           91.5 348 
 BAR2 EZ EP       20 2 44.96                             145    0.7310 92.6 182 
 BAR2 EZ ES       20 3  2.31                             145    0.7510 92.6 182 
 BAR2 EZ I        20 3  2.73        11.4 0.26            144           92.6 182 
 RUS  HZ EP       20 2 50.73                             127   -0.52 9  170 178 
 RUS  HE ES       20 3 13.24                             127   -0.82 9  170 178 
 RUS  HZ I        20 3 19.25         1.1 0.16            127            170 178 
 PTB  HZ EP       20 2 50.95                             126   -0.13 9  175 236 
 PTB  HE ES       20 3 12.90                             126   -0.85 9  175 236 
 PTB  HZ I        20 3 16.37         9.4 0.20            125            175 236 
 ZAR  HZ EP       20 2 52.72                             123    0.24 9  189 272 
 ZAR  HN ES       20 3 16.18                             123   -0.06 9  189 272 
 ZAR  HZ I        20 3 20.86         6.1 0.28            123            189 272 
 NOR  HZ EP       20 3  2.20                             113   -0.27 7  281 223 
 NOR  HN ES       20 3 33.98                             113   -0.06 7  281 223 
 NOR  HZ I        20 3 43.01         7.7 0.16            113            281 223 
 HEL  HZ EP       20 3  5.08                             111    0.41 7  297 243 
 HEL  HE ES       20 3 37.94                             111   -0.01 7  297 243 
 HEL  HZ I        20 3 45.65         1.7 0.26            112            297 243 
 MON  HN ES   4   20 3 37.82                             110   -3.01 0  315 298 
 MON  HZ I        20 3 41.78         1.3 0.40            111            315 298 
 SJC  HZ EP   4   20 3  9.80                             108   -0.94 0  353 321 
 SJC  HE ES   4   20 3 45.73                             108   -3.03 0  353 321 
 SJC  HZ I        20 3 48.56         1.2 0.50            109            353 321 
                                                                                
