 2017  328 2330 25.9 L   6.765 -73.143148.0  RSN  5 0.5 1.3LRSN                1
 GAP=138        1.02       5.7     4.9  9.6 -0.1396E+01  0.1184E+02 -0.3504E+01E
 Epicentro: LOS SANTOS - SANTANDER                                             3
 ACTION:UPD 17-05-25 18:46 OP:jn   STATUS:               ID:20170328233025 L   I
 OLDACT:UP  17-03-29 05:52 OP:dani STATUS:               ID:20170328232746d    3
 OLDACT:UP  17-03-29 05:51 OP:dani STATUS:               ID:20170328232746d    3
 OLDACT:DUP 17-03-29 05:45 OP:dani STATUS:               ID:20170328232746d    3
 OLDACT:UP  17-03-29 05:41 OP:dani STATUS:               ID:20170328232745     3
 OLDACT:UP  17-03-29 05:39 OP:dani STATUS:               ID:20170328232745     3
 OLDACT:UP  17-03-29 05:39 OP:dani STATUS:               ID:20170328232745     3
 OLDACT:REG 17-03-29 03:30 OP:dani STATUS:               ID:20170328232745     3
 2017-03-28-2328-00M.COL___365                                                 6
 STAT SP IPHASW D HRMM SECON CODA AMPLIT PERI AZIMU VELO AIN AR TRES W  DIS CAZ7
 BRR  HZ EP       2330 47.57                             152    0.2110 73.4 301 
 BRR  HE ES       2331  4.71                             152    0.5710 73.4 301 
 BRR  HZ I        2331  6.87         9.4 0.21            154           73.4 301 
 PAM  EZ EP       2330 48.49                             150    0.0210 80.2  38 
 PAM  EN ES       2331  5.68                             150   -0.4310 80.2  38 
 PAM  EZ I        2331  8.14         2.9 0.51            152           80.2  38 
 RUS  HZ EP   3   2330 51.57                             145    2.02 2 96.7 176 
 RUS  HN ES       2331  8.20                             145    0.1710 96.7 176 
 RUS  HZ I        2331  9.11         2.1 0.23            148           96.7 176 
 PTB  HZ EP       2330 52.70                             133   -0.26 9  147 260 
 PTB  HN ES       2331 13.46                             133   -0.65 9  147 260 
 PTB  HZ I        2331 15.01         1.6 0.38            135            147 260 
 ZAR  HN ES       2331 24.39                             123    0.21 8  206 293 
                                                                                
