 2015  728 2141 48.4 L   6.811 -73.160141.0  RSN  5 0.2 1.9LRSN                1
 GAP=243        0.48       3.0     3.0  4.1  0.2221E+01  0.6478E+01  0.6291E+00E
 Epicentro: LOS SANTOS - SANTANDER                                             3
 ACTION:UPD 15-09-08 21:51 OP:cam  STATUS:               ID:20150728214148 L   I
 OLDACT:UP  15-07-29 07:49 OP:ak   STATUS:               ID:20150728213749     3
 OLDACT:REG 15-07-29 06:02 OP:ak   STATUS:               ID:20150728213749     3
 2015-07-28-2137-49M.COL___340                                                 6
 STAT SP IPHASW D HRMM SECON CODA AMPLIT PERI AZIMU VELO AIN AR TRES W  DIS CAZ7
 BAR2 EZ EP       2142  7.14                             170   -0.3110 24.3 186 
 BAR2 EZ ES       2142 22.50                             170    0.1710 24.3 186 
 BAR2 EZ I        2142 24.69        12.5 0.26            167           24.3 186 
 RUS  HZ EP       2142 11.92                             142    0.1710  102 175 
 RUS  HN ES       2142 29.90                             142   -0.0910  102 175 
 RUS  HZ I        2142 32.96        10.0 0.46            145            102 175 
 ZAR  HZ EP   1   2142 20.69                             122    0.37 6  202 292 
 ZAR  HN ES       2142 45.12                             122   -0.11 9  202 292 
 ZAR  HZ I        2142 51.96        10.7 0.17            123            202 292 
 NOR  HZ EP       2142 23.67                             117   -0.10 8  234 234 
 NOR  HE ES       2142 51.46                             117    0.08 8  234 234 
 NOR  HZ I        2142 59.05         5.9 0.18            119            234 234 
 GUY2CHZ EP   1   2142 31.90                             111    0.20 5  301 234 
 GUY2CHN ES       2143  5.39                             111   -0.10 7  301 234 
 GUY2CHZ I        2143 16.60         3.1 0.40                           301 234 
 SJC  HZ EP   4   2142 41.90                             105   -1.67 0  407 327 
 SJC  HN ES   4   2143 21.86                             105   -4.76 0  407 327 
                                                                                
