 2012 1128 2240 39.2 L   6.829 -73.248145.6  RSN  5 0.2 1.3LRSN                1
 GAP=123        0.49       3.5     4.0  5.6  0.1866E+01  0.5424E+01  0.1218E+01E
 Epicentro: ZAPATOCA - SANTANDER                                               3
 ACTION:UPD 12-12-05 15:36 OP:}ep  STATUS:               ID:20121128224039 L   I
 2012-11-28-2240-00M.COL___236                                                 6
 STAT SP IPHASW D HRMM SECON CODA AMPLIT PERI AZIMU VELO AIN AR TRES W  DIS CAZ7
 BAR2 SZ ES   1   2241 14.51                             169    0.28 7 27.1 165 
 GIR2 SZ ES   1   2241 14.11                             168    0.09 7 28.3  12 
 PAM  SZ EP   1   2241  1.97                             149    0.27 7 82.8  47 
 PAM  SN ES   1   2241 18.94                             149   -0.34 7 82.8  47 
 PAM  SZ I        2241 20.43         3.9 0.32                          82.8  47 
 RUS  HZ EP   1   2241  3.19                             142   -0.04 7  105 170 
 RUS  HN ES   1   2241 21.82                             142   -0.19 7  105 170 
 RUS  HZ I        2241 23.65         3.3 0.38                           105 170 
 ZAR  HN ES   1   2241 34.67                             124   -0.11 7  192 293 
                                                                                
