 2013  928 2257 54.1 L   6.794 -73.123154.6  RSN  9 0.5 1.8LRSN                1
 GAP=140        1.18       3.4     5.3  7.0 -0.2628E+00  0.3964E+01  0.4896E+00E
 Epicentro: LOS SANTOS - SANTANDER                                             3
 ACTION:UPD 13-10-22 09:25 OP:ep   STATUS:               ID:20130928225754 L   I
 OLDACT:REG 13-09-29 01:47 OP:carl STATUS:               ID:20130928224959     3
 2013-09-28-2249-59M.COL___272                                                 6
 STAT SP IPHASW D HRMM SECON CODA AMPLIT PERI AZIMU VELO AIN AR TRES W  DIS CAZ7
 BRR  HZ EP       2258 16.73                             153    0.4310 73.7 298 
 BRR  HE ES       2258 34.53                             153    0.8810 73.7 298 
 PAM  SZ EP       2258 17.69                             153    0.5310 76.4  38 
 PAM  SN ES       2258 34.95                             153   -0.2310 76.4  38 
 PAM  SZ I        2258 36.99         9.0 0.58            155           76.4  38 
 RUS  HZ EP       2258 18.52                             146   -0.1110 99.8 177 
 RUS  HN ES       2258 37.50                             146   -0.3010 99.8 177 
 RUS  HZ I        2258 38.88         6.5 0.30            146           99.8 177 
 PTB  HZ EP       2258 21.34                             134   -0.62 9  150 259 
 PTB  HN ES       2258 43.04                             134   -0.68 9  150 259 
 PTB  HZ I        2258 48.18         6.0 0.20            133            150 259 
 ZAR  HN ES       2258 53.60                             124    0.29 8  207 292 
 SML  HZ EP       2258 31.05                             119   -0.32 8  245 335 
 SML  HN ES       2258 59.75                             119   -0.72 8  245 335 
 CHI  HZ EP       2258 32.26                             119   -0.00 8  249 196 
 CHI  HN ES       2259  1.80                             119   -0.26 8  249 196 
 CHI  HZ I        2259  5.96         3.4 0.38            119            249 196 
 GUY2CHZ EP   4   2258 40.04                             114    1.77 0  303 235 
 GUY2CHN ES   4   2259 15.98                             114    3.23 0  303 235 
 COD  HZ EP       2258 42.56                             110   -0.34 6  349 354 
 COD  HN ES       2259 21.44                             110    0.45 6  349 354 
 PRA  HZ EP       2258 49.04                             108    1.07 6  393 210 
 PRA  HN ES       2259 30.36                             108    0.34 6  393 210 
 PRA  HZ I        2259 36.24         3.4 0.26            108            393 210 
                                                                                
