 2010  128 2140 20.6 L   6.793 -73.145136.4  RSN  8 0.4 2.6LRSN                1
 GAP=183        0.63       3.8     9.2  6.6 -0.2452E+01  0.3224E+02  0.6480E+01E
 Epicentro: LOS SANTOS - SANTANDER                                             3
 ACTION:UP  10-08-24 09:46 OP:vdl  STATUS:               ID:20100128214020 L   I
 2010-01-28-2136-08S.COL___094                                                 6
 STAT SP IPHASW D HRMM SECON CODA AMPLIT PERI AZIMU VELO SNR AR TRES W  DIS CAZ7
 BAR2 SZ EP       2140 39.04                             170     0.010   23 191 
 BAR2 SZ ES   2   2140 52.90                             170    -0.6 5   23 191 
 GIR2 SZ EP       2140 39.29                             166     0.110   32 350 
 GIR2 SZ ES   2   2140 53.95                             166     0.3 5   32 350 
 RUS  BZ EP       2140 43.25                             142    -0.110  100 176 
 RUS  BE ES   1   2141  1.35                             142     0.2 7  100 176 
 OCA  SZ ES   2   2141  9.28                             127    -0.5 5  161 353 
 OCA  SZ I        2141 13.66        55.2 0.23                           161 353 
 CHI  HZ EP       2140 57.55                             115    -0.1 8  248 195 
 CHI  HN ES   2   2141 26.57                             115    -0.1 4  248 195 
 HEL  HZ EP   3   2141  0.73                             113     0.4 2  272 256 
 HEL  HN ES   3   2141 31.25                             113     0.0 2  272 256 
 HEL  HZ I        2141 37.60        21.2 0.54                           272 256 
 TOL  SZ EP       2141  9.08                             108     0.7 7  343 225 
 TOL  SZ ES   2   2141 45.80                             108     0.1 3  343 225 
 PRA  HZ EP       2141 13.11                             105    -0.6 6  391 210 
 PRA  HN ES   3   2141 53.43                             105    -1.7 1  391 210 
 PRA  HZ I        2142  1.77        10.3 0.31                           391 210 
                                                                                
