 2016  828 2344  3.0 L   6.754 -73.184144.0  RSN  5 0.4 1.4LRSN                1
 GAP=229        0.85       8.5     8.8  8.7  0.5621E+02  0.1913E+02  0.4569E+01E
 Epicentro: LOS SANTOS - SANTANDER                                             3
 ACTION:UPD 16-10-29 15:40 OP:rebc STATUS:               ID:20160828234403 L   I
 OLDACT:REG 16-08-29 03:54 OP:dnl  STATUS:               ID:20160828233745     3
 2016-08-28-2338-00M.COL___356                                                 6
 STAT SP IPHASW D HRMM SECON CODA AMPLIT PERI AZIMU VELO AIN AR TRES W  DIS CAZ7
 BAR2 EZ EP       2344 21.98                             173   -0.3410 17.8 179 
 BAR2 EZ ES       2344 37.02                             173   -0.3610 17.8 179 
 BAR2 EZ I        2344 38.70         7.2 0.16                          17.8 179 
 BRR  HZ EP   2   2344 23.79                             153   -0.11 5 70.2 304 
 BRR  HN ES       2344 40.86                             153    0.6510 70.2 304 
 BRR  HZ I        2344 41.61         5.9 0.08                          70.2 304 
 RUS  HZ EP   2   2344 26.82                             145    0.58 5 95.9 173 
 RUS  HN ES       2344 44.54                             145    0.1810 95.9 173 
 RUS  HZ I        2344 45.94         3.7 0.26                          95.9 173 
 PTB  HZ EP   2   2344 29.71                             133    0.35 5  143 261 
 PTB  HN ES   2   2344 49.59                             133   -0.34 5  143 261 
 PTB  HZ I        2344 50.55         2.2 0.18                           143 261 
 ZAR  HZ EP   3   2344 35.93                             122    0.80 2  202 294 
 ZAR  HN ES       2344 59.81                             122   -0.39 9  202 294 
 ZAR  HZ I        2345  3.11         3.9 0.10                           202 294 
                                                                                
