 2017  328 2322 55.9 L   6.809 -73.133145.7  RSN  4 0.1 1.5LRSN                1
 GAP=245        0.44       4.4     3.8  6.0  0.1126E+02 -0.6609E+01 -0.1258E+02E
 Epicentro: LOS SANTOS - SANTANDER                                             3
 ACTION:UPD 17-05-25 18:46 OP:jn   STATUS:               ID:20170328232255 L   I
 OLDACT:REG 17-03-29 03:29 OP:dani STATUS:               ID:20170328231740     3
 2017-03-28-2318-00M.COL___365                                                 6
 STAT SP IPHASW D HRMM SECON CODA AMPLIT PERI AZIMU VELO AIN AR TRES W  DIS CAZ7
 RUS  HZ EP       2323 19.71                             144   -0.0410  101 177 
 RUS  HN ES       2323 38.34                             144    0.0210  101 177 
 RUS  HZ I        2323 39.08         2.7 0.44            136            101 177 
 PTB  HZ EP       2323 22.81                             132   -0.23 9  149 259 
 PTB  HE ES       2323 44.28                             132    0.09 9  149 259 
 PTB  HZ I        2323 50.78         3.9 0.16            125            149 259 
 SPBC HZ EP       2323 24.86                             129    0.27 9  165 219 
 SPBC HN ES       2323 46.80                             129   -0.13 9  165 219 
 SPBC HZ I        2323 54.02         6.0 0.09            122            165 219 
 ZAR  HN ES       2323 53.88                             122    0.02 9  205 292 
                                                                                
