 2011 1028 2123 37.3 L   6.779 -73.081150.9  RSN  4 0.2 1.7LRSN                1
 GAP=146        0.38       2.8     4.0  5.0 -0.9557E+00  0.2792E+01  0.4381E+01E
 Epicentro: LOS SANTOS - SANTANDER                                             3
 ACTION:UPD 12-07-13 16:06 OP:ep   STATUS:               ID:20111028212337 L   I
 2011-10-28-2120-00M.COL___177                                                 6
 STAT SP IPHASW D HRMM SECON CODA AMPLIT PERI AZIMU VELO AIN AR TRES W  DIS CAZ7
 BAR2 SZ EP       2123 57.58                             171    0.0010 23.5 209 
 BAR2 SZ I        2124 14.06         8.1 0.41                          23.5 209 
 PAM  SZ EP   2   2123 59.51                             152   -0.44 5 74.9  34 
 PAM  SE ES       2124 17.69                             152    0.0910 74.9  34 
 BRR  HZ EP   1   2123 59.56                             151    0.10 7 78.6 298 
 BRR  HZ I        2124  4.13        23.6 0.23                          78.6 298 
 BRR  HE ES   1   2124 16.65                             151   -0.07 7 78.6 298 
 RUS  HZ EP   1   2124  1.53                             146    0.12 7 98.0 180 
 RUS  HN ES   1   2124 20.09                             146   -0.11 7 98.0 180 
 RUS  HZ I        2124 21.57         4.2 0.20                          98.0 180 
                                                                                
