 2017  528 2326  3.6 L   6.782 -73.209152.1  RSN  6 0.3 1.3LRSN                1
 GAP=229        0.77       3.8     5.1  6.6  0.9213E+01 -0.1514E+01  0.3060E+01E
 Epicentro: ZAPATOCA - SANTANDER                                               3
 ACTION:UPD 17-06-16 13:39 OP:jn   STATUS:               ID:20170528232603 L   I
 OLDACT:REG 17-05-29 03:00 OP:edw  STATUS:               ID:20170528231743     3
 2017-05-28-2318-00M.COL___338                                                 6
 STAT SP IPHASW D HRMM SECON CODA AMPLIT PERI AZIMU VELO AIN AR TRES W  DIS CAZ7
 BRR  HZ EP       2326 25.32                             155    0.1110 66.2 303 
 BRR  HN ES       2326 42.55                             155    0.5110 66.2 303 
 RUS  HZ EP       2326 27.77                             145   -0.1510 99.3 172 
 RUS  HN ES       2326 46.41                             145   -0.4610 99.3 172 
 RUS  HZ I        2326 47.16         4.1 0.22            144           99.3 172 
 PTB  HZ EP       2326 30.55                             135    0.06 9  141 259 
 PTB  HN ES       2326 51.16                             135   -0.28 9  141 259 
 PTB  HZ I        2326 56.06         1.8 0.46            133            141 259 
 SPBC HE ES       2326 54.49                             132    0.22 9  157 217 
 ZAR  HN ES       2327  0.76                             124   -0.36 9  198 293 
 CHI  HZ EP       2326 41.42                             119    0.12 8  245 194 
 CHI  HN ES       2327 10.96                             119    0.29 8  245 194 
 CHI  HZ I        2327 14.38         1.5 0.34            118            245 194 
                                                                                
