 2016 1128 2355 41.6 L   6.743 -73.123140.1  RSN  5 0.3 1.3LRSN                1
 GAP=166        0.88       8.7     4.5  8.5 -0.1441E+02  0.1226E+02 -0.2206E+02E
 Epicentro: LOS SANTOS - SANTANDER                                             3
 ACTION:UPD 17-10-26 21:12 OP:lp   STATUS:               ID:20161128235541 L   I
 OLDACT:REG 16-11-29 03:33 OP:edw  STATUS:               ID:20161128234742     3
 2016-11-28-2348-00M.COL___346                                                 6
 STAT SP IPHASW D HRMM SECON CODA AMPLIT PERI AZIMU VELO AIN AR TRES W  DIS CAZ7
 BAR2 EZ ES       2356 15.44                             172    0.2810 17.9 201 
 BAR2 EZ I        2356 18.39         6.0 0.40            172           17.9 201 
 BRR  HZ EP       2356  2.61                             150    0.1410 76.5 302 
 BRR  HN ES       2356 19.07                             150    0.3310 76.5 302 
 PAM  EZ EP       2356  3.60                             149    0.1610 80.9  35 
 PAM  HN ES       2356 19.99                             149   -0.4810 80.9  35 
 PAM  EZ I        2356 21.34         4.3 0.24            151           80.9  35 
 PTB  HN ES       2356 28.46                             130   -0.57 9  149 261 
 PTB  HZ I        2356 31.04         2.4 0.12            131            149 261 
 ZAR  HN ES       2356 39.69                             120    0.09 8  209 293 
 ZAR  HZ I        2356 44.67         1.6 0.32            121            209 293 
                                                                                
