 2017  728 2145  8.1 L   6.824 -73.123146.3  RSN 17 0.6 2.5LRSN                1
 GAP=113        1.17       3.7     4.1  5.8  0.1108E+01  0.6705E+01  0.5932E+01E
 Epicentro: LOS SANTOS - SANTANDER                                             3
 ACTION:UPD 17-08-30 15:37 OP:rebc STATUS:               ID:20170728214508 L   I
 OLDACT:UP  17-07-29 05:28 OP:dnl  STATUS:               ID:20170728213746     3
 OLDACT:UP  17-07-29 05:20 OP:dnl  STATUS:               ID:20170728213746     3
 OLDACT:UP  17-07-29 05:20 OP:dnl  STATUS:               ID:20170728213746     3
 OLDACT:REG 17-07-29 04:40 OP:dnl  STATUS:               ID:20170728213746     3
 2017-07-28-2138-00M.COL___401                                                 6
 STAT SP IPHASW D HRMM SECON CODA AMPLIT PERI AZIMU VELO AIN AR TRES W  DIS CAZ7
 BAR2 EZ IP     C 2145 27.64                             169   -0.2610 26.5 194 
 BAR2 EZ ES       2145 43.25                             169   -0.0710 26.5 194 
 BAR2 EZ I        2145 45.07        90.6 0.26            174           26.5 194 
 BRR  HZ IP     C 2145 29.43                             152    0.0310 72.2 296 
 BRR  HN ES       2145 46.37                             152    0.3910 72.2 296 
 BRR  HZ I        2145 50.37        74.9 0.44            144           72.2 296 
 PAM  EZ EP       2145 30.63                             152    0.4310 73.7  39 
 PAM  EN ES       2145 47.84                             152    0.4410 73.7  39 
 PAM  EZ I        2145 50.41        26.8 0.38            141           73.7  39 
 RUS  HZ EP       2145 31.79                             143   -0.3410  103 178 
 RUS  HN ES       2145 50.18                             143   -0.6610  103 178 
 RUS  HZ I        2145 51.41        38.8 0.26            141            103 178 
 PTB  HZ EP   9   2145 34.17                             131   -1.25 0  151 258 
 PTB  HN ES       2145 55.45                             131   -0.00 9  151 258 
 PTB  HZ I        2145 57.25        28.3 0.12            125            151 258 
 YPLC HZ IP     D 2145 38.16                             126    0.07 9  178 152 
 YPLC HN ES       2146  1.12                             126   -0.33 9  178 152 
 YPLC HZ I        2146  4.68        28.9 0.28            122            178 152 
 ZAR  HZ EP       2145 40.38                             122   -0.37 8  205 291 
 ZAR  HN ES       2146  5.57                             122   -0.62 8  205 291 
 ZAR  HZ I        2146 10.96        50.5 0.44            115            205 291 
 TABC EZ EP       2145 45.39                             119    1.09 8  234 211 
 TABC EZ ES       2146 13.45                             119    0.94 8  234 211 
 TABC EZ I        2146 17.96        36.5 0.38            114            234 211 
 NOR  HZ EP       2145 43.43                             118   -0.85 8  238 234 
 NOR  HN ES   4   2146 10.55                             118   -1.93 0  238 234 
 NOR  HZ I        2146 18.99        15.4 0.12            113            238 234 
 CHI  HZ EP       2145 46.00                             117   -0.22 8  252 196 
 CHI  HE ES       2146 15.58                             117   -0.34 8  252 196 
 CHI  HZ I        2146 17.63        24.3 0.32            112            252 196 
 ROSC BZ EP   2   2145 47.68                             116    1.00 4  256 211 
 ROSC BE ES   4   2146 18.71                             116    1.97 0  256 211 
 ROSC BZ I        2146 22.56        37.2 0.35            112            256 211 
 HEL  HZ EP   4   2145 49.93                             115    1.21 0  275 255 
 HEL  HN ES   4   2146 18.08                             115   -2.29 0  275 255 
 HEL  HZ I        2146 27.14        12.1 0.22            109            275 255 
 GUY2CHZ EP       2145 53.11                             112    0.93 7  305 235 
 GUY2CHN ES       2146 27.11                             112    0.58 7  305 235 
 GUY2CHZ I        2146 35.54        13.4 0.24                           305 235 
 LL6C HZ EP   2   2145 52.97                             111   -0.59 3  322 357 
 LL6C HZ I        2146 40.19        20.2 0.86            104            322 357 
 CBOC HZ EP   2   2145 55.56                             110    0.12 3  337 252 
 CBOC HN ES       2146 31.46                             110   -0.88 7  337 252 
 CBOC HZ I        2146 36.51         4.5 0.14            105            337 252 
 DBB  EZ EP   2   2145 55.94                             109    0.04 3  342 274 
 DBB  EN ES   4   2146 30.72                             109   -2.43 0  342 274 
 DBB  EZ I        2146 33.29         9.5 0.24            104            342 274 
 ORTC HZ EP       2146  1.99                             106   -0.51 6  399 216 
 ORTC HN ES       2146 45.54                             106    0.63 6  399 216 
 ORTC HZ I        2146 50.85         8.1 0.56            102            399 216 
                                                                                
