 2013  228 2245 55.9 L   6.759 -73.219151.9  RSN  4 0.1 1.8LRSN                1
 GAP=222        0.32       2.7     2.7  3.0  0.3946E+01  0.1553E+00  0.1330E+00E
 Epicentro: VILLANUEVA - SANTANDER                                             3
 ACTION:UPD 13-03-12 09:36 OP:ep   STATUS:               ID:20130228224555 L   I
 2013-02-28-2240-00M.COL___228                                                 6
 STAT SP IPHASW D HRMM SECON CODA AMPLIT PERI AZIMU VELO AIN AR TRES W  DIS CAZ7
 BAR2 SZ ES   2   2246 31.80                             173   -0.19 5 18.9 168 
 BRR  HZ EP       2246 17.37                             155   -0.0810 66.7 305 
 BRR  HN ES       2246 34.37                             155    0.0910 66.7 305 
 BRR  HN I        2246 34.92        32.4 0.42            154           66.7 305 
 RUS  HZ EP       2246 19.97                             146   -0.0110 97.0 171 
 RUS  HE ES       2246 38.83                             146    0.0410 97.0 171 
 RUS  HE I        2246 39.13         5.9 0.18            146           97.0 171 
 PTB  HZ EP       2246 22.63                             135    0.05 9  139 260 
 PTB  HN ES       2246 43.35                             135   -0.06 9  139 260 
 PTB  HN I        2246 46.03         6.8 0.30            134            139 260 
                                                                                
