 2010  228 2059 19.6 L   6.813 -73.030146.9  RSN  4 0.2 1.6LRSN                1
 GAP=250        0.48       7.8    14.7  6.5  0.8255E+02 -0.7963E+01  0.4520E+01E
 Epicentro: CEPITA - SANTANDER                                                 3
 ACTION:UP  10-08-24 09:51 OP:vdl  STATUS:               ID:20100228205919 L   I
 2010-02-28-2055-49S.COL___093                                                 6
 STAT SP IPHASW D HRMM SECON CODA AMPLIT PERI AZIMU VELO SNR AR TRES W  DIS CAZ7
 BAR2 SZ EP   1   2059 39.21                             168    -0.3 7   30 215 
 BAR2 SZ ES   2   2059 54.81                             168    -0.2 5   30 215 
 BRR  HZ EP   1   2059 41.63                             149     0.2 7   82 293 
 BRR  HE ES   2   2059 58.59                             149     0.0 5   82 293 
 BRR  HZ I        21 0  1.97        12.6 0.46                            82 293 
 RUS  BZ EP   1   2059 43.80                             144     0.3 7  102 183 
 RUS  BN ES   2   21 0  2.38                             144     0.2 5  102 183 
 RUS  BZ I        21 0  3.65         4.0 0.45                           102 183 
 CHI  HZ EP   1   2059 57.61                             117    -0.3 6  254 198 
                                                                                
