 2016  228 2119 50.3 L   6.764 -73.190135.6  RSN  5 0.2 1.5LRSN                1
 GAP=140        0.46       2.1     2.4  4.2 -0.1861E+01  0.1768E+01  0.1302E+01E
 Epicentro: LOS SANTOS - SANTANDER                                             3
 ACTION:UPD 16-03-04 21:30 OP:rebc STATUS:               ID:20160228211950 L   I
 OLDACT:REG 16-02-29 03:30 OP:cara STATUS:               ID:20160228211751     3
 2016-02-28-2117-51M.COL___322                                                 6
 STAT SP IPHASW D HRMM SECON CODA AMPLIT PERI AZIMU VELO AIN AR TRES W  DIS CAZ7
 PAM  EZ EP     D 2120 11.78                             147   -0.1010 83.5  40 
 PAM  EN ES       2120 28.88                             147    0.1910 83.5  40 
 PAM  EZ I        2120 31.13         5.3 0.42            152           83.5  40 
 RUS  HZ EP       2120 12.80                             143   -0.0510 97.1 173 
 RUS  HN ES       2120 30.18                             143   -0.2210 97.1 173 
 RUS  HZ I        2120 32.55         3.7 0.20            146           97.1 173 
 PTB  HZ EP       2120 15.81                             131   -0.17 9  142 260 
 PTB  HN ES       2120 36.05                             131    0.07 9  142 260 
 PTB  HZ I        2120 43.77         5.9 0.32            132            142 260 
 SPBC HN ES       2120 38.64                             128   -0.01 9  157 218 
 CHI  HZ EP       2120 27.06                             115    0.12 8  244 194 
 CHI  HN ES       2120 55.80                             115    0.32 8  244 194 
 CHI  HZ I        2121  0.06         3.0 0.56            119            244 194 
                                                                                
