 2015  228 2300 29.0 L   7.104 -73.225122.6  RSN  4 0.5 1.5LRSN                1
 GAP=263        1.30      10.7     9.2 10.6  0.5091E+02 -0.1172E+00  0.1849E+01E
 Epicentro: LEBRIJA - SANTANDER                                                3
 ACTION:UPD 15-04-30 21:30 OP:nd   STATUS:               ID:20150228230029 L   I
 OLDACT:REG 15-03-01 05:34 OP:fm   STATUS:               ID:20150228225750     3
 2015-02-28-2257-50M.COL___287                                                 6
 STAT SP IPHASW D HRMM SECON CODA AMPLIT PERI AZIMU VELO AIN AR TRES W  DIS CAZ7
 BRR  HZ EP       23 0 46.83                             155    0.1310 53.8 270 
 BRR  HN ES       23 0 59.76                             155   -0.7310 53.8 270 
 BRR  HZ I        23 1  0.87        12.7 0.12            151           53.8 270 
 BAR2 EZ EP       23 0 47.28                             154    0.0710 56.8 175 
 BAR2 EZ ES       23 1  2.28                             154    0.8910 56.8 175 
 BAR2 EZ I        23 1  4.57        10.6 0.38            150           56.8 175 
 RUS  HZ EP       23 0 53.61                             129   -0.0010  135 173 
 RUS  HN ES       23 1 12.04                             129   -0.7410  135 173 
 PTB  HZ EP       23 0 54.40                             126   -0.02 9  150 245 
 PTB  HE ES       23 1 14.60                             126    0.38 9  150 245 
 PTB  HZ I        23 1 19.24         2.6 0.24            124            150 245 
                                                                                
