 2015  228 2334 24.1 L   6.807 -73.154139.7  RSN 10 0.5 1.7LRSN                1
 GAP=135        1.27       3.8     5.3  6.8 -0.4340E+01  0.1027E+02  0.1821E+01E
 Epicentro: LOS SANTOS - SANTANDER                                             3
 ACTION:UPD 15-04-30 21:30 OP:nd   STATUS:               ID:20150228233424 L   I
 OLDACT:REG 15-03-01 05:35 OP:fm   STATUS:               ID:20150228232737     3
 2015-02-28-2327-37M.COL___293                                                 6
 STAT SP IPHASW D HRMM SECON CODA AMPLIT PERI AZIMU VELO AIN AR TRES W  DIS CAZ7
 BAR2 EZ EP       2334 43.13                             170    0.1010 24.0 187 
 BAR2 EZ ES       2334 58.29                             170    0.5210 24.0 187 
 BAR2 EZ I        2335  0.21         8.6 0.18            169           24.0 187 
 BRR  HZ EP       2334 45.40                             152    0.8610 70.0 298 
 BRR  HE ES       2335  1.06                             152    0.6010 70.0 298 
 BRR  HZ I        2335  6.98        10.8 0.24            151           70.0 298 
 PAM  SZ EP       2334 46.24                             150    0.5610 77.4  40 
 PAM  SE ES       2335  1.72                             150   -0.7910 77.4  40 
 PAM  SZ I        2335  5.97         8.2 0.62            154           77.4  40 
 RUS  HZ EP       2334 47.38                             142    0.0410  101 176 
 RUS  HE ES       2335  4.96                             142   -0.4910  101 176 
 RUS  HZ I        2335  7.12         3.3 0.30            145            101 176 
 PTB  HZ EP       2334 50.11                             131   -0.41 9  147 258 
 PTB  HN ES       2335 10.66                             131   -0.45 9  147 258 
 PTB  HZ I        2335 14.57         6.1 0.16            132            147 258 
 SPBC HZ EP       2334 52.60                             128    0.45 9  163 219 
 SPBC HN ES       2335 14.04                             128    0.02 9  163 219 
 SPBC HZ I        2335 21.73         7.4 0.22            130            163 219 
 NOR  HZ EP       2334 59.87                             117    0.41 8  234 234 
 NOR  HN ES       2335 26.77                             117   -0.26 8  234 234 
 NOR  HZ I        2335 31.34         4.5 0.20            119            234 234 
 SML  HZ EP       2334 59.92                             116   -0.36 8  243 335 
 SML  HE ES       2335 27.59                             116   -0.90 8  243 335 
 SML  HZ I        2335 33.59         9.9 0.26            119            243 335 
 CHI  HZ EP       2335  1.65                             116    0.11 8  249 195 
 CHI  HN ES       2335 29.82                             116   -0.91 8  249 195 
 CHI  HZ I        2335 38.07         1.6 0.72            118            249 195 
 GUY2CHZ EP       2335  7.55                             111    0.14 7  301 235 
 GUY2CHN ES       2335 41.37                             111    0.19 7  301 235 
 GUY2CHZ I        2335 50.05         2.3 0.22                           301 235 
                                                                                
