 2012  628 2045 12.1 L   6.770 -73.058147.4  RSN  6 0.2 1.7LRSN                1
 GAP=150        0.39       2.8     3.3  4.0  0.6115E+00  0.1501E+01  0.6966E-01E
 Epicentro: LOS SANTOS - SANTANDER                                             3
 ACTION:UPD 12-08-06 17:53 OP:ep   STATUS:               ID:20120628204512 L   I
 2012-06-28-2040-00M.COL___201                                                 6
 STAT SP IPHASW D HRMM SECON CODA AMPLIT PERI AZIMU VELO AIN AR TRES W  DIS CAZ7
 BAR2 SZ ES   1   2045 47.39                             170   -0.01 7 24.0 215 
 BAR2 SZ I        2045 48.16        10.9 0.16                          24.0 215 
 PAM  SZ EP   1   2045 34.56                             152    0.26 7 74.4  32 
 PAM  SE ES   2   2045 51.27                             152   -0.36 5 74.4  32 
 BRR  HZ EP   1   2045 33.89                             149   -0.12 7 81.3 297 
 BRR  HN ES   1   2045 51.08                             149   -0.03 7 81.3 297 
 RUS  HZ EP   1   2045 35.72                             145   -0.03 7 97.1 182 
 RUS  HN ES   1   2045 54.31                             145    0.10 7 97.1 182 
 RUS  HZ I        2045 55.29         4.4 0.30                          97.1 182 
 ZAR  HE ES   2   2046 12.28                             121    0.37 4  214 292 
 ZAR  HZ I        2046 16.58        10.4 0.53                           214 292 
 NOR  SZ EP   2   2045 48.14                             118   -0.42 4  241 236 
 NOR  SN ES   2   2046 16.98                             118   -0.04 4  241 236 
                                                                                
