 2011  328 2347 38.7 L   6.738 -73.039144.9  RSN 11 0.4 2.3LRSN                1
 GAP=150        0.80       3.7     5.0  5.5 -0.1017E+02 -0.4352E+00  0.6024E+01E
 Epicentro: ARATOCA - SANTANDER                                                3
 ACTION:UP  11-06-16 14:36 OP:jfem STATUS:               ID:20110328234738 L   I
 2011-03-28-2340-00M.COL___140                                                 6
 STAT SP IPHASW D HRMM SECON CODA AMPLIT PERI AZIMU VELO SNR AR TRES W  DIS CAZ7
 BAR2 SZ EP       2347 58.42                             171     0.210   23 225 
 BAR2 SZ ES   1   2348 13.22                             171    -0.2 7   23 225 
 BAR2 SZ I        2348 15.20        59.2 0.35                            23 225 
 PAM  SZ EP       2348  1.15                             151     0.410   76  29 
 PAM  SZ I        2348  1.43        24.9 0.16                            76  29 
 PAM  SN ES   1   2348 17.87                             151    -0.1 7   76  29 
 BRR  HZ IP     C 2348  0.27                             148    -0.310   85 299 
 BRR  HE ES   1   2348 17.46                             148    -0.2 7   85 299 
 BRR  HZ I        2348 19.41        48.9 0.14                            85 299 
 GRA  SZ IP       2348  4.19                             136     0.010  129  12 
 GRA  SZ ES   1   2348 23.88                             136    -0.2 7  129  12 
 GRA  SZ I        2348 33.74        20.5 0.15                           129  12 
 OCA  SZ EP   1   2348  7.98                             128     0.2 7  169 349 
 OCA  SZ ES   1   2348 30.71                             128     0.3 7  169 349 
 OCA  SZ I        2348 36.92        27.7 0.35                           169 349 
 NOR  SZ EP   1   2348 14.37                             118    -0.7 6  241 238 
 CHI  HZ EP   1   2348 15.55                             117    -0.5 6  245 198 
 CHI  HN ES   1   2348 45.60                             117     0.5 6  245 198 
 CHI  HZ I        2348 53.55         8.8 0.36                           245 198 
 HEL  HZ EP   1   2348 20.20                             114     0.2 6  282 258 
 HEL  HE ES   1   2348 52.49                             114     0.3 6  282 258 
 HEL  HZ I        2348 56.74         9.9 0.30                           282 258 
 RREF HZ EP   1   2348 25.73                             110     0.4 5  327 232 
 RREF HN ES   1   2349  1.13                             110    -0.6 5  327 232 
 RREF HZ I        2349  6.80        10.8 0.18                           327 232 
 SDV  BZ EP       2348 27.75                             108    -0.4 6  356  48 
 SDV  BZ I        2348 28.86         4.1 0.31                           356  48 
 PRA  HZ EP   1   2348 31.78                             106    -0.4 4  392 212 
 PRA  HE ES   1   2349 14.75                             106     0.8 4  392 212 
                                                                                
