 2015  228 2231 14.8 L   6.812 -73.115141.5  RSN 19 0.5 2.4LRSN                1
 GAP=128        1.01       2.3     3.1  4.3 -0.2363E+01  0.2641E+01  0.1441E+01E
 Epicentro: LOS SANTOS - SANTANDER                                             3
 ACTION:UPD 15-04-30 21:30 OP:nd   STATUS:               ID:20150228223114 L   I
 OLDACT:REG 15-03-01 05:33 OP:fm   STATUS:               ID:20150228222737     3
 2015-02-28-2227-37M.COL___293                                                 6
 STAT SP IPHASW D HRMM SECON CODA AMPLIT PERI AZIMU VELO AIN AR TRES W  DIS CAZ7
 BAR2 EZ EP     D 2231 34.29                             169    0.3410 25.4 197 
 BAR2 EZ ES       2231 48.94                             169    0.0510 25.4 197 
 BAR2 EZ I        2231 50.27       123.7 0.14            168           25.4 197 
 BRR  HZ IP     D 2231 36.21                             151    0.5910 73.6 296 
 BRR  HN ES       2231 52.31                             151    0.4510 73.6 296 
 BRR  HZ I        2231 58.29        61.5 0.14            150           73.6 296 
 PAM  SZ IP     D 2231 37.15                             151    0.7910 74.3  38 
 PAM  SE ES       2231 53.18                             151   -0.0110 74.3  38 
 PAM  SZ I        2231 56.43        42.7 0.60            154           74.3  38 
 RUS  HZ EP       2231 38.11                             142   -0.0910  102 178 
 RUS  HE ES       2231 55.88                             142   -0.5910  102 178 
 RUS  HZ I        2231 57.36        43.4 0.24            143            102 178 
 PTB  HZ EP       2231 41.48                             130   -0.26 9  151 259 
 PTB  HE ES       2232  1.99                             130   -0.77 9  151 259 
 PTB  HZ I        2232  4.91        30.8 0.46            130            151 259 
 OCA  HZ EP       2231 42.69                             129    0.00 9  159 352 
 OCA  HE ES       2232  3.87                             129   -0.58 9  159 352 
 OCA  HZ I        2232  8.23        57.7 0.40            130            159 352 
 ZAR  HZ EP       2231 47.30                             121    0.07 8  207 291 
 ZAR  HN ES       2232 12.89                             121    0.35 8  207 291 
 ZAR  HZ I        2232 18.66        37.2 0.46            121            207 291 
 NOR  HZ EP       2231 50.78                             117    0.13 8  238 235 
 NOR  HN ES       2232 18.39                             117   -0.23 8  238 235 
 NOR  HZ I        2232 21.69        16.6 0.14            118            238 235 
 SML  HZ EP       2231 51.20                             116   -0.01 8  244 334 
 SML  HN ES       2232 19.30                             116   -0.31 8  244 334 
 SML  HZ I        2232 22.34        46.2 0.10            118            244 334 
 CHI  HZ EP       2231 52.41                             116   -0.08 8  251 196 
 CHI  HN ES       2232 21.14                             116   -0.75 8  251 196 
 CHI  HZ I        2232 28.84         8.8 0.50            117            251 196 
 ROSC BZ EP       2231 53.14                             115    0.15 8  256 212 
 ROSC BE ES       2232 23.44                             115    0.65 8  256 212 
 ROSC BZ I        2232 31.58        21.0 0.35            116            256 212 
 GUY2CHZ EP       2231 59.34                             111    0.74 7  305 235 
 GUY2CHE ES       2232 32.46                             111   -0.31 7  305 235 
 GUY2CHZ I        2232 40.78        10.3 0.34                           305 235 
 RREF HZ EP       2232  1.10                             110   -0.04 7  325 230 
 RREF HE ES       2232 37.49                             110    0.20 7  325 230 
 RREF HZ I        2232 48.23        11.1 0.32            110            325 230 
 CBOC HZ EP       2232  1.32                             109   -0.62 7  337 252 
 CBOC HE ES       2232 38.00                             109   -0.72 7  337 252 
 CBOC HZ I        2232 40.46         5.8 0.28            109            337 252 
 SDV  BZ EP       2232  3.90                             108   -0.37 6  357  50 
 SDV  BE ES       2232 42.29                             108   -0.58 6  357  50 
 SDV  BZ I        2232 46.17         8.0 0.70            109            357  50 
 ANIL HZ EP       2232  5.65                             107    0.84 6  361 225 
 ANIL HE ES       2232 44.62                             107    0.79 6  361 225 
 ANIL HZ I        2232 54.60         2.6 0.28            108            361 225 
 PRA  HZ EP       2232  8.15                             106   -0.34 6  395 210 
 PRA  HN ES       2232 50.02                             106   -0.36 6  395 210 
 PRA  HZ I        2232 56.03        10.7 0.32            106            395 210 
 ORTC HZ EP       2232  9.21                             105    0.29 6  398 216 
 ORTC HN ES       2232 51.73                             105    0.59 6  398 216 
 ORTC HZ I        2233  2.83         5.8 0.34            106            398 216 
 PAL  HZ EP       2232 10.08                             105   -0.15 6  409 239 
 PAL  HN ES       2232 52.98                             105   -0.49 6  409 239 
 PAL  HZ I        2232 59.12         6.9 0.18            106            409 239 
                                                                                
