 2012  928 2335 10.7 L   6.760 -73.125140.7  RSN  9 0.2 2.3LRSN                1
 GAP= 96        0.48       2.4     2.5  3.9 -0.1839E+01 -0.6515E+00  0.4877E+01E
 Epicentro: LOS SANTOS - SANTANDER                                             3
 ACTION:UPD 12-10-22 14:21 OP:ep   STATUS:               ID:20120928233510 L   I
 2012-09-28-2330-00M.COL___217                                                 6
 STAT SP IPHASW D HRMM SECON CODA AMPLIT PERI AZIMU VELO AIN AR TRES W  DIS CAZ7
 BAR2 SZ EP       2335 29.59                             172   -0.0510 19.6 199 
 BRR  HZ EP       2335 31.33                             150   -0.2110 75.4 301 
 BRR  HE ES       2335 48.15                             150    0.3410 75.4 301 
 BRR  HZ I        2335 52.42        59.3 0.16                          75.4 301 
 PAM  SZ EP       2335 32.43                             149   -0.0710 79.5  36 
 PAM  SZ I        2335 32.71        42.3 0.19                          79.5  36 
 PAM  SN ES       2335 49.32                             149   -0.1910 79.5  36 
 RUS  HZ EP       2335 33.62                             144    0.0110 96.0 177 
 RUS  HN ES   1   2335 51.33                             144   -0.16 7 96.0 177 
 RUS  HZ I        2335 53.68        17.4 0.18                          96.0 177 
 TAM  HZ EP       2335 37.99                             130    0.33 9  152 104 
 NOR  SN ES   1   2336 13.65                             117    0.01 6  234 236 
 CHI  HZ EP       2335 47.90                             116    0.19 8  245 196 
 CHI  HN ES   1   2336 16.49                             116   -0.09 6  245 196 
 CHI  HZ I        2336 21.91         8.4 0.23                           245 196 
 HEL  HZ EP   1   2335 50.50                             114   -0.28 6  273 257 
 HEL  HZ I        2336 26.29         9.0 0.23                           273 257 
 PRA  HZ EP       2336  3.70                             106   -0.02 6  389 210 
 PRA  HN ES       2336 45.01                             106   -0.07 6  389 210 
 PRA  HZ I        2336 50.27        12.0 0.48                           389 210 
                                                                                
