 2016 1128 2158 43.0 L   6.732 -73.118142.3  RSN  5 0.2 1.3LRSN                1
 GAP=170        0.48       4.6     2.5  3.8  0.3632E+00 -0.1844E+00 -0.2438E+01E
 Epicentro: JORDAN - SANTANDER                                                 3
 ACTION:UPD 17-10-26 21:12 OP:lp   STATUS:               ID:20161128215843 L   I
 OLDACT:UP  16-11-29 04:36 OP:edw  STATUS:               ID:20161128215741     3
 OLDACT:UP  16-11-29 04:36 OP:edw  STATUS:               ID:20161128215741     3
 OLDACT:UP  16-11-29 04:35 OP:edw  STATUS:               ID:20161128215741     3
 OLDACT:REG 16-11-29 03:13 OP:edw  STATUS:               ID:20161128215741     3
 2016-11-28-2158-00M.COL___349                                                 6
 STAT SP IPHASW D HRMM SECON CODA AMPLIT PERI AZIMU VELO AIN AR TRES W  DIS CAZ7
 BAR2 EZ EP       2159  1.76                             173   -0.3010 16.9 205 
 BAR2 EZ ES       2159 17.12                             173    0.1610 16.9 205 
 BRR  HZ EP       2159  4.29                             150    0.1710 77.6 302 
 BRR  HN ES       2159 20.61                             150   -0.0210 77.6 302 
 BRR  HZ I        2159 20.64         9.4 0.36            145           77.6 302 
 PAM  EZ EP       2159  5.24                             149    0.1610 81.6  35 
 PAM  EN ES       2159 22.18                             149   -0.1410 81.6  35 
 PAM  EZ I        2159 24.55         3.2 0.34            145           81.6  35 
 PTB  HZ EP   9   2159  8.66                             131   -1.15 0  149 262 
 PTB  HN ES       2159 29.50                             131   -0.10 9  149 262 
 ZAR  HZ EP   4   2159 17.68                             121    1.89 0  210 294 
 ZAR  HN ES       2159 41.34                             121   -0.04 8  210 294 
 ZAR  HZ I        2159 46.92         1.1 0.07            119            210 294 
                                                                                
