 2012  928 2337 15.3 L   6.765 -73.153141.8  RSN  8 0.2 1.9LRSN                1
 GAP=137        0.47       2.7     2.4  4.3  0.3239E-01  0.4015E+00  0.4666E+01E
 Epicentro: LOS SANTOS - SANTANDER                                             3
 ACTION:UPD 12-10-22 14:21 OP:ep   STATUS:               ID:20120928233715 L   I
 2012-09-28-2330-00M.COL___217                                                 6
 STAT SP IPHASW D HRMM SECON CODA AMPLIT PERI AZIMU VELO AIN AR TRES W  DIS CAZ7
 BAR2 SZ EP       2337 34.25                             172   -0.1510 19.4 190 
 BRR  HZ EP       2337 36.21                             151    0.0910 72.4 302 
 BRR  HZ I        2337 36.50        28.9 0.15                          72.4 302 
 BRR  HN ES       2337 52.66                             151    0.3310 72.4 302 
 PAM  SZ EP       2337 37.38                             149    0.0410 80.9  38 
 PAM  SN ES       2337 54.37                             149   -0.1410 80.9  38 
 PAM  SZ I        2337 56.19        12.3 0.21                          80.9  38 
 RUS  HZ EP       2337 38.45                             144    0.0410 96.8 175 
 RUS  HZ I        2337 39.42         9.0 0.17                          96.8 175 
 RUS  HE ES   1   2337 56.35                             144   -0.06 7 96.8 175 
 PTB  HE ES   1   2338  2.21                             131   -0.29 7  146 260 
 ZAR  HN ES   1   2338 12.44                             121   -0.32 6  205 293 
 ZAR  HZ I        2338 20.27         7.8 0.16                           205 293 
 CHI  HZ EP   1   2337 52.47                             117    0.10 6  245 195 
 CHI  HZ I        2338 25.30         5.4 0.30                           245 195 
 PRA  HZ EP   1   2338  8.55                             106    0.28 4  388 210 
                                                                                
