 2016  728 2341 44.0 L   6.681 -73.192143.0  RSN  4 0.4 1.4LRSN                1
 GAP=223        1.02       8.0     8.2  9.1  0.4380E+02 -0.3685E+00 -0.1145E+02E
 Epicentro: VILLANUEVA - SANTANDER                                             3
 ACTION:UPD 17-03-29 16:56 OP:lp   STATUS:               ID:20160728234144 L   I
 OLDACT:REG 16-07-29 02:54 OP:lv   STATUS:               ID:20160728233759     3
 2016-07-28-2337-59S.COL___343                                                 6
 STAT SP IPHASW D HRMM SECON CODA AMPLIT PERI AZIMU VELO AIN AR TRES W  DIS CAZ7
 BRR  HZ EP       2342  4.45                             151   -0.5310 74.3 309 
 BRR  HE ES       2342 21.58                             151    0.2010 74.3 309 
 BRR  HZ I        2342 25.74         9.6 0.39            152           74.3 309 
 RUS  HZ EP       2342  6.15                             147   -0.4010 88.0 172 
 RUS  HE ES       2342 24.50                             147    0.3210 88.0 172 
 RUS  HZ I        2342 26.10         3.1 0.32            152           88.0 172 
 PTB  HZ EP       2342 10.40                             133    0.35 9  141 264 
 PTB  HE ES       2342 30.05                             133   -0.35 9  141 264 
 PTB  HZ I        2342 31.01         2.0 0.17            137            141 264 
 ZAR  HZ EP       2342 16.98                             122    0.70 9  205 296 
 ZAR  HE ES       2342 41.37                             122   -0.13 9  205 296 
 ZAR  HZ I        2342 45.31         2.1 0.18            125            205 296 
                                                                                
