 2011  928 2321 56.5 L   6.673 -73.253145.4  RSN  4 0.2 2.0LRSN                1
 GAP=146        0.43       7.8    15.2  7.8  0.9943E+02 -0.3536E+02 -0.1482E+02E
 Epicentro: BARICHARA - SANTANDER                                              3
 ACTION:UPD 12-07-13 16:00 OP:ep   STATUS:               ID:20110928232156 L   I
 2011-09-28-2318-43S.COL___168                                                 6
 STAT SP IPHASW D HRMM SECON CODA AMPLIT PERI AZIMU VELO AIN AR TRES W  DIS CAZ7
 BAR2 SZ ES   3   2322 31.19                             175    0.13 2 11.9 139 
 BTL  SZ EP       2322 16.13                             169   -0.0510 27.2 357 
 BRR  HZ EP       2322 17.71                             153    0.1710 69.8 313 
 BRR  HE ES   2   2322 33.60                             153   -0.34 5 69.8 313 
 BRR  HZ I        2322 36.37        19.4 0.46                          69.8 313 
 RUS  HZ EP       2322 19.26                             147   -0.1210 88.3 168 
 RUS  HE ES   2   2322 37.49                             147    0.28 5 88.3 168 
                                                                                
