 2014  928 2012 57.6 L   6.861 -73.318121.8  RSN  9 0.5 2.0LRSN                1
 GAP=101        1.25       3.4     4.5  6.9  0.9155E+00  0.7866E+01  0.5082E+00E
 Epicentro: BETULIA - SANTANDER                                                3
 ACTION:UPD 14-10-03 23:09 OP:nd   STATUS:               ID:20140928201257 L   I
 OLDACT:REG 14-09-29 09:03 OP:carl STATUS:               ID:20140928200819     3
 2014-09-28-2008-19M.COL___298                                                 6
 STAT SP IPHASW D HRMM SECON CODA AMPLIT PERI AZIMU VELO AIN AR TRES W  DIS CAZ7
 BAR2 SZ EP       2013 14.70                             164    0.0910 33.3 153 
 BAR2 SZ ES       2013 27.66                             164   -0.2510 33.3 153 
 BAR2 SZ I        2013 29.07        64.6 0.28            165           33.3 153 
 BRR  HZ EP     C 2013 15.11                             156    0.0810 51.3 302 
 BRR  HN ES       2013 29.24                             156    0.6010 51.3 302 
 BRR  HZ I        2013 30.86        24.9 0.16            154           51.3 302 
 PAM  SZ EP       2013 18.55                             143    0.6110 86.4  52 
 PAM  SN ES       2013 33.63                             143   -0.1910 86.4  52 
 RUS  HZ EP       2013 19.45                             135   -0.4010  110 166 
 RUS  HN ES       2013 37.15                             135   -0.0810  110 166 
 RUS  HZ I        2013 39.97         5.3 0.26            136            110 166 
 PTB  HZ EP     C 2013 20.01                             130   -1.0510  131 254 
 PTB  HE ES       2013 39.02                             130   -0.3610  131 254 
 PTB  HZ I        2013 41.08        13.6 0.16            129            131 254 
 SPBC HZ EP       2013 24.90                             124    1.12 9  158 212 
 SPBC HN ES       2013 44.21                             124   -0.02 9  158 212 
 SPBC HZ I        2013 45.82        16.4 0.20            124            158 212 
 ZAR  HZ EP       2013 26.41                             119    0.01 9  184 292 
 ZAR  HE ES       2013 49.43                             119    0.54 9  184 292 
 ZAR  HZ I        2013 52.54        11.4 0.26            119            184 292 
 SML  HZ EP       2013 31.38                             113   -0.05 8  230 339 
 SML  HN ES       2013 57.13                             113   -0.71 8  230 339 
 SML  HZ I        2014  3.81        20.9 0.10            114            230 339 
 CHI  HZ EP       2013 34.47                             111    0.15 8  251 191 
 CHI  HN ES       2014  2.80                             111   -0.20 8  251 191 
 CHI  HZ I        2014  8.69         2.1 0.46            112            251 191 
 MON  HZ EP   4   2013 41.41                             105   -2.08 0  335 309 
 MON  HE ES   4   2014 17.36                             105   -1.96 0  335 309 
                                                                                
