 2010  428 2138 59.3 L   6.753 -72.975139.2  RSN  5 0.3 2.0LRSN                1
 GAP=224        0.65       7.4     9.0  9.2 -0.3072E+02 -0.1986E+02  0.1032E+02E
 Epicentro: CEPITA - SANTANDER                                                 3
 ACTION:UPD 10-08-24 10:01 OP:vdl  STATUS:               ID:20100428213859 L   I
 2010-04-28-2136-55S.COL___104                                                 6
 STAT SP IPHASW D HRMM SECON CODA AMPLIT PERI AZIMU VELO SNR AR TRES W  DIS CAZ7
 BAR2 SZ EP   1   2139 18.72                             168     0.4 7   29 232 
 BAR2 SZ ES   2   2139 32.73                             168    -0.4 5   29 232 
 BRR  HZ EP       2139 20.86                             146    -0.210   90 296 
 BRR  HN ES   1   2139 38.22                             146     0.3 7   90 296 
 BRR  HZ I        2139 42.34        19.0 0.74                            90 296 
 GUE  SZ EP   1   2139 23.79                             138     0.1 7  119   3 
 GRA  SZ ES   2   2139 42.88                             136    -0.5 5  127   9 
 RREF BN ES   2   2140 22.75                             109    -0.6 3  333 232 
 RREF BZ I        2140 30.56         3.3 0.91                           333 232 
                                                                                
