 2016  528 2320 56.7 L   6.828 -73.159134.1  RSN  5 0.3 1.1LRSN                1
 GAP=182        0.84       4.9     5.4  6.4  0.8034E+01 -0.2647E+01 -0.7334E+01E
 Epicentro: LOS SANTOS - SANTANDER                                             3
 ACTION:UPD 16-08-18 17:50 OP:cam  STATUS:               ID:20160528232056 L   I
 OLDACT:REG 16-05-29 03:06 OP:edw  STATUS:               ID:20160528231746     3
 2016-05-28-2317-46M.COL___319                                                 6
 STAT SP IPHASW D HRMM SECON CODA AMPLIT PERI AZIMU VELO AIN AR TRES W  DIS CAZ7
 BAR2 EZ EP       2321 15.02                             168    0.0610 26.2 186 
 BAR2 EZ ES       2321 28.74                             168   -0.4910 26.2 186 
 BAR2 EZ I        2321 31.27         4.9 0.15            168           26.2 186 
 BRR  HN ES       2321 31.96                             151    0.1610 68.4 297 
 RUS  HZ EP       2321 19.48                             140   -0.0610  104 175 
 RUS  HE ES       2321 37.78                             140    0.4010  104 175 
 RUS  HZ I        2321 39.36         1.2 0.60            141            104 175 
 PTB  HZ EP       2321 22.10                             129   -0.53 9  147 258 
 PTB  HN ES       2321 43.10                             129    0.22 9  147 258 
 OCA  HZ EP       2321 24.03                             127    0.25 9  157 354 
                                                                                
