 2016  228 2233 20.3 L   6.771 -73.170140.6  RSN  6 0.2 1.5LRSN                1
 GAP=135        0.63       2.1     2.9  5.5  0.1528E+00  0.5486E+01  0.1908E+01E
 Epicentro: LOS SANTOS - SANTANDER                                             3
 ACTION:UPD 16-03-04 21:30 OP:rebc STATUS:               ID:20160228223320 L   I
 OLDACT:REG 16-02-29 03:40 OP:cara STATUS:               ID:20160228222749     3
 2016-02-28-2227-49M.COL___322                                                 6
 STAT SP IPHASW D HRMM SECON CODA AMPLIT PERI AZIMU VELO AIN AR TRES W  DIS CAZ7
 PAM  EZ IP     C 2233 41.86                             149   -0.3610 81.5  40 
 PAM  EN ES       2233 59.33                             149    0.0010 81.5  40 
 PAM  EZ I        2234  1.12         7.5 0.54            151           81.5  40 
 RUS  HZ EP       2233 43.33                             144    0.0010 97.6 174 
 RUS  HN ES       2234  1.38                             144    0.0910 97.6 174 
 RUS  HZ I        2234  2.66         2.5 0.30            146           97.6 174 
 PTB  HZ EP       2233 46.41                             131   -0.14 9  145 260 
 PTB  HN ES       2234  6.65                             131   -0.38 9  145 260 
 PTB  HZ I        2234  9.47         3.0 0.14            131            145 260 
 OCA  HE ES       2234 10.79                             128    0.32 9  163 354 
 OCA  HZ I        2234 14.76        10.2 0.18            129            163 354 
 ZAR  HZ EP       2233 52.47                             121    0.19 9  203 293 
 ZAR  HN ES       2234 17.41                             121    0.18 9  203 293 
 ZAR  HZ I        2234 25.24         3.5 0.26            122            203 293 
 CHI  HZ EP       2233 57.18                             116   -0.12 8  245 195 
 CHI  HN ES       2234 26.59                             116    0.43 8  245 195 
 CHI  HZ I        2234 31.92         1.2 0.56            118            245 195 
                                                                                
