 2014  328 2220 48.0 L   6.787 -73.120150.5  RSN  9 0.4 1.8LRSN                1
 GAP=140        0.91       3.6     4.7  6.8 -0.1027E+01  0.8751E+01 -0.1495E+01E
 Epicentro: LOS SANTOS - SANTANDER                                             3
 OLDACT:REG 14-03-29 00:39 OP:fm   STATUS:               ID:20140328221818     3
 ACTION:UPD 14-04-09 23:21 OP:nd   STATUS:               ID:20140328222048 L   I
 OLDACT:UP  14-04-01 13:22 OP:nd   STATUS:               ID:20140328221818     3
 OLDACT:UP  14-03-29 01:23 OP:fm   STATUS:               ID:20140328221818     3
 OLDACT:UP  14-03-29 01:23 OP:fm   STATUS:               ID:20140328221818     3
 2014-03-28-2218-18M.COL___253                                                 6
 STAT SP IPHASW D HRMM SECON CODA AMPLIT PERI AZIMU VELO AIN AR TRES W  DIS CAZ7
 BAR2 SZ ES   1   2221 23.65                             171   -0.25 7 22.6 198 
 BAR2 SZ I        2221 24.69        29.8 0.36            168           22.6 198 
 BRR  HZ EP     C 2221 10.10                             152    0.2910 74.4 298 
 BRR  HN ES       2221 27.48                             152    0.6410 74.4 298 
 BRR  HZ I        2221 32.27         8.7 0.28            150           74.4 298 
 PAM  SZ EP     C 2221 10.94                             152    0.2910 76.7  37 
 PAM  SN ES       2221 27.84                             152   -0.5010 76.7  37 
 PAM  SZ I        2221 29.88         7.1 0.68            157           76.7  37 
 RUS  HZ EP   1   2221 12.18                             145    0.10 7 99.0 178 
 RUS  HN ES       2221 30.89                             145    0.0110 99.0 178 
 RUS  HZ I        2221 33.79         5.4 0.44            148           99.0 178 
 PTB  HZ EP   1   2221 14.79                             132   -0.77 7  150 260 
 PTB  HE ES   1   2221 36.50                             132   -0.57 7  150 260 
 PTB  HZ I        2221 41.86        11.3 0.32            132            150 260 
 OCA  HN ES   1   2221 39.46                             130    0.15 7  162 352 
 SPBC HZ EP   1   2221 17.16                             130    0.26 7  164 220 
 SPBC HE ES   1   2221 39.29                             130   -0.18 7  164 220 
 SPBC HZ I        2221 43.13         9.2 0.36            131            164 220 
 ZAR  HZ EP   1   2221 21.17                             123    0.12 6  207 292 
 ZAR  HN ES   1   2221 47.22                             123    0.36 6  207 292 
 ZAR  HZ I        2221 53.33         8.1 0.28            124            207 292 
 SML  HN ES   1   2221 53.30                             118   -0.82 6  246 335 
                                                                                
