 2016 1028 2210 15.7 L   7.432 -73.114141.8  RSN  4 0.3 1.4LRSN                1
 GAP=221        0.53       9.9     4.6  5.6 -0.2722E+02  0.7038E+01 -0.1110E+02E
 Epicentro: EL PLAYON - SANTANDER                                              3
 ACTION:UPD 16-11-09 19:23 OP:rebc STATUS:               ID:20161028221015 L   I
 OLDACT:DUP 16-10-29 04:39 OP:and  STATUS:               ID:20161028220747d    3
 2016-10-28-2208-00M.COL___337                                                 6
 STAT SP IPHASW D HRMM SECON CODA AMPLIT PERI AZIMU VELO AIN AR TRES W  DIS CAZ7
 PAM  EZ EP       2210 36.19                             161    0.2710 46.9 103 
 PAM  EN ES       2210 51.76                             161    0.0510 46.9 103 
 PAM  EZ I        2210 53.00         4.9 0.23            160           46.9 103 
 BRR  HZ EP       2210 36.45                             151   -0.1810 75.1 242 
 BRR  HN ES       2210 52.83                             151   -0.1410 75.1 242 
 BAR2 EZ EP   2   2210 37.90                             145   -0.24 5 93.1 185 
 BAR2 EZ ES   2   2210 55.48                             145   -0.19 5 93.1 185 
 PTB  HZ EP   2   2210 45.05                             125   -0.18 4  178 236 
 PTB  HE ES   2   2211  9.01                             125    0.72 4  178 236 
 PTB  HZ I        2211 11.04         3.3 0.26            125            178 236 
                                                                                
