 2013 1228 2357 53.5 L   6.810 -73.159145.6  RSN 11 0.2 1.9LRSN                1
 GAP= 70        0.61       1.6     2.3  3.6 -0.2214E+00  0.1150E+01 -0.3141E+00E
 Epicentro: LOS SANTOS - SANTANDER                                             3
 ACTION:UPD 14-01-13 10:22 OP:ep   STATUS:               ID:20131228235753 L   I
 OLDACT:UP  13-12-28 22:39 OP:cam  STATUS:               ID:20131228235000     3
 OLDACT:REG 13-12-28 21:48 OP:cam  STATUS:               ID:20131228235000     3
 2013-12-28-2350-00M.COL___285                                                 6
 STAT SP IPHASW D HRMM SECON CODA AMPLIT PERI AZIMU VELO AIN AR TRES W  DIS CAZ7
 BAR2 SZ EP       2358 13.03                             170   -0.0510 24.2 186 
 BAR2 SZ ES       2358 28.37                             170   -0.0110 24.2 186 
 BAR2 SZ I        2358 30.47        16.8 0.26            169           24.2 186 
 BRR  HZ EP       2358 14.86                             153    0.3810 69.4 298 
 BRR  HE ES   4   2358 32.42                             153    1.54 0 69.4 298 
 BRR  HZ I        2358 37.26         9.5 0.18            153           69.4 298 
 PAM  SZ EP       2358 15.83                             151    0.1810 77.4  41 
 PAM  SN ES       2358 32.87                             151   -0.1010 77.4  41 
 PAM  SZ I        2358 35.17        20.0 0.56            156           77.4  41 
 RUS  HZ EP       2358 16.95                             143   -0.3310  102 175 
 RUS  HN ES       2358 36.00                             143    0.1510  102 175 
 RUS  HZ I        2358 38.24         7.8 0.48            146            102 175 
 PTB  HZ EP       2358 19.88                             132   -0.42 9  147 258 
 PTB  HN ES       2358 41.10                             132   -0.13 9  147 258 
 PTB  HZ I        2358 48.55         9.3 0.28            133            147 258 
 TAM  HZ EP       2358 21.17                             130   -0.10 9  157 105 
 OCA  HZ EP       2358 22.14                             130    0.51 9  159 354 
 OCA  HN ES       2358 43.41                             130   -0.19 9  159 354 
 SPBC HZ EP       2358 21.91                             129   -0.03 9  163 218 
 SPBC HN ES       2358 44.35                             129    0.20 9  163 218 
 SPBC HZ I        2358 49.03        14.4 0.22            131            163 218 
 ZAR  HN ES       2358 51.07                             123    0.21 9  202 292 
 SML  HZ EP       2358 29.97                             118    0.08 8  242 335 
 SML  HN ES       2358 57.94                             118   -0.37 8  242 335 
 SML  HZ I        2359  0.87        12.9 0.10            121            242 335 
 CHI  HZ EP       2358 31.19                             117   -0.03 8  249 195 
 CHI  HN ES       2359  0.65                             117   -0.03 8  249 195 
 CHI  HZ I        2359  4.44         2.8 0.38            120            249 195 
 SJC  HZ EP   4   2358 47.33                             106   -1.48 0  407 327 
                                                                                
