 2014 1128 2216 19.1 L   6.794 -73.203145.2  RSN  4 0.4 1.6LRSN                1
 GAP=130        1.11       6.1     5.7  9.8 -0.4036E+01  0.3801E+01  0.8402E+01E
 Epicentro: ZAPATOCA - SANTANDER                                               3
 ACTION:UPD 14-12-19 15:48 OP:nd   STATUS:               ID:20141128221619 L   I
 OLDACT:DUP 14-11-29 10:11 OP:stll STATUS:               ID:20141128220752d    3
 2014-11-28-2207-50M.COL___306                                                 6
 STAT SP IPHASW D HRMM SECON CODA AMPLIT PERI AZIMU VELO AIN AR TRES W  DIS CAZ7
 BRR  HZ EP       2216 40.32                             154    0.4410 66.1 302 
 BRR  HN ES       2216 56.64                             154    0.5410 66.1 302 
 BRR  HZ I        2216 58.92         9.2 0.34            153           66.1 302 
 PAM  SZ EP       2216 41.21                             149   -0.3010 82.0  43 
 PAM  SZ I        2216 41.62        13.7 0.18            152           82.0  43 
 PAM  SN ES       2216 58.70                             149   -0.3110 82.0  43 
 RUS  HZ EP       2216 42.72                             144   -0.0410  101 172 
 RUS  HN ES       2217  1.42                             144    0.1810  101 172 
 PTB  HZ EP       2216 45.69                             133    0.27 9  141 259 
 PTB  HN ES       2217  5.13                             133   -0.85 9  141 259 
 PTB  HZ I        2217  9.82         2.7 0.28            133            141 259 
                                                                                
