 2014  728 2154 55.1 L   6.817 -73.093148.5  RSN 14 0.4 2.0LRSN                1
 GAP=142        0.86       3.4     4.2  6.8 -0.8344E+00  0.9717E+01  0.2811E+01E
 Epicentro: LOS SANTOS - SANTANDER                                             3
 ACTION:UPD 15-03-16 20:47 OP:nd   STATUS:               ID:20140728215455 L   I
 OLDACT:REG 14-07-29 03:17 OP:fm   STATUS:               ID:20140728214820     3
 2014-07-28-2148-20M.COL___263                                                 6
 STAT SP IPHASW D HRMM SECON CODA AMPLIT PERI AZIMU VELO AIN AR TRES W  DIS CAZ7
 BAR2 SZ EP       2155 15.64                             169    0.4610 26.7 202 
 BAR2 SZ ES   1   2155 30.94                             169    0.14 7 26.7 202 
 BAR2 SZ I        2155 36.67        11.9 0.18            167           26.7 202 
 PAM  SZ EP   1   2155 17.07                             153   -0.29 7 72.3  37 
 PAM  SN ES   1   2155 34.56                             153   -0.13 7 72.3  37 
 PAM  SZ I        2155 37.90        11.0 0.48            159           72.3  37 
 RUS  HZ EP   1   2155 19.26                             144   -0.02 7  102 179 
 RUS  HN ES   1   2155 37.85                             144   -0.26 7  102 179 
 RUS  HZ I        2155 40.22         5.1 0.30            148            102 179 
 PTB  HZ EP       2155 22.63                             131   -0.25 9  154 259 
 PTB  HN ES       2155 43.80                             131   -0.72 9  154 259 
 PTB  HZ I        2155 51.10        16.6 0.44            132            154 259 
 SPBC HZ EP   1   2155 24.59                             129    0.25 7  168 220 
 SPBC HE ES   1   2155 47.35                             129    0.24 7  168 220 
 SPBC HZ I        2155 53.85        19.0 0.24            131            168 220 
 ZAR  HZ EP   1   2155 28.28                             122    0.03 6  209 291 
 ZAR  HE ES       2155 54.82                             122    0.75 8  209 291 
 ZAR  HZ I        2156  2.65        10.5 0.22            124            209 291 
 NOR  HZ EP   4   2155 29.05                             118   -2.61 0  240 235 
 NOR  HN ES   1   2155 59.87                             118   -0.26 6  240 235 
 NOR  HZ I        2156  3.40         9.9 0.18            121            240 235 
 SML  HN ES   1   2156  0.63                             118   -0.13 6  244 334 
 SML  HZ I        2156  8.33        15.4 0.26            121            244 334 
 CHI  HZ EP   1   2155 32.80                             117   -0.56 6  252 196 
 CHI  HN ES   1   2156  4.02                             117    0.85 6  252 196 
 CHI  HZ I        2156  8.19         3.4 0.20            121            252 196 
 GUY2CHZ EP   1   2155 39.42                             112   -0.12 5  307 235 
 GUY2CHE ES   4   2156 12.75                             112   -1.41 0  307 235 
 GUY2CHZ I        2156 22.93         5.5 0.30                           307 235 
 RREF HZ EP   4   2155 40.45                             111   -1.60 0  327 230 
 RREF HN ES   1   2156 17.90                             111   -0.73 5  327 230 
 RREF HZ I        2156 27.69         4.9 0.22            114            327 230 
 TOL  SZ EP   4   2155 45.14                             109    1.01 0  349 225 
 TOL  SN ES   1   2156 23.14                             109    0.80 5  349 225 
 TOL  SZ I        2156 27.19         8.9 0.50            112            349 225 
 PRA  HZ EP   4   2155 50.18                             107    0.89 0  397 210 
 PRA  HN ES   1   2156 31.45                             107   -0.07 4  397 210 
 PRA  HZ I        2156 36.93         3.2 0.20            110            397 210 
 SJC  HZ EP   4   2155 49.18                             106   -1.80 0  411 326 
 SJC  HN ES   4   2156 30.32                             106   -4.22 0  411 326 
 SJC  HZ I        2156 35.65         2.4 0.66            109            411 326 
                                                                                
