 2013  528 2158 29.2 L   6.788 -73.126148.4  RSN 16 0.4 2.4LRSN                1
 GAP= 55        0.81       2.5     2.8  3.8 -0.2127E+00  0.6507E+00  0.2142E+01E
 Epicentro: LOS SANTOS - SANTANDER                                             3
 ACTION:UPD 13-06-20 09:54 OP:ep   STATUS:               ID:20130528215829 L   I
 2013-05-28-2156-20M.COL___220                                                 6
 STAT SP IPHASW D HRMM SECON CODA AMPLIT PERI AZIMU VELO AIN AR TRES W  DIS CAZ7
 BAR2 SZ EP       2158 49.12                             171    0.0310 22.6 196 
 BAR2 SZ ES       2159  4.44                             171   -0.2010 22.6 196 
 BAR2 SZ I        2159  5.83        55.0 0.24            163           22.6 196 
 GIR2 SZ EP       2158 49.14                             167   -0.0510 33.0 347 
 GIR2 SZ ES       2159  4.85                             167    0.0410 33.0 347 
 GIR2 SZ I        2159  6.05        32.2 0.40            161           33.0 347 
 BRR  HZ EP       2158 50.96                             152    0.2310 73.7 299 
 BRR  HN ES       2159  8.05                             152    0.4910 73.7 299 
 BRR  HZ I        2159 12.03        41.0 0.46            141           73.7 299 
 PAM  SZ EP       2158 51.97                             151    0.3410 77.1  38 
 PAM  SE ES       2159  9.10                             151   -0.0710 77.1  38 
 PAM  SZ I        2159 11.29        65.4 0.56            149           77.1  38 
 RUS  HZ EP       2158 52.97                             145   -0.1010 99.2 177 
 RUS  HN ES       2159 11.60                             145   -0.1210 99.2 177 
 RUS  HZ I        2159 12.76        29.6 0.30            136           99.2 177 
 PTB  HZ EP       2158 55.80                             132   -0.71 9  150 259 
 PTB  HE ES       2159 17.43                             132   -0.41 9  150 259 
 PTB  HZ I        2159 22.97        38.6 0.25            121            150 259 
 TAM  HZ EP       2158 57.25                             132    0.43 9  153 105 
 OCA  HN ES   1   2159 19.67                             130   -0.50 7  162 352 
 YOP  SZ EP   1   2158 58.53                             127   -0.66 7  177 154 
 YOP  SE ES   1   2159 22.90                             127    0.29 7  177 154 
 ZAR  HN ES   1   2159 27.62                             123   -0.05 6  207 292 
 ZAR  HZ I        2159 32.90        30.7 0.36            113            207 292 
 NOR  HZ EP       2159  5.20                             119    0.05 8  236 235 
 NOR  HN ES       2159 33.24                             119    0.02 8  236 235 
 NOR  HZ I        2159 40.24        22.2 0.30            110            236 235 
 SML  HE ES   1   2159 35.31                             118    0.30 6  246 335 
 CHI  HZ EP       2159  7.23                             118    0.30 8  248 196 
 CHI  HN ES   1   2159 36.62                             118    0.23 6  248 196 
 CHI  HZ I        2159 42.46        12.9 0.60            110            248 196 
 HEL  HZ EP       2159 10.32                             115    0.62 8  274 256 
 HEL  HZ I        2159 47.60        17.9 0.50            107            274 256 
 SDV  BZ EP       2159 18.43                             109   -0.77 6  360  50 
 PRA  HZ EP   1   2159 22.54                             107   -0.22 4  392 210 
 PRA  HZ I        22 0 10.60        16.4 0.64            101            392 210 
                                                                                
