 2013  628 2224 40.6 L   6.791 -73.152140.5  RSN  4 0.2 1.2LRSN                1
 GAP=136        0.46       3.5     3.5  6.5 -0.4010E+01  0.6931E+01 -0.3308E+01E
 Epicentro: LOS SANTOS - SANTANDER                                             3
 ACTION:UPD 14-01-08 09:57 OP:ep   STATUS:               ID:20130628222440 L   I
 OLDACT:REG 13-06-29 00:05 OP:cam  STATUS:               ID:20130628221959     3
 2013-06-28-2219-59M.COL___266                                                 6
 STAT SP IPHASW D HRMM SECON CODA AMPLIT PERI AZIMU VELO AIN AR TRES W  DIS CAZ7
 BRR  HZ EP   1   2225  1.48                             152    0.34 7 71.1 300 
 PAM  SZ EP       2225  2.36                             149    0.0610 78.6  39 
 PAM  SE ES   1   2225 19.08                             149   -0.17 7 78.6  39 
 RUS  HZ EP   1   2225  3.71                             143   -0.02 7 99.6 176 
 RUS  HN ES   1   2225 21.83                             143    0.03 7 99.6 176 
 RUS  HZ I        2225 23.19         2.3 0.28            146           99.6 176 
 PTB  HZ EP   1   2225  6.66                             131   -0.37 7  147 259 
 PTB  HN ES   1   2225 27.70                             131    0.03 7  147 259 
 PTB  HZ I        2225 31.79         2.7 0.10            132            147 259 
                                                                                
