 2011  228 2342 21.5 L   6.792 -73.079138.2  RSN  6 0.3 1.8LRSN                1
 GAP=166        0.68       3.8    10.1  6.6 -0.1934E+02  0.2709E+02 -0.5377E+01E
 Epicentro: LOS SANTOS - SANTANDER                                             3
 ACTION:UP  11-03-28 15:11 OP:jfem STATUS:               ID:20110228234221 L   I
 2011-02-28-2340-03S.COL___135                                                 6
 STAT SP IPHASW D HRMM SECON CODA AMPLIT PERI AZIMU VELO SNR AR TRES W  DIS CAZ7
 BAR2 SZ EP       2342 40.19                             169    -0.110   25 208 
 BAR2 SZ ES   1   2342 54.63                             169    -0.3 7   25 208 
 BAR2 SZ I        2342 56.01        22.2 0.20                            25 208 
 RUS  HZ EP       2342 44.34                             143    -0.110   99 180 
 RUS  HN ES   1   2343  2.56                             143     0.2 7   99 180 
 RUS  HZ I        2343  4.78         8.8 0.15                            99 180 
 GRA  SZ EP       2342 45.86                             136    -0.110  125  14 
 GRA  SZ ES   1   2343  5.45                             136     0.4 7  125  14 
 GRA  SZ I        2343  6.51         9.7 0.25                           125  14 
 CHI  HZ EP   1   2342 58.88                             115    -0.1 6  250 197 
 CHI  HN ES   2   2343 28.52                             115     0.4 4  250 197 
 CHI  HZ I        2343 35.78         4.1 0.43                           250 197 
 HEL  HZ EP   1   2343  2.76                             112     0.6 6  279 256 
 HEL  HZ I        2343 38.58         4.7 0.48                           279 256 
 DBB  SZ EP   2   2343  8.73                             108    -0.8 3  347 274 
                                                                                
