 2011  528 2300 43.8 L   6.127 -73.872 93.0  RSN  5 0.4 2.0LRSN                1
 GAP=129        0.80       5.0     4.9 13.4 -0.7946E+01  0.2880E+02  0.1281E+02E
 Epicentro: EL PEON - SANTANDER                                                3
 ACTION:UP  11-06-29 08:57 OP:tino STATUS:               ID:20110528230043 L   I
 2011-05-28-2259-12S.COL___113                                                 6
 STAT SP IPHASW D HRMM SECON CODA AMPLIT PERI AZIMU VELO SNR AR TRES W  DIS CAZ7
 RUS  HZ EP       23 1  2.08                             132     0.110   91 106 
 RUS  HN ES   2   23 1 16.44                             132     0.3 5   91 106 
 BAR2 SZ EP       23 1  1.97                             131     0.310   92  56 
 BAR2 SZ ES   1   23 1 15.01                             131    -0.6 7   92  56 
 BAR2 SZ I        23 1 17.65        15.3 0.33                            92  56 
 BRR  HZ EP       23 1  3.08                             125     0.010  110   9 
 BRR  HZ I        23 1  3.30        37.8 0.12                           110   9 
 BRR  HN ES   2   23 1 18.53                             125     0.4 5  110   9 
 NOR  SZ EP       23 1  4.44                             121    -0.410  127 241 
 NOR  SN ES   2   23 1 21.86                             121     0.5 5  127 241 
 PRA  HZ EP   1   23 1 23.89                             103     0.3 5  290 203 
 PRA  HN ES   3   23 1 53.54                             103    -1.1 2  290 203 
                                                                                
