 2017  228 2025 25.8 L   6.786 -73.126152.0  RSN 12 0.4 2.1LRSN                1
 GAP=140        0.97       3.7     3.7  5.5 -0.8574E+00  0.5626E+01  0.3933E+01E
 Epicentro: LOS SANTOS - SANTANDER                                             3
 ACTION:UPD 17-05-24 15:41 OP:jn   STATUS:               ID:20170228202525 L   I
 OLDACT:UP  17-03-01 04:38 OP:edw  STATUS:               ID:20170228201745     3
 OLDACT:UP  17-03-01 04:38 OP:edw  STATUS:               ID:20170228201745     3
 OLDACT:UP  17-03-01 04:37 OP:edw  STATUS:               ID:20170228201745     3
 OLDACT:UP  17-03-01 04:35 OP:edw  STATUS:               ID:20170228201745     3
 OLDACT:REG 17-03-01 03:56 OP:edw  STATUS:               ID:20170228201745     3
 2017-02-28-2018-00M.COL___383                                                 6
 STAT SP IPHASW D HRMM SECON CODA AMPLIT PERI AZIMU VELO AIN AR TRES W  DIS CAZ7
 BAR2 EZ EP       2025 46.11                             171   -0.1010 22.3 196 
 BAR2 EZ ES       2026  1.66                             171   -0.4310 22.3 196 
 BAR2 EZ I        2026  3.82        21.5 0.28            168           22.3 196 
 BRR  HZ IP     D 2025 48.11                             153    0.3010 73.8 299 
 BRR  HN ES       2026  5.80                             153    0.8510 73.8 299 
 PAM  EZ IP     D 2025 49.04                             152    0.3210 77.2  38 
 PAM  EN ES       2026  6.23                             152   -0.3310 77.2  38 
 RUS  HZ EP       2025 50.04                             145   -0.0610 98.9 177 
 RUS  HN ES       2026  9.01                             145   -0.0110 98.9 177 
 RUS  HZ I        2026  9.66        18.8 0.21            145           98.9 177 
 PTB  HZ EP   9   2025 53.08                             133   -0.41 0  150 260 
 PTB  HN ES       2026 14.25                             133   -0.39 9  150 260 
 PTB  HZ I        2026 16.23        19.9 0.14            131            150 260 
 ZAR  HZ EP       2025 58.19                             123   -0.77 8  207 292 
 ZAR  HN ES       2026 24.42                             123   -0.37 8  207 292 
 ZAR  HZ I        2026 30.15        22.4 0.32            122            207 292 
 NOR  HZ EP       2026  2.03                             120   -0.01 8  236 235 
 NOR  HN ES       2026 30.74                             120    0.48 8  236 235 
 NOR  HZ I        2026 33.83        11.4 0.26            119            236 235 
 CHI  HZ EP       2026  4.22                             118    0.42 8  248 196 
 CHI  HN ES       2026 33.06                             118   -0.35 8  248 196 
 CHI  HZ I        2026 39.46         4.9 0.28            118            248 196 
 HEL  HZ EP   4   2026  8.20                             116    1.63 0  274 256 
 HEL  HN ES       2026 38.24                             116   -0.09 8  274 256 
 HEL  HZ I        2026 46.05         8.5 0.32            115            274 256 
 ELA  HN ES   4   2026 52.35                             111    2.50 0  330 230 
 CBOC HZ EP   4   2026 14.52                             111    1.32 0  335 252 
 CBOC HN ES       2026 49.97                             111   -0.17 7  335 252 
 CBOC HZ I        2026 54.57         2.7 0.20            110            335 252 
 ANIL HZ EP   4   2026 17.60                             109    1.66 0  358 225 
 ANIL HE ES   2   2026 55.56                             109    0.54 3  358 225 
 SJC  HZ EP   4   2026 20.33                             106   -1.57 0  412 327 
 SJC  HN ES   4   2026 59.34                             106   -6.29 0  412 327 
 SJC  HZ I        2027  6.48         2.5 0.34            107            412 327 
                                                                                
