 2013  928 2010  7.0 L   6.807 -73.152146.2  RSN  9 0.4 2.0LRSN                1
 GAP=135        1.08       3.4     4.7  6.1  0.1304E+01  0.6583E+01  0.2704E+01E
 Epicentro: LOS SANTOS - SANTANDER                                             3
 ACTION:UPD 13-10-22 09:25 OP:ep   STATUS:               ID:20130928201007 L   I
 OLDACT:REG 13-09-29 01:45 OP:carl STATUS:               ID:20130928200959     3
 2013-09-28-2009-59M.COL___272                                                 6
 STAT SP IPHASW D HRMM SECON CODA AMPLIT PERI AZIMU VELO AIN AR TRES W  DIS CAZ7
 BAR2 SZ EP       2010 26.74                             170    0.0510 24.0 188 
 BAR2 SZ ES       2010 41.71                             170   -0.3410 24.0 188 
 BAR2 SZ I        2010 42.70        15.4 0.48            169           24.0 188 
 BRR  HZ EP       2010 28.47                             153    0.3310 70.2 298 
 BRR  HN ES       2010 45.59                             153    0.9610 70.2 298 
 BRR  HN I        2010 48.17        33.1 0.20            149           70.2 298 
 PAM  SZ EP       2010 29.49                             151    0.2410 77.2  40 
 PAM  SN ES       2010 46.55                             151   -0.0510 77.2  40 
 PAM  SZ I        2010 48.54        19.5 0.50            154           77.2  40 
 RUS  HZ EP       2010 30.75                             144   -0.1010  101 176 
 RUS  HN ES       2010 49.23                             144   -0.2210  101 176 
 RUS  HZ I        2010 50.31        10.7 0.34            145            101 176 
 PTB  HZ EP       2010 34.20                             132    0.25 9  147 258 
 PTB  HN ES       2010 54.08                             132   -0.90 9  147 258 
 PTB  HZ I        2011  0.54         7.0 0.24            130            147 258 
 ZAR  HN ES       2011  4.95                             123    0.32 9  203 292 
 ZAR  HN I        2011 13.42        14.7 0.32            121            203 292 
 SML  HZ EP       2010 43.05                             118   -0.49 8  243 335 
 SML  HN ES       2011 11.35                             118   -0.70 8  243 335 
 SML  HZ I        2011 18.53         8.3 0.10            117            243 335 
 CHI  HZ EP       2010 44.64                             117   -0.14 8  249 195 
 CHI  HN ES       2011 14.38                             117    0.13 8  249 195 
 CHI  HZ I        2011 17.78         3.8 0.72            118            249 195 
 PRA  HZ EP       2011  1.10                             107    0.53 6  392 209 
 PRA  HN ES       2011 42.47                             107    0.11 6  392 209 
 PRA  HZ I        2011 48.96         2.9 0.64            107            392 209 
                                                                                
