 2011  528 2349 40.0 L   6.097 -73.281150.3  RSN 13 0.4 3.2LRSN                1
 GAP=167        0.81       4.0     5.7  9.7 -0.1449E+02 -0.8981E+00  0.8152E+01E
 Epicentro: GAMBITA - SANTANDER                                                3
 ACTION:UP  11-06-29 08:57 OP:tino STATUS:               ID:20110528234940 L   I
 2011-05-28-2348-14S.COL___113                                                 6
 STAT SP IPHASW D HRMM SECON CODA AMPLIT PERI AZIMU VELO SNR AR TRES W  DIS CAZ7
 BAR2 SZ EP       2350  1.56                             159     0.310   56  11 
 BAR2 SZ ES   3   2350 18.13                             159     0.3 2   56  11 
 BAR2 SZ I        2350 20.12       182.9 0.30                            56  11 
 BRR  HZ IP     C 2350  5.37                             139     0.310  121 337 
 BRR  HZ I        2350  6.08       125.6 0.38                           121 337 
 BRR  HN ES   3   2350 24.95                             139     0.3 2  121 337 
 PAM  SZ EP   2   2350  8.97                             133     0.6 5  152  25 
 PAM  SN ES   3   2350 31.05                             133     0.6 2  152  25 
 NOR  SZ EP   1   2350 11.07                             126     0.1 7  186 252 
 NOR  SN ES   1   2350 35.07                             126     0.0 7  186 252 
 BRI  SZ EP       2350 11.58                             126     0.3 9  187  17 
 BRI  SZ ES   1   2350 34.78                             126    -0.9 7  187  17 
 GRA  SZ EP       2350 12.89                             123    -0.1 9  205  15 
 GRA  SZ ES   1   2350 38.22                             123    -0.5 6  205  15 
 GRA  SZ I        2350 41.50        87.8 0.36                           205  15 
 VIL  SZ EP   2   2350 15.06                             121     0.0 4  224 192 
 VIL  SN ES   2   2350 41.60                             121    -0.7 4  224 192 
 OCA  SZ EP       2350 16.24                             119    -0.2 8  237 359 
 OCA  SZ ES   1   2350 45.18                             119     0.4 6  237 359 
 OCA  SZ I        2350 48.45       222.5 0.38                           237 359 
 HEL  HZ EP   1   2350 17.85                             118    -0.1 6  249 273 
 HEL  HN ES   2   2350 46.68                             118    -0.9 4  249 273 
 HEL  HZ I        2350 55.44       107.5 0.33                           249 273 
 PRA  HZ EP   1   2350 25.14                             112    -0.1 5  318 214 
 PRA  HN ES   1   2351  0.97                             112     0.6 5  318 214 
 PRA  HZ I        2351  3.25       105.9 0.27                           318 214 
 SJA  SZ EP   1   2350 25.03                             111    -0.6 5  321 193 
 SJA  SZ I        2351  5.81       132.8 0.40                           321 193 
 DBB  SZ EP       2350 27.61                             110    -0.1 7  340 288 
 MON  HZ EP   4   2350 31.24                             107    -2.9 0  396 319 
 MON  HZ I        2351 18.38        29.1 0.74                           396 319 
 SJC  HZ EP   4   2350 39.85                             104    -3.0 0  469 334 
 URI  HZ EP   4   2350 59.48                              99    -3.2 0  636  13 
                                                                                
