 2012  128 2238  8.1 L   6.773 -73.097143.0  RSN 13 0.2 2.4LRSN                1
 GAP=144        0.44       2.0     2.6  3.1 -0.9637E+00  0.1164E+01  0.1567E+01E
 Epicentro: LOS SANTOS - SANTANDER                                             3
 ACTION:UP  12-02-03 08:21 OP:REBC STATUS:               ID:20120128223808 L   I
 2012-01-28-2230-00M.COL___188                                                 6
 STAT SP IPHASW D HRMM SECON CODA AMPLIT PERI AZIMU VELO SNR AR TRES W  DIS CAZ7
 BAR2 SZ EP   1   2238 27.25                             171    -0.1 7   22 205 
 BAR2 SZ ES   1   2238 42.35                             171     0.0 7   22 205 
 BAR2 SZ I        2238 43.41        73.6 0.17                            22 205 
 GIR2 SZ EP       2238 27.42                             165    -0.110   35 342 
 GIR2 SZ ES   2   2238 42.77                             165     0.1 5   35 342 
 PAM  SZ EP       2238 30.17                             151     0.210   76  35 
 PAM  SN ES   2   2238 46.59                             151    -0.4 5   76  35 
 BRR  HZ EP       2238 29.33                             150     0.010   77 299 
 BRR  HE ES   1   2238 46.16                             150     0.3 7   77 299 
 BRR  HZ I        2238 50.61        65.7 0.14                            77 299 
 RUS  HZ EP   1   2238 31.41                             144     0.1 7   97 179 
 RUS  HN ES   2   2238 49.37                             144    -0.1 5   97 179 
 RUS  HZ I        2238 51.08        38.3 0.39                            97 179 
 PTB  HZ EP   2   2238 34.70                             130    -0.6 5  153 260 
 PTB  HN ES   2   2238 56.27                             130    -0.2 5  153 260 
 OCA  SZ EP   1   2238 36.57                             128     0.0 7  164 351 
 OCA  SZ ES   2   2238 58.46                             128    -0.3 5  164 351 
 OCA  SZ I        2239  2.12        43.7 0.30                           164 351 
 ZAR  HZ EP   2   2238 40.67                             121    -0.3 4  210 292 
 ZAR  HE ES   2   2239  6.70                             121     0.0 4  210 292 
 ZAR  HZ I        2239 11.52        33.7 0.50                           210 292 
 NOR  SZ EP   1   2238 43.98                             118     0.0 6  237 236 
 NOR  SN ES   2   2239 11.75                             118    -0.2 4  237 236 
 CHI  HZ EP       2238 45.46                             117     0.0 8  247 197 
 CHI  HZ I        2238 47.74         7.6 0.29                           247 197 
 CHI  HN ES   1   2239 14.43                             117    -0.2 6  247 197 
 HEL  HZ EP   2   2238 48.46                             114    -0.2 4  277 257 
 HEL  HN ES   2   2239 20.12                             114    -0.2 4  277 257 
 HEL  HZ I        2239 26.44         9.3 0.34                           277 257 
 RREF HZ EP   2   2238 54.50                             110     0.1 3  324 230 
 RREF HN ES   2   2239 31.31                             110     0.9 3  324 230 
 RREF HZ I        2239 40.09        13.3 0.53                           324 230 
 PRA  HZ EP   1   2239  1.90                             106     0.4 4  392 210 
                                                                                
