 2013  928 2305 11.3 L   6.780 -73.144147.8  RSN 12 0.4 2.1LRSN                1
 GAP=138        0.96       2.6     3.9  5.1 -0.6607E+00  0.5261E+01  0.1408E+01E
 Epicentro: LOS SANTOS - SANTANDER                                             3
 ACTION:UPD 13-10-22 09:25 OP:ep   STATUS:               ID:20130928230511 L   I
 OLDACT:REG 13-09-29 01:48 OP:carl STATUS:               ID:20130928225959     3
 2013-09-28-2259-59M.COL___272                                                 6
 STAT SP IPHASW D HRMM SECON CODA AMPLIT PERI AZIMU VELO AIN AR TRES W  DIS CAZ7
 BAR2 SZ EP       23 5 31.13                             171    0.0410 21.2 191 
 BAR2 SZ ES       23 5 46.39                             171   -0.1710 21.2 191 
 BAR2 SZ I        23 5 47.76        23.8 0.18            171           21.2 191 
 BRR  HZ EP       23 5 33.13                             152    0.4410 72.4 300 
 BRR  HN ES       23 5 50.33                             152    0.9110 72.4 300 
 BRR  HZ I        23 5 54.55        19.8 0.12            149           72.4 300 
 PAM  SZ EP       23 5 34.09                             151    0.3110 79.0  38 
 PAM  SN ES       23 5 51.24                             151   -0.1210 79.0  38 
 PAM  SZ I        23 5 53.33        22.1 0.58            152           79.0  38 
 RUS  HZ EP       23 5 35.08                             145    0.0310 98.4 176 
 RUS  HN ES       23 5 53.33                             145   -0.2810 98.4 176 
 RUS  HZ I        23 5 54.98        18.0 0.24            146           98.4 176 
 PTB  HZ EP       23 5 38.19                             133   -0.17 9  147 260 
 PTB  HN ES       23 5 58.89                             133   -0.62 9  147 260 
 PTB  HZ I        23 6  1.35        19.3 0.10            131            147 260 
 SPBC HZ EP       23 5 40.07                             130    0.31 9  162 220 
 SPBC HE ES       23 6  1.87                             130   -0.12 9  162 220 
 SPBC HZ I        23 6  4.42        19.6 0.20            129            162 220 
 OCA  HN ES   1   23 6  1.40                             130   -0.90 7  162 353 
 OCA  HZ I        23 6  8.69        15.3 0.30            129            162 353 
 ZAR  HZ EP       23 5 43.78                             123   -0.15 9  205 293 
 ZAR  HE ES       23 6  9.85                             123    0.43 9  205 293 
 ZAR  HZ I        23 6 15.28        14.4 0.30            121            205 293 
 SML  HZ EP       23 5 47.80                             118   -0.42 8  246 335 
 SML  HN ES       23 6 16.64                             118   -0.41 8  246 335 
 SML  HZ I        23 6 27.93        14.6 0.26            117            246 335 
 CHI  HZ EP       23 5 49.27                             118    0.43 8  247 195 
 CHI  HN ES       23 6 18.09                             118   -0.06 8  247 195 
 CHI  HZ I        23 6 26.35         5.3 0.54            118            247 195 
 GUY2CHZ EP   4   23 5 56.41                             113    1.58 0  300 235 
 GUY2CHE ES   4   23 6 30.40                             113    1.59 0  300 235 
 RREF HZ EP   2   23 5 57.77                             111    0.44 3  320 230 
 RREF HN ES       23 6 33.41                             111    0.13 7  320 230 
 RREF HZ I        23 6 43.37         6.6 0.36            111            320 230 
 PRA  HZ EP       23 6  4.71                             107    0.08 6  390 210 
 PRA  HN ES       23 6 45.47                             107   -0.79 6  390 210 
 PRA  HZ I        23 6 55.24         3.7 0.34            107            390 210 
                                                                                
