 2011  928 2326 35.5 L   6.745 -73.171152.2  RSN  6 0.3 1.8LRSN                1
 GAP=180        0.57       9.3    10.5 11.2  0.6998E+02 -0.3559E+02 -0.3648E+02E
 Epicentro: VILLANUEVA - SANTANDER                                             3
 ACTION:UPD 12-07-13 16:00 OP:ep   STATUS:               ID:20110928232635 L   I
 2011-09-28-2323-02S.COL___168                                                 6
 STAT SP IPHASW D HRMM SECON CODA AMPLIT PERI AZIMU VELO AIN AR TRES W  DIS CAZ7
 BAR2 SZ EP       2326 56.12                             173    0.3110 16.9 184 
 BTL  SZ EP       2326 55.50                             171   -0.3910 22.0 331 
 BTL  SZ ES   3   2327 11.53                             171   -0.26 2 22.0 331 
 BRR  HZ EP       2326 57.45                             153    0.0510 71.9 304 
 BRR  HZ I        2326 59.04        13.6 0.28                          71.9 304 
 BRR  HN ES   2   2327 14.87                             153    0.40 5 71.9 304 
 RUS  HZ EP   2   2326 59.78                             146    0.28 5 94.8 174 
 RUS  HN ES   2   2327 17.85                             146   -0.36 5 94.8 174 
 OCA  SZ EP   3   2327  4.81                             130   -0.05 2  166 354 
 ZAR  HN ES   2   2327 33.76                             124   -0.23 4  204 294 
 ZAR  HZ I        2327 39.51         3.7 0.22                           204 294 
                                                                                
