 2015  328 2148 40.6 L   6.783 -73.100146.2  RSN  5 0.4 1.8LRSN                1
 GAP=143        0.94       4.9     5.3  7.5  0.5341E+01  0.4665E+01 -0.4420E+00E
 Epicentro: LOS SANTOS - SANTANDER                                             3
 ACTION:UPD 15-04-30 16:30 OP:nd   STATUS:               ID:20150328214840 L   I
 OLDACT:DUP 15-03-29 02:53 OP:cma  STATUS:               ID:20150328213743d    3
 OLDACT:REG 15-03-29 02:29 OP:cam  STATUS:               ID:20150328213742     3
 2015-03-28-2137-42M.COL___284                                                 6
 STAT SP IPHASW D HRMM SECON CODA AMPLIT PERI AZIMU VELO AIN AR TRES W  DIS CAZ7
 BAR2 EZ EP       2149  0.09                             171   -0.2210 23.0 203 
 BAR2 EZ ES       2149 14.90                             171   -0.7610 23.0 203 
 BAR2 EZ I        2149 19.33        10.0 0.22            171           23.0 203 
 PAM  SZ EP       2149  2.80                             151   -0.0010 75.8  36 
 PAM  SN ES       2149 20.28                             151    0.1810 75.8  36 
 PAM  SZ I        2149 22.29        10.7 0.56            155           75.8  36 
 BRR  HZ EP       2149  2.20                             151    0.0610 76.5 298 
 BRR  HN ES       2149 19.31                             151    0.4010 76.5 298 
 BRR  HN I        2149 22.91        22.7 0.24            151           76.5 298 
 RUS  HZ EP       2149  4.20                             144   -0.0810 98.5 179 
 RUS  HN ES       2149 23.23                             144    0.5110 98.5 179 
 RUS  HZ I        2149 24.48         3.3 0.44            148           98.5 179 
 ZAR  HN ES       2149 39.29                             122   -0.13 8  209 292 
 ZAR  HN I        2149 43.09        13.9 0.40            124            209 292 
                                                                                
