 2010  728 2003 39.6 L   6.769 -73.101151.3  RSN 20 0.5 4.3LRSN                1
 GAP=124        1.15       3.5     5.7  5.7 -0.9583E+01  0.2637E+01  0.4756E+01E
 Epicentro: LOS SANTOS - SANTANDER                                             3
 ACTION:UPD 10-12-01 15:20 OP:pat  STATUS:               ID:20100728200339 L   I
 2010-07-28-2000-17S.COL___122                                                 6
 STAT SP IPHASW D HRMM SECON CODA AMPLIT PERI AZIMU VELO AIN AR TRES W  DIS CAZ7
 BAR2 SZ IP       20 3 59.78                             171    -0.110   22 205 
 BAR2 SZ ES   1   20 4 15.28                             171    -0.4 7   22 205 
 BAR2 SZ I        20 4 16.55      2735.7 0.38                            22 205 
 GIR2 SZ IP       20 4  0.94                             166     0.810   36 343 
 GIR2 SZ ES   1   20 4 16.47                             166     0.4 7   36 343 
 BRR  HZ IP     C 20 4  1.74                             152     0.010   77 299 
 BRR  HZ I        20 4  3.32      2050.7 0.12                            77 299 
 BRR  HE ES       20 4 18.74                             152    -0.210   77 299 
 RUS  HZ IP     D 20 4  3.58                             146    -0.110   97 179 
 RUS  HN ES   1   20 4 22.02                             146    -0.4 7   97 179 
 RUS  HZ I        20 4 23.73      1105.5 0.35                            97 179 
 BRI  SZ IP       20 4  4.34                             142     0.210  110  18 
 GUE  SZ EP       20 4  5.72                             140     0.710  119   9 
 GRA  SZ IP       20 4  5.55                             138     0.010  128  15 
 GRA  SZ ES       20 4 25.49                             138    -0.210  128  15 
 GRA  SZ I        20 4 27.89      1720.2 0.37                           128  15 
 OCA  SZ IP       20 4  8.20                             130    -0.6 9  164 352 
 OCA  SZ ES   1   20 4 31.52                             130     0.0 7  164 352 
 OCA  SZ I        20 4 35.11      2344.7 0.31                           164 352 
 CHI  HZ IP     D 20 4 17.45                             118     0.0 8  247 196 
 CHI  HE ES       20 4 46.93                             118     0.0 8  247 196 
 CHI  HZ I        20 4 56.02       663.3 0.49                           247 196 
 ROSC BE ES   1   20 4 48.16                             118     0.2 6  252 212 
 ROSC BZ I        20 4 57.67      1303.4 0.36                           252 212 
 CVER SZ IP       20 4 20.91                             116     0.8 8  271 203 
 CVER SZ I        20 4 22.86      1773.0 0.43                           271 203 
 HEL  HZ EP       20 4 19.75                             115    -0.8 7  276 257 
 HEL  HN ES   1   20 4 52.56                             115     0.1 6  276 257 
 HEL  HZ I        20 5  0.35       837.7 0.38                           276 257 
 GUY  SZ EP       20 4 23.97                             113     0.2 7  303 236 
 GUY  SZ I        20 5  6.35      3280.8 0.27                           303 236 
 RREF HZ EP       20 4 26.75                             112     0.5 7  323 230 
 RREF HN ES   1   20 5  1.69                             112    -0.8 5  323 230 
 RREF HZ I        20 5 11.42      1058.5 0.38                           323 230 
 TOL  SZ EP   1   20 4 28.77                             110     0.5 5  345 226 
 DBB  SZ IP       20 4 27.51                             110    -0.4 7  345 275 
 ANIL HZ EP       20 4 30.23                             109     0.4 6  358 225 
 ANIL HE ES   1   20 5  9.28                             109     0.4 5  358 225 
 ANIL HZ I        20 5 16.09      2131.5 0.46                           358 225 
 SDV  BZ IP     C 20 4 28.91                             109    -0.8 6  359  49 
 SDV  BZ I        20 4 30.30       393.9 0.29                           359  49 
 PRA  HZ EP       20 4 32.54                             107    -0.8 6  392 210 
 PRA  HE ES       20 5 15.14                             107     0.0 6  392 210 
 PRA  HZ I        20 5 20.38       942.4 0.46                           392 210 
 GUA  SZ EP   1   20 4 41.63                             104    -0.9 4  470 174 
                                                                                
