 2014  628 2017 49.6 L   6.726 -73.173130.0  RSN  6 0.5 1.8LRSN                1
 GAP=136        0.92       4.6     7.0  9.6  0.3549E+01  0.3166E+02 -0.4340E+01E
 Epicentro: VILLANUEVA - SANTANDER                                             3
 ACTION:UPD 14-07-01 22:57 OP:nd   STATUS:               ID:20140628201749 L   I
 OLDACT:UP  14-06-29 04:35 OP:mh   STATUS:               ID:20140628200818d    3
 OLDACT:UP  14-06-29 04:33 OP:mh   STATUS:               ID:20140628200818d    3
 OLDACT:DUP 14-06-29 04:33 OP:mh   STATUS:               ID:20140628200818d    3
 2014-06-28-2008-17M.COL___239                                                 6
 STAT SP IPHASW D HRMM SECON CODA AMPLIT PERI AZIMU VELO AIN AR TRES W  DIS CAZ7
 BAR2 SZ EP   1   2018  7.29                             173    0.14 7 14.8 184 
 BAR2 SZ ES   1   2018 20.99                             173    0.13 7 14.8 184 
 BAR2 SZ I        2018 24.56         9.5 0.20            172           14.8 184 
 PAM  SZ EP   1   2018 10.23                             145   -0.47 7 85.7  38 
 PAM  SN ES   1   2018 26.97                             145   -0.21 7 85.7  38 
 PAM  SZ I        2018 29.97         8.9 0.32            151           85.7  38 
 RUS  HZ EP       2018 10.96                             143   -0.2510 92.6 174 
 RUS  HN ES   1   2018 28.31                             143    0.23 7 92.6 174 
 RUS  HZ I        2018 31.27         4.5 0.12            149           92.6 174 
 OCA  HZ EP   4   2018 14.87                             124   -2.63 0  168 355 
 OCA  HN ES   1   2018 39.74                             124    0.47 7  168 355 
 OCA  HZ I        2018 42.62        10.1 0.14            128            168 355 
 ZAR  HZ EP       2018 21.80                             118    0.70 9  205 295 
 ZAR  HN ES   1   2018 44.78                             118   -0.90 6  205 295 
 ZAR  HZ I        2018 52.40         7.6 0.58            121            205 295 
 SML  HZ EP   4   2018 23.52                             113   -2.55 0  250 337 
 SML  HE ES   4   2018 52.40                             113   -2.14 0  250 337 
 SML  HZ I        2018 59.31        11.9 0.25            117            250 337 
                                                                                
