 2010  228 2030 25.7 L   6.825 -73.010147.8  RSN  6 0.5 2.0LRSN                1
 GAP=197        0.70       4.4     8.9  8.7 -0.5871E+01  0.3112E+02 -0.6347E+00E
 Epicentro: CEPITA - SANTANDER                                                 3
 ACTION:UP  10-08-24 09:51 OP:vdl  STATUS:               ID:20100228203025 L   I
 2010-02-28-2024-53S.COL___093                                                 6
 STAT SP IPHASW D HRMM SECON CODA AMPLIT PERI AZIMU VELO SNR AR TRES W  DIS CAZ7
 BAR2 SZ EP   1   2030 45.83                             167     0.0 7   32 217 
 BAR2 SZ ES   2   2031  1.24                             167    -0.2 5   32 217 
 RUS  BZ EP   1   2030 50.27                             143     0.4 7  103 185 
 RUS  BE ES   2   2031  9.19                             143     0.5 5  103 185 
 RUS  BZ I        2031  9.67         9.7 0.26                           103 185 
 OCA  SZ EP   1   2030 54.25                             130     0.1 7  160 348 
 OCA  SZ ES   2   2031 15.67                             130    -0.7 5  160 348 
 CHI  HZ EP   1   2031  4.08                             117    -0.2 6  256 198 
 CHI  HE ES   2   2031 33.37                             117    -1.0 4  256 198 
 CHI  HZ I        2031 37.02         8.5 0.56                           256 198 
 HEL  HZ EP   1   2031  8.03                             114     0.3 5  287 256 
 HEL  HN ES   2   2031 41.22                             114     0.7 4  287 256 
 HEL  HZ I        2031 43.97         6.3 0.28                           287 256 
 TOL  SZ EP   1   2031 15.20                             109    -0.3 5  356 226 
 TOL  SZ ES   2   2031 53.58                             109    -0.8 3  356 226 
                                                                                
