 2011  228 2303 22.9 L   6.796 -73.125147.7  RSN 12 0.4 2.6LRSN                1
 GAP=104        0.86       2.8     4.7  5.8 -0.2204E+01  0.8136E+01  0.3945E+00E
 Epicentro: LOS SANTOS - SANTANDER                                             3
 ACTION:UP  11-03-28 15:11 OP:jfem STATUS:               ID:20110228230322 L   I
 2011-02-28-2301-36S.COL___135                                                 6
 STAT SP IPHASW D HRMM SECON CODA AMPLIT PERI AZIMU VELO SNR AR TRES W  DIS CAZ7
 BAR2 SZ IP       23 3 42.68                             171    -0.110   24 196 
 BAR2 SZ ES   1   23 3 58.10                             171    -0.1 7   24 196 
 BAR2 SZ I        23 4  0.76        83.8 0.22                            24 196 
 RUS  HZ IP     D 23 3 46.51                             144    -0.310  100 177 
 RUS  HN ES   1   23 4  4.91                             144    -0.5 7  100 177 
 RUS  HZ I        23 4  6.61        29.1 0.41                           100 177 
 GRA  SZ EP       23 3 48.52                             137     0.210  125  16 
 GRA  SZ ES   1   23 4  8.59                             137     0.5 7  125  16 
 GRA  SZ I        23 4 10.83        44.5 0.23                           125  16 
 OCA  SZ EP       23 3 51.73                             130     0.3 9  161 352 
 OCA  SZ ES   1   23 4 13.29                             130    -0.4 7  161 352 
 OCA  SZ I        23 4 17.85        76.5 0.45                           161 352 
 YOP  SZ EP       23 3 53.11                             127     0.2 9  178 154 
 YOP  SN ES   1   23 4 17.00                             127     0.6 7  178 154 
 YOP  SZ I        23 4 17.77        24.1 0.26                           178 154 
 CHI  HZ EP       23 4  0.65                             117    -0.1 8  249 196 
 CHI  HN ES   1   23 4 30.25                             117     0.0 6  249 196 
 CHI  HZ I        23 4 37.90        20.9 0.28                           249 196 
 HEL  HZ EP   1   23 4  3.62                             115     0.2 6  274 256 
 HEL  HN ES   1   23 4 34.80                             115    -0.3 6  274 256 
 HEL  HZ I        23 4 42.40        24.4 0.18                           274 256 
 RREF HZ EP       23 4  9.64                             111     0.4 7  323 230 
 RREF HN ES   2   23 4 46.17                             111     0.7 3  323 230 
 RREF HZ I        23 4 51.13        29.3 0.04                           323 230 
 DBB  SZ EP       23 4 10.22                             110    -0.5 7  342 274 
 TOL  SZ EP   1   23 4 11.91                             109     0.5 5  345 225 
 SDV  BZ IP       23 4 12.00                             109    -0.8 6  359  50 
 SDV  BZ I        23 4 12.86        11.0 0.26                           359  50 
 PRA  HZ EP       23 4 16.23                             107    -0.3 6  393 210 
 PRA  HN ES   2   23 4 58.43                             107     0.0 3  393 210 
                                                                                
