 2014  628 2221 50.3 L   6.858 -73.298127.8  RSN  5 0.4 1.3LRSN                1
 GAP=178        0.85       6.1     7.3  6.8  0.3021E+02 -0.2842E+01 -0.1241E+02E
 Epicentro: ZAPATOCA - SANTANDER                                               3
 ACTION:UPD 14-07-01 22:57 OP:nd   STATUS:               ID:20140628222150 L   I
 OLDACT:REG 14-06-29 04:07 OP:mh   STATUS:               ID:20140628221819     3
 2014-06-28-2218-19M.COL___236                                                 6
 STAT SP IPHASW D HRMM SECON CODA AMPLIT PERI AZIMU VELO AIN AR TRES W  DIS CAZ7
 BAR2 SZ EP       2222  8.47                             165    0.4910 32.1 157 
 BAR2 SZ ES   1   2222 21.55                             165   -0.25 7 32.1 157 
 BAR2 SZ I        2222 22.57         6.7 0.06            165           32.1 157 
 BRR  HZ EP       2222  8.51                             156    0.0110 53.4 301 
 BRR  HN ES       2222 22.69                             156   -0.0310 53.4 301 
 BRR  HZ I        2222 23.83         4.7 0.18            150           53.4 301 
 RUS  HZ EP   1   2222 13.58                             137    0.57 7  109 167 
 RUS  HN ES   1   2222 30.29                             137   -0.46 7  109 167 
 RUS  HZ I        2222 34.28         1.1 0.16            137            109 167 
 ZAR  HZ EP       2222 19.16                             121   -0.54 9  186 292 
 ZAR  HN ES       2222 42.94                             121    0.29 9  186 292 
 ZAR  HZ I        2222 51.65         2.5 0.30            118            186 292 
 SML  HN E        2220 30.23                                            231 338 
 SML  HZ EP       2222 24.15                             115   -0.41 8  231 338 
 SML  HN ES   1   2222 51.52                             115    0.22 6  231 338 
 SML  HZ I        2222 58.27         5.2 0.08            114            231 338 
                                                                                
