 2017  428 2253 26.3 L   7.360 -72.944  4.0  RSN 16 0.4 2.6LRSN                1
 GAP=181        1.15       4.8     2.4  5.5 -0.6433E+00  0.3369E+01  0.7814E+01E
 Epicentro: CALIFORNIA - SANTANDER                                             3
 ACTION:UPD 17-05-30 21:16 OP:jn   STATUS:               ID:20170428225326 L   I
 OLDACT:UP  17-04-29 03:47 OP:lv   STATUS:               ID:20170428224741d    3
 OLDACT:DUP 17-04-29 03:19 OP:lv   STATUS:               ID:20170428224741d    3
 2017-04-28-2248-00M.COL___368                                                 6
 STAT SP IPHASW D HRMM SECON CODA AMPLIT PERI AZIMU VELO AIN AR TRES W  DIS CAZ7
 PAM  EZ IP     D 2253 31.26                              47   -0.2510 27.1  95 
 PAM  EN ES       2253 35.64                              47    0.0710 27.1  95 
 PAM  EZ I        2253 36.41       946.5 0.12             98           27.1  95 
 BRR  HZ EP       2253 40.32                              47   -0.1010 89.2 252 
 BRR  HN ES       2253 51.04                              47   -0.3910 89.2 252 
 BRR  HZ I        2254  1.19        85.1 0.36             47           89.2 252 
 RUS  HZ EP       2253 52.75                              47    0.65 9  163 185 
 RUS  HN ES       2254 11.75                              47   -0.46 9  163 185 
 RUS  HZ I        2254 14.21        73.9 0.06             47            163 185 
 PTB  HZ IP     D 2253 55.36                              37    0.02 9  190 242 
 PTB  HN ES       2254 17.35                              37   -0.64 9  190 242 
 ZAR  HZ EP       2253 58.61                              37    0.57 8  212 274 
 ZAR  HN ES       2254 22.89                              37    0.10 8  212 274 
 YPLC HZ EP   4   2254  4.39                              37    4.50 0  226 164 
 YPLC HN ES   4   2254 35.00                              37    8.92 0  226 164 
 YPLC HZ I        2254 39.81        58.5 0.11             37            226 164 
 SPBC HZ EP   9   2254  2.65                              37    2.69 0  226 214 
 SPBC HN ES       2254 30.13                                    1.23 8  226 214 
 SPBC HZ I        2254 31.35        81.4 0.36             37            226 214 
 NOR  HZ EP   4   2254 11.63                              37    3.61 0  291 227 
 NOR  HN ES       2254 40.88                              37    0.32 7  291 227 
 NOR  HZ I        2254 47.04        20.3 0.06             36            291 227 
 ARGC HN ES   4   2254 47.50                              36    2.64 0  311 333 
 HEL  HZ EP       2254 11.61                              36    0.44 7  314 246 
 HEL  HN ES       2254 46.45                              36    0.29 7  314 246 
 HEL  HZ I        2254 52.73        45.8 0.56             36            314 246 
 CHI  HZ EP   4   2254 17.72                              36    6.42 0  314 196 
 CHI  HN ES   4   2254 56.12                              36    9.72 0  314 196 
 CHI  HZ I        2255  4.66        11.3 0.17             36            314 196 
 PTGC HZ EP   4   2254 20.99                              36    4.43 0  361 166 
 PTGC HN ES   4   2255  3.14                              36    7.38 0  361 166 
 PTGC HZ I        2255 16.59        27.5 0.31             36            361 166 
 DBB  EZ EP   4   2254 20.22                              36    3.34 0  363 264 
 DBB  EN ES   4   2255  0.72                              36    4.39 0  363 264 
 DBB  EZ I        2255 10.97         7.7 0.31             36            363 264 
 SJC  HZ EP   4   2254 20.38                              36    2.23 0  373 319 
 SJC  HN ES   4   2255  1.33                              36    2.74 0  373 319 
 SJC  HZ I        2255  4.83        18.1 0.18             36            373 319 
 CBOC HZ EP   4   2254 22.01                              36    3.20 0  377 244 
 CBOC HN ES   4   2255  4.21                              36    4.44 0  377 244 
 ELA  HZ EP   4   2254 25.68                              36    5.17 0  388 225 
 ELA  HN ES   4   2255  5.90                              36    3.12 0  388 225 
 ELA  HZ I        2255 13.44        17.7 0.27             36            388 225 
 APAC HN ES   4   2255  6.81                              36    1.23 0  406 279 
 ANIL HN ES   4   2255 12.38                              36    3.43 0  418 221 
 ANIL HZ I        2255 16.91        28.3 0.21             36            418 221 
 PAL  HZ EP   4   2254 34.22                              36    5.52 0  458 234 
 PAL  HN ES   4   2255 24.69                              36    7.33 0  458 234 
 PAL  HZ I        2255 34.07         8.8 0.31             36            458 234 
 ORTC HZ EP   4   2254 34.90                              36    6.19 0  459 214 
                                                                                
