 2010  828 2128 13.6 L   6.835 -73.136139.8  RSN  4 0.2 1.8LRSN                1
 GAP=234        0.58       9.1    13.5  5.7  0.1015E+03 -0.1075E+02  0.1516E+01E
 Epicentro: LOS SANTOS - SANTANDER                                             3
 ACTION:UP  10-09-07 10:59 OP:vdl  STATUS:               ID:20100828212815dL   I
 Sismo no localizable                                                          3
 2010-08-28-2126-15S.COL___120                                                 6
 STAT SP IPHASW D HRMM SECON CODA AMPLIT PERI AZIMU VELO SNR AR TRES W  DIS CAZ7
 BTL  SZ EP   1   2128 32.64                             171     0.2 7   17 302 
 BTL  SZ ES   1   2128 47.01                             171    -0.1 7   17 302 
 BAR2 SZ ES   1   2128 47.43                             167     0.0 7   27 191 
 BAR2 SZ I        2128 48.49         9.4 0.26                            27 191 
 BRR  HZ EP       2128 34.26                             150     0.210   70 295 
 BRR  HZ I        2128 34.50        16.0 0.24                            70 295 
 BRR  HN ES       2128 49.92                             150    -0.110   70 295 
 RUS  HZ EP       2128 36.79                             141    -0.310  104 177 
 RUS  HE ES   2   2128 55.90                             141     0.5 5  104 177 
                                                                                
