 2017  228 2035 13.9 L   6.873 -73.322120.4  RSN 19 0.4 2.5LRSN                1
 GAP=112        1.03       3.7     2.7  4.9 -0.1501E+00  0.4480E+01  0.3107E+01E
 Epicentro: BETULIA - SANTANDER                                                3
 ACTION:UPD 17-05-24 15:41 OP:jn   STATUS:               ID:20170228203513 L   I
 OLDACT:UP  17-03-01 05:01 OP:edw  STATUS:               ID:20170228202745     3
 OLDACT:REG 17-03-01 03:57 OP:edw  STATUS:               ID:20170228202745     3
 2017-02-28-2028-00M.COL___387                                                 6
 STAT SP IPHASW D HRMM SECON CODA AMPLIT PERI AZIMU VELO AIN AR TRES W  DIS CAZ7
 BAR2 EZ IP     D 2035 30.86                             163   -0.0110 34.7 154 
 BAR2 EZ ES       2035 43.72                             163   -0.3610 34.7 154 
 BRR  HZ IP     C 2035 31.23                             155    0.0410 50.3 301 
 BRR  HN ES       2035 45.33                             155    0.6810 50.3 301 
 BRR  HZ I        2035 46.19       146.3 0.34            153           50.3 301 
 PAM  EZ EP       2035 33.99                             142   -0.1510 85.9  53 
 PAM  EN ES       2035 50.29                             142    0.3910 85.9  53 
 PAM  EZ I        2035 54.37        65.3 0.40            147           85.9  53 
 RUS  HZ EP       2035 35.54                             135   -0.6810  112 166 
 RUS  HN ES       2035 53.40                             135   -0.2010  112 166 
 RUS  HZ I        2035 55.04        50.9 0.28            135            112 166 
 PTB  HZ IP   9   2035 36.11                             129   -1.21 0  131 254 
 PTB  HN ES       2035 53.60                             129   -0.7410  131 254 
 PTB  HZ I        2035 58.17        93.1 0.30            128            131 254 
 TAM  HZ IP     D 2035 41.80                             120   -0.10 9  176 106 
 TAM  HN ES       2036  3.48                             120   -0.23 9  176 106 
 ZAR  HZ EP       2035 42.65                             119    0.06 9  183 292 
 ZAR  HN ES   4   2036  6.13                             119    1.19 0  183 292 
 ZAR  HZ I        2036  7.89        64.5 0.26            119            183 292 
 NOR  HZ EP       2035 46.97                             114   -0.19 8  224 230 
 NOR  HN ES       2036 12.87                             114   -0.21 8  224 230 
 NOR  HZ I        2036 20.55        23.8 0.30            113            224 230 
 ROSC BN ES   2   2036 20.08                             111    0.97 4  251 206 
 CHI  HZ EP       2035 51.01                             111    0.24 8  252 190 
 CHI  HN ES   4   2036 18.43                             111   -1.07 0  252 190 
 CHI  HZ I        2036 21.04         9.3 0.26            111            252 190 
 HEL  HZ EP       2035 51.99                             110    0.90 8  255 253 
 HEL  HN ES   4   2036 18.09                             110   -1.98 0  255 253 
 HEL  HZ I        2036 25.99        22.9 0.24            110            255 253 
 URE  HZ EP   9   2035 50.10                             110   -1.37 0  263 292 
 URE  HN ES       2036 19.08                             109   -0.30 8  263 292 
 URE  HZ I        2036 27.91        31.6 0.16            110            263 292 
 CBOC HZ EP       2035 58.71                             106    0.63 7  318 250 
 CBOC HN ES       2036 32.04                             106   -0.46 7  318 250 
 CBOC HZ I        2036 35.52        10.8 0.24            106            318 250 
 DBB  EZ EP       2035 58.09                             105   -0.07 7  320 273 
 DBB  EN ES       2036 31.98                             105   -0.67 7  320 273 
 DBB  EZ I        2036 37.22        12.2 0.42            106            320 273 
 ELA  HZ EP   4   2036  0.63                             106    1.84 0  320 226 
 ELA  HN ES       2036 34.58                             106    0.81 7  320 226 
 ELA  HZ I        2036 43.72        11.7 0.64            106            320 226 
 ANIL HZ EP   4   2036  4.50                             104    2.48 0  350 221 
 ANIL HN ES   4   2036 41.32                             104    1.80 0  350 221 
 ANIL HZ I        2036 48.59        25.1 0.32            104            350 221 
 APAC HN ES       2036 44.28                             102   -0.33 6  377 288 
 ORTC HZ EP       2036  6.35                             102   -0.23 6  391 213 
 ORTC HN ES   4   2036 50.10                             102    2.46 0  391 213 
 ORTC HZ I        2036 54.69         7.3 0.58            102            391 213 
 SJC  HZ EP   4   2036  5.10                             102   -1.62 0  392 329 
 SJC  HN ES   4   2036 44.54                             102   -3.36 0  392 329 
 SJC  HZ I        2036 47.55        10.1 0.44            102            392 329 
 LCBC HN ES   4   2036 47.38                             101   -2.31 0  401 303 
                                                                                
