 2012  328 2136 53.6 L   6.779 -73.148148.5  RSN 16 0.5 3.5LRSN                1
 GAP=114        1.06       3.7     4.4  6.2  0.1232E+01  0.7494E+01  0.5979E+01E
 ACTION:UP  12-03-31 23:23 OP:EP   STATUS:               ID:20120328213653 L   I
 2012-03-28-2130-00M.COL___196                                                 6
 STAT SP IPHASW D HRMM SECON CODA AMPLIT PERI AZIMU VELO SNR AR TRES W  DIS CAZ7
 BAR2 SZ EP       2137 13.56                             172     0.010   21 190 
 BAR2 SZ ES   1   2137 29.04                             172     0.0 7   21 190 
 BAR2 SZ I        2137 32.14       673.7 0.63                            21 190 
 BRR  HZ EP       2137 15.51                             153     0.410   72 300 
 BRR  HE ES   1   2137 32.90                             153     1.0 7   72 300 
 BRR  HZ I        2137 34.33       584.1 0.14                            72 300 
 PAM  SZ EP       2137 16.40                             151     0.210   79  39 
 PAM  SE ES       2137 33.53                             151    -0.310   79  39 
 RUS  HZ EP       2137 17.35                             145    -0.110   98 176 
 RUS  HN ES   1   2137 35.90                             145    -0.2 7   98 176 
 RUS  HZ I        2137 38.69       337.2 0.30                            98 176 
 PTB  HZ EP       2137 20.03                             133    -0.7 9  147 260 
 PTB  HN ES   1   2137 41.39                             133    -0.5 7  147 260 
 PTB  HZ I        2137 43.14       361.0 0.28                           147 260 
 OCA  SZ EP       2137 22.21                             130    -0.1 9  163 353 
 YOP  SZ EP       2137 23.97                             127     0.3 9  177 153 
 YOP  SE ES   1   2137 47.15                             127     0.0 7  177 153 
 YOP  SZ I        2137 48.71       232.1 0.29                           177 153 
 ZAR  HZ EP   1   2137 26.01                             123    -0.3 6  205 293 
 ZAR  HE ES   1   2137 51.93                             123     0.1 6  205 293 
 ZAR  HZ I        2137 58.87       482.3 0.39                           205 293 
 NOR  SZ EP   1   2137 29.16                             119    -0.2 6  233 235 
 NOR  SN ES   1   2137 56.77                             119    -0.4 6  233 235 
 CHI  HZ EP   1   2137 30.44                             118    -0.8 6  246 195 
 CHI  HN ES   1   2138  0.69                             118     0.1 6  246 195 
 CHI  HZ I        2138  6.57       123.2 0.27                           246 195 
 HEL  HZ EP   1   2137 33.79                             115    -0.1 6  271 256 
 HEL  HZ I        2138 12.76       316.9 0.31                           271 256 
 VIL  SZ EP   1   2137 36.29                             113    -0.6 5  301 192 
 VIL  SE ES   1   2138 11.36                             113     0.7 5  301 192 
 VIL  SZ I        2138 20.50       141.0 0.37                           301 192 
 GUY  SZ EP   1   2137 38.42                             113     1.0 5  302 235 
 DBB  SZ EP   1   2137 41.63                             110     0.4 5  339 275 
 TOL  SZ EP   1   2137 42.77                             110     1.0 5  342 225 
 TOL  SZ E        2137 42.77                                            342 225 
 SJA  SZ EP       2137 48.23                             107     0.2 6  398 193 
                                                                                
