 2014  128 2217 36.6 L   6.725 -73.150144.6  RSN  5 0.3 1.5LRSN                1
 GAP=139        0.62       3.8     3.4  7.3  0.4621E+00  0.6613E+01 -0.7265E+01E
 Epicentro: VILLANUEVA - SANTANDER                                             3
 ACTION:UPD 14-03-13 09:59 OP:ep   STATUS:               ID:20140128221736 L   I
 OLDACT:UP  14-01-28 22:45 OP:cam  STATUS:               ID:20140128221000     3
 OLDACT:UP  14-01-28 22:45 OP:cam  STATUS:               ID:20140128221000     3
 OLDACT:REG 14-01-28 21:52 OP:cam  STATUS:               ID:20140128221000     3
 2014-01-28-2210-00M.COL___285                                                 6
 STAT SP IPHASW D HRMM SECON CODA AMPLIT PERI AZIMU VELO AIN AR TRES W  DIS CAZ7
 BAR2 SZ EP   1   2217 56.00                             174    0.02 7 15.1 194 
 BAR2 SZ ES   2   2218 11.10                             174    0.03 5 15.1 194 
 BAR2 SZ I        2218 11.99        14.5 0.46            176           15.1 194 
 PAM  SZ EP       2217 59.18                             148    0.0410 84.2  36 
 PAM  SE ES   1   2218 16.44                             148   -0.26 7 84.2  36 
 PAM  SZ I        2218 20.78         3.1 0.38            150           84.2  36 
 RUS  HZ EP   1   2217 59.84                             146    0.15 7 92.4 175 
 RUS  HN ES       2218 17.80                             146    0.1310 92.4 175 
 RUS  HZ I        2218 19.46         5.1 0.34            151           92.4 175 
 PTB  HZ EP   1   2218  2.86                             132   -0.47 7  146 262 
 PTB  HN ES   1   2218 23.69                             132   -0.47 7  146 262 
 PTB  HZ I        2218 27.80         4.4 0.10            135            146 262 
 ZAR  HE ES       2218 35.22                             122    0.46 8  207 294 
                                                                                
