 2012  228 2259  3.9 L   7.452 -73.184132.0  RSN 12 0.3 2.5LRSN                1
 GAP=109        0.51       2.7     3.0  4.0 -0.1604E+01  0.4354E+01 -0.7014E+00E
 ACTION:UP  12-03-07 16:35 OP:epov STATUS:               ID:20120228225903 L   I
 2012-02-28-2257-59S.COL___191                                                 6
 STAT SP IPHASW D HRMM SECON CODA AMPLIT PERI AZIMU VELO AIN AR TRES W  DIS CAZ7
 PAM  SZ EP       2259 23.62                             156    0.2810 54.9 103 
 PAM  SN ES   1   2259 38.79                             156    0.25 7 54.9 103 
 BRR  HZ IP     C 2259 23.39                             150   -0.0510 69.7 237 
 BRR  HN ES   1   2259 38.83                             150    0.11 7 69.7 237 
 BRR  HZ I        2259 40.53        57.9 0.17                          69.7 237 
 BAR2 SZ EP       2259 25.27                             142   -0.2410 95.1 180 
 BAR2 SZ ES   2   2259 42.02                             142   -0.37 5 95.1 180 
 BAR2 SZ I        2259 42.83        83.5 0.09                          95.1 180 
 RUS  HZ EP   2   2259 32.43                             124   -0.40 4  173 176 
 PTB  HZ EP   1   2259 31.86                             124   -0.37 7  173 234 
 PTB  HE ES   2   2259 54.40                             124    0.04 4  173 234 
 RUS  HN ES   2   2259 54.79                             124   -0.64 4  173 176 
 ZAR  HZ EP   1   2259 33.56                             122    0.14 7  185 271 
 ZAR  HN ES   2   2259 56.75                             122    0.26 4  185 271 
 ZAR  HZ I        23 0  1.05        39.1 0.42                           185 271 
 COD  HZ EP   1   2259 43.02                             111   -0.36 6  276 354 
 COD  HZ I        2259 44.94        10.6 0.32                           276 354 
 COD  HN ES   2   23 0 13.70                             111   -0.52 4  276 354 
 NOR  SZ EP       2259 43.81                             111   -0.09 7  280 222 
 NOR  SN ES   2   23 0 14.93                             111   -0.20 4  280 222 
 HEL  HZ EP   2   2259 46.55                             110    0.61 4  294 242 
 HEL  HZ I        23 0 28.44        11.8 0.33                           294 242 
 CHI  HZ EP   1   2259 49.37                             108    0.65 5  318 191 
 CHI  HN ES   2   23 0 23.85                             108    0.14 3  318 191 
 CHI  HZ I        23 0 33.24         6.1 0.98                           318 191 
 GUY  SZ EP   2   2259 52.81                             107    0.65 3  347 225 
 GUY  SN ES   2   23 0 30.01                             107    0.17 3  347 225 
 GUY  SZ I        23 0 39.94        17.8 0.45                           347 225 
 RREF HZ EP   2   2259 55.51                             105    0.43 3  370 220 
 RREF HN ES   2   23 0 35.30                             105    0.27 3  370 220 
 RREF HZ I        23 0 42.96        12.2 0.29                           370 220 
                                                                                
