 2012  728 2233 34.4 L   6.732 -73.195148.7  RSN  5 0.3 1.5LRSN                1
 GAP=226        0.88       7.9     6.9  8.8  0.2996E+02  0.8461E+01  0.6303E+01E
 Epicentro: VILLANUEVA - SANTANDER                                             3
 ACTION:UPD 12-08-14 11:46 OP:ep   STATUS:               ID:20120728223334 L   I
 2012-07-28-2230-00M.COL___215                                                 6
 STAT SP IPHASW D HRMM SECON CODA AMPLIT PERI AZIMU VELO AIN AR TRES W  DIS CAZ7
 BAR2 SZ EP   1   2233 53.98                             174    -0.3 7   16 175 
 BAR2 SZ ES   1   2234  9.15                             174    -0.6 7   16 175 
 BAR2 SZ I        2234  9.94         8.1 0.18            172             16 175 
 BRR  HZ EP   1   2233 56.07                             153     0.2 7   71 306 
 BRR  HN ES       2234 12.87                             153     0.310   71 306 
 BRR  HZ I        2234 14.08        10.4 0.13            153             71 306 
 RUS  HZ EP   1   2233 58.19                             146     0.2 7   94 172 
 RUS  HN ES   1   2234 16.91                             146     0.5 7   94 172 
 RUS  HZ I        2234 17.58         3.8 0.30            146             94 172 
 PTB  HZ EP   1   2234  0.70                             134    -0.4 7  141 261 
 PTB  HN ES       2234 21.66                             134    -0.2 9  141 261 
 PTB  HZ I        2234 23.79         2.2 0.07            134            141 261 
 ZAR  HN ES   1   2234 32.33                             123     0.2 6  202 295 
