 2012  728 2135 46.2 L   6.986 -72.785124.0  RSN  4 0.3 1.5LRSN                1
 GAP=271        0.71      10.7    12.5 10.0  0.1088E+03 -0.5330E+02 -0.6084E+02E
 Epicentro: SANTA BARBARA - SANTANDER                                          3
 ACTION:UP  12-08-14 11:46 OP:ep   STATUS:               ID:20120728213546 L   I
 2012-07-28-2130-00M.COL___215                                                 6
 STAT SP IPHASW D HRMM SECON CODA AMPLIT PERI AZIMU VELO AIN AR TRES W  DIS CAZ7
 BAR2 SZ EP   1   2136  4.99                             152     0.1 8   62 225 
 BAR2 SZ ES   1   2136 19.73                             152     0.4 8   62 225 
 BAR2 SZ I        2136 21.14         4.6 0.18            153             62 225 
 BRR  HZ EP   1   2136  6.97                             138    -0.5 7  103 277 
 BRR  HZ I        2136  8.66        13.8 0.29            139            103 277 
 BRR  HN ES       2136 23.89                             138    -0.110  103 277 
 RUS  HN ES   1   2136 28.40                             132    -0.2 7  125 195 
 RUS  HZ I        2136 30.52         3.1 0.36            132            125 195 
 ZAR  HZ EP   1   2136 21.30                             113     0.5 6  236 284 
 ZAR  HN ES   1   2136 47.91                             113     0.1 6  236 284 
