 2013 1128 2147 54.3 L   6.808 -73.173144.2  RSN  8 0.5 2.2LRSN                1
 GAP=141        1.19       4.6     5.3  7.1 -0.6919E+01  0.1106E+02 -0.2134E+01E
 Epicentro: LOS SANTOS - SANTANDER                                             3
 ACTION:UPD 14-01-09 16:31 OP:ep   STATUS:               ID:20131128214754 L   I
 OLDACT:REG 13-11-28 23:43 OP:nd   STATUS:               ID:20131128214000     3
 2013-11-28-2140-00M.COL___282                                                 6
 STAT SP IPHASW D HRMM SECON CODA AMPLIT PERI AZIMU VELO AIN AR TRES W  DIS CAZ7
 BAR2 SZ EP       2148 13.79                             170    0.0410 23.9 183 
 BAR2 SZ ES       2148 28.28                             170   -0.6410 23.9 183 
 BAR2 SZ I        2148 29.71        51.1 0.30            171           23.9 183 
 BRR  HZ IP     C 2148 15.55                             153    0.4510 68.1 299 
 BRR  HN ES       2148 32.40                             153    1.0710 68.1 299 
 BRR  HZ I        2148 36.14        30.1 0.48            150           68.1 299 
 PAM  SZ IP     D 2148 16.77                             150    0.3510 78.6  42 
 PAM  SN ES       2148 33.48                             150   -0.2010 78.6  42 
 PAM  SZ I        2148 35.42        17.4 0.20            153           78.6  42 
 PTB  HZ EP       2148 20.55                             132   -0.33 9  145 258 
 PTB  HN ES       2148 41.37                             132   -0.25 9  145 258 
 PTB  HZ I        2148 43.85        19.7 0.16            132            145 258 
 SPBC HZ EP       2148 22.99                             129    0.43 9  162 218 
 SPBC HN ES       2148 44.40                             129   -0.21 9  162 218 
 SPBC HZ I        2148 48.65        17.3 0.12            130            162 218 
 ZAR  HZ EP       2148 26.30                             122   -0.01 9  201 292 
 ZAR  HN ES       2148 51.56                             122    0.27 9  201 292 
 ZAR  HZ I        2148 57.49        18.5 0.40            122            201 292 
 NOR  HZ EP       2148 29.95                             118    0.22 8  233 234 
 NOR  HN ES       2148 56.96                             118   -0.41 8  233 234 
 NOR  HZ I        2149  2.65         8.1 0.44            119            233 234 
 SML  HZ EP       2148 30.29                             117   -0.32 8  242 336 
 SML  HN ES       2148 57.98                             117   -0.95 8  242 336 
 SML  HZ I        2149  6.24        23.1 0.10            118            242 336 
                                                                                
