 2010 1228 2237 28.2 L   6.747 -73.069149.1  RSN 10 0.4 2.2LRSN                1
 GAP=142        0.76       3.7    10.3  6.3 -0.1003E+02 -0.2822E+01  0.2693E+01E
 Epicentro: LOS SANTOS - SANTANDER                                             3
 ACTION:UP  11-01-14 15:27 OP:pat  STATUS:               ID:20101228223728 L   I
 2010-12-28-2220-00M.COL___137                                                 6
 STAT SP IPHASW D HRMM SECON CODA AMPLIT PERI AZIMU VELO SNR AR TRES W  DIS CAZ7
 BAR2 SZ IP       2237 47.87                             172    -0.410   21 216 
 BAR2 SZ ES   2   2238  3.53                             172    -0.3 5   21 216 
 BAR2 SZ I        2238  4.70        48.4 0.23                            21 216 
 BTL  SZ EP       2237 48.57                             169     0.210   29 311 
 BTL  SZ ES   1   2238  4.37                             169     0.2 7   29 311 
 RUS  HZ EP       2237 51.72                             146    -0.210   94 181 
 RUS  HZ I        2237 53.39        11.5 0.37                            94 181 
 RUS  HE ES   1   2238 10.74                             146     0.4 7   94 181 
 GRA  SZ IP       2237 53.70                             137    -0.410  129  13 
 GRA  SZ ES   2   2238 14.03                             137    -0.2 5  129  13 
 GRA  SZ I        2238 14.96        37.7 0.23                           129  13 
 OCA  SZ EP   2   2237 58.15                             129     0.7 5  167 351 
 OCA  SZ ES   2   2238 21.01                             129     0.7 5  167 351 
 OCA  SZ I        2238 25.50        28.8 0.40                           167 351 
 YOP  SZ EP   1   2237 58.24                             129     0.6 7  170 155 
 YOP  SZ I        2238 26.42        10.2 0.35                           170 155 
 NOR  SZ EP   2   2238  4.17                             119    -0.4 4  238 237 
 CHI  HZ EP   2   2238  5.80                             118     0.0 4  245 197 
 CHI  HN ES   2   2238 34.66                             118    -0.4 4  245 197 
 CHI  HZ I        2238 44.88        10.9 0.55                           245 197 
 TOL  SZ EP   2   2238 17.33                             110     0.5 3  345 226 
 PRA  HZ EP   2   2238 22.21                             107     0.4 3  391 211 
 PRA  HE ES   2   2239  3.05                             107    -0.5 3  391 211 
                                                                                
