 2014  728 2102 13.6 L   6.771 -73.135150.3  RSN  6 0.5 1.6LRSN                1
 GAP=201        0.92       7.2     6.5  9.4  0.1320E+02  0.2270E+01 -0.2415E+02E
 Epicentro: LOS SANTOS - SANTANDER                                             3
 ACTION:UPD 15-03-16 20:47 OP:nd   STATUS:               ID:20140728210213 L   I
 OLDACT:DUP 14-07-29 03:43 OP:fm   STATUS:               ID:20140728205819d    3
 2014-07-28-2058-18M.COL___263                                                 6
 STAT SP IPHASW D HRMM SECON CODA AMPLIT PERI AZIMU VELO AIN AR TRES W  DIS CAZ7
 BAR2 SZ EP   1   21 2 34.09                             172    0.38 8 20.5 195 
 BAR2 SZ ES   1   21 2 50.02                             172    0.62 8 20.5 195 
 BAR2 SZ I        21 2 50.78        10.4 0.12            165           20.5 195 
 RUS  HZ EP   1   21 2 37.46                             146   -0.10 8 97.3 177 
 RUS  HN ES   1   21 2 55.31                             146   -0.94 8 97.3 177 
 RUS  HZ I        21 2 57.84         3.2 0.24            143           97.3 177 
 PTB  HZ EP       21 2 41.09                             133    0.1110  148 260 
 PTB  HN ES       21 3  2.14                             133   -0.2110  148 260 
 PTB  HZ I        21 3  5.23         3.7 0.44            131            148 260 
 SPBC HZ EP   1   21 2 42.87                             130    0.59 7  161 220 
 SPBC HN ES   1   21 3  4.82                             130    0.16 7  161 220 
 SPBC HZ I        21 3  7.64         4.4 0.20            128            161 220 
 ZAR  HN ES   1   21 3 12.24                             123   -0.06 7  206 293 
 ZAR  HZ I        21 3 14.94         3.6 0.22            124            206 293 
 SML  HZ EP   1   21 2 50.23                             118   -0.61 6  247 335 
 SML  HE ES   4   21 3 12.12                             118   -7.77 0  247 335 
 SML  HZ I        21 3 14.45         5.0 0.36            120            247 335 
                                                                                
