 2010  328 2247 24.4 L   6.809 -73.043140.4  RSN 10 0.3 2.2LRSN                1
 GAP=133        0.57       2.4     4.8  4.3 -0.1868E+01 -0.2800E+01 -0.7992E+00E
 Epicentro: LOS SANTOS - SANTANDER                                             3
 ACTION:UP  10-08-24 09:56 OP:vdl  STATUS:               ID:20100328224724 L   I
 2010-03-28-2244-12S.COL___098                                                 6
 STAT SP IPHASW D HRMM SECON CODA AMPLIT PERI AZIMU VELO SNR AR TRES W  DIS CAZ7
 BAR2 SZ EP   1   2247 43.24                             168    -0.3 7   29 213 
 BAR2 SZ ES   1   2247 58.18                             168    -0.2 7   29 213 
 BRR  HZ IP       2247 45.61                             148     0.010   81 294 
 BRR  HZ I        2247 45.97        68.5 0.09                            81 294 
 BRR  HE ES   1   2248  2.35                             148     0.3 7   81 294 
 RUS  HZ EP   2   2247 47.85                             142     0.1 5  101 183 
 RUS  HN ES   1   2248  6.26                             142     0.4 7  101 183 
 RUS  HZ I        2248  7.53        19.6 0.38                           101 183 
 OCA  SZ IP       2247 52.25                             128    -0.1 9  161 349 
 OCA  SZ ES   1   2248 14.13                             128    -0.1 7  161 349 
 CHI  HZ EP   2   2248  2.05                             116    -0.2 4  253 198 
 CHI  HE ES   1   2248 31.35                             116    -0.5 6  253 198 
 CHI  HZ I        2248 34.55         3.9 0.42                           253 198 
 HEL  HZ EP   2   2248  6.36                             113     0.7 4  283 256 
 HEL  HZ I        2248 42.60         8.1 0.46                           283 256 
 RREF BZ EP   2   2248 11.45                             109     0.0 3  331 231 
 RREF BE ES   2   2248 48.11                             109     0.1 3  331 231 
 RREF BZ I        2248 55.66         6.2 0.27                           331 231 
 SDV  BZ IP       2248 13.48                             108     0.3 6  351  49 
 SDV  BZ I        2248 14.12        14.9 0.14                           351  49 
 DBB  SZ EP   2   2248 12.41                             108    -0.6 3  351 274 
 PRA  HZ EP   2   2248 18.23                             105    -0.3 3  399 211 
 PRA  HN ES   2   2249  1.30                             105     0.6 3  399 211 
 PRA  HZ I        2249  6.85         6.4 0.60                           399 211 
                                                                                
