 2015  329 0238 32.9 L   6.815 -73.166139.4  RSN  6 0.4 1.2LRSN                1
 GAP=133        1.11       5.4     5.5  7.9 -0.7665E+01  0.5851E+01  0.7977E+01E
 Epicentro: LOS SANTOS - SANTANDER                                             3
 ACTION:UPD 15-04-30 16:30 OP:nd   STATUS:               ID:20150329023832 L   I
 OLDACT:REG 15-03-29 12:43 OP:stll STATUS:               ID:20150329022748     3
 2015-03-29-0227-48M.COL___290                                                 6
 STAT SP IPHASW D HRMM SECON CODA AMPLIT PERI AZIMU VELO AIN AR TRES W  DIS CAZ7
 BAR2 EZ ES        239  7.13                             169    0.6110 24.8 184 
 BAR2 EZ I         239  8.76         4.0 0.20            168           24.8 184 
 BRR  HE ES        239  9.53                             152    0.5010 68.5 298 
 PAM  SZ EP        238 54.68                             150    0.2410 77.5  42 
 PAM  SZ I         238 55.26         2.1 0.20            153           77.5  42 
 PAM  SN ES        239 10.57                             150   -0.6810 77.5  42 
 RUS  HZ EP        238 56.25                             142    0.0910  102 175 
 RUS  HN ES        239 13.99                             142   -0.3210  102 175 
 RUS  HZ I         239 15.92         2.2 0.22            143            102 175 
 PTB  HZ EP        238 59.21                             131    0.03 9  146 258 
 PTB  HE ES        239 18.97                             131   -0.71 9  146 258 
 PTB  HZ I         239 27.26         2.1 0.44            130            146 258 
 SPBC HZ EP        239  1.13                             128    0.22 9  163 218 
 SPBC HN ES        239 22.74                             128   -0.02 9  163 218 
 SPBC HZ I         239 25.78         3.5 0.32            128            163 218 
                                                                                
