 2012  129 0803 58.0 L   6.738 -73.173143.6  RSN  6 0.2 1.4LRSN                1
 GAP=177        0.42       5.0     4.7  5.5  0.1331E+02  0.1585E+01 -0.2046E+01E
 Epicentro: VILLANUEVA - SANTANDER                                             3
 ACTION:UP  12-02-03 08:21 OP:REBC STATUS:               ID:20120129080358 L   I
 2012-01-29-0800-00M.COL___188                                                 6
 STAT SP IPHASW D HRMM SECON CODA AMPLIT PERI AZIMU VELO SNR AR TRES W  DIS CAZ7
 BAR2 SZ ES   2    8 4 31.97                             173    -0.3 5   16 184 
 GIR2 SZ EP   2    8 4 17.36                             164    -0.3 5   38 356 
 BRR  HZ EP        8 4 19.17                             152     0.210   72 304 
 BRR  HZ I         8 4 19.38         6.9 0.10                            72 304 
 BRR  HN ES   1    8 4 35.37                             152     0.0 7   72 304 
 RUS  HZ EP   2    8 4 21.11                             145     0.0 5   94 174 
 RUS  HE ES   2    8 4 39.18                             145     0.1 5   94 174 
 PTB  HZ EP   2    8 4 23.98                             132    -0.4 5  144 261 
 PTB  HN ES   2    8 4 45.09                             132     0.1 5  144 261 
 ZAR  HE ES   1    8 4 55.42                             122    -0.1 6  204 294 
 ZAR  HZ I         8 5  0.81         1.8 0.38                           204 294 
                                                                                
