 2012  429 0600 11.0 L   6.123 -73.639108.0  RSN  8 0.5 1.7LRSN                1
 GAP= 89        1.23       4.5     4.9 10.9  0.2263E+01  0.1911E+02  0.7237E+01E
 Epicentro: CHIPATA - SANTANDER                                                3
 ACTION:UPD 12-07-05 11:56 OP:tino STATUS:               ID:20120429060011 L   I
 2012-04-29-0600-00M.COL___189                                                 6
 STAT SP IPHASW D HRMM SECON CODA AMPLIT PERI AZIMU VELO AIN AR TRES W  DIS CAZ7
 RUS  HZ EP        6 0 28.30                             146    -0.310   67 112 
 RUS  HZ I         6 0 28.86         7.8 0.14                            67 112 
 RUS  HN ES   1    6 0 42.16                             146    -0.2 7   67 112 
 BAR2 SZ EP        6 0 28.48                             144    -0.210   72  44 
 BAR2 SZ ES   1    6 0 42.94                             144     0.5 7   72  44 
 BAR2 SZ I         6 0 44.69        26.1 0.56                            72  44 
 PTB  HZ EP        6 0 29.91                             133    -0.810  102 297 
 PTB  HN ES   1    6 0 46.14                             133     0.1 7  102 297 
 PTB  HZ I         6 0 48.09         9.4 0.09                           102 297 
 BRR  HZ EP        6 0 31.08                             131    -0.310  109 356 
 BRR  HN ES   1    6 0 47.75                             131     0.5 7  109 356 
 BRR  HZ I         6 0 48.68         9.1 0.09                           109 356 
 CHI  HZ EP        6 0 37.74                             119     0.1 9  165 184 
 CHI  HN ES   1    6 0 58.82                             119     0.5 7  165 184 
 CHI  HZ I         6 1  3.95         5.7 0.39                           165 184 
 PAM  SZ EP   1    6 0 37.92                             118    -0.2 7  170  38 
 PAM  SN ES   1    6 0 59.76                             118     0.4 7  170  38 
 ZAR  HZ EP   1    6 0 42.26                             113     1.1 6  203 318 
 ZAR  HN ES   1    6 1  4.37                             113    -0.3 6  203 318 
 ZAR  HZ I         6 1  7.37        10.4 0.33                           203 318 
 HEL  HZ EP   1    6 0 43.30                             112     0.9 6  209 272 
 HEL  HN ES   1    6 1  6.79                             112     0.0 6  209 272 
 HEL  HZ I         6 1 13.02         6.3 0.19                           209 272 
                                                                                
