 2010  329 0420  6.1 L   6.823 -73.101144.0  RSN 12 0.5 2.3LRSN                1
 GAP=188        0.82       4.6     9.3  7.7 -0.3751E+01  0.2508E+02  0.3276E+01E
 Epicentro: LOS SANTOS - SANTANDER                                             3
 ACTION:UP  10-08-24 09:56 OP:vdl  STATUS:               ID:20100329042006 L   I
 2010-03-29-0418-10S.COL___098                                                 6
 STAT SP IPHASW D HRMM SECON CODA AMPLIT PERI AZIMU VELO SNR AR TRES W  DIS CAZ7
 BAR2 SZ IP        420 25.61                             169     0.010   27 200 
 BAR2 SZ ES   2    420 40.54                             169    -0.3 5   27 200 
 BRR  HZ IP        420 27.63                             151     0.410   75 295 
 BRR  HE ES   2    420 44.00                             151     0.3 5   75 295 
 BRR  HZ I         420 48.46        28.3 0.13                            75 295 
 RUS  HN ES   2    420 48.13                             143    -0.2 5  103 179 
 OCA  SZ EP        420 33.92                             130    -0.2 9  158 351 
 OCA  SZ I         421  2.80        26.7 0.11                           158 351 
 CHI  HZ EP        420 43.78                             116    -0.3 8  252 196 
 CHI  HE ES   2    421 13.30                             116    -0.5 4  252 196 
 CHI  HZ I         421 22.99         6.9 0.39                           252 196 
 ROSC BZ EP        420 45.28                             116     0.6 8  258 212 
 ROSC BN ES   3    421 15.14                             116     0.4 2  258 212 
 ROSC BZ I         421 21.43        12.2 0.50                           258 212 
 HEL  HZ EP   2    420 46.71                             114    -0.1 4  278 256 
 HEL  HE ES   3    421 18.51                             114    -0.1 2  278 256 
 HEL  HZ I         421 24.77         9.1 0.34                           278 256 
 RREF BE ES   2    421 28.93                             110    -0.3 3  327 230 
 RREF BZ I         421 37.69         9.7 0.34                           327 230 
 DBB  SZ EP        420 53.24                             109    -0.8 7  344 274 
 TOL  SZ EP   2    420 56.20                             109     1.3 3  349 225 
 ANIL BZ EP   1    420 56.59                             108     0.1 5  363 225 
 PRA  HZ EP   2    420 59.03                             106    -1.1 3  397 210 
 PRA  HN ES   3    421 42.83                             106     0.6 1  397 210 
 PRA  HZ I         421 47.85         6.9 0.43                           397 210 
                                                                                
