 2017  829 0530 53.1 L   5.738 -73.891105.4  RSN  6 0.4 1.2LRSN                1
 GAP=108        1.04       4.3     3.4  7.5 -0.1166E+00  0.5187E+01 -0.2444E+01E
 Epicentro: ALBANIA - SANTANDER                                                3
 ACTION:UPD 17-09-04 20:26 OP:rebc STATUS:               ID:20170829053053 L   I
 OLDACT:REG 17-08-29 13:04 OP:dani STATUS:               ID:20170829052742     3
 2017-08-29-0528-00M.COL___417                                                 6
 STAT SP IPHASW D HRMM SECON CODA AMPLIT PERI AZIMU VELO AIN AR TRES W  DIS CAZ7
 SPBC HZ EP     D  531  7.35                             167   -0.2510 22.2 245 
 SPBC HE ES        531 19.25                             167    0.3010 22.2 245 
 SPBC HZ I         531 20.02        11.8 0.16            166           22.2 245 
 RUS  HZ EP        531 12.70                             136    0.4210 91.1  79 
 RUS  HN ES        531 27.43                             136    0.1610 91.1  79 
 NOR  HZ EP        531 13.25                             130   -0.1210  110 260 
 NOR  HE ES        531 28.83                             130   -0.3910  110 260 
 NOR  HZ I         531 30.61         6.7 0.32            131            110 260 
 CHI  HZ EP        531 15.24                             127    0.0710  124 172 
 CHI  HN ES        531 31.78                             127   -0.6410  124 172 
 CHI  HZ I         531 36.27         1.4 0.20            127            124 172 
 GUY2CHZ EP        531 20.43                             117    0.06 9  173 251 
 GUY2CHN ES        531 42.51                             117    0.84 9  173 251 
 GUY2CHZ I         531 49.09         1.4 0.20                           173 251 
 ZAR  HN ES        531 49.84                             110   -0.49 8  222 331 
                                                                                
