 2014 1029 0306 10.6 L   6.763 -73.165146.0  RSN  4 0.2 0.9LRSN                1
 GAP=232        0.68       5.4     5.1  5.5  0.1381E+02  0.2585E+01  0.5637E+00E
 Epicentro: LOS SANTOS - SANTANDER                                             3
 ACTION:UPD 14-11-29 23:58 OP:nd   STATUS:               ID:20141029030610 L   I
 OLDACT:ARG 14-10-30 20:24 OP:stll STATUS:               ID:20141029025747     3
 2014-10-29-0257-47M.COL___271                                                 6
 STAT SP IPHASW D HRMM SECON CODA AMPLIT PERI AZIMU VELO AIN AR TRES W  DIS CAZ7
 BAR2 SZ EP        3 6 30.15                             172   -0.0110 19.0 186 
 BAR2 SZ ES        3 6 45.38                             172   -0.0510 19.0 186 
 BRR  HZ EP        3 6 31.30                             152   -0.4610 71.4 302 
 BRR  HN ES        3 6 48.59                             152    0.3010 71.4 302 
 RUS  HZ EP        3 6 34.43                             145    0.3510 96.7 175 
 RUS  HE ES        3 6 52.24                             145   -0.1610 96.7 175 
 RUS  HZ I         3 6 57.92         0.7 0.46            141           96.7 175 
 PTB  HZ EP        3 6 37.43                             133    0.12 9  145 260 
 PTB  HN ES        3 6 58.06                             133   -0.09 9  145 260 
 PTB  HZ I         3 7  0.47         2.3 0.32            132            145 260 
                                                                                
