 2013 1029 0528 30.4 L   6.822 -73.158143.0  RSN 12 0.5 2.0LRSN                1
 GAP= 70        1.14       2.9     3.4  5.7  0.1229E+00  0.3705E+01  0.8279E+00E
 Epicentro: LOS SANTOS - SANTANDER                                             3
 ACTION:UPD 13-11-25 09:24 OP:ep   STATUS:               ID:20131029052830 L   I
 OLDACT:REG 13-10-29 07:23 OP:jn   STATUS:               ID:20131029052738     3
 2013-10-29-0527-38M.COL___224                                                 6
 STAT SP IPHASW D HRMM SECON CODA AMPLIT PERI AZIMU VELO AIN AR TRES W  DIS CAZ7
 BAR2 SZ EP        528 49.73                             169    0.0210 25.5 186 
 BAR2 SZ ES        529  4.27                             169   -0.5310 25.5 186 
 BAR2 SZ I         529  5.66        34.4 0.30            169           25.5 186 
 BRR  HZ EP        528 51.44                             153    0.3610 68.9 297 
 BRR  HN ES        529  8.31                             153    1.0610 68.9 297 
 BRR  HZ I         529  9.01        33.1 0.28            152           68.9 297 
 PAM  SZ EP        528 52.62                             151    0.3910 76.4  41 
 PAM  SN ES        529  9.70                             151    0.4210 76.4  41 
 PAM  SZ I         529 11.57        15.8 0.52            154           76.4  41 
 RUS  HZ EP        528 54.23                             143    0.2010  103 175 
 RUS  HN ES        529 12.53                             143    0.0510  103 175 
 RUS  HZ I         529 14.35         9.7 0.30            144            103 175 
 PTB  HZ EP        528 56.39                             132   -0.64 9  147 258 
 PTB  HN ES        529 17.18                             132   -0.65 9  147 258 
 PTB  HZ I         529 20.81        12.5 0.38            132            147 258 
 TAM  HZ EP        528 58.15                             130    0.15 9  157 106 
 TAM  HN ES        529 19.06                             130   -0.50 9  157 106 
 OCA  HZ EP        528 58.18                             130   -0.04 9  158 354 
 OCA  HE ES        529 19.57                             130   -0.38 9  158 354 
 OCA  HZ I         529 25.03        13.0 0.34            131            158 354 
 SPBC HZ EP        528 58.59                             128   -0.16 9  164 218 
 SPBC HN ES   1    529 20.58                             128   -0.31 7  164 218 
 SPBC HZ I         529 26.89        12.4 0.20            129            164 218 
 ZAR  HZ EP        529  2.93                             122    0.52 9  202 292 
 ZAR  HN ES        529 27.23                             122   -0.17 9  202 292 
 ZAR  HZ I         529 35.05        12.7 0.34            123            202 292 
 SML  HZ EP        529  6.13                             117   -0.41 8  241 335 
 SML  HE ES        529 34.13                             117   -0.62 8  241 335 
 CHI  HZ EP        529  7.96                             116   -0.16 8  251 195 
 CHI  HN ES        529 37.44                             116   -0.14 8  251 195 
 CHI  HZ I         529 41.29         3.0 0.34            118            251 195 
 GUY2CHZ EP        529 14.68                             112    0.80 7  301 234 
 GUY2CHN ES        529 48.33                             112    0.51 7  301 234 
 GUY2CHZ I         529 55.98         4.6 0.36                           301 234 
                                                                                
