 2014 1229 0543 19.7 L   6.775 -73.148147.4  RSN  7 0.3 1.4LRSN                1
 GAP=137        0.77       3.0     4.2  5.5 -0.1219E+01 -0.1448E+00 -0.2034E+00E
 Epicentro: LOS SANTOS - SANTANDER                                             3
 ACTION:UPD 15-02-10 17:08 OP:nd   STATUS:               ID:20141229054319 L   I
 OLDACT:ARG 14-12-29 12:30 OP:stll STATUS:               ID:20141229053749     3
 2014-12-29-0537-49M.COL___259                                                 6
 STAT SP IPHASW D HRMM SECON CODA AMPLIT PERI AZIMU VELO AIN AR TRES W  DIS CAZ7
 BAR2 EZ EP        543 39.32                             172   -0.1210 20.5 191 
 BAR2 EZ ES        543 54.77                             172   -0.1010 20.5 191 
 BAR2 EZ I         543 57.04         6.9 0.22            171           20.5 191 
 BRR  HZ EP        543 41.27                             152    0.2110 72.4 301 
 BRR  HN ES        543 58.19                             152    0.4410 72.4 301 
 BRR  HZ I         544  3.80         3.7 0.20            152           72.4 301 
 PAM  SZ EP        543 42.14                             150   -0.0610 79.7  38 
 PAM  SZ I         543 42.51        10.3 0.16            155           79.7  38 
 RUS  HZ EP        543 43.50                             145    0.1110 97.8 176 
 RUS  HN ES        544  1.71                             145   -0.1710 97.8 176 
 RUS  HZ I         544  3.31         1.9 0.30            147           97.8 176 
 PTB  HZ EP        543 46.15                             132   -0.55 9  147 260 
 PTB  HN ES        544  7.52                             132   -0.27 9  147 260 
 PTB  HZ I         544  9.70         2.7 0.12            133            147 260 
 SPBC HZ EP        543 48.65                             130    0.57 9  161 220 
 SPBC HN ES        544 10.28                             130    0.05 9  161 220 
 SPBC HZ I         544 17.25         4.0 0.14            131            161 220 
 OCA  HE ES        544 10.61                             129   -0.14 9  163 353 
 OCA  HZ I         544 12.39         2.4 0.26            132            163 353 
                                                                                
