 2010  829 0041 45.7 L   7.461 -73.487106.0  RSN  9 0.3 2.0LRSN                1
 GAP=134        0.69       3.9     6.0  6.7 -0.1136E+02 -0.9087E+00  0.3934E+01E
 Epicentro: SABANA DE TORRES - SANTANDER                                       3
 ACTION:UP  10-09-07 10:59 OP:vdl  STATUS:               ID:20100829004145 L   I
 2010-08-29-0038-06S.COL___120                                                 6
 STAT SP IPHASW D HRMM SECON CODA AMPLIT PERI AZIMU VELO SNR AR TRES W  DIS CAZ7
 BRR  HZ EP   1    042  1.10                             155    -0.1 7   46 213 
 BRR  HN ES   1    042 13.41                             155     0.2 7   46 213 
 BRR  HZ I         042 14.54        66.2 0.10                            46 213 
 GIR2 SZ EP   2    042  2.61                             152     0.8 5   53 143 
 BTL  SZ EP   1    042  2.30                             147    -0.3 7   65 158 
 GUE  SZ EP        042  3.09                             143    -0.310   74  57 
 GUE  SZ I         042  3.70        31.4 0.08                            74  57 
 GUE  SZ ES   2    042 17.40                             143     0.2 5   74  57 
 OCA  SZ EP        042  4.25                                     0.010   88  12 
 OCA  SZ ES   1    042 18.55                             138    -0.2 7   88  12 
 OCA  SZ I         042 21.78        19.7 0.46                            88  12 
 GRA  SZ EP        042  4.48                                     0.110   89  58 
 GRA  SZ ES   1    042 19.22                             137     0.4 7   89  58 
 GRA  SZ I         042 20.13        23.7 0.26                            89  58 
 RUS  HZ EP   2    042 13.83                             116     0.1 4  179 166 
 RUS  HE ES   2    042 35.11                             116    -0.5 4  179 166 
 HEL  HZ EP   2    042 24.16                             106     0.6 4  266 238 
 HEL  HZ I         042 51.95         2.7 0.47                           266 238 
 PRA  HZ EP   2    042 44.38                              97     0.1 3  442 201 
 PRA  HZ I         043 44.76         2.2 0.34                           442 201 
                                                                                
