 2013  729 0321 34.1 L   6.041 -73.662113.9  RSN  8 0.3 1.6LRSN                1
 GAP= 79        0.72       2.5     3.0  6.4 -0.1867E+01 -0.1122E+00 -0.1545E+01E
 Epicentro: CHIPATA - SANTANDER                                                3
 ACTION:UPD 13-08-12 10:40 OP:ep   STATUS:               ID:20130729032134 L   I
 OLDACT:REG 13-07-29 07:41 OP:carl STATUS:               ID:20130729031959     3
 2013-07-29-0319-59M.COL___267                                                 6
 STAT SP IPHASW D HRMM SECON CODA AMPLIT PERI AZIMU VELO AIN AR TRES W  DIS CAZ7
 SPBC HZ EP        321 51.45                             149   -0.0210 62.5 227 
 SPBC HN ES        322  5.02                             149    0.0010 62.5 227 
 SPBC HZ I         322  6.31        10.1 0.20            150           62.5 227 
 RUS  HZ EP   1    321 52.19                             148   -0.08 7 66.1 104 
 RUS  HN ES   1    322  6.30                             148   -0.15 7 66.1 104 
 RUS  HZ I         322  8.21         3.7 0.26            150           66.1 104 
 BAR2 SZ ES   1    322  7.72                             142    0.09 7 80.8  41 
 BAR2 SZ I         322  8.74        19.3 0.12            144           80.8  41 
 PTB  HZ EP   1    321 53.85                             134   -0.65 7  104 302 
 PTB  HE ES        322  9.99                             134   -0.4110  104 302 
 PTB  HZ I         322 12.41         2.6 0.28            136            104 302 
 BRR  HZ EP   1    321 55.74                             130   -0.02 7  118 357 
 BRR  HN ES   1    322 12.85                             130    0.20 7  118 357 
 BRR  HZ I         322 15.87         5.5 0.30            132            118 357 
 GIR2 SZ EP        321 56.91                             128    0.2210  126  24 
 GIR2 SZ ES   1    322 14.53                             128    0.22 7  126  24 
 NOR  HE ES        322 17.86                             124    0.64 9  144 249 
 NOR  HE I         322 18.78        15.5 0.18            126            144 249 
 CHI  HE ES        322 20.20                             122   -0.13 9  156 183 
 CHI  HE I         322 23.94         9.5 0.52            124            156 183 
                                                                                
