 2017  729 0604 20.8 L   6.781 -73.138141.2  RSN 10 0.4 1.3LRSN                1
 GAP=212        0.88       5.5     4.9  6.0  0.1450E+02  0.2594E+01  0.5354E+01E
 Epicentro: LOS SANTOS - SANTANDER                                             3
 ACTION:UPD 17-08-30 15:37 OP:rebc STATUS:               ID:20170729060420 L   I
 OLDACT:UP  17-07-29 16:41 OP:and  STATUS:               ID:20170729055739     3
 OLDACT:REG 17-07-29 12:57 OP:and  STATUS:               ID:20170729055739     3
 2017-07-29-0558-00M.COL___386                                                 6
 STAT SP IPHASW D HRMM SECON CODA AMPLIT PERI AZIMU VELO AIN AR TRES W  DIS CAZ7
 BAR2 EZ IP     C  6 4 39.72                             172   -0.1310 21.4 193 
 BAR2 EZ ES        6 4 54.69                             172   -0.0110 21.4 193 
 BAR2 EZ I         6 4 56.12         6.6 0.18            171           21.4 193 
 BRR  HZ EP        6 4 41.49                             151   -0.0710 72.9 300 
 BRR  HN ES        6 4 58.50                             151    0.7510 72.9 300 
 BRR  HZ I         6 5  1.08         3.5 0.30            150           72.9 300 
 RUS  HZ EP        6 4 44.19                             144    0.2410 98.4 176 
 RUS  HN ES        6 5  1.67                             144   -0.3410 98.4 176 
 RUS  HZ I         6 5  3.72         1.8 0.15            145           98.4 176 
 PTB  HZ EP   2    6 4 46.86                             131   -0.58 5  148 260 
 PTB  HN ES        6 5  7.41                             131   -0.81 9  148 260 
 PTB  HZ I         6 5  9.88         1.7 0.36            131            148 260 
 SPBC HZ EP   2    6 4 48.97                             129    0.12 5  162 220 
 SPBC HN ES   2    6 5 10.93                             129    0.20 5  162 220 
 SPBC HZ I         6 5 12.98         3.5 0.10            129            162 220 
 YPLC HZ IP     C  6 4 50.14                             126    0.09 9  175 151 
 ZAR  HN ES        6 5 18.37                             121    0.05 8  206 293 
 ZAR  HZ I         6 5 24.33         2.3 0.12            121            206 293 
 NOR  HZ EP   2    6 4 56.07                             118   -0.15 4  234 235 
 GUY2CHZ EP   2    6 5  4.65                             112    0.50 4  301 235 
 GUY2CHE ES   2    6 5 39.12                             112    1.17 4  301 235 
 GUY2CHZ I         6 5 48.92         1.1 0.43                           301 235 
 PRA  HZ EP   2    6 5 14.31                             106    0.30 3  391 210 
                                                                                
