 2015 1229 0133 40.9 L   6.816 -73.171143.9  RSN 16 0.5 1.9LRSN                1
 GAP=133        1.10       2.8     3.9  5.5 -0.1305E+01  0.6758E+01  0.2311E+01E
 Epicentro: LOS SANTOS - SANTANDER                                             3
 ACTION:UPD 16-02-04 15:08 OP:cam  STATUS:               ID:20151229013340 L   I
 OLDACT:UP  15-12-29 15:50 OP:ak   STATUS:               ID:20151229012750d    3
 OLDACT:DUP 15-12-29 15:31 OP:ak   STATUS:               ID:20151229012750d    3
 OLDACT:REG 15-12-29 12:48 OP:ak   STATUS:               ID:20151229012749     3
 2015-12-29-0127-49M.COL___338                                                 6
 STAT SP IPHASW D HRMM SECON CODA AMPLIT PERI AZIMU VELO AIN AR TRES W  DIS CAZ7
 BAR2 EZ EP        134  0.36                             170    0.0310 24.7 183 
 BAR2 EZ ES        134 15.64                             170    0.1510 24.7 183 
 BAR2 EZ I         134 19.68        10.3 0.19            168           24.7 183 
 BRR  HZ EP        134  2.24                             153    0.5810 67.9 298 
 BRR  HN ES        134 18.51                             153    0.6510 67.9 298 
 BRR  HZ I         134 19.81        41.6 0.04            152           67.9 298 
 PAM  EZ EP        134  3.39                             150    0.4510 77.9  42 
 PAM  EN ES        134 19.99                             150   -0.1510 77.9  42 
 PAM  EZ I         134 22.25         7.5 0.56            156           77.9  42 
 RUS  HZ EP        134  4.36                             143   -0.2510  103 175 
 RUS  HN ES        134 22.60                             143   -0.5010  103 175 
 RUS  HZ I         134 24.82         8.6 0.32            145            103 175 
 PTB  HZ EP        134  6.81                             132   -0.69 9  145 258 
 PTB  HN ES        134 27.60                             132   -0.65 9  145 258 
 PTB  HZ I         134 30.58        12.2 0.10            132            145 258 
 OCA  HZ EP   4    134 10.96                             130    2.09 0  158 354 
 OCA  HN ES        134 30.38                             130   -0.31 9  158 354 
 SPBC HZ EP        134  9.36                             129    0.14 9  163 218 
 SPBC HN ES        134 31.64                             129    0.33 9  163 218 
 SPBC HZ I         134 38.25        11.7 0.32            130            163 218 
 ZAR  HZ EP   1    134 13.94                             122    1.05 6  201 292 
 ZAR  HN ES        134 38.00                             122    0.15 9  201 292 
 ZAR  HZ I         134 43.66                             123            201 292 
 NOR  HZ EP        134 16.52                             118    0.13 8  233 234 
 NOR  HN ES        134 44.15                             118    0.08 8  233 234 
 NOR  HZ I         134 51.93         3.7 0.18            119            233 234 
 SML  HZ EP        134 16.50                             117   -0.63 8  241 336 
 SML  HE ES        134 45.05                             117   -0.33 8  241 336 
 CHI  HZ EP        134 18.48                             117   -0.12 8  250 194 
 CHI  HN ES        134 47.91                             117   -0.10 8  250 194 
 CHI  HZ I         134 51.53         4.6 0.46            118            250 194 
 URE  HZ EP   4    134 24.50                             113    2.98 0  281 292 
 URE  HE ES   4    134 51.04                             113   -2.16 0  281 292 
 URE  HZ I         135  3.03         6.5 0.20            115            281 292 
 GUY2CHZ EP        134 24.97                             112    0.69 7  300 234 
 GUY2CHN ES        134 58.47                             112    0.35 7  300 234 
 GUY2CHZ I         135  6.32         3.7 0.52                           300 234 
 CBOC HZ EP        134 26.73                             110   -0.77 7  332 252 
 CBOC HN ES        135  3.57                             110   -0.28 7  332 252 
 PRA  HZ EP        134 35.40                             106    1.02 6  392 209 
 PRA  HN ES        135 15.35                             106   -0.74 6  392 209 
 PRA  HZ I         135 20.87         4.6 0.48            108            392 209 
 SJC  HZ EP   9    134 34.17                             105   -1.88 0  406 327 
 SJC  HN ES        135 16.39                                   -0.80 6  406 327 
                                                                                
