 2012  829 0411 17.2 L   6.771 -73.035132.3  RSN  4 0.3 1.5LRSN                1
 GAP=189        0.34      12.9    15.4  8.8 -0.1222E+03 -0.3367E+01 -0.4347E+02E
 Epicentro: CEPITA - SANTANDER                                                 3
 ACTION:UPD 12-09-10 11:59 OP:ep   STATUS:               ID:20120829041117 L   I
 2012-08-29-0410-00M.COL___218                                                 6
 STAT SP IPHASW D HRMM SECON CODA AMPLIT PERI AZIMU VELO AIN AR TRES W  DIS CAZ7
 BAR2 SZ EP   3    411 35.28                             168   -0.03 2 25.6 220 
 BAR2 SZ ES   2    411 49.37                             168   -0.03 5 25.6 220 
 BAR2 SZ I         411 51.23         9.4 0.30                          25.6 220 
 GIR2 SZ EP   3    411 36.33                             163    0.79 2 38.3 333 
 GIR2 SZ ES   3    411 49.87                             163    0.05 2 38.3 333 
 PAM  SZ EP   2    411 37.69                             150   -0.07 5 73.0  30 
 PAM  SZ I         411 38.21         6.1 0.24                          73.0  30 
 PAM  SN ES   3    411 53.72                             150   -0.05 2 73.0  30 
 BRR  HZ EP   3    411 37.39                             146   -0.36 2 83.6 296 
                                                                                
