 2011 1229 0203 31.9 L   6.766 -73.146149.3  RSN  7 0.4 1.7LRSN                1
 GAP=138        0.75       4.5     5.3  6.3 -0.2616E+01  0.2028E+01  0.5655E+01E
 Epicentro: LOS SANTOS - SANTANDER                                             3
 ACTION:UPD 12-07-13 16:19 OP:ep   STATUS:               ID:20111229020331 L   I
 2011-12-29-0200-00M.COL___187                                                 6
 STAT SP IPHASW D HRMM SECON CODA AMPLIT PERI AZIMU VELO AIN AR TRES W  DIS CAZ7
 BAR2 SZ EP        2 3 51.80                             172   -0.1010 19.6 192 
 BAR2 SZ ES   1    2 4  7.07                             172   -0.42 7 19.6 192 
 BAR2 SZ I         2 4  8.63        16.1 0.34                          19.6 192 
 GIR2 SZ EP   1    2 3 51.92                             166   -0.19 7 35.0 351 
 GIR2 SZ ES   1    2 4  8.34                             166    0.48 7 35.0 351 
 BRR  HZ EP        2 3 53.61                             152    0.0610 73.1 301 
 BRR  HZ I         2 3 53.96        15.8 0.17                          73.1 301 
 BRR  HE ES   1    2 4 11.13                             152    0.71 7 73.1 301 
 PAM  SZ EP   1    2 3 54.65                             150   -0.03 7 80.4  38 
 PAM  SZ I         2 3 54.85         8.1 0.19                          80.4  38 
 PAM  SE ES   1    2 4 12.04                             150   -0.40 7 80.4  38 
 RUS  HZ EP   1    2 3 55.96                             146    0.21 7 96.8 176 
 RUS  HN ES   1    2 4 14.45                             146    0.11 7 96.8 176 
 RUS  HZ I         2 4 15.68         4.5 0.27                          96.8 176 
 PTB  HZ EP   2    2 3 59.38                             133    0.28 5  147 260 
 PTB  HN ES   1    2 4 19.52                             133   -0.79 7  147 260 
 CHI  HZ EP   2    2 4  9.64                             118    0.23 4  245 195 
 CHI  HN ES   2    2 4 39.06                             118    0.40 4  245 195 
                                                                                
