 2017  129 0446 24.4 L   6.794 -73.146148.3  RSN 15 0.4 1.9LRSN                1
 GAP=100        0.87       3.1     2.9  4.4 -0.7024E+00  0.2827E+01  0.2566E+01E
 Epicentro: LOS SANTOS - SANTANDER                                             3
 ACTION:UPD 17-05-22 16:04 OP:jn   STATUS:               ID:20170129044624 L   I
 OLDACT:DUP 17-01-29 16:24 OP:lv   STATUS:               ID:20170129043750d    3
 2017-01-29-0438-00M.COL___342                                                 6
 STAT SP IPHASW D HRMM SECON CODA AMPLIT PERI AZIMU VELO AIN AR TRES W  DIS CAZ7
 BAR2 EZ EP        446 44.06                             171   -0.2610 22.7 190 
 BAR2 EZ ES        447  0.04                             171    0.1810 22.7 190 
 BAR2 EZ I         447  0.60        15.4 0.23            167           22.7 190 
 BRR  HZ IP     C  446 45.94                             153    0.1010 71.5 299 
 BRR  HN ES        447  3.32                             153    0.7610 71.5 299 
 BRR  HZ I         447  7.78        18.3 0.11            152           71.5 299 
 PAM  EZ EP        446 46.94                             151    0.0210 77.9  39 
 PAM  EN ES        447  4.20                             151   -0.2810 77.9  39 
 PAM  EZ I         447  6.32        17.2 0.46            156           77.9  39 
 RUS  HZ EP        446 48.39                             144    0.0310 99.9 176 
 RUS  HN ES        447  7.22                             144    0.1810 99.9 176 
 RUS  HZ I         447  7.82         7.8 0.44            144           99.9 176 
 PTB  HZ EP        446 51.25                             133   -0.31 9  148 259 
 PTB  HN ES        447 12.06                             133   -0.69 9  148 259 
 PTB  HZ I         447 13.80        11.0 0.22            132            148 259 
 TAM  HZ EP        446 52.21                             131   -0.06 9  155 105 
 TAM  HN ES   4    447 12.10                             131   -1.90 0  155 105 
 TAM  HZ I         447 13.02         7.2 0.44            134            155 105 
 ZAR  HZ EP        446 56.92                             123   -0.12 9  204 292 
 ZAR  HN ES        447 22.34                             123   -0.15 9  204 292 
 ZAR  HZ I         447 27.66        10.5 0.14            123            204 292 
 NOR  HZ EP        447  0.18                             119   -0.06 8  234 235 
 NOR  HN ES        447 28.01                             119   -0.18 8  234 235 
 NOR  HZ I         447 32.27         8.5 0.22            119            234 235 
 CHI  HZ EP        447  1.77                             118   -0.40 8  248 195 
 CHI  HN ES        447 31.52                             118   -0.11 8  248 195 
 CHI  HZ I         447 37.34         4.0 0.26            118            248 195 
 ROSC BZ EP   9    447  5.03                             117    2.43 0  252 211 
 ROSC BN ES        447 34.40                                   -0.42 8  252 211 
 ROSC BZ I         447 42.12         9.2 0.45            117            252 211 
 URE  HN ES   4    447 35.06                             114   -2.71 0  284 292 
 PTGC HZ EP   4    447  6.95                             112   -1.36 0  308 159 
 PTGC HN ES   4    447 40.22                             112   -2.33 0  308 159 
 LL6C HZ EP   4    446 50.58                             111   -19.7 0  326 358 
 LL6C HE ES   4    447 27.44                             111   -18.6 0  326 358 
 CBOC HZ EP   4    447 12.49                             110    1.09 0  333 252 
 CBOC HN ES        447 47.74                             110   -0.31 7  333 252 
 CBOC HZ I         447 52.16         1.5 0.28            111            333 252 
 DBB  EZ EP        447 12.68                             110    0.69 7  339 274 
 DBB  EN ES   4    447 46.81                             110   -2.29 0  339 274 
 DBB  EZ I         447 50.81         3.2 0.20            111            339 274 
 ORTC HZ EP        447 19.07                             107    0.72 6  395 216 
 ORTC HN ES        448  1.19                             107    0.77 6  395 216 
 ORTC HZ I         448  7.88         4.2 0.27            107            395 216 
 PAL  HZ EP        447 20.18                             106    0.57 6  405 239 
 PAL  HN ES   4    448  0.93                             106   -1.73 0  405 239 
 PAL  HZ I         448 10.02         1.5 0.46            107            405 239 
 SJC  HZ EP   4    447 18.43                             106   -1.68 0  410 327 
 SJC  HN ES   4    447 59.76                             106   -3.80 0  410 327 
 SJC  HZ I         448  1.08         2.1 0.49            107            410 327 
 CRJC HN ES   4    448 13.88                             104   -2.04 0  468   4 
                                                                                
