 2017  429 0246 55.1 L   6.746 -73.126140.3  RSN 10 0.5 1.7LRSN                1
 GAP=210        0.85       4.3     5.2  5.6  0.8621E+01  0.1877E+01 -0.7787E+00E
 Epicentro: LOS SANTOS - SANTANDER                                             3
 ACTION:UPD 17-05-30 21:16 OP:jn   STATUS:               ID:20170429024655 L   I
 OLDACT:UP  17-04-29 14:37 OP:and  STATUS:               ID:20170429023740d    3
 OLDACT:UP  17-04-29 14:36 OP:and  STATUS:               ID:20170429023740d    3
 OLDACT:UP  17-04-29 14:36 OP:and  STATUS:               ID:20170429023740d    3
 OLDACT:UP  17-04-29 14:35 OP:and  STATUS:               ID:20170429023740d    3
 OLDACT:UP  17-04-29 14:35 OP:and  STATUS:               ID:20170429023740d    3
 OLDACT:UP  17-04-29 14:35 OP:and  STATUS:               ID:20170429023740d    3
 OLDACT:UP  17-04-29 14:35 OP:and  STATUS:               ID:20170429023740d    3
 OLDACT:UP  17-04-29 14:34 OP:and  STATUS:               ID:20170429023740d    3
 OLDACT:UP  17-04-29 14:33 OP:and  STATUS:               ID:20170429023740d    3
 OLDACT:UP  17-04-29 14:33 OP:and  STATUS:               ID:20170429023740d    3
 OLDACT:UP  17-04-29 14:31 OP:and  STATUS:               ID:20170429023740d    3
 OLDACT:DUP 17-04-29 14:30 OP:and  STATUS:               ID:20170429023740d    3
 OLDACT:UP  17-04-29 14:30 OP:and  STATUS:               ID:20170429023739     3
 OLDACT:UP  17-04-29 14:29 OP:and  STATUS:               ID:20170429023739     3
 OLDACT:UP  17-04-29 14:27 OP:and  STATUS:               ID:20170429023739     3
 OLDACT:REG 17-04-29 12:37 OP:and  STATUS:               ID:20170429023739     3
 2017-04-29-0238-00M.COL___362                                                 6
 STAT SP IPHASW D HRMM SECON CODA AMPLIT PERI AZIMU VELO AIN AR TRES W  DIS CAZ7
 BRR  HZ IP     C  247 15.44                             150   -0.5410 76.1 302 
 BRR  HE ES        247 32.54                             150    0.3010 76.1 302 
 BRR  HZ I         247 36.48        10.8 0.12            148           76.1 302 
 RUS  HZ EP   2    247 17.80                             145   -0.11 5 94.5 177 
 RUS  HN ES        247 35.80                             145    0.1310 94.5 177 
 RUS  HZ I         247 36.83         6.4 0.22            147           94.5 177 
 PTB  HZ EP   9    247 20.42                             131   -1.34 0  149 261 
 PTB  HN ES        247 41.34                             133    0.15 9  149 261 
 PTB  HZ I         247 43.39         5.8 0.28            130            149 261 
 SPBC HN ES        247 44.52                             129   -0.06 9  160 221 
 SPBC HZ I         247 48.14         6.6 0.08            129            160 221 
 ZAR  HZ EP        247 27.75                             121    0.07 8  208 293 
 ZAR  HE ES        247 53.14                             121    0.08 8  208 293 
 ZAR  HZ I         248  0.43         5.7 0.26            121            208 293 
 CHI  HZ EP        247 31.60                             117   -0.37 8  244 196 
 CHI  HN ES   3    248  2.79                             117    2.09 2  244 196 
 HEL  HZ EP        247 35.99                             114    0.84 8  273 257 
 HEL  HE ES        248  5.77                             114   -0.60 8  273 257 
 HEL  HZ I         248 15.01         2.8 0.30            114            273 257 
 CBOC HZ EP        247 42.13                             109    0.27 7  334 253 
 CBOC HN ES   4    248 13.66                             109   -4.65 0  334 253 
 CBOC HZ I         248 17.67         2.4 0.16            110            334 253 
 DBB  EN ES   3    248 18.34                             108   -1.46 2  342 275 
 DBB  EZ I         248 22.49         2.2 0.12            109            342 275 
 SJC  HZ EP   9    247 48.43                             105   -2.82 0  415 327 
 SJC  HN ES   2    248 31.49                                   -0.71 3  415 327 
                                                                                
