 2014  129 0907 28.0 L   6.814 -73.151141.5  RSN 18 0.5 2.0LRSN                1
 GAP= 70        1.20       2.9     3.2  5.7 -0.1522E+01  0.5454E+01 -0.2141E+00E
 Epicentro: LOS SANTOS - SANTANDER                                             3
 ACTION:UPD 14-03-13 09:59 OP:ep   STATUS:               ID:20140129090727 L   I
 OLDACT:UP  14-01-30 03:36 OP:CAM  STATUS:               ID:20140129090727 L   3
 OLDACT:REG 14-01-29 08:43 OP:stll STATUS:               ID:20140129085810     3
 2014-01-29-0858-10M.COL___236                                                 6
 STAT SP IPHASW D HRMM SECON CODA AMPLIT PERI AZIMU VELO AIN AR TRES W  DIS CAZ7
 BAR2 SZ EP        9 7 47.18                             170    0.0410 24.7 188 
 BAR2 SZ ES        9 8  1.75                             170   -0.3210 24.7 188 
 BAR2 SZ I         9 8  4.85        33.3 0.32            166           24.7 188 
 PAM  SZ EP        9 7 50.11                             150    0.4010 76.6  41 
 PAM  SZ I         9 7 50.30        23.0 0.18            149           76.6  41 
 PAM  SN ES        9 8  7.20                             150    0.5510 76.6  41 
 RUS  HZ EP        9 7 51.27                             142   -0.1710  102 176 
 RUS  HN ES        9 8  9.82                             142    0.0910  102 176 
 RUS  HZ I         9 8 11.13         7.0 0.28            138            102 176 
 PTB  HZ EP        9 7 54.20                             131   -0.39 9  147 258 
 PTB  HN ES        9 8 14.67                             131   -0.66 9  147 258 
 PTB  HZ I         9 8 17.46        10.7 0.16            125            147 258 
 TAM  HZ EP        9 7 55.57                             129    0.14 9  156 105 
 TAM  HZ I         9 7 55.61         9.4 0.18            126            156 105 
 TAM  HN ES        9 8 17.28                             129    0.45 9  156 105 
 OCA  HZ EP        9 7 56.02                             129    0.19 9  159 353 
 OCA  HN ES        9 8 17.42                             129   -0.12 9  159 353 
 OCA  HZ I         9 8 25.54        10.5 0.26            124            159 353 
 SPBC HZ EP        9 7 56.16                             128   -0.08 9  164 218 
 SPBC HN ES        9 8 18.22                             128   -0.05 9  164 218 
 SPBC HZ I         9 8 23.87         9.0 0.38            122            164 218 
 ZAR  HZ EP        9 8  0.79                             122    0.75 9  203 292 
 ZAR  HN ES        9 8 25.22                             122    0.18 9  203 292 
 ZAR  HZ I         9 8 30.88        10.2 0.28            116            203 292 
 NOR  HZ EP        9 8  3.46                             117   -0.06 8  235 234 
 NOR  HN ES        9 8 31.15                             117   -0.07 8  235 234 
 NOR  HZ I         9 8 36.62         6.5 0.24            112            235 234 
 SML  HZ EP        9 8  4.64                             117    0.43 8  242 335 
 SML  HN ES        9 8 31.40                             117   -1.05 8  242 335 
 CHI  HZ EP        9 8  5.41                             116   -0.19 8  250 195 
 CHI  HN ES        9 8 34.36                             116   -0.57 8  250 195 
 CHI  HZ I         9 8 39.73         5.0 0.38            112            250 195 
 HEL  HZ EP        9 8  9.07                             114    1.11 8  272 255 
 HEL  HN ES   4    9 8 41.11                             114    1.97 0  272 255 
 HEL  HZ I         9 8 45.72         5.0 0.24            109            272 255 
 SOCV BZ EP        9 8  9.64                             111   -1.18 7  301  57 
 GUY2CHZ EP        9 8 11.50                             111    0.05 7  302 234 
 GUY2CHN ES        9 8 45.39                             111    0.05 7  302 234 
 GUY2CHZ I         9 8 53.50         5.9 0.64                           302 234 
 CBOC HZ EP        9 8 14.61                             109   -0.11 7  333 252 
 CBOC HZ I         9 8 17.90         2.2 0.16            105            333 252 
 CBOC HN ES        9 8 52.57                             109    1.41 7  333 252 
 DBB  SZ EP        9 8 13.93                             109   -1.28 7  339 274 
 DBB  SZ I         9 8 54.85         4.4 0.32            105            339 274 
 SDV  BZ EP   4    9 8 16.40                             107   -1.42 0  360  50 
 PRA  HZ EP        9 8 21.36                             106   -0.12 6  393 209 
 PRA  HZ I         9 9  9.55         5.3 0.26            102            393 209 
 ORTC HZ EP        9 8 22.10                             106    0.23 6  396 216 
 ORTC HZ I         9 8 22.84         2.1 0.28            102            396 216 
                                                                                
