 2012  229 0444  5.3 L   6.773 -73.140142.2  RSN 12 0.3 2.2LRSN                1
 GAP=138        0.66       2.3     3.4  4.0 -0.1823E+01  0.3756E+01  0.1401E+01E
 ACTION:UP  12-03-07 16:35 OP:epov STATUS:               ID:20120229044405 L   I
 2012-02-29-0440-00M.COL___191                                                 6
 STAT SP IPHASW D HRMM SECON CODA AMPLIT PERI AZIMU VELO AIN AR TRES W  DIS CAZ7
 BAR2 SZ EP        444 24.53                             171    0.1010 20.5 193 
 BAR2 SZ ES   1    444 39.18                             171   -0.19 7 20.5 193 
 BAR2 SZ I         444 40.71        41.4 0.34                          20.5 193 
 BRR  HZ EP        444 26.29                             151    0.1310 73.2 300 
 BRR  HZ I         444 26.52        53.9 0.13                          73.2 300 
 BRR  HN ES        444 42.93                             151    0.4810 73.2 300 
 PAM  SZ EP        444 27.47                             150    0.2310 79.3  38 
 PAM  SN ES        444 44.05                             150   -0.3210 79.3  38 
 RUS  HZ EP        444 28.56                             144    0.0910 97.6 176 
 RUS  HN ES        444 46.38                             144   -0.1810 97.6 176 
 PTB  HZ EP   1    444 31.33                             131   -0.64 7  148 260 
 PTB  HE ES   2    444 52.00                             131   -0.78 5  148 260 
 OCA  SZ EP        444 33.37                             128   -0.24 9  163 353 
 OCA  SZ ES   1    444 55.63                             128   -0.07 7  163 353 
 ZAR  HZ EP   2    444 37.35                             121   -0.32 4  206 293 
 ZAR  HZ I         445  8.10        12.7 0.15                           206 293 
 NOR  SZ EP   1    444 40.78                             118    0.10 6  233 235 
 NOR  SN ES   1    445  8.42                             118    0.14 6  233 235 
 CHI  HZ EP        444 42.94                             117    0.45 8  246 195 
 CHI  HN ES   1    445 11.59                             117    0.07 6  246 195 
 CHI  HZ I         445 17.39         5.5 0.18                           246 195 
 HEL  HZ EP   1    444 45.68                             114    0.38 6  272 256 
 HEL  HZ I         445 23.17         9.3 0.53                           272 256 
 GUY  SN ES   1    445 22.91                             111    0.07 5  302 236 
 GUY  SZ I         445 30.11         8.7 0.35                           302 236 
 PRA  HZ EP   1    444 57.73                             106   -0.69 4  390 210 
 PRA  HE ES   1    445 39.66                             106   -0.20 4  390 210 
                                                                                
