 2012  429 0651 38.6 L   6.790 -73.164149.9  RSN  6 0.3 1.4LRSN                1
 GAP=135        0.81       5.6     4.8  8.1  0.2471E+01  0.6776E+01  0.2731E+01E
 Epicentro: LOS SANTOS - SANTANDER                                             3
 ACTION:UPD 12-07-05 11:56 OP:tino STATUS:               ID:20120429065138 L   I
 2012-04-29-0650-00M.COL___189                                                 6
 STAT SP IPHASW D HRMM SECON CODA AMPLIT PERI AZIMU VELO AIN AR TRES W  DIS CAZ7
 BAR2 SZ EP   1    651 58.49                             171    -0.2 7   22 185 
 BAR2 SZ ES   1    652 14.16                             171    -0.2 7   22 185 
 BAR2 SZ I         652 16.03         6.9 0.25                            22 185 
 BRR  HN ES   1    652 17.58                             154     0.6 7   70 300 
 PAM  SZ EP   1    652  1.66                             151     0.3 7   79  40 
 PAM  SE ES   1    652 18.78                             151    -0.4 7   79  40 
 RUS  HZ EP   1    652  3.01                             145     0.3 7  100 175 
 RUS  HN ES   1    652 21.73                             145     0.2 7  100 175 
 RUS  HZ I         652 22.59         3.6 0.14                           100 175 
 PTB  HZ EP   1    652  5.42                             133    -0.3 7  146 259 
 PTB  HZ I         652  7.93         1.6 0.16                           146 259 
 PTB  HN ES   1    652 26.49                             133    -0.4 7  146 259 
 ZAR  HN ES   1    652 36.73                             123     0.1 6  203 293 
 ZAR  HZ I         652 40.07         3.5 0.76                           203 293 
                                                                                
