 2011  329 0326 59.9 L   6.802 -73.078143.6  RSN  5 0.3 1.5LRSN                1
 GAP=192        0.50       5.7     8.9  7.0  0.1149E+02 -0.3180E+02 -0.1267E+02E
 Epicentro: LOS SANTOS - SANTANDER                                             3
 ACTION:UP  11-06-16 14:36 OP:jfem STATUS:               ID:20110329032659 L   I
 2011-03-29-0325-10S.COL___138                                                 6
 STAT SP IPHASW D HRMM SECON CODA AMPLIT PERI AZIMU VELO SNR AR TRES W  DIS CAZ7
 BTL  SZ EP        327 19.59                             170     0.310   25 302 
 BTL  SZ ES   2    327 34.29                             170    -0.2 5   25 302 
 BAR2 SZ EP        327 19.27                             169    -0.110   26 207 
 BAR2 SZ ES   3    327 33.78                             169    -0.7 2   26 207 
 BAR2 SZ I         327 35.36         7.8 0.90                            26 207 
 BRR  HZ EP        327 21.09                             150    -0.110   78 296 
 BRR  HN ES   1    327 37.96                             150     0.1 7   78 296 
 BRR  HZ I         327 38.97         8.3 0.13                            78 296 
 GRA  SZ EP   3    327 24.60                             137    -0.2 2  123  14 
 GRA  SZ ES   3    327 44.81                             137     0.6 2  123  14 
 GRA  SZ I         327 48.72         2.5 0.21                           123  14 
 OCA  SZ EP        327 28.12                             129     0.0 9  161 351 
 OCA  SZ ES   3    327 49.38                             129    -0.8 2  161 351 
 OCA  SZ I         327 54.53         6.0 0.46                           161 351 
                                                                                
