 2011  129 0850 35.7 L   6.832 -73.180138.5  RSN  5 0.5 1.4LRSN                1
 GAP=155        1.29       6.3    14.6 10.5 -0.5495E+02  0.4053E+02 -0.6118E+01E
 Epicentro: ZAPATOCA - SANTANDER                                               3
 ACTION:UP  11-02-08 08:43 OP:pat  STATUS:               ID:20110129085035 L   I
 2011-01-29-0849-06S.COL___137                                                 6
 STAT SP IPHASW D HRMM SECON CODA AMPLIT PERI AZIMU VELO SNR AR TRES W  DIS CAZ7
 BAR2 SZ EP        850 54.44                             169     0.010   27 181 
 BAR2 SZ ES        851  9.05                             169    -0.110   27 181 
 BAR2 SZ I         851 11.91         9.7 0.47                            27 181 
 RUS  HZ EP        850 58.48                             141    -0.510  104 174 
 RUS  HN ES        851 17.19                             141     0.010  104 174 
 RUS  HZ I         851 18.61         2.6 0.32                           104 174 
 GRA  SZ EP        851  0.33                             136     0.210  124  20 
 GRA  SZ ES        851 19.29                             136     0.210  124  20 
 GRA  SZ I         851 20.65         3.9 0.43                           124  20 
 NOR  SE ES   1    851 38.26                             117    -0.1 6  234 233 
 CHI  HZ EP        851 12.79                             115    -0.4 8  251 194 
 CHI  HZ I         851 17.55         1.4 0.40                           251 194 
 CHI  HE ES   1    851 44.25                             115     1.7 6  251 194 
                                                                                
