 2016  829 0805  8.9 L   6.778 -73.180151.0  RSN  5 0.5 1.4LRSN                1
 GAP=232        1.20       7.2     7.7  8.8  0.1163E+02  0.7692E+01  0.5511E+01E
 Epicentro: LOS SANTOS - SANTANDER                                             3
 ACTION:UPD 16-10-29 15:40 OP:rebc STATUS:               ID:20160829080508 L   I
 OLDACT:REG 16-08-29 13:03 OP:drio STATUS:               ID:20160829075730     3
 2016-08-29-0758-00M.COL___353                                                 6
 STAT SP IPHASW D HRMM SECON CODA AMPLIT PERI AZIMU VELO AIN AR TRES W  DIS CAZ7
 BAR2 EZ EP        8 5 28.76                             172   -0.3110 20.5 181 
 BAR2 EZ ES        8 5 44.22                             172   -0.6110 20.5 181 
 BAR2 EZ I         8 5 45.18        10.0 0.30                          20.5 181 
 BRR  HZ EP        8 5 30.74                             154    0.2710 69.2 302 
 BRR  HE ES        8 5 48.08                             154    0.7610 69.2 302 
 RUS  HZ EP        8 5 33.19                             145    0.2110 98.5 174 
 RUS  HE ES        8 5 51.88                             145    0.0810 98.5 174 
 RUS  HZ I         8 5 52.57         1.8 0.28                          98.5 174 
 PTB  HZ EP        8 5 35.28                             134   -0.62 9  144 259 
 PTB  HE ES        8 5 56.41                             134   -0.57 9  144 259 
 PTB  HZ I         8 6  2.31         3.0 0.16                           144 259 
 SPBC HZ EP        8 5 37.68                             131    0.31 9  159 218 
 SPBC HN ES        8 6  0.06                             131    0.45 9  159 218 
 SPBC HZ I         8 6  1.61         3.5 0.28                           159 218 
                                                                                
