 2014 1029 0833  8.1 L   6.792 -73.165139.1  RSN 24 0.7 2.8LRSN                1
 GAP= 54        1.82       4.6     4.8  8.0 -0.4272E+01  0.9624E+01  0.9620E+01E
 Epicentro: LOS SANTOS - SANTANDER                                             3
 ACTION:UPD 14-11-29 23:58 OP:nd   STATUS:               ID:20141029083308 L   I
 OLDACT:ARG 14-10-30 20:25 OP:stll STATUS:               ID:20141029082740     3
 2014-10-29-0827-40M.COL___268                                                 6
 STAT SP IPHASW D HRMM SECON CODA AMPLIT PERI AZIMU VELO AIN AR TRES W  DIS CAZ7
 BAR2 SZ IP        833 27.19                             170    0.3010 22.1 185 
 BAR2 SZ I         833 27.27       148.6 0.42            169           22.1 185 
 BAR2 SZ ES        833 41.69                             170    0.1310 22.1 185 
 BRR  HZ IP     C  833 29.12                             152    0.6910 69.7 300 
 BRR  HE ES        833 45.72                             152    1.4210 69.7 300 
 BRR  HZ I         833 49.38        98.4 0.42            147           69.7 300 
 PAM  SZ IP     C  833 30.02                             149    0.2910 79.5  40 
 PAM  SN ES        833 46.68                             149    0.0710 79.5  40 
 PAM  SZ I         833 49.18       153.1 0.54            149           79.5  40 
 RUS  HZ IP     C  833 31.00                             142   -0.1410 99.9 175 
 RUS  HN ES        833 49.10                             142   -0.0110 99.9 175 
 RUS  HZ I         833 50.65        71.1 0.30            142           99.9 175 
 PTB  HZ EP        833 33.73                             131   -0.58 9  145 259 
 PTB  HN ES        833 54.21                             131   -0.54 9  145 259 
 PTB  HZ I         833 57.78        83.5 0.34            127            145 259 
 TAM  HZ IP     C  833 35.44                             128    0.01 9  157 104 
 TAM  HZ I         833 35.55       171.8 0.20            129            157 104 
 TAM  HN ES        833 55.59                             128   -1.16 9  157 104 
 SPBC HZ EP        833 36.08                             128    0.20 9  161 219 
 SPBC HE ES        833 57.50                             128   -0.06 9  161 219 
 SPBC HZ I         834  0.64       102.3 0.26            125            161 219 
 OCA  HZ EP        833 35.95                             128   -0.00 9  161 354 
 OCA  HN ES        833 56.47                             128   -1.21 9  161 354 
 OCA  HZ I         834  1.98        48.3 0.32            126            161 354 
 CHI  HZ EP        833 45.30                             115    0.03 8  247 195 
 CHI  HN ES        834 14.39                             115    0.12 8  247 195 
 CHI  HZ I         834 22.95        22.8 0.64            114            247 195 
 ROSC BZ EP        833 47.19                             115    1.55 8  251 211 
 ROSC BN ES        834 15.07                             115    0.13 8  251 211 
 ROSC BZ I         834 24.87        62.4 0.40            113            251 211 
 HEL  HZ EP        833 47.70                             113   -0.01 8  270 256 
 HEL  HN ES        834 17.96                             113   -0.65 8  270 256 
 HEL  HZ I         834 25.91        28.0 0.26            111            270 256 
 URE  HZ EP   9    833 47.98                             112   -0.67 0  282 292 
 URE  HN ES        834 18.06                                   -1.56 7  282 292 
 GUY2CHZ EP        833 51.39                             111    0.26 7  299 235 
 GUY2CHE ES        834 24.45                             111   -0.26 7  299 235 
 GUY2CHZ I         834 32.16        30.4 0.26                           299 235 
 PTGC HZ EP   9    833 50.15                             110   -1.50 0  309 158 
 PTGC HZ I         833 50.65        42.1 0.20            109            309 158 
 PTGC HN ES        834 22.97                                   -1.16 7  309 158 
 CBOC HZ EP        833 55.09                             109    0.63 7  331 252 
 CBOC HZ I         833 56.23        17.0 0.22            107            331 252 
 CBOC HN ES        834 30.51                             109   -0.12 7  331 252 
 DBB  SZ EP        833 54.99                             108   -0.07 7  337 274 
 DBB  SZ I         834 35.60        67.9 0.42            106            337 274 
 TOL  SZ EP        833 56.23                             108    0.40 7  341 224 
 TOL  SN ES        834 31.95                             108   -1.12 7  341 224 
 MON  HZ EP   9    833 54.71                             107   -2.00 0  353 309 
 MON  HN ES        834 31.84                                   -0.79 6  353 309 
 MON  HZ I         834 34.19        12.4 0.22            106            353 309 
 ANIL HZ EP        833 58.49                             107    1.10 6  355 224 
 ANIL HN ES        834 34.51                             107   -1.34 6  355 224 
 ANIL HZ I         834 43.47         6.6 0.38            106            355 224 
 ARGC HZ EP   9    833 58.06                             107    0.55 0  359 341 
 ARGC HE ES        834 35.76                                   -0.85 6  359 341 
 ARGC HZ I         834 42.72         9.7 0.34            105            359 341 
 SDV  BZ EP   9    833 56.77                             107   -1.38 0  363  50 
 SDV  BE ES        834 33.21                                   -2.60 6  363  50 
 PRA  HZ EP        834  0.62                             105   -0.55 6  390 209 
 PRA  HN ES        834 41.52                             105   -1.05 6  390 209 
 PRA  HZ I         834 50.38        29.4 0.56            104            390 209 
 ORTC HZ EP        834  1.46                             105   -0.09 6  393 216 
 ORTC HN ES        834 43.65                             105    0.40 6  393 216 
 ORTC HZ I         834 51.26        18.6 0.66            104            393 216 
 SJC  HZ EP   9    834  1.28                             104   -2.11 0  409 327 
 SJC  HN ES        834 41.50                                   -2.91 6  409 327 
 SJC  HZ I         834 47.27        13.8 0.52            103            409 327 
                                                                                
