 2013  729 0826 50.0 L   6.803 -73.154143.4  RSN  9 0.5 1.9LRSN                1
 GAP=135        1.10       4.6     5.3  7.7  0.4490E+00  0.9147E+01 -0.5619E+01E
 Epicentro: LOS SANTOS - SANTANDER                                             3
 ACTION:UPD 13-08-12 10:40 OP:ep   STATUS:               ID:20130729082650 L   I
 OLDACT:REG 13-07-29 07:50 OP:carl STATUS:               ID:20130729081959     3
 2013-07-29-0819-59M.COL___268                                                 6
 STAT SP IPHASW D HRMM SECON CODA AMPLIT PERI AZIMU VELO AIN AR TRES W  DIS CAZ7
 BAR2 SZ EP        827  9.37                             170    0.0110 23.5 188 
 BAR2 SZ ES   1    827 23.83                             170   -0.63 7 23.5 188 
 BAR2 SZ I         827 25.14        14.1 0.32            171           23.5 188 
 GIR2 SZ EP        827  9.40                             167    0.0110 30.8 352 
 GIR2 SZ ES   1    827 25.07                             167    0.56 7 30.8 352 
 GIR2 SZ I         827 26.20        14.7 0.34            165           30.8 352 
 BRR  HZ EP        827 11.17                             153    0.3210 70.3 299 
 BRR  HE ES   1    827 27.94                             153    0.83 7 70.3 299 
 BRR  HN I         827 28.73        26.9 0.28            150           70.3 299 
 PAM  SZ EP   1    827 12.36                             150    0.36 7 77.7  40 
 PAM  SN ES   1    827 29.21                             150    0.06 7 77.7  40 
 PAM  SZ I         827 31.19        21.3 0.46            152           77.7  40 
 RUS  HZ EP   1    827 13.30                             143   -0.26 7  101 176 
 RUS  HN ES   1    827 31.98                             143    0.06 7  101 176 
 RUS  HZ I         827 33.65         6.2 0.28            146            101 176 
 PTB  HZ EP   1    827 16.38                             132   -0.33 7  147 259 
 PTB  HN ES        827 36.97                             132   -0.57 9  147 259 
 PTB  HZ I         827 40.39         5.7 0.20            132            147 259 
 OCA  HN ES        827 39.48                             129   -0.53 9  160 353 
 OCA  HN I         827 42.27        26.9 0.58            130            160 353 
 ZAR  HZ EP   1    827 23.73                             122    1.53 6  203 292 
 ZAR  HE ES        827 47.35                             122    0.04 9  203 292 
 ZAR  HZ I         827 54.21         8.0 0.28            122            203 292 
 SML  HZ EP        827 25.91                             117   -0.52 8  243 335 
 SML  HN ES   1    827 54.51                             117   -0.33 6  243 335 
 SML  HZ I         827 59.67         6.5 0.22            118            243 335 
                                                                                
