 2013  329 0502  1.3 L   6.896 -74.102 86.7  RSN  5 0.1 1.4LRSN                1
 GAP=113        0.34       2.0     1.4  3.3 -0.7751E-03 -0.1154E+01  0.2815E-01E
 Epicentro: PUERTO PARRA - SANTANDER                                           3
 ACTION:UPD 13-04-09 14:05 OP:ep   STATUS:               ID:20130329050201 L   I
 2013-03-29-0500-00M.COL___245                                                 6
 STAT SP IPHASW D HRMM SECON CODA AMPLIT PERI AZIMU VELO AIN AR TRES W  DIS CAZ7
 BRR  HZ EP        5 2 14.68                             148   -0.1110 49.0  62 
 BRR  HN ES   1    5 2 25.43                             148    0.08 7 49.0  62 
 BRR  HZ I         5 2 27.07        16.0 0.16            149           49.0  62 
 PTB  HZ IP     C  5 2 15.18                             145   -0.0810 55.6 225 
 PTB  HN ES   1    5 2 26.10                             145   -0.09 7 55.6 225 
 PTB  HZ I         5 2 27.15        11.4 0.28            143           55.6 225 
 ZAR  HZ EP   1    5 2 19.82                             125    0.06 7  106 308 
 ZAR  HE ES   1    5 2 34.34                             125    0.15 7  106 308 
 ZAR  HZ I         5 2 37.46         7.3 0.10            127            106 308 
 RUS  HZ EP   1    5 2 26.03                             114    0.06 7  158 134 
 RUS  HE ES   2    5 2 45.66                             114    0.42 5  158 134 
 RUS  HZ I         5 2 52.34         1.3 0.20            114            158 134 
 PAM  SZ EP   1    5 2 26.47                             113    0.01 7  163  72 
 PAM  SN ES   1    5 2 46.02                             113   -0.09 7  163  72 
 PAM  SZ I         5 2 47.15         4.6 0.20            114            163  72 
                                                                                
