 2016  629 0024 12.0 L   6.765 -73.150149.6  RSN  7 0.2 1.5LRSN                1
 GAP=234        0.53       2.8     3.0  3.6  0.4060E+01  0.2120E+01 -0.5619E+00E
 Epicentro: LOS SANTOS - SANTANDER                                             3
 ACTION:UPD 16-07-21 22:23 OP:rebc STATUS:               ID:20160629002412 L   I
 OLDACT:REG 16-06-29 12:29 OP:edw  STATUS:               ID:20160629001748     3
 2016-06-29-0017-48M.COL___343                                                 6
 STAT SP IPHASW D HRMM SECON CODA AMPLIT PERI AZIMU VELO AIN AR TRES W  DIS CAZ7
 BAR2 EZ EP        024 31.94                             172   -0.0610 19.4 191 
 BAR2 EZ ES        024 47.29                             172   -0.3310 19.4 191 
 BAR2 EZ I         024 48.70         6.3 0.16                          19.4 191 
 BRR  HZ EP        024 33.79                             153    0.1610 72.8 301 
 BRR  HN ES        024 50.87                             153    0.3510 72.8 301 
 RUS  HZ EP        024 35.76                             146   -0.0810 96.7 176 
 RUS  HE ES        024 54.57                             146    0.1210 96.7 176 
 RUS  HZ I         024 55.78         2.7 0.30                          96.7 176 
 PTB  HZ EP        024 38.98                             133   -0.18 9  147 260 
 PTB  HE ES        025  0.09                             133   -0.27 9  147 260 
 PTB  HZ I         025  2.70         4.1 0.06                           147 260 
 SPBC HZ EP        024 40.60                             130    0.13 9  160 220 
 SPBC HE ES        025  2.90                             130    0.21 9  160 220 
 SPBC HZ I         025  4.53         4.5 0.06                           160 220 
 ZAR  HZ EP        024 44.83                             123    0.04 9  205 293 
 ZAR  HE ES        025 10.38                             123   -0.00 9  205 293 
 NOR  HN ES   4    025 11.61                             120   -3.88 0  232 235 
 URE  HN ES        025 25.53                             114   -0.10 7  285 293 
                                                                                
