 2017  329 0135 14.8 L   6.773 -73.145141.5  RSN  7 0.3 1.6LRSN                1
 GAP=138        0.82       3.5     3.5  5.6 -0.5681E+00  0.4332E+01  0.1796E+01E
 Epicentro: LOS SANTOS - SANTANDER                                             3
 ACTION:UPD 17-05-25 18:46 OP:jn   STATUS:               ID:20170329013514 L   I
 OLDACT:REG 17-03-29 12:23 OP:dnl  STATUS:               ID:20170329012746     3
 2017-03-29-0128-00M.COL___365                                                 6
 STAT SP IPHASW D HRMM SECON CODA AMPLIT PERI AZIMU VELO AIN AR TRES W  DIS CAZ7
 BAR2 EZ EP        135 33.93                             171    0.0310 20.5 192 
 BAR2 EZ ES        135 48.12                             171   -0.6510 20.5 192 
 BAR2 EZ I         135 50.43         8.0 0.30            169           20.5 192 
 BRR  HZ EP   2    135 35.89                             151    0.27 5 72.8 301 
 BRR  HE ES        135 52.25                             151    0.4210 72.8 301 
 BRR  HZ I         135 56.86         7.2 0.15            149           72.8 301 
 PAM  EZ EP        135 36.74                             149    0.0010 79.6  38 
 PAM  EN ES        135 53.94                             149    0.1210 79.6  38 
 PAM  EZ I         135 56.02         9.1 0.54            155           79.6  38 
 RUS  HZ EP        135 37.93                             144   -0.0310 97.6 176 
 RUS  HN ES        135 56.33                             144    0.3410 97.6 176 
 RUS  HZ I         135 57.56         2.0 0.22            146           97.6 176 
 PTB  HZ EP        135 40.81                             131   -0.61 9  147 260 
 PTB  HN ES        136  1.97                             131   -0.19 9  147 260 
 PTB  HZ I         136  9.09         6.8 0.32            131            147 260 
 SPBC HZ EP        135 42.81                             129    0.01 9  161 220 
 SPBC HN ES        136  4.94                             129    0.33 9  161 220 
 SPBC HZ I         136 12.83         4.7 0.20            130            161 220 
 ZAR  HZ EP   2    135 47.67                             121    0.53 4  205 293 
 ZAR  HN ES        136 12.34                             121    0.01 8  205 293 
 ZAR  HZ I         136 18.02         4.8 0.16            122            205 293 
                                                                                
