 2012  429 0821  3.3 L   6.787 -73.170145.7  RSN  5 0.3 1.4LRSN                1
 GAP=134        0.86       6.0     5.5  9.1 -0.5256E+01  0.4844E+01  0.4130E+01E
 Epicentro: LOS SANTOS - SANTANDER                                             3
 ACTION:UPD 12-07-05 11:56 OP:tino STATUS:               ID:20120429082103 L   I
 2012-04-29-0820-00M.COL___189                                                 6
 STAT SP IPHASW D HRMM SECON CODA AMPLIT PERI AZIMU VELO AIN AR TRES W  DIS CAZ7
 BAR2 SZ EP   1    821 22.76                             171    -0.1 7   22 184 
 BAR2 SZ I         821 40.02         8.4 0.32                            22 184 
 BRR  HZ EP        821 24.67                             153     0.310   70 301 
 BRR  HN ES   1    821 41.23                             153     0.5 7   70 301 
 BRR  HZ I         821 42.87        10.5 0.21                            70 301 
 PAM  SZ EP        821 25.62                             150    -0.110   80  40 
 PAM  SN ES   1    821 42.77                             150    -0.4 7   80  40 
 RUS  HZ EP   1    821 27.46                             144     0.5 7   99 174 
 RUS  HN ES   1    821 45.28                             144    -0.1 7   99 174 
 RUS  HZ I         821 46.86         2.8 0.29                            99 174 
 PTB  HZ EP        821 29.63                             133    -0.4 9  145 259 
 PTB  HN ES   1    821 50.50                             133    -0.3 7  145 259 
 PTB  HZ I         821 52.49         2.2 0.22                           145 259 
                                                                                
