 2012 1129 0628 33.6 L   6.891 -73.170142.3  RSN  4 0.1 1.3LRSN                1
 GAP=152        0.43       2.7     2.6  4.7 -0.2068E+01  0.3645E+01  0.2915E+00E
 Epicentro: BETULIA - SANTANDER                                                3
 ACTION:UPD 12-12-05 15:36 OP:}ep  STATUS:               ID:20121129062833 L   I
 2012-11-29-0626-40M.COL___202                                                 6
 STAT SP IPHASW D HRMM SECON CODA AMPLIT PERI AZIMU VELO AIN AR TRES W  DIS CAZ7
 BAR2 SZ EP        628 52.78                             166   -0.2410 33.0 182 
 BAR2 SZ I         628 53.60         4.6 0.22                          33.0 182 
 PAM  SZ EP        628 55.19                             152    0.1010 71.9  46 
 PAM  SN ES        629 11.88                             152    0.0110 71.9  46 
 PAM  SN I         629 14.17         3.3 0.40                          71.9  46 
 RUS  HZ EP        628 57.67                             140   -0.0910  111 175 
 RUS  HN ES        629 16.74                             140    0.1210  111 175 
 RUS  HE I         629 17.29         1.7 0.18                           111 175 
 PTB  HZ EP        629  0.40                             131    0.17 9  147 255 
 PTB  HN ES        629 20.96                             131   -0.05 9  147 255 
 PTB  HN I         629 26.74         5.1 0.34                           147 255 
                                                                                
