 2016  129 0526 42.3 L   7.111 -73.336116.9  RSN 11 0.4 1.7LRSN                1
 GAP= 93        0.92       2.2     3.2  5.9 -0.4979E-02  0.6758E+01 -0.1895E+00E
 Epicentro: LEBRIJA - SANTANDER                                                3
 ACTION:UPD 16-03-09 23:29 OP:cam  STATUS:               ID:20160129052642 L   I
 OLDACT:REG 16-01-29 14:27 OP:cara STATUS:               ID:20160129051759     3
 2016-01-29-0517-59S.COL___223                                                 6
 STAT SP IPHASW D HRMM SECON CODA AMPLIT PERI AZIMU VELO AIN AR TRES W  DIS CAZ7
 BAR2 EZ IP     C  526 59.95                             151   -0.1110 59.9 164 
 BAR2 EZ ES        527 13.87                             151   -0.0210 59.9 164 
 BAR2 EZ I         527 15.20        29.6 0.28            155           59.9 164 
 PAM  EZ IP     D  527  1.60                             145    0.2410 74.7  70 
 PAM  EN ES        527 16.54                             145    0.3210 74.7  70 
 PAM  EZ I         527 18.54         9.7 0.58            150           74.7  70 
 OCA  HZ IP        527  4.78                             130   -0.2610  125   1 
 OCA  HN ES        527 22.73                             130   -0.0310  125   1 
 RUS  HZ IP     C  527  6.65                             127   -0.08 9  138 168 
 RUS  HN ES        527 25.57                             127   -0.20 9  138 168 
 RUS  HZ I         527 26.03         3.3 0.46            130            138 168 
 PTB  HZ EP        527  5.39                             126   -0.84 9  139 243 
 PTB  HE ES        527 24.59                             126   -0.30 9  139 243 
 PTB  HZ I         527 29.79         5.1 0.24            127            139 243 
 ZAR  HZ IP     C  527 10.43                             120    0.70 9  173 284 
 ZAR  HE ES        527 31.45                             120    0.35 9  173 284 
 ZAR  HZ I         527 35.12         7.9 0.32            120            173 284 
 SPBC HZ EP   9    527 11.98                             119    1.35 0  181 207 
 SPBC HE ES        527 33.62                                   -0.45 9  181 207 
 SPBC HZ I         527 38.84         6.6 0.36            120            181 207 
 SML  HZ EP        527 12.46                             115   -0.54 9  204 337 
 SML  HN ES        527 37.03                             115    0.09 9  204 337 
 SML  HZ I         527 51.82         8.2 0.10            116            204 337 
 CHI  HZ EP        527 22.24                             108    0.27 7  278 189 
 CHI  HN ES        527 53.17                             108    0.28 7  278 189 
 CHI  HZ I         527 58.99         1.6 0.26            110            278 189 
 GUY2CHZ EP   4    527 27.65                             106    2.26 0  307 227 
 GUY2CHN ES        527 59.57                             106    0.59 7  307 227 
 GUY2CHZ I         528  8.48         2.3 0.36                           307 227 
 MON  HZ EP   9    527 24.48                             105   -1.43 0  316 306 
 MON  HE ES        527 58.61                                    0.13 7  316 306 
 MON  HZ I         527 59.97         1.8 0.18            106            316 306 
                                                                                
