 2012 1229 0405  0.6 L   6.663 -73.575105.5  RSN  5 0.5 1.5LRSN                1
 GAP=117        1.04       7.9     6.5 11.8  0.2942E+02  0.3139E+02  0.2874E+02E
 Epicentro: EL CARMEN DE CHUCURI - SANTANDER                                   3
 ACTION:UPD 13-01-04 14:31 OP:ep   STATUS:               ID:20121229040500 L   I
 2012-12-29-0400-00M.COL___242                                                 6
 STAT SP IPHASW D HRMM SECON CODA AMPLIT PERI AZIMU VELO AIN AR TRES W  DIS CAZ7
 BAR2 SZ EP   1    4 5 15.74                             156   -0.52 7 44.1 100 
 BAR2 SZ ES   1    4 5 28.28                             156   -0.17 7 44.1 100 
 BAR2 SZ I         4 5 28.73        38.4 0.14                          44.1 100 
 BRR  HZ EP   1    4 5 15.70                             152   -0.60 7 51.4 343 
 BRR  HN ES   1    4 5 28.87                             152    0.35 7 51.4 343 
 BRR  HZ I         4 5 29.20         8.6 0.12                          51.4 343 
 PTB  HZ IP     C  4 5 19.49                             133   -0.3510 98.4 262 
 PTB  HN ES   1    4 5 34.56                             133   -0.26 7 98.4 262 
 PTB  HZ I         4 5 39.50         4.6 0.44                          98.4 262 
 RUS  HZ EP   1    4 5 21.50                             133    0.77 7  101 147 
 RUS  HN ES   1    4 5 36.71                             133    0.31 7  101 147 
 RUS  HZ I         4 5 38.03         4.0 0.28                           101 147 
 ZAR  HN ES   1    4 5 48.30                             117    0.91 7  169 303 
 ZAR  HZ I         4 5 52.32         4.2 0.26                           169 303 
                                                                                
