 2016 1129 0012 38.9 L   7.191 -74.123  3.0  RSN  4 0.4 1.5LRSN                1
 GAP=152        0.95       3.3     1.8  6.2 -0.6648E-01 -0.4159E+00  0.1813E+01E
 Epicentro: PUERTO WILCHES - SANTANDER                                         3
 ACTION:UPD 17-10-26 21:12 OP:lp   STATUS:               ID:20161129001238 L   I
 OLDACT:REG 16-11-29 12:17 OP:dani STATUS:               ID:20161129000745     3
 2016-11-29-0008-00M.COL___346                                                 6
 STAT SP IPHASW D HRMM SECON CODA AMPLIT PERI AZIMU VELO AIN AR TRES W  DIS CAZ7
 BRR  HZ EP     D  012 46.15                              47   -0.4810 46.3 101 
 BRR  HN ES        012 52.18                              47   -0.4910 46.3 101 
 BRR  HZ I         012 54.06        16.9 0.16             47           46.3 101 
 PTB  HZ EP     D  012 52.10                              47    0.2110 80.9 207 
 PTB  HN ES        013  2.12                              47    0.0810 80.9 207 
 PTB  HZ I         013  2.64        14.5 0.17             47           80.9 207 
 ZAR  HZ EP     D  012 53.00                              47    0.0810 87.8 292 
 ZAR  HN ES        013  3.70                              47   -0.1810 87.8 292 
 ZAR  HZ I         013  4.45        24.1 0.26             47           87.8 292 
 PAM  EZ EP        013  4.28                              47    0.22 9  158  84 
 PAM  EE ES        013 24.40                              47    0.69 9  158  84 
 PAM  EZ I         013 26.27        10.8 0.20             47            158  84 
                                                                                
