 2016 1029 0024  6.8 L   6.644 -73.742100.5  RSN  4 0.1 1.1LRSN                1
 GAP=194        0.46       3.1     2.8  5.8 -0.1891E+01  0.8480E+01 -0.2022E+01E
 Epicentro: EL CARMEN - SANTANDER                                              3
 ACTION:UPD 16-11-09 19:23 OP:rebc STATUS:               ID:20161029002406 L   I
 OLDACT:REG 16-10-29 12:22 OP:cog  STATUS:               ID:20161029001747     3
 2016-10-29-0018-00M.COL___337                                                 6
 STAT SP IPHASW D HRMM SECON CODA AMPLIT PERI AZIMU VELO AIN AR TRES W  DIS CAZ7
 BAR2 EZ EP        024 22.79                             146   -0.1710 62.2  95 
 BAR2 EZ ES        024 35.73                             146    0.1610 62.2  95 
 BAR2 EZ I         024 39.99         6.0 0.52            157           62.2  95 
 PTB  HZ EP        024 23.88                             138   -0.0910 79.8 262 
 PTB  HZ I         024 37.84         3.9 0.10            135           79.8 262 
 RUS  HZ EP        024 27.36                             128    0.0010  111 139 
 RUS  HE ES        024 43.31                             128   -0.1010  111 139 
 RUS  HZ I         024 44.65         1.9 0.26            144            111 139 
 SPBC HZ EP        024 27.59                             127    0.2810  116 198 
 SPBC HE ES        024 43.24                             127   -0.0810  116 198 
 SPBC HZ I         024 45.03         3.1 0.02            135            116 198 
                                                                                
