 2010 1129 0709  6.9 L   6.763 -73.019141.7  RSN  5 0.2 1.5LRSN                1
 GAP=196        0.50       5.5    10.7  5.4  0.3270E+02 -0.1392E+02 -0.3696E+01E
 Epicentro: CEPITA - SANTANDER                                                 3
 ACTION:UP  10-12-17 16:55 OP:REBC STATUS:               ID:20101129070906 L   I
 2010-11-29-0707-32S.COL___130                                                 6
 STAT SP IPHASW D HRMM SECON CODA AMPLIT PERI AZIMU VELO SNR AR TRES W  DIS CAZ7
 BAR2 SZ EP        7 9 26.13                             170     0.110   26 224 
 BAR2 SZ ES   1    7 9 40.70                             170    -0.3 7   26 224 
 BAR2 SZ I         7 9 42.30         9.9 0.36                            26 224 
 GIR2 SZ EP        7 9 26.56                             163     0.210   40 331 
 GIR2 SZ ES   2    7 9 41.47                             163     0.0 5   40 331 
 BRR  HZ EP        7 9 28.28                             147    -0.210   86 296 
 BRR  HZ I         7 9 29.08         6.1 0.14                            86 296 
 BRR  HN ES   2    7 9 45.54                             147     0.2 5   86 296 
 RUS  HZ EP        7 9 29.91                             144     0.010   97 184 
 RUS  HE ES   3    7 9 48.34                             144     0.4 2   97 184 
 RUS  HZ I         7 9 49.82         2.9 0.27                            97 184 
 OCA  SZ EP   2    7 9 35.38                             127    -0.1 5  167 349 
                                                                                
