 2013  529 0240 56.5 L   6.801 -73.204131.9  RSN  8 0.3 1.8LRSN                1
 GAP=231        0.67       4.3     4.5  6.7  0.5744E+01  0.4913E+01  0.3660E+01E
 Epicentro: ZAPATOCA - SANTANDER                                               3
 ACTION:UPD 13-06-20 09:54 OP:ep   STATUS:               ID:20130529024056 L   I
 2013-05-29-0240-00M.COL___261                                                 6
 STAT SP IPHASW D HRMM SECON CODA AMPLIT PERI AZIMU VELO AIN AR TRES W  DIS CAZ7
 BAR2 SZ EP        241 14.42                             170   -0.0510 23.2 174 
 BAR2 SZ I         241 30.46        10.1 0.50            172           23.2 174 
 BRR  HZ EP        241 16.37                             152    0.5310 65.5 301 
 BRR  HN ES   2    241 30.76                             152   -0.15 5 65.5 301 
 BRR  HZ I         241 37.31        11.3 0.44            155           65.5 301 
 RUS  HZ EP        241 18.80                             141   -0.1810  101 172 
 RUS  HN ES        241 36.53                             141    0.0210  101 172 
 RUS  HZ I         241 38.70         8.5 0.28            144            101 172 
 PTB  HZ EP        241 21.38                             130   -0.40 9  141 258 
 PTB  HN ES        241 41.41                             130   -0.09 9  141 258 
 PTB  HZ I         241 44.96         7.9 0.26            135            141 258 
 OCA  HZ EP   4    241 26.80                             126    3.10 0  160 355 
 OCA  HN ES   4    241 44.23                             126   -0.68 0  160 355 
 OCA  HZ I         241 49.41         6.9 0.20            127            160 355 
 SML  HZ EP   4    241 29.49                             115   -2.60 0  241 337 
 SML  HN ES   4    241 58.05                             115   -1.79 0  241 337 
 SML  HZ I         242  1.61        10.1 0.10            117            241 337 
 GUY2CHZ EP   4    241 41.22                             110    2.30 0  296 234 
 GUY2CHN ES   4    242 12.05                             110    0.06 0  296 234 
 GUY2CHZ I         242 22.88         2.3 0.32                           296 234 
 PRA  HZ IP        241 49.28                             104    0.06 6  389 209 
 PRA  HN ES        242 30.70                             104    0.36 6  389 209 
 PRA  HZ I         242 36.32         2.4 0.64            107            389 209 
                                                                                
