 2017  729 0750 27.6 L   6.087 -74.227  4.0  RSN 13 0.7 1.6LRSN                1
 GAP= 61        1.73       2.8     2.6  6.7 -0.8528E+00  0.1089E+01  0.3328E+01E
 Epicentro: LA BELLEZA - SANTANDER                                             3
 ACTION:UPD 17-08-30 15:38 OP:rebc STATUS:               ID:20170729075027 L   I
 OLDACT:UP  17-07-29 17:47 OP:and  STATUS:               ID:20170729074742     3
 OLDACT:UP  17-07-29 17:47 OP:and  STATUS:               ID:20170729074742     3
 OLDACT:UP  17-07-29 17:44 OP:and  STATUS:               ID:20170729074742     3
 OLDACT:REG 17-07-29 13:06 OP:and  STATUS:               ID:20170729074742     3
 2017-07-29-0748-00M.COL___380                                                 6
 STAT SP IPHASW D HRMM SECON CODA AMPLIT PERI AZIMU VELO AIN AR TRES W  DIS CAZ7
 SPBC HZ EP        750 36.80                              47    0.8110 51.1 160 
 SPBC HN ES        750 43.53                              47    0.9710 51.1 160 
 SPBC HZ I         750 44.30        32.4 0.10             47           51.1 160 
 PTB  HZ IP     D  750 37.28                              47    0.6210 56.0 333 
 PTB  HN ES        750 44.86                              47    1.1010 56.0 333 
 PTB  HZ I         750 45.60       102.8 0.14             47           56.0 333 
 NOR  HZ IP     C  750 42.20                              47    0.1010 91.7 231 
 NOR  HN ES        750 53.16                              47   -0.2810 91.7 231 
 NOR  HZ I         750 53.89        25.6 0.16             47           91.7 231 
 BRR  HZ EP        750 47.02                              47   -0.2810  126  27 
 BRR  HN ES        751  2.92                              47    0.2310  126  27 
 BRR  HZ I         751  3.95        10.4 0.10             47            126  27 
 BAR2 EZ EP        750 48.00                              47    0.1510  128  64 
 BAR2 EZ ES        751  3.01                              47   -0.6710  128  64 
 RUS  HZ EP        750 48.04                              47   -0.0910  129 100 
 RUS  HN ES        751  2.78                              47   -1.4010  129 100 
 RUS  HZ I         751  4.25        12.3 0.22             47            129 100 
 ROSC BZ EP   9    750 50.84                              47    1.33 0  138 184 
 ROSC BN ES        751  8.11                              47    0.15 9  138 184 
 HEL  HZ IP     D  750 50.15                              47   -0.28 9  145 275 
 HEL  HN ES        751  6.99                              47   -1.28 9  145 275 
 HEL  HZ I         751  7.89        25.3 0.22             47            145 275 
 GUY2CHZ IP     C  750 52.91                              47    0.31 9  158 233 
 GUY2CHN ES        751 10.83                              47   -1.29 9  158 233 
 GUY2CHZ I         751 16.96         5.2 0.36                           158 233 
 ZAR  HZ EP   2    750 53.23                              47   -0.73 4  170 336 
 ZAR  HE ES   4    751 11.49                              47   -3.07 0  170 336 
 ZAR  HZ I         751 15.56         4.5 0.17             47            170 336 
 CHI  HN ES        751 15.72                              47    0.41 9  170 161 
 CHI  HZ I         751 20.68         3.7 0.22             47            170 161 
 CBOC HZ EP   3    750 59.05                              37    1.13 2  199 263 
 CBOC HN ES        751 22.08                              37    0.48 9  199 263 
 CBOC HZ I         751 24.63         3.4 0.54             37            199 263 
 ORTC HZ EP   3    751  7.46                              37    1.34 2  266 205 
 ORTC HN ES   1    751 36.57                              37    0.38 6  266 205 
 ORTC HZ I         751 49.93         1.8 0.54             37            266 205 
                                                                                
