 2011  329 0930  6.0 L   6.775 -73.142139.2  RSN 18 0.4 3.2LRSN                1
 GAP=115        1.02       3.5     4.8  5.9 -0.3665E+01  0.6540E+01  0.7013E+01E
 Epicentro: LOS SANTOS - SANTANDER                                             3
 ACTION:UP  11-06-16 14:36 OP:jfem STATUS:               ID:20110329093006 L   I
 2011-03-29-0927-52S.COL___138                                                 6
 STAT SP IPHASW D HRMM SECON CODA AMPLIT PERI AZIMU VELO SNR AR TRES W  DIS CAZ7
 BTL  SZ ES   2    930 39.19                             171    -0.2 5   21 319 
 BAR2 SZ IP        930 24.84                             171     0.110   21 193 
 BAR2 SZ ES   2    930 39.15                             171    -0.3 5   21 193 
 BTL  SZ IP        930 24.06                             171    -0.710   21 319 
 BAR2 SZ I         930 40.93       387.5 0.22                            21 193 
 GIR2 SZ IP        930 24.92                             166     0.010   34 350 
 GIR2 SZ ES   1    930 39.39                             166    -0.3 7   34 350 
 BRR  HZ IP     C  930 26.77                             151     0.310   73 300 
 BRR  HN ES   1    930 43.26                             151     0.7 7   73 300 
 BRR  HZ I         930 47.77       454.1 0.09                            73 300 
 PAM  SZ IP        930 27.78                             149     0.210   79  38 
 PAM  SN ES   1    930 44.53                             149     0.0 7   79  38 
 PAM  SZ I         930 47.02       210.5 0.32                            79  38 
 GUE  SZ EP        930 30.14                             137    -0.210  119  12 
 GRA  SZ IP        930 31.80                             135     0.910  128  17 
 GRA  SZ I         930 52.19       376.2 0.30                           128  17 
 OCA  SZ IP        930 33.52                             128    -0.5 9  163 353 
 OCA  SZ ES   2    930 55.20                             128    -0.7 5  163 353 
 OCA  SZ I         931  0.42       287.4 0.25                           163 353 
 YOP  SZ EP        930 35.54                             125     0.2 9  176 153 
 YOP  SE ES   1    930 58.08                             125    -0.1 7  176 153 
 YOP  SZ I         931  0.04       172.3 0.24                           176 153 
 NOR  SZ IP        930 40.95                             117    -0.3 8  234 235 
 NOR  SE ES   1    931  8.99                             117     0.3 6  234 235 
 CHI  HZ EP        930 43.02                             116     0.0 8  246 195 
 CHI  HZ I         930 45.25        59.8 0.24                           246 195 
 CHI  HN ES   1    931 12.23                             116     0.3 6  246 195 
 HEL  HZ EP        930 45.29                             113    -0.5 8  272 256 
 HEL  HN ES   3    931 16.92                             113     0.0 2  272 256 
 HEL  HZ I         931 23.92        88.2 0.20                           272 256 
 GUY  SZ EP        930 49.90                             111     0.7 7  300 235 
 GUY  SN ES   2    931 23.23                             111     0.4 4  300 235 
 GUY  SZ I         931 30.06        98.7 0.41                           300 235 
 VIL  SZ EP        930 48.32                             111    -0.5 7  301 192 
 RREF HZ EP        930 51.71                             110     0.0 7  320 230 
 RREF HN ES   2    931 26.64                             110    -0.7 3  320 230 
 DBB  SZ EP        930 53.24                             108     0.0 7  340 275 
 TOL  SZ EP   1    930 54.60                             108     0.8 5  342 225 
 PRA  HZ EP        930 58.39                             105    -0.6 6  390 210 
 PRA  HN ES   2    931 40.35                             105     0.0 3  390 210 
                                                                                
