 2016  429 0543 39.3 L   6.787 -73.136146.9  RSN  8 0.3 1.6LRSN                1
 GAP=138        0.84       3.3     4.1  5.7 -0.5334E+01  0.9831E+01 -0.3566E+01E
 Epicentro: LOS SANTOS - SANTANDER                                             3
 ACTION:UPD 16-05-05 14:25 OP:rebc STATUS:               ID:20160429054340dL   I
 OLDACT:UP  16-04-29 15:27 OP:mh   STATUS:               ID:20160429053744     3
 OLDACT:REG 16-04-29 12:53 OP:dnl  STATUS:               ID:20160429053744     3
 2016-04-29-0537-44M.COL___310                                                 6
 STAT SP IPHASW D HRMM SECON CODA AMPLIT PERI AZIMU VELO AIN AR TRES W  DIS CAZ7
 BAR2 EZ EP        543 59.33                             171    0.2510 22.2 193 
 BAR2 EZ ES        544 14.47                             171   -0.0110 22.2 193 
 BAR2 EZ I         544 16.06         5.7 0.47            170           22.2 193 
 PAM  EZ EP        544  0.96                             151   -0.7310 77.8  38 
 PAM  EN ES        544 19.28                             151    0.1510 77.8  38 
 PAM  EZ I         544 21.36         9.1 0.82            154           77.8  38 
 RUS  HZ EP        544  3.28                             144    0.1910 99.1 177 
 RUS  HN ES        544 21.77                             144    0.1510 99.1 177 
 RUS  HZ I         544 23.08         2.5 0.14            149           99.1 177 
 PTB  HZ EP        544  6.07                             132   -0.39 9  149 259 
 PTB  HN ES        544 27.19                             132   -0.44 9  149 259 
 PTB  HZ I         544 34.41         3.2 0.32            132            149 259 
 OCA  HZ EP        544  7.92                             130    0.05 9  162 353 
 OCA  HE ES        544 30.45                             130    0.32 9  162 353 
 OCA  HZ I         544 33.39         8.7 0.12            131            162 353 
 SPBC HN ES        544 29.99                             129   -0.16 9  163 220 
 HEL  HZ EP        544 20.07                             115    0.39 8  273 256 
 HEL  HN ES        544 51.64                             115    0.49 8  273 256 
 HEL  HZ I         544 58.73         2.1 0.38            116            273 256 
 GUY2CHZ EP        544 23.12                             112    0.12 7  301 235 
 GUY2CHZ I         544 53.92         4.6 0.42                           301 235 
                                                                                
