 2011  729 0645  4.8 L   6.792 -73.102142.4  RSN  8 0.3 2.0LRSN                1
 GAP=143        0.52       2.2     5.2  4.6 -0.5693E+01 -0.3239E+01  0.3278E+01E
 Epicentro: LOS SANTOS - SANTANDER                                             3
 ACTION:UPD 12-07-25 14:04 OP:epov STATUS:               ID:20110729064504 L   I
 2011-07-29-0640-00M.COL___140                                                 6
 STAT SP IPHASW D HRMM SECON CODA AMPLIT PERI AZIMU VELO AIN AR TRES W  DIS CAZ7
 BAR2 SZ EP   1    645 23.88                             170   -0.17 8 23.8 202 
 BAR2 SZ ES   2    645 38.86                             170   -0.20 5 23.8 202 
 BAR2 SZ I         645 40.08        41.9 0.25                          23.8 202 
 PAM  SZ EP   1    645 26.85                             151    0.31 8 75.1  36 
 PAM  SN ES   2    645 43.62                             151    0.14 5 75.1  36 
 BRR  HZ EP   1    645 25.89                             150    0.01 8 75.9 297 
 BRR  HE ES   1    645 42.34                             150    0.04 8 75.9 297 
 BRR  HZ I         645 47.04        23.3 0.17                          75.9 297 
 RUS  HZ EP   1    645 27.84                             143   -0.32 8 99.5 179 
 RUS  HZ I         645 28.76        11.3 0.25                          99.5 179 
 RUS  HN ES   2    645 46.20                             143   -0.16 5 99.5 179 
 BRI  SZ EP   1    645 28.58                             141    0.25 8  108  18 
 BRI  SZ ES   2    645 47.14                             141    0.47 5  108  18 
 GRA  SZ IP        645 29.76                             136    0.0410  125  15 
 GRA  SZ ES        645 48.93                             136   -0.2110  125  15 
 GRA  SZ I         645 50.36        13.7 0.39                           125  15 
 OCA  SZ EP   1    645 32.96                             129   -0.05 7  162 351 
 OCA  SZ ES   2    645 54.88                             129   -0.12 5  162 351 
 OCA  SZ I         645 59.17        17.1 0.32                           162 351 
 CHI  HZ EP        645 42.00                             116   -0.38 8  249 196 
 CHI  HN ES        646 12.17                             116    0.49 8  249 196 
 CHI  HZ I         646 17.54         4.9 0.23                           249 196 
                                                                                
