 2016 1129 0945 32.8 L   7.571 -73.144142.2  RSN  5 0.2 1.3LRSN                1
 GAP=210        0.62       8.1     3.4  5.9 -0.9098E+01  0.9159E+01 -0.1703E+02E
 Epicentro: EL PLAYON - SANTANDER                                              3
 ACTION:UPD 17-10-26 21:13 OP:lp   STATUS:               ID:20161129094533dL   I
 OLDACT:REG 16-11-29 13:04 OP:dani STATUS:               ID:20161129093745     3
 2016-11-29-0938-00M.COL___346                                                 6
 STAT SP IPHASW D HRMM SECON CODA AMPLIT PERI AZIMU VELO AIN AR TRES W  DIS CAZ7
 PAM  EZ EP        945 53.42                             158   -0.0610 55.3 118 
 PAM  EE ES        946  9.56                             158   -0.0410 55.3 118 
 BRR  HZ EP        945 54.70                             149    0.5110 81.1 231 
 BRR  HN ES        946 10.71                             149   -0.1410 81.1 231 
 BRR  HZ I         946 12.46         6.7 0.38            144           81.1 231 
 PTB  HZ EP        946  2.72                             124   -0.34 9  185 232 
 PTB  HN ES        946 26.73                             124    0.10 9  185 232 
 PTB  HZ I         946 34.17         1.5 0.16            123            185 232 
 ZAR  HZ EP        946  3.42                             124   -0.12 9  189 267 
 ZAR  HN ES        946 27.50                             124    0.01 9  189 267 
 ZAR  HZ I         946 34.24         2.2 0.24            122            189 267 
 SJC  HZ EP   4    946 18.94                             109   -1.37 0  341 319 
 SJC  HN ES   4    946 53.88                             109   -3.47 0  341 319 
 SJC  HZ I         946 56.77         0.8 0.40            109            341 319 
                                                                                
