 2011 1129 0059 50.2 L   6.767 -73.098146.0  RSN  5 0.3 1.8LRSN                1
 GAP=144        0.57       4.0     5.3  5.5 -0.3195E+01  0.2381E+01 -0.1300E+01E
 Epicentro: LOS SANTOS - SANTANDER                                             3
 ACTION:UPD 12-07-13 16:12 OP:ep   STATUS:               ID:20111129005950 L   I
 2011-11-29-0055-07S.COL___160                                                 6
 STAT SP IPHASW D HRMM SECON CODA AMPLIT PERI AZIMU VELO AIN AR TRES W  DIS CAZ7
 BAR2 SZ EP        1 0  9.57                             171   -0.2510 21.4 206 
 BAR2 SZ I         1 0 10.09        12.2 0.34                          21.4 206 
 BAR2 SZ ES   1    1 0 24.87                             171   -0.25 7 21.4 206 
 PAM  SZ EP        1 0 12.51                             151    0.0910 77.1  35 
 PAM  SN ES   1    1 0 29.74                             151   -0.02 7 77.1  35 
 BRR  HZ EP        1 0 11.61                             150   -0.1310 77.6 299 
 BRR  HZ I         1 0 11.87        20.9 0.14                          77.6 299 
 BRR  HE ES   1    1 0 28.99                             150    0.44 7 77.6 299 
 RUS  HZ EP   2    1 0 14.25                             145    0.55 5 96.7 179 
 RUS  HN ES   1    1 0 32.18                             145    0.16 7 96.7 179 
 RUS  HZ I         1 0 35.09         6.3 0.42                          96.7 179 
 NOR  SZ EP   2    1 0 26.36                             118    0.18 4  237 236 
 NOR  SN ES   3    1 0 52.93                             118   -1.32 2  237 236 
                                                                                
