 2015  129 0422  4.2 L   6.798 -73.134149.5  RSN 11 0.4 1.9LRSN                1
 GAP=138        0.96       2.6     4.0  5.5 -0.1542E+01  0.3904E+01  0.7061E+00E
 Epicentro: LOS SANTOS - SANTANDER                                             3
 ACTION:UPD 15-03-02 15:43 OP:nd   STATUS:               ID:20150129042204 L   I
 OLDACT:UP  15-01-29 15:21 OP:cam  STATUS:               ID:20150129041812d    3
 OLDACT:UP  15-01-29 15:21 OP:cam  STATUS:               ID:20150129041812d    3
 OLDACT:DUP 15-01-29 15:18 OP:cam  STATUS:               ID:20150129041812d    3
 OLDACT:UP  15-01-29 15:18 OP:cam  STATUS:               ID:20150129041811     3
 OLDACT:REG 15-01-29 13:14 OP:cvam STATUS:               ID:20150129041811     3
 2015-01-29-0418-11M.COL___268                                                 6
 STAT SP IPHASW D HRMM SECON CODA AMPLIT PERI AZIMU VELO AIN AR TRES W  DIS CAZ7
 BAR2 EZ EP        422 24.34                             171    0.0810 23.4 193 
 BAR2 EZ ES        422 39.67                             171   -0.2610 23.4 193 
 BAR2 EZ I         422 41.86        12.9 0.30            171           23.4 193 
 BRR  HZ EP        422 26.06                             153    0.2510 72.5 298 
 BRR  HN ES        422 43.37                             153    0.6910 72.5 298 
 BRR  HZ I         422 47.54         8.1 0.28            152           72.5 298 
 PAM  SZ EP        422 26.89                             152    0.1310 76.7  39 
 PAM  SN ES        422 44.57                             152    0.2010 76.7  39 
 PAM  SZ I         422 46.38         9.5 0.50            154           76.7  39 
 RUS  HZ EP        422 28.11                             145   -0.1710  100 177 
 RUS  HN ES        422 46.47                             145   -0.6110  100 177 
 PTB  HZ EP        422 31.11                             133   -0.46 9  149 259 
 PTB  HN ES        422 52.32                             133   -0.61 9  149 259 
 PTB  HZ I         422 54.06         7.0 0.46            133            149 259 
 OCA  HZ EP   1    422 33.31                             130    0.49 7  161 353 
 OCA  HN ES        422 55.21                             130    0.05 9  161 353 
 OCA  HZ I         423  0.09         9.2 0.30            132            161 353 
 SPBC HZ EP        422 33.14                             130    0.11 9  164 219 
 SPBC HN ES        422 55.99                             130    0.46 9  164 219 
 SPBC HZ I         423  0.70        15.8 0.38            131            164 219 
 ZAR  HZ EP   4    422 37.73                             123    0.72 0  205 292 
 ZAR  HN ES   1    423  2.67                             123    0.06 6  205 292 
 ZAR  HZ I         423  7.65         9.7 0.32            124            205 292 
 NOR  HN ES        423  8.73                             119    0.38 8  236 235 
 SML  HZ EP   1    422 40.80                             118   -0.30 6  244 335 
 SML  HN ES        423  9.13                             118   -0.77 8  244 335 
 SML  HZ I         423 12.70        18.1 0.10            119            244 335 
 CHI  HZ EP        422 42.35                             118    0.25 8  249 195 
 CHI  HN ES        423 11.77                             118    0.09 8  249 195 
 CHI  HZ I         423 17.53         2.5 0.26            120            249 195 
 MON  HN ES   4    423 30.04                             109   -1.87 0  355 308 
                                                                                
