 2013 1129 0323 27.8 L   6.850 -73.174138.0  RSN  9 0.4 1.7LRSN                1
 GAP=138        0.89       4.5     4.3  8.7 -0.8556E+01  0.1129E+02  0.2877E+01E
 Epicentro: ZAPATOCA - SANTANDER                                               3
 ACTION:UPD 14-01-09 16:31 OP:ep   STATUS:               ID:20131129032327 L   I
 OLDACT:UP  13-11-29 11:46 OP:mh   STATUS:               ID:20131129032000     3
 OLDACT:UP  13-11-29 11:44 OP:mh   STATUS:               ID:20131129032000     3
 OLDACT:REG 13-11-29 07:51 OP:mh   STATUS:               ID:20131129032000     3
 2013-11-29-0320-00M.COL___282                                                 6
 STAT SP IPHASW D HRMM SECON CODA AMPLIT PERI AZIMU VELO AIN AR TRES W  DIS CAZ7
 BAR2 SZ EP   1    323 46.20                             168   -0.44 7 28.5 182 
 BAR2 SZ I         324  3.60        15.2 0.13            165           28.5 182 
 BRR  HZ EP        323 47.78                             153   -0.0510 65.9 296 
 BRR  HN ES   1    324  3.87                             153    0.43 7 65.9 296 
 BRR  HZ I         324  8.87         7.8 0.19            157           65.9 296 
 PAM  SZ EP        323 48.96                             150   -0.1410 75.4  44 
 PAM  SN ES        324  5.79                             150    0.1110 75.4  44 
 PAM  SZ I         324  8.72         9.1 0.51            150           75.4  44 
 PTB  HZ EP   4    323 52.93                             130   -1.06 0  146 256 
 PTB  HN ES        324 13.93                             130   -0.47 9  146 256 
 PTB  HZ I         324 16.83         8.9 0.10            132            146 256 
 SPBC HZ EP   4    323 54.36                             127   -1.61 0  166 217 
 SPBC HN ES        324 18.35                             127    0.42 9  166 217 
 SPBC HZ I         324 23.73         6.3 0.14            127            166 217 
 ZAR  HZ EP        324  0.05                             121    0.79 9  199 291 
 ZAR  HN ES        324 23.74                             121   -0.04 9  199 291 
 ZAR  HZ I         324 29.61         4.1 0.20            123            199 291 
 NOR  HZ EP   4    324  5.82                             117    2.63 0  235 233 
 NOR  HN ES        324 30.42                             117   -0.36 8  235 233 
 NOR  HZ I         324 34.00         4.8 0.27            117            235 233 
 SML  HZ EP   4    324  1.06                             116   -2.28 0  237 335 
 SML  HN ES   2    324 30.10                             116   -0.93 4  237 335 
 SML  HZ I         324 33.59         4.7 0.08            118            237 335 
 GUY2CHZ EP   4    324 12.57                             111    1.41 0  302 234 
 GUY2CHN ES        324 44.93                             111   -0.03 7  302 234 
 SJC  HZ EP   4    324 20.36                             105   -2.04 0  403 327 
                                                                                
