 2011  329 0239 14.3 L   6.811 -73.097140.0  RSN 11 0.4 2.1LRSN                1
 GAP=118        0.81       3.5     5.1  5.8 -0.3435E+01  0.7778E+00  0.8335E+01E
 Epicentro: LOS SANTOS - SANTANDER                                             3
 ACTION:UP  11-06-16 14:36 OP:jfem STATUS:               ID:20110329023914 L   I
 2011-03-29-0237-40S.COL___138                                                 6
 STAT SP IPHASW D HRMM SECON CODA AMPLIT PERI AZIMU VELO SNR AR TRES W  DIS CAZ7
 BAR2 SZ IP        239 33.11                             169    -0.210   26 201 
 BAR2 SZ ES   1    239 47.77                             169    -0.4 7   26 201 
 BAR2 SZ I         239 49.19        44.8 0.29                            26 201 
 GIR2 SZ EP        239 33.12                             167    -0.210   31 340 
 GIR2 SZ ES   2    239 48.22                             167     0.1 5   31 340 
 PAM  SZ IP     C  239 36.02                             151     0.410   73  37 
 PAM  SN ES   3    239 52.55                             151     0.2 2   73  37 
 BRR  HZ IP     D  239 34.95                             150    -0.110   75 296 
 BRR  HN ES   1    239 51.60                             150     0.3 7   75 296 
 BRR  HZ I         239 52.70        24.7 0.09                            75 296 
 GRA  SZ IP        239 38.89                             136     0.110  123  15 
 GRA  SZ ES   1    239 58.22                             136     0.3 7  123  15 
 GRA  SZ I         239 59.60        20.6 0.27                           123  15 
 OCA  SZ EP   2    239 41.78                             128    -0.4 5  160 351 
 OCA  SZ ES   1    240  3.32                             128    -0.5 7  160 351 
 OCA  SZ I         240 11.46        14.3 0.25                           160 351 
 YOP  SZ EP        239 43.95                             125     0.1 9  178 155 
 YOP  SN ES   2    240  7.32                             125     0.5 4  178 155 
 YOP  SZ I         240  8.51         9.8 0.29                           178 155 
 CHI  HZ EP        239 51.59                             115    -0.4 8  251 196 
 CHI  HZ I         240 24.14         7.7 0.50                           251 196 
 HEL  HZ EP   1    239 55.44                             113     0.6 6  278 256 
 HEL  HZ I         240 32.22        10.0 0.45                           278 256 
 RREF HZ EP        240  1.49                             109     0.7 7  327 230 
 RREF HN ES   1    240 37.28                             109     0.3 5  327 230 
 RREF HZ I         240 44.35         7.4 0.27                           327 230 
 PRA  HZ EP        240  7.47                             105    -0.6 6  396 210 
 PRA  HN ES   3    240 48.94                             105    -1.1 1  396 210 
                                                                                
