 2011 1129 0753 56.0 L   6.777 -73.034124.6  RSN  5 0.3 1.1LRSN                1
 GAP=153        0.53       4.1     6.5 11.5  0.6917E+01 -0.4068E+02 -0.1097E+02E
 Epicentro: CEPITA - SANTANDER                                                 3
 ACTION:UPD 12-07-13 16:13 OP:ep   STATUS:               ID:20111129075356 L   I
 2011-11-29-0748-34S.COL___160                                                 6
 STAT SP IPHASW D HRMM SECON CODA AMPLIT PERI AZIMU VELO AIN AR TRES W  DIS CAZ7
 BAR2 SZ EP        754 12.91                             167   -0.2310 26.2 219 
 PAM  SZ EP        754 15.80                             148    0.1510 72.3  31 
 BRR  HZ EP        754 15.94                             143    0.2310 83.4 296 
 BRR  HN ES   1    754 31.02                             143   -0.07 7 83.4 296 
 BRR  HZ I         754 32.58         2.8 0.30                          83.4 296 
 RUS  HZ EP   2    754 17.12                             139   -0.38 5 98.0 183 
 RUS  HE ES   2    754 34.58                             139    0.29 5 98.0 183 
 OCA  SZ ES   2    754 43.97                             123   -0.43 5  165 349 
                                                                                
