 2011  329 0201 52.5 L   6.771 -73.077142.0  RSN  9 0.4 1.9LRSN                1
 GAP=164        1.06       5.9     9.5  8.5 -0.2163E+02 -0.1996E+01  0.8078E+01E
 Epicentro: LOS SANTOS - SANTANDER                                             3
 ACTION:UP  11-06-16 14:36 OP:jfem STATUS:               ID:20110329020152 L   I
 2011-03-29-0157-55S.COL___138                                                 6
 STAT SP IPHASW D HRMM SECON CODA AMPLIT PERI AZIMU VELO SNR AR TRES W  DIS CAZ7
 BAR2 SZ EP        2 2 11.22                             170    -0.510   23 211 
 BAR2 SZ ES   1    2 2 26.65                             170     0.0 7   23 211 
 BAR2 SZ I         2 2 28.30        35.4 0.19                            23 211 
 BTL  SZ EP        2 2 12.62                             169     0.810   27 308 
 GIR2 SZ EP   1    2 2 11.73                             165    -0.2 7   36 339 
 GIR2 SZ ES   3    2 2 26.02                             165    -1.0 2   36 339 
 PAM  SZ EP        2 2 14.62                             151     0.410   75  34 
 PAM  SN ES   3    2 2 30.18                             151    -1.0 2   75  34 
 BRR  HZ EP        2 2 13.43                             149    -0.310   79 298 
 BRR  HN ES   1    2 2 30.75                             149     0.4 7   79 298 
 BRR  HZ I         2 2 32.57        17.5 0.23                            79 298 
 GRA  SZ EP        2 2 17.48                             136     0.010  127  14 
 GRA  SZ ES   2    2 2 36.84                             136    -0.2 5  127  14 
 GRA  SZ I         2 2 39.68         7.9 0.46                           127  14 
 OCA  SZ EP   1    2 2 20.33                             128    -0.6 7  165 351 
 OCA  SZ I         2 2 45.59        11.1 0.56                           165 351 
 CHI  HZ EP        2 2 29.85                             117    -0.1 8  248 197 
 CHI  HN ES   1    2 2 59.03                             117     0.0 6  248 197 
 CHI  HZ I         2 3  2.70         4.1 0.44                           248 197 
 HEL  HZ EP        2 2 33.30                             114     0.0 7  279 257 
 HEL  HZ I         2 3  9.71         4.6 0.23                           279 257 
                                                                                
