 2017  429 0413 30.8 L   6.833 -73.106146.0  RSN 19 0.7 2.4LRSN                1
 GAP=114        1.13       3.6     3.6  6.1  0.2044E+01  0.4716E+01  0.4663E+01E
 Epicentro: LOS SANTOS - SANTANDER                                             3
 ACTION:UPD 17-05-30 21:17 OP:jn   STATUS:               ID:20170429041330 L   I
 OLDACT:UP  17-04-29 16:02 OP:and  STATUS:               ID:20170429040731     3
 OLDACT:UP  17-04-29 16:02 OP:and  STATUS:               ID:20170429040731     3
 OLDACT:UP  17-04-29 15:59 OP:and  STATUS:               ID:20170429040731     3
 OLDACT:UP  17-04-29 15:59 OP:and  STATUS:               ID:20170429040731     3
 OLDACT:UP  17-04-29 15:58 OP:and  STATUS:               ID:20170429040731     3
 OLDACT:UP  17-04-29 15:58 OP:and  STATUS:               ID:20170429040731     3
 OLDACT:UP  17-04-29 15:58 OP:and  STATUS:               ID:20170429040731     3
 OLDACT:UP  17-04-29 15:57 OP:and  STATUS:               ID:20170429040731     3
 OLDACT:REG 17-04-29 12:42 OP:and  STATUS:               ID:20170429040731     3
 2017-04-29-0408-00M.COL___368                                                 6
 STAT SP IPHASW D HRMM SECON CODA AMPLIT PERI AZIMU VELO AIN AR TRES W  DIS CAZ7
 PAM  EZ EP        413 52.86                             153    0.1510 71.8  39 
 PAM  EN ES        414  9.78                             153   -0.0310 71.8  39 
 PAM  EZ I         414 10.36        48.6 0.20            160           71.8  39 
 BRR  HZ IP     C  413 52.02                             152   -0.0810 73.5 294 
 BRR  HN ES        414  8.92                             152    0.2010 73.5 294 
 BRR  HZ I         414 12.92        49.6 0.12            150           73.5 294 
 RUS  HZ EP        413 54.56                             143   -0.2710  104 179 
 RUS  HN ES        414 13.37                             143   -0.2010  104 179 
 RUS  HZ I         414 14.64        18.1 0.42            142            104 179 
 PTB  HZ IP   9 C  413 56.93                             131   -1.31 0  153 258 
 PTB  HN ES        414 18.47                             131    0.13 9  153 258 
 PTB  HZ I         414 20.90        61.3 0.24            130            153 258 
 SPBC HZ EP        413 59.45                             128   -0.40 9  169 219 
 SPBC HN ES        414 22.63                             128    0.12 9  169 219 
 SPBC HZ I         414 29.06        33.6 0.36            127            169 219 
 YPLC HZ EP        414  0.98                             127    0.25 9  178 153 
 YPLC HE ES        414 25.36                             127    1.29 9  178 153 
 YPLC HZ I         414 27.76        27.3 0.36            128            178 153 
 ZAR  HZ EP        414  3.05                             122   -0.49 8  207 291 
 ZAR  HE ES        414 28.75                             122   -0.33 8  207 291 
 ZAR  HZ I         414 33.77        61.3 0.34            123            207 291 
 NOR  HZ EP        414  6.94                             118   -0.21 8  240 234 
 NOR  HN ES        414 35.47                             118   -0.04 8  240 234 
 NOR  HZ I         414 39.93        20.6 0.18            118            240 234 
 CHI  HZ EP        414  9.23                             117    0.21 8  253 196 
 CHI  HN ES        414 38.57                             117   -0.27 8  253 196 
 CHI  HZ I         414 43.43         6.7 0.26            117            253 196 
 ROSC BZ EP   3    414 10.92                             116    1.40 2  258 211 
 ROSC BN ES   4    414 41.99                             116    2.26 0  258 211 
 ROSC BZ I         414 48.59        17.1 0.45            116            258 211 
 HEL  HZ EP        414 12.69                             114    1.09 7  277 255 
 HEL  HN ES        414 43.30                             114   -0.12 7  277 255 
 HEL  HZ I         414 50.23        15.8 0.50            115            277 255 
 PTGC HZ EP   2    414 14.20                             112   -0.68 3  311 160 
 PTGC HN ES        414 47.50                             112   -1.76 7  311 160 
 PTGC HZ I         414 49.55         9.2 0.24            113            311 160 
 ELA  HZ EP   3    414 20.18                             110    1.87 2  335 229 
 ELA  HE ES   4    414 59.29                             110    3.91 0  335 229 
 ELA  HZ I         415  6.79        12.5 0.46            110            335 229 
 CBOC HZ EP        414 18.85                             110    0.52 7  339 252 
 CBOC HN ES   3    414 53.66                             110   -1.75 2  339 252 
 CBOC HZ I         414 58.51         4.6 0.18            110            339 252 
 DBB  EZ EP        414 18.86                             109    0.10 7  344 274 
 DBB  EE ES   4    414 54.18                             109   -1.99 0  344 274 
 DBB  EZ I         414 55.96        19.5 0.10            110            344 274 
 ANIL HZ EP   3    414 23.03                             108    1.76 2  363 225 
 ANIL HN ES   4    415  3.33                             108    2.69 0  363 225 
 ANIL HZ I         415 11.57        24.7 0.42            109            363 225 
 ORTC HZ EP   9    414 26.12                             106    0.74 0  401 216 
 ORTC HN ES        415  9.33                             106    0.64 6  401 216 
 ORTC HZ I         415 14.89         7.3 0.16            107            401 216 
 VALLCHN ES   4    415  8.89                             106   -0.23 0  407 358 
 SJC  HZ EP   3    414 23.74                             106   -2.55 1  409 326 
 SJC  HN ES   4    415  4.96                             106   -4.61 0  409 326 
 SJC  HZ I         415  9.46         5.1 0.70            107            409 326 
 PAL  HN ES        415 10.50                             106    0.32 6  411 239 
 PAL  HZ I         415 14.71         4.8 0.24            106            411 239 
                                                                                
