 2016  229 0502 54.3 L   6.748 -73.136145.6  RSN  6 0.4 1.4LRSN                1
 GAP=183        0.89       3.6     5.0  7.4  0.7095E-02  0.9924E+01 -0.7288E+01E
 Epicentro: LOS SANTOS - SANTANDER                                             3
 ACTION:UPD 16-03-04 21:30 OP:rebc STATUS:               ID:20160229050254 L   I
 OLDACT:UP  16-02-29 15:02 OP:mh   STATUS:               ID:20160229045749     3
 OLDACT:UP  16-02-29 13:38 OP:mh   STATUS:               ID:20160229045749     3
 OLDACT:REG 16-02-29 12:24 OP:mh   STATUS:               ID:20160229045749     3
 2016-02-29-0457-49M.COL___309                                                 6
 STAT SP IPHASW D HRMM SECON CODA AMPLIT PERI AZIMU VELO AIN AR TRES W  DIS CAZ7
 BAR2 EZ EP        5 3 13.96                             173    0.1310 18.0 197 
 BAR2 EZ ES        5 3 29.26                             173    0.2110 18.0 197 
 BAR2 EZ I         5 3 30.06         5.1 0.53            173           18.0 197 
 RUS  HZ EP   1    5 3 16.92                             145   -0.71 7 94.8 176 
 RUS  HN ES        5 3 35.92                             145    0.0910 94.8 176 
 RUS  HZ I         5 3 36.95         3.4 0.34            148           94.8 176 
 PTB  HZ EP        5 3 21.70                             132    0.43 9  148 261 
 PTB  HN ES        5 3 41.67                             132   -0.64 9  148 261 
 PTB  HZ I         5 3 42.56         2.4 0.07            132            148 261 
 SPBC HZ EP   1    5 3 22.93                             130    0.48 7  159 221 
 SPBC HN ES        5 3 44.28                             130   -0.11 9  159 221 
 SPBC HZ I         5 3 48.63         2.0 0.18            131            159 221 
 OCA  HZ EP   1    5 3 22.48                             128   -0.68 7  166 353 
 OCA  HN ES        5 3 45.73                             128    0.06 9  166 353 
 OCA  HZ I         5 3 49.38         7.2 0.08            129            166 353 
 ZAR  HZ EP   1    5 3 27.50                             122    0.42 6  207 293 
 ZAR  HE ES        5 3 52.79                             122    0.15 8  207 293 
 ZAR  HZ I         5 3 58.33         2.5 0.13            122            207 293 
                                                                                
