 2015  129 0413 27.5 L   6.831 -73.171145.9  RSN 24 0.5 2.6LRSN                1
 GAP= 69        1.14       2.6     3.0  4.7 -0.7909E-01  0.3846E+01  0.6340E+00E
 Epicentro: ZAPATOCA - SANTANDER                                               3
 ACTION:UPD 15-03-02 15:43 OP:nd   STATUS:               ID:20150129041327 L   I
 OLDACT:UP  15-01-29 15:13 OP:cam  STATUS:               ID:20150129040819     3
 OLDACT:UP  15-01-29 15:12 OP:cam  STATUS:               ID:20150129040819     3
 OLDACT:REG 15-01-29 13:13 OP:cvam STATUS:               ID:20150129040819     3
 2015-01-29-0408-19M.COL___268                                                 6
 STAT SP IPHASW D HRMM SECON CODA AMPLIT PERI AZIMU VELO AIN AR TRES W  DIS CAZ7
 BAR2 EZ IP     D  413 47.09                             169   -0.0910 26.4 183 
 BAR2 EZ ES        414  2.42                             169   -0.1410 26.4 183 
 BAR2 EZ I         414  4.85        70.6 0.26            169           26.4 183 
 BRR  HZ EP        413 48.95                             154    0.5410 67.1 297 
 BRR  HN ES        414  5.68                             154    0.9310 67.1 297 
 BRR  HZ I         414  9.85        60.3 0.28            155           67.1 297 
 PAM  SZ EP     C  413 49.90                             151    0.2410 76.7  43 
 PAM  SN ES        414  7.00                             151    0.0310 76.7  43 
 PAM  SZ I         414  9.50        42.1 0.32            150           76.7  43 
 RUS  HZ EP     D  413 51.08                             143   -0.4210  104 175 
 RUS  HN ES        414 10.12                             143   -0.1210  104 175 
 RUS  HZ I         414 11.24        26.0 0.46            142            104 175 
 PTB  HZ EP        413 53.70                             132   -0.57 9  146 257 
 PTB  HN ES        414 14.35                             132   -0.81 9  146 257 
 PTB  HZ I         414 16.58        36.5 0.40            133            146 257 
 OCA  HZ EP        413 55.25                             130   -0.20 9  157 354 
 OCA  HN ES        414 17.15                             130   -0.12 9  157 354 
 OCA  HZ I         414 25.45        43.4 0.20            130            157 354 
 TAM  HZ EP     D  413 55.55                             130    0.06 9  159 106 
 TAM  HZ I         414 16.61        22.6 0.30            129            159 106 
 TAM  HN ES        414 17.34                             130   -0.01 9  159 106 
 SPBC HZ EP        413 56.01                             129   -0.06 9  164 217 
 SPBC HN ES        414 18.13                             129   -0.24 9  164 217 
 SPBC HZ I         414 22.45        63.3 0.62            129            164 217 
 ZAR  HZ EP        414  0.33                             123    0.80 9  200 292 
 ZAR  HN ES        414 25.09                             123    0.56 9  200 292 
 ZAR  HN I         414 27.48        62.2 0.26            123            200 292 
 SML  HZ EP        414  3.15                             118   -0.50 8  239 336 
 SML  HN ES        414 31.63                             118   -0.23 8  239 336 
 SML  HZ I         414 41.59        48.3 0.10            118            239 336 
 CHI  HZ EP        414  5.27                             117   -0.18 8  251 194 
 CHI  HN ES        414 34.92                             117   -0.16 8  251 194 
 CHI  HZ I         414 39.77        22.5 0.30            117            251 194 
 ROSC BZ EP        414  6.92                             117    1.16 8  254 210 
 ROSC BN ES   4    414 37.21                             117    1.58 0  254 210 
 ROSC BZ I         414 41.67        41.2 0.45            116            254 210 
 HEL  HZ EP        414  8.42                             115    0.93 8  270 255 
 HEL  HE ES        414 38.13                             115   -0.57 8  270 255 
 HEL  HZ I         414 45.48        17.9 0.36            115            270 255 
 URE  HZ EP        414  7.32                             114   -0.80 7  280 291 
 URE  HN ES   4    414 37.54                             114   -2.28 0  280 291 
 URE  HZ I         414 40.06        19.2 0.12            114            280 291 
 GUY2CHZ EP        414 10.75                             112   -0.30 7  301 234 
 GUY2CHN ES   4    414 47.46                             112    2.42 0  301 234 
 GUY2CHZ I         414 53.40        19.9 0.56                           301 234 
 RREF HZ EP        414 14.00                             111    0.37 7  322 229 
 RREF HE ES   4    414 47.77                             111   -1.87 0  322 229 
 RREF HZ I         414 58.89        22.1 0.44            111            322 229 
 CBOC HZ EP        414 14.86                             110    0.65 7  332 251 
 DBB  SZ EP        414 15.24                             110    0.63 7  336 274 
 DBB  SZ ES        414 50.91                             110   -0.46 7  336 274 
 DBB  SZ I         414 53.41        43.5 0.50            110            336 274 
 TOL  SZ EP        414 16.08                             109    0.29 7  344 224 
 TOL  SE ES   4    414 55.29                             109    1.82 0  344 224 
 TOL  SZ I         415  0.70        13.1 0.28            109            344 224 
 MON  HZ EP   4    414 14.19                             109   -1.79 0  349 308 
 MON  HN ES        414 52.91                             109   -0.91 6  349 308 
 MON  HZ I         414 54.90         7.4 0.36            109            349 308 
 ARGC HZ EP        414 16.93                             108    0.27 6  355 341 
 ANIL HZ EP   4    414 18.72                             108    1.38 0  358 224 
 SDV  BZ EP        414 16.66                             108   -0.86 6  360  51 
 ORTC HZ EP        414 21.42                             106   -0.10 6  397 216 
 ORTC HN ES        415  3.71                             106    0.03 6  397 216 
 ORTC HZ I         415  8.46        12.3 0.24            106            397 216 
 PAL  HZ EP        414 22.68                             106    0.12 6  405 238 
                                                                                
