 2017  129 0951  5.0 L   6.729 -73.142141.1  RSN  9 0.5 1.7LRSN                1
 GAP=122        1.22       4.3     5.1  7.0  0.5689E+01  0.8872E+01  0.6271E+01E
 Epicentro: JORDAN - SANTANDER                                                 3
 ACTION:UPD 17-05-22 16:04 OP:jn   STATUS:               ID:20170129095105 L   I
 OLDACT:REG 17-01-29 13:31 OP:lv   STATUS:               ID:20170129094741     3
 2017-01-29-0948-00M.COL___330                                                 6
 STAT SP IPHASW D HRMM SECON CODA AMPLIT PERI AZIMU VELO AIN AR TRES W  DIS CAZ7
 BAR2 EZ IP     C  951 24.03                             173    0.0710 15.8 196 
 BAR2 EZ ES        951 39.06                             173    0.3310 15.8 196 
 BAR2 EZ I         951 42.62         4.3 0.14            171           15.8 196 
 BRR  HZ IP     C  951 25.93                             150    0.0010 75.5 304 
 BRR  HN ES        951 42.59                             150    0.3610 75.5 304 
 BRR  HZ I         951 46.94        13.4 0.11            151           75.5 304 
 PAM  EZ EP        951 27.05                             148   -0.0710 83.3  36 
 PAM  EN ES        951 43.70                             148   -0.6510 83.3  36 
 PAM  EZ I         951 45.97        16.2 0.16            153           83.3  36 
 RUS  HZ EP        951 28.37                             145    0.6110 92.8 176 
 RUS  HN ES        951 45.88                             145    0.3910 92.8 176 
 RUS  HZ I         951 47.41         7.2 0.05            147           92.8 176 
 PTB  HZ EP        951 30.78                             131   -0.75 9  147 262 
 PTB  HN ES        951 51.76                             131   -0.44 9  147 262 
 PTB  HZ I         951 54.26         6.0 0.30            133            147 262 
 ZAR  HZ EP        951 37.43                             121   -0.10 8  207 294 
 ZAR  HN ES        952  2.93                             121    0.05 8  207 294 
 ZAR  HZ I         952  8.41         9.6 0.30            123            207 294 
 CHI  HZ EP        951 42.48                             117    0.82 8  241 196 
 CHI  HN ES        952  9.31                             117   -0.92 8  241 196 
 CHI  HZ I         952 16.07         2.6 0.47            119            241 196 
 URE  HZ EP        951 46.91                             112    0.66 7  287 293 
 URE  HN ES   4    952 16.27                             112   -2.13 0  287 293 
 URE  HZ I         952 18.22         4.0 0.16            115            287 293 
 PTGC HN ES        952 20.70                             111   -0.52 7  301 158 
 SJC  HZ EP   4    951 58.18                             105   -3.05 0  416 327 
 SJC  HN ES   4    952 40.33                             105   -4.75 0  416 327 
                                                                                
