 2014  829 0449 54.7 L   6.795 -73.089153.6  RSN 18 0.5 2.0LRSN                1
 GAP=144        1.09       3.0     4.8  6.2 -0.1198E+01  0.4854E+01  0.8877E+00E
 Epicentro: LOS SANTOS - SANTANDER                                             3
 ACTION:UPD 14-09-15 21:54 OP:nd   STATUS:               ID:20140829044954 L   I
 OLDACT:REG 14-08-29 13:23 OP:fm   STATUS:               ID:20140829044816     3
 2014-08-29-0448-16M.COL___269                                                 6
 STAT SP IPHASW D HRMM SECON CODA AMPLIT PERI AZIMU VELO AIN AR TRES W  DIS CAZ7
 BAR2 SZ EP        450 15.67                             170    0.4110 24.7 205 
 BAR2 SZ ES   1    450 31.58                             170    0.25 7 24.7 205 
 BAR2 SZ I         450 32.59        22.8 0.24            166           24.7 205 
 PAM  SZ EP   1    450 16.83                             153   -0.69 7 74.0  36 
 PAM  SN ES   1    450 34.48                             153   -0.88 7 74.0  36 
 PAM  SZ I         450 36.72        10.2 0.20            156           74.0  36 
 BRR  HZ EP     C  450 17.75                             152    0.7710 77.0 297 
 BRR  HN ES        450 34.95                             152    0.5510 77.0 297 
 BRR  HZ I         450 37.40        19.4 0.12            147           77.0 297 
 RUS  HZ EP        450 19.74                             145    0.6110 99.8 180 
 RUS  HN ES        450 37.94                             145   -0.2810 99.8 180 
 RUS  HZ I         450 39.70        14.3 0.26            146           99.8 180 
 PTB  HZ EP        450 22.34                             132   -0.47 9  154 260 
 PTB  HE ES        450 43.87                             132   -0.91 9  154 260 
 PTB  HZ I         450 44.98        14.3 0.16            129            154 260 
 OCA  HZ EP   1    450 23.46                             131   -0.26 7  162 351 
 OCA  HN ES        450 46.41                             131    0.02 9  162 351 
 OCA  HZ I         450 51.73         6.8 0.18            130            162 351 
 SPBC HZ EP        450 24.51                             130    0.41 9  167 221 
 SPBC HE ES        450 47.10                             130    0.03 9  167 221 
 SPBC HZ I         450 52.26        15.0 0.16            128            167 221 
 ZAR  HZ EP   1    450 28.21                             123   -0.03 6  210 292 
 ZAR  HN ES        450 54.89                             123    0.46 8  210 292 
 ZAR  HZ I         451  0.86        11.8 0.54            121            210 292 
 NOR  HZ EP   1    450 31.02                             119   -0.34 6  239 235 
 NOR  HN ES        450 59.81                             119   -0.18 8  239 235 
 NOR  HZ I         451  6.38        10.7 0.18            118            239 235 
 SML  HZ EP   1    450 32.63                             119    0.55 6  247 334 
 SML  HN ES        451  0.83                             119   -0.44 8  247 334 
 SML  HZ I         451  4.91        15.0 0.24            118            247 334 
 CHI  HZ EP   1    450 32.50                             119   -0.42 6  250 197 
 CHI  HN ES   1    451  2.63                             119   -0.14 6  250 197 
 CHI  HZ I         451  6.01         3.3 0.30            118            250 197 
 HEL  HZ I         451 14.86         4.8 0.56            114            278 256 
 GUY2CHZ EP   4    450 40.09                             113    0.91 0  306 236 
 GUY2CHN ES   4    451 14.88                             113    0.98 0  306 236 
 GUY2CHZ I         451 21.92         6.5 0.48                           306 236 
 CBOC HZ EP   4    450 43.52                             111    0.95 0  339 253 
 CBOC HN ES   4    451 15.36                             111   -4.58 0  339 253 
 CBOC HZ I         451 31.53         2.0 0.28            110            339 253 
 MON  HZ EP   4    450 42.76                             110   -1.82 0  359 308 
 MON  HN ES   4    451 20.74                             110   -2.78 0  359 308 
 MON  HZ I         451 36.08         1.3 0.20            109            359 308 
 PRA  HZ EP   1    450 49.13                             108    0.37 4  395 210 
 PRA  HN ES   4    451 29.04                             108   -1.93 0  395 210 
 PRA  HZ I         451 37.31         3.3 0.44            107            395 210 
 ORTC HZ EP   1    450 49.39                             107    0.16 4  399 217 
 ORTC HN ES   1    451 31.07                             107   -0.73 4  399 217 
 ORTC HZ I         451 35.85         1.9 0.22            107            399 217 
 SJC  HZ EP   1    450 50.04                             107   -0.90 4  413 326 
 SJC  HN ES   4    451 26.74                             107   -8.11 0  413 326 
 SJC  HZ I         451 36.03         1.6 0.36            106            413 326 
                                                                                
