 2013  529 0831  6.6 L   6.292 -73.687114.0  RSN  5 0.4 1.2LRSN                1
 GAP=115        1.03       5.3     3.9 10.0  0.8093E+00  0.1305E+02  0.2093E+02E
 Epicentro: SANTA HELENA DEL OPON - SANTANDER                                  3
 ACTION:UPD 13-06-20 09:54 OP:ep   STATUS:               ID:20130529083106 L   I
 2013-05-29-0830-00M.COL___260                                                 6
 STAT SP IPHASW D HRMM SECON CODA AMPLIT PERI AZIMU VELO AIN AR TRES W  DIS CAZ7
 BAR2 SZ EP        831 23.72                             148   -0.6010 64.9  59 
 BAR2 SZ ES        831 38.67                             148    0.5110 64.9  59 
 BAR2 SZ I         831 41.61         5.4 0.32            162           64.9  59 
 RUS  HZ EP        831 26.00                             143    0.2710 80.1 123 
 RUS  HN ES        831 40.49                             143   -0.1810 80.1 123 
 RUS  HZ I         831 46.00         1.8 0.34            153           80.1 123 
 PTB  HZ EP        831 26.09                             139    0.3110 89.4 288 
 PTB  HN ES        831 41.01                             139    0.2610 89.4 288 
 PTB  HZ I         831 52.62         3.1 0.46            145           89.4 288 
 BRR  HZ EP   4 D  831 23.80                             139   -2.01 0 90.1 358 
 BRR  HN ES        831 40.41                             139   -0.4110 90.1 358 
 BRR  HZ I         831 41.39         3.6 0.40            150           90.1 358 
 NOR  HZ EP        831 32.12                             122    0.30 9  154 238 
 NOR  HN ES        831 51.03                             122   -0.49 9  154 238 
 NOR  HZ I         831 55.33         5.1 0.44            129            154 238 
                                                                                
