 2012  529 0124  9.3 L   6.767 -73.199142.9  RSN  5 0.3 1.3LRSN                1
 GAP=131        0.62       6.7     4.6  9.4  0.5106E+01  0.7362E+01 -0.3220E+02E
 Epicentro: VILLANUEVA - SANTANDER                                             3
 ACTION:UP  12-07-05 12:08 OP:pat  STATUS:               ID:20120529012409 L   I
 2012-05-29-0120-00M.COL___201                                                 6
 STAT SP IPHASW D HRMM SECON CODA AMPLIT PERI AZIMU VELO AIN AR TRES W  DIS CAZ7
 BAR2 SZ ES   1    124 43.45                             172     0.0 7   19 175 
 PAM  SZ EP   1    124 31.41                             148    -0.2 7   84  41 
 RUS  HN ES   1    124 50.84                             144     0.2 7   98 172 
 RUS  HZ I         124 52.91         4.0 0.28                            98 172 
 PTB  HZ EP   1    124 35.48                             133     0.1 7  141 260 
 PTB  HN ES   1    124 55.36                             133    -0.4 7  141 260 
 PTB  HZ I         124 58.49         2.2 0.23                           141 260 
 ZAR  HE ES   1    125  6.37                             122     0.4 6  200 294 
                                                                                
