 2017  629 0111  8.8 L   6.699 -73.170150.4  RSN  5 0.4 1.4LRSN                1
 GAP=240        0.84       6.0     7.1  7.6 -0.6250E+01  0.1675E+02 -0.2245E+01E
 Epicentro: VILLANUEVA - SANTANDER                                             3
 ACTION:UPD 17-09-14 16:56 OP:jn   STATUS:               ID:20170629011108 L   I
 OLDACT:REG 17-06-29 12:34 OP:and  STATUS:               ID:20170629010737     3
 2017-06-29-0108-00M.COL___370                                                 6
 STAT SP IPHASW D HRMM SECON CODA AMPLIT PERI AZIMU VELO AIN AR TRES W  DIS CAZ7
 BAR2 EZ EP   2    111 28.57                             176   -0.27 5 11.9 187 
 BAR2 EZ ES        111 44.26                             176   -0.1910 11.9 187 
 BAR2 EZ I         111 45.10         8.9 0.38            167           11.9 187 
 BRR  HZ EP        111 30.81                             152    0.1310 75.0 307 
 BRR  HN ES        111 48.02                             152    0.2810 75.0 307 
 PTB  HZ EP        111 36.38                             134    0.60 9  143 263 
 PTB  HN ES        111 56.73                             134   -0.08 9  143 263 
 PTB  HZ I         112  3.95         1.4 0.46            130            143 263 
 SPBC HN ES        111 58.16                             132   -0.35 9  153 221 
 SPBC HZ I         112  3.29         3.8 0.05            129            153 221 
 ZAR  HZ EP   2    111 40.88                             123   -0.90 4  206 295 
 ZAR  HN ES   2    112  6.63                             123   -0.85 4  206 295 
 ZAR  HZ I         112 13.24         3.0 0.30            121            206 295 
                                                                                
