 2014  829 0958 23.4 L   6.781 -73.125154.0  RSN 15 0.3 1.9LRSN                1
 GAP=159        0.75       2.7     3.4  4.4 -0.2810E+01  0.2296E+01  0.2084E+01E
 Epicentro: LOS SANTOS - SANTANDER                                             3
 ACTION:UPD 14-09-15 21:54 OP:nd   STATUS:               ID:20140829095823 L   I
 OLDACT:UP  14-08-29 17:38 OP:spq  STATUS:               ID:20140829094817     3
 OLDACT:REG 14-08-29 13:50 OP:fm   STATUS:               ID:20140829094817     3
 2014-08-29-0948-17M.COL___275                                                 6
 STAT SP IPHASW D HRMM SECON CODA AMPLIT PERI AZIMU VELO AIN AR TRES W  DIS CAZ7
 BAR2 SZ EP        958 43.89                             172   -0.0910 21.8 197 
 BAR2 SZ ES   1    958 59.67                             172   -0.37 7 21.8 197 
 BAR2 SZ I         959  0.58        15.0 0.24            168           21.8 197 
 BRR  HZ IP     C  958 45.77                             153    0.1710 74.3 299 
 BRR  HE ES        959  3.42                             153    0.4910 74.3 299 
 BRR  HZ I         959  6.90         9.0 0.12            152           74.3 299 
 PAM  SZ EP        958 46.62                             152    0.1210 77.6  37 
 PAM  SN ES        959  4.30                             152   -0.2310 77.6  37 
 PAM  SZ I         959  6.02         9.7 0.58            157           77.6  37 
 PTB  HZ EP        958 50.50                             133   -0.71 9  150 260 
 PTB  HE ES        959 12.77                             133   -0.13 9  150 260 
 PTB  HZ I         959 13.13         9.0 0.20            133            150 260 
 OCA  HN ES        959 15.60                             131    0.26 9  163 352 
 OCA  HZ I         959 18.89        12.1 0.44            133            163 352 
 SPBC HZ EP        958 52.37                             131   -0.15 9  163 220 
 SPBC HE ES        959 15.37                             131    0.13 9  163 220 
 SPBC HZ I         959 22.18        12.1 0.18            130            163 220 
 ZAR  HZ EP        958 56.53                             124   -0.15 8  207 292 
 ZAR  HE ES        959 22.54                             124   -0.11 8  207 292 
 ZAR  HZ I         959 27.71         6.2 0.23            124            207 292 
 NOR  HZ EP        959  0.43                             120    0.75 8  235 235 
 NOR  HN ES        959 27.95                             120   -0.04 8  235 235 
 NOR  HZ I         959 33.33         6.9 0.34            120            235 235 
 SML  HZ EP        959  0.80                             119   -0.00 8  247 335 
 SML  HE ES   1    959 29.75                             119   -0.23 6  247 335 
 SML  HZ I         959 32.06        12.1 0.24            120            247 335 
 CHI  HZ EP   1    959  1.77                             119    0.37 6  247 196 
 CHI  HN ES   4    959 32.44                             119    1.39 0  247 196 
 CHI  HZ I         959 37.01         1.8 0.26            119            247 196 
 HEL  HZ EP   1    959  3.88                             116   -0.34 6  274 256 
 HEL  HN ES   4    959 39.26                             116    3.19 0  274 256 
 HEL  HZ I         959 44.33         6.2 0.58            116            274 256 
 URE  HZ EP   4    959  4.10                             115   -1.10 0  287 292 
 GUY2CHN ES   4    959 45.21                             114    3.36 0  302 235 
 GUY2CHZ I         959 50.65         5.1 0.42                           302 235 
 MON  HZ EP   4    959 10.47                             110   -2.61 0  357 308 
 MON  HE ES   4    959 50.21                             110   -1.63 0  357 308 
 MON  HZ I         959 51.43         1.7 0.20            111            357 308 
 PRA  HZ EP        959 17.28                             108    0.16 6  391 210 
 PRA  HN ES   4   10 0  0.79                             108    1.75 0  391 210 
 PRA  HZ I        10 0  8.09         1.9 0.44            108            391 210 
 SJC  HN ES   4    959 59.34                             107   -4.08 0  412 327 
 SJC  HZ I        10 0  3.59         2.1 0.56            108            412 327 
                                                                                
