 2012  929 0803  7.6 L   6.767 -73.135151.9  RSN  5 0.4 1.7LRSN                1
 GAP=139        0.85       6.8     6.6 11.7 -0.3237E+00  0.8455E+01  0.7602E+01E
 Epicentro: LOS SANTOS - SANTANDER                                             3
 ACTION:UPD 12-10-22 14:21 OP:ep   STATUS:               ID:20120929080307 L   I
 2012-09-29-0800-00M.COL___220                                                 6
 STAT SP IPHASW D HRMM SECON CODA AMPLIT PERI AZIMU VELO AIN AR TRES W  DIS CAZ7
 BAR2 SZ EP   1    8 3 27.84                             172   -0.07 7 20.0 195 
 BAR2 SZ I         8 3 44.03        10.4 0.36                          20.0 195 
 BRR  HZ EP        8 3 29.79                             153    0.2210 74.0 301 
 BRR  HN ES        8 3 47.08                             153    0.3710 74.0 301 
 BRR  HN I         8 3 49.69        17.9 0.18                          74.0 301 
 PAM  SN ES   1    8 3 48.06                             151   -0.48 7 79.5  37 
 PAM  SZ I         8 3 49.89         4.7 0.34                          79.5  37 
 RUS  HN ES   1    8 3 50.67                             146    0.16 7 96.9 177 
 PTB  HN ES   1    8 3 55.83                             133   -0.75 7  148 260 
 PTB  HN I         8 4  1.62         5.1 0.22                           148 260 
                                                                                
