 2011  529 0540 42.1 L   6.762 -73.155156.6  RSN  6 0.4 1.4LRSN                1
 GAP=158        0.95       6.1    12.9 11.9  0.4903E+01 -0.4055E+02 -0.1386E+02E
 Epicentro: LOS SANTOS - SANTANDER                                             3
 ACTION:UP  11-06-29 08:57 OP:tino STATUS:               ID:20110529054042 L   I
 2011-05-29-0539-34S.COL___113                                                 6
 STAT SP IPHASW D HRMM SECON CODA AMPLIT PERI AZIMU VELO SNR AR TRES W  DIS CAZ7
 BAR2 SZ EP   1    541  3.68                             173     0.7 7   19 189 
 BAR2 SZ I         541 19.29         7.7 0.24                            19 189 
 BRR  HZ EP   1    541  4.49                             154     0.0 7   72 302 
 BRR  HN ES   1    541 22.08                             154     0.1 7   72 302 
 BRR  HZ I         541 22.49         6.6 0.13                            72 302 
 RUS  HZ EP   1    541  7.12                             147     0.4 7   96 175 
 RUS  HZ I         541  7.94         3.2 0.17                            96 175 
 RUS  HN ES   1    541 25.31                             147    -0.5 7   96 175 
 GRA  SZ EP   1    541  8.39                             138    -0.3 7  130  17 
 GRA  SZ I         541  9.78         2.4 0.35                           130  17 
 OCA  SZ EP   1    541 11.32                             131    -0.3 7  164 354 
 PRA  HN ES   1    542 16.82                             108    -0.4 4  388 210 
                                                                                
