 2010  729 0039 32.0 L   6.798 -73.045140.3  RSN 11 0.5 2.4LRSN                1
 GAP=170        1.27       5.2    10.3  9.2 -0.1823E+02  0.7269E+01  0.2477E+01E
 Epicentro: LOS SANTOS - SANTANDER                                             3
 ACTION:UPD 10-12-01 15:20 OP:pat  STATUS:               ID:20100729003932 L   I
 2010-07-29-0037-22S.COL___123                                                 6
 STAT SP IPHASW D HRMM SECON CODA AMPLIT PERI AZIMU VELO AIN AR TRES W  DIS CAZ7
 BAR2 SZ IP        039 50.92                             169    -0.110   27 214 
 BAR2 SZ ES   1    040  5.54                             169    -0.4 7   27 214 
 BAR2 SZ I         040  7.42        39.8 0.30                            27 214 
 BRR  HZ IP     C  039 52.68                             148    -0.510   81 295 
 BRR  HE ES   1    040  9.73                             148     0.0 7   81 295 
 BRR  HZ I         040 11.68        51.0 0.24                            81 295 
 RUS  HZ EP   1    039 55.02                             143    -0.1 7  100 182 
 RUS  HE ES   1    040 13.56                             143     0.3 7  100 182 
 RUS  HZ I         040 15.73        29.6 0.35                           100 182 
 GUE  SZ IP        039 55.78                             138    -0.310  115   7 
 GRA  SZ IP        039 57.50                             136     1.010  123  12 
 GRA  SZ ES   1    040 16.08                             136     0.4 7  123  12 
 GRA  SZ I         040 18.28        44.0 0.16                           123  12 
 OCA  SZ EP   1    039 59.52                             128    -0.5 7  162 349 
 OCA  SZ ES   1    040 21.66                             128    -0.3 7  162 349 
 OCA  SZ I         040 25.30        43.0 0.20                           162 349 
 CHI  HZ EP   1    040  9.29                             115    -0.4 6  252 198 
 CHI  HZ I         040 45.31        10.3 0.12                           252 198 
 ROSC BZ EP   1    040 11.11                             115     0.7 6  258 213 
 ROSC BZ I         040 47.88        18.6 0.52                           258 213 
 HEL  HZ EP   1    040 13.47                             113     0.3 6  283 256 
 HEL  HZ I         040 50.79        14.0 0.51                           283 256 
 RREF HN ES   1    040 56.17                             109     0.8 5  330 231 
 RREF HZ I         041  3.58        13.9 0.44                           330 231 
 PRA  HZ EP   1    040 25.16                             105    -0.8 4  397 211 
 PRA  HZ I         041 12.12        12.2 0.78                           397 211 
                                                                                
