 2015 1129 0527 46.6 L   6.806 -73.159148.0  RSN  7 0.3 1.4LRSN                1
 GAP=135        0.88       3.6     3.9  5.8  0.1716E+01  0.4274E+01 -0.4255E+01E
 Epicentro: LOS SANTOS - SANTANDER                                             3
 ACTION:UPD 15-12-28 16:14 OP:cam  STATUS:               ID:20151129052746 L   I
 OLDACT:UP  15-11-29 16:57 OP:ak   STATUS:               ID:20151129051751d    3
 OLDACT:UP  15-11-29 16:56 OP:ak   STATUS:               ID:20151129051751d    3
 OLDACT:DUP 15-11-29 16:53 OP:ak   STATUS:               ID:20151129051751d    3
 OLDACT:REG 15-11-29 12:39 OP:ak   STATUS:               ID:20151129051750     3
 2015-11-29-0517-50M.COL___307                                                 6
 STAT SP IPHASW D HRMM SECON CODA AMPLIT PERI AZIMU VELO AIN AR TRES W  DIS CAZ7
 BAR2 EZ EP        528  5.66                             170   -0.8010 23.8 186 
 BAR2 EZ ES        528 21.60                             170   -0.3910 23.8 186 
 BAR2 EZ I         528 22.75         7.2 0.34            170           23.8 186 
 BRR  HZ EP        528  8.25                             153    0.3910 69.6 299 
 BRR  HN ES        528 24.67                             153    0.1910 69.6 299 
 BRR  HZ I         528 27.18         3.6 0.15            151           69.6 299 
 PAM  EZ EP        528  9.47                             151    0.4410 77.8  41 
 PAM  EN ES        528 26.62                             151    0.0610 77.8  41 
 PAM  EZ I         528 28.71         5.8 0.52            154           77.8  41 
 RUS  HZ EP        528 10.63                             144    0.0510  101 175 
 RUS  HN ES        528 29.63                             144    0.3110  101 175 
 RUS  HZ I         528 30.29         1.3 0.26            147            101 175 
 PTB  HZ EP        528 13.69                             133    0.10 9  146 258 
 PTB  HN ES        528 34.50                             133   -0.18 9  146 258 
 PTB  HZ I         528 41.40         2.0 0.18            132            146 258 
 ZAR  HZ EP   2    528 19.02                             123    0.03 4  202 292 
 ZAR  HE ES        528 44.49                             123    0.21 9  202 292 
 ZAR  HZ I         528 51.29         2.8 0.34            123            202 292 
 SML  HZ EP        528 22.80                             118   -0.38 8  243 336 
 SML  HN ES        528 51.59                             118   -0.16 8  243 336 
 SML  HZ I         528 54.60         5.1 0.10            119            243 336 
                                                                                
