 2012  729 0612 52.9 L   6.737 -73.173149.6  RSN  4 0.2 1.3LRSN                1
 GAP=229        0.49       6.0     6.1  5.0  0.2144E+02  0.6749E+01  0.6417E+01E
 Epicentro: VILLANUEVA - SANTANDER                                             3
 ACTION:UPD 12-08-14 11:46 OP:ep   STATUS:               ID:20120729061252 L   I
 2012-07-29-0610-00M.COL___215                                                 6
 STAT SP IPHASW D HRMM SECON CODA AMPLIT PERI AZIMU VELO AIN AR TRES W  DIS CAZ7
 BAR2 SZ EP   2    613 12.74                             174    -0.1 5   16 184 
 BAR2 SZ ES   1    613 28.14                             174    -0.3 7   16 184 
 BAR2 SZ I         613 29.05         8.3 0.38            166             16 184 
 BRR  HZ IP     C  613 14.68                             153     0.210   72 305 
 BRR  HZ I         613 14.79         6.2 0.16            150             72 305 
 BRR  HN ES   1    613 31.46                             153     0.1 7   72 305 
 RUS  HZ EP        613 16.55                             146     0.010   94 174 
 RUS  HN ES   2    613 35.47                             146     0.4 5   94 174 
 RUS  HZ I         613 36.60         1.7 0.28            144             94 174 
 PTB  HZ EP        613 19.71                             134    -0.1 9  144 261 
 PTB  HN ES   2    613 40.72                             134    -0.1 5  144 261 
 PTB  HZ I         613 45.23         1.3 0.26            131            144 261 
