 2014 1129 0856 26.7 L   6.792 -73.148147.8  RSN 13 0.5 1.8LRSN                1
 GAP=137        1.29       3.9     4.7  6.7 -0.2162E+01  0.1131E+02  0.5335E+01E
 Epicentro: LOS SANTOS - SANTANDER                                             3
 ACTION:UPD 14-12-19 15:48 OP:nd   STATUS:               ID:20141129085626 L   I
 OLDACT:REG 14-11-29 13:18 OP:fm   STATUS:               ID:20141129084743     3
 2014-11-29-0847-43M.COL___306                                                 6
 STAT SP IPHASW D HRMM SECON CODA AMPLIT PERI AZIMU VELO AIN AR TRES W  DIS CAZ7
 BAR2 SZ EP        856 46.94                             171    0.3910 22.4 190 
 BAR2 SZ ES        857  1.79                             171   -0.2510 22.4 190 
 BAR2 SZ I         857  3.12        16.0 0.14            169           22.4 190 
 BRR  HZ EP        856 48.77                             153    0.6910 71.4 299 
 BRR  HN ES        857  5.67                             153    0.9110 71.4 299 
 BRR  HZ I         857  9.80        10.5 0.14            150           71.4 299 
 PAM  SZ EP        856 49.69                             151    0.5110 78.3  39 
 PAM  SN ES        857  6.48                             151   -0.2410 78.3  39 
 PAM  SZ I         857  9.63         7.6 0.20            155           78.3  39 
 RUS  HZ EP        856 49.70                             144   -0.8910 99.7 176 
 RUS  HN ES        857  9.62                             144    0.4010 99.7 176 
 RUS  HZ I         857 11.09         7.0 0.32            147           99.7 176 
 PTB  HZ EP        856 53.10                             133   -0.70 9  147 259 
 PTB  HE ES        857 14.66                             133   -0.27 9  147 259 
 PTB  HZ I         857 16.19         9.0 0.10            132            147 259 
 OCA  HE ES        857 16.85                             130   -0.67 9  161 353 
 OCA  HZ I         857 22.78         7.7 0.40            131            161 353 
 SPBC HZ EP        856 55.70                             130    0.43 9  162 219 
 SPBC HE ES        857 16.59                             130   -0.97 9  162 219 
 SPBC HZ I         857 23.61        12.4 0.22            130            162 219 
 ZAR  HZ EP        856 58.67                             123   -0.62 9  204 292 
 ZAR  HN ES        857 24.68                             123   -0.03 9  204 292 
 ZAR  HZ I         857 33.46         7.6 0.34            123            204 292 
 CHI  HZ EP        857  5.01                             118    0.60 8  248 195 
 CHI  HN ES        857 33.39                             118   -0.43 8  248 195 
 CHI  HZ I         857 38.35         2.1 0.32            119            248 195 
 HEL  HZ EP        857  6.82                             115   -0.15 8  272 256 
 HEL  HN ES        857 38.44                             115    0.07 8  272 256 
 HEL  HZ I         857 45.72         4.2 0.44            116            272 256 
 GUY2CHZ EP        857 10.41                             113    0.09 7  300 235 
 GUY2CHN ES        857 44.98                             113    0.64 7  300 235 
 GUY2CHZ I         857 53.42         5.5 0.36                           300 235 
 CBOC HZ EP        857 13.97                             110    0.33 7  333 252 
 CBOC HE ES        857 50.26                             110    0.01 7  333 252 
 CBOC HZ I         858  0.53         1.5 0.40            111            333 252 
 TOL  SZ EP        857 15.00                             110    0.06 7  343 225 
 TOL  SN ES        857 52.98                             110    0.41 7  343 225 
 TOL  SZ I         858  3.74         6.3 0.40            111            343 225 
                                                                                
