 2017  129 0244  8.4 L   6.742 -73.127145.0  RSN  6 0.3 1.3LRSN                1
 GAP=141        0.73       5.0     3.3  5.7 -0.5103E+00  0.2688E+01  0.6423E+01E
 Epicentro: LOS SANTOS - SANTANDER                                             3
 ACTION:UPD 17-05-22 16:04 OP:jn   STATUS:               ID:20170129024408 L   I
 OLDACT:REG 17-01-29 13:06 OP:lv   STATUS:               ID:20170129023744     3
 2017-01-29-0238-00M.COL___342                                                 6
 STAT SP IPHASW D HRMM SECON CODA AMPLIT PERI AZIMU VELO AIN AR TRES W  DIS CAZ7
 BAR2 EZ EP        244 27.78                             173   -0.0910 17.7 200 
 BAR2 EZ ES        244 42.74                             173   -0.2910 17.7 200 
 BAR2 EZ I         244 43.94         3.4 0.12            173           17.7 200 
 BRR  HZ EP        244 29.91                             151    0.1210 76.2 302 
 BRR  HE ES        244 47.06                             151    0.6110 76.2 302 
 BRR  HZ I         244 50.05         4.5 0.13            150           76.2 302 
 PAM  EZ EP        244 30.83                             149    0.0310 81.2  36 
 PAM  EN ES        244 48.10                             149   -0.1510 81.2  36 
 PAM  EZ I         244 50.38         5.9 0.23            151           81.2  36 
 RUS  HZ EP        244 31.79                             145    0.1410 94.1 177 
 RUS  HN ES   4    244 50.48                             145    0.72 0 94.1 177 
 RUS  HZ I         244 51.23         3.1 0.31            148           94.1 177 
 PTB  HZ EP        244 35.46                             132    0.04 9  149 261 
 PTB  HN ES        244 56.41                             132   -0.06 9  149 261 
 PTB  HZ I         244 58.19         2.3 0.12            133            149 261 
 ZAR  HN ES        245  6.40                             122   -0.50 8  208 294 
 ZAR  HZ I         245 10.59         2.3 0.10            123            208 294 
 CHI  HN ES   4    245 11.71                             118   -2.67 0  243 196 
                                                                                
