 2010  629 0227  6.4 L   6.776 -73.092141.0  RSN 13 0.5 2.6LRSN                1
 GAP=130        1.19       3.8     7.9  7.4 -0.1159E+02  0.6758E+01 -0.1203E+00E
 Epicentro: LOS SANTOS - SANTANDER                                             3
 ACTION:UP  10-08-24 10:13 OP:vdl  STATUS:               ID:20100629022706 L   I
 2010-06-29-0225-32S.COL___118                                                 6
 STAT SP IPHASW D HRMM SECON CODA AMPLIT PERI AZIMU VELO SNR AR TRES W  DIS CAZ7
 BAR2 SZ IP        227 25.32                             170    -0.110   23 207 
 BAR2 SZ ES   1    227 39.67                             170    -0.6 7   23 207 
 BRR  HZ IP     C  227 27.16                             149    -0.210   78 298 
 BRR  HZ I         227 27.42       117.6 0.25                            78 298 
 BRR  HN ES   1    227 44.02                             149     0.2 7   78 298 
 RUS  HZ EP   1    227 29.24                             144    -0.2 7   98 179 
 RUS  HN ES        227 47.48                             144     0.010   98 179 
 RUS  HZ I         227 49.46        57.2 0.41                            98 179 
 BRI  SZ EP        227 29.99                             140     0.110  109  17 
 BRI  SZ ES   1    227 48.55                             140     0.4 7  109  17 
 GUE  SZ EP        227 30.31                             138    -0.510  118   9 
 GUE  SZ ES   1    227 49.19                             138    -0.6 7  118   9 
 GRA  SZ EP        227 32.25                             136     1.010  127  15 
 GRA  SZ ES   1    227 51.59                             136     0.9 7  127  15 
 OCA  SZ EP        227 33.91                             128    -0.7 9  164 351 
 OCA  SZ ES        227 56.77                             128     0.1 9  164 351 
 OCA  SZ I         227 59.29       103.0 0.32                           164 351 
 CHI  HZ EP   2    227 43.73                             116     0.0 4  248 197 
 CHI  HN ES   2    228 12.80                             116     0.0 4  248 197 
 CHI  HZ I         228 16.47        14.5 0.41                           248 197 
 ROSC BZ EP   1    227 45.12                             115     0.8 6  254 213 
 ROSC BN ES   2    228 14.71                             115     0.8 4  254 213 
 ROSC BZ I         228 23.09        17.0 0.38                           254 213 
 HEL  HZ EP   1    227 47.76                             113     0.8 6  277 257 
 HEL  HE ES   2    228 18.01                             113    -0.5 4  277 257 
 HEL  HZ I         228 24.11        19.8 0.45                           277 257 
 DBB  SZ EP   2    227 53.59                             108    -0.8 3  346 275 
 SDV  BZ EP   1    227 55.00                             107    -0.9 5  358  49 
 SDV  BZ I         228 36.78        17.1 0.52                           358  49 
 PRA  HZ EP   1    227 59.79                             106     0.0 4  393 211 
 PRA  HN ES   2    228 41.36                             106    -0.1 3  393 211 
 PRA  HZ I         228 48.32        20.1 0.61                           393 211 
                                                                                
