 2014 1129 0018 19.6 L   7.446 -73.280125.4  RSN  9 0.4 1.8LRSN                1
 GAP=103        1.07       4.5     4.1  7.2 -0.1067E+01  0.1235E+02 -0.7384E+01E
 Epicentro: EL PLAYON - SANTANDER                                              3
 ACTION:UPD 14-12-19 15:48 OP:nd   STATUS:               ID:20141129001819 L   I
 OLDACT:DUP 14-11-29 13:42 OP:fm   STATUS:               ID:20141129000747d    3
 2014-11-29-0007-46M.COL___303                                                 6
 STAT SP IPHASW D HRMM SECON CODA AMPLIT PERI AZIMU VELO AIN AR TRES W  DIS CAZ7
 BRR  HZ EP        018 38.53                             152    0.5710 60.6 232 
 BRR  HN ES        018 52.17                             152   -0.1110 60.6 232 
 BRR  HZ I         018 52.92        40.6 0.14            155           60.6 232 
 PAM  SZ EP        018 39.11                             151    0.1810 65.1 100 
 PAM  SN ES        018 54.50                             151    0.5010 65.1 100 
 PAM  SZ I         018 56.88         7.1 0.28            148           65.1 100 
 OCA  HZ EP        018 39.00                             143   -0.9710 87.8 357 
 OCA  HZ I         019  4.66         7.8 0.20            131           87.8 357 
 BAR2 SZ IP     D  018 41.01                             140    0.3810 95.0 173 
 BAR2 SZ ES        018 56.43                             140   -0.5910 95.0 173 
 BAR2 SZ I         018 57.56        34.8 0.34            147           95.0 173 
 PTB  HZ EP        018 46.76                             124    0.13 9  164 232 
 PTB  HN ES        019  7.43                             124   -0.28 9  164 232 
 PTB  HZ I         019 11.94         7.0 0.14            123            164 232 
 ZAR  HZ EP        018 47.72                             122    0.06 9  174 272 
 ZAR  HE ES        019  9.75                             122    0.21 9  174 272 
 ZAR  HZ I         019 15.10        13.9 0.20            118            174 272 
 SPBC HZ EP   1    018 51.55                             116   -0.77 6  217 204 
 NOR  HZ EP        018 58.57                             110    0.05 8  272 220 
 NOR  HN ES        019 29.10                             110    0.24 8  272 220 
 NOR  HZ I         019 34.74         3.1 0.44            109            272 220 
 MON  HZ EP        019  1.72                             108   -0.06 7  301 299 
 MON  HN ES        019 34.88                             108    0.21 7  301 299 
 MON  HZ I         019 49.18         2.9 0.84            104            301 299 
                                                                                
