 2014 1229 0220 53.5 L   6.808 -73.161142.4  RSN 21 0.5 2.0LRSN                1
 GAP= 64        1.72       4.0     4.3  7.5 -0.1277E+01  0.6803E+01  0.5348E+01E
 Epicentro: LOS SANTOS - SANTANDER                                             3
 ACTION:UPD 15-02-10 17:07 OP:nd   STATUS:               ID:20141229022053 L   I
 OLDACT:ARG 14-12-29 12:30 OP:stll STATUS:               ID:20141229021750     3
 2014-12-29-0217-50M.COL___259                                                 6
 STAT SP IPHASW D HRMM SECON CODA AMPLIT PERI AZIMU VELO AIN AR TRES W  DIS CAZ7
 BAR2 EZ EP        221 12.92                             170    0.2110 24.0 186 
 BAR2 EZ I         221 13.37        38.6 0.14            169           24.0 186 
 BAR2 EZ ES        221 27.74                             170    0.0210 24.0 186 
 BRR  HZ IP     C  221 14.77                             153    0.6210 69.3 299 
 BRR  HZ I         221 14.89        32.6 0.28            149           69.3 299 
 BRR  HN ES        221 31.39                             153    1.1110 69.3 299 
 PAM  SZ EP        221 15.78                             150    0.4310 77.8  41 
 PAM  SN ES        221 32.49                             150    0.0710 77.8  41 
 PAM  SZ I         221 33.30        23.5 0.18            152           77.8  41 
 RUS  HZ IP     C  221 17.00                             142    0.0310  102 175 
 RUS  HZ I         221 17.63        12.4 0.32            144            102 175 
 RUS  HE ES        221 34.99                             142   -0.3110  102 175 
 PTB  HZ EP        221 19.79                             131   -0.25 9  146 258 
 PTB  HN ES        221 40.50                             131   -0.26 9  146 258 
 PTB  HZ I         221 46.02        17.5 0.60            129            146 258 
 TAM  HZ EP        221 21.36                             129    0.30 9  157 105 
 TAM  HN ES        221 41.90                             129   -0.67 9  157 105 
 TAM  HZ I         221 43.48         9.3 0.58            132            157 105 
 OCA  HZ EP        221 21.35                             129   -0.07 9  159 354 
 OCA  HN ES        221 42.33                             129   -0.89 9  159 354 
 OCA  HZ I         221 47.37        11.6 0.22            128            159 354 
 SPBC HZ EP        221 22.15                             128    0.47 9  163 218 
 SPBC HE ES        221 43.64                             128   -0.05 9  163 218 
 SPBC HZ I         221 47.28        19.0 0.14            127            163 218 
 ZAR  HZ EP        221 25.12                             122   -0.39 9  202 292 
 ZAR  HE ES        221 50.75                             122    0.26 9  202 292 
 ZAR  HZ I         221 56.75        21.0 0.58            120            202 292 
 NOR  HZ EP        221 29.40                             118    0.48 8  234 234 
 NOR  HN ES        221 56.55                             118   -0.02 8  234 234 
 NOR  HZ I         222  4.32         9.5 0.14            117            234 234 
 SML  HZ EP        221 29.45                             117   -0.30 8  242 336 
 SML  HN ES        221 57.65                             117   -0.39 8  242 336 
 SML  HZ I         222  9.25        14.4 0.26            116            242 336 
 CHI  HZ EP        221 31.34                             116    0.30 8  249 195 
 CHI  HN ES        221 59.62                             116   -0.71 8  249 195 
 CHI  HZ I         222  5.74         4.5 0.22            116            249 195 
 HEL  HZ EP        221 33.58                             114    0.22 8  271 256 
 HEL  HN ES        222  3.95                             114   -0.53 8  271 256 
 HEL  HZ I         222 11.08         8.2 0.30            113            271 256 
 URE  HZ EP   9    221 33.01                             113   -1.16 0  282 292 
 URE  HN ES        222  4.15                                   -0.60 7  282 292 
 PTGC HZ EP        221 36.15                             111   -1.19 7  310 158 
 CBOC HZ EP        221 40.86                             109    0.76 7  332 252 
 CBOC HN ES        222 16.56                             109    0.09 7  332 252 
 CBOC HZ I         222 28.08         2.4 0.42            109            332 252 
 TOL  SZ EP        221 42.39                             109    0.85 7  343 224 
 TOL  SN ES        222 18.88                             109   -0.14 7  343 224 
 MON  HZ EP   9    221 40.41                             108   -1.72 0  352 308 
 MON  HN ES        222 15.00                                   -3.36 6  352 308 
 MON  HZ I         222 21.99         1.5 0.26            108            352 308 
 ANIL HE ES        222 21.31                             108   -0.48 6  357 224 
 ANIL HZ I         222 29.19         1.9 0.30            108            357 224 
 ORTC HZ EP        221 47.38                             106    0.13 6  395 216 
 ORTC HE ES        222 28.49                             106   -0.71 6  395 216 
 ORTC HZ I         222 35.52         3.8 0.38            106            395 216 
 SJC  HZ EP   9    221 47.37                             105   -1.36 0  408 327 
 SJC  HN ES        222 27.06                                   -3.41 6  408 327 
 SJC  HZ I         222 36.73         2.0 0.56            105            408 327 
                                                                                
