 2012  629 0111 56.9 L   6.708 -73.150143.0  RSN  6 0.4 1.6LRSN                1
 GAP=140        0.87       5.7     5.1  8.4  0.2389E+01  0.8659E+01 -0.3508E+00E
 Epicentro: VILLANUEVA - SANTANDER                                             3
 ACTION:UPD 12-08-06 17:53 OP:ep   STATUS:               ID:20120629011156 L   I
 2012-06-29-0110-00M.COL___201                                                 6
 STAT SP IPHASW D HRMM SECON CODA AMPLIT PERI AZIMU VELO AIN AR TRES W  DIS CAZ7
 BAR2 SZ EP   1    112 16.27                             174    0.20 7 13.3 196 
 BAR2 SZ ES   1    112 30.42                             174   -0.57 7 13.3 196 
 BAR2 SZ I         112 32.43        10.9 0.28                          13.3 196 
 BRR  HZ EP   1    112 18.23                             150    0.15 7 76.2 305 
 BRR  HN ES   1    112 35.34                             150    0.77 7 76.2 305 
 BRR  HZ I         112 36.80        14.2 0.16                          76.2 305 
 PAM  SZ EP   1    112 19.31                             148   -0.07 7 85.8  35 
 PAM  SZ I         112 19.62         7.5 0.18                          85.8  35 
 PAM  SE ES   1    112 36.57                             148   -0.32 7 85.8  35 
 RUS  HZ EP   1    112 19.92                             146    0.22 7 90.4 175 
 RUS  HN ES   1    112 37.88                             146    0.42 7 90.4 175 
 RUS  HZ I         112 39.94         5.3 0.22                          90.4 175 
 PTB  HZ EP   1    112 22.95                             132   -0.53 7  146 263 
 PTB  HN ES   1    112 43.57                             132   -0.62 7  146 263 
 PTB  HZ I         112 47.98         3.5 0.29                           146 263 
 ZAR  HE ES   1    112 55.34                             121    0.30 6  208 295 
                                                                                
