 2011 1229 0929 12.1 L   7.115 -73.385115.2  RSN  8 0.3 2.2LRSN                1
 GAP= 79        0.69       3.7     3.8  6.2  0.1286E+01  0.4089E+01 -0.9765E+00E
 Epicentro: LEBRIJA - SANTANDER                                                3
 ACTION:UPD 12-07-13 16:19 OP:ep   STATUS:               ID:20111229092912 L   I
 2011-12-29-0928-59S.COL___189                                                 6
 STAT SP IPHASW D HRMM SECON CODA AMPLIT PERI AZIMU VELO AIN AR TRES W  DIS CAZ7
 GIR2 SZ EP   1    929 27.90                             169    0.05 7 21.5 101 
 BRR  HZ IP     C  929 27.98                             161   -0.1210 36.2 269 
 BRR  HE ES   1    929 40.48                             161   -0.13 7 36.2 269 
 BRR  HZ I         929 42.00        51.3 0.14                          36.2 269 
 BAR2 SZ EP   1    929 30.13                             150    0.37 7 62.0 159 
 BAR2 SZ ES   1    929 43.63                             150    0.07 7 62.0 159 
 BAR2 SZ I         929 44.80        42.7 0.34                          62.0 159 
 PAM  SZ EP   1    929 31.53                             143    0.23 7 79.6  72 
 PAM  SE ES   2    929 46.35                             143    0.04 5 79.6  72 
 OCA  SZ EP   1    929 34.70                             129    0.06 7  124   3 
 OCA  SZ ES   1    929 51.91                             129   -0.34 7  124   3 
 OCA  SZ I         929 53.30        19.7 0.15                           124   3 
 PTB  HZ EP   1    929 34.54                             127   -0.88 7  134 242 
 RUS  HZ EP   1    929 36.51                             126   -0.01 7  139 166 
 ZAR  HZ EP   1    929 39.05                             120    0.23 7  168 284 
 ZAR  HE ES   1    930  0.30                             120    0.62 7  168 284 
 ZAR  HZ I         930  2.46        17.1 0.10                           168 284 
                                                                                
