 2013  929 0358 33.1 L   6.783 -73.158144.9  RSN  7 0.4 1.6LRSN                1
 GAP=136        1.01       4.6     5.0  6.4 -0.5192E+01  0.3026E+01  0.6244E+01E
 Epicentro: LOS SANTOS - SANTANDER                                             3
 ACTION:UPD 13-10-22 09:25 OP:ep   STATUS:               ID:20130929035833 L   I
 OLDACT:DUP 13-09-29 12:03 OP:stll STATUS:               ID:20130929034838d    3
 2013-09-29-0348-37M.COL___241                                                 6
 STAT SP IPHASW D HRMM SECON CODA AMPLIT PERI AZIMU VELO AIN AR TRES W  DIS CAZ7
 BAR2 SZ EP        358 52.69                             171    0.0810 21.3 187 
 BAR2 SZ ES        359  7.39                             171   -0.4210 21.3 187 
 BAR2 SZ I         359  9.25        11.3 0.12            170           21.3 187 
 BRR  HZ EP        358 54.47                             152    0.3010 71.0 300 
 BRR  HN ES        359 11.37                             152    0.7910 71.0 300 
 BRR  HZ I         359 12.20         5.1 0.12            154           71.0 300 
 PAM  SZ EP        358 55.58                             150    0.1910 79.7  39 
 PAM  SN ES        359 12.29                             150   -0.4610 79.7  39 
 PAM  SZ I         359 14.84         6.7 0.44            152           79.7  39 
 RUS  HZ EP        358 56.61                             144   -0.0610 98.8 175 
 RUS  HN ES        359 15.33                             144    0.3110 98.8 175 
 RUS  HZ I         359 16.97         6.4 0.24            144           98.8 175 
 PTB  HZ EP        358 59.23                             132   -0.64 9  146 259 
 PTB  HN ES        359 20.30                             132   -0.43 9  146 259 
 PTB  HZ I         359 22.35         5.8 0.40            133            146 259 
 SPBC HZ EP        359  1.53                             129    0.19 9  161 219 
 SPBC HN ES        359 23.33                             129   -0.02 9  161 219 
 SPBC HZ I         359 26.23         7.3 0.24            130            161 219 
 CHI  HZ EP        359 10.66                             117    0.12 8  246 195 
 CHI  HZ I         359 13.49         2.6 0.20            118            246 195 
                                                                                
