 2013  129 0428 45.3 L   6.896 -73.210147.0  RSN  5 0.3 1.8LRSN                1
 GAP=124        0.86       4.8     5.0  6.6 -0.1958E+01  0.2336E+01  0.2245E+01E
 Epicentro: BETULIA - SANTANDER                                                3
 ACTION:UPD 13-02-15 09:17 OP:ep   STATUS:               ID:20130129042845 L   I
 2013-01-29-0420-00M.COL___241                                                 6
 STAT SP IPHASW D HRMM SECON CODA AMPLIT PERI AZIMU VELO AIN AR TRES W  DIS CAZ7
 BAR2 SZ IP        429  5.64                             167    0.3610 33.7 175 
 BAR2 SZ ES        429 20.71                             167   -0.1910 33.7 175 
 BAR2 SZ I         429 22.93        30.4 0.51            167           33.7 175 
 BRR  HZ IP     C  429  6.13                             156    0.1810 60.2 293 
 BRR  HE ES        429 22.70                             156    0.6010 60.2 293 
 BRR  HZ I         429 23.76        14.2 0.20            158           60.2 293 
 PAM  SZ EP        429  7.29                             152   -0.1510 74.7  49 
 PAM  SE ES        429 24.37                             152   -0.3710 74.7  49 
 PAM  SZ I         429 27.02         6.5 0.36            153           74.7  49 
 RUS  HZ EP        429  9.99                             141    0.0410  112 173 
 RUS  HN ES        429 29.29                             141    0.0710  112 173 
 RUS  HN I         429 30.74         9.9 0.21            143            112 173 
 PTB  HZ EP   1    429 11.50                             133   -0.42 7  143 254 
 PTB  HZ I         429 11.76         6.7 0.11            136            143 254 
 PTB  HE ES   1    429 32.09                             133   -0.63 7  143 254 
                                                                                
