 2012 1229 0124 33.9 L   6.735 -73.222160.5  RSN  5 0.3 1.3LRSN                1
 GAP=220        0.52       5.5     5.7  6.1  0.2177E+02  0.4180E+00 -0.4395E+01E
 Epicentro: VILLANUEVA - SANTANDER                                             3
 ACTION:UPD 13-01-04 14:31 OP:ep   STATUS:               ID:20121229012433 L   I
 2012-12-29-0120-00M.COL___242                                                 6
 STAT SP IPHASW D HRMM SECON CODA AMPLIT PERI AZIMU VELO AIN AR TRES W  DIS CAZ7
 BRR  HZ EP   1    124 56.74                             156    0.20 8 68.0 307 
 BRR  HE ES   1    125 14.24                             156    0.08 8 68.0 307 
 RUS  HZ EP   1    124 58.69                             148   -0.07 8 94.4 171 
 RUS  HN ES   1    125 17.83                             148   -0.29 8 94.4 171 
 RUS  HZ I         125 20.20         1.8 0.80                          94.4 171 
 PTB  HZ EP        125  1.50                             137    0.1610  138 261 
 PTB  HN ES   1    125 22.64                             137   -0.06 7  138 261 
 PTB  HZ I         125 28.57         2.7 0.26                           138 261 
 ZAR  HN ES   1    125 32.85                             126    0.23 7  199 295 
 ZAR  HZ I         125 34.87         2.8 0.10                           199 295 
 MON  HN ES   1    126  1.13                             111   -0.72 5  352 310 
                                                                                
