 2015  929 0041 10.5 L   6.873 -73.242124.6  RSN 12 0.3 1.9LRSN                1
 GAP=171        0.62       1.7     2.7  4.0  0.1768E-02  0.1370E+01 -0.2171E+00E
 Epicentro: BETULIA - SANTANDER                                                3
 ACTION:UPD 15-10-28 16:28 OP:cam  STATUS:               ID:20150929004110 L   I
 OLDACT:REG 15-09-29 12:19 OP:spq  STATUS:               ID:20150929003750     3
 2015-09-29-0037-50M.COL___352                                                 6
 STAT SP IPHASW D HRMM SECON CODA AMPLIT PERI AZIMU VELO AIN AR TRES W  DIS CAZ7
 BAR2 EZ EP        041 27.73                             165   -0.0610 31.7 168 
 BAR2 EZ ES   1    041 41.13                             165   -0.17 7 31.7 168 
 BRR  HZ EP        041 28.56                             153   -0.0310 58.0 297 
 BRR  HE ES        041 42.60                             153   -0.1210 58.0 297 
 BRR  HZ I         041 43.00        17.8 0.12            150           58.0 297 
 RUS  HZ EP        041 33.01                             136    0.0510  110 171 
 RUS  HE ES        041 50.98                             136    0.4710  110 171 
 RUS  HZ I         041 53.42         4.7 0.22            134            110 171 
 PTB  HZ EP   4    041 33.47                             128   -1.50 0  139 255 
 PTB  HN ES   1    041 54.11                             128    0.02 7  139 255 
 PTB  HZ I         041 55.55        13.0 0.22            125            139 255 
 OCA  HZ EP        041 36.33                             126    0.00 9  151 357 
 OCA  HE ES        041 56.18                             126   -0.32 9  151 357 
 OCA  HZ I         041 59.27        37.9 0.18            124            151 357 
 SPBC HZ EP        041 37.48                             124    0.03 9  163 214 
 SPBC HE ES        041 58.50                             124    0.01 9  163 214 
 SPBC HZ I         042  1.56         7.0 0.18            121            163 214 
 ZAR  HZ EP   1    041 40.49                             119    0.24 7  191 291 
 ZAR  HN ES        042  3.58                             119    0.11 9  191 291 
 ZAR  HZ I         042  7.62         8.0 0.34            116            191 291 
 NOR  HE ES        042 10.83                             114   -0.50 8  231 231 
 NOR  HZ I         042 15.27         4.2 0.48            112            231 231 
 SML  HZ EP   1    041 44.72                             114    0.03 6  232 337 
 SML  HE ES   1    042 12.18                             114    0.80 6  232 337 
 SML  HZ I         042 16.35        16.4 0.08            112            232 337 
 CHI  HZ EP   1    041 47.12                             112   -0.56 6  254 192 
 CHI  HN ES   2    042 16.54                             112   -0.17 4  254 192 
 CHI  HZ I         042 23.05         2.6 0.53            110            254 192 
 GUY2CHZ EP   4    041 54.07                             108    1.32 0  297 232 
 GUY2CHE ES   1    042 26.01                             108    0.28 5  297 232 
 GUY2CHZ I         042 31.92         3.3 0.32                           297 232 
 SJC  HZ EP   4    042  2.27                             102   -1.65 0  397 328 
 SJC  HN ES   4    042 42.78                             102   -2.83 0  397 328 
 SJC  HZ I         042 51.62         1.8 0.56            101            397 328 
                                                                                
