 2012  929 0444  9.1 L   6.792 -73.133142.0  RSN 10 0.4 2.2LRSN                1
 GAP=139        0.87       4.1     4.6  6.5 -0.2814E+00  0.3208E+01  0.8219E+01E
 Epicentro: LOS SANTOS - SANTANDER                                             3
 ACTION:UPD 12-10-22 14:21 OP:ep   STATUS:               ID:20120929044409 L   I
 2012-09-29-0440-00M.COL___220                                                 6
 STAT SP IPHASW D HRMM SECON CODA AMPLIT PERI AZIMU VELO AIN AR TRES W  DIS CAZ7
 BAR2 SZ EP        444 28.19                             170   -0.1110 22.8 194 
 BAR2 SZ ES   1    444 42.83                             170   -0.42 7 22.8 194 
 BAR2 SZ I         444 45.63        37.4 0.28                          22.8 194 
 GIR2 SZ EP   1    444 28.17                             167   -0.23 7 32.4 348 
 BRR  HZ EP        444 29.93                             151   -0.0510 72.9 299 
 BRR  HE ES        444 47.05                             151    0.8210 72.9 299 
 BRR  HN I         444 47.63        72.4 0.14                          72.9 299 
 BRR  HZ I         444 49.29        21.8 0.16                          72.9 299 
 PAM  SZ EP        444 31.01                             150    0.0710 77.2  38 
 PAM  SN ES   1    444 47.89                             150   -0.06 7 77.2  38 
 PAM  SN I         444 49.23        50.5 0.42                          77.2  38 
 PAM  SZ I         444 50.10        29.9 0.50                          77.2  38 
 RUS  HZ EP   1    444 32.16                             143   -0.29 7 99.6 177 
 RUS  HN ES   1    444 50.86                             143    0.23 7 99.6 177 
 RUS  HZ I         444 51.96        15.9 0.40                          99.6 177 
 PTB  HN ES   1    444 56.05                             131   -0.75 7  149 259 
 ZAR  HN ES   1    445  6.10                             121   -0.66 6  206 292 
 ZAR  HN I         445 12.40        35.3 0.20                           206 292 
 CHI  HZ EP   1    444 46.37                             117   -0.21 6  248 196 
 CHI  HN ES   1    445 16.11                             117    0.33 6  248 196 
 CHI  HZ I         445 22.73         5.4 0.30                           248 196 
 HEL  HZ EP   1    444 50.01                             114    0.72 6  273 256 
 HEL  HZ I         445 28.77         5.2 0.22                           273 256 
 PRA  HZ EP   1    445  2.50                             106   -0.02 4  392 210 
 PRA  HN ES   1    445 44.59                             106    0.43 4  392 210 
 PRA  HN I         445 48.65         5.4 0.38                           392 210 
 PRA  HZ I         445 49.35         6.6 0.64                           392 210 
                                                                                
