 2017  729 0304 12.0 L   6.804 -73.124140.0  RSN  9 0.4 1.3LRSN                1
 GAP=114        0.78       4.5     5.0  6.2  0.1014E+02 -0.9733E+01 -0.4228E+01E
 Epicentro: LOS SANTOS - SANTANDER                                             3
 ACTION:UPD 17-08-30 15:37 OP:rebc STATUS:               ID:20170729030412 L   I
 OLDACT:UP  17-07-29 14:38 OP:and  STATUS:               ID:20170729025738     3
 OLDACT:UP  17-07-29 14:38 OP:and  STATUS:               ID:20170729025738     3
 OLDACT:UP  17-07-29 14:37 OP:and  STATUS:               ID:20170729025738     3
 OLDACT:UP  17-07-29 14:36 OP:and  STATUS:               ID:20170729025738     3
 OLDACT:UP  17-07-29 14:36 OP:and  STATUS:               ID:20170729025738     3
 OLDACT:UP  17-07-29 14:36 OP:and  STATUS:               ID:20170729025738     3
 OLDACT:UP  17-07-29 14:35 OP:and  STATUS:               ID:20170729025738     3
 OLDACT:UP  17-07-29 14:34 OP:and  STATUS:               ID:20170729025738     3
 OLDACT:UP  17-07-29 14:31 OP:and  STATUS:               ID:20170729025738     3
 OLDACT:UP  17-07-29 14:31 OP:and  STATUS:               ID:20170729025738     3
 OLDACT:UP  17-07-29 14:30 OP:and  STATUS:               ID:20170729025738     3
 OLDACT:UP  17-07-29 14:29 OP:and  STATUS:               ID:20170729025738     3
 OLDACT:UP  17-07-29 14:27 OP:and  STATUS:               ID:20170729025738     3
 OLDACT:REG 17-07-29 12:43 OP:and  STATUS:               ID:20170729025738     3
 2017-07-29-0258-00M.COL___386                                                 6
 STAT SP IPHASW D HRMM SECON CODA AMPLIT PERI AZIMU VELO AIN AR TRES W  DIS CAZ7
 BAR2 EZ EP   3    3 4 32.20                             169    1.29 2 24.3 195 
 BAR2 EZ ES        3 4 45.34                             169   -0.3510 24.3 195 
 BAR2 EZ I         3 4 47.03         3.5 0.14            169           24.3 195 
 BRR  HZ EP   3    3 4 32.38                             150   -0.21 2 73.1 297 
 BRR  HN ES        3 4 48.86                             150    0.1710 73.1 297 
 PAM  EZ IP     C  3 4 33.23                             150   -0.2110 75.5  38 
 RUS  HZ EP   2    3 4 35.84                             142    0.68 5  101 177 
 RUS  HN ES        3 4 53.27                             142    0.0110  101 177 
 RUS  HZ I         3 4 53.45         2.5 0.28            143            101 177 
 PTB  HZ EP   9    3 4 37.64                             129   -1.04 0  150 259 
 PTB  HN ES        3 4 57.92                             132   -0.57 9  150 259 
 PTB  HZ I         3 5  1.17         3.4 0.32            128            150 259 
 YPLC HZ EP   1    3 4 40.82                             125   -0.44 7  176 152 
 YPLC HN ES   1    3 5  4.68                             125    0.57 7  176 152 
 ZAR  HN ES   1    3 5  9.87                             120    0.44 6  206 292 
 ZAR  HZ I         3 5 15.19         3.3 0.22            119            206 292 
 NOR  HZ EP   2    3 4 47.09                             116   -0.50 4  237 235 
 GUY2CHN ES   2    3 5 29.59                             110    0.03 4  303 235 
 GUY2CHZ I         3 5 35.60         0.8 0.30                           303 235 
                                                                                
