 2016 1129 0441 36.4 L   6.843 -73.129146.9  RSN 11 0.6 2.1LRSN                1
 GAP=151        1.15       4.9     5.1  6.1 -0.3444E+01  0.6387E+01  0.7311E+01E
 Epicentro: LOS SANTOS - SANTANDER                                             3
 ACTION:UPD 17-10-26 21:12 OP:lp   STATUS:               ID:20161129044136 L   I
 OLDACT:UP  16-11-29 15:18 OP:dani STATUS:               ID:20161129043748     3
 OLDACT:UP  16-11-29 15:17 OP:dani STATUS:               ID:20161129043748     3
 OLDACT:UP  16-11-29 15:17 OP:dani STATUS:               ID:20161129043748     3
 OLDACT:UP  16-11-29 15:17 OP:dani STATUS:               ID:20161129043748     3
 OLDACT:REG 16-11-29 12:39 OP:dani STATUS:               ID:20161129043748     3
 2016-11-29-0438-00M.COL___346                                                 6
 STAT SP IPHASW D HRMM SECON CODA AMPLIT PERI AZIMU VELO AIN AR TRES W  DIS CAZ7
 BAR2 EZ EP        441 56.06                             169   -0.2110 28.4 192 
 BAR2 EZ ES        442 11.00                             169   -0.7710 28.4 192 
 BAR2 EZ I         442 13.65        23.7 0.50            165           28.4 192 
 BRR  HZ EP        441 57.78                             153    0.1510 70.7 294 
 BRR  HE ES        442 14.76                             153    0.5610 70.7 294 
 BRR  HZ I         442 15.27        30.5 0.32            151           70.7 294 
 PAM  EZ EP        441 58.94                             152    0.4910 72.6  41 
 PAM  EN ES        442 15.78                             152    0.1310 72.6  41 
 PAM  EZ I         442 18.16        13.4 0.54            157           72.6  41 
 PTB  HZ EP   9    442  2.68                             132   -1.02 0  151 257 
 PTB  HN ES        442 23.75                             132   -0.23 9  151 257 
 PTB  HZ I         442 26.20        26.8 0.12            130            151 257 
 ZAR  HZ EP        442  8.63                             123   -0.27 9  204 291 
 ZAR  HN ES        442 34.34                             123    0.08 9  204 291 
 ZAR  HZ I         442 40.28        17.7 0.44            122            204 291 
 CHI  HZ EP        442 14.56                             117   -0.14 8  254 195 
 CHI  HN ES   1    442 44.06                             117   -0.52 6  254 195 
 CHI  HZ I         442 46.56         4.1 0.20            116            254 195 
 ROSC BZ EP   9    442 16.50                             116    1.39 0  258 211 
 ROSC BN ES        442 47.34                             116    0.63 8  258 211 
 ROSC BZ I         442 53.26         7.7 0.35            116            258 211 
 LL6C HZ EP   4    442  2.57                             111   -19.0 0  320 357 
 LL6C HE ES   4    442 39.32                             111   -17.5 0  320 357 
 CBOC HZ EP        442 24.38                             110    0.67 7  337 251 
 CBOC HE ES        442 59.95                             110   -0.68 7  337 251 
 CBOC HZ I         443 12.19         2.8 0.36            110            337 251 
 PRA  HZ EP        442 30.16                             106   -0.37 6  397 209 
 PRA  HN ES        443 13.76                             106    0.99 6  397 209 
 PRA  HZ I         443 18.85         4.9 0.39            106            397 209 
 ORTC HZ EP        442 31.73                             106    0.81 6  400 216 
 ORTC HN ES   4    443 16.28                             106    2.82 0  400 216 
 ORTC HZ I         443 18.72         3.6 0.39            106            400 216 
 SJC  HZ EP        442 30.31                             106   -1.32 6  406 326 
 SJC  HN ES   4    443 11.24                             106   -3.48 0  406 326 
 SJC  HZ I         443 14.64         2.9 0.26            106            406 326 
                                                                                
