 2012  129 0059  4.5 L   6.781 -73.155141.2  RSN  8 0.3 1.9LRSN                1
 GAP=136        0.75       4.2     4.3  5.7 -0.6841E+01  0.6118E+01 -0.5023E+00E
 Epicentro: LOS SANTOS - SANTANDER                                             3
 ACTION:UP  12-02-03 08:21 OP:REBC STATUS:               ID:20120129005904 L   I
 2012-01-29-0054-46S.COL___161                                                 6
 STAT SP IPHASW D HRMM SECON CODA AMPLIT PERI AZIMU VELO SNR AR TRES W  DIS CAZ7
 BAR2 SZ EP        059 23.68                             171     0.110   21 188 
 BAR2 SZ I         059 23.87        19.3 0.12                            21 188 
 BAR2 SZ ES   1    059 38.10                             171    -0.3 7   21 188 
 GIR2 SZ EP        059 23.79                             166     0.110   33 353 
 GIR2 SZ ES   2    059 38.36                             166    -0.3 5   33 353 
 BRR  HZ EP        059 25.48                             152     0.310   71 300 
 BRR  HZ I         059 25.99        20.8 0.08                            71 300 
 BRR  HE ES   1    059 42.00                             152     0.7 7   71 300 
 PAM  SZ EP        059 26.53                             149     0.110   80  39 
 PAM  SN ES        059 43.28                             149    -0.210   80  39 
 RUS  HZ EP   1    059 27.67                             143     0.0 7   99 175 
 RUS  HN ES   1    059 45.79                             143     0.1 7   99 175 
 RUS  HZ I         059 47.90         8.2 0.46                            99 175 
 PTB  HZ EP        059 30.60                             131    -0.4 9  146 260 
 PTB  HE ES   1    059 51.24                             131    -0.4 7  146 260 
 OCA  SZ EP   1    059 32.29                             128    -0.4 7  162 354 
 OCA  SZ I         059 56.63         9.0 0.63                           162 354 
 NOR  SZ EP   2    059 40.47                             118     0.7 4  233 235 
 NOR  SE ES   1    1 0  7.26                             118     0.0 6  233 235 
                                                                                
