 2012  729 0954 57.8 L   6.784 -73.191145.5  RSN  4 0.5 1.7LRSN                1
 GAP=231        0.91      14.9    11.1 12.5  0.7286E+02  0.3199E+02  0.1327E+02E
 Epicentro: LOS SANTOS - SANTANDER                                             3
 ACTION:UPD 12-08-14 11:46 OP:ep   STATUS:               ID:20120729095457 L   I
 2012-07-29-0950-00M.COL___215                                                 6
 STAT SP IPHASW D HRMM SECON CODA AMPLIT PERI AZIMU VELO AIN AR TRES W  DIS CAZ7
 BAR2 SZ EP        955 17.27                             171     0.010   21 177 
 BAR2 SZ ES   2    955 31.61                             171    -1.0 5   21 177 
 BAR2 SZ I         955 33.27         9.2 0.34            168             21 177 
 BRR  HN ES   2    955 35.87                             154     0.9 5   68 302 
 RUS  HZ EP   2    955 22.18                             144     0.8 5   99 173 
 RUS  HN ES   2    955 40.09                             144     0.3 5   99 173 
 PTB  HZ EP        955 23.99                             133    -0.2 9  143 259 
 PTB  HN ES   2    955 44.93                             133     0.1 5  143 259 
 PTB  HZ I         955 47.56         7.1 0.12            132            143 259 
