 2015  829 0415 59.8 L   6.599 -73.458117.4  RSN  7 0.4 1.9LRSN                1
 GAP=115        0.98       3.5     5.0  6.7 -0.2141E+01  0.1631E+02  0.2241E+01E
 Epicentro: EL CARMEN - SANTANDER                                              3
 ACTION:UPD 15-09-15 23:06 OP:cam  STATUS:               ID:20150829041559 L   I
 OLDACT:DUP 15-08-29 17:06 OP:ak   STATUS:               ID:20150829040746d    3
 2015-08-29-0407-45M.COL___352                                                 6
 STAT SP IPHASW D HRMM SECON CODA AMPLIT PERI AZIMU VELO AIN AR TRES W  DIS CAZ7
 BAR2 EZ EP        416 16.44                             164    0.1810 30.5  91 
 BAR2 EZ ES        416 29.09                             164    0.0110 30.5  91 
 BAR2 EZ I         416 30.25        33.4 0.38            170           30.5  91 
 BRR  HZ EP        416 17.25                             150   -0.1910 62.8 333 
 BRR  HN ES        416 31.20                             150    0.0110 62.8 333 
 ZAR  HZ EP        416 28.61                             118    0.25 9  184 303 
 ZAR  HN ES        416 51.22                             118    0.61 9  184 303 
 ZAR  HZ I         416 53.95        12.2 0.52            118            184 303 
 NOR  HZ EP        416 28.70                             117   -0.82 9  194 234 
 NOR  HN ES        416 52.45                             117   -0.23 9  194 234 
 NOR  HZ I         416 58.58         5.0 0.32            117            194 234 
 HEL  HZ EP        416 35.00                             112    0.66 8  234 259 
 HEL  HN ES        417  0.72                             112   -0.55 8  234 259 
 HEL  HZ I         417  5.22         4.3 0.30            112            234 259 
 SML  HZ EP        416 36.06                             110    0.00 8  253 345 
 SML  HN ES        417  3.90                             110   -0.42 8  253 345 
 SML  HZ I         417 11.08         9.8 0.08            111            253 345 
 URE  HZ EP   4    416 35.37                             109   -1.80 0  262 299 
 URE  HN ES   4    417  3.65                             109   -2.66 0  262 299 
 PRA  HZ EP   1    416 48.06                             103   -0.18 5  356 206 
 PRA  HN ES        417 26.84                             103    0.84 6  356 206 
 SJC  HZ EP   4    416 52.68                             100   -2.13 0  411 333 
 SJC  HN ES   4    417 35.06                             100   -2.65 0  411 333 
                                                                                
