 2011  629 0327 45.6 L   6.790 -73.117141.0  RSN 11 0.3 2.0LRSN                1
 GAP=141        0.66       2.4     3.8  4.3 -0.3100E+01  0.2195E+01 -0.9090E-01E
 Epicentro: LOS SANTOS - SANTANDER                                             3
 ACTION:UP  11-07-14 19:09 OP:ep   STATUS:               ID:20110629032745 L   I
 2011-06-29-0320-00M.COL___124                                                 6
 STAT SP IPHASW D HRMM SECON CODA AMPLIT PERI AZIMU VELO SNR AR TRES W  DIS CAZ7
 BAR2 SZ EP        328  4.70                             170     0.010   23 198 
 BAR2 SZ ES   1    328 19.54                             170     0.0 7   23 198 
 BAR2 SZ I         328 21.13        22.0 0.26                            23 198 
 BRR  HZ IP     C  328  6.48                             151     0.010   74 298 
 BRR  HZ I         328  6.83        34.6 0.19                            74 298 
 BRR  HE ES        328 22.86                             151     0.210   74 298 
 PAM  SZ EP        328  7.60                             150     0.310   76  37 
 PAM  SZ I         328  7.83        18.0 0.10                            76  37 
 PAM  SN ES   1    328 24.53                             150     0.4 7   76  37 
 RUS  HZ EP        328  8.55                             143    -0.310   99 178 
 RUS  HE ES        328 26.72                             143    -0.210   99 178 
 RUS  HZ I         328 29.36        13.6 0.29                            99 178 
 BRI  SZ EP        328  9.16                             140     0.110  108  19 
 GRA  SZ EP        328 10.44                             136     0.010  126  16 
 GRA  SZ ES        328 29.72                             136    -0.110  126  16 
 GRA  SZ I         328 31.13        16.0 0.28                           126  16 
 OCA  SZ EP   1    328 13.50                             128    -0.2 7  162 352 
 OCA  SZ ES   1    328 34.70                             128    -0.9 7  162 352 
 OCA  SZ I         328 39.76        11.2 0.31                           162 352 
 NOR  SZ EP   2    328 21.39                             117     0.1 4  237 235 
 NOR  SN ES   2    328 49.10                             117     0.0 4  237 235 
 HEL  HZ EP   1    328 26.21                             113     0.3 6  275 256 
 HEL  HN ES   2    328 57.58                             113     0.3 4  275 256 
 HEL  HZ I         329  5.08         4.1 0.27                           275 256 
 RREF HZ EP   2    328 31.97                             110     0.2 3  323 230 
 RREF HN ES   2    329  7.63                             110    -0.1 3  323 230 
 RREF HZ I         329 17.17         3.8 0.22                           323 230 
 PRA  HZ EP   2    328 39.41                             106     0.4 3  393 210 
 PRA  HE ES   2    329 20.20                             106    -0.5 3  393 210 
                                                                                
