 2016 1029 0927 57.7 L   6.787 -73.099144.0  RSN  5 0.3 1.4LRSN                1
 GAP=143        0.69       4.4     4.2  5.5  0.3963E+01 -0.1977E+01 -0.4180E+01E
 Epicentro: LOS SANTOS - SANTANDER                                             3
 ACTION:UPD 16-11-09 19:24 OP:rebc STATUS:               ID:20161029092757 L   I
 OLDACT:UP  16-10-29 17:08 OP:dani STATUS:               ID:20161029091745d    3
 OLDACT:DUP 16-10-29 17:04 OP:dani STATUS:               ID:20161029091745d    3
 OLDACT:UP  16-10-29 17:04 OP:dani STATUS:               ID:20161029091744d    3
 OLDACT:UP  16-10-29 17:03 OP:dani STATUS:               ID:20161029091744d    3
 OLDACT:DUP 16-10-29 16:58 OP:dani STATUS:               ID:20161029091744d    3
 2016-10-29-0918-00M.COL___325                                                 6
 STAT SP IPHASW D HRMM SECON CODA AMPLIT PERI AZIMU VELO AIN AR TRES W  DIS CAZ7
 BAR2 EZ EP        928 16.92                             170   -0.1510 23.4 203 
 BAR2 EZ ES        928 31.90                             170   -0.3110 23.4 203 
 BAR2 EZ I         928 33.40        10.4 0.18            172           23.4 203 
 PAM  EZ EP        928 19.86                             151    0.3010 75.4  36 
 PAM  EZ I         928 39.12         2.9 0.35            136           75.4  36 
 BRR  HZ EP        928 18.72                             150   -0.1910 76.4 298 
 BRR  HN ES        928 35.62                             150    0.1310 76.4 298 
 BRR  HZ I         928 39.59         6.5 0.16            147           76.4 298 
 RUS  HZ EP        928 21.32                             144    0.2110 98.9 179 
 RUS  HE ES        928 39.48                             144    0.0810 98.9 179 
 RUS  HZ I         928 41.04         3.2 0.24            147           98.9 179 
 PTB  HZ EP        928 24.50                             131   -0.41 9  153 260 
 PTB  HE ES        928 46.51                             131    0.33 9  153 260 
 PTB  HZ I         928 47.51         2.8 0.13            132            153 260 
                                                                                
