 2016  129 0441 39.1 L   6.824 -73.144151.0  RSN  5 0.2 1.2LRSN                1
 GAP=278        0.52       3.9     3.6  4.2  0.1837E+00  0.1134E+01  0.3325E+01E
 Epicentro: LOS SANTOS - SANTANDER                                             3
 ACTION:UPD 16-03-09 23:29 OP:cam  STATUS:               ID:20160129044139 L   I
 OLDACT:REG 16-01-29 14:24 OP:cara STATUS:               ID:20160129043759     3
 2016-01-29-0437-59S.COL___223                                                 6
 STAT SP IPHASW D HRMM SECON CODA AMPLIT PERI AZIMU VELO AIN AR TRES W  DIS CAZ7
 BAR2 EZ IP        441 59.55                             170    0.1410 26.0 189 
 BAR2 EZ ES        442 15.43                             170    0.1710 26.0 189 
 BAR2 EZ I         442 18.44         2.9 0.36            167           26.0 189 
 RUS  HZ EP        442  3.29                             144   -0.2710  103 176 
 RUS  HE ES        442 22.43                             144   -0.2010  103 176 
 RUS  HZ I         442 24.34         1.1 0.30            145            103 176 
 PTB  HN ES        442 27.73                             133   -0.26 9  149 258 
 PTB  HZ I         442 32.92         2.6 0.52            133            149 258 
 SPBC HZ IP        442  8.40                             130    0.19 9  165 218 
 SPBC HE ES        442 31.14                             130    0.22 9  165 218 
 SPBC HZ I         442 34.98         3.0 0.42            130            165 218 
 CHI  HZ EP        442 17.40                             118    0.02 8  251 195 
 CHI  HN ES        442 47.28                             118    0.04 8  251 195 
 CHI  HZ I         442 51.58         1.1 0.58            119            251 195 
                                                                                
