 2015 1229 0156 39.1 L   6.780 -73.114147.1  RSN  4 0.2 1.4LRSN                1
 GAP=142        0.59       3.2     2.9  6.2 -0.2342E+00  0.6544E+01 -0.8312E+00E
 Epicentro: LOS SANTOS - SANTANDER                                             3
 ACTION:UPD 16-02-04 15:08 OP:cam  STATUS:               ID:20151229015639 L   I
 OLDACT:UP  15-12-29 15:57 OP:ak   STATUS:               ID:20151229014748d    3
 OLDACT:DUP 15-12-29 15:55 OP:ak   STATUS:               ID:20151229014748d    3
 OLDACT:REG 15-12-29 12:49 OP:ak   STATUS:               ID:20151229014747     3
 2015-12-29-0147-47M.COL___338                                                 6
 STAT SP IPHASW D HRMM SECON CODA AMPLIT PERI AZIMU VELO AIN AR TRES W  DIS CAZ7
 PAM  EZ EP        157  1.24                             151   -0.1410 76.9  36 
 PAM  EN ES        157 18.80                             151    0.0010 76.9  36 
 PAM  EZ I         157 21.31         4.3 0.68            151           76.9  36 
 RUS  HZ EP        157  3.12                             145    0.3610 98.2 178 
 RUS  HN ES        157 21.21                             145   -0.0410 98.2 178 
 PTB  HZ EP        157  6.14                             132   -0.27 9  151 260 
 PTB  HE ES        157 27.54                             132   -0.20 9  151 260 
 ZAR  HZ EP   2    157 11.85                             122   -0.16 4  208 292 
 ZAR  HN ES        157 38.08                             122    0.36 8  208 292 
                                                                                
