 2011  829 0816 59.0 L   6.712 -73.127138.1  RSN  4 0.3 1.1LRSN                1
 GAP=187        0.67       7.5    12.9  7.3  0.5812E+02 -0.2949E+01  0.7954E+01E
 Epicentro: JORDAN - SANTANDER                                                 3
 ACTION:UPD 12-07-13 15:54 OP:ep   STATUS:               ID:20110829081659 L   I
 2011-08-29-0815-33S.COL___161                                                 6
 STAT SP IPHASW D HRMM SECON CODA AMPLIT PERI AZIMU VELO AIN AR TRES W  DIS CAZ7
 BAR2 SZ EP   1    817 17.62                             174    0.07 7 14.6 205 
 BAR2 SZ I         817 18.83         3.6 0.83                          14.6 205 
 BAR2 SZ ES   1    817 31.43                             174   -0.59 7 14.6 205 
 GIR2 SZ EP   1    817 17.89                             162   -0.19 7 41.2 350 
 GIR2 SZ ES   1    817 33.37                             162    0.41 7 41.2 350 
 BRR  HZ EP   1    817 19.41                             149   -0.32 7 78.0 304 
 BRR  HZ I         817 19.62         6.8 0.14                          78.0 304 
 BRR  HN ES   1    817 36.12                             149    0.21 7 78.0 304 
 RUS  HZ EP   1    817 21.60                             145    0.31 7 90.8 177 
 RUS  HZ I         817 23.07         1.0 0.25                          90.8 177 
 RUS  HE ES   2    817 38.87                             145    0.20 5 90.8 177 
                                                                                
