 2011 1229 0904 41.2 L   6.772 -73.155146.0  RSN 14 0.4 2.6LRSN                1
 GAP=114        0.82       3.2     3.7  5.0  0.7031E+00  0.4529E+01  0.3803E+01E
 Epicentro: LOS SANTOS - SANTANDER                                             3
 ACTION:UPD 12-07-13 16:19 OP:ep   STATUS:               ID:20111229090441 L   I
 2011-12-29-0900-00M.COL___187                                                 6
 STAT SP IPHASW D HRMM SECON CODA AMPLIT PERI AZIMU VELO AIN AR TRES W  DIS CAZ7
 BAR2 SZ EP        9 5  0.80                             172   -0.0410 20.1 189 
 BAR2 SZ ES   1    9 5 15.71                             172   -0.41 7 20.1 189 
 BAR2 SZ I         9 5 17.49       100.3 0.32                          20.1 189 
 GIR2 SZ EP   1    9 5  0.85                             166   -0.17 7 34.2 353 
 GIR2 SZ ES   1    9 5 16.85                             166    0.40 7 34.2 353 
 BRR  HZ EP        9 5  2.62                             152    0.1710 71.8 301 
 BRR  HE ES   1    9 5 19.88                             152    0.89 7 71.8 301 
 BRR  HZ I         9 5 23.18        96.8 0.18                          71.8 301 
 PAM  SZ EP        9 5  3.50                             150   -0.1710 80.4  39 
 PAM  SN ES   1    9 5 20.87                             150   -0.29 7 80.4  39 
 PAM  SZ I         9 5 22.89        27.9 0.53                          80.4  39 
 RUS  HZ EP   1    9 5  4.75                             145   -0.05 7 97.6 175 
 RUS  HN ES   1    9 5 23.52                             145    0.34 7 97.6 175 
 PTB  HZ EP   1    9 5  7.19                             132   -0.89 7  146 260 
 PTB  HN ES   1    9 5 28.52                             132   -0.50 7  146 260 
 OCA  SZ EP   1    9 5 10.45                             129    0.60 7  163 354 
 OCA  SZ I         9 5 36.73        42.4 0.38                           163 354 
 YOP  SZ EP   1    9 5 11.25                             127    0.17 7  177 153 
 YOP  SN ES   1    9 5 34.02                             127   -0.33 7  177 153 
 YOP  SZ I         9 5 36.64        29.0 0.22                           177 153 
 ZAR  HZ EP   1    9 5 13.11                             122   -0.61 6  204 293 
 ZAR  HE ES   1    9 5 38.58                             122   -0.48 6  204 293 
 ZAR  HZ I         9 5 45.59        71.0 0.25                           204 293 
 NOR  SZ EP   1    9 5 16.58                             119   -0.12 6  232 235 
 NOR  SE ES   1    9 5 44.63                             119    0.27 6  232 235 
 CHI  HZ EP   1    9 5 18.73                             118    0.13 6  245 195 
 CHI  HN ES   1    9 5 47.82                             118    0.08 6  245 195 
 CHI  HZ I         9 5 54.06        23.4 0.51                           245 195 
 HEL  HZ EP   1    9 5 22.09                             115    0.82 6  270 256 
 HEL  HZ I         9 5 58.92        27.0 0.32                           270 256 
 RREF HZ EP   1    9 5 27.70                             111    0.63 5  319 230 
 RREF HZ I         9 6 12.01        26.7 0.43                           319 230 
 PRA  HZ EP   1    9 5 34.38                             107   -0.01 4  389 210 
 PRA  HN ES   2    9 6 15.73                             107   -0.12 3  389 210 
                                                                                
