 2010  629 0953 27.0 L   6.807 -73.084145.7  RSN  6 0.3 1.5LRSN                1
 GAP=162        0.77       5.2    10.0  7.8 -0.2169E+02 -0.7304E+01 -0.8918E+01E
 Epicentro: LOS SANTOS - SANTANDER                                             3
 ACTION:UP  10-08-24 10:13 OP:vdl  STATUS:               ID:20100629095327 L   I
 2010-06-29-0950-44S.COL___118                                                 6
 STAT SP IPHASW D HRMM SECON CODA AMPLIT PERI AZIMU VELO SNR AR TRES W  DIS CAZ7
 BAR2 SZ EP        953 46.45                             169    -0.210   26 205 
 BAR2 SZ ES   1    954  2.52                             169     0.5 7   26 205 
 BRR  HZ IP     D  953 48.29                             151    -0.210   77 296 
 BRR  HZ I         953 48.63        14.7 0.14                            77 296 
 BRR  HE ES   2    954  5.28                             151     0.1 5   77 296 
 RUS  HZ EP   2    953 50.80                             143     0.1 5  101 180 
 RUS  HE ES   2    954  8.74                             143    -0.6 5  101 180 
 RUS  HZ I         954 12.63         2.4 0.31                           101 180 
 BRI  SZ EP        953 51.00                             142     0.410  106  17 
 BRI  SZ ES   2    954  9.13                             142     0.0 5  106  17 
 GUE  SZ EP        953 51.42                             140    -0.110  115   9 
 GRA  SZ EP        953 52.24                             138     0.310  123  15 
 GRA  SZ ES   1    954 10.84                             138    -0.7 7  123  15 
                                                                                
