 2010  429 0149 36.4 L   6.871 -73.004119.1  RSN  6 0.3 1.8LRSN                1
 GAP=163        0.45       6.4     6.6 10.0 -0.2436E+02 -0.2611E+02  0.2416E+02E
 Epicentro: CEPITA - SANTANDER                                                 3
 ACTION:UPD 10-08-24 10:01 OP:vdl  STATUS:               ID:20100429014936 L   I
 2010-04-29-0145-50S.COL___104                                                 6
 STAT SP IPHASW D HRMM SECON CODA AMPLIT PERI AZIMU VELO SNR AR TRES W  DIS CAZ7
 BAR2 SZ EP   1    149 53.20                             159    -0.1 7   37 213 
 BRR  HZ EP        149 55.39                             149    -0.210   82 289 
 BRR  HZ I         150  6.17        14.1 0.34                            82 289 
 BRR  HE ES   2    150 10.62                             149     0.2 5   82 289 
 BRI  SZ EP   2    149 57.29                             143     0.4 5   96  14 
 GUE  SZ EP   2    149 57.83                             140    -0.1 5  106   5 
 RREF BZ EP   2    150 23.47                             105    -0.1 3  339 230 
 RREF BN ES   2    151  0.88                             105     0.6 3  339 230 
 RREF BZ I         151  6.91         4.2 0.37                           339 230 
 SDV  BZ EP   3    150 22.88                             105    -0.7 2  343  50 
 SDV  BN ES   3    151  1.03                             105     0.7 2  343  50 
 SDV  BZ I         151  3.55         1.8 0.53                           343  50 
                                                                                
