 2015  929 0441 59.0 L   6.811 -73.154146.0  RSN 10 0.5 1.7LRSN                1
 GAP=194        1.15       3.4     5.7  6.6 -0.2618E+01  0.4724E+01  0.1575E+01E
 Epicentro: LOS SANTOS - SANTANDER                                             3
 ACTION:UPD 15-10-28 16:29 OP:cam  STATUS:               ID:20150929044159 L   I
 OLDACT:REG 15-09-29 12:34 OP:spq  STATUS:               ID:20150929043748     3
 2015-09-29-0437-48M.COL___352                                                 6
 STAT SP IPHASW D HRMM SECON CODA AMPLIT PERI AZIMU VELO AIN AR TRES W  DIS CAZ7
 BAR2 EZ IP     C  442 18.75                             170    0.0710 24.3 188 
 BAR2 EZ ES        442 33.78                             170   -0.2510 24.3 188 
 BAR2 EZ I         442 35.20        11.0 0.24            168           24.3 188 
 BRR  HZ EP        442 20.55                             153    0.4510 69.9 298 
 BRR  HN ES        442 37.48                             153    0.9210 69.9 298 
 BRR  HZ I         442 40.80         6.1 0.18            150           69.9 298 
 PTB  HZ EP        442 25.63                             132   -0.30 9  147 258 
 PTB  HN ES        442 46.34                             132   -0.60 9  147 258 
 OCA  HZ EP   1    442 27.77                             130    0.56 7  159 353 
 OCA  HN ES        442 48.66                             130   -0.56 9  159 353 
 SPBC HZ EP        442 27.75                             129    0.19 9  164 218 
 SPBC HN ES        442 49.68                             129   -0.14 9  164 218 
 SPBC HZ I         442 52.63        13.2 0.19            129            164 218 
 ZAR  HZ EP        442 31.29                             123   -0.05 9  203 292 
 ZAR  HE ES        442 57.13                             123    0.57 9  203 292 
 ZAR  HZ I         443  5.29         6.0 0.15            122            203 292 
 SML  HZ EP        442 35.12                             118   -0.37 8  242 335 
 SML  HE ES        443  3.43                             118   -0.52 8  242 335 
 CHI  HZ EP        442 37.00                             117    0.19 8  250 195 
 CHI  HN ES        443  5.85                             117   -0.45 8  250 195 
 CHI  HZ I         443 10.77         2.4 0.30            118            250 195 
 HEL  HZ EP   1    442 40.13                             115    0.96 6  272 256 
 HEL  HN ES        443  9.66                             115   -0.83 8  272 256 
 HEL  HZ I         443 17.28         2.8 0.22            115            272 256 
 GUY2CHZ EP        442 42.48                             112   -0.14 7  301 234 
 GUY2CHN ES        443 17.34                             112    0.70 7  301 234 
 SJC  HZ EP   4    442 53.07                             106   -1.33 0  408 327 
 SJC  HN ES   4    443 34.69                             106   -2.92 0  408 327 
                                                                                
