 2017  929 0048 57.3 L   6.812 -73.145145.7  RSN 16 0.4 2.0LRSN                1
 GAP=136        0.85       2.8     3.8  4.5 -0.1662E+00  0.7046E+01  0.2619E+01E
 Epicentro: LOS SANTOS - SANTANDER                                             3
 ACTION:UPD 17-10-05 19:17 OP:rebc STATUS:               ID:20170929004857 L   I
 OLDACT:UP  17-09-29 14:19 OP:edw  STATUS:               ID:20170929004739     3
 OLDACT:UP  17-09-29 14:18 OP:edw  STATUS:               ID:20170929004739     3
 OLDACT:UP  17-09-29 14:17 OP:edw  STATUS:               ID:20170929004739     3
 OLDACT:UP  17-09-29 14:15 OP:edw  STATUS:               ID:20170929004739     3
 OLDACT:REG 17-09-29 12:13 OP:edw  STATUS:               ID:20170929004739     3
 2017-09-29-0048-00M.COL___444                                                 6
 STAT SP IPHASW D HRMM SECON CODA AMPLIT PERI AZIMU VELO AIN AR TRES W  DIS CAZ7
 BAR2 EZ EP        049 16.73                             170   -0.2210 24.6 190 
 BAR2 EZ ES        049 32.37                             170    0.0910 24.6 190 
 BAR2 EZ I         049 32.87        33.2 0.30            166           24.6 190 
 BRR  HZ IP     C  049 18.46                             153    0.0410 70.7 298 
 BRR  HN ES        049 35.25                             153    0.3710 70.7 298 
 BRR  HZ I         049 39.27        18.5 0.14            149           70.7 298 
 PAM  EZ EP        049 19.87                             151    0.4210 76.3  40 
 PAM  EN ES        049 36.79                             151    0.0710 76.3  40 
 PAM  EZ I         049 39.44        10.8 0.40            158           76.3  40 
 RUS  HZ EP        049 20.97                             143   -0.1710  102 176 
 RUS  HN ES        049 39.11                             143   -0.6210  102 176 
 RUS  HZ I         049 40.97        13.1 0.54            144            102 176 
 ZAR  HZ EP        049 29.76                             122    0.05 9  204 292 
 ZAR  HN ES        049 54.67                             122   -0.31 9  204 292 
 ZAR  HZ I         049 58.05        10.1 0.30            122            204 292 
 NOR  HZ EP        049 33.03                             118   -0.09 8  236 234 
 NOR  HN ES        050  0.90                             118   -0.16 8  236 234 
 NOR  HZ I         050  6.23         5.4 0.18            118            236 234 
 CHI  HZ EP        049 35.10                             117   -0.04 8  250 195 
 CHI  HN ES        050  4.75                             117    0.10 8  250 195 
 CHI  HZ I         050  8.81         5.4 0.38            118            250 195 
 ROSC BZ EP        049 36.08                             116    0.53 8  254 211 
 ROSC BN ES   4    050  7.92                             116    2.54 0  254 211 
 ROSC BZ I         050 10.84         8.6 0.30            117            254 211 
 HEL  HZ EP   4    049 38.87                             115    1.31 0  273 256 
 HEL  HN ES   4    050 12.01                             115    3.05 0  273 256 
 HEL  HZ I         050 15.27         5.4 0.50            115            273 256 
 URE  HZ EP        049 37.42                             113   -0.91 7  283 292 
 URE  HN ES   4    050  8.15                             113   -2.18 0  283 292 
 URE  HZ I         050 17.95         9.2 0.20            114            283 292 
 GUY2CHZ EP   4    049 42.15                             112    1.14 0  302 235 
 GUY2CHN ES   4    050 17.55                             112    2.46 0  302 235 
 GUY2CHZ I         050 24.53         5.5 0.30                           302 235 
 ELA  HZ EP   4    049 46.27                             110    2.01 0  330 229 
 ELA  HN ES        050 21.61                             110    0.73 7  330 229 
 ELA  HZ I         050 29.24         3.3 0.30            111            330 229 
 CBOC HZ EP        049 44.74                             110    0.46 7  334 252 
 CBOC HN ES   4    050 19.31                             110   -1.60 0  334 252 
 CBOC HZ I         050 30.16         2.3 0.54            110            334 252 
 PRA  HZ EP        049 50.74                             106   -0.22 6  393 209 
 PRA  HN ES        050 32.57                             106   -0.24 6  393 209 
 PRA  HZ I         050 39.30         4.5 0.28            107            393 209 
 ORTC HZ EP        049 52.08                             106    0.73 6  397 216 
 ORTC HN ES   4    050 32.45                             106   -1.06 0  397 216 
 ORTC HZ I         050 39.91         1.7 0.40            107            397 216 
 SJC  HZ EP        049 52.44                             106   -0.31 6  408 327 
 SJC  HN ES   4    050 31.25                             106   -4.74 0  408 327 
 SJC  HZ I         050 37.67         2.1 0.30            107            408 327 
                                                                                
