 2011  529 0348 26.3 L   6.773 -73.092149.8  RSN 11 0.3 2.5LRSN                1
 GAP=145        0.76       3.4     4.6  5.3 -0.6786E+01  0.7432E+01  0.3038E+00E
 Epicentro: LOS SANTOS - SANTANDER                                             3
 ACTION:UP  11-06-29 08:57 OP:tino STATUS:               ID:20110529034826 L   I
 2011-05-29-0345-13S.COL___113                                                 6
 STAT SP IPHASW D HRMM SECON CODA AMPLIT PERI AZIMU VELO SNR AR TRES W  DIS CAZ7
 BAR2 SZ EP        348 46.29                             171    -0.110   22 207 
 BAR2 SZ ES   1    349  1.78                             171    -0.3 7   22 207 
 BAR2 SZ I         349  3.12        92.1 0.24                            22 207 
 PAM  SZ EP        348 49.09                             152     0.310   76  35 
 PAM  SZ I         348 49.34        24.3 0.26                            76  35 
 PAM  SN ES   1    349  6.49                             152     0.0 7   76  35 
 BRR  HZ EP   1    348 48.18                             151     0.0 7   78 298 
 BRR  HZ I         348 48.48       163.9 0.15                            78 298 
 BRR  HN ES   1    349  6.10                             151     0.7 7   78 298 
 RUS  HZ EP   1    348 50.17                             146     0.0 7   97 179 
 RUS  HN ES   1    349  8.79                             146    -0.1 7   97 179 
 RUS  HZ I         349 10.19        42.3 0.40                            97 179 
 BRI  SZ EP   1    348 50.84                             142     0.2 7  109  17 
 BRI  SZ ES   1    349  9.39                             142    -0.2 7  109  17 
 GRA  SZ EP   1    348 52.09                             138     0.1 7  127  14 
 GRA  SZ ES   1    349 12.00                             138     0.0 7  127  14 
 GRA  SZ I         349 12.79        60.0 0.26                           127  14 
 OCA  SZ EP   1    348 54.76                             130    -0.5 7  164 351 
 OCA  SZ ES   1    349 17.45                             130    -0.4 7  164 351 
 OCA  SZ I         349 22.83        46.7 0.36                           164 351 
 NOR  SZ EP   1    349  2.08                             119    -0.5 6  238 236 
 NOR  SN ES   1    349 30.47                             119    -0.4 6  238 236 
 HEL  HZ EP   1    349  8.03                             115     0.8 6  277 257 
 HEL  HN ES   1    349 39.13                             115    -0.1 6  277 257 
 HEL  HZ I         349 44.65        15.5 0.39                           277 257 
 DBB  SZ EP   1    349 14.36                             110    -0.2 5  346 275 
 DBB  SZ I         349 54.62         4.2 0.51                           346 275 
 PRA  HZ EP   1    349 20.47                             107     0.5 4  392 211 
                                                                                
