 2012  729 0728 42.4 L   7.180 -73.952 18.7  RSN  6 0.3 1.7LRSN                1
 GAP=102        0.68       3.3     2.1  3.5  0.8482E+00 -0.8199E+00 -0.4401E+01E
 Epicentro: BARRANCABERMEJA - SANTANDER                                        3
 ACTION:UPD 12-08-14 11:46 OP:ep   STATUS:               ID:20120729072842 L   I
 2012-07-29-0720-00M.COL___215                                                 6
 STAT SP IPHASW D HRMM SECON CODA AMPLIT PERI AZIMU VELO AIN AR TRES W  DIS CAZ7
 BRR  HZ IP     C  728 47.73                             120    -0.110   28 107 
 BRR  HZ I         728 51.78        98.2 0.10            124             28 107 
 BRR  HE ES   1    728 52.14                             120     0.1 7   28 107 
 PTB  HZ EP        728 56.51                              99    -0.310   90 218 
 PTB  HZ I         729  8.46        15.1 0.28             99             90 218 
 ZAR  HZ EP        728 59.36                              98     0.210  106 289 
 ZAR  HE ES   2    729 12.34                              98     0.1 5  106 289 
 ZAR  HZ I         729 14.43        15.2 0.46             98            106 289 
 OCA  HZ EP        729  3.63                              56     0.0 9  136  31 
 OCA  HN ES   2    729 20.01                              56    -0.2 5  136  31 
 OCA  HZ I         729 23.40        37.7 0.26             56            136  31 
 PAM  SZ EP        729  4.32                              56    -0.1 9  139  83 
 PAM  SZ I         729  4.45         6.0 0.14             56            139  83 
 PAM  SN ES   3    729 20.44                              56    -1.2 2  139  83 
 RUS  HZ EP        729  8.93                              56     0.5 9  172 146 
 RUS  HE ES   3    729 28.72                              56    -0.1 2  172 146 
 RUS  HZ I         729 30.40         7.2 0.32             56            172 146 
