 2014  529 0914 27.4 L   6.813 -73.132143.8  RSN 20 0.7 2.4LRSN                1
 GAP= 71        1.43       3.3     3.7  6.1 -0.2136E+01  0.5021E+01  0.3564E+01E
 Epicentro: LOS SANTOS - SANTANDER                                             3
 ACTION:UPD 15-03-16 17:01 OP:nd   STATUS:               ID:20140529091427 L   I
 OLDACT:REG 14-05-29 13:49 OP:stll STATUS:               ID:20140529090816     3
 2014-05-29-0908-16M.COL___247                                                 6
 STAT SP IPHASW D HRMM SECON CODA AMPLIT PERI AZIMU VELO AIN AR TRES W  DIS CAZ7
 BAR2 SZ IP     C  914 47.08                             170    0.2210 25.0 193 
 BAR2 SZ ES        915  2.07                             170    0.0610 25.0 193 
 BAR2 SZ I         915  4.77        44.1 0.28            170           25.0 193 
 BRR  HZ EP        914 48.96                             152    0.5610 71.9 297 
 BRR  HN ES        915  5.97                             152    1.2110 71.9 297 
 BRR  HZ I         915  8.56        23.0 0.16            152           71.9 297 
 PAM  SZ IP     C  914 49.80                             151    0.4910 75.4  39 
 PAM  SN ES        915  6.25                             151   -0.1310 75.4  39 
 PAM  SZ I         915  9.20        37.8 0.20            150           75.4  39 
 RUS  HZ EP        914 50.93                             143   -0.1510  102 177 
 RUS  HZ I         914 51.86        17.6 0.44            143            102 177 
 RUS  HN ES        915  9.31                             143   -0.2210  102 177 
 PTB  HZ EP        914 53.67                             131   -0.72 9  149 258 
 PTB  HN ES        915 14.16                             131   -1.27 9  149 258 
 PTB  HZ I         915 20.86        40.4 0.22            131            149 258 
 TAM  HZ IP     D  914 55.22                             130    0.37 9  154 106 
 TAM  HZ I         915 15.98        21.5 0.36            130            154 106 
 TAM  HN ES        915 16.10                             130   -0.14 9  154 106 
 OCA  HZ EP        914 55.58                             129    0.11 9  159 353 
 OCA  HN ES        915 17.10                             129   -0.25 9  159 353 
 OCA  HZ I         915 25.50        24.0 0.30            129            159 353 
 SPBC HZ EP        914 56.05                             128    0.08 9  165 219 
 SPBC HE ES        915 18.50                             128    0.27 9  165 219 
 SPBC HZ I         915 23.08        40.6 0.40            128            165 219 
 ZAR  HZ EP        914 59.77                             122   -0.06 9  205 292 
 ZAR  HE ES        915 23.91                             122   -1.20 9  205 292 
 ZAR  HZ I         915 28.05        14.8 0.12            122            205 292 
 NOR  HZ EP        915  3.15                             118   -0.11 8  237 234 
 NOR  HE ES        915 30.79                             118   -0.42 8  237 234 
 NOR  HZ I         915 34.90        24.2 0.22            118            237 234 
 SML  HZ EP        915  3.88                             117    0.01 8  243 335 
 SML  HN ES        915 31.81                             117   -0.49 8  243 335 
 SML  HN I         915 38.01        57.3 0.32            117            243 335 
 CHI  HZ EP        915  5.08                             116   -0.13 8  250 195 
 CHI  HZ I         915  5.81         8.9 0.24            116            250 195 
 CHI  HN ES        915 33.96                             116   -0.72 8  250 195 
 HEL  HZ EP        915  8.36                             114    0.62 8  274 256 
 HEL  HN ES        915 39.59                             114    0.41 8  274 256 
 HEL  HZ I         915 45.78        13.3 0.38            114            274 256 
 GUY2CHZ EP        915 11.32                             112    0.15 7  303 235 
 GUY2CHN ES        915 45.86                             112    0.56 7  303 235 
 GUY2CHZ I         915 53.93        26.7 0.78                           303 235 
 RREF HZ EP        915 14.74                             110    1.02 7  324 229 
 RREF HE ES        915 50.37                             110    0.55 7  324 229 
 RREF HZ I         915 55.72        15.6 0.26            110            324 229 
 TOL  SZ EP        915 16.30                             109    0.46 6  346 225 
 TOL  SN ES        915 52.95                             109   -0.65 6  346 225 
 TOL  SZ I         916  4.14        30.3 0.72            109            346 225 
 ANIL HZ EP        915 19.29                             108    1.90 6  359 225 
 ANIL HN ES        915 56.79                             108    0.42 6  359 225 
 PRA  HZ EP        915 20.41                             106   -0.70 6  394 210 
 PRA  HE ES        916  1.45                             106   -1.53 6  394 210 
 PRA  HZ I         916  8.82        14.5 0.36            106            394 210 
 ORTC HZ EP        915 21.20                             106   -0.32 6  397 216 
 ORTC HN ES        916  4.32                             106    0.62 6  397 216 
 ORTC HZ I         916 11.78         8.4 0.56            106            397 216 
 ELOV BZ EP        915 20.86                             105   -1.35 6  404  87 
                                                                                
