 2017  729 0403 53.4 L   6.726 -73.100144.5  RSN  7 0.3 1.3LRSN                1
 GAP=217        0.73       5.5     6.4  5.9  0.1703E+02 -0.5804E+01 -0.4865E+01E
 Epicentro: JORDAN - SANTANDER                                                 3
 ACTION:UPD 17-08-30 15:37 OP:rebc STATUS:               ID:20170729040353 L   I
 OLDACT:UP  17-07-29 15:18 OP:and  STATUS:               ID:20170729035738     3
 OLDACT:UP  17-07-29 15:18 OP:and  STATUS:               ID:20170729035738     3
 OLDACT:REG 17-07-29 12:47 OP:and  STATUS:               ID:20170729035738     3
 2017-07-29-0358-00M.COL___386                                                 6
 STAT SP IPHASW D HRMM SECON CODA AMPLIT PERI AZIMU VELO AIN AR TRES W  DIS CAZ7
 BAR2 EZ IP     D  4 4 12.87                             173    0.1010 17.4 212 
 BAR2 EZ ES        4 4 27.31                             173   -0.5710 17.4 212 
 BAR2 EZ I         4 4 29.66         4.9 0.29            172           17.4 212 
 BRR  HZ IP     D  4 4 14.96                             149    0.0510 79.7 302 
 BRR  HN ES        4 4 32.04                             149    0.3410 79.7 302 
 BRR  HZ I         4 4 44.20         5.0 0.52            147           79.7 302 
 RUS  HN ES        4 4 34.66                             146    0.2610 92.2 179 
 RUS  HZ I         4 4 36.11         3.1 0.36            154           92.2 179 
 PTB  HZ EP   9    4 4 19.64                             131   -0.96 0  151 262 
 PTB  HN ES        4 4 40.52                             132   -0.34 9  151 262 
 PTB  HZ I         4 4 44.62         1.6 0.12            133            151 262 
 ZAR  HN ES   2    4 4 51.92                             121   -0.54 4  212 294 
 NOR  HZ EP   2    4 4 28.99                             118   -0.01 4  234 237 
 NOR  HN ES   2    4 4 56.68                             118   -0.10 4  234 237 
 PTGC HZ EP   2    4 4 35.58                             112   -0.54 4  299 159 
                                                                                
