 2015  429 0257 12.5 L   6.756 -73.138153.0  RSN  8 0.5 1.5LRSN                1
 GAP=201        1.21       5.3     6.2  7.3  0.5061E+01  0.7461E+01 -0.5087E+01E
 Epicentro: LOS SANTOS - SANTANDER                                             3
 ACTION:UPD 15-06-03 16:58 OP:cam  STATUS:               ID:20150429025712 L   I
 OLDACT:UP  15-04-29 14:22 OP:drio STATUS:               ID:20150429024751d    3
 OLDACT:DUP 15-04-29 14:04 OP:drio STATUS:               ID:20150429024751d    3
 2015-04-29-0247-50M.COL___286                                                 6
 STAT SP IPHASW D HRMM SECON CODA AMPLIT PERI AZIMU VELO AIN AR TRES W  DIS CAZ7
 BAR2 EZ EP        257 32.66                             173   -0.2710 18.7 195 
 BAR2 EZ ES        257 49.04                             173    0.1810 18.7 195 
 BAR2 EZ I         257 50.58         4.1 0.42            168           18.7 195 
 BRR  HZ EP        257 34.91                             153    0.2910 74.4 302 
 BRR  HN ES        257 52.34                             153    0.4710 74.4 302 
 BRR  HZ I         257 53.99         4.4 0.12            149           74.4 302 
 RUS  HZ EP        257 36.04                             147   -0.6010 95.6 176 
 RUS  HE ES        257 55.47                             147    0.0110 95.6 176 
 RUS  HZ I         257 56.17         2.1 0.50            147           95.6 176 
 PTB  HZ EP        257 39.86                             134   -0.21 9  148 261 
 PTB  HN ES        258  0.92                             134   -0.65 9  148 261 
 PTB  HZ I         258  6.70         5.4 0.40            131            148 261 
 SPBC HZ EP        257 41.73                             131    0.46 9  160 220 
 SPBC HN ES        258  3.71                             131    0.00 9  160 220 
 SPBC HZ I         258  5.99         4.3 0.14            130            160 220 
 ZAR  HZ EP        257 46.76                             124    1.06 8  207 293 
 ZAR  HE ES        258 11.18                             124   -0.42 8  207 293 
 ZAR  HZ I         258 17.73         4.3 0.32            123            207 293 
 NOR  HZ EP        257 49.08                             120    0.64 8  233 236 
 NOR  HN ES        258 16.29                             120   -0.18 8  233 236 
 NOR  HZ I         258 24.66         3.1 0.36            120            233 236 
 SML  HZ EP        257 49.25                             118   -0.81 8  249 336 
                                                                                
