 2014 1129 0952 39.3 L   6.792 -73.136146.0  RSN  9 0.4 2.0LRSN                1
 GAP=244        0.82       4.1     4.5  5.3  0.6184E+01  0.8543E+01  0.1014E+01E
 Epicentro: LOS SANTOS - SANTANDER                                             3
 ACTION:UPD 14-12-19 15:48 OP:nd   STATUS:               ID:20141129095239 L   I
 OLDACT:DUP 14-11-29 20:52 OP:mh   STATUS:               ID:20141129094744d    3
 2014-11-29-0947-42M.COL___306                                                 6
 STAT SP IPHASW D HRMM SECON CODA AMPLIT PERI AZIMU VELO AIN AR TRES W  DIS CAZ7
 BAR2 SZ EP   1    952 58.88                             171   -0.04 7 22.7 193 
 BAR2 SZ ES        953 14.46                             171    0.2210 22.7 193 
 BAR2 SZ I         953 16.85        21.1 0.25            167           22.7 193 
 RUS  HZ EP   1    953  2.48                             144   -0.50 7 99.6 177 
 RUS  HN ES        953 21.66                             144    0.1910 99.6 177 
 RUS  HZ I         953 22.93        10.0 0.18            145           99.6 177 
 PTB  HZ EP        953  5.83                             132   -0.51 9  149 259 
 PTB  HN ES        953 27.80                             132    0.34 9  149 259 
 SPBC HZ EP        953  7.77                             129   -0.02 9  163 219 
 SPBC HN ES        953 29.54                             129   -0.50 9  163 219 
 ZAR  HZ EP        953 11.61                             122   -0.26 8  205 292 
 ZAR  HN ES        953 37.08                             122   -0.22 8  205 292 
 ZAR  HZ I         953 42.31         7.0 0.12            122            205 292 
 CHI  HZ EP   1    953 17.26                             117    0.34 6  248 195 
 CHI  HN ES        953 46.08                             117   -0.21 8  248 195 
 HEL  HZ EP        953 20.15                             115    0.56 8  273 256 
 HEL  HE ES        953 51.23                             115    0.19 8  273 256 
 HEL  HZ I         953 57.73         4.6 0.44            115            273 256 
 GUY2CHZ EP   1    953 23.91                             112    0.97 5  302 235 
 GUY2CHN ES   4    954  0.37                             112    3.37 0  302 235 
 GUY2CHZ I         954  4.89                                            302 235 
 TOL  SZ EP        953 28.06                             109    0.50 7  344 225 
 TOL  SN ES        954  5.00                             109   -0.22 7  344 225 
 TOL  SZ I         954 15.31         7.5 0.41            110            344 225 
                                                                                
