 2011  929 0146 55.6 L   6.697 -73.074147.2  RSN  4 0.2 1.7LRSN                1
 GAP=150        0.54       3.8     5.9  5.8 -0.3269E+00 -0.2536E+01  0.9186E-01E
 Epicentro: JORDAN - SANTANDER                                                 3
 ACTION:UPD 12-07-13 16:00 OP:ep   STATUS:               ID:20110929014655 L   I
 2011-09-29-0145-25S.COL___168                                                 6
 STAT SP IPHASW D HRMM SECON CODA AMPLIT PERI AZIMU VELO AIN AR TRES W  DIS CAZ7
 BAR2 SZ EP   1    147 15.45                             173    0.15 7 16.7 226 
 BAR2 SZ ES   1    147 30.66                             173    0.01 7 16.7 226 
 BAR2 SZ I         147 32.43        18.2 0.27                          16.7 226 
 PAM  SZ EP   1    147 18.58                             150    0.31 7 82.2  30 
 PAM  SZ I         147 18.94         5.7 0.18                          82.2  30 
 PAM  SN ES   1    147 35.74                             150   -0.20 7 82.2  30 
 BRR  HZ EP   1    147 17.74                             149    0.07 7 83.8 303 
 BRR  HZ I         147 18.07        18.2 0.12                          83.8 303 
 BRR  HN ES   1    147 34.80                             149   -0.07 7 83.8 303 
 RUS  HZ EP   1    147 18.20                             147   -0.50 7 89.0 181 
 RUS  HN ES   1    147 36.95                             147    0.23 7 89.0 181 
 RUS  HZ I         147 39.49         4.7 0.25                          89.0 181 
                                                                                
