 2010  929 0132 35.1 L   6.772 -73.068148.0  RSN  5 0.2 1.6LRSN                1
 GAP=168        0.44       3.2     7.9  5.2 -0.4897E+01 -0.7406E+01  0.2913E+01E
 Epicentro: LOS SANTOS - SANTANDER                                             3
 ACTION:UP  11-02-18 11:06 OP:tino STATUS:               ID:20100929013235 L   I
 2010-09-29-0130-41S.COL___125                                                 6
 STAT SP IPHASW D HRMM SECON CODA AMPLIT PERI AZIMU VELO SNR AR TRES W  DIS CAZ7
 BAR2 SZ EP   1    132 54.99                             171     0.0 7   24 213 
 BAR2 SZ ES   1    133 10.85                             171     0.3 7   24 213 
 BAR2 SZ I         133 11.68        14.7 0.22                            24 213 
 BRR  HZ EP   2    132 57.13                             150     0.1 5   80 298 
 BRR  HZ I         133 13.74        15.0 0.36                            80 298 
 BRR  HN ES   2    133 13.96                             150    -0.2 5   80 298 
 RUS  HZ EP   1    132 58.81                             145     0.0 7   97 181 
 RUS  HN ES   2    133 17.21                             145    -0.2 5   97 181 
 RUS  HZ I         133 18.78         2.9 0.33                            97 181 
 GRA  SZ EP   2    133  0.76                             138     0.2 5  126  13 
 GRA  SZ ES   2    133 20.14                             138    -0.4 5  126  13 
 GRA  SZ I         133 24.78         3.8 0.25                           126  13 
 CHI  HZ EP   2    133 13.04                             118     0.2 4  248 197 
 CHI  HE ES   2    133 41.93                             118    -0.4 4  248 197 
 CHI  HZ I         133 50.57         2.1 0.43                           248 197 
                                                                                
