 2012  629 0220 59.6 L   6.801 -73.163148.0  RSN 10 0.4 1.9LRSN                1
 GAP=134        0.80       3.7     4.3  6.1 -0.1927E+01  0.6198E+01  0.2367E+01E
 Epicentro: LOS SANTOS - SANTANDER                                             3
 ACTION:UPD 12-08-06 17:53 OP:ep   STATUS:               ID:20120629022059 L   I
 2012-06-29-0220-00M.COL___201                                                 6
 STAT SP IPHASW D HRMM SECON CODA AMPLIT PERI AZIMU VELO AIN AR TRES W  DIS CAZ7
 BAR2 SZ EP   1    221 19.53                             171    0.00 7 23.2 185 
 BAR2 SZ ES   1    221 34.69                             171   -0.36 7 23.2 185 
 BAR2 SZ I         221 36.60        20.7 0.39                          23.2 185 
 BRR  HZ EP   1    221 21.41                             153    0.48 7 69.5 299 
 BRR  HN ES   1    221 38.62                             153    1.08 7 69.5 299 
 BRR  HZ I         221 42.91        18.7 0.13                          69.5 299 
 PAM  SZ EP   1    221 22.36                             151    0.21 7 78.5  41 
 PAM  SN ES   1    221 39.66                             151   -0.06 7 78.5  41 
 PAM  SZ I         221 42.05        10.9 0.58                          78.5  41 
 RUS  HZ EP   1    221 23.41                             144   -0.21 7  101 175 
 RUS  HN ES   1    221 42.30                             144   -0.03 7  101 175 
 RUS  HZ I         221 45.02        13.0 0.46                           101 175 
 PTB  HZ EP   1    221 26.32                             133   -0.30 7  146 259 
 PTB  HN ES   1    221 47.30                             133   -0.36 7  146 259 
 PTB  HZ I         221 50.90        11.3 0.16                           146 259 
 OCA  HZ EP   1    221 28.24                             130    0.15 7  160 354 
 OCA  HN ES   1    221 49.58                             130   -0.70 7  160 354 
 ZAR  HN ES   1    221 56.85                             123   -0.46 6  202 292 
 NOR  SZ EP   1    221 35.22                             119   -0.11 6  233 234 
 NOR  SN ES   1    222  3.19                             119    0.01 6  233 234 
 CHI  HZ EP   1    221 37.46                             118    0.05 6  248 195 
 CHI  HZ I         221 38.11         4.8 0.18                           248 195 
 HEL  HZ EP   1    221 40.26                             115    0.50 6  270 256 
 HEL  HZ I         222 17.97         6.6 0.31                           270 256 
                                                                                
