 2011  329 0748 31.8 L   6.744 -73.048142.2  RSN  4 0.4 1.6LRSN                1
 GAP=210        1.03      13.8    15.3 12.4  0.1854E+02 -0.9387E+02 -0.4523E+02E
 Epicentro: ARATOCA - SANTANDER                                                3
 ACTION:UP  11-06-16 14:36 OP:jfem STATUS:               ID:20110329074831 L   I
 2011-03-29-0747-36S.COL___138                                                 6
 STAT SP IPHASW D HRMM SECON CODA AMPLIT PERI AZIMU VELO SNR AR TRES W  DIS CAZ7
 BAR2 SZ EP        748 51.44                             171     0.510   23 222 
 BAR2 SZ ES   2    749  5.81                             171    -0.1 5   23 222 
 BAR2 SZ I         749  7.35         9.3 0.28                            23 222 
 BTL  SZ EP        748 50.59                             167    -0.610   31 309 
 BTL  SZ ES   1    749  6.08                             167    -0.2 7   31 309 
 BRR  HZ EP        748 53.07                             148    -0.210   84 299 
 BRR  HZ I         748 53.35        18.3 0.16                            84 299 
 BRR  HN ES   1    749 10.48                             148     0.4 7   84 299 
 GRA  SZ EP        748 57.15                             135     0.210  129  12 
 GRA  SZ I         749 19.45         2.3 0.45                           129  12 
                                                                                
