 2015 1229 0715 27.0 L   6.807 -73.177146.6  RSN  7 0.4 1.5LRSN                1
 GAP=205        1.02       3.7     7.4  6.6  0.8215E+00 -0.7512E+00  0.7580E+00E
 Epicentro: LOS SANTOS - SANTANDER                                             3
 ACTION:UPD 16-02-04 15:08 OP:cam  STATUS:               ID:20151229071527 L   I
 OLDACT:DUP 15-12-29 16:31 OP:ak   STATUS:               ID:20151229070750d    3
 2015-12-29-0707-49M.COL___337                                                 6
 STAT SP IPHASW D HRMM SECON CODA AMPLIT PERI AZIMU VELO AIN AR TRES W  DIS CAZ7
 BAR2 EZ EP        715 46.95                             170    0.1710 23.8 181 
 BAR2 EZ ES        716  1.58                             170   -0.5910 23.8 181 
 BAR2 EZ I         716  3.04         5.0 0.26            170           23.8 181 
 BRR  HZ EP        715 48.85                             154    0.7610 67.7 299 
 BRR  HE ES        716  5.01                             154    0.5010 67.7 299 
 PTB  HZ EP        715 53.79                             133    0.01 9  144 258 
 PTB  HN ES        716 14.14                             133   -0.50 9  144 258 
 PTB  HZ I         716 16.49         2.8 0.40            131            144 258 
 SPBC HZ EP        715 55.42                             129   -0.04 9  162 218 
 SPBC HN ES        716 17.90                             129    0.28 9  162 218 
 SPBC HZ I         716 22.47         4.8 0.32            128            162 218 
 SML  HZ EP        716  3.18                             118   -0.30 8  242 336 
 SML  HE ES        716 31.51                             118   -0.39 8  242 336 
 SML  HZ I         716 40.35         3.9 0.22            117            242 336 
 CHI  HZ EP        716  4.48                             117   -0.29 8  249 194 
 CHI  HN ES        716 34.22                             117    0.02 8  249 194 
 CHI  HZ I         716 37.86         2.1 0.54            117            249 194 
 GUY2CHZ EP   4    716 12.17                             113    1.75 0  299 234 
 GUY2CHN ES   4    716 46.13                             113    1.88 0  299 234 
 GUY2CHZ I         716 53.25         1.4 0.48                           299 234 
                                                                                
