 2016  129 0033 47.2 L   6.824 -73.168144.7  RSN  5 0.2 1.3LRSN                1
 GAP=133        0.64       3.0     2.9  6.2 -0.1261E+01  0.6787E+01 -0.3061E+01E
 Epicentro: LOS SANTOS - SANTANDER                                             3
 ACTION:UPD 16-03-09 23:29 OP:cam  STATUS:               ID:20160129003347 L   I
 OLDACT:REG 16-01-29 13:18 OP:cara STATUS:               ID:20160129002712     3
 2016-01-29-0027-11S.COL___226                                                 6
 STAT SP IPHASW D HRMM SECON CODA AMPLIT PERI AZIMU VELO AIN AR TRES W  DIS CAZ7
 PAM  EZ EP        034  9.24                             151   -0.0510 77.0  42 
 PAM  EN ES        034 26.58                             151    0.0610 77.0  42 
 PAM  EZ I         034 28.51         4.6 0.54            154           77.0  42 
 RUS  HZ EP        034 11.10                             143    0.0310  103 175 
 RUS  HN ES        034 29.60                             143   -0.0810  103 175 
 RUS  HZ I         034 30.87         1.3 0.42            148            103 175 
 PTB  HZ EP        034 13.61                             132   -0.31 9  146 258 
 PTB  HN ES        034 34.35                             132   -0.41 9  146 258 
 PTB  HZ I         034 37.98         2.2 0.16            134            146 258 
 SPBC HN ES        034 38.31                             129    0.42 9  164 218 
 ZAR  HZ EP        034 19.42                             123    0.17 9  201 292 
 ZAR  HN ES        034 44.50                             123    0.26 9  201 292 
 ZAR  HZ I         034 51.05         3.2 0.40            124            201 292 
                                                                                
