 2013  629 0920 17.2 L   6.799 -73.151148.2  RSN 14 0.5 2.0LRSN                1
 GAP=136        0.96       2.8     3.9  5.8 -0.1479E+01  0.5969E+01  0.3290E+01E
 Epicentro: LOS SANTOS - SANTANDER                                             3
 ACTION:UPD 14-01-08 09:58 OP:ep   STATUS:               ID:20130629092017 L   I
 OLDACT:REG 13-06-29 07:59 OP:carl STATUS:               ID:20130629091959     3
 2013-06-29-0919-59M.COL___267                                                 6
 STAT SP IPHASW D HRMM SECON CODA AMPLIT PERI AZIMU VELO AIN AR TRES W  DIS CAZ7
 BAR2 SZ EP        920 37.05                             171   -0.0510 23.1 189 
 BAR2 SZ ES   1    920 52.09                             171   -0.54 7 23.1 189 
 BAR2 SZ I         920 53.20        35.1 0.14            168           23.1 189 
 GIR2 SZ EP        920 37.21                             167    0.0710 31.3 351 
 GIR2 SZ ES   1    920 52.78                             167    0.07 7 31.3 351 
 GIR2 SZ I         920 53.90        12.4 0.20            166           31.3 351 
 BRR  HZ EP        920 39.02                             153    0.4610 70.7 299 
 BRR  HN ES   1    920 56.31                             153    1.07 7 70.7 299 
 BRR  HZ I         920 58.01        15.3 0.20            150           70.7 299 
 PAM  SZ EP        920 39.87                             151    0.1910 77.8  40 
 PAM  SN ES   1    920 57.35                             151    0.12 7 77.8  40 
 PAM  SZ I         920 58.94        10.3 0.64            155           77.8  40 
 RUS  HZ EP        920 40.89                             144   -0.2710  101 176 
 RUS  HN ES   1    920 59.73                             144   -0.15 7  101 176 
 RUS  HZ I         921  0.55        12.5 0.26            145            101 176 
 PTB  HZ EP        920 43.59                             133   -0.70 9  147 259 
 PTB  HN ES        921  4.82                             133   -0.62 9  147 259 
 PTB  HZ I         921 12.15        14.2 0.44            131            147 259 
 OCA  HE ES        921  7.91                             130    0.00 9  160 353 
 OCA  HZ I         921 10.60        14.1 0.18            131            160 353 
 ZAR  HZ EP        920 49.60                             123   -0.13 9  204 292 
 ZAR  HE ES        921 15.28                             123    0.16 9  204 292 
 ZAR  HZ I         921 21.99        13.0 0.44            122            204 292 
 NOR  HZ EP   1    920 53.23                             119    0.24 6  234 234 
 NOR  HE ES        921 21.42                             119    0.50 8  234 234 
 NOR  HZ I         921 26.24         9.4 0.44            119            234 234 
 SML  HZ EP   1    920 53.72                             118   -0.20 6  244 335 
 SML  HN ES   1    921 21.70                             118   -0.88 6  244 335 
 SML  HZ I         921 26.39        13.2 0.24            119            244 335 
 CHI  HZ EP   1    920 55.18                             118    0.20 6  248 195 
 CHI  HN ES        921 24.44                             118   -0.03 8  248 195 
 CHI  HZ I         921 29.71         4.6 0.22            118            248 195 
 GUY2CHZ EP   1    921  2.18                             113    1.35 5  301 235 
 GUY2CHE ES        921 34.65                             113   -0.24 7  301 235 
 GUY2CHZ I         921 43.38         7.1 0.64                           301 235 
 RREF HZ EP   4    921  5.09                             111    1.73 0  321 229 
 RREF HN ES   4    921 42.61                             111    3.22 0  321 229 
 RREF HZ I         921 47.92         5.2 0.28            112            321 229 
 PRA  HZ EP   1    921 10.54                             107   -0.20 4  392 209 
 PRA  HE ES        921 52.77                             107    0.26 6  392 209 
 PRA  HZ I         921 59.19         4.4 0.32            107            392 209 
                                                                                
