 2012  529 0424 34.9 L   6.779 -73.164141.0  RSN  7 0.4 2.0LRSN                1
 GAP=135        0.90       4.7     5.4  8.3 -0.2872E+01  0.1382E+02 -0.1165E+02E
 Epicentro: LOS SANTOS - SANTANDER                                             3
 ACTION:UP  12-07-05 12:08 OP:pat  STATUS:               ID:20120529042434 L   I
 2012-05-29-0420-00M.COL___201                                                 6
 STAT SP IPHASW D HRMM SECON CODA AMPLIT PERI AZIMU VELO AIN AR TRES W  DIS CAZ7
 BAR2 SZ EP   1    424 53.53                             171    -0.4 7   21 186 
 BAR2 SZ ES   1    425  8.46                             171    -0.3 7   21 186 
 BAR2 SZ I         425 10.67        20.1 0.17                            21 186 
 PAM  SZ EP   1    424 57.43                             149     0.6 7   81  40 
 PAM  SN ES   1    425 14.19                             149     0.3 7   81  40 
 PAM  SZ I         425 16.57        17.2 0.41                            81  40 
 RUS  HZ EP   1    424 58.16                             143     0.1 7   98 175 
 RUS  HZ I         424 59.82         9.2 0.13                            98 175 
 RUS  HN ES   1    425 16.25                             143     0.2 7   98 175 
 PTB  HZ EP   1    425  0.93                             131    -0.4 7  145 260 
 PTB  HN ES   1    425 21.64                             131    -0.2 7  145 260 
 PTB  HZ I         425 27.83         7.7 0.19                           145 260 
 OCA  HZ EP   1    425  2.55                             128    -0.5 7  162 354 
 OCA  HN ES   1    425 24.78                             128    -0.2 7  162 354 
 OCA  HZ I         425 29.28        19.9 0.26                           162 354 
 ZAR  HZ EP   1    425  7.66                             121     0.7 6  203 293 
 ZAR  HN ES   1    425 32.44                             121     0.5 6  203 293 
 ZAR  HZ I         425 41.21        13.8 0.21                           203 293 
 COD  HZ EP   1    425 23.03                             108    -0.3 5  350 355 
                                                                                
