 2012 1029 0541 15.0 L   6.792 -73.102148.7  RSN  6 0.4 1.8LRSN                1
 GAP=143        0.68       3.8     5.1  7.0  0.2049E+01  0.7615E+01  0.6018E+01E
 Epicentro: LOS SANTOS - SANTANDER                                             3
 ACTION:UPD 12-11-22 17:06 OP:ep   STATUS:               ID:20121029054115 L   I
 2012-10-29-0540-00M.COL___231                                                 6
 STAT SP IPHASW D HRMM SECON CODA AMPLIT PERI AZIMU VELO AIN AR TRES W  DIS CAZ7
 BAR2 SZ EP        541 34.89                             170   -0.0610 23.8 202 
 BAR2 SZ ES   2    541 49.69                             170   -0.85 5 23.8 202 
 PAM  SZ EP   1    541 37.59                             152    0.24 7 75.1  36 
 PAM  SN ES   1    541 54.62                             152   -0.20 7 75.1  36 
 PAM  SN I         541 55.83         9.1 0.40                          75.1  36 
 BRR  HZ EP        541 36.63                             152   -0.0610 75.9 297 
 BRR  HE ES   1    541 54.31                             152    0.67 7 75.9 297 
 BRR  HE I         541 57.15        20.0 0.20                          75.9 297 
 RUS  HN ES   1    541 57.75                             145    0.15 7 99.4 179 
 ZAR  HN ES   1    542 13.51                             122   -0.43 6  209 292 
 ZAR  HN I         542 22.81         6.2 0.12                           209 292 
 CHI  HZ EP   1    541 52.72                             118   -0.15 6  249 196 
 CHI  HN ES   1    542 22.62                             118    0.19 6  249 196 
 CHI  HN I         542 23.74         2.6 0.34                           249 196 
                                                                                
