 2010  429 0242 32.3 L   6.898 -73.043144.8  RSN 11 0.5 2.4LRSN                1
 GAP=147        0.95       5.4     7.4  8.4 -0.2721E+02 -0.2135E+02  0.2304E+02E
 Epicentro: PIEDECUESTA - SANTANDER                                            3
 ACTION:UP  10-08-24 10:01 OP:vdl  STATUS:               ID:20100429024232 L   I
 2010-04-29-0240-18S.COL___104                                                 6
 STAT SP IPHASW D HRMM SECON CODA AMPLIT PERI AZIMU VELO SNR AR TRES W  DIS CAZ7
 BAR2 SZ EP        242 51.90                             165    -0.210   37 205 
 BAR2 SZ ES   2    243  6.90                             165    -0.8 5   37 205 
 BRR  HZ EP        242 53.69                             150     0.010   78 287 
 BRR  HE ES   1    243 10.63                             150     0.2 7   78 287 
 BRR  HZ I         243 14.29        69.0 0.12                            78 287 
 GRA  SZ IP        242 56.82                             140     0.510  112  14 
 GRA  SZ ES   1    243 15.68                             140     0.6 7  112  14 
 OCA  SZ EP   1    242 59.44                             131    -0.2 7  151 348 
 OCA  SZ ES   1    243 20.25                             131    -0.8 7  151 348 
 CHI  HZ EP   1    243 10.93                             115    -0.5 6  262 197 
 CHI  HZ I         243 46.38        12.4 0.39                           262 197 
 ROSC BZ EP   1    243 12.89                             115     0.9 6  268 212 
 ROSC BN ES   1    243 43.24                             115     0.2 6  268 212 
 ROSC BZ I         243 52.98        22.0 0.34                           268 212 
 HEL  HZ EP   2    243 13.13                             113    -0.8 4  286 254 
 HEL  HE ES   3    243 45.54                             113    -1.0 2  286 254 
 HEL  HZ I         243 56.12        13.6 0.27                           286 254 
 RREF BZ EP   1    243 20.77                             109     0.6 5  337 229 
 RREF BN ES   1    243 58.16                             109     0.6 5  337 229 
 RREF BZ I         244  4.82        14.4 0.30                           337 229 
 SDV  BZ EP   1    243 20.51                             109     0.1 5  345  50 
 SDV  BE ES   1    243 57.68                             109    -0.4 5  345  50 
 SDV  BZ I         244  1.05         3.8 0.46                           345  50 
 TOL  SZ EP   1    243 22.32                             108     0.0 5  359 225 
 TOL  SZ ES   2    244  0.90                             108    -0.4 3  359 225 
 PRA  HZ EP   1    243 26.50                             106    -1.0 4  407 210 
 PRA  HN ES   2    244  9.84                             106    -0.8 3  407 210 
                                                                                
