 2016 1029 0719  3.1 L   6.805 -73.138149.5  RSN  7 0.2 1.4LRSN                1
 GAP=137        0.54       2.5     2.8  4.3 -0.9694E+00  0.7386E+00  0.3633E+01E
 Epicentro: LOS SANTOS - SANTANDER                                             3
 ACTION:UPD 16-11-09 19:24 OP:rebc STATUS:               ID:20161029071903 L   I
 OLDACT:UP  16-10-29 15:42 OP:dani STATUS:               ID:20161029071744     3
 OLDACT:UP  16-10-29 15:41 OP:dani STATUS:               ID:20161029071744     3
 OLDACT:REG 16-10-29 14:53 OP:dani STATUS:               ID:20161029071744     3
 2016-10-29-0718-00M.COL___325                                                 6
 STAT SP IPHASW D HRMM SECON CODA AMPLIT PERI AZIMU VELO AIN AR TRES W  DIS CAZ7
 BRR  HZ EP        719 24.78                             153    0.0610 71.7 298 
 BRR  HN ES        719 41.88                             153    0.3210 71.7 298 
 BRR  HZ I         719 47.57         5.7 0.42            155           71.7 298 
 PAM  EZ EP        719 25.87                             152    0.1710 76.4  39 
 PAM  EN ES        719 43.18                             152   -0.1110 76.4  39 
 PAM  EZ I         719 45.99         4.6 0.32            156           76.4  39 
 RUS  HZ EP        719 27.20                             144   -0.1010  101 177 
 RUS  HN ES        719 45.97                             144   -0.1710  101 177 
 RUS  HZ I         719 47.64         2.7 0.24            147            101 177 
 PTB  HZ EP        719 30.19                             133   -0.31 9  149 259 
 PTB  HE ES        719 51.61                             133   -0.23 9  149 259 
 PTB  HZ I         719 53.27         3.6 0.20            135            149 259 
 NOR  HE ES   2    720  7.69                             119    0.37 4  236 234 
 CHI  HZ EP        719 41.30                             118    0.17 8  249 195 
 CHI  HN ES        720 10.97                             118    0.21 8  249 195 
 CHI  HZ I         720 16.76         1.4 0.19            120            249 195 
 GUY2CHZ EP   4    719 49.30                             113    2.26 0  302 235 
 GUY2CHN ES   4    720 25.28                             113    4.00 0  302 235 
 GUY2CHZ I         720 29.13         1.8 0.34                           302 235 
                                                                                
