 2012  429 0502 43.2 L   6.773 -73.154146.6  RSN  6 0.4 1.7LRSN                1
 GAP=137        0.98       6.4     5.6  9.1  0.1010E+01  0.6618E+01 -0.3809E+01E
 Epicentro: LOS SANTOS - SANTANDER                                             3
 ACTION:UPD 12-07-05 11:56 OP:tino STATUS:               ID:20120429050243 L   I
 2012-04-29-0500-00M.COL___189                                                 6
 STAT SP IPHASW D HRMM SECON CODA AMPLIT PERI AZIMU VELO AIN AR TRES W  DIS CAZ7
 BAR2 SZ EP   1    5 3  2.85                             172    -0.1 7   20 189 
 BAR2 SZ ES   1    5 3 17.57                             172    -0.7 7   20 189 
 BAR2 SZ I         5 3 20.66        15.4 0.22                            20 189 
 BRR  HZ EP        5 3  4.71                             152     0.210   72 301 
 BRR  HN ES   1    5 3 21.73                             152     0.6 7   72 301 
 BRR  HZ I         5 3 25.36        13.1 0.25                            72 301 
 PAM  SZ EP        5 3  5.75                             150     0.010   80  39 
 PAM  SN ES   1    5 3 23.02                             150    -0.2 7   80  39 
 RUS  HZ EP   1    5 3  6.85                             145     0.0 7   98 175 
 RUS  HE ES   1    5 3 25.90                             145     0.6 7   98 175 
 RUS  HZ I         5 3 26.76         6.7 0.22                            98 175 
 PTB  HZ EP   1    5 3  9.69                             132    -0.4 7  146 260 
 PTB  HN ES   1    5 3 30.63                             132    -0.5 7  146 260 
 PTB  HZ I         5 3 34.62         3.6 0.37                           146 260 
 ZAR  HN ES   1    5 3 41.36                             122     0.2 6  204 293 
 ZAR  HZ I         5 3 45.72         4.4 0.06                           204 293 
                                                                                
