 2017  729 0344  6.6 L   6.798 -73.110152.2  RSN  9 0.4 1.5LRSN                1
 GAP=215        1.03       5.8     5.1  6.7  0.4773E+01 -0.3702E+01  0.7664E+01E
 Epicentro: LOS SANTOS - SANTANDER                                             3
 ACTION:UPD 17-08-30 15:37 OP:rebc STATUS:               ID:20170729034406 L   I
 OLDACT:UP  17-07-29 15:05 OP:and  STATUS:               ID:20170729033736     3
 OLDACT:REG 17-07-29 12:46 OP:and  STATUS:               ID:20170729033736     3
 2017-07-29-0338-00M.COL___386                                                 6
 STAT SP IPHASW D HRMM SECON CODA AMPLIT PERI AZIMU VELO AIN AR TRES W  DIS CAZ7
 BAR2 EZ IP     D  344 26.93                             171   -0.1010 24.1 199 
 BAR2 EZ ES        344 42.76                             171   -0.2010 24.1 199 
 BAR2 EZ I         344 44.70         6.5 0.46            166           24.1 199 
 BRR  HZ EP        344 28.89                             153    0.2310 74.7 297 
 BRR  HN ES        344 46.19                             153    0.3410 74.7 297 
 BRR  HZ I         344 47.14         9.0 0.26            150           74.7 297 
 RUS  HZ EP        344 31.24                             145    0.2710  100 178 
 RUS  HN ES        344 50.03                             145    0.0610  100 178 
 RUS  HZ I         344 51.24         1.6 0.18            144            100 178 
 PTB  HZ EP        344 33.98                             133   -0.47 9  152 259 
 PTB  HN ES        344 55.50                             133   -0.66 9  152 259 
 PTB  HZ I         345  0.89         3.4 0.20            131            152 259 
 SPBC HZ EP        344 35.97                             130    0.14 9  165 220 
 SPBC HN ES        344 58.33                             130   -0.28 9  165 220 
 SPBC HZ I         345  1.58         4.2 0.12            128            165 220 
 YPLC HZ IP     D  344 37.08                             128    0.39 9  175 152 
 NOR  HN ES        345 12.34                             119    0.87 8  238 235 
 NOR  HZ I         345 18.82         2.1 0.30            118            238 235 
 GUY2CHN ES   4    345 28.13                             113    2.74 0  304 235 
 GUY2CHZ I         345 33.94         1.2 0.30                           304 235 
 PTGC HZ EP        344 49.81                             113   -0.77 7  307 159 
                                                                                
