 2011  629 0128 44.6 L   6.042 -73.709108.0  RSN  4 0.3 1.2LRSN                1
 GAP=256        0.72       8.9    19.4 14.3  0.1441E+03  0.2274E+03  0.7655E+02E
 Epicentro: BOLIVAR - SANTANDER                                                3
 ACTION:UP  11-07-14 19:08 OP:ep   STATUS:               ID:20110629012844 L   I
 2011-06-29-0120-00M.COL___124                                                 6
 STAT SP IPHASW D HRMM SECON CODA AMPLIT PERI AZIMU VELO SNR AR TRES W  DIS CAZ7
 RUS  HZ EP        129  2.26                             145    -0.210   71 103 
 RUS  HN ES        129 16.60                             145     0.110   71 103 
 RUS  HZ I         129 18.48         1.8 0.15                            71 103 
 BAR2 SZ EP   1    129  3.02                             140    -0.1 7   84  44 
 BAR2 SZ ES   1    129 17.67                             140     0.1 7   84  44 
 BAR2 SZ I         129 19.35         6.8 0.21                            84  44 
 BTL  SZ EP        129  5.15                             132    -0.110  109  27 
 BRR  HZ EP   1    129  6.36                             129     0.6 7  118 360 
 BRR  HN ES   1    129 21.96                             129    -0.3 7  118 360 
 BRR  HZ I         129 28.09         5.8 0.13                           118 360 
                                                                                
