 2012  429 0657 13.7 L   6.783 -73.136145.9  RSN 10 0.5 2.3LRSN                1
 GAP=139        1.25       4.9     6.6  8.7 -0.1789E+01  0.1600E+02  0.6018E+01E
 Epicentro: LOS SANTOS - SANTANDER                                             3
 ACTION:UPD 12-07-05 11:56 OP:tino STATUS:               ID:20120429065713 L   I
 2012-04-29-0650-00M.COL___189                                                 6
 STAT SP IPHASW D HRMM SECON CODA AMPLIT PERI AZIMU VELO AIN AR TRES W  DIS CAZ7
 BAR2 SZ EP        657 33.21                             171    -0.110   22 194 
 BAR2 SZ ES   1    657 48.65                             171     0.0 7   22 194 
 BAR2 SZ I         657 50.02        70.0 0.30                            22 194 
 BRR  HZ IP     C  657 35.10                             152     0.110   73 299 
 BRR  HE ES   1    657 52.34                             152     0.8 7   73 299 
 BRR  HZ I         657 54.41        38.9 0.14                            73 299 
 PAM  SZ EP        657 35.97                             151     0.010   78  38 
 PAM  SE ES   1    657 53.14                             151    -0.2 7   78  38 
 RUS  HZ EP   1    657 37.12                             144    -0.2 7   99 177 
 RUS  HN ES   1    657 55.53                             144    -0.2 7   99 177 
 RUS  HZ I         657 57.05        27.7 0.33                            99 177 
 PTB  HZ EP        657 39.81                             132    -0.9 9  149 260 
 PTB  HN ES   1    658  0.96                             132    -0.9 7  149 260 
 PTB  HZ I         658  7.12        23.2 0.24                           149 260 
 OCA  SZ EP   1    657 41.73                             129    -0.5 7  162 353 
 OCA  SZ ES   1    658  4.94                             129     0.5 7  162 353 
 ZAR  HZ EP   1    657 46.65                             122     0.3 6  206 292 
 ZAR  HN ES   1    658 11.47                             122    -0.3 6  206 292 
 ZAR  HZ I         658 18.31        25.5 0.15                           206 292 
 CHI  HZ EP   1    657 51.16                             117    -0.1 6  247 196 
 CHI  HN ES   1    658 21.48                             117     1.0 6  247 196 
 CHI  HZ I         658 26.39         9.4 0.30                           247 196 
 HEL  HZ EP        657 55.06                             115     1.1 8  273 256 
 HEL  HZ I         658 31.56        11.2 0.36                           273 256 
 PRA  HZ EP   1    658  6.81                             107    -0.3 4  391 210 
 PRA  HN ES   1    658 49.11                             107     0.4 4  391 210 
                                                                                
