 2011  529 0853 54.9 L   6.772 -73.065149.3  RSN  7 0.3 1.7LRSN                1
 GAP=168        0.71       4.1     6.8  7.8 -0.6642E+01  0.3664E+01 -0.2506E+01E
 Epicentro: LOS SANTOS - SANTANDER                                             3
 ACTION:UP  11-06-29 08:57 OP:tino STATUS:               ID:20110529085354 L   I
 2011-05-29-0852-05S.COL___113                                                 6
 STAT SP IPHASW D HRMM SECON CODA AMPLIT PERI AZIMU VELO SNR AR TRES W  DIS CAZ7
 BAR2 SZ EP   1    854 15.10                             171     0.1 7   24 213 
 BAR2 SZ I         854 32.04         9.0 0.24                            24 213 
 BRR  HZ EP   1    854 17.18                             150     0.2 7   81 297 
 BRR  HZ I         854 17.51        16.9 0.03                            81 297 
 BRR  HN ES   1    854 34.33                             150     0.1 7   81 297 
 RUS  HZ EP   1    854 18.37                             145    -0.4 7   97 181 
 RUS  HN ES   1    854 37.60                             145     0.2 7   97 181 
 RUS  HZ I         854 38.31         5.5 0.37                            97 181 
 GRA  SZ EP   1    854 21.13                             138     0.6 7  126  13 
 GRA  SZ ES   1    854 40.06                             138    -0.5 7  126  13 
 GRA  SZ I         854 43.40         4.6 0.41                           126  13 
 OCA  SZ EP   1    854 23.81                             130    -0.1 7  165 350 
 NOR  SN ES   2    854 59.57                             119    -0.4 4  240 236 
 HEL  HZ EP   1    854 36.11                             115    -0.1 6  280 257 
                                                                                
