 2015  929 0624  0.7 L   6.676 -73.583 98.7  RSN  6 0.4 1.2LRSN                1
 GAP=118        1.13       4.4     4.4  8.6  0.7385E+01  0.1268E+02  0.4313E+01E
 Epicentro: EL CARMEN - SANTANDER                                              3
 ACTION:UPD 15-10-28 16:29 OP:cam  STATUS:               ID:20150929062400 L   I
 OLDACT:UP  15-09-29 17:27 OP:ak   STATUS:               ID:20150929061747     3
 OLDACT:REG 15-09-29 12:43 OP:spq  STATUS:               ID:20150929061747     3
 2015-09-29-0617-47M.COL___352                                                 6
 STAT SP IPHASW D HRMM SECON CODA AMPLIT PERI AZIMU VELO AIN AR TRES W  DIS CAZ7
 BAR2 EZ EP        624 15.66                             154   -0.0210 45.2 102 
 BAR2 EZ ES        624 27.18                             154   -0.1510 45.2 102 
 BAR2 EZ I         624 29.61         4.5 0.10            156           45.2 102 
 BRR  HZ EP        624 15.47                             151   -0.1210 49.8 343 
 BRR  HE ES        624 27.31                             151    0.1310 49.8 343 
 PTB  HZ IP     C  624 18.64                             132   -0.7010 97.8 261 
 PTB  HN ES        624 33.20                             132   -0.6410 97.8 261 
 PTB  HZ I         624 34.58         3.5 0.11            132           97.8 261 
 RUS  HZ EP        624 20.27                             131   -0.1710  103 147 
 RUS  HN ES        624 36.15                             131    0.3510  103 147 
 RUS  HZ I         624 37.39         3.2 0.19            132            103 147 
 SPBC HZ EP   4    624 24.04                             124    1.91 0  126 206 
 SPBC HN ES        624 39.36                             124    0.5510  126 206 
 SPBC HZ I         624 40.77         3.5 0.10            125            126 206 
 ZAR  HZ EP        624 26.68                             116    0.19 9  167 303 
 ZAR  HN ES        624 47.38                             116    0.81 9  167 303 
 ZAR  HZ I         624 51.01         5.3 0.34            116            167 303 
                                                                                
