 2017  329 0523 26.3 L   6.719 -73.142144.5  RSN  6 0.4 1.4LRSN                1
 GAP=140        0.90       4.8     4.2  6.9  0.1404E+00  0.7163E+01 -0.3584E+01E
 Epicentro: JORDAN - SANTANDER                                                 3
 ACTION:UPD 17-05-25 18:46 OP:jn   STATUS:               ID:20170329052326 L   I
 OLDACT:REG 17-03-29 12:33 OP:dnl  STATUS:               ID:20170329051743     3
 2017-03-29-0518-00M.COL___365                                                 6
 STAT SP IPHASW D HRMM SECON CODA AMPLIT PERI AZIMU VELO AIN AR TRES W  DIS CAZ7
 BAR2 EZ EP        523 45.62                             174    0.0210 14.7 198 
 BAR2 EZ ES        524  0.76                             174    0.0910 14.7 198 
 BAR2 EZ I         524  3.45         6.6 0.40            173           14.7 198 
 BRR  HZ EP        523 47.86                             151    0.2910 76.2 304 
 BRR  HE ES        524  4.75                             151    0.5610 76.2 304 
 PAM  EZ EP        523 48.67                             148   -0.1010 84.3  35 
 PAM  EN ES        524  5.88                             148   -0.4410 84.3  35 
 PAM  EZ I         524  7.82         5.0 0.48            151           84.3  35 
 RUS  HZ EP   2    523 49.49                             146    0.23 5 91.6 176 
 RUS  HN ES        524  7.30                             146    0.1110 91.6 176 
 RUS  HZ I         524  9.03         1.9 0.34            148           91.6 176 
 PTB  HZ EP        523 53.04                             132    0.01 9  147 262 
 PTB  HN ES        524 13.11                             132   -0.80 9  147 262 
 PTB  HZ I         524 16.22         2.1 0.16            133            147 262 
 ZAR  HN ES        524 24.76                             122    0.17 8  208 294 
 ZAR  HZ I         524 30.45         5.1 0.28            122            208 294 
                                                                                
