 2011  729 0924 29.8 L   6.768 -73.096150.5  RSN 18 0.3 3.6LRSN                1
 GAP=130        0.56       2.0     3.0  3.2 -0.2697E+01  0.1943E+01  0.7376E+00E
 Epicentro: LOS SANTOS - SANTANDER                                             3
 ACTION:UPD 12-07-25 14:04 OP:epov STATUS:               ID:20110729092429 L   I
 2011-07-29-0920-25S.COL___138                                                 6
 STAT SP IPHASW D HRMM SECON CODA AMPLIT PERI AZIMU VELO AIN AR TRES W  DIS CAZ7
 BAR2 SZ IP        924 49.89                             171   -0.0610 21.6 206 
 BAR2 SZ ES   1    925  5.31                             171   -0.37 7 21.6 206 
 BAR2 SZ I         925  7.99       758.6 0.34                          21.6 206 
 PAM  SZ EP        924 52.73                             152    0.2610 76.9  35 
 PAM  SE ES   1    925 10.16                             152   -0.01 7 76.9  35 
 BRR  HZ IP     C  924 51.84                             151    0.0310 77.8 299 
 BRR  HE ES   1    925  8.75                             151   -0.25 7 77.8 299 
 BRR  HZ I         925 12.54       759.6 0.18                          77.8 299 
 RUS  HZ IP     D  924 53.65                             146   -0.0810 96.8 179 
 RUS  HN ES   1    925 12.48                             146    0.06 7 96.8 179 
 RUS  HZ I         925 15.27       397.6 0.48                          96.8 179 
 BRI  SZ IP        924 54.46                             142    0.2210  110  17 
 BRI  SZ ES   1    925 13.68                             142    0.36 7  110  17 
 GRA  SZ IP        924 55.72                             138    0.1210  128  15 
 GRA  SZ ES   1    925 15.91                             138    0.16 7  128  15 
 GRA  SZ I         925 20.52       473.8 0.41                           128  15 
 OCA  SZ EP        924 58.51                             130   -0.35 9  165 351 
 OCA  SZ ES   2    925 21.15                             130   -0.39 5  165 351 
 OCA  SZ I         925 25.50       758.1 0.34                           165 351 
 CHI  HZ EP   2    925  7.49                             118   -0.04 4  247 197 
 CHI  HE ES   1    925 36.86                             118   -0.12 6  247 197 
 CHI  HZ I         925 45.70       238.7 0.60                           247 197 
 ROSC BN ES   2    925 38.15                             118    0.08 4  253 213 
 HEL  HZ EP   1    925 10.01                             115   -0.72 6  277 257 
 HEL  HN ES   1    925 43.08                             115    0.40 6  277 257 
 VIL  SZ EP   1    925 12.95                             113   -0.20 5  301 193 
 VIL  SN ES   2    925 47.22                             113    0.24 4  301 193 
 VIL  SZ I         925 57.16       154.4 0.47                           301 193 
 GUY  SZ EP   1    925 14.81                             113    0.66 5  306 236 
 GUY  SN ES   2    925 48.77                             113    0.00 4  306 236 
 GUY  SZ I         925 59.88       511.6 0.33                           306 236 
 RREF HZ EP   1    925 16.85                             111    0.51 5  324 230 
 RREF HN ES   2    925 52.41                             111   -0.26 3  324 230 
 RREF HZ I         926  2.19       268.4 0.52                           324 230 
 DBB  SZ EP        925 17.89                             110   -0.22 7  345 275 
 TOL  SZ EP   1    925 19.25                             110    0.87 5  345 226 
 SDV  BZ EP        925 19.26                             109   -0.52 6  359  49 
 SDV  BZ I         925 58.76       102.3 0.41                           359  49 
 PRA  HZ EP   1    925 23.30                             107   -0.12 4  392 211 
 PRA  HN ES   2    926  5.44                             107    0.17 3  392 211 
 SJA  SZ EP   2    925 23.45                             107   -0.78 3  398 194 
 SJA  SZ ES   2    926  6.50                             107   -0.21 3  398 194 
                                                                                
