 2012  429 0415  3.0 L   6.798 -73.123149.4  RSN 14 0.5 2.5LRSN                1
 GAP=128        1.06       3.9     4.8  6.2 -0.3236E+01  0.3032E+01  0.1138E+00E
 Epicentro: LOS SANTOS - SANTANDER                                             3
 ACTION:UPD 12-07-05 11:56 OP:tino STATUS:               ID:20120429041503 L   I
 2012-04-29-0410-00M.COL___189                                                 6
 STAT SP IPHASW D HRMM SECON CODA AMPLIT PERI AZIMU VELO AIN AR TRES W  DIS CAZ7
 BAR2 SZ EP        415 23.04                             171     0.010   24 196 
 BAR2 SZ ES   1    415 38.80                             171     0.1 7   24 196 
 BAR2 SZ I         415 39.95        40.3 0.21                            24 196 
 BRR  HZ EP        415 25.02                             152     0.410   74 298 
 BRR  HN ES   1    415 42.25                             152     0.7 7   74 298 
 BRR  HZ I         415 44.82        51.0 0.16                            74 298 
 PAM  SZ EP        415 25.74                             152     0.210   76  38 
 PAM  SN ES   1    415 43.08                             152     0.0 7   76  38 
 RUS  HZ EP        415 26.93                             145    -0.110  100 177 
 RUS  HN ES   1    415 45.48                             145    -0.4 7  100 177 
 RUS  HZ I         415 47.19        22.7 0.17                           100 177 
 PTB  HZ EP        415 29.73                             132    -0.7 9  150 259 
 PTB  HN ES   1    415 51.17                             132    -0.7 7  150 259 
 PTB  HZ I         415 58.42        44.3 0.37                           150 259 
 OCA  SZ EP        415 32.29                             130     0.6 9  161 352 
 ZAR  HZ EP   1    415 35.77                             123    -0.2 6  206 292 
 ZAR  HE ES   1    416  1.39                             123    -0.2 6  206 292 
 CHI  HZ EP   1    415 40.91                             118     0.0 6  249 196 
 CHI  HN ES   1    416 10.38                             118    -0.2 6  249 196 
 CHI  HZ I         416 16.12        20.9 0.34                           249 196 
 HEL  HZ EP   1    415 44.44                             115     0.8 6  274 256 
 HEL  HE ES   1    416 15.07                             115    -0.3 6  274 256 
 HEL  HZ I         416 22.26        20.6 0.45                           274 256 
 VIL  SZ EP   1    415 47.39                             113     0.8 5  304 192 
 VIL  SZ I         416 27.09        14.0 0.30                           304 192 
 GUY  SZ EP   1    415 47.64                             113     0.4 5  305 235 
 GUY  SZ I         416 27.97        22.4 0.50                           305 235 
 COD  HZ EP   1    415 50.80                             109    -0.8 5  349 354 
 COD  HN ES   1    416 28.99                             109    -0.5 5  349 354 
 COD  HZ I         416 35.38        10.6 0.23                           349 354 
 SDV  BZ EP        415 52.39                             109    -0.6 6  359  50 
 PRA  HZ EP        415 56.66                             107    -0.1 6  393 210 
 PRA  HE ES   1    416 39.64                             107     0.9 4  393 210 
                                                                                
