 2015  629 0422 35.8 L   6.822 -73.115147.7  RSN 14 0.5 2.4LRSN                1
 GAP=186        0.92       2.6     4.4  5.1 -0.4062E+00  0.7025E+01  0.2081E+01E
 Epicentro: LOS SANTOS - SANTANDER                                             3
 ACTION:UPD 15-09-10 22:15 OP:cam  STATUS:               ID:20150629042235 L   I
 OLDACT:UP  15-06-29 19:58 OP:mh   STATUS:               ID:20150629041749     3
 OLDACT:UP  15-06-29 19:58 OP:mh   STATUS:               ID:20150629041749     3
 OLDACT:REG 15-06-29 12:47 OP:mh   STATUS:               ID:20150629041749     3
 2015-06-29-0417-49M.COL___307                                                 6
 STAT SP IPHASW D HRMM SECON CODA AMPLIT PERI AZIMU VELO AIN AR TRES W  DIS CAZ7
 BAR2 EZ EP        422 55.86                             169    0.1410 26.4 196 
 BAR2 EZ ES   1    423 11.03                             169   -0.23 7 26.4 196 
 BAR2 EZ I         423 13.44        54.9 0.30            167           26.4 196 
 BRR  HZ EP        422 57.76                             152    0.5110 73.1 296 
 BRR  HN ES        423 14.39                             152    0.4010 73.1 296 
 BRR  HZ I         423 18.60        20.8 0.50            149           73.1 296 
 RUS  HZ EP        422 59.80                             144   -0.0910  103 178 
 RUS  HN ES        423 18.28                             144   -0.4110  103 178 
 RUS  HZ I         423 19.60        19.1 0.44            145            103 178 
 OCA  HZ EP        423  3.96                             130   -0.11 9  158 352 
 OCA  HN ES        423 26.31                             130    0.18 9  158 352 
 OCA  HZ I         423 30.84        50.8 0.38            132            158 352 
 ZAR  HZ EP        423  8.59                             122   -0.00 8  206 291 
 ZAR  HN ES        423 33.98                             122   -0.19 8  206 291 
 ZAR  HZ I         423 39.81        20.8 0.32            122            206 291 
 NOR  HZ EP   1    423 11.72                             118   -0.36 6  239 234 
 NOR  HN ES   1    423 39.92                             118   -0.46 6  239 234 
 NOR  HZ I         423 43.22        17.8 0.36            119            239 234 
 SML  HZ EP        423 11.88                             118   -0.56 8  243 334 
 SML  HN ES        423 40.79                             118   -0.24 8  243 334 
 SML  HZ I         423 48.47        32.0 0.28            119            243 334 
 ROSC BZ EP   1    423 15.16                             117    0.73 6  257 211 
 ROSC BN ES   4    423 46.61                             117    2.04 0  257 211 
 ROSC BZ I         423 53.32        27.5 0.45            118            257 211 
 HEL  HZ EP        423 17.56                             115    1.03 7  276 255 
 HEL  HN ES        423 47.64                             115   -0.66 7  276 255 
 HEL  HZ I         423 54.31        11.7 0.36            115            276 255 
 URE  HZ EP   4    423 19.84                             114    2.64 0  286 291 
 URE  HN ES   4    423 50.96                             114    1.46 0  286 291 
 GUY2CHZ EP        423 20.22                             112    0.26 7  305 235 
 GUY2CHN ES   4    423 56.89                             112    2.49 0  305 235 
 GUY2CHZ I         424  2.37        20.4 0.76                           305 235 
 TOL  SZ EP        423 23.77                             109   -0.82 6  348 225 
 TOL  SN ES   1    424  3.00                             109    0.34 5  348 225 
 TOL  SZ I         424  9.78        12.9 0.38            110            348 225 
 PRA  HZ EP        423 29.46                             107   -0.36 6  396 210 
 PRA  HN ES        424 12.32                             107    0.36 6  396 210 
 PRA  HZ I         424 17.59        12.2 0.36            108            396 210 
 ORTC HZ EP        423 30.12                             106   -0.12 6  399 216 
 ORTC HN ES        424 13.69                             106    0.99 6  399 216 
 ORTC HZ I         424 20.23         9.2 0.24            108            399 216 
 PAL  HZ EP        423 31.29                             106   -0.21 6  410 239 
 PAL  HN ES        424 14.72                             106   -0.23 6  410 239 
 PAL  HZ I         424 17.42         3.5 0.62            107            410 239 
                                                                                
