 2013 1129 0301 10.4 L   6.761 -73.157146.7  RSN  7 0.4 1.5LRSN                1
 GAP=137        1.05       5.3     4.9  7.5 -0.4204E+00  0.8089E+01 -0.5398E+01E
 Epicentro: LOS SANTOS - SANTANDER                                             3
 ACTION:UPD 14-01-09 16:31 OP:ep   STATUS:               ID:20131129030110 L   I
 OLDACT:REG 13-11-29 07:50 OP:mh   STATUS:               ID:20131129030000     3
 2013-11-29-0300-00M.COL___282                                                 6
 STAT SP IPHASW D HRMM SECON CODA AMPLIT PERI AZIMU VELO AIN AR TRES W  DIS CAZ7
 BAR2 SZ EP        3 1 29.91                             172   -0.1810 18.8 188 
 BAR2 SZ ES   1    3 1 45.28                             172   -0.14 7 18.8 188 
 BAR2 SZ I         3 1 47.05         6.9 0.31            172           18.8 188 
 BRR  HZ EP        3 1 32.19                             152    0.4510 72.3 302 
 BRR  HN ES        3 1 48.75                             152    0.3910 72.3 302 
 BRR  HZ I         3 1 52.94         8.1 0.24            151           72.3 302 
 PAM  SZ EP        3 1 33.30                             150    0.3010 81.6  38 
 PAM  SN ES        3 1 50.06                             150   -0.5410 81.6  38 
 PAM  SZ I         3 1 51.34         4.8 0.21            153           81.6  38 
 RUS  HZ EP   1    3 1 33.44                             145   -0.53 7 96.3 175 
 RUS  HE ES        3 1 52.87                             145    0.5410 96.3 175 
 RUS  HZ I         3 1 54.80         2.3 0.31            148           96.3 175 
 PTB  HZ EP        3 1 37.16                             133   -0.13 9  146 260 
 PTB  HN ES        3 1 57.44                             133   -0.80 9  146 260 
 PTB  HZ I         3 2  0.48         3.6 0.12            133            146 260 
 ZAR  HZ EP   1    3 1 43.09                             122    0.10 6  205 293 
 ZAR  HN ES   1    3 2  8.94                             122    0.56 6  205 293 
 ZAR  HZ I         3 2 13.68         4.1 0.20            124            205 293 
 SML  HZ EP   1    3 1 47.37                             117   -0.11 6  247 336 
 SML  HN ES   4    3 2 14.86                             117   -1.52 0  247 336 
                                                                                
