 2015  329 0525 59.8 L   6.791 -73.123145.1  RSN 11 0.6 1.8LRSN                1
 GAP=113        1.42       4.2     4.3  7.6  0.6085E+00  0.5316E+01 -0.3619E+01E
 Epicentro: LOS SANTOS - SANTANDER                                             3
 ACTION:UPD 15-04-30 16:30 OP:nd   STATUS:               ID:20150329052559 L   I
 OLDACT:DUP 15-03-29 15:37 OP:stll STATUS:               ID:20150329051749d    3
 2015-03-29-0517-48M.COL___290                                                 6
 STAT SP IPHASW D HRMM SECON CODA AMPLIT PERI AZIMU VELO AIN AR TRES W  DIS CAZ7
 BAR2 EZ EP        526 19.51                             171    0.1810 23.0 196 
 BAR2 EZ ES        526 34.15                             171   -0.4310 23.0 196 
 BAR2 EZ I         526 36.29         7.1 0.26            170           23.0 196 
 BRR  HZ EP        526 21.56                             152    0.5410 73.8 298 
 BRR  HN ES        526 38.94                             152    1.3710 73.8 298 
 BRR  HZ I         526 41.19         8.1 0.18            150           73.8 298 
 RUS  HZ EP        526 23.52                             144    0.1210 99.5 177 
 RUS  HZ I         526 25.06         2.8 0.18            146           99.5 177 
 RUS  HN ES        526 41.78                             144   -0.0310 99.5 177 
 PTB  HZ EP        526 26.34                             131   -0.57 9  150 259 
 PTB  HN ES        526 46.97                             131   -1.09 9  150 259 
 PTB  HZ I         526 53.59         6.4 0.38            131            150 259 
 TAM  HZ IP     D  526 27.74                             131    0.57 9  152 105 
 TAM  HZ I         526 27.87         6.4 0.20            135            152 105 
 TAM  HN ES        526 48.01                             131   -0.52 9  152 105 
 OCA  HZ EP        526 27.31                             129   -0.86 9  162 352 
 OCA  HN ES        526 50.72                             129    0.42 9  162 352 
 OCA  HZ I         526 55.49        10.8 0.36            130            162 352 
 SPBC HZ EP        526 28.56                             129    0.24 9  164 220 
 SPBC HE ES        526 50.09                             129   -0.48 9  164 220 
 SPBC HZ I         526 57.68        11.2 0.36            130            164 220 
 ZAR  HZ EP        526 32.45                             122   -0.02 8  207 292 
 ZAR  HN ES        526 57.89                             122   -0.06 8  207 292 
 ZAR  HZ I         527  4.05         5.8 0.56            122            207 292 
 SML  HZ EP        526 36.67                             117    0.08 8  246 335 
 SML  HN ES        527  4.59                             117   -0.69 8  246 335 
 SML  HZ I         527  9.31         8.5 0.10            118            246 335 
 HEL  HZ EP        526 40.08                             114   -0.13 8  274 256 
 HEL  HN ES        527 11.99                             114    0.25 8  274 256 
 HEL  HZ I         527 20.17         2.7 0.28            115            274 256 
 GUY2CHZ EP        526 44.33                             112    0.79 7  303 235 
 GUY2CHN ES        527 17.98                             112    0.32 7  303 235 
 GUY2CHZ I         527 26.36         4.3 0.80                           303 235 
                                                                                
