 2014 1029 0453 57.6 L   6.732 -73.529108.5  RSN  5 0.4 1.0LRSN                1
 GAP=106        1.17       6.2     5.2  8.8  0.7397E+01  0.1456E+00  0.3071E+01E
 Epicentro: EL CARMEN - SANTANDER                                              3
 ACTION:UPD 14-11-29 23:58 OP:nd   STATUS:               ID:20141029045357 L   I
 OLDACT:DUP 14-10-30 23:53 OP:stll STATUS:               ID:20141029044744d    3
 2014-10-29-0447-43M.COL___271                                                 6
 STAT SP IPHASW D HRMM SECON CODA AMPLIT PERI AZIMU VELO AIN AR TRES W  DIS CAZ7
 BAR2 SZ EP        454 13.66                             158    0.2110 41.3 112 
 BAR2 SZ ES        454 25.35                             158   -0.4510 41.3 112 
 BAR2 SZ I         454 26.66         3.7 0.26            148           41.3 112 
 BRR  HZ EP        454 13.78                             155    0.4510 46.1 334 
 BRR  HN ES        454 26.09                             155    0.4910 46.1 334 
 BRR  HZ I         454 27.12         5.1 0.12            158           46.1 334 
 PTB  HZ EP        454 17.43                             132   -0.2110  105 258 
 PTB  HZ I         454 17.70         1.6 0.58            128            105 258 
 PTB  HN ES        454 32.85                             132   -0.4110  105 258 
 RUS  HZ EP        454 18.92                             133    0.6010  105 152 
 RUS  HN ES        454 34.50                             133    0.0210  105 152 
 RUS  HZ I         454 35.50         1.0 0.20            124            105 152 
 PAM  SZ EP        454 18.37                             130   -0.7210  114  54 
                                                                                
