 2010  729 0931 12.8 L   6.829 -73.022142.9  RSN  4 0.2 1.5LRSN                1
 GAP=178        0.50       4.1     7.3  6.6  0.1562E+02 -0.3003E+02 -0.1375E+02E
 Epicentro: CEPITA - SANTANDER                                                 3
 ACTION:UPD 10-12-01 15:20 OP:pat  STATUS:               ID:20100729093112 L   I
 2010-07-29-0929-34S.COL___123                                                 6
 STAT SP IPHASW D HRMM SECON CODA AMPLIT PERI AZIMU VELO AIN AR TRES W  DIS CAZ7
 BAR2 SZ EP        931 32.36                             167     0.110   32 214 
 BAR2 SZ ES   1    931 47.21                             167    -0.3 7   32 214 
 BAR2 SZ I         931 48.89         7.2 0.41                            32 214 
 BRR  HZ EP        931 34.16                             148    -0.210   82 292 
 BRR  HZ I         931 34.31         7.9 0.06                            82 292 
 BRR  HN ES        931 51.22                             148     0.110   82 292 
 RUS  HZ EP   1    931 36.42                             142    -0.1 7  104 184 
 RUS  HN ES   1    931 55.23                             142     0.2 7  104 184 
 RUS  HZ I         931 56.27         2.8 0.35                           104 184 
 GUE  SZ EP        931 36.95                             140     0.110  111   6 
                                                                                
