 2013  129 0845 58.9 L   6.734 -73.131136.0  RSN  9 0.5 1.7LRSN                1
 GAP= 93        1.03       5.6     4.6  7.2  0.4072E+01  0.4660E+01  0.1096E+02E
 Epicentro: JORDAN - SANTANDER                                                 3
 ACTION:UPD 13-02-15 09:17 OP:ep   STATUS:               ID:20130129084558 L   I
 2013-01-29-0840-00M.COL___241                                                 6
 STAT SP IPHASW D HRMM SECON CODA AMPLIT PERI AZIMU VELO AIN AR TRES W  DIS CAZ7
 BAR2 SZ EP        846 17.27                             173    0.0810 16.7 200 
 BAR2 SZ ES   1    846 30.93                             173   -0.56 7 16.7 200 
 BAR2 SZ I         846 33.13        19.7 0.20            139           16.7 200 
 BRR  HZ EP        846 19.18                             149   -0.0910 76.3 303 
 BRR  HE ES        846 35.98                             149    0.7810 76.3 303 
 PAM  SZ EP        846 20.29                             148   -0.0610 82.2  35 
 PAM  SZ I         846 20.54        11.9 0.22            141           82.2  35 
 PAM  SN ES        846 37.04                             148   -0.0810 82.2  35 
 RUS  HZ EP   1    846 20.58                             144   -0.54 7 93.2 177 
 RUS  HN ES   1    846 38.75                             144    0.27 7 93.2 177 
 RUS  HN I         846 41.23        13.0 0.24            112           93.2 177 
 PTB  HZ EP        846 24.38                             130   -0.70 9  148 262 
 PTB  HZ I         846 47.31         5.3 0.21            104            148 262 
 TAM  HZ EP        846 25.66                             129    0.20 9  152 102 
 ZAR  HN ES        846 56.04                             120   -0.29 8  208 294 
 ZAR  HZ I         847  3.33         5.1 0.23            100            208 294 
 CHI  HZ EP   1    846 35.98                             116    0.67 6  242 196 
 CHI  HZ I         847  8.09         1.5 0.29             98            242 196 
 HEL  HZ EP   1    846 39.35                             113    0.77 6  272 257 
 HEL  HZ I         847 16.78         2.4 0.31             97            272 257 
                                                                                
