 2015  529 0622 51.7 L   6.800 -73.139148.3  RSN 10 0.4 2.0LRSN                1
 GAP=137        1.11       3.5     4.7  6.4 -0.1953E+01  0.1154E+02 -0.2379E+01E
 Epicentro: LOS SANTOS - SANTANDER                                             3
 ACTION:UPD 15-09-10 22:07 OP:cam  STATUS:               ID:20150529062251 L   I
 OLDACT:REG 15-05-29 13:55 OP:ar   STATUS:               ID:20150529061747     3
 2015-05-29-0617-47M.COL___309                                                 6
 STAT SP IPHASW D HRMM SECON CODA AMPLIT PERI AZIMU VELO AIN AR TRES W  DIS CAZ7
 BAR2 EZ EP        623 11.50                             171   -0.0910 23.5 192 
 BAR2 EZ ES        623 27.13                             171   -0.0110 23.5 192 
 BAR2 EZ I         623 28.23        18.5 0.40            170           23.5 192 
 BRR  HZ EP     C  623 13.34                             153    0.2310 71.8 298 
 BRR  HE ES        623 30.80                             153    0.9610 71.8 298 
 BRR  HZ I         623 34.79        12.2 0.14            149           71.8 298 
 PAM  SZ EP        623 14.23                             152    0.1210 76.9  39 
 PAM  SN ES        623 30.70                             152   -0.9210 76.9  39 
 PAM  SZ I         623 36.22         8.1 0.24            154           76.9  39 
 RUS  HZ EP        623 15.88                             144    0.2310  101 176 
 RUS  HN ES        623 34.42                             144    0.0510  101 176 
 RUS  HZ I         623 35.15         9.2 0.28            150            101 176 
 OCA  HZ EP        623 19.96                             130   -0.20 9  160 353 
 OCA  HN ES        623 42.54                             130    0.14 9  160 353 
 OCA  HZ I         623 47.29        27.2 0.20            131            160 353 
 ZAR  HZ EP        623 24.03                             123   -0.30 9  205 292 
 ZAR  HN ES        623 49.60                             123   -0.22 9  205 292 
 ZAR  HZ I         623 56.49        15.8 0.30            123            205 292 
 NOR  HZ EP        623 27.64                             119    0.05 8  235 235 
 NOR  HE ES        623 55.25                             119   -0.37 8  235 235 
 NOR  HZ I         623 58.69         5.3 0.18            121            235 235 
 SML  HZ EP        623 28.54                             118    0.09 8  244 335 
 SML  HN ES        623 57.23                             118    0.08 8  244 335 
 SML  HZ I         624  3.50        17.4 0.10            119            244 335 
 HEL  HZ EP        623 32.86                             115    0.79 8  273 256 
 HEL  HN ES        624  2.71                             115   -0.88 8  273 256 
 HEL  HZ I         624  9.78         5.0 0.28            117            273 256 
 URE  HZ EP   4    623 35.92                             114    3.00 0  284 292 
 URE  HE ES   4    624  2.89                             114   -2.21 0  284 292 
 URE  HZ I         624 15.47         6.1 0.24            115            284 292 
                                                                                
