 2017  329 0844 17.6 L   6.832 -73.127145.0  RSN  6 0.4 1.3LRSN                1
 GAP=137        0.94       4.8     4.3  7.4  0.1708E+01  0.5202E+01 -0.2667E+00E
 Epicentro: LOS SANTOS - SANTANDER                                             3
 ACTION:UPD 17-05-25 18:46 OP:jn   STATUS:               ID:20170329084417 L   I
 OLDACT:DUP 17-03-29 16:39 OP:dnl  STATUS:               ID:20170329083748d    3
 2017-03-29-0838-00M.COL___355                                                 6
 STAT SP IPHASW D HRMM SECON CODA AMPLIT PERI AZIMU VELO AIN AR TRES W  DIS CAZ7
 BAR2 EZ EP   2    844 37.41                             169    0.13 5 27.2 193 
 BAR2 EZ ES        844 52.37                             169   -0.2110 27.2 193 
 BAR2 EZ I         844 53.89         6.2 0.52            170           27.2 193 
 BRR  HZ EP        844 37.78                             152   -0.9510 71.5 295 
 BRR  HN ES        844 55.29                             152    0.1110 71.5 295 
 BRR  HZ I         845  7.40         6.6 0.28            150           71.5 295 
 PAM  EZ EP        844 39.87                             152    0.3210 73.3  40 
 PAM  EE ES        844 56.69                             152    0.0610 73.3  40 
 PAM  EZ I         844 57.19         3.0 0.40            156           73.3  40 
 RUS  HZ EP        844 41.85                             143    0.2810  104 177 
 RUS  HN ES        845  0.31                             143    0.0710  104 177 
 RUS  HZ I         845  2.24         1.5 0.32            149            104 177 
 PTB  HE EP   2    844 44.57                             131   -0.24 5  151 258 
 PTB  HN ES        845  6.03                             131    0.04 9  151 258 
 PTB  HE I         845  7.84         5.6 0.32            133            151 258 
 ZAR  HZ EP   4    844 51.65                             122    1.54 0  205 291 
 ZAR  HN ES        845 15.89                             122    0.45 9  205 291 
 ZAR  HZ I         845 21.53         1.3 0.32            124            205 291 
                                                                                
