 2016 1129 0734 58.4 L   7.381 -73.179135.4  RSN  5 0.1 2.1LRSN                1
 GAP=181        0.43       3.4     1.9  3.4 -0.6539E+00  0.2502E+01 -0.2892E+01E
 Epicentro: EL PLAYON - SANTANDER                                              3
 ACTION:UPD 17-10-26 21:12 OP:lp   STATUS:               ID:20161129073458 L   I
 OLDACT:REG 16-11-29 12:52 OP:dani STATUS:               ID:20161129072743     3
 2016-11-29-0728-00M.COL___346                                                 6
 STAT SP IPHASW D HRMM SECON CODA AMPLIT PERI AZIMU VELO AIN AR TRES W  DIS CAZ7
 PAM  EZ EP        735 18.32                             158    0.1310 53.2  95 
 PAM  EN ES        735 33.49                             158   -0.1310 53.2  95 
 PAM  EZ I         735 36.12        27.9 0.76            161           53.2  95 
 BRR  HZ EP     C  735 18.18                             152    0.0310 66.2 243 
 BRR  HN ES        735 33.50                             152   -0.0510 66.2 243 
 BRR  HZ I         735 34.78        24.7 0.06            153           66.2 243 
 BAR2 EZ IP        735 20.02                             145    0.2010 87.3 180 
 BAR2 EZ ES        735 36.55                             145    0.0210 87.3 180 
 BAR2 EZ I         735 37.79        39.2 0.26            149           87.3 180 
 PTB  HZ EP        735 26.32                             125   -0.29 9  169 237 
 PTB  HN ES        735 48.62                             125    0.01 9  169 237 
 PTB  HZ I         735 51.18        13.7 0.40            128            169 237 
 ZAR  HZ EP        735 28.13                             123   -0.15 9  186 274 
 ZAR  HN ES        735 51.77                             123    0.18 9  186 274 
 ZAR  HZ I         735 56.35        15.6 0.26            124            186 274 
                                                                                
