 2012 1029 0135  5.4 L   6.777 -73.140150.2  RSN  8 0.4 2.1LRSN                1
 GAP=138        0.72       3.6     4.8  7.0  0.1041E+01  0.5019E+01  0.6526E+01E
 Epicentro: LOS SANTOS - SANTANDER                                             3
 ACTION:UPD 12-11-22 17:06 OP:ep   STATUS:               ID:20121029013505 L   I
 2012-10-29-0130-00M.COL___231                                                 6
 STAT SP IPHASW D HRMM SECON CODA AMPLIT PERI AZIMU VELO AIN AR TRES W  DIS CAZ7
 BAR2 SZ EP        135 25.01                             172   -0.4610 20.9 193 
 GIR2 SZ EP        135 25.55                             167   -0.0710 33.9 350 
 GIR2 SZ ES   2    135 41.57                             167    0.14 5 33.9 350 
 BRR  HZ EP        135 27.32                             153    0.2410 73.0 300 
 BRR  HE ES   1    135 44.63                             153    0.60 7 73.0 300 
 BRR  HE I         135 45.53        65.4 0.44                          73.0 300 
 PAM  SZ EP        135 28.40                             151    0.2710 79.0  38 
 PAM  SE ES   1    135 45.66                             151   -0.24 7 79.0  38 
 PAM  SE I         135 47.05        16.5 0.72                          79.0  38 
 RUS  HZ EP        135 29.36                             145    0.0010 98.0 176 
 RUS  HN ES   1    135 47.93                             145   -0.15 7 98.0 176 
 RUS  HN I         135 49.01         6.1 0.26                          98.0 176 
 ZAR  HZ EP   2    135 38.69                             123    0.44 4  206 293 
 ZAR  HE ES   1    136  3.10                             123   -0.81 6  206 293 
 ZAR  HE I         136 14.13        15.0 0.16                           206 293 
 CHI  HZ EP   2    135 43.13                             118    0.08 4  246 195 
 CHI  HN ES   1    136 12.63                             118    0.17 6  246 195 
 CHI  HN I         136 15.36         7.4 0.34                           246 195 
 PRA  HN ES   2    136 41.05                             107    0.55 3  390 210 
                                                                                
