 2015  529 0755 41.5 L   6.853 -73.106150.2  RSN 10 0.4 1.6LRSN                1
 GAP=187        0.96       3.0     5.0  5.7  0.6790E+00  0.9476E+01 -0.1211E+01E
 Epicentro: LOS SANTOS - SANTANDER                                             3
 ACTION:UPD 15-09-10 22:07 OP:cam  STATUS:               ID:20150529075541 L   I
 OLDACT:REG 15-05-29 14:02 OP:ar   STATUS:               ID:20150529074749     3
 2015-05-29-0747-49M.COL___306                                                 6
 STAT SP IPHASW D HRMM SECON CODA AMPLIT PERI AZIMU VELO AIN AR TRES W  DIS CAZ7
 BAR2 EZ EP        756  2.01                             168    0.1810 30.0 196 
 BAR2 EZ ES        756 17.59                             168   -0.0810 30.0 196 
 BAR2 EZ I         756 18.51         8.1 0.24            168           30.0 196 
 BRR  HZ EP        756  3.81                             153    0.5810 72.6 293 
 BRR  HN ES        756 20.82                             153    0.6710 72.6 293 
 BRR  HZ I         756 21.67         5.5 0.30            149           72.6 293 
 RUS  HZ EP        756  6.20                             143    0.0810  106 179 
 RUS  HN ES        756 25.21                             143   -0.0910  106 179 
 RUS  HZ I         756 26.07         3.8 0.24            146            106 179 
 OCA  HN ES        756 30.67                             132   -1.00 9  155 351 
 OCA  HZ I         756 40.14         6.1 0.30            132            155 351 
 SPBC HZ EP        756 10.85                             129   -0.20 9  170 219 
 SPBC HN ES        756 33.62                             129   -0.46 9  170 219 
 SPBC HZ I         756 40.00         7.5 0.32            129            170 219 
 ZAR  HZ EP        756 14.54                             123    0.08 8  206 290 
 ZAR  HN ES        756 40.27                             123    0.12 8  206 290 
 ZAR  HZ I         756 45.94         3.5 0.34            123            206 290 
 SML  HZ EP        756 18.37                             119    0.34 8  240 334 
 SML  HE ES        756 46.52                             119    0.01 8  240 334 
 HEL  HZ EP        756 22.41                             115   -0.18 7  278 255 
 HEL  HN ES        756 54.46                             115   -0.16 7  278 255 
 HEL  HZ I         757  2.14         2.2 0.34            116            278 255 
 GUY2CHZ EP        756 26.52                             113    0.40 7  308 234 
 GUY2CHN ES        757  0.56                             113   -0.34 7  308 234 
 GUY2CHZ I         757 10.01         2.1 0.68                           308 234 
 MON  HZ EP        756 30.30                             109   -0.38 6  354 307 
 MON  HN ES   4    757  7.66                             109   -1.36 0  354 307 
 MON  HZ I         757 15.06         0.7 0.56            110            354 307 
                                                                                
