 2016 1129 0426  1.8 L   6.799 -73.129152.8  RSN 11 0.5 2.2LRSN                1
 GAP=121        1.13       5.6     4.5  6.5 -0.4312E+01  0.4855E+01  0.1125E+02E
 Epicentro: LOS SANTOS - SANTANDER                                             3
 ACTION:UPD 17-10-26 21:12 OP:lp   STATUS:               ID:20161129042601 L   I
 OLDACT:UP  16-11-29 15:03 OP:dani STATUS:               ID:20161129041740     3
 OLDACT:REG 16-11-29 12:38 OP:dani STATUS:               ID:20161129041740     3
 2016-11-29-0418-00M.COL___346                                                 6
 STAT SP IPHASW D HRMM SECON CODA AMPLIT PERI AZIMU VELO AIN AR TRES W  DIS CAZ7
 BAR2 EZ EP     D  426 22.35                             171    0.0410 23.7 195 
 BAR2 HE ES        426 37.70                             171   -0.5910 23.7 195 
 BAR2 EZ I         426 40.10        29.2 0.34            169           23.7 195 
 BRR  HZ EP        426 24.44                             153    0.6110 72.9 298 
 BRR  HE ES        426 41.07                             153    0.0710 72.9 298 
 BRR  HZ I         426 44.79        16.4 0.44            153           72.9 298 
 PAM  EZ EP        426 25.33                             152    0.6010 76.2  38 
 PAM  EE ES        426 42.50                             152   -0.1010 76.2  38 
 PAM  EZ I         426 44.51        22.0 0.52            157           76.2  38 
 PTB  HZ EP        426 29.01                             133   -0.53 9  150 259 
 PTB  HN ES        426 50.57                             133   -0.59 9  150 259 
 PTB  HZ I         426 57.60        28.7 0.34            133            150 259 
 ZAR  HZ EP        426 35.08                             123    0.16 8  206 292 
 ZAR  HN ES        427  0.81                             123    0.08 8  206 292 
 ZAR  HZ I         427  6.47        23.7 0.36            125            206 292 
 NOR  HZ EP        426 38.86                             119    0.73 8  236 235 
 NOR  HN ES        427  7.14                             119    0.69 8  236 235 
 NOR  HZ I         427 10.15        11.6 0.22            121            236 235 
 URE  HN ES   4    427 13.56                             114   -2.34 0  286 292 
 PTGC HZ EP        426 45.29                             113   -0.63 7  308 159 
 PTGC HN ES   4    427 18.56                             113   -1.76 0  308 159 
 PTGC HZ I         427 23.10         5.7 0.25            115            308 159 
 LL6C HZ EP   9    426 28.14                             111   -19.7 0  325 357 
 LL6C HN ES        427  4.28                                    0.24 7  325 357 
 CBOC HZ EP   4    426 50.43                             111    1.19 0  335 252 
 CBOC HN ES        427 25.77                             111   -0.46 7  335 252 
 CBOC HZ I         427 28.26         2.2 0.40            112            335 252 
 PRA  HZ EP        426 55.90                             107    0.20 6  393 210 
 PRA  HE ES   3    427 39.17                             107    1.45 1  393 210 
 PRA  HZ I         427 42.53         5.5 0.23            109            393 210 
 SJC  HZ EP        426 56.64                             106   -1.11 6  410 327 
 SJC  HN ES   4    427 37.97                             106   -3.40 0  410 327 
 SJC  HZ I         427 42.08         3.0 0.44            108            410 327 
                                                                                
