 2015  929 0746 27.5 L   6.755 -73.185142.9  RSN 10 0.5 1.5LRSN                1
 GAP=178        1.22       3.6     5.1  6.9  0.3563E+00  0.7319E+01  0.1587E+01E
 Epicentro: LOS SANTOS - SANTANDER                                             3
 ACTION:UPD 15-10-28 16:29 OP:cam  STATUS:               ID:20150929074627 L   I
 OLDACT:REG 15-09-29 12:47 OP:spq  STATUS:               ID:20150929073740     3
 2015-09-29-0737-40M.COL___352                                                 6
 STAT SP IPHASW D HRMM SECON CODA AMPLIT PERI AZIMU VELO AIN AR TRES W  DIS CAZ7
 BAR2 EZ EP        746 46.80                             172    0.1110 18.0 179 
 BAR2 EZ ES        747  1.28                             172   -0.3810 18.0 179 
 BAR2 EZ I         747  3.80         4.9 0.14            173           18.0 179 
 BRR  HZ EP        746 48.80                             152    0.5210 70.0 304 
 BRR  HN ES        747  5.33                             152    0.8510 70.0 304 
 BRR  HZ I         747 10.98         4.0 0.15            152           70.0 304 
 RUS  HZ EP        746 51.15                             144    0.5010 96.1 173 
 RUS  HN ES        747  8.56                             144   -0.1410 96.1 173 
 RUS  HZ I         747 10.38         3.1 0.17            148           96.1 173 
 PTB  HZ EP        746 53.07                             132   -0.70 9  143 260 
 PTB  HN ES        747 13.97                             132   -0.28 9  143 260 
 PTB  HZ I         747 19.55         3.7 0.12            134            143 260 
 SPBC HZ EP        746 55.67                             130    0.51 9  157 219 
 SPBC HN ES        747 16.90                             130    0.17 9  157 219 
 SPBC HZ I         747 19.97         5.1 0.18            132            157 219 
 OCA  HZ EP        746 56.21                             128    0.19 9  165 355 
 OCA  HN ES        747 17.55                             128   -0.71 9  165 355 
 OCA  HZ I         747 23.10         5.4 0.19            131            165 355 
 ZAR  HZ EP        746 59.45                             122   -0.10 9  202 294 
 ZAR  HE ES        747 24.34                             122   -0.20 9  202 294 
 ZAR  HZ I         747 30.85         3.9 0.30            124            202 294 
 CHI  HZ EP        747  3.83                             117   -0.57 8  243 194 
 CHI  HE ES        747 32.42                             117   -0.76 8  243 194 
 CHI  HZ I         747 42.34         1.6 0.34            120            243 194 
 HEL  HZ EP   4    747  8.29                             115    1.32 0  267 257 
 HEL  HN ES        747 37.23                             115   -0.52 8  267 257 
 URE  HZ EP   4    747 10.62                             113    2.42 0  282 293 
 GUY2CHZ EP        747 10.78                             112    0.52 7  295 235 
 GUY2CHE ES        747 44.28                             112    0.68 7  295 235 
 GUY2CHZ I         747 54.02         1.4 0.65                           295 235 
                                                                                
