 2016 1229 0329 33.2 L   6.838 -73.128142.8  RSN 10 0.4 1.5LRSN                1
 GAP=137        1.20       4.4     4.9  6.8 -0.9135E+00  0.7768E+01  0.6563E+01E
 Epicentro: LOS SANTOS - SANTANDER                                             3
 ACTION:UPD 17-01-11 20:20 OP:rebc STATUS:               ID:20161229032933 L   I
 OLDACT:UP  16-12-29 16:49 OP:edw  STATUS:               ID:20161229032741     3
 OLDACT:UP  16-12-29 16:49 OP:edw  STATUS:               ID:20161229032741     3
 OLDACT:REG 16-12-29 13:04 OP:edw  STATUS:               ID:20161229032741     3
 2016-12-29-0328-00M.COL___375                                                 6
 STAT SP IPHASW D HRMM SECON CODA AMPLIT PERI AZIMU VELO AIN AR TRES W  DIS CAZ7
 BAR2 EZ EP        329 51.71                             168   -0.8910 27.9 193 
 BAR2 EZ ES        330  7.59                             168   -0.1310 27.9 193 
 BAR2 EZ I         330  9.42         7.4 0.32            167           27.9 193 
 BRR  HZ IP     C  329 53.91                             152   -0.1310 71.1 295 
 BRR  HN ES        330 10.88                             152    0.5910 71.1 295 
 PAM  EZ EP     D  329 54.92                             152    0.0710 72.8  40 
 PAM  EN ES        330 11.89                             152    0.1610 72.8  40 
 PAM  EZ I         330 13.85         5.4 0.52            155           72.8  40 
 RUS  HZ EP        329 57.01                             142    0.0210  105 177 
 RUS  HN ES        330 15.77                             142    0.2410  105 177 
 RUS  HZ I         330 17.19         3.7 0.18            142            105 177 
 PTB  HZ EP   9    329 59.44                             131   -0.77 0  151 257 
 PTB  HN ES        330 20.19                             131   -0.30 9  151 257 
 PTB  HZ I         330 25.33         4.5 0.22            130            151 257 
 ZAR  HZ EP        330  5.64                             122    0.13 9  204 291 
 ZAR  HN ES        330 30.68                             122   -0.01 9  204 291 
 ZAR  HZ I         330 35.97         6.6 0.26            122            204 291 
 NOR  HZ EP   4    330 10.33                             117    1.11 0  239 234 
 NOR  HN ES        330 36.39                             117   -0.92 8  239 234 
 NOR  HZ I         330 41.70         2.4 0.16            118            239 234 
 CHI  HZ EP        330 11.23                             116   -0.03 8  253 195 
 CHI  HN ES        330 40.90                             116   -0.04 8  253 195 
 CHI  HZ I         330 47.34         1.1 0.40            117            253 195 
 GUY2CHZ EP        330 17.81                             111    0.65 7  305 234 
 GUY2CHN ES        330 52.01                             111    0.58 7  305 234 
 GUY2CHZ I         331  1.32         1.7 0.72                           305 234 
 SJC  HZ EP   9    330 26.22                             105   -2.18 0  407 326 
 SJC  HN ES        331  7.48                             106   -1.78 6  407 326 
                                                                                
