 2017  129 0944 15.5 L   6.774 -73.162137.0  RSN  7 0.5 1.5LRSN                1
 GAP=234        1.13       6.9     6.3  7.2  0.2277E+02  0.1592E+02 -0.2178E-01E
 Epicentro: LOS SANTOS - SANTANDER                                             3
 ACTION:UPD 17-05-22 16:04 OP:jn   STATUS:               ID:20170129094415 L   I
 OLDACT:DUP 17-01-29 18:25 OP:lv   STATUS:               ID:20170129093742d    3
 2017-01-29-0938-00M.COL___330                                                 6
 STAT SP IPHASW D HRMM SECON CODA AMPLIT PERI AZIMU VELO AIN AR TRES W  DIS CAZ7
 BAR2 EZ EP        944 33.80                             171   -0.2110 20.3 186 
 BAR2 EZ ES        944 48.26                             171   -0.1910 20.3 186 
 BAR2 EZ I         944 49.59        14.0 0.22            165           20.3 186 
 BRR  HZ EP        944 35.78                             151    0.0910 71.0 301 
 BRR  HN ES        944 52.10                             151    0.6610 71.0 301 
 BRR  HZ I         944 54.05        10.2 0.33            144           71.0 301 
 RUS  HZ EP        944 38.23                             143    0.0410 97.9 175 
 RUS  HN ES        944 56.18                             143    0.2910 97.9 175 
 RUS  HZ I         944 57.18         4.8 0.32            135           97.9 175 
 PTB  HZ EP        944 40.91                             131   -0.63 9  145 260 
 PTB  HN ES        945  0.92                             131   -0.94 9  145 260 
 PTB  HZ I         945  3.93         4.8 0.19            122            145 260 
 ZAR  HZ EP        944 47.04                             121   -0.28 9  203 293 
 ZAR  HN ES        945 12.61                             121    0.47 9  203 293 
 ZAR  HZ I         945 15.29         2.8 0.13            114            203 293 
 URE  HZ EP        944 56.16                             112    0.08 7  283 293 
 URE  HN ES        945 27.53                             112   -0.21 7  283 293 
 URE  HZ I         945 37.59         2.7 0.34            106            283 293 
 CBOC HZ EP        945  2.31                             108    0.55 7  331 252 
 CBOC HZ I         945 35.41         0.6 0.18            103            331 252 
 CBOC HN ES        945 38.71                             108    0.86 7  331 252 
                                                                                
