 2014  429 0846 35.5 L   6.725 -73.597110.4  RSN  6 0.4 1.6LRSN                1
 GAP=138        0.88       3.8     5.0 14.8  0.2598E+01  0.1518E+02 -0.3312E+02E
 Epicentro: EL CARMEN DE CHUCURI - SANTANDER                                   3
 ACTION:UPD 14-05-13 23:12 OP:nd   STATUS:               ID:20140429084635 L   I
 OLDACT:UP  14-04-29 17:54 OP:mh   STATUS:               ID:20140429084547     3
 OLDACT:UP  14-04-29 17:46 OP:mh   STATUS:               ID:20140429084547     3
 OLDACT:UP  14-04-29 17:45 OP:mh   STATUS:               ID:20140429084547     3
 OLDACT:UP  14-04-29 17:41 OP:mh   STATUS:               ID:20140429084547     3
 OLDACT:REG 14-04-29 16:44 OP:mh   STATUS:               ID:20140429084547     3
 2014-04-29-0845-47M.COL___236                                                 6
 STAT SP IPHASW D HRMM SECON CODA AMPLIT PERI AZIMU VELO AIN AR TRES W  DIS CAZ7
 PTB  HZ EP        846 54.48                             135   -0.5310 97.2 258 
 PTB  HN ES   4    847  8.98                             135   -1.26 0 97.2 258 
 PTB  HZ I         847 10.37         7.9 0.09            139           97.2 258 
 RUS  HZ EP        846 56.87                             132    0.2310  108 148 
 RUS  HE ES        847 13.13                             132    0.0010  108 148 
 SPBC HZ EP   4    847  2.49                             126    4.36 0  130 204 
 SPBC HN ES        847 15.73                             126   -0.0510  130 204 
 ZAR  HZ EP        847  2.13                             119    0.70 9  163 301 
 ZAR  HN ES   1    847 21.83                             119    0.17 7  163 301 
 ZAR  HZ I         847 25.56         6.2 0.09            122            163 301 
 OCA  HN ES   1    847 23.35                             118   -0.00 7  170  10 
 OCA  HZ I         847 26.60         5.9 0.25            121            170  10 
 SML  HZ EP   1    847  8.74                             109   -0.72 6  235 347 
 SML  HE ES   1    847 35.83                             109   -0.12 6  235 347 
                                                                                
