 2016 1029 0859 55.2 L   6.776 -73.100142.0  RSN  5 0.3 1.1LRSN                1
 GAP=144        0.77       4.1     7.0  6.9 -0.2462E+01 -0.1005E+02  0.7010E+01E
 Epicentro: LOS SANTOS - SANTANDER                                             3
 ACTION:UPD 16-11-09 19:24 OP:rebc STATUS:               ID:20161029085955 L   I
 OLDACT:UP  16-10-29 16:51 OP:dani STATUS:               ID:20161029085741     3
 OLDACT:REG 16-10-29 15:01 OP:dani STATUS:               ID:20161029085741     3
 2016-10-29-0858-00M.COL___325                                                 6
 STAT SP IPHASW D HRMM SECON CODA AMPLIT PERI AZIMU VELO AIN AR TRES W  DIS CAZ7
 BAR2 EZ ES        9 0 28.77                             171   -0.4910 22.3 204 
 PAM  EZ EP        9 0 17.07                             150    0.1510 76.4  35 
 PAM  EN ES   2    9 0 34.49                             150    0.60 5 76.4  35 
 PAM  EZ I         9 0 36.53         3.0 0.28            152           76.4  35 
 BRR  HZ EP        9 0 15.92                             150   -0.3310 76.9 298 
 BRR  HN ES        9 0 32.99                             150    0.3010 76.9 298 
 BRR  HZ I         9 0 36.86         3.3 0.20            151           76.9 298 
 RUS  HZ EP        9 0 18.29                             144   -0.0510 97.7 179 
 RUS  HE ES   2    9 0 36.76                             144    0.35 5 97.7 179 
 RUS  HZ I         9 0 38.30         1.1 0.29            147           97.7 179 
 CHI  HN ES        9 1  1.97                             116    0.30 8  247 196 
                                                                                
