 2014 1029 0817 12.9 L   6.788 -73.719 97.0  RSN  5 0.2 1.2LRSN                1
 GAP=110        0.58       3.6     2.5  5.0  0.2488E+01  0.2548E+01  0.9052E+01E
 Epicentro: EL CARMEN - SANTANDER                                              3
 ACTION:UPD 14-11-29 23:58 OP:nd   STATUS:               ID:20141029081712 L   I
 OLDACT:DUP 14-10-31 01:17 OP:stll STATUS:               ID:20141029080740d    3
 2014-10-29-0807-39M.COL___271                                                 6
 STAT SP IPHASW D HRMM SECON CODA AMPLIT PERI AZIMU VELO AIN AR TRES W  DIS CAZ7
 BRR  HZ EP        817 26.55                             159   -0.2210 35.3   1 
 BRR  HN ES        817 37.99                             159    0.3710 35.3   1 
 BRR  HZ I         817 38.65         5.6 0.12            146           35.3   1 
 BAR2 SZ EP        817 28.62                             145   -0.1410 63.1 110 
 BAR2 SZ ES        817 40.94                             145   -0.2110 63.1 110 
 BAR2 SZ I         817 42.49         4.9 0.20            129           63.1 110 
 PTB  HZ EP        817 30.16                             135   -0.1110 86.1 251 
 PTB  HN ES        817 43.73                             135   -0.1210 86.1 251 
 PTB  HZ I         817 43.97         4.8 0.10            116           86.1 251 
 RUS  HZ EP        817 34.47                             125    0.2210  121 145 
 RUS  HN ES        817 50.95                             125    0.0210  121 145 
 RUS  HZ I         817 51.51         2.7 0.20            109            121 145 
 SPBC HZ EP        817 34.99                             123    0.2310  132 197 
 SPBC HZ I         817 58.96         3.1 0.24            106            132 197 
                                                                                
