 2011  329 0649 51.2 L   6.715 -73.069146.9  RSN  5 0.3 1.5LRSN                1
 GAP=210        0.94       8.6    12.1  8.8 -0.3178E+02 -0.2735E+02 -0.7818E+01E
 Epicentro: JORDAN - SANTANDER                                                 3
 ACTION:UP  11-06-16 14:36 OP:jfem STATUS:               ID:20110329064951 L   I
 2011-03-29-0647-00S.COL___138                                                 6
 STAT SP IPHASW D HRMM SECON CODA AMPLIT PERI AZIMU VELO SNR AR TRES W  DIS CAZ7
 BAR2 SZ EP        650 11.21                             173     0.310   19 223 
 BAR2 SZ ES   1    650 26.68                             173     0.4 7   19 223 
 BAR2 SZ I         650 27.44         7.8 0.07                            19 223 
 BTL  SZ EP        650 10.63                             168    -0.610   31 316 
 BTL  SZ ES   1    650 26.21                             168    -0.5 7   31 316 
 BRR  HZ EP        650 13.17                             149    -0.110   83 301 
 BRR  HZ I         650 13.42        10.6 0.11                            83 301 
 BRR  HN ES   1    650 30.67                             149     0.3 7   83 301 
 GRA  SZ EP        650 17.31                             136     0.210  133  13 
 GRA  SZ ES   1    650 37.42                             136     0.0 7  133  13 
 GRA  SZ I         650 38.94         2.5 0.55                           133  13 
 OCA  SZ EP   2    650 20.93                             128     0.3 4  171 351 
 OCA  SZ I         650 53.93         4.2 0.34                           171 351 
                                                                                
