 2014  929 0924 33.7 L   6.791 -73.213146.4  RSN  5 0.5 1.2LRSN                1
 GAP=175        1.18       5.9     8.8 10.4 -0.6629E+01  0.1799E+02 -0.1329E+02E
 Epicentro: ZAPATOCA - SANTANDER                                               3
 ACTION:UPD 14-10-03 23:09 OP:nd   STATUS:               ID:20140929092433 L   I
 OLDACT:REG 14-09-29 14:21 OP:stll STATUS:               ID:20140929091817     3
 2014-09-29-0918-17M.COL___289                                                 6
 STAT SP IPHASW D HRMM SECON CODA AMPLIT PERI AZIMU VELO AIN AR TRES W  DIS CAZ7
 BAR2 SZ EP        924 53.77                             171    0.3910 22.2 171 
 BAR2 SZ ES        925  8.03                             171   -0.7010 22.2 171 
 BAR2 SZ I         925  9.22         2.9 0.32            176           22.2 171 
 BRR  HZ EP        924 54.75                             155    0.1610 65.3 302 
 BRR  HN ES        925 11.41                             155    0.5210 65.3 302 
 BRR  HZ I         925 15.59         2.4 0.34            149           65.3 302 
 PTB  HZ EP        924 59.89                             134   -0.16 9  140 259 
 PTB  HN ES        925 20.62                             134    0.02 9  140 259 
 PTB  HZ I         925 22.36         1.3 0.40            133            140 259 
 OCA  HN ES        925 24.61                             130    0.39 9  161 356 
 SML  HN ES        925 37.66                             118   -0.89 8  242 337 
 SML  HZ I         925 48.80         2.2 0.10            117            242 337 
                                                                                
