 2016  729 0656 15.1 L   5.914 -73.735116.5  RSN  4 0.3 0.9LRSN                1
 GAP=140        0.91       4.9     5.5  8.2 -0.7337E+01  0.4698E+01 -0.1308E+02E
 Epicentro: GUAVATA - SANTANDER                                                3
 ACTION:UPD 17-03-29 16:56 OP:lp   STATUS:               ID:20160729065615 L   I
 OLDACT:DUP 16-07-29 17:02 OP:edw  STATUS:               ID:20160729064760d    3
 OLDACT:UP  16-07-29 17:01 OP:edw  STATUS:               ID:20160729064759     3
 OLDACT:REG 16-07-29 13:16 OP:edw  STATUS:               ID:20160729064759     3
 2016-07-29-0647-59S.COL___325                                                 6
 STAT SP IPHASW D HRMM SECON CODA AMPLIT PERI AZIMU VELO AIN AR TRES W  DIS CAZ7
 SPBC HZ EP        656 32.23                             156    0.3310 47.3 232 
 SPBC HN ES        656 44.82                             156   -0.1910 47.3 232 
 SPBC HZ I         656 46.48         4.5 0.13            157           47.3 232 
 RUS  HZ EP        656 34.44                             146    0.5010 72.2  92 
 RUS  HE ES        656 48.36                             146   -0.2710 72.2  92 
 RUS  HZ I         656 49.67         0.9 0.40            148           72.2  92 
 BAR2 EZ EP        656 34.98                             138   -0.4510 96.7  39 
 BAR2 EZ ES        656 51.53                             138    0.2410 96.7  39 
 BRR  HZ EP        656 37.87                             128   -0.4110  132   1 
 BRR  HN ES        656 56.59                             128    0.2410  132   1 
                                                                                
