 2015  129 0449 29.2 L   6.823 -73.209146.9  RSN 14 0.5 2.0LRSN                1
 GAP=128        1.27       3.1     4.3  6.6 -0.4110E+00  0.8923E+01 -0.3737E+00E
 Epicentro: ZAPATOCA - SANTANDER                                               3
 ACTION:UPD 15-03-02 15:43 OP:nd   STATUS:               ID:20150129044929 L   I
 OLDACT:REG 15-01-29 13:16 OP:cvam STATUS:               ID:20150129044805     3
 2015-01-29-0448-05M.COL___268                                                 6
 STAT SP IPHASW D HRMM SECON CODA AMPLIT PERI AZIMU VELO AIN AR TRES W  DIS CAZ7
 BAR2 EZ EP        449 48.90                             170   -0.1510 25.6 173 
 BAR2 EZ ES        450  4.33                             170   -0.1810 25.6 173 
 BAR2 EZ I         450  5.22        19.0 0.26            172           25.6 173 
 BRR  HZ EP        449 50.72                             155    0.6110 63.9 300 
 BRR  HN ES        450  7.78                             155    1.3810 63.9 300 
 BRR  HZ I         450 11.66        18.0 0.26            153           63.9 300 
 PAM  SZ EP        449 51.87                             150    0.1310 80.2  45 
 PAM  SN ES        450  8.82                             150   -0.4810 80.2  45 
 PAM  SZ I         450 12.10         9.1 0.50            153           80.2  45 
 RUS  HZ EP        449 52.89                             143   -0.4410  104 172 
 RUS  HN ES        450 11.68                             143   -0.4510  104 172 
 RUS  HZ I         450 12.80         8.2 0.28            147            104 172 
 PTB  HZ EP        449 55.98                             134    0.25 9  141 257 
 PTB  HN ES        450 16.20                             134   -0.20 9  141 257 
 PTB  HZ I         450 19.18         8.8 0.12            134            141 257 
 OCA  HZ EP        449 56.99                             131   -0.35 9  157 356 
 OCA  HN ES        450 19.13                             131   -0.13 9  157 356 
 OCA  HZ I         450 27.16        10.8 0.24            132            157 356 
 SPBC HZ EP        449 57.72                             130    0.12 9  161 216 
 SPBC HN ES        450 19.80                             130    0.07 9  161 216 
 SPBC HZ I         450 26.65        13.9 0.36            132            161 216 
 ZAR  HZ EP        450  1.85                             124    0.85 9  197 292 
 ZAR  HN ES        450 25.95                             124    0.18 9  197 292 
 ZAR  HZ I         450 32.01        11.3 0.26            124            197 292 
 SML  HZ EP        450  5.43                             118    0.06 8  239 337 
 SML  HN ES        450 33.25                             118   -0.31 8  239 337 
 SML  HZ I         450 43.52        14.6 0.10            120            239 337 
 CHI  HZ EP        450  7.26                             117    0.19 8  249 193 
 CHI  HN ES        450 36.69                             117    0.11 8  249 193 
 CHI  HZ I         450 41.70         4.9 0.32            120            249 193 
 HEL  HZ EP   1    450  9.70                             116    0.87 6  266 255 
 HEL  HN ES        450 38.66                             116   -1.05 8  266 255 
 HEL  HZ I         450 47.33         4.2 0.36            117            266 255 
 URE  HN ES        450 39.89                             114   -1.08 7  276 292 
 GUY2CHZ EP   1    450 12.18                             113   -0.24 5  297 234 
 GUY2CHN ES        450 46.49                             113    0.38 7  297 234 
 GUY2CHN I         450 54.74         7.0 0.46                           297 234 
 MON  HN ES        450 54.60                             109   -0.49 6  347 309 
                                                                                
