 2013  929 0811 34.3 L   7.346 -73.201132.6  RSN  6 0.2 1.5LRSN                1
 GAP=176        0.55       3.4     2.9  4.6 -0.1587E+01  0.5658E+01 -0.3200E+01E
 Epicentro: RIONEGRO - SANTANDER                                               3
 ACTION:UPD 13-10-22 09:25 OP:ep   STATUS:               ID:20130929081134 L   I
 OLDACT:REG 13-09-29 09:16 OP:stll STATUS:               ID:20130929080845     3
 2013-09-29-0808-45M.COL___237                                                 6
 STAT SP IPHASW D HRMM SECON CODA AMPLIT PERI AZIMU VELO AIN AR TRES W  DIS CAZ7
 PAM  SZ EP        811 54.00                             156    0.1210 55.4  91 
 PAM  SN ES        812  8.95                             156   -0.2010 55.4  91 
 PAM  SZ I         812 12.45         4.5 0.28            159           55.4  91 
 BRR  HZ EP        811 53.59                             153    0.0710 62.3 245 
 BRR  HN ES        812  8.83                             153    0.3110 62.3 245 
 BRR  HZ I         812  9.23         6.2 0.12            154           62.3 245 
 BAR2 SZ ES        812 11.33                             146   -0.1210 83.4 179 
 BAR2 SZ I         812 12.97        13.2 0.12            148           83.4 179 
 RUS  HN ES        812 23.96                             126    0.06 9  161 175 
 PTB  HZ EP        812  2.10                             125    0.21 9  165 237 
 PTB  HN ES        812 23.13                             125   -0.29 9  165 237 
 PTB  HZ I         812 28.36         3.0 0.26            127            165 237 
 ZAR  HZ EP        812  3.55                             122   -0.23 9  184 275 
                                                                                
