 2011  429 0543 54.0 L   7.371 -73.204129.6  RSN  7 0.4 1.6LRSN                1
 GAP=110        0.95       4.7     7.6  8.6 -0.5071E+01 -0.4167E+01  0.1224E+02E
 Epicentro: EL PLAYON - SANTANDER                                              3
 ACTION:DUP 11-06-22 15:33 OP:REBC STATUS:               ID:20110429054355dL   I
 2011-04-29-0543-34S.COL___138                                                 6
 STAT SP IPHASW D HRMM SECON CODA AMPLIT PERI AZIMU VELO SNR AR TRES W  DIS CAZ7
 PAM  SZ EP   1    544 13.35                             156     0.1 7   56  94 
 PAM  SN ES   1    544 28.40                             156     0.1 7   56  94 
 PAM  SZ I         544 31.13         7.2 0.23                            56  94 
 BRI  SZ EP   1    544 13.36                             154     0.4 7   59  50 
 BRI  SZ I         544 32.74        18.5 0.39                            59  50 
 BRR  HZ EP   1    544 13.36                             152     0.4 7   63 243 
 BRR  HN ES   1    544 28.02                             152     0.3 7   63 243 
 BRR  HZ I         544 33.38        11.7 0.11                            63 243 
 GRA  SZ EP        544 13.90                             149     0.210   72  38 
 GRA  SZ ES   1    544 28.87                             149    -0.2 7   72  38 
 OCA  SZ EP   1    544 15.04                             141    -0.4 7   97 352 
 OCA  SZ ES   1    544 31.77                             141    -0.4 7   97 352 
 OCA  SZ I         544 37.50        11.2 0.37                            97 352 
 RUS  HZ EP   1    544 21.04                             125    -0.9 7  164 175 
 RUS  HN ES   1    544 43.28                             125    -0.4 7  164 175 
 RUS  HZ I         544 45.20         2.9 0.30                           164 175 
 YOP  SZ EP   1    544 30.01                             114     0.6 6  239 159 
                                                                                
