 2011  929 0524  8.4 L   6.792 -73.140143.7  RSN 11 0.4 2.2LRSN                1
 GAP=115        0.65       2.5     3.6  5.5 -0.5627E+00  0.4898E+01  0.4284E+01E
 Epicentro: LOS SANTOS - SANTANDER                                             3
 ACTION:UPD 12-07-13 16:00 OP:ep   STATUS:               ID:20110929052408 L   I
 2011-09-29-0519-52S.COL___168                                                 6
 STAT SP IPHASW D HRMM SECON CODA AMPLIT PERI AZIMU VELO AIN AR TRES W  DIS CAZ7
 BRR  HZ EP   1    524 29.67                             152    0.30 7 72.2 299 
 BRR  HN ES   1    524 46.05                             152    0.31 7 72.2 299 
 BRR  HZ I         524 48.25        28.7 0.14                          72.2 299 
 PAM  SZ EP   1    524 30.78                             150    0.38 7 77.7  39 
 PAM  SN ES   1    524 47.71                             150    0.13 7 77.7  39 
 PAM  SZ I         524 50.24        10.1 0.30                          77.7  39 
 RUS  HZ EP   1    524 31.78                             144   -0.08 7 99.6 176 
 RUS  HZ I         524 33.07        12.7 0.18                          99.6 176 
 RUS  HN ES   1    524 49.96                             144   -0.22 7 99.6 176 
 OCA  SZ EP   1    524 35.96                             129   -0.67 7  161 353 
 OCA  SZ ES   1    524 58.22                             129   -0.44 7  161 353 
 OCA  SZ I         525  1.45        23.5 0.22                           161 353 
 YOP  SZ EP   1    524 38.20                             126    0.03 7  178 153 
 ZAR  HZ EP   1    524 41.34                             122    0.55 6  205 292 
 ZAR  HN ES   1    525  5.81                             122   -0.26 6  205 292 
 ZAR  HZ I         525 12.09        18.0 0.31                           205 292 
 NOR  SZ EP   1    524 44.08                             118    0.09 6  235 235 
 NOR  SN ES   1    525 11.09                             118   -0.67 6  235 235 
 CHI  HZ EP   1    524 45.56                             117   -0.33 6  248 195 
 CHI  HN ES   1    525 15.30                             117    0.16 6  248 195 
 CHI  HZ I         525 22.75         8.1 0.56                           248 195 
 HEL  HZ EP   1    524 48.91                             114    0.38 6  272 256 
 HEL  HZ I         525 28.57         6.9 0.23                           272 256 
 RREF HN ES   1    525 30.83                             110    0.50 5  322 230 
 RREF HZ I         525 41.94        10.1 0.37                           322 230 
 PRA  HZ EP   1    525  1.90                             106    0.13 4  392 210 
 PRA  HN ES   1    525 43.04                             106   -0.38 4  392 210 
 PRA  HZ I         525 49.51        20.3 0.23                           392 210 
                                                                                
