 2012  529 0509 40.4 L   6.140 -73.769 65.3  RSN  4 0.3 1.2LRSN                1
 GAP=190        0.69       6.0     3.8 10.2 -0.1018E+02 -0.5235E+01  0.1141E+02E
 Epicentro: LANDAZURI - SANTANDER                                              3
 ACTION:UP  12-07-05 12:08 OP:pat  STATUS:               ID:20120529050940 L   I
 2012-05-29-0508-48M.COL___185                                                 6
 STAT SP IPHASW D HRMM SECON CODA AMPLIT PERI AZIMU VELO AIN AR TRES W  DIS CAZ7
 BAR2 SZ I         5 9 53.55        12.8 0.13                            82  52 
 BAR2 SZ ES   1    510  6.74                             123     0.0 7   82  52 
 PTB  HZ EP   1    5 9 55.42                             120    -0.1 7   88 300 
 PTB  HN ES        510  7.42                             120     0.110   88 300 
 PTB  HZ I         510 15.39         3.0 0.19                            88 300 
 NOR  SZ EP   1    510  1.00                             108    -0.2 7  137 242 
 OCA  HZ EP   1    510 14.00                              99     0.7 6  237  12 
 OCA  HN ES   1    510 38.52                              99    -0.5 6  237  12 
                                                                                
