 2012 1029 0909 11.0 L   6.784 -73.329124.6  RSN 10 0.4 2.0LRSN                1
 GAP= 94        0.83       3.2     4.0  6.0 -0.4791E+00  0.9515E+01  0.1450E+01E
 Epicentro: ZAPATOCA - SANTANDER                                               3
 ACTION:UPD 12-11-22 17:06 OP:ep   STATUS:               ID:20121029090911 L   I
 2012-10-29-0907-49M.COL___184                                                 6
 STAT SP IPHASW D HRMM SECON CODA AMPLIT PERI AZIMU VELO AIN AR TRES W  DIS CAZ7
 BAR2 SZ EP        9 9 28.35                             167    0.1410 26.7 143 
 BAR2 SZ ES   1    9 9 41.28                             167   -0.33 7 26.7 143 
 BAR2 SZ I         9 9 42.06        58.6 0.24                          26.7 143 
 GIR2 SZ EP        9 9 28.34                             163   -0.0210 35.9  25 
 GIR2 SZ ES   1    9 9 41.84                             163   -0.03 7 35.9  25 
 BRR  HZ EP        9 9 28.94                             154   -0.0810 55.4 310 
 BRR  HN ES   1    9 9 43.42                             154    0.38 7 55.4 310 
 BRR  HN I         9 9 43.73        71.9 0.32                          55.4 310 
 PAM  SZ EP        9 9 32.59                             141    0.4310 92.8  48 
 PAM  SN ES   1    9 9 48.96                             141    0.33 7 92.8  48 
 PAM  SN I         9 9 50.96        12.2 0.16                          92.8  48 
 RUS  HZ EP   1    9 9 32.14                             138   -0.77 7  102 165 
 RUS  HN ES   1    9 9 49.88                             138   -0.08 7  102 165 
 RUS  HN I         9 9 51.06         7.2 0.50                           102 165 
 OCA  HZ EP   1    9 9 37.38                             124   -0.48 7  161   0 
 OCA  HE ES   1    9 9 58.21                             124   -0.57 7  161   0 
 ZAR  HZ EP   1    9 9 39.93                             120   -0.36 7  186 295 
 ZAR  HE ES   1    910  3.20                             120    0.10 7  186 295 
 ZAR  HE I         910  6.01        32.4 0.44                           186 295 
 CHI  HN ES   1    910 15.04                             113    0.08 6  242 191 
 CHI  HN I         910 19.77         4.0 0.46                           242 191 
 HEL  HZ EP        9 9 48.85                             112    0.87 8  252 255 
 HEL  HN ES   1    910 16.25                             112   -0.54 6  252 255 
 HEL  HN I         910 21.92         3.4 0.54                           252 255 
 PRA  HN ES   2    910 43.00                             103    0.22 3  381 207 
                                                                                
