 2011  829 0827 25.7 L   6.785 -73.082148.5  RSN  6 0.3 1.8LRSN                1
 GAP=189        0.67       3.6     6.5  6.3 -0.2442E+01  0.6761E+01  0.5773E+00E
 Epicentro: LOS SANTOS - SANTANDER                                             3
 ACTION:UPD 12-07-13 15:54 OP:ep   STATUS:               ID:20110829082725 L   I
 2011-08-29-0820-00M.COL___162                                                 6
 STAT SP IPHASW D HRMM SECON CODA AMPLIT PERI AZIMU VELO AIN AR TRES W  DIS CAZ7
 GIR2 SZ EP   1    827 45.91                             166    0.11 7 34.7 339 
 GIR2 SZ ES   1    828  1.86                             166    0.38 7 34.7 339 
 BRR  HZ EP        827 47.27                             151   -0.2910 78.2 297 
 BRR  HZ I         827 47.57        26.6 0.17                          78.2 297 
 BRR  HE ES   1    828  4.62                             151    0.02 7 78.2 297 
 RUS  HZ EP   1    827 49.29                             145   -0.31 7 98.7 180 
 RUS  HN ES   1    828  8.32                             145    0.09 7 98.7 180 
 RUS  HZ I         828  8.55         4.7 0.44                          98.7 180 
 OCA  SZ EP   1    827 54.72                             130    0.24 7  163 351 
 OCA  SZ ES   1    828 16.59                             130   -0.33 7  163 351 
 OCA  SZ I         828 18.96         6.2 0.44                           163 351 
 NOR  SE ES   1    828 30.20                             119   -0.31 6  240 236 
 HEL  HZ EP   1    828  7.63                             115    0.86 6  279 256 
 HEL  HZ I         828 44.07         4.2 0.35                           279 256 
                                                                                
