 2015  329 0212  6.5 L   6.719 -73.525105.9  RSN  4 0.1 1.0LRSN                1
 GAP=136        0.43       2.7     2.2  3.8  0.2789E+01  0.2394E+01  0.3464E+01E
 Epicentro: EL CARMEN - SANTANDER                                              3
 ACTION:UPD 15-04-30 16:30 OP:nd   STATUS:               ID:20150329021206 L   I
 OLDACT:REG 15-03-29 12:42 OP:stll STATUS:               ID:20150329020739     3
 2015-03-29-0207-39M.COL___290                                                 6
 STAT SP IPHASW D HRMM SECON CODA AMPLIT PERI AZIMU VELO AIN AR TRES W  DIS CAZ7
 BAR2 EZ EP        212 22.04                             158    0.0110 40.4 110 
 BAR2 EZ I         212 22.11         4.5 0.18            159           40.4 110 
 BAR2 EZ ES        212 34.06                             158   -0.0610 40.4 110 
 BRR  HZ EP        212 22.24                             154    0.1910 47.7 334 
 BRR  HN ES        212 34.09                             154   -0.0610 47.7 334 
 RUS  HZ EP        212 26.64                             132   -0.2610  104 152 
 RUS  HE ES        212 42.96                             132    0.1910  104 152 
 PTB  HZ EP        212 26.41                             132    0.0410  105 259 
 PTB  HN ES        212 41.79                             132   -0.0410  105 259 
 PTB  HZ I         212 42.99         1.8 0.28            131            105 259 
                                                                                
