 2014  929 0759 48.8 L   6.769 -73.217154.6  RSN  4 0.4 1.0LRSN                1
 GAP=224        1.00       8.1    10.3 12.1 -0.3161E+02 -0.5534E+02  0.4137E+02E
 Epicentro: ZAPATOCA - SANTANDER                                               3
 ACTION:UPD 14-10-03 23:09 OP:nd   STATUS:               ID:20140929075948 L   I
 OLDACT:DUP 14-09-29 19:36 OP:stll STATUS:               ID:20140929075816d    3
 2014-09-29-0758-14M.COL___298                                                 6
 STAT SP IPHASW D HRMM SECON CODA AMPLIT PERI AZIMU VELO AIN AR TRES W  DIS CAZ7
 BAR2 SZ EP        8 0  8.91                             172   -0.5110 19.9 169 
 BAR2 SZ I         8 0 25.32         3.2 0.18            156           19.9 169 
 BRR  HZ EP        8 0 10.53                             156   -0.1110 66.2 304 
 BRR  HZ I         8 0 10.84         1.6 0.34            171           66.2 304 
 BRR  HN ES        8 0 28.14                             156    0.4610 66.2 304 
 PTB  HZ EP        8 0 15.91                             136    0.15 9  139 260 
 PTB  HZ I         8 0 16.46         0.7 0.14            150            139 260 
 PTB  HN ES        8 0 36.24                             136   -0.55 9  139 260 
 SPBC HZ EP        8 0 17.80                             132    0.52 9  156 218 
 SPBC HZ I         8 0 18.05         1.9 0.56            137            156 218 
 SPBC HN ES        8 0 39.59                             132    0.08 9  156 218 
                                                                                
