 2014  629 0232 23.1 L   6.703 -73.253149.3  RSN  4 0.4 1.1LRSN                1
 GAP=196        1.06       8.4     8.1 10.5  0.3407E+02 -0.8336E+01 -0.4132E+01E
 Epicentro: BARICHARA - SANTANDER                                              3
 ACTION:UPD 14-07-01 22:57 OP:nd   STATUS:               ID:20140629023223 L   I
 OLDACT:REG 14-06-29 13:04 OP:carl STATUS:               ID:20140629022818     3
 2014-06-29-0228-18M.COL___234                                                 6
 STAT SP IPHASW D HRMM SECON CODA AMPLIT PERI AZIMU VELO AIN AR TRES W  DIS CAZ7
 BAR2 SZ EP        232 43.74                             174    0.7610 14.5 148 
 BRR  HZ EP        232 43.76                             154   -0.6510 67.6 311 
 BRR  HN ES        233  1.08                             154    0.0310 67.6 311 
 BRR  HZ I         233  6.03         2.8 0.46            154           67.6 311 
 RUS  HZ EP        232 46.29                             147   -0.2610 91.6 168 
 RUS  HN ES        233  4.74                             147   -0.1210 91.6 168 
 RUS  HZ I         233  7.58         1.6 0.36            150           91.6 168 
 PTB  HZ EP        232 49.40                             136    0.2510  134 262 
 PTB  HN ES        233  9.51                             136    0.0210  134 262 
 PTB  HZ I         233 16.27         1.6 0.14            136            134 262 
                                                                                
