 2010  529 0918 29.7 L   6.835 -73.054130.4  RSN  7 0.6 1.7LRSN                1
 GAP=184        1.21       6.3    13.4 11.7 -0.5238E+02  0.4257E+02 -0.8754E+01E
 Epicentro: LOS SANTOS - SANTANDER                                             3
 ACTION:UP  10-08-24 10:07 OP:vdl  STATUS:               ID:20100529091829 L   I
 2010-05-29-0913-25S.COL___109                                                 6
 STAT SP IPHASW D HRMM SECON CODA AMPLIT PERI AZIMU VELO SNR AR TRES W  DIS CAZ7
 BAR2 SZ EP        918 47.64                             166     0.010   30 208 
 BAR2 SZ ES   1    919  1.94                             166     0.3 7   30 208 
 GUE  SZ EP        918 52.61                             137     0.110  111   7 
 GUE  SZ ES   1    919  9.69                             137    -0.7 7  111   7 
 GRA  SZ EP        918 53.43                             135     0.410  119  13 
 GRA  SZ ES   3    919 11.58                             135     0.4 2  119  13 
 OCA  SZ EP        918 56.15                             126    -0.4 9  158 349 
 OCA  SZ ES   1    919 18.00                             126     0.4 7  158 349 
 OCA  SZ I         919 22.21         5.7 0.28                           158 349 
 CHI  HN ES   1    919 35.64                             113    -1.0 6  255 197 
 CHI  HZ I         919 39.55         4.4 0.32                           255 197 
 HEL  HN ES   2    919 40.69                             110    -1.4 4  283 256 
 HEL  HZ I         919 46.75         2.5 0.12                           283 256 
 RREF BZ EP   1    919 16.57                             107     0.2 5  332 230 
 RREF BN ES   1    919 54.22                             107     1.4 5  332 230 
 RREF BZ I         919 57.70         2.7 0.13                           332 230 
                                                                                
