 2013  129 0031 12.2 L   6.249 -73.864 94.2  RSN  4 0.4 1.3LRSN                1
 GAP=121        0.94       3.7     4.8 10.8  0.3169E+01 -0.8031E+01  0.1823E+02E
 Epicentro: LANDAZURI - SANTANDER                                              3
 ACTION:UPD 13-02-15 09:17 OP:ep   STATUS:               ID:20130129003112 L   I
 2013-01-29-0030-00M.COL___241                                                 6
 STAT SP IPHASW D HRMM SECON CODA AMPLIT PERI AZIMU VELO AIN AR TRES W  DIS CAZ7
 PTB  HZ IP     C  031 27.70                             140   -0.5310 73.0 296 
 PTB  HN ES        031 40.67                             140   -0.0810 73.0 296 
 PTB  HZ I         031 41.44         8.3 0.13            144           73.0 296 
 RUS  HZ EP        031 30.62                             132   -0.1610 95.0 114 
 RUS  HN ES   1    031 44.77                             132   -0.52 7 95.0 114 
 RUS  HN I         031 47.09         3.2 0.39            133           95.0 114 
 BRR  HZ EP        031 30.29                             131    0.0510 96.3  10 
 BRR  HN ES        031 44.83                             131    0.4910 96.3  10 
 BRR  HZ I         031 46.66         8.6 0.12            135           96.3  10 
 CHI  HZ EP        031 39.66                             113    0.08 9  180 175 
 CHI  HE ES        032  1.55                             113    0.59 9  180 175 
 CHI  HZ I         032  5.08         1.3 0.38            114            180 175 
                                                                                
