 2011  829 0247 28.4 L   6.811 -73.131147.3  RSN  6 0.3 1.7LRSN                1
 GAP=185        0.60       2.8     8.9  4.6  0.3673E+01  0.8639E-01  0.2078E+01E
 Epicentro: LOS SANTOS - SANTANDER                                             3
 ACTION:UPD 12-07-13 15:54 OP:ep   STATUS:               ID:20110829024728 L   I
 2011-08-29-0245-08S.COL___161                                                 6
 STAT SP IPHASW D HRMM SECON CODA AMPLIT PERI AZIMU VELO AIN AR TRES W  DIS CAZ7
 BAR2 SZ EP   1    247 48.19                             170   -0.06 7 24.9 193 
 BAR2 SZ ES   1    248  3.12                             170   -0.61 7 24.9 193 
 BAR2 SZ I         248  5.48         7.9 0.26                          24.9 193 
 GIR2 SZ EP   1    247 48.50                             168    0.27 7 30.4 347 
 GIR2 SZ ES        248  3.94                             168    0.2410 30.4 347 
 BRR  HZ EP   1    247 49.66                             153   -0.11 7 72.1 297 
 BRR  HN ES   1    248  6.67                             153    0.24 7 72.1 297 
 BRR  HZ I         248 10.05        11.8 0.14                          72.1 297 
 RUS  HZ EP   1    247 52.39                             144    0.00 7  102 177 
 RUS  HE ES   1    248 11.36                             144    0.27 7  102 177 
 RUS  HZ I         248 12.65         7.3 0.29                           102 177 
 OCA  SZ EP   1    247 56.82                             130    0.09 7  159 352 
 OCA  SZ ES   1    248 18.38                             130   -0.45 7  159 352 
 OCA  SZ I         248 22.61         6.5 0.35                           159 352 
 CHI  HZ EP   1    248  6.51                             117    0.14 6  250 195 
 CHI  HE ES   1    248 35.63                             117   -0.35 6  250 195 
 CHI  HZ I         248 39.54         2.6 0.31                           250 195 
                                                                                
