 2013  429 0545 59.8 L   6.782 -73.140145.8  RSN  4 0.4 1.8LRSN                1
 GAP=237        0.94       9.0     9.5  8.2  0.4561E+02  0.1714E+02  0.8068E+01E
 Epicentro: LOS SANTOS - SANTANDER                                             3
 ACTION:UPD 13-05-22 14:41 OP:EP   STATUS:               ID:20130429054559 L   I
 2013-04-29-0540-00M.COL___248                                                 6
 STAT SP IPHASW D HRMM SECON CODA AMPLIT PERI AZIMU VELO AIN AR TRES W  DIS CAZ7
 BAR2 SZ EP   2    546 19.10                             171   -0.27 5 21.5 193 
 BAR2 SZ ES        546 34.03                             171   -0.6210 21.5 193 
 BRR  HZ EP     C  546 21.09                             152    0.0810 72.7 300 
 BRR  HN ES        546 38.06                             152    0.4910 72.7 300 
 BRR  HN I         546 38.42        13.8 0.28            148           72.7 300 
 RUS  HZ EP   1    546 23.76                             144    0.38 7 98.5 176 
 RUS  HN ES   1    546 42.30                             144    0.51 7 98.5 176 
 RUS  HN I         546 42.61         7.1 0.24            141           98.5 176 
 PTB  HZ EP        546 26.42                             132   -0.34 9  148 260 
 PTB  HN ES   1    546 47.64                             132   -0.17 7  148 260 
 PTB  HN I         546 52.34        10.8 0.48            128            148 260 
                                                                                
