 2016  729 0117 57.8 L   6.853 -73.074151.8  RSN  5 0.4 1.5LRSN                1
 GAP=143        0.98       5.6     5.4  8.0 -0.3936E+01  0.5300E+01  0.1137E+02E
 Epicentro: LOS SANTOS - SANTANDER                                             3
 ACTION:UPD 17-03-29 16:56 OP:lp   STATUS:               ID:20160729011757 L   I
 OLDACT:UP  16-07-29 14:32 OP:edw  STATUS:               ID:20160729010760d    3
 OLDACT:UP  16-07-29 14:31 OP:edw  STATUS:               ID:20160729010760d    3
 2016-07-29-0107-59S.COL___340                                                 6
 STAT SP IPHASW D HRMM SECON CODA AMPLIT PERI AZIMU VELO AIN AR TRES W  DIS CAZ7
 PAM  EZ EP        118 20.28                             155    0.1210 67.8  38 
 PAM  EE ES        118 37.08                             155   -0.5010 67.8  38 
 PAM  EZ I         118 40.81         4.6 0.30            158           67.8  38 
 BRR  HZ EP        118 20.23                             152    0.3410 75.9 292 
 BRR  HN ES        118 37.68                             152    0.5810 75.9 292 
 RUS  HZ EP        118 22.86                             143    0.2910  106 181 
 RUS  HN ES        118 41.86                             143   -0.0210  106 181 
 RUS  HZ I         118 42.72         2.9 0.34            146            106 181 
 PTB  HZ EP        118 25.54                             132   -0.56 9  157 257 
 PTB  HE ES        118 47.74                             132   -0.41 9  157 257 
 PTB  HZ I         118 52.33         4.0 0.44            133            157 257 
 SPBC HZ EP        118 27.72                             129    0.03 9  173 220 
 SPBC HE ES   4    118 49.66                             129   -1.33 0  173 220 
 SPBC HZ I         118 53.21         4.2 0.10            130            173 220 
                                                                                
