 2012 1029 0508  3.5 L   6.818 -73.105149.6  RSN  5 0.2 1.8LRSN                1
 GAP=243        0.49       3.9     6.8  7.2  0.1468E+02 -0.7336E+01 -0.3677E+00E
 Epicentro: LOS SANTOS - SANTANDER                                             3
 ACTION:UPD 12-11-22 17:06 OP:ep   STATUS:               ID:20121029050803 L   I
 2012-10-29-0500-00M.COL___231                                                 6
 STAT SP IPHASW D HRMM SECON CODA AMPLIT PERI AZIMU VELO AIN AR TRES W  DIS CAZ7
 BAR2 SZ EP        5 8 23.50                             170   -0.1710 26.4 199 
 BAR2 SZ I         5 8 23.79         9.4 0.36                          26.4 199 
 BRR  HZ EP        5 8 25.45                             152    0.2010 74.3 296 
 BRR  HN ES   1    5 8 42.36                             152    0.16 7 74.3 296 
 BRR  HN I         5 8 46.12        19.1 0.14                          74.3 296 
 RUS  HZ EP   1    5 8 27.82                             144    0.05 7  102 179 
 RUS  HN ES   1    5 8 46.50                             144   -0.19 7  102 179 
 RUS  HN I         5 8 47.96         6.5 0.32                           102 179 
 ZAR  HN ES   2    5 9  1.72                             123   -0.61 4  207 291 
 ZAR  HN I         5 9  9.86         5.8 0.14                           207 291 
 CHI  HN ES   1    5 9 11.76                             117    0.16 6  252 196 
 CHI  HN I         5 9 14.19         3.4 0.44                           252 196 
                                                                                
