 2013  729 0335 49.7 L   7.412 -73.283125.3  RSN  9 0.5 1.9LRSN                1
 GAP=100        1.04       3.9     5.1  7.6  0.1168E+01  0.1403E+02  0.5941E+00E
 Epicentro: EL PLAYON - SANTANDER                                              3
 ACTION:UPD 13-08-12 10:40 OP:ep   STATUS:               ID:20130729033549 L   I
 OLDACT:REG 13-07-29 07:41 OP:carl STATUS:               ID:20130729032959     3
 2013-07-29-0329-59M.COL___267                                                 6
 STAT SP IPHASW D HRMM SECON CODA AMPLIT PERI AZIMU VELO AIN AR TRES W  DIS CAZ7
 GIR2 SZ EP        336  7.38                             162    0.2410 38.1 165 
 GIR2 SZ ES   1    336 20.39                             162   -0.39 7 38.1 165 
 GIR2 SZ I         336 22.21        24.4 0.20            167           38.1 165 
 BRR  HZ IP     C  336  8.15                             153    0.2910 58.1 235 
 BRR  HN ES   1    336 22.05                             153   -0.01 7 58.1 235 
 BRR  HN I         336 22.48        20.9 0.14            154           58.1 235 
 PAM  SN ES   1    336 24.53                             151    0.52 7 64.9  97 
 PAM  SN I         336 25.22        14.3 0.22            156           64.9  97 
 BAR2 SZ IP     C  336 10.60                             142    0.2210 91.3 173 
 BAR2 SZ ES   1    336 25.78                             142   -0.76 7 91.3 173 
 BAR2 SZ I         336 27.32        23.2 0.44            146           91.3 173 
 OCA  HZ EP   1    336 10.45                             142    0.16 7 91.6 357 
 OCA  HN ES   1    336 26.31                             142   -0.07 7 91.6 357 
 OCA  HZ I         336 32.67         8.9 0.20            141           91.6 357 
 PTB  HZ EP   1    336 16.23                             124   -0.19 7  162 233 
 PTB  HN ES   1    336 36.62                             124   -0.67 7  162 233 
 PTB  HZ I         336 37.97         6.1 0.16            126            162 233 
 ZAR  HZ EP   1    336 16.95                             122   -0.74 7  174 273 
 ZAR  HE ES        336 40.44                             122    0.90 9  174 273 
 ZAR  HZ I         336 44.96         7.4 0.26            123            174 273 
 SML  HZ EP   1    336 17.91                             122   -0.01 7  177 331 
 SML  HN ES   1    336 39.10                             122   -0.86 7  177 331 
 SML  HZ I         336 45.17        22.4 0.10            122            177 331 
 SPBC HZ EP        336 21.60                             116   -0.37 8  213 204 
 SPBC HN ES   1    336 47.74                             116    0.58 6  213 204 
 SPBC HZ I         336 51.38         7.4 0.40            119            213 204 
                                                                                
