 2010 1129 0947 20.3 L   6.832 -73.024136.0  RSN  5 0.3 1.4LRSN                1
 GAP=172        0.73       5.0    10.2  9.2  0.1950E+02 -0.2792E+02 -0.6695E+01E
 Epicentro: CEPITA - SANTANDER                                                 3
 ACTION:UP  10-12-17 16:55 OP:REBC STATUS:               ID:20101129094720 L   I
 2010-11-29-0944-32S.COL___130                                                 6
 STAT SP IPHASW D HRMM SECON CODA AMPLIT PERI AZIMU VELO SNR AR TRES W  DIS CAZ7
 BAR2 SZ EP        947 38.81                             166    -0.210   32 214 
 BAR2 SZ I         947 40.87         7.9 0.79                            32 214 
 BAR2 SZ ES   2    947 53.38                             166    -0.2 5   32 214 
 BRR  HZ EP        947 40.73                             147    -0.310   82 292 
 BRR  HZ I         947 42.58        10.5 0.27                            82 292 
 BRR  HN ES   1    947 57.60                             147     0.3 7   82 292 
 RUS  HZ EP        947 43.57                             141     0.210  104 184 
 RUS  HE ES   1    948  1.39                             141     0.0 7  104 184 
 RUS  HZ I         948  2.66         2.1 0.44                           104 184 
 GRA  SZ ES   2    948  2.61                             136     0.0 5  119  12 
 GRA  SZ I         948  5.05         4.1 0.61                           119  12 
 OCA  SZ EP   2    947 48.42                             128     0.7 5  159 348 
 OCA  SZ I         948  1.35         3.1 0.61                           159 348 
                                                                                
