 2012 1029 0431 16.4 L   6.779 -73.101150.4  RSN  9 0.3 2.5LRSN                1
 GAP=143        0.60       2.4     3.8  4.4 -0.3373E+00  0.5042E+01  0.2820E+01E
 Epicentro: LOS SANTOS - SANTANDER                                             3
 ACTION:UPD 12-11-22 17:06 OP:ep   STATUS:               ID:20121029043116 L   I
 2012-10-29-0430-00M.COL___231                                                 6
 STAT SP IPHASW D HRMM SECON CODA AMPLIT PERI AZIMU VELO AIN AR TRES W  DIS CAZ7
 BAR2 SZ EP   1    431 36.44                             171   -0.11 7 22.5 203 
 BAR2 SZ ES   1    431 51.85                             171   -0.43 7 22.5 203 
 BAR2 SZ I         431 54.71        40.9 0.36                          22.5 203 
 GIR2 SZ EP        431 36.54                             166   -0.1610 34.7 343 
 PAM  SZ EP        431 39.24                             152    0.2210 76.3  36 
 PAM  SE ES        431 56.77                             152    0.0810 76.3  36 
 PAM  SE I         431 58.71        34.9 0.52                          76.3  36 
 BRR  HZ EP        431 38.34                             152    0.0010 76.6 298 
 BRR  HN ES   1    431 56.14                             152    0.68 7 76.6 298 
 BRR  HN I         431 56.95        80.1 0.20                          76.6 298 
 RUS  HZ EP   1    431 40.29                             145   -0.12 7 98.0 179 
 RUS  HE ES   1    431 59.11                             145   -0.04 7 98.0 179 
 RUS  HE I         432  0.32        35.9 0.22                          98.0 179 
 OCA  HZ EP   2    431 45.30                             130   -0.03 5  163 352 
 OCA  HN ES   1    432  7.73                             130   -0.18 7  163 352 
 OCA  HN I         432  9.38        78.1 0.20                           163 352 
 ZAR  HZ EP   1    431 49.57                             123   -0.12 6  209 292 
 ZAR  HE ES   1    432 15.33                             123   -0.33 6  209 292 
 ZAR  HE I         432 21.06        54.3 0.22                           209 292 
 CHI  HZ EP        431 54.51                             118    0.27 8  248 196 
 CHI  HN ES   1    432 23.55                             118   -0.22 6  248 196 
 CHI  HN I         432 26.49        10.4 0.56                           248 196 
 PRA  HZ EP        432  9.78                             107   -0.33 6  392 210 
 PRA  HE ES   1    432 52.86                             107    0.84 4  392 210 
 PRA  HE I         432 57.72         6.5 0.26                           392 210 
                                                                                
