 2013  529 0150 20.3 R   6.464 -73.539120.3  RSN  4 0.2 1.4LRSN                1
 GAP=205        0.48       7.0     4.0  8.3 -0.1666E+02 -0.2025E+02  0.3830E+02E
 Epicentro: SANTA HELENA DEL OPON - SANTANDER                                  3
 ACTION:UPD 13-06-20 09:54 OP:ep   STATUS:               ID:20130529015020 L   I
 2013-05-29-0150-00M.COL___261                                                 6
 STAT SP IPHASW D HRMM SECON CODA AMPLIT PERI AZIMU VELO AIN AR TRES W  DIS CAZ7
 BAR2 SZ EP        150 37.57                             160    0.1110 41.9  70 
 BAR2 SZ I         150 52.25        10.9 0.28            136           41.9  70 
 BRR  HZ IP     D  150 38.94                             146    0.0510 73.7 345 
 BRR  HN ES        150 53.52                             146    0.1010 73.7 345 
 BRR  HZ I         150 59.01         6.1 0.42            158           73.7 345 
 GIR2 SZ EP        150 39.12                             145   -0.2710 78.0  29 
 GIR2 SZ I         150 53.86         6.8 0.32            141           78.0  29 
 PTB  HZ EP        150 41.20                             137    0.1510  102 275 
 PTB  HN ES        150 57.12                             137   -0.1510  102 275 
 PTB  HZ I         151  2.74         3.2 0.10            149            102 275 
                                                                                
