 2016 1229 0840 53.8 L   6.678 -73.187140.9  RSN  4 0.3 1.4LRSN                1
 GAP=228        0.85       9.2     6.1  6.8  0.1994E+02  0.1139E+02 -0.1454E+01E
 Epicentro: VILLANUEVA - SANTANDER                                             3
 ACTION:UPD 17-01-11 20:20 OP:rebc STATUS:               ID:20161229084053 L   I
 OLDACT:REG 16-12-29 13:22 OP:edw  STATUS:               ID:20161229083748     3
 2016-12-29-0838-00M.COL___366                                                 6
 STAT SP IPHASW D HRMM SECON CODA AMPLIT PERI AZIMU VELO AIN AR TRES W  DIS CAZ7
 BAR2 EZ EP        841 12.83                             176    0.1710 9.54 177 
 BAR2 EZ ES        841 26.97                             176   -0.3810 9.54 177 
 BAR2 EZ I         841 29.08         9.1 0.48            176           9.54 177 
 BRR  HZ EP        841 14.47                             150   -0.1910 74.9 309 
 BRR  HN ES        841 31.45                             150    0.5310 74.9 309 
 BRR  HZ I         841 34.77         4.8 0.32            148           74.9 309 
 PTB  HZ EP        841 20.23                             132    0.44 9  141 264 
 PTB  HE ES        841 39.97                             132   -0.09 9  141 264 
 PTB  HZ I         841 43.07         1.6 0.10            133            141 264 
 ZAR  HZ EP        841 25.80                             121   -0.29 8  205 296 
 ZAR  HN ES        841 50.94                             121   -0.32 8  205 296 
 ZAR  HZ I         841 56.24         2.5 0.48            122            205 296 
                                                                                
