 2017  429 0623 13.2 L   6.733 -73.143148.2  RSN  6 0.4 1.5LRSN                1
 GAP=233        0.65       3.8     5.0  6.4  0.8597E+01  0.2943E+01 -0.1929E+01E
 Epicentro: LOS SANTOS - SANTANDER                                             3
 ACTION:UPD 17-05-30 21:17 OP:jn   STATUS:               ID:20170429062313 L   I
 OLDACT:UP  17-04-29 16:48 OP:and  STATUS:               ID:20170429061745     3
 OLDACT:UP  17-04-29 16:48 OP:and  STATUS:               ID:20170429061745     3
 OLDACT:UP  17-04-29 16:47 OP:and  STATUS:               ID:20170429061745     3
 OLDACT:UP  17-04-29 16:47 OP:and  STATUS:               ID:20170429061745     3
 OLDACT:REG 17-04-29 12:48 OP:and  STATUS:               ID:20170429061745     3
 2017-04-29-0618-00M.COL___362                                                 6
 STAT SP IPHASW D HRMM SECON CODA AMPLIT PERI AZIMU VELO AIN AR TRES W  DIS CAZ7
 BRR  HZ EP        623 34.78                             152   -0.0510 75.2 303 
 BRR  HE ES        623 51.63                             152   -0.0810 75.2 303 
 RUS  HZ EP        623 36.86                             146    0.1910 93.2 176 
 RUS  HN ES        623 55.08                             146    0.1010 93.2 176 
 RUS  HZ I         623 56.91         3.8 0.30            147           93.2 176 
 PTB  HZ EP     D  623 39.88                             133   -0.39 9  147 262 
 PTB  HN ES   3    624  0.08                             133   -1.31 2  147 262 
 PTB  HZ I         624  3.11         3.3 0.24            132            147 262 
 SPBC HN ES        624  3.13                             131   -0.21 9  158 221 
 SPBC HZ I         624  5.77         5.1 0.14            130            158 221 
 ZAR  HZ EP   2    623 46.12                             122    0.00 4  207 294 
 ZAR  HE ES        624 12.22                             122    0.42 8  207 294 
 ZAR  HZ I         624 17.55         4.6 0.30            122            207 294 
 NOR  HN ES   2    624 17.03                             120    0.74 4  231 236 
                                                                                
