 2013  629 0602  8.8 L   7.225 -73.745 12.5  RSN  4 0.2 1.2LRSN                1
 GAP=230        0.47       3.0     2.3  2.5  0.4732E+01 -0.4079E+00 -0.6516E+00E
 Epicentro: PUERTO WILCHES - SANTANDER                                         3
 ACTION:UPD 14-01-08 09:58 OP:ep   STATUS:               ID:20130629060208 L   I
 OLDACT:DUP 13-06-29 09:35 OP:carl STATUS:               ID:20130629055960d    3
 2013-06-29-0559-59M.COL___266                                                 6
 STAT SP IPHASW D HRMM SECON CODA AMPLIT PERI AZIMU VELO AIN AR TRES W  DIS CAZ7
 BRR  HZ IP     C  6 2 11.66                             128   -0.2810 13.5 164 
 BRR  HN ES   1    6 2 14.71                             128    0.34 7 13.5 164 
 PTB  HZ EP        6 2 26.09                              95    0.0610  109 226 
 PTB  HE ES   1    6 2 39.27                              95   -0.18 7  109 226 
 PTB  HZ I         6 2 40.04         6.9 0.24             47            109 226 
 ZAR  HZ EP   1    6 2 28.64                              94    0.03 7  126 284 
 ZAR  HE ES        6 2 44.14                              94    0.0810  126 284 
 ZAR  HZ I         6 2 46.81         2.9 0.58             47            126 284 
 RUS  HZ EP   1    6 2 34.41                              56   -0.09 7  165 154 
 RUS  HN ES   1    6 2 54.70                              56    0.17 7  165 154 
 RUS  HZ I         6 2 57.00         3.0 0.28             47            165 154 
                                                                                
