 2010  929 0726 18.6 L   6.874 -73.290123.1  RSN 11 0.4 2.0LRSN                1
 GAP=133        0.72       2.9     5.1  5.6 -0.3863E+01  0.1724E+01 -0.4434E+00E
 Epicentro: BETULIA - SANTANDER                                                3
 ACTION:UP  11-02-18 11:06 OP:tino STATUS:               ID:20100929072618 L   I
 2010-09-29-0724-06S.COL___125                                                 6
 STAT SP IPHASW D HRMM SECON CODA AMPLIT PERI AZIMU VELO SNR AR TRES W  DIS CAZ7
 BTL  SZ EP        726 35.47                             177     0.310    5  27 
 GIR2 SZ EP   1    726 35.58                             168     0.2 7   25  25 
 BAR2 SZ IP        726 35.94                             164     0.210   33 159 
 BAR2 SZ ES   1    726 49.40                             164     0.2 7   33 159 
 BAR2 SZ I         726 50.30        70.1 0.19                            33 159 
 BRR  HZ EP        726 36.37                             155     0.110   53 299 
 BRR  HE ES   1    726 50.07                             155     0.0 7   53 299 
 BRR  HZ I         726 51.28        43.2 0.09                            53 299 
 RUS  HZ EP   1    726 40.86                             135    -0.2 7  111 168 
 RUS  HN ES   2    726 57.77                             135    -0.8 5  111 168 
 RUS  HZ I         726 59.46         8.1 0.20                           111 168 
 GUE  SZ EP        726 40.96                             135     0.010  113  21 
 GRA  SZ EP   1    726 41.27                             132    -0.5 7  124  26 
 GRA  SZ I         726 42.09        10.8 0.23                           124  26 
 GRA  SZ ES   2    726 59.06                             132    -0.7 5  124  26 
 OCA  SZ EP        726 44.29                             126     0.0 9  151 359 
 OCA  SZ ES   1    727  4.33                             126     0.0 7  151 359 
 OCA  SZ I         727 11.40        15.2 0.30                           151 359 
 NOR  SZ EP   2    726 51.35                             114    -0.9 4  227 231 
 NOR  SE ES   2    727 17.66                             114    -0.9 4  227 231 
 CHI  HZ EP   1    726 56.10                             112     0.5 6  253 191 
 CHI  HE ES   2    727 24.79                             112     0.3 4  253 191 
 CHI  HZ I         727 27.80         4.6 0.40                           253 191 
 HEL  HZ EP   2    726 56.75                             111     0.5 4  259 253 
 HEL  HE ES   2    727 25.58                             111     0.0 4  259 253 
 HEL  HZ I         727 29.87         4.1 0.52                           259 253 
                                                                                
