 2010 1129 0819 53.4 L   7.163 -73.047147.4  RSN  9 0.3 2.0LRSN                1
 GAP=163        0.69       2.9     6.1  4.9 -0.6064E+01  0.5864E+00  0.8116E+00E
 Epicentro: BUCARAMANGA - SANTANDER                                            3
 ACTION:UP  10-12-17 16:55 OP:REBC STATUS:               ID:20101129081953 L   I
 2010-11-29-0817-22S.COL___130                                                 6
 STAT SP IPHASW D HRMM SECON CODA AMPLIT PERI AZIMU VELO SNR AR TRES W  DIS CAZ7
 GIR2 SZ EP        820 12.94                             172    -0.110   19 240 
 GIR2 SZ ES   1    820 28.11                             172    -0.2 7   19 240 
 BAR2 SZ EP        820 14.73                             155     0.010   65 193 
 BAR2 SZ ES   1    820 31.54                             155     0.1 7   65 193 
 BAR2 SZ I         820 33.51        24.9 0.52                            65 193 
 BRR  HZ EP        820 14.76                             152    -0.110   74 265 
 BRR  HZ I         820 15.34        31.1 0.16                            74 265 
 BRR  HN ES   1    820 32.17                             152     0.5 7   74 265 
 GUE  SZ EP        820 15.41                             152     0.010   75  10 
 GRA  SZ EP        820 15.66                             149    -0.110   84  19 
 GRA  SZ ES   1    820 33.19                             149     0.0 7   84  19 
 GRA  SZ I         820 34.38        47.0 0.28                            84  19 
 OCA  SZ EP        820 18.97                             138     0.410  123 346 
 OCA  SZ ES   1    820 37.80                             138    -0.4 7  123 346 
 OCA  SZ I         820 39.51        17.7 0.20                           123 346 
 RUS  HZ EP   1    820 20.80                             134     0.3 7  141 182 
 RUS  HN ES   1    820 41.55                             134    -0.1 7  141 182 
 RUS  HZ I         820 44.55         4.0 0.57                           141 182 
 NOR  SZ EP        820 32.95                             115     0.0 8  268 229 
 NOR  SE ES   2    821  2.50                             115    -1.2 4  268 229 
 CHI  HZ EP   3    820 35.27                             113    -0.5 2  290 195 
 CHI  HN ES   2    821  9.51                             113     0.7 4  290 195 
 CHI  HZ I         821 14.31         1.9 0.38                           290 195 
                                                                                
