 2011 1029 0241  3.9 L   6.759 -73.110138.2  RSN  8 0.4 1.9LRSN                1
 GAP=143        0.61       3.7     4.7  4.9  0.1114E+01 -0.1817E-03 -0.1496E+01E
 Epicentro: LOS SANTOS - SANTANDER                                             3
 ACTION:UPD 12-07-13 16:06 OP:ep   STATUS:               ID:20111029024103 L   I
 2011-10-29-0240-00M.COL___177                                                 6
 STAT SP IPHASW D HRMM SECON CODA AMPLIT PERI AZIMU VELO AIN AR TRES W  DIS CAZ7
 BAR2 SZ EP        241 22.61                             171    0.0810 20.2 203 
 BAR2 SZ ES   1    241 36.75                             171   -0.33 7 20.2 203 
 BAR2 SZ I         241 38.15        18.4 0.23                          20.2 203 
 BTL  SZ EP        241 22.79                             170    0.1710 24.8 315 
 GIR2 SZ EP        241 22.67                             165   -0.1310 36.5 345 
 GIR2 SZ ES   2    241 37.64                             165    0.07 5 36.5 345 
 BRR  HZ EP        241 24.38                             150   -0.1710 76.8 300 
 BRR  HZ I         241 24.73        21.7 0.32                          76.8 300 
 BRR  HE ES   1    241 41.01                             150    0.34 7 76.8 300 
 PAM  SZ EP        241 25.46                             149    0.1010 78.5  35 
 PAM  SE ES   1    241 42.31                             149    0.20 7 78.5  35 
 RUS  HZ EP        241 26.49                             144   -0.0510 95.9 178 
 RUS  HN ES   2    241 44.48                             144    0.26 5 95.9 178 
 OCA  SZ EP        241 31.80                             127   -0.28 9  165 352 
 ZAR  HZ EP   3    241 38.89                             120    2.49 2  209 293 
 ZAR  HN ES   2    242  1.28                             120   -0.49 4  209 293 
 ZAR  HZ I         242  3.22         4.6 0.20                           209 293 
                                                                                
