 2011 1129 0640 51.1 L   6.787 -73.100145.5  RSN 15 0.4 2.4LRSN                1
 GAP=143        0.81       3.8     6.1  5.3 -0.9008E+01  0.9190E+01  0.1460E+01E
 Epicentro: LOS SANTOS - SANTANDER                                             3
 ACTION:UPD 12-07-13 16:13 OP:ep   STATUS:               ID:20111129064051 L   I
 2011-11-29-0640-00M.COL___181                                                 6
 STAT SP IPHASW D HRMM SECON CODA AMPLIT PERI AZIMU VELO AIN AR TRES W  DIS CAZ7
 BAR2 SZ EP        641 10.55                             170   -0.1210 23.3 203 
 BAR2 SZ ES   1    641 25.43                             170   -0.52 7 23.3 203 
 BAR2 SZ I         641 27.31        41.9 0.30                          23.3 203 
 GIR2 SZ EP        641 10.73                             166   -0.0610 33.9 342 
 GIR2 SZ ES   2    641 25.57                             166   -0.59 5 33.9 342 
 PAM  SZ EP        641 13.47                             151    0.3310 75.5  36 
 PAM  SN ES   1    641 30.66                             151    0.30 7 75.5  36 
 BRR  HZ EP        641 12.48                             151   -0.0110 76.4 298 
 BRR  HN ES   1    641 29.78                             151    0.58 7 76.4 298 
 BRR  HZ I         641 32.14        74.0 0.12                          76.4 298 
 RUS  HZ EP        641 14.51                             144   -0.1610 98.9 179 
 RUS  HN ES   1    641 33.13                             144    0.05 7 98.9 179 
 RUS  HZ I         641 34.08        16.8 0.30                          98.9 179 
 BRI  SZ EP        641 15.20                             141    0.2910  108  18 
 OCA  SZ EP        641 18.92                             129   -0.64 9  162 351 
 OCA  SZ I         641 44.66        15.0 0.17                           162 351 
 CTAU SZ EP        641 24.43                             123    0.28 9  204 211 
 CTAB SZ EP   1    641 27.51                             119    0.56 6  231 212 
 NOR  SZ EP        641 26.42                             118   -0.72 8  238 235 
 CHI  HN ES   3    641 57.87                             117   -0.27 2  249 196 
 ROSC BZ EP   3    641 30.05                             116    0.72 2  254 212 
 ROSC BZ I         642  7.68        24.9 0.45                           254 212 
 HEL  HZ EP   2    641 32.37                             114    0.59 4  277 256 
 HEL  HZ I         642  8.75        11.0 0.30                           277 256 
 RREF HZ EP        641 37.63                             111    0.09 7  325 230 
 RREF HN ES   2    642 14.91                             111    1.14 3  325 230 
 RREF HZ I         642 22.95        16.1 0.38                           325 230 
 PRA  HE ES   3    642 25.74                             106   -0.84 1  393 210 
                                                                                
