 2012  929 0342 36.0 L   6.790 -73.133149.6  RSN  7 0.4 1.6LRSN                1
 GAP=139        0.87       5.8     5.3  8.4  0.3088E+01  0.3123E+01  0.1045E+02E
 Epicentro: LOS SANTOS - SANTANDER                                             3
 ACTION:UPD 12-10-22 14:21 OP:ep   STATUS:               ID:20120929034236 L   I
 2012-09-29-0340-38M.COL___215                                                 6
 STAT SP IPHASW D HRMM SECON CODA AMPLIT PERI AZIMU VELO AIN AR TRES W  DIS CAZ7
 BAR2 SZ EP        342 56.05                             171   -0.0110 22.5 194 
 BAR2 SZ ES   1    343 11.99                             171    0.27 7 22.5 194 
 BAR2 SZ I         343 12.81        11.1 0.40                          22.5 194 
 BRR  HN ES   1    343 15.24                             153    0.69 7 73.0 299 
 PAM  SZ EP   1    342 58.14                             152   -0.47 7 77.4  38 
 PAM  SN ES   1    343 16.07                             152   -0.19 7 77.4  38 
 PAM  SZ I         343 17.19         5.5 0.06                          77.4  38 
 RUS  HZ EP   1    343  0.39                             145    0.36 7 99.3 177 
 RUS  HN ES   1    343 18.46                             145   -0.32 7 99.3 177 
 RUS  HZ I         343 20.28         1.9 0.27                          99.3 177 
 PTB  HN ES   1    343 23.90                             133   -0.83 7  149 259 
 PTB  HN I         343 29.71         8.7 0.50                           149 259 
 ZAR  HN ES   1    343 34.59                             123    0.09 6  206 292 
 ZAR  HN I         343 40.77         6.8 0.61                           206 292 
 CHI  HZ EP   1    343 14.33                             118    0.51 6  248 196 
                                                                                
