 2012  929 0152 44.9 L   6.790 -73.100140.7  RSN  6 0.3 1.9LRSN                1
 GAP=143        0.64       4.2     4.5  6.3  0.2612E+01  0.1919E+01 -0.2884E+01E
 Epicentro: LOS SANTOS - SANTANDER                                             3
 ACTION:UPD 12-10-22 14:21 OP:ep   STATUS:               ID:20120929015244 L   I
 2012-09-29-0150-00M.COL___220                                                 6
 STAT SP IPHASW D HRMM SECON CODA AMPLIT PERI AZIMU VELO AIN AR TRES W  DIS CAZ7
 BAR2 SZ EP   1    153  3.65                             170   -0.28 7 23.7 203 
 BAR2 SZ ES   1    153 18.68                             170   -0.09 7 23.7 203 
 BAR2 SZ I         153 19.66        27.4 0.12                          23.7 203 
 GIR2 SZ EP   1    153  3.52                             166   -0.51 7 33.5 342 
 PAM  SZ EP        153  6.85                             150    0.4110 75.2  36 
 PAM  SN ES   1    153 22.99                             150   -0.26 7 75.2  36 
 PAM  SN I         153 24.91        10.6 0.52                          75.2  36 
 BRR  HZ EP        153  5.88                             150    0.0810 76.2 297 
 BRR  HN ES   1    153 22.48                             150    0.38 7 76.2 297 
 BRR  HN I         153 22.91        54.8 0.20                          76.2 297 
 RUS  HZ EP   1    153  8.05                             143   -0.01 7 99.3 179 
 RUS  HN ES   1    153 26.21                             143    0.09 7 99.3 179 
 RUS  HZ I         153 28.37         7.0 0.30                          99.3 179 
 ZAR  HN ES   1    153 42.74                             120   -0.28 6  209 292 
 ZAR  HZ I         153 46.97         4.0 0.07                           209 292 
                                                                                
