 2016 1229 0256 10.8 L   6.796 -73.107149.7  RSN 11 0.3 1.7LRSN                1
 GAP=123        0.69       2.6     3.0  3.8  0.2148E+00  0.1395E+01  0.2449E+01E
 Epicentro: LOS SANTOS - SANTANDER                                             3
 ACTION:UPD 17-01-11 20:20 OP:rebc STATUS:               ID:20161229025610 L   I
 OLDACT:UP  16-12-29 16:10 OP:edw  STATUS:               ID:20161229024220     3
 OLDACT:UP  16-12-29 16:10 OP:edw  STATUS:               ID:20161229024220     3
 OLDACT:UP  16-12-29 16:10 OP:edw  STATUS:               ID:20161229024220     3
 OLDACT:REG 16-12-29 13:00 OP:edw  STATUS:               ID:20161229024220     3
 2016-12-29-0248-00M.COL___375                                                 6
 STAT SP IPHASW D HRMM SECON CODA AMPLIT PERI AZIMU VELO AIN AR TRES W  DIS CAZ7
 BAR2 EZ EP        256 30.85                             170   -0.0510 24.0 200 
 BAR2 EZ ES        256 46.07                             170   -0.5210 24.0 200 
 BAR2 EZ I         256 48.60        15.3 0.34            168           24.0 200 
 PAM  EZ EP     D  256 33.45                             152    0.1610 75.1  37 
 PAM  EN ES        256 50.78                             152   -0.0710 75.1  37 
 PAM  EZ I         256 52.61        12.3 0.58            152           75.1  37 
 BRR  HZ EP        256 32.71                             152    0.1210 75.2 297 
 BRR  HN ES        256 50.00                             152    0.4110 75.2 297 
 RUS  HZ EP        256 35.01                             145    0.1310 99.9 178 
 RUS  HN ES        256 53.91                             145    0.2410 99.9 178 
 RUS  HZ I         256 55.65         8.0 0.32            142           99.9 178 
 PTB  HZ EP   9    256 37.80                             132   -0.65 0  152 259 
 PTB  HN ES        256 59.32                             131   -0.06 9  152 259 
 PTB  HZ I         257  1.03         5.5 0.11            129            152 259 
 ZAR  HZ EP        256 43.50                             123   -0.42 8  208 292 
 ZAR  HN ES        257  9.66                             123   -0.10 8  208 292 
 ZAR  HZ I         257 14.58         4.1 0.22            120            208 292 
 NOR  HZ EP        256 47.37                             119    0.28 8  238 235 
 NOR  HN ES        257 15.14                             119   -0.27 8  238 235 
 NOR  HZ I         257 17.32         3.5 0.11            116            238 235 
 CHI  HZ EP        256 49.14                             118    0.36 8  249 196 
 CHI  HN ES        257 18.39                             118   -0.02 8  249 196 
 CHI  HZ I         257 23.27         1.6 0.28            115            249 196 
 GUY2CHZ EP   4    256 57.04                             113    2.10 0  304 235 
 GUY2CHN ES   4    257 33.14                             113    3.76 0  304 235 
 GUY2CHZ I         257 37.63         3.1 0.34                           304 235 
 PTGC HZ EP     C  256 54.01                             112   -0.59 7  307 159 
 PTGC HE ES   4    257 26.88                             112   -1.89 0  307 159 
 ORTC HZ EP   2    257  5.33                             107    0.24 3  398 217 
 ORTC HZ I         257 30.18         2.7 0.44            105            398 217 
 SJC  HZ EP   4    257  4.87                             106   -1.93 0  412 326 
 SJC  HN ES   4    257 46.64                             106   -3.86 0  412 326 
                                                                                
