 2017  429 0958 22.8 L   7.372 -72.942  5.6  RSN  5 0.4 1.8LRSN                1
 GAP=184        0.93       4.4     2.4  6.4 -0.2519E+01  0.8841E+01 -0.8629E+01E
 Epicentro: CALIFORNIA - SANTANDER                                             3
 ACTION:UPD 17-05-30 21:17 OP:jn   STATUS:               ID:20170429095822 L   I
 OLDACT:UP  17-04-29 17:57 OP:and  STATUS:               ID:20170429094740     3
 OLDACT:UP  17-04-29 17:56 OP:and  STATUS:               ID:20170429094740     3
 OLDACT:UP  17-04-29 17:56 OP:and  STATUS:               ID:20170429094740     3
 OLDACT:REG 17-04-29 12:58 OP:and  STATUS:               ID:20170429094740     3
 2017-04-29-0948-00M.COL___356                                                 6
 STAT SP IPHASW D HRMM SECON CODA AMPLIT PERI AZIMU VELO AIN AR TRES W  DIS CAZ7
 PAM  EZ IP     D  958 27.81                              95   -0.2410 27.1  98 
 PAM  EN ES        958 32.02                              95   -0.0910 27.1  98 
 PAM  EZ I         958 33.18        52.0 0.12             47           27.1  98 
 BRR  HZ EP        958 36.92                              91   -0.1310 89.9 251 
 BRR  HN ES        958 47.97                              91   -0.1710 89.9 251 
 RUS  HZ EP        958 49.74                              91    0.90 9  164 185 
 RUS  HN ES        959  8.96                              91   -0.17 9  164 185 
 RUS  HZ I         959 10.65         9.1 0.22             47            164 185 
 PTB  HZ EP        958 51.96                              56    0.12 9  191 241 
 PTB  HN ES        959 13.92                              56   -0.55 9  191 241 
 PTB  HZ I         959 15.13        14.3 0.24             37            191 241 
 ZAR  HZ EP   2    958 54.96                              56    0.51 4  212 274 
 ZAR  HN ES        959 19.48                              56    0.37 8  212 274 
 ZAR  HZ I         959 21.45        13.3 0.41             37            212 274 
                                                                                
