 2014 1229 0109 28.9 L   6.783 -73.187144.5  RSN  5 0.3 1.3LRSN                1
 GAP=232        0.70       4.3     5.0  5.5  0.6049E+01  0.6165E+01  0.2232E+01E
 Epicentro: ZAPATOCA - SANTANDER                                               3
 ACTION:UPD 15-02-10 17:07 OP:nd   STATUS:               ID:20141229010928 L   I
 OLDACT:ARG 14-12-29 12:30 OP:stll STATUS:               ID:20141229010750     3
 2014-12-29-0107-50M.COL___259                                                 6
 STAT SP IPHASW D HRMM SECON CODA AMPLIT PERI AZIMU VELO AIN AR TRES W  DIS CAZ7
 BAR2 EZ EP        1 9 48.22                             171   -0.1310 21.1 178 
 BAR2 EZ ES        110  3.47                             171   -0.0410 21.1 178 
 BAR2 EZ I         110  4.95         5.3 0.24            174           21.1 178 
 BRR  HZ EP        1 9 50.24                             153    0.4810 68.2 302 
 BRR  HZ I         1 9 57.73         6.2 0.52            148           68.2 302 
 RUS  HZ EP        1 9 52.38                             144   -0.0510 99.1 173 
 RUS  HN ES        110 10.73                             144   -0.0510 99.1 173 
 RUS  HZ I         110 11.97         1.8 0.54            148           99.1 173 
 PTB  HZ EP        1 9 55.25                             133   -0.09 9  143 259 
 PTB  HN ES        110 15.76                             133   -0.19 9  143 259 
 PTB  HZ I         110 21.90         2.6 0.34            131            143 259 
 CHI  HZ EP        110  5.76                             117   -0.45 8  246 194 
 CHI  HZ I         110  7.86         1.0 0.18            118            246 194 
 CHI  HN ES        110 35.80                             117    0.49 8  246 194 
                                                                                
