 2017  929 0822 30.1 L   6.808 -73.154137.1  RSN  4 0.4 1.1LRSN                1
 GAP=237        0.75       8.4     9.2  7.8  0.6116E+02  0.2660E+01 -0.1273E+02E
 Epicentro: LOS SANTOS - SANTANDER                                             3
 ACTION:UPD 17-10-05 19:17 OP:rebc STATUS:               ID:20170929082230 L   I
 OLDACT:UP  17-09-29 17:53 OP:dani STATUS:               ID:20170929081737d    3
 OLDACT:UP  17-09-29 17:52 OP:dani STATUS:               ID:20170929081737d    3
 OLDACT:UP  17-09-29 17:52 OP:dani STATUS:               ID:20170929081737d    3
 OLDACT:DUP 17-09-29 17:50 OP:dani STATUS:               ID:20170929081737d    3
 2017-09-29-0818-00M.COL___432                                                 6
 STAT SP IPHASW D HRMM SECON CODA AMPLIT PERI AZIMU VELO AIN AR TRES W  DIS CAZ7
 BAR2 EZ EP        822 48.44                             169   -0.2510 24.0 188 
 BAR2 EZ ES        823  2.97                             169   -0.2410 24.0 188 
 BAR2 EZ I         823  7.45         3.0 0.52            176           24.0 188 
 BRR  HZ EP        822 50.35                             151    0.1210 70.0 298 
 BRR  HE ES   3 C  823  7.89                             151    1.94 2 70.0 298 
 BRR  HZ I         823 10.84         2.8 0.20            154           70.0 298 
 RUS  HZ EP        822 53.45                             141    0.3810  102 176 
 RUS  HN ES        823 10.95                             141   -0.0410  102 176 
 RUS  HZ I         823 12.44         2.4 0.34            150            102 176 
 ZAR  HN ES        823 26.52                             120   -0.12 9  203 292 
                                                                                
