 2010  829 0916  3.4 L   6.824 -72.996146.7  RSN  4 0.1 1.5LRSN                1
 GAP=267        0.37       4.3     8.0  4.3  0.1507E+02 -0.1938E+01  0.3612E+01E
 Epicentro: CEPITA - SANTANDER                                                 3
 ACTION:UP  10-09-07 10:59 OP:vdl  STATUS:               ID:20100829091603 L   I
 2010-08-29-0911-22S.COL___120                                                 6
 STAT SP IPHASW D HRMM SECON CODA AMPLIT PERI AZIMU VELO SNR AR TRES W  DIS CAZ7
 BAR2 SZ EP   1    916 23.60                             167     0.2 7   33 219 
 BAR2 SZ ES   1    916 38.89                             167    -0.1 7   33 219 
 BAR2 SZ I         916 39.72         6.0 0.38                            33 219 
 BRR  HZ IP     D  916 25.51                             148     0.010   85 292 
 BRR  HZ I         916 25.66         9.8 0.11                            85 292 
 BRR  HE ES   1    916 42.77                             148     0.0 7   85 292 
 CHI  HZ EP   2    916 41.75                             116    -0.2 4  256 199 
 CHI  HN ES   2    917 12.26                             116     0.2 4  256 199 
 CHI  HZ I         917 18.11         1.3 0.30                           256 199 
 PRA  HZ EP   2    916 58.12                             106    -0.1 3  403 211 
 PRA  HZ I         917 47.04         1.2 0.36                           403 211 
                                                                                
