 2015 1129 0217 57.5 L   6.522 -73.499113.8  RSN 16 0.5 2.2LRSN                1
 GAP= 67        1.21       2.8     2.9  6.1 -0.2349E+01  0.5952E+01 -0.3634E+01E
 Epicentro: EL CARMEN - SANTANDER                                              3
 ACTION:UPD 15-12-28 16:14 OP:cam  STATUS:               ID:20151129021757 L   I
 OLDACT:REG 15-11-29 12:30 OP:ak   STATUS:               ID:20151129020748     3
 2015-11-29-0207-48M.COL___307                                                 6
 STAT SP IPHASW D HRMM SECON CODA AMPLIT PERI AZIMU VELO AIN AR TRES W  DIS CAZ7
 BAR2 EZ IP     C  218 14.17                             161    0.4910 35.9  78 
 BAR2 EZ ES        218 26.68                             161    0.3510 35.9  78 
 BRR  HZ EP        218 14.87                             147   -0.2410 68.8 340 
 BRR  HE ES        218 28.83                             147   -0.0310 68.8 340 
 BRR  HZ I         218 35.52        39.7 0.14            147           68.8 340 
 RUS  HZ EP        218 17.03                             141    0.1710 83.5 146 
 RUS  HN ES        218 31.91                             141   -0.0710 83.5 146 
 RUS  HZ I         218 33.95        19.3 0.58            146           83.5 146 
 PTB  HZ IP     C  218 17.01                             134   -1.0310  106 271 
 PTB  HN ES   4    218 31.91                             134   -2.18 0  106 271 
 PTB  HZ I         218 33.11        31.8 0.24            136            106 271 
 SPBC HZ EP        218 19.38                             131    0.3910  115 213 
 SPBC HN ES        218 35.28                             131   -0.4910  115 213 
 SPBC HZ I         218 39.23        28.8 0.22            135            115 213 
 PAM  EZ EP        218 20.61                             129    0.0410  126  44 
 PAM  EE ES        218 38.23                             129   -0.3510  126  44 
 PAM  EZ I         218 42.83        16.7 0.34            131            126  44 
 ZAR  HZ EP        218 25.97                             117    0.06 9  184 306 
 ZAR  HN ES        218 48.88                             117    0.79 9  184 306 
 ZAR  HZ I         218 50.72        51.8 0.30            119            184 306 
 NOR  HZ EP        218 25.62                             117   -0.41 9  185 235 
 NOR  HN ES        218 48.05                             117   -0.25 9  185 235 
 NOR  HZ I         218 50.27        15.2 0.16            120            185 235 
 TAM  HZ EP        218 26.72                             116    0.25 9  189  93 
 TAM  HN ES        218 49.52                             116    0.44 9  189  93 
 TAM  HZ I         218 55.11        19.2 0.52            119            189  93 
 OCA  HZ EP        218 25.94                             116   -0.85 9  191   6 
 OCA  HN ES        218 48.97                             116   -0.69 9  191   6 
 OCA  HZ I         218 56.07        55.6 0.30            118            191   6 
 HEL  HZ EP        218 31.50                             112    0.35 8  228 261 
 HEL  HN ES        218 58.24                             112    0.82 8  228 261 
 HEL  HZ I         219  4.01         8.9 0.18            114            228 261 
 GUY2CHZ EP   2    218 34.93                             109    0.89 4  252 235 
 GUY2CHN ES        219  2.67                             109    0.12 8  252 235 
 GUY2CHZ I         219  9.48         6.4 0.22                           252 235 
 SML  HZ EP        218 33.62                             108   -0.76 8  260 346 
 SML  HN ES        219  3.82                             108    0.66 8  260 346 
 SML  HZ I         219  7.24        19.3 0.16            110            260 346 
 URE  HZ EP   4    218 33.36                             108   -1.36 0  263 301 
 URE  HN ES   4    219  2.45                             108   -1.33 0  263 301 
 URE  HZ I         219 10.21        19.5 0.20            110            263 301 
 CBOC HZ EP   1    218 38.51                             106    0.68 5  287 255 
 CBOC HN ES        219  8.75                             106   -0.55 7  287 255 
 CBOC HZ I         219 12.77         3.6 0.28            109            287 255 
 LL6C HZ EP        218 45.99                             102    0.24 6  356   4 
 LL6C HE ES        219 24.13                             102    0.73 6  356   4 
                                                                                
