 2016 1029 0249 39.3 L   6.827 -73.168145.8  RSN  8 0.5 1.8LRSN                1
 GAP=132        1.14       5.1     5.6  7.2 -0.6450E+01  0.3795E+01  0.8461E+01E
 Epicentro: LOS SANTOS - SANTANDER                                             3
 ACTION:UPD 16-11-09 19:24 OP:rebc STATUS:               ID:20161029024939 L   I
 OLDACT:REG 16-10-29 13:38 OP:cog  STATUS:               ID:20161029024744     3
 2016-10-29-0248-00M.COL___337                                                 6
 STAT SP IPHASW D HRMM SECON CODA AMPLIT PERI AZIMU VELO AIN AR TRES W  DIS CAZ7
 BAR2 EZ EP        249 58.74                             169   -0.2910 26.0 183 
 BAR2 EZ ES        250 13.88                             169   -0.5110 26.0 183 
 BAR2 EZ I         250 16.46        14.1 0.26            167           26.0 183 
 BRR  HZ EP        250  0.36                             154    0.0710 67.6 297 
 BRR  HE ES        250 17.34                             154    0.7110 67.6 297 
 BRR  HZ I         250 19.51        13.8 0.14            153           67.6 297 
 PAM  EZ EP        250  2.02                             151    0.5010 76.7  42 
 PAM  EN ISg       250 18.71                             151   -0.1110 76.7  42 
 PAM  EZ I         250 20.38         8.6 0.16            156           76.7  42 
 RUS  HZ EP        250  3.32                             143   -0.0010  104 175 
 RUS  HE ES        250 21.88                             143   -0.1510  104 175 
 RUS  HZ I         250 23.39         5.4 0.20            144            104 175 
 PTB  HZ EP        250  5.39                             132   -0.75 9  146 257 
 PTB  HN ES        250 26.51                             132   -0.54 9  146 257 
 PTB  HZ I         250 31.12         9.1 0.15            132            146 257 
 SPBC HZ EP        250  7.99                             129    0.07 9  164 218 
 SPBC HN ES        250 30.98                             129    0.78 9  164 218 
 SPBC HZ I         250 36.90        14.1 0.18            129            164 218 
 NOR  HZ I         250 47.32         5.7 0.18            119            234 234 
 CHI  HZ EP        250 17.43                             117    0.14 8  251 194 
 CHI  HE ES   2    250 47.57                             117    0.69 4  251 194 
 CHI  HZ I         250 49.21         4.7 0.38            118            251 194 
                                                                                
