 2015 1029 0414  2.2 L   6.163 -73.655110.8  RSN 10 0.3 1.7LRSN                1
 GAP=100        0.76       2.3     3.1  5.1 -0.2514E+01  0.7134E+01 -0.2007E+01E
 Epicentro: LA PAZ - SANTANDER                                                 3
 ACTION:UPD 15-12-22 20:43 OP:cam  STATUS:               ID:20151029041402 L   I
 OLDACT:UP  15-10-29 18:08 OP:mh   STATUS:               ID:20151029040736     3
 OLDACT:UP  15-10-29 18:07 OP:mh   STATUS:               ID:20151029040736     3
 OLDACT:UP  15-10-29 18:06 OP:mh   STATUS:               ID:20151029040736     3
 OLDACT:REG 15-10-29 12:49 OP:cara STATUS:               ID:20151029040736     3
 2015-10-29-0407-36M.COL___316                                                 6
 STAT SP IPHASW D HRMM SECON CODA AMPLIT PERI AZIMU VELO AIN AR TRES W  DIS CAZ7
 RUS  HZ EP   1    414 20.28                             146   -0.01 7 70.0 115 
 RUS  HN ES        414 34.00                             146   -0.4210 70.0 115 
 RUS  HZ I         414 35.47         5.9 0.40            146           70.0 115 
 BAR2 EZ EP        414 20.09                             145    0.1110 70.6  48 
 BAR2 EZ ES        414 34.40                             145    0.5410 70.6  48 
 BAR2 EZ I         414 34.94        19.5 0.22            143           70.6  48 
 SPBC HZ EP   1    414 19.95                             144    0.02 7 72.9 219 
 SPBC HN ES     C  414 33.73                             144   -0.0510 72.9 219 
 SPBC HZ I         414 35.63        21.7 0.26            142           72.9 219 
 BRR  HZ EP   1    414 22.21                             133   -0.15 7  105 357 
 BRR  HN ES        414 37.91                             133   -0.2010  105 357 
 BRR  HZ I         414 39.29         9.3 0.12            129            105 357 
 NOR  HN ES        414 46.00                             122   -0.05 9  150 244 
 ZAR  HZ EP   1    414 31.50                             114   -0.47 6  198 318 
 ZAR  HN ES        414 55.19                             114   -0.02 9  198 318 
 ZAR  HZ I         414 56.60        11.7 0.10            111            198 318 
 GUY2CHZ EP        414 35.06                             112    0.51 8  216 241 
 GUY2CHN ES   4    415  2.28                             112    2.48 0  216 241 
 GUY2CHZ I         415  6.13         2.6 0.38                           216 241 
 OCA  HZ EP   1    414 36.26                             110    0.23 6  233   9 
 OCA  HN ES        415  2.45                             110    0.01 8  233   9 
 OCA  HZ I         415  7.47         8.8 0.13            108            233   9 
 ORTC HZ EP        414 43.66                             104   -0.71 7  305 215 
 ORTC HN ES        415 17.78                             104    0.50 7  305 215 
 ORTC HZ I         415 23.42         2.2 0.54            102            305 215 
 MON  HZ EP   4    414 49.21                             101   -2.16 0  365 323 
 MON  HN ES   4    415 27.60                             101   -2.14 0  365 323 
 MON  HZ I         415 44.85         1.0 0.42             98            365 323 
                                                                                
