 2011 1029 0143 29.9 L   6.770 -73.116145.0  RSN  8 0.3 2.2LRSN                1
 GAP=142        0.63       3.5     4.1  5.4  0.5439E+00  0.1359E+01 -0.3304E+01E
 Epicentro: LOS SANTOS - SANTANDER                                             3
 ACTION:UPD 12-07-13 16:06 OP:ep   STATUS:               ID:20111029014329 L   I
 2011-10-29-0141-04S.COL___176                                                 6
 STAT SP IPHASW D HRMM SECON CODA AMPLIT PERI AZIMU VELO AIN AR TRES W  DIS CAZ7
 BAR2 SZ IP        143 49.40                             171    0.0110 21.0 200 
 BAR2 SZ ES   1    144  4.14                             171   -0.45 7 21.0 200 
 BAR2 SZ I         144  5.74        35.3 0.20                          21.0 200 
 BTL  SZ EP        143 49.71                             170    0.2710 23.5 314 
 BRR  HZ IP     C  143 51.27                             151    0.0510 75.7 300 
 BRR  HZ I         143 51.62        52.4 0.10                          75.7 300 
 BRR  HN ES   1    144  8.34                             151    0.48 7 75.7 300 
 PAM  SZ IP        143 52.25                             150    0.1910 78.0  36 
 PAM  SN ES   1    144  9.31                             150   -0.05 7 78.0  36 
 RUS  HZ EP        143 53.43                             145    0.1110 97.1 178 
 RUS  HN ES   1    144 11.40                             145   -0.19 7 97.1 178 
 RUS  HZ I         144 12.81        10.6 0.18                          97.1 178 
 OCA  SZ EP        143 58.01                             129   -0.48 9  164 352 
 OCA  SZ I         144 24.83        18.0 0.20                           164 352 
 ZAR  HE ES   1    144 28.15                             122   -0.20 6  208 293 
 ZAR  HZ I         144 34.26        23.9 0.34                           208 293 
 NOR  SE ES   2    144 33.37                             118   -0.20 4  235 236 
                                                                                
