 2011 1029 0251  4.8 L   6.749 -73.086145.8  RSN  5 0.1 1.5LRSN                1
 GAP=147        0.35       3.0     3.5  3.6 -0.1204E+01 -0.1596E+01  0.2917E+01E
 Epicentro: LOS SANTOS - SANTANDER                                             3
 ACTION:UPD 12-07-13 16:06 OP:ep   STATUS:               ID:20111029025104 L   I
 2011-10-29-0240-00M.COL___177                                                 6
 STAT SP IPHASW D HRMM SECON CODA AMPLIT PERI AZIMU VELO AIN AR TRES W  DIS CAZ7
 BAR2 SZ EP        251 24.24                             172   -0.1010 20.3 212 
 BAR2 SZ ES   1    251 39.58                             172   -0.02 7 20.3 212 
 BAR2 SZ I         251 40.92         8.3 0.32                          20.3 212 
 GIR2 SZ EP        251 24.61                             165   -0.0410 38.3 342 
 PAM  SZ EP        251 27.17                             151    0.1510 78.0  33 
 PAM  SN ES   1    251 44.28                             151   -0.10 7 78.0  33 
 BRR  HZ EP        251 26.31                             150   -0.1110 79.7 300 
 BRR  HZ I         251 26.67        11.4 0.26                          79.7 300 
 BRR  HE ES   1    251 43.45                             150    0.15 7 79.7 300 
 RUS  HZ EP        251 28.18                             145    0.0810 94.7 180 
 RUS  HZ I         251 29.52         3.2 0.48                          94.7 180 
                                                                                
