 2013  829 0509 31.3 L   6.749 -73.169146.8  RSN  7 0.4 1.5LRSN                1
 GAP=136        0.86       4.1     4.6  6.4 -0.4037E+00  0.5833E+01  0.1438E+01E
 Epicentro: VILLANUEVA - SANTANDER                                             3
 ACTION:UPD 14-01-14 09:08 OP:ep   STATUS:               ID:20130829050931 L   I
 OLDACT:REG 13-08-29 08:34 OP:jn   STATUS:               ID:20130829050837     3
 2013-08-29-0508-37M.COL___205                                                 6
 STAT SP IPHASW D HRMM SECON CODA AMPLIT PERI AZIMU VELO AIN AR TRES W  DIS CAZ7
 BAR2 SZ EP        5 9 50.91                             173   -0.0110 17.4 185 
 BAR2 SZ ES        510  6.02                             173   -0.2310 17.4 185 
 BAR2 SZ I         510  7.49        11.0 0.22            173           17.4 185 
 BRR  HZ IP     D  5 9 52.74                             152    0.1710 71.9 304 
 BRR  HN ES        510  9.72                             152    0.5310 71.9 304 
 BRR  HZ I         510 10.39         4.8 0.32            152           71.9 304 
 PAM  SZ EP   1    5 9 53.89                             149   -0.08 7 83.4  38 
 PAM  SE ES   1    510 11.51                             149   -0.16 7 83.4  38 
 PAM  SZ I         510 15.80         2.8 0.16            152           83.4  38 
 RUS  HZ EP   1    5 9 54.80                             145    0.06 7 95.1 174 
 RUS  HN ES        510 12.77                             145   -0.2810 95.1 174 
 RUS  HZ I         510 14.29         3.0 0.40            148           95.1 174 
 PTB  HZ EP   1    5 9 57.17                             133   -0.83 7  144 261 
 PTB  HN ES   1    510 18.71                             133   -0.14 7  144 261 
 PTB  HZ I         510 25.94         6.1 0.52            134            144 261 
 SPBC HZ EP        5 9 59.85                             130    0.57 9  157 220 
 SPBC HN ES        510 21.35                             130    0.22 9  157 220 
 SPBC HZ I         510 24.72         7.6 0.26            132            157 220 
 ZAR  HN ES   1    510 28.48                             122   -0.63 6  204 294 
                                                                                
