 2012 1129 0215  8.1 L   6.787 -73.175139.0  RSN  5 0.4 1.8LRSN                1
 GAP=134        0.88       3.7     4.1  9.7  0.2613E+00  0.1446E+02 -0.5405E+01E
 Epicentro: LOS SANTOS - SANTANDER                                             3
 ACTION:UPD 12-12-05 15:36 OP:}ep  STATUS:               ID:20121129021508 L   I
 2012-11-29-0210-00M.COL___236                                                 6
 STAT SP IPHASW D HRMM SECON CODA AMPLIT PERI AZIMU VELO AIN AR TRES W  DIS CAZ7
 PAM  SZ EP        215 29.78                             148   -0.0210 80.6  41 
 PAM  SN ES        215 46.85                             148    0.1310 80.6  41 
 PAM  SN I         215 48.00        13.5 0.52                          80.6  41 
 RUS  HZ EP        215 31.56                             143    0.4610 99.4 174 
 RUS  HN ES        215 48.77                             143   -0.2710 99.4 174 
 RUS  HN I         215 50.85         3.8 0.38                          99.4 174 
 PTB  HZ EP        215 33.84                             131   -0.37 9  144 259 
 PTB  HN ES        215 54.43                             131   -0.14 9  144 259 
 PTB  HN I         215 57.02        10.8 0.22                           144 259 
 ZAR  HN ES        216  5.25                             121    0.62 9  202 293 
 ZAR  HN I         216 12.12         7.0 0.36                           202 293 
 SML  HN I         216  8.87        10.0 0.10                           244 336 
 SML  HE ES        216 12.15                             116   -0.49 8  244 336 
                                                                                
