 2013  429 0226 18.1 L   6.811 -73.179152.1  RSN  5 0.4 1.7LRSN                1
 GAP=198        0.91       5.7     7.1  8.5  0.1771E+02 -0.6207E+01 -0.1567E+02E
 Epicentro: LOS SANTOS - SANTANDER                                             3
 ACTION:UPD 13-05-22 14:41 OP:EP   STATUS:               ID:20130429022618 L   I
 2013-04-29-0220-00M.COL___248                                                 6
 STAT SP IPHASW D HRMM SECON CODA AMPLIT PERI AZIMU VELO AIN AR TRES W  DIS CAZ7
 BAR2 SZ EP   1    226 38.40                             171   -0.07 8 24.2 181 
 BAR2 SZ ES   1    226 53.95                             171   -0.44 8 24.2 181 
 BRR  HN ES   1    226 57.38                             155    0.81 8 67.4 299 
 RUS  HZ EP        226 43.07                             145    0.5210  102 174 
 RUS  HE ES        227  1.38                             145   -0.2610  102 174 
 RUS  HE I         227  2.52         4.9 0.22            146            102 174 
 PTB  HZ EP   1    226 45.27                             134    0.01 7  144 258 
 PTB  HN ES        227  6.21                             134   -0.26 9  144 258 
 PTB  HN I         227 13.06         6.2 0.22            131            144 258 
 SML  HZ EP   1    226 54.16                             119   -0.61 6  241 336 
 SML  HE ES   1    227 23.41                             119    0.01 6  241 336 
 SML  HE I         227 28.54         6.9 0.28            118            241 336 
                                                                                
