 2017  829 0650 59.6 L   6.356 -73.458116.9  RSN  5 0.3 0.9LRSN                1
 GAP= 92        0.91       3.7     5.0  8.1  0.3456E+01  0.1684E+02  0.7739E+00E
 Epicentro: CONTRATACION - SANTANDER                                           3
 ACTION:UPD 17-09-04 20:26 OP:rebc STATUS:               ID:20170829065059 L   I
 OLDACT:UP  17-08-29 17:25 OP:dani STATUS:               ID:20170829064738     3
 OLDACT:REG 17-08-29 13:08 OP:dani STATUS:               ID:20170829064738     3
 2017-08-29-0648-00M.COL___417                                                 6
 STAT SP IPHASW D HRMM SECON CODA AMPLIT PERI AZIMU VELO AIN AR TRES W  DIS CAZ7
 BAR2 EZ EP        651 16.52                             160    0.1510 40.1  49 
 BAR2 EZ ES        651 29.33                             160   -0.0910 40.1  49 
 RUS  HZ EP        651 18.42                             149    0.3210 65.9 141 
 RUS  HN ES        651 32.78                             149    0.2710 65.9 141 
 RUS  HZ I         651 33.58         1.3 0.22            159           65.9 141 
 BRR  HZ EP        651 18.39                             140   -0.5510 87.7 341 
 BRR  HE ES        651 33.81                             140   -0.1910 87.7 341 
 BRR  HZ I         651 42.78         1.9 0.11            143           87.7 341 
 SPBC HZ EP        651 20.10                             135   -0.2510  103 221 
 SPBC HE ES        651 36.33                             135   -0.1810  103 221 
 SPBC HZ I         651 42.07         3.2 0.06            140            103 221 
 ZAR  HN ES        651 54.14                             116    0.71 9  199 309 
                                                                                
