 2010  729 0502 21.3 L   6.808 -73.048142.6  RSN  7 0.3 1.5LRSN                1
 GAP=169        0.77       5.4     9.8 10.2  0.1202E+02 -0.3625E+02 -0.1570E+02E
 Epicentro: LOS SANTOS - SANTANDER                                             3
 ACTION:UPD 10-12-01 15:20 OP:pat  STATUS:               ID:20100729050221 L   I
 2010-07-29-0500-19S.COL___123                                                 6
 STAT SP IPHASW D HRMM SECON CODA AMPLIT PERI AZIMU VELO AIN AR TRES W  DIS CAZ7
 BAR2 SZ EP        5 2 40.51                             169    -0.210   28 212 
 BAR2 SZ I         5 2 57.27         9.9 0.38                            28 212 
 BRR  HZ EP        5 2 42.31                             150    -0.410   81 294 
 BRR  HN ES   1    5 2 59.54                             150     0.2 7   81 294 
 BRR  HZ I         5 3  2.14         6.3 0.33                            81 294 
 RUS  HZ EP   1    5 2 44.70                             144    -0.1 7  101 182 
 RUS  HE ES   1    5 3  3.42                             144     0.3 7  101 182 
 RUS  HZ I         5 3  5.00         6.0 0.45                           101 182 
 GUE  SZ EP   1    5 2 45.73                             140     0.2 7  114   7 
 GRA  SZ EP   1    5 2 46.33                             137     0.4 7  122  13 
 GRA  SZ I         5 3  7.25         4.1 0.55                           122  13 
 CHI  HZ EP   2    5 2 58.87                             117    -0.4 4  252 197 
 CHI  HZ I         5 3 31.18         2.4 0.50                           252 197 
 HEL  HZ EP   2    5 3  3.31                             114     0.7 4  283 256 
 HEL  HZ I         5 3 39.51         1.9 0.08                           283 256 
                                                                                
