 2015  529 0346 23.3 L   6.784 -73.156140.0  RSN  8 0.5 1.8LRSN                1
 GAP=235        1.19       5.3     6.0  7.4  0.5577E+01  0.1878E+02  0.5013E+01E
 Epicentro: LOS SANTOS - SANTANDER                                             3
 ACTION:UPD 15-09-10 22:07 OP:cam  STATUS:               ID:20150529034623 L   I
 OLDACT:REG 15-05-29 13:41 OP:ar   STATUS:               ID:20150529033747     3
 2015-05-29-0337-47M.COL___315                                                 6
 STAT SP IPHASW D HRMM SECON CODA AMPLIT PERI AZIMU VELO AIN AR TRES W  DIS CAZ7
 BAR2 EZ EP        346 41.78                             171   -0.4210 21.5 188 
 BAR2 EZ ES        346 56.35                             171   -0.5910 21.5 188 
 BAR2 EZ I         346 57.61        19.9 0.32            165           21.5 188 
 BRR  HZ IP     C  346 43.57                             152   -0.2510 71.0 300 
 BRR  HN ES        347  0.55                             152    0.7310 71.0 300 
 BRR  HZ I         347  1.45        12.7 0.24            147           71.0 300 
 RUS  HZ EP        346 46.16                             143   -0.2110 99.0 175 
 RUS  HN ES        347  5.14                             143    0.7810 99.0 175 
 RUS  HZ I         347  6.17         7.5 0.16            143           99.0 175 
 SPBC HZ EP        346 50.79                             128   -0.37 9  161 219 
 SPBC HN ES        347 12.96                             128    0.06 9  161 219 
 SPBC HZ I         347 15.97         9.5 0.16            127            161 219 
 ZAR  HZ EP        346 55.57                             121    0.24 9  204 293 
 ZAR  HN ES        347 20.04                             121   -0.28 9  204 293 
 ZAR  HZ I         347 25.48         9.0 0.42            121            204 293 
 NOR  HZ EP        346 58.27                             118   -0.22 8  233 235 
 NOR  HE ES        347 25.91                             118   -0.03 8  233 235 
 NOR  HZ I         347 32.53         5.3 0.70            117            233 235 
 HEL  HZ EP        347  3.82                             114    0.77 8  271 256 
 HEL  HE ES        347 33.84                             114   -0.22 8  271 256 
 HEL  HZ I         347 46.58         3.3 0.30            113            271 256 
 GUY2CHZ EP        347  7.35                             111    0.92 7  299 235 
 GUY2CHN ES        347 39.33                             111   -0.74 7  299 235 
 GUY2CHZ I         347 50.17         3.8 0.70                           299 235 
                                                                                
