 2011  629 0743 28.6 L   6.781 -73.111146.8  RSN 16 0.4 2.5LRSN                1
 GAP=118        0.89       2.7     4.3  4.6 -0.3838E+01  0.5500E+01  0.1256E+01E
 Epicentro: LOS SANTOS - SANTANDER                                             3
 ACTION:UP  11-07-14 19:09 OP:ep   STATUS:               ID:20110629074328 L   I
 2011-06-29-0741-54S.COL___140                                                 6
 STAT SP IPHASW D HRMM SECON CODA AMPLIT PERI AZIMU VELO SNR AR TRES W  DIS CAZ7
 BAR2 SZ EP        743 48.41                             171     0.110   22 201 
 BAR2 SZ ES        744  3.87                             171     0.110   22 201 
 BAR2 SZ I         744  5.28        41.5 0.25                            22 201 
 BRR  HZ EP        743 50.15                             151     0.010   76 299 
 BRR  HN ES        744  7.16                             151     0.310   76 299 
 BRR  HZ I         744 10.41       119.4 0.13                            76 299 
 PAM  SZ EP        743 51.10                             151     0.210   77  36 
 PAM  SZ I         743 51.42        42.6 0.19                            77  36 
 PAM  SN ES        744  8.10                             151    -0.210   77  36 
 RUS  HZ EP        743 52.45                             145     0.210   98 178 
 RUS  HN ES        744 10.23                             145    -0.510   98 178 
 RUS  HZ I         744 13.07        24.3 0.40                            98 178 
 BRI  SZ EP        743 52.80                             141     0.210  109  19 
 GRA  SZ IP        743 54.05                             137     0.010  127  16 
 GRA  SZ I         743 55.22        49.4 0.28                           127  16 
 GRA  SZ ES   1    744 13.18                             137    -0.7 7  127  16 
 OCA  SZ EP        743 56.73                             129    -0.5 9  163 352 
 OCA  SZ ES   1    744 20.47                             129     0.9 7  163 352 
 OCA  SZ I         744 23.22        55.0 0.18                           163 352 
 YOP  SZ EP   2    743 59.06                             127     0.7 4  175 154 
 YOP  SN ES   2    744 21.45                             127    -0.1 4  175 154 
 YOP  SZ I         744 25.92        21.5 1.04                           175 154 
 NOR  SZ EP        744  4.51                             118    -0.1 8  237 235 
 NOR  SE ES   1    744 32.36                             118    -0.3 6  237 235 
 CHI  HZ EP   1    744  6.36                             117     0.1 6  248 196 
 CHI  HN ES   1    744 36.25                             117     0.6 6  248 196 
 CHI  HZ I         744 44.01        30.8 0.41                           248 196 
 HEL  HZ EP        744  8.60                             115    -0.6 7  275 256 
 HEL  HN ES   2    744 41.29                             115     0.4 4  275 256 
 HEL  HZ I         744 48.12        32.9 0.24                           275 256 
 RREF HZ EP   1    744 15.33                             111     0.4 5  323 230 
 RREF HN ES   1    744 51.24                             111     0.1 5  323 230 
 RREF HZ I         745  1.58        29.4 0.85                           323 230 
 DBB  SZ EP   1    744 15.74                             109    -0.8 5  343 275 
 TOL  SZ EP   1    744 17.46                             109     0.4 5  345 225 
 PRA  HZ EP        744 22.15                             107     0.0 6  392 210 
 PRA  HE ES   1    745  4.13                             107     0.2 4  392 210 
 SJA  SZ EP   1    744 23.40                             106     0.3 4  399 194 
                                                                                
