 2017  529 0659 49.3 L   6.777 -73.188151.5  RSN  7 0.3 1.6LRSN                1
 GAP=207        0.69       5.0     3.8  6.6  0.5189E+01 -0.4005E+01  0.1132E+02E
 Epicentro: LOS SANTOS - SANTANDER                                             3
 ACTION:UPD 17-06-16 13:39 OP:jn   STATUS:               ID:20170529065949 L   I
 OLDACT:REG 17-05-29 13:01 OP:osc  STATUS:               ID:20170529065742     3
 2017-05-29-0658-00M.COL___338                                                 6
 STAT SP IPHASW D HRMM SECON CODA AMPLIT PERI AZIMU VELO AIN AR TRES W  DIS CAZ7
 BRR  HZ EP   4    7 0  9.01                             154   -1.93 0 68.5 302 
 BRR  HN ES        7 0 28.17                             154    0.3610 68.5 302 
 BRR  HZ I         7 0 29.09         7.8 0.20            155           68.5 302 
 RUS  HZ EP        7 0 13.28                             146   -0.2110 98.5 173 
 RUS  HE ES   2    7 0 32.07                             146   -0.28 5 98.5 173 
 RUS  HZ I         7 0 33.19         4.7 0.26            146           98.5 173 
 PTB  HZ EP        7 0 16.17                             134   -0.14 9  143 259 
 PTB  HN ES        7 0 36.87                             134   -0.50 9  143 259 
 PTB  HZ I         7 0 39.92         4.1 0.35            135            143 259 
 SPBC HZ EP        7 0 18.21                             131    0.40 9  158 218 
 SPBC HN ES        7 0 39.93                             131   -0.10 9  158 218 
 SPBC HZ I         7 0 42.78         6.4 0.16            132            158 218 
 YPLC HZ EP        7 0 19.42                             128   -0.12 9  177 150 
 YPLC HE ES   2    7 0 43.37                             128    0.25 4  177 150 
 CHI  HZ EP   2    7 0 26.82                             119   -0.13 4  245 194 
 CHI  HN ES   2    7 0 56.91                             119    0.61 4  245 194 
 HEL  HE ES        7 1  0.77                             116    0.35 8  267 256 
                                                                                
