 2015  529 0231 10.6 L   6.789 -73.117139.4  RSN 10 0.5 2.1LRSN                1
 GAP=141        1.12       3.5     4.7  6.3 -0.3337E+01  0.1190E+02  0.2157E+00E
 Epicentro: LOS SANTOS - SANTANDER                                             3
 ACTION:UPD 15-09-10 22:07 OP:cam  STATUS:               ID:20150529023110 L   I
 OLDACT:UP  15-05-29 15:40 OP:ar   STATUS:               ID:20150529022743     3
 OLDACT:REG 15-05-29 13:34 OP:ar   STATUS:               ID:20150529022743     3
 2015-05-29-0227-43M.COL___315                                                 6
 STAT SP IPHASW D HRMM SECON CODA AMPLIT PERI AZIMU VELO AIN AR TRES W  DIS CAZ7
 BAR2 EZ EP        231 29.24                             170   -0.1710 22.9 198 
 BAR2 EZ ES        231 43.51                             170   -0.6110 22.9 198 
 BAR2 EZ I         231 44.92        29.0 0.18            168           22.9 198 
 BRR  HZ IP     C  231 31.15                             150   -0.0710 74.6 298 
 BRR  HZ EP        231 31.15                             150   -0.0710 74.6 298 
 BRR  HN ES        231 47.89                             150    0.5510 74.6 298 
 BRR  HZ I         231 49.59        22.0 0.18            146           74.6 298 
 PAM  SZ EP        231 32.30                             150    0.2610 76.4  37 
 PAM  SE ES        231 49.15                             150    0.3610 76.4  37 
 PAM  SZ I         231 51.60        20.5 0.52            148           76.4  37 
 RUS  HZ EP        231 33.22                             143   -0.3610 99.2 178 
 RUS  HE ES        231 51.87                             143    0.3310 99.2 178 
 RUS  HZ I         231 53.15        14.0 0.36            139           99.2 178 
 OCA  HZ EP        231 38.81                             128    0.27 9  162 352 
 OCA  HN ES        231 59.57                             128   -0.80 9  162 352 
 OCA  HZ I         232  7.31        24.1 0.42            124            162 352 
 SPBC HZ EP        231 38.14                             127   -0.54 9  164 220 
 SPBC HE ES        232  1.21                             127    0.60 9  164 220 
 SPBC HZ I         232  5.82        15.2 0.12            123            164 220 
 ZAR  HZ EP        231 43.73                             120    0.78 8  207 292 
 ZAR  HN ES        232  7.99                             120   -0.23 8  207 292 
 ZAR  HZ I         232 12.75        13.3 0.50            117            207 292 
 NOR  HZ EP        231 45.56                             117   -0.57 8  237 235 
 NOR  HZ I         232 14.94         9.4 0.16            113            237 235 
 HEL  HZ EP        231 51.52                             113    0.76 8  275 256 
 HEL  HE ES        232 21.79                             113   -0.34 8  275 256 
 GUY2CHZ EP        231 54.19                             111    0.10 7  303 235 
 GUY2CHN ES        232 27.82                             111   -0.23 7  303 235 
                                                                                
