 2014 1229 0345 27.2 L   6.795 -73.189147.5  RSN  7 0.4 1.4LRSN                1
 GAP=109        1.05       4.3     5.5  6.9  0.2852E+01 -0.5864E+01 -0.2128E+01E
 Epicentro: ZAPATOCA - SANTANDER                                               3
 ACTION:UPD 15-02-10 17:07 OP:nd   STATUS:               ID:20141229034527 L   I
 OLDACT:DUP 14-12-29 15:58 OP:stll STATUS:               ID:20141229033750d    3
 2014-12-29-0337-49M.COL___259                                                 6
 STAT SP IPHASW D HRMM SECON CODA AMPLIT PERI AZIMU VELO AIN AR TRES W  DIS CAZ7
 BAR2 EZ EP        345 47.12                             171    0.1210 22.4 178 
 BAR2 EZ ES        346  2.58                             171    0.1210 22.4 178 
 BAR2 EZ I         346  5.00         6.0 0.36            156           22.4 178 
 BRR  HZ EP        345 49.08                             154    0.7710 67.3 301 
 BRR  HN ES        346  5.21                             154    0.4210 67.3 301 
 BRR  HZ I         346 10.85         4.4 0.46            140           67.3 301 
 RUS  HZ EP        345 51.20                             144    0.1010  100 173 
 RUS  HE ES        346  9.37                             144   -0.3810  100 173 
 RUS  HZ I         346 10.90         2.2 0.32            132            100 173 
 PTB  HZ EP        345 53.47                             133   -0.39 9  143 259 
 PTB  HN ES        346 14.45                             133   -0.22 9  143 259 
 PTB  HZ I         346 22.42         5.0 0.42            120            143 259 
 TAM  HZ EP        345 55.39                             130   -0.02 9  160 104 
 OCA  HZ EP        345 55.92                             130    0.29 9  160 355 
 OCA  HN ES        346 16.98                             130   -0.85 9  160 355 
 SPBC HZ EP        345 55.35                             130   -0.14 9  160 218 
 SPBC HZ I         346 24.54         5.4 0.40            117            160 218 
                                                                                
