 2010  729 0123 47.5 L   6.763 -73.114150.0  RSN  4 0.4 1.5LRSN                1
 GAP=162        1.12       7.5    16.5 16.8  0.1763E+02 -0.1493E+03 -0.4693E+02E
 Epicentro: LOS SANTOS - SANTANDER                                             3
 ACTION:UPD 10-12-01 15:20 OP:pat  STATUS:               ID:20100729012347 L   I
 2010-07-29-0120-32S.COL___123                                                 6
 STAT SP IPHASW D HRMM SECON CODA AMPLIT PERI AZIMU VELO AIN AR TRES W  DIS CAZ7
 BRR  HZ EP   1    124  9.08                             152    -0.3 8   76 300 
 BRR  HN ES   1    124 26.64                             152     0.2 8   76 300 
 BRR  HZ I         124 28.85         7.2 0.07                            76 300 
 RUS  HZ EP   1    124 11.11                             146    -0.2 8   96 178 
 RUS  HN ES   1    124 30.09                             146     0.1 8   96 178 
 RUS  HZ I         124 31.03         3.6 0.25                            96 178 
 GUE  SZ EP        124 12.31                             140    -0.510  120  10 
 GRA  SZ IP        124 14.04                             137     0.710  129  15 
 GRA  SZ ES   2    124 32.98                             137    -0.5 5  129  15 
 GRA  SZ I         124 35.04         4.8 0.49                           129  15 
                                                                                
