 2012 1229 0130 24.6 L   6.804 -73.128148.0  RSN  7 0.5 1.6LRSN                1
 GAP=185        0.98       5.0     7.6  9.2  0.1200E+02  0.9305E+01  0.8415E+01E
 Epicentro: LOS SANTOS - SANTANDER                                             3
 ACTION:UPD 13-01-04 14:31 OP:ep   STATUS:               ID:20121229013024 L   I
 2012-12-29-0130-00M.COL___242                                                 6
 STAT SP IPHASW D HRMM SECON CODA AMPLIT PERI AZIMU VELO AIN AR TRES W  DIS CAZ7
 BAR2 SZ EP   1    130 44.65                             170    0.11 7 24.1 194 
 BAR2 SZ ES   1    130 59.34                             170   -0.73 7 24.1 194 
 BAR2 SZ I         131  1.48        13.0 0.48                          24.1 194 
 BRR  HZ EP   1    130 46.55                             152    0.45 7 72.7 298 
 BRR  HN ES   1    131  4.05                             152    1.20 7 72.7 298 
 BRR  HZ I         131 11.00         6.4 0.58                          72.7 298 
 RUS  HZ EP   1    130 48.60                             144   -0.01 7  101 177 
 RUS  HE ES   1    131  7.28                             144   -0.05 7  101 177 
 RUS  HZ I         131 10.16         4.2 0.40                           101 177 
 PTB  HZ EP   1    130 51.49                             132   -0.46 7  150 259 
 PTB  HN ES   1    131 12.93                             132   -0.34 7  150 259 
 PTB  HZ I         131 18.49         5.8 0.26                           150 259 
 OCA  HN ES   1    131 14.91                             130   -0.39 7  160 352 
 ZAR  HN ES   1    131 22.58                             123   -0.35 6  206 292 
 ZAR  HZ I         131 29.05         5.6 0.34                           206 292 
 CHI  HZ EP   1    131  2.89                             117    0.35 6  250 196 
 CHI  HN ES   1    131 32.26                             117    0.14 6  250 196 
 CHI  HZ I         131 35.89         2.3 0.32                           250 196 
 MON  HZ EP   4    131 12.34                             109   -1.51 0  355 308 
 MON  HN ES   4    131 50.94                             109   -1.32 0  355 308 
                                                                                
