 2016  729 0954 41.2 L   6.707 -73.150140.7  RSN  4 0.3 1.1LRSN                1
 GAP=241        0.70       6.7     5.3  6.1  0.2215E+02  0.3772E+01 -0.1097E+02E
 Epicentro: VILLANUEVA - SANTANDER                                             3
 ACTION:UPD 17-03-29 16:56 OP:lp   STATUS:               ID:20160729095441 L   I
 OLDACT:REG 16-07-29 13:34 OP:edw  STATUS:               ID:20160729094759     3
 2016-07-29-0947-59S.COL___325                                                 6
 STAT SP IPHASW D HRMM SECON CODA AMPLIT PERI AZIMU VELO AIN AR TRES W  DIS CAZ7
 BAR2 EZ EP        954 59.97                             174   -0.0810 13.2 196 
 BAR2 EZ ES        955 14.74                             174   -0.0210 13.2 196 
 RUS  HZ EP        955  3.61                             146   -0.1110 90.3 175 
 RUS  HE ES        955 21.46                             146    0.1710 90.3 175 
 RUS  HZ I         955 24.39         1.2 0.17            147           90.3 175 
 PTB  HZ EP        955  7.17                             131   -0.40 9  146 263 
 PTB  HE ES        955 28.23                             131    0.10 9  146 263 
 PTB  HZ I         955 30.01         2.2 0.15            131            146 263 
 ZAR  HZ EP        955 14.35                             121    0.64 8  208 295 
 ZAR  HN ES        955 38.86                             121   -0.20 8  208 295 
 ZAR  HZ I         955 44.79         1.8 0.32            121            208 295 
                                                                                
