 2015 1029 0009 44.3 L   6.791 -73.173148.1  RSN  8 0.4 1.6LRSN                1
 GAP=142        1.03       3.8     5.0  7.5 -0.2826E+01  0.1105E+02  0.5768E+01E
 Epicentro: LOS SANTOS - SANTANDER                                             3
 ACTION:UPD 15-12-22 20:43 OP:cam  STATUS:               ID:20151029000944 L   I
 OLDACT:UP  15-10-29 14:32 OP:cara STATUS:               ID:20151029000005     3
 OLDACT:REG 15-10-29 12:21 OP:cara STATUS:               ID:20151029000005     3
 2015-10-29-0000-05M.COL___319                                                 6
 STAT SP IPHASW D HRMM SECON CODA AMPLIT PERI AZIMU VELO AIN AR TRES W  DIS CAZ7
 BAR2 EZ ES        010 19.02                             171   -0.7110 22.0 183 
 BRR  HZ EP        010  5.71                             154    0.0910 69.1 300 
 BRR  HZ I         010 20.62        13.6 0.46            150           69.1 300 
 BRR  HN ES        010 22.85                             154    0.6310 69.1 300 
 PAM  EZ EP        010  6.61                             150   -0.3510 80.1  41 
 PAM  EN ES        010 25.00                             150    0.3910 80.1  41 
 PAM  EZ I         010 26.38         2.8 0.33            148           80.1  41 
 ZAR  HN ES        010 42.05                             123    0.13 9  202 293 
 ZAR  HZ I         010 46.75         4.9 0.14            120            202 293 
 NOR  HN ES        010 47.00                             119   -0.60 8  232 234 
 NOR  HZ I         010 53.28         3.5 0.25            116            232 234 
 SML  HZ EP   2    010 20.79                             118   -0.26 4  243 336 
 SML  HN ES        010 49.29                             118   -0.40 8  243 336 
 SML  HZ I         010 51.02         5.8 0.26            115            243 336 
 CHI  HZ EP        010 22.45                             118    0.48 8  247 195 
 CHI  HE ES        010 51.65                             118    0.32 8  247 195 
 CHI  HZ I         010 54.75         2.0 0.62            115            247 195 
 GUY2CHE ES        011  1.61                             113    0.07 7  298 235 
                                                                                
