 2016 1129 0511 44.8 L   6.746 -73.144142.0  RSN  5 0.3 1.3LRSN                1
 GAP=157        0.60       6.5     3.2  8.3 -0.5906E+01  0.1255E+01  0.1571E+02E
 Epicentro: LOS SANTOS - SANTANDER                                             3
 ACTION:UPD 17-10-26 21:12 OP:lp   STATUS:               ID:20161129051144 L   I
 OLDACT:UP  16-11-29 15:52 OP:dani STATUS:               ID:20161129050744     3
 OLDACT:UP  16-11-29 15:52 OP:dani STATUS:               ID:20161129050744     3
 OLDACT:REG 16-11-29 12:41 OP:dani STATUS:               ID:20161129050744     3
 2016-11-29-0508-00M.COL___346                                                 6
 STAT SP IPHASW D HRMM SECON CODA AMPLIT PERI AZIMU VELO AIN AR TRES W  DIS CAZ7
 BAR2 EZ EP        512  4.08                             173    0.1910 17.5 194 
 BAR2 EZ I         512 21.24         4.9 0.21            164           17.5 194 
 BRR  HZ EP        512  5.83                             151    0.0810 74.4 303 
 BRR  HE ES   2    512 22.91                             151    0.83 5 74.4 303 
 BRR  HZ I         512 23.94         3.9 0.42            154           74.4 303 
 PAM  EZ EP        512  6.92                             148   -0.0010 82.0  37 
 PAM  EN ES   1    512 23.79                             148   -0.37 7 82.0  37 
 PAM  EZ I         512 25.96         4.0 0.41            149           82.0  37 
 PTB  HZ EP        512 11.39                             131   -0.02 9  147 261 
 PTB  HN ES        512 31.86                             131   -0.28 9  147 261 
 PTB  HZ I         512 33.21         1.8 0.26            129            147 261 
 ZAR  HZ EP   4    512 19.31                             121    2.02 0  207 294 
 ZAR  HE ES        512 42.61                             121    0.00 8  207 294 
 ZAR  HZ I         512 50.11         1.8 0.26            121            207 294 
                                                                                
