 2012  429 0928 11.7 L   6.824 -73.132148.5  RSN  5 0.6 1.1LRSN                1
 GAP=137        1.44       8.7     9.5 15.3 -0.1122E+02  0.3201E+02  0.1501E+02E
 Epicentro: LOS SANTOS - SANTANDER                                             3
 ACTION:UPD 12-07-05 11:56 OP:tino STATUS:               ID:20120429092811 L   I
 2012-04-29-0920-00M.COL___189                                                 6
 STAT SP IPHASW D HRMM SECON CODA AMPLIT PERI AZIMU VELO AIN AR TRES W  DIS CAZ7
 BAR2 SZ EP   1    928 31.85                             169     0.1 7   26 192 
 BRR  HZ EP   1    928 33.72                             153     0.5 7   71 296 
 BRR  HN ES   1    928 51.00                             153     1.1 7   71 296 
 BRR  HZ I         928 53.36         5.9 0.21                            71 296 
 PAM  SZ EP   1    928 34.54                             152     0.5 7   74  40 
 PAM  SN ES        928 50.75                             152    -0.710   74  40 
 RUS  HZ EP   1    928 35.99                             143     0.0 7  103 177 
 RUS  HN ES        928 55.01                             143     0.210  103 177 
 RUS  HZ I         928 55.99         1.0 0.13                           103 177 
 PTB  HZ EP   1    928 38.65                             132    -0.5 7  150 258 
 PTB  HN ES   1    928 59.58                             132    -0.9 7  150 258 
 PTB  HZ I         929  5.08         1.7 0.26                           150 258 
                                                                                
