 2012 1229 0154  9.5 L   6.871 -73.278124.8  RSN  6 0.3 2.2LRSN                1
 GAP=163        0.63       3.5     4.2  7.2  0.5107E+01  0.9548E+00 -0.2286E+01E
 Epicentro: BETULIA - SANTANDER                                                3
 ACTION:UPD 13-01-04 14:31 OP:ep   STATUS:               ID:20121229015409 L   I
 2012-12-29-0150-00M.COL___242                                                 6
 STAT SP IPHASW D HRMM SECON CODA AMPLIT PERI AZIMU VELO AIN AR TRES W  DIS CAZ7
 BAR2 SZ EP        154 27.20                             164    0.2910 32.6 161 
 BAR2 SZ ES   1    154 40.42                             164   -0.03 7 32.6 161 
 BAR2 SZ I         154 41.47       167.4 0.22                          32.6 161 
 BRR  HZ EP        154 27.64                             155    0.1510 54.6 299 
 BRR  HN ES   1    154 41.85                             155    0.36 7 54.6 299 
 BRR  HZ I         154 41.89        27.4 0.38                          54.6 299 
 RUS  HZ EP   1    154 32.17                             136    0.08 7  110 169 
 RUS  HN ES   1    154 49.18                             136   -0.50 7  110 169 
 RUS  HZ I         154 51.68         9.7 0.30                           110 169 
 PTB  HE ES   1    154 52.31                             129   -0.21 7  135 254 
 PTB  HZ I         154 54.51        16.5 0.24                           135 254 
 OCA  HN ES   1    154 55.13                             126   -0.47 7  151 358 
 OCA  HZ I         154 56.49        31.2 0.18                           151 358 
 ZAR  HN ES   1    155  1.71                             120   -0.16 7  188 292 
 ZAR  HZ I         155  5.72        13.7 0.32                           188 292 
                                                                                
