 2013  629 0943 19.6 L   6.760 -73.159149.6  RSN  7 0.3 1.6LRSN                1
 GAP=137        0.71       3.1     3.8  5.8  0.1707E+01  0.5892E+01 -0.6391E+00E
 Epicentro: LOS SANTOS - SANTANDER                                             3
 ACTION:UPD 14-01-08 09:58 OP:ep   STATUS:               ID:20130629094319 L   I
 OLDACT:REG 13-06-29 07:59 OP:carl STATUS:               ID:20130629093959     3
 2013-06-29-0939-59M.COL___266                                                 6
 STAT SP IPHASW D HRMM SECON CODA AMPLIT PERI AZIMU VELO AIN AR TRES W  DIS CAZ7
 BAR2 SZ EP        943 39.77                             173    0.1310 18.7 188 
 BAR2 SZ ES   1    943 55.26                             173    0.01 7 18.7 188 
 BAR2 SZ I         943 55.92        10.5 0.10            173           18.7 188 
 BRR  HZ EP        943 41.58                             153    0.3210 72.2 302 
 BRR  HN ES   1    943 58.70                             153    0.58 7 72.2 302 
 BRR  HN I         943 59.18        19.5 0.30            153           72.2 302 
 PAM  SZ EP   1    943 42.59                             150    0.07 7 81.8  38 
 PAM  SN ES   1    943 59.70                             150   -0.67 7 81.8  38 
 PAM  SZ I         944  3.63         4.4 0.48            153           81.8  38 
 RUS  HZ EP        943 43.70                             146    0.2410 96.2 175 
 RUS  HE ES        944  1.95                             146   -0.1010 96.2 175 
 RUS  HZ I         944  3.24         3.7 0.20            148           96.2 175 
 PTB  HZ EP        943 46.26                             133   -0.46 9  146 260 
 PTB  HN ES   1    944  7.62                             133   -0.22 7  146 260 
 PTB  HZ I         944 13.49         6.8 0.64            134            146 260 
 OCA  HN ES        944 11.32                             130    0.05 9  165 354 
 ZAR  HZ EP   1    943 52.29                             123   -0.08 6  204 293 
 ZAR  HE ES        944 17.80                             123   -0.11 9  204 293 
                                                                                
