 2012  629 0807 41.2 L   6.769 -73.163141.9  RSN  5 0.4 1.3LRSN                1
 GAP=136        0.78       5.5     5.3  7.7 -0.2619E+01  0.5137E+01  0.1732E+01E
 Epicentro: LOS SANTOS - SANTANDER                                             3
 ACTION:UPD 12-08-06 17:53 OP:ep   STATUS:               ID:20120629080741 L   I
 2012-06-29-0800-00M.COL___201                                                 6
 STAT SP IPHASW D HRMM SECON CODA AMPLIT PERI AZIMU VELO AIN AR TRES W  DIS CAZ7
 BAR2 SZ EP   1    8 8  0.40                             172    0.09 7 19.7 186 
 BAR2 SZ ES   1    8 8 14.46                             172   -0.74 7 19.7 186 
 BAR2 SZ I         8 8 16.41         7.2 0.15                          19.7 186 
 BRR  HZ EP   1    8 8  2.00                             152    0.06 7 71.2 302 
 BRR  HN ES   1    8 8 18.79                             152    0.68 7 71.2 302 
 PAM  SZ EP   1    8 8  3.25                             149    0.00 7 81.2  39 
 PAM  SN ES   1    8 8 20.34                             149   -0.11 7 81.2  39 
 RUS  HZ EP   1    8 8  4.61                             144    0.26 7 97.4 175 
 RUS  HN ES   1    8 8 22.73                             144    0.33 7 97.4 175 
 RUS  HZ I         8 8 24.89         2.8 0.42                          97.4 175 
 PTB  HZ EP   1    8 8  7.12                             132   -0.51 7  145 260 
 PTB  HN ES   1    8 8 28.10                             132   -0.14 7  145 260 
 PTB  HZ I         8 8 29.24         2.3 0.22                           145 260 
                                                                                
