 2014 1029 0716 59.4 L   6.783 -73.149148.6  RSN  5 0.4 1.4LRSN                1
 GAP=137        1.14       6.3     6.0  9.9 -0.3977E+01  0.3777E+01  0.8918E+01E
 Epicentro: LOS SANTOS - SANTANDER                                             3
 ACTION:UPD 14-11-29 23:58 OP:nd   STATUS:               ID:20141029071659 L   I
 OLDACT:DUP 14-10-31 00:57 OP:stll STATUS:               ID:20141029070746d    3
 OLDACT:DUP 14-10-31 00:54 OP:stll STATUS:               ID:20141029070745d    3
 2014-10-29-0707-43M.COL___271                                                 6
 STAT SP IPHASW D HRMM SECON CODA AMPLIT PERI AZIMU VELO AIN AR TRES W  DIS CAZ7
 BAR2 SZ EP        717 19.30                             171   -0.0410 21.4 190 
 BAR2 SZ I         717 37.23         3.5 0.28            167           21.4 190 
 BRR  HZ EP        717 21.12                             153    0.2310 71.8 300 
 BRR  HZ I         717 21.39         7.6 0.28            155           71.8 300 
 BRR  HN ES        717 38.47                             153    0.8210 71.8 300 
 PAM  SZ EP        717 21.98                             151   -0.0410 79.1  39 
 PAM  SN ES        717 39.15                             151   -0.5110 79.1  39 
 PAM  SZ I         717 41.42         4.1 0.48            147           79.1  39 
 RUS  HZ EP        717 23.74                             145    0.4410 98.7 176 
 RUS  HN ES        717 41.88                             145   -0.0710 98.7 176 
 PTB  HZ EP        717 26.28                             133   -0.26 9  147 260 
 PTB  HN ES        717 47.02                             133   -0.68 9  147 260 
                                                                                
