 2015 1129 0327 48.9 L   6.835 -73.152146.2  RSN  6 0.3 1.0LRSN                1
 GAP=134        0.70       2.9     3.5  5.3  0.3006E+00  0.2599E+01 -0.1935E+01E
 Epicentro: LOS SANTOS - SANTANDER                                             3
 ACTION:UPD 15-12-28 16:14 OP:cam  STATUS:               ID:20151129032748 L   I
 OLDACT:REG 15-11-29 12:32 OP:ak   STATUS:               ID:20151129031749     3
 2015-11-29-0317-49M.COL___307                                                 6
 STAT SP IPHASW D HRMM SECON CODA AMPLIT PERI AZIMU VELO AIN AR TRES W  DIS CAZ7
 BAR2 EZ EP        328  8.78                             169    0.1510 27.1 187 
 BRR  HZ EP        328 10.24                             153    0.3110 68.8 296 
 BRR  HE ES        328 26.45                             153    0.1010 68.8 296 
 BRR  HZ I         328 30.89         2.8 0.14            153           68.8 296 
 PAM  EZ EP        328 11.21                             152    0.2210 74.9  42 
 PAM  EN ES        328 28.28                             152    0.0510 74.9  42 
 PAM  EZ I         328 29.47         0.9 0.31            154           74.9  42 
 RUS  HZ EP        328 12.76                             143   -0.1910  105 176 
 RUS  HN ES        328 31.39                             143   -0.3410  105 176 
 RUS  HZ I         328 31.99         1.6 0.50            146            105 176 
 PTB  HZ IP        328 15.83                             132   -0.05 9  148 257 
 PTB  HN ES        328 37.10                             132    0.15 9  148 257 
 PTB  HZ I         328 38.85         1.4 0.16            134            148 257 
 SML  HZ EP        328 25.23                             118    0.12 8  240 335 
 SML  HN ES        328 52.64                             118   -0.73 8  240 335 
                                                                                
