 2015  329 0629 39.8 L   6.709 -73.189149.1  RSN  6 0.4 1.4LRSN                1
 GAP=154        0.98       5.6     4.9  6.7  0.2729E+01 -0.3854E+01  0.8666E+00E
 Epicentro: VILLANUEVA - SANTANDER                                             3
 ACTION:UPD 15-04-30 16:30 OP:nd   STATUS:               ID:20150329062939 L   I
 OLDACT:REG 15-03-29 12:54 OP:stll STATUS:               ID:20150329062745     3
 2015-03-29-0627-45M.COL___290                                                 6
 STAT SP IPHASW D HRMM SECON CODA AMPLIT PERI AZIMU VELO AIN AR TRES W  DIS CAZ7
 BAR2 EZ EP        629 59.53                             175   -0.1510 12.9 177 
 BAR2 EZ ES        630 15.22                             175    0.0410 12.9 177 
 BAR2 EZ I         630 19.00         5.2 0.40            173           12.9 177 
 BRR  HZ EP        630  1.44                             153    0.0410 72.7 307 
 BRR  HN ES        630 18.71                             153    0.4610 72.7 307 
 BRR  HZ I         630 19.60         6.0 0.44            153           72.7 307 
 RUS  HZ EP        630  3.40                             147    0.1610 91.0 173 
 RUS  HN ES        630 21.34                             147   -0.1710 91.0 173 
 RUS  HZ I         630 23.42         1.8 0.30            148           91.0 173 
 PTB  HZ EP        630  6.19                             134   -0.30 9  141 262 
 PTB  HN ES        630 26.62                             134   -0.68 9  141 262 
 PTB  HZ I         630 33.94         2.5 0.12            134            141 262 
 SPBC HZ EP        630  8.38                             132    0.81 9  152 220 
 SPBC HN ES        630 29.31                             132    0.09 9  152 220 
 SPBC HZ I         630 32.78         4.1 0.22            132            152 220 
 TAM  HZ EP        630  7.64                             131   -0.34 9  158 101 
 TAM  HZ I         630  7.81         5.2 0.18            135            158 101 
                                                                                
