 2012  729 0508 45.1 L   6.764 -73.190149.1  RSN  6 0.2 1.9LRSN                1
 GAP=133        0.59       4.4     3.9  5.5  0.3919E+01 -0.1292E+01 -0.4088E+01E
 Epicentro: VILLANUEVA - SANTANDER                                             3
 ACTION:UPD 12-08-14 11:46 OP:ep   STATUS:               ID:20120729050845 L   I
 2012-07-29-0500-00M.COL___215                                                 6
 STAT SP IPHASW D HRMM SECON CODA AMPLIT PERI AZIMU VELO AIN AR TRES W  DIS CAZ7
 BAR2 SZ EP   1    5 9  5.12                             172     0.1 7   19 177 
 BAR2 SZ ES   1    5 9 20.30                             172    -0.3 7   19 177 
 BAR2 SZ I         5 9 21.41        17.2 0.54            175             19 177 
 BRR  HZ EP        5 9  6.77                             154     0.310   69 303 
 BRR  HN ES   1    5 9 23.54                             154     0.4 7   69 303 
 BRR  HZ I         5 9 27.36        16.0 0.36            152             69 303 
 PAM  SZ EP        5 9  7.83                             149    -0.210   84  40 
 PAM  SZ I         5 9  8.07        18.1 0.20            151             84  40 
 RUS  HZ EP        5 9  9.11                             145     0.210   97 173 
 RUS  HN ES   1    5 9 27.62                             145     0.1 7   97 173 
 PTB  HZ EP        5 9 11.67                             134    -0.2 9  142 260 
 PTB  HN ES   1    5 9 32.50                             134    -0.2 7  142 260 
 PTB  HZ I         5 9 35.23         7.4 0.46            135            142 260 
 ZAR  HZ EP   3    5 9 17.72                             123     0.2 2  201 294 
 ZAR  HN ES   2    5 9 42.57                             123    -0.1 4  201 294 
