 2014  129 0330 41.8 L   6.828 -73.135145.5  RSN  8 0.4 1.4LRSN                1
 GAP=202        0.78       3.3     6.2  6.9  0.4296E+01  0.5990E+01 -0.6351E+01E
 Epicentro: LOS SANTOS - SANTANDER                                             3
 ACTION:UPD 14-03-13 09:59 OP:ep   STATUS:               ID:20140129033041 L   I
 OLDACT:UP  14-01-30 09:19 OP:ep   STATUS:               ID:20140129033041 L   3
 OLDACT:UP  14-01-30 03:36 OP:CAM  STATUS:               ID:20140129033041 L   3
 OLDACT:REG 14-01-29 08:20 OP:stll STATUS:               ID:20140129032808     3
 2014-01-29-0328-08M.COL___245                                                 6
 STAT SP IPHASW D HRMM SECON CODA AMPLIT PERI AZIMU VELO AIN AR TRES W  DIS CAZ7
 BAR2 SZ EP   1    331  1.71                             169    0.19 8 26.5 191 
 BAR2 SZ ES   1    331 17.34                             169    0.48 8 26.5 191 
 BAR2 SZ I         331 19.48         5.7 0.48            165           26.5 191 
 BRR  HZ EP   1    331  3.78                             153    0.83 8 70.9 296 
 BRR  HN ES   4    331 21.24                             153    1.83 0 70.9 296 
 RUS  HZ EP        331  5.75                             143   -0.0410  104 177 
 RUS  HN ES        331 23.96                             143   -0.5110  104 177 
 RUS  HZ I         331 25.58         1.2 0.38            144            104 177 
 PTB  HZ EP   1    331  8.88                             132   -0.08 7  150 258 
 PTB  HN ES   1    331 29.83                             132   -0.27 7  150 258 
 PTB  HZ I         331 37.15         3.4 0.44            130            150 258 
 SPBC HZ EP   1    331 10.68                             128    0.06 7  166 219 
 SPBC HN ES   1    331 33.32                             128    0.25 7  166 219 
 SPBC HZ I         331 39.87         5.2 0.26            128            166 219 
 SML  HZ EP        331 18.41                             118    0.20 8  241 335 
 SML  HN ES        331 46.00                             118   -0.58 8  241 335 
 SML  HZ I         331 50.29         3.3 0.24            119            241 335 
 CHI  HZ EP   1    331 19.82                             117   -0.06 6  252 195 
 CHI  HZ I         331 21.85         0.9 0.12            118            252 195 
 CHI  HE ES   1    331 49.47                             117   -0.08 6  252 195 
 GUY2CHZ EP   4    331 26.91                             112    1.16 0  304 234 
 GUY2CHN ES   3    332  0.74                             112    0.74 2  304 234 
 GUY2CHZ I         332  8.43         1.3 0.28                           304 234 
                                                                                
