 2015 1029 0235 34.2 L   6.558 -73.469118.9  RSN  6 0.3 2.0LRSN                1
 GAP=139        0.78       4.0     4.1  9.3  0.1111E+01  0.2836E+02  0.5033E+00E
 Epicentro: EL CARMEN - SANTANDER                                              3
 ACTION:UPD 15-12-22 20:43 OP:cam  STATUS:               ID:20151029023542 L   I
 OLDACT:UP  15-11-01 03:33 OP:DRIO STATUS:               ID:20151029023542 L   3
 OLDACT:UP  15-10-29 18:49 OP:mh   STATUS:               ID:20151029022751     3
 OLDACT:UP  15-10-29 18:44 OP:mh   STATUS:               ID:20151029022751     3
 OLDACT:UP  15-10-29 18:31 OP:mh   STATUS:               ID:20151029022751     3
 OLDACT:REG 15-10-29 12:44 OP:cara STATUS:               ID:20151029022751     3
 2015-10-29-0227-51M.COL___316                                                 6
 STAT SP IPHASW D HRMM SECON CODA AMPLIT PERI AZIMU VELO AIN AR TRES W  DIS CAZ7
 BAR2 EZ EP        235 50.89                             164    0.0210 32.0  83 
 BAR2 EZ ES        236  3.45                             164   -0.4110 32.0  83 
 BAR2 EZ I         236  5.20        46.8 0.10            168           32.0  83 
 RUS  HZ EP   1    235 54.03                             142   -0.18 7 85.1 150 
 RUS  HE ES        236 10.24                             142    0.4410 85.1 150 
 RUS  HZ I         236 11.30        10.0 0.42            145           85.1 150 
 ZAR  HZ EP   1    236  2.74                             118   -0.25 7  185 304 
 ZAR  HN ES        236 25.96                             118    0.53 9  185 304 
 ZAR  HZ I         236 27.33        15.5 0.32            120            185 304 
 NOR  HE ES        236 26.41                             118   -0.09 9  190 235 
 NOR  HZ I         236 28.04        13.4 0.18            120            190 235 
 HEL  HN ES        236 34.98                             113   -0.38 8  231 260 
 HEL  HZ I         236 39.07         5.0 0.07            114            231 260 
 GUY2CHE ES        236 40.80                             110    0.12 8  257 235 
 GUY2CHZ I         236 49.08         5.0 0.52                           257 235 
                                                                                
