 2013  829 0249 41.8 L   6.797 -73.135139.0  RSN 10 0.5 1.8LRSN                1
 GAP=138        1.28       4.5     5.9  9.5 -0.5732E+01  0.1940E+02 -0.4866E+01E
 Epicentro: LOS SANTOS - SANTANDER                                             3
 ACTION:UPD 14-01-14 09:08 OP:ep   STATUS:               ID:20130829024941 L   I
 OLDACT:REG 13-08-29 08:20 OP:jn   STATUS:               ID:20130829024835     3
 2013-08-29-0248-35M.COL___212                                                 6
 STAT SP IPHASW D HRMM SECON CODA AMPLIT PERI AZIMU VELO AIN AR TRES W  DIS CAZ7
 BAR2 SZ EP   1    250  0.73                             170    0.12 7 23.2 193 
 BAR2 SZ ES        250 14.66                             170   -0.6310 23.2 193 
 BAR2 SZ I         250 19.28        12.7 0.24            168           23.2 193 
 BRR  HZ EP        250  2.63                             151    0.3410 72.5 298 
 BRR  HN ES        250 19.32                             151    1.0410 72.5 298 
 BRR  HZ I         250 25.99        16.0 0.18            149           72.5 298 
 PAM  SZ EP        250  3.59                             150    0.3210 76.9  39 
 PAM  SN ES        250 20.18                             150    0.1710 76.9  39 
 PAM  SZ I         250 22.54         9.5 0.56            156           76.9  39 
 RUS  HN ES        250 22.85                             142    0.0110  100 177 
 RUS  HZ I         250 24.07         3.6 0.22            147            100 177 
 PTB  HZ EP        250  7.77                             130   -0.56 9  149 259 
 PTB  HN ES        250 28.18                             130   -0.84 9  149 259 
 PTB  HZ I         250 33.92        10.1 0.20            131            149 259 
 OCA  HN ES        250 30.56                             128   -0.80 9  161 353 
 SPBC HZ EP   1    250 10.08                             127    0.25 7  164 219 
 SPBC HN ES   1    250 31.98                             127    0.28 7  164 219 
 SPBC HZ I         250 38.72         8.9 0.22            130            164 219 
 ZAR  HE ES   1    250 39.57                             121    0.55 6  205 292 
 ZAR  HN I         250 48.43        15.6 0.20            123            205 292 
 NOR  HN ES   1    250 45.16                             117    0.30 6  235 235 
 SML  HE ES   1    250 46.46                             116   -0.04 6  245 335 
                                                                                
