 2015 1129 0359 23.5 L   6.837 -73.145142.0  RSN 23 0.6 2.4LRSN                1
 GAP=135        1.20       2.8     4.2  5.6 -0.2634E+01  0.1028E+02  0.1084E+01E
 Epicentro: LOS SANTOS - SANTANDER                                             3
 ACTION:UPD 15-12-28 16:14 OP:cam  STATUS:               ID:20151129035923 L   I
 OLDACT:REG 15-11-29 12:34 OP:ak   STATUS:               ID:20151129035741     3
 2015-11-29-0357-41M.COL___307                                                 6
 STAT SP IPHASW D HRMM SECON CODA AMPLIT PERI AZIMU VELO AIN AR TRES W  DIS CAZ7
 BAR2 EZ EP     D  359 42.81                             169    0.0610 27.4 189 
 BAR2 EZ ES        359 57.75                             169   -0.0310 27.4 189 
 BAR2 EZ I         359 58.71        35.9 0.30            166           27.4 189 
 BRR  HZ IP     D  359 44.53                             153    0.4110 69.4 296 
 BRR  HN ES        4 0  0.87                             153    0.6510 69.4 296 
 BRR  HZ I         4 0  5.72        41.2 0.12            148           69.4 296 
 PAM  EZ EP        359 45.46                             151    0.3510 74.2  42 
 PAM  EN ES        4 0  2.60                             151    0.6210 74.2  42 
 PAM  EZ I         4 0  5.19        27.1 0.30            156           74.2  42 
 RUS  HZ EP        359 46.53                             142   -0.6410  105 176 
 RUS  HN ES        4 0  5.12                             142   -0.5210  105 176 
 RUS  HZ I         4 0  6.94        23.0 0.32            143            105 176 
 PTB  HZ EP        359 49.39                             131   -0.83 9  149 257 
 PTB  HZ I         4 0 16.08        34.2 0.38            129            149 257 
 OCA  HZ EP        359 51.42                             130    0.30 9  156 353 
 OCA  HN ES        4 0 12.16                             130   -0.51 9  156 353 
 OCA  HZ I         4 0 16.33        66.6 0.20            130            156 353 
 SPBC HZ EP        359 52.03                             128    0.03 9  166 218 
 SPBC HN ES        4 0 13.71                             128   -0.54 9  166 218 
 SPBC HZ I         4 0 16.42        43.7 0.24            127            166 218 
 ZAR  HZ EP        359 56.08                             122    0.55 9  203 291 
 ZAR  HN ES        4 0 20.89                             122    0.36 9  203 291 
 ZAR  HZ I         4 0 28.03        33.8 0.34            121            203 291 
 NOR  HZ EP        359 59.14                             117   -0.12 8  237 234 
 NOR  HE ES        4 0 26.82                             117   -0.34 8  237 234 
 NOR  HZ I         4 0 32.70        20.9 0.20            117            237 234 
 SML  HZ EP        359 58.98                             117   -0.51 8  240 335 
 SML  HN ES        4 0 26.59                             117   -0.99 8  240 335 
 SML  HZ I         4 0 30.57                             117            240 335 
 ROSC BZ EP   1    4 0  2.67                             116    0.88 6  256 211 
 ROSC BE ES        4 0 31.54                             116   -0.12 8  256 211 
 ROSC BZ I         4 0 36.70        23.4 0.35            116            256 211 
 HEL  HZ EP   2    4 0  4.13                             114    0.51 4  273 255 
 HEL  HN ES        4 0 35.77                             114    0.84 8  273 255 
 HEL  HZ I         4 0 42.28        22.3 0.36            114            273 255 
 URE  HZ EP        4 0  3.17                             113   -1.03 7  282 291 
 URE  HN ES   4    4 0 34.39                             113   -1.58 0  282 291 
 URE  HZ I         4 0 42.93        19.4 0.36            113            282 291 
 GUY2CHZ EP        4 0  6.93                             111   -0.26 7  304 234 
 GUY2CHN ES        4 0 42.20                             111    0.92 7  304 234 
 GUY2CHZ I         4 0 49.17        12.4 0.36                           304 234 
 ELA  HZ EP   1    4 0 11.45                             109    0.96 5  332 229 
 ELA  HN ES        4 0 47.37                             109    0.22 7  332 229 
 ELA  HZ I         4 0 55.06         8.6 0.76            110            332 229 
 CBOC HZ EP        4 0 10.57                             109    0.18 7  335 251 
 CBOC HE ES        4 0 46.20                             109   -0.79 7  335 251 
 CBOC HZ I         4 0 57.98         4.7 0.36            109            335 251 
 DBB  SZ EP        4 0 11.44                             109    0.66 7  339 274 
 DBB  SZ ES        4 0 47.03                             109   -0.64 7  339 274 
 MON  HZ EP   4    4 0 16.24                             108    4.19 0  351 308 
 MON  HN ES   4    4 0 48.16                             108   -1.77 0  351 308 
 MON  HZ I         4 0 49.14         6.5 0.20            108            351 308 
 ANIL HZ EP        4 0 13.80                             108    0.31 6  360 224 
 ANIL HE ES   4    4 0 54.32                             108    1.83 0  360 224 
 ANIL HZ I         4 1  1.18        20.0 0.34            108            360 224 
 PRA  HZ EP        4 0 17.67                             106    0.38 6  396 209 
 PRA  HN ES        4 0 58.63                             106   -0.64 6  396 209 
 PRA  HZ I         4 1  6.51        10.8 0.26            106            396 209 
 ORTC HZ EP        4 0 17.50                             106   -0.17 6  399 216 
 ORTC HN ES        4 1  0.80                             106    0.87 6  399 216 
 ORTC HZ I         4 1  6.73         4.5 0.38            106            399 216 
 SJC  HZ EP   4    4 0 17.19                             105   -1.33 0  406 327 
 SJC  HN ES   4    4 0 57.53                             105   -3.92 0  406 327 
 SJC  HZ I         4 1  1.10         5.0 0.54            106            406 327 
 PAL  HZ EP   1    4 0 18.78                             105    0.01 4  408 239 
 PAL  HN ES        4 1  2.22                             105    0.32 6  408 239 
 PAL  HZ I         4 1 10.60         3.1 0.28            105            408 239 
                                                                                
