 2012  229 0857 14.1 L   6.698 -73.152154.0  RSN  6 0.3 1.5LRSN                1
 GAP=140        0.65       6.5     5.5  8.2  0.6251E+01 -0.2950E+01 -0.2016E+02E
 ACTION:UP  12-03-07 16:35 OP:epov STATUS:               ID:20120229085714 L   I
 2012-02-29-0850-00M.COL___191                                                 6
 STAT SP IPHASW D HRMM SECON CODA AMPLIT PERI AZIMU VELO AIN AR TRES W  DIS CAZ7
 BAR2 SZ EP   1    857 34.68                             175    0.09 7 12.1 196 
 BRR  HZ EP   1    857 36.62                             152    0.14 7 76.7 306 
 BRR  HZ I         857 37.99         8.2 0.41                          76.7 306 
 BRR  HN ES   1    857 54.13                             152    0.22 7 76.7 306 
 PAM  SZ EP   1    857 37.31                             149   -0.48 7 86.8  35 
 RUS  HN ES   1    857 56.70                             149    0.17 7 89.4 175 
 PTB  HZ EP   1    857 41.45                             134   -0.12 7  145 263 
 PTB  HN ES   1    858  2.47                             134   -0.50 7  145 263 
 ZAR  HZ EP   1    857 48.06                             124    0.54 6  208 295 
 ZAR  HZ I         858 19.88         1.4 0.16                           208 295 
                                                                                
