 2010 1029 0743 31.5 L   6.793 -73.065144.1  RSN  9 0.4 1.9LRSN                1
 GAP=168        0.85       3.8     8.6  7.3 -0.8390E+01  0.2730E+01  0.2907E+01E
 Epicentro: LOS SANTOS - SANTANDER                                             3
 ACTION:UP  11-02-18 11:13 OP:tino STATUS:               ID:20101029074331 L   I
 2010-10-29-0738-52S.COL___128                                                 6
 STAT SP IPHASW D HRMM SECON CODA AMPLIT PERI AZIMU VELO SNR AR TRES W  DIS CAZ7
 BAR2 SZ EP   1    743 50.82                             169    -0.2 8   26 210 
 BAR2 SZ ES   2    744  6.06                             169    -0.1 5   26 210 
 BAR2 SZ I         744  8.92        24.2 0.36                            26 210 
 BRR  HZ EP   1    743 52.62                             149    -0.3 8   80 296 
 BRR  HE ES   1    744 10.02                             149     0.3 8   80 296 
 BRR  HZ I         744 12.09        18.1 0.15                            80 296 
 RUS  HZ EP   1    743 54.88                             144    -0.1 8  100 181 
 RUS  HN ES   1    744 13.24                             144    -0.1 8  100 181 
 RUS  HZ I         744 15.17         9.6 0.25                           100 181 
 GRA  SZ IP        743 56.72                             137     0.310  124  13 
 GRA  SZ ES   1    744 15.88                             137     0.0 7  124  13 
 GRA  SZ I         744 19.01         8.6 0.39                           124  13 
 OCA  SZ EP   1    743 59.55                             129    -0.3 7  162 350 
 OCA  SZ ES   1    744 22.02                             129     0.0 7  162 350 
 OCA  SZ I         744 26.84        10.2 0.47                           162 350 
 NOR  SZ EP   2    744  7.02                             117    -0.9 4  242 236 
 ROSC BZ EP   1    744 11.26                             116     1.3 6  257 213 
 ROSC BZ I         744 46.60         6.9 0.42                           257 213 
 HEL  HZ EP   2    744 12.47                             114    -0.1 4  281 256 
 HEL  HZ I         744 50.26         4.3 0.41                           281 256 
 PRA  HZ EP   1    744 25.00                             106    -0.4 4  396 211 
 PRA  HN ES   2    745  7.40                             106    -0.1 3  396 211 
                                                                                
