 2013 1129 0913  6.2 L   6.842 -73.184138.2  RSN  4 0.2 1.5LRSN                1
 GAP=198        0.51       4.0     4.1  8.9  0.7738E+01 -0.1163E+02 -0.2564E+02E
 Epicentro: ZAPATOCA - SANTANDER                                               3
 ACTION:UPD 14-01-09 16:31 OP:ep   STATUS:               ID:20131129091306 L   I
 OLDACT:REG 13-11-29 08:18 OP:mh   STATUS:               ID:20131129091000     3
 2013-11-29-0910-00M.COL___282                                                 6
 STAT SP IPHASW D HRMM SECON CODA AMPLIT PERI AZIMU VELO AIN AR TRES W  DIS CAZ7
 BAR2 SZ EP   1    913 25.22                             168    0.20 8 27.6 180 
 RUS  HZ EP        913 29.55                             141   -0.0410  106 174 
 RUS  HN ES        913 47.75                             141   -0.0810  106 174 
 RUS  HZ I         913 50.80         3.1 0.38            148            106 174 
 PTB  HZ EP   1    913 31.91                             131   -0.35 7  145 257 
 PTB  HN ES        913 52.71                             131    0.12 9  145 257 
 PTB  HZ I         913 55.27         4.3 0.12            137            145 257 
 SML  HZ EP        913 42.06                             116    0.30 8  238 336 
 SML  HN ES   1    914  9.17                             116   -0.33 6  238 336 
 SML  HZ I         914 13.10         4.4 0.11            121            238 336 
                                                                                
