 2014  829 0315 51.8 L   6.763 -73.166147.4  RSN  7 0.4 1.9LRSN                1
 GAP=243        1.00       6.1     7.0  9.2  0.2340E+01  0.9393E+01  0.1344E+02E
 Epicentro: LOS SANTOS - SANTANDER                                             3
 ACTION:UPD 14-09-15 21:54 OP:nd   STATUS:               ID:20140829031551 L   I
 OLDACT:DUP 14-08-29 17:52 OP:fm   STATUS:               ID:20140829030823d    3
 OLDACT:UP  14-08-29 17:38 OP:fm   STATUS:               ID:20140829030820d    3
 OLDACT:UP  14-08-29 17:38 OP:fm   STATUS:               ID:20140829030820d    3
 OLDACT:DUP 14-08-29 17:37 OP:fm   STATUS:               ID:20140829030820d    3
 2014-08-29-0308-19M.COL___269                                                 6
 STAT SP IPHASW D HRMM SECON CODA AMPLIT PERI AZIMU VELO AIN AR TRES W  DIS CAZ7
 BAR2 SZ EP   1    316 11.25                             172   -0.25 7 19.0 185 
 BAR2 SZ ES   1    316 26.47                             172   -0.44 7 19.0 185 
 BAR2 SZ I         316 27.39        10.8 0.24            170           19.0 185 
 BRR  HZ EP        316 13.37                             153    0.2810 71.3 302 
 BRR  HN ES        316 30.25                             153    0.5210 71.3 302 
 BRR  HZ I         316 31.36         9.5 0.18            149           71.3 302 
 PTB  HZ EP   1    316 17.80                             133   -0.79 7  145 260 
 PTB  HN ES        316 38.85                             133   -0.67 9  145 260 
 PTB  HZ I         316 41.00         6.1 0.28            131            145 260 
 SPBC HZ EP        316 20.22                             130    0.27 9  159 219 
 SPBC HN ES        316 42.20                             130    0.26 9  159 219 
 SPBC HZ I         316 47.38         5.3 0.48            129            159 219 
 ZAR  HN ES        316 49.55                             123   -0.05 9  204 293 
 ZAR  HZ I         316 57.50         3.1 0.42            121            204 293 
 SML  HN ES   4    316 54.88                             117   -2.77 0  246 336 
 SML  HZ  AMP      317  3.04       248.5 0.28                           246 336 
 GUY2CHZ EP   4    316 36.39                             113    1.42 0  297 235 
 GUY2CHN ES   1    317  9.18                             113    0.51 5  297 235 
 GUY2CHZ I         317 17.00         1.5 0.22                           297 235 
                                                                                
