 2010  929 0551  9.0 L   6.822 -73.094150.0  RSN  4 0.1 1.3LRSN                1
 GAP=240        0.32       3.6     8.0  5.6  0.1563E+02 -0.1826E+02  0.1463E+01E
 Epicentro: LOS SANTOS - SANTANDER                                             3
 ACTION:UP  11-02-18 11:06 OP:tino STATUS:               ID:20100929055109 L   I
 2010-09-29-0550-00S.COL___120                                                 6
 STAT SP IPHASW D HRMM SECON CODA AMPLIT PERI AZIMU VELO SNR AR TRES W  DIS CAZ7
 BTL  SZ EP   2    551 29.34                             171     0.2 5   22 299 
 BRR  HZ EP   1    551 30.75                             152    -0.1 7   75 295 
 BRR  HN ES   1    551 47.87                             152     0.0 7   75 295 
 BRR  HZ I         551 51.67         4.1 0.11                            75 295 
 RUS  HZ EP   1    551 33.26                             144    -0.1 7  103 179 
 RUS  HN ES   2    551 52.25                             144     0.0 5  103 179 
 RUS  HZ I         551 53.62         2.9 0.35                           103 179 
 CHI  HZ EP   2    551 47.36                             118     0.0 4  252 196 
 CHI  HE ES   2    552 17.34                             118     0.1 4  252 196 
 CHI  HZ I         552 20.05         1.4 0.39                           252 196 
                                                                                
