 2012  629 0527 39.6 L   6.784 -73.141144.7  RSN 12 0.4 2.2LRSN                1
 GAP=138        0.67       3.0     3.7  5.2 -0.5988E+00  0.5225E+01  0.4588E+01E
 Epicentro: LOS SANTOS - SANTANDER                                             3
 ACTION:UPD 12-08-06 17:53 OP:ep   STATUS:               ID:20120629052739 L   I
 2012-06-29-0525-59S.COL___209                                                 6
 STAT SP IPHASW D HRMM SECON CODA AMPLIT PERI AZIMU VELO AIN AR TRES W  DIS CAZ7
 BAR2 SZ EP   1    527 59.13                             171    0.03 7 21.7 192 
 BAR2 SZ ES   1    528 14.21                             171   -0.08 7 21.7 192 
 BRR  HZ EP   1    528  0.98                             152    0.24 7 72.5 300 
 BRR  HZ I         528  1.25        40.8 0.17                          72.5 300 
 BRR  HE ES   1    528 18.05                             152    0.85 7 72.5 300 
 PAM  SZ EP   1    528  1.90                             150    0.10 7 78.5  38 
 PAM  SZ I         528  2.44        45.7 0.21                          78.5  38 
 PAM  SN ES   1    528 18.93                             150   -0.16 7 78.5  38 
 RUS  HZ EP   1    528  3.06                             144   -0.09 7 98.8 176 
 RUS  HN ES   1    528 21.40                             144   -0.09 7 98.8 176 
 RUS  HZ I         528 23.05        23.5 0.31                          98.8 176 
 PTB  HZ EP   1    528  6.13                             132   -0.39 7  148 260 
 PTB  HN ES   1    528 27.02                             132   -0.48 7  148 260 
 PTB  HZ I         528 30.56        12.5 0.13                           148 260 
 OCA  HN ES   1    528 29.85                             129   -0.33 7  162 353 
 ZAR  HN ES   1    528 37.18                             122   -0.28 6  205 293 
 NOR  SZ EP   1    528 15.17                             118   -0.06 6  234 235 
 NOR  SN ES   1    528 42.80                             118   -0.20 6  234 235 
 CHI  HZ EP   1    528 17.24                             117    0.14 6  247 195 
 CHI  HZ I         528 50.11         9.8 0.53                           247 195 
 HEL  HZ EP   1    528 20.69                             115    0.90 6  272 256 
 VIL  SN ES   2    528 56.43                             112   -0.07 4  302 192 
 PRA  HZ EP   1    528 32.55                             106   -0.41 4  391 210 
 PRA  HN ES   1    529 15.04                             106    0.48 4  391 210 
                                                                                
