 2010  929 0609 19.2 L   6.781 -73.063147.9  RSN  5 0.1 1.5LRSN                1
 GAP=237        0.31       3.1     6.3  4.2  0.9844E+01 -0.6825E+01  0.1283E+01E
 Epicentro: LOS SANTOS - SANTANDER                                             3
 ACTION:UP  11-02-18 11:06 OP:tino STATUS:               ID:20100929060919 L   I
 2010-09-29-0608-23S.COL___125                                                 6
 STAT SP IPHASW D HRMM SECON CODA AMPLIT PERI AZIMU VELO SNR AR TRES W  DIS CAZ7
 BAR2 SZ EP   2    6 9 39.16                             170     0.0 5   25 212 
 BAR2 SZ ES   2    6 9 54.55                             170    -0.1 5   25 212 
 BAR2 SZ I         6 9 55.79        11.1 0.09                            25 212 
 BTL  SZ EP   1    6 9 39.32                             169     0.1 7   27 304 
 BRR  HZ EP   1    6 9 40.96                             150    -0.2 7   80 297 
 BRR  HZ I         6 9 41.21         5.7 0.12                            80 297 
 BRR  HE ES   1    6 9 58.26                             150     0.1 7   80 297 
 RUS  HZ EP   1    6 9 43.01                             145     0.0 7   98 181 
 RUS  HE ES   2    610  1.55                             145     0.0 5   98 181 
 RUS  HZ I         610  2.92         3.5 0.29                            98 181 
 CHI  HZ EP   2    6 9 57.04                             117     0.0 4  249 197 
 CHI  HE ES   2    610 26.70                             117     0.1 4  249 197 
 CHI  HZ I         610 34.58         1.4 0.57                           249 197 
                                                                                
