 2016  529 0400 31.4 L   6.800 -73.166143.0  RSN  9 0.4 1.7LRSN                1
 GAP=134        1.03       3.8     5.1  7.0 -0.4486E+01  0.4639E+01  0.2514E+01E
 Epicentro: LOS SANTOS - SANTANDER                                             3
 ACTION:UPD 16-08-18 17:50 OP:cam  STATUS:               ID:20160529040031 L   I
 OLDACT:UP  16-05-29 14:12 OP:mh   STATUS:               ID:20160529035740     3
 OLDACT:UP  16-05-29 14:12 OP:mh   STATUS:               ID:20160529035740     3
 OLDACT:REG 16-05-29 12:28 OP:mh   STATUS:               ID:20160529035740     3
 2016-05-29-0357-40M.COL___313                                                 6
 STAT SP IPHASW D HRMM SECON CODA AMPLIT PERI AZIMU VELO AIN AR TRES W  DIS CAZ7
 BAR2 EZ EP   1    4 0 50.82                             170    0.13 7 23.1 184 
 BAR2 EZ ES        4 1  5.49                             170   -0.2510 23.1 184 
 BAR2 EZ I         4 1  7.19        14.3 0.20            171           23.1 184 
 BRR  HZ EP   1    4 0 52.48                             153    0.34 7 69.2 299 
 BRR  HE ES        4 1  9.05                             153    0.7410 69.2 299 
 BRR  HZ I         4 1 14.13         7.7 0.38            151           69.2 299 
 PAM  EZ EP        4 0 53.67                             150    0.2610 78.8  41 
 PAM  EN ES        4 1 10.64                             150    0.0610 78.8  41 
 PAM  EZ I         4 1 12.50        12.8 0.50            153           78.8  41 
 RUS  HZ EP        4 0 55.22                             143    0.3210  101 175 
 RUS  HN ES        4 1 12.93                             143   -0.3010  101 175 
 RUS  HZ I         4 1 15.03         4.0 0.44            147            101 175 
 PTB  HZ EP        4 0 57.27                             132   -0.67 9  146 259 
 PTB  HN ES        4 1 18.73                             132    0.09 9  146 259 
 PTB  HZ I         4 1 22.62         2.5 0.14            132            146 259 
 OCA  HN ES        4 1 20.68                             129   -0.68 9  160 354 
 OCA  HZ I         4 1 25.36        14.0 0.58            131            160 354 
 SPBC HN ES        4 1 21.29                             129   -0.23 9  162 218 
 SPBC HZ I         4 1 26.41         4.0 0.14            130            162 218 
 PRA  HZ EP        4 1 25.21                             106    0.51 6  391 209 
 SJC  HZ EP   4    4 1 23.94                             105   -2.78 0  408 327 
 SJC  HN ES   4    4 2  5.11                             105   -4.76 0  408 327 
 SJC  HZ I         4 2 10.67         1.7 0.60            107            408 327 
                                                                                
