 2012  329 0307 31.5 L   6.777 -73.175149.7  RSN  6 0.4 1.6LRSN                1
 GAP=134        0.90       6.4     6.1  8.6  0.5170E+01  0.1777E+02  0.3458E+01E
 ACTION:UP  12-03-31 23:23 OP:EP   STATUS:               ID:20120329030731 L   I
 2012-03-29-0300-00M.COL___196                                                 6
 STAT SP IPHASW D HRMM SECON CODA AMPLIT PERI AZIMU VELO SNR AR TRES W  DIS CAZ7
 BAR2 SZ EP        3 7 51.52                             172     0.010   20 182 
 BAR2 SZ ES   1    3 8  7.08                             172    -0.1 7   20 182 
 BAR2 SZ I         3 8  8.23         9.4 0.36                            20 182 
 BRR  HZ EP        3 7 53.34                             154     0.410   70 302 
 BRR  HZ I         3 7 53.55        14.6 0.14                            70 302 
 BRR  HN ES   2    3 8 10.93                             154     1.2 5   70 302 
 PAM  SZ EP   3    3 7 54.01                             150    -0.4 2   81  40 
 PAM  SN ES   1    3 8 11.78                             150    -0.4 7   81  40 
 RUS  HZ EP        3 7 55.62                             145     0.110   98 174 
 RUS  HN ES   1    3 8 14.11                             145    -0.1 7   98 174 
 RUS  HZ I         3 8 15.62         3.0 0.38                            98 174 
 PTB  HZ EP        3 7 58.22                             133    -0.2 9  144 260 
 PTB  HN ES   1    3 8 19.33                             133    -0.2 7  144 260 
 PTB  HZ I         3 8 21.07         3.6 0.22                           144 260 
 ZAR  HZ EP   2    3 8  4.50                             123     0.5 4  202 293 
 ZAR  HN ES   2    3 8 28.29                             123    -1.1 4  202 293 
 ZAR  HZ I         3 8 35.15         5.4 0.56                           202 293 
                                                                                
