 2017  629 0734 45.7 L   6.808 -73.115150.7  RSN 17 0.5 2.0LRSN                1
 GAP=109        0.82       2.4     2.9  4.6  0.4751E+00  0.2286E+00 -0.1681E+01E
 Epicentro: LOS SANTOS - SANTANDER                                             3
 ACTION:UPD 17-09-14 16:56 OP:jn   STATUS:               ID:20170629073445 L   I
 OLDACT:UP  17-06-29 16:22 OP:and  STATUS:               ID:20170629072737     3
 OLDACT:UP  17-06-29 16:21 OP:and  STATUS:               ID:20170629072737     3
 OLDACT:UP  17-06-29 16:21 OP:and  STATUS:               ID:20170629072737     3
 OLDACT:UP  17-06-29 16:20 OP:and  STATUS:               ID:20170629072737     3
 OLDACT:UP  17-06-29 16:16 OP:and  STATUS:               ID:20170629072737     3
 OLDACT:UP  17-06-29 16:16 OP:and  STATUS:               ID:20170629072737     3
 OLDACT:UP  17-06-29 16:13 OP:and  STATUS:               ID:20170629072737     3
 OLDACT:REG 17-06-29 13:15 OP:and  STATUS:               ID:20170629072737     3
 2017-06-29-0728-00M.COL___364                                                 6
 STAT SP IPHASW D HRMM SECON CODA AMPLIT PERI AZIMU VELO AIN AR TRES W  DIS CAZ7
 BAR2 EZ IP     D  735  5.73                             170   -0.2210 25.0 197 
 BAR2 EZ ES        735 21.44                             170   -0.3010 25.0 197 
 BAR2 EZ I         735 23.21        25.9 0.24            165           25.0 197 
 BRR  HZ IP     C  735  7.60                             153    0.0810 73.8 297 
 BRR  HE ES        735 25.06                             153    0.5210 73.8 297 
 BRR  HZ I         735 28.05        21.4 0.14            149           73.8 297 
 PTB  HZ EP   9    735 12.39                             133   -0.99 0  151 259 
 PTB  HN ES        735 33.92                             133   -0.07 9  151 259 
 PTB  HZ I         735 41.05        13.6 0.38            130            151 259 
 TAM  HZ IP     D  735 13.89                             132    0.41 9  152 106 
 SPBC HZ EP        735 14.63                             130   -0.21 9  166 220 
 SPBC HN ES        735 37.77                             130    0.20 9  166 220 
 SPBC HZ I         735 41.84        13.1 0.13            128            166 220 
 YPLC HN ES        735 39.61                             128    0.39 9  176 152 
 YPLC HZ I         735 41.98         5.5 0.26            129            176 152 
 ZAR  HZ EP        735 18.38                             123   -0.37 8  207 292 
 ZAR  HN ES        735 44.45                             123   -0.09 8  207 292 
 ZAR  HZ I         735 52.27        11.8 0.21            122            207 292 
 NOR  HZ EP        735 22.11                             119    0.05 8  238 235 
 NOR  HE ES        735 50.33                             119   -0.10 8  238 235 
 NOR  HZ I         735 55.72         5.3 0.14            118            238 235 
 CHI  HZ EP   2    735 22.97                             118   -0.89 4  250 196 
 CHI  HN ES        735 53.04                             118   -0.59 8  250 196 
 CHI  HZ I         735 56.54         3.7 0.58            118            250 196 
 ROSC BZ EP   3    735 25.44                             118    1.08 2  255 212 
 ROSC BN ES   4    735 57.60                             118    3.08 0  255 212 
 ROSC BZ I         736  4.19         8.6 0.35            117            255 212 
 HEL  HZ EP   4    735 29.63                             115    3.08 0  276 256 
 HEL  HN ES        735 58.81                             115    0.39 7  276 256 
 HEL  HZ I         736  4.39         4.9 0.36            115            276 256 
 GUY2CHZ EP   3    735 31.79                             113    1.89 2  305 235 
 GUY2CHN ES   4    736  7.48                             113    3.09 0  305 235 
 GUY2CHZ I         736 12.78         4.5 0.30                           305 235 
 PTGC HZ IP   9 D  735 28.53                             113   -1.20 0  308 159 
 PTGC HN ES        736  1.93                             112   -0.95 7  308 159 
 PTGC HZ I         736  2.53         4.4 0.38            113            308 159 
 LL6C HZ EP   3    735 30.27                             111   -1.25 2  324 357 
 LL6C HE ES        736  6.97                             111   -0.30 7  324 357 
 CBOC HZ EP   3    735 34.42                             111    1.20 2  337 252 
 CBOC HE ES        736  9.80                             111   -0.49 7  337 252 
 CBOC HZ I         736 19.26         1.5 0.31            110            337 252 
 ARGC HZ EP        735 36.06                             109    0.48 6  360 340 
 ARGC HN ES        736 14.45                             109   -0.04 6  360 340 
 VALLCHN ES   4    736 23.40                             106   -1.47 0  410 358 
 SJC  HZ EP   4    735 39.98                             106   -1.57 0  410 326 
 SJC  HN ES   4    736 21.37                             106   -3.75 0  410 326 
 SJC  HZ I         736 25.75         3.6 0.42            107            410 326 
                                                                                
