 2011  529 0937 36.9 L   6.931 -73.169120.5  RSN  4 0.3 1.5LRSN                1
 GAP=247        0.58       7.1     6.0  8.7  0.1707E+02  0.1456E+02  0.1241E+02E
 Epicentro: BETULIA - SANTANDER                                                3
 ACTION:UP  11-06-29 08:57 OP:tino STATUS:               ID:20110529093736 L   I
 2011-05-29-0936-01S.COL___113                                                 6
 STAT SP IPHASW D HRMM SECON CODA AMPLIT PERI AZIMU VELO SNR AR TRES W  DIS CAZ7
 BAR2 SZ EP   1    937 54.38                             162     0.4 7   37 182 
 BAR2 SZ ES   2    938  7.40                             162     0.2 5   37 182 
 BAR2 SZ I         938  8.54        16.6 0.36                            37 182 
 BRR  HZ EP   1    937 54.60                             150    -0.3 7   63 288 
 BRR  HN ES   2    938  8.76                             150    -0.1 5   63 288 
 BRR  HZ I         938 10.09         5.0 0.16                            63 288 
 RUS  HZ EP   1    937 59.38                             134    -0.1 7  115 175 
 RUS  HZ I         938 15.54         4.6 0.49                           115 175 
 RUS  HN ES   2    938 16.81                             134    -0.3 5  115 175 
 HEL  HN ES   1    938 46.85                             109     0.1 6  273 253 
                                                                                
