 2017  629 0801 34.4 L   6.743 -73.076144.0  RSN  7 0.3 1.4LRSN                1
 GAP=220        0.46       3.5     3.6  3.8  0.6657E+01 -0.1121E+01  0.1915E+01E
 Epicentro: JORDAN - SANTANDER                                                 3
 ACTION:UPD 17-09-14 16:56 OP:jn   STATUS:               ID:20170629080134 L   I
 OLDACT:UP  17-06-29 16:50 OP:and  STATUS:               ID:20170629075747     3
 OLDACT:UP  17-06-29 16:47 OP:and  STATUS:               ID:20170629075747     3
 OLDACT:UP  17-06-29 16:46 OP:and  STATUS:               ID:20170629075747     3
 OLDACT:REG 17-06-29 13:17 OP:and  STATUS:               ID:20170629075747     3
 2017-06-29-0758-00M.COL___361                                                 6
 STAT SP IPHASW D HRMM SECON CODA AMPLIT PERI AZIMU VELO AIN AR TRES W  DIS CAZ7
 BAR2 EZ EP        8 1 53.85                             172    0.1010 20.4 215 
 BAR2 EZ ES        8 2  8.88                             172    0.0410 20.4 215 
 BAR2 EZ I         8 2 11.79         9.3 0.48            157           20.4 215 
 BRR  HZ EP   2    8 1 55.72                             149   -0.21 5 81.0 300 
 BRR  HN ES        8 2 12.67                             149   -0.0710 81.0 300 
 PTB  HZ EP   9    8 2  0.65                             130   -1.16 0  154 262 
 PTB  HN ES        8 2 21.85                             131   -0.19 9  154 262 
 PTB  HZ I         8 2 28.80         1.6 0.20            124            154 262 
 SPBC HN ES   2    8 2 24.70                             129   -0.21 5  163 222 
 SPBC HZ I         8 2 34.17         5.3 0.10            122            163 222 
 ZAR  HZ EP   3    8 2  8.74                             121    1.03 2  214 293 
 ZAR  HE ES        8 2 33.77                             121    0.07 8  214 293 
 ZAR  HZ I         8 2 38.57         2.4 0.36            118            214 293 
 CHI  HZ EP   2    8 2 10.70                             117   -0.86 4  245 197 
 CHI  HN ES   2    8 2 41.14                             117    0.59 4  245 197 
 CHI  HZ I         8 2 45.10         1.4 0.26            114            245 197 
 PTGC HZ EP   2    8 2 17.15                             112   -0.03 4  300 160 
 PTGC HN ES   2    8 2 50.41                             112   -0.15 4  300 160 
                                                                                
