 2015  329 0000 58.3 L   6.857 -73.194135.2  RSN  4 0.1 0.8LRSN                1
 GAP=150        0.43       2.6     2.6  5.4 -0.2324E+01  0.1466E+01  0.1308E+01E
 Epicentro: ZAPATOCA - SANTANDER                                               3
 ACTION:UPD 15-04-30 16:30 OP:nd   STATUS:               ID:20150329000058 L   I
 OLDACT:UP  15-03-29 13:13 OP:stll STATUS:               ID:20150329000003     3
 OLDACT:REG 15-03-29 12:37 OP:stll STATUS:               ID:20150329000003     3
 2015-03-29-0000-03M.COL___287                                                 6
 STAT SP IPHASW D HRMM SECON CODA AMPLIT PERI AZIMU VELO AIN AR TRES W  DIS CAZ7
 BAR2 EZ EP        0 1 16.82                             167    0.0510 29.3 177 
 PAM  SZ EP        0 1 19.48                             149    0.1710 76.4  46 
 PAM  SN ES        0 1 35.61                             149   -0.1110 76.4  46 
 PAM  SZ I         0 1 39.25         1.4 0.24            152           76.4  46 
 RUS  HZ EP        0 1 21.31                             140   -0.2110  107 173 
 RUS  HZ I         0 1 21.93         1.0 0.20            145            107 173 
 RUS  HE ES        0 1 39.75                             140    0.1010  107 173 
 PTB  HN ES        0 1 44.12                             130   -0.01 9  144 256 
 PTB  HZ I         0 1 49.47         1.0 0.42            132            144 256 
                                                                                
