 2017  829 0539 51.0 L   6.914 -73.068168.7  RSN  4 0.3 1.1LRSN                1
 GAP=253        0.74       9.3    10.0  7.0  0.7804E+02 -0.1689E+02 -0.1778E+02E
 Epicentro: PIEDECUESTA - SANTANDER                                            3
 ACTION:UPD 17-09-04 20:26 OP:rebc STATUS:               ID:20170829053951 L   I
 OLDACT:UP  17-08-29 17:12 OP:dani STATUS:               ID:20170829053743d    3
 OLDACT:UP  17-08-29 17:11 OP:dani STATUS:               ID:20170829053743d    3
 OLDACT:DUP 17-08-29 17:08 OP:dani STATUS:               ID:20170829053743d    3
 OLDACT:UP  17-08-29 17:02 OP:dani STATUS:               ID:20170829053741     3
 OLDACT:REG 17-08-29 13:04 OP:dani STATUS:               ID:20170829053741     3
 2017-08-29-0538-00M.COL___417                                                 6
 STAT SP IPHASW D HRMM SECON CODA AMPLIT PERI AZIMU VELO AIN AR TRES W  DIS CAZ7
 BAR2 EZ EP        540 13.63                             167   -0.1010 37.8 200 
 BAR2 EZ ES        540 31.15                             167   -0.3010 37.8 200 
 BRR  HZ EP        540 14.62                             155   -0.2110 74.3 287 
 BRR  HN ES        540 33.88                             155    0.4710 74.3 287 
 BRR  HZ I         540 37.83         2.9 0.34            156           74.3 287 
 RUS  HZ EP        540 18.26                             145    0.3510  113 181 
 RUS  HN ES        540 38.85                             145   -0.0510  113 181 
 RUS  HZ I         540 41.46         1.2 0.15            147            113 181 
 ZAR  HN ES        540 52.04                             127   -0.21 8  208 288 
                                                                                
