 2012  629 0638 28.1 L   6.650 -73.164149.2  RSN  4 0.1 1.1LRSN                1
 GAP=248        0.31       5.1     3.2  3.8  0.3978E+01  0.2732E+01  0.2319E+01E
 Epicentro: VILLANUEVA - SANTANDER                                             3
 ACTION:UPD 12-08-06 17:53 OP:ep   STATUS:               ID:20120629063828 L   I
 2012-06-29-0637-59S.COL___209                                                 6
 STAT SP IPHASW D HRMM SECON CODA AMPLIT PERI AZIMU VELO AIN AR TRES W  DIS CAZ7
 BAR2 SZ EP   1    638 47.90                             177    0.02 7 6.68 198 
 BAR2 SZ ES   1    639  3.25                             177   -0.10 7 6.68 198 
 BAR2 SZ I         639  4.42         3.3 0.29                          6.68 198 
 BRR  HZ EP   1    638 50.03                             151    0.01 7 78.9 310 
 BRR  HZ I         638 50.25         4.6 0.12                          78.9 310 
 BRR  HN ES   1    639  7.25                             151    0.10 7 78.9 310 
 PTB  HZ EP   1    638 54.94                             134    0.02 7  143 265 
 PTB  HN ES   1    639 15.90                             134    0.03 7  143 265 
 PTB  HZ I         639 17.40         0.7 0.22                           143 265 
 ZAR  HN ES   2    639 26.86                             122   -0.26 4  209 297 
                                                                                
