 2016 1129 0157 55.6 L   6.782 -73.154153.4  RSN  6 0.3 2.0LRSN                1
 GAP=149        0.76       5.2     4.0  5.3 -0.3389E+01  0.2689E+01  0.9963E+00E
 Epicentro: LOS SANTOS - SANTANDER                                             3
 ACTION:UPD 17-10-26 21:12 OP:lp   STATUS:               ID:20161129015755 L   I
 OLDACT:DUP 16-11-29 14:07 OP:dani STATUS:               ID:20161129014744d    3
 OLDACT:UP  16-11-29 14:03 OP:dani STATUS:               ID:20161129014743d    3
 OLDACT:DUP 16-11-29 14:01 OP:dani STATUS:               ID:20161129014743d    3
 2016-11-29-0148-00M.COL___346                                                 6
 STAT SP IPHASW D HRMM SECON CODA AMPLIT PERI AZIMU VELO AIN AR TRES W  DIS CAZ7
 BAR2 EZ EP        158 15.91                             172   -0.2310 21.2 188 
 BAR2 EZ ES        158 32.05                             172   -0.0910 21.2 188 
 BRR  HZ EP     C  158 17.79                             154    0.1810 71.4 300 
 BRR  HE ES        158 35.25                             154    0.4810 71.4 300 
 BRR  HZ I         158 39.11        13.8 0.42            149           71.4 300 
 PAM  EZ EP        158 18.70                             151   -0.0810 79.5  39 
 PTB  HZ EP        158 22.76                             134   -0.35 9  146 260 
 PTB  HN ES        158 44.16                             134   -0.39 9  146 260 
 ZAR  HZ EP        158 28.74                             124    0.17 9  204 293 
 ZAR  HE ES        158 53.98                             124   -0.29 9  204 293 
 ZAR  HZ I         159  1.72         8.7 0.05            123            204 293 
 NOR  HZ EP        158 32.09                             120    0.49 8  233 235 
 NOR  HN ES        158 59.89                             120    0.22 8  233 235 
                                                                                
