 2011  629 0435 33.7 L   6.770 -73.100146.5  RSN 10 0.3 1.7LRSN                1
 GAP=144        0.74       2.9     5.8  5.1 -0.2294E+01 -0.2790E+01 -0.5884E+00E
 Epicentro: LOS SANTOS - SANTANDER                                             3
 ACTION:UP  11-07-14 19:09 OP:ep   STATUS:               ID:20110629043533 L   I
 2011-06-29-0431-10S.COL___140                                                 6
 STAT SP IPHASW D HRMM SECON CODA AMPLIT PERI AZIMU VELO SNR AR TRES W  DIS CAZ7
 BAR2 SZ EP        435 53.22                             171    -0.210   22 205 
 BAR2 SZ ES   1    436  8.41                             171    -0.3 7   22 205 
 BAR2 SZ I         436  9.55        15.4 0.36                            22 205 
 BTL  SZ EP        435 53.87                             170     0.410   25 312 
 GIR2 SZ EP        435 53.72                             166     0.110   36 343 
 BRR  HZ EP        435 55.14                             151    -0.110   77 299 
 BRR  HZ I         435 55.44        30.1 0.14                            77 299 
 BRR  HN ES        436 12.24                             151     0.110   77 299 
 PAM  SZ EP        435 56.23                             151     0.310   77  35 
 PAM  SZ I         435 56.49         3.7 0.15                            77  35 
 PAM  SN ES   1    436 13.72                             151     0.4 7   77  35 
 RUS  HZ EP        435 56.93                             145    -0.310   97 179 
 RUS  HE ES        436 15.74                             145     0.110   97 179 
 RUS  HZ I         436 17.68         7.3 0.33                            97 179 
 BRI  SZ EP   1    435 57.89                             141     0.1 7  110  18 
 GRA  SZ EP        435 59.12                             137     0.010  128  15 
 GRA  SZ ES   1    436 18.38                             137    -0.6 7  128  15 
 GRA  SZ I         436 21.76         6.1 0.34                           128  15 
 OCA  SZ EP   1    436  2.25                             129    -0.2 7  164 352 
 OCA  SZ ES   1    436 24.75                             129    -0.1 7  164 352 
 OCA  SZ I         436 25.67         5.2 0.32                           164 352 
 PRA  HZ EP        436 27.29                             107     0.1 6  392 210 
                                                                                
