 2010  629 0222 17.0 L   6.771 -73.118148.0  RSN  8 0.5 1.7LRSN                1
 GAP=159        0.98       5.2    10.6  9.4 -0.1542E+02 -0.1466E+02 -0.2013E+01E
 Epicentro: LOS SANTOS - SANTANDER                                             3
 ACTION:UP  10-08-24 10:13 OP:vdl  STATUS:               ID:20100629022217 L   I
 2010-06-29-0217-53S.COL___118                                                 6
 STAT SP IPHASW D HRMM SECON CODA AMPLIT PERI AZIMU VELO SNR AR TRES W  DIS CAZ7
 BAR2 SZ EP   1    222 36.27                             172    -0.5 7   21 200 
 BAR2 SZ ES   2    222 52.20                             172    -0.1 5   21 200 
 BRR  HZ EP        222 38.19                             152    -0.410   75 300 
 BRR  HZ I         222 38.74        11.5 0.08                            75 300 
 BRR  HE ES   1    222 55.88                             152     0.4 7   75 300 
 RUS  HZ EP   2    222 40.91                             145     0.2 5   97 178 
 RUS  HN ES   1    222 59.32                             145     0.1 7   97 178 
 RUS  HZ I         223  0.55         4.7 0.43                            97 178 
 BRI  SZ EP   1    222 40.79                             142    -0.4 7  110  19 
 GUE  SZ EP   1    222 41.37                             139    -0.7 7  119  10 
 GRA  SZ EP        222 43.19                             137     0.610  128  16 
 GRA  SZ ES   1    223  2.99                             137     0.4 7  128  16 
 OCA  SZ ES   2    223  8.12                             130    -0.1 5  164 352 
 PRA  HZ EP   1    223 11.20                             107     0.8 4  391 210 
 PRA  HZ I         223 12.02         2.0 0.20                           391 210 
 PRA  HE ES   2    223 52.50                             107     0.4 3  391 210 
                                                                                
