 2011  929 0548 49.5 L   6.788 -73.167141.4  RSN  6 0.4 1.6LRSN                1
 GAP=134        0.72       4.7     4.4  6.9  0.1753E+01  0.1087E+02  0.2871E+01E
 Epicentro: LOS SANTOS - SANTANDER                                             3
 ACTION:UPD 12-07-13 16:00 OP:ep   STATUS:               ID:20110929054849 L   I
 2011-09-29-0545-54S.COL___168                                                 6
 STAT SP IPHASW D HRMM SECON CODA AMPLIT PERI AZIMU VELO AIN AR TRES W  DIS CAZ7
 BAR2 SZ EP   1    549  8.43                             171   -0.18 7 21.8 184 
 BAR2 SZ ES   1    549 23.23                             171   -0.26 7 21.8 184 
 BAR2 SZ I         549 25.45         7.8 0.28                          21.8 184 
 BRR  HZ EP   1    549 10.32                             152    0.18 7 69.8 300 
 BRR  HN ES   1    549 27.03                             152    0.83 7 69.8 300 
 BRR  HZ I         549 30.05        10.5 0.13                          69.8 300 
 PAM  SZ EP   1    549 11.58                             149    0.14 7 79.9  40 
 PAM  SN ES   1    549 28.09                             149   -0.44 7 79.9  40 
 RUS  HZ EP   1    549 12.98                             143    0.20 7 99.5 175 
 RUS  HZ I         549 14.28         5.3 0.12                          99.5 175 
 RUS  HN ES   1    549 30.97                             143    0.05 7 99.5 175 
 ZAR  HN ES   1    549 46.05                             122   -0.43 6  202 293 
 ZAR  HZ I         549 49.17         5.3 0.07                           202 293 
 HEL  HZ EP   1    549 29.37                             114    0.13 6  269 256 
 HEL  HN ES   1    549 59.76                             114   -0.45 6  269 256 
                                                                                
