 2012  229 0210 52.3 L   6.791 -73.132144.9  RSN 16 0.3 3.0LRSN                1
 GAP=127        0.72       2.4     2.9  3.6 -0.1760E+01  0.2295E+01  0.1881E+01E
 ACTION:UP  12-03-07 16:35 OP:epov STATUS:               ID:20120229021052 L   I
 2012-02-29-0210-00M.COL___191                                                 6
 STAT SP IPHASW D HRMM SECON CODA AMPLIT PERI AZIMU VELO AIN AR TRES W  DIS CAZ7
 BAR2 SZ EP        211 11.98                             171    0.1610 22.6 194 
 BAR2 SZ ES        211 26.63                             171   -0.4110 22.6 194 
 BAR2 SZ I         211 28.72       273.0 0.16                          22.6 194 
 BRR  HZ IP     C  211 13.89                             152    0.4210 73.0 299 
 BRR  HE ES        211 30.32                             152    0.3510 73.0 299 
 BRR  HZ I         211 35.58       176.2 0.20                          73.0 299 
 PAM  SZ EP        211 14.94                             151    0.5210 77.2  38 
 PAM  SN ES        211 31.55                             151   -0.1210 77.2  38 
 RUS  HZ EP        211 16.02                             144    0.1310 99.5 177 
 RUS  HE ES   1    211 33.92                             144   -0.37 7 99.5 177 
 RUS  HZ I         211 36.46        83.5 0.49                          99.5 177 
 PTB  HZ EP        211 18.68                             131   -0.64 9  149 259 
 OCA  SZ EP        211 20.68                             129    0.01 9  161 353 
 ZAR  HZ EP   1    211 24.49                             122   -0.39 6  206 292 
 ZAR  HN ES   1    211 49.67                             122   -0.62 6  206 292 
 ZAR  HZ I         211 55.33       115.3 0.21                           206 292 
 NOR  SZ EP        211 28.16                             118    0.10 8  235 235 
 NOR  SE ES        211 56.08                             118    0.14 8  235 235 
 CHI  HZ EP        211 30.14                             117    0.24 8  248 196 
 CHI  HN ES        211 59.29                             117    0.08 8  248 196 
 CHI  HZ I         212  3.28        62.7 0.59                           248 196 
 HEL  HZ EP   1    211 32.86                             114    0.25 6  273 256 
 HEL  HE ES   1    212  4.25                             114    0.20 6  273 256 
 HEL  HZ I         212 10.25        53.9 0.38                           273 256 
 VIL  SZ EP   1    211 35.76                             112    0.15 5  303 192 
 VIL  SN ES   1    212  9.31                             112   -0.07 5  303 192 
 VIL  SZ I         212 19.87        51.1 0.25                           303 192 
 GUY  SZ EP        211 36.21                             112   -0.01 7  304 235 
 GUY  SE ES   1    212 10.37                             112   -0.09 5  304 235 
 GUY  SZ I         212 19.03       100.6 0.38                           304 235 
 RREF HZ EP   1    211 38.53                             111    0.06 5  322 230 
 TOL  SZ EP   1    211 40.70                             109    0.13 5  344 225 
 SDV  BZ EP        211 41.54                             108   -0.72 6  360  50 
 PRA  HZ EP        211 45.50                             106   -0.28 6  392 210 
 PRA  HN ES        212 27.38                             106   -0.11 6  392 210 
                                                                                
