 2013  629 0312 37.7 L   6.834 -73.109149.3  RSN 22 0.5 3.0LRSN 3.3WRSN        1
 SPEC AVERAGE  MO 14.0 ST 27.8 OM  2.4 f0 4.44 R0.4111 AL 1.96 WI  9.5 MW  3.3 3
 SPEC SD       MO  0.3 ST 48.0 OM  0.4 f0 1.91 R0.1472 AL      WI      MW  0.2 3
 GAP= 68        0.94       2.3     3.2  5.1 -0.1043E+01  0.5436E+01  0.1559E+01E
 Epicentro: LOS SANTOS - SANTANDER                                             3
 SPEC VIL SH N MO 14.3 ST  5.2 OM  2.4 f0 2.75 R0.5651 AL 1.58 WI 16.7 MW  3.5 3
 SPEC VIL SH N T 31353 K 0.000 GD  342 VS 4.20 DE 3.20 Q0300.0 QA 0.60 VS 4.20 3
 SPEC TAM HH N MO 13.8 ST  1.7 OM  2.1 f0 2.78 R0.5590 AL 1.68 WI  7.2 MW  3.2 3
 SPEC TAM HH N T 31327 K 0.000 GD  213 VS 4.20 DE 3.20 Q0300.0 QA 0.60 VS 4.20 3
 SPEC PRA HH N MO 13.8 ST  4.1 OM  1.8 f0 3.75 R0.4144 AL 1.06 WI  6.5 MW  3.2 3
 SPEC PRA HH N T 31414 K 0.000 GD  424 VS 4.20 DE 3.20 Q0300.0 QA 0.60 VS 4.20 3
 SPEC PTB HH N MO 13.9 ST  4.7 OM  2.2 f0 3.62 R0.4293 AL 0.79 WI 14.3 MW  3.2 3
 SPEC PTB HH N T 31323 K 0.000 GD  213 VS 4.20 DE 3.20 Q0300.0 QA 0.60 VS 4.20 3
 SPEC RUS HH N MO 14.0 ST  2.2 OM  2.3 f0 2.75 R0.5651 AL 1.76 WI  5.6 MW  3.2 3
 SPEC RUS HH N T 31320 K 0.000 GD  181 VS 4.20 DE 3.20 Q0300.0 QA 0.60 VS 4.20 3
 SPEC NOR HH N MO 14.5 ST174.0 OM  2.7 f0 7.50 R0.2072 AL 4.04 WI 14.7 MW  3.6 3
 SPEC NOR HH N T 31340 K 0.000 GD  282 VS 4.20 DE 3.20 Q0300.0 QA 0.60 VS 4.20 3
 SPEC OCA HH N MO 14.5 ST 53.4 OM  2.8 f0 5.12 R0.3035 AL 1.36 WI  9.4 MW  3.6 3
 SPEC OCA HH N T 31327 K 0.000 GD  216 VS 4.20 DE 3.20 Q0300.0 QA 0.60 VS 4.20 3
 SPEC PAM SH N MO 13.4 ST  1.9 OM  1.8 f0 3.98 R0.3905 AL 2.07 WI  5.3 MW  2.9 3
 SPEC PAM SH N T 31317 K 0.000 GD  165 VS 4.20 DE 3.20 Q0300.0 QA 0.60 VS 4.20 3
 SPEC COD HH N MO 13.7 ST  2.3 OM  1.7 f0 3.45 R0.4504 AL 1.48 WI  6.3 MW  3.1 3
 SPEC COD HH N T 314 5 K 0.000 GD  375 VS 4.20 DE 3.20 Q0300.0 QA 0.60 VS 4.20 3
 SPEC DBB SH Z MO 13.8 ST0.998 OM  1.8 f0 2.44 R0.6369 AL 1.53 WI 10.6 MW  3.1 3
 SPEC DBB SH Z T 314 1 K 0.000 GD  374 VS 4.20 DE 3.20 Q0300.0 QA 0.60 VS 4.20 3
 SPEC BRR HH N MO 14.0 ST 53.2 OM  2.4 f0 7.59 R0.2047 AL 3.15 WI  5.6 MW  3.3 3
 SPEC BRR HH N T 31316 K 0.000 GD  166 VS 4.20 DE 3.20 Q0300.0 QA 0.60 VS 4.20 3
 SPEC BAR2SH Z MO 13.8 ST 29.6 OM  2.2 f0 7.50 R0.2072 AL 3.01 WI 11.6 MW  3.1 3
 SPEC BAR2SH Z T 31312 K 0.000 GD  151 VS 4.20 DE 3.20 Q0300.0 QA 0.60 VS 4.20 3
 ACTION:UPD 14-01-08 09:57 OP:ep   STATUS:               ID:20130629031237 L   I
 OLDACT:UP  13-06-29 09:00 OP:carl STATUS:               ID:20130629030959     3
 OLDACT:REG 13-06-29 07:50 OP:carl STATUS:               ID:20130629030959     3
 2013-06-29-0309-59M.COL___267                                                 6
 STAT SP IPHASW D HRMM SECON CODA AMPLIT PERI AZIMU VELO AIN AR TRES W  DIS CAZ7
 BAR2 SZ IP     D  312 57.79                             169   -0.0910 27.9 197 
 BAR2 SZ ES   1    313 12.90                             169   -0.70 7 27.9 197 
 BAR2 SZ I         313 15.42       182.1 0.24            168           27.9 197 
 GIR2 SZ EP        312 57.84                             169    0.0910 28.7 341 
 PAM  SZ IP     C  313  0.52                             153    0.5110 71.9  39 
 PAM  SN ES   1    313 17.74                             153    0.35 7 71.9  39 
 PAM  SZ I         313 21.10        34.0 0.28            152           71.9  39 
 BRR  HZ IP     C  312 59.59                             152    0.2210 73.2 294 
 BRR  HN ES   1    313 16.88                             152    0.63 7 73.2 294 
 BRR  HN I         313 20.39       448.7 0.14            154           73.2 294 
 RUS  HZ IP     D  313  1.66                             144   -0.4210  104 178 
 RUS  HN ES   1    313 20.16                             144   -0.92 7  104 178 
 RUS  HZ I         313 21.62        93.7 0.26            143            104 178 
 TAM  HZ IP     D  313  5.94                             132    0.52 9  152 107 
 TAM  HZ I         313 26.69        42.8 0.46            130            152 107 
 TAM  HN ES   1    313 27.60                             132    0.58 7  152 107 
 PTB  HZ IP   4 C  313  4.24                             132   -1.17 0  153 258 
 PTB  HN ES   4    313 25.03                             132   -1.98 0  153 258 
 PTB  HZ I         313 30.44        90.8 0.14            133            153 258 
 OCA  HZ EP   1    313  6.31                             131    0.29 7  157 352 
 OCA  HE ES   1    313 27.67                             131   -0.42 7  157 352 
 OCA  HZ I         313 33.38       209.5 0.18            131            157 352 
 YOP  SZ EP        313  8.31                             127    0.13 9  180 155 
 YOP  SE ES   1    313 31.51                             127   -0.43 7  180 155 
 YOP  SZ I         313 41.39        57.2 0.64            126            180 155 
 NOR  HZ EP        313 13.72                             119   -0.53 8  240 234 
 NOR  HE ES   1    313 42.60                             119   -0.14 6  240 234 
 NOR  HZ I         313 46.30        96.1 0.24            119            240 234 
 SML  HZ EP        313 13.96                             118   -0.41 8  242 334 
 SML  HN ES   1    313 42.51                             118   -0.45 6  242 334 
 SML  HZ I         313 45.58       200.1 0.10            119            242 334 
 CHI  HZ IP     C  313 15.83                             117   -0.30 8  253 196 
 CHI  HN ES   1    313 45.56                             117   -0.52 6  253 196 
 CHI  HZ I         313 52.94        27.2 0.40            117            253 196 
 ROSC BZ EP        313 17.36                             117    0.74 8  258 211 
 ROSC BN ES        313 47.10                             117    0.15 8  258 211 
 HEL  HZ EP   1    313 19.10                             115    0.44 6  277 255 
 HEL  HN ES   1    313 51.81                             115    1.22 6  277 255 
 HEL  HZ I         313 57.13        72.4 0.30            115            277 255 
 GUY2CHZ EP        313 22.08                             113   -0.03 7  307 235 
 GUY2CHN ES   1    313 57.83                             113    1.09 5  307 235 
 GUY2CHZ I         314  4.41        67.2 0.44                           307 235 
 VIL  SZ EP   1    313 21.58                             112   -0.23 5  308 192 
 VIL  SN ES   1    313 56.14                             112   -0.06 5  308 192 
 VIL  SZ I         314  2.93        47.4 0.52            112            308 192 
 RREF HZ EP   1    313 24.84                             111    0.19 5  327 229 
 RREF HN ES        314  1.93                             111    0.68 7  327 229 
 RREF HZ I         314  9.59        72.9 0.28            111            327 229 
 DBB  SZ EP        313 25.44                             110   -0.34 7  343 274 
 DBB  SZ ES   4    314  1.47                             110   -1.80 0  343 274 
 DBB  SZ I         314  8.23        22.5 0.38            110            343 274 
 COD  HZ EP   1    313 25.56                             110   -0.30 5  345 354 
 COD  HE ES        314  2.77                             110   -0.64 7  345 354 
 COD  HZ I         314 10.27        12.5 0.24            110            345 354 
 PRA  HZ EP        313 31.29                             107   -0.69 6  397 210 
 PRA  HN ES        314 13.95                             107   -0.35 6  397 210 
 PRA  HZ I         314 22.52        43.4 0.22            107            397 210 
 ORTC HZ EP   1    313 32.54                             107    0.14 4  401 216 
 ORTC HN ES   1    314 15.10                             107    0.05 4  401 216 
 PAL  HZ EP        313 33.54                             106   -0.10 6  411 239 
 PAL  HE ES        314 16.74                             106   -0.51 6  411 239 
                                                                                
