 2014  729 0133 16.6 L   6.859 -73.172146.7  RSN 26 0.5 3.3LRSN                1
 GAP= 68        1.02       2.6     2.8  4.7 -0.2651E+00  0.5116E+01  0.5966E+00E
 Epicentro: ZAPATOCA - SANTANDER                                               3
 ACTION:UPD 15-03-16 20:47 OP:nd   STATUS:               ID:20140729013316 L   I
 OLDACT:UP  14-07-29 15:02 OP:mh   STATUS:               ID:20140729013000     3
 OLDACT:UP  14-07-29 14:49 OP:mh   STATUS:               ID:20140729013000     3
 OLDACT:UP  14-07-29 14:49 OP:mh   STATUS:               ID:20140729013000     3
 OLDACT:REG 14-07-29 12:20 OP:mh   STATUS:               ID:20140729013000     3
 2014-07-29-0130-00M.COL___282                                                 6
 STAT SP IPHASW D HRMM SECON CODA AMPLIT PERI AZIMU VELO AIN AR TRES W  DIS CAZ7
 BAR2 SZ EP     D  133 36.51                             168    0.0210 29.5 182 
 BAR2 SZ ES        133 52.11                             168    0.1010 29.5 182 
 BAR2 SZ I         133 54.36       304.9 0.66            168           29.5 182 
 PAM  SZ EP     C  133 39.17                             152    0.4110 74.5  44 
 PAM  SN ES        133 56.10                             152    0.0610 74.5  44 
 RUS  HZ EP     C  133 40.57                             142   -0.3810  107 175 
 RUS  HZ I         133 41.51       203.5 0.18            145            107 175 
 RUS  HN ES        133 59.58                             142   -0.3510  107 175 
 PTB  HZ EP     D  133 43.15                             132   -0.38 9  146 256 
 PTB  HN ES        134  3.98                             132   -0.55 9  146 256 
 PTB  HZ I         134 11.50       259.1 0.24            132            146 256 
 TAM  HZ EP     C  133 44.94                             130    0.15 9  160 107 
 TAM  HE ES        134  6.55                             130   -0.21 9  160 107 
 TAM  HZ I         134  7.32       182.2 0.12            135            160 107 
 SPBC HZ EP     C  133 45.47                             128   -0.03 9  167 217 
 SPBC HN ES   1    134  8.08                             128    0.05 7  167 217 
 ZAR  HZ EP        133 49.06                             123    0.46 9  199 291 
 ZAR  HN ES        134 14.40                             123    0.85 9  199 291 
 CTAB SZ EP   4    133 54.17                             119    1.31 0  234 209 
 NOR  HZ EP     D  133 52.50                             118   -0.06 8  236 233 
 NOR  HN ES        134 20.56                             118   -0.04 8  236 233 
 NOR  HZ I         134 26.50       231.6 0.20            120            236 233 
 SML  HZ EP        133 53.08                             118    0.55 8  237 335 
 SML  HN ES        134 20.15                             118   -0.39 8  237 335 
 SML  HZ I         134 27.10       273.7 0.11            120            237 335 
 CHI  HZ EP        133 54.85                             117   -0.11 8  254 194 
 CHI  HN ES        134 24.91                             117    0.03 8  254 194 
 CHI  HZ I         134 32.13       121.5 0.40            119            254 194 
 ROSC BZ EP   4    133 56.60                             116    1.37 0  257 210 
 ROSC BN ES   4    134 26.64                             116    1.28 0  257 210 
 HEL  HZ EP        133 57.08                             115    0.33 8  271 254 
 HEL  HN ES        134 27.23                             115   -0.83 8  271 254 
 HEL  HZ I         134 36.37       123.6 0.10            116            271 254 
 CVER SZ EP   4    133 59.20                             114    1.63 0  277 201 
 URE  HZ EP        133 56.48                             114   -0.68 7  279 291 
 URE  HN ES   4    134 27.10                             114   -1.70 0  279 291 
 URE  HZ I         134 38.98       136.1 0.18            115            279 291 
 GUY2CHZ EP        134  1.35                             112    0.92 7  303 233 
 GUY2CHN ES   4    134 36.78                             112    2.17 0  303 233 
 GUY2CHZ I         134 45.03       157.9 0.35                           303 233 
 VIL  SZ EP        134  0.09                             112   -0.64 7  309 191 
 VIL  SN ES        134 35.31                             112    0.17 7  309 191 
 PTGC HZ EP   4 C  133 59.80                             111   -1.51 0  316 159 
 PTGC HN ES   4    134 33.15                             111   -3.03 0  316 159 
 PTGC HZ I         134 36.33        62.0 0.24            114            316 159 
 RREF HZ EP        134  3.33                             111    0.30 7  324 228 
 RREF HN ES   4    134 42.95                             111    3.71 0  324 228 
 CBOC HZ EP        134  4.28                             110    0.79 7  333 251 
 CBOC HN ES        134 40.50                             110    0.45 7  333 251 
 CBOC HZ I         134 50.24        52.8 0.50            111            333 251 
 DBB  SZ EP        134  4.13                             110    0.38 7  336 273 
 TOL  SZ EP        134  5.61                             109    0.40 6  346 224 
 ARGC HZ EP   4    134  4.96                             109   -0.52 0  352 340 
 ARGC HN ES   4    134 45.59                             109    1.98 0  352 340 
 ANIL HZ EP   1    134  7.74                             108    0.98 5  360 223 
 ANIL HN ES   4    134 47.44                             108    1.57 0  360 223 
 PRA  HZ EP   1    134  9.89                             106   -0.77 4  396 209 
 PRA  HN ES        134 52.73                             106   -0.09 6  396 209 
 PRA  HZ I         134 57.22       128.5 0.36            108            396 209 
 ORTC HZ EP        134 11.05                             106    0.07 6  399 215 
 ORTC HN ES        134 53.47                             106    0.08 6  399 215 
 SJC  HZ EP   1    134 10.29                             106   -1.09 4  402 327 
 SJC  HN ES   4    134 51.18                             106   -2.92 0  402 327 
 SJC  HZ I         134 55.76        50.6 0.50            108            402 327 
 YOT  HZ EP   4    134 18.89                             103   -1.04 0  474 228 
 YOT  HN ES   4    135 12.41                             103    3.08 0  474 228 
 GUA  SZ EP   4    134 18.32                             103   -2.27 0  481 173 
 GUA  SN ES   4    135  6.19                             103   -4.31 0  481 173 
 SMAR HZ EP        134 21.16                             103   -0.51 4  490 346 
 SMAR HN ES   4    135  9.36                             103   -3.07 0  490 346 
 CAP2 HN ES   4    135 10.99                             102   -4.10 0  502 293 
 PTA  HZ EP        134 22.12                             102   -2.32 4  513 274 
 MACC HZ EP   4 C  134 23.73                             101   -2.33 0  527 188 
 MACC HN ES   4    135 16.94                             101   -3.29 0  527 188 
 MACC HZ I         135 23.17        21.6 0.55            103            527 188 
 MARA HZ EP   4    134 27.28                             101   -0.81 0  541 215 
 MARA HN ES   4    135 22.15                             101   -1.69 0  541 215 
                                                                                
