 2010  529 0740 21.9 L   6.882 -73.138136.0  RSN  6 0.7 1.9LRSN                1
 GAP=171        1.33       8.7    18.5 13.4 -0.1043E+03  0.9277E+02 -0.2547E+02E
 Epicentro: LOS SANTOS - SANTANDER                                             3
 ACTION:UP  10-08-24 10:07 OP:vdl  STATUS:               ID:20100529074021 L   I
 2010-05-29-0738-27S.COL___109                                                 6
 STAT SP IPHASW D HRMM SECON CODA AMPLIT PERI AZIMU VELO SNR AR TRES W  DIS CAZ7
 GIR2 SZ EP   1    740 39.99                             170    -0.2 7   23 344 
 BAR2 SZ EP        740 39.79                             165    -0.810   32 189 
 BAR2 SZ ES   1    740 55.48                             165     0.3 7   32 189 
 GUE  SZ EP        740 45.08                             140     0.110  107  13 
 GUE  SZ ES   1    741  4.01                             140     1.0 7  107  13 
 GRA  SZ EP        740 45.60                             137     0.110  117  18 
 GRA  SZ ES   2    741  4.87                             137     0.9 5  117  18 
 OCA  SZ EP        740 48.37                             129    -0.3 9  151 352 
 OCA  SZ ES   1    741  8.67                             129    -0.8 7  151 352 
 RREF BZ EP   1    741 10.02                             108     1.6 5  328 228 
 RREF BN ES   1    741 44.88                             108     0.2 5  328 228 
 RREF BZ I         741 52.25         3.6 0.44                           328 228 
                                                                                
