 2013 1229 0605 50.7 L   6.830 -73.114146.1  RSN 17 0.5 2.5LRSN                1
 GAP=139        1.16       3.1     4.8  6.3 -0.1021E+01  0.1176E+02  0.2599E+01E
 Epicentro: LOS SANTOS - SANTANDER                                             3
 ACTION:UPD 14-01-13 10:22 OP:ep   STATUS:               ID:20131229060550 L   I
 OLDACT:UP  13-12-29 10:17 OP:PTA  STATUS:               ID:20131229060000     3
 OLDACT:UP  13-12-29 10:17 OP:PTA  STATUS:               ID:20131229060000     3
 OLDACT:REG 13-12-29 08:31 OP:mh   STATUS:               ID:20131229060000     3
 2013-12-29-0600-00M.COL___285                                                 6
 STAT SP IPHASW D HRMM SECON CODA AMPLIT PERI AZIMU VELO AIN AR TRES W  DIS CAZ7
 BAR2 SZ IP     D  6 6 10.51                             169    0.1010 27.3 196 
 BAR2 SZ ES   1    6 6 25.28                             169   -0.54 7 27.3 196 
 PAM  SZ EP        6 6 13.44                             152    0.8110 72.6  39 
 PAM  SE ES        6 6 29.98                             152    0.2110 72.6  39 
 PAM  SZ I         6 6 30.82        45.8 0.37            145           72.6  39 
 BRR  HZ IP     C  6 6 12.38                             152    0.4510 72.9 295 
 BRR  HN ES        6 6 28.94                             152    0.4110 72.9 295 
 BRR  HZ I         6 6 29.70        26.0 0.07                          72.9 295 
 RUS  HZ EP        6 6 14.56                             143   -0.1010  104 178 
 RUS  HN ES   1    6 6 32.39                             143   -1.00 7  104 178 
 RUS  HZ I         6 6 36.05       188.2 0.28                           104 178 
 PTB  HZ EP        6 6 17.17                             131   -0.85 9  152 258 
 PTB  HZ I         6 6 40.99        46.1 0.13            121            152 258 
 OCA  HZ EP        6 6 19.08                             130    0.35 9  157 352 
 OCA  HN ES        6 6 40.15                             130   -0.48 9  157 352 
 SPBC HZ EP        6 6 19.56                             128   -0.07 9  168 219 
 SPBC HZ I         6 6 47.09        37.0 0.24            118            168 219 
 ZAR  HZ EP        6 6 23.37                             122    0.04 8  206 291 
 ZAR  HN ES        6 6 49.35                             122    0.53 8  206 291 
 ZAR  HZ I         6 6 54.65        32.2 0.36            112            206 291 
 NOR  HZ EP        6 6 26.59                             118   -0.32 8  239 234 
 NOR  HN ES   1    6 6 55.24                             118    0.05 6  239 234 
 NOR  HZ I         6 6 58.56        26.4 0.16            109            239 234 
 SML  HZ EP   1    6 6 26.99                             118   -0.15 6  242 334 
 SML  HN ES        6 6 54.79                             118   -0.81 8  242 334 
 SML  HZ I         6 6 59.23        22.5 0.10            108            242 334 
 CHI  HZ EP        6 6 28.89                             117    0.07 8  253 196 
 CHI  HN ES        6 6 58.21                             117   -0.37 8  253 196 
 CHI  HZ I         6 7  4.18         8.3 0.22            108            253 196 
 ROSC BZ EP   4    6 6 27.83                             116   -1.47 0  257 211 
 ROSC BN ES   1    6 7  0.27                             116    0.84 6  257 211 
 HEL  HZ EP        6 6 31.97                             114    0.62 7  276 255 
 HEL  HN ES        6 7  3.06                             114   -0.03 7  276 255 
 HEL  HZ I         6 7 10.33        17.8 0.25            106            276 255 
 URE  HZ EP        6 6 30.98                             113   -0.99 7  286 291 
 URE  HN ES   4    6 7  2.76                             113   -1.44 0  286 291 
 GUY2CHZ EP   1    6 6 35.44                             112    0.62 5  306 235 
 GUY2CHN ES   4    6 7 10.75                             112    1.49 0  306 235 
 CBOC HZ EP        6 6 38.66                             110    0.58 7  338 252 
 CBOC HN ES   1    6 7 15.59                             110    0.52 5  338 252 
 SJC  HZ EP        6 6 45.39                             106   -0.74 6  408 326 
 SJC  HZ I         6 7 30.61         4.5 0.38             98            408 326 
                                                                                
