 2012  929 0922 25.4 L   6.782 -73.144138.8  RSN 11 0.4 2.0LRSN                1
 GAP=138        0.79       3.5     4.0  5.9 -0.1203E+01  0.5616E+01  0.4260E+01E
 Epicentro: LOS SANTOS - SANTANDER                                             3
 ACTION:UPD 12-10-22 14:21 OP:ep   STATUS:               ID:20120929092225 L   I
 2012-09-29-0920-00M.COL___220                                                 6
 STAT SP IPHASW D HRMM SECON CODA AMPLIT PERI AZIMU VELO AIN AR TRES W  DIS CAZ7
 BAR2 SZ EP        922 44.12                             171   -0.0610 21.4 192 
 BAR2 SZ ES   1    922 58.14                             171   -0.67 7 21.4 192 
 BAR2 SZ I         923  1.25        34.3 0.26                          21.4 192 
 GIR2 SZ EP   1    922 44.08                             166   -0.26 7 33.3 351 
 BRR  HZ EP        922 45.93                             151    0.0310 72.4 300 
 BRR  HN ES   1    923  2.60                             151    0.73 7 72.4 300 
 BRR  HZ I         923  6.93        24.8 0.14                          72.4 300 
 PAM  SZ EP        922 47.01                             149    0.0110 78.8  38 
 PAM  SN ES   1    923  3.91                             149    0.09 7 78.8  38 
 RUS  HZ EP   1    922 48.53                             143    0.18 7 98.5 176 
 RUS  HN ES   1    923  6.78                             143    0.55 7 98.5 176 
 RUS  HZ I         923  8.48        16.0 0.34                          98.5 176 
 PTB  HN ES   1    923 11.92                             130   -0.49 7  148 260 
 ZAR  HZ EP   1    922 57.60                             121    0.07 6  205 293 
 ZAR  HN ES   1    923 22.20                             121   -0.37 6  205 293 
 ZAR  HZ I         923 27.64        15.2 0.24                           205 293 
 NOR  SN ES   1    923 28.24                             117    0.11 6  234 235 
 CHI  HZ EP   1    923  1.66                             116   -0.88 6  247 195 
 CHI  HN ES   1    923 31.46                             116   -0.03 6  247 195 
 CHI  HZ I         923 35.12         4.2 0.36                           247 195 
 HEL  HZ EP   1    923  6.09                             113    0.83 6  272 256 
 HEL  HZ I         923 42.88         5.4 0.48                           272 256 
 PRA  HZ EP   1    923 18.49                             105   -0.03 4  390 210 
 PRA  HN ES   1    924  0.22                             105    0.29 4  390 210 
 PRA  HN I         924  6.84         3.9 0.68                           390 210 
                                                                                
