 2014  429 0613 59.9 L   6.603 -73.523 90.0  RSN  8 0.4 1.9LRSN                1
 GAP=224        0.81       4.3     5.4  9.0  0.7037E+00 -0.1309E+02 -0.1302E+02E
 Epicentro: EL CARMEN DE CHUCURI - SANTANDER                                   3
 ACTION:UPD 14-05-13 23:12 OP:nd   STATUS:               ID:20140429061359 L   I
 OLDACT:UP  14-04-29 15:46 OP:mh   STATUS:               ID:20140429061000     3
 OLDACT:REG 14-04-29 13:15 OP:mh   STATUS:               ID:20140429061000     3
 2014-04-29-0610-00M.COL___270                                                 6
 STAT SP IPHASW D HRMM SECON CODA AMPLIT PERI AZIMU VELO AIN AR TRES W  DIS CAZ7
 PTB  HZ IP     D  614 18.11                             127   -0.2010  103 266 
 PTB  HN ES        614 32.73                             127    0.0310  103 266 
 PTB  HZ I         614 34.27        18.4 0.11            134            103 266 
 SPBC HZ EP        614 20.09                             122   -0.1410  121 210 
 SPBC HN ES        614 36.52                             122    0.3910  121 210 
 SPBC HZ I         614 40.12        14.6 0.14            129            121 210 
 ZAR  HN ES   4    614 50.33                             112    3.43 0  177 304 
 NOR  HZ EP        614 26.86                             111   -0.73 9  188 232 
 NOR  HN ES   1    614 48.71                             111   -0.51 7  188 232 
 NOR  HZ I         614 53.07         8.6 0.16            115            188 232 
 HEL  HZ EP        614 32.55                             107    0.08 8  227 259 
 HEL  HN ES        614 57.72                             107   -0.18 8  227 259 
 SML  HZ EP        614 35.05                             105    0.20 8  251 346 
 SML  HN ES   4    615  4.94                             105    2.80 0  251 346 
 SML  HZ I         615  8.35        10.9 0.05            107            251 346 
 GUY2CHZ EP   1    614 36.39                             105    0.46 6  255 233 
 GUY2CHN ES   4    615  5.19                             105    1.12 0  255 233 
 URE  HZ EP   4    614 34.31                             105   -1.19 0  256 300 
 URE  HN ES   2    615  3.07                             105   -0.23 4  256 300 
 CBOC HZ EP        614 40.08                             103    0.61 7  287 254 
 CBOC HN ES        615 10.76                             103    0.39 7  287 254 
 SJC  HZ EP   4    614 51.66                              99   -2.26 0  407 334 
 SJC  HN ES   4    615 34.31                              99   -1.77 0  407 334 
                                                                                
