 2014  529 0050 42.2 L   6.801 -73.155145.4  RSN  8 0.5 1.8LRSN                1
 GAP=200        1.22       4.7     6.4  7.7  0.7074E+01  0.1275E+02 -0.1486E+00E
 Epicentro: LOS SANTOS - SANTANDER                                             3
 ACTION:UPD 15-03-16 17:01 OP:nd   STATUS:               ID:20140529005042 L   I
 OLDACT:REG 14-05-29 13:33 OP:stll STATUS:               ID:20140529004810     3
 2014-05-29-0048-10M.COL___256                                                 6
 STAT SP IPHASW D HRMM SECON CODA AMPLIT PERI AZIMU VELO AIN AR TRES W  DIS CAZ7
 BAR2 SZ EP        051  1.67                             170   -0.0810 23.3 188 
 BAR2 SZ ES        051 16.69                             170   -0.3310 23.3 188 
 BAR2 SZ I         051 18.11        20.2 0.44            168           23.3 188 
 BRR  HZ EP        051  3.71                             153    0.4910 70.2 299 
 BRR  HN ES        051 20.25                             153    0.6110 70.2 299 
 BRR  HZ I         051 22.03        11.3 0.26            150           70.2 299 
 RUS  HZ EP        051  5.63                             144   -0.2610  101 175 
 RUS  HN ES        051 24.42                             144    0.0210  101 175 
 RUS  HZ I         051 25.38         6.8 0.28            146            101 175 
 PTB  HZ EP        051  8.60                             132   -0.41 9  147 259 
 PTB  HN ES        051 29.47                             132   -0.48 9  147 259 
 PTB  HZ I         051 37.02         8.7 0.42            131            147 259 
 SPBC HZ EP        051 10.58                             129   -0.00 9  163 219 
 SPBC HZ I         051 10.88        11.3 0.56            129            163 219 
 SPBC HN ES        051 33.16                             129    0.41 9  163 219 
 ZAR  HZ EP        051 14.40                             122   -0.08 9  203 292 
 ZAR  HN ES        051 39.99                             122    0.30 9  203 292 
 ZAR  HZ I         051 45.92         6.1 0.34            123            203 292 
 SML  HN ES        051 46.60                             117   -0.61 8  243 335 
 GUY2CHZ EP        051 27.03                             112    1.36 7  300 235 
 GUY2CHE ES        051 58.64                             112   -0.96 7  300 235 
 GUY2CHZ I         052  8.03         4.0 0.30                           300 235 
                                                                                
