 2017  129 0022 57.5 L   6.749 -73.134143.2  RSN  6 0.4 1.5LRSN                1
 GAP=140        1.05       5.2     4.7  7.1  0.2309E+01  0.8599E+01 -0.1841E+01E
 Epicentro: LOS SANTOS - SANTANDER                                             3
 ACTION:UPD 17-05-22 16:04 OP:jn   STATUS:               ID:20170129002257 L   I
 OLDACT:DUP 17-01-29 15:16 OP:lv   STATUS:               ID:20170129001742d    3
 2017-01-29-0018-00M.COL___342                                                 6
 STAT SP IPHASW D HRMM SECON CODA AMPLIT PERI AZIMU VELO AIN AR TRES W  DIS CAZ7
 BAR2 EZ EP        023 16.15                             172   -0.6110 18.1 197 
 BAR2 EZ ES        023 31.82                             172    0.0610 18.1 197 
 BAR2 EZ I         023 32.69        10.7 0.11            173           18.1 197 
 BRR  HZ EP        023 18.87                             151    0.2310 75.2 302 
 BRR  HN ES        023 35.58                             151    0.4810 75.2 302 
 BRR  HZ I         023 36.01         5.1 0.28            150           75.2 302 
 PAM  EZ IP     D  023 19.83                             149    0.1310 81.0  36 
 PAM  EN ES        023 36.57                             149   -0.4210 81.0  36 
 PAM  EZ I         023 38.98         7.1 0.62            150           81.0  36 
 RUS  HZ EP        023 21.01                             145    0.3810 94.9 177 
 RUS  HN ES        023 38.91                             145    0.2710 94.9 177 
 RUS  HZ I         023 40.34         3.0 0.34            147           94.9 177 
 PTB  HZ EP        023 23.89                             131   -0.43 9  148 261 
 PTB  HN ES        023 44.52                             131   -0.70 9  148 261 
 PTB  HZ I         023 47.16         4.3 0.16            131            148 261 
 ZAR  HZ EP        023 30.47                             121    0.30 8  207 293 
 ZAR  HN ES        023 55.96                             121    0.34 8  207 293 
 ZAR  HZ I         024  1.84         4.5 0.24            122            207 293 
 SJC  HZ EP   4    023 51.87                             105   -1.79 0  415 327 
                                                                                
