 2014  129 0349 23.3 L   6.796 -73.151152.0  RSN  6 0.5 1.4LRSN                1
 GAP=136        1.21       5.2     6.3  8.1  0.1152E+01  0.8240E+01 -0.8415E+01E
 Epicentro: LOS SANTOS - SANTANDER                                             3
 ACTION:UPD 14-03-13 09:59 OP:ep   STATUS:               ID:20140129034923 L   I
 OLDACT:REG 14-01-29 08:20 OP:stll STATUS:               ID:20140129034816     3
 2014-01-29-0348-16M.COL___245                                                 6
 STAT SP IPHASW D HRMM SECON CODA AMPLIT PERI AZIMU VELO AIN AR TRES W  DIS CAZ7
 BAR2 SZ EP        349 43.39                             171   -0.3010 22.8 189 
 BAR2 SZ ES        349 59.12                             171   -0.4610 22.8 189 
 BAR2 SZ I         350  2.03         5.3 0.46            172           22.8 189 
 BRR  HZ EP        349 45.59                             154    0.4610 70.9 299 
 BRR  HN ES        350  3.17                             154    1.0310 70.9 299 
 PAM  SZ EP        349 46.25                             152    0.0110 78.1  40 
 PAM  SN ES        350  4.18                             152    0.0610 78.1  40 
 PAM  SZ I         350  6.29         5.1 0.62            154           78.1  40 
 RUS  HZ EP        349 47.93                             145    0.2710  100 176 
 RUS  HN ES        350  6.45                             145   -0.2010  100 176 
 RUS  HZ I         350  8.05         1.1 0.40            148            100 176 
 PTB  HZ EP        349 50.89                             134    0.14 9  147 259 
 PTB  HN ES        350 11.63                             134   -0.51 9  147 259 
 PTB  HZ I         350 17.23         3.5 0.54            134            147 259 
 SML  HZ EP        350  0.39                             119    0.07 8  244 335 
 SML  HN ES        350 28.27                             119   -0.91 8  244 335 
 SML  HZ I         350 34.37         2.9 0.26            120            244 335 
                                                                                
