 2016  629 0001 27.6 L   6.790 -73.154142.3  RSN 25 0.5 2.8LRSN                1
 GAP= 71        1.15       2.8     2.9  4.8 -0.9651E+00  0.4017E+01  0.1659E+01E
 Epicentro: LOS SANTOS - SANTANDER                                             3
 ACTION:UPD 16-07-21 22:23 OP:rebc STATUS:               ID:20160629000127 L   I
 OLDACT:UP  16-06-29 13:50 OP:edw  STATUS:               ID:20160629000000     3
 OLDACT:REG 16-06-29 12:24 OP:edw  STATUS:               ID:20160629000000     3
 2016-06-29-0000-00M.COL___346                                                 6
 STAT SP IPHASW D HRMM SECON CODA AMPLIT PERI AZIMU VELO AIN AR TRES W  DIS CAZ7
 BAR2 EZ IP     C  0 1 46.75                             171   -0.0710 22.1 188 
 BAR2 EZ ES        0 2  2.03                             171    0.2410 22.1 188 
 BAR2 EZ I         0 2  2.93       248.1 0.38                          22.1 188 
 BRR  HZ IP     C  0 1 48.53                             152    0.1410 70.9 300 
 BRR  HE ES        0 2  5.64                             152    1.0610 70.9 300 
 BRR  HZ I         0 2  9.56       108.8 0.36                          70.9 300 
 PAM  EZ EP        0 1 49.55                             150   -0.0110 78.8  40 
 PAM  EN ES        0 2  6.91                             150    0.2410 78.8  40 
 PAM  EZ I         0 2  9.21        85.2 0.62                          78.8  40 
 RUS  HZ EP        0 1 50.62                             143   -0.3510 99.6 175 
 RUS  HE ES        0 2  8.65                             143   -0.5210 99.6 175 
 RUS  HZ I         0 2 10.35        79.1 0.52                          99.6 175 
 PTB  HZ EP        0 1 53.59                             131   -0.62 9  147 259 
 PTB  HN ES        0 2 14.40                             131   -0.55 9  147 259 
 PTB  HZ I         0 2 20.09        85.9 0.18                           147 259 
 TAM  HZ EP        0 1 55.12                             130    0.02 9  156 105 
 TAM  HN ES        0 2 16.83                             130    0.31 9  156 105 
 TAM  HZ I         0 2 16.88        31.1 0.32                           156 105 
 SPBC HZ EP        0 1 55.70                             129   -0.03 9  162 219 
 SPBC HN ES        0 2 16.89                             129   -0.76 9  162 219 
 SPBC HZ I         0 2 19.42       111.1 0.28                           162 219 
 ZAR  HZ EP        0 2  0.10                             122    0.30 9  204 293 
 ZAR  HN ES        0 2 24.30                             122   -0.60 9  204 293 
 ZAR  HZ I         0 2 31.05        83.9 0.56                           204 293 
 NOR  HZ EP        0 2  3.02                             118    0.01 8  233 235 
 NOR  HN ES        0 2 30.46                             118   -0.15 8  233 235 
 NOR  HZ I         0 2 37.10        30.3 0.20                           233 235 
 CHI  HZ IP     C  0 2  5.04                             117    0.04 8  247 195 
 CHI  HN ES        0 2 33.47                             117   -0.68 8  247 195 
 CHI  HZ I         0 2 39.57        25.1 0.32                           247 195 
 ROSC BZ EP        0 2  6.18                             116    0.77 8  251 211 
 ROSC BE ES        0 2 35.02                             116    0.14 8  251 211 
 ROSC BZ I         0 2 41.42        94.3 0.40                           251 211 
 HEL  HZ EP        0 2  8.48                             114    0.94 8  271 256 
 HEL  HN ES        0 2 38.85                             114    0.19 8  271 256 
 HEL  HZ I         0 2 46.92        25.4 0.24                           271 256 
 URE  HZ EP        0 2  8.60                             113    0.12 7  283 292 
 URE  HN ES   4    0 2 37.99                             113   -2.35 0  283 292 
 URE  HZ I         0 2 50.73        45.5 0.36                           283 292 
 GUY2CHZ EP        0 2 12.43                             112    1.51 7  300 235 
 GUY2CHE ES        0 2 45.53                             112    0.84 7  300 235 
 GUY2CHZ I         0 2 52.42        23.6 0.50                           300 235 
 VIL  SZ EP        0 2 10.45                             111   -0.30 7  302 191 
 VIL  SN ES        0 2 44.10                             111   -0.29 7  302 191 
 SOCV BZ EP   4    0 2  9.57                             111   -1.11 0  303  57 
 SOCV BE ES   4    0 2 41.43                             111   -2.82 0  303  57 
 PTGC HZ EP   4    0 2  9.86                             111   -1.40 0  308 158 
 PTGC HE ES   4    0 2 43.82                             111   -1.47 0  308 158 
 PTGC HZ I         0 2 47.54        20.3 0.66                           308 158 
 LL6C HZ EP        0 2 12.11                             110   -1.19 7  326 358 
 LL6C HE ES        0 2 48.52                             110   -0.41 7  326 358 
 ELA  HZ EP   4    0 2 52.02                             110   37.85 0  328 229 
 ELA  HN ES   4    0 3 32.95                             110   42.47 0  328 229 
 CBOC HZ EP        0 2 14.69                             109    0.43 7  332 252 
 CBOC HN ES        0 2 50.27                             109   -0.36 7  332 252 
 CBOC HZ I         0 3  1.72         8.1 0.48                           332 252 
 DBB  SZ EP        0 2 14.86                             109   -0.01 7  339 274 
 DBB  SZ ES        0 2 51.13                             109   -0.58 7  339 274 
 DBB  SZ I         0 2 52.05        54.7 0.52                           339 274 
 ANIL HZ EP        0 2 17.45                             108    0.31 6  356 225 
 ANIL HN ES        0 2 55.90                             108    0.15 6  356 225 
 ANIL HZ I         0 3  2.95        72.4 0.36                           356 225 
 ARGC HZ EP   4    0 2 16.58                             108   -0.65 0  360 341 
 ARGC HN ES   4    0 2 56.40                             108    0.47 0  360 341 
 ARGC HZ I         0 3  4.11        13.2 0.32                           360 341 
 PRA  HZ EP        0 2 20.44                             106   -0.43 6  391 210 
 PRA  HN ES        0 3  2.55                             106    0.15 6  391 210 
 PRA  HZ I         0 3  8.97        30.6 0.44                           391 210 
 ORTC HZ EP        0 2 21.35                             106    0.08 6  394 216 
 ORTC HN ES        0 3  3.21                             106    0.11 6  394 216 
 ORTC HZ I         0 3 10.37        18.6 0.54                           394 216 
 PAL  HZ EP   4    0 2 22.55                             105    0.03 0  404 239 
 PAL  HN ES   4    0 3  4.90                             105   -0.43 0  404 239 
 SJC  HZ EP   4    0 2 20.70                             105   -2.42 0  410 327 
 SJC  HN ES   4    0 3  1.62                             105   -4.79 0  410 327 
 SJC  HZ I         0 3 16.33        16.2 0.30                           410 327 
 CRJC HZ EP   4    0 2 27.00                             103   -3.17 0  469   4 
 CRJC HN ES   4    0 3 14.06                             103   -4.88 0  469   4 
 CRJC HZ I         0 3 33.01        16.4 0.14                           469   4 
 MACC HZ EP   4    0 2 33.58                             101   -2.53 0  519 189 
 MACC HZ EPg  4    0 2 42.91                             101    6.80 0  519 189 
 MACC HN ES   4    0 3 25.89                             101   -3.64 0  519 189 
                                                                                
