 2010 1029 0722  9.3 L   6.885 -72.981141.9  RSN  4 0.3 1.6LRSN                1
 GAP=259        0.60       6.8     9.0  8.2  0.3755E+02 -0.1393E+02 -0.1107E+02E
 Epicentro: CEPITA - SANTANDER                                                 3
 ACTION:UP  11-02-18 11:13 OP:tino STATUS:               ID:20101029072209 L   I
 2010-10-29-0720-00M.COL___115                                                 6
 STAT SP IPHASW D HRMM SECON CODA AMPLIT PERI AZIMU VELO SNR AR TRES W  DIS CAZ7
 BAR2 SZ EP   1    722 29.24                             164     0.3 7   39 215 
 BAR2 SZ ES   2    722 44.70                             164     0.5 5   39 215 
 BAR2 SZ I         722 45.62        13.7 0.38                            39 215 
 BRR  HZ IP     C  722 30.92                             148     0.010   84 287 
 BRR  HZ I         722 31.27        10.7 0.10                            84 287 
 BRR  HE ES   1    722 47.41                             148    -0.3 7   84 287 
 RUS  HZ EP   1    722 33.23                             140    -0.2 7  110 186 
 RUS  HZ I         722 34.20         2.6 0.39                           110 186 
 RUS  HN ES   1    722 52.10                             140    -0.2 7  110 186 
 HEL  HE ES   2    723 24.86                             112     0.3 4  292 255 
 HEL  HZ I         723 25.99         1.9 0.29                           292 255 
                                                                                
