 2011  529 0715  5.1 L   6.795 -73.118144.1  RSN 10 0.4 2.0LRSN                1
 GAP=159        0.84       3.6     7.1  6.3 -0.9160E+01  0.8899E+01  0.1388E+01E
 Epicentro: LOS SANTOS - SANTANDER                                             3
 ACTION:UP  11-06-29 08:57 OP:tino STATUS:               ID:20110529071505 L   I
 2011-05-29-0700-00M.COL___113                                                 6
 STAT SP IPHASW D HRMM SECON CODA AMPLIT PERI AZIMU VELO SNR AR TRES W  DIS CAZ7
 BAR2 SZ EP   1    715 24.47                             170    -0.1 7   24 197 
 BAR2 SZ I         715 24.87        23.3 0.12                            24 197 
 BAR2 SZ ES   1    715 39.26                             170    -0.5 7   24 197 
 BRR  HZ EP   1    715 26.31                             151     0.0 7   74 298 
 BRR  HN ES   1    715 43.30                             151     0.5 7   74 298 
 BRR  HZ I         715 46.29        32.1 0.14                            74 298 
 RUS  HZ EP   1    715 28.50                             144    -0.2 7  100 178 
 RUS  HN ES   1    715 47.33                             144     0.3 7  100 178 
 RUS  HZ I         715 48.31         8.1 0.16                           100 178 
 BRI  SZ EP   1    715 28.97                             141     0.1 7  108  19 
 GRA  SZ EP   1    715 30.26                             137     0.1 7  125  16 
 GRA  SZ ES   1    715 49.57                             137    -0.2 7  125  16 
 GRA  SZ I         715 51.17         9.8 0.23                           125  16 
 OCA  SZ EP   1    715 33.51                             129     0.1 7  161 352 
 OCA  SZ ES   1    715 55.38                             129    -0.1 7  161 352 
 OCA  SZ I         716  0.08        16.4 0.36                           161 352 
 NOR  SZ EP   1    715 40.06                             118    -0.9 6  237 235 
 NOR  SN ES   2    716  8.38                             118    -0.6 4  237 235 
 NOR  SZ I         716 13.62         1.3 0.16                           237 235 
 ROSC BZ EP   1    715 44.18                             116     0.9 6  254 212 
 HEL  HZ EP   1    715 45.50                             114    -0.1 6  275 256 
 HEL  HZ I         716 22.72         7.1 0.28                           275 256 
 PRA  HZ EP   1    715 58.76                             106     0.0 4  393 210 
 PRA  HN ES   1    716 40.89                             106     0.4 4  393 210 
 PRA  HZ I         716 45.44        14.4 0.28                           393 210 
                                                                                
