 2011 1129 0217 29.0 L   6.780 -73.099146.9  RSN  8 0.4 2.0LRSN                1
 GAP=143        0.66       3.2     5.4  5.0 -0.3785E+01  0.6750E+01  0.3017E+00E
 Epicentro: LOS SANTOS - SANTANDER                                             3
 ACTION:UPD 12-07-13 16:13 OP:ep   STATUS:               ID:20111129021729 L   I
 2011-11-29-0215-12S.COL___160                                                 6
 STAT SP IPHASW D HRMM SECON CODA AMPLIT PERI AZIMU VELO AIN AR TRES W  DIS CAZ7
 BAR2 SZ IP        217 48.74                             171   -0.0110 22.8 204 
 BAR2 SZ ES   1    218  3.35                             171   -0.81 7 22.8 204 
 BAR2 SZ I         218  5.37        31.0 0.44                          22.8 204 
 PAM  SZ EP        217 51.51                             151    0.2610 75.9  35 
 PAM  SE ES   1    218  8.81                             151    0.20 7 75.9  35 
 BRR  HZ IP     D  217 50.65                             151    0.0610 76.8 298 
 BRR  HN ES   1    218  7.82                             151    0.39 7 76.8 298 
 BRR  HZ I         218 10.70        18.1 0.20                          76.8 298 
 RUS  HZ EP        217 52.58                             145   -0.1110 98.2 179 
 RUS  HE ES   1    218 11.52                             145    0.35 7 98.2 179 
 RUS  HZ I         218 12.51        10.1 0.26                          98.2 179 
 OCA  SZ EP        217 57.27                             129   -0.39 9  163 351 
 OCA  SZ ES   2    218 20.19                             129    0.17 5  163 351 
 OCA  SZ I         218 25.49        11.3 0.27                           163 351 
 NOR  SZ EP        218  5.01                             118   -0.10 8  238 236 
 NOR  SE ES   3    218 32.77                             118   -0.51 2  238 236 
 RREF HZ EP   2    218 16.05                             111    0.57 3  324 230 
 RREF HN ES   3    218 52.00                             111    0.27 2  324 230 
 RREF HZ I         218 57.21         8.1 0.26                           324 230 
 PRA  HZ EP   2    218 22.37                             107   -0.27 3  393 210 
 PRA  HN ES   2    219  5.25                             107    0.77 3  393 210 
                                                                                
