 2017  329 0911 24.6 L   6.780 -73.116143.9  RSN  7 0.3 1.5LRSN                1
 GAP=141        0.79       3.5     3.6  5.9 -0.1307E+01  0.6101E+01 -0.2261E+01E
 Epicentro: LOS SANTOS - SANTANDER                                             3
 ACTION:UPD 17-05-25 18:46 OP:jn   STATUS:               ID:20170329091124 L   I
 OLDACT:REG 17-03-29 12:56 OP:dnl  STATUS:               ID:20170329090651     3
 2017-03-29-0908-00M.COL___355                                                 6
 STAT SP IPHASW D HRMM SECON CODA AMPLIT PERI AZIMU VELO AIN AR TRES W  DIS CAZ7
 BAR2 EZ EP        911 43.83                             171   -0.1410 22.0 199 
 BAR2 EZ ES        911 58.57                             171   -0.5210 22.0 199 
 BAR2 EZ I         912  0.67         8.9 0.34            170           22.0 199 
 BRR  HZ EP   2    911 46.06                             151    0.29 5 75.1 299 
 BRR  HN ES        912  2.56                             151    0.2810 75.1 299 
 BRR  HZ I         912  6.78         5.4 0.12            150           75.1 299 
 PAM  EZ EP        911 46.85                             151    0.2510 77.1  37 
 PAM  EN ES        912  3.63                             151   -0.1310 77.1  37 
 PAM  EZ I         912  5.66         7.1 0.52            154           77.1  37 
 RUS  HZ EP   2    911 48.30                             144    0.31 5 98.2 178 
 RUS  HN ES        912  6.70                             144    0.4710 98.2 178 
 RUS  HZ I         912  7.97         2.8 0.42            146           98.2 178 
 PTB  HZ EP   2    911 51.29                             131   -0.37 5  151 260 
 PTB  HN ES        912 12.97                             131    0.19 9  151 260 
 PTB  HZ I         912 14.75         3.4 0.20            131            151 260 
 SPBC HZ EP   2    911 53.27                             129    0.29 5  164 220 
 SPBC HN ES        912 14.75                             129   -0.37 9  164 220 
 SPBC HZ I         912 20.43         4.4 0.24            130            164 220 
 ZAR  HZ EP        911 56.78                             121   -0.54 8  208 292 
 ZAR  HE ES        912 23.10                             121    0.26 8  208 292 
 ZAR  HZ I         912 28.83         3.4 0.24            122            208 292 
                                                                                
