 2013  129 0446 43.4 L   6.687 -73.192144.0  RSN  6 0.4 1.5LRSN                1
 GAP=223        0.98       8.2     8.3  8.6  0.4211E+02  0.1109E+02  0.1708E+02E
 Epicentro: VILLANUEVA - SANTANDER                                             3
 ACTION:UPD 13-02-15 09:17 OP:ep   STATUS:               ID:20130129044643 L   I
 2013-01-29-0440-00M.COL___241                                                 6
 STAT SP IPHASW D HRMM SECON CODA AMPLIT PERI AZIMU VELO AIN AR TRES W  DIS CAZ7
 BAR2 SZ EP        447  2.19                             176   -0.4810 10.5 174 
 BAR2 SZ ES   1    447 17.10                             176   -0.57 7 10.5 174 
 BAR2 SZ I         447 19.11         7.7 0.27            174           10.5 174 
 BRR  HZ EP        447  4.56                             152    0.0010 73.9 309 
 BRR  HN ES        447 21.68                             152    0.6510 73.9 309 
 BRR  HN I         447 22.01         8.2 0.21            150           73.9 309 
 RUS  HZ EP        447  6.20                             147    0.0110 88.7 172 
 RUS  HE ES   1    447 24.56                             147    0.63 7 88.7 172 
 RUS  HE I         447 25.96         5.5 0.20            148           88.7 172 
 PTB  HZ EP   1    447  9.42                             133   -0.22 7  141 263 
 PTB  HE ES   1    447 29.50                             133   -0.58 7  141 263 
 PTB  HZ I         447 31.14         3.0 0.15            132            141 263 
 ZAR  HN ES   1    447 41.11                             122    0.03 6  205 296 
 ZAR  HZ I         447 46.96         3.3 0.37            122            205 296 
 CHI  HZ EP   1    447 20.07                             118    0.47 6  235 195 
                                                                                
