 2013  329 0417 14.2 L   6.810 -73.171144.0  RSN 12 0.5 2.2LRSN                1
 GAP= 69        0.85       3.2     3.4  5.6  0.4574E+00  0.2888E+01  0.1101E+01E
 Epicentro: LOS SANTOS - SANTANDER                                             3
 ACTION:UPD 13-04-09 14:05 OP:ep   STATUS:               ID:20130329041714 L   I
 2013-03-29-0410-00M.COL___245                                                 6
 STAT SP IPHASW D HRMM SECON CODA AMPLIT PERI AZIMU VELO AIN AR TRES W  DIS CAZ7
 BAR2 SZ IP        417 33.59                             170   -0.0710 24.1 183 
 BAR2 SZ ES   1    417 48.31                             170   -0.51 7 24.1 183 
 BAR2 SZ I         417 49.85        71.6 0.22            170           24.1 183 
 BRR  HZ IP     C  417 35.38                             153    0.3610 68.2 299 
 BRR  HN ES   1    417 52.02                             153    0.78 7 68.2 299 
 BRR  HZ I         417 57.43        25.1 0.16            150           68.2 299 
 PAM  SZ EP   1    417 36.46                             150    0.14 7 78.4  42 
 PAM  SN ES   1    417 53.82                             150    0.28 7 78.4  42 
 PAM  SZ I         417 56.44        12.0 0.48            154           78.4  42 
 RUS  HZ EP        417 37.59                             143   -0.3110  102 175 
 RUS  HN ES   1    417 56.53                             143    0.16 7  102 175 
 RUS  HZ I         417 57.39        20.0 0.30            147            102 175 
 PTB  HZ IP     D  417 40.12                             132   -0.71 9  145 258 
 PTB  HN ES   1    418  1.36                             132   -0.21 7  145 258 
 PTB  HZ I         418  8.39        19.7 0.48            132            145 258 
 TAM  HZ EP        417 42.00                             130   -0.05 9  158 105 
 TAM  HN ES   2    418  3.69                             130   -0.05 5  158 105 
 OCA  HZ EP   1    417 42.41                             130    0.14 7  159 354 
 OCA  HN ES   1    418  4.56                             130    0.42 7  159 354 
 OCA  HZ I         418 11.86        11.6 0.48            131            159 354 
 ZAR  HZ EP   1    417 46.33                             123    0.08 6  201 292 
 ZAR  HN ES   1    418 11.28                             123    0.05 6  201 292 
 ZAR  HZ I         418 17.01        16.1 0.36            123            201 292 
 SML  HZ EP   1    417 49.88                             118   -0.64 6  242 336 
 SML  HN ES   1    418 17.98                             118   -0.85 6  242 336 
 SML  HZ I         418 23.71        11.7 0.40            119            242 336 
 ROSC BZ EP   2    417 53.47                             117    1.27 4  252 210 
 ROSC BN ES   2    418 22.61                             117    0.79 4  252 210 
 ROSC BZ I         418 28.33        18.7 0.40            119            252 210 
 HEL  HZ EP   2    417 55.18                             115    1.09 4  270 255 
 HEL  HN ES   1    418 25.27                             115    0.10 6  270 255 
 HEL  HZ I         418 31.72         7.4 0.30            116            270 255 
 PRA  HZ EP   1    418  7.76                             106    0.12 4  392 209 
 PRA  HE ES   1    418 49.42                             106    0.12 4  392 209 
 PRA  HZ I         418 53.79         9.5 0.66            108            392 209 
                                                                                
