 2016  129 0842 11.8 L   6.814 -73.179145.1  RSN 14 0.3 1.9LRSN                1
 GAP=132        0.71       1.8     2.7  4.1 -0.7415E+00  0.3748E+01  0.6352E-01E
 Epicentro: ZAPATOCA - SANTANDER                                               3
 ACTION:UPD 16-03-09 23:29 OP:cam  STATUS:               ID:20160129084211 L   I
 OLDACT:UP  16-01-29 17:06 OP:cara STATUS:               ID:20160129083701d    3
 OLDACT:DUP 16-01-29 16:55 OP:cara STATUS:               ID:20160129083701d    3
 2016-01-29-0837-59S.COL___223                                                 6
 STAT SP IPHASW D HRMM SECON CODA AMPLIT PERI AZIMU VELO AIN AR TRES W  DIS CAZ7
 BAR2 EZ EP        842 31.29                             170   -0.0510 24.5 181 
 BAR2 EZ ES        842 46.54                             170   -0.0610 24.5 181 
 BAR2 EZ I         842 47.48        15.7 0.26            170           24.5 181 
 PAM  EZ EP        842 34.27                             150    0.2910 78.7  42 
 PAM  EE ES        842 51.49                             150    0.1710 78.7  42 
 PAM  EZ I         842 53.39        14.1 0.52            154           78.7  42 
 RUS  HZ EP        842 35.27                             143   -0.3110  102 174 
 RUS  HE ES        842 54.18                             143    0.0310  102 174 
 RUS  HZ I         842 55.52         5.0 0.44            146            102 174 
 PTB  HZ EP        842 38.41                             133    0.04 9  144 258 
 PTB  HN ES        842 58.94                             133   -0.18 9  144 258 
 PTB  HZ I         843  5.68         6.6 0.36            132            144 258 
 OCA  HZ EP        842 39.45                             130   -0.39 9  158 354 
 OCA  HN ES        843  1.72                             130   -0.02 9  158 354 
 OCA  HZ I         843  9.78        16.3 0.24            131            158 354 
 SPBC HZ EP        842 40.23                             129    0.13 9  162 218 
 SPBC HE ES        843  2.40                             129    0.20 9  162 218 
 SPBC HZ I         843  6.89        13.4 0.30            130            162 218 
 ZAR  HZ EP   4    842 42.97                             123   -0.78 0  200 292 
 ZAR  HN ES        843  8.64                             123   -0.06 9  200 292 
 ZAR  HZ I         843 14.60         7.3 0.36            123            200 292 
 SML  HZ EP        842 47.40                             118   -0.64 8  241 336 
 SML  HE ES        843 16.82                             118    0.49 8  241 336 
 SML  HZ I         843 25.90        11.7 0.10            118            241 336 
 CHI  HZ EP        842 49.47                             117   -0.01 8  249 194 
 CHI  HN ES        843 18.78                             117   -0.12 8  249 194 
 CHI  HZ I         843 22.23         5.6 0.58            119            249 194 
 ROSC BZ EP   4    842 51.55                             117    1.77 0  252 210 
 ROSC BN ES   4    843 21.23                             117    1.80 0  252 210 
 ROSC BZ I         843 25.72        10.1 0.55            118            252 210 
 HEL  HZ EP   4    842 54.77                             115    3.19 0  269 255 
 HEL  HN ES        843 22.12                             115   -0.52 8  269 255 
 HEL  HZ I         843 29.29         3.4 0.30            115            269 255 
 GUY2CHZ EP   4    842 56.66                             112    1.56 0  299 234 
 GUY2CHN ES   4    843 31.80                             112    2.91 0  299 234 
 GUY2CHZ I         843 37.50         3.3 0.32                           299 234 
 PTGC HZ EP   4    842 54.18                             111   -1.72 0  311 158 
 PTGC HE ES   4    843 28.27                             111   -2.06 0  311 158 
 CBOC HZ EP        842 59.18                             110    0.88 7  331 252 
 CBOC HE ES        843 35.04                             110    0.45 7  331 252 
 PRA  HZ EP        843  5.25                             106    0.05 6  391 209 
 PRA  HE ES        843 46.97                             106    0.09 6  391 209 
 PRA  HZ I         843 52.36         4.5 0.32            108            391 209 
                                                                                
