 2015 1029 0235 24.2 L   6.616 -73.405124.5  RSN  4 0.2 2.0LRSN                1
 GAP=145        0.48       5.1     5.5  5.7  0.2228E+02  0.9802E+01 -0.5037E+00E
 Epicentro: GALAN - SANTANDER                                                  3
 ACTION:UPD 15-12-22 20:43 OP:cam  STATUS:               ID:20151029022751 L   I
 OLDACT:UP  15-12-16 16:54 OP:cam  STATUS:               ID:20151029022751 L   3
 OLDACT:UP  15-12-16 16:54 OP:cam  STATUS:               ID:20151029022751 L   3
 OLDACT:UP  15-12-16 16:50 OP:cam  STATUS:               ID:20151029022751 L   3
 OLDACT:DUP 15-11-01 03:33 OP:DRIO STATUS:               ID:20151029022751 L   3
 2015-10-29-0227-51M.COL___316                                                 6
 STAT SP IPHASW D HRMM SECON CODA AMPLIT PERI AZIMU VELO AIN AR TRES W  DIS CAZ7
 BAR2 EZ EP        235 41.56                             168    0.2910 24.7  96 
 BAR2 EZ ES   1    235 54.59                             168   -0.03 7 24.7  96 
 BAR2 EZ I         235 55.14        39.4 0.40            172           24.7  96 
 BRR  HZ EP        235 42.35                             151   -0.2610 64.1 328 
 RUS  HZ EP        235 44.79                             143   -0.0910 87.5 156 
 RUS  HN ES        236  1.03                             143   -0.0110 87.5 156 
 RUS  HN I         236  1.85         6.3 0.24            144           87.5 156 
 ZAR  HZ EP   1    235 53.64                             120    0.10 7  188 301 
 ZAR  HE ES        236 16.51                             120    0.05 9  188 301 
 ZAR  HE I         236 18.21        18.4 0.50            120            188 301 
                                                                                
