 2016 1129 0829 54.5 L   6.338 -73.618109.9  RSN  5 0.4 1.3LRSN                1
 GAP=224        1.08       8.3     4.0  8.5 -0.4443E+01  0.4968E+01  0.1594E+01E
 Epicentro: SANTA HELENA DEL OPON - SANTANDER                                  3
 ACTION:UPD 17-10-26 21:12 OP:lp   STATUS:               ID:20161129082954 L   I
 OLDACT:REG 16-11-29 12:59 OP:dani STATUS:               ID:20161129082744     3
 2016-11-29-0828-00M.COL___346                                                 6
 STAT SP IPHASW D HRMM SECON CODA AMPLIT PERI AZIMU VELO AIN AR TRES W  DIS CAZ7
 BAR2 EZ EP        830 11.02                             151   -0.1910 55.7  60 
 BAR2 EZ ES        830 24.68                             151    0.4010 55.7  60 
 BAR2 EZ I         830 26.03         9.3 0.22            147           55.7  60 
 BRR  HZ EP        830 13.04                             139    0.0710 85.6 353 
 BRR  HE ES        830 27.10                             139   -0.3010 85.6 353 
 BRR  HZ I         830 33.56         2.3 0.14            134           85.6 353 
 PTB  HZ IP     C  830 12.99                             136   -0.8010 95.4 284 
 PTB  HN ES        830 29.12                             136    0.2510 95.4 284 
 PTB  HZ I         830 29.73         6.6 0.10            136           95.4 284 
 PAM  EZ EP        830 20.22                             122    0.57 9  150  42 
 PAM  EN ES        830 38.84                             122   -0.45 9  150  42 
 PAM  EZ I         830 44.80         1.1 0.64            121            150  42 
 ZAR  HZ EP        830 23.42                             115    0.42 9  187 313 
 ZAR  HN ES        830 45.43                             115    0.18 9  187 313 
 ZAR  HZ I         830 49.02         4.4 0.44            115            187 313 
                                                                                
