 2011 1029 0524 49.9 L   6.750 -73.107136.0  RSN  6 0.4 1.7LRSN                1
 GAP=144        0.62       4.6     6.7  7.8 -0.5931E+01  0.1053E+02 -0.9355E+01E
 Epicentro: JORDAN - SANTANDER                                                 3
 ACTION:UPD 12-07-13 16:06 OP:ep   STATUS:               ID:20111029052449 L   I
 2011-10-29-0521-30S.COL___176                                                 6
 STAT SP IPHASW D HRMM SECON CODA AMPLIT PERI AZIMU VELO AIN AR TRES W  DIS CAZ7
 BAR2 SZ EP        525  8.26                             172    0.0110 19.3 206 
 BAR2 SZ ES   2    525 21.92                             172   -0.67 5 19.3 206 
 BAR2 SZ I         525 23.87         7.7 0.24                          19.3 206 
 BTL  SZ EP        525  8.60                             169    0.2110 25.8 316 
 BRR  HZ EP        525 10.14                             149   -0.2410 77.7 301 
 BRR  HZ I         525 10.52        14.0 0.10                          77.7 301 
 BRR  HN ES   2    525 26.99                             149    0.62 5 77.7 301 
 PAM  SZ EP        525 11.16                             148   -0.0210 79.3  35 
 PAM  SN ES   1    525 28.06                             148    0.26 7 79.3  35 
 RUS  HN ES   1    525 29.65                             144   -0.05 7 94.8 178 
 OCA  SZ ES   3    525 38.76                             126   -1.25 2  166 352 
                                                                                
