 2012  929 0226 13.5 L   6.785 -73.146147.3  RSN  7 0.4 1.8LRSN                1
 GAP=137        0.82       4.2     4.7  7.2  0.2100E+00  0.2176E+01  0.5080E+01E
 Epicentro: LOS SANTOS - SANTANDER                                             3
 ACTION:UPD 12-10-22 14:21 OP:ep   STATUS:               ID:20120929022613 L   I
 2012-09-29-0220-00M.COL___220                                                 6
 STAT SP IPHASW D HRMM SECON CODA AMPLIT PERI AZIMU VELO AIN AR TRES W  DIS CAZ7
 BAR2 SZ EP   1    226 33.28                             171   -0.03 7 21.6 191 
 BAR2 SZ ES   1    226 48.80                             171    0.06 7 21.6 191 
 BAR2 SZ I         226 49.88        28.8 0.30                          21.6 191 
 BRR  HZ EP        226 35.06                             152    0.1810 72.0 300 
 BRR  HZ I         226 35.42        13.3 0.10                          72.0 300 
 BRR  HN ES   1    226 52.33                             152    0.78 7 72.0 300 
 PAM  SZ EP        226 36.07                             151    0.0810 78.7  39 
 PAM  SZ I         226 36.41        15.6 0.22                          78.7  39 
 PAM  SN ES   1    226 53.08                             151   -0.43 7 78.7  39 
 RUS  HZ EP   1    226 37.11                             145   -0.20 7 98.9 176 
 RUS  HN ES   1    226 55.67                             145   -0.19 7 98.9 176 
 RUS  HZ I         226 57.11         5.3 0.34                          98.9 176 
 PTB  HN ES   1    227  0.82                             132   -0.87 7  147 259 
 ZAR  HE ES   1    227 11.48                             123   -0.08 6  205 293 
 ZAR  HN I         227 17.26         8.7 0.11                           205 293 
 CHI  HZ EP   1    226 51.03                             118   -0.10 6  247 195 
 CHI  HN ES   1    227 21.13                             118    0.67 6  247 195 
 CHI  HN I         227 24.48         5.3 0.32                           247 195 
 CHI  HZ I         227 26.41         1.9 0.33                           247 195 
                                                                                
