 2013  929 0339 53.5 L   6.787 -73.161141.6  RSN  6 0.5 1.3LRSN                1
 GAP=135        1.32       6.1     6.4  9.0 -0.9611E+01  0.8249E+01  0.6172E+01E
 Epicentro: LOS SANTOS - SANTANDER                                             3
 OLDACT:REG 13-09-29 09:07 OP:stll STATUS:               ID:20130929033837     3
 ACTION:UPD 13-10-22 09:25 OP:ep   STATUS:               ID:20130929033953 L   I
 OLDACT:UP  13-09-29 11:42 OP:stll STATUS:               ID:20130929033837     3
 2013-09-29-0338-37M.COL___241                                                 6
 STAT SP IPHASW D HRMM SECON CODA AMPLIT PERI AZIMU VELO AIN AR TRES W  DIS CAZ7
 BAR2 SZ EP        340 12.35                             171   -0.2610 21.7 186 
 BAR2 SZ ES        340 26.90                             171   -0.6010 21.7 186 
 BAR2 SZ I         340 29.34         8.9 2.06            170           21.7 186 
 BRR  HZ EP        340 14.35                             152    0.1910 70.4 300 
 BRR  HZ I         340 14.51         6.1 0.26            153           70.4 300 
 BRR  HN ES        340 31.43                             152    1.1510 70.4 300 
 PAM  SZ EP        340 15.40                             149   -0.0110 79.5  40 
 PAM  SZ I         340 15.58         5.5 0.26            151           79.5  40 
 PAM  SN ES        340 32.07                             149   -0.4310 79.5  40 
 RUS  HZ EP        340 17.29                             143    0.5310 99.3 175 
 RUS  HN ES        340 35.27                             143    0.3810 99.3 175 
 RUS  HZ I         340 36.10         1.2 0.34            144           99.3 175 
 PTB  HZ EP        340 19.71                             131   -0.26 9  146 259 
 PTB  HN ES        340 39.89                             131   -0.71 9  146 259 
 PTB  HZ I         340 42.37         2.9 0.26            132            146 259 
 SPBC HZ EP        340 21.44                             128   -0.05 9  161 219 
 SPBC HN ES        340 43.23                             128   -0.08 9  161 219 
 SPBC HZ I         340 45.05         2.4 0.24            129            161 219 
                                                                                
