 2013  429 0125 29.3 L   6.772 -73.175154.9  RSN  5 0.3 1.6LRSN                1
 GAP=177        0.68       5.6     5.1  6.5  0.7036E+01  0.8111E+00  0.4668E+01E
 Epicentro: LOS SANTOS - SANTANDER                                             3
 ACTION:UPD 13-05-22 14:41 OP:EP   STATUS:               ID:20130429012529 L   I
 2013-04-29-0120-00M.COL___248                                                 6
 STAT SP IPHASW D HRMM SECON CODA AMPLIT PERI AZIMU VELO AIN AR TRES W  DIS CAZ7
 BAR2 SZ EP   1    125 49.72                             172   -0.22 7 19.9 182 
 BAR2 SZ ES        126  6.12                             172    0.0610 19.9 182 
 GIR2 SZ EP   1    125 49.86                             167   -0.24 7 34.0 357 
 GIR2 SZ ES   1    126  5.87                             167   -0.48 7 34.0 357 
 BRR  HZ EP   1    125 51.52                             154    0.17 7 70.0 302 
 BRR  HN ES        126  9.00                             154    0.4310 70.0 302 
 BRR  HN I         126  9.39         9.4 0.16            152           70.0 302 
 RUS  HZ EP   1    125 54.09                             146    0.35 7 97.8 174 
 RUS  HN ES   1    126 12.84                             146    0.02 7 97.8 174 
 RUS  HN I         126 13.96         4.8 0.38            144           97.8 174 
 PTB  HN ES        126 17.74                             135   -0.30 9  144 260 
 PTB  HN I         126 22.67         6.2 0.40            132            144 260 
                                                                                
