 2011  629 0233 19.0 L   6.801 -73.091141.6  RSN 11 0.3 2.3LRSN                1
 GAP=144        0.86       3.4     6.3  5.6 -0.7727E+01  0.4482E+01 -0.1192E+01E
 Epicentro: LOS SANTOS - SANTANDER                                             3
 ACTION:UP  11-07-14 19:09 OP:ep   STATUS:               ID:20110629023319 L   I
 2011-06-29-0232-40S.COL___140                                                 6
 STAT SP IPHASW D HRMM SECON CODA AMPLIT PERI AZIMU VELO SNR AR TRES W  DIS CAZ7
 BAR2 SZ EP        233 38.13                             169     0.010   25 204 
 BAR2 SZ ES        233 53.13                             169     0.010   25 204 
 BAR2 SZ I         233 54.23        77.3 0.23                            25 204 
 GIR2 SZ EP        233 38.20                             166     0.010   33 340 
 PAM  SZ EP        233 41.00                             151     0.510   74  36 
 PAM  SZ I         233 41.26        34.0 0.11                            74  36 
 PAM  SE ES   2    233 57.88                             151     0.5 5   74  36 
 BRR  HZ EP        233 40.00                             150     0.010   77 296 
 BRR  HN ES   1    233 56.74                             150     0.3 7   77 296 
 BRR  HZ I         233 59.41        63.4 0.21                            77 296 
 RUS  HZ EP        233 42.06                             143    -0.310  100 180 
 RUS  HE ES   1    234  0.42                             143    -0.1 7  100 180 
 RUS  HZ I         234  1.92        27.3 0.23                           100 180 
 BRI  SZ EP        233 42.72                             141     0.410  106  18 
 GRA  SZ EP        233 43.97                             136     0.210  124  15 
 GRA  SZ ES        234  2.21                             136    -0.810  124  15 
 GRA  SZ I         234  4.42        25.8 0.46                           124  15 
 OCA  SZ EP        233 46.79                             128    -0.3 9  161 351 
 OCA  SZ ES   1    234  8.93                             128     0.0 7  161 351 
 OCA  SZ I         234 12.06        31.6 0.31                           161 351 
 HEL  HZ EP   1    233 59.66                             113     0.0 6  278 256 
 HEL  HZ I         234 36.61        10.2 0.42                           278 256 
 RREF HZ EP   2    234  5.73                             110     0.2 3  326 230 
 RREF HN ES   2    234 41.55                             110    -0.2 3  326 230 
 RREF HZ I         234 48.85         9.5 0.21                           326 230 
 PRA  HZ EP   1    234 12.62                             106    -0.1 4  395 210 
 PRA  HN ES   2    234 54.41                             106    -0.3 3  395 210 
                                                                                
