 2010  729 0207 48.0 L   6.719 -73.193155.9  RSN  4 0.2 1.6LRSN                1
 GAP=154        0.43       4.6     9.3  8.3  0.2084E+02 -0.5154E+02 -0.1610E+02E
 Epicentro: VILLANUEVA - SANTANDER                                             3
 ACTION:UPD 10-12-01 15:20 OP:pat  STATUS:               ID:20100729020748 L   I
 2010-07-29-0204-35S.COL___123                                                 6
 STAT SP IPHASW D HRMM SECON CODA AMPLIT PERI AZIMU VELO AIN AR TRES W  DIS CAZ7
 BRR  HZ IP     D  2 8 10.20                             154    -0.110   72 307 
 BRR  HZ I         2 8 10.38        14.1 0.05                            72 307 
 BRR  HN ES   1    2 8 27.79                             154     0.1 7   72 307 
 RUS  HZ EP   1    2 8 12.42                             148     0.2 7   92 172 
 RUS  HN ES   2    2 8 30.86                             148    -0.2 5   92 172 
 RUS  HZ I         2 8 30.93         6.2 0.22                            92 172 
 GUE  SZ EP   1    2 8 14.39                             139    -0.1 7  126  14 
 GRA  SZ EP   2    2 8 15.20                             137     0.2 5  136  18 
 GRA  SZ I         2 8 40.57         3.1 0.19                           136  18 
                                                                                
