 2012 1129 0844 39.2 L   6.793 -73.273132.0  RSN  4 0.2 1.7LRSN                1
 GAP=190        0.63       2.5     9.7  8.7 -0.3142E+01  0.5072E+02 -0.4331E+01E
 Epicentro: ZAPATOCA - SANTANDER                                               3
 ACTION:UPD 12-12-05 15:37 OP:}ep  STATUS:               ID:20121129084439 L   I
 2012-11-29-0840-00M.COL___236                                                 6
 STAT SP IPHASW D HRMM SECON CODA AMPLIT PERI AZIMU VELO AIN AR TRES W  DIS CAZ7
 BAR2 SZ EP        844 57.69                             169    0.4610 24.4 156 
 BAR2 SZ I         844 57.85        10.0 0.40                          24.4 156 
 PAM  SZ EP        845  0.75                             145    0.0710 87.6  46 
 PAM  SN ES        845 17.40                             145   -0.0210 87.6  46 
 PAM  SN I         845 18.51         7.6 0.22                          87.6  46 
 RUS  HZ EP        845  1.73                             140   -0.0110  102 168 
 RUS  HN ES        845 19.07                             140   -0.2410  102 168 
 RUS  HN I         845 21.57         3.5 0.36                           102 168 
 OCA  HZ EP        845  6.17                             126   -0.30 9  160 358 
 OCA  HN ES        845 27.73                             126    0.00 9  160 358 
 OCA  HN I         845 31.74        19.7 0.18                           160 358 
                                                                                
