 2014  929 0158 53.7 L   6.761 -73.207140.5  RSN  4 0.6 1.4LRSN                1
 GAP=227        1.67      12.8    12.1 13.5  0.7750E+02  0.2070E+02  0.9863E+01E
 Epicentro: ZAPATOCA - SANTANDER                                               3
 ACTION:UPD 14-10-03 23:09 OP:nd   STATUS:               ID:20140929015853 L   I
 OLDACT:REG 14-09-29 13:59 OP:stll STATUS:               ID:20140929015810     3
 2014-09-29-0158-10M.COL___298                                                 6
 STAT SP IPHASW D HRMM SECON CODA AMPLIT PERI AZIMU VELO AIN AR TRES W  DIS CAZ7
 BAR2 SZ EP        159 12.45                             172   -0.1810 18.9 172 
 BAR2 SZ I         159 12.81         7.2 0.38            170           18.9 172 
 BAR2 SZ ES        159 26.16                             172   -1.2210 18.9 172 
 BRR  HZ EP        159 14.25                             153    0.1510 67.7 304 
 BRR  HZ I         159 14.43         6.1 0.18            153           67.7 304 
 BRR  HN ES        159 30.94                             153    0.9510 67.7 304 
 RUS  HZ EP        159 16.81                             144    0.1210 97.0 172 
 RUS  HN ES        159 35.41                             144    0.8010 97.0 172 
 RUS  HZ I         159 36.26         3.2 0.34            142           97.0 172 
 PTB  HZ EP        159 19.20                             132   -0.38 9  140 260 
 PTB  HZ E         159 20.29                                            140 260 
 PTB  HN ES        159 39.44                             132   -0.31 9  140 260 
 PTB  HZ I         159 41.53         2.9 0.30            131            140 260 
                                                                                
