 2014  929 0349  6.6 L   6.783 -73.174141.6  RSN 26 0.6 2.4LRSN                1
 GAP= 54        1.68       3.6     4.3  7.2 -0.1453E+01  0.8487E+01  0.4539E+01E
 Epicentro: LOS SANTOS - SANTANDER                                             3
 ACTION:UPD 14-10-03 23:09 OP:nd   STATUS:               ID:20140929034906 L   I
 OLDACT:REG 14-09-29 14:02 OP:stll STATUS:               ID:20140929034816     3
 2014-09-29-0348-16M.COL___298                                                 6
 STAT SP IPHASW D HRMM SECON CODA AMPLIT PERI AZIMU VELO AIN AR TRES W  DIS CAZ7
 BAR2 SZ EP        349 25.78                             171    0.0810 21.2 183 
 BAR2 SZ ES        349 40.46                             171   -0.1210 21.2 183 
 BAR2 SZ I         349 41.98        33.3 0.18            171           21.2 183 
 BRR  HZ EP        349 27.70                             152    0.4910 69.4 301 
 BRR  HN ES        349 44.56                             152    1.2910 69.4 301 
 BRR  HZ I         349 53.19        30.4 0.18            151           69.4 301 
 PAM  SZ EP        349 28.58                             149   -0.0210 80.8  40 
 PAM  SN ES        349 45.76                             149    0.0210 80.8  40 
 PAM  SZ I         349 48.34        52.4 0.62            153           80.8  40 
 RUS  HZ EP        349 29.40                             143   -0.4410 99.0 174 
 RUS  HN ES        349 47.70                             143   -0.2610 99.0 174 
 RUS  HZ I         349 49.94        35.5 0.32            146           99.0 174 
 PTB  HZ EP        349 32.57                             132   -0.36 9  144 259 
 PTB  HE ES        349 53.55                             132    0.09 9  144 259 
 PTB  HZ I         349 55.31        34.3 0.34            132            144 259 
 TAM  HZ IP     D  349 33.88                             129   -0.32 9  158 104 
 TAM  HZ I         349 34.00        55.7 0.20            134            158 104 
 TAM  HN ES        349 55.53                             129   -0.19 9  158 104 
 SPBC HZ EP     C  349 34.55                             128    0.08 9  160 219 
 SPBC HN ES        349 56.54                             128    0.34 9  160 219 
 SPBC HZ I         350  2.23        42.0 0.42            130            160 219 
 OCA  HZ EP        349 34.98                             128    0.23 9  162 354 
 OCA  HN ES        349 56.42                             128   -0.26 9  162 354 
 OCA  HZ I         350  1.03        28.9 0.38            131            162 354 
 ZAR  HZ EP        349 38.36                             122   -0.21 9  202 293 
 ZAR  HN ES        350  3.70                             122    0.21 9  202 293 
 ZAR  HZ I         350 11.00        27.9 0.14            123            202 293 
 SML  HZ EP        349 42.27                             116   -0.78 8  244 336 
 SML  HN ES        350 10.85                             116   -0.62 8  244 336 
 SML  HZ I         350 12.82        22.6 0.10            118            244 336 
 CHI  HZ EP        349 43.81                             116    0.01 8  246 195 
 CHI  HN ES        350 12.04                             116   -0.77 8  246 195 
 CHI  HZ I         350 19.29        10.0 0.62            119            246 195 
 ROSC BZ EP        349 45.11                             116    0.95 8  250 211 
 ROSC BE ES        350 13.58                             116    0.13 8  250 211 
 ROSC BZ I         350 23.60        21.3 0.45            118            250 211 
 GUY2CHZ EP        349 50.52                             112    0.89 7  298 235 
 GUY2CHN ES        350 22.75                             112   -0.42 7  298 235 
 GUY2CHZ I         350 32.46        18.5 0.28                           298 235 
 VIL  SZ EP        349 50.17                             111    0.60 7  301 191 
 SOCV BZ EP   9    349 48.29                             111   -1.59 0  305  57 
 SOCV BN ES        350 20.08                                   -1.96 7  305  57 
 PTGC HZ EP   9    349 48.50                             111   -1.72 0  308 158 
 PTGC HZ I         349 49.00        31.4 0.18            113            308 158 
 PTGC HN ES        350 21.66                                   -0.85 7  308 158 
 RREF HZ EP   9    349 49.26                             110   -2.91 0  318 229 
 RREF HE ES        350 23.44                                   -1.35 7  318 229 
 CBOC HZ EP        349 53.69                             109    0.74 7  330 252 
 CBOC HN ES        350 28.23                             109   -0.87 7  330 252 
 CBOC HZ I         350 36.85         6.3 0.46            111            330 252 
 DBB  SZ EP        349 53.91                             109    0.33 7  337 275 
 DBB  SZ ES        350 28.92                             109   -1.30 7  337 275 
 TOL  SZ EP        349 55.14                             109    0.84 7  340 224 
 TOL  SN ES        350 31.05                             109   -0.45 7  340 224 
 MON  HZ EP   9    349 52.93                             108   -2.38 0  352 309 
 MON  HN ES        350 30.12                                   -0.79 6  352 309 
 MON  HZ I         350 46.55         5.2 0.44            109            352 309 
 ANIL HZ EP        349 57.33                             108    1.47 6  354 224 
 ANIL HN ES        350 33.28                             108   -0.98 6  354 224 
 ANIL HZ I         350 39.57         2.7 0.34            110            354 224 
 PRA  HZ EP        349 59.09                             106   -0.54 6  389 209 
 PRA  HZ I         350  1.29        11.9 0.18            108            389 209 
 PRA  HN ES        350 40.62                             106   -0.36 6  389 209 
 ORTC HZ EP   4    349 55.76                             106   -4.25 0  392 216 
 ORTC HZ I         350  2.89         9.1 0.12            107            392 216 
 ORTC HN ES        350 41.27                             106   -0.38 6  392 216 
 ELOV BZ EP   4    349 59.40                             105   -2.48 0  409  86 
 SJC  HZ EP   9    349 59.96                             105   -2.07 0  409 327 
 SJC  HN ES        350 41.12                                   -2.06 6  409 327 
 SJC  HZ I         350 45.91         6.0 0.34            107            409 327 
 SMAR HZ EP   9    350 11.43                             101   -1.08 0  498 347 
 SMAR HN ES        350 58.50                                   -4.32 4  498 347 
                                                                                
