 2013 1229 0605 51.1 L   6.808 -73.126142.0  RSN 15 0.5 2.4LRSN                1
 GAP=139        1.06       3.2     4.5  6.2 -0.3542E+01  0.1492E+02 -0.2868E+01E
 Epicentro: LOS SANTOS - SANTANDER                                             3
 ACTION:UPD 14-01-13 10:22 OP:ep   STATUS:               ID:20131229060551 L   I
 OLDACT:UP  13-12-29 12:49 OP:mh   STATUS:               ID:20131229060448     3
 OLDACT:UP  13-12-29 12:46 OP:mh   STATUS:               ID:20131229060448     3
 OLDACT:REG 13-12-29 12:12 OP:mh   STATUS:               ID:20131229060448     3
 2013-12-29-0604-48M.COL___237                                                 6
 STAT SP IPHASW D HRMM SECON CODA AMPLIT PERI AZIMU VELO AIN AR TRES W  DIS CAZ7
 BAR2 SZ IP     D  6 6 10.52                             170    0.2010 24.7 195 
 BAR2 SZ ES        6 6 25.16                             170   -0.1510 24.7 195 
 BAR2 SZ I         6 6 26.81        75.5 0.24            163           24.7 195 
 BRR  HZ IP     C  6 6 12.37                             151    0.4210 72.7 297 
 BRR  HZ I         6 6 32.42        37.4 0.17            148           72.7 297 
 PAM  SZ EP   1    6 6 13.44                             151    0.63 7 75.3  39 
 PAM  SN ES        6 6 30.12                             151    0.3910 75.3  39 
 PAM  SZ I         6 6 30.85        45.6 0.26            145           75.3  39 
 RUS  HZ EP     C  6 6 14.53                             143   -0.0310  101 177 
 RUS  HN ES        6 6 32.55                             143   -0.2910  101 177 
 RUS  HZ I         6 6 36.30        14.6 0.33            132            101 177 
 PTB  HZ EP        6 6 17.15                             131   -0.84 9  150 259 
 PTB  HZ I         6 6 40.98        47.5 0.13            123            150 259 
 OCA  HZ EP        6 6 19.20                             129    0.12 9  160 352 
 OCA  HN ES        6 6 40.31                             129   -0.58 9  160 352 
 OCA  HZ I         6 6 43.96        26.9 0.35            123            160 352 
 SPBC HZ EP        6 6 19.56                             128    0.03 9  165 219 
 SPBC HN ES        6 6 41.23                             128   -0.46 9  165 219 
 SPBC HZ I         6 6 47.05        37.0 0.19            119            165 219 
 ZAR  HZ EP   1    6 6 24.01                             121    0.52 6  206 292 
 ZAR  HN ES        6 6 49.46                             121    0.71 8  206 292 
 NOR  HZ EP   1    6 6 26.46                             117   -0.42 6  237 235 
 NOR  HN ES        6 6 55.29                             117    0.52 8  237 235 
 NOR  HZ I         6 6 58.55        25.7 0.17            110            237 235 
 SML  HZ EP        6 6 27.01                             117   -0.53 8  244 335 
 SML  HN ES   2    6 6 55.11                             117   -0.85 4  244 335 
 SML  HZ I         6 6 59.23        22.7 0.10            110            244 335 
 CHI  HZ EP        6 6 28.90                             116    0.13 8  250 196 
 CHI  HZ I         6 7  4.19         8.1 0.23            108            250 196 
 ROSC BZ EP   4    6 6 30.79                             116    1.55 0  255 211 
 ROSC BN ES   4    6 6 56.58                             116   -2.40 0  255 211 
 HEL  HZ EP        6 6 31.85                             114    0.45 8  274 256 
 HEL  HN ES        6 7  2.45                             114   -0.37 8  274 256 
 HEL  HZ I         6 7 10.28        17.9 0.30            107            274 256 
 URE  HZ EP        6 6 31.22                             113   -0.97 7  286 292 
 URE  HN ES   4    6 7  2.89                             113   -1.34 0  286 292 
 GUY2CHZ EP   4    6 6 35.26                             111    0.45 0  303 235 
 GUY2CHN ES   4    6 7  9.29                             111    0.39 0  303 235 
 RREF HZ EP   4    6 6 38.79                             110    1.44 0  324 230 
 CBOC HZ EP        6 6 38.69                             109    0.54 7  336 252 
 CBOC HN ES        6 7 15.24                             109    0.41 7  336 252 
 CBOC HZ I         6 7 24.30         4.0 0.31            103            336 252 
 DBB  SZ EP        6 6 38.91                             109    0.23 7  342 274 
                                                                                
