 2016 1029 0815 59.2 L   6.724 -73.223143.8  RSN  4 0.3 1.2LRSN                1
 GAP=222        0.87       6.7     7.3  7.7  0.2723E+02  0.1246E+01  0.9740E+01E
 Epicentro: VILLANUEVA - SANTANDER                                             3
 ACTION:UPD 16-11-09 19:24 OP:rebc STATUS:               ID:20161029081558 L   I
 OLDACT:UP  16-11-01 14:40 OP:nlst STATUS:               ID:20161029081558 L   3
 OLDACT:UP  16-10-29 16:07 OP:dani STATUS:               ID:20161029080744     3
 OLDACT:REG 16-10-29 14:56 OP:dani STATUS:               ID:20161029080744     3
 2016-10-29-0808-00M.COL___325                                                 6
 STAT SP IPHASW D HRMM SECON CODA AMPLIT PERI AZIMU VELO AIN AR TRES W  DIS CAZ7
 BRR  HZ EP        816 19.69                             153   -0.3210 68.7 308 
 BRR  HN ES        816 36.60                             153    0.3710 68.7 308 
 BRR  HZ I         816 39.22         3.7 0.18            153           68.7 308 
 RUS  HZ EP        816 21.88                             145   -0.3710 93.2 170 
 RUS  HE ES        816 40.25                             145    0.0310 93.2 170 
 RUS  HZ I         816 41.53         2.8 0.30            148           93.2 170 
 PTB  HZ EP        816 25.40                             134    0.26 9  138 262 
 PTB  HE ES        816 45.01                             134   -0.35 9  138 262 
 PTB  HZ I         816 48.34         1.7 0.15            135            138 262 
 CHI  HZ EP        816 36.24                             118    0.55 8  238 194 
                                                                                
