 2014 1129 0349 49.8 L   6.771 -73.213148.8  RSN  6 0.5 1.4LRSN                1
 GAP=226        1.28       6.0     8.1  8.7  0.1317E+02  0.9905E+01  0.1159E+02E
 Epicentro: ZAPATOCA - SANTANDER                                               3
 ACTION:UPD 14-12-19 15:48 OP:nd   STATUS:               ID:20141129034949 L   I
 OLDACT:REG 14-11-29 13:01 OP:fm   STATUS:               ID:20141129034750     3
 2014-11-29-0347-50M.COL___303                                                 6
 STAT SP IPHASW D HRMM SECON CODA AMPLIT PERI AZIMU VELO AIN AR TRES W  DIS CAZ7
 BAR2 SZ EP        350  9.51                             172   -0.2710 20.0 170 
 BAR2 SZ ES        350 24.64                             172   -0.6810 20.0 170 
 BAR2 SZ I         350 26.45         4.7 0.32            170           20.0 170 
 BRR  HZ EP        350 11.59                             155    0.5210 66.5 304 
 BRR  HE ES        350 28.52                             155    0.9010 66.5 304 
 BRR  HZ I         350 29.87         4.3 0.34            153           66.5 304 
 PTB  HZ EP        350 15.71                             134   -0.65 9  140 260 
 PTB  HN ES        350 36.73                             134   -0.32 9  140 260 
 PTB  HZ I         350 40.18         2.6 0.10            133            140 260 
 SPBC HZ EP        350 18.20                             131    0.29 9  156 218 
 SPBC HN ES        350 40.33                             131    0.52 9  156 218 
 SPBC HZ I         350 42.09         4.9 0.26            130            156 218 
 ZAR  HZ EP        350 22.16                             124    0.24 9  199 294 
 ZAR  HN ES        350 46.32                             124   -0.62 9  199 294 
 ZAR  HZ I         350 52.86         2.7 0.40            124            199 294 
 CHI  HZ EP        350 27.20                             118    0.02 8  244 194 
 CHI  HN ES        350 56.24                             118   -0.05 8  244 194 
 CHI  HZ I         351  0.77         2.3 0.52            119            244 194 
                                                                                
