 2013  929 0857 16.5 L   6.874 -73.323123.7  RSN  8 0.5 1.4LRSN                1
 GAP=100        1.37       4.8     5.1  8.8  0.1189E+01  0.1235E+02  0.2344E+01E
 Epicentro: BETULIA - SANTANDER                                                3
 ACTION:UPD 13-10-22 09:25 OP:ep   STATUS:               ID:20130929085716 L   I
 OLDACT:REG 13-09-29 09:16 OP:stll STATUS:               ID:20130929084843     3
 2013-09-29-0848-43M.COL___237                                                 6
 STAT SP IPHASW D HRMM SECON CODA AMPLIT PERI AZIMU VELO AIN AR TRES W  DIS CAZ7
 BAR2 SZ EP        857 34.11                             163    0.2910 34.8 153 
 BAR2 SZ ES        857 46.97                             163   -0.3610 34.8 153 
 BAR2 SZ I         857 48.27        33.1 0.26            154           34.8 153 
 BRR  HZ EP        857 34.31                             156    0.2010 50.1 301 
 BRR  HN ES        857 48.28                             156    0.4410 50.1 301 
 PAM  SZ EP        857 37.40                             143    0.3710 86.0  53 
 PAM  SN ES        857 53.25                             143    0.2110 86.0  53 
 PAM  SZ I         857 55.68         3.7 0.18            133           86.0  53 
 RUS  HZ EP        857 39.42                             135    0.3510  112 166 
 RUS  HN ES        857 56.29                             135   -0.3910  112 166 
 RUS  HZ I         857 57.70         2.6 0.76            123            112 166 
 PTB  HZ EP        857 39.05                             130   -1.0710  131 254 
 PTB  HN ES        857 59.05                             130    0.5010  131 254 
 OCA  HN ES        858  1.50                             126   -0.86 9  151   0 
 OCA  HZ I         858  7.66         3.9 0.14            117            151   0 
 SPBC HZ EP        857 42.61                             124   -0.32 9  158 212 
 SPBC HZ I         858 10.75         2.2 0.46            114            158 212 
 ZAR  HZ EP        857 46.21                             120    0.88 9  183 292 
 ZAR  HE ES        858  7.47                             120   -0.35 9  183 292 
 ZAR  HZ I         858 12.35         3.9 0.44            111            183 292 
                                                                                
