 2012 1229 0720 42.7 L   6.814 -73.127145.7  RSN  8 0.5 2.0LRSN                1
 GAP=185        0.88       3.9     5.3  6.8  0.3500E+01  0.7343E+01  0.3191E+00E
 Epicentro: LOS SANTOS - SANTANDER                                             3
 ACTION:UPD 13-01-04 14:31 OP:ep   STATUS:               ID:20121229072042 L   I
 2012-12-29-0720-00M.COL___242                                                 6
 STAT SP IPHASW D HRMM SECON CODA AMPLIT PERI AZIMU VELO AIN AR TRES W  DIS CAZ7
 BAR2 SZ EP        721  2.39                             170    0.0310 25.2 194 
 BAR2 SZ ES   1    721 17.55                             170   -0.14 7 25.2 194 
 BAR2 SZ I         721 19.24        27.8 0.12                          25.2 194 
 BRR  HZ EP   1    721  4.12                             152    0.22 7 72.3 297 
 BRR  HN ES   1    721 21.14                             152    0.70 7 72.3 297 
 BRR  HZ I         721 24.19        20.1 0.38                          72.3 297 
 RUS  HZ EP   1    721  6.59                             143    0.05 7  102 177 
 RUS  HN ES   1    721 25.19                             143    0.05 7  102 177 
 RUS  HZ I         721 26.60         5.7 0.28                           102 177 
 PTB  HZ EP   1    721  9.20                             132   -0.66 7  150 258 
 PTB  HN ES   1    721 30.11                             132   -0.94 7  150 258 
 PTB  HZ I         721 31.69        12.9 0.16                           150 258 
 OCA  HZ EP   1    721 10.03                             130   -0.85 7  159 352 
 OCA  HN ES   1    721 32.91                             130    0.04 7  159 352 
 OCA  HZ I         721 37.17        15.3 0.30                           159 352 
 ZAR  HZ EP        721 15.59                             122    0.32 8  205 292 
 ZAR  HN ES   1    721 40.78                             122    0.10 6  205 292 
 ZAR  HZ I         721 46.79        13.8 0.46                           205 292 
 CHI  HZ EP   1    721 20.97                             117    0.37 6  251 196 
 CHI  HN ES   1    721 50.08                             117   -0.10 6  251 196 
 CHI  HZ I         721 58.23         2.8 0.30                           251 196 
 HEL  HZ EP   1    721 23.92                             115    0.76 6  274 256 
 HEL  HN ES   1    721 54.79                             115    0.07 6  274 256 
 HEL  HZ I         722  0.74         6.1 0.36                           274 256 
 MON  HZ EP   4    721 29.72                             108   -2.04 0  354 308 
 MON  HE ES   4    722  7.54                             108   -2.50 0  354 308 
 SJC  HN ES   4    722 18.77                             106   -2.78 0  409 327 
                                                                                
