 2012  529 0824 32.0 L   6.858 -73.154131.1  RSN  6 0.3 1.5LRSN                1
 GAP=245        0.72       6.3     5.0  7.8  0.1013E+02  0.1472E+02 -0.9006E+01E
 Epicentro: LOS SANTOS - SANTANDER                                             3
 ACTION:UP  12-07-05 12:08 OP:pat  STATUS:               ID:20120529082432 L   I
 2012-05-29-0820-00M.COL___201                                                 6
 STAT SP IPHASW D HRMM SECON CODA AMPLIT PERI AZIMU VELO AIN AR TRES W  DIS CAZ7
 BAR2 SZ EP   1    824 50.57                             167     0.5 7   30 186 
 BAR2 SZ I         824 51.16         5.9 0.19                            30 186 
 BAR2 SZ ES   1    825  4.12                             167     0.0 7   30 186 
 RUS  HZ EP   1    824 54.91                             139     0.1 7  107 176 
 RUS  HN ES   1    825 12.28                             139    -0.4 7  107 176 
 PTB  HZ EP   1    824 57.58                             128    -0.3 7  148 256 
 PTB  HN ES   1    825 18.27                             128     0.2 7  148 256 
 PTB  HZ I         825 24.01         4.0 0.18                           148 256 
 ZAR  HZ EP   1    825  2.61                             119    -0.6 6  201 291 
 ZAR  HN ES   1    825 27.44                             119    -0.1 6  201 291 
 ZAR  HZ I         825 35.16         4.4 0.18                           201 291 
 NOR  SE ES   1    825 34.75                             115     0.0 6  238 233 
 HEL  HZ EP   1    825 12.12                             112     0.5 6  273 254 
 HEL  HN ES   1    825 42.46                             112     0.0 6  273 254 
 HEL  HZ I         825 50.42         2.5 0.21                           273 254 
                                                                                
