 2012  829 0045 10.7 L   6.791 -73.149146.2  RSN 17 0.3 2.6LRSN 3.3WRSN        1
 SPEC AVERAGE  MO 14.0 ST  9.6 OM  3.0 f0 3.70 R0.4208 AL 2.21 WI 26.3 MW  3.3 3
 SPEC SD       MO  0.2 ST  5.9 OM  0.7 f00.756 R0.1168 AL      WI      MW  0.1 3
 GAP= 65        0.63       2.2     2.4  3.4  0.2988E+00  0.1887E+01  0.1801E+01E
 Epicentro: LOS SANTOS - SANTANDER                                             3
 SPEC RUS HH N MO 14.1 ST 12.6 OM  2.5 f0 4.12 R0.3568 AL 2.22 WI 18.2 MW  3.4 3
 SPEC RUS HH N T 04552 K 0.000 GD  176 VS 4.20 DE 3.00 Q0230.0 QA 0.60 VS 4.20 3
 SPEC OCA HH N MO 14.4 ST 18.5 OM  2.7 f0 3.75 R0.3920 AL 2.22 WI 21.1 MW  3.5 3
 SPEC OCA HH N T 046 0 K 0.000 GD  217 VS 4.20 DE 3.00 Q0230.0 QA 0.60 VS 4.20 3
 SPEC PTB HH N MO 13.8 ST  7.1 OM  2.1 f0 4.39 R0.3349 AL 1.95 WI 32.7 MW  3.1 3
 SPEC PTB HH N T 04557 K 0.000 GD  207 VS 4.20 DE 3.00 Q0230.0 QA 0.60 VS 4.20 3
 SPEC HEL HH N MO 13.9 ST  3.9 OM  2.0 f0 3.41 R0.4311 AL 2.05 WI 37.8 MW  3.2 3
 SPEC HEL HH N T 04621 K 0.000 GD  308 VS 4.20 DE 3.00 Q0230.0 QA 0.60 VS 4.20 3
 SPEC CHI HH N MO 14.0 ST  1.5 OM  2.2 f0 2.19 R0.6712 AL 2.21 WI 15.2 MW  3.3 3
 SPEC CHI HH N T 04616 K 0.000 GD  287 VS 4.20 DE 3.00 Q0230.0 QA 0.60 VS 4.20 3
 SPEC BRR HH N MO 14.1 ST 13.6 OM  2.5 f0 4.34 R0.3387 AL 2.61 WI 33.0 MW  3.3 3
 SPEC BRR HH N T 04548 K 0.000 GD  162 VS 4.20 DE 3.00 Q0230.0 QA 0.60 VS 4.20 3
 ACTION:UPD 12-09-10 11:58 OP:ep   STATUS:               ID:20120829004510 L   I
 2012-08-29-0040-00M.COL___218                                                 6
 STAT SP IPHASW D HRMM SECON CODA AMPLIT PERI AZIMU VELO AIN AR TRES W  DIS CAZ7
 BAR2 SZ EP        045 30.34                             171   -0.0310 22.3 190 
 BAR2 SZ ES   1    045 45.33                             171   -0.37 7 22.3 190 
 BAR2 SZ I         045 48.32        92.0 0.38                          22.3 190 
 GIR2 SZ EP        045 30.40                             167   -0.0610 32.2 351 
 GIR2 SZ ES   1    045 46.11                             167    0.25 7 32.2 351 
 BRR  HZ EP        045 32.21                             152    0.2910 71.4 299 
 BRR  HN ES   1    045 49.31                             152    0.86 7 71.4 299 
 BRR  HZ I         045 52.85        53.3 0.18                          71.4 299 
 PAM  SZ IP        045 33.13                             151    0.1010 78.4  39 
 PAM  SZ I         045 33.33        66.5 0.18                          78.4  39 
 PAM  SN ES   1    045 50.28                             151   -0.16 7 78.4  39 
 RUS  HZ EP        045 34.23                             144   -0.2010 99.6 176 
 RUS  HN ES   1    045 53.09                             144    0.16 7 99.6 176 
 RUS  HZ I         045 55.55        29.3 0.50                          99.6 176 
 PTB  HZ EP   2    045 37.36                             132   -0.30 5  147 259 
 PTB  HN ES   1    045 58.27                             132   -0.42 7  147 259 
 PTB  HZ I         046  4.21        28.0 0.40                           147 259 
 TAM  HZ EP        045 38.48                             131    0.05 9  155 105 
 TAM  HN ES   1    045 59.96                             131   -0.09 7  155 105 
 OCA  HZ EP        045 38.99                             130   -0.15 9  161 353 
 OCA  HN ES   1    046  0.63                             130   -0.69 7  161 353 
 OCA  HZ I         046  6.10        73.5 0.46                           161 353 
 YOP  SZ EP        045 40.81                             126    0.10 9  178 153 
 YOP  SN ES   2    046  4.22                             126    0.11 4  178 153 
 ZAR  HZ EP        045 43.28                             122    0.09 9  204 292 
 ZAR  HZ I         046 14.64        28.0 0.28                           204 292 
 NOR  SZ EP        045 46.27                             119   -0.10 8  234 235 
 NOR  SN ES   2    046 13.66                             119   -0.53 4  234 235 
 NOR  SZ I         046 18.63        30.6 0.20                           234 235 
 CHI  HZ EP        045 48.60                             117    0.28 8  248 195 
 CHI  HN ES   1    046 17.19                             117   -0.46 6  248 195 
 CHI  HZ I         046 26.12        12.5 0.58                           248 195 
 ROSC BZ EP   1    045 48.78                             117    0.04 6  252 211 
 ROSC BZ I         046 28.07        33.5 0.45                           252 211 
 HEL  HZ EP        045 51.40                             115    0.52 8  272 256 
 HEL  HZ I         046 28.48        12.8 0.26                           272 256 
 DBB  SZ EP        045 57.93                             110   -0.24 7  339 274 
 DBB  SZ I         046 38.30        12.2 0.68                           339 274 
 ANIL HZ EP   3    046  1.47                             109    1.05 2  356 225 
 ANIL HN ES   3    046 39.32                             109    0.13 2  356 225 
 ANIL HZ I         046 44.35        46.5 0.28                           356 225 
 PRA  HZ EP   1    046  3.81                             107   -0.31 4  391 210 
 PRA  HZ I         046 51.47        11.7 0.22                           391 210 
                                                                                
