 2016  929 0230  5.9 L   6.808 -73.119146.8  RSN 17 0.6 2.2LRSN                1
 GAP=121        1.27       3.4     4.4  6.0 -0.3210E+00  0.5764E+01  0.3820E+01E
 Epicentro: LOS SANTOS - SANTANDER                                             3
 ACTION:UPD 17-08-17 21:17 OP:lp   STATUS:               ID:20160929023005 L   I
 OLDACT:UP  16-09-29 14:38 OP:dani STATUS:               ID:20160929022744     3
 OLDACT:REG 16-09-29 12:54 OP:dani STATUS:               ID:20160929022744     3
 2016-09-29-0228-00M.COL___378                                                 6
 STAT SP IPHASW D HRMM SECON CODA AMPLIT PERI AZIMU VELO AIN AR TRES W  DIS CAZ7
 BAR2 EZ EP     C  230 25.87                             170    0.1610 24.9 196 
 BAR2 HN ES        230 41.07                             170   -0.0710 24.9 196 
 BAR2 EZ I         230 42.09        29.5 0.30            165           24.9 196 
 BRR  HZ EP     C  230 27.66                             152    0.3610 73.3 297 
 BRR  HE ES        230 44.61                             152    0.6310 73.3 297 
 BRR  HZ I         230 47.80        30.3 0.48            137           73.3 297 
 PAM  EZ EP        230 28.74                             152    0.6410 74.8  38 
 PAM  EN ES        230 45.68                             152    0.2810 74.8  38 
 PAM  EZ I         230 47.74        23.7 0.42            143           74.8  38 
 RUS  HZ EP        230 29.91                             144    0.0810  101 178 
 RUS  HE ES        230 48.27                             144   -0.2110  101 178 
 RUS  HZ I         230 49.73        10.6 0.42            135            101 178 
 PTB  HZ EP        230 32.48                             132   -0.76 9  151 259 
 PTB  HN ES        230 53.65                             132   -0.91 9  151 259 
 PTB  HZ I         230 59.78        21.0 0.16            118            151 259 
 OCA  HZ EP        230 34.69                             130    0.43 9  160 352 
 OCA  HE ES        230 55.71                             130   -0.66 9  160 352 
 OCA  HZ I         230 59.95        33.5 0.18            117            160 352 
 SPBC HZ EP        230 34.81                             129    0.07 9  166 220 
 SPBC HN ES        230 57.54                             129    0.32 9  166 220 
 SPBC HZ I         231  3.01        28.4 0.12            117            166 220 
 ZAR  HZ EP        230 38.61                             122   -0.06 8  206 292 
 ZAR  HE ES        231  3.41                             122   -0.81 8  206 292 
 ZAR  HZ I         231 10.40        25.3 0.32            110            206 292 
 NOR  HZ EP        230 42.22                             118    0.20 8  238 235 
 NOR  HE ES        231 10.11                             118   -0.07 8  238 235 
 NOR  HZ I         231 11.91        14.2 0.20            108            238 235 
 CHI  HZ EP        230 44.28                             117    0.43 8  250 196 
 CHI  HN ES        231 13.82                             117    0.38 8  250 196 
 CHI  HZ I         231 18.79         5.9 0.25            108            250 196 
 HEL  HZ EP        230 46.70                             115    0.18 8  275 256 
 HEL  HN ES   4    231 15.42                             115   -2.77 0  275 256 
 HEL  HZ I         231 24.20        12.2 0.34            104            275 256 
 URE  HZ EP        230 46.38                             114   -0.92 7  286 292 
 URE  HZ I         231 27.33        10.6 0.16            103            286 292 
 GUY2CHZ EP        230 50.34                             112    0.44 7  304 235 
 GUY2CHN ES        231 25.17                             112    0.96 7  304 235 
 GUY2CHZ I         231 31.73         7.2 0.24                           304 235 
 PTGC HZ EP        230 49.18                             112   -0.62 7  309 159 
 PTGC HN ES        231 22.57                             112   -1.46 7  309 159 
 PTGC HZ I         231 27.90         7.7 0.35            103            309 159 
 ELA  HZ EP   4    230 54.65                             110    1.52 0  332 230 
 ELA  HN ES   4    231 33.73                             110    3.77 0  332 230 
 ELA  HZ I         231 39.72         5.9 0.40            101            332 230 
 CBOC HZ EP   2    230 54.09                             110    0.87 3  337 252 
 CBOC HZ I         231 40.63         2.3 0.09            101            337 252 
 PAL  HZ EP        231  1.74                             106    0.28 6  409 239 
 PAL  HZ I         231 51.86         1.9 0.21             97            409 239 
                                                                                
