 2015 1229 0824  6.0 L   6.814 -73.160146.5  RSN 14 0.4 1.9LRSN                1
 GAP=134        1.00       2.5     3.7  5.7 -0.2036E+01  0.7429E+01 -0.4774E+00E
 Epicentro: LOS SANTOS - SANTANDER                                             3
 ACTION:UPD 16-02-04 15:08 OP:cam  STATUS:               ID:20151229082406 L   I
 OLDACT:REG 15-12-29 13:19 OP:ak   STATUS:               ID:20151229081748     3
 2015-12-29-0817-48M.COL___337                                                 6
 STAT SP IPHASW D HRMM SECON CODA AMPLIT PERI AZIMU VELO AIN AR TRES W  DIS CAZ7
 BAR2 EZ EP        824 25.69                             170   -0.0410 24.7 186 
 BAR2 EZ ES        824 41.05                             170   -0.0710 24.7 186 
 BAR2 EZ I         824 42.03        22.2 0.22            169           24.7 186 
 BRR  HZ EP     C  824 27.62                             153    0.5310 69.1 298 
 BRR  HN ES   4    824 44.86                             153    1.31 0 69.1 298 
 BRR  HZ I         824 48.67        14.2 0.12            150           69.1 298 
 PAM  EZ EP        824 28.43                             151    0.1710 77.2  41 
 PAM  EE ES        824 45.76                             151    0.1210 77.2  41 
 PAM  EZ I         824 47.85        13.1 0.72            156           77.2  41 
 RUS  HZ EP        824 29.69                             143   -0.2410  102 175 
 RUS  HN ES        824 48.56                             143   -0.0410  102 175 
 RUS  HZ I         824 50.58         5.1 0.42            146            102 175 
 PTB  HZ EP        824 32.13                             132   -0.77 9  147 258 
 PTB  HN ES        824 53.33                             132   -0.56 9  147 258 
 PTB  HZ I         824 58.03         7.4 0.16            132            147 258 
 OCA  HZ EP        824 34.82                             130    0.64 9  159 354 
 OCA  HE ES        824 55.60                             130   -0.58 9  159 354 
 OCA  HZ I         825  1.57        12.3 0.48            132            159 354 
 SPBC HN ES        824 57.33                             129    0.48 9  163 218 
 SPBC HZ I         825  2.63        13.4 0.28            130            163 218 
 ZAR  HZ EP        824 38.66                             123    0.39 9  202 292 
 ZAR  HE ES        825  4.10                             123    0.65 9  202 292 
 ZAR  HZ I         825 10.04         9.1 0.36            123            202 292 
 NOR  HZ EP        824 41.78                             119    0.06 8  234 234 
 NOR  HE ES        825  9.14                             119   -0.45 8  234 234 
 NOR  HZ I         825 18.10         4.9 0.16            120            234 234 
 SML  HZ EP        824 42.18                             118   -0.24 8  242 335 
 SML  HE ES        825 10.63                             118   -0.22 8  242 335 
 SML  HZ I         825 18.68         8.1 0.10            119            242 335 
 CHI  HZ EP        824 43.71                             117   -0.13 8  250 195 
 CHI  HN ES        825 13.72                             117    0.35 8  250 195 
 CHI  HZ I         825 19.51         1.9 0.40            119            250 195 
 HEL  HZ EP   4    824 48.27                             115    2.16 0  271 255 
 HEL  HN ES        825 17.20                             115   -0.21 8  271 255 
 HEL  HZ I         825 24.56         4.4 0.28            116            271 255 
 GUY2CHZ EP   4    824 51.31                             112    1.72 0  301 234 
 GUY2CHN ES        825 24.33                             112    0.74 7  301 234 
 GUY2CHZ I         825 33.24         2.8 0.26                           301 234 
 PRA  HZ EP        824 58.89                             107   -0.71 6  393 209 
 PRA  HN ES        825 41.18                             107   -0.24 6  393 209 
 PRA  HZ I         825 50.60         1.7 0.30            108            393 209 
                                                                                
