 2016  329 0414 32.8 L   6.566 -73.501 17.0  RSN  8 0.4 1.6LRSN                1
 GAP=102        1.08       2.6     2.5  5.6 -0.2017E+01  0.8562E+01 -0.4550E+01E
 Epicentro: EL CARMEN - SANTANDER                                              3
 ACTION:UPD 16-05-13 21:28 OP:cam  STATUS:               ID:20160329041432 L   I
 OLDACT:UP  16-03-29 15:39 OP:drio STATUS:               ID:20160329040747     3
 OLDACT:UP  16-03-29 15:37 OP:drio STATUS:               ID:20160329040747     3
 OLDACT:REG 16-03-29 13:03 OP:drio STATUS:               ID:20160329040747     3
 2016-03-29-0407-47M.COL___307                                                 6
 STAT SP IPHASW D HRMM SECON CODA AMPLIT PERI AZIMU VELO AIN AR TRES W  DIS CAZ7
 BAR2 EZ EP        414 39.75                             113    0.3710 35.4  85 
 BAR2 EZ ES        414 44.74                             113    0.2010 35.4  85 
 BAR2 EZ I         414 46.26        40.4 0.40            116           35.4  85 
 RUS  HZ EP        414 47.23                              99   -0.0810 87.6 148 
 RUS  HE ES        414 57.88                              99   -0.7710 87.6 148 
 RUS  HZ I         414 58.29         9.6 0.18            100           87.6 148 
 PTB  HZ IP     D  414 49.27                              97   -0.2410  106 268 
 PTB  HE ES        415  2.07                              97   -0.5010  106 268 
 PTB  HZ I         415  3.44        36.8 0.16             98            106 268 
 SPBC HZ EP        414 51.74                              96    0.1210  119 212 
 SPBC HE ES        415  7.11                              96    0.7910  119 212 
 SPBC HZ I         415 10.04        18.8 0.32             97            119 212 
 PAM  EZ EP        414 53.10                              96    0.4510  123  46 
 PAM  EN ES        415  7.71                              96   -0.4410  123  46 
 PAM  EZ I         415  8.87        15.7 0.22             97            123  46 
 ZAR  HZ EP        415  0.07                              56    0.45 9  182 304 
 ZAR  HE ES        415 20.46                              56   -0.11 9  182 304 
 ZAR  HZ I         415 23.14         4.0 0.12             56            182 304 
 HEL  HZ EP        415  5.74                              56   -0.13 8  228 260 
 HEL  HE ES   4    415 30.65                              56   -1.05 0  228 260 
 HEL  HZ I         415 32.31         4.8 0.22             56            228 260 
 GUY2CHZ EP   4    415 10.92                              56    1.66 0  254 234 
 GUY2CHE ES        415 37.68                              56   -0.04 8  254 234 
 GUY2CHZ I         415 49.56         1.7 0.50                           254 234 
                                                                                
