 2014  829 0554 20.9 L   6.735 -73.109132.7  RSN  4 0.5 1.1LRSN                1
 GAP=266        1.02       9.6    10.9 11.1 -0.2788E+02  0.3076E+02 -0.4299E+01E
 Epicentro: JORDAN - SANTANDER                                                 3
 ACTION:UPD 14-09-15 21:54 OP:nd   STATUS:               ID:20140829055421dL   I
 OLDACT:UP  14-08-29 15:34 OP:fm   STATUS:               ID:20140829054808d    3
 OLDACT:DUP 14-08-29 15:33 OP:fm   STATUS:               ID:20140829054808d    3
 OLDACT:REG 14-08-29 13:36 OP:fm   STATUS:               ID:20140829054806     3
 2014-08-29-0548-06M.COL___278                                                 6
 STAT SP IPHASW D HRMM SECON CODA AMPLIT PERI AZIMU VELO AIN AR TRES W  DIS CAZ7
 BAR2 SZ ES   1    554 52.39                             172   -0.45 7 17.7 207 
 BAR2 SZ I         554 55.76         3.2 0.44            164           17.7 207 
 BRR  HZ EP        554 41.20                             148    0.1010 78.4 302 
 BRR  HN ES   1    554 57.60                             148    0.75 7 78.4 302 
 BRR  HZ I         555  0.92         2.4 0.32            149           78.4 302 
 PTB  HZ EP        554 46.94                             128   -0.16 9  151 262 
 PTB  HN ES        555  7.01                             128   -0.52 9  151 262 
 PTB  HZ I         555 12.52         1.4 0.24            129            151 262 
 SPBC HN ES   1    555 10.07                             127    0.68 7  160 222 
 SPBC HZ I         555 17.44         1.4 0.12            127            160 222 
                                                                                
