 2011  329 0947 12.6 L   6.729 -73.115140.0  RSN  6 0.5 1.6LRSN                1
 GAP=192        1.42      14.2    19.5 17.6 -0.3550E+02 -0.1465E+03 -0.4311E+02E
 Epicentro: JORDAN - SANTANDER                                                 3
 ACTION:UP  11-06-16 14:36 OP:jfem STATUS:               ID:20110329094712 L   I
 2011-03-29-0945-46S.COL___138                                                 6
 STAT SP IPHASW D HRMM SECON CODA AMPLIT PERI AZIMU VELO SNR AR TRES W  DIS CAZ7
 BAR2 SZ EP        947 31.75                             173     0.310   17 207 
 BAR2 SZ ES   3    947 46.39                             173     0.3 2   17 207 
 BAR2 SZ I         947 47.24         8.2 0.34                            17 207 
 BTL  SZ EP        947 30.91                             169    -0.710   27 321 
 BTL  SZ ES   2    947 45.85                             169    -0.6 5   27 321 
 GIR2 SZ EP        947 31.85                             163     0.010   40 347 
 BRR  HZ EP        947 33.70                             149     0.110   78 302 
 BRR  HZ I         947 34.10        12.1 0.08                            78 302 
 BRR  HN ES   1    947 50.47                             149     0.6 7   78 302 
 GRA  SZ EP        947 38.80                             134     0.910  132  15 
 GRA  SZ I         947 40.05         6.0 0.21                           132  15 
 GRA  SZ ES   2    947 57.37                             134    -0.3 5  132  15 
 OCA  SZ EP        947 40.57                             127    -0.7 9  168 352 
 OCA  SZ I         948  6.28         4.0 0.43                           168 352 
                                                                                
