 2010  829 0645 16.0 L   6.761 -73.083149.6  RSN 10 0.3 1.7LRSN                1
 GAP=166        0.68       3.0     7.0  5.4 -0.3707E+01 -0.3901E+00  0.1108E+00E
 Epicentro: LOS SANTOS - SANTANDER                                             3
 ACTION:UP  10-09-07 10:59 OP:vdl  STATUS:               ID:20100829064516 L   I
 2010-08-29-0640-50S.COL___120                                                 6
 STAT SP IPHASW D HRMM SECON CODA AMPLIT PERI AZIMU VELO SNR AR TRES W  DIS CAZ7
 BAR2 SZ EP   1    645 35.98                             171    -0.1 7   22 211 
 BAR2 SZ ES   1    645 51.39                             171    -0.4 7   22 211 
 BAR2 SZ I         645 53.21        12.6 0.32                            22 211 
 GIR2 SZ EP   2    645 36.25                             165    -0.1 5   37 341 
 BRR  HZ EP        645 38.02                                    -0.110   79 299 
 BRR  HE ES   1    645 55.40                             151     0.1 7   79 299 
 BRR  HZ I         645 58.59         9.3 0.15                            79 299 
 RUS  HZ EP   1    645 39.49                             146    -0.4 7   96 180 
 RUS  HN ES   1    645 59.03                             146     0.6 7   96 180 
 RUS  HZ I         646  0.47         6.5 0.41                            96 180 
 GRA  SZ IP        645 41.92                             137     0.110  128  14 
 GRA  SZ I         646  2.49         4.6 0.21                           128  14 
 OCA  SZ EP   1    645 44.86                             130    -0.3 7  166 351 
 OCA  SZ ES   1    646  8.14                             130     0.3 7  166 351 
 OCA  SZ I         646 11.20         6.4 0.50                           166 351 
 CHI  HZ EP   2    645 53.90                             118     0.2 4  246 197 
 CHI  HE ES   2    646 22.43                             118    -0.7 4  246 197 
 CHI  HZ I         646 31.57         3.1 0.35                           246 197 
 ROSC BZ EP   2    645 55.00                             117     0.6 4  253 213 
 ROSC BZ I         646 30.94         4.8 0.38                           253 213 
 RREF HZ EP   2    646  2.69                             111     0.0 3  324 231 
 RREF HN ES   2    646 38.52                             111    -0.5 3  324 231 
 RREF HZ I         646 47.02         3.2 0.22                           324 231 
 PRA  HZ EP   1    646  9.97                             107     0.3 4  392 211 
 PRA  HN ES   2    646 51.93                             107     0.4 3  392 211 
 PRA  HZ I         646 57.77         2.1 0.33                           392 211 
                                                                                
