 2017  429 0958 22.8 L   7.362 -72.934  5.6  RSN  5 0.3 1.6LRSN                1
 GAP=182        0.84       3.9     2.2  5.7 -0.2109E+01  0.7345E+01 -0.7326E+01E
 Epicentro: CALIFORNIA - SANTANDER                                             3
 ACTION:UPD 17-05-30 21:17 OP:jn   STATUS:               ID:20170429095824dL   I
 OLDACT:DUP 17-04-29 16:33 OP:cog  STATUS:               ID:20170429094742d    3
 2017-04-29-0948-00M.COL___356                                                 6
 STAT SP IPHASW D HRMM SECON CODA AMPLIT PERI AZIMU VELO AIN AR TRES W  DIS CAZ7
 PAM  EZ EP        958 27.76                              95   -0.0810 26.0  96 
 PAM  EN ES        958 31.67                              95   -0.1010 26.0  96 
 PAM  EZ I         958 33.17        52.9 0.17            112           26.0  96 
 BRR  HZ EP        958 37.30                              91    0.2010 90.5 252 
 BRR  HE ES        958 47.97                              91   -0.2910 90.5 252 
 BRR  HZ I         958 51.24        11.9 0.42             95           90.5 252 
 RUS  HZ EP        958 48.21                              91   -0.44 9  163 186 
 RUS  HE ES        959  9.29                              91    0.47 9  163 186 
 RUS  HZ I         959 10.63         5.3 0.20             56            163 186 
 PTB  HZ EP        958 52.06                              56    0.21 9  191 242 
 PTB  HN ES        959 14.06                              56   -0.45 9  191 242 
 PTB  HZ I         959 15.12        14.3 0.24             56            191 242 
 ZAR  HZ EP        958 55.18                              56    0.64 8  213 274 
 ZAR  HE ES        959 19.26                              56   -0.04 8  213 274 
                                                                                
