 2014  829 0720 42.0 L   6.813 -73.138143.2  RSN 22 0.6 2.3LRSN                1
 GAP=137        1.28       3.1     5.0  6.4 -0.1888E+01  0.8958E+01  0.2039E+01E
 Epicentro: LOS SANTOS - SANTANDER                                             3
 ACTION:UPD 14-09-15 21:54 OP:nd   STATUS:               ID:20140829072042 L   I
 OLDACT:REG 14-08-29 13:40 OP:fm   STATUS:               ID:20140829071816     3
 2014-08-29-0718-16M.COL___278                                                 6
 STAT SP IPHASW D HRMM SECON CODA AMPLIT PERI AZIMU VELO AIN AR TRES W  DIS CAZ7
 BAR2 SZ EP     D  721  1.41                             170    0.0910 24.8 191 
 BAR2 SZ ES   1    721 16.79                             170    0.38 7 24.8 191 
 BAR2 SZ I         721 17.73        69.7 0.18            167           24.8 191 
 BRR  HZ EP        721  3.23                             152    0.3910 71.3 297 
 BRR  HN ES        721 20.11                             152    0.9910 71.3 297 
 BRR  HZ I         721 21.86        21.2 0.10            148           71.3 297 
 PAM  SZ EP        721  4.30                             151    0.4910 75.8  40 
 PAM  SN ES        721 21.15                             151    0.3010 75.8  40 
 PAM  SZ I         721 23.67        30.9 0.66            155           75.8  40 
 RUS  HZ EP        721  5.39                             143   -0.1710  102 177 
 RUS  HN ES        721 23.08                             143   -0.8810  102 177 
 RUS  HZ I         721 25.18        23.3 0.34            144            102 177 
 PTB  HZ EP        721  7.93                             131   -0.90 9  149 258 
 PTB  HN ES        721 29.26                             131   -0.52 9  149 258 
 PTB  HZ I         721 33.38        24.6 0.12            129            149 258 
 OCA  HZ EP        721  9.45                             129   -0.51 9  159 353 
 OCA  HN ES        721 31.26                             129   -0.53 9  159 353 
 OCA  HZ I         721 34.52        25.1 0.22            130            159 353 
 SPBC HZ EP     C  721 10.36                             128   -0.06 9  165 219 
 SPBC HN ES        721 32.83                             128    0.21 9  165 219 
 SPBC HZ I         721 38.23        36.8 0.16            127            165 219 
 ZAR  HZ EP        721 14.54                             122    0.27 9  204 292 
 ZAR  HN ES        721 39.37                             122   -0.10 9  204 292 
 ZAR  HZ I         721 45.27        13.2 0.24            120            204 292 
 NOR  HZ EP   1    721 17.46                             118   -0.25 6  236 234 
 NOR  HN ES        721 45.32                             118   -0.27 8  236 234 
 NOR  HZ I         721 46.74        21.0 0.14            117            236 234 
 SML  HZ EP   1    721 17.84                             117   -0.51 6  243 335 
 SML  HN ES        721 45.91                             117   -0.82 8  243 335 
 SML  HZ I         721 52.24        19.0 0.24            117            243 335 
 CHI  HZ EP   1    721 19.59                             116   -0.10 6  250 195 
 CHI  HN ES        721 48.67                             116   -0.45 8  250 195 
 CHI  HZ I         721 55.82         7.0 0.34            117            250 195 
 ROSC BZ EP        721 21.16                             116    1.03 8  254 211 
 ROSC BN ES   4    721 51.91                             116    2.02 0  254 211 
 ROSC BZ I         721 59.83        15.4 0.35            116            254 211 
 HEL  HZ EP        721 22.99                             114    0.81 8  273 256 
 HEL  HN ES   4    721 55.88                             114    2.34 0  273 256 
 HEL  HZ I         722  1.03         9.2 0.50            113            273 256 
 URE  HZ EP   4    721 21.65                             113   -1.30 0  284 292 
 URE  HE ES   4    721 52.71                             113   -2.20 0  284 292 
 URE  HZ I         722  2.68        10.0 0.20            112            284 292 
 GUY2CHZ EP        721 26.57                             112    0.94 7  303 235 
 GUY2CHN ES   4    722  0.89                             112    1.21 0  303 235 
 GUY2CHZ I         722  7.72        13.7 0.32                           303 235 
 CBOC HZ EP        721 29.56                             109    0.64 7  335 252 
 CBOC HN ES   4    722  4.07                             109   -1.47 0  335 252 
 CBOC HZ I         722 14.95         3.4 0.36            109            335 252 
 TOL  SN ES   4    722  6.98                             109   -1.02 0  345 225 
 TOL  SZ I         722 17.36        20.7 0.28            109            345 225 
 MON  HZ EP   4    721 28.59                             108   -2.26 0  353 308 
 MON  HN ES   4    722  6.98                             108   -1.99 0  353 308 
 MON  HZ I         722 13.65         3.0 0.28            108            353 308 
 ARGC HN ES   1    722 10.16                             108    0.19 5  358 340 
 ARGC HZ I         722 20.99         4.8 0.34            108            358 340 
 PRA  HZ EP        721 34.98                             106   -0.61 6  394 210 
 PRA  HN ES        722 17.48                             106    0.06 6  394 210 
 PRA  HZ I         722 23.82         8.2 0.44            106            394 210 
 SJC  HZ EP   4    721 35.58                             105   -1.79 0  409 327 
 SJC  HN ES   4    722 15.54                             105   -5.03 0  409 327 
 SJC  HZ I         722 20.30         3.9 0.38            106            409 327 
 CAP2 HN ES   4    722 35.11                             102   -6.34 0  508 294 
 CAP2 HZ I         722 39.98         2.2 0.34            102            508 294 
                                                                                
