 2016  329 0046 36.6 L   6.786 -73.186153.0  RSN  4 0.5 1.3LRSN                1
 GAP=274        1.13       8.5     8.3  9.2  0.1998E+02  0.1655E+02  0.1359E+02E
 Epicentro: ZAPATOCA - SANTANDER                                               3
 ACTION:UPD 16-05-13 21:28 OP:cam  STATUS:               ID:20160329004636 L   I
 OLDACT:DUP 16-03-29 14:11 OP:drio STATUS:               ID:20160329003749d    3
 2016-03-29-0037-48M.COL___316                                                 6
 STAT SP IPHASW D HRMM SECON CODA AMPLIT PERI AZIMU VELO AIN AR TRES W  DIS CAZ7
 BAR2 EZ EP        046 57.60                             172    0.4910 21.4 179 
 BAR2 EZ ES        047 12.52                             172   -0.5510 21.4 179 
 BAR2 EZ I         047 13.90        10.1 0.20            164           21.4 179 
 RUS  HZ EP        047  1.54                             146    0.5110 99.4 173 
 RUS  HE ES        047 20.11                             146    0.0610 99.4 173 
 RUS  HZ I         047 21.42         2.0 0.52            143           99.4 173 
 PTB  HZ EP        047  3.33                             135   -0.47 9  143 259 
 PTB  HN ES        047 25.34                             135    0.35 9  143 259 
 PTB  HZ I         047 32.66         2.8 0.36            131            143 259 
 CHI  HZ EP        047 13.72                             119   -0.75 8  246 194 
 CHI  HN ES        047 44.05                             119    0.08 8  246 194 
 CHI  HZ I         047 49.88         1.1 0.34            118            246 194 
                                                                                
