 2010  729 0844 21.9 L   6.816 -73.018139.3  RSN  6 0.4 1.7LRSN                1
 GAP=173        1.15       5.4    12.6 11.5 -0.1593E+01 -0.4306E+02 -0.1576E+02E
 Epicentro: CEPITA - SANTANDER                                                 3
 ACTION:UPD 10-12-01 15:20 OP:pat  STATUS:               ID:20100729084421 L   I
 2010-07-29-0842-22S.COL___123                                                 6
 STAT SP IPHASW D HRMM SECON CODA AMPLIT PERI AZIMU VELO AIN AR TRES W  DIS CAZ7
 BAR2 SZ IP        844 41.03                             167     0.110   31 217 
 BAR2 SZ I         844 41.37        12.0 0.07                            31 217 
 BAR2 SZ ES   1    844 55.57                             167    -0.2 7   31 217 
 BRR  HZ IP     C  844 42.87                             147    -0.210   83 293 
 BRR  HN ES   1    844 59.95                             147     0.3 7   83 293 
 BRR  HZ I         845  4.21         7.9 0.58                            83 293 
 RUS  HZ EP   1    844 44.67                             142    -0.5 7  102 184 
 RUS  HE ES   1    845  3.41                             142     0.2 7  102 184 
 RUS  HZ I         845  4.76         6.4 0.47                           102 184 
 GUE  SZ EP   1    844 44.88                             139    -0.8 7  113   5 
 GRA  SZ EP        844 46.87                             137     0.810  121  11 
 GRA  SZ ES   1    845  4.94                             137    -0.1 7  121  11 
 GRA  SZ I         845  7.37         7.2 0.55                           121  11 
 OCA  SZ EP   1    844 50.12                             128     0.4 7  161 348 
 OCA  SZ ES   1    845 10.91                             128    -0.6 7  161 348 
 OCA  SZ I         845 14.51         5.9 0.66                           161 348 
                                                                                
