 2012  329 0412 54.8 L   6.775 -73.178138.4  RSN  6 0.3 1.4LRSN                1
 GAP=134        0.65       6.2     5.0  8.0 -0.2416E+01  0.6700E+01 -0.1130E+02E
 ACTION:UP  12-03-31 23:23 OP:EP   STATUS:               ID:20120329041254 L   I
 2012-03-29-0410-00M.COL___196                                                 6
 STAT SP IPHASW D HRMM SECON CODA AMPLIT PERI AZIMU VELO SNR AR TRES W  DIS CAZ7
 BAR2 SZ EP        413 13.44                             172     0.010   20 181 
 BAR2 SZ ES   2    413 27.75                             172    -0.3 5   20 181 
 BAR2 SZ I         413 29.94         6.4 0.20                            20 181 
 BRR  HZ EP        413 15.34                             152     0.310   70 302 
 BRR  HZ I         413 15.71        12.2 0.12                            70 302 
 BRR  HE ES   2    413 31.20                             152     0.4 5   70 302 
 PAM  SZ EP        413 16.43                             148    -0.110   82  40 
 PAM  SE ES   3    413 32.75                             148    -0.7 2   82  40 
 RUS  HZ EP   2    413 17.51                             143    -0.1 5   98 174 
 RUS  HE ES   2    413 35.94                             143     0.5 5   98 174 
 RUS  HZ I         413 36.66         2.1 0.46                            98 174 
 PTB  HZ EP        413 20.49                             131    -0.3 9  144 260 
 PTB  HN ES   2    413 40.46                             131    -0.6 5  144 260 
 PTB  HZ I         413 47.42         2.1 0.54                           144 260 
 ZAR  HZ EP   2    413 26.99                             121     0.5 4  202 293 
 ZAR  HN ES   3    413 51.90                             121     0.6 2  202 293 
 ZAR  HZ I         413 57.52         4.2 0.34                           202 293 
                                                                                
