 2014  629 0734 55.6 L   6.048 -73.735115.0  RSN  4 0.4 1.6LRSN                1
 GAP=117        1.16       7.2     5.2 11.7 -0.4546E+01  0.1141E+02 -0.2246E+02E
 Epicentro: BOLIVAR - SANTANDER                                                3
 ACTION:UPD 14-07-01 22:57 OP:nd   STATUS:               ID:20140629073455 L   I
 OLDACT:DUP 14-06-29 14:26 OP:carl STATUS:               ID:20140629072819d    3
 2014-06-29-0728-18M.COL___240                                                 6
 STAT SP IPHASW D HRMM SECON CODA AMPLIT PERI AZIMU VELO AIN AR TRES W  DIS CAZ7
 SPBC HZ EP        735 13.27                             152    0.4610 57.5 221 
 SPBC HN ES        735 26.45                             152    0.2410 57.5 221 
 SPBC HZ I         735 28.41         6.8 0.56            154           57.5 221 
 RUS  HE ES        735 28.45                             145   -0.6910 74.2 103 
 BAR2 SZ EP        735 15.20                             141    0.2510 85.8  45 
 BAR2 SZ ES        735 30.49                             141    0.4710 85.8  45 
 BAR2 SZ I         735 31.30        18.0 0.24            144           85.8  45 
 PTB  HZ EP        735 14.92                             137   -0.5910 96.6 304 
 PTB  HE ES        735 30.87                             137   -0.1410 96.6 304 
 PTB  HZ I         735 33.57         6.8 0.20            138           96.6 304 
                                                                                
