 2013  529 0736 51.4 L   6.749 -73.175145.1  RSN  4 0.2 1.4LRSN                1
 GAP=230        0.64       5.0     4.9  5.5  0.1227E+02  0.8008E+00 -0.1198E+00E
 Epicentro: VILLANUEVA - SANTANDER                                             3
 ACTION:UPD 13-06-20 09:54 OP:ep   STATUS:               ID:20130529073651 L   I
 2013-05-29-0730-00M.COL___261                                                 6
 STAT SP IPHASW D HRMM SECON CODA AMPLIT PERI AZIMU VELO AIN AR TRES W  DIS CAZ7
 BAR2 SZ EP        737 10.70                             173   -0.1610 17.3 183 
 BAR2 SZ ES   1    737 25.49                             173   -0.54 7 17.3 183 
 BAR2 SZ I         737 26.72         9.7 0.26            169           17.3 183 
 BRR  HZ IP     D  737 12.48                             152   -0.0210 71.3 304 
 BRR  HN ES        737 29.29                             152    0.3510 71.3 304 
 BRR  HZ I         737 32.67         6.4 0.30            150           71.3 304 
 RUS  HZ EP        737 14.93                             145    0.2110 95.2 174 
 RUS  HN ES        737 33.05                             145    0.1510 95.2 174 
 RUS  HZ I         737 34.49         1.7 0.26            146           95.2 174 
 PTB  HZ EP        737 17.74                             133   -0.20 9  144 261 
 PTB  HN ES        737 38.57                             133   -0.07 9  144 261 
 PTB  HZ I         737 43.97         2.6 0.32            132            144 261 
                                                                                
