 2013 1129 0341 21.0 L   6.158 -73.760 22.2  RSN  5 0.4 1.6LRSN                1
 GAP=131        0.95       3.7     3.0  6.4  0.6297E+01  0.1369E+02  0.1461E+02E
 Epicentro: LANDAZURI - SANTANDER                                              3
 ACTION:UPD 14-01-09 16:31 OP:ep   STATUS:               ID:20131129034121 L   I
 OLDACT:UP  13-11-29 11:55 OP:mh   STATUS:               ID:20131129034001d    3
 OLDACT:DUP 13-11-29 11:55 OP:mh   STATUS:               ID:20131129034001d    3
 2013-11-29-0340-00M.COL___282                                                 6
 STAT SP IPHASW D HRMM SECON CODA AMPLIT PERI AZIMU VELO AIN AR TRES W  DIS CAZ7
 RUS  HZ EP        341 35.31                             104    0.6810 80.5 111 
 RUS  HN ES        341 44.71                             104   -0.5610 80.5 111 
 RUS  HZ  AMP      341 48.28        52.5 0.05                          80.5 111 
 PTB  HZ EP        341 35.17                             102   -0.0510 87.8 299 
 PTB  HN ES        341 46.26                             102   -0.0510 87.8 299 
 BRR  HZ EP        341 37.84                             100    0.0810  105   3 
 BRR  HN ES        341 50.63                             100   -0.2110  105   3 
 NOR  HZ EP   1    341 42.49                              56    0.31 7  139 242 
 NOR  HN ES   1    341 57.97                              56   -0.72 7  139 242 
 NOR  HZ I         341 59.14         4.5 0.09             56            139 242 
 HEL  HZ EP        341 49.98                              56    0.36 9  196 271 
 HEL  HN ES        342 11.99                              56    0.05 9  196 271 
 HEL  HZ I         342 13.46         4.1 0.18             56            196 271 
                                                                                
