 2011 1129 0525 29.9 L   6.769 -73.099147.9  RSN  9 0.4 2.5LRSN                1
 GAP=144        0.80       4.1     6.0  5.6 -0.7598E+01  0.1300E+02  0.1429E+01E
 Epicentro: LOS SANTOS - SANTANDER                                             3
 ACTION:UPD 12-07-13 16:13 OP:ep   STATUS:               ID:20111129052529 L   I
 2011-11-29-0523-03S.COL___160                                                 6
 STAT SP IPHASW D HRMM SECON CODA AMPLIT PERI AZIMU VELO AIN AR TRES W  DIS CAZ7
 BAR2 SZ IP        525 49.66                             171   -0.0610 21.6 205 
 BAR2 SZ ES   1    526  4.65                             171   -0.55 7 21.6 205 
 BAR2 SZ I         526  6.43        74.3 0.32                          21.6 205 
 PAM  SZ IP        525 52.59                             151    0.3110 77.0  35 
 PAM  SN ES   1    526  9.90                             151    0.13 7 77.0  35 
 BRR  HZ IP     C  525 51.57                             151   -0.0310 77.4 299 
 BRR  HZ I         525 51.77       124.5 0.16                          77.4 299 
 BRR  HE ES   1    526  9.05                             151    0.50 7 77.4 299 
 RUS  HZ EP        525 53.63                             145    0.0710 96.9 179 
 RUS  HN ES   1    526 12.18                             145    0.13 7 96.9 179 
 RUS  HZ I         526 13.33        36.1 0.46                          96.9 179 
 OCA  SZ EP        525 58.15                             129   -0.57 9  164 351 
 OCA  SZ I         526 26.28        34.4 0.23                           164 351 
 NOR  SZ EP        526  5.43                             119   -0.53 8  237 236 
 NOR  SN ES   2    526 33.45                             119   -0.67 4  237 236 
 HEL  HZ EP        526 11.29                             115    0.64 7  276 257 
 HEL  HZ I         526 46.82        12.3 0.52                           276 257 
 RREF HZ EP        526 16.70                             111    0.41 7  324 230 
 RREF HZ I         527  0.88        18.3 0.42                           324 230 
 PRA  HZ EP        526 23.24                             107   -0.17 6  392 210 
 PRA  HN ES   1    527  5.33                             107    0.15 4  392 210 
                                                                                
