 2017  329 0957 10.9 L   6.845 -73.241135.4  RSN  4 0.3 1.2LRSN                1
 GAP=152        0.78       5.1     4.8  9.0 -0.7398E+01  0.1404E+02 -0.2785E+01E
 Epicentro: ZAPATOCA - SANTANDER                                               3
 ACTION:UPD 17-05-25 18:46 OP:jn   STATUS:               ID:20170329095710 L   I
 OLDACT:DUP 17-03-29 17:16 OP:dnl  STATUS:               ID:20170329094742d    3
 OLDACT:UP  17-03-29 17:16 OP:dnl  STATUS:               ID:20170329094741     3
 OLDACT:REG 17-03-29 12:59 OP:dnl  STATUS:               ID:20170329094741     3
 2017-03-29-0948-00M.COL___355                                                 6
 STAT SP IPHASW D HRMM SECON CODA AMPLIT PERI AZIMU VELO AIN AR TRES W  DIS CAZ7
 BAR2 EZ EP        957 29.10                             167   -0.3110 28.6 167 
 BAR2 EZ ES        957 43.40                             167   -0.4410 28.6 167 
 BAR2 EZ I         957 44.85         5.1 0.48            170           28.6 167 
 PAM  EZ EP   2    957 32.26                             148    0.00 5 81.1  48 
 PAM  EN ES        957 49.19                             148    0.2810 81.1  48 
 PAM  EZ I         957 51.15         5.3 0.56            150           81.1  48 
 RUS  HZ EP   2    957 33.59                             140   -0.53 5  107 171 
 RUS  HN ES        957 52.64                             140    0.4110  107 171 
 RUS  HZ I         957 53.18         1.7 0.42            143            107 171 
 PTB  HZ EP   2    957 36.57                             131    0.39 5  139 256 
 PTB  HN ES        957 56.03                             131    0.13 9  139 256 
 PTB  HZ I         958  0.57         1.9 0.20            132            139 256 
                                                                                
