 2014  829 0413 39.0 L   7.452 -73.177131.1  RSN  5 0.2 1.5LRSN                1
 GAP=245        0.58       2.8     4.8  4.9 -0.6104E+01  0.2809E+01  0.3969E+00E
 Epicentro: EL PLAYON - SANTANDER                                              3
 ACTION:UPD 14-09-15 21:54 OP:nd   STATUS:               ID:20140829041339 L   I
 OLDACT:REG 14-08-29 13:20 OP:fm   STATUS:               ID:20140829040813     3
 2014-08-29-0408-13M.COL___281                                                 6
 STAT SP IPHASW D HRMM SECON CODA AMPLIT PERI AZIMU VELO AIN AR TRES W  DIS CAZ7
 BRR  HZ EP   1    413 58.73                             150    0.23 7 70.3 237 
 BRR  HN ES        414 13.63                             150   -0.1010 70.3 237 
 BRR  HZ I         414 14.76         4.8 0.52            151           70.3 237 
 OCA  HZ EP   1    414  0.23                             144    0.31 7 88.4 350 
 OCA  HN ES        414 16.27                             144    0.0110 88.4 350 
 OCA  HZ I         414 20.53         3.2 0.24            146           88.4 350 
 PTB  HZ EP        414  7.42                             123    0.08 9  174 235 
 PTB  HN ES        414 29.23                             123   -0.24 9  174 235 
 PTB  HZ I         414 33.34         3.4 0.12            126            174 235 
 SML  HZ EP   1    414  7.66                             123   -0.18 7  179 327 
 SML  HN ES        414 30.13                             123   -0.22 9  179 327 
 SML  HZ I         414 31.23         7.2 0.10            125            179 327 
 ZAR  HZ EP        414  8.32                             122   -0.24 9  186 271 
 ZAR  HN ES        414 32.10                             122    0.47 9  186 271 
 ZAR  HZ I         414 33.49         3.7 0.18            124            186 271 
                                                                                
