 2011  429 0331 29.6 L   6.524 -73.512110.2  RSN  5 0.2 1.8LRSN                1
 GAP=195        0.46       2.9     4.7  5.5  0.3890E+01  0.3126E+01  0.7470E+00E
 Epicentro: EL CARMEN DE CHUCURI - SANTANDER                                   3
 ACTION:UP  11-06-22 15:33 OP:REBC STATUS:               ID:20110429033129 L   I
 2011-04-29-0330-48S.COL___138                                                 6
 STAT SP IPHASW D HRMM SECON CODA AMPLIT PERI AZIMU VELO SNR AR TRES W  DIS CAZ7
 BAR2 SZ IP        331 45.69                             160     0.310   37  78 
 BAR2 SZ ES   1    331 57.82                             160     0.0 7   37  78 
 BAR2 SZ I         331 59.95        48.5 0.35                            37  78 
 BRR  HZ EP   1    331 46.58                             146    -0.2 7   68 341 
 BRR  HZ I         331 54.76        21.0 0.10                            68 341 
 BRR  HN ES   1    332  0.23                             146     0.0 7   68 341 
 GIR2 SZ EP   1    331 47.26                             145     0.1 7   71  30 
 RUS  HZ EP   1    331 48.60                             140    -0.1 7   84 146 
 RUS  HE ES   1    332  3.49                             140    -0.1 7   84 146 
 RUS  HZ I         332  5.40         5.2 0.30                            84 146 
 PAM  SN ES   1    332 10.21                             127    -0.1 7  127  45 
                                                                                
