 2010  829 0633 53.1 L   6.765 -73.108143.2  RSN  6 0.2 1.5LRSN                1
 GAP=163        0.57       2.9     6.5  6.1  0.6672E-02 -0.1154E+02 -0.4478E+01E
 Epicentro: LOS SANTOS - SANTANDER                                             3
 ACTION:UP  10-09-07 10:59 OP:vdl  STATUS:               ID:20100829063353 L   I
 2010-08-29-0630-10S.COL___120                                                 6
 STAT SP IPHASW D HRMM SECON CODA AMPLIT PERI AZIMU VELO SNR AR TRES W  DIS CAZ7
 BAR2 SZ ES   2    634 26.78                             171    -0.6 5   21 204 
 BAR2 SZ I         634 27.97         9.2 0.24                            21 204 
 BRR  HZ IP     C  634 14.24                             150     0.010   77 300 
 BRR  HZ I         634 14.58         9.3 0.12                            77 300 
 BRR  HE ES   1    634 30.83                             150     0.0 7   77 300 
 RUS  HZ EP   1    634 16.27                             144     0.0 7   97 178 
 RUS  HN ES   1    634 34.62                             144     0.2 7   97 178 
 RUS  HZ I         634 35.63         2.2 0.17                            97 178 
 GUE  SZ EP   1    634 17.81                             138     0.0 7  120  10 
 GUE  SZ I         634 18.79         4.2 0.04                           120  10 
 GRA  SZ IP        634 18.36                             136     0.110  128  15 
 GRA  SZ I         634 19.47         5.1 0.31                           128  15 
 GRA  SZ ES   1    634 37.89                             136    -0.1 7  128  15 
 OCA  SZ EP   1    634 21.26                             128    -0.3 7  165 352 
 OCA  SZ ES   1    634 44.22                             128     0.4 7  165 352 
 OCA  SZ I         634 47.78         5.7 0.26                           165 352 
                                                                                
