 2010  129 0400 15.6 L   6.760 -73.479106.0  RSN  5 0.4 1.4LRSN                1
 GAP=232        0.89       3.9    22.4 10.1 -0.3853E+02  0.1158E+03 -0.1415E+02E
 Epicentro: EL CARMEN DE CHUCURI - SANTANDER                                   3
 ACTION:UP  10-08-24 09:46 OP:vdl  STATUS:               ID:20100129040015 L   I
 2010-01-29-0359-50S.COL___094                                                 6
 STAT SP IPHASW D HRMM SECON CODA AMPLIT PERI AZIMU VELO SNR AR TRES W  DIS CAZ7
 BAR2 SZ EP        4 0 31.23                             158     0.210   38 120 
 BAR2 SZ ES   2    4 0 42.70                             158    -0.3 5   38 120 
 GIR2 SZ EP        4 0 31.45                             153     0.110   47  42 
 GIR2 SZ ES   1    4 0 43.75                             153     0.2 7   47  42 
 RUS  HZ EP        4 0 36.00                             131    -0.210  105 155 
 RUS  HN ES        4 0 52.17                             131     0.010  105 155 
 RUS  HZ I         4 0 53.22         5.5 0.25                           105 155 
 GUE  SZ IP        4 0 38.13                             124    -0.510  133  27 
 GUE  SZ ES   1    4 0 55.81                             124    -0.7 7  133  27 
 GRA  SZ EP   1    4 0 40.33                             121     0.7 7  145  31 
 GRA  SZ ES   1    4 0 58.80                             121     0.5 7  145  31 
                                                                                
