 2016  129 0034 35.1 L   6.781 -73.663 90.0  RSN  8 0.4 1.5LRSN                1
 GAP=123        0.93       3.2     3.6  7.2  0.1459E+01  0.6514E+01  0.2947E+00E
 Epicentro: EL CARMEN - SANTANDER                                              3
 ACTION:UPD 16-03-09 23:29 OP:cam  STATUS:               ID:20160129003435 L   I
 OLDACT:DUP 16-01-29 15:08 OP:cara STATUS:               ID:20160129002713d    3
 OLDACT:REG 16-01-29 13:18 OP:cara STATUS:               ID:20160129002712     3
 2016-01-29-0027-11S.COL___226                                                 6
 STAT SP IPHASW D HRMM SECON CODA AMPLIT PERI AZIMU VELO AIN AR TRES W  DIS CAZ7
 BAR2 EZ EP        034 49.68                             146   -0.1710 57.1 111 
 BAR2 EZ ES        035  1.78                             146    0.4210 57.1 111 
 BAR2 EZ I         035  4.01        22.3 0.16            156           57.1 111 
 PTB  HZ EP        034 51.68                             131   -0.7410 91.7 253 
 PTB  HE ES        035  6.01                             131    0.0810 91.7 253 
 PTB  HZ I         035 10.01         5.8 0.28            133           91.7 253 
 RUS  HZ EP        034 55.18                             124   -0.3910  117 147 
 RUS  HN ES        035 11.33                             124   -0.2210  117 147 
 RUS  HZ I         035 12.25         4.6 0.26            131            117 147 
 SPBC HN ES        035 13.75                             120    0.2410  133 200 
 SPBC HZ I         035 21.51         4.9 0.20            124            133 200 
 ZAR  HN ES   4    035 18.62                             116    1.24 0  154 301 
 ZAR  HZ I         035 24.75         5.2 0.34            119            154 301 
 SML  HN ES        035 32.86                             107    0.27 8  228 349 
 CHI  HZ EP        035  9.47                             106    0.35 8  238 182 
 CHI  HN ES        035 35.74                             106    0.08 8  238 182 
 GUY2CHZ EP        035 11.75                             105    0.51 8  255 228 
 GUY2CHN ES   4    035 40.95                             105    1.52 0  255 228 
 GUY2CHZ I         035 47.37         2.5 0.58                           255 228 
                                                                                
