 2013  829 0700 54.0 L   6.759 -73.143148.2  RSN  9 0.4 1.7LRSN                1
 GAP=139        1.00       4.0     4.8  6.7 -0.5147E+01  0.7563E+01  0.1155E+01E
 Epicentro: LOS SANTOS - SANTANDER                                             3
 ACTION:UPD 14-01-14 09:08 OP:ep   STATUS:               ID:20130829070054 L   I
 OLDACT:REG 13-08-29 09:03 OP:jn   STATUS:               ID:20130829065853d    3
 2013-08-29-0658-52M.COL___211                                                 6
 STAT SP IPHASW D HRMM SECON CODA AMPLIT PERI AZIMU VELO AIN AR TRES W  DIS CAZ7
 BAR2 SZ EP        7 1 13.92                             172    0.0810 19.0 193 
 BAR2 SZ ES        7 1 29.23                             172   -0.0910 19.0 193 
 BAR2 SZ I         7 1 30.62        14.8 0.16            171           19.0 193 
 BRR  HZ EP     C  7 1 15.76                             152    0.2110 73.7 301 
 BRR  HN ES        7 1 33.17                             152    0.8110 73.7 301 
 BRR  HZ I         7 1 36.56         6.5 0.30            152           73.7 301 
 PAM  SZ EP        7 1 16.71                             150    0.0410 80.7  37 
 PAM  SN ES        7 1 33.98                             150   -0.3710 80.7  37 
 PAM  SZ I         7 1 36.36         4.6 0.22            153           80.7  37 
 RUS  HZ EP   1    7 1 17.57                             146   -0.10 7 96.1 176 
 RUS  HN ES        7 1 36.07                             146   -0.0710 96.1 176 
 RUS  HZ I         7 1 37.76         5.7 0.32            146           96.1 176 
 PTB  HZ EP        7 1 20.67                             133   -0.45 9  147 261 
 PTB  HN ES        7 1 41.34                             133   -0.93 9  147 261 
 PTB  HZ I         7 1 43.96         6.7 0.70            133            147 261 
 SPBC HZ EP        7 1 22.77                             130    0.39 9  160 220 
 SPBC HN ES        7 1 44.80                             130    0.29 9  160 220 
 SPBC HZ I         7 1 47.54        11.3 0.42            130            160 220 
 NOR  HE ES   1    7 1 57.64                             119    0.23 6  232 235 
 NOR  HZ I         7 2  1.96         4.8 0.22            120            232 235 
 SML  HN ES   1    7 2  0.28                             117    0.04 6  248 336 
 PRA  HE ES   1    7 2 28.55                             107   -0.08 4  388 210 
 PRA  HZ I         7 2 35.17         2.8 0.72            108            388 210 
                                                                                
