 2011  929 0017 23.9 L   6.770 -73.133142.3  RSN 12 0.5 2.9LRSN                1
 GAP=139        0.87       3.2     4.9  6.4 -0.2137E+01  0.1102E+02  0.3252E+01E
 Epicentro: LOS SANTOS - SANTANDER                                             3
 ACTION:UPD 12-07-13 16:00 OP:ep   STATUS:               ID:20110929001723 L   I
 2011-09-29-0015-30S.COL___168                                                 6
 STAT SP IPHASW D HRMM SECON CODA AMPLIT PERI AZIMU VELO AIN AR TRES W  DIS CAZ7
 BAR2 SZ IP     C  017 43.28                             171    0.2110 20.4 195 
 BAR2 SZ ES   1    017 57.07                             171   -0.94 7 20.4 195 
 BAR2 SZ I         017 59.06       303.3 0.27                          20.4 195 
 BTL  SZ EP        017 43.47                             171    0.3710 22.1 318 
 BRR  HZ IP     D  017 45.21                             151    0.3610 74.0 300 
 BRR  HZ I         017 45.64       231.2 0.13                          74.0 300 
 BRR  HN ES   1    018  2.12                             151    0.94 7 74.0 300 
 PAM  SZ EP   1    017 46.18                             149    0.31 7 79.1  37 
 PAM  SZ I         017 46.60       135.5 0.22                          79.1  37 
 PAM  SN ES   1    018  2.74                             149   -0.25 7 79.1  37 
 RUS  HZ EP   1    017 47.15                             144    0.07 7 97.2 177 
 RUS  HN ES   1    018  4.88                             144   -0.26 7 97.2 177 
 RUS  HZ I         018  6.51       166.6 0.24                          97.2 177 
 OCA  SZ EP   1    017 52.02                             128   -0.26 7  164 353 
 OCA  SZ ES   1    018 13.50                             128   -0.91 7  164 353 
 OCA  SZ I         018 18.25       182.6 0.50                           164 353 
 ZAR  HZ EP   1    017 56.29                             121   -0.11 6  207 293 
 ZAR  HN ES   1    018 21.74                             121    0.01 6  207 293 
 ZAR  HZ I         018 27.55       137.9 0.54                           207 293 
 NOR  SZ EP   1    017 59.18                             118   -0.18 6  234 235 
 NOR  SN ES   1    018 27.11                             118    0.11 6  234 235 
 NOR  SZ I         018 32.05         3.5 0.19                           234 235 
 CHI  HZ EP   1    018  1.01                             116   -0.10 6  246 196 
 CHI  HN ES   1    018 30.37                             116    0.25 6  246 196 
 CHI  HZ I         018 33.91        34.9 0.38                           246 196 
 ROSC BN ES   1    018 31.11                             116    0.10 6  251 212 
 HEL  HZ EP   1    018  3.65                             114   -0.36 6  273 257 
 HEL  HN ES   2    018 34.42                             114   -0.86 4  273 257 
 HEL  HZ I         018 44.12        41.1 0.25                           273 257 
 PRA  HZ EP   1    018 17.31                             106    0.25 4  390 210 
 PRA  HN ES   1    018 57.67                             106   -0.84 4  390 210 
 PRA  HZ I         019  4.45       103.3 0.27                           390 210 
                                                                                
