 2013  129 0017 56.1 L   6.555 -73.755 94.5  RSN  6 0.4 1.8LRSN                1
 GAP=134        0.95       4.5     3.2  7.0  0.2745E+01  0.1607E+01  0.8539E+00E
 Epicentro: SANTA HELENA DEL OPON - SANTANDER                                  3
 ACTION:UPD 13-02-15 09:17 OP:ep   STATUS:               ID:20130129001756 L   I
 2013-01-29-0010-00M.COL___241                                                 6
 STAT SP IPHASW D HRMM SECON CODA AMPLIT PERI AZIMU VELO AIN AR TRES W  DIS CAZ7
 BRR  HZ EP        018 11.36                             144    0.1210 61.2   4 
 BRR  HN ES        018 23.35                             144    0.2810 61.2   4 
 BRR  HZ I         018 36.71        17.3 0.45            144           61.2   4 
 BAR2 SZ EP   1    018 11.63                             144   -0.11 7 63.4  86 
 BAR2 SZ ES        018 24.19                             144    0.2410 63.4  86 
 BAR2 SZ I         018 25.20        32.4 0.22            149           63.4  86 
 PTB  HZ EP        018 12.27                             138   -0.2710 77.6 269 
 PTB  HN ES        018 24.82                             138   -0.5610 77.6 269 
 PTB  HZ I         018 28.09        18.9 0.12            144           77.6 269 
 RUS  HZ EP        018 15.98                             129    0.3910  104 135 
 RUS  HN ES   1    018 30.91                             129    0.10 7  104 135 
 RUS  HN I         018 32.86        11.7 0.18            141            104 135 
 PAM  SZ EP        018 19.44                             119   -0.35 9  145  53 
 PAM  SN ES   1    018 37.38                             119   -0.91 7  145  53 
 PAM  SZ I         018 42.85         7.1 0.20            124            145  53 
 ZAR  HZ EP        018 21.11                             116    0.33 9  160 310 
 ZAR  HN ES   1    018 40.66                             116    0.61 7  160 310 
 ZAR  HZ I         018 45.59        17.4 0.34            121            160 310 
                                                                                
