 2013 1029 0535  9.3 L   6.762 -73.181146.7  RSN  6 0.4 1.3LRSN                1
 GAP=197        1.10       5.3     6.9  8.0  0.8005E+01  0.7017E+01 -0.2367E+00E
 Epicentro: VILLANUEVA - SANTANDER                                             3
 ACTION:UPD 13-11-25 09:24 OP:ep   STATUS:               ID:20131029053509 L   I
 OLDACT:REG 13-10-29 07:00 OP:jn   STATUS:               ID:20131029053000     3
 2013-10-29-0530-00M.COL___273                                                 6
 STAT SP IPHASW D HRMM SECON CODA AMPLIT PERI AZIMU VELO AIN AR TRES W  DIS CAZ7
 BAR2 SZ EP        535 28.82                             172   -0.1010 18.8 180 
 BAR2 SZ ES        535 43.79                             172   -0.4710 18.8 180 
 BAR2 SZ I         535 46.40         6.2 0.38            167           18.8 180 
 BRR  HZ EP        535 30.88                             153    0.4410 70.0 303 
 BRR  HN ES        535 47.58                             153    0.6210 70.0 303 
 BRR  HZ I         535 50.47         3.9 0.58            151           70.0 303 
 RUS  HZ EP        535 33.19                             145    0.3610 96.7 174 
 RUS  HN ES        535 51.07                             145   -0.1510 96.7 174 
 RUS  HZ I         535 54.87         1.3 0.48            145           96.7 174 
 PTB  HZ EP        535 35.19                             133   -0.70 9  143 260 
 PTB  HN ES        535 56.65                             133   -0.01 9  143 260 
 PTB  HZ I         536  2.74         2.9 0.18            132            143 260 
 SPBC HZ EP        535 37.79                             130    0.50 9  157 219 
 SPBC HN ES        535 58.88                             130   -0.28 9  157 219 
 SPBC HZ I         536  6.98         3.1 0.28            130            157 219 
 SML  HN ES   1    536 14.21                             117   -0.77 6  246 337 
                                                                                
