 2017  829 0503  1.6 L   6.772 -73.134145.0  RSN  5 0.4 1.6LRSN                1
 GAP=139        1.11       5.7     6.2  8.8  0.7641E+01  0.6444E+01 -0.7484E+00E
 Epicentro: LOS SANTOS - SANTANDER                                             3
 ACTION:UPD 17-09-04 20:26 OP:rebc STATUS:               ID:20170829050301 L   I
 OLDACT:UP  17-08-29 16:42 OP:dani STATUS:               ID:20170829045639     3
 OLDACT:REG 17-08-29 13:02 OP:dani STATUS:               ID:20170829045639     3
 2017-08-29-0457-00M.COL___417                                                 6
 STAT SP IPHASW D HRMM SECON CODA AMPLIT PERI AZIMU VELO AIN AR TRES W  DIS CAZ7
 BAR2 EZ EP        5 3 20.77                             172   -0.3110 20.5 195 
 BAR2 EZ ES        5 3 35.62                             172   -0.6610 20.5 195 
 BAR2 EZ I         5 3 38.58        10.8 0.44            172           20.5 195 
 BRR  HZ EP        5 3 22.74                             151   -0.0710 73.8 300 
 BRR  HE ES        5 3 40.17                             151    0.8010 73.8 300 
 BRR  HZ I         5 3 43.86         3.3 0.22            153           73.8 300 
 PAM  EZ EP        5 3 23.78                             150   -0.0510 79.1  37 
 PAM  EE ES        5 3 41.25                             150    0.0710 79.1  37 
 PAM  EZ I         5 3 42.85         7.2 0.60            153           79.1  37 
 RUS  HZ EP        5 3 25.49                             145    0.4510 97.4 177 
 RUS  HN ES        5 3 43.44                             145    0.1110 97.4 177 
 RUS  HZ I         5 3 45.14         8.5 0.33            148           97.4 177 
 ZAR  HN ES        5 3 59.24                             122   -0.45 8  206 293 
                                                                                
