 2010  729 0331 24.7 L   6.755 -73.150147.3  RSN  6 0.4 1.6LRSN                1
 GAP=159        0.91       6.0    11.4 11.9 -0.8810E+01 -0.4607E+02 -0.1878E+01E
 Epicentro: LOS SANTOS - SANTANDER                                             3
 ACTION:UPD 10-12-01 15:20 OP:pat  STATUS:               ID:20100729033124 L   I
 2010-07-29-0328-55S.COL___123                                                 6
 STAT SP IPHASW D HRMM SECON CODA AMPLIT PERI AZIMU VELO AIN AR TRES W  DIS CAZ7
 BAR2 SZ EP   1    331 44.00                             173    -0.4 7   18 192 
 BAR2 SZ I         332  0.41        13.8 0.35                            18 192 
 BRR  HZ IP     D  331 46.11                             152     0.010   73 302 
 BRR  HE ES   1    332  2.99                             152     0.2 7   73 302 
 BRR  HZ I         332  3.77        10.6 0.13                            73 302 
 RUS  HZ EP   1    331 48.50                             145     0.3 7   96 176 
 RUS  HN ES   2    332  6.44                             145    -0.2 5   96 176 
 RUS  HZ I         332  8.98         3.5 0.37                            96 176 
 GUE  SZ EP   1    331 49.51                             138    -0.4 7  121  12 
 GRA  SZ EP   1    331 51.29                             136     0.8 7  131  17 
 GRA  SZ ES   1    332 10.52                             136    -0.1 7  131  17 
 GRA  SZ I         332 11.40         3.3 0.27                           131  17 
 OCA  SZ EP   1    331 53.18                             129    -0.4 7  165 354 
 OCA  SZ I         332 17.65         5.7 0.16                           165 354 
                                                                                
