 2014 1129 0833 50.2 L   6.817 -73.154150.2  RSN  6 0.5 1.5LRSN                1
 GAP=250        1.23       7.5     7.8  8.7  0.2354E+02  0.2159E+02  0.2143E+02E
 Epicentro: LOS SANTOS - SANTANDER                                             3
 ACTION:UPD 14-12-19 15:48 OP:nd   STATUS:               ID:20141129083350 L   I
 OLDACT:REG 14-11-29 13:17 OP:fm   STATUS:               ID:20141129082744     3
 2014-11-29-0827-44M.COL___303                                                 6
 STAT SP IPHASW D HRMM SECON CODA AMPLIT PERI AZIMU VELO AIN AR TRES W  DIS CAZ7
 BAR2 SZ EP        834 10.20                             170   -0.2310 25.0 187 
 BAR2 SZ ES        834 25.61                             170   -0.5810 25.0 187 
 BAR2 SZ I         834 27.61         9.3 0.22            167           25.0 187 
 BRR  HE ES        834 29.56                             154    0.9910 69.5 298 
 BRR  HZ I         834 34.11         4.8 0.26            151           69.5 298 
 PTB  HZ EP        834 17.37                             133   -0.15 9  147 258 
 PTB  HN ES        834 38.35                             133   -0.45 9  147 258 
 PTB  HZ I         834 41.16         3.9 0.14            132            147 258 
 ZAR  HZ EP        834 22.24                             123   -0.57 9  203 292 
 ZAR  HN ES        834 48.48                             123    0.25 9  203 292 
 ZAR  HZ I         834 54.66         3.2 0.44            124            203 292 
 CHI  HZ EP        834 29.15                             118    0.80 8  250 195 
 CHI  HN ES        834 58.33                             118    0.25 8  250 195 
 CHI  HZ I         835  2.40         2.2 0.48            119            250 195 
 HEL  HZ EP        834 30.77                             116    0.14 8  272 255 
 HEL  HN ES        835  1.88                             116   -0.26 8  272 255 
 HEL  HZ I         835  9.47         1.8 0.26            116            272 255 
                                                                                
