 2010  929 0358 59.9 L   6.811 -73.091147.2  RSN  5 0.1 1.2LRSN                1
 GAP=238        0.39       3.7     7.3  5.0  0.1309E+02 -0.9132E+01  0.8868E+00E
 Epicentro: LOS SANTOS - SANTANDER                                             3
 ACTION:UP  11-02-18 11:06 OP:tino STATUS:               ID:20100929035859 L   I
 2010-09-29-0357-51S.COL___125                                                 6
 STAT SP IPHASW D HRMM SECON CODA AMPLIT PERI AZIMU VELO SNR AR TRES W  DIS CAZ7
 BTL  SZ EP        359 19.91                             171     0.210   23 301 
 BAR2 SZ EP   1    359 19.57                             170    -0.2 7   26 203 
 BAR2 SZ ES   2    359 35.37                             170     0.1 5   26 203 
 BAR2 SZ I         359 38.08         3.8 0.26                            26 203 
 BRR  HZ EP        359 21.53                             151     0.010   76 296 
 BRR  HZ I         359 26.00         3.1 0.34                            76 296 
 BRR  HE ES   1    359 38.27                             151    -0.1 7   76 296 
 RUS  HZ EP   1    359 23.92                             144     0.0 7  102 180 
 RUS  HE ES   2    359 42.55                             144     0.0 5  102 180 
 RUS  HZ I         359 43.95         2.0 0.14                           102 180 
 CHI  HZ EP   2    359 37.78                             117    -0.2 4  251 196 
 CHI  HN ES   2    4 0  7.90                             117     0.2 4  251 196 
 CHI  HZ I         4 0 12.96         1.5 0.24                           251 196 
                                                                                
