 2015  929 0114 38.0 L   6.812 -73.155148.7  RSN 16 0.4 2.1LRSN                1
 GAP= 70        1.03       2.8     3.5  5.5 -0.1254E+01  0.2072E+01  0.8058E+00E
 Epicentro: LOS SANTOS - SANTANDER                                             3
 ACTION:UPD 15-10-28 16:28 OP:cam  STATUS:               ID:20150929011438 L   I
 OLDACT:REG 15-09-29 12:20 OP:spq  STATUS:               ID:20150929010746     3
 2015-09-29-0107-46M.COL___352                                                 6
 STAT SP IPHASW D HRMM SECON CODA AMPLIT PERI AZIMU VELO AIN AR TRES W  DIS CAZ7
 BAR2 EZ ES   1    115 13.56                             170   -0.05 7 24.5 187 
 BAR2 EZ I         115 14.49        19.6 0.16            169           24.5 187 
 BRR  HZ EP        114 59.78                             154    0.4010 69.7 298 
 BRR  HN ES        115 16.87                             154    0.8110 69.7 298 
 BRR  HZ I         115 17.63        11.7 0.26            150           69.7 298 
 PAM  EZ EP        115  0.89                             151    0.3910 77.0  41 
 PAM  EN ES        115 18.05                             151   -0.0110 77.0  41 
 PAM  EZ I         115 20.04        26.9 0.38            155           77.0  41 
 RUS  HZ EP        115  2.01                             144   -0.1210  102 176 
 RUS  HN ES        115 20.94                             144   -0.0210  102 176 
 RUS  HZ I         115 21.60        13.7 0.22            146            102 176 
 PTB  HZ EP        115  4.73                             133   -0.41 9  147 258 
 PTB  HN ES        115 25.72                             133   -0.59 9  147 258 
 PTB  HZ I         115 32.60        10.8 0.66            132            147 258 
 TAM  HZ IP     D  115  6.29                             131    0.26 9  156 105 
 OCA  HZ EP        115  5.90                             131   -0.50 9  159 353 
 OCA  HN ES        115 27.64                             131   -0.92 9  159 353 
 OCA  HZ I         115 32.64        23.0 0.56            131            159 353 
 SPBC HZ EP        115  6.75                             130   -0.01 9  164 218 
 SPBC HE ES        115 28.94                             130   -0.25 9  164 218 
 SPBC HZ I         115 31.40        21.2 0.38            130            164 218 
 ZAR  HZ EP        115 10.98                             123    0.49 9  203 292 
 ZAR  HE ES        115 35.66                             123   -0.17 9  203 292 
 ZAR  HZ I         115 44.75         8.0 0.50            123            203 292 
 NOR  HZ EP        115 14.07                             119    0.18 8  235 234 
 NOR  HE ES        115 42.44                             119    0.55 8  235 234 
 NOR  HZ I         115 49.75        10.3 0.16            119            235 234 
 SML  HZ EP        115 14.53                             118   -0.08 8  242 335 
 SML  HE ES   1    115 43.84                             118    0.67 6  242 335 
 SML  HZ I         115 46.22        17.7 0.26            119            242 335 
 CHI  HZ EP        115 16.07                             118    0.11 8  250 195 
 CHI  HE ES        115 45.04                             118   -0.54 8  250 195 
 CHI  HZ I         115 48.87         6.7 0.44            119            250 195 
 HEL  HZ EP   4    115 19.71                             115    1.43 0  271 255 
 HEL  HE ES   1    115 49.71                             115   -0.00 6  271 255 
 HEL  HZ I         115 55.27         6.1 0.34            115            271 255 
 GUY2CHZ EP   4    115 23.53                             113    1.80 0  301 234 
 GUY2CHE ES   4    115 57.67                             113    1.82 0  301 234 
 GUY2CHZ I         116  2.02         5.2 0.38                           301 234 
 SJC  HZ EP   4    115 31.98                             106   -1.48 0  408 327 
 SJC  HN ES   4    116 13.28                             106   -3.44 0  408 327 
 SJC  HZ I         116 17.23         2.3 0.56            107            408 327 
 CRJC HZ EP   4    115 38.34                             104   -2.09 0  466   4 
 CRJC HE ES   4    116 25.81                             104   -3.32 0  466   4 
 CRJC HZ I         116 28.91         2.6 0.30            105            466   4 
                                                                                
