 2017  129 0518 52.7 L   6.777 -73.106140.3  RSN  5 0.5 0.9LRSN                1
 GAP=143        1.23       8.1     6.8  9.8 -0.1511E+02  0.1365E+02 -0.4578E+01E
 Epicentro: LOS SANTOS - SANTANDER                                             3
 ACTION:UPD 17-05-22 16:04 OP:jn   STATUS:               ID:20170129051852 L   I
 OLDACT:UP  17-03-31 20:18 OP:nlst STATUS:               ID:20170129051852 L   3
 OLDACT:REG 17-01-29 13:15 OP:lv   STATUS:               ID:20170129051744     3
 2017-01-29-0518-00M.COL___342                                                 6
 STAT SP IPHASW D HRMM SECON CODA AMPLIT PERI AZIMU VELO AIN AR TRES W  DIS CAZ7
 BAR2 EZ EP        519 11.95                             171    0.3010 22.1 202 
 BAR2 EZ ES        519 25.87                             171   -0.5510 22.1 202 
 BAR2 EZ I         519 27.56         0.9 0.08            176           22.1 202 
 BRR  HZ EP        519 13.81                             150    0.2510 76.2 299 
 BRR  HN ES        519 30.62                             150    0.7910 76.2 299 
 PAM  EZ EP        519 14.46                             150    0.1610 76.8  36 
 PAM  EN ES        519 30.68                             150   -0.4610 76.8  36 
 PAM  EZ I         519 38.27         1.9 0.36            148           76.8  36 
 RUS  HE ES   1    519 34.27                             143    0.61 7 97.8 178 
 PTB  HZ EP        519 19.00                             130   -0.58 9  152 260 
 PTB  HN ES        519 40.17                             130   -0.38 9  152 260 
 PTB  HZ I         519 42.60         1.4 0.07            133            152 260 
                                                                                
