 2013  429 0029 39.8 L   6.826 -73.159152.1  RSN 26 0.6 3.9LRSN 4.0WRSN        1
 SPEC AVERAGE  MO 15.0 ST217.7 OM  3.5 f0 4.58 R0.3395 AL 2.91 WI 53.7 MW  4.0 3
 SPEC SD       MO  0.3 ST226.4 OM  0.4 f0 1.09 R0.0799 AL      WI      MW  0.2 3
 GAP= 55        1.15       3.0     3.6  5.1 -0.2603E+00  0.8994E+00  0.1937E+01E
 Epicentro: LOS SANTOS - SANTANDER                                             3
 SPEC SJC HH N MO 14.9 ST199.2 OM  2.9 f0 5.52 R0.2663 AL 2.72 WI 92.7 MW  3.9 3
 SPEC SJC HH N T 03112 K 0.000 GD  433 VS 4.20 DE 3.20 Q0300.0 QA 0.60 VS 4.20 3
 SPEC VIL SH N MO 15.5 ST128.9 OM  3.6 f0 3.02 R0.4868 AL 2.78 WI 99.9 MW  4.3 3
 SPEC VIL SH N T 03052 K 0.000 GD  341 VS 4.20 DE 3.20 Q0300.0 QA 0.60 VS 4.20 3
 SPEC YOP SH N MO 14.9 ST114.3 OM  3.1 f0 4.81 R0.3056 AL 3.87 WI 76.6 MW  3.9 3
 SPEC YOP SH N T 03033 K 0.000 GD  237 VS 4.20 DE 3.20 Q0300.0 QA 0.60 VS 4.20 3
 SPEC PRA HH N MO 14.8 ST 79.7 OM  2.8 f0 4.43 R0.3318 AL 2.00 WI 66.0 MW  3.8 3
 SPEC PRA HH N T 03111 K 0.000 GD  422 VS 4.20 DE 3.20 Q0300.0 QA 0.60 VS 4.20 3
 SPEC OCA HH N MO 15.3 ST314.7 OM  3.6 f0 4.72 R0.3114 AL 2.63 WI 29.9 MW  4.2 3
 SPEC OCA HH N T 03029 K 0.000 GD  218 VS 4.20 DE 3.20 Q0300.0 QA 0.60 VS 4.20 3
 SPEC PTB HH N MO 15.0 ST118.6 OM  3.3 f0 4.34 R0.3387 AL 1.81 WI 26.5 MW  4.0 3
 SPEC PTB HH N T 03026 K 0.000 GD  211 VS 4.20 DE 3.20 Q0300.0 QA 0.60 VS 4.20 3
 SPEC RUS HH N MO 14.7 ST 39.6 OM  3.0 f0 3.97 R0.3703 AL 2.45 WI 47.4 MW  3.7 3
 SPEC RUS HH N T 03021 K 0.000 GD  184 VS 4.20 DE 3.20 Q0300.0 QA 0.60 VS 4.20 3
 SPEC PAM SH N MO 14.7 ST 40.4 OM  3.1 f0 3.80 R0.3868 AL 2.97 WI 33.8 MW  3.8 3
 SPEC PAM SH N T 03019 K 0.000 GD  170 VS 4.20 DE 3.20 Q0300.0 QA 0.60 VS 4.20 3
 SPEC GUA SH N MO 15.5 ST434.8 OM  3.4 f0 4.65 R0.3161 AL 2.73 WI 17.8 MW  4.3 3
 SPEC GUA SH N T 03130 K 0.000 GD  500 VS 4.20 DE 3.20 Q0300.0 QA 0.60 VS 4.20 3
 SPEC COD HH N MO 14.7 ST 17.7 OM  2.7 f0 3.01 R0.4884 AL 1.38 WI 77.9 MW  3.7 3
 SPEC COD HH N T 031 4 K 0.000 GD  377 VS 4.20 DE 3.20 Q0300.0 QA 0.60 VS 4.20 3
 SPEC HEL HH N MO 14.9 ST 69.4 OM  3.0 f0 4.02 R0.3657 AL 3.09 WI 79.8 MW  3.9 3
 SPEC HEL HH N T 03054 K 0.000 GD  310 VS 4.20 DE 3.20 Q0300.0 QA 0.60 VS 4.20 3
 SPEC NOR HH N MO 15.3 ST843.8 OM  3.5 f0 6.52 R0.2255 AL 4.36 WI 22.3 MW  4.2 3
 SPEC NOR HH N T 03043 K 0.000 GD  279 VS 4.20 DE 3.20 Q0300.0 QA 0.60 VS 4.20 3
 SPEC BRR HH N MO 15.0 ST429.5 OM  3.4 f0 6.68 R0.2201 AL 5.03 WI 28.1 MW  4.0 3
 SPEC BRR HH N T 03018 K 0.000 GD  166 VS 4.20 DE 3.20 Q0300.0 QA 0.60 VS 4.20 3
 ACTION:UPD 13-05-22 14:41 OP:EP   STATUS:               ID:20130429002940 L   I
 2013-04-29-0028-20M.COL___205                                                 6
 STAT SP IPHASW D HRMM SECON CODA AMPLIT PERI AZIMU VELO AIN AR TRES W  DIS CAZ7
 CROSAEZ EP   1    030 19.86                             117                    
 ARGC HZ EP   4    030 30.31                             109                    
 ARGC HN ES   4    031  9.42                             109                    
 ARGC HZ I         031 16.02                             106                    
 CNOCAEZ EP   1    030 16.28                             119                    
 BAR2 SZ IP     C  030  0.07                             170   -0.1510 26.0 186 
 BAR2 SZ ES        030 15.32                             170   -0.8510 26.0 186 
 GIR2 SZ EP        030  0.10                             169   -0.0210 28.2 352 
 GIR2 SZ ES        030 16.12                             169    0.1210 28.2 352 
 GIR2 SZ I         030 16.91       980.0 0.50            164           28.2 352 
 BRR  HZ IP     C  030  1.82                             154    0.3510 68.5 297 
 BRR  HE ES        030 19.06                             154    0.6710 68.5 297 
 BRR  HE I         030 19.42      5061.5 0.32            146           68.5 297 
 PAM  SZ EP     D  030  3.09                             152    0.4910 76.2  42 
 PAM  SN ES        030 20.13                             152   -0.2710 76.2  42 
 PAM  SN I         030 22.22       827.1 0.40            151           76.2  42 
 RUS  HZ IP     D  030  4.00                             144   -0.3610  104 175 
 RUS  HN ES   1    030 22.69                             144   -0.86 7  104 175 
 RUS  HN I         030 25.23       684.2 0.26            141            104 175 
 PTB  HZ EP     C  030  6.52                             133   -0.67 9  147 258 
 PTB  HN ES   1    030 27.78                             133   -0.79 7  147 258 
 PTB  HZ I         030 32.79       418.3 0.19            127            147 258 
 PTB  HN I         030 33.06      2078.3 0.32                           147 258 
 CAPV BZ IP     C  030  8.06                             133    0.49 9  148  39 
 TAM  HZ EP        030  8.53                             131    0.37 9  157 106 
 TAM  HN ES   1    030 30.35                             131    0.04 7  157 106 
 TAM  HN I         030 31.05       899.8 0.34            130            157 106 
 OCA  HZ IP     C  030  8.33                             131    0.03 9  157 354 
 OCA  HN ES        030 30.87                             131    0.31 9  157 354 
 OCA  HN I         030 36.44      2187.5 0.34            127            157 354 
 YOP  SZ EP     D  030 10.91                             127    0.31 9  182 153 
 YOP  SN ES   1    030 35.39                             127    0.75 7  182 153 
 YOP  SN I         030 37.46       699.1 0.26            124            182 153 
 ZAR  HZ IP     C  030 12.63                             124    0.24 9  202 292 
 ZAR  HE ES   1    030 38.20                             124    0.37 6  202 292 
 ZAR  HE I         030 44.19      1679.9 0.40            118            202 292 
 NOR  HZ EP   1    030 15.94                             120    0.01 6  235 234 
 NOR  HN ES   1    030 44.11                             120   -0.02 6  235 234 
 NOR  HN I         030 50.93      1433.9 0.18            115            235 234 
 SML  HZ EP   1    030 16.35                             119   -0.06 6  240 335 
 SML  HN ES   1    030 44.66                             119   -0.33 6  240 335 
 SML  HN I         030 48.03      1512.7 0.28            114            240 335 
 ROSC BZ EP   4 D  030 19.85                             118    1.42 0  254 210 
 ROSC BN ES   1    030 49.88                             118    1.29 6  254 210 
 ROSC BZ I         030 56.98       432.1 0.31            113            254 210 
 HEL  HZ EP   4    030 19.99                             116   -0.24 0  271 255 
 HEL  HN ES   4    030 54.92                             116    3.13 0  271 255 
 HEL  HN I         030 59.15       311.6 0.28            111            271 255 
 URE  HZ EP   1    030 19.78                             115   -1.10 6  281 291 
 URE  HZ I         030 53.26       279.7 0.11            110            281 291 
 VIL  SZ EP        030 23.94                             113    0.17 7  306 191 
 VIL  SN ES        030 58.18                             113    0.09 7  306 191 
 VIL  SN I         031  3.93       926.9 0.48            110            306 191 
 DBB  SZ IP   4 C  030 27.53                             110    0.21 0  338 274 
 DBB  SZ ES   4    031  5.12                             110    0.72 0  338 274 
 DBB  SZ I         031  8.26       154.8 0.30            107            338 274 
 COD  HZ EP   4    030 27.69                             110   -0.37 0  345 355 
 COD  HN ES   4    031  6.04                             110    0.32 0  345 355 
 COD  HN IS   4    031  6.04                             110    0.32 0  345 355 
 COD  HN I         031  8.19       138.9 0.30            107            345 355 
 SDV  BZ EP   1    030 29.66                             109   -0.32 5  360  51 
 SDV  BE ES   1    031  7.13                             109   -2.02 5  360  51 
 SDV  BZ I         031 10.23        49.1 0.41            107            360  51 
 PRA  HZ EP   4    030 33.31                             107   -0.41 0  394 209 
 PRA  HN ES   4    031 16.88                             107    1.07 0  394 209 
 PRA  HN I         031 19.72       198.3 0.54            104            394 209 
 SJC  HZ EP   4    030 34.39                             107   -0.78 0  406 327 
 SJC  HN ES   4    031 15.34                             107   -3.03 0  406 327 
 SJC  HN I         031 29.08       181.1 0.42            103            406 327 
 YOT  HZ EP   4    030 42.66                             104   -0.43 0  473 228 
 GUA  SZ IP   4 C  030 43.03                             104   -0.44 0  477 173 
 GUA  SN ES   4    031 31.08                             104   -2.07 0  477 173 
 SMAR HZ EP   4    030 45.67                             103    0.24 0  494 346 
 MARA HZ EP   1    030 51.36                             102    0.24 3  539 215 
 MARA HN ES   1    031 45.89                             102   -0.89 3  539 215 
                                                                                
