 2017  129 0532 58.9 L   6.134 -73.925  0.7  RSN  5 0.1 0.6LRSN                1
 GAP=201        0.39       2.5     3.4  8.9  0.6731E+01 -0.2782E+02 -0.1680E+02E
 Epicentro: EL PENON - SANTANDER                                               3
 ACTION:UPD 17-05-22 16:04 OP:jn   STATUS:               ID:20170129053258 L   I
 OLDACT:REG 17-01-29 13:15 OP:lv   STATUS:               ID:20170129052747     3
 2017-01-29-0528-00M.COL___342                                                 6
 STAT SP IPHASW D HRMM SECON CODA AMPLIT PERI AZIMU VELO AIN AR TRES W  DIS CAZ7
 PTB  HZ EP        533 11.17                              47   -0.0410 73.9 307 
 PTB  HZ I         533 24.82         1.1 0.14             95           73.9 307 
 BAR2 EZ EP   4    533 13.35                              47   -1.52 0 96.5  58 
 BAR2 EZ ES        533 27.23                              47   -0.0810 96.5  58 
 BAR2 EZ I         533 30.10         3.6 0.42             96           96.5  58 
 RUS  HN ES        533 27.98                              47    0.0810 97.0 106 
 BRR  HN ES        533 30.67                              47    0.1410  110  12 
 PAM  EN ES        533 52.49                              37   -0.12 9  190  45 
                                                                                
