 2012  229 0607  4.1 L   6.764 -73.110143.7  RSN  4 0.1 1.4LRSN                1
 GAP=143        0.30       1.7     2.9  3.4 -0.4444E+00  0.6015E+00  0.2044E+01E
 ACTION:UP  12-03-07 16:35 OP:epov STATUS:               ID:20120229060704 L   I
 2012-02-29-0600-00M.COL___191                                                 6
 STAT SP IPHASW D HRMM SECON CODA AMPLIT PERI AZIMU VELO AIN AR TRES W  DIS CAZ7
 BRR  HZ EP        6 7 25.34                             150   -0.0510 76.6 300 
 BRR  HE ES   1    6 7 41.99                             150    0.03 7 76.6 300 
 BRR  HZ I         6 7 44.64         5.9 0.19                          76.6 300 
 PAM  SZ EP   1    6 7 26.32                             150    0.13 7 78.1  35 
 PAM  SN ES   1    6 7 43.39                             150    0.00 7 78.1  35 
 RUS  HZ EP        6 7 27.32                             145   -0.0810 96.4 178 
 RUS  HE ES   1    6 7 45.49                             145   -0.04 7 96.4 178 
 RUS  HZ I         6 7 47.39         3.3 0.44                          96.4 178 
 CHI  HZ EP   1    6 7 41.44                             117    0.01 6  246 196 
 CHI  HN ES   1    6 8 10.67                             117    0.16 6  246 196 
 CHI  HZ I         6 8 19.51         1.9 0.58                           246 196 
                                                                                
