 2013  429 0354 47.0 L   6.728 -73.174159.5  RSN  4 0.3 1.7LRSN                1
 GAP=197        0.57       4.0     6.1  6.4  0.9560E+01 -0.7298E+01 -0.1037E+02E
 Epicentro: VILLANUEVA - SANTANDER                                             3
 ACTION:UPD 13-05-22 14:41 OP:EP   STATUS:               ID:20130429035447 L   I
 2013-04-29-0350-00M.COL___248                                                 6
 STAT SP IPHASW D HRMM SECON CODA AMPLIT PERI AZIMU VELO AIN AR TRES W  DIS CAZ7
 BRR  HZ EP   1    355  9.30                             154   -0.43 8 72.8 305 
 BRR  HN ES   1    355 27.34                             154   -0.13 8 72.8 305 
 BRR  HN I         355 30.33        11.3 0.18            154           72.8 305 
 RUS  HZ EP   1    355 11.75                             148    0.13 8 92.9 174 
 RUS  HE ES   1    355 30.94                             148    0.11 8 92.9 174 
 RUS  HE I         355 33.32         2.7 0.62            150           92.9 174 
 PTB  HZ EP     D  355 14.99                             136    0.2510  143 262 
 PTB  HN ES   1    355 36.27                             136   -0.11 7  143 262 
 PTB  HN I         355 40.86         5.6 0.26            136            143 262 
 SML  HZ EP        355 24.82                             119   -0.25 8  250 337 
 SML  HN ES   1    355 55.27                             119    0.50 6  250 337 
 SML  HN I         355 55.37         6.1 0.10            122            250 337 
                                                                                
