 2014 1029 0743 37.6 L   6.758 -73.163147.7  RSN  6 0.4 1.3LRSN                1
 GAP=136        1.02       4.9     5.1  7.5 -0.6195E+01  0.4344E+01  0.8954E+00E
 Epicentro: LOS SANTOS - SANTANDER                                             3
 ACTION:UPD 14-11-29 23:58 OP:nd   STATUS:               ID:20141029074337 L   I
 OLDACT:ARG 14-10-30 20:25 OP:stll STATUS:               ID:20141029073736     3
 2014-10-29-0737-36M.COL___268                                                 6
 STAT SP IPHASW D HRMM SECON CODA AMPLIT PERI AZIMU VELO AIN AR TRES W  DIS CAZ7
 BAR2 SZ EP        743 57.35                             173   -0.0710 18.5 187 
 BAR2 SZ ES        744 12.35                             173   -0.4910 18.5 187 
 BAR2 SZ I         744 13.52         4.5 0.28            170           18.5 187 
 BRR  HZ IP     C  743 59.19                             153    0.1510 71.9 303 
 BRR  HZ I         743 59.44         6.5 0.28            150           71.9 303 
 BRR  HN ES        744 16.58                             153    0.8510 71.9 303 
 PAM  SZ EP        744  0.16                             150   -0.1910 82.2  39 
 PAM  SZ I         744  0.42         5.6 0.22            153           82.2  39 
 PAM  SN ES        744 17.85                             150   -0.2210 82.2  39 
 RUS  HZ EP        744  1.70                             145    0.4310 96.1 175 
 RUS  HN ES        744 19.90                             145    0.2010 96.1 175 
 RUS  HZ I         744 21.40         1.2 0.22            145           96.1 175 
 PTB  HZ EP        744  4.31                             133   -0.21 9  145 260 
 PTB  HN ES        744 24.97                             133   -0.52 9  145 260 
 PTB  HZ I         744 32.39         3.2 0.60            131            145 260 
 SPBC HN ES        744 27.79                             130   -0.04 9  158 220 
 SPBC HZ I         744 31.42         2.4 0.26            129            158 220 
                                                                                
