 2015 1029 0333 47.5 L   6.808 -73.123144.9  RSN 13 0.5 1.9LRSN                1
 GAP=139        1.11       3.2     4.9  6.0 -0.3059E+01  0.1102E+02  0.2395E+00E
 Epicentro: LOS SANTOS - SANTANDER                                             3
 ACTION:UPD 15-12-22 20:43 OP:cam  STATUS:               ID:20151029033347 L   I
 OLDACT:UP  15-10-29 18:10 OP:mh   STATUS:               ID:20151029032735     3
 OLDACT:UP  15-10-29 16:27 OP:mh   STATUS:               ID:20151029032735     3
 OLDACT:UP  15-10-29 16:27 OP:mh   STATUS:               ID:20151029032735     3
 OLDACT:UP  15-10-29 16:27 OP:mh   STATUS:               ID:20151029032735     3
 OLDACT:UP  15-10-29 16:26 OP:mh   STATUS:               ID:20151029032735     3
 OLDACT:REG 15-10-29 12:47 OP:cara STATUS:               ID:20151029032735     3
 2015-10-29-0327-35M.COL___316                                                 6
 STAT SP IPHASW D HRMM SECON CODA AMPLIT PERI AZIMU VELO AIN AR TRES W  DIS CAZ7
 BAR2 EZ EP        334  6.89                             170   -0.1510 24.7 195 
 BAR2 EZ ES        334 22.62                             170    0.3310 24.7 195 
 BAR2 EZ I         334 23.38        11.5 0.32            168           24.7 195 
 BRR  HZ EP   1    334  8.74                             152    0.10 7 73.0 297 
 BRR  HN ES        334 25.10                             152   -0.0510 73.0 297 
 BRR  HZ I         334 30.51        11.4 0.16            148           73.0 297 
 PAM  EZ EP   1    334  9.97                             151    0.50 7 75.1  38 
 PAM  EN ES        334 27.34                             151    0.7110 75.1  38 
 PAM  EZ I         334 28.88        13.4 0.50            155           75.1  38 
 RUS  HZ EP   1    334 10.80                             143   -0.40 7  101 178 
 RUS  HN ES        334 29.34                             143   -0.3610  101 178 
 RUS  HZ I         334 32.27         6.3 0.40            146            101 178 
 OCA  HZ EP        334 15.56                             129   -0.11 9  160 352 
 OCA  HN ES        334 36.91                             129   -0.76 9  160 352 
 OCA  HZ I         334 43.24        20.3 0.34            130            160 352 
 SPBC HZ EP        334 15.77                             128   -0.35 9  165 219 
 SPBC HN ES        334 38.54                             128    0.07 9  165 219 
 SPBC HZ I         334 44.62        19.2 0.26            129            165 219 
 ZAR  HZ EP   1    334 20.98                             122    0.91 6  206 292 
 ZAR  HN ES        334 44.82                             122   -0.68 8  206 292 
 ZAR  HZ I         334 50.27        11.3 0.32            121            206 292 
 NOR  HZ EP        334 24.38                             118    0.95 8  237 235 
 NOR  HN ES        334 51.61                             118    0.14 8  237 235 
 NOR  HZ I         334 57.69         6.8 0.14            118            237 235 
 SML  HZ EP        334 23.86                             117   -0.23 8  244 335 
 SML  HE ES   4    334 51.19                             117   -1.45 0  244 335 
 SML  HZ I         334 55.16        12.9 0.26            118            244 335 
 CHI  HZ EP   1    334 25.02                             117   -0.27 6  250 196 
 CHI  HN ES        334 54.07                             117   -0.71 8  250 196 
 CHI  HZ I         334 58.30         2.8 0.38            118            250 196 
 GUY2CHZ EP   1    334 31.01                             112   -0.32 5  304 235 
 GUY2CHN ES   4    335  9.28                             112    3.74 0  304 235 
 GUY2CHZ I         335 13.39         7.4 0.74                           304 235 
 CBOC HZ EP        334 35.29                             110    0.63 7  336 252 
 CBOC HN ES        335 12.06                             110    0.60 7  336 252 
 CBOC HZ I         335 19.97         1.3 0.38            110            336 252 
 SJC  HZ EP   4    334 41.08                             105   -2.01 0  410 327 
 SJC  HN ES   4    335 20.38                             105   -6.08 0  410 327 
 SJC  HZ I         335 42.10         0.9 0.32            106            410 327 
                                                                                
