 2016  929 0721 29.4 L   5.986 -74.007  0.0  RSN  7 0.2 1.1LRSN                1
 GAP= 95        0.51       1.2     1.8  2.8 -0.7596E+00  0.1930E+00  0.2206E+00E
 Epicentro: LA BELLEZA - SANTANDER                                             3
 ACTION:UPD 17-08-17 21:17 OP:lp   STATUS:               ID:20160929072129 L   I
 OLDACT:UP  16-09-29 17:13 OP:dani STATUS:               ID:20160929071740     3
 OLDACT:UP  16-09-29 17:12 OP:dani STATUS:               ID:20160929071740     3
 OLDACT:REG 16-09-29 13:28 OP:dani STATUS:               ID:20160929071740     3
 2016-09-29-0718-00M.COL___366                                                 6
 STAT SP IPHASW D HRMM SECON CODA AMPLIT PERI AZIMU VELO AIN AR TRES W  DIS CAZ7
 SPBC HZ EP        721 36.43                              47    0.0510 37.6 191 
 SPBC HE ES        721 41.75                              47   -0.0510 37.6 191 
 SPBC HZ I         721 43.14        12.9 0.08             47           37.6 191 
 PTB  HZ EP        721 42.32                              47   -0.2410 78.9 321 
 PTB  HZ I         721 52.12         9.4 0.16             47           78.9 321 
 RUS  HZ EP        721 46.57                              47   -0.1010  103  96 
 RUS  HE ES   4    721 58.48                              47   -1.64 0  103  96 
 RUS  HZ I         722  3.07         2.2 0.20             47            103  96 
 BRR  HZ EP        721 50.18                              47    0.1710  128  15 
 BRR  HN ES        722  6.16                              47    0.0910  128  15 
 BRR  HZ I         722  8.34         2.9 0.13             47            128  15 
 HEL  HZ EP        721 56.57                              47   -0.16 9  170 278 
 HEL  HE ES   4    722 16.86                              47   -1.17 0  170 278 
 HEL  HZ I         722 18.49         2.4 0.23             47            170 278 
 GUY2CHZ EP   4    721 58.73                              47    1.52 0  172 241 
 GUY2CHN ES        722 19.16                              47    0.28 9  172 241 
 GUY2CHZ I         722 21.13         1.9 0.25                           172 241 
 PAM  EZ EP   9    722  3.46                              37    1.52 0  208  44 
 PAM  EE ES        722 29.17                              37    0.34 8  208  44 
 PAM  EZ I         722 30.84         2.8 0.19             37            208  44 
                                                                                
