 2013  529 0442 48.8 L   6.540 -73.588103.7  RSN  5 0.4 1.4LRSN                1
 GAP=128        1.12       5.2     4.7  9.4  0.5079E+01  0.1129E+02  0.1278E+02E
 Epicentro: EL CARMEN DE CHUCURI - SANTANDER                                   3
 ACTION:UPD 13-06-20 09:54 OP:ep   STATUS:               ID:20130529044248 L   I
 2013-05-29-0440-00M.COL___261                                                 6
 STAT SP IPHASW D HRMM SECON CODA AMPLIT PERI AZIMU VELO AIN AR TRES W  DIS CAZ7
 BAR2 SZ EP        443  4.47                             155    0.2210 45.2  83 
 BAR2 SZ ES        443 16.63                             155    0.2910 45.2  83 
 BAR2 SZ I         443 17.96        50.2 0.44            165           45.2  83 
 BRR  HZ IP     D  443  5.13                             146    0.0710 64.2 348 
 BRR  HN ES        443 18.45                             146    0.6710 64.2 348 
 BRR  HZ I         443 30.51         4.8 0.26            149           64.2 348 
 GIR2 SZ IP     D  443  5.82                             142   -0.1410 73.8  36 
 GIR2 SZ ES        443 18.58                             142   -0.8010 73.8  36 
 GIR2 SZ I         443 20.08         5.8 0.38            150           73.8  36 
 RUS  HZ EP        443  8.32                             136    0.5110 90.8 142 
 RUS  HN ES        443 22.33                             136   -0.3410 90.8 142 
 RUS  HZ I         443 25.36         3.0 0.30            147           90.8 142 
 PTB  HZ IP     D  443  7.29                             134   -0.3310 96.1 270 
 PTB  HN ES        443 22.17                             134   -0.1610 96.1 270 
 PTB  HZ I         443 27.49         6.0 0.34            138           96.1 270 
                                                                                
