 2011  329 0744  6.5 L   6.792 -73.044142.8  RSN  4 0.3 1.6LRSN                1
 GAP=242        0.63      16.7    18.0  7.2  0.2121E+03 -0.4537E+02 -0.4547E+02E
 Epicentro: LOS SANTOS - SANTANDER                                             3
 ACTION:UP  11-06-16 14:36 OP:jfem STATUS:               ID:20110329074406 L   I
 2011-03-29-0741-42S.COL___138                                                 6
 STAT SP IPHASW D HRMM SECON CODA AMPLIT PERI AZIMU VELO SNR AR TRES W  DIS CAZ7
 BAR2 SZ EP        744 26.21                             167     0.310   27 215 
 BAR2 SZ I         744 26.78         5.5 0.33                            27 215 
 BAR2 SZ ES   1    744 40.74                             167    -0.2 7   27 215 
 BTL  SZ EP        744 25.53                             168    -0.410   28 299 
 BTL  SZ ES   1    744 41.00                             168     0.0 7   28 299 
 GIR2 SZ EP   2    744 26.22                             165     0.3 5   36 333 
 GIR2 SZ ES   3    744 41.46                             165     0.3 2   36 333 
 BRR  HZ EP        744 27.99                             148     0.010   82 295 
 BRR  HN ES   2    744 44.90                             148     0.2 5   82 295 
 BRR  HZ I         744 48.10         9.8 0.04                            82 295 
                                                                                
