 2017  729 0534 18.2 L   6.818 -73.067151.8  RSN  6 0.2 1.2LRSN                1
 GAP=226        0.55       3.4     4.4  3.9  0.2537E+01 -0.5196E+01  0.9633E+00E
 Epicentro: LOS SANTOS - SANTANDER                                             3
 ACTION:UPD 17-08-30 15:37 OP:rebc STATUS:               ID:20170729053418 L   I
 OLDACT:UP  17-07-29 16:08 OP:and  STATUS:               ID:20170729052741     3
 OLDACT:UP  17-07-29 16:07 OP:and  STATUS:               ID:20170729052741     3
 OLDACT:UP  17-07-29 16:07 OP:and  STATUS:               ID:20170729052741     3
 OLDACT:REG 17-07-29 12:54 OP:and  STATUS:               ID:20170729052741     3
 2017-07-29-0528-00M.COL___386                                                 6
 STAT SP IPHASW D HRMM SECON CODA AMPLIT PERI AZIMU VELO AIN AR TRES W  DIS CAZ7
 BAR2 EZ IP     D  534 38.61                             169   -0.0410 28.1 207 
 BAR2 EZ ES        534 54.48                             169   -0.1210 28.1 207 
 BAR2 EZ I         534 54.86         4.2 0.22            168           28.1 207 
 BRR  HZ IP     D  534 40.45                             152    0.0610 78.1 294 
 BRR  HE ES        534 57.70                             152    0.0010 78.1 294 
 BRR  HZ I         535  0.38         2.6 0.14            149           78.1 294 
 RUS  HZ EP   2    534 42.87                             145    0.21 5  102 181 
 RUS  HN ES        535  2.01                             145    0.2610  102 181 
 RUS  HZ I         535  2.27         2.5 0.22            145            102 181 
 PTB  HZ EP   9    534 45.37                             132   -1.09 0  157 259 
 PTB  HN ES        535  6.94                             133   -0.48 9  157 259 
 PTB  HZ I         535 10.05         1.3 0.08            131            157 259 
 SPBC HZ EP        534 47.86                             129    0.03 9  170 221 
 SPBC HN ES        535 10.87                             129   -0.07 9  170 221 
 SPBC HZ I         535 12.50         2.8 0.09            129            170 221 
 PTGC HZ EP        535  1.82                             113   -0.37 7  308 160 
                                                                                
