 2011  829 0006 58.1 L   6.767 -73.133145.3  RSN  5 0.3 1.5LRSN                1
 GAP=188        0.64       4.7     6.3  6.6  0.2264E+01  0.6592E+01  0.6876E+01E
 Epicentro: LOS SANTOS - SANTANDER                                             3
 ACTION:UPD 12-07-13 15:54 OP:ep   STATUS:               ID:20110829000612 L   I
 2011-08-29-0001-18S.COL___161                                                 6
 STAT SP IPHASW D HRMM SECON CODA AMPLIT PERI AZIMU VELO AIN AR TRES W  DIS CAZ7
 BAR2 SZ EP   1    0 7 17.42                             172   -0.17 7 20.1 196 
 BAR2 SZ ES   1    0 7 32.22                             172   -0.59 7 20.1 196 
 BAR2 SZ I         0 7 33.82         9.1 0.22                          20.1 196 
 GIR2 SZ EP   1    0 7 17.57                             166   -0.23 7 35.1 349 
 GIR2 SZ ES   1    0 7 33.38                             166    0.19 7 35.1 349 
 BRR  HZ EP   1    0 7 19.29                             151   -0.06 7 74.2 300 
 BRR  HZ I         0 7 19.78        11.7 0.11                          74.2 300 
 BRR  HE ES   1    0 7 36.31                             151    0.37 7 74.2 300 
 RUS  HZ EP   1    0 7 21.87                             145    0.35 7 96.9 177 
 RUS  HN ES   1    0 7 40.06                             145    0.26 7 96.9 177 
 RUS  HZ I         0 7 40.97         2.4 0.18                          96.9 177 
 NOR  SE ES   1    0 8  1.24                             118   -0.21 6  234 235 
                                                                                
