 2011 1229 0323 36.8 L   6.753 -73.245142.3  RSN  5 0.3 1.3LRSN                1
 GAP=150        0.68       7.1     6.3  7.8  0.1282E+02  0.1369E+02 -0.1164E+01E
 Epicentro: ZAPATOCA - SANTANDER                                               3
 ACTION:UPD 12-07-13 16:19 OP:ep   STATUS:               ID:20111229032336 L   I
 2011-12-29-0320-00M.COL___187                                                 6
 STAT SP IPHASW D HRMM SECON CODA AMPLIT PERI AZIMU VELO AIN AR TRES W  DIS CAZ7
 BAR2 SZ EP   1    323 55.61                             172   -0.34 7 19.1 159 
 BAR2 SZ ES   1    324 10.62                             172   -0.25 7 19.1 159 
 BAR2 SZ I         324 12.10         5.6 0.22                          19.1 159 
 GIR2 SZ ES   2    324 11.71                             165    0.34 5 36.5   9 
 BRR  HZ EP   1    323 57.44                             154    0.21 7 64.8 307 
 BRR  HZ I         324  0.49         3.9 0.43                          64.8 307 
 RUS  HZ EP   1    323 59.58                             144   -0.37 7 96.8 169 
 RUS  HN ES   1    324 18.43                             144    0.43 7 96.8 169 
 PTB  HZ EP   1    324  2.90                             134    0.46 7  136 260 
 PTB  HN ES   1    324 22.15                             134   -0.28 7  136 260 
                                                                                
