 2011 1229 0434 51.3 L   6.772 -73.183138.1  RSN  9 0.3 1.6LRSN                1
 GAP=175        0.63       3.4     4.4  5.2  0.6251E+00  0.5789E+01 -0.6091E+00E
 Epicentro: LOS SANTOS - SANTANDER                                             3
 ACTION:UPD 12-07-13 16:19 OP:ep   STATUS:               ID:20111229043451 L   I
 2011-12-29-0430-00M.COL___187                                                 6
 STAT SP IPHASW D HRMM SECON CODA AMPLIT PERI AZIMU VELO AIN AR TRES W  DIS CAZ7
 BAR2 SZ EP        435  9.85                             171   -0.0510 19.9 180 
 BAR2 SZ ES   1    435 24.79                             171    0.35 7 19.9 180 
 BAR2 SZ I         435 25.67         8.8 0.36                          19.9 180 
 GIR2 SZ EP   1    435 10.20                             165    0.10 7 33.9 358 
 GIR2 SZ ES   1    435 24.29                             165   -0.50 7 33.9 358 
 BRR  HZ EP   1    435 11.65                             152    0.18 7 69.2 302 
 BRR  HZ I         435 11.80        15.5 0.11                          69.2 302 
 RUS  HZ EP   1    435 13.87                             143   -0.20 7 97.9 173 
 RUS  HN ES   1    435 32.04                             143    0.18 7 97.9 173 
 RUS  HZ I         435 33.53         3.4 0.29                          97.9 173 
 PTB  HZ EP   1    435 16.47                             131   -0.71 7  143 260 
 PTB  HN ES   1    435 37.44                             131    0.04 7  143 260 
 OCA  SZ EP   1    435 19.85                             127    0.61 7  163 355 
 OCA  SZ ES   2    435 40.84                             127   -0.22 5  163 355 
 ZAR  HZ EP   2    435 23.05                             121    0.11 4  201 293 
 ZAR  HE ES   2    435 47.83                             121    0.18 4  201 293 
 ZAR  HZ I         435 52.84         6.4 0.29                           201 293 
 NOR  SN ES   2    435 53.39                             117    0.30 4  230 234 
 CHI  HZ EP   1    435 28.07                             116   -0.04 6  245 194 
 CHI  HZ I         436  5.23         3.1 0.45                           245 194 
                                                                                
