 2013  129 0923 24.8 L   6.765 -73.141139.4  RSN  7 0.4 1.8LRSN                1
 GAP=139        0.90       4.0     4.4  5.8  0.1179E+01  0.5998E+01  0.5066E+01E
 Epicentro: LOS SANTOS - SANTANDER                                             3
 ACTION:UPD 13-02-15 09:17 OP:ep   STATUS:               ID:20130129092324 L   I
 2013-01-29-0920-00M.COL___241                                                 6
 STAT SP IPHASW D HRMM SECON CODA AMPLIT PERI AZIMU VELO AIN AR TRES W  DIS CAZ7
 BAR2 SZ EP        923 43.67                             172    0.0410 19.6 193 
 BAR2 SZ ES        923 57.93                             172   -0.3510 19.6 193 
 BAR2 SZ I         924  0.04        22.8 0.18            167           19.6 193 
 BRR  HZ EP        923 45.52                             150    0.0810 73.6 301 
 BRR  HE ES        924  2.09                             150    0.5810 73.6 301 
 BRR  HE I         924  6.10        25.9 0.19            149           73.6 301 
 PAM  SZ EP        923 46.51                             149   -0.0410 80.1  37 
 PAM  SZ I         923 46.85        15.9 0.23            154           80.1  37 
 PAM  SN ES        924  3.36                             149   -0.1210 80.1  37 
 RUS  HZ EP        923 47.48                             143   -0.2010 96.7 176 
 RUS  HE ES   1    924  5.82                             143    0.33 7 96.7 176 
 RUS  HE I         924  7.71         8.0 0.17            143           96.7 176 
 PTB  HZ EP   1    923 50.41                             130   -0.86 7  148 260 
 PTB  HN ES   1    924 11.36                             130   -0.53 7  148 260 
 PTB  HZ I         924 13.94         5.1 0.22            130            148 260 
 ZAR  HZ EP        923 57.65                             121    0.57 8  206 293 
 ZAR  HE ES   1    924 21.81                             121   -0.42 6  206 293 
 ZAR  HZ I         924 27.30         4.6 0.25            121            206 293 
 CHI  HZ EP        924  1.90                             116    0.11 8  245 196 
 CHI  HN ES   1    924 31.16                             116    0.54 6  245 196 
 CHI  HZ I         924 38.54         2.8 0.50            116            245 196 
                                                                                
