 2011  829 0257 59.5 L   6.769 -73.095142.9  RSN 12 0.4 2.1LRSN                1
 GAP=120        0.73       3.1     4.9  4.9 -0.1118E+01  0.7049E+01  0.3468E+01E
 Epicentro: LOS SANTOS - SANTANDER                                             3
 ACTION:UPD 12-07-13 15:54 OP:ep   STATUS:               ID:20110829025759 L   I
 2011-08-29-0257-17S.COL___161                                                 6
 STAT SP IPHASW D HRMM SECON CODA AMPLIT PERI AZIMU VELO AIN AR TRES W  DIS CAZ7
 BAR2 SZ EP        258 18.56                             171   -0.2010 21.8 206 
 BAR2 SZ ES   1    258 33.88                             171    0.10 7 21.8 206 
 BAR2 SZ I         258 35.34        42.2 0.21                          21.8 206 
 GIR2 SZ EP   1    258 18.92                             165   -0.05 7 35.9 342 
 GIR2 SZ ES   1    258 33.97                             165   -0.19 7 35.9 342 
 PAM  SZ EP   1    258 21.76                             150    0.38 7 76.7  35 
 PAM  SN ES   1    258 38.41                             150   -0.03 7 76.7  35 
 BRR  HZ EP        258 20.67                             150   -0.0610 77.7 299 
 BRR  HE ES   1    258 37.80                             150    0.51 7 77.7 299 
 BRR  HZ I         258 38.98        33.9 0.10                          77.7 299 
 RUS  HZ EP        258 22.33                             144   -0.3910 97.0 179 
 RUS  HN ES   1    258 40.86                             144    0.04 7 97.0 179 
 RUS  HZ I         258 42.39        26.9 0.57                          97.0 179 
 OCA  SZ EP   1    258 27.74                             128   -0.25 7  164 351 
 OCA  SZ ES   1    258 50.07                             128   -0.13 7  164 351 
 OCA  SZ I         258 53.25        14.8 0.19                           164 351 
 YOP  SE ES   2    258 52.68                             127    1.03 4  173 154 
 NOR  SZ EP   1    258 35.89                             118    0.53 6  237 236 
 NOR  SE ES   1    259  2.55                             118   -0.77 6  237 236 
 CHI  HZ EP   1    258 36.81                             117   -0.05 6  247 197 
 CHI  HZ I         259  8.84         4.2 0.59                           247 197 
 HEL  HZ EP   1    258 40.69                             114    0.60 6  277 257 
 HEL  HZ I         259 18.03         6.4 0.26                           277 257 
 RREF HZ EP   1    258 46.47                             110    0.71 5  324 230 
 RREF HZ I         259 28.03         9.2 0.33                           324 230 
 PRA  HZ EP   1    258 52.50                             106   -0.41 4  392 211 
                                                                                
