 2016  429 1057  0.8 L   7.260 -73.068153.4  RSN  5 0.3 1.5LRSN                1
 GAP=116        0.66       4.1     4.1  5.4  0.4862E+01  0.8919E+01 -0.4053E+01E
 Epicentro: MATANZA - SANTANDER                                                3
 ACTION:UPD 16-05-05 14:25 OP:rebc STATUS:               ID:20160429105700 L   I
 OLDACT:UP  16-04-29 20:17 OP:edwi STATUS:               ID:20160429104746     3
 OLDACT:UP  16-04-29 20:12 OP:edwi STATUS:               ID:20160429104746     3
 OLDACT:REG 16-04-29 19:32 OP:cara STATUS:               ID:20160429104746     3
 2016-04-29-1047-46M.COL___303                                                 6
 STAT SP IPHASW D HRMM SECON CODA AMPLIT PERI AZIMU VELO AIN AR TRES W  DIS CAZ7
 PAM  EZ EP       1057 22.43                             164    0.2210 41.6  78 
 PAM  EN ES       1057 38.82                             164   -0.0810 41.6  78 
 PAM  EZ I        1057 40.18         8.2 0.22            149           41.6  78 
 BAR2 EZ EP       1057 23.76                             153    0.4310 74.9 190 
 BAR2 EZ ES       1057 40.65                             153   -0.2510 74.9 190 
 BAR2 EZ I        1057 41.81         5.9 0.18            133           74.9 190 
 RUS  HZ EP       1057 29.03                             133   -0.32 9  151 181 
 RUS  HZ I        1057 51.80         1.4 0.66            115            151 181 
 ZAR  HZ EP       1057 33.19                             125   -0.09 9  199 278 
 ZAR  HN ES       1057 58.86                             125    0.25 9  199 278 
 ZAR  HZ I        1057 59.92         4.4 0.14            114            199 278 
 SJC  HZ EP       1057 52.35                             109   -0.06 6  373 322 
 SJC  HN ES       1058 32.29                             109   -0.38 6  373 322 
                                                                                
