 2016 1129 1903 58.0 L   6.731 -73.141137.5  RSN  4 0.3 1.5LRSN                1
 GAP=160        0.87       7.6     4.6  7.6 -0.1262E+02  0.1598E+02 -0.1392E+02E
 Epicentro: JORDAN - SANTANDER                                                 3
 ACTION:UPD 17-10-26 21:13 OP:lp   STATUS:               ID:20161129190358 L   I
 OLDACT:REG 16-11-29 21:44 OP:lv   STATUS:               ID:20161129185745     3
 2016-11-29-1858-00M.COL___348                                                 6
 STAT SP IPHASW D HRMM SECON CODA AMPLIT PERI AZIMU VELO AIN AR TRES W  DIS CAZ7
 BAR2 EZ EP       19 4 16.76                             173    0.2510 16.0 196 
 BAR2 EZ ES       19 4 31.32                             173    0.3710 16.0 196 
 BAR2 EZ I        19 4 32.26         8.0 0.23            175           16.0 196 
 PAM  EZ EP       19 4 19.75                             147    0.0310 83.1  36 
 PAM  EN ES       19 4 36.28                             147   -0.3710 83.1  36 
 PAM  EZ I        19 4 38.78         6.2 0.43            148           83.1  36 
 PTB  HZ EP       19 4 23.80                             130   -0.43 9  147 262 
 PTB  HN ES       19 4 44.25                             130   -0.44 9  147 262 
 PTB  HZ I        19 4 46.58         4.3 0.18            131            147 262 
 ZAR  HZ EP       19 4 30.62                             120    0.33 8  207 294 
 ZAR  HN ES       19 4 55.80                             120    0.33 8  207 294 
 ZAR  HZ I        19 4 58.84         1.9 0.19            121            207 294 
                                                                                
