 2016  129 1646 32.9 L   6.045 -74.018 90.4  RSN  7 0.5 1.8LRSN                1
 GAP= 89        1.25       4.2     3.3  8.5 -0.2628E+01  0.4355E+01 -0.6839E+01E
 Epicentro: LA BELLEZA - SANTANDER                                             3
 ACTION:UPD 16-03-09 23:29 OP:cam  STATUS:               ID:20160129164632 L   I
 OLDACT:UP  16-01-30 00:22 OP:ak   STATUS:               ID:20160129163621     3
 OLDACT:REG 16-01-29 20:59 OP:ak   STATUS:               ID:20160129163621     3
 2016-01-29-1646-00M.COL___415                                                 6
 STAT SP IPHASW D HRMM SECON CODA AMPLIT PERI AZIMU VELO AIN AR TRES W  DIS CAZ7
 SPBC HZ EP       1646 47.10                             152    0.4810 43.9 188 
 SPBC HN ES       1646 57.90                             152    0.5710 43.9 188 
 SPBC HZ I        1647  0.60        33.2 0.20            156           43.9 188 
 PTB  HZ EP       1646 48.16                             138   -0.4310 73.1 318 
 PTB  HN ES       1647  0.45                             138   -0.3910 73.1 318 
 PTB  HZ I        1647  2.28        13.3 0.38            141           73.1 318 
 RUS  HZ EP       1646 51.57                             127   -0.5610  105  99 
 RUS  HN ES       1647  6.49                             127   -0.6610  105  99 
 RUS  HZ I        1647  9.41         9.6 0.30            130            105  99 
 NOR  HZ EP       1646 51.53                             126   -0.3610  108 241 
 NOR  HN ES       1647  6.15                             126   -0.5710  108 241 
 NOR  HZ I        1647  7.47        25.8 0.16            129            108 241 
 BAR2 EZ EP       1646 52.72                             125    0.3710  110  57 
 BAR2 EZ ES       1647  8.17                             125    0.6310  110  57 
 BAR2 EZ I        1647  9.44        14.3 0.36            128            110  57 
 GUY2CHZ EP       1647  0.04                             113    0.42 9  175 239 
 GUY2CHN ES       1647 20.95                             113    0.48 9  175 239 
 GUY2CHZ I        1647 28.07         4.8 0.58                           175 239 
 ZAR  HZ EP       1647  0.19                             111   -0.02 9  185 330 
 ZAR  HN ES       1647 21.80                             111    0.28 9  185 330 
 ZAR  HZ I        1647 24.14         9.1 0.44            113            185 330 
                                                                                
