 2011 1029 1901 34.5 L   6.758 -73.057149.2  RSN  5 0.3 1.8LRSN                1
 GAP=150        0.45       4.2     4.8  6.2  0.3325E+01  0.6262E+00 -0.5850E-01E
 Epicentro: LOS SANTOS - SANTANDER                                             3
 ACTION:UPD 12-07-13 16:06 OP:ep   STATUS:               ID:20111029190134 L   I
 2011-10-29-1859-06S.COL___157                                                 6
 STAT SP IPHASW D HRMM SECON CODA AMPLIT PERI AZIMU VELO AIN AR TRES W  DIS CAZ7
 BAR2 SZ EP   1   19 1 54.42                             171   -0.10 7 22.9 217 
 BAR2 SZ ES   2   19 2  9.76                             171   -0.39 5 22.9 217 
 BAR2 SZ I        19 2 11.10         9.8 0.27                          22.9 217 
 PAM  SZ EP   1   19 1 57.11                             152    0.15 7 75.5  32 
 PAM  SN ES   2   19 2 14.65                             152    0.16 5 75.5  32 
 BRR  HZ EP   1   19 1 56.35                             150   -0.29 7 82.1 298 
 BRR  HN ES   2   19 2 14.03                             150    0.10 5 82.1 298 
 BRR  HZ I        19 2 27.31        17.4 0.28                          82.1 298 
 RUS  HZ EP   1   19 1 58.22                             146   -0.02 7 95.7 182 
 RUS  HN ES   2   19 2 17.22                             146    0.46 5 95.7 182 
 RUS  HZ I        19 2 18.71         5.0 0.44                          95.7 182 
 ZAR  HN ES   2   19 2 35.00                             122    0.37 4  215 292 
 ZAR  HZ I        19 2 38.80         7.2 0.31                           215 292 
                                                                                
