 2013  329 1328 44.2 L   7.141 -73.660 19.6  RSN  5 0.4 1.6LRSN                1
 GAP=212        0.93       4.8     3.2  2.8  0.8923E+01  0.7638E+00 -0.7765E+00E
 Epicentro: BARRANCABERMEJA - SANTANDER                                        3
 ACTION:UPD 13-04-09 14:05 OP:ep   STATUS:               ID:20130329132844 L   I
 2013-03-29-1320-00M.COL___245                                                 6
 STAT SP IPHASW D HRMM SECON CODA AMPLIT PERI AZIMU VELO AIN AR TRES W  DIS CAZ7
 BRR  HZ IP     C 1328 47.47                             160   -0.1910 6.84 237 
 BRR  HN ES       1328 50.66                             160    0.3410 6.84 237 
 BRR  HN I        1328 50.78       244.0 0.20            156           6.84 237 
 BAR2 SZ EP   1   1328 57.62                             102    0.11 7 80.4 139 
 BAR2 SZ ES       1329  7.37                             102   -0.4910 80.4 139 
 BAR2 SZ I        1329  8.51        10.1 0.52            100           80.4 139 
 PTB  HZ EP       1329  1.79                              98    0.0510  110 233 
 PTB  HN ES       1329 15.27                              98   -0.1210  110 233 
 PTB  HN I        1329 15.80         9.5 0.46             97            110 233 
 ZAR  HZ EP   1   1329  6.03                              56    0.62 7  138 286 
 ZAR  HN ES       1329 21.50                              56   -0.42 9  138 286 
 ZAR  HN I        1329 22.74        10.1 0.28             56            138 286 
 RUS  HN ES   1   1329 26.92                              56    0.82 7  152 155 
 RUS  HN I        1329 28.22         8.3 0.40             56            152 155 
                                                                                
