 2010  929 1050 22.1 L   6.771 -73.066150.6  RSN  6 0.4 1.8LRSN                1
 GAP=168        1.10       5.6     8.3 10.0 -0.5533E+01 -0.1090E+02 -0.9200E+01E
 Epicentro: LOS SANTOS - SANTANDER                                             3
 ACTION:UP  11-02-18 11:06 OP:tino STATUS:               ID:20100929105022 L   I
 2010-09-29-1046-53S.COL___125                                                 6
 STAT SP IPHASW D HRMM SECON CODA AMPLIT PERI AZIMU VELO SNR AR TRES W  DIS CAZ7
 BAR2 SZ EP       1050 42.61                             171     0.310   24 213 
 BAR2 SZ I        1050 59.37        38.5 0.19                            24 213 
 BRR  HZ EP       1050 44.42                             150     0.110   80 298 
 BRR  HZ I        1050 44.84        24.0 0.10                            80 298 
 BRR  HN ES       1051  1.83                             150     0.210   80 298 
 RUS  HZ EP       1050 46.46                             146     0.310   97 181 
 RUS  HN ES       1051  4.58                             146    -0.310   97 181 
 RUS  HZ I        1051  6.56        13.2 0.47                            97 181 
 GUE  SZ EP       1050 47.53                             140     0.110  118   8 
 GUE  SZ I        1051 14.30         4.1 0.10                           118   8 
 GRA  SZ EP       1050 47.26                             138    -0.610  127  13 
 GRA  SZ I        1051  8.56         9.1 0.33                           127  13 
 NOR  SZ EP       1050 58.99                             119     0.3 8  240 236 
 NOR  SN ES   1   1051 26.47                             119    -0.8 6  240 236 
 NOR  SZ I        1051 29.92         1.5 0.22                           240 236 
                                                                                
