 2013  529 1758 46.2 L   6.813 -73.381123.1  RSN  5 0.3 1.8LRSN                1
 GAP=103        0.79       4.4     4.2  5.8  0.4794E+01  0.6053E+01  0.7174E+01E
 Epicentro: SAN VICENTE DE CHUCURI - SANTANDER                                 3
 ACTION:UPD 13-06-20 09:54 OP:ep   STATUS:               ID:20130529175846 L   I
 2013-05-29-1748-50M.COL___207                                                 6
 STAT SP IPHASW D HRMM SECON CODA AMPLIT PERI AZIMU VELO AIN AR TRES W  DIS CAZ7
 BAR2 SZ EP       1759  3.57                             164    0.1510 32.9 138 
 BAR2 SZ I        1759  3.70        38.3 0.10            165           32.9 138 
 BAR2 SZ ES       1759 16.63                             164   -0.2010 32.9 138 
 GIR2 SZ EP       1759  3.20                             163   -0.1910 36.0  35 
 GIR2 SZ ES       1759 16.37                             163   -0.3910 36.0  35 
 BRR  HZ EP       1759  4.00                             157    0.2710 48.9 312 
 BRR  HN ES       1759 17.92                             157    0.5610 48.9 312 
 BRR  HE I        1759 19.51        29.0 0.24            156           48.9 312 
 RUS  HZ EP       1759  8.51                             137    0.1510  107 162 
 RUS  HN ES       1759 25.78                             137    0.1610  107 162 
 RUS  HE I        1759 27.06         4.1 0.20            138            107 162 
 PTB  HZ EP       1759  8.75                             132   -0.3310  123 256 
 PTB  HE ES       1759 26.70                             132   -0.2010  123 256 
 PTB  HN I        1759 30.46         8.8 0.18            131            123 256 
                                                                                
