 2012 1229 1436 33.8 L   6.703 -73.220153.8  RSN  5 0.2 1.5LRSN                1
 GAP=211        0.63       5.9     5.7  7.0  0.2060E+02 -0.4259E+01  0.1071E+01E
 Epicentro: VILLANUEVA - SANTANDER                                             3
 ACTION:UPD 13-01-04 14:31 OP:ep   STATUS:               ID:20121229143633 L   I
 2012-12-29-1430-00M.COL___242                                                 6
 STAT SP IPHASW D HRMM SECON CODA AMPLIT PERI AZIMU VELO AIN AR TRES W  DIS CAZ7
 BAR2 SZ EP       1436 53.83                             175   -0.4010 12.9 161 
 BAR2 SZ I        1437 10.93         8.2 0.38                          12.9 161 
 BRR  HZ EP       1436 55.74                             154   -0.0310 70.4 309 
 BRR  HZ I        1436 56.03         7.9 0.24                          70.4 309 
 BRR  HE ES       1437 13.13                             154    0.2210 70.4 309 
 RUS  HZ EP       1436 58.09                             148    0.4010 90.9 170 
 RUS  HN ES   1   1437 16.15                             148   -0.18 7 90.9 170 
 RUS  HN I        1437 17.02         4.5 0.29                          90.9 170 
 PTB  HZ EP   1   1437  0.61                             136    0.04 7  138 263 
 PTB  HE ES   1   1437 21.34                             136   -0.12 7  138 263 
 PTB  HZ I        1437 25.36         2.9 0.15                           138 263 
 ZAR  HE ES   1   1437 31.83                             125   -0.10 6  201 296 
 ZAR  HZ I        1437 37.95         3.3 0.32                           201 296 
                                                                                
