 2010  829 1422  3.8 L   6.541 -73.502111.2  RSN  8 0.3 2.0LRSN                1
 GAP=113        0.72       4.1     5.6  5.4  0.4111E+01  0.1696E+01 -0.2714E+01E
 Epicentro: EL CARMEN DE CHUCURI - SANTANDER                                   3
 ACTION:UP  10-09-07 10:59 OP:vdl  STATUS:               ID:20100829142202 L   I
 2010-08-29-1418-59S.COL___120                                                 6
 STAT SP IPHASW D HRMM SECON CODA AMPLIT PERI AZIMU VELO SNR AR TRES W  DIS CAZ7
 BAR2 SZ EP       1422 19.85                             156     0.210   36  81 
 BAR2 SZ ES   1   1422 32.09                             156     0.0 7   36  81 
 BAR2 SZ I        1422 33.74       169.1 0.61                            36  81 
 BRR  HZ EP       1422 20.66                             146    -0.410   67 340 
 BRR  HN ES       1422 34.55                             146     0.110   67 340 
 BRR  HZ I        1422 35.89        32.2 0.09                            67 340 
 GIR2 SZ EP       1422 21.45                             142     0.110   68  30 
 RUS  HZ EP   1   1422 22.94                             142    -0.1 7   85 147 
 RUS  HN ES   2   1422 37.98                             142    -0.2 5   85 147 
 RUS  HZ I        1422 40.01        11.9 0.13                            85 147 
 GUE  SZ EP       1422 29.92                             120     0.5 9  156  24 
 GUE  SZ I        1422 30.86         9.7 0.08                           156  24 
 GRA  SZ EP   1   1422 30.20                             118    -0.2 7  167  27 
 GRA  SZ I        1422 53.68        10.4 0.41                           167  27 
 OCA  SZ EP       1422 32.37                             116    -0.4 9  189   6 
 OCA  SZ ES   2   1422 55.48                             116     0.1 4  189   6 
 OCA  SZ I        1423  0.95        13.5 0.26                           189   6 
 HEL  HZ EP   1   1422 37.76                                     0.4 6  228 260 
 HEL  HE ES   3   1423  3.46                                    -0.1 2  228 260 
 HEL  HZ I        1423  4.44         6.5 0.52                           228 260 
                                                                                
