 2015  129 1232  6.4 L   6.804 -73.122147.7  RSN 19 0.5 2.3LRSN                1
 GAP= 67        0.98       2.8     3.3  5.3 -0.1335E+01  0.1146E+01  0.3606E+01E
 Epicentro: LOS SANTOS - SANTANDER                                             3
 ACTION:UPD 15-03-02 15:43 OP:nd   STATUS:               ID:20150129123206 L   I
 OLDACT:REG 15-01-29 20:47 OP:spq  STATUS:               ID:20150129122748     3
 2015-01-29-1227-48M.COL___271                                                 6
 STAT SP IPHASW D HRMM SECON CODA AMPLIT PERI AZIMU VELO AIN AR TRES W  DIS CAZ7
 BAR2 EZ EP       1232 26.22                             170   -0.0210 24.4 196 
 BAR2 EZ ES   1   1232 41.20                             170   -0.54 7 24.4 196 
 BAR2 EZ I        1232 42.43        67.8 0.18            167           24.4 196 
 BRR  HZ EP   1   1232 28.15                             152    0.32 7 73.3 297 
 BRR  HN ES       1232 45.05                             152    0.4710 73.3 297 
 BRR  HZ I        1232 49.05        22.0 0.05            150           73.3 297 
 PAM  SZ EP     D 1232 28.98                             152    0.3210 75.3  38 
 PAM  SE ES       1232 46.30                             152    0.2510 75.3  38 
 PAM  SZ I        1232 48.17        36.6 0.50            156           75.3  38 
 RUS  HZ EP   1   1232 30.24                             144   -0.08 7  101 178 
 RUS  HE ES   1   1232 48.75                             144   -0.26 7  101 178 
 RUS  HZ I        1232 49.76        28.2 0.22            144            101 178 
 PTB  HZ EP       1232 32.96                             132   -0.76 9  150 259 
 PTB  HE ES   1   1232 54.43                             132   -0.64 7  150 259 
 PTB  HZ I        1232 56.31        30.5 0.28            131            150 259 
 TAM  HZ EP     D 1232 34.53                             131    0.57 9  153 105 
 OCA  HZ EP   1   1232 34.84                             130    0.04 7  160 352 
 OCA  HE ES       1232 56.39                             130   -0.60 9  160 352 
 OCA  HZ I        1233  1.09        21.2 0.46            132            160 352 
 SPBC HZ EP       1232 35.13                             129   -0.07 9  165 220 
 SPBC HN ES       1232 57.72                             129    0.03 9  165 220 
 SPBC HZ I        1233  2.12        41.1 0.24            128            165 220 
 ZAR  HZ EP   1   1232 40.12                             122    0.96 6  206 292 
 ZAR  HE ES       1233  4.75                             122    0.00 8  206 292 
 ZAR  HZ I        1233 10.51        19.4 0.24            122            206 292 
 NOR  HZ EP       1232 42.06                             119   -0.40 8  237 235 
 NOR  HE ES       1233 10.51                             119   -0.11 8  237 235 
 NOR  HZ I        1233 16.95        17.2 0.18            118            237 235 
 SML  HZ EP   1   1232 43.03                             118   -0.13 6  244 335 
 SML  HE ES   1   1233 11.39                             118   -0.48 6  244 335 
 CHI  HZ EP       1232 44.40                             117    0.11 8  250 196 
 CHI  HN ES   1   1233 13.66                             117   -0.21 6  250 196 
 CHI  HZ I        1233 17.13         5.7 0.26            118            250 196 
 ROSC BZ EP   4   1232 46.50                             117    1.72 0  255 211 
 ROSC BN ES   1   1233 15.64                             117    0.90 6  255 211 
 ROSC BZ I        1233 20.81        15.9 0.32            117            255 211 
 HEL  HZ EP   4   1232 48.75                             115    1.79 0  275 256 
 HEL  HN ES       1233 19.25                             115    0.61 8  275 256 
 HEL  HZ I        1233 24.79        12.6 0.34            115            275 256 
 GUY2CHZ EP   4   1232 51.67                             112    1.34 0  304 235 
 GUY2CHE ES   4   1233 27.09                             112    2.46 0  304 235 
 GUY2CHZ I        1233 31.16         6.1 0.50                           304 235 
 PTGC HZ EP       1232 49.42                             112   -0.82 7  308 159 
 PTGC HN ES   4   1233 22.60                             112   -1.87 0  308 159 
 PTGC HZ I        1233 26.66        11.6 0.48            113            308 159 
 RREF HZ EP   4   1232 54.50                             111    1.65 0  324 230 
 RREF HN ES   4   1233 32.55                             111    3.44 0  324 230 
 RREF HZ I        1233 36.41         7.9 0.40            111            324 230 
 TOL  SZ EP       1232 55.39                             109    0.45 6  346 225 
 TOL  SN ES   4   1233 35.13                             109    2.29 0  346 225 
 TOL  SZ I        1233 42.53         5.5 0.64            110            346 225 
 MON  HZ EP   4   1232 53.75                             109   -1.89 0  355 308 
 MON  HN ES   4   1233 32.14                             109   -1.94 0  355 308 
 MON  HZ I        1233 32.94         4.1 0.20            109            355 308 
                                                                                
