 2013 1029 1921 50.2 L   6.794 -73.133143.1  RSN  7 0.5 1.9LRSN                1
 GAP=138        1.37       5.8     5.9  9.3 -0.1751E+01  0.1150E+02  0.4892E+01E
 Epicentro: LOS SANTOS - SANTANDER                                             3
 ACTION:UPD 13-11-25 09:24 OP:ep   STATUS:               ID:20131029192150 L   I
 OLDACT:REG 13-10-29 16:03 OP:carl STATUS:               ID:20131029191846     3
 2013-10-29-1918-46M.COL___217                                                 6
 STAT SP IPHASW D HRMM SECON CODA AMPLIT PERI AZIMU VELO AIN AR TRES W  DIS CAZ7
 BAR2 SZ EP       1922  9.32                             170   -0.1510 22.9 194 
 BAR2 SZ ES       1922 23.91                             170   -0.6210 22.9 194 
 BAR2 SZ I        1922 27.08        25.6 0.46            170           22.9 194 
 BRR  HZ EP       1922 11.45                             152    0.3310 72.8 298 
 BRR  HN ES       1922 28.03                             152    0.5710 72.8 298 
 BRR  HN I        1922 28.81        34.5 0.22            151           72.8 298 
 PAM  SZ EP       1922 12.41                             150    0.3310 77.0  38 
 PAM  SN ES       1922 28.97                             150   -0.2010 77.0  38 
 PAM  SZ I        1922 31.77         6.2 0.48            153           77.0  38 
 RUS  HZ EP       1922 13.55                             143   -0.0510 99.8 177 
 RUS  HN ES       1922 32.25                             143    0.3710 99.8 177 
 RUS  HZ I        1922 33.61         4.2 0.48            145           99.8 177 
 PTB  HZ EP       1922 16.16                             131   -0.88 9  149 259 
 PTB  HN ES       1922 37.01                             131   -0.98 9  149 259 
 PTB  HZ I        1922 39.05        10.3 0.44            132            149 259 
 SPBC HZ EP       1922 18.48                             128   -0.02 9  164 220 
 SPBC HN ES       1922 41.39                             128    0.79 9  164 220 
 SPBC HZ I        1922 45.65         8.6 0.16            130            164 220 
 ZAR  HN ES       1922 48.47                             122    0.57 8  206 292 
 ZAR  HZ I        1922 53.87        10.1 0.28            123            206 292 
                                                                                
