 2010  729 1654 36.2 L   6.779 -73.066149.6  RSN 19 0.5 3.7LRSN                1
 GAP=132        0.84       3.7     6.2  6.0 -0.1152E+02  0.6311E+01  0.4151E+01E
 Epicentro: LOS SANTOS - SANTANDER                                             3
 ACTION:UPD 10-12-01 15:21 OP:pat  STATUS:               ID:20100729165436 L   I
 2010-07-29-1651-40S.COL___123                                                 6
 STAT SP IPHASW D HRMM SECON CODA AMPLIT PERI AZIMU VELO AIN AR TRES W  DIS CAZ7
 BAR2 SZ IP     D 1654 56.29                             170    -0.110   24 212 
 BAR2 SZ ES   2   1655 11.96                             170    -0.1 5   24 212 
 BAR2 SZ I        1655 14.91       741.5 0.44                            24 212 
 GIR2 SZ EP   1   1654 56.49                             166     0.0 7   36 337 
 GIR2 SZ ES   2   1655 11.44                             166    -0.9 5   36 337 
 BRR  HZ IP     C 1654 58.30                             150     0.010   80 297 
 BRR  HZ I        1654 58.64      1325.1 0.22                            80 297 
 BRR  HE ES   2   1655 15.45                             150    -0.1 5   80 297 
 RUS  HZ IP     C 1655  0.06                             145    -0.110   98 181 
 RUS  HE ES   2   1655 18.64                             145    -0.2 5   98 181 
 RUS  HZ I        1655 21.45       333.0 0.31                            98 181 
 BRI  SZ EP   1   1655  0.93                             142     0.5 7  108  16 
 BRI  SZ ES   2   1655 19.13                             142    -0.2 5  108  16 
 BRI  SZ I        1655 25.33       473.6 0.86                           108  16 
 GUE  SZ EP   1   1655  1.36                             140     0.0 7  117   8 
 GUE  SZ I        1655 23.04       164.4 0.21                           117   8 
 GRA  SZ IP     D 1655  2.17                             138     0.410  126  13 
 GRA  SZ ES   2   1655 22.24                             138     0.5 5  126  13 
 GRA  SZ I        1655 23.23      1127.0 0.38                           126  13 
 OCA  SZ EP   1   1655  4.87                             130    -0.3 7  164 350 
 OCA  SZ ES   2   1655 27.77                             130     0.0 5  164 350 
 OCA  SZ I        1655 31.88       827.3 0.36                           164 350 
 CHI  HZ EP   1   1655 13.94                             118    -0.2 6  249 197 
 CHI  HN ES   2   1655 43.56                             118    -0.2 4  249 197 
 CHI  HZ I        1655 49.37       150.3 0.28                           249 197 
 ROSC BZ EP   1   1655 15.77                             117     0.9 6  255 213 
 ROSC BN ES   2   1655 46.26                             117     1.3 4  255 213 
 ROSC BZ I        1655 52.63       444.5 0.56                           255 213 
 CVER SZ EP   1   1655 16.49                             115    -0.4 6  273 204 
 CVER SZ I        1655 58.44       259.2 0.55                           273 204 
 HEL  HZ EP   1   1655 17.03                             115    -0.5 6  280 257 
 HEL  HZ I        1655 55.51       389.3 0.45                           280 257 
 GUY  SZ EP   1   1655 20.84                             112     0.1 5  307 236 
 GUY  SN ES   2   1655 56.21                             112     0.8 4  307 236 
 RREF HZ EP   1   1655 23.41                             111     0.3 5  327 231 
 RREF HN ES   2   1655 58.97                             111    -0.8 3  327 231 
 RREF HZ I        1656  5.80       304.3 0.32                           327 231 
 DBB  SZ EP   1   1655 24.11                             109    -0.8 5  348 275 
 TOL  SZ EP   1   1655 25.00                             110    -0.2 5  348 226 
 SDV  BZ EP   1   1655 25.51                             109    -0.3 5  355  49 
 ANIL HZ EP   1   1655 27.41                             109     0.7 5  362 226 
 ANIL HN ES   2   1656  7.15                             109     1.1 3  362 226 
 ANIL HZ I        1656 14.81       500.4 0.38                           362 226 
 PRA  HZ EP   1   1655 29.19                             107    -1.0 4  394 211 
 PRA  HN ES   2   1656 11.91                             107    -0.3 3  394 211 
 PRA  HZ I        1656 17.81       267.6 0.43                           394 211 
                                                                                
