 2016  729 1047  2.0 L   6.784 -73.091152.0  RSN  6 0.4 1.6LRSN                1
 GAP=242        1.07       5.5     7.4  8.4  0.8279E+01  0.2209E+02 -0.1473E+01E
 Epicentro: LOS SANTOS - SANTANDER                                             3
 ACTION:UPD 17-03-29 16:56 OP:lp   STATUS:               ID:20160729104702 L   I
 OLDACT:DUP 16-07-29 21:16 OP:ar   STATUS:               ID:20160729103742d    3
 2016-07-29-1038-00M.COL___344                                                 6
 STAT SP IPHASW D HRMM SECON CODA AMPLIT PERI AZIMU VELO AIN AR TRES W  DIS CAZ7
 BAR2 EZ EP       1047 22.08                             171   -0.2710 23.4 205 
 BAR2 EZ ES       1047 38.35                             171    0.1110 23.4 205 
 BAR2 EZ I        1047 43.96         4.8 0.36            171           23.4 205 
 BRR  HZ EP       1047 23.96                             152   -0.1810 77.3 298 
 BRR  HE ES       1047 41.96                             152    0.5310 77.3 298 
 BRR  HZ I        1047 44.19         9.6 0.32            152           77.3 298 
 RUS  HN ES       1047 44.89                             146   -0.2010 98.5 179 
 SPBC HZ EP       1047 31.17                             130   -0.01 9  166 221 
 SPBC HE ES       1047 53.93                             130   -0.03 9  166 221 
 SPBC HZ I        1047 56.05         5.6 0.14            133            166 221 
 ZAR  HZ EP       1047 36.21                             123    0.75 8  210 292 
 ZAR  HE ES       1048  0.59                             123   -0.99 8  210 292 
 ZAR  HZ I        1048  7.22         3.0 0.21            125            210 292 
 NOR  HN ES       1048  7.28                             119    0.33 8  239 236 
                                                                                
