 2012  629 1836  9.8 L   6.774 -73.157137.8  RSN 10 0.4 2.0LRSN                1
 GAP=136        0.71       2.8     3.1  5.3 -0.2965E+00  0.7292E+01  0.2477E+01E
 Epicentro: LOS SANTOS - SANTANDER                                             3
 ACTION:UPD 12-08-06 17:53 OP:ep   STATUS:               ID:20120629183609 L   I
 2012-06-29-1830-49M.COL___181                                                 6
 STAT SP IPHASW D HRMM SECON CODA AMPLIT PERI AZIMU VELO AIN AR TRES W  DIS CAZ7
 BAR2 SZ EP       1836 28.55                             171    0.1410 20.3 188 
 BAR2 SZ I        1836 30.25        15.5 0.09                          20.3 188 
 BAR2 SZ ES   1   1836 43.37                             171    0.44 7 20.3 188 
 BRR  HZ EP   1   1836 30.39                             151    0.28 7 71.5 301 
 BRR  HZ I        1836 31.00        40.1 0.12                          71.5 301 
 PAM  SZ EP   1   1836 31.39                             148    0.02 7 80.4  39 
 PAM  SN ES       1836 48.17                             148   -0.0210 80.4  39 
 PAM  SZ I        1836 50.67        12.0 0.30                          80.4  39 
 RUS  HZ EP   1   1836 32.48                             143   -0.09 7 97.8 175 
 RUS  HZ I        1836 33.21        12.0 0.21                          97.8 175 
 RUS  HN ES       1836 50.01                             143   -0.3210 97.8 175 
 PTB  HZ EP   1   1836 35.24                             130   -0.72 7  146 260 
 PTB  HN ES       1836 56.08                             130   -0.29 9  146 260 
 PTB  HZ I        1837  2.17        13.8 0.23                           146 260 
 ZAR  HZ EP   1   1836 41.21                             120   -0.52 6  204 293 
 ZAR  HN ES       1837  6.91                             120    0.27 9  204 293 
 ZAR  HZ I        1837 12.61        19.0 0.22                           204 293 
 NOR  SZ EP   1   1836 44.70                             117   -0.09 6  232 235 
 NOR  SN ES       1837 12.11                             117    0.04 8  232 235 
 CHI  HZ EP   1   1836 46.57                             116   -0.16 6  246 195 
 CHI  HN ES       1837 15.78                             116    0.25 8  246 195 
 CHI  HZ I        1837 21.98         4.8 0.29                           246 195 
 HEL  HZ EP   1   1836 50.37                             113    0.97 6  270 256 
 HEL  HN ES   1   1837 20.08                             113   -0.21 6  270 256 
 PRA  HZ EP   1   1837  2.67                             105   -0.02 4  389 210 
 PRA  HN ES   1   1837 44.62                             105    0.68 4  389 210 
                                                                                
