 2015  329 1141 17.7 L   6.953 -73.157147.2  RSN  8 0.5 1.8LRSN                1
 GAP=134        1.18       4.2     5.7  8.4 -0.6594E+01  0.1157E+02  0.1131E+01E
 Epicentro: PIEDECUESTA - SANTANDER                                            3
 ACTION:UPD 15-04-30 16:30 OP:nd   STATUS:               ID:20150329114117 L   I
 OLDACT:REG 15-03-29 20:21 OP:fm   STATUS:               ID:20150329113745     3
 2015-03-29-1137-45M.COL___290                                                 6
 STAT SP IPHASW D HRMM SECON CODA AMPLIT PERI AZIMU VELO AIN AR TRES W  DIS CAZ7
 BAR2 EZ EP       1141 37.57                             164   -0.3510 40.0 184 
 BAR2 EZ I        1141 59.51         6.2 0.22            160           40.0 184 
 BRR  HZ IP     C 1141 38.80                             155    0.2310 63.6 286 
 BRR  HN ES       1141 55.27                             155    0.4010 63.6 286 
 BRR  HZ I        1141 58.05         7.8 0.16            159           63.6 286 
 PAM  SZ EP       1141 39.65                             155    0.2310 66.1  50 
 PAM  SN ES       1141 56.59                             155    0.2210 66.1  50 
 PAM  SZ I        1141 57.62         9.7 0.22            153           66.1  50 
 OCA  HZ EP       1141 45.15                             133    0.60 9  143 353 
 OCA  HN ES       1142  4.30                             133   -1.20 9  143 353 
 OCA  HZ I        1142  9.70        14.5 0.32            135            143 353 
 SPBC HZ EP   1   1141 46.95                             127   -0.56 7  176 215 
 SPBC HE ES       1142 10.76                             127   -0.02 9  176 215 
 SPBC HZ I        1142 17.11         6.3 0.48            126            176 215 
 ZAR  HZ EP       1141 50.04                             124    0.54 9  197 288 
 ZAR  HN ES       1142 14.76                             124    0.43 9  197 288 
 SML  HZ EP       1141 52.67                             120   -0.01 8  228 334 
 SML  HE ES       1142 19.64                             120   -0.35 8  228 334 
 SML  HZ I        1142 26.33         7.3 0.22            120            228 334 
 NOR  HZ EP   1   1141 54.43                             118   -0.05 6  244 231 
 NOR  HE ES       1142 22.59                             118   -0.61 8  244 231 
 NOR  HZ I        1142 27.38         4.0 0.22            117            244 231 
                                                                                
