 2012  729 1250  2.7 L   6.812 -73.092142.1  RSN  6 0.5 1.4LRSN                1
 GAP=143        0.96       9.0     7.0 11.5  0.5800E+01  0.8398E+01  0.1185E+02E
 Epicentro: LOS SANTOS - SANTANDER                                             3
 ACTION:UPD 12-08-14 11:46 OP:ep   STATUS:               ID:20120729125002 L   I
 2012-07-29-1250-00M.COL___215                                                 6
 STAT SP IPHASW D HRMM SECON CODA AMPLIT PERI AZIMU VELO AIN AR TRES W  DIS CAZ7
 BAR2 SZ EP       1250 22.11                             169     0.210   26 202 
 BAR2 SZ I        1250 22.70         4.7 0.14            169             26 202 
 BAR2 SZ ES   2   1250 36.80                             169    -0.2 5   26 202 
 PAM  SZ EP   2   1250 23.65                             152    -0.6 5   73  37 
 PAM  SN ES   2   1250 40.43                             152    -0.6 5   73  37 
 BRR  HZ EP   1   1250 24.52                             150     0.8 7   76 296 
 BRR  HN ES   1   1250 40.39                             150     0.3 7   76 296 
 BRR  HZ I        1250 42.77         8.1 0.29            152             76 296 
 RUS  HZ EP   2   1250 26.70                             143     0.5 5  102 179 
 RUS  HN ES   2   1250 44.43                             143     0.0 5  102 179 
 RUS  HZ I        1250 46.16         4.5 0.35            145            102 179 
 PTB  HZ EP   1   1250 29.16                             130    -0.8 7  154 259 
 PTB  HN ES   1   1250 50.84                             130    -0.3 7  154 259 
 PTB  HZ I        1250 52.11         2.5 0.40            132            154 259 
 ZAR  HN ES   2   1251  0.93                             121     0.0 4  209 291 
