 2013 1229 1134 44.9 L   6.797 -73.214149.5  RSN  5 0.5 1.5LRSN                1
 GAP=194        1.10       4.8     9.3  8.7  0.2333E+02  0.1910E+02 -0.2040E+01E
 Epicentro: ZAPATOCA - SANTANDER                                               3
 ACTION:UPD 14-01-13 10:22 OP:ep   STATUS:               ID:20131229113444 L   I
 OLDACT:REG 13-12-29 14:32 OP:jn   STATUS:               ID:20131229113000     3
 2013-12-29-1130-00M.COL___285                                                 6
 STAT SP IPHASW D HRMM SECON CODA AMPLIT PERI AZIMU VELO AIN AR TRES W  DIS CAZ7
 BAR2 SZ EP       1135  5.05                             171    0.0610 22.9 171 
 BAR2 SZ ES       1135 20.77                             171    0.1210 22.9 171 
 BAR2 SZ I        1135 21.63        16.8 0.16            169           22.9 171 
 RUS  HZ EP       1135  9.44                             144    0.3710  101 172 
 RUS  HN ES       1135 27.77                             144   -0.1510  101 172 
 RUS  HZ I        1135 29.25         2.0 0.26            143            101 172 
 ZAR  HE ES       1135 42.27                             124    0.40 9  197 293 
 SML  HZ EP       1135 20.99                             118   -0.47 8  241 337 
 SML  HN ES       1135 49.56                             118   -0.40 8  241 337 
 CHI  HZ EP       1135 23.37                             118    0.78 8  246 193 
 CHI  HN ES       1135 50.97                             118   -1.01 8  246 193 
 CHI  HZ I        1135 56.41         2.4 0.38            118            246 193 
                                                                                
