 2012  729 1735 13.5 L   6.689 -73.174150.1  RSN  5 0.4 1.5LRSN                1
 GAP=226        0.79      12.8    10.1  9.8  0.8159E+02  0.1865E+02  0.3742E+02E
 Epicentro: VILLANUEVA - SANTANDER                                             3
 ACTION:UPD 12-08-14 11:46 OP:ep   STATUS:               ID:20120729173513 L   I
 2012-07-29-1730-00M.COL___215                                                 6
 STAT SP IPHASW D HRMM SECON CODA AMPLIT PERI AZIMU VELO AIN AR TRES W  DIS CAZ7
 BAR2 SZ EP   1   1735 33.09                             175    -0.4 7   11 185 
 BAR2 SZ ES   1   1735 48.94                             175    -0.1 7   11 185 
 BAR2 SZ I        1735 50.31         6.1 0.22            163             11 185 
 BRR  HZ EP   1   1735 35.43                             152     0.1 7   75 308 
 BRR  HZ I        1735 37.95         8.2 0.18            147             75 308 
 BRR  HN ES   1   1735 52.48                             152     0.1 7   75 308 
 RUS  HZ EP   1   1735 37.44                             148     0.6 7   89 173 
 PTB  HZ EP   2   1735 39.46                             134    -0.9 5  143 263 
 PTB  HN ES   2   1736  1.33                             134     0.0 5  143 263 
 PTB  HZ I        1736  8.85         3.2 0.41            128            143 263 
 ZAR  HN ES   2   1736 12.48                             123     0.3 4  206 296 
