 2010  429 1722 58.7 L   7.077 -72.886149.3  RSN  6 0.4 1.9LRSN                1
 GAP=204        0.83       7.1    10.3  8.7 -0.4715E+02 -0.5699E+00  0.3109E+01E
 Epicentro: SANTA BARBARA - SANTANDER                                          3
 ACTION:UPD 10-08-24 10:01 OP:vdl  STATUS:               ID:20100429172258 L   I
 2010-04-29-1721-48S.COL___104                                                 6
 STAT SP IPHASW D HRMM SECON CODA AMPLIT PERI AZIMU VELO SNR AR TRES W  DIS CAZ7
 BAR2 SZ IP       1723 20.39                             156     0.210   63 211 
 BAR2 SZ ES   1   1723 36.86                             156     0.0 7   63 211 
 BRI  SZ IP       1723 20.59                             153     0.110   71   8 
 GUE  SZ EP   1   1723 22.06                             150     0.6 7   83 357 
 GRA  SZ IP       1723 21.34                             148    -0.310   90   6 
 GRA  SZ ES       1723 39.43                             148     0.010   90   6 
 BRR  HZ IP     C 1723 21.01                             147    -0.510   91 272 
 BRR  HE ES   2   1723 38.89                             147    -0.3 5   91 272 
 HEL  HN ES   2   1724 18.89                             112     1.1 4  308 252 
 HEL  HZ I        1724 21.08         3.7 0.54                           308 252 
                                                                                
