 2014  429 1848 49.9 L   6.785 -73.154134.3  RSN  6 0.3 1.6LRSN                1
 GAP=136        0.71       2.9     3.2  6.8 -0.1177E+01  0.8161E+01  0.1572E+01E
 Epicentro: LOS SANTOS - SANTANDER                                             3
 ACTION:UPD 14-05-13 23:12 OP:nd   STATUS:               ID:20140429184849 L   I
 OLDACT:REG 14-04-29 21:53 OP:spq  STATUS:               ID:20140429183812     3
 2014-04-29-1838-12M.COL___226                                                 6
 STAT SP IPHASW D HRMM SECON CODA AMPLIT PERI AZIMU VELO AIN AR TRES W  DIS CAZ7
 PAM  SZ EP       1849 11.37                             148    0.3010 79.2  39 
 PAM  SN ES       1849 27.38                             148   -0.1710 79.2  39 
 PAM  SZ I        1849 29.80        11.7 0.56            155           79.2  39 
 RUS  HZ EP       1849 12.52                             142    0.0510 99.0 175 
 RUS  HN ES   1   1849 30.02                             142   -0.01 7 99.0 175 
 RUS  SZ I        1849 30.68         4.0 0.92            145           99.0 175 
 PTB  HZ EP       1849 15.47                             129   -0.42 9  147 259 
 PTB  HN ES       1849 35.77                             129   -0.36 9  147 259 
 PTB  SZ I        1849 38.65         4.7 0.64            131            147 259 
 SPBC HZ EP       1849 17.49                             127    0.08 9  161 219 
 SPBC HN ES   1   1849 39.28                             127    0.45 7  161 219 
 SPBC SZ I        1849 49.13         4.5 0.52            129            161 219 
 OCA  HE ES   1   1849 39.09                             126    0.02 7  162 354 
 ZAR  HZ EP       1849 21.43                             120   -0.22 9  204 293 
 ZAR  HN ES       1849 46.89                             120    0.51 9  204 293 
 ZAR  SZ I        1849 53.43         5.1 0.22            123            204 293 
 SML  HN ES   4   1849 52.47                             115   -1.80 0  245 336 
                                                                                
