 2017  429 1348 10.0 L   6.735 -73.244145.9  RSN  4 0.5 1.6LRSN                1
 GAP=221        1.12       8.9     9.4  9.9  0.4893E+02 -0.1228E+01 -0.1158E+02E
 Epicentro: ZAPATOCA - SANTANDER                                               3
 ACTION:UPD 17-05-30 21:17 OP:jn   STATUS:               ID:20170429134810 L   I
 OLDACT:UP  17-04-29 22:25 OP:dani STATUS:               ID:20170429133743d    3
 OLDACT:DUP 17-04-29 22:20 OP:dani STATUS:               ID:20170429133743d    3
 OLDACT:REG 17-04-29 21:15 OP:dani STATUS:               ID:20170429133741     3
 2017-04-29-1338-00M.COL___367                                                 6
 STAT SP IPHASW D HRMM SECON CODA AMPLIT PERI AZIMU VELO AIN AR TRES W  DIS CAZ7
 BRR  HZ EP       1348 30.40                             154   -0.4710 66.1 309 
 BRR  HN ES       1348 47.35                             154    0.1910 66.1 309 
 BRR  HZ I        1348 52.22        12.1 0.32            153           66.1 309 
 RUS  HZ EP       1348 32.83                             146   -0.5110 94.8 169 
 RUS  HN ES       1348 51.94                             146    0.3810 94.8 169 
 RUS  HN IS       1348 51.94                             145           94.8 169 
 RUS  HZ I        1348 52.61         3.6 0.28            152           94.8 169 
 PTB  HZ EP       1348 36.34                             135    0.43 9  136 261 
 PTB  HN ES       1348 55.71                             135   -0.41 9  136 261 
 PTB  HZ I        1348 58.99         3.3 0.45            136            136 261 
 ZAR  HZ EP       1348 42.37                             123    0.65 9  197 295 
 ZAR  HN ES   3   1349  4.76                             123   -1.72 2  197 295 
 ZAR  HZ I        1349 12.65         5.7 0.27            125            197 295 
                                                                                
