 2014  829 1040  1.2 L   6.799 -73.150138.7  RSN 11 0.6 2.0LRSN                1
 GAP= 84        1.55       4.6     4.9  8.3 -0.4337E+01  0.4596E+01  0.4681E+01E
 Epicentro: LOS SANTOS - SANTANDER                                             3
 ACTION:UPD 14-09-15 21:54 OP:nd   STATUS:               ID:20140829104001 L   I
 OLDACT:REG 14-08-29 18:28 OP:stll STATUS:               ID:20140829103818     3
 2014-08-29-1038-18M.COL___278                                                 6
 STAT SP IPHASW D HRMM SECON CODA AMPLIT PERI AZIMU VELO AIN AR TRES W  DIS CAZ7
 BAR2 SZ IP     C 1040 20.48                             170    0.5410 23.2 189 
 BAR2 SZ ES       1040 34.05                             170   -0.5410 23.2 189 
 BAR2 SZ I        1040 36.60        20.1 0.16            168           23.2 189 
 BRR  HZ IP     D 1040 22.25                             151    0.7210 70.9 299 
 BRR  HN ES       1040 38.68                             151    1.2610 70.9 299 
 BRR  HZ I        1040 43.14        20.1 0.14            150           70.9 299 
 PAM  SZ EP       1040 23.26                             149    0.6110 77.7  40 
 PAM  SZ I        1040 23.59        40.7 0.18            154           77.7  40 
 PAM  SN ES       1040 39.44                             149    0.0310 77.7  40 
 PTB  HZ EP       1040 27.20                             130   -0.32 9  147 259 
 PTB  HN ES       1040 47.74                             130   -0.34 9  147 259 
 PTB  HZ I        1040 53.39        12.8 0.18            130            147 259 
 TAM  HZ IP     C 1040 28.90                             129    0.57 9  155 105 
 TAM  HZ I        1040 29.04        15.8 0.18            133            155 105 
 TAM  HE ES       1040 48.49                             129   -1.02 9  155 105 
 OCA  HZ EP       1040 28.90                             128   -0.03 9  160 353 
 OCA  HE ES       1040 49.98                             128   -0.62 9  160 353 
 OCA  HZ I        1040 53.70        11.7 0.52            130            160 353 
 SPBC HZ EP       1040 29.58                             127    0.48 9  163 219 
 SPBC HE ES       1040 50.23                             127   -0.65 9  163 219 
 SPBC HZ I        1041  0.43         8.7 0.54            128            163 219 
 NOR  HZ EP       1040 36.33                             117   -0.12 8  234 234 
 NOR  HN ES       1041  3.85                             117   -0.12 8  234 234 
 NOR  HZ I        1041 10.28         8.1 0.22            118            234 234 
 SML  HZ EP       1040 36.50                             116   -0.89 8  244 335 
 SML  HN ES       1041  5.06                             116   -0.58 8  244 335 
 SML  HZ I        1041 13.19        12.7 0.10            117            244 335 
 MON  HZ EP   9   1040 48.13                             107   -1.73 0  353 308 
 MON  HZ I        1040 48.29         1.8 0.16            108            353 308 
 MON  HN ES       1041 25.10                                   -1.02 6  353 308 
 PRA  HZ EP       1040 55.28                             105    0.87 6  392 210 
 PRA  HN ES       1041 35.36                             105   -0.59 6  392 210 
 PRA  HZ I        1041 42.56         4.0 0.62            106            392 210 
                                                                                
