 2011  129 1927  3.2 L   6.709 -73.148148.3  RSN  5 0.4 1.8LRSN                1
 GAP=182        0.73       5.4     9.7  8.7 -0.3039E+01  0.4037E+02  0.2537E+01E
 Epicentro: VILLANUEVA - SANTANDER                                             3
 ACTION:UP  11-02-08 08:43 OP:pat  STATUS:               ID:20110129192703 L   I
 2011-01-29-1925-30S.COL___138                                                 6
 STAT SP IPHASW D HRMM SECON CODA AMPLIT PERI AZIMU VELO SNR AR TRES W  DIS CAZ7
 BAR2 SZ ES   2   1927 37.78                             175    -0.7 5   14 197 
 BTL  SZ EP       1927 23.66                             169     0.410   27 330 
 BTL  SZ ES   2   1927 39.17                             169     0.3 5   27 330 
 RUS  HZ EP       1927 26.44                             147    -0.110   91 175 
 RUS  HN ES   1   1927 44.75                             147     0.0 7   91 175 
 RUS  HZ I        1927 46.21         7.9 0.41                            91 175 
 OCA  SZ ES   2   1927 55.05                             128    -0.6 4  170 354 
 OCA  SZ I        1927 58.50        10.8 0.27                           170 354 
 NOR  SZ EP       1927 38.29                             120    -0.2 8  229 237 
 NOR  SN ES   2   1928  6.39                             120     0.4 4  229 237 
                                                                                
