 2012 1229 1203  7.4 L   6.732 -73.175145.3  RSN  4 0.3 1.9LRSN                1
 GAP=229        0.82       7.5     7.4  6.8  0.2942E+02  0.7568E+01  0.7104E+01E
 Epicentro: VILLANUEVA - SANTANDER                                             3
 ACTION:UPD 13-01-04 14:31 OP:ep   STATUS:               ID:20121229120307 L   I
 2012-12-29-1200-00M.COL___242                                                 6
 STAT SP IPHASW D HRMM SECON CODA AMPLIT PERI AZIMU VELO AIN AR TRES W  DIS CAZ7
 BAR2 SZ EP       12 3 26.75                             174   -0.1110 15.5 183 
 BAR2 SZ ES       12 3 41.51                             174   -0.5210 15.5 183 
 BAR2 SZ I        12 3 42.87        20.9 0.19                          15.5 183 
 BRR  HZ EP       12 3 28.57                             152   -0.0210 72.4 305 
 BRR  HE ES       12 3 45.57                             152    0.4710 72.4 305 
 BRR  HZ I        12 3 50.16        12.9 0.17                          72.4 305 
 RUS  HZ EP       12 3 30.88                             146    0.2610 93.4 174 
 RUS  HN ES   1   12 3 49.12                             146    0.40 7 93.4 174 
 RUS  HN I        12 3 51.25        23.5 0.41                          93.4 174 
 PTB  HZ EP       12 3 33.69                             133   -0.26 9  143 262 
 PTB  HE ES   1   12 3 54.48                             133   -0.16 7  143 262 
 PTB  HZ I        12 3 58.37         6.6 0.17                           143 262 
                                                                                
