 2015  329 1345 35.5 L   6.808 -73.169146.0  RSN 13 0.5 2.1LRSN                1
 GAP=133        1.07       3.2     4.3  6.1 -0.2903E+01  0.7413E+01  0.1503E+01E
 Epicentro: LOS SANTOS - SANTANDER                                             3
 ACTION:UPD 15-04-30 16:30 OP:nd   STATUS:               ID:20150329134535 L   I
 OLDACT:REG 15-03-29 20:30 OP:fm   STATUS:               ID:20150329133745     3
 2015-03-29-1337-45M.COL___290                                                 6
 STAT SP IPHASW D HRMM SECON CODA AMPLIT PERI AZIMU VELO AIN AR TRES W  DIS CAZ7
 BAR2 EZ EP       1345 55.28                             170    0.0810 23.9 184 
 BAR2 EZ ES       1346 11.27                             170    0.7210 23.9 184 
 BAR2 EZ I        1346 13.14        21.5 0.16            170           23.9 184 
 BRR  HZ EP       1345 57.21                             154    0.6510 68.5 299 
 BRR  HN ES       1346 13.33                             154    0.3710 68.5 299 
 BRR  HZ I        1346 18.45        17.4 0.14            151           68.5 299 
 PAM  SZ EP   1   1345 58.01                             151    0.18 7 78.4  41 
 PAM  SN ES   1   1346 15.17                             151   -0.06 7 78.4  41 
 RUS  HZ EP       1345 58.52                             144   -0.8710  102 175 
 RUS  HN ES   1   1346 17.26                             144   -0.73 7  102 175 
 RUS  HZ I        1346 19.14        10.6 0.28            147            102 175 
 PTB  HZ EP       1346  2.39                             133    0.08 9  145 258 
 PTB  HN ES       1346 23.09                             133   -0.10 9  145 258 
 OCA  HN ES       1346 25.58                             130   -0.18 9  159 354 
 OCA  HZ I        1346 30.35        19.9 0.26            132            159 354 
 SPBC HZ EP       1346  4.04                             129    0.08 9  162 218 
 SPBC HE ES       1346 25.70                             129   -0.44 9  162 218 
 SPBC HZ I        1346 31.88        19.9 0.14            131            162 218 
 ZAR  HN ES       1346 32.25                             123   -0.56 9  201 292 
 ZAR  HZ I        1346 39.01         8.4 0.56            124            201 292 
 NOR  HZ EP       1346 11.37                             119    0.26 8  233 234 
 NOR  HE ES       1346 38.31                             119   -0.54 8  233 234 
 NOR  HZ I        1346 43.45        11.2 0.20            120            233 234 
 SML  HZ EP       1346 12.13                             118    0.16 8  242 336 
 SML  HE ES       1346 39.80                             118   -0.59 8  242 336 
 SML  HZ I        1346 42.84        11.8 0.10            120            242 336 
 HEL  HN ES       1346 46.73                             115    0.05 8  270 255 
 HEL  HZ I        1346 53.63         4.6 0.32            117            270 255 
 GUY2CHZ EP   1   1346 18.89                             113   -0.08 5  300 234 
 GUY2CHE ES       1346 53.45                             113    0.60 7  300 234 
 GUY2CHZ I        1347  1.86         5.9 0.24                           300 234 
 TOL  SZ EP   1   1346 24.02                             110    0.36 5  342 224 
 TOL  SN ES       1347  1.92                             110    0.72 7  342 224 
 TOL  SZ I        1347  6.28         4.5 0.28            111            342 224 
 SJC  HZ EP   4   1346 29.44                             106   -1.41 0  407 327 
                                                                                
