 2012 1229 1511 54.2 L   6.720 -73.158144.8  RSN  5 0.4 1.8LRSN                1
 GAP=230        0.97       8.0     8.3  8.1  0.4346E+02  0.7774E+01  0.5625E+00E
 Epicentro: VILLANUEVA - SANTANDER                                             3
 ACTION:UPD 13-01-04 14:31 OP:ep   STATUS:               ID:20121229151154 L   I
 2012-12-29-1510-00M.COL___242                                                 6
 STAT SP IPHASW D HRMM SECON CODA AMPLIT PERI AZIMU VELO AIN AR TRES W  DIS CAZ7
 BAR2 SZ EP       1512 13.29                             174   -0.3210 14.3 191 
 BAR2 SZ ES       1512 28.19                             174   -0.5310 14.3 191 
 BAR2 SZ I        1512 30.11        28.8 0.54                          14.3 191 
 BRR  HZ EP       1512 15.65                             151    0.1610 74.7 305 
 BRR  HZ I        1512 16.12        11.6 0.45                          74.7 305 
 BRR  HE ES       1512 32.40                             151    0.3310 74.7 305 
 RUS  HZ EP       1512 17.38                             146    0.0910 91.8 175 
 RUS  HE ES       1512 35.78                             146    0.5210 91.8 175 
 RUS  HE I        1512 37.68         6.8 0.28                          91.8 175 
 PTB  HZ EP   1   1512 20.49                             132   -0.39 7  145 262 
 PTB  HN ES   1   1512 41.06                             132   -0.59 7  145 262 
 PTB  HZ I        1512 43.59         4.6 0.10                           145 262 
 ZAR  HE ES   1   1512 52.88                             122    0.58 6  206 295 
 ZAR  HZ I        1512 58.31         7.5 0.31                           206 295 
                                                                                
