 2016 1229 1348 46.5 L   5.965 -73.699109.6  RSN  4 0.3 0.9LRSN                1
 GAP=149        0.75       6.0     3.8  8.6  0.7398E+01  0.1787E+02  0.2345E+02E
 Epicentro: GUAVATA - SANTANDER                                                3
 ACTION:UPD 17-01-11 20:20 OP:rebc STATUS:               ID:20161229134846 L   I
 OLDACT:UP  16-12-29 23:01 OP:cog  STATUS:               ID:20161229133744     3
 OLDACT:REG 16-12-29 20:55 OP:cog  STATUS:               ID:20161229133744     3
 2016-12-29-1338-00M.COL___384                                                 6
 STAT SP IPHASW D HRMM SECON CODA AMPLIT PERI AZIMU VELO AIN AR TRES W  DIS CAZ7
 RUS  HZ EP       1349  4.57                             146    0.1410 68.6  97 
 RUS  HN ES       1349 18.47                             146    0.0710 68.6  97 
 RUS  HZ I        1349 23.82         1.3 0.38            153           68.6  97 
 BAR2 EZ EP       1349  6.05                             138    0.3710 89.9  39 
 BAR2 EZ ES       1349 20.13                             138   -0.4910 89.9  39 
 PTB  HZ EP       1349  6.66                             133   -0.0310  105 307 
 PTB  HN ES       1349 22.62                             133    0.2010  105 307 
 PTB  HZ I        1349 26.03         2.6 0.10            141            105 307 
 GUY2CHZ EP       1349 16.92                             114   -0.35 9  202 246 
 GUY2CHN ES   4   1349 43.20                             114    1.95 0  202 246 
 GUY2CHZ I        1349 44.77         1.1 0.11                           202 246 
                                                                                
