 2013 1229 1304 28.0 L   6.746 -73.157155.6  RSN  6 0.5 1.5LRSN                1
 GAP=232        1.16       6.8     7.0  9.3  0.1826E+02  0.7318E+01 -0.3100E+01E
 Epicentro: JORDAN - SANTANDER                                                 3
 ACTION:UPD 14-01-13 10:22 OP:ep   STATUS:               ID:20131229130428 L   I
 OLDACT:REG 13-12-29 14:40 OP:jn   STATUS:               ID:20131229130000     3
 2013-12-29-1300-00M.COL___285                                                 6
 STAT SP IPHASW D HRMM SECON CODA AMPLIT PERI AZIMU VELO AIN AR TRES W  DIS CAZ7
 BAR2 SZ EP       13 4 48.60                             173   -0.1410 17.2 189 
 BAR2 SZ ES       13 5  4.43                             173   -0.4610 17.2 189 
 BAR2 SZ I        13 5  7.09        10.1 0.28            173           17.2 189 
 BRR  HZ EP       13 4 50.78                             153    0.4310 73.2 303 
 BRR  HN ES       13 5  8.50                             153    0.7310 73.2 303 
 RUS  HZ EP       13 4 52.23                             147   -0.1310 94.7 175 
 RUS  HN ES       13 5 11.23                             147   -0.1110 94.7 175 
 RUS  HZ I        13 5 12.89         3.2 0.36            148           94.7 175 
 PTB  HZ EP       13 4 55.56                             135   -0.05 9  146 261 
 PTB  HN ES       13 5 16.51                             135   -0.62 9  146 261 
 PTB  HZ I        13 5 17.84         3.4 0.22            136            146 261 
 SPBC HN ES       13 5 19.96                             132    0.71 9  158 220 
 ZAR  HE ES       13 5 26.72                             124   -0.44 8  205 294 
                                                                                
