 2010 1229 1444 18.4 L   6.821 -73.034134.8  RSN  4 0.2 1.7LRSN                1
 GAP=171        0.45       3.0     7.9  5.0 -0.1336E+02  0.1355E+02 -0.5405E+01E
 Epicentro: CEPITA - SANTANDER                                                 3
 ACTION:UP  11-01-14 15:27 OP:pat  STATUS:               ID:20101229144418 L   I
 2010-12-29-1440-00M.COL___137                                                 6
 STAT SP IPHASW D HRMM SECON CODA AMPLIT PERI AZIMU VELO SNR AR TRES W  DIS CAZ7
 BAR2 SZ EP   1   1444 37.10                             167     0.2 8   30 213 
 BAR2 SZ ES   1   1444 51.14                             167    -0.1 8   30 213 
 BAR2 SZ I        1444 52.98        20.0 0.19                            30 213 
 RUS  HZ EP   1   1444 40.99                             141    -0.2 8  103 183 
 RUS  HN ES   1   1444 59.21                             141     0.1 8  103 183 
 RUS  HZ I        1445  1.71         6.9 0.29                           103 183 
 GRA  SZ EP       1444 42.19                             136     0.010  120  12 
 GRA  SZ ES   1   1445  0.79                             136     0.0 7  120  12 
 GRA  SZ I        1445  2.58         9.3 0.29                           120  12 
 HEL  HZ EP   1   1444 59.48                             111     0.0 6  285 256 
 HEL  HZ I        1445 23.77         2.6 0.28                           285 256 
                                                                                
