 2017  729 1133  8.0 L   6.750 -73.101148.0  RSN  5 0.3 1.3LRSN                1
 GAP=239        0.73       4.7     4.5  5.3  0.4285E+01  0.5980E+01  0.3708E+01E
 Epicentro: LOS SANTOS - SANTANDER                                             3
 ACTION:UPD 17-08-30 15:38 OP:rebc STATUS:               ID:20170729113308 L   I
 OLDACT:REG 17-07-29 18:10 OP:ar   STATUS:               ID:20170729112744     3
 2017-07-29-1128-00M.COL___386                                                 6
 STAT SP IPHASW D HRMM SECON CODA AMPLIT PERI AZIMU VELO AIN AR TRES W  DIS CAZ7
 BAR2 EZ EP       1133 27.84                             172    0.0210 19.7 207 
 BAR2 EZ ES       1133 43.22                             172   -0.0610 19.7 207 
 BAR2 EZ I        1133 46.62         4.0 0.58            168           19.7 207 
 BRR  HZ EP       1133 29.93                             151    0.1510 78.2 300 
 BRR  HN ES       1133 47.08                             151    0.3010 78.2 300 
 RUS  HZ EP       1133 31.70                             146    0.1410 94.9 179 
 RUS  HN ES       1133 49.80                             146   -0.1410 94.9 179 
 RUS  HZ I        1133 51.05         2.1 0.34            146           94.9 179 
 PTB  HZ EP       1133 34.98                             132   -0.51 9  152 261 
 PTB  HN ES       1133 56.53                             132   -0.42 9  152 261 
 PTB  HZ I        1134  1.91         2.9 0.16            131            152 261 
 NOR  HZ EP       1133 44.07                             119    0.12 8  236 236 
 NOR  HE ES       1134 12.49                             119    0.49 8  236 236 
 NOR  HZ I        1134 16.35         3.0 0.16            119            236 236 
                                                                                
