 2010  529 1454 59.1 L   6.870 -73.098140.1  RSN  6 0.3 2.0LRSN                1
 GAP=181        0.62       3.9     9.7  7.4 -0.1399E+02  0.6516E+01  0.1193E+01E
 Epicentro: LOS SANTOS - SANTANDER                                             3
 ACTION:UP  10-08-24 10:07 OP:vdl  STATUS:               ID:20100529145459 L   I
 2010-05-29-1452-23S.COL___109                                                 6
 STAT SP IPHASW D HRMM SECON CODA AMPLIT PERI AZIMU VELO SNR AR TRES W  DIS CAZ7
 GIR2 SZ EP   2   1455 18.29                             169     0.4 5   25 335 
 GIR2 SZ ES   2   1455 33.46                             169     0.8 5   25 335 
 BAR2 SZ EP       1455 17.95                             166    -0.310   32 197 
 BAR2 SZ ES   2   1455 32.93                             166    -0.3 5   32 197 
 GUE  SZ EP   1   1455 22.90                             140     0.3 7  108  10 
 GRA  SZ EP   1   1455 23.21                             138     0.1 7  117  16 
 GRA  SZ ES   2   1455 41.65                             138    -0.1 5  117  16 
 OCA  SZ EP   2   1455 26.24                             130     0.0 5  153 351 
 OCA  SZ ES       1455 47.27                             130    -0.2 9  153 351 
 OCA  SZ I        1455 53.34         7.2 0.30                           153 351 
 RREF BZ EP   2   1455 46.19                             109     0.2 3  331 229 
 RREF BN ES   2   1456 22.81                             109     0.2 3  331 229 
 RREF BZ I        1456 30.37         5.8 0.25                           331 229 
                                                                                
