 2010  929 1935 46.2 L   7.372 -73.633 12.7  RSN  5 0.2 2.0LRSN                1
 GAP=183        0.63       2.9     6.9  5.5 -0.1510E+02 -0.2603E+02  0.8253E+01E
 Epicentro: SABANA DE TORRES - SANTANDER                                       3
 ACTION:UP  11-02-18 11:06 OP:tino STATUS:               ID:20100929193546 L   I
 2010-09-29-1931-31S.COL___125                                                 6
 STAT SP IPHASW D HRMM SECON CODA AMPLIT PERI AZIMU VELO SNR AR TRES W  DIS CAZ7
 BRR  HZ IP     C 1935 51.52                             108    -0.110   31 197 
 BRR  HN ES       1935 55.80                             108    -0.110   31 197 
 BRR  HZ I        1935 55.93       263.9 0.13                            31 197 
 BAR2 SZ EP   1   1936  2.52                              95     0.3 7  100 150 
 OCA  SZ EP       1936  2.53                              95     0.110  102  20 
 OCA  SZ I        1936 16.13        21.3 0.64                           102  20 
 GRA  SZ EP       1936  3.15                              95    -0.210  108  58 
 GRA  SZ I        1936 17.88        58.9 0.09                           108  58 
 RUS  HZ EP       1936 13.40                              56     0.3 9  175 160 
 RUS  HN ES   1   1936 33.79                              56    -0.3 7  175 160 
 RUS  HZ I        1936 37.01        10.3 0.91                           175 160 
                                                                                
