 2012 1229 1118 13.3 L   6.727 -73.188150.0  RSN  5 0.3 1.7LRSN                1
 GAP=227        0.73       7.1     6.2  6.5  0.2479E+02  0.8337E+01 -0.2184E+00E
 Epicentro: VILLANUEVA - SANTANDER                                             3
 ACTION:UPD 13-01-04 14:31 OP:ep   STATUS:               ID:20121229111813 L   I
 2012-12-29-1110-00M.COL___242                                                 6
 STAT SP IPHASW D HRMM SECON CODA AMPLIT PERI AZIMU VELO AIN AR TRES W  DIS CAZ7
 BAR2 SZ EP       1118 33.16                             174   -0.1610 14.9 178 
 BAR2 SZ ES       1118 48.49                             174   -0.4410 14.9 178 
 BAR2 SZ I        1118 49.91        12.5 0.24                          14.9 178 
 BRR  HZ EP       1118 35.16                             153    0.2110 71.6 306 
 BRR  HZ I        1118 42.87         6.8 0.57                          71.6 306 
 BRR  HN ES   1   1118 52.45                             153    0.63 7 71.6 306 
 RUS  HZ EP   1   1118 37.08                             147    0.11 7 93.0 173 
 RUS  HE ES   1   1118 55.81                             147    0.40 7 93.0 173 
 RUS  HE I        1118 57.28         8.9 0.24                          93.0 173 
 PTB  HZ EP       1118 40.01                             134   -0.10 9  142 262 
 PTB  HN ES   1   1119  0.95                             134   -0.06 7  142 262 
 PTB  HZ I        1119  4.53         6.5 0.15                           142 262 
 ZAR  HE ES   1   1119 11.05                             123   -0.33 6  203 295 
 ZAR  HZ I        1119 17.31         5.2 0.24                           203 295 
                                                                                
