 2016  329 1151 54.4 L   6.806 -73.206141.9  RSN  4 0.2 1.2LRSN                1
 GAP=145        0.60       3.6     3.4  5.1 -0.3863E+01  0.4828E+01 -0.1864E+01E
 Epicentro: ZAPATOCA - SANTANDER                                               3
 ACTION:UPD 16-05-13 21:28 OP:cam  STATUS:               ID:20160329115154 L   I
 OLDACT:REG 16-03-29 20:13 OP:ak   STATUS:               ID:20160329114747     3
 2016-03-29-1147-47M.COL___309                                                 6
 STAT SP IPHASW D HRMM SECON CODA AMPLIT PERI AZIMU VELO AIN AR TRES W  DIS CAZ7
 BAR2 EZ EP       1152 13.17                             170   -0.4310 23.8 174 
 BAR2 EZ ES       1152 28.66                             170    0.1010 23.8 174 
 BAR2 EZ I        1152 29.65         5.9 0.14            172           23.8 174 
 PAM  EZ EP       1152 16.78                             149    0.3110 81.3  43 
 PAM  EN ES       1152 33.57                             149   -0.1010 81.3  43 
 PAM  EZ I        1152 36.00         3.3 0.40            151           81.3  43 
 RUS  HZ EP       1152 17.79                             143   -0.1110  102 172 
 RUS  HN ES       1152 36.34                             143    0.1310  102 172 
 RUS  HZ I        1152 37.75         2.0 0.30            146            102 172 
 PTB  HZ EP       1152 20.66                             132    0.17 9  141 258 
 PTB  HN ES       1152 40.78                             132   -0.05 9  141 258 
 PTB  HZ I        1152 44.64         2.1 0.19            133            141 258 
                                                                                
