 2014  729 1037 49.1 L   6.833 -73.130143.0  RSN  9 0.5 1.7LRSN                1
 GAP=203        1.16       4.0     5.7  7.9  0.1851E+01  0.1270E+02 -0.4140E+01E
 Epicentro: LOS SANTOS - SANTANDER                                             3
 ACTION:UPD 15-03-16 20:48 OP:nd   STATUS:               ID:20140729103749 L   I
 OLDACT:REG 14-07-29 21:24 OP:carl STATUS:               ID:20140729102817     3
 2014-07-29-1028-17M.COL___260                                                 6
 STAT SP IPHASW D HRMM SECON CODA AMPLIT PERI AZIMU VELO AIN AR TRES W  DIS CAZ7
 BAR2 SZ EP       1038  8.22                             169   -0.2210 27.2 192 
 BAR2 SZ ES       1038 24.04                             169    0.4810 27.2 192 
 BAR2 SZ I        1038 26.65         8.6 0.28            168           27.2 192 
 RUS  HZ EP       1038 12.90                             142    0.1010  104 177 
 RUS  HN ES       1038 31.31                             142   -0.0110  104 177 
 RUS  HZ I        1038 34.85         3.0 0.22            146            104 177 
 PTB  HZ EP       1038 15.83                             131   -0.19 9  150 258 
 PTB  HN ES       1038 36.04                             131   -1.01 9  150 258 
 PTB  HZ I        1038 42.93         7.9 0.40            132            150 258 
 SPBC HZ EP       1038 17.98                             128    0.26 9  167 219 
 SPBC HE ES       1038 39.98                             128   -0.10 9  167 219 
 SPBC HZ I        1038 45.01         8.5 0.40            130            167 219 
 ZAR  HN ES       1038 46.69                             122    0.16 9  204 291 
 NOR  HZ EP       1038 24.34                             117   -0.67 8  238 234 
 NOR  HN ES       1038 53.10                             117    0.05 8  238 234 
 NOR  HZ I        1039  0.03         4.2 0.24            120            238 234 
 SML  HZ EP       1038 25.39                             117    0.14 8  241 335 
 SML  HN ES       1038 53.61                             117    0.13 8  241 335 
 SML  HZ I        1038 58.65         8.8 0.10            120            241 335 
 CHI  HN ES       1038 56.23                             116   -0.43 8  253 195 
 GUY2CHZ EP       1038 33.31                             111    0.37 7  305 234 
 GUY2CHN ES       1039  8.67                             111    1.51 7  305 234 
                                                                                
