 2010 1229 1417 43.2 L   6.795 -73.071148.2  RSN 17 0.4 3.6LRSN                1
 GAP=106        0.90       2.9     5.2  6.3 -0.2106E+01  0.8491E+01  0.2503E+01E
 Epicentro: LOS SANTOS - SANTANDER                                             3
 ACTION:UP  11-01-14 15:27 OP:pat  STATUS:               ID:20101229141743 L   I
 2010-12-29-1415-50S.COL___135                                                 6
 STAT SP IPHASW D HRMM SECON CODA AMPLIT PERI AZIMU VELO SNR AR TRES W  DIS CAZ7
 BAR2 SZ IP     D 1418  3.26                             170     0.110   26 209 
 BAR2 SZ ES   2   1418 18.73                             170     0.0 5   26 209 
 BTL  SZ IP       1418  3.40                             170     0.310   26 302 
 BAR2 SZ I        1418 20.10       767.5 0.32                            26 209 
 GIR2 SZ IP     D 1418  3.35                             166     0.110   34 337 
 GIR2 SZ ES   2   1418 18.99                             166     0.2 5   34 337 
 RUS  HZ IP     D 1418  7.20                             144     0.110  100 181 
 RUS  HN ES   1   1418 24.95                             144    -0.8 7  100 181 
 RUS  HZ I        1418 27.18       406.4 0.31                           100 181 
 GRA  SZ IP     C 1418  8.05                             138    -0.410  124  14 
 GRA  SZ ES   2   1418 27.95                             138    -0.3 5  124  14 
 GRA  SZ I        1418 28.75       543.4 0.31                           124  14 
 OCA  SZ EP       1418 11.59                             130    -0.2 9  162 350 
 OCA  SZ ES   1   1418 34.31                             130     0.1 7  162 350 
 OCA  SZ I        1418 39.60       476.4 0.27                           162 350 
 YOP  SZ EP       1418 13.72                             127     0.7 9  175 156 
 YOP  SN ES   1   1418 36.47                             127     0.2 7  175 156 
 NOR  SZ EP   1   1418 19.31                             118    -0.4 6  241 236 
 CHI  HZ EP   1   1418 20.92                             117    -0.3 6  250 197 
 CHI  HZ I        1418 23.96       163.9 0.39                           250 197 
 CHI  HE ES   2   1418 49.99                             117    -0.9 4  250 197 
 ROSC BZ EP   1   1418 22.63                             117     0.8 6  257 213 
 ROSC BN ES   1   1418 51.88                             117    -0.1 6  257 213 
 ROSC BZ I        1419  1.02       397.2 0.28                           257 213 
 HEL  HZ EP   1   1418 24.07                             114    -0.3 6  280 256 
 HEL  HN ES   1   1418 57.08                             114     0.6 6  280 256 
 HEL  HZ I        1419  1.97       193.5 0.29                           280 256 
 VIL  SZ EP   1   1418 26.19                             112    -0.4 5  303 191 
 VIL  SN ES   2   1419  0.98                             112     0.5 4  303 191 
 DBB  SZ EP   1   1418 31.81                             109     0.1 5  348 274 
 TOL  SZ EP       1418 32.60                             109     0.5 6  349 226 
 SDV  BZ EP   1   1418 32.67                             109     0.1 5  354  49 
 SDV  BZ I        1419 16.37        62.4 0.43                           354  49 
 PRA  HZ EP   1   1418 36.49                             107    -0.7 4  396 211 
 PRA  HN ES   1   1419 19.07                             107    -0.3 4  396 211 
 SJA  SZ EP   1   1418 36.88                             106    -1.1 4  402 194 
 SJA  SZ I        1419 31.11       226.9 0.40                           402 194 
                                                                                
