 2013 1229 1120 25.8 L   6.810 -73.131143.5  RSN  6 0.4 1.5LRSN                1
 GAP=202        0.92       5.6     7.0 10.9  0.1266E+02  0.1717E+02 -0.1903E+02E
 Epicentro: LOS SANTOS - SANTANDER                                             3
 ACTION:UPD 14-01-13 10:22 OP:ep   STATUS:               ID:20131229112025 L   I
 OLDACT:REG 13-12-29 14:31 OP:jn   STATUS:               ID:20131229112000     3
 2013-12-29-1120-00M.COL___285                                                 6
 STAT SP IPHASW D HRMM SECON CODA AMPLIT PERI AZIMU VELO AIN AR TRES W  DIS CAZ7
 BAR2 SZ EP   1   1120 45.73                             170    0.52 8 24.7 193 
 BAR2 SZ ES   1   1121  0.50                             170    0.17 8 24.7 193 
 BAR2 SZ I        1121  3.70        10.2 0.42            132           24.7 193 
 RUS  HE ES   1   1121  7.54                             143   -0.29 8  102 177 
 RUS  HZ I        1121 11.30         3.3 0.36            105            102 177 
 PTB  HZ EP       1120 52.42                             131   -0.3510  150 259 
 PTB  HN ES       1121 13.45                             131   -0.3410  150 259 
 PTB  HZ I        1121 21.19         4.8 0.54            102            150 259 
 ZAR  HE ES       1121 24.26                             122    0.75 9  205 292 
 ZAR  HZ I        1121 32.57         3.5 0.44             99            205 292 
 SML  HN ES       1121 30.35                             117   -0.38 9  243 335 
 CHI  HZ EP   2   1121  4.03                             117    0.47 4  250 195 
 CHI  HZ I        1121 41.50         1.1 0.40             95            250 195 
                                                                                
