 2012  729 1034  1.3 L   6.369 -73.664103.8  RSN 15 0.4 2.5LRSN                1
 GAP= 51        0.98       3.0     2.9  6.7 -0.5112E+00  0.3493E+01  0.4538E+01E
 Epicentro: SANTA HELENA DEL OPON - SANTANDER                                  3
 ACTION:UPD 12-08-14 11:46 OP:ep   STATUS:               ID:20120729103401 L   I
 2012-07-29-1030-00M.COL___215                                                 6
 STAT SP IPHASW D HRMM SECON CODA AMPLIT PERI AZIMU VELO AIN AR TRES W  DIS CAZ7
 BAR2 SZ EP       1034 18.01                             148     0.410   59  65 
 BAR2 SZ ES   1   1034 30.92                             148     0.6 7   59  65 
 BAR2 SZ I        1034 32.45       287.5 0.53            135             59  65 
 BRR  HZ EP       1034 19.04                             138     0.110   82 356 
 BRR  HZ I        1034 27.54        53.4 0.23            123             82 356 
 BRR  HE ES   1   1034 33.13                             138     0.4 7   82 356 
 RUS  HZ EP       1034 19.80                             138     0.110   83 129 
 RUS  HZ I        1034 20.29        30.0 0.16            124             83 129 
 RUS  HN ES   1   1034 33.95                             138    -0.2 7   83 129 
 PTB  HZ IP     D 1034 19.01                             136    -0.610   90 282 
 PTB  HN ES   1   1034 32.93                             136    -1.0 7   90 282 
 PTB  HZ I        1034 35.81        45.3 0.19            121             90 282 
 PAM  SZ EP   1   1034 25.90                             120    -0.3 7  151  45 
 PAM  SN ES   1   1034 45.01                             120    -0.6 7  151  45 
 NOR  SZ EP       1034 26.36                             118    -0.3 9  160 236 
 NOR  SN ES   1   1034 46.09                             118    -0.3 7  160 236 
 YOP  SZ EP   1   1034 28.14                             115    -0.5 7  178 129 
 YOP  SZ I        1034 52.10        59.2 0.28            104            178 129 
 ZAR  HZ EP       1034 29.11                             114     0.3 9  181 313 
 ZAR  HN ES   1   1034 50.38                             114     0.0 7  181 313 
 ZAR  HZ I        1034 55.10        46.7 0.21            104            181 313 
 CHI  HZ EP   1   1034 30.48                             113    -0.2 7  192 182 
 CHI  HN ES   1   1034 53.88                             113     0.4 7  192 182 
 CHI  HZ I        1034 57.98        19.5 0.35            103            192 182 
 TAM  HZ EP       1034 31.79                             111    -0.1 8  207  88 
 TAM  HZ I        1034 32.27        59.0 0.32            102            207  88 
 HEL  HZ EP       1034 32.68                             111     0.4 8  207 265 
 HEL  HN ES   1   1034 56.97                             111     0.6 6  207 265 
 HEL  HZ I        1035  0.87        30.8 0.38            102            207 265 
 OCA  HZ EP   2   1034 32.36                             111     0.0 4  210  10 
 OCA  HN ES   1   1034 56.77                             111     0.3 6  210  10 
 OCA  HZ I        1035  2.99        80.8 0.28            101            210  10 
 GUY  SZ EP   2   1034 34.92                             109     0.0 4  229 237 
 VIL  SZ EP   2   1034 36.65                             106    -0.2 4  250 181 
 PRA  HZ EP   1   1034 45.59                             101     0.1 5  323 205 
 PRA  HE ES   1   1035 20.50                             101     0.6 5  323 205 
