 2011  529 1108 29.7 L   6.752 -73.121147.4  RSN  9 0.3 2.1LRSN                1
 GAP=159        0.80       3.7     5.5  5.9 -0.5842E+01 -0.6655E+00  0.2745E+01E
 Epicentro: LOS SANTOS - SANTANDER                                             3
 ACTION:UP  11-06-29 08:57 OP:tino STATUS:               ID:20110529110829 L   I
 2011-05-29-1106-11S.COL___113                                                 6
 STAT SP IPHASW D HRMM SECON CODA AMPLIT PERI AZIMU VELO SNR AR TRES W  DIS CAZ7
 BAR2 SZ EP       11 8 49.50                             172     0.110   19 201 
 BAR2 SZ ES   1   11 9  4.05                             172    -0.8 7   19 201 
 BAR2 SZ I        11 9  5.43        39.6 0.23                            19 201 
 BRR  HZ EP       11 8 51.53                             151     0.210   76 301 
 BRR  HN ES       11 9  8.52                             151     0.410   76 301 
 BRR  HZ I        11 9 13.34        47.7 0.15                            76 301 
 RUS  HZ EP       11 8 53.42                             146     0.210   95 177 
 RUS  HZ I        11 8 54.57        11.4 0.12                            95 177 
 RUS  HE ES   2   11 9 11.88                             146     0.3 5   95 177 
 BRI  SZ EP       11 8 54.30                             141     0.210  113  19 
 OCA  SZ EP       11 8 58.18                             129    -0.5 9  166 352 
 OCA  SZ ES   1   11 9 21.00                             129    -0.2 7  166 352 
 OCA  SZ I        11 9 25.32        25.6 0.48                           166 352 
 NOR  SZ EP   1   11 9  5.29                             119    -0.1 6  234 236 
 NOR  SN ES   1   11 9 33.07                             119    -0.2 6  234 236 
 NOR  SZ I        11 9 35.76         2.2 0.24                           234 236 
 HEL  HZ EP   2   11 9 10.46                             115     0.3 4  273 257 
 HEL  HN ES   2   11 9 41.40                             115    -0.3 4  273 257 
 HEL  HZ I        11 9 48.29         8.5 0.45                           273 257 
 RREF HZ EP   2   11 9 16.03                             111     0.3 3  320 230 
 RREF HN ES   2   11 9 51.69                             111     0.0 3  320 230 
 RREF HZ I        1110  0.25        11.1 0.27                           320 230 
 PRA  HZ EP   1   11 9 22.35                             107    -0.5 4  389 210 
 PRA  HE ES   2   1110  4.25                             107    -0.1 3  389 210 
                                                                                
