 2013  329 1553 30.1 L   6.722 -73.156150.9  RSN  7 0.4 1.7LRSN                1
 GAP=138        0.96       4.8     4.3  6.6  0.1447E+01  0.5620E+01  0.1238E+01E
 Epicentro: VILLANUEVA - SANTANDER                                             3
 ACTION:UPD 13-04-09 14:05 OP:ep   STATUS:               ID:20130329155330 L   I
 2013-03-29-1550-00M.COL___245                                                 6
 STAT SP IPHASW D HRMM SECON CODA AMPLIT PERI AZIMU VELO AIN AR TRES W  DIS CAZ7
 BAR2 SZ EP       1553 50.12                             174   -0.0410 14.7 191 
 BAR2 SZ ES   1   1554  6.03                             174    0.19 7 14.7 191 
 BAR2 SZ I        1554  6.36        15.8 0.12            175           14.7 191 
 GIR2 SZ EP       1553 50.49                             165   -0.0910 39.6 354 
 GIR2 SZ ES   1   1554  6.22                             165   -0.37 7 39.6 354 
 GIR2 SZ I        1554  7.57         9.6 0.52            165           39.6 354 
 BRR  HZ EP       1553 52.15                             152    0.2010 74.7 305 
 BRR  HE ES       1554  9.66                             152    0.6310 74.7 305 
 PAM  SZ EP       1553 53.36                             150    0.1010 84.9  36 
 PAM  SN ES       1554 10.90                             150   -0.4710 84.9  36 
 PAM  SN I        1554 14.87         5.3 0.22            151           84.9  36 
 RUS  HZ EP       1553 53.89                             147    0.1610 92.1 175 
 RUS  HE ES       1554 12.51                             147    0.3110 92.1 175 
 RUS  HE I        1554 13.26         5.1 0.16            149           92.1 175 
 PTB  HZ EP       1553 56.76                             134   -0.45 9  145 262 
 PTB  HN ES       1554 17.62                             134   -0.78 9  145 262 
 PTB  HN I        1554 22.93        11.2 0.22            135            145 262 
 ZAR  HZ EP   1   1554  3.33                             123    0.26 6  206 294 
 ZAR  HE ES       1554 29.24                             123    0.41 8  206 294 
                                                                                
