 2014  429 1640 59.5 L   6.784 -73.084152.0  RSN  9 0.5 2.0LRSN                1
 GAP=145        0.83       3.7     5.1  6.8 -0.1793E+01  0.9795E+01  0.3471E+01E
 Epicentro: LOS SANTOS - SANTANDER                                             3
 OLDACT:REG 14-04-29 21:23 OP:spq  STATUS:               ID:20140429163814     3
 ACTION:UPD 14-05-13 23:12 OP:nd   STATUS:               ID:20140429164059 L   I
 OLDACT:UP  14-04-30 00:34 OP:fm   STATUS:               ID:20140429163814     3
 2014-04-29-1638-14M.COL___223                                                 6
 STAT SP IPHASW D HRMM SECON CODA AMPLIT PERI AZIMU VELO AIN AR TRES W  DIS CAZ7
 PAM  SZ EP   1   1641 22.79                             153    0.52 7 74.7  35 
 PAM  SN ES       1641 40.04                             153    0.0410 74.7  35 
 PAM  SZ I        1641 42.16        14.5 0.54            157           74.7  35 
 BRR  HZ EP   1   1641 22.25                             151    0.50 7 78.0 297 
 BRR  HN ES       1641 38.97                             151   -0.1110 78.0 297 
 BRR  SZ I        1641 45.96        13.9 0.46            147           78.0 297 
 RUS  HZ EP   1   1641 22.95                             146   -0.82 7 98.5 180 
 RUS  HN ES   1   1641 42.41                             146   -0.25 7 98.5 180 
 PTB  HN ES   4   1641 47.81                             132   -1.66 0  154 260 
 SPBC HZ EP   1   1641 29.12                             130    0.32 7  166 221 
 SPBC HN ES   1   1641 52.11                             130    0.48 7  166 221 
 SPBC SZ I        1641 57.03        14.1 0.24            129            166 221 
 ZAR  HN ES   1   1641 58.93                             123   -0.37 6  211 292 
 NOR  HZ EP   2   1641 35.50                             119   -0.62 4  239 236 
 NOR  HN ES   2   1642  4.34                             119   -0.31 4  239 236 
 NOR  SZ I        1642 11.26         4.6 0.34            119            239 236 
 SML  HZ EP   1   1641 36.24                             118   -0.77 6  248 334 
 SML  HN ES   1   1642  6.44                             118    0.20 6  248 334 
 SML  SZ I        1642 14.04         8.9 0.08            119            248 334 
 GUY2CHZ EP   1   1641 44.66                             113    0.71 5  306 236 
 GUY2CHN ES   4   1642 23.03                             113    4.43 0  306 236 
 GUY2CSZ I        1642 26.39         4.2 0.62                           306 236 
 PRA  HZ EP   4   1641 55.12                             107    1.62 0  394 211 
 PRA  HN ES   2   1642 35.93                             107    0.35 3  394 211 
 PRA  SZ I        1642 45.31         5.4 3.76            108            394 211 
                                                                                
