 2011  529 1957 27.4 L   6.770 -73.124140.1  RSN 12 0.5 3.4LRSN                1
 GAP=141        1.10       3.6     5.6  6.2 -0.7689E+01  0.8424E+01 -0.5516E+00E
 Epicentro: LOS SANTOS - SANTANDER                                             3
 ACTION:UP  11-06-29 08:57 OP:tino STATUS:               ID:20110529195727 L   I
 2011-05-29-1955-53S.COL___113                                                 6
 STAT SP IPHASW D HRMM SECON CODA AMPLIT PERI AZIMU VELO SNR AR TRES W  DIS CAZ7
 BAR2 SZ IP       1957 46.53                             171     0.310   21 198 
 BAR2 SZ I        1957 46.84       578.8 0.24                            21 198 
 BAR2 SZ ES       1958  0.59                             171    -0.410   21 198 
 BRR  HZ IP       1957 48.47                             150     0.310   75 300 
 BRR  HZ I        1957 48.91       585.7 0.11                            75 300 
 BRR  HN ES       1958  5.10                             150     0.810   75 300 
 PAM  SZ EP       1957 49.47                             149     0.410   79  37 
 PAM  SN ES   1   1958  6.30                             149     0.3 7   79  37 
 RUS  HZ EP       1957 50.41                             143     0.110   97 177 
 RUS  HE ES       1958  7.96                             143    -0.310   97 177 
 RUS  HZ I        1958 10.21       381.7 0.37                            97 177 
 BRI  SZ EP       1957 51.26                             139     0.310  111  19 
 BRI  SZ ES   2   1958  8.59                             139    -0.7 5  111  19 
 GRA  SZ EP       1957 52.60                             135     0.310  128  16 
 GRA  SZ ES       1958 11.08                             135    -0.710  128  16 
 GRA  SZ I        1958 13.46       460.2 0.35                           128  16 
 OCA  SZ EP       1957 55.30                             127    -0.3 9  164 352 
 OCA  SZ ES       1958 17.19                             127    -0.4 9  164 352 
 OCA  SZ I        1958 20.50       437.5 0.16                           164 352 
 NOR  SZ EP       1958  2.41                             117    -0.4 8  235 235 
 NOR  SE ES   1   1958 30.18                             117    -0.2 6  235 235 
 HEL  HZ EP   2   1958  8.12                             113     0.6 4  274 257 
 HEL  HN ES   1   1958 38.60                             113    -0.2 6  274 257 
 HEL  HZ I        1958 47.07       114.0 0.42                           274 257 
 DBB  SZ EP   1   1958 14.02                             108    -0.9 5  342 275 
 TOL  SZ EP   1   1958 16.06                             108     0.7 5  343 225 
 PRA  HZ EP   1   1958 20.23                             105    -0.3 4  390 210 
 PRA  HE ES   2   1959  1.32                             105    -0.6 3  390 210 
                                                                                
