 2012  329 1905  8.9 L   6.783 -73.159146.0  RSN  6 0.3 1.6LRSN                1
 GAP=136        0.56       5.0     4.5  6.9  0.2292E+01  0.3933E+01 -0.9395E+00E
 ACTION:UP  12-03-31 23:24 OP:EP   STATUS:               ID:20120329190508 L   I
 2012-03-29-1900-00M.COL___196                                                 6
 STAT SP IPHASW D HRMM SECON CODA AMPLIT PERI AZIMU VELO SNR AR TRES W  DIS CAZ7
 BAR2 SZ EP   1   19 5 28.58                             171     0.0 7   21 187 
 BAR2 SZ ES   2   19 5 43.77                             171    -0.1 5   21 187 
 BAR2 SZ I        19 5 44.20         6.8 0.37                            21 187 
 BRR  HZ EP   1   19 5 30.33                             153     0.2 7   71 300 
 BRR  HZ I        19 5 36.68        13.7 0.39                            71 300 
 BRR  HN ES   2   19 5 47.09                             153     0.5 5   71 300 
 PAM  SZ EP   1   19 5 31.31                             150     0.0 7   80  40 
 PAM  SN ES   2   19 5 48.32                             150    -0.5 5   80  40 
 RUS  HZ EP   1   19 5 32.45                             144    -0.1 7   99 175 
 RUS  HN ES   2   19 5 51.32                             144     0.3 5   99 175 
 RUS  HZ I        19 5 53.01         5.2 0.31                            99 175 
 PTB  HZ EP   2   19 5 35.41                             132    -0.3 5  146 259 
 PTB  HN ES   2   19 5 56.19                             132    -0.5 5  146 259 
 PTB  HZ I        19 5 58.88         2.7 0.14                           146 259 
 ZAR  HZ EP   2   19 5 41.80                             122     0.5 4  203 293 
 ZAR  HN ES   2   19 6  6.25                             122    -0.3 4  203 293 
 ZAR  HZ I        19 6 11.80         4.9 0.24                           203 293 
                                                                                
