 2016  829 1118 52.3 L   6.873 -73.282125.4  RSN 15 0.3 2.0LRSN                1
 GAP=101        0.87       2.2     2.5  4.0 -0.1585E+01  0.1789E+01  0.2433E+00E
 Epicentro: BETULIA - SANTANDER                                                3
 ACTION:UPD 16-10-29 15:40 OP:rebc STATUS:               ID:20160829111852 L   I
 OLDACT:UP  16-08-29 22:56 OP:edw  STATUS:               ID:20160829111737     3
 OLDACT:REG 16-08-29 19:37 OP:edw  STATUS:               ID:20160829111737     3
 2016-08-29-1118-00M.COL___358                                                 6
 STAT SP IPHASW D HRMM SECON CODA AMPLIT PERI AZIMU VELO AIN AR TRES W  DIS CAZ7
 BAR2 EZ IP     C 1119  9.73                             164   -0.0110 32.9 160 
 BAR2 EZ ES       1119 23.36                             164    0.0110 32.9 160 
 BRR  HZ IP     D 1119 10.14                             155   -0.1410 54.1 299 
 BRR  HN ES       1119 24.44                             155    0.1210 54.1 299 
 BRR  HZ I        1119 25.14        23.8 0.16                          54.1 299 
 PAM  EZ EP       1119 13.18                             145    0.4510 82.5  51 
 PAM  EN ES       1119 29.20                             145    0.5310 82.5  51 
 PAM  EZ I        1119 32.01        16.9 0.18                          82.5  51 
 RUS  HZ EP       1119 14.90                             136   -0.0110  111 169 
 RUS  HN ES       1119 32.43                             136   -0.1310  111 169 
 RUS  HZ I        1119 33.60         5.3 0.30                           111 169 
 PTB  HZ EP   9   1119 15.09                             130   -1.35 0  135 254 
 PTB  HN ES       1119 33.21                             129   -0.7210  135 254 
 PTB  HZ I        1119 37.19        20.6 0.18                           135 254 
 OCA  HZ EP       1119 17.85                             126   -0.34 9  151 358 
 OCA  HN ES       1119 38.29                             126   -0.10 9  151 358 
 SPBC HZ EP       1119 18.87                             124   -0.19 9  161 213 
 SPBC HN ES       1119 39.10                             124   -0.85 9  161 213 
 SPBC HZ I        1119 40.97        19.3 0.10                           161 213 
 ZAR  HZ EP       1119 21.47                             120   -0.20 9  187 292 
 ZAR  HN ES       1119 44.84                             120    0.25 9  187 292 
 ZAR  HZ I        1119 46.69        14.4 0.30                           187 292 
 NOR  HZ EP       1119 25.77                             115   -0.36 8  228 231 
 NOR  HN ES       1119 53.13                             115    0.61 8  228 231 
 NOR  HZ I        1119 56.71         7.4 0.12                           228 231 
 CHI  HZ EP       1119 29.74                             112    0.31 8  253 191 
 CHI  HN ES       1119 58.60                             112    0.20 8  253 191 
 CHI  HZ I        1119 59.93         2.8 0.23                           253 191 
 HEL  HZ EP       1119 30.25                             111    0.12 8  260 253 
 HEL  HE ES       1119 59.39                             111   -0.26 8  260 253 
 HEL  HZ I        1120  4.33         6.4 0.29                           260 253 
 URE  HZ EP       1119 30.24                             111   -0.26 8  267 292 
 URE  HE ES   4   1119 58.26                             111   -2.04 0  267 292 
 URE  HZ I        1120  0.31        11.5 0.16                           267 292 
 GUY2CHZ EP       1119 34.67                             109    0.48 7  294 232 
 GUY2CHN ES       1120  7.17                             109    0.30 7  294 232 
 GUY2CHZ I        1120  9.31         3.5 0.32                           294 232 
 SOCV BZ EP       1119 35.08                             107   -0.40 7  310  60 
 SOCV BE ES       1120  9.01                             107   -0.16 7  310  60 
 SJC  HZ EP   4   1119 43.88                             103   -1.60 0  394 328 
 SJC  HZ I        1120 11.05         7.5 0.18                           394 328 
 SJC  HN ES   4   1120 23.31                             103   -3.66 0  394 328 
                                                                                
