 2013 1229 1324  1.2 L   6.752 -73.178145.4  RSN  5 0.3 1.4LRSN                1
 GAP=230        0.82       6.3     5.9  6.6  0.2145E+02  0.5112E+01  0.6627E+00E
 Epicentro: VILLANUEVA - SANTANDER                                             3
 ACTION:UPD 14-01-13 10:22 OP:ep   STATUS:               ID:20131229132401 L   I
 OLDACT:REG 13-12-29 14:40 OP:jn   STATUS:               ID:20131229132000     3
 2013-12-29-1320-00M.COL___285                                                 6
 STAT SP IPHASW D HRMM SECON CODA AMPLIT PERI AZIMU VELO AIN AR TRES W  DIS CAZ7
 BAR2 SZ EP       1324 20.46                             173   -0.1810 17.7 181 
 BAR2 SZ ES       1324 35.42                             173   -0.4210 17.7 181 
 BAR2 SZ I        1324 36.76         8.4 0.22            168           17.7 181 
 BRR  HZ EP       1324 22.24                             153   -0.0010 70.8 304 
 BRR  HN ES       1324 39.00                             153    0.3010 70.8 304 
 RUS  HZ EP       1324 24.91                             145    0.3910 95.6 174 
 RUS  HN ES       1324 42.98                             145    0.2310 95.6 174 
 RUS  HZ I        1324 45.33         2.8 0.18            143           95.6 174 
 PTB  HZ EP       1324 27.22                             133   -0.47 9  143 261 
 PTB  HN ES       1324 48.26                             133   -0.12 9  143 261 
 PTB  HZ I        1324 51.00         4.3 0.10            132            143 261 
 ZAR  HE ES   1   1324 59.12                             122    0.49 6  203 294 
                                                                                
