 2017  129 1154 36.3 L   5.998 -73.736119.3  RSN  7 0.4 1.8LRSN                1
 GAP=127        0.83       3.2     4.3  8.3  0.5016E+01  0.8480E+01 -0.6620E+00E
 Epicentro: BOLIVAR - SANTANDER                                                3
 ACTION:UPD 17-05-22 16:04 OP:jn   STATUS:               ID:20170129115436 L   I
 OLDACT:UP  17-01-29 23:08 OP:dnl  STATUS:               ID:20170129114741     3
 OLDACT:REG 17-01-29 22:11 OP:dnl  STATUS:               ID:20170129114741     3
 2017-01-29-1148-00M.COL___336                                                 6
 STAT SP IPHASW D HRMM SECON CODA AMPLIT PERI AZIMU VELO AIN AR TRES W  DIS CAZ7
 RUS  HZ EP   2   1154 55.51                             147    0.05 5 73.2  99 
 RUS  HN ES       1155  9.94                             147   -0.4910 73.2  99 
 RUS  HZ I        1155 11.70         8.2 0.26            132           73.2  99 
 BAR2 EZ IP     C 1154 56.53                             140    0.2210 89.8  43 
 BAR2 EZ I        1155 13.44        24.7 0.18                          89.8  43 
 PTB  HZ EP       1154 56.25                             137   -0.5410 99.7 307 
 PTB  HE ES       1155 12.98                             137    0.1810 99.7 307 
 PTB  HZ I        1155 13.72         8.3 0.10                          99.7 307 
 BRR  HZ EP       1154 58.98                             131    0.1910  123   1 
 BRR  HN ES       1155 16.78                             131    0.4310  123   1 
 BRR  HZ I        1155 19.44         9.4 0.12            121            123   1 
 CHI  HZ EP   2   1155  2.51                             125    0.41 5  151 180 
 CHI  HN ES       1155 22.47                             125    0.22 9  151 180 
 CHI  HZ I        1155 26.20         5.0 0.30            117            151 180 
 ZAR  HZ EP   2   1155  6.70                             115   -0.73 4  207 323 
 ZAR  HE ES       1155 31.58                             115   -0.15 8  207 323 
 ZAR  HZ I        1155 33.07        12.1 0.30            109            207 323 
 URE  HZ EP   4   1155 18.33                             108    2.86 0  278 314 
 URE  HE ES   4   1155 44.16                             108   -1.89 0  278 314 
 URE  HZ I        1155 45.71         5.3 0.14            104            278 314 
                                                                                
