 2010  729 1448 11.0 L   6.836 -72.986140.0  RSN  4 0.2 1.3LRSN                1
 GAP=182        0.55       5.7    11.6 10.1  0.2634E+02 -0.6170E+02 -0.2533E+02E
 Epicentro: CEPITA - SANTANDER                                                 3
 ACTION:UPD 10-12-01 15:20 OP:pat  STATUS:               ID:20100729144811 L   I
 2010-07-29-1445-00S.COL___122                                                 6
 STAT SP IPHASW D HRMM SECON CODA AMPLIT PERI AZIMU VELO AIN AR TRES W  DIS CAZ7
 BAR2 SZ EP   1   1448 30.12                             166    -0.1 7   35 219 
 BAR2 SZ ES   2   1448 44.92                             166    -0.3 5   35 219 
 BAR2 SZ I        1448 46.13         5.5 0.31                            35 219 
 BRR  HZ EP   1   1448 32.06                             147    -0.3 7   86 291 
 BRR  HZ I        1448 32.30         9.8 0.17                            86 291 
 BRR  HN ES   2   1448 49.53                             147     0.4 5   86 291 
 RUS  HZ EP   1   1448 34.65                             142     0.2 7  105 186 
 RUS  HN ES   2   1448 52.78                             142     0.0 5  105 186 
 RUS  HZ I        1448 57.48         2.8 0.62                           105 186 
 GUE  SZ EP   1   1448 34.80                             140     0.2 7  110   3 
 GUE  SZ I        1449  4.84         1.4 0.07                           110   3 
                                                                                
