 2012  629 1645  4.5 L   6.764 -73.120138.6  RSN  4 0.2 1.3LRSN                1
 GAP=164        0.39       4.5     2.8  4.9 -0.4530E+01  0.5467E+01 -0.3542E+01E
 Epicentro: LOS SANTOS - SANTANDER                                             3
 ACTION:UPD 12-08-06 17:53 OP:ep   STATUS:               ID:20120629164504 L   I
 2012-06-29-1640-00M.COL___201                                                 6
 STAT SP IPHASW D HRMM SECON CODA AMPLIT PERI AZIMU VELO AIN AR TRES W  DIS CAZ7
 BAR2 SZ EP   1   1645 23.24                             171    0.06 7 20.2 200 
 BAR2 SZ ES   1   1645 37.61                             171   -0.16 7 20.2 200 
 BAR2 SZ I        1645 39.71         5.6 0.14                          20.2 200 
 PAM  SZ EP   1   1645 26.10                             149    0.08 7 78.8  36 
 PAM  SN ES   1   1645 42.87                             149    0.04 7 78.8  36 
 PTB  HZ EP   1   1645 30.88                             130   -0.18 7  150 261 
 PTB  HN ES   1   1645 52.07                             130    0.28 7  150 261 
 PTB  HZ I        1645 55.09         1.8 0.14                           150 261 
 ZAR  HN ES   1   1646  2.04                             120   -0.14 6  208 293 
                                                                                
