 2012 1029 1021 36.0 L   6.252 -73.899106.0  RSN  7 0.3 1.5LRSN                1
 GAP=110        0.60       2.4     3.3  8.6  0.1178E+01  0.1256E+02  0.1156E+02E
 Epicentro: CIMITARRA - SANTANDER                                              3
 ACTION:UPD 12-11-22 17:06 OP:ep   STATUS:               ID:20121029102136 L   I
 2012-10-29-1020-00M.COL___231                                                 6
 STAT SP IPHASW D HRMM SECON CODA AMPLIT PERI AZIMU VELO AIN AR TRES W  DIS CAZ7
 BAR2 SZ ES   2   1022  8.55                             138   -0.66 5 87.8  65 
 BRR  HZ EP   1   1021 55.19                             135    0.08 7 96.8  12 
 BRR  HN ES       1022 10.21                             135    0.2110 96.8  12 
 BRR  HN I        1022 10.58        21.7 0.16                          96.8  12 
 ZAR  HZ EP   1   1022  2.61                             117   -0.20 7  173 322 
 ZAR  HE ES   2   1022 23.51                             117   -0.19 4  173 322 
 ZAR  HN I        1022 24.71         4.0 0.30                           173 322 
 HEL  HZ EP   1   1022  3.51                             116   -0.54 7  180 268 
 HEL  HN ES       1022 26.06                             116    0.14 9  180 268 
 HEL  HN I        1022 29.79         3.1 0.66                           180 268 
 CHI  HZ EP   1   1022  4.08                             116   -0.02 7  180 174 
 CHI  HN ES       1022 26.09                             116    0.08 9  180 174 
 CHI  HN I        1022 28.86         2.7 0.48                           180 174 
 RREF HN ES   2   1022 34.46                             111    0.19 4  219 227 
 PRA  HZ EP   1   1022 18.33                             103    0.74 5  301 201 
 PRA  HE ES       1022 49.74                             103   -0.27 7  301 201 
 PRA  HN I        1022 55.51         0.9 0.42                           301 201 
                                                                                
