 2015  429 1749 15.7 L   6.699 -73.140136.0  RSN  5 0.5 1.6LRSN                1
 GAP=167        1.12       9.2     5.3  8.4 -0.1107E+02  0.1278E+02 -0.6870E+01E
 Epicentro: VILLANUEVA - SANTANDER                                             3
 ACTION:UPD 15-06-03 16:58 OP:cam  STATUS:               ID:20150429174915 L   I
 OLDACT:REG 15-04-29 21:10 OP:ak   STATUS:               ID:20150429174749     3
 2015-04-29-1747-49M.COL___265                                                 6
 STAT SP IPHASW D HRMM SECON CODA AMPLIT PERI AZIMU VELO AIN AR TRES W  DIS CAZ7
 BAR2 EZ EP       1749 34.45                             174    0.4410 12.7 202 
 BAR2 EZ ES       1749 48.36                             174    0.0910 12.7 202 
 BAR2 EZ I        1749 50.16         7.3 0.18            175           12.7 202 
 BRR  HZ EP       1749 36.35                             148    0.1110 77.7 306 
 BRR  HN ES       1749 52.79                             148    0.5610 77.7 306 
 PAM  SZ IP     D 1749 37.27                             146   -0.2110 86.0  34 
 PAM  SN ES       1749 54.00                             146   -0.4510 86.0  34 
 PAM  SZ I        1749 56.70        12.4 0.60            146           86.0  34 
 PTB  HZ EP   1   1749 41.02                             130   -0.80 7  147 263 
 PTB  HN ES       1750  1.63                             130   -0.53 9  147 263 
 PTB  HZ I        1750  4.07         4.4 0.14            131            147 263 
 ZAR  HZ EP       1749 48.82                             119    0.72 8  209 295 
 ZAR  HN ES       1750 13.05                             119   -0.29 8  209 295 
 ZAR  HZ I        1750 18.51         4.7 0.36            120            209 295 
                                                                                
