 2010 1129 1227 39.6 L   6.816 -73.051139.8  RSN 17 0.5 3.1LRSN                1
 GAP=133        1.11       4.5     7.7  7.2 -0.1215E+02  0.8669E+01  0.9711E+01E
 Epicentro: LOS SANTOS - SANTANDER                                             3
 ACTION:UP  10-12-17 16:55 OP:REBC STATUS:               ID:20101129122739 L   I
 2010-11-29-1225-01S.COL___130                                                 6
 STAT SP IPHASW D HRMM SECON CODA AMPLIT PERI AZIMU VELO SNR AR TRES W  DIS CAZ7
 BTL  SZ EP       1227 58.80                             169     0.210   27 295 
 BAR2 SZ IP       1227 58.60                             168     0.010   29 211 
 BAR2 SZ ES   1   1228 12.83                             168    -0.7 7   29 211 
 BAR2 SZ I        1228 14.24       403.3 0.25                            29 211 
 GIR2 SZ EP       1227 58.66                             166     0.010   33 332 
 BRR  HZ IP     C 1228  0.49                             148    -0.210   80 294 
 BRR  HZ I        1228  0.84       380.0 0.06                            80 294 
 BRR  HN ES   1   1228 17.48                             148     0.4 7   80 294 
 RUS  HZ EP       1228  2.60                             142    -0.310  102 182 
 RUS  HZ I        1228 23.23        95.2 0.32                           102 182 
 GRA  SZ IP       1228  4.61                             137     0.710  121  13 
 GRA  SZ ES   1   1228 23.62                             137     0.7 7  121  13 
 GRA  SZ I        1228 26.26       234.3 0.33                           121  13 
 OCA  SZ EP       1228  7.20                             128    -0.2 9  160 349 
 OCA  SZ ES   1   1228 28.37                             128    -0.8 7  160 349 
 OCA  SZ I        1228 32.30       198.8 0.43                           160 349 
 CHI  HZ EP       1228 17.18                             115    -0.3 8  253 197 
 CHI  HN ES   2   1228 47.26                             115     0.2 4  253 197 
 ROSC BZ EP   1   1228 18.85                             115     0.7 6  260 213 
 ROSC BN ES   2   1228 48.40                             115     0.1 4  260 213 
 ROSC BZ I        1228 55.07        52.9 0.78                           260 213 
 HEL  HZ EP       1228 20.84                             113     0.1 7  283 256 
 HEL  HZ I        1228 57.59        41.1 0.22                           283 256 
 GUY  SZ EP       1228 24.74                             110     0.7 7  311 236 
 GUY  SZ I        1229  3.51        87.1 0.52                           311 236 
 RREF HZ EP       1228 26.96                             109     0.4 7  331 230 
 RREF HZ I        1229 10.68        41.4 0.35                           331 230 
 DBB  SZ EP       1228 27.10                             108    -0.9 6  350 274 
 SDV  BZ EP   1   1228 27.61                             108    -0.7 5  351  49 
 TOL  SZ EP       1228 28.66                             108     0.0 6  352 226 
 ANIL HZ EP   1   1228 29.79                             107    -0.4 5  366 226 
 ANIL HZ I        1229 16.38        67.3 0.14                           366 226 
 PRA  HZ EP       1228 33.52                             105    -0.2 6  399 211 
                                                                                
