 2010  829 1912 15.0 L   6.769 -73.058140.0  RSN  7 0.2 2.1LRSN                1
 GAP=198        0.55       4.5     5.2  6.1 -0.6528E+01 -0.3301E+01  0.6602E+01E
 Epicentro: LOS SANTOS - SANTANDER                                             3
 ACTION:UP  10-09-07 10:59 OP:vdl  STATUS:               ID:20100829191214 L   I
 2010-08-29-1907-58S.COL___120                                                 6
 STAT SP IPHASW D HRMM SECON CODA AMPLIT PERI AZIMU VELO SNR AR TRES W  DIS CAZ7
 BAR2 SZ EP       1912 34.11                             170     0.210   24 215 
 BAR2 SZ ES   1   1912 48.75                             170     0.0 7   24 215 
 BAR2 SZ I        1912 52.85        18.9 1.40                            24 215 
 BTL  SZ EP       1912 34.11                             169     0.010   28 305 
 GIR2 SZ EP   1   1912 34.09                             165    -0.1 7   37 336 
 BRR  HZ EP       1912 35.80                             149    -0.410   81 297 
 BRR  HN ES       1912 52.66                             149     0.010   81 297 
 BRR  HZ I        1912 53.76        22.2 0.17                            81 297 
 GRA  SZ ES   1   1912 59.39                             136     0.2 7  126  13 
 HEL  HN ES   2   1913 28.27                             113     0.5 4  281 257 
 HEL  HZ I        1913 31.88         5.8 1.29                           281 257 
 PRA  HN ES   2   1913 50.48                             106     0.1 3  394 211 
 PRA  HZ I        1913 56.50         5.6 0.76                           394 211 
                                                                                
