 2016  329 1529 37.8 L   6.813 -73.169140.2  RSN  9 0.3 1.8LRSN                1
 GAP=133        0.67       2.5     2.8  4.5 -0.1351E+01  0.5294E+01  0.1835E+00E
 Epicentro: LOS SANTOS - SANTANDER                                             3
 ACTION:UPD 16-05-13 21:28 OP:cam  STATUS:               ID:20160329152937 L   I
 OLDACT:REG 16-03-29 20:33 OP:ak   STATUS:               ID:20160329152744     3
 2016-03-29-1527-44M.COL___307                                                 6
 STAT SP IPHASW D HRMM SECON CODA AMPLIT PERI AZIMU VELO AIN AR TRES W  DIS CAZ7
 BAR2 EZ EP       1529 56.79                             170    0.0410 24.4 183 
 BAR2 EZ ES       1530 11.56                             170    0.0010 24.4 183 
 BAR2 EZ I        1530 13.60        13.1 0.24            172           24.4 183 
 PAM  EZ EP       1529 59.60                             150    0.1710 78.0  42 
 PAM  EN ES       1530 16.46                             150    0.1410 78.0  42 
 PAM  EZ I        1530 18.40        12.3 0.56            152           78.0  42 
 RUS  HZ EP       1530  0.74                             142   -0.3510  102 175 
 RUS  HN ES       1530 19.14                             142   -0.1510  102 175 
 PTB  HZ EP       1530  3.37                             131   -0.71 9  146 258 
 PTB  HE ES       1530 24.51                             131   -0.09 9  146 258 
 PTB  HZ I        1530 29.85         5.8 0.24            132            146 258 
 SPBC HZ EP       1530  6.02                             128    0.22 9  163 218 
 SPBC HN ES       1530 27.60                             128   -0.06 9  163 218 
 ZAR  HZ EP       1530  9.50                             122   -0.05 9  201 292 
 ZAR  HN ES       1530 34.64                             122    0.30 9  201 292 
 ZAR  HZ I        1530 42.24         6.8 0.22            122            201 292 
 NOR  HZ EP       1530 13.06                             117    0.02 8  233 234 
 NOR  HN ES       1530 40.60                             117    0.04 8  233 234 
 NOR  HZ I        1530 43.10         4.2 0.19            119            233 234 
 CHI  HN ES       1530 44.99                             116    0.52 8  249 195 
 URE  HZ EP   4   1530 21.07                             113    2.83 0  281 292 
 GUY2CHZ EP   2   1530 21.33                             111    0.35 4  300 234 
 GUY2CHN ES       1530 54.92                             111    0.24 7  300 234 
 GUY2CHZ I        1531  5.18         3.3 0.38                           300 234 
                                                                                
