 2016 1229 1401 42.2 L   6.578 -73.700 27.7  RSN  4 0.5 1.2LRSN                1
 GAP=140        0.89       4.5     2.2  4.6  0.4605E+01  0.2417E+01  0.3191E+01E
 Epicentro: EL CARMEN - SANTANDER                                              3
 ACTION:UPD 17-01-11 20:20 OP:rebc STATUS:               ID:20161229140142 L   I
 OLDACT:UP  16-12-29 23:09 OP:cog  STATUS:               ID:20161229135751     3
 OLDACT:REG 16-12-29 20:58 OP:y    STATUS:               ID:20161229135751     3
 2016-12-29-1358-00M.COL___381                                                 6
 STAT SP IPHASW D HRMM SECON CODA AMPLIT PERI AZIMU VELO AIN AR TRES W  DIS CAZ7
 BAR2 EZ EP       14 1 52.92                             107    0.5210 57.3  88 
 BAR2 EZ ES       14 2  0.05                             107   -0.3410 57.3  88 
 BAR2 EZ I        14 2  1.66        14.7 0.34            103           57.3  88 
 PTB  HZ EP       14 1 56.18                              97    0.3210 83.7 267 
 PTB  HN ES       14 2  6.31                              97   -0.2310 83.7 267 
 PTB  HZ I        14 2  6.52         7.0 0.38             99           83.7 267 
 RUS  HZ EP   3 C 14 2  0.69                              61    1.91 2  102 138 
 RUS  HN ES       14 2 11.57                              61   -0.1810  102 138 
 RUS  HZ I        14 2 17.26         2.8 0.17             97            102 138 
 ZAR  HZ EP       14 2  5.51                              61   -0.32 9  163 308 
 ZAR  HE ES       14 2 24.34                              61    0.06 9  163 308 
 ZAR  HZ I        14 2 26.68         5.7 0.26             56            163 308 
                                                                                
