 2015  129 1654 42.9 L   6.761 -73.099145.1  RSN  4 0.2 1.4LRSN                1
 GAP=159        0.45       4.4     5.4  5.1 -0.1843E+02  0.1481E+02 -0.6991E+01E
 Epicentro: LOS SANTOS - SANTANDER                                             3
 ACTION:UPD 15-03-02 15:43 OP:nd   STATUS:               ID:20150129165442 L   I
 OLDACT:REG 15-01-29 21:07 OP:spq  STATUS:               ID:20150129164749     3
 2015-01-29-1647-49M.COL___280                                                 6
 STAT SP IPHASW D HRMM SECON CODA AMPLIT PERI AZIMU VELO AIN AR TRES W  DIS CAZ7
 BAR2 EZ EP       1655  2.31                             171   -0.0910 20.8 206 
 BAR2 EZ ES   1   1655 17.94                             171    0.33 7 20.8 206 
 BAR2 EZ I        1655 19.65         5.9 0.20            169           20.8 206 
 PAM  SZ EP     D 1655  5.21                             151    0.1410 77.7  35 
 PAM  SN ES       1655 22.19                             151   -0.1710 77.7  35 
 PAM  SZ I        1655 24.08         6.4 0.46            154           77.7  35 
 RUS  HN ES   1   1655 24.40                             145   -0.08 7 96.0 179 
 RUS  HZ I        1655 26.21         2.8 0.26            148           96.0 179 
 NOR  HZ EP   1   1655 18.93                             118    0.15 6  236 236 
 NOR  HN ES       1655 46.64                             118   -0.12 8  236 236 
 NOR  HZ I        1655 52.43         2.1 0.18            119            236 236 
                                                                                
