 2010 1129 1357 43.4 L   6.784 -73.135135.9  RSN 14 0.4 2.4LRSN                1
 GAP=160        0.81       3.3     6.5  6.2 -0.6961E+01  0.1354E+02  0.1628E+01E
 Epicentro: LOS SANTOS - SANTANDER                                             3
 ACTION:UP  10-12-17 16:55 OP:REBC STATUS:               ID:20101129135743 L   I
 2010-11-29-1355-01S.COL___131                                                 6
 STAT SP IPHASW D HRMM SECON CODA AMPLIT PERI AZIMU VELO SNR AR TRES W  DIS CAZ7
 BTL  SZ IP       1358  2.38                             171     0.610   21 315 
 BAR2 SZ IP       1358  1.93                             170     0.210   22 194 
 BAR2 SZ I        1358  2.11        65.9 0.17                            22 194 
 BAR2 SZ ES   1   1358 15.40                             170    -0.7 7   22 194 
 GIR2 SZ EP   2   1358  1.96                             165     0.0 5   33 349 
 BRR  HZ IP     C 1358  3.72                             150     0.210   73 299 
 BRR  HN ES   2   1358 19.87                             150     0.6 5   73 299 
 BRR  HZ I        1358 21.68        68.1 0.07                            73 299 
 RUS  HZ EP       1358  5.95                             142    -0.110   99 177 
 RUS  HE ES   1   1358 23.92                             142     0.2 7   99 177 
 RUS  HZ I        1358 26.43        35.3 0.41                            99 177 
 GRA  SZ EP   1   1358  7.72                             134    -0.1 7  127  17 
 GRA  SZ ES   1   1358 26.85                             134    -0.1 7  127  17 
 GRA  SZ I        1358 28.41        42.5 0.28                           127  17 
 OCA  SZ EP   1   1358 10.52                             127    -0.6 7  162 353 
 OCA  SZ ES   2   1358 32.30                             127    -0.4 5  162 353 
 OCA  SZ I        1358 35.42        32.2 0.19                           162 353 
 NOR  SZ EP       1358 18.33                             116    -0.2 8  235 235 
 NOR  SE ES   1   1358 45.58                             116    -0.4 6  235 235 
 CHI  HZ EP       1358 20.27                             115    -0.1 8  247 196 
 CHI  HN ES   2   1358 48.75                             115    -0.5 4  247 196 
 CHI  HZ I        1358 52.86        13.1 0.34                           247 196 
 HEL  HZ EP   2   1358 23.35                             113     0.2 4  273 256 
 HEL  HZ I        1359  1.04        15.2 0.29                           273 256 
 GUY  SZ EP   2   1358 27.36                             110     0.8 4  301 235 
 RREF HZ EP   2   1358 28.98                             109    -0.1 3  322 230 
 RREF HZ I        1359 10.24        13.3 0.64                           322 230 
 TOL  SZ EP   2   1358 31.88                             107     0.7 3  343 225 
 PRA  HZ EP   1   1358 36.14                             105    -0.3 4  391 210 
 PRA  HN ES   2   1359 17.86                             105     0.0 3  391 210 
                                                                                
