 2013  729 1318 37.1 L   7.458 -73.155129.2  RSN  6 0.4 1.8LRSN                1
 GAP=216        0.86       4.1     5.1  7.2  0.4625E+01  0.4053E+01 -0.1159E+02E
 Epicentro: EL PLAYON - SANTANDER                                              3
 ACTION:UPD 13-08-12 10:40 OP:ep   STATUS:               ID:20130729131837 L   I
 OLDACT:UP  13-07-29 16:39 OP:cam  STATUS:               ID:20130729130959     3
 OLDACT:REG 13-07-29 14:48 OP:cam  STATUS:               ID:20130729130959     3
 2013-07-29-1309-59M.COL___268                                                 6
 STAT SP IPHASW D HRMM SECON CODA AMPLIT PERI AZIMU VELO AIN AR TRES W  DIS CAZ7
 GIR2 SZ EP     C 1318 55.71                             161    0.5510 42.1 186 
 GIR2 SZ ES   1   1319  9.17                             161   -0.11 7 42.1 186 
 BRR  HZ EP     D 1318 56.67                             149    0.1210 72.7 238 
 BRR  HN ES       1319 11.81                             149    0.0610 72.7 238 
 BRR  HZ I        1319 12.61        14.4 0.12            144           72.7 238 
 BAR2 SZ EP   1   1318 58.63                             141    0.12 7 95.8 182 
 BAR2 SZ ES       1319 15.00                             141   -0.2310 95.8 182 
 BAR2 SZ I        1319 16.20        23.8 0.12            137           95.8 182 
 PTB  HZ EP       1319  4.97                             123   -0.59 9  176 235 
 PTB  HN ES       1319 27.47                             123   -0.31 9  176 235 
 PTB  HZ I        1319 29.52         5.6 0.40            118            176 235 
 SML  HZ EP       1319  5.90                             122   -0.01 9  180 326 
 SML  HN ES       1319 27.95                             122   -0.45 9  180 326 
 SML  HZ I        1319 29.89        10.1 0.10            118            180 326 
 ZAR  HZ EP   1   1319  7.04                             121    0.24 7  188 271 
 ZAR  HZ I        1319 15.73         1.8 0.30            117            188 271 
 ZAR  HE ES       1319 30.58                             121    0.60 9  188 271 
                                                                                
