 2013  429 1025 26.9 L   6.669 -73.172138.1  RSN  4 0.3 1.6LRSN                1
 GAP=239        0.55       6.6     4.5  5.4  0.6152E+01  0.5928E+01  0.1560E+01E
 Epicentro: VILLANUEVA - SANTANDER                                             3
 ACTION:UPD 13-05-22 14:41 OP:EP   STATUS:               ID:20130429102526 L   I
 2013-04-29-1020-00M.COL___248                                                 6
 STAT SP IPHASW D HRMM SECON CODA AMPLIT PERI AZIMU VELO AIN AR TRES W  DIS CAZ7
 BAR2 SZ EP   1   1025 45.61                             176    0.20 7 8.61 188 
 BAR2 SZ ES   1   1026  0.04                             176    0.20 7 8.61 188 
 BRR  HZ EP   1   1025 47.59                             149    0.00 7 76.9 309 
 BRR  HN ES       1026  3.48                             149   -0.2310 76.9 309 
 BRR  HN I        1026  4.34        12.6 0.24            142           76.9 309 
 PTB  HZ EP   1   1025 52.69                             131   -0.12 7  143 264 
 PTB  HN ES       1026 12.93                             131   -0.08 9  143 264 
 PTB  HN I        1026 18.29         4.5 0.36            126            143 264 
 ZAR  HZ EP   1   1025 58.95                             120   -0.27 6  207 296 
 ZAR  HN ES   1   1026 25.01                             120    0.60 6  207 296 
 ZAR  HN I        1026 31.41         3.5 0.34            117            207 296 
                                                                                
