 2013  929 1200 51.8 L   6.804 -73.197145.6  RSN 11 0.6 1.7LRSN                1
 GAP=130        1.28       4.1     6.0  8.3 -0.1954E+01  0.1534E+01  0.3982E+01E
 Epicentro: ZAPATOCA - SANTANDER                                               3
 ACTION:UPD 13-10-22 09:25 OP:ep   STATUS:               ID:20130929120051 L   I
 OLDACT:REG 13-09-29 14:31 OP:jn   STATUS:               ID:20130929115959     3
 2013-09-29-1159-59M.COL___272                                                 6
 STAT SP IPHASW D HRMM SECON CODA AMPLIT PERI AZIMU VELO AIN AR TRES W  DIS CAZ7
 BAR2 SZ EP       12 1 11.34                             170   -0.0810 23.5 176 
 BAR2 SZ ES       12 1 26.57                             170   -0.1510 23.5 176 
 BAR2 SZ I        12 1 27.48        11.7 0.24            172           23.5 176 
 BRR  HZ EP       12 1 13.26                             154    0.6010 66.1 301 
 BRR  HN ES       12 1 29.86                             154    0.9310 66.1 301 
 BRR  HZ I        12 1 33.52         8.6 0.17            152           66.1 301 
 PAM  SZ EP       12 1 14.14                             150   -0.0710 80.8  43 
 PAM  SE I        12 1 33.46        11.7 0.54            143           80.8  43 
 RUS  HZ EP       12 1 15.33                             143   -0.2910  102 173 
 RUS  HN ES   1   12 1 33.51                             143   -0.68 7  102 173 
 RUS  HZ I        12 1 35.18         5.1 0.24            142            102 173 
 PTB  HZ EP       12 1 18.00                             133   -0.27 9  142 258 
 PTB  HN ES       12 1 38.70                             133   -0.22 9  142 258 
 PTB  HZ I        12 1 41.32         6.5 0.34            131            142 258 
 OCA  HE ES   1   12 1 40.97                             130   -1.04 7  159 355 
 OCA  HZ I        12 1 45.72         7.3 0.16            125            159 355 
 SPBC HZ EP       12 1 20.22                             130    0.22 9  160 217 
 SPBC HN ES       12 1 41.48                             130   -0.51 9  160 217 
 SPBC HZ I        12 1 43.70         8.9 0.16            128            160 217 
 NOR  HE ES   1   12 1 54.62                             119    0.05 6  230 234 
 NOR  HZ I        12 1 59.11         4.8 0.20            116            230 234 
 SML  HE ES       12 1 56.70                             118    0.23 8  241 336 
 CHI  HZ EP       12 1 29.61                             117    0.22 8  248 194 
 CHI  HN ES       12 1 59.81                             117    1.11 8  248 194 
 CHI  HZ I        12 2  3.82         1.5 0.34            114            248 194 
 HEL  HN ES   1   12 2  1.13                             115   -1.19 6  267 255 
 HEL  HZ I        12 2 10.49         3.5 0.46            112            267 255 
                                                                                
