 2013  129 1311 38.0 L   6.834 -73.110151.4  RSN  5 0.3 1.5LRSN                1
 GAP=244        0.63       4.7     6.0  5.4  0.1272E+02  0.2745E+01  0.4850E+01E
 Epicentro: LOS SANTOS - SANTANDER                                             3
 ACTION:UPD 13-02-15 09:17 OP:ep   STATUS:               ID:20130129131137 L   I
 2013-01-29-1310-00M.COL___241                                                 6
 STAT SP IPHASW D HRMM SECON CODA AMPLIT PERI AZIMU VELO AIN AR TRES W  DIS CAZ7
 BAR2 SZ EP   1   1311 58.29                             169   -0.14 8 27.9 197 
 BAR2 SZ I        1311 58.53         9.1 0.12            170           27.9 197 
 BAR2 SZ ES   1   1312 14.33                             169   -0.01 8 27.9 197 
 BRR  HZ EP   1   1312  0.30                             153    0.41 8 73.1 294 
 BRR  HZ I        1312 16.83        12.4 0.34            143           73.1 294 
 BRR  HE ES   1   1312 17.29                             153    0.35 8 73.1 294 
 RUS  HZ EP       1312  2.39                             144   -0.2010  104 178 
 RUS  HN ES       1312 21.63                             144   -0.1110  104 178 
 RUS  HZ I        1312 22.55         2.1 0.26            143            104 178 
 PTB  HZ EP   1   1312  5.60                             132   -0.27 7  152 258 
 PTB  HN ES   1   1312 27.17                             132   -0.42 7  152 258 
 PTB  HZ I        1312 31.85         4.5 0.36            125            152 258 
 CHI  HZ EP       1312 16.67                             118    0.12 8  253 196 
 CHI  HN ES   1   1312 47.24                             118    0.65 6  253 196 
 CHI  HZ I        1312 54.11         1.3 0.36            113            253 196 
                                                                                
