 2016  729 1606 23.8 L   6.827 -73.152141.8  RSN  6 0.2 1.7LRSN                1
 GAP=134        0.54       2.8     3.2  4.9 -0.1609E+00  0.5340E+01 -0.2750E+00E
 Epicentro: LOS SANTOS - SANTANDER                                             3
 ACTION:UPD 17-03-29 16:56 OP:lp   STATUS:               ID:20160729160623 L   I
 OLDACT:REG 16-07-29 20:44 OP:ar   STATUS:               ID:20160729155746     3
 2016-07-29-1558-00M.COL___362                                                 6
 STAT SP IPHASW D HRMM SECON CODA AMPLIT PERI AZIMU VELO AIN AR TRES W  DIS CAZ7
 BAR2 EZ EP       16 6 42.69                             169   -0.3710 26.2 187 
 BAR2 EZ ES       16 6 57.94                             169   -0.1210 26.2 187 
 BAR2 EZ I        16 7  1.60         8.6 0.08            170           26.2 187 
 PAM  EZ EP       16 6 45.57                             151    0.0410 75.5  41 
 PAM  EE ES       16 7  2.54                             151    0.0910 75.5  41 
 PAM  EZ I        16 7  4.47        14.1 0.52            153           75.5  41 
 RUS  HZ EP       16 6 47.42                             142   -0.0210  104 176 
 RUS  HN ES       16 7  6.12                             142    0.2810  104 176 
 RUS  HZ I        16 7  7.32         5.5 0.30            145            104 176 
 ZAR  HN ES       16 7 20.96                             122    0.14 9  202 291 
 NOR  HE EP   2   16 6 59.87                             118    0.39 4  236 234 
 NOR  HN ES   2   16 7 26.86                             118   -0.41 4  236 234 
 GUY2CHZ EP   4   16 7  9.17                             112    1.76 0  302 234 
 GUY2CHN ES   4   16 7 44.98                             112    3.59 0  302 234 
 GUY2CHZ I        16 7 50.78         2.3 0.52                           302 234 
                                                                                
