 2013  629 1222 25.1 L   6.772 -73.145142.0  RSN  7 0.4 1.4LRSN                1
 GAP=138        0.81       4.1     4.2  6.4 -0.1096E+01  0.5766E+01  0.4449E+01E
 Epicentro: LOS SANTOS - SANTANDER                                             3
 ACTION:UPD 14-01-08 09:58 OP:ep   STATUS:               ID:20130629122225 L   I
 OLDACT:REG 13-06-29 16:00 OP:jn   STATUS:               ID:20130629121959     3
 2013-06-29-1219-59M.COL___267                                                 6
 STAT SP IPHASW D HRMM SECON CODA AMPLIT PERI AZIMU VELO AIN AR TRES W  DIS CAZ7
 BAR2 SZ EP       1222 44.28                             171    0.0510 20.3 192 
 BAR2 SZ ES       1222 59.16                             171    0.0110 20.3 192 
 BAR2 SZ I        1223  0.96         7.9 0.20            169           20.3 192 
 BRR  HN ES   1   1223  2.90                             151    0.70 7 72.8 301 
 PAM  SZ EP       1222 47.12                             149    0.0410 79.8  38 
 PAM  SN ES       1223  4.03                             149   -0.1810 79.8  38 
 PAM  SZ I        1223  6.42         6.9 0.50            153           79.8  38 
 RUS  HZ EP       1222 48.46                             144    0.1910 97.5 176 
 RUS  HE ES   1   1223  5.96                             144   -0.37 7 97.5 176 
 RUS  HZ I        1223  8.17         2.5 0.30            144           97.5 176 
 PTB  HZ EP       1222 51.36                             131   -0.37 9  147 260 
 PTB  HN ES   1   1223 11.81                             131   -0.68 7  147 260 
 PTB  HZ I        1223 16.51         1.8 0.20            132            147 260 
 ZAR  HE ES   1   1223 22.96                             121    0.30 6  205 293 
 CHI  HE ES   1   1223 31.92                             117    0.65 6  246 195 
 CHI  HZ I        1223 35.57         1.6 0.40            118            246 195 
                                                                                
