 2016  429 1133 50.6 L   6.807 -73.131146.3  RSN 10 0.3 2.1LRSN                1
 GAP=138        0.85       3.1     3.5  5.0 -0.1670E+01  0.7014E+01  0.3314E+00E
 Epicentro: LOS SANTOS - SANTANDER                                             3
 ACTION:UPD 16-05-05 14:25 OP:rebc STATUS:               ID:20160429113350 L   I
 OLDACT:UP  16-04-29 20:44 OP:edwi STATUS:               ID:20160429112749     3
 OLDACT:REG 16-04-29 19:36 OP:cara STATUS:               ID:20160429112749     3
 2016-04-29-1127-49M.COL___309                                                 6
 STAT SP IPHASW D HRMM SECON CODA AMPLIT PERI AZIMU VELO AIN AR TRES W  DIS CAZ7
 BAR2 EZ EP       1134 10.19                             170   -0.1610 24.4 194 
 BAR2 EZ ES       1134 25.30                             170   -0.4210 24.4 194 
 BAR2 EZ I        1134 28.06        21.1 0.42            169           24.4 194 
 PAM  EZ EP       1134 13.09                             151    0.2810 75.7  39 
 PAM  EE ES       1134 30.50                             151    0.4010 75.7  39 
 PAM  EZ I        1134 32.54        23.6 0.58            156           75.7  39 
 RUS  HZ EP       1134 14.17                             144   -0.3110  101 177 
 RUS  HN ES       1134 33.15                             144    0.0710  101 177 
 RUS  HZ I        1134 34.15         8.8 0.30            146            101 177 
 PTB  HZ EP       1134 17.12                             132   -0.68 9  150 259 
 PTB  HN ES       1134 38.56                             132   -0.44 9  150 259 
 PTB  HZ I        1134 45.58        22.8 0.32            132            150 259 
 SPBC HZ EP       1134 19.26                             129   -0.06 9  165 219 
 SPBC HE ES       1134 41.97                             129    0.27 9  165 219 
 SPBC HZ I        1134 44.69        18.1 0.14            130            165 219 
 ZAR  HZ EP       1134 23.56                             122    0.32 8  205 292 
 ZAR  HN ES       1134 48.97                             122    0.29 8  205 292 
 ZAR  HZ I        1134 55.62        12.0 0.24            124            205 292 
 NOR  HZ EP       1134 26.51                             118   -0.07 8  236 235 
 NOR  HE ES       1134 55.20                             118    0.58 8  236 235 
 NOR  HZ I        1134 58.42         7.7 0.24            120            236 235 
 CHI  HZ EP       1134 28.42                             117   -0.06 8  250 195 
 CHI  HN ES       1134 58.19                             117    0.18 8  250 195 
 CHI  HZ I        1135  5.42         4.9 0.34            120            250 195 
 URE  HZ EP       1134 31.44                             113   -0.43 7  285 292 
 GUY2CHZ EP       1134 34.95                             112    0.48 7  303 235 
 GUY2CHN ES       1135  8.83                             112    0.17 7  303 235 
 GUY2CHZ I        1135 15.24         6.7 0.32                           303 235 
                                                                                
