 2016 1129 1142 53.6 L   6.804 -73.161143.2  RSN 17 0.5 2.5LRSN                1
 GAP=145        1.01       4.0     4.1  5.7 -0.2458E+01  0.5471E+01  0.9364E+01E
 Epicentro: LOS SANTOS - SANTANDER                                             3
 ACTION:UPD 17-10-26 21:13 OP:lp   STATUS:               ID:20161129114253 L   I
 OLDACT:REG 16-11-29 21:06 OP:lv   STATUS:               ID:20161129113750     3
 2016-11-29-1138-00M.COL___348                                                 6
 STAT SP IPHASW D HRMM SECON CODA AMPLIT PERI AZIMU VELO AIN AR TRES W  DIS CAZ7
 BAR2 EZ EP       1143 12.70                             170   -0.2310 23.5 186 
 BAR2 EZ ES       1143 27.91                             170   -0.0910 23.5 186 
 BAR2 EZ I        1143 30.50       112.5 0.31            165           23.5 186 
 BRR  HZ IP     C 1143 14.46                             153    0.0910 69.5 299 
 BRR  HN ES       1143 31.56                             153    0.9810 69.5 299 
 BRR  HZ I        1143 35.64        43.6 0.20            151           69.5 299 
 PAM  EZ EP       1143 15.43                             150   -0.1610 78.1  41 
 PAM  EN ES       1143 32.72                             150   -0.0210 78.1  41 
 PAM  EZ I        1143 34.84        53.8 0.50            159           78.1  41 
 PTB  HZ EP       1143 19.45                             132   -0.76 9  146 259 
 PTB  HN ES       1143 40.41                             132   -0.56 9  146 259 
 PTB  HZ I        1143 46.06        21.4 0.12            131            146 259 
 ZAR  HZ EP       1143 25.78                             122    0.09 9  202 292 
 ZAR  HN ES       1143 50.59                             122   -0.14 9  202 292 
 ZAR  HZ I        1143 56.51        26.3 0.34            123            202 292 
 NOR  HZ EP       1143 28.51                             118   -0.55 8  234 234 
 NOR  HE ES       1143 56.75                             118    0.03 8  234 234 
 NOR  HZ I        1143 59.61        19.9 0.22            118            234 234 
 CHI  HZ EP       1143 30.96                             117   -0.19 8  249 195 
 CHI  HN ES       1144  0.24                             117   -0.21 8  249 195 
 CHI  HZ I        1144 10.08        13.4 0.42            117            249 195 
 ROSC BZ EP       1143 32.38                             116    0.86 8  252 211 
 ROSC BN ES   4   1144  4.25                             116    3.14 0  252 211 
 ROSC BZ I        1144  7.35        29.0 0.40            117            252 211 
 LL6C HZ EP   9   1143 19.06                             110   -20.1 0  324 358 
 LL6C HN ES       1143 54.23                                   -0.35 7  324 358 
 ELA  HZ EP   4   1143 43.21                             110    2.99 0  328 229 
 ELA  HN ES   4   1144 18.66                             110    2.07 0  328 229 
 ELA  HZ I        1144 31.93        12.3 0.48            111            328 229 
 CBOC HZ EP       1143 40.40                             110    0.17 7  332 252 
 CBOC HN ES       1144 16.55                             110   -0.06 7  332 252 
 CBOC HZ I        1144 32.63         5.0 0.49            110            332 252 
 ANIL HZ EP       1143 43.97                             108    0.77 6  356 224 
 ANIL HN ES   4   1144 23.08                             108    1.19 0  356 224 
 ANIL HZ I        1144 26.94        37.3 0.32            109            356 224 
 PRA  HZ EP   9   1143 46.42                             106   -0.56 0  392 209 
 PRA  HE ES       1144 28.62                                    0.56 6  392 209 
 PRA  HZ I        1144 35.10        18.3 0.45            107            392 209 
 ORTC HZ EP       1143 47.71                             106    0.36 6  395 216 
 ORTC HN ES       1144 29.89                             106    0.61 6  395 216 
 ORTC HZ I        1144 36.53        10.5 0.38            107            395 216 
 SJC  HZ EP   4   1143 46.83                             105   -2.09 0  408 327 
 SJC  HN ES   4   1144 28.46                             105   -3.61 0  408 327 
 SJC  HZ I        1144 34.29         3.7 0.27            107            408 327 
 CRJC HZ EP   9   1143 53.36                             103   -2.62 0  467   4 
 CRJC HN ES       1144 41.47                                   -0.55 5  467   4 
 CRJC HZ I        1144 42.48         7.8 0.44            105            467   4 
 URI  HZ EP   9   1144  3.28                             100   -3.26 0  557  13 
 URI  HN ES       1144 59.68                                   -0.49 3  557  13 
                                                                                
