 2014  429 1815 49.3 L   6.914 -73.077102.0  RSN  6 0.4 1.4LRSN                1
 GAP=139        0.83       3.9     4.8 10.9 -0.4121E+01  0.3059E+02 -0.2624E+01E
 Epicentro: PIEDECUESTA - SANTANDER                                            3
 ACTION:UPD 14-05-13 23:12 OP:nd   STATUS:               ID:20140429181549 L   I
 OLDACT:REG 14-04-29 21:49 OP:spq  STATUS:               ID:20140429180818     3
 2014-04-29-1808-18M.COL___226                                                 6
 STAT SP IPHASW D HRMM SECON CODA AMPLIT PERI AZIMU VELO AIN AR TRES W  DIS CAZ7
 PAM  SZ EPg  1   1816  6.01                             146    0.01 8 62.9  41 
 PAM  SN ESg  1   1816 18.85                             146   -0.20 8 62.9  41 
 PAM  HZ I        1816 31.83         4.4 1.96            157           62.9  41 
 RUS  HZ EP   1   1816 10.88                             128    0.71 8  113 180 
 RUS  HN ES   1   1816 26.60                             128    0.11 8  113 180 
 RUS  HZ I        1816 32.34         5.1 1.56            150            113 180 
 PTB  HZ EP       1816 14.02                             118   -0.1610  158 255 
 PTB  HN ES       1816 34.12                             118    0.5010  158 255 
 PTB  HZ I        1816 41.71         4.9 1.06            134            158 255 
 SPBC HN ES       1816 36.96                             115   -0.6710  178 218 
 ZAR  HZ EP       1816 19.43                             110   -0.19 9  207 288 
 ZAR  HN ES   1   1816 43.31                             110    0.01 7  207 288 
 ZAR  HZ I        1816 51.32         4.2 0.30            125            207 288 
 NOR  HN ES   1   1816 52.02                             106    0.09 6  248 233 
                                                                                
