 2015  429 1039 59.4 L   6.799 -73.143143.1  RSN 13 0.4 1.9LRSN                1
 GAP=137        0.94       2.6     3.7  5.2 -0.2769E+01  0.6662E+01 -0.1568E+01E
 Epicentro: LOS SANTOS - SANTANDER                                             3
 ACTION:UPD 15-06-03 16:58 OP:cam  STATUS:               ID:20150429103959 L   I
 OLDACT:REG 15-04-29 20:25 OP:ak   STATUS:               ID:20150429103741     3
 2015-04-29-1037-41M.COL___283                                                 6
 STAT SP IPHASW D HRMM SECON CODA AMPLIT PERI AZIMU VELO AIN AR TRES W  DIS CAZ7
 BAR2 EZ IP     C 1040 18.85                             170    0.1010 23.3 191 
 BAR2 EZ ES       1040 33.40                             170   -0.4110 23.3 191 
 BAR2 EZ I        1040 38.01        14.2 0.16            169           23.3 191 
 BRR  HZ EP       1040 20.69                             152    0.3710 71.5 298 
 BRR  HN ES       1040 36.82                             152    0.2110 71.5 298 
 BRR  HZ I        1040 41.26         8.4 0.11            150           71.5 298 
 PAM  SZ IP     C 1040 21.65                             150    0.2810 77.3  39 
 PAM  SN ES       1040 38.44                             150   -0.0310 77.3  39 
 PAM  SZ I        1040 40.89        16.2 0.58            156           77.3  39 
 RUS  HZ EP   1   1040 22.63                             143   -0.29 7  100 176 
 RUS  HN ES       1040 41.70                             143    0.4710  100 176 
 RUS  HZ I        1040 43.26         4.7 0.37            147            100 176 
 PTB  HZ EP       1040 25.49                             131   -0.72 9  148 259 
 PTB  HN ES       1040 46.52                             131   -0.58 9  148 259 
 PTB  HZ I        1040 54.16        11.4 0.35            132            148 259 
 OCA  HZ EP       1040 27.61                             129    0.05 9  160 353 
 OCA  HN ES       1040 49.44                             129   -0.05 9  160 353 
 OCA  HZ I        1040 53.80        21.8 0.22            132            160 353 
 SPBC HZ EP       1040 27.83                             128    0.09 9  163 219 
 SPBC HN ES       1040 49.35                             128   -0.47 9  163 219 
 SPBC HZ I        1040 52.27        12.2 0.13            131            163 219 
 ZAR  HZ EP       1040 31.34                             122   -0.40 9  204 292 
 ZAR  HN ES       1040 57.39                             122    0.45 9  204 292 
 ZAR  HZ I        1041  3.37         8.1 0.35            123            204 292 
 NOR  HZ EP   2   1040 34.99                             118   -0.04 4  235 235 
 NOR  HN ES       1041  2.76                             118   -0.04 8  235 235 
 NOR  HZ I        1041  8.10         8.0 0.22            120            235 235 
 SML  HZ EP       1040 35.40                             117   -0.54 8  244 335 
 SML  HN ES       1041  4.78                             117    0.37 8  244 335 
 SML  HZ I        1041  5.89         8.3 0.12            120            244 335 
 HEL  HZ EP   2   1040 40.44                             114    0.90 4  272 256 
 HEL  HN ES   4   1041 13.67                             114    2.84 0  272 256 
 HEL  HZ I        1041 17.79         7.3 0.34            116            272 256 
 GUY2CHZ EP   4   1040 45.07                             112    2.13 0  301 235 
 GUY2CHN ES       1041 17.80                             112    0.92 7  301 235 
 GUY2CHZ I        1041 25.68         5.7 0.39                           301 235 
 TOL  SZ EP   2   1040 47.54                             109   -0.06 3  344 225 
 TOL  SN ES       1041 25.49                             109    0.32 7  344 225 
 TOL  SZ I        1041 31.09         2.5 0.32            111            344 225 
                                                                                
