 2012 1029 1246 39.8 L   6.786 -73.122144.0  RSN  4 0.1 1.7LRSN                1
 GAP=140        0.33       3.2     4.3  6.2 -0.7439E+00 -0.1550E+02  0.7318E+01E
 Epicentro: LOS SANTOS - SANTANDER                                             3
 ACTION:UPD 12-11-22 17:06 OP:ep   STATUS:               ID:20121029124639 L   I
 2012-10-29-1240-00M.COL___231                                                 6
 STAT SP IPHASW D HRMM SECON CODA AMPLIT PERI AZIMU VELO AIN AR TRES W  DIS CAZ7
 BAR2 SZ EP   1   1246 59.06                             171   -0.15 7 22.4 197 
 BRR  HN ES       1247 17.45                             151    0.0210 74.3 299 
 PAM  SZ EP   1   1247  1.93                             151    0.12 7 77.0  37 
 PAM  SN ES   2   1247 18.87                             151   -0.10 5 77.0  37 
 PAM  SN I        1247 19.59        10.8 0.44                          77.0  37 
 RUS  HZ EP   1   1247  3.26                             144    0.00 7 98.8 178 
 RUS  HN ES   2   1247 21.65                             144    0.10 5 98.8 178 
 RUS  HN I        1247 23.28         6.7 0.36                          98.8 178 
                                                                                
