 2016  929 1739 14.5 L   6.017 -74.004  5.2  RSN  9 0.4 1.4LRSN                1
 GAP= 93        1.18       2.7     4.3  6.1 -0.2624E+00  0.4259E+01  0.3763E+01E
 Epicentro: LA BELLEZA - SANTANDER                                             3
 ACTION:UPD 17-08-17 21:17 OP:lp   STATUS:               ID:20160929173914 L   I
 OLDACT:UP  16-09-30 01:05 OP:edw  STATUS:               ID:20160929173744     3
 OLDACT:UP  16-09-30 01:04 OP:edw  STATUS:               ID:20160929173744     3
 OLDACT:REG 16-09-29 20:36 OP:edw  STATUS:               ID:20160929173744     3
 2016-09-29-1738-00M.COL___348                                                 6
 STAT SP IPHASW D HRMM SECON CODA AMPLIT PERI AZIMU VELO AIN AR TRES W  DIS CAZ7
 SPBC HZ EP       1739 21.04                              47   -0.3610 41.0 191 
 SPBC HN ES       1739 26.53                              47   -0.2610 41.0 191 
 SPBC HZ I        1739 27.31        22.9 0.10             47           41.0 191 
 PTB  HZ EP       1739 26.42                              47   -0.2610 76.4 319 
 PTB  HN ES       1739 35.82                              47   -0.3710 76.4 319 
 PTB  HZ I        1739 36.26        20.5 0.16             47           76.4 319 
 RUS  HZ EP   9   1739 30.67                              47   -0.52 0  103  98 
 RUS  HN ES       1739 42.91                              47   -0.7810  103  98 
 RUS  HZ I        1739 47.09         4.8 0.22             47            103  98 
 NOR  HZ EP       1739 31.81                              47    0.2810  108 242 
 NOR  HN ES       1739 44.84                              47    0.0310  108 242 
 NOR  HZ I        1739 45.24        11.3 0.20             47            108 242 
 BRR  HZ EP       1739 34.54                              47    0.5510  125  15 
 BRR  HN ES   4   1739 51.15                              47    1.95 0  125  15 
 CHI  HZ EP   4   1739 40.70                              47    1.49 0  156 169 
 CHI  HN ES   4   1740  2.22                              47    3.73 0  156 169 
 HEL  HZ EP       1739 40.76                              47   -0.44 9  170 277 
 HEL  HN ES   4   1740  0.45                              47   -1.59 0  170 277 
 HEL  HZ I        1740  3.04         6.5 0.30             47            170 277 
 GUY2CHZ EP       1739 42.87                              47    0.87 9  174 240 
 GUY2CHN ES       1740  3.58                              47    0.12 9  174 240 
 GUY2CHZ I        1740  4.58         3.7 0.48                           174 240 
 ZAR  HZ EP   4   1739 26.53                              37   -16.7 0  188 330 
 ZAR  HN ES   4   1740  3.43                              37   -2.18 0  188 330 
 ZAR  HZ I        1740  7.60         3.3 0.30             37            188 330 
 PAM  EZ EP   4   1739 47.61                              37    1.70 0  205  45 
 PAM  EN ES   4   1740 12.52                              37    2.11 0  205  45 
 PAM  EZ I        1740 15.25         4.4 0.18             37            205  45 
                                                                                
