 2016  829 1033 28.9 L   6.803 -73.126145.6  RSN 12 0.5 2.0LRSN                1
 GAP=174        1.00       3.0     4.4  5.3 -0.1661E+00  0.3505E+01  0.8797E+00E
 Epicentro: LOS SANTOS - SANTANDER                                             3
 ACTION:UPD 16-10-29 15:40 OP:rebc STATUS:               ID:20160829103328 L   I
 OLDACT:UP  16-08-29 22:07 OP:edw  STATUS:               ID:20160829102730     3
 OLDACT:REG 16-08-29 19:26 OP:edw  STATUS:               ID:20160829102730     3
 2016-08-29-1028-00M.COL___353                                                 6
 STAT SP IPHASW D HRMM SECON CODA AMPLIT PERI AZIMU VELO AIN AR TRES W  DIS CAZ7
 BAR2 EZ EP       1033 48.35                             170   -0.1210 24.1 195 
 BAR2 EZ ES       1034  4.10                             170    0.3210 24.1 195 
 BAR2 EZ I        1034  5.78        18.6 0.16                          24.1 195 
 BRR  HZ IP       1033 50.12                             152    0.0410 73.0 298 
 BRR  HE ES       1034  7.21                             152    0.5710 73.0 298 
 BRR  HZ I        1034  9.65        15.0 0.28                          73.0 298 
 RUS  HZ EP       1033 52.50                             144   -0.1010  101 177 
 RUS  HN ES       1034 11.32                             144    0.2010  101 177 
 RUS  HZ I        1034 12.04        12.3 0.26                           101 177 
 PTB  HZ EP   9   1033 55.02                             132   -0.98 0  150 259 
 PTB  HN ES       1034 16.11                             131   -0.09 9  150 259 
 PTB  HZ I        1034 17.78         9.4 0.12                           150 259 
 OCA  HZ EP       1033 57.44                             130    0.30 9  160 352 
 OCA  HN ES       1034 18.43                             130   -0.78 9  160 352 
 OCA  HZ I        1034 21.71        14.0 0.16                           160 352 
 SPBC HZ EP       1033 57.12                             129   -0.37 9  165 220 
 SPBC HN ES       1034 19.33                             129   -0.49 9  165 220 
 SPBC HZ I        1034 23.95        13.9 0.09                           165 220 
 ZAR  HZ EP       1034  1.86                             122    0.38 8  206 292 
 ZAR  HE ES       1034 26.26                             122   -0.67 8  206 292 
 ZAR  HZ I        1034 31.41         7.1 0.10                           206 292 
 NOR  HZ EP       1034  4.62                             118   -0.16 8  237 235 
 NOR  HN ES       1034 32.69                             118   -0.11 8  237 235 
 NOR  HZ I        1034 36.97         9.0 0.22                           237 235 
 CHI  HZ EP       1034  6.55                             117   -0.08 8  250 196 
 CHI  HN ES       1034 35.77                             117   -0.33 8  250 196 
 CHI  HZ I        1034 39.30         6.1 0.39                           250 196 
 HEL  HZ EP       1034 10.58                             115    1.29 8  274 256 
 HEL  HN ES       1034 40.91                             115    0.07 8  274 256 
 HEL  HZ I        1034 46.47         6.0 0.32                           274 256 
 GUY2CHZ EP   2   1034 13.22                             112    0.55 4  303 235 
 GUY2CHN ES   2   1034 46.89                             112    0.04 4  303 235 
 GUY2CHZ I        1034 53.51         3.9 0.20                           303 235 
 CRJC HZ EP   9   1034 28.67                             103   -2.62 0  467   3 
 CRJC HE ES       1035 17.52                             103    0.15 5  467   3 
                                                                                
