 2012 1129 1638 53.9 L   6.799 -73.209144.0  RSN  6 0.2 2.4LRSN                1
 GAP=129        0.46       2.8     2.7  3.5 -0.2487E+01  0.1626E+01  0.1253E+01E
 Epicentro: ZAPATOCA - SANTANDER                                               3
 ACTION:UPD 12-12-05 15:37 OP:}ep  STATUS:               ID:20121129163853 L   I
 2012-11-29-1630-00M.COL___236                                                 6
 STAT SP IPHASW D HRMM SECON CODA AMPLIT PERI AZIMU VELO AIN AR TRES W  DIS CAZ7
 BAR2 SZ IP       1639 13.42                             170    0.0610 23.0 173 
 BAR2 SZ ES       1639 28.80                             170    0.3010 23.0 173 
 BAR2 SZ I        1639 31.35        48.6 0.40                          23.0 173 
 GIR2 SZ EP       1639 13.45                             167    0.0510 31.0   3 
 PAM  SZ EP       1639 16.29                             149    0.0210 82.1  43 
 PAM  SZ I        1639 16.47        54.5 0.16                          82.1  43 
 PAM  SE ES       1639 33.55                             149   -0.1310 82.1  43 
 RUS  HZ EP       1639 17.33                             143   -0.2410  101 172 
 RUS  HE ES   1   1639 35.80                             143   -0.19 7  101 172 
 RUS  HE I        1639 37.48        48.2 0.23                           101 172 
 PTB  HZ EP       1639 20.15                             133    0.00 9  141 258 
 PTB  HN ES       1639 40.47                             133   -0.11 9  141 258 
 PTB  HZ I        1639 43.57        20.9 0.40                           141 258 
 CHI  HZ EP       1639 31.55                             117    0.21 8  247 194 
                                                                                
