 2010  129 1540 13.3 L   6.809 -73.179145.1  RSN  7 0.5 2.1LRSN                1
 GAP=177        0.85       6.0    12.7  9.2  0.3293E+02  0.7126E+02  0.2233E+02E
 Epicentro: LOS SANTOS - SANTANDER                                             3
 ACTION:UP  10-08-24 09:46 OP:vdl  STATUS:               ID:20100129154013 L   I
 2010-01-29-1540-19S.COL___094                                                 6
 STAT SP IPHASW D HRMM SECON CODA AMPLIT PERI AZIMU VELO SNR AR TRES W  DIS CAZ7
 BAR2 SZ EP   1   1540 32.90                             170     0.0 7   24 181 
 BAR2 SZ ES   1   1540 47.82                             170    -0.3 7   24 181 
 GIR2 SZ EP   1   1540 33.02                             167     0.2 7   30 357 
 GIR2 SZ ES   1   1540 48.74                             167     0.6 7   30 357 
 RUS  BZ EP   1   1540 36.77                             143    -0.3 7  102 174 
 RUS  BE ES   1   1540 55.36                             143    -0.3 7  102 174 
 RUS  BZ I        1540 56.79        17.3 0.45                           102 174 
 CHI  HZ EP   1   1540 50.95                             117     0.0 6  249 194 
 CHI  HE ES   2   1541 20.33                             117     0.0 4  249 194 
 CHI  HZ I        1541 29.79         7.7 0.53                           249 194 
 RREF BZ EP   2   1541  0.98                             111     1.8 3  320 229 
 RREF BZ I        1541 43.72         8.8 0.50                           320 229 
 MON  HE ES   1   1541 38.90                             109    -0.8 5  349 309 
 PRA  HZ EP   2   1541  6.33                             106    -0.4 3  391 209 
 PRA  HE ES   2   1541 48.53                             106     0.2 3  391 209 
                                                                                
