 2012 1029 1852 22.9 L   6.727 -73.127143.0  RSN  6 0.3 2.6LRSN                1
 GAP=142        0.52       2.7     3.4  5.6  0.9701E+00  0.8363E+01 -0.1421E+01E
 Epicentro: JORDAN - SANTANDER                                                 3
 ACTION:UPD 12-11-22 17:06 OP:ep   STATUS:               ID:20121029185222 L   I
 2012-10-29-1850-00M.COL___232                                                 6
 STAT SP IPHASW D HRMM SECON CODA AMPLIT PERI AZIMU VELO AIN AR TRES W  DIS CAZ7
 BAR2 SZ EP   1   1852 42.12                             173    0.04 7 16.1 202 
 BAR2 SZ ES   2   1852 57.41                             173    0.37 5 16.1 202 
 BRR  HZ EP   1   1852 44.35                             150    0.24 7 77.1 303 
 BRR  HN ES   2   1853  1.34                             150    0.69 5 77.1 303 
 BRR  HN I        1853  1.63       165.5 0.18                          77.1 303 
 PAM  SZ EP   1   1852 45.28                             148    0.12 7 82.6  35 
 PAM  SN I        1852 45.94        36.5 0.20                          82.6  35 
 PAM  SN ES       1853  2.38                             148   -0.1310 82.6  35 
 RUS  HZ EP   1   1852 45.93                             145    0.12 7 92.4 177 
 RUS  HN ES       1853  3.47                             145   -0.2010 92.4 177 
 RUS  HN I        1853  5.89        42.0 0.28                          92.4 177 
 OCA  HN ES   2   1853 14.05                             127   -0.29 5  169 353 
 ZAR  HZ EP   1   1852 55.83                             121    0.12 6  209 294 
 ZAR  HN ES       1853 20.99                             121   -0.30 8  209 294 
 ZAR  HN I        1853 28.90        34.7 0.48                           209 294 
                                                                                
