 2010 1129 1439 32.1 L   6.753 -73.102141.1  RSN  4 0.1 1.5LRSN                1
 GAP=224        0.45       7.8    12.5  5.8  0.7999E+02 -0.2867E+02 -0.1642E+02E
 Epicentro: LOS SANTOS - SANTANDER                                             3
 ACTION:UP  10-12-17 16:55 OP:REBC STATUS:               ID:20101129143932 L   I
 2010-11-29-1437-37S.COL___132                                                 6
 STAT SP IPHASW D HRMM SECON CODA AMPLIT PERI AZIMU VELO SNR AR TRES W  DIS CAZ7
 BAR2 SZ EP   2   1439 50.99                             172    -0.1 5   20 207 
 BAR2 SZ ES   1   1440  5.79                             172    -0.1 7   20 207 
 BAR2 SZ I        1440  7.00        11.1 0.23                            20 207 
 BTL  SZ EP       1439 51.34                             169     0.110   26 315 
 BRR  HZ EP       1439 52.95                             149    -0.210   78 300 
 BRR  HZ I        1439 53.12         9.3 0.19                            78 300 
 BRR  HE ES   1   1440  9.75                             149     0.2 7   78 300 
 RUS  HZ EP   1   1439 55.15                             144     0.2 7   95 179 
 RUS  HN ES   2   1440 12.77                             144    -0.1 5   95 179 
 RUS  HZ I        1440 15.30         2.6 0.23                            95 179 
                                                                                
