 2010  629 1037 57.3 L   6.776 -73.116142.5  RSN  8 0.4 1.7LRSN                1
 GAP=159        0.74       4.6     6.6  7.0 -0.7060E+01 -0.6553E+01 -0.8481E+01E
 Epicentro: LOS SANTOS - SANTANDER                                             3
 ACTION:UP  10-08-24 10:13 OP:vdl  STATUS:               ID:20100629103757 L   I
 2010-06-29-1035-01S.COL___118                                                 6
 STAT SP IPHASW D HRMM SECON CODA AMPLIT PERI AZIMU VELO SNR AR TRES W  DIS CAZ7
 BAR2 SZ IP       1038 16.63                             171     0.210   22 200 
 BAR2 SZ ES   1   1038 31.07                             171    -0.4 7   22 200 
 BRR  HZ IP     C 1038 18.42                             150     0.110   75 299 
 BRR  HZ I        1038 18.73        17.6 0.13                            75 299 
 BRR  HN ES   1   1038 35.26                             150     0.5 7   75 299 
 RUS  HZ EP   2   1038 20.99                             144     0.5 5   98 178 
 RUS  HN ES   2   1038 38.21                             144    -0.4 5   98 178 
 RUS  HZ I        1038 40.23         2.8 0.54                            98 178 
 BRI  SZ IP       1038 21.20                             140     0.210  110  19 
 BRI  SZ ES   2   1038 39.16                             140    -0.3 5  110  19 
 GUE  SZ EP   1   1038 21.56                             138    -0.3 7  118  10 
 GRA  SZ IP       1038 22.43                             136     0.110  127  16 
 GRA  SZ ES   2   1038 41.91                             136     0.0 5  127  16 
 OCA  SZ EP   1   1038 24.93                             128    -0.7 7  163 352 
 OCA  SZ ES   2   1038 47.56                             128    -0.2 5  163 352 
 OCA  SZ I        1038 51.15         6.3 0.18                           163 352 
 HEL  HZ I        1038 34.62         3.3 0.51                           275 257 
 HEL  HE ES   2   1039  8.46                             114    -0.6 4  275 257 
                                                                                
