 2012 1229 1824 15.7 L   6.768 -73.432117.9  RSN  5 0.2 1.5LRSN                1
 GAP=165        0.58       4.5     3.9  5.2  0.1066E+02  0.8016E+01  0.6906E+01E
 Epicentro: EL CARMEN DE CHUCURI - SANTANDER                                   3
 ACTION:UPD 13-01-04 14:31 OP:ep   STATUS:               ID:20121229182415 L   I
 2012-12-29-1820-00M.COL___242                                                 6
 STAT SP IPHASW D HRMM SECON CODA AMPLIT PERI AZIMU VELO AIN AR TRES W  DIS CAZ7
 BAR2 SZ EP       1824 32.50                             163    0.1510 33.8 125 
 BAR2 SZ I        1824 32.72        21.6 0.13                          33.8 125 
 BAR2 SZ ES       1824 45.07                             163   -0.2310 33.8 125 
 BRR  HZ IP     C 1824 32.63                             156    0.0010 48.6 321 
 BRR  HE ES       1824 45.84                             156    0.0410 48.6 321 
 BRR  HZ I        1824 46.41         6.7 0.14                          48.6 321 
 RUS  HZ EP   1   1824 37.38                             136    0.21 7  104 158 
 RUS  HN ES   1   1824 54.11                             136    0.22 7  104 158 
 RUS  HN I        1824 56.21         4.8 0.31                           104 158 
 PTB  HZ EP       1824 37.12                             132   -0.4410  116 257 
 PTB  HE ES   1   1824 54.66                             132    0.09 7  116 257 
 PTB  HZ I        1824 58.14         3.6 0.16                           116 257 
 ZAR  HE ES   1   1825  5.65                             119    0.36 7  177 297 
 ZAR  HZ I        1825  7.67         4.9 0.41                           177 297 
                                                                                
