 2015 1029 1038  5.5 L   6.833 -73.118140.7  RSN 11 0.5 1.9LRSN                1
 GAP=155        1.16       3.8     5.3  7.0 -0.6112E+01  0.9055E+01  0.4709E+01E
 Epicentro: LOS SANTOS - SANTANDER                                             3
 ACTION:UPD 15-12-22 20:43 OP:cam  STATUS:               ID:20151029103805 L   I
 OLDACT:REG 15-10-29 23:58 OP:ar   STATUS:               ID:20151029103747     3
 2015-10-29-1037-47M.COL___319                                                 6
 STAT SP IPHASW D HRMM SECON CODA AMPLIT PERI AZIMU VELO AIN AR TRES W  DIS CAZ7
 BAR2 EZ EP       1038 24.88                             168    0.2310 27.6 195 
 BAR2 EZ ES       1038 39.31                             168   -0.2510 27.6 195 
 BAR2 EZ I        1038 40.90        10.2 0.34            165           27.6 195 
 BRR  HZ EP       1038 26.16                             151   -0.0410 72.3 295 
 BRR  HN ES       1038 43.05                             151    0.7310 72.3 295 
 BRR  HZ I        1038 48.66        16.2 0.32            146           72.3 295 
 PAM  EZ EP       1038 27.20                             151    0.2710 72.6  40 
 PAM  EN ES       1038 43.90                             151    0.2910 72.6  40 
 PAM  EZ I        1038 45.09         8.4 0.24            156           72.6  40 
 OCA  HZ EP       1038 32.73                             129   -0.42 9  157 352 
 OCA  HN ES       1038 53.69                             129   -0.99 9  157 352 
 OCA  HZ I        1038 56.96        18.8 0.18            130            157 352 
 SPBC HZ EP       1038 33.97                             127   -0.15 9  168 219 
 SPBC HN ES       1038 56.30                             127   -0.10 9  168 219 
 SPBC HZ I        1039  3.10        16.4 0.24            127            168 219 
 ZAR  HZ EP       1038 38.81                             121    1.00 8  206 291 
 ZAR  HN ES       1039  2.63                             121   -0.35 8  206 291 
 ZAR  HZ I        1039  7.37        10.6 0.39            120            206 291 
 NOR  HZ EP       1038 41.96                             117    0.48 8  239 234 
 NOR  HN ES       1039  9.06                             117   -0.45 8  239 234 
 NOR  HZ I        1039 16.05         6.0 0.36            117            239 234 
 CHI  HZ EP       1038 43.33                             116   -0.11 8  253 196 
 CHI  HN ES       1039 12.49                             116   -0.51 8  253 196 
 CHI  HZ I        1039 18.23         3.7 0.26            117            253 196 
 HEL  HN ES   4   1039 20.33                             113    2.89 0  276 255 
 HEL  HZ I        1039 23.09         6.0 0.32            113            276 255 
 GUY2CHZ EP   4   1038 50.48                             111    1.04 0  306 235 
 GUY2CHN ES       1039 23.82                             111    0.13 7  306 235 
 GUY2CHZ I        1039 32.70         4.6 0.46                           306 235 
 MON  HN ES   4   1039 29.83                             108   -2.61 0  354 308 
 MON  HZ I        1039 47.05         2.8 0.68            108            354 308 
                                                                                
