 2016  429 1904 46.1 L   6.828 -73.197136.9  RSN  4 0.2 1.5LRSN                1
 GAP=147        0.66       3.9     3.7  5.6 -0.4579E+01  0.6120E+01 -0.2088E+01E
 Epicentro: ZAPATOCA - SANTANDER                                               3
 ACTION:UPD 16-05-05 14:25 OP:rebc STATUS:               ID:20160429190446 L   I
 OLDACT:REG 16-04-29 20:19 OP:cara STATUS:               ID:20160429185749     3
 2016-04-29-1857-49M.COL___259                                                 6
 STAT SP IPHASW D HRMM SECON CODA AMPLIT PERI AZIMU VELO AIN AR TRES W  DIS CAZ7
 BAR2 EZ IP       19 5  4.76                             169    0.0410 26.1 176 
 BAR2 EZ ES       19 5 18.85                             169   -0.3910 26.1 176 
 BAR2 EZ I        19 5 20.61         8.2 0.28            171           26.1 176 
 PAM  EZ EP       19 5  7.56                             149    0.0910 78.9  44 
 PAM  EN ES       19 5 24.26                             149    0.1210 78.9  44 
 PAM  EZ I        19 5 26.61         7.6 0.52            150           78.9  44 
 RUS  HZ EP       19 5  8.93                             141   -0.3310  104 173 
 RUS  HN ES       19 5 27.70                             141    0.3810  104 173 
 RUS  HZ I        19 5 28.39         4.9 0.24            144            104 173 
 PTB  HZ EP       19 5 11.86                             131   -0.03 9  143 257 
 PTB  HN ES       19 5 32.14                             131    0.13 9  143 257 
 PTB  HZ I        19 5 34.45         5.2 0.14            133            143 257 
                                                                                
