 2016 1129 1923 31.0 L   6.845 -73.165149.1  RSN  8 0.5 1.8LRSN                1
 GAP=141        1.25       4.9     6.2  7.3 -0.7803E+01  0.1003E+02  0.7547E+01E
 Epicentro: ZAPATOCA - SANTANDER                                               3
 ACTION:UPD 17-10-26 21:13 OP:lp   STATUS:               ID:20161129192331 L   I
 OLDACT:REG 16-11-29 21:45 OP:lv   STATUS:               ID:20161129191743     3
 2016-11-29-1918-00M.COL___348                                                 6
 STAT SP IPHASW D HRMM SECON CODA AMPLIT PERI AZIMU VELO AIN AR TRES W  DIS CAZ7
 BAR2 EZ EP       1923 50.95                             169   -0.1610 28.0 184 
 BAR2 EZ ES       1924  5.93                             169   -0.8810 28.0 184 
 BAR2 EZ I        1924  7.43        17.6 0.16            169           28.0 184 
 BRR  HZ EP       1923 52.63                             154    0.3710 67.1 296 
 BRR  HN ES       1924  9.80                             154    0.9310 67.1 296 
 PAM  EZ EP       1923 53.85                             152    0.4410 75.1  43 
 PAM  EN ES       1924 11.06                             152    0.1410 75.1  43 
 PAM  EZ I        1924 13.56         7.8 0.34            154           75.1  43 
 PTB  HZ EP       1923 58.10                             133   -0.03 9  147 257 
 PTB  HE ES       1924 18.62                             133   -0.69 9  147 257 
 PTB  HZ I        1924 23.34         5.3 0.23            133            147 257 
 NOR  HZ EP       1924  6.90                             119   -0.13 8  236 233 
 NOR  HN ES       1924 35.86                             119    0.71 8  236 233 
 NOR  HZ I        1924 37.35         5.6 0.16            120            236 233 
 CHI  HZ EP       1924  9.29                             117   -0.03 8  253 194 
 CHI  HN ES       1924 38.89                             117   -0.34 8  253 194 
 PRA  HZ EP       1924 25.30                             107    0.31 6  395 209 
 PRA  HN ES       1925  7.41                             107    0.28 6  395 209 
 PRA  HZ I        1925 11.69         2.9 0.30            108            395 209 
 SJC  HZ EP       1924 25.15                             106   -0.88 6  404 327 
 SJC  HN ES       1925  8.10                             106   -0.87 6  404 327 
                                                                                
