 2016  729 1449 18.0 L   6.754 -73.194148.3  RSN  4 0.4 1.6LRSN                1
 GAP=228        0.95      10.6    11.8  7.5  0.1045E+03  0.1187E+02 -0.6700E+00E
 Epicentro: VILLANUEVA - SANTANDER                                             3
 ACTION:UPD 17-03-29 16:56 OP:lp   STATUS:               ID:20160729144918 L   I
 OLDACT:REG 16-07-30 00:33 OP:ar   STATUS:               ID:20160729144659     3
 2016-07-29-1446-59S.COL___340                                                 6
 STAT SP IPHASW D HRMM SECON CODA AMPLIT PERI AZIMU VELO AIN AR TRES W  DIS CAZ7
 BAR2 EZ EP       1449 37.51                             173   -0.3310 18.0 176 
 BAR2 EZ ES       1449 52.99                             173   -0.3210 18.0 176 
 BAR2 EZ I        1449 53.70        17.3 0.30            164           18.0 176 
 BRR  HZ EP       1449 39.18                             154   -0.1310 69.2 304 
 BRR  HE ES       1449 56.52                             154    0.5810 69.2 304 
 RUS  HZ EP       1449 41.83                             146    0.1510 96.1 173 
 RUS  HN ES       1450  0.28                             146    0.1210 96.1 173 
 RUS  HZ I        1450  1.05         3.1 0.30            142           96.1 173 
 ZAR  HZ EP       1449 50.78                             123    0.48 9  201 294 
 ZAR  HN ES       1450 14.93                             123   -0.58 9  201 294 
 ZAR  HZ I        1450 22.12         4.3 0.19            121            201 294 
                                                                                
