 2015  729 1308 30.0 L   6.799 -73.060143.6  RSN  7 0.4 2.0LRSN                1
 GAP=246        0.77       4.3     5.6  5.3  0.1203E+02  0.1127E+02  0.5126E+01E
 Epicentro: LOS SANTOS - SANTANDER                                             3
 ACTION:UPD 15-09-08 21:51 OP:cam  STATUS:               ID:20150729130830 L   I
 OLDACT:ARG 15-07-29 19:51 OP:spq  STATUS:               ID:20150729130748     3
 2015-07-29-1307-48M.COL___340                                                 6
 STAT SP IPHASW D HRMM SECON CODA AMPLIT PERI AZIMU VELO AIN AR TRES W  DIS CAZ7
 BAR2 EZ EP       13 8 49.42                             169   -0.0610 26.5 211 
 BAR2 EZ ES       13 9  4.35                             169   -0.3010 26.5 211 
 BAR2 EZ I        13 9  6.96        27.4 0.24            162           26.5 211 
 BRR  HZ EP     D 13 8 51.21                             149   -0.2610 79.7 295 
 BRR  HN ES       13 9  8.60                             149    0.4210 79.7 295 
 BRR  HZ I        13 9  9.81        12.0 0.29            146           79.7 295 
 RUS  HZ EP       13 8 53.36                             143   -0.2010  100 181 
 RUS  HN ES       13 9 12.16                             143    0.2710  100 181 
 RUS  HZ I        13 9 14.72        10.7 0.36            142            100 181 
 ZAR  HZ EP       13 9  3.91                             121    0.64 8  213 291 
 ZAR  HN ES       13 9 28.79                             121   -0.40 8  213 291 
 ZAR  HZ I        13 9 34.22        11.3 0.44            120            213 291 
 CHI  HZ EP   2   13 9  7.27                             116   -0.63 4  251 197 
 CHI  HN ES   2   13 9 38.22                             116    0.80 4  251 197 
 HEL  HZ EP   2   13 9 11.51                             113    0.34 4  281 256 
 HEL  HN ES   2   13 9 42.63                             113   -0.62 4  281 256 
 HEL  HZ I        13 9 47.65         7.7 0.34            113            281 256 
 URE  HE ES   4   13 9 41.33                             112   -3.41 0  293 291 
 TOL  SZ EP       13 9 19.03                             108    0.05 6  350 226 
 TOL  SN ES       13 9 57.03                             108   -0.12 6  350 226 
 TOL  SZ I        1310  3.82         6.4 0.76            109            350 226 
                                                                                
