 2010  829 1218 49.4 L   6.795 -73.057137.1  RSN 12 0.5 2.2LRSN                1
 GAP=133        1.22       5.1     8.6  7.5 -0.3261E+01 -0.1861E+02 -0.4832E+01E
 Epicentro: LOS SANTOS - SANTANDER                                             3
 ACTION:UP  10-09-07 10:59 OP:vdl  STATUS:               ID:20100829121849 L   I
 2010-08-29-1214-27S.COL___120                                                 6
 STAT SP IPHASW D HRMM SECON CODA AMPLIT PERI AZIMU VELO SNR AR TRES W  DIS CAZ7
 BAR2 SZ EP       1219  8.17                             169     0.110   26 212 
 BAR2 SZ ES       1219 22.66                             169     0.010   26 212 
 BAR2 SZ I        1219 23.74        38.2 0.35                            26 212 
 BTL  SZ EP       1219  7.27                             168    -0.810   27 300 
 BTL  SZ ES   1   1219 22.12                                    -0.6 7   27 300 
 GIR2 SZ EP       1219  8.29                             165     0.110   35 334 
 GIR2 SZ ES   2   1219 23.18                             165     0.4 5   35 334 
 BRR  HZ EP       1219 10.14                             148    -0.110   80 296 
 BRR  HN ES       1219 26.91                             148     0.510   80 296 
 BRR  HZ I        1219 30.76        42.3 0.11                            80 296 
 RUS  HZ EP       1219 12.51                             142     0.210  100 182 
 RUS  HN ES   1   1219 30.06                             142    -0.1 7  100 182 
 RUS  HZ I        1219 32.15        18.6 0.33                           100 182 
 GUE  SZ EP       1219 14.33                             138     1.110  115   7 
 GRA  SZ EP   2   1219 14.03                             136     0.3 5  124  13 
 GRA  SZ I        1219 15.28        23.4 0.41                           124  13 
 OCA  SZ EP       1219 16.79                             127    -0.5 9  162 350 
 OCA  SZ ES   1   1219 38.61                             127    -0.4 7  162 350 
 OCA  SZ I        1219 39.77        42.0 0.54                           162 350 
 HEL  HN ES   2   1220  1.93                             112    -0.2 4  281 256 
 HEL  HZ I        1220  7.47         6.7 0.46                           281 256 
 RREF HN ES   2   1220 12.21                             109    -0.2 3  329 231 
 RREF HZ I        1220 16.17         7.4 0.24                           329 231 
 SDV  BZ EP       1219 38.04                             107    -0.3 6  353  49 
 PRA  HZ EP   1   1219 43.18                             105     0.0 4  396 211 
 PRA  HN ES   2   1220 25.64                             105     0.5 3  396 211 
 PRA  HZ I        1220 28.92         6.0 0.28                           396 211 
                                                                                
