 2014 1229 1532 14.1 L   6.796 -73.142139.8  RSN  5 0.5 1.7LRSN                1
 GAP=238        1.34      10.0     9.4  9.8  0.5949E+02  0.1082E+02 -0.9674E+01E
 Epicentro: LOS SANTOS - SANTANDER                                             3
 ACTION:UPD 15-02-10 17:08 OP:nd   STATUS:               ID:20141229153214 L   I
 OLDACT:UP  14-12-29 21:41 OP:cam  STATUS:               ID:20141229152819     3
 OLDACT:REG 14-12-29 20:26 OP:cam  STATUS:               ID:20141229152819     3
 2014-12-29-1528-19M.COL___280                                                 6
 STAT SP IPHASW D HRMM SECON CODA AMPLIT PERI AZIMU VELO AIN AR TRES W  DIS CAZ7
 BAR2 EZ EP       1532 32.24                             170   -0.7910 23.0 191 
 BAR2 EZ ES       1532 47.20                             170   -0.5810 23.0 191 
 BAR2 EZ I        1532 49.27        10.7 0.16            170           23.0 191 
 BRR  HZ EP       1532 35.10                             151    0.4310 71.8 299 
 BRR  HE ES       1532 51.26                             151    0.5710 71.8 299 
 BRR  HZ I        1532 52.57         6.7 0.30            150           71.8 299 
 RUS  HZ EP       1532 37.14                             143   -0.1210  100 176 
 RUS  HN ES       1532 56.06                             143    0.7610  100 176 
 RUS  HZ I        1532 56.57         6.3 0.22            144            100 176 
 PTB  HZ EP       1532 40.43                             130   -0.21 9  148 259 
 PTB  HN ES       1533  1.00                             130   -0.33 9  148 259 
 PTB  HZ I        1533  2.84         7.4 0.36            130            148 259 
 ZAR  HZ EP       1532 46.85                             121    0.60 9  205 292 
 ZAR  HN ES       1533 10.98                             121   -0.33 9  205 292 
 ZAR  HZ I        1533 17.73         7.9 0.26            121            205 292 
                                                                                
