 2015 1229 1548 49.3 L   6.839 -73.142140.0  RSN  9 0.5 2.0LRSN                1
 GAP=202        0.71       4.1     7.6  7.7  0.6883E-01  0.1089E+02  0.4841E+01E
 Epicentro: LOS SANTOS - SANTANDER                                             3
 ACTION:UPD 16-02-04 15:08 OP:cam  STATUS:               ID:20151229154849 L   I
 OLDACT:DUP 15-12-29 23:42 OP:dnl  STATUS:               ID:20151229153752d    3
 OLDACT:DUP 15-12-29 23:33 OP:dnl  STATUS:               ID:20151229153751d    3
 OLDACT:DUP 15-12-29 23:20 OP:dnl  STATUS:               ID:20151229153750d    3
 OLDACT:REG 15-12-29 20:45 OP:dnl  STATUS:               ID:20151229153749     3
 2015-12-29-1537-49M.COL___340                                                 6
 STAT SP IPHASW D HRMM SECON CODA AMPLIT PERI AZIMU VELO AIN AR TRES W  DIS CAZ7
 BAR2 EZ EP   2   1549  8.48                             168    0.11 9 27.7 189 
 BAR2 EZ ES   2   1549 22.22                             168   -1.00 9 27.7 189 
 BAR2 EZ I        1549 24.85        23.1 0.22            166           27.7 189 
 BRR  HZ EP   1   1549 10.50                             152    0.7313 69.6 295 
 BRR  HN ES   2   1549 25.74                             152    0.03 9 69.6 295 
 RUS  HZ EP   2   1549 13.15                             141    0.30 9  105 176 
 RUS  HE ES   2   1549 31.55                             141    0.36 9  105 176 
 RUS  HZ I        1549 32.32        11.4 0.32            141            105 176 
 PTB  HZ EP   2   1549 15.10                             130   -0.86 8  149 257 
 PTB  HN ES   2   1549 36.52                             130   -0.20 8  149 257 
 PTB  HZ I        1549 38.43        13.0 0.21            128            149 257 
 SPBC HZ EP   2   1549 17.83                             127    0.08 8  167 218 
 SPBC HN ES   2   1549 40.42                             127    0.51 8  167 218 
 SPBC HZ I        1549 44.16        13.1 0.10            125            167 218 
 NOR  HZ EP   2   1549 24.69                             117   -0.36 7  238 234 
 NOR  HE ES   2   1549 52.73                             117   -0.17 7  238 234 
 NOR  HZ I        1549 56.07         7.8 0.16            116            238 234 
 SML  HZ EP   2   1549 24.78                             116   -0.45 7  240 335 
 SML  HE ES   2   1549 53.18                             116   -0.05 7  240 335 
 SML  HZ I        1549 57.90        13.0 0.08            116            240 335 
 CHI  HZ EP   2   1549 26.79                             115   -0.40 7  253 195 
 CHI  HN ES   2   1549 55.69                             115   -1.03 7  253 195 
 CHI  HZ I        1549 59.40         3.1 0.50            115            253 195 
 PRA  HZ EP   2   1549 42.67                             105   -0.46 5  396 209 
 PRA  HE ES       1550 25.61                             105    0.5210  396 209 
 PRA  HZ I        1550 31.87         2.9 0.17            105            396 209 
                                                                                
