 2012 1029 1801 42.3 L   6.740 -73.127149.8  RSN  6 0.3 2.3LRSN                1
 GAP=142        0.66       3.7     3.9  6.0  0.3252E+01  0.5835E+01 -0.2679E+00E
 Epicentro: JORDAN - SANTANDER                                                 3
 ACTION:UPD 12-11-22 17:06 OP:ep   STATUS:               ID:20121029180142 L   I
 2012-10-29-1800-00M.COL___231                                                 6
 STAT SP IPHASW D HRMM SECON CODA AMPLIT PERI AZIMU VELO AIN AR TRES W  DIS CAZ7
 BAR2 SZ EP   1   18 2  2.56                             173    0.20 7 17.4 201 
 BAR2 SZ ES   2   18 2 17.62                             173   -0.35 5 17.4 201 
 BAR2 SZ I        18 2 18.37        50.8 0.22                          17.4 201 
 GIR2 SZ EP   1   18 2  2.70                             165    0.00 7 38.2 349 
 BRR  HZ EP   1   18 2  4.50                             152    0.28 7 76.3 302 
 BRR  HN ES       18 2 21.69                             152    0.4010 76.3 302 
 PAM  SZ EP   1   18 2  5.57                             150    0.34 7 81.4  35 
 PAM  SN ES       18 2 22.80                             150   -0.2810 81.4  35 
 PAM  SN I        18 2 24.10        24.4 0.50                          81.4  35 
 RUS  HZ EP   1   18 2  6.13                             147    0.10 7 93.8 177 
 RUS  HN ES       18 2 24.37                             147   -0.1310 93.8 177 
 RUS  HN I        18 2 26.09        44.7 0.32                          93.8 177 
 ZAR  HZ EP   1   18 2 14.94                             123   -0.58 6  209 294 
 ZAR  HN ES       18 2 41.13                             123   -0.26 8  209 294 
 ZAR  HN I        18 2 49.34        22.8 0.14                           209 294 
                                                                                
