 2012 1029 1956 59.1 L   6.820 -73.115143.6  RSN 14 0.4 2.8LRSN                1
 GAP= 67        0.85       2.7     3.5  5.3 -0.3623E+00  0.4954E+01  0.4634E+01E
 Epicentro: LOS SANTOS - SANTANDER                                             3
 ACTION:UPD 12-11-22 17:06 OP:ep   STATUS:               ID:20121029195659 L   I
 2012-10-29-1950-00M.COL___231                                                 6
 STAT SP IPHASW D HRMM SECON CODA AMPLIT PERI AZIMU VELO AIN AR TRES W  DIS CAZ7
 BAR2 SZ EP       1957 18.36                             169   -0.2210 26.2 196 
 BAR2 SZ ES   2   1957 33.31                             169   -0.43 5 26.2 196 
 BAR2 SZ I        1957 34.44       181.6 0.16                          26.2 196 
 BRR  HZ EP       1957 20.26                             151    0.0810 73.2 296 
 BRR  HN ES       1957 37.18                             151    0.6010 73.2 296 
 BRR  HN I        1957 37.64       295.8 0.18                          73.2 296 
 PAM  SZ EP   1   1957 21.28                             152    0.37 7 73.6  39 
 PAM  SN ES       1957 37.96                             152    0.0810 73.6  39 
 PAM  SN I        1957 39.27       144.7 0.48                          73.6  39 
 RUS  HZ EP   1   1957 22.22                             143   -0.62 7  103 178 
 RUS  HN ES       1957 40.91                             143   -0.4010  103 178 
 RUS  HN I        1957 42.94        28.3 0.24                           103 178 
 TAM  HZ EP   1   1957 26.72                             131    0.31 7  152 106 
 TAM  HE ES   2   1957 48.02                             131    0.35 5  152 106 
 OCA  HZ EP   1   1957 26.98                             129   -0.14 7  159 352 
 OCA  HE ES       1957 48.57                             129   -0.38 9  159 352 
 OCA  HN I        1957 51.62       209.6 0.24                           159 352 
 YOP  SZ EP   1   1957 29.09                             126    0.00 7  179 155 
 ZAR  HZ EP   1   1957 31.27                             122   -0.42 6  206 291 
 ZAR  HN ES   2   1957 57.53                             122    0.46 4  206 291 
 ZAR  HN I        1958  5.54        66.5 0.26                           206 291 
 CHI  HZ EP   1   1957 36.61                             116   -0.45 6  252 196 
 CHI  HN ES       1958  7.26                             116    0.64 8  252 196 
 CHI  HN I        1958 11.50        22.9 0.32                           252 196 
 ROSC BZ EP   1   1957 37.82                             116    0.27 6  256 211 
 ROSC BN ES   2   1958  7.51                             116    0.01 4  256 211 
 ROSC BZ I        1958 15.78        40.1 0.40                           256 211 
 HEL  HZ EP   1   1957 39.97                             114    0.30 6  276 256 
 HEL  HN ES       1958 10.55                             114   -0.73 7  276 256 
 HEL  HN I        1958 17.43        29.8 0.30                           276 256 
 GUY  SZ EP   1   1957 44.21                             111    0.84 5  308 235 
 RREF HZ EP   1   1957 46.55                             110    0.90 5  326 229 
 RREF HN ES   2   1958 22.11                             110    0.19 3  326 229 
 PRA  HZ EP   1   1957 52.19                             106   -0.82 4  396 210 
 PRA  HN ES       1958 35.02                             106   -0.01 6  396 210 
 PRA  HN I        1958 38.61        16.8 0.68                           396 210 
                                                                                
