 2016  829 1205 33.4 L   6.820 -73.156144.9  RSN 10 0.3 1.8LRSN                1
 GAP=134        0.81       2.9     3.3  4.7 -0.1549E+00  0.3864E+01  0.2479E+01E
 Epicentro: LOS SANTOS - SANTANDER                                             3
 ACTION:UPD 16-10-29 15:40 OP:rebc STATUS:               ID:20160829120533 L   I
 OLDACT:UP  16-08-29 23:09 OP:edw  STATUS:               ID:20160829115729     3
 OLDACT:REG 16-08-29 19:47 OP:edw  STATUS:               ID:20160829115729     3
 2016-08-29-1158-00M.COL___358                                                 6
 STAT SP IPHASW D HRMM SECON CODA AMPLIT PERI AZIMU VELO AIN AR TRES W  DIS CAZ7
 BAR2 EZ EP     C 12 5 52.72                             170   -0.2210 25.4 186 
 BAR2 EZ ES       12 6  7.97                             170   -0.2310 25.4 186 
 BAR2 EZ I        12 6  9.99        13.0 0.16                          25.4 186 
 BRR  HZ EP       12 5 54.55                             153    0.2410 69.1 297 
 BRR  HN ES       12 6 11.28                             153    0.6510 69.1 297 
 BRR  HZ I        12 6 14.11         8.9 0.23                          69.1 297 
 PAM  EZ EP       12 5 55.52                             151    0.0810 76.5  41 
 PAM  EN ES       12 6 12.60                             151   -0.0510 76.5  41 
 PAM  EZ I        12 6 14.01         9.7 0.15                          76.5  41 
 RUS  HZ EP       12 5 57.24                             143    0.0410  103 175 
 RUS  HN ES       12 6 15.61                             143   -0.1810  103 175 
 RUS  HZ I        12 6 17.58         5.1 0.38                           103 175 
 PTB  HZ EP       12 5 59.76                             132   -0.44 9  147 258 
 PTB  HN ES       12 6 20.28                             132   -0.85 9  147 258 
 PTB  HZ I        12 6 22.19         6.6 0.14                           147 258 
 SPBC HZ EP       12 6  1.84                             129   -0.06 9  164 218 
 SPBC HN ES       12 6 24.59                             129    0.45 9  164 218 
 SPBC HZ I        12 6 29.02         9.3 0.26                           164 218 
 ZAR  HZ EP       12 6  5.72                             122    0.16 9  202 292 
 ZAR  HN ES       12 6 30.68                             122    0.02 9  202 292 
 ZAR  HZ I        12 6 33.71         5.0 0.16                           202 292 
 NOR  HZ EP   2   12 6  9.02                             118   -0.06 4  235 234 
 NOR  HN ES   2   12 6 37.08                             118    0.14 4  235 234 
 NOR  HZ I        12 6 40.63         7.3 0.38                           235 234 
 CHI  HZ EP       12 6 11.25                             117    0.03 8  250 195 
 CHI  HN ES       12 6 41.11                             117    0.37 8  250 195 
 GUY2CHZ EP   2   12 6 17.22                             112    0.25 4  302 234 
 GUY2CHN ES   2   12 6 51.24                             112    0.26 4  302 234 
 GUY2CHZ I        12 6 59.21         4.6 0.32                           302 234 
 SJC  HZ EP   4   12 6 28.06                             106   -0.55 0  407 327 
 SJC  HN ES   4   12 7  9.57                             106   -2.12 0  407 327 
                                                                                
