 2016  429 1621 39.8 L   6.794 -73.137147.8  RSN  8 0.2 1.9LRSN                1
 GAP=138        0.62       2.7     2.7  4.0 -0.1813E+01  0.4491E+01 -0.3613E+00E
 Epicentro: LOS SANTOS - SANTANDER                                             3
 ACTION:UPD 16-05-05 14:25 OP:rebc STATUS:               ID:20160429162139 L   I
 OLDACT:REG 16-04-29 20:09 OP:cara STATUS:               ID:20160429161746     3
 2016-04-29-1617-46M.COL___313                                                 6
 STAT SP IPHASW D HRMM SECON CODA AMPLIT PERI AZIMU VELO AIN AR TRES W  DIS CAZ7
 BAR2 EZ IP       1621 59.55                             171   -0.0810 22.9 193 
 BAR2 EZ ES       1622 15.02                             171   -0.1010 22.9 193 
 BAR2 EZ I        1622 16.26        13.6 0.46            171           22.9 193 
 PAM  EZ IP       1622  2.43                             151    0.2410 77.3  39 
 PAM  EN ES       1622 19.74                             151    0.0610 77.3  39 
 PAM  EZ I        1622 21.69        10.2 0.56            155           77.3  39 
 RUS  HZ EP       1622  3.40                             144   -0.2610 99.9 177 
 RUS  HN ES       1622 22.53                             144    0.2210 99.9 177 
 RUS  HZ I        1622 25.53         4.6 0.20            149           99.9 177 
 PTB  HZ EP       1622  6.59                             132   -0.38 9  149 259 
 PTB  HN ES       1622 27.90                             132   -0.29 9  149 259 
 PTB  HZ I        1622 34.89        13.4 0.40            133            149 259 
 SPBC HZ IP       1622  8.55                             129    0.12 9  163 219 
 SPBC HE ES       1622 30.62                             129   -0.16 9  163 219 
 SPBC HZ I        1622 33.16        15.7 0.22            132            163 219 
 ZAR  HZ IP       1622 12.21                             123   -0.24 9  205 292 
 ZAR  HN ES       1622 38.31                             123    0.35 9  205 292 
 ZAR  HZ I        1622 45.81         9.4 0.28            124            205 292 
 NOR  HZ EP       1622 15.50                             119   -0.15 8  235 235 
 NOR  HE ES       1622 43.85                             119    0.20 8  235 235 
 NOR  HZ I        1622 46.76         6.9 0.16            121            235 235 
 GUY2CHZ EP       1622 23.88                             113    0.37 7  302 235 
 GUY2CHN ES       1622 58.06                             113    0.43 7  302 235 
 GUY2CHZ I        1623  4.51         4.3 0.30                           302 235 
                                                                                
