 2017  929 1114 45.4 L   6.767 -73.134147.1  RSN  6 0.2 1.4LRSN                1
 GAP=140        0.54       2.5     2.7  3.9  0.2884E-01  0.3331E+01  0.1572E+01E
 Epicentro: LOS SANTOS - SANTANDER                                             3
 ACTION:UPD 17-10-05 19:17 OP:rebc STATUS:               ID:20170929111445 L   I
 OLDACT:DUP 17-09-29 21:43 OP:osc  STATUS:               ID:20170929110747d    3
 2017-09-29-1108-00M.COL___434                                                 6
 STAT SP IPHASW D HRMM SECON CODA AMPLIT PERI AZIMU VELO AIN AR TRES W  DIS CAZ7
 BAR2 EZ EP       1115  5.05                             172   -0.0810 20.0 196 
 BAR2 EZ ES       1115 20.58                             172    0.0710 20.0 196 
 BAR2 EZ I        1115 22.73         7.2 0.26            173           20.0 196 
 BRR  HZ EP       1115  7.09                             152    0.2310 74.2 301 
 BRR  HN ES       1115 23.69                             152    0.0910 74.2 301 
 PAM  EZ EP       1115  8.02                             150    0.1410 79.5  37 
 PAM  EN ES       1115 25.21                             150   -0.2010 79.5  37 
 PAM  EZ I        1115 28.16         3.0 0.32            152           79.5  37 
 RUS  HZ EP       1115  9.20                             145    0.1810 96.8 177 
 RUS  HN ES       1115 27.27                             145   -0.1610 96.8 177 
 RUS  HZ I        1115 29.06         2.7 0.32            148           96.8 177 
 ZAR  HN ES       1115 43.58                             122   -0.21 8  207 293 
 ZAR  HZ I        1115 48.37         3.6 0.29            123            207 293 
 GUY2CHZ EP       1115 28.46                             113   -0.50 7  300 235 
 GUY2CHE ES       1116  3.20                             113    0.27 7  300 235 
 GUY2CHZ I        1116 11.39         1.5 0.62                           300 235 
                                                                                
