 2016  929 1015  2.0 L   6.786 -73.123146.4  RSN 11 0.4 2.0LRSN                1
 GAP=122        0.90       2.8     3.7  5.0  0.1871E+00  0.2018E+01  0.2949E+01E
 Epicentro: LOS SANTOS - SANTANDER                                             3
 ACTION:UPD 17-08-17 21:17 OP:lp   STATUS:               ID:20160929101502 L   I
 OLDACT:UP  16-09-29 22:31 OP:edw  STATUS:               ID:20160929100744     3
 OLDACT:UP  16-09-29 22:26 OP:edw  STATUS:               ID:20160929100744     3
 OLDACT:REG 16-09-29 19:29 OP:edw  STATUS:               ID:20160929100744     3
 2016-09-29-1008-00M.COL___372                                                 6
 STAT SP IPHASW D HRMM SECON CODA AMPLIT PERI AZIMU VELO AIN AR TRES W  DIS CAZ7
 BAR2 EZ EP       1015 21.67                             171    0.0210 22.4 197 
 BAR2 EZ ES       1015 37.24                             171    0.2310 22.4 197 
 BAR2 EZ I        1015 39.35        20.4 0.36            169           22.4 197 
 BRR  HZ EP       1015 23.53                             152    0.1810 74.2 299 
 BRR  HN ES       1015 40.18                             152    0.1510 74.2 299 
 BRR  HZ I        1015 44.35        10.9 0.12            151           74.2 299 
 PAM  EZ IP     D 1015 24.47                             151    0.2410 77.0  37 
 PAM  EN ES       1015 41.65                             151    0.0610 77.0  37 
 PAM  EZ I        1015 44.02        16.6 0.64            155           77.0  37 
 RUS  HZ EP       1015 25.71                             144    0.0610 98.9 177 
 RUS  HN ES       1015 44.01                             144   -0.1210 98.9 177 
 RUS  HZ I        1015 45.31        10.3 0.28            146           98.9 177 
 PTB  HZ EP       1015 29.40                             132    0.22 9  150 260 
 PTB  HN ES       1015 49.46                             132   -0.95 9  150 260 
 PTB  HZ I        1015 54.21         9.0 0.12            132            150 260 
 OCA  HZ EP       1015 30.72                             129    0.22 9  162 352 
 OCA  HN ES       1015 52.10                             129   -0.66 9  162 352 
 OCA  HZ I        1015 54.14        20.6 0.32            132            162 352 
 SPBC HZ EP       1015 30.72                             129    0.18 9  164 220 
 SPBC HN ES   4   1015 52.40                             129   -0.44 0  164 220 
 SPBC HZ I        1015 55.03        15.0 0.32            130            164 220 
 ZAR  HZ EP   4   1015 36.07                             122    1.32 0  207 292 
 ZAR  HN ES       1016  0.53                             122    0.20 8  207 292 
 ZAR  HZ I        1016  6.09        10.9 0.09            123            207 292 
 CHI  HZ EP       1015 39.47                             117   -0.13 8  248 196 
 CHI  HN ES       1016  9.38                             117    0.42 8  248 196 
 CHI  HZ I        1016 15.07         4.5 0.28            119            248 196 
 PTGC HZ EP       1015 44.73                             112   -0.84 7  306 159 
 PTGC HN ES   4   1016 17.90                             112   -1.69 0  306 159 
 CBOC HZ EP   2   1015 49.86                             110    0.74 3  336 252 
 CBOC HN ES   2   1016 26.36                             110    0.45 3  336 252 
 ANIL HZ EP   4   1015 53.60                             108    1.74 0  358 225 
 ANIL HN ES   4   1016 34.95                             108    4.16 0  358 225 
 SJC  HZ EP   4   1015 56.37                             106   -1.49 0  412 327 
 SJC  HN ES   4   1016 37.55                             106   -3.91 0  412 327 
                                                                                
