 2010 1029 1840 26.5 L   6.759 -73.058146.6  RSN  5 0.5 1.8LRSN                1
 GAP=234        1.17      13.1    14.4 15.4  0.5365E+02  0.6318E+02  0.3647E+01E
 Epicentro: LOS SANTOS - SANTANDER                                             3
 ACTION:UP  11-02-18 11:13 OP:tino STATUS:               ID:20101029184026 L   I
 2010-10-29-1838-41S.COL___128                                                 6
 STAT SP IPHASW D HRMM SECON CODA AMPLIT PERI AZIMU VELO SNR AR TRES W  DIS CAZ7
 BAR2 SZ EP   1   1840 45.91                             172    -0.3 7   23 217 
 BAR2 SZ ES   2   1841  1.81                             172     0.2 5   23 217 
 BAR2 SZ I        1841  2.60        13.7 0.43                            23 217 
 BTL  SZ IP     C 1840 47.24                             168     0.910   29 307 
 BRR  HZ IP     D 1840 47.83                             149    -0.610   82 298 
 BRR  HZ I        1840 48.02        15.7 0.15                            82 298 
 BRR  HE ES   2   1841  5.25                             149    -0.2 5   82 298 
 RUS  HZ EP   1   1840 49.85                             146    -0.2 7   96 182 
 RUS  HN ES   2   1841  7.95                             146    -0.4 5   96 182 
 RUS  HZ I        1841 10.19         6.5 0.48                            96 182 
 HEL  HZ EP   1   1841  7.93                             114     0.2 6  280 257 
 HEL  HN ES   2   1841 40.03                             114     0.2 4  280 257 
 HEL  HZ I        1841 44.74         3.3 0.48                           280 257 
                                                                                
