 2015  529 1546 15.5 L   6.783 -73.113141.3  RSN 11 0.3 2.1LRSN                1
 GAP=142        0.77       2.9     3.5  5.0 -0.8682E+00  0.5505E+01  0.2307E+01E
 Epicentro: LOS SANTOS - SANTANDER                                             3
 ACTION:UPD 15-09-10 22:07 OP:cam  STATUS:               ID:20150529154615 L   I
 OLDACT:REG 15-05-30 00:02 OP:spq  STATUS:               ID:20150529153747     3
 2015-05-29-1537-47M.COL___315                                                 6
 STAT SP IPHASW D HRMM SECON CODA AMPLIT PERI AZIMU VELO AIN AR TRES W  DIS CAZ7
 BAR2 EZ EP     C 1546 34.29                             171   -0.2510 22.4 200 
 BAR2 EZ ES   1   1546 49.27                             171   -0.15 7 22.4 200 
 BAR2 EZ I        1546 50.74        27.1 0.46            169           22.4 200 
 BRR  HZ EP     C 1546 36.05                             150   -0.3310 75.3 298 
 BRR  HN ES       1546 53.02                             150    0.3310 75.3 298 
 BRR  HZ I        1546 57.24        25.7 0.14            149           75.3 298 
 PAM  SZ EP       1546 36.95                             150   -0.2210 76.6  37 
 PAM  SN ES       1546 54.07                             150   -0.0210 76.6  37 
 PAM  SZ I        1546 56.45        10.2 0.39            154           76.6  37 
 RUS  HZ EP       1546 38.76                             144    0.1310 98.5 178 
 RUS  HN ES       1546 57.11                             144    0.4110 98.5 178 
 RUS  HZ I        1546 58.39        16.0 0.22            146           98.5 178 
 OCA  HZ EP   4   1546 42.10                             128   -1.56 0  163 352 
 OCA  HE ES   4   1547  3.85                             128   -1.80 0  163 352 
 OCA  HZ I        1547  8.69        39.2 0.30            130            163 352 
 SPBC HZ EP   1   1546 43.57                             128   -0.14 7  164 220 
 SPBC HN ES       1547  5.25                             128   -0.49 9  164 220 
 SPBC HZ I        1547  9.18        16.0 0.26            129            164 220 
 ZAR  HZ EP       1546 48.51                             121    0.46 8  208 292 
 ZAR  HN ES       1547 13.64                             121    0.17 8  208 292 
 ZAR  HZ I        1547 19.29        14.9 0.28            122            208 292 
 NOR  HZ EP       1546 50.77                             117   -0.38 8  237 235 
 NOR  HE ES       1547 18.70                             117   -0.27 8  237 235 
 NOR  HZ I        1547 24.15         7.2 0.30            119            237 235 
 SML  HE ES   4   1547 18.78                             116   -2.08 0  247 335 
 SML  HZ I        1547 21.93        15.5 0.15            118            247 335 
 CHI  HZ EP   1   1546 53.02                             116    0.19 6  248 196 
 CHI  HN ES   1   1547 22.52                             116    0.55 6  248 196 
 CHI  HZ I        1547 25.75         5.2 0.64            118            248 196 
 URE  HZ EP   4   1546 58.65                             112    1.87 0  288 292 
 GUY2CHZ EP   1   1546 59.83                             111    0.74 5  303 235 
 GUY2CHN ES   4   1547 35.11                             111    2.00 0  303 235 
 GUY2CHZ I        1547 40.87         5.5 0.52                           303 235 
                                                                                
