 2017  729 1607 59.6 L   6.778 -73.140145.1  RSN 12 0.5 2.1LRSN                1
 GAP= 98        1.27       4.3     3.9  6.6  0.3021E+01  0.1204E+01  0.6023E+01E
 Epicentro: LOS SANTOS - SANTANDER                                             3
 ACTION:UPD 17-08-30 15:38 OP:rebc STATUS:               ID:20170729160759 L   I
 OLDACT:UP  17-07-29 23:03 OP:ar   STATUS:               ID:20170729155738     3
 OLDACT:REG 17-07-29 20:07 OP:ar   STATUS:               ID:20170729155738     3
 2017-07-29-1558-00M.COL___398                                                 6
 STAT SP IPHASW D HRMM SECON CODA AMPLIT PERI AZIMU VELO AIN AR TRES W  DIS CAZ7
 BAR2 EZ EP       16 8 18.94                             171   -0.1510 21.0 193 
 BAR2 EZ ES       16 8 33.73                             171   -0.5810 21.0 193 
 BAR2 EZ I        16 8 35.03        47.4 0.28            170           21.0 193 
 BRR  HZ EP       16 8 20.77                             152    0.0110 72.9 300 
 BRR  HE ES       16 8 37.97                             152    0.6910 72.9 300 
 BRR  HZ I        16 8 40.93        31.4 0.26            151           72.9 300 
 PAM  EZ EP       16 8 22.29                             150    0.4710 78.9  38 
 PAM  EN ES       16 8 38.86                             150   -0.3110 78.9  38 
 PAM  EZ I        16 8 41.02        42.8 0.54            154           78.9  38 
 RUS  HZ EP       16 8 23.21                             144    0.1210 98.1 176 
 RUS  HN ES       16 8 41.74                             144    0.3110 98.1 176 
 RUS  HZ I        16 8 42.49        11.6 0.28            145           98.1 176 
 PTB  HZ EP       16 8 25.77                             132   -0.74 9  148 260 
 PTB  HN ES       16 8 46.60                             132   -0.91 9  148 260 
 PTB  HZ I        16 8 53.80        13.8 0.42            132            148 260 
 TAM  HZ EP       16 8 27.38                             131    0.28 9  154 104 
 SPBC HZ EP       16 8 27.82                             129   -0.06 9  162 220 
 SPBC HN ES       16 8 50.04                             129    0.08 9  162 220 
 SPBC HZ I        16 8 55.52        15.9 0.10            130            162 220 
 YPLC HZ EP       16 8 29.50                             127    0.41 9  174 151 
 YPLC HN ES       16 8 52.60                             127    0.49 9  174 151 
 YPLC HZ I        16 8 56.12        14.5 0.28            129            174 151 
 ZAR  HZ EP       16 8 32.17                             122    0.03 8  206 293 
 ZAR  HN ES       16 8 57.48                             122   -0.05 8  206 293 
 ZAR  HZ I        16 9  2.89        19.4 0.28            123            206 293 
 NOR  HZ EP       16 8 35.66                             118    0.49 8  234 235 
 NOR  HN ES       16 9  3.79                             118    0.86 8  234 235 
 NOR  HZ I        16 9  6.92         5.8 0.16            119            234 235 
 GUY2CHZ EP   4   16 8 45.40                             112    2.35 0  300 235 
 GUY2CHE ES   4   16 9 20.68                             112    3.72 0  300 235 
 GUY2CHZ I        16 9 24.60         3.1 0.26                           300 235 
 PTGC HZ EP       16 8 42.13                             112   -0.99 7  306 159 
 PTGC HN ES       16 9 16.07                             112   -1.02 7  306 159 
                                                                                
