 2013  929 1947 31.9 L   6.775 -73.150146.0  RSN 12 0.5 2.0LRSN                1
 GAP=137        1.20       4.1     5.0  6.7 -0.1485E+01  0.9936E+01  0.4308E+01E
 Epicentro: LOS SANTOS - SANTANDER                                             3
 ACTION:UPD 13-10-22 09:26 OP:ep   STATUS:               ID:20130929194731 L   I
 OLDACT:REG 13-09-29 17:13 OP:jn   STATUS:               ID:20130929193959     3
 2013-09-29-1939-59M.COL___272                                                 6
 STAT SP IPHASW D HRMM SECON CODA AMPLIT PERI AZIMU VELO AIN AR TRES W  DIS CAZ7
 BAR2 SZ EP       1947 51.45                             172   -0.1010 20.5 190 
 BAR2 SZ ES       1948  6.69                             172   -0.1510 20.5 190 
 BAR2 SZ I        1948  8.28        23.0 0.46            169           20.5 190 
 BRR  HZ EP       1947 53.33                             152    0.1610 72.1 301 
 BRR  HN ES       1948 10.67                             152    0.9410 72.1 301 
 BRR  HZ I        1948 14.46        14.0 0.50            144           72.1 301 
 PAM  SZ EP       1947 54.27                             150   -0.0710 79.9  39 
 PAM  SN ES       1948 11.56                             150   -0.2410 79.9  39 
 PAM  SZ I        1948 13.66        18.9 0.56            148           79.9  39 
 RUS  HZ EP       1947 55.37                             145   -0.1510 97.8 176 
 RUS  HN ES       1948 14.17                             145    0.2610 97.8 176 
 RUS  HZ I        1948 15.78        13.1 0.34            142           97.8 176 
 PTB  HZ EP       1947 58.01                             132   -0.83 9  147 260 
 PTB  HN ES       1948 19.30                             132   -0.52 9  147 260 
 PTB  HZ I        1948 24.04        14.0 0.28            126            147 260 
 SPBC HN ES   1   1948 22.20                             130   -0.09 7  161 219 
 ZAR  HZ EP   1   1948  4.76                             122    0.29 6  205 293 
 ZAR  HN ES   1   1948 29.15                             122   -0.69 6  205 293 
 ZAR  HZ I        1948 35.50        12.6 0.34            116            205 293 
 NOR  HZ EP       1948  6.66                             119   -0.81 8  233 235 
 NOR  HN ES       1948 35.29                             119    0.11 8  233 235 
 NOR  HZ I        1948 39.74        10.8 0.20            114            233 235 
 CHI  HZ EP       1948  9.47                             118    0.12 8  246 195 
 CHI  HN ES       1948 38.60                             118    0.08 8  246 195 
 CHI  HZ I        1948 42.91         3.8 0.36            114            246 195 
 SML  HE ES   1   1948 37.87                             117    0.26 6  246 336 
 HEL  HZ EP   1   1948 12.86                             115    0.82 6  271 256 
 HEL  HZ I        1948 49.74         4.8 0.28            110            271 256 
 GUY2CHZ EP       1948 16.72                             113    1.38 7  299 235 
 GUY2CHZ I        1948 56.82         5.1 0.28                           299 235 
                                                                                
