 2015  929 1235 15.7 L   6.776 -73.133143.4  RSN 11 0.4 2.0LRSN                1
 GAP=139        0.96       3.4     4.0  5.6 -0.1058E+01  0.5792E+01 -0.1235E+01E
 Epicentro: LOS SANTOS - SANTANDER                                             3
 ACTION:UPD 15-10-28 16:29 OP:cam  STATUS:               ID:20150929123515 L   I
 OLDACT:REG 15-09-29 23:17 OP:ar   STATUS:               ID:20150929122749     3
 2015-09-29-1227-49M.COL___355                                                 6
 STAT SP IPHASW D HRMM SECON CODA AMPLIT PERI AZIMU VELO AIN AR TRES W  DIS CAZ7
 BAR2 EZ EP       1235 34.92                             171   -0.1310 21.0 195 
 BAR2 EZ ES       1235 50.54                             171    0.4410 21.0 195 
 BAR2 EZ I        1235 51.83        14.1 0.28            170           21.0 195 
 BRR  HZ EP       1235 36.98                             151    0.1910 73.7 300 
 BRR  HN ES       1235 53.52                             151    0.3210 73.7 300 
 BRR  HZ I        1235 57.47        17.7 0.30            150           73.7 300 
 PAM  EZ EP       1235 37.89                             150    0.1010 78.6  38 
 PAM  EN ES       1235 54.71                             150   -0.2710 78.6  38 
 PAM  EZ I        1235 56.64        29.4 0.54            154           78.6  38 
 RUS  HZ EP       1235 39.03                             144   -0.0310 97.8 177 
 RUS  HN ES       1235 57.13                             144   -0.1210 97.8 177 
 RUS  HZ I        1235 58.37         9.6 0.26            145           97.8 177 
 PTB  HZ EP       1235 42.98                             131    0.38 9  149 260 
 PTB  HN ES       1236  2.82                             131   -0.73 9  149 260 
 PTB  HZ I        1236  5.71        11.0 0.16            131            149 260 
 SPBC HZ EP       1235 44.28                             129    0.33 9  162 220 
 SPBC HN ES       1236  5.37                             129   -0.58 9  162 220 
 SPBC HZ I        1236 11.36        15.5 0.24            129            162 220 
 ZAR  HZ EP       1235 49.02                             121    0.74 8  206 293 
 ZAR  HN ES       1236 13.83                             121    0.18 8  206 293 
 ZAR  HZ I        1236 18.80        14.9 0.30            122            206 293 
 NOR  HN ES   2   1236 18.55                             118   -0.47 4  234 235 
 NOR  HZ I        1236 21.56         6.4 0.16            119            234 235 
 CHI  HZ EP   2   1235 53.08                             117    0.01 4  246 196 
 CHI  HN ES   2   1236 22.37                             117    0.19 4  246 196 
 CHI  HZ I        1236 26.69         3.2 0.50            118            246 196 
 SML  HZ EP       1235 51.66                             117   -0.91 8  247 335 
 SML  HE ES   2   1236 20.79                             117   -0.50 4  247 335 
 SML  HZ I        1236 22.59        12.3 0.32            118            247 335 
 GUY2CHZ EP   4   1236  1.39                             112    2.19 0  301 235 
 GUY2CHZ I        1236 30.85         6.0 0.32                           301 235 
 GUY2CHE ES   2   1236 33.30                             112    0.21 4  301 235 
                                                                                
