 2016  929 1753  1.8 L   6.020 -73.982 12.8  RSN  5 0.3 1.0LRSN                1
 GAP=140        0.83       2.2     1.9  4.8  0.2001E+00  0.2368E+01  0.4261E+00E
 Epicentro: LA BELLEZA - SANTANDER                                             3
 ACTION:UPD 17-08-17 21:17 OP:lp   STATUS:               ID:20160929175301 L   I
 OLDACT:UP  16-09-30 01:08 OP:edw  STATUS:               ID:20160929174743     3
 OLDACT:REG 16-09-29 20:38 OP:edw  STATUS:               ID:20160929174743     3
 2016-09-29-1748-00M.COL___348                                                 6
 STAT SP IPHASW D HRMM SECON CODA AMPLIT PERI AZIMU VELO AIN AR TRES W  DIS CAZ7
 SPBC HZ EP       1753  9.03                             103    0.0910 41.9 194 
 SPBC HN ES       1753 14.28                             103   -0.2710 41.9 194 
 SPBC HZ I        1753 19.07         9.6 0.10            110           41.9 194 
 PTB  HZ EP       1753 14.29                              97    0.0510 77.8 318 
 PTB  HN ES       1753 23.69                              97   -0.2910 77.8 318 
 PTB  HZ I        1753 24.10         8.3 0.14            102           77.8 318 
 RUS  HZ EP       1753 18.49                              95    0.3410  100  98 
 RUS  HN ES       1753 30.59                              95   -0.3410  100  98 
 RUS  HZ I        1753 31.68         1.6 0.16             99            100  98 
 NOR  HZ EP       1753 19.85                              95    0.6510  110 243 
 NOR  HN ES       1753 32.64                              95   -0.1710  110 243 
 NOR  HZ I        1753 33.10         5.7 0.20             98            110 243 
 GUY2CHZ EP       1753 29.14                              56    0.22 9  177 240 
 GUY2CHN ES       1753 49.83                              56   -0.28 9  177 240 
                                                                                
