 2011  529 1304 19.3 L   6.794 -73.025141.0  RSN  7 0.3 1.6LRSN                1
 GAP=170        0.63       4.5     8.0  9.1 -0.8908E+01 -0.2264E+02  0.7111E+01E
 Epicentro: CEPITA - SANTANDER                                                 3
 ACTION:UP  11-06-29 08:57 OP:tino STATUS:               ID:20110529130419 L   I
 2011-05-29-1303-08S.COL___113                                                 6
 STAT SP IPHASW D HRMM SECON CODA AMPLIT PERI AZIMU VELO SNR AR TRES W  DIS CAZ7
 BAR2 SZ EP   1   13 4 38.55                             168     0.1 7   28 218 
 BAR2 SZ I        13 4 38.95         7.5 0.12                            28 218 
 BRR  HZ EP   1   13 4 40.34                             147    -0.3 7   83 295 
 BRR  HZ I        13 4 40.78        11.6 0.19                            83 295 
 BRR  HE ES   1   13 4 57.57                             147     0.2 7   83 295 
 RUS  HZ EP   2   13 4 42.80                             143     0.3 5  100 184 
 RUS  HE ES   2   13 5  0.28                             143    -0.3 5  100 184 
 RUS  HZ I        13 5  4.03         3.6 0.29                           100 184 
 BRI  SZ EP   2   13 4 42.92                             141     0.5 5  105  14 
 GRA  SZ EP   2   13 4 44.27                             137     0.4 5  123  11 
 GRA  SZ ES   1   13 5  2.75                             137    -0.3 7  123  11 
 GRA  SZ I        13 5  5.12         6.4 0.29                           123  11 
 OCA  SZ EP   2   13 4 47.18                             128    -0.3 5  163 349 
 OCA  SZ I        13 5 13.83         6.6 0.21                           163 349 
 PRA  HZ EP   2   13 5 12.80                             105    -0.5 3  398 211 
                                                                                
