 2012 1129 1931  2.8 L   6.378 -73.631110.5  RSN  5 0.4 1.6LRSN                1
 GAP=111        0.84       7.1     4.1  9.7  0.4288E+01  0.1368E+02  0.1772E+02E
 Epicentro: SANTA HELENA DEL OPON - SANTANDER                                  3
 ACTION:UPD 12-12-05 15:37 OP:}ep  STATUS:               ID:20121129193102 L   I
 2012-11-29-1930-00M.COL___236                                                 6
 STAT SP IPHASW D HRMM SECON CODA AMPLIT PERI AZIMU VELO AIN AR TRES W  DIS CAZ7
 BAR2 SZ ES   1   1931 33.22                             152    0.54 7 55.0  64 
 BAR2 SZ I        1931 34.21        23.7 0.20                          55.0  64 
 RUS  HZ EP   1   1931 21.23                             142   -0.48 7 80.9 131 
 RUS  HE ES   1   1931 36.16                             142   -0.27 7 80.9 131 
 RUS  HE I        1931 37.32         7.9 0.20                          80.9 131 
 GIR2 SZ EP   2   1931 22.59                             138    0.54 5 91.4  32 
 PTB  HZ EP       1931 21.82                             137   -0.1910 93.1 281 
 PTB  HE ES       1931 36.71                             137   -0.2710 93.1 281 
 PTB  HZ I        1931 39.28         9.0 0.18                          93.1 281 
 NOR  HZ EP   1   1931 29.17                             119    0.24 7  164 237 
 NOR  HN ES   1   1931 50.01                             119    0.71 7  164 237 
 NOR  HZ I        1931 52.11         4.6 0.23                           164 237 
                                                                                
