 2016 1229 1613 11.0 L   6.796 -73.176146.8  RSN  4 0.2 1.3LRSN                1
 GAP=142        0.62       3.8     3.7  5.2 -0.4306E+01  0.5064E+01 -0.1897E+01E
 Epicentro: LOS SANTOS - SANTANDER                                             3
 ACTION:UPD 17-01-11 20:20 OP:rebc STATUS:               ID:20161229161311 L   I
 OLDACT:REG 16-12-29 21:14 OP:y    STATUS:               ID:20161229160744     3
 2016-12-29-1608-00M.COL___374                                                 6
 STAT SP IPHASW D HRMM SECON CODA AMPLIT PERI AZIMU VELO AIN AR TRES W  DIS CAZ7
 BAR2 EZ EP       1613 30.35                             171   -0.3810 22.6 182 
 BAR2 EZ ES       1613 45.98                             171   -0.1410 22.6 182 
 BAR2 EZ I        1613 48.90         5.3 0.40            170           22.6 182 
 PAM  EZ EP       1613 33.77                             150    0.3110 79.9  41 
 PAM  EN ES       1613 50.98                             150   -0.0110 79.9  41 
 RUS  HZ EP       1613 34.95                             144    0.1210  100 174 
 RUS  HN ES       1613 53.53                             144    0.1110  100 174 
 RUS  HZ I        1613 55.72         1.7 0.20            145            100 174 
 PTB  HZ EP       1613 37.49                             133   -0.25 9  144 259 
 PTB  HE ES       1613 58.83                             133    0.24 9  144 259 
 PTB  HZ I        1614  0.91         5.2 0.14            134            144 259 
                                                                                
