 2010  629 1752  6.4 L   6.759 -72.907178.4  RSN 14 0.4 3.1LRSN                1
 GAP=145        0.92       4.3     6.9  5.9 -0.1620E+02 -0.4603E+00  0.2695E+01E
 Epicentro: CEPITA - SANTANDER                                                 3
 ACTION:UP  10-08-24 10:13 OP:vdl  STATUS:               ID:20100629175206 L   I
 2010-06-29-1750-01S.COL___118                                                 6
 STAT SP IPHASW D HRMM SECON CODA AMPLIT PERI AZIMU VELO SNR AR TRES W  DIS CAZ7
 BAR2 SZ IP       1752 30.19                             168    -0.110   36 239 
 BAR2 SZ ES   1   1752 48.60                             168    -0.2 7   36 239 
 BRR  HZ IP     C 1752 32.29                             150    -0.310   97 293 
 BRR  HZ I        1752 32.89       385.3 0.11                            97 293 
 BRR  HN ES   1   1752 53.31                             150     0.3 7   97 293 
 RUS  HZ IP     C 1752 33.74                             150     0.410   98 191 
 RUS  HN ES   1   1752 53.98                             150    -0.3 7   98 191 
 RUS  HZ I        1752 56.27       243.4 0.28                            98 191 
 BRI  SZ IP     C 1752 33.83                             148     0.410  107   7 
 BRI  SZ ES   1   1752 54.72                             148     0.2 7  107   7 
 GUE  SZ EP       1752 34.59                             145     0.210  118 359 
 GRA  SZ IP       1752 34.78                             143     0.110  125   5 
 GRA  SZ ES   1   1752 56.03                             143    -0.7 7  125   5 
 OCA  SZ EP   1   1752 38.01                             134    -0.3 7  170 344 
 OCA  SZ I        1753  7.06       144.8 0.44                           170 344 
 CHI  HZ EP   2   1752 46.43                             123    -0.1 4  253 201 
 CHI  HN ES   2   1753 17.59                             123    -0.2 4  253 201 
 CHI  HZ I        1753 24.15        25.9 0.36                           253 201 
 HEL  HZ EP   1   1752 50.41                             118    -0.7 5  297 258 
 HEL  HZ I        1753 31.03        49.7 0.49                           297 258 
 GUY  HZ EP   1   1752 54.32                             116     0.5 5  321 238 
 GUY  HN ES   1   1753 32.04                             116     1.2 5  321 238 
 SDV  BZ IP     C 1752 55.94                             115    -0.1 7  344  47 
 SDV  BZ I        1753 37.31        10.2 0.53                           344  47 
 TOL  SZ EP   2   1752 58.52                             114     0.6 3  359 228 
 DBB  SZ EP   1   1752 57.39                             113    -1.0 5  366 275 
 PRA  HZ IP     C 1753  2.02                             111    -0.3 6  402 213 
 PRA  HE ES   1   1753 45.29                             111    -0.7 4  402 213 
 PRA  HZ I        1753 50.06        43.3 0.24                           402 213 
                                                                                
