 2010 1029 1750 42.6 L   6.839 -73.098148.1  RSN  8 0.5 1.8LRSN                1
 GAP=163        0.94       6.7     9.6  9.1 -0.2481E+02  0.1750E+02 -0.2710E+01E
 Epicentro: LOS SANTOS - SANTANDER                                             3
 ACTION:UP  11-02-18 11:13 OP:tino STATUS:               ID:20101029175042 L   I
 2010-10-29-1746-29S.COL___128                                                 6
 STAT SP IPHASW D HRMM SECON CODA AMPLIT PERI AZIMU VELO SNR AR TRES W  DIS CAZ7
 BTL  SZ EP   1   1751  2.91                             172     0.4 7   21 295 
 BTL  SZ ES   2   1751 18.45                             172     0.5 5   21 295 
 BAR2 SZ EP   1   1751  2.53                             168    -0.1 7   29 199 
 BAR2 SZ ES   2   1751 17.99                             168    -0.3 5   29 199 
 BRR  HZ IP     C 1751  4.14                             152     0.010   74 294 
 BRR  HE ES   2   1751 20.97                             152     0.0 5   74 294 
 BRR  HZ I        1751 25.04        28.8 0.43                            74 294 
 RUS  HZ EP   1   1751  7.33                             143     0.5 7  105 179 
 RUS  HN ES   2   1751 25.27                             143    -0.5 5  105 179 
 RUS  HZ I        1751 26.73         7.9 0.44                           105 179 
 GUE  SZ EP   1   1751  6.16                             141    -1.0 7  111  10 
 GRA  SZ EP   1   1751  7.78                             139     0.2 7  120  16 
 GRA  SZ ES   2   1751 27.40                             139     0.3 5  120  16 
 GRA  SZ I        1751 28.33        13.2 0.37                           120  16 
 NOR  SZ EP   1   1751 19.11                             118    -0.1 6  242 234 
 NOR  SN ES   2   1751 46.81                             118    -1.0 4  242 234 
 NOR  SZ I        1751 53.41         1.3 0.60                           242 234 
 HEL  HZ EP   1   1751 24.26                             115     0.6 6  278 255 
 HEL  HZ I        1752  1.60         5.1 0.40                           278 255 
                                                                                
