 2016  429 1151  3.1 L   6.798 -73.143140.0  RSN 12 0.3 2.3LRSN                1
 GAP=137        0.71       2.6     2.7  4.2 -0.7219E+00  0.4896E+01  0.2083E+01E
 Epicentro: LOS SANTOS - SANTANDER                                             3
 ACTION:UPD 16-05-05 14:25 OP:rebc STATUS:               ID:20160429115103 L   I
 OLDACT:UP  16-04-29 21:00 OP:edwi STATUS:               ID:20160429114748     3
 OLDACT:REG 16-04-29 19:37 OP:cara STATUS:               ID:20160429114748     3
 2016-04-29-1147-48M.COL___309                                                 6
 STAT SP IPHASW D HRMM SECON CODA AMPLIT PERI AZIMU VELO AIN AR TRES W  DIS CAZ7
 BAR2 EZ IP     C 1151 21.92                             170   -0.1010 23.2 191 
 BAR2 EZ ES       1151 36.46                             170   -0.3310 23.2 191 
 BAR2 EZ I        1151 39.69        49.1 0.22            166           23.2 191 
 PAM  EZ IP     C 1151 24.92                             150    0.2310 77.3  39 
 PAM  EN ES       1151 41.84                             150    0.3010 77.3  39 
 PAM  EZ I        1151 42.49        31.6 0.32            151           77.3  39 
 RUS  HZ EP       1151 25.82                             143   -0.4410  100 176 
 RUS  HE ES       1151 44.56                             143    0.2310  100 176 
 RUS  HZ I        1151 46.65        10.0 0.24            139            100 176 
 PTB  HZ EP   4   1151 28.55                             131   -1.07 0  148 259 
 PTB  HN ES       1151 49.90                             131   -0.41 9  148 259 
 PTB  HZ I        1151 54.16        25.3 0.22            127            148 259 
 SPBC HZ EP       1151 30.95                             128   -0.21 9  163 219 
 SPBC HN EP       1151 53.35                                            163 219 
 SPBC HZ I        1151 57.95        45.1 0.12            124            163 219 
 ZAR  HZ EP       1151 35.19                             121   -0.02 9  204 292 
 ZAR  HN ES       1152  0.31                             121    0.05 9  204 292 
 ZAR  HZ I        1152  6.43        35.5 0.28            119            204 292 
 NOR  HZ EP       1151 38.26                             117   -0.25 8  235 235 
 NOR  HN ES       1152  6.14                             117    0.01 8  235 235 
 NOR  HZ I        1152 10.26        25.1 0.18            115            235 235 
 CHI  HZ EP       1151 40.19                             116   -0.27 8  248 195 
 CHI  HN ES       1152 10.21                             116    0.60 8  248 195 
 CHI  HZ I        1152 15.33         9.3 0.26            113            248 195 
 HEL  HZ EP       1151 43.45                             113    0.40 8  272 256 
 HEL  HN ES       1152 14.50                             113    0.29 8  272 256 
 HEL  HZ I        1152 21.74        12.8 0.32            111            272 256 
 GUY2CHZ EP       1151 46.39                             111   -0.07 7  301 235 
 GUY2CHN ES       1152 20.80                             111    0.52 7  301 235 
 GUY2CHZ I        1152 28.59        22.7 0.42                           301 235 
 ORTC HZ EP       1151 56.80                             105   -0.02 6  395 216 
 ORTC HN ES       1152 38.60                             105   -0.13 6  395 216 
 ORTC HZ I        1152 46.13         8.1 0.44            104            395 216 
 SJC  HZ EP   4   1151 56.64                             105   -1.88 0  410 327 
 SJC  HN ES   4   1152 39.65                             105   -2.09 0  410 327 
 SJC  HZ I        1152 42.04         4.4 0.40            103            410 327 
                                                                                
