 2011 1029 1515 27.0 L   6.791 -73.086144.4  RSN  4 0.3 1.6LRSN                1
 GAP=145        0.50       4.7     6.9  6.9 -0.8900E+00 -0.3377E+01  0.1314E+01E
 Epicentro: LOS SANTOS - SANTANDER                                             3
 ACTION:UPD 12-07-13 16:06 OP:ep   STATUS:               ID:20111029151527 L   I
 2011-10-29-1511-00S.COL___156                                                 6
 STAT SP IPHASW D HRMM SECON CODA AMPLIT PERI AZIMU VELO AIN AR TRES W  DIS CAZ7
 BAR2 SZ EP   1   1515 46.34                             170   -0.15 7 24.4 206 
 BAR2 SZ I        1515 46.55        10.7 0.57                          24.4 206 
 BAR2 SZ ES   2   1516  1.60                             170   -0.09 5 24.4 206 
 PAM  SZ EP   1   1515 49.29                             152    0.41 7 74.2  35 
 PAM  SN ES   2   1516  5.57                             152   -0.38 5 74.2  35 
 BRR  HZ EP   1   1515 48.23                             150   -0.14 7 77.5 297 
 BRR  HZ I        1516  0.02        12.0 0.59                          77.5 297 
 BRR  HN ES   2   1516  5.22                             150    0.18 5 77.5 297 
 RUS  HZ EP   1   1515 50.35                             144   -0.18 7 99.3 180 
 RUS  HN ES   2   1516  9.29                             144    0.41 5 99.3 180 
 RUS  HZ I        1516 10.31         3.3 0.36                          99.3 180 
                                                                                
