 2017  329 1206 51.3 L   7.353 -73.166134.6  RSN  6 0.3 1.8LRSN                1
 GAP=177        0.52       4.5     3.4  3.9 -0.4256E+01 -0.1298E+01 -0.1669E-01E
 Epicentro: RIONEGRO - SANTANDER                                               3
 ACTION:UPD 17-05-25 18:46 OP:jn   STATUS:               ID:20170329120651 L   I
 OLDACT:UP  17-03-29 21:47 OP:ansd STATUS:               ID:20170329115729     3
 OLDACT:UP  17-03-29 21:46 OP:ansd STATUS:               ID:20170329115729     3
 OLDACT:UP  17-03-29 21:46 OP:ansd STATUS:               ID:20170329115729     3
 OLDACT:UP  17-03-29 21:46 OP:ansd STATUS:               ID:20170329115729     3
 OLDACT:REG 17-03-29 19:58 OP:and  STATUS:               ID:20170329115729     3
 2017-03-29-1158-00M.COL___355                                                 6
 STAT SP IPHASW D HRMM SECON CODA AMPLIT PERI AZIMU VELO AIN AR TRES W  DIS CAZ7
 PAM  EZ EP       12 7 10.93                             158    0.0410 51.5  92 
 PAM  EN ES       12 7 26.20                             158    0.0010 51.5  92 
 PAM  EZ I        12 7 28.73        13.7 0.34            159           51.5  92 
 BRR  HZ IP     C 12 7 10.57                             152   -0.3510 66.1 246 
 BRR  HN ES       12 7 26.51                             152    0.2510 66.1 246 
 BAR2 EZ EP       12 7 12.44                             146    0.0510 84.1 181 
 BAR2 EZ ES       12 7 28.80                             146   -0.0710 84.1 181 
 BAR2 EZ I        12 7 30.07        15.0 0.12            147           84.1 181 
 RUS  HZ EP       12 7 19.40                             127    0.07 9  162 177 
 PTB  HZ EP   9   12 7 19.17                             125   -0.20 0  169 238 
 PTB  HN ES       12 7 40.87                             125   -0.22 9  169 238 
 PTB  HZ I        12 7 43.59         4.5 0.16            127            169 238 
 ZAR  HZ EP   3   12 7 22.32                             122    1.05 2  187 275 
 ZAR  HN ES   3   12 7 44.07                             122   -0.60 2  187 275 
 ZAR  HZ I        12 7 45.20         6.0 0.14            123            187 275 
                                                                                
