 2011  629 1232 17.3 L   7.542 -73.182137.7  RSN  6 0.2 1.8LRSN                1
 GAP=177        0.46       5.7     6.7  4.9 -0.2967E+02 -0.5561E+00 -0.6349E+00E
 Epicentro: EL PLAYON - SANTANDER                                              3
 ACTION:UP  11-07-14 19:09 OP:ep   STATUS:               ID:20110629123217 L   I
 2011-06-29-1229-00S.COL___140                                                 6
 STAT SP IPHASW D HRMM SECON CODA AMPLIT PERI AZIMU VELO SNR AR TRES W  DIS CAZ7
 BRI  SZ EP       1232 36.76                             160     0.110   47  66 
 GIR2 SZ EP       1232 36.78                             158     0.010   51 181 
 GRA  SZ EP       1232 36.86                             157    -0.210   56  48 
 GRA  SZ ES   1   1232 52.47                             157     0.1 7   56  48 
 GRA  SZ I        1232 53.38        15.3 0.26                            56  48 
 BTL  SZ EP       1232 38.14                             152     0.310   70 188 
 BTL  SZ ES   1   1232 53.73                             152    -0.2 7   70 188 
 BRR  HZ EP       1232 37.82                             149    -0.110   76 231 
 BRR  HN ES   1   1232 54.00                             149     0.1 7   76 231 
 BRR  HZ I        1232 54.94        11.9 0.46                            76 231 
 BAR2 SZ EP   2   1232 39.99                             140    -0.3 5  105 180 
                                                                                
