 2011  429 1110 59.7 L   6.810 -73.080154.9  RSN  4 0.2 1.8LRSN                1
 GAP=145        0.59       3.9     6.6  6.3  0.2852E+00 -0.2230E+01 -0.1194E+01E
 Epicentro: LOS SANTOS - SANTANDER                                             3
 ACTION:UP  11-06-22 15:33 OP:REBC STATUS:               ID:20110429111059 L   I
 2011-04-29-1105-48S.COL___138                                                 6
 STAT SP IPHASW D HRMM SECON CODA AMPLIT PERI AZIMU VELO SNR AR TRES W  DIS CAZ7
 BAR2 SZ EP   1   1111 20.09                             170    -0.4 8   27 205 
 BAR2 SZ I        1111 36.32        12.5 0.32                            27 205 
 BAR2 SZ ES   1   1111 36.48                             170    -0.2 8   27 205 
 PAM  SZ EP   1   1111 22.95                             154     0.4 8   72  36 
 PAM  SN ES   1   1111 40.32                             154    -0.1 8   72  36 
 BRR  HZ EP   1   1111 21.97                             152    -0.2 8   77 295 
 BRR  HN ES   1   1111 39.89                             152     0.2 8   77 295 
 BRR  HZ I        1111 50.10        18.3 0.44                            77 295 
 RUS  HZ EP   1   1111 24.36                             145     0.0 7  101 180 
 RUS  HE ES       1111 43.79                             145     0.110  101 180 
 RUS  HZ I        1111 44.41         4.4 0.40                           101 180 
                                                                                
