 2013 1029 1252 47.2 L   6.811 -73.162142.9  RSN 11 0.5 2.3LRSN                1
 GAP=134        1.12       3.2     4.2  5.8 -0.1206E+01  0.7380E+01  0.1077E+01E
 Epicentro: LOS SANTOS - SANTANDER                                             3
 ACTION:UPD 13-11-25 09:24 OP:ep   STATUS:               ID:20131029125247 L   I
 OLDACT:REG 13-10-29 15:57 OP:carl STATUS:               ID:20131029124838     3
 2013-10-29-1248-38M.COL___218                                                 6
 STAT SP IPHASW D HRMM SECON CODA AMPLIT PERI AZIMU VELO AIN AR TRES W  DIS CAZ7
 BAR2 SZ EP       1253  6.49                             170    0.0210 24.3 185 
 BAR2 SZ ES       1253 21.17                             170   -0.3610 24.3 185 
 BAR2 SZ I        1253 22.11        63.4 0.36            168           24.3 185 
 BRR  HZ IP     C 1253  8.30                             153    0.4210 69.1 298 
 BRR  HN ES       1253 25.07                             153    1.0310 69.1 298 
 BRR  HZ I        1253 29.88        42.3 0.14            153           69.1 298 
 PAM  SZ IP     C 1253  9.42                             150    0.3310 77.6  41 
 PAM  SN ES       1253 26.25                             150    0.0610 77.6  41 
 PAM  SZ I        1253 28.45        41.6 0.48            155           77.6  41 
 RUS  HZ EP       1253 10.24                             143   -0.5010  102 175 
 RUS  HE ES       1253 28.85                             143   -0.2710  102 175 
 RUS  HZ I        1253 33.67         5.4 0.20            144            102 175 
 PTB  HZ EP       1253 13.46                             132   -0.30 9  146 258 
 PTB  HN ES       1253 33.80                             132   -0.71 9  146 258 
 PTB  HZ I        1253 36.91        39.2 0.14            133            146 258 
 SPBC HZ EP       1253 15.80                             128    0.37 9  163 218 
 SPBC HN ES       1253 37.61                             128    0.13 9  163 218 
 SPBC HZ I        1253 42.06        22.1 0.18            129            163 218 
 ZAR  HZ EP       1253 19.39                             122    0.18 9  202 292 
 ZAR  HN ES       1253 44.37                             122    0.17 9  202 292 
 ZAR  HZ I        1253 47.85        22.1 0.28            124            202 292 
 NOR  HZ EP       1253 23.01                             118    0.36 8  234 234 
 NOR  HN ES       1253 49.78                             118   -0.56 8  234 234 
 NOR  HZ I        1253 56.28        22.1 0.52            119            234 234 
 SML  HZ EP       1253 22.86                             117   -0.57 8  242 336 
 SML  HN ES       1253 50.87                             117   -0.84 8  242 336 
 SML  HZ I        1253 55.90        30.8 0.24            119            242 336 
 CHI  HZ EP       1253 25.15                             116    0.36 8  249 195 
 CHI  HN ES       1253 54.06                             116   -0.07 8  249 195 
 CHI  HZ I        1254  4.73         4.7 0.46            118            249 195 
 GUY2CHZ EP       1253 30.75                             112    0.19 7  300 234 
 GUY2CHN ES       1254  4.87                             112    0.46 7  300 234 
 GUY2CHZ I        1254 12.88         8.3 0.60                           300 234 
 SJC  HZ EP   4   1253 40.76                             105   -1.64 0  407 327 
 SJC  HN ES   4   1254 22.07                             105   -3.41 0  407 327 
                                                                                
