 2012  529 1336 25.0 L   6.569 -73.610104.0  RSN  4 0.2 1.6LRSN                1
 GAP=145        0.52       5.6     3.2  5.9 -0.6310E+01  0.1063E+02 -0.2361E+01E
 Epicentro: EL CARMEN DE CHUCURI - SANTANDER                                   3
 ACTION:UP  12-07-05 12:08 OP:pat  STATUS:               ID:20120529133625 L   I
 2012-05-29-1330-00M.COL___200                                                 6
 STAT SP IPHASW D HRMM SECON CODA AMPLIT PERI AZIMU VELO AIN AR TRES W  DIS CAZ7
 BAR2 SZ EP       1336 40.48                             154    -0.210   47  87 
 BAR2 SZ ES       1336 53.05                             154     0.210   47  87 
 BAR2 SZ I        1336 54.33        25.5 0.35                            47  87 
 PTB  HZ IP     C 1336 43.58                             135    -0.110   94 268 
 PTB  HZ I        1336 43.91         6.0 0.23                            94 268 
 PTB  HN ES   1   1336 58.17                             135    -0.1 7   94 268 
 ZAR  HZ EP   1   1336 51.84                             116     0.3 7  172 307 
 ZAR  HZ I        1337 17.33         5.9 0.32                           172 307 
 NOR  SZ EP   1   1336 52.35                             115     0.0 7  178 231 
 NOR  SN ES   1   1337 13.80                             115     0.2 7  178 231 
                                                                                
