 2014 1029 1139 42.6 L   6.810 -73.171142.7  RSN  5 0.4 1.5LRSN                1
 GAP=133        1.01       5.7     5.4  8.1 -0.1803E+00  0.1887E+01  0.9651E+00E
 Epicentro: LOS SANTOS - SANTANDER                                             3
 ACTION:UPD 14-11-29 23:58 OP:nd   STATUS:               ID:20141029113942 L   I
 OLDACT:REG 14-10-31 05:30 OP:mh   STATUS:               ID:20141029113748     3
 2014-10-29-1137-48M.COL___277                                                 6
 STAT SP IPHASW D HRMM SECON CODA AMPLIT PERI AZIMU VELO AIN AR TRES W  DIS CAZ7
 BAR2 SZ EP   1   1140  2.20                             170    0.30 7 24.1 183 
 BAR2 SZ ES   1   1140 16.54                             170   -0.39 7 24.1 183 
 BAR2 SZ I        1140 18.19        10.2 0.18            171           24.1 183 
 BRR  HZ EP       1140  3.78                             153    0.5110 68.2 299 
 BRR  HN ES       1140 19.63                             153    0.2510 68.2 299 
 BRR  HZ I        1140 21.64         7.3 0.86            154           68.2 299 
 PAM  SZ EP       1140  4.87                             150    0.3010 78.3  42 
 PAM  SN ES   1   1140 21.05                             150   -0.63 7 78.3  42 
 PAM  SZ I        1140 23.84         6.5 0.60            152           78.3  42 
 RUS  HZ EP       1140  5.85                             143   -0.3210  102 175 
 RUS  HN ES       1140 24.89                             143    0.3510  102 175 
 RUS  HZ I        1140 26.11         3.8 0.14            145            102 175 
 PTB  HZ EP       1140  8.43                             132   -0.68 9  145 258 
 PTB  HN ES       1140 29.68                             132   -0.09 9  145 258 
 PTB  HZ I        1140 32.11         4.7 0.10            134            145 258 
                                                                                
