 2010 1229 1436 44.5 L   6.714 -73.152145.6  RSN  9 0.5 2.2LRSN                1
 GAP=158        1.08       6.9    10.5 14.9 -0.1715E+02  0.8175E+02 -0.3175E+02E
 Epicentro: VILLANUEVA - SANTANDER                                             3
 ACTION:UP  11-01-14 15:27 OP:pat  STATUS:               ID:20101229143644 L   I
 2010-12-29-1420-00M.COL___137                                                 6
 STAT SP IPHASW D HRMM SECON CODA AMPLIT PERI AZIMU VELO SNR AR TRES W  DIS CAZ7
 BAR2 SZ EP   1   1437  3.47                             174    -0.5 7   14 194 
 BAR2 SZ I        1437 19.65        52.8 0.26                            14 194 
 BTL  SZ EP   1   1437  4.99                             169     0.8 7   26 331 
 RUS  HZ EP   1   1437  7.20                             147    -0.4 7   91 175 
 RUS  HN ES   1   1437 25.35                             147    -0.2 7   91 175 
 RUS  HZ I        1437 27.04        38.5 0.56                            91 175 
 OCA  SZ EP   1   1437 13.60                             128    -0.1 7  170 354 
 OCA  SZ I        1437 39.86        17.4 0.17                           170 354 
 YOP  SN ES   2   1437 37.11                             128     0.6 4  171 152 
 YOP  SZ I        1437 38.07        12.7 0.34                           171 152 
 NOR  SZ EP   1   1437 18.64                             119    -1.0 6  229 236 
 NOR  SE ES   1   1437 47.02                             119     0.1 6  229 236 
 CHI  HZ EP   1   1437 21.42                             118     0.2 6  239 196 
 CHI  HN ES   1   1437 50.04                             118     0.3 6  239 196 
 CHI  HZ I        1437 52.72         7.0 0.37                           239 196 
 HEL  HZ EP   1   1437 25.15                             115     0.8 6  269 258 
 HEL  HZ I        1438  2.81        11.2 0.31                           269 258 
 PRA  HZ EP   1   1437 36.86                             107    -0.1 4  383 210 
                                                                                
