 2015  429 1241 52.4 L   6.785 -73.147145.0  RSN  8 0.3 1.7LRSN                1
 GAP=152        0.67       3.5     3.3  4.8 -0.3715E+01  0.4790E+01  0.4363E+01E
 Epicentro: LOS SANTOS - SANTANDER                                             3
 ACTION:UPD 15-06-03 16:58 OP:cam  STATUS:               ID:20150429124152 L   I
 OLDACT:REG 15-04-29 20:35 OP:ak   STATUS:               ID:20150429123750     3
 2015-04-29-1237-50M.COL___283                                                 6
 STAT SP IPHASW D HRMM SECON CODA AMPLIT PERI AZIMU VELO AIN AR TRES W  DIS CAZ7
 BAR2 EZ IP     D 1242 11.85                             171   -0.0410 21.7 190 
 BAR2 EZ ES       1242 26.85                             171   -0.2610 21.7 190 
 BAR2 EZ I        1242 28.70         6.3 0.30            168           21.7 190 
 BRR  HZ EP       1242 13.67                             152    0.1810 71.9 300 
 BRR  HN ES       1242 30.58                             152    0.6210 71.9 300 
 PAM  SZ EP   2   1242 14.77                             150    0.17 5 78.8  39 
 PAM  SN ES       1242 31.81                             150   -0.1210 78.8  39 
 PAM  SZ I        1242 32.56         5.1 0.34            155           78.8  39 
 PTB  HZ EP       1242 18.95                             132   -0.30 9  147 259 
 PTB  HN ES       1242 39.78                             132   -0.42 9  147 259 
 PTB  HZ I        1242 45.81         5.5 0.19            131            147 259 
 SPBC HZ EP   1   1242 20.83                             129    0.13 7  162 219 
 SPBC HN ES       1242 42.89                             129    0.11 9  162 219 
 SPBC HZ I        1242 48.00         9.0 0.21            129            162 219 
 ZAR  HZ EP   4   1242 21.66                             122   -3.17 0  205 293 
 ZAR  HN ES       1242 49.88                             122   -0.26 9  205 293 
 ZAR  HZ I        1242 56.64         5.9 0.45            123            205 293 
 NOR  HZ EP       1242 28.07                             118    0.11 8  234 235 
 NOR  HN ES       1242 55.86                             118    0.16 8  234 235 
 NOR  HZ I        1243  3.31         4.1 0.39            119            234 235 
 GUY2CHZ EP   2   1242 36.00                             112    0.16 4  300 235 
 GUY2CHN ES       1243  9.82                             112    0.09 7  300 235 
 GUY2CHZ I        1243 18.73         3.2 0.44                           300 235 
                                                                                
