 2014  529 1021 19.9 L   6.821 -73.162145.4  RSN 12 0.5 2.0LRSN                1
 GAP=133        1.11       3.3     4.6  6.1  0.5033E-01  0.7133E+01  0.5961E+00E
 Epicentro: LOS SANTOS - SANTANDER                                             3
 ACTION:UPD 15-03-16 17:01 OP:nd   STATUS:               ID:20140529102119 L   I
 OLDACT:UP  14-05-29 21:20 OP:cam  STATUS:               ID:20140529102000     3
 OLDACT:UP  14-05-29 21:20 OP:cam  STATUS:               ID:20140529102000     3
 OLDACT:UP  14-05-29 21:19 OP:cam  STATUS:               ID:20140529102000     3
 OLDACT:REG 14-05-29 19:46 OP:cam  STATUS:               ID:20140529102000     3
 2014-05-29-1020-00M.COL___276                                                 6
 STAT SP IPHASW D HRMM SECON CODA AMPLIT PERI AZIMU VELO AIN AR TRES W  DIS CAZ7
 BAR2 SZ EP       1021 39.48                             170   -0.0810 25.4 185 
 BAR2 SZ ES       1021 54.41                             170   -0.4610 25.4 185 
 BAR2 SZ I        1021 55.46        13.9 0.26            167           25.4 185 
 BRR  HZ EP       1021 41.16                             153    0.2710 68.5 297 
 BRR  HN ES       1021 58.18                             153    0.9510 68.5 297 
 BRR  HZ I        1021 59.94        14.5 0.38            150           68.5 297 
 PAM  SZ EP     D 1021 42.37                             151    0.3010 76.7  42 
 PAM  SN ES       1021 59.29                             151   -0.0410 76.7  42 
 PAM  SZ I        1022  1.19        17.3 0.54            156           76.7  42 
 RUS  HZ EP       1021 43.83                             143    0.0010  103 175 
 RUS  HN ES       1022  2.46                             143   -0.0010  103 175 
 RUS  HZ I        1022  3.98         5.3 0.20            143            103 175 
 PTB  HZ EP       1021 46.30                             132   -0.45 9  146 258 
 PTB  HN ES       1022  6.83                             132   -0.84 9  146 258 
 PTB  HZ I        1022  9.49        20.1 0.12            130            146 258 
 SPBC HZ EP       1021 48.72                             129    0.25 9  164 218 
 SPBC HN ES       1022 10.54                             129   -0.19 9  164 218 
 SPBC HZ I        1022 17.51        11.2 0.22            128            164 218 
 ZAR  HZ EP       1021 52.05                             123   -0.04 9  201 292 
 ZAR  HE ES       1022 17.73                             123    0.56 9  201 292 
 ZAR  HZ I        1022 26.06        13.2 0.12            122            201 292 
 SML  HZ EP       1021 55.77                             118   -0.45 8  241 335 
 SML  HE ES       1022 24.07                             118   -0.46 8  241 335 
 SML  HZ I        1022 26.02        23.4 0.28            118            241 335 
 CHI  HZ EP   1   1021 58.09                             117    0.28 6  250 195 
 CHI  HN ES   1   1022 26.94                             117   -0.41 6  250 195 
 CHI  HZ I        1022 32.64         4.2 0.46            117            250 195 
 HEL  HZ EP   4   1022  2.49                             115    2.49 0  271 255 
 HEL  HE ES   4   1022 29.51                             115   -1.74 0  271 255 
 HEL  HZ I        1022 37.53         5.3 0.30            114            271 255 
 GUY2CHZ EP   4   1022  5.64                             112    2.13 0  301 234 
 GUY2CHE ES   4   1022 38.81                             112    1.30 0  301 234 
 GUY2CHZ I        1022 47.39         4.1 0.36                           301 234 
 PRA  HZ EP   1   1022 13.41                             106   -0.17 4  393 209 
 PRA  HN ES       1022 56.67                             106    1.25 6  393 209 
 PRA  HZ I        1023  1.89         4.9 0.28            107            393 209 
 SJC  HZ EP   4   1022 13.26                             106   -1.87 0  406 327 
 SJC  HE ES   4   1022 54.83                             106   -3.36 0  406 327 
                                                                                
