 2010 1129 1717 13.4 L   6.751 -73.140144.4  RSN  6 0.2 1.6LRSN                1
 GAP=160        0.35       3.6     4.6  4.9 -0.2315E+01  0.2202E+01 -0.1583E+01E
 Epicentro: LOS SANTOS - SANTANDER                                             3
 ACTION:UP  10-12-17 16:55 OP:REBC STATUS:               ID:20101129171713 L   I
 2010-11-29-1715-47S.COL___132                                                 6
 STAT SP IPHASW D HRMM SECON CODA AMPLIT PERI AZIMU VELO SNR AR TRES W  DIS CAZ7
 BAR2 SZ EP   2   1717 32.57                             172    -0.2 5   18 195 
 BAR2 SZ ES   2   1717 48.19                             172     0.3 5   18 195 
 BAR2 SZ I        1717 49.32        11.0 0.41                            18 195 
 BTL  SZ EP   1   1717 32.90                             170     0.0 7   23 323 
 BRR  HZ EP   2   1717 34.61                             151     0.0 5   75 302 
 BRR  HE ES   2   1717 50.87                             151    -0.3 5   75 302 
 RUS  HZ EP   2   1717 36.50                             145    -0.1 5   95 176 
 RUS  HN ES   2   1717 54.65                             145    -0.1 5   95 176 
 RUS  HZ I        1717 56.47         4.5 0.56                            95 176 
 GRA  SZ EP   2   1717 39.16                             135     0.2 5  131  16 
 GRA  SZ I        1718  0.09         6.6 0.28                           131  16 
 NOR  SZ EP   2   1717 48.75                             118     0.0 4  232 236 
 NOR  SN ES   2   1718 16.62                             118     0.2 4  232 236 
                                                                                
