 2011  729 1305 43.9 L   6.772 -73.066146.1  RSN  5 0.2 1.4LRSN                1
 GAP=165        0.50       2.8     6.8  7.2 -0.6067E+01 -0.1941E+02  0.3838E+01E
 Epicentro: LOS SANTOS - SANTANDER                                             3
 ACTION:UPD 12-07-25 14:04 OP:epov STATUS:               ID:20110729130543 L   I
 2011-07-29-1304-08S.COL___141                                                 6
 STAT SP IPHASW D HRMM SECON CODA AMPLIT PERI AZIMU VELO AIN AR TRES W  DIS CAZ7
 BAR2 SZ EP   1   13 6  3.36                             170   -0.23 7 23.7 213 
 BAR2 SZ I        13 6 20.34         6.3 0.27                          23.7 213 
 BRR  HE ES   1   13 6 22.64                             150    0.05 7 80.4 297 
 RUS  HZ EP   1   13 6  7.74                             145    0.28 7 97.3 181 
 RUS  HN ES   1   13 6 25.72                             145   -0.11 7 97.3 181 
 RUS  HZ I        13 6 27.43         2.8 0.27                          97.3 181 
 BRI  SZ EP   2   13 6  7.84                             141   -0.01 5  109  16 
 BRI  SZ ES   1   13 6 26.90                             141    0.38 7  109  16 
 BRI  SZ I        13 6 29.76         6.1 0.30                           109  16 
 GRA  SZ EP   1   13 6  9.19                             137   -0.05 7  126  13 
 GRA  SZ ES   1   13 6 28.66                             137   -0.34 7  126  13 
 GRA  SZ I        13 6 30.61         4.3 0.33                           126  13 
                                                                                
