 2012 1029 1050 26.2 L   6.772 -73.132146.8  RSN  5 0.2 2.0LRSN                1
 GAP=140        0.48       4.7     4.4  6.8 -0.1493E+01  0.1581E+02  0.2721E+01E
 Epicentro: LOS SANTOS - SANTANDER                                             3
 ACTION:UPD 12-11-22 17:06 OP:ep   STATUS:               ID:20121029105026 L   I
 2012-10-29-1050-00M.COL___231                                                 6
 STAT SP IPHASW D HRMM SECON CODA AMPLIT PERI AZIMU VELO AIN AR TRES W  DIS CAZ7
 BAR2 SZ EP   1   1050 46.02                             171    0.08 7 20.7 196 
 BAR2 SZ I        1051  2.32        14.1 0.22                          20.7 196 
 BRR  HZ EP   1   1050 47.86                             152    0.20 7 74.0 300 
 BRR  HN ES   2   1051  4.66                             152    0.29 5 74.0 300 
 BRR  HN I        1051  8.39        31.1 0.18                          74.0 300 
 PAM  SZ EP   1   1050 48.93                             150    0.28 7 78.9  37 
 PAM  SN I        1050 49.43        13.6 0.22                          78.9  37 
 PAM  SN ES       1051  5.94                             150   -0.2010 78.9  37 
 RUS  HN ES   2   1051  8.14                             145   -0.16 5 97.4 177 
 ZAR  HZ EP   1   1050 58.61                             122   -0.40 6  207 293 
 ZAR  HN ES   2   1051 24.65                             122    0.07 4  207 293 
 ZAR  HN I        1051 30.32         8.8 0.28                           207 293 
                                                                                
