 2016  929 1408  1.4 L   6.754 -73.163121.2  RSN  5 0.3 1.2LRSN                1
 GAP=136        0.63       3.3     2.8  7.6 -0.2348E+01  0.5056E+01  0.7362E+01E
 Epicentro: LOS SANTOS - SANTANDER                                             3
 ACTION:UPD 17-08-17 21:17 OP:lp   STATUS:               ID:20160929140801 L   I
 OLDACT:UP  16-09-29 23:54 OP:edw  STATUS:               ID:20160929135742d    3
 OLDACT:UP  16-09-29 23:53 OP:edw  STATUS:               ID:20160929135742d    3
 OLDACT:UP  16-09-29 23:52 OP:edw  STATUS:               ID:20160929135742d    3
 OLDACT:DUP 16-09-29 23:50 OP:edw  STATUS:               ID:20160929135742d    3
 2016-09-29-1358-00M.COL___372                                                 6
 STAT SP IPHASW D HRMM SECON CODA AMPLIT PERI AZIMU VELO AIN AR TRES W  DIS CAZ7
 PAM  EZ EP       14 8 21.51                             144    0.1310 82.5  38 
 PAM  EN ES       14 8 36.95                             144   -0.0510 82.5  38 
 PAM  EZ I        14 8 41.00         3.3 0.37            152           82.5  38 
 RUS  HZ EP       14 8 22.22                             140   -0.1610 95.7 175 
 RUS  HN ES   4   14 8 41.51                             140    2.74 0 95.7 175 
 RUS  HZ I        14 8 42.57         3.0 0.34            145           95.7 175 
 PTB  HZ EP       14 8 25.64                             126   -0.52 9  145 261 
 PTB  HN ES       14 8 45.70                             126    0.19 9  145 261 
 PTB  HZ I        14 8 49.02         2.0 0.10            133            145 261 
 SPBC HZ EP       14 8 27.94                             124    0.38 9  158 220 
 SPBC HN ES       14 8 48.00                             124   -0.01 9  158 220 
 SPBC HZ I        14 8 51.44         4.1 0.12            130            158 220 
 ZAR  HZ EP   2   14 8 32.66                             116    0.31 4  204 294 
 ZAR  HE ES       14 8 56.51                             116   -0.01 9  204 294 
                                                                                
