 2014  629 1708 55.1 L   6.894 -73.065134.0  RSN  5 0.4 1.5LRSN                1
 GAP=229        1.00       6.5     8.2  8.6 -0.3412E+01  0.4320E+01 -0.2155E+02E
 Epicentro: PIEDECUESTA - SANTANDER                                            3
 ACTION:UPD 14-07-01 22:57 OP:nd   STATUS:               ID:20140629170855 L   I
 OLDACT:REG 14-06-29 20:51 OP:spq  STATUS:               ID:20140629170814     3
 2014-06-29-1708-14M.COL___246                                                 6
 STAT SP IPHASW D HRMM SECON CODA AMPLIT PERI AZIMU VELO AIN AR TRES W  DIS CAZ7
 BAR2 SZ ES   1   17 9 27.82                             165   -0.36 7 35.8 201 
 BAR2 SZ I        17 9 29.82         5.9 0.26            167           35.8 201 
 BRR  HZ EP       17 9 15.53                             149    0.2510 75.2 288 
 BRR  HE ES       17 9 31.39                             149    0.4010 75.2 288 
 BRR  HZ I        17 9 34.63         7.2 0.36            147           75.2 288 
 PTB  HZ EP       17 9 21.51                             127   -0.72 9  159 256 
 PTB  HN ES       17 9 43.73                             127    0.37 9  159 256 
 PTB  HZ I        17 9 46.99         2.2 0.32            129            159 256 
 ZAR  HZ EP   1   17 9 27.94                             119    0.59 6  209 289 
 ZAR  HN ES       17 9 51.98                             119   -0.49 8  209 289 
 ZAR  HZ I        17 9 57.20         1.9 0.28            120            209 289 
 SML  HZ EP       17 9 30.77                             116    0.23 8  238 332 
 SML  HN ES       17 9 57.85                             116   -0.29 8  238 332 
 SML  HZ I        1710  4.34         4.3 0.07            117            238 332 
                                                                                
