 2016  929 1113  0.7 L   6.845 -72.987149.5  RSN  5 0.1 1.3LRSN                1
 GAP=256        0.40       4.1     4.1  3.2  0.1300E+02 -0.4664E+01 -0.5563E+01E
 Epicentro: CEPITA - SANTANDER                                                 3
 ACTION:UPD 17-08-17 21:17 OP:lp   STATUS:               ID:20160929111300 L   I
 OLDACT:UP  16-09-29 23:24 OP:edw  STATUS:               ID:20160929110748d    3
 OLDACT:UP  16-09-29 23:24 OP:edw  STATUS:               ID:20160929110748d    3
 OLDACT:DUP 16-09-29 23:21 OP:edw  STATUS:               ID:20160929110748d    3
 OLDACT:UP  16-09-29 23:20 OP:edw  STATUS:               ID:20160929110747d    3
 OLDACT:UP  16-09-29 23:19 OP:edw  STATUS:               ID:20160929110747d    3
 OLDACT:DUP 16-09-29 23:12 OP:edw  STATUS:               ID:20160929110747d    3
 2016-09-29-1108-00M.COL___372                                                 6
 STAT SP IPHASW D HRMM SECON CODA AMPLIT PERI AZIMU VELO AIN AR TRES W  DIS CAZ7
 BAR2 EZ EP       1113 21.16                             166    0.0810 35.3 218 
 BAR2 EZ ES       1113 36.96                             166   -0.0110 35.3 218 
 BRR  HZ EP   4   1113 23.17                             149    0.08 0 85.1 290 
 BRR  HN ES       1113 40.51                             149   -0.0310 85.1 290 
 RUS  HZ EP       1113 25.32                             143    0.1110  106 186 
 RUS  HN ES       1113 44.22                             143   -0.1010  106 186 
 RUS  HZ I        1113 44.66         1.3 0.20            144            106 186 
 OCA  HZ EP   4   1113 19.06                             131   -10.1 0  158 347 
 OCA  HN ES   4   1113 47.03                             131   -4.28 0  158 347 
 PTB  HZ EP   9   1113 27.43                             129   -2.22 0  166 258 
 PTB  HN ES       1113 49.90                             133   -0.11 9  166 258 
 PTB  HZ I        1113 51.19         2.6 0.36            129            166 258 
 ZAR  HZ EP       1113 34.65                             121   -0.26 8  219 289 
 ZAR  HN ES       1114  1.77                             121    0.19 8  219 289 
 ZAR  HZ I        1114  6.19         2.8 0.44            120            219 289 
                                                                                
