 2013  129 1442  0.5 L   6.797 -73.060137.5  RSN  4 0.2 1.1LRSN                1
 GAP=148        0.45       3.0     6.5  5.4 -0.6192E+01 -0.3656E+01  0.1958E+01E
 Epicentro: LOS SANTOS - SANTANDER                                             3
 ACTION:UPD 13-02-15 09:17 OP:ep   STATUS:               ID:20130129144160 L   I
 2013-01-29-1440-00M.COL___241                                                 6
 STAT SP IPHASW D HRMM SECON CODA AMPLIT PERI AZIMU VELO AIN AR TRES W  DIS CAZ7
 BAR2 SZ EP   1   1442 18.89                             169   -0.36 7 26.4 211 
 BAR2 SZ ES   2   1442 33.61                             169   -0.23 5 26.4 211 
 BAR2 SZ I        1442 34.85         6.3 0.26            170           26.4 211 
 PAM  SZ EP   1   1442 21.79                             151    0.23 7 72.0  34 
 PAM  SN ES   1   1442 37.90                             151   -0.05 7 72.0  34 
 PAM  SZ I        1442 39.31         1.8 0.20            151           72.0  34 
 BRR  HN ES   2   1442 37.72                             148    0.16 5 79.8 296 
 RUS  HZ EP       1442 23.45                             142    0.0010  100 181 
 RUS  HZ I        1442 24.00         1.6 0.14            143            100 181 
 RUS  HE ES       1442 41.43                             142    0.1210  100 181 
                                                                                
