 2016 1129 1130 42.2 L   6.763 -73.133139.6  RSN 13 0.4 2.0LRSN                1
 GAP=122        0.94       3.5     3.7  5.6  0.5321E+00  0.4521E+01  0.9379E+01E
 Epicentro: LOS SANTOS - SANTANDER                                             3
 ACTION:UPD 17-10-26 21:13 OP:lp   STATUS:               ID:20161129113042 L   I
 OLDACT:REG 16-11-29 21:05 OP:lv   STATUS:               ID:20161129112744     3
 2016-11-29-1128-00M.COL___348                                                 6
 STAT SP IPHASW D HRMM SECON CODA AMPLIT PERI AZIMU VELO AIN AR TRES W  DIS CAZ7
 BAR2 EZ EP       1131  0.89                             171   -0.1410 19.7 196 
 BAR2 EZ ES       1131 15.84                             171    0.1310 19.7 196 
 BAR2 EZ I        1131 17.43        32.5 0.20            167           19.7 196 
 BRR  HZ IP     C 1131  2.69                             150   -0.1910 74.4 301 
 BRR  HE ES       1131 19.64                             150    0.6310 74.4 301 
 BRR  HZ I        1131 22.28        17.9 0.19            148           74.4 301 
 PAM  EZ EP       1131  3.84                             149   -0.0810 79.7  37 
 PAM  EN ES       1131 20.79                             149   -0.0610 79.7  37 
 PAM  EZ I        1131 23.61        10.2 0.30            154           79.7  37 
 PTB  HZ EP   4   1131  7.47                             130   -1.27 0  148 260 
 PTB  HN ES       1131 28.58                             130   -0.85 9  148 260 
 PTB  HZ I        1131 30.31        13.9 0.31            129            148 260 
 ZAR  HZ EP       1131 14.78                             121    0.23 8  207 293 
 ZAR  HN ES       1131 39.52                             121   -0.26 8  207 293 
 ZAR  HZ I        1131 47.59         8.3 0.11            120            207 293 
 NOR  HZ EP       1131 17.43                             117   -0.03 8  233 235 
 NOR  HN ES       1131 44.98                             117    0.03 8  233 235 
 NOR  HZ I        1131 50.05        10.0 0.26            117            233 235 
 CHI  HZ EP       1131 19.17                             116   -0.01 8  245 196 
 CHI  HN ES       1131 48.69                             116    0.67 8  245 196 
 CHI  HZ I        1131 52.80         4.0 0.19            116            245 196 
 ROSC BZ EP   4   1131 21.52                             116    1.82 0  250 212 
 PTGC HZ EP   4   1131 24.06                             111   -1.25 0  304 159 
 PTGC HN ES       1131 58.30                             111   -0.62 7  304 159 
 ELA  HZ EP   4   1131 31.11                             109    2.49 0  328 230 
 ELA  HN ES   4   1132  8.93                             109    4.10 0  328 230 
 ELA  HZ I        1132 14.19         4.8 0.30            109            328 230 
 LL6C HZ EP   9   1131  6.96                             109   -21.2 0  329 357 
 LL6C HN ES       1131 42.07                                   -0.71 7  329 357 
 CBOC HZ EP       1131 29.38                             109    0.50 7  334 253 
 CBOC HE ES   4   1132  4.35                             109   -0.94 0  334 253 
 CBOC HZ I        1132 14.79         2.5 0.18            109            334 253 
 PRA  HZ EP       1131 35.00                             106   -0.19 6  389 210 
 PRA  HN ES       1132 16.40                             106   -0.11 6  389 210 
 PRA  HZ I        1132 23.75         6.4 0.38            106            389 210 
 ORTC HZ EP       1131 36.38                             105    0.75 6  393 217 
 ORTC HN ES   4   1132 19.41                             105    2.10 0  393 217 
 ORTC HZ I        1132 24.87         4.2 0.50            106            393 217 
 SJC  HZ EP   4   1131 35.51                             104   -2.55 0  413 327 
 SJC  HN ES   4   1132 16.65                             104   -4.98 0  413 327 
                                                                                
