 2012  729 1242 25.6 L   6.755 -73.181144.0  RSN  9 0.5 2.1LRSN                1
 GAP=179        0.98       4.8     6.4  8.3  0.6839E+01  0.1352E+02  0.6845E+01E
 Epicentro: VILLANUEVA - SANTANDER                                             3
 ACTION:UPD 12-08-14 11:46 OP:ep   STATUS:               ID:20120729124225 L   I
 2012-07-29-1240-00M.COL___215                                                 6
 STAT SP IPHASW D HRMM SECON CODA AMPLIT PERI AZIMU VELO AIN AR TRES W  DIS CAZ7
 BAR2 SZ EP       1242 44.81                             173    -0.110   18 181 
 BAR2 SZ ES   1   1242 59.71                             173    -0.3 7   18 181 
 BAR2 SZ I        1243  1.15        42.4 0.16            173             18 181 
 BRR  HZ EP       1242 46.76                             152     0.210   70 304 
 BRR  HE ES   1   1243  3.81                             152     0.9 7   70 304 
 BRR  HZ I        1243  5.60        29.0 0.18            152             70 304 
 RUS  HZ EP       1242 48.70                             145    -0.210   96 174 
 RUS  HN ES   1   1243  7.06                             145     0.0 7   96 174 
 RUS  HZ I        1243  9.08        12.4 0.31            147             96 174 
 PTB  HZ EP   1   1242 51.53                             133    -0.5 7  143 260 
 PTB  HN ES   1   1243 11.92                             133    -0.7 7  143 260 
 PTB  HZ I        1243 13.80        11.0 0.18            133            143 260 
 OCA  HN ES   1   1243 16.48                             128    -0.1 7  165 355 
 ZAR  HZ EP   2   1242 58.48                             122     0.7 4  202 294 
 ZAR  HN ES   1   1243 22.43                             122    -0.5 6  202 294 
 ZAR  HZ I        1243 27.53        14.7 0.33            123            202 294 
 NOR  SZ EP       1243  0.85                             119     0.2 8  229 235 
 NOR  SN ES   2   1243 28.65                             119     0.8 4  229 235 
 CHI  HN ES   2   1243 32.28                             117     0.8 4  243 195 
 PRA  HN ES   2   1243 59.71                             107     0.2 3  386 209 
