 2017  529 1903 43.4 L   6.814 -73.236149.1  RSN  4 0.2 1.2LRSN                1
 GAP=229        0.63       4.0     5.0  5.9  0.8764E+01 -0.1097E+01  0.3219E+01E
 Epicentro: ZAPATOCA - SANTANDER                                               3
 ACTION:UPD 17-06-16 13:40 OP:jn   STATUS:               ID:20170529190343 L   I
 OLDACT:UP  17-06-06 16:59 OP:nlst STATUS:               ID:20170529190343 L   3
 OLDACT:UP  17-05-30 01:43 OP:ar   STATUS:               ID:20170529185736     3
 OLDACT:REG 17-05-29 21:53 OP:ar   STATUS:               ID:20170529185736     3
 2017-05-29-1858-00M.COL___344                                                 6
 STAT SP IPHASW D HRMM SECON CODA AMPLIT PERI AZIMU VELO AIN AR TRES W  DIS CAZ7
 BRR  HZ EP       19 4  4.62                             156    0.2010 61.8 302 
 BRR  HN ES   1   19 4 20.96                             156    0.15 7 61.8 302 
 RUS  HZ EP       19 4  7.82                             144    0.1510  103 171 
 RUS  HN ES       19 4 26.34                             144   -0.2610  103 171 
 RUS  HZ I        19 4 26.68         2.5 0.26            144            103 171 
 PTB  HZ EP       19 4  9.33                             135   -0.47 9  138 257 
 PTB  HN ES       19 4 30.46                             135    0.06 9  138 257 
 PTB  HZ I        19 4 36.27         1.8 0.38            132            138 257 
 CHI  HZ EP       19 4 21.22                             118    0.04 8  248 193 
 CHI  HN ES       19 4 50.92                             118    0.27 8  248 193 
                                                                                
