 2012  329 1141 32.8 L   6.752 -73.137140.8  RSN  8 0.4 2.0LRSN                1
 GAP=140        0.83       5.9     5.2  7.4 -0.3331E+01  0.1281E+02  0.3396E+01E
 ACTION:UP  12-03-31 23:24 OP:EP   STATUS:               ID:20120329114132 L   I
 2012-03-29-1140-00M.COL___196                                                 6
 STAT SP IPHASW D HRMM SECON CODA AMPLIT PERI AZIMU VELO SNR AR TRES W  DIS CAZ7
 BAR2 SZ EP   1   1141 51.83                             172     0.1 7   18 196 
 BAR2 SZ ES   1   1142  6.19                             172    -0.4 7   18 196 
 BAR2 SZ I        1142  8.69        29.1 0.34                            18 196 
 BRR  HZ EP   1   1141 53.76                             150     0.1 7   75 302 
 BRR  HZ I        1141 54.31        38.0 0.12                            75 302 
 BRR  HN ES   1   1142 10.47                             150     0.6 7   75 302 
 PAM  SZ EP   1   1141 54.86                             149     0.1 7   81  37 
 PAM  SN ES   1   1142 11.49                             149    -0.4 7   81  37 
 RUS  HZ EP   1   1141 55.79                             144     0.1 7   95 176 
 RUS  HN ES   2   1142 14.28                             144     0.7 5   95 176 
 RUS  HZ I        1142 16.25        11.3 0.37                            95 176 
 PTB  HZ EP   1   1141 58.62                             131    -0.8 7  148 261 
 PTB  HN ES   2   1142 19.61                             131    -0.5 5  148 261 
 PTB  HZ I        1142 22.36        10.4 0.13                           148 261 
 ZAR  HZ EP   1   1142  5.65                             121     0.4 6  207 293 
 ZAR  HE ES   2   1142 30.64                             121     0.1 4  207 293 
 ZAR  HZ I        1142 34.01         8.6 0.21                           207 293 
 NOR  SE ES   2   1142 35.70                             118     0.2 4  232 236 
 HEL  HZ EP   2   1142 13.22                             114     0.5 4  272 257 
 HEL  HE ES   2   1142 43.41                             114    -0.5 4  272 257 
 HEL  HZ I        1142 50.75         5.2 0.37                           272 257 
                                                                                
