 2017  629 1625 29.0 L   6.836 -73.133147.6  RSN 20 0.6 2.7LRSN                1
 GAP=171        1.34       4.5     3.5  6.4  0.2350E+01  0.4374E+01  0.4744E+01E
 Epicentro: LOS SANTOS - SANTANDER                                             3
 ACTION:UPD 17-09-14 16:56 OP:jn   STATUS:               ID:20170629162528 L   I
 OLDACT:UP  17-06-30 00:47 OP:osc  STATUS:               ID:20170629162528 L   3
 OLDACT:UPD 17-06-30 00:45 OP:lv   STATUS:               ID:20170629162528 L   3
 2017-06-29-1618-00M.COL___367                                                 6
 STAT SP IPHASW D HRMM SECON CODA AMPLIT PERI AZIMU VELO AIN AR TRES W  DIS CAZ7
 BAR2 EZ IP     C 1625 48.73                             169   -0.1810 27.5 191 
 BAR2 EZ ES       1626  3.71                             169   -0.7510 27.5 191 
 BAR2 EZ I        1626  4.88       108.8 0.18            167           27.5 191 
 BRR  HZ EP       1625 50.45                             153    0.1710 70.6 295 
 BRR  HE ES       1626  7.72                             153    0.8210 70.6 295 
 BRR  HZ I        1626 11.35        59.1 0.10            151           70.6 295 
 PTB  HZ EP       1625 55.52                             132   -0.76 9  150 257 
 PTB  HE ES       1626 17.24                             132   -0.34 9  150 257 
 PTB  HZ I        1626 23.46        47.6 0.40            131            150 257 
 TAM  HZ IP     D 1625 57.17                             131    0.40 9  155 107 
 TAM  HE ES       1626 18.91                             131    0.46 9  155 107 
 SPBC HZ EP       1625 57.51                             129   -0.47 9  167 218 
 SPBC HE ES       1626 20.60                             129   -0.01 9  167 218 
 SPBC HZ I        1626 22.28       117.3 0.38            129            167 218 
 YPLC HZ EP       1625 59.16                             126   -0.02 9  180 152 
 YPLC HE ES       1626 23.24                             126    0.50 9  180 152 
 YPLC HZ I        1626 24.10        81.3 0.28            129            180 152 
 ZAR  HZ EP       1626  1.29                             123   -0.22 9  204 291 
 ZAR  HE ES       1626 26.71                             123   -0.19 9  204 291 
 ZAR  HZ I        1626 36.63        32.2 0.12            123            204 291 
 TABC EZ EP   9   1626  6.27                             119    1.00 0  234 211 
 TABC EZ ES       1626 35.29                                    0.71 8  234 211 
 NOR  HZ EP       1626  4.75                             118   -0.42 8  238 234 
 NOR  HE ES       1626 33.25                             118   -0.16 8  238 234 
 NOR  HZ I        1626 40.63        46.7 0.14            119            238 234 
 CHI  HZ EP       1626  6.88                             117   -0.35 8  253 195 
 CHI  HE ES       1626 36.62                             117   -0.44 8  253 195 
 CHI  HZ I        1626 39.51        32.5 0.42            118            253 195 
 ROSC BZ EP   4   1626  8.72                             117    1.08 0  257 211 
 ROSC BE ES   4   1626 39.80                             117    2.00 0  257 211 
 ROSC BZ I        1626 43.33        44.9 0.45            117            257 211 
 HEL  HZ EP       1626 10.81                             115    1.28 8  274 255 
 HEL  HN ES       1626 40.40                             115   -0.77 8  274 255 
 HEL  HZ I        1626 46.31        26.6 0.34            115            274 255 
 URE  HZ EP   2   1626  9.34                             114   -0.77 4  284 291 
 URE  HE ES   4   1626 39.97                             114   -2.22 0  284 291 
 URE  HZ I        1626 46.15        25.2 0.36            114            284 291 
 GUY2CHZ EP       1626 13.74                             112    0.69 7  305 234 
 GUY2CHE ES       1626 49.02                             112    1.59 7  305 234 
 GUY2CHZ I        1626 53.92        19.9 0.22                           305 234 
 VIL  EZ EP       1626 12.49                             112   -0.45 7  308 192 
 VIL  EE ES       1626 46.71                             112   -0.53 7  308 192 
 VIL  EZ I        1626 49.67        41.9 0.40            113            308 192 
 PTGC HZ EP   9   1626 11.93                             112   -1.34 0  312 159 
 PTGC HE ES       1626 45.06                             112   -1.43 7  312 159 
 PTGC HZ I        1626 47.23        40.5 0.26            113            312 159 
 CBOC HZ EP       1626 16.77                             110    0.52 7  336 252 
 CBOC HE ES       1626 53.85                             110    0.72 7  336 252 
 CBOC HZ I        1627  8.37         8.7 0.44            111            336 252 
 DBB  EZ EP       1626 16.11                             110   -0.53 7  341 274 
 DBB  EE ES   4   1626 51.74                             110   -2.09 0  341 274 
 DBB  EZ I        1626 53.35        14.0 0.42            110            341 274 
 ORTC HZ EP       1626 23.24                             106   -0.18 6  399 216 
 ORTC HE ES       1627  6.46                             106    0.56 6  399 216 
 ORTC HZ I        1627 10.12        16.5 0.20            107            399 216 
 PAL  HZ EP       1626 24.42                             106   -0.15 6  409 239 
 PAL  HE ES       1627  8.24                             106    0.30 6  409 239 
 PAL  HZ I        1627 12.72         9.1 0.38            107            409 239 
                                                                                
