 2016 1129 1001 38.4 L   6.771 -73.336122.5  RSN  5 0.3 1.9LRSN                1
 GAP=119        0.89       6.4     3.6  6.5 -0.4376E+01  0.7273E+01 -0.5236E+01E
 Epicentro: ZAPATOCA - SANTANDER                                               3
 ACTION:UPD 17-10-26 21:13 OP:lp   STATUS:               ID:20161129100139dL   I
 OLDACT:REG 16-11-29 20:58 OP:lv   STATUS:               ID:20161129095744     3
 2016-11-29-0958-00M.COL___349                                                 6
 STAT SP IPHASW D HRMM SECON CODA AMPLIT PERI AZIMU VELO AIN AR TRES W  DIS CAZ7
 BAR2 EZ EP       10 1 55.85                             167    0.5510 26.0 139 
 BAR2 EZ ES       10 2  8.61                             167    0.1210 26.0 139 
 BAR2 EZ I        10 2  9.85      1470.5 0.15            171           26.0 139 
 BRR  HZ EP       10 1 56.24                             154    0.0710 55.8 312 
 BRR  HE ES       10 2 10.36                             154    0.3410 55.8 312 
 PAM  EZ EP       10 1 59.30                             140   -0.1410 94.3  48 
 PAM  EE ES       10 2 15.39                             140   -0.4610 94.3  48 
 PAM  EZ I        10 2 19.47         2.8 0.45            142           94.3  48 
 PTB  HZ EP       10 2  1.26                             131   -0.2810  127 258 
 PTB  HN ES       10 2 19.04                             131   -0.5610  127 258 
 PTB  HZ I        10 2 23.38         3.3 0.13            133            127 258 
 ZAR  HZ EP       10 2  7.76                             119    0.25 9  186 295 
 ZAR  HE ES       10 2 30.35                             119    0.13 9  186 295 
 ZAR  HZ I        10 2 32.94         2.8 0.16            121            186 295 
                                                                                
