 2011  529 1322 13.7 L   6.827 -73.088146.1  RSN  5 0.2 1.4LRSN                1
 GAP=165        0.45       3.4     6.5  7.0 -0.1785E+01 -0.2010E+02  0.4199E+01E
 Epicentro: LOS SANTOS - SANTANDER                                             3
 ACTION:UP  11-06-29 08:57 OP:tino STATUS:               ID:20110529132213 L   I
 2011-05-29-1321-31S.COL___113                                                 6
 STAT SP IPHASW D HRMM SECON CODA AMPLIT PERI AZIMU VELO SNR AR TRES W  DIS CAZ7
 BAR2 SZ EP   1   1322 33.49                             169     0.0 7   28 202 
 BAR2 SZ I        1322 49.50         7.8 0.27                            28 202 
 BRR  HZ EP   1   1322 34.92                             151    -0.2 7   76 294 
 BRR  HZ I        1322 42.16         7.5 0.30                            76 294 
 BRR  HE ES   1   1322 51.98                             151     0.1 7   76 294 
 RUS  HZ EP   1   1322 37.94                             143     0.3 7  103 180 
 RUS  HZ I        1322 38.97         2.2 0.13                           103 180 
 RUS  HN ES   2   1322 56.12                             143    -0.3 5  103 180 
 GRA  SZ EP   1   1322 38.67                             138     0.1 7  121  15 
 GRA  SZ ES   2   1322 57.85                             138    -0.2 5  121  15 
 GRA  SZ I        1322 59.22         3.0 0.17                           121  15 
 PRA  HZ EP   2   1323  7.59                             106    -0.3 3  398 210 
                                                                                
