 2016  329 1209 14.3 L   6.782 -73.165143.6  RSN  5 0.3 1.5LRSN                1
 GAP=135        0.76       4.0     3.6  7.7 -0.3741E+00  0.9060E+01 -0.1399E+01E
 Epicentro: LOS SANTOS - SANTANDER                                             3
 ACTION:UPD 16-05-13 21:28 OP:cam  STATUS:               ID:20160329120914 L   I
 OLDACT:REG 16-03-29 20:14 OP:ak   STATUS:               ID:20160329120745     3
 2016-03-29-1207-45M.COL___308                                                 6
 STAT SP IPHASW D HRMM SECON CODA AMPLIT PERI AZIMU VELO AIN AR TRES W  DIS CAZ7
 BAR2 EZ ES   2   12 9 48.46                             171   -0.27 5 21.1 185 
 PAM  EZ EP       12 9 36.46                             149   -0.0210 80.3  40 
 PAM  EN ES       12 9 53.67                             149   -0.1010 80.3  40 
 PAM  EZ I        12 9 55.35         6.6 0.50            151           80.3  40 
 RUS  HZ EP       12 9 37.95                             144    0.2210 98.8 175 
 RUS  HE ES       12 9 56.21                             144    0.2210 98.8 175 
 RUS  HZ I        12 9 57.93         4.0 0.30            145           98.8 175 
 PTB  HZ EP       12 9 40.47                             132   -0.42 9  145 259 
 PTB  HN ES       1210  1.27                             132   -0.34 9  145 259 
 PTB  HZ I        1210  2.97         3.8 0.28            134            145 259 
 ZAR  HE ES       1210 12.17                             122    0.57 9  203 293 
                                                                                
