 2014  829 1005 55.5 L   6.863 -73.200142.1  RSN 14 0.5 2.3LRSN                1
 GAP= 69        1.29       3.5     4.1  6.3 -0.7543E+00  0.1142E+01  0.1296E+01E
 Epicentro: ZAPATOCA - SANTANDER                                               3
 ACTION:UPD 14-09-15 21:54 OP:nd   STATUS:               ID:20140829100555 L   I
 OLDACT:UP  14-08-29 18:53 OP:stll STATUS:               ID:20140829100119     3
 OLDACT:REG 14-08-29 18:43 OP:stll STATUS:               ID:20140829100119     3
 2014-08-29-1001-19M.COL___278                                                 6
 STAT SP IPHASW D HRMM SECON CODA AMPLIT PERI AZIMU VELO AIN AR TRES W  DIS CAZ7
 BAR2 SZ IP     C 10 6 14.95                             167    0.1210 30.0 176 
 BAR2 SZ ES       10 6 29.84                             167   -0.0810 30.0 176 
 BAR2 SZ I        10 6 31.64        30.8 0.22            164           30.0 176 
 BRR  HZ IP     C 10 6 16.61                             155    0.8410 62.7 296 
 BRR  HE ES       10 6 32.19                             155    0.6010 62.7 296 
 BRR  HZ I        10 6 37.16        32.7 0.12            151           62.7 296 
 PAM  SZ EP       10 6 17.58                             150    0.3310 76.4  46 
 PAM  SN ES       10 6 33.90                             150   -0.3210 76.4  46 
 PAM  SZ I        10 6 36.59        51.8 0.54            152           76.4  46 
 PTB  HZ IP     C 10 6 21.47                             132   -0.29 9  143 256 
 PTB  HN ES       10 6 41.66                             132   -0.59 9  143 256 
 PTB  HZ I        10 6 48.13        21.6 0.26            128            143 256 
 OCA  HZ EP       10 6 22.74                             130   -0.06 9  153 355 
 OCA  HN ES       10 6 44.03                             130   -0.07 9  153 355 
 OCA  HZ I        10 6 47.54        32.7 0.16            129            153 355 
 TAM  HZ IP     D 10 6 23.38                             128   -0.22 9  163 107 
 TAM  HZ I        10 6 23.60        38.6 0.38            127            163 107 
 SPBC HZ IP     C 10 6 24.09                             128    0.21 9  165 216 
 SPBC HE ES       10 6 45.87                             128   -0.17 9  165 216 
 SPBC HZ I        10 6 48.46        13.7 0.14            124            165 216 
 ZAR  HZ EP       10 6 28.26                             123    1.41 9  196 291 
 ZAR  HE ES       10 6 51.41                             123    0.09 9  196 291 
 ZAR  HZ I        10 6 58.33        16.7 0.26            120            196 291 
 SML  HZ EP       10 6 30.83                             118   -0.12 8  235 336 
 SML  HN ES       10 6 58.12                             118   -0.49 8  235 336 
 SML  HZ I        10 7  2.96        33.7 0.10            116            235 336 
 CHI  HZ EP       10 6 33.40                             116   -0.16 8  254 193 
 CHI  HN ES       10 7  3.03                             116   -0.22 8  254 193 
 CHI  HZ I        10 7  9.00         4.6 0.24            113            254 193 
 URE  HZ EP       10 6 35.79                             113    0.33 7  276 291 
 URE  HE ES       10 7  5.36                             113   -1.29 7  276 291 
 SOCV BZ IP     C 10 6 37.78                             111   -0.74 7  303  59 
 SOCV BN ES   4   10 7  7.25                             111   -4.83 0  303  59 
 MON  HZ EP   9   10 6 42.16                             108   -1.14 0  345 308 
 MON  HZ I        10 6 49.21         4.4 0.32            106            345 308 
 MON  HN ES       10 7 18.29                                   -1.17 7  345 308 
 PRA  HZ EP       10 6 49.14                             106   -0.11 6  395 208 
 PRA  HZ I        10 7 38.69         5.7 0.38            104            395 208 
                                                                                
