 2013  829 1356 25.8 L   6.700 -73.170140.0  RSN  4 0.5 1.5LRSN                1
 GAP=240        1.28      13.9     9.2 10.2  0.4608E+02  0.2443E+02 -0.6211E+01E
 Epicentro: VILLANUEVA - SANTANDER                                             3
 ACTION:UPD 14-01-14 09:08 OP:ep   STATUS:               ID:20130829135625 L   I
 OLDACT:REG 13-08-29 15:27 OP:nd   STATUS:               ID:20130829134959     3
 2013-08-29-1349-59M.COL___235                                                 6
 STAT SP IPHASW D HRMM SECON CODA AMPLIT PERI AZIMU VELO AIN AR TRES W  DIS CAZ7
 BAR2 SZ EP       1356 44.32                             175   -0.2110 12.0 186 
 BAR2 SZ ES       1356 59.29                             175    0.1310 12.0 186 
 BAR2 SZ I        1357  0.73         4.5 0.12            174           12.0 186 
 BRR  HZ EP       1356 46.26                             150   -0.2610 74.9 307 
 BRR  HN ES       1357  2.86                             150    0.1610 74.9 307 
 BRR  HZ I        1357 10.12        11.5 0.34            147           74.9 307 
 PTB  HZ EP       1356 51.34                             132   -0.53 9  143 263 
 PTB  HN ES       1357 12.52                             132    0.30 9  143 263 
 PTB  HZ I        1357 15.95         3.3 0.16            134            143 263 
 ZAR  HZ EP       1356 59.27                             121    1.22 8  206 295 
 ZAR  HN ES       1357 22.54                             121   -0.69 8  206 295 
 ZAR  HZ I        1357 27.74         3.5 0.26            122            206 295 
                                                                                
