 2010  629 1412 50.8 L   6.787 -73.078139.9  RSN 17 0.5 3.1LRSN                1
 GAP=131        0.91       3.2     5.0  5.6 -0.5945E+01  0.3648E+01  0.1287E+01E
 Epicentro: LOS SANTOS - SANTANDER                                             3
 ACTION:UP  10-08-24 10:13 OP:vdl  STATUS:               ID:20100629141250 L   I
 2010-06-29-1410-51S.COL___118                                                 6
 STAT SP IPHASW D HRMM SECON CODA AMPLIT PERI AZIMU VELO SNR AR TRES W  DIS CAZ7
 BAR2 SZ IP       1413  9.86                             170     0.210   25 208 
 BAR2 SZ ES   1   1413 24.26                             170    -0.2 7   25 208 
 BRR  HZ IP     D 1413 11.80                             149     0.110   79 297 
 BRR  HN ES   1   1413 28.55                             149     0.5 7   79 297 
 BRR  HZ I        1413 33.20       324.4 0.12                            79 297 
 RUS  HZ IP     C 1413 13.83                             143     0.010   99 180 
 RUS  HN ES   1   1413 31.70                             143    -0.1 7   99 180 
 RUS  HZ I        1413 34.05       154.3 0.45                            99 180 
 BRI  SZ IP       1413 14.53                             140     0.510  107  17 
 BRI  SZ ES   2   1413 32.63                             140     0.5 5  107  17 
 GUE  SZ EP       1413 14.88                             138    -0.110  117   8 
 GUE  SZ ES   2   1413 33.64                             138    -0.2 5  117   8 
 OCA  SZ IP       1413 18.57                             128    -0.3 9  163 351 
 OCA  SZ ES   1   1413 39.96                             128    -0.8 7  163 351 
 OCA  SZ I        1413 43.63       248.0 0.37                           163 351 
 CHI  HZ EP   1   1413 28.18                             116     0.0 6  249 197 
 CHI  HE ES   1   1413 56.93                             116    -0.5 6  249 197 
 CHI  HZ I        1414  0.52        51.4 0.39                           249 197 
 ROSC BZ EP   2   1413 28.30                             115    -0.6 4  256 213 
 ROSC BZ I        1414  6.28        67.7 0.48                           256 213 
 CVER SZ EP   2   1413 31.92                             113     0.9 4  274 204 
 HEL  HZ EP   1   1413 31.95                             113     0.5 6  279 256 
 HEL  HE ES   1   1414  2.48                             113    -0.7 6  279 256 
 HEL  HZ I        1414  8.96        67.4 0.44                           279 256 
 GUY  HZ EP   1   1413 35.38                             111     0.7 5  307 236 
 GUY  HE ES   1   1414  9.61                             111     0.6 5  307 236 
 DBB  SZ IP       1413 38.33                             108    -0.5 6  347 274 
 TOL  SZ EP   1   1413 40.05                             108     0.8 5  348 226 
 SDV  BZ IP     D 1413 39.57                             107    -0.4 6  356  49 
 SDV  BZ I        1413 40.37        38.7 0.15                           356  49 
 ANIL HE ES   2   1414 19.85                             107    -0.1 3  362 226 
 ANIL HZ I        1414 27.17       110.0 0.55                           362 226 
 PRA  HZ EP   1   1413 43.93                             105    -0.4 4  395 211 
 PRA  HE ES   1   1414 25.34                             105    -0.9 4  395 211 
 PRA  HZ I        1414 31.13        45.7 0.94                           395 211 
 HORQ SZ EP   2   1414  2.74                             100     1.1 2  537 227 
                                                                                
