 2015  529 1619 21.5 L   5.726 -73.870113.2  RSN 16 0.4 2.1LRSN                1
 GAP= 95        1.04       2.3     2.6  5.3 -0.2159E+01  0.1933E+01 -0.4565E+00E
 Epicentro: ALBANIA - SANTANDER                                                3
 ACTION:UPD 15-09-10 22:07 OP:cam  STATUS:               ID:20150529161921 L   I
 OLDACT:UP  15-05-30 10:39 OP:mh   STATUS:               ID:20150529161747     3
 OLDACT:REG 15-05-30 00:04 OP:spq  STATUS:               ID:20150529161747     3
 2015-05-29-1617-47M.COL___318                                                 6
 STAT SP IPHASW D HRMM SECON CODA AMPLIT PERI AZIMU VELO AIN AR TRES W  DIS CAZ7
 SPBC HZ EP       1619 36.86                             167   -0.1710 23.9 250 
 SPBC HE ES       1619 48.59                             167   -0.5410 23.9 250 
 SPBC HN ES       1619 48.86                             167           23.9 250 
 SPBC HZ I        1619 49.54        67.4 0.18            167           23.9 250 
 RUS  HZ EP       1619 41.62                             139    0.3510 89.1  78 
 RUS  HN ES       1619 56.31                             139   -0.3710 89.1  78 
 RUS  HZ I        1619 58.09        13.5 0.22            134           89.1  78 
 ROSC BZ EP   1   1619 43.10                             133    0.19 7  110 207 
 ROSC BN ES   1   1620  0.53                             133    0.93 7  110 207 
 ROSC BZ I        1620  3.31        25.5 0.30            128            110 207 
 NOR  HZ EP       1619 42.18                             132   -0.4610  112 261 
 NOR  HN ES       1619 59.34                             132    0.2210  112 261 
 NOR  HZ I        1620  0.30        26.1 0.11            130            112 261 
 BAR2 EZ EP   1   1619 44.41                             129    0.58 7  122  38 
 BAR2 EZ ES   1   1620  1.76                             129    0.52 7  122  38 
 BAR2 EZ I        1620  2.87        33.9 0.24            126            122  38 
 CHI  HZ EP   1   1619 44.34                             129    0.28 7  122 173 
 CHI  HE ES   1   1620  1.56                             129   -0.10 7  122 173 
 CHI  HZ I        1620  6.31        20.9 0.30            124            122 173 
 BRR  HZ EP     D 1619 46.90                             122    0.28 9  154   7 
 BRR  HE ES       1620  6.96                             122    0.75 9  154   7 
 BRR  HZ I        1620  9.38        37.7 0.12            120            154   7 
 GUY2CHZ EP       1619 49.81                             119    0.35 9  175 252 
 GUY2CHN ES       1620 11.33                             119    0.07 9  175 252 
 GUY2CHZ I        1620 19.02         6.4 0.58                           175 252 
 VIL  SZ EP       1619 48.78                             118   -0.76 9  180 174 
 VIL  SN ES   1   1620 11.60                             118    0.20 7  180 174 
 VIL  SZ I        1620 17.08        26.8 0.28            113            180 174 
 RREF HZ EP       1619 51.60                             117    0.56 9  187 241 
 RREF HE ES       1620 14.34                             117    0.27 9  187 241 
 RREF HZ I        1620 16.40         6.6 0.30            114            187 241 
 HEL  HZ EP       1619 51.49                             116    0.44 9  191 286 
 HEL  HN ES       1620 13.43                             116   -0.67 9  191 286 
 HEL  HZ I        1620 16.39        11.2 0.46            114            191 286 
 PAM  SZ EP       1619 54.29                             112   -0.22 8  220  36 
 PAM  SN ES       1620 19.81                             112   -0.43 8  220  36 
 PAM  SZ I        1620 28.20         6.3 0.18            109            220  36 
 ZAR  HZ EP       1619 53.80                             112   -0.48 8  224 331 
 ZAR  HN ES       1620 19.46                             112   -0.38 8  224 331 
 ZAR  HZ I        1620 22.56        21.7 0.12            110            224 331 
 PRA  HZ EP       1619 57.16                             109   -0.10 8  249 207 
 PRA  HE ES       1620 25.12                             109   -0.02 8  249 207 
 PRA  HZ I        1620 29.38        11.2 0.38            106            249 207 
 ORTC HZ EP       1619 56.99                             109   -0.60 8  252 217 
 ORTC HN ES       1620 25.71                             109   -0.02 8  252 217 
 ORTC HZ I        1620 31.28         6.8 0.14            106            252 217 
 URE  HZ EP   4   1620  0.33                             106   -1.58 0  290 321 
 URE  HE ES   4   1620 29.95                             106   -3.47 0  290 321 
 SML  HZ EP   4   1620  6.35                             103   -1.56 0  341 356 
 SML  HN ES   4   1620 41.94                             103   -2.17 0  341 356 
 MON  HN ES   4   1620 51.92                             100   -2.97 0  391 330 
 MON  HZ I        1620 55.40         4.1 0.16             97            391 330 
                                                                                
