 2011  529 1921 20.0 L   6.973 -73.157129.7  RSN  9 0.2 1.9LRSN                1
 GAP=150        0.41       2.0     3.2  3.2 -0.2018E+01  0.1822E+01 -0.1417E+01E
 Epicentro: FLORIDABLANCA - SANTANDER                                          3
 ACTION:UP  11-06-29 08:57 OP:tino STATUS:               ID:20110529192120 L   I
 2011-05-29-1920-22S.COL___113                                                 6
 STAT SP IPHASW D HRMM SECON CODA AMPLIT PERI AZIMU VELO SNR AR TRES W  DIS CAZ7
 BAR2 SZ EP       1921 38.46                             161     0.210   42 184 
 BAR2 SZ ES       1921 52.58                             161     0.110   42 184 
 BRR  HZ IP     C 1921 38.76                             152    -0.210   63 284 
 BRR  HN ES   1   1921 53.68                             152     0.0 7   63 284 
 BRR  HZ I        1921 57.34        37.2 0.13                            63 284 
 BRI  SZ EP   2   1921 41.10                             143     0.1 5   91  26 
 GRA  SZ EP   1   1921 42.33                             138     0.0 7  108  21 
 GRA  SZ ES   2   1921 59.65                             138    -0.1 5  108  21 
 GRA  SZ I        1922  6.85         7.4 0.28                           108  21 
 RUS  HZ EP   2   1921 43.45                             135    -0.3 5  120 176 
 RUS  HE ES   2   1922  2.19                             135    -0.1 5  120 176 
 RUS  HZ I        1922  4.23         8.6 0.14                           120 176 
 OCA  SZ EP       1921 45.18                             130    -0.1 9  141 353 
 OCA  SZ ES   2   1922  5.06                             130     0.1 5  141 353 
 OCA  SZ I        1922  9.03        11.9 0.09                           141 353 
 NOR  SZ EP   2   1921 55.85                             114    -0.2 4  245 231 
 NOR  SE ES   2   1922 23.58                             114    -0.5 4  245 231 
 HEL  HZ EP   2   1922  0.49                             111     0.6 4  276 252 
 HEL  HN ES   2   1922 31.43                             111     0.4 4  276 252 
 HEL  HZ I        1922 35.43         9.3 0.27                           276 252 
 PRA  HZ EP   2   1922 14.91                             103     0.0 3  408 208 
 PRA  HN ES   2   1922 58.12                             103     0.4 3  408 208 
                                                                                
