 2013  329 1533 57.4 L   6.795 -73.132155.5  RSN  6 0.2 1.6LRSN                1
 GAP=189        0.52       4.3     4.4  5.4  0.1055E+02 -0.2662E+01 -0.4046E+01E
 Epicentro: LOS SANTOS - SANTANDER                                             3
 ACTION:UPD 13-04-09 14:05 OP:ep   STATUS:               ID:20130329153357 L   I
 2013-03-29-1530-00M.COL___245                                                 6
 STAT SP IPHASW D HRMM SECON CODA AMPLIT PERI AZIMU VELO AIN AR TRES W  DIS CAZ7
 BAR2 SZ EP       1534 18.09                             171   -0.1010 23.1 194 
 GIR2 SZ EP   1   1534 18.01                             168   -0.24 7 32.1 348 
 BRR  HZ EP       1534 19.80                             154    0.1110 72.8 298 
 BRR  HN ES       1534 37.14                             154    0.0710 72.8 298 
 BRR  HN I        1534 40.35         8.8 0.24            155           72.8 298 
 RUS  HZ EP   1   1534 22.61                             146    0.54 7 99.9 177 
 RUS  HE ES       1534 41.22                             146   -0.0910 99.9 177 
 RUS  HE I        1534 41.95         3.2 0.48            150           99.9 177 
 PTB  HZ EP       1534 25.05                             134   -0.24 9  149 259 
 PTB  HN ES   1   1534 47.04                             134   -0.01 7  149 259 
 PTB  HN I        1534 47.35         5.4 0.28            137            149 259 
 ZAR  HN ES   1   1534 56.71                             124    0.11 6  206 292 
                                                                                
