 2013  529 1827 18.2 L   6.797 -73.142147.0  RSN  9 0.4 2.5LRSN                1
 GAP=120        0.93       3.7     4.3  5.6 -0.2807E+01 -0.2897E+01 -0.3452E+01E
 Epicentro: LOS SANTOS - SANTANDER                                             3
 ACTION:UPD 13-06-20 09:54 OP:ep   STATUS:               ID:20130529182718 L   I
 2013-05-29-1818-52M.COL___207                                                 6
 STAT SP IPHASW D HRMM SECON CODA AMPLIT PERI AZIMU VELO AIN AR TRES W  DIS CAZ7
 BAR2 SZ EP       1827 38.00                             171   -0.0210 23.1 191 
 BAR2 SZ ES       1827 52.84                             171   -0.6110 23.1 191 
 BAR2 SZ I        1827 54.49        56.6 0.18            170           23.1 191 
 GIR2 SZ EP       1827 38.03                             167   -0.0510 31.6 350 
 BRR  HZ EP       1827 39.97                             153    0.4110 71.7 299 
 BRR  HN ES       1827 56.66                             153    0.4810 71.7 299 
 BRR  HE I        1827 57.74        64.8 0.18            151           71.7 299 
 PAM  SZ EP       1827 40.88                             151    0.2810 77.4  39 
 PAM  SZ I        1827 41.26        29.2 0.22            153           77.4  39 
 PAM  SN ES       1827 58.13                             151    0.1110 77.4  39 
 RUS  HZ EP       1827 42.10                             144    0.0010  100 176 
 RUS  HE ES       1828  0.97                             144    0.2710  100 176 
 RUS  HN I        1828  1.99        34.6 0.20            145            100 176 
 PTB  HZ EP       1827 45.18                             132   -0.17 9  148 259 
 PTB  HN ES       1828  6.04                             132   -0.44 9  148 259 
 PTB  HE I        1828 11.64        39.0 0.26            131            148 259 
 CAPV BZ EP       1827 45.92                             132    0.18 9  149  38 
 OCA  HZ EP       1827 47.01                             130    0.32 9  161 353 
 OCA  HN ES       1828  8.44                             130   -0.43 9  161 353 
 OCA  HN I        1828 11.06        73.0 0.24            130            161 353 
 SOCV BZ EP       1828  0.53                             112   -0.80 7  301  57 
                                                                                
