 2010  929 1058 23.0 L   6.814 -73.106147.1  RSN  6 0.5 1.6LRSN                1
 GAP=163        1.18       6.6    10.1 13.7 -0.9327E+01 -0.4768E+02  0.6413E+01E
 Epicentro: LOS SANTOS - SANTANDER                                             3
 ACTION:UP  11-02-18 11:06 OP:tino STATUS:               ID:20100929105823 L   I
 2010-09-29-1054-53S.COL___125                                                 6
 STAT SP IPHASW D HRMM SECON CODA AMPLIT PERI AZIMU VELO SNR AR TRES W  DIS CAZ7
 BAR2 SZ EP       1058 43.02                             169     0.110   26 199 
 BRR  HZ EP       1058 44.86                             152     0.410   74 296 
 BRR  HN ES       1059  1.48                             152     0.210   74 296 
 BRR  HZ I        1059  5.73        22.1 0.37                            74 296 
 RUS  HZ EP       1058 47.48                             144     0.510  102 179 
 RUS  HN ES   1   1059  5.22                             144    -0.5 7  102 179 
 RUS  HZ I        1059  7.28         4.8 0.61                           102 179 
 GUE  SZ EP   3   1058 48.12                             140     0.4 2  114  10 
 GRA  SZ EP       1058 47.69                             138    -0.510  123  16 
 GRA  SZ ES   2   1059  7.06                             138    -0.7 5  123  16 
 GRA  SZ I        1059  8.37         9.8 0.55                           123  16 
 NOR  SN ES   1   1059 26.67                             118    -1.0 6  239 235 
 NOR  SZ I        1059 28.72         1.0 0.54                           239 235 
                                                                                
