 2016  829 1116 23.2 L   6.809 -73.069148.0  RSN 17 0.6 2.3LRSN                1
 GAP=104        1.28       3.2     3.7  5.6 -0.3312E+01  0.5425E+00  0.3465E+01E
 Epicentro: LOS SANTOS - SANTANDER                                             3
 ACTION:UPD 16-10-29 15:40 OP:rebc STATUS:               ID:20160829111623 L   I
 OLDACT:UP  16-08-29 22:48 OP:edw  STATUS:               ID:20160829110734     3
 OLDACT:UP  16-08-29 22:43 OP:edw  STATUS:               ID:20160829110734     3
 OLDACT:REG 16-08-29 19:34 OP:edw  STATUS:               ID:20160829110734     3
 2016-08-29-1108-00M.COL___358                                                 6
 STAT SP IPHASW D HRMM SECON CODA AMPLIT PERI AZIMU VELO AIN AR TRES W  DIS CAZ7
 BAR2 EZ EP       1116 43.21                             169    0.0610 27.0 208 
 BAR2 EZ ES       1116 58.45                             169   -0.2910 27.0 208 
 BAR2 EZ I        1117  1.17        60.6 0.28                          27.0 208 
 PAM  EZ EP       1116 46.17                             153    0.8810 71.5  35 
 PAM  EN ES       1117  3.39                             153    0.8510 71.5  35 
 PAM  EZ I        1117  5.62        27.2 0.49                          71.5  35 
 BRR  HZ EP       1116 45.00                             151    0.0210 78.3 295 
 BRR  HN ES       1117  2.12                             151    0.1310 78.3 295 
 BRR  HZ I        1117  6.02        33.0 0.32                          78.3 295 
 RUS  HZ EP       1116 47.17                             144   -0.0310  101 181 
 RUS  HN ES       1117  6.00                             144    0.0610  101 181 
 RUS  HZ I        1117  7.11        28.3 0.28                           101 181 
 PTB  HZ EP   9   1116 49.98                             131   -1.12 0  156 259 
 PTB  HN ES       1117 12.35                             131    0.59 9  156 259 
 PTB  HZ I        1117 16.10        17.2 0.11                           156 259 
 OCA  HZ EP       1116 51.28                             130   -0.41 9  161 350 
 OCA  HN ES       1117 12.97                             130   -0.96 9  161 350 
 SPBC HZ EP       1116 52.13                             129   -0.30 9  169 221 
 SPBC HE ES       1117 15.09                             129   -0.16 9  169 221 
 SPBC HZ I        1117 19.07        29.4 0.18                           169 221 
 ZAR  HZ EP       1116 56.65                             122    0.11 8  212 291 
 ZAR  HN ES       1117 21.55                             122   -1.02 8  212 291 
 ZAR  HZ I        1117 27.03        14.8 0.34                           212 291 
 NOR  HZ EP       1116 59.45                             118   -0.39 8  242 235 
 NOR  HN ES       1117 28.15                             118   -0.29 8  242 235 
 NOR  HZ I        1117 32.86        16.2 0.16                           242 235 
 CHI  HZ EP       1117  1.52                             117    0.17 8  252 197 
 CHI  HN ES       1117 30.64                             117   -0.49 8  252 197 
 CHI  HZ I        1117 40.62         9.3 0.42                           252 197 
 ROSC BZ EP       1117  2.65                             117    0.66 8  258 213 
 ROSC BN ES       1117 33.00                             117    0.73 8  258 213 
 ROSC BZ I        1117 37.90        22.8 0.45                           258 213 
 HEL  HZ EP       1117  3.97                             115   -0.47 7  281 256 
 HEL  HN ES       1117 37.44                             115    0.81 7  281 256 
 HEL  HZ I        1117 42.04         9.7 0.38                           281 256 
 SOCV BZ EP       1117  5.97                             113    0.50 7  294  56 
 SOCV BE ES       1117 38.44                             113   -0.02 7  294  56 
 PTGC HZ EP       1117  6.41                             112   -0.49 7  307 160 
 PTGC HN ES       1117 39.59                             112   -1.41 7  307 160 
 GUY2CHZ EP       1117  8.53                             112    0.79 7  309 236 
 GUY2CHN ES       1117 43.21                             112    0.72 7  309 236 
 GUY2CHZ I        1117 48.46        11.1 0.46                           309 236 
 ELA  HZ EP       1117 10.67                             110   -0.26 7  336 230 
 ELA  HN ES       1117 48.54                             110    0.36 7  336 230 
 ELA  HZ I        1117 55.87         7.9 0.62                           336 230 
 CRJC HZ EP   9   1117 23.85                             104   -1.72 0  466   3 
 CRJC HN ES       1118 12.85                             105    0.33 5  466   3 
                                                                                
