 2010 1129 1236 41.9 L   6.741 -73.130147.8  RSN  7 0.2 1.9LRSN                1
 GAP=161        0.44       3.0     4.8  4.1 -0.1341E+01 -0.1912E+01  0.1516E+01E
 Epicentro: JORDAN - SANTANDER                                                 3
 ACTION:UP  10-12-17 16:55 OP:REBC STATUS:               ID:20101129123641 L   I
 2010-11-29-1232-47S.COL___131                                                 6
 STAT SP IPHASW D HRMM SECON CODA AMPLIT PERI AZIMU VELO SNR AR TRES W  DIS CAZ7
 BAR2 SZ EP   1   1237  1.49                             173    -0.2 7   18 200 
 BAR2 SZ ES   1   1237 17.09                             173    -0.1 7   18 200 
 BAR2 SZ I        1237 17.61        25.4 0.30                            18 200 
 BTL  SZ EP       1237  2.00                             170     0.110   25 322 
 BTL  SZ ES   2   1237 17.34                             170     0.0 5   25 322 
 BRR  HZ EP   1   1237  3.69                             151     0.1 7   76 302 
 BRR  HN ES   1   1237 20.56                             151     0.1 7   76 302 
 BRR  HZ I        1237 21.95        22.5 0.16                            76 302 
 RUS  HZ EP   1   1237  5.26                             146    -0.2 7   94 177 
 RUS  HN ES   2   1237 23.78                             146     0.0 5   94 177 
 RUS  HZ I        1237 25.46        13.9 0.40                            94 177 
 GRA  SZ EP   1   1237  7.80                             136     0.0 7  131  16 
 GRA  SZ I        1237 29.79         9.5 0.30                           131  16 
 NOR  SZ EP   2   1237 17.47                             119    -0.1 4  233 236 
 NOR  SN ES   2   1237 44.84                             119    -0.5 4  233 236 
 CHI  HZ EP   2   1237 19.51                             118     0.4 4  243 196 
 CHI  HN ES   2   1237 48.72                             118     0.6 4  243 196 
 CHI  HZ I        1237 51.37         2.9 0.73                           243 196 
                                                                                
