 2016 1029 1754 33.2 L   5.927 -74.075 88.6  RSN 12 0.4 1.5LRSN                1
 GAP= 73        1.01       2.6     2.6  6.1 -0.2076E+01 -0.2288E+00 -0.7314E+00E
 Epicentro: LA BELLEZA - SANTANDER                                             3
 ACTION:UPD 16-11-09 19:24 OP:rebc STATUS:               ID:20161029175433 L   I
 OLDACT:UP  16-10-29 21:09 OP:edw  STATUS:               ID:20161029174745     3
 OLDACT:UP  16-10-29 21:09 OP:edw  STATUS:               ID:20161029174745     3
 OLDACT:UP  16-10-29 21:07 OP:edw  STATUS:               ID:20161029174745     3
 OLDACT:REG 16-10-29 19:45 OP:edw  STATUS:               ID:20161029174745     3
 2016-10-29-1748-00M.COL___325                                                 6
 STAT SP IPHASW D HRMM SECON CODA AMPLIT PERI AZIMU VELO AIN AR TRES W  DIS CAZ7
 SPBC HZ EP       1754 45.80                             159   -0.2510 30.4 179 
 SPBC HN ES       1754 56.32                             159    0.2410 30.4 179 
 SPBC HZ I        1754 57.15        22.5 0.12            159           30.4 179 
 PTB  HZ IP     C 1754 48.66                             134   -0.6610 79.7 328 
 PTB  HN ES       1755  1.30                             134   -0.5910 79.7 328 
 PTB  HZ I        1755  5.94         6.4 0.10            136           79.7 328 
 NOR  HZ EP       1754 50.74                             128   -0.2010 96.7 245 
 NOR  HN ES       1755  4.78                             128    0.0010 96.7 245 
 RUS  HZ EP   2   1754 52.24                             125   -0.58 5  110  92 
 RUS  HN ES   2   1755  7.98                             125   -0.14 5  110  92 
 BAR2 EZ EP       1754 53.87                             121    0.0210  123  53 
 BAR2 EZ ES       1755 10.20                             121    0.2410  123  53 
 BAR2 EZ I        1755 11.77         8.4 0.40            124            123  53 
 BRR  HZ EP       1754 55.04                             118    0.06 9  136  17 
 BRR  HN ES       1755 12.54                             118    0.58 9  136  17 
 CHI  HZ EP       1754 56.36                             116   -0.46 9  148 165 
 CHI  HN ES       1755 15.76                             116    0.51 9  148 165 
 CHI  HZ I        1755 19.55         2.0 0.20            117            148 165 
 GUY2CHZ EP       1754 58.87                             114    0.38 9  163 242 
 GUY2CHN ES       1755 17.80                             114   -0.41 9  163 242 
 GUY2CHZ I        1755 22.26         7.7 0.26                           163 242 
 HEL  HZ EP       1754 59.04                             114    0.59 9  164 280 
 HEL  HN ES       1755 18.74                             114    0.60 9  164 280 
 HEL  HZ I        1755 22.02         5.3 0.48            114            164 280 
 ELA  HZ EP   4   1755  3.02                             110    1.53 0  188 231 
 ELA  HN ES   4   1755 25.64                             110    2.08 0  188 231 
 ELA  HZ I        1755 31.07         3.7 0.52            111            188 231 
 PAM  EZ EP   4   1755  6.83                             107    1.93 0  218  44 
 PAM  HN ES       1755 29.41                             107   -0.21 8  218  44 
 PRA  HZ EP   2   1755  9.23                             104   -0.20 4  261 200 
 PRA  HN ES   4   1755 39.26                             104    1.57 0  261 200 
 PRA  HZ I        1755 39.71         2.5 0.32            104            261 200 
                                                                                
