 2014  629 1312  0.3 L   6.552 -73.587 96.0  RSN  5 0.3 1.5LRSN                1
 GAP=124        0.73       3.3     3.4  7.0 -0.4526E+01  0.8391E+01 -0.5031E+01E
 Epicentro: EL CARMEN DE CHUCURI - SANTANDER                                   3
 ACTION:UPD 14-07-01 22:57 OP:nd   STATUS:               ID:20140629131200 L   I
 OLDACT:REG 14-06-29 20:16 OP:spq  STATUS:               ID:20140629130812     3
 2014-06-29-1308-12M.COL___243                                                 6
 STAT SP IPHASW D HRMM SECON CODA AMPLIT PERI AZIMU VELO AIN AR TRES W  DIS CAZ7
 BAR2 SZ EP       1312 15.25                             154    0.3610 44.9  84 
 BAR2 SZ ES   1   1312 25.86                             154   -0.44 7 44.9  84 
 BAR2 SZ I        1312 29.74        18.0 0.39            155           44.9  84 
 PTB  HZ IP     D 1312 18.28                             132   -0.2110 96.2 269 
 PTB  HN ES       1312 32.89                             132    0.1810 96.2 269 
 PTB  HZ I        1312 34.23         5.6 0.08            133           96.2 269 
 SPBC HZ EP       1312 19.81                             127   -0.4010  113 208 
 SPBC HE ES       1312 36.09                             127    0.3210  113 208 
 SPBC HZ I        1312 42.52         4.7 0.18            129            113 208 
 OCA  HN ES       1312 50.55                             113    0.07 9  189   9 
 OCA  HZ I        1312 57.66         4.0 0.38            113            189   9 
 HEL  HZ EP       1312 32.32                             110    0.15 8  219 260 
 HEL  HN ES       1312 56.83                             110   -0.22 8  219 260 
 HEL  HZ I        1313  3.31         2.8 0.40            109            219 260 
                                                                                
