 2017  529 1803 33.9 L   6.307 -72.773  0.0  RSN  8 0.6 2.0LRSN                1
 GAP=206        1.34       4.9     5.8  7.4  0.1916E+02  0.2600E+02  0.1661E+02E
 Epicentro: ONZAGA - SANTANDER                                                 3
 ACTION:UPD 17-06-16 13:40 OP:jn   STATUS:               ID:20170529180333 L   I
 OLDACT:UP  17-05-30 01:32 OP:ar   STATUS:               ID:20170529175744     3
 OLDACT:REG 17-05-29 21:51 OP:ar   STATUS:               ID:20170529175744     3
 2017-05-29-1758-00M.COL___344                                                 6
 STAT SP IPHASW D HRMM SECON CODA AMPLIT PERI AZIMU VELO AIN AR TRES W  DIS CAZ7
 RUS  HZ IP   9 C 18 3 42.24                              47   -1.97 0 57.3 217 
 RUS  HE ES       18 3 49.70                              47   -0.6110 57.3 217 
 RUS  HZ I        18 3 51.03        35.3 0.18             47           57.3 217 
 YPLC HZ EP       18 3 51.00                              47   -0.7210  110 157 
 YPLC HN ES       18 4  6.33                              47    0.6910  110 157 
 YPLC HZ I        18 4  9.51        44.5 0.46             47            110 157 
 BRR  HZ EP       18 3 55.66                              47   -0.03 9  136 310 
 BRR  HN ES       18 4 12.79                              47    0.07 9  136 310 
 BRR  HZ I        18 4 14.13        32.3 0.68             47            136 310 
 SPBC HZ EP       18 3 59.21                              47   -0.31 9  161 243 
 SPBC HE ES       18 4 18.72                              47   -0.81 9  161 243 
 SPBC HZ I        18 4 20.48        28.3 0.20             47            161 243 
 PTB  HZ EP       18 4  2.95                              37   -0.35 9  188 278 
 PTB  HN ES       18 4 26.68                              37    0.42 9  188 278 
 PTB  HZ I        18 4 27.43        31.8 0.48             37            188 278 
 TABC EZ EP   4   18 4 10.28                              37    3.23 0  214 228 
 CHI  HZ EP       18 4  7.26                              37    0.26 8  214 210 
 CHI  HE ES   4   18 4 34.63                              37    1.78 0  214 210 
 CHI  HZ I        18 4 39.32         7.5 0.52             37            214 210 
 NOR  HZ EP   4   18 4 14.68                              37    4.06 0  246 251 
 NOR  HN ES       18 4 40.38                              37    1.08 8  246 251 
 NOR  HZ I        18 4 41.99         6.6 0.36             37            246 251 
 ZAR  HZ EP   9   18 4 14.76                              37    1.83 0  265 300 
 ZAR  HN ES       18 4 45.51                              37    0.28 8  265 300 
 ZAR  HZ I        18 4 48.68        17.9 0.44             37            265 300 
                                                                                
