 2014  329 1955 57.8 L   6.803 -73.115146.0  RSN  6 0.4 2.0LRSN                1
 GAP=140        0.97       3.5     7.0  6.3  0.3844E+00  0.6713E+01  0.2509E+01E
 Epicentro: LOS SANTOS - SANTANDER                                             3
 ACTION:UPD 14-04-09 23:21 OP:nd   STATUS:               ID:20140329195557 L   I
 OLDACT:REG 14-03-29 16:45 OP:nd   STATUS:               ID:20140329195046     3
 2014-03-29-1950-46M.COL___250                                                 6
 STAT SP IPHASW D HRMM SECON CODA AMPLIT PERI AZIMU VELO AIN AR TRES W  DIS CAZ7
 BAR2 SZ EP       1956 17.58                             170    0.0710 24.5 198 
 BAR2 SZ ES       1956 32.16                             170   -0.7010 24.5 198 
 BAR2 SZ I        1956 34.32        28.8 0.30            169           24.5 198 
 BRR  HZ EP     C 1956 19.45                             151    0.2810 74.0 297 
 BRR  HN ES       1956 36.33                             151    0.5310 74.0 297 
 BRR  HZ I        1956 41.72        16.6 0.16            150           74.0 297 
 PAM  SZ EP       1956 20.29                             151    0.3610 75.0  38 
 PAM  SN ES       1956 37.11                             151   -0.0610 75.0  38 
 PAM  SZ I        1956 39.84        20.2 0.50            155           75.0  38 
 RUS  HZ EP       1956 21.86                             144    0.2410  101 178 
 RUS  HN ES       1956 40.16                             144   -0.0110  101 178 
 RUS  HZ I        1956 43.13        12.6 0.40            146            101 178 
 SML  HZ EP   1   1956 34.14                             117   -0.45 6  245 335 
 SML  HN ES   1   1957  2.29                             117   -0.97 6  245 335 
 SML  HZ I        1957  6.26        16.6 0.26            119            245 335 
 CHI  HZ EP       1956 35.75                             117    0.07 8  250 196 
 CHI  HN ES       1957  4.82                             117   -0.38 8  250 196 
 CHI  HZ I        1957  9.05         4.1 0.50            119            250 196 
                                                                                
