 2017  729 1948 31.4 L   6.559 -74.131 64.5  RSN  7 0.4 1.4LRSN                1
 GAP= 75        1.01       2.6     2.6  7.3 -0.1271E+00 -0.2895E+01  0.2366E+01E
 Epicentro: PUERTO PARRA - SANTANDER                                           3
 ACTION:UPD 17-08-30 15:38 OP:rebc STATUS:               ID:20170729194831 L   I
 OLDACT:UP  17-07-29 23:49 OP:ar   STATUS:               ID:20170729193743     3
 OLDACT:REG 17-07-29 20:39 OP:ar   STATUS:               ID:20170729193743     3
 2017-07-29-1938-00M.COL___389                                                 6
 STAT SP IPHASW D HRMM SECON CODA AMPLIT PERI AZIMU VELO AIN AR TRES W  DIS CAZ7
 PTB  HZ EP       1948 41.09                             147   -0.6510 36.1 267 
 PTB  HZ I        1948 49.68         8.4 0.34            139           36.1 267 
 PTB  HN ES       1948 49.71                             147   -0.1310 36.1 267 
 BRR  HZ EP       1948 44.85                             124   -0.3810 76.2  37 
 BRR  HN ES       1948 56.47                             124    0.4310 76.2  37 
 BRR  HZ I        1948 57.45        29.4 0.16            115           76.2  37 
 SPBC HZ EP   2   1948 47.93                             116   -0.02 5  101 176 
 SPBC HN ES       1949  0.82                             116   -0.0610  101 176 
 SPBC HZ I        1949  3.80        15.3 0.20            106            101 176 
 BAR2 EZ EP       1948 48.65                             115    0.0210  105  88 
 BAR2 EZ ES       1949  2.21                             115    0.1210  105  88 
 BAR2 EZ I        1949  2.96         7.2 0.21            106            105  88 
 ZAR  HZ EP       1948 50.71                             109   -0.5910  131 322 
 ZAR  HN ES       1949  7.50                             109    0.6410  131 322 
 ZAR  HZ I        1949  9.98         6.7 0.20            101            131 322 
 NOR  HZ EP       1948 52.53                             108    0.42 9  137 217 
 NOR  HE ES       1949  8.69                             108    0.40 9  137 217 
 NOR  HZ I        1949 11.09         5.0 0.22            100            137 217 
 RUS  HZ EP       1948 52.34                             108   -0.34 9  137 122 
 RUS  HN ES       1949  9.49                             108    0.19 9  137 122 
 RUS  HZ I        1949  9.67         1.8 0.16            100            137 122 
                                                                                
