 2010  529 1413  5.6 L   6.822 -72.972143.3  RSN  8 0.4 2.1LRSN                1
 GAP=190        0.79       5.3     9.8  6.9 -0.3439E+02  0.1795E+02 -0.1091E+02E
 Epicentro: CEPITA - SANTANDER                                                 3
 ACTION:UP  10-08-24 10:07 OP:vdl  STATUS:               ID:20100529141305 L   I
 2010-05-29-1411-03S.COL___109                                                 6
 STAT SP IPHASW D HRMM SECON CODA AMPLIT PERI AZIMU VELO SNR AR TRES W  DIS CAZ7
 BAR2 SZ EP       1413 25.16                             166     0.010   35 223 
 BAR2 SZ ES       1413 40.54                             166     0.110   35 223 
 GUE  SZ EP       1413 29.04                             140    -0.610  112   3 
 GRA  SZ EP       1413 30.43                             138     0.410  119   9 
 GRA  SZ ES   2   1413 48.74                             138    -0.4 5  119   9 
 OCA  SZ EP       1413 33.87                             129     0.1 9  161 346 
 OCA  SZ ES   2   1413 56.48                             129     0.7 5  161 346 
 OCA  SZ I        1414  1.88        19.2 0.24                           161 346 
 CHI  HZ EP   2   1413 43.93                             116    -0.1 4  257 199 
 CHI  HN ES   2   1414 14.28                             116     0.3 4  257 199 
 CHI  HZ I        1414 20.47         4.8 0.31                           257 199 
 HEL  HZ EP   2   1413 48.62                             113     0.8 4  291 256 
 HEL  HN ES   2   1414 20.31                             113    -0.4 4  291 256 
 HEL  HZ I        1414 23.68         6.0 0.25                           291 256 
 RREF BZ EP   2   1413 53.96                             109     0.5 3  338 231 
 RREF BN ES   2   1414 30.60                             109    -0.2 3  338 231 
 RREF BZ I        1414 33.69         6.6 0.39                           338 231 
 TOL  SZ ES   2   1414 33.66                             108    -0.8 3  359 227 
                                                                                
