 2017  329 1243 34.6 L   6.775 -73.126146.4  RSN 11 0.5 2.0LRSN                1
 GAP=122        0.93       3.7     4.3  5.8 -0.2480E+00 -0.1784E+01  0.3895E+01E
 Epicentro: LOS SANTOS - SANTANDER                                             3
 ACTION:UPD 17-05-25 18:46 OP:jn   STATUS:               ID:20170329124334 L   I
 OLDACT:UP  17-03-29 21:55 OP:ansd STATUS:               ID:20170329123322     3
 OLDACT:UP  17-03-29 21:53 OP:ansd STATUS:               ID:20170329123322     3
 OLDACT:UP  17-03-29 21:52 OP:ansd STATUS:               ID:20170329123322     3
 OLDACT:UP  17-03-29 21:52 OP:ansd STATUS:               ID:20170329123322     3
 OLDACT:UP  17-03-29 21:51 OP:ansd STATUS:               ID:20170329123322     3
 OLDACT:UP  17-03-29 21:51 OP:ansd STATUS:               ID:20170329123322     3
 OLDACT:REG 17-03-29 20:02 OP:and  STATUS:               ID:20170329123322     3
 2017-03-29-1238-00M.COL___362                                                 6
 STAT SP IPHASW D HRMM SECON CODA AMPLIT PERI AZIMU VELO AIN AR TRES W  DIS CAZ7
 BAR2 EZ IP     C 1243 54.24                             171   -0.0110 21.2 197 
 BAR2 EZ ES       1244  9.10                             171   -0.4910 21.2 197 
 BAR2 EZ I        1244 12.92        16.7 0.66            164           21.2 197 
 BRR  HZ EP       1243 56.17                             152    0.1910 74.4 300 
 BRR  HN ES       1244 13.37                             152    0.7010 74.4 300 
 BRR  HZ I        1244 16.81        15.6 0.14            147           74.4 300 
 PAM  EZ EP       1243 57.00                             151    0.0910 78.2  37 
 PAM  EN ES       1244 14.11                             151   -0.2210 78.2  37 
 RUS  HZ EP       1243 58.56                             145    0.3710 97.7 177 
 RUS  HN ES       1244 16.93                             145    0.3210 97.7 177 
 RUS  HZ I        1244 17.90        17.2 0.26            142           97.7 177 
 PTB  HZ EP   9   1244  1.12                             132   -0.62 0  149 260 
 PTB  HN ES       1244 21.94                             132   -0.37 9  149 260 
 PTB  HZ I        1244 29.31        15.4 0.30            128            149 260 
 SPBC HN ES       1244 25.17                             129   -0.10 9  162 220 
 SPBC HZ I        1244 31.52        16.3 0.22            126            162 220 
 ZAR  HZ EP   3   1244  8.38                             122    1.01 2  207 293 
 ZAR  HN ES       1244 32.25                             122   -0.71 8  207 293 
 ZAR  HZ I        1244 37.91        15.2 0.50            120            207 293 
 CHI  HZ EP   2   1244 11.99                             117   -0.10 4  247 196 
 CHI  HN ES   2   1244 41.41                             117    0.06 4  247 196 
 CHI  HZ I        1244 51.76         4.1 0.32            116            247 196 
 PTGC HZ EP       1244 17.25                             112   -0.84 7  305 159 
 PTGC HN ES   3   1244 50.30                             112   -1.73 2  305 159 
 ORTC HZ EP   3   1244 29.41                             106    1.00 1  395 217 
 ORTC HN ES   2   1245 10.95                             106    0.55 3  395 217 
 ORTC HZ I        1245 16.52         2.3 0.34            106            395 217 
 SJC  HZ EP   4   1244 28.52                             106   -2.04 0  413 327 
 SJC  HN ES   4   1245 11.20                             106   -3.03 0  413 327 
 SJC  HZ I        1245 15.77         2.5 0.54            106            413 327 
                                                                                
