 2015 1229 1539 21.1 L   6.865 -73.171136.0  RSN  6 0.4 1.6LRSN                1
 GAP=200        0.57       5.0     6.9  7.7  0.1480E+02  0.1722E+00  0.3200E+01E
 Epicentro: ZAPATOCA - SANTANDER                                               3
 ACTION:UPD 16-02-04 15:08 OP:cam  STATUS:               ID:20151229153921 L   I
 OLDACT:REG 15-12-29 20:45 OP:dnl  STATUS:               ID:20151229153749     3
 2015-12-29-1537-49M.COL___340                                                 6
 STAT SP IPHASW D HRMM SECON CODA AMPLIT PERI AZIMU VELO AIN AR TRES W  DIS CAZ7
 BAR2 EZ EP   2   1539 39.76                             167    0.07 6 30.2 182 
 BAR2 EZ ES   2   1539 54.40                             167    0.18 6 30.2 182 
 BAR2 EZ I        1539 55.73        11.2 0.11            163           30.2 182 
 RUS  HZ EP   2   1539 43.96                             139   -0.48 6  108 175 
 PTB  HZ EP   2   1539 46.91                             130   -0.23 6  147 256 
 PTB  HN ES   2   1540  6.81                             130   -0.67 6  147 256 
 PTB  HZ I        1540 10.52         6.4 0.10            127            147 256 
 ZAR  HE ES   2   1540 17.56                             121    0.83 6  199 291 
 ZAR  HZ I        1540 23.95         4.0 0.16            119            199 291 
 SML  HZ EP   2   1539 56.16                             116   -0.15 5  236 335 
 SML  HN ES   2   1540 23.62                             116   -0.18 5  236 335 
 CHI  HZ EP       1539 59.18                             114    0.2510  255 194 
 CHI  HN ES   4   1540 24.97                             114   -3.50 0  255 194 
 CHI  HZ I        1540 31.42         1.3 0.19            115            255 194 
                                                                                
