 2012  929 1551 28.6 L   6.798 -73.189136.7  RSN  7 0.4 2.1LRSN                1
 GAP=131        0.90       5.1     6.2  7.8 -0.5751E+01  0.8317E+00  0.4794E+01E
 Epicentro: ZAPATOCA - SANTANDER                                               3
 ACTION:UPD 12-10-22 14:21 OP:ep   STATUS:               ID:20120929155128 L   I
 2012-09-29-1549-44M.COL___209                                                 6
 STAT SP IPHASW D HRMM SECON CODA AMPLIT PERI AZIMU VELO AIN AR TRES W  DIS CAZ7
 BAR2 SZ EP       1551 47.13                             170   -0.0310 22.8 178 
 BAR2 SZ ES   1   1552  1.91                             170    0.30 7 22.8 178 
 BAR2 SZ I        1552  3.00        33.1 0.24                          22.8 178 
 GIR2 SZ EP       1551 47.18                             166   -0.0410 31.0 359 
 GIR2 SZ ES   1   1552  0.65                             166   -1.06 7 31.0 359 
 BRR  HZ EP       1551 49.01                             152    0.4410 67.1 301 
 BRR  HN ES   2   1552  4.80                             152    0.68 5 67.1 301 
 PAM  SZ EP       1551 50.12                             148    0.0210 80.7  42 
 PAM  SN ES   1   1552  7.10                             148    0.26 7 80.7  42 
 PAM  SN I        1552  7.92        27.8 0.26                          80.7  42 
 RUS  HZ EP       1551 51.15                             142   -0.3710  101 173 
 RUS  HN ES   1   1552  9.80                             142    0.43 7  101 173 
 PTB  HN ES   1   1552 14.27                             131   -0.28 7  143 259 
 PTB  HN I        1552 20.14        16.8 0.38                           143 259 
 CHI  HN ES   2   1552 34.51                             115   -0.08 4  247 194 
 CHI  HN I        1552 40.73         9.8 0.36                           247 194 
                                                                                
