 2016  229 1851 13.2 L   6.828 -73.171143.7  RSN  7 0.4 2.1LRSN                1
 GAP=145        0.75       3.5     4.2  5.2 -0.6204E+01  0.4779E+01  0.2737E+01E
 Epicentro: ZAPATOCA - SANTANDER                                               3
 ACTION:UPD 16-03-04 21:30 OP:rebc STATUS:               ID:20160229185113 L   I
 OLDACT:REG 16-02-29 21:55 OP:ar   STATUS:               ID:20160229184748     3
 2016-02-29-1847-48M.COL___301                                                 6
 STAT SP IPHASW D HRMM SECON CODA AMPLIT PERI AZIMU VELO AIN AR TRES W  DIS CAZ7
 BAR2 EZ EP       1851 32.70                             169    0.0310 26.1 183 
 BAR2 EZ IS       1851 47.82                             169           26.1 183 
 BAR2 EZ ES       1851 47.82                             169   -0.0210 26.1 183 
 BAR2 EZ I        1851 50.92        17.7 0.42            167           26.1 183 
 PAM  EZ EP       1851 35.49                             151    0.2910 76.9  43 
 PAM  EN ES       1851 52.44                             151    0.1010 76.9  43 
 PAM  EZ I        1851 54.80        44.3 0.50            155           76.9  43 
 RUS  HZ EP       1851 36.54                             143   -0.4810  104 175 
 RUS  HN ES       1851 55.51                             143   -0.0710  104 175 
 RUS  HZ I        1851 56.56        19.9 0.32            143            104 175 
 PTB  HZ EP       1851 39.57                             132   -0.27 9  146 257 
 PTB  HN ES       1852  0.66                             132    0.07 9  146 257 
 PTB  HZ I        1852  3.02        11.6 0.14            133            146 257 
 SPBC HZ EP       1851 41.79                             129    0.16 9  164 218 
 SPBC HN ES       1852  3.56                             129   -0.23 9  164 218 
 SPBC HZ I        1852 10.59        23.4 0.26            129            164 218 
 CHI  HZ EP       1851 50.58                             117   -0.48 8  251 194 
 CHI  HN ES       1852 20.97                             117    0.40 8  251 194 
 CHI  HZ I        1852 30.12         7.0 0.42            118            251 194 
 ROSC BZ EP   3   1851 53.35                             116    1.98 2  254 210 
 ROSC BN ES       1852 21.67                             116    0.55 8  254 210 
 ROSC BZ I        1852 22.17         9.7 0.50            118            254 210 
                                                                                
