 2012 1129 1939 36.1 L   6.766 -73.166143.2  RSN 10 0.2 2.2LRSN                1
 GAP= 71        0.47       2.1     2.0  3.1 -0.7616E+00  0.1246E+01  0.1223E+01E
 Epicentro: LOS SANTOS - SANTANDER                                             3
 ACTION:UPD 12-12-05 15:37 OP:}ep  STATUS:               ID:20121129193936 L   I
 2012-11-29-1934-35M.COL___208                                                 6
 STAT SP IPHASW D HRMM SECON CODA AMPLIT PERI AZIMU VELO AIN AR TRES W  DIS CAZ7
 BAR2 SZ EP       1939 55.35                             172   -0.0310 19.3 185 
 BAR2 SZ ES       1940 10.71                             172    0.3210 19.3 185 
 BAR2 SZ I        1940 12.03        57.2 0.16                          19.3 185 
 GIR2 SZ EP       1939 55.55                             166   -0.0510 34.7 355 
 PAM  SZ EP       1939 58.30                             149   -0.0410 81.7  39 
 PAM  SN ES       1940 15.56                             149   -0.1010 81.7  39 
 PAM  SZ I        1940 18.07        36.8 0.57                          81.7  39 
 RUS  HZ EP       1939 59.34                             144   -0.0310 97.0 175 
 RUS  HE ES   1   1940 17.55                             144    0.05 7 97.0 175 
 RUS  HE I        1940 20.22        23.6 0.48                          97.0 175 
 PTB  HZ EP       1940  2.36                             132   -0.27 9  145 260 
 PTB  HN ES   1   1940 23.25                             132   -0.04 7  145 260 
 PTB  HZ I        1940 24.96        16.1 0.32                           145 260 
 TAM  HZ EP       1940  3.64                             130   -0.08 9  156 103 
 ZAR  HZ EP   1   1940  8.77                             122    0.42 6  203 293 
 ZAR  HE ES   1   1940 33.28                             122   -0.20 6  203 293 
 ZAR  HZ I        1940 40.41        13.7 0.29                           203 293 
 NOR  HZ EP   1   1940 11.57                             118    0.29 6  231 235 
 NOR  HE ES   1   1940 38.63                             118   -0.07 6  231 235 
 NOR  HZ I        1940 44.90        13.9 0.21                           231 235 
 CHI  HZ EP       1940 13.48                             117    0.25 8  244 195 
 CHI  HE ES   1   1940 41.72                             117   -0.44 6  244 195 
 CHI  HZ I        1940 46.22         7.9 0.50                           244 195 
 PRA  HZ EP   1   1940 29.31                             106    0.26 4  388 210 
 PRA  HZ I        1941 15.92         6.2 0.40                           388 210 
                                                                                
