 2013  629 1846 17.8 L   6.776 -73.143150.0  RSN  7 0.4 1.6LRSN                1
 GAP=138        1.00       4.7     4.8  8.7 -0.7286E-01  0.5281E+01  0.7273E+01E
 Epicentro: LOS SANTOS - SANTANDER                                             3
 ACTION:UPD 14-01-08 09:58 OP:ep   STATUS:               ID:20130629184617 L   I
 OLDACT:REG 13-06-29 16:25 OP:jn   STATUS:               ID:20130629183959     3
 2013-06-29-1839-59M.COL___266                                                 6
 STAT SP IPHASW D HRMM SECON CODA AMPLIT PERI AZIMU VELO AIN AR TRES W  DIS CAZ7
 BAR2 SZ EP   1   1846 37.85                             172   -0.05 7 20.7 192 
 BAR2 SZ I        1846 55.60         6.9 0.40            171           20.7 192 
 BRR  HZ EP       1846 39.85                             153    0.3410 72.8 300 
 BRR  HN ES       1846 57.13                             153    0.7010 72.8 300 
 BRR  HZ I        1847  0.17         5.8 0.42            150           72.8 300 
 PAM  SZ EP       1846 40.82                             151    0.2310 79.3  38 
 PAM  SN ES       1846 57.68                             151   -0.6810 79.3  38 
 PAM  SZ I        1847  0.06         8.1 0.60            150           79.3  38 
 RUS  HZ EP       1846 41.86                             145    0.0710 97.9 176 
 RUS  HE ES       1847  0.67                             145    0.1710 97.9 176 
 PTB  HZ EP       1846 44.94                             133   -0.17 9  148 260 
 PTB  HN ES       1847  5.81                             133   -0.59 9  148 260 
 PTB  HZ I        1847 13.09         5.8 0.38            130            148 260 
 ZAR  HE ES   1   1847 16.09                             123   -0.20 6  205 293 
 ZAR  HZ I        1847 22.04         4.7 0.28            121            205 293 
 CHI  HN ES   1   1847 24.67                             118   -0.18 6  246 195 
                                                                                
