 2013  729 1045 57.9 L   7.108 -73.120149.3  RSN  6 0.3 1.5LRSN                1
 GAP=126        0.71       6.1     5.4 11.4 -0.1130E+02  0.4071E+02 -0.3839E+02E
 Epicentro: BUCARAMANGA - SANTANDER                                            3
 ACTION:UPD 13-08-12 10:40 OP:ep   STATUS:               ID:20130729104557 L   I
 OLDACT:UP  13-07-29 16:09 OP:cam  STATUS:               ID:20130729103959     3
 OLDACT:UP  13-07-29 16:07 OP:cam  STATUS:               ID:20130729103959     3
 OLDACT:UP  13-07-29 16:07 OP:cam  STATUS:               ID:20130729103959     3
 OLDACT:REG 13-07-29 14:35 OP:cam  STATUS:               ID:20130729103959     3
 2013-07-29-1039-59M.COL___268                                                 6
 STAT SP IPHASW D HRMM SECON CODA AMPLIT PERI AZIMU VELO AIN AR TRES W  DIS CAZ7
 GIR2 SZ EP   1   1046 17.69                             176    0.03 7 8.74 248 
 PAM  SN ES       1046 36.24                             160    0.2710 53.0  61 
 BAR2 SZ ES   1   1046 35.12                             158   -0.54 7 57.5 187 
 BAR2 SZ I        1046 36.71         6.5 0.20            169           57.5 187 
 PTB  HN ES   1   1046 48.59                             130    0.05 7  161 247 
 PTB  HN I        1046 49.17         3.0 0.32            134            161 247 
 ZAR  HE ES       1046 55.10                             124    0.34 9  197 283 
 SML  HZ EP   1   1046 31.62                             122   -0.07 6  215 331 
 SML  HN ES   1   1046 57.42                             122   -0.59 6  215 331 
 SML  HZ I        1047  8.98         2.7 0.10            122            215 331 
                                                                                
