 2017  429 1213 52.2 L   6.804 -73.152139.6  RSN 19 0.7 2.8LRSN                1
 GAP=111        1.30       3.8     3.7  6.9  0.7895E+00  0.7789E+01  0.6595E+01E
 Epicentro: LOS SANTOS - SANTANDER                                             3
 ACTION:UPD 17-05-30 21:17 OP:jn   STATUS:               ID:20170429121352 L   I
 OLDACT:UP  17-04-29 21:53 OP:dani STATUS:               ID:20170429120740     3
 OLDACT:UP  17-04-29 21:52 OP:dani STATUS:               ID:20170429120740     3
 OLDACT:UP  17-04-29 21:52 OP:dani STATUS:               ID:20170429120740     3
 OLDACT:REG 17-04-29 21:11 OP:dani STATUS:               ID:20170429120740     3
 2017-04-29-1208-00M.COL___368                                                 6
 STAT SP IPHASW D HRMM SECON CODA AMPLIT PERI AZIMU VELO AIN AR TRES W  DIS CAZ7
 BRR  HZ IP     C 1214 12.72                             152    0.1110 70.4 299 
 BRR  HE ES       1214 29.52                             152    0.9710 70.4 299 
 BRR  HZ I        1214 32.70       134.0 0.38            151           70.4 299 
 PAM  EZ EP       1214 13.79                             150    0.0410 77.6  40 
 PAM  EN ES       1214 30.46                             150   -0.1110 77.6  40 
 PAM  EZ I        1214 32.67       122.5 0.46            158           77.6  40 
 RUS  HZ EP       1214 14.91                             142   -0.4510  101 176 
 RUS  HN ES       1214 33.15                             142   -0.2910  101 176 
 RUS  HZ I        1214 34.92        61.9 0.42            142            101 176 
 PTB  HZ EP   3   1214 17.29                             131   -1.30 2  147 259 
 PTB  HN ES       1214 38.28                             131   -0.91 9  147 259 
 PTB  HZ I        1214 45.65       111.8 0.38            131            147 259 
 SPBC HZ EP       1214 20.17                             128   -0.03 9  163 219 
 SPBC HN ES       1214 41.16                             128   -0.89 9  163 219 
 SPBC HZ I        1214 43.93        80.8 0.20            128            163 219 
 YPLC HZ EP       1214 21.47                             125   -0.13 9  178 151 
 YPLC HN ES       1214 45.32                             125    0.77 9  178 151 
 YPLC HZ I        1214 48.02        38.5 0.28            128            178 151 
 ZAR  HZ EP       1214 23.80                             121   -0.34 9  203 292 
 ZAR  HN ES       1214 49.43                             121    0.36 9  203 292 
 ZAR  HZ I        1214 57.02        73.3 0.50            123            203 292 
 NOR  HZ EP       1214 27.66                             117    0.14 8  234 234 
 NOR  HE ES       1214 55.97                             117    0.89 8  234 234 
 NOR  HZ I        1215  1.96        36.6 0.16            118            234 234 
 CHI  HZ EP       1214 29.35                             116   -0.21 8  249 195 
 CHI  HN ES       1214 58.25                             116   -0.47 8  249 195 
 CHI  HZ I        1215  8.89        17.8 0.40            117            249 195 
 ROSC BZ EP   9   1214 30.98                             115    1.01 0  253 211 
 ROSC BN ES       1215  1.41                                    0.96 8  253 211 
 ROSC BZ I        1215 11.92        41.4 0.40            117            253 211 
 HEL  HZ EP   3   1214 33.13                             114    1.11 2  271 256 
 HEL  HN ES       1215  2.52                             114   -0.57 8  271 256 
 HEL  HZ I        1215 11.37        45.4 0.42            115            271 256 
 PTGC HZ EP   3   1214 34.21                             110   -1.63 2  309 159 
 PTGC HN ES   4   1215  7.39                             110   -2.50 0  309 159 
 PTGC HZ I        1215 10.28        26.2 0.34            113            309 159 
 ELA  HZ EP   4   1214 41.31                             109    2.57 0  329 229 
 ELA  HN ES       1215 14.31                             109   -0.75 7  329 229 
 ELA  HZ I        1215 27.72        19.1 0.13            110            329 229 
 CBOC HZ EP       1214 39.11                             109    0.33 7  333 252 
 CBOC HN ES       1215 15.85                             109    0.73 7  333 252 
 CBOC HZ I        1215 19.70        13.0 0.40            110            333 252 
 DBB  EZ EP       1214 39.07                             108   -0.25 7  339 274 
 DBB  EN ES       1215 14.99                             108   -1.10 7  339 274 
 DBB  EZ I        1215 19.32        17.2 0.32            110            339 274 
 ANIL HZ EP       1214 42.55                             107    0.82 6  357 224 
 ANIL HN ES       1215 20.66                             107    0.29 6  357 224 
 ANIL HZ I        1215 26.66        52.7 0.38            109            357 224 
 ORTC HZ EP       1214 46.31                             105    0.43 6  395 216 
 ORTC HE ES       1215 28.55                             105    0.78 6  395 216 
 ORTC HZ I        1215 33.88        18.1 0.58            107            395 216 
 PAL  HZ EP       1214 47.28                             105    0.19 6  405 239 
 PAL  HN ES       1215 31.52                             105    1.60 6  405 239 
 PAL  HZ I        1215 40.41        11.0 0.25            106            405 239 
 SJC  HZ EP   3   1214 45.62                             105   -1.84 1  408 327 
 SJC  HN ES   4   1215 26.52                             105   -4.05 0  408 327 
 SJC  HZ I        1215 30.80        22.3 0.48            107            408 327 
                                                                                
