 2010  129 1145 49.8 L   6.820 -73.047147.9  RSN  6 0.4 2.3LRSN                1
 GAP=212        0.71       6.4     9.7  7.3 -0.1236E+01  0.2561E+02  0.3555E+01E
 Epicentro: LOS SANTOS - SANTANDER                                             3
 ACTION:UP  10-08-24 09:46 OP:vdl  STATUS:               ID:20100129114549 L   I
 2010-01-29-1145-24S.COL___093                                                 6
 STAT SP IPHASW D HRMM SECON CODA AMPLIT PERI AZIMU VELO SNR AR TRES W  DIS CAZ7
 BAR2 SZ IP       1146 10.13                             169     0.310   29 211 
 BAR2 SZ ES   1   1146 25.34                             169    -0.1 7   29 211 
 GIR2 SZ EP   1   1146  9.57                             167    -0.2 7   33 331 
 RUS  BZ EP   1   1146 13.95                             144     0.1 7  103 182 
 RUS  BN ES   1   1146 32.54                             144    -0.1 7  103 182 
 CHI  HZ EP       1146 27.65                             117    -0.5 8  254 197 
 CHI  HZ I        1146 29.83         8.6 0.10                           254 197 
 CHI  HE ES   2   1146 58.76                             117     0.7 4  254 197 
 HEL  HZ EP   2   1146 32.13                             114     0.8 4  283 256 
 HEL  HE ES   2   1147  3.17                             114    -0.6 4  283 256 
 HEL  HZ I        1147  7.99         7.7 1.06                           283 256 
 RREF BZ EP   2   1146 37.26                             111     0.1 3  332 230 
 RREF BZ I        1147 20.14        11.5 0.18                           332 230 
                                                                                
