 2012  329 1603 44.0 L   6.748 -73.103146.2  RSN  5 0.3 1.6LRSN                1
 GAP=173        0.61       9.8     5.5  8.4 -0.1788E+02  0.6857E+01  0.5558E+01E
 ACTION:UP  12-03-31 23:24 OP:EP   STATUS:               ID:20120329160344 L   I
 2012-03-29-1600-00M.COL___196                                                 6
 STAT SP IPHASW D HRMM SECON CODA AMPLIT PERI AZIMU VELO SNR AR TRES W  DIS CAZ7
 BAR2 SZ EP   2   16 4  3.86                             173     0.2 5   19 207 
 BAR2 SZ ES   2   16 4 18.80                             173    -0.1 5   19 207 
 BRR  HZ EP   1   16 4  5.72                             150     0.1 7   78 301 
 BRR  HN ES   2   16 4 22.82                             150     0.4 5   78 301 
 PAM  SZ EP   1   16 4  6.78                             150     0.4 7   79  34 
 PAM  SN ES   2   16 4 23.19                             150    -0.6 5   79  34 
 PTB  HZ EP   1   16 4 10.91                             131    -0.4 7  151 261 
 PTB  HN ES   2   16 4 32.63                             131     0.0 5  151 261 
 PTB  HZ I        16 4 34.37         3.3 0.14                           151 261 
 ZAR  HE ES   2   16 4 42.96                             121    -0.1 4  211 293 
 ZAR  HZ I        16 4 48.39         4.5 0.38                           211 293 
                                                                                
