 2017  129 1642 37.4 L   6.793 -73.154141.2  RSN  7 0.4 1.5LRSN                1
 GAP=136        1.03       5.1     4.5  7.3  0.1997E+01  0.7587E+01  0.1999E+01E
 Epicentro: LOS SANTOS - SANTANDER                                             3
 ACTION:UPD 17-05-22 16:04 OP:jn   STATUS:               ID:20170129164237 L   I
 OLDACT:UP  17-01-30 00:00 OP:dnl  STATUS:               ID:20170129163744     3
 OLDACT:REG 17-01-29 22:36 OP:dnl  STATUS:               ID:20170129163744     3
 2017-01-29-1638-00M.COL___348                                                 6
 STAT SP IPHASW D HRMM SECON CODA AMPLIT PERI AZIMU VELO AIN AR TRES W  DIS CAZ7
 BAR2 EZ EP       1642 56.46                             170   -0.0410 22.4 188 
 BAR2 EZ ES       1643 10.71                             170   -0.6710 22.4 188 
 BAR2 EZ I        1643 12.35         7.1 0.26            171           22.4 188 
 BRR  HZ EP   2   1642 58.10                             152    0.03 5 70.7 299 
 BRR  HN ES       1643 14.87                             152    0.7110 70.7 299 
 BRR  HZ I        1643 20.35         5.5 0.36            150           70.7 299 
 PAM  EZ EP       1642 59.24                             150   -0.0110 78.6  40 
 PAM  EN ES       1643 16.15                             150   -0.1110 78.6  40 
 PAM  EZ I        1643 18.21         5.6 0.50            153           78.6  40 
 RUS  HZ EP       1643  0.84                             143    0.1510 99.9 175 
 RUS  HE ES       1643 19.42                             143    0.5910 99.9 175 
 RUS  HZ I        1643 21.00         4.5 0.22            146           99.9 175 
 PTB  HZ EP       1643  3.32                             131   -0.62 9  147 259 
 PTB  HN ES       1643 24.29                             131   -0.32 9  147 259 
 PTB  HZ I        1643 26.38         3.8 0.14            132            147 259 
 ZAR  HZ EP   2   1643 10.34                             122    0.81 4  203 292 
 ZAR  HE ES       1643 34.61                             122    0.05 9  203 292 
 ZAR  HZ I        1643 41.26         4.8 0.10            122            203 292 
 NOR  HZ EP   2   1643 12.81                             118    0.04 4  233 234 
 NOR  HN ES   4   1643 37.95                             118   -2.38 0  233 234 
 NOR  HZ I        1643 43.87         1.4 0.18            119            233 234 
                                                                                
