 2011  429 1221 39.0 L   6.738 -73.169147.0  RSN  4 0.3 1.4LRSN                1
 GAP=157        0.76       4.7     9.3  8.1 -0.1100E+02 -0.1970E+02 -0.4691E+00E
 Epicentro: VILLANUEVA - SANTANDER                                             3
 ACTION:UP  11-06-22 15:33 OP:REBC STATUS:               ID:20110429122139 L   I
 2011-04-29-1221-40S.COL___138                                                 6
 STAT SP IPHASW D HRMM SECON CODA AMPLIT PERI AZIMU VELO SNR AR TRES W  DIS CAZ7
 BAR2 SZ EP   1   1221 58.72                             173     0.1 8   16 185 
 BAR2 SZ I        1222 13.21         4.7 0.54                            16 185 
 BAR2 SZ ES   1   1222 13.88                             173    -0.1 8   16 185 
 BRR  HZ EP   1   1221 59.92                             152    -0.4 8   73 304 
 BRR  HZ I        1222  2.15         8.1 0.43                            73 304 
 BRR  HN ES   1   1222 17.28                             152     0.3 8   73 304 
 RUS  HZ EP   1   1222  2.13                             146    -0.3 8   94 174 
 RUS  HZ I        1222 20.13         3.6 0.40                            94 174 
 RUS  HN ES   2   1222 21.07                             146     0.4 5   94 174 
 GRA  SZ EP       1222  5.39                             135     0.410  133  18 
 GRA  SZ ES       1222 24.99                             135    -0.210  133  18 
                                                                                
