 2014 1029 1736 27.5 L   6.788 -73.150138.0  RSN 14 0.5 2.6LRSN                1
 GAP= 71        1.45       4.5     4.4  7.3 -0.3002E+01  0.3418E+01  0.1514E+01E
 Epicentro: LOS SANTOS - SANTANDER                                             3
 ACTION:UPD 14-11-29 23:58 OP:nd   STATUS:               ID:20141029173627 L   I
 OLDACT:UP  14-10-31 11:59 OP:mh   STATUS:               ID:20141029172748     3
 OLDACT:UP  14-10-31 11:59 OP:mh   STATUS:               ID:20141029172748     3
 OLDACT:UP  14-10-31 11:59 OP:mh   STATUS:               ID:20141029172748     3
 OLDACT:UP  14-10-31 11:58 OP:mh   STATUS:               ID:20141029172748     3
 OLDACT:REG 14-10-31 05:32 OP:mh   STATUS:               ID:20141029172748     3
 2014-10-29-1727-48M.COL___283                                                 6
 STAT SP IPHASW D HRMM SECON CODA AMPLIT PERI AZIMU VELO AIN AR TRES W  DIS CAZ7
 BAR2 SZ EP       1736 46.28                             170    0.0910 21.9 189 
 BAR2 SZ ES       1737  0.65                             170   -0.1010 21.9 189 
 BAR2 SZ I        1737  1.86       168.5 0.18            170           21.9 189 
 BRR  HZ EP       1736 48.23                             151    0.3810 71.4 300 
 BRR  HN ES       1737  4.49                             151    0.7910 71.4 300 
 BRR  HZ I        1737  8.92       106.9 0.14            150           71.4 300 
 PAM  SZ EP       1736 49.22                             149    0.2210 78.7  39 
 PAM  SN ES   1   1737  5.83                             149    0.08 7 78.7  39 
 PAM  SZ I        1737  8.85        57.7 0.24            146           78.7  39 
 RUS  HZ EP       1736 50.32                             143   -0.1010 99.3 176 
 RUS  HN ES       1737  8.51                             143    0.2310 99.3 176 
 RUS  HZ I        1737 10.27        54.8 0.36            140           99.3 176 
 PTB  HZ EP       1736 52.92                             130   -0.88 9  147 259 
 PTB  HN ES       1737 13.89                             130   -0.40 9  147 259 
 PTB  HZ I        1737 16.41        73.4 0.16            129            147 259 
 TAM  HZ EP       1736 54.76                             129    0.15 9  155 104 
 TAM  HZ I        1737 14.98        19.1 0.50            126            155 104 
 TAM  HN ES       1737 15.91                             129    0.17 9  155 104 
 OCA  HZ EP       1736 54.72                             128   -0.64 9  162 353 
 OCA  HN ES   1   1737 16.31                             128   -0.77 7  162 353 
 OCA  HZ I        1737 24.19        49.8 0.54            125            162 353 
 SPBC HZ EP       1736 55.16                             128   -0.15 9  162 219 
 SPBC HN ES       1737 16.58                             128   -0.40 9  162 219 
 SPBC HZ I        1737 21.57        48.0 0.40            126            162 219 
 CHI  HZ EP       1737  4.70                             116    0.05 8  247 195 
 CHI  HN ES       1737 33.12                             116   -0.48 8  247 195 
 CHI  HZ I        1737 39.71        13.1 0.28            114            247 195 
 ROSC BZ EP   9   1737  6.04                             115    0.96 0  251 211 
 ROSC BN ES       1737 36.65                                    1.32 8  251 211 
 HEL  HZ EP       1737  8.43                             113    1.17 8  271 256 
 HEL  HN ES       1737 38.21                             113   -0.05 8  271 256 
 HEL  HZ I        1737 45.91        19.5 0.32            111            271 256 
 URE  HZ EP   4   1737  7.58                             112   -0.65 0  284 292 
 URE  HN ES   4   1737 39.45                             112   -0.53 0  284 292 
 GUY2CHZ EP   9   1737 11.32                             111    0.67 0  300 235 
 GUY2CHN ES       1737 46.95                                    1.99 7  300 235 
 DBB  SZ EP   1   1737 14.59                             108   -0.06 5  339 274 
 DBB  SZ ES   4   1737 48.85                             108   -2.56 0  339 274 
 DBB  SZ I    1   1737 55.01        74.7 0.29            106            339 274 
 TOL  SZ EP       1737 15.99                             108    0.66 7  342 225 
 TOL  SN ES   4   1737 54.20                             108    1.59 0  342 225 
 TOL  SZ I        1738  1.81        37.0 0.74            106            342 225 
                                                                                
