 2012  629 1925 41.2 L   6.716 -73.145138.7  RSN  6 0.3 1.5LRSN                1
 GAP=140        0.72       4.5     4.2  6.8  0.2418E+01  0.5023E+01  0.2056E+01E
 Epicentro: VILLANUEVA - SANTANDER                                             3
 ACTION:UPD 12-08-06 17:53 OP:ep   STATUS:               ID:20120629192541 L   I
 2012-06-29-1920-49M.COL___181                                                 6
 STAT SP IPHASW D HRMM SECON CODA AMPLIT PERI AZIMU VELO AIN AR TRES W  DIS CAZ7
 BAR2 SZ EP   1   1926  0.14                             174    0.37 7 14.3 197 
 BAR2 SZ ES   1   1926 14.93                             174    0.63 7 14.3 197 
 BAR2 SZ I        1926 16.51         8.4 0.31                          14.3 197 
 BRR  HZ EP   1   1926  1.78                             149   -0.05 7 76.1 305 
 BRR  HN ES   1   1926 18.13                             149    0.16 7 76.1 305 
 BRR  HZ I        1926 20.87        15.8 0.20                          76.1 305 
 PAM  SZ EP   1   1926  3.32                             147    0.24 7 84.7  35 
 PAM  SN ES   1   1926 19.61                             147   -0.58 7 84.7  35 
 PAM  SZ I        1926 23.44         3.5 0.44                          84.7  35 
 RUS  HZ EP       1926  3.60                             145    0.0610 91.3 176 
 RUS  HN ES   1   1926 20.45                             145   -0.55 7 91.3 176 
 PTB  HZ EP   1   1926  7.38                             131   -0.03 7  146 262 
 PTB  HN ES   1   1926 27.72                             131   -0.18 7  146 262 
 PTB  HZ I        1926 32.60         2.9 0.17                           146 262 
 ZAR  HE ES   1   1926 38.61                             120   -0.19 6  208 295 
                                                                                
