 2011  329 1001 58.9 L   7.089 -72.905128.4  RSN  4 0.4 1.5LRSN                1
 GAP=202        0.92      16.2    18.3 22.8 -0.2280E+03 -0.2948E+03  0.2108E+03E
 Epicentro: SANTA BARBARA - SANTANDER                                          3
 ACTION:UP  11-06-16 14:36 OP:jfem STATUS:               ID:20110329100158 L   I
 2011-03-29-0958-14S.COL___138                                                 6
 STAT SP IPHASW D HRMM SECON CODA AMPLIT PERI AZIMU VELO SNR AR TRES W  DIS CAZ7
 BTL  SZ EP   1   10 2 17.84                             161     0.7 7   44 245 
 BAR2 SZ EP   2   10 2 17.40                             152    -0.7 5   63 209 
 BAR2 SZ I        10 2 41.88         6.0 0.58                            63 209 
 GRA  SZ IP       10 2 19.73                             144     0.110   89   7 
 GRA  SZ ES   2   10 2 35.48                             144    -0.3 5   89   7 
 GRA  SZ I        10 2 36.77         7.7 0.30                            89   7 
 BRR  HZ EP   1   10 2 19.09                             144    -0.4 7   89 271 
 BRR  HE ES   1   10 2 35.48                             144     0.0 7   89 271 
 BRR  HZ I        10 3  4.50         7.3 0.51                            89 271 
                                                                                
