 2012  329 1103  3.2 L   7.487 -73.286 20.0  RSN 14 0.4 2.9LRSN                1
 GAP=107        0.80       2.0     2.6  3.7  0.5140E+00  0.4518E+01  0.1913E+01E
 ACTION:UP  12-03-31 23:24 OP:EP   STATUS:               ID:20120329110303 L   I
 2012-03-29-1100-00M.COL___196                                                 6
 STAT SP IPHASW D HRMM SECON CODA AMPLIT PERI AZIMU VELO SNR AR TRES W  DIS CAZ7
 BRR  HZ IP     D 11 3 13.77                             105     0.110   63 228 
 BRR  HE ES   2   11 3 22.61                             105     0.8 5   63 228 
 BRR  HZ I        11 3 24.25       416.5 0.15                            63 228 
 PAM  SZ IP       11 3 14.69                             105     0.010   67 104 
 PAM  SN ES   1   11 3 23.70                             105     0.0 7   67 104 
 OCA  SZ EP       11 3 16.64                             101    -0.110   83 357 
 OCA  SZ ES   1   11 3 27.65                             101     0.3 7   83 357 
 BAR2 SZ IP       11 3 18.97                              99    -0.310  100 173 
 BAR2 SZ ES   2   11 3 30.90                              99    -1.0 5  100 173 
 BAR2 SZ I        11 3 33.19       631.3 0.51                           100 173 
 PTB  HZ EP   2   11 3 26.75                              56    -1.1 5  166 231 
 PTB  HN ES   1   11 3 47.24                              56     0.1 7  166 231 
 PTB  HZ I        11 3 49.91       108.1 0.18                           166 231 
 ZAR  HZ EP   1   11 3 28.40                              56    -0.3 7  174 270 
 ZAR  HN ES   2   11 3 47.99                              56    -0.7 4  174 270 
 ZAR  HZ I        11 3 56.04        65.9 0.16                           174 270 
 RUS  HZ IP     C 11 3 30.50                              56     0.6 9  178 173 
 RUS  HZ I        11 3 31.09       583.9 0.17                           178 173 
 RUS  HN ES   1   11 3 51.18                              56     0.5 7  178 173 
 COD  HZ EP   2   11 3 40.54                              55    -0.4 4  271 356 
 COD  HN ES   2   11 4 10.33                              55    -0.1 4  271 356 
 COD  HZ I        11 4 19.09        64.3 0.32                           271 356 
 NOR  SZ EP   2   11 3 41.46                              55    -0.1 4  276 220 
 NOR  SN ES   2   11 4 11.49                              55     0.0 4  276 220 
 MON  HZ EP   2   11 3 44.94                              55     0.6 4  299 299 
 MON  HN ES   2   11 4 16.68                              55     0.3 4  299 299 
 MON  HZ I        11 4 39.24        22.5 0.75                           299 299 
 CHI  HZ EP   2   11 3 47.40                              55    -0.1 3  320 189 
 CHI  HZ I        11 4 51.39        17.2 0.62                           320 189 
 RREF HZ EP   2   11 3 53.40                              55     0.0 3  366 219 
 RREF HZ I        11 4 56.44        24.2 0.57                           366 219 
 TOL  SZ EP   2   11 3 56.42                              55     0.2 3  392 215 
 SJA  SZ EP   2   11 4  5.69                              55    -0.2 2  472 189 
 SJA  SZ ES       11 4 54.57                              55    -0.2 5  472 189 
                                                                                
