 2012  229 1412 47.6 L   6.763 -73.139148.3  RSN  6 0.4 1.9LRSN                1
 GAP=139        0.75       5.2     5.0  7.3  0.3436E+01  0.7768E+01  0.9105E+00E
 ACTION:UP  12-03-07 16:35 OP:epov STATUS:               ID:20120229141247 L   I
 2012-02-29-1410-00M.COL___191                                                 6
 STAT SP IPHASW D HRMM SECON CODA AMPLIT PERI AZIMU VELO AIN AR TRES W  DIS CAZ7
 BAR2 SZ EP   1   1413  7.49                             172    0.07 7 19.4 194 
 BAR2 SZ ES   1   1413 22.27                             172   -0.64 7 19.4 194 
 BAR2 SZ I        1413 23.84        21.9 0.15                          19.4 194 
 BRR  HZ EP   1   1413  9.35                             152    0.23 7 73.9 301 
 BRR  HN ES   1   1413 26.63                             152    0.68 7 73.9 301 
 BRR  HZ I        1413 29.08        25.0 0.16                          73.9 301 
 PAM  SZ EP   1   1413 10.37                             150    0.17 7 80.2  37 
 PAM  SE ES   1   1413 27.60                             150   -0.27 7 80.2  37 
 PAM  SZ I        1413 29.55         8.2 0.41                          80.2  37 
 RUS  HZ EP   1   1413 11.41                             145    0.15 7 96.4 176 
 RUS  HE ES   1   1413 30.02                             145    0.27 7 96.4 176 
 RUS  HZ I        1413 31.18        11.1 0.27                          96.4 176 
 PTB  HZ EP   1   1413 14.14                             132   -0.58 7  148 260 
 PTB  HE ES   2   1413 35.91                             132    0.00 5  148 260 
 ZAR  HN ES   1   1413 45.80                             123   -0.21 6  206 293 
                                                                                
