 2013  729 1954 48.0 L   6.114 -73.660118.6  RSN 14 0.5 2.3LRSN                1
 GAP= 96        1.03       3.0     3.2  5.8 -0.2908E+01  0.5598E+01 -0.2971E+01E
 Epicentro: CHIPATA - SANTANDER                                                3
 ACTION:UPD 13-08-12 10:40 OP:ep   STATUS:               ID:20130729195448 L   I
 OLDACT:UP  13-07-29 17:34 OP:cam  STATUS:               ID:20130729194959     3
 OLDACT:UP  13-07-29 17:34 OP:cam  STATUS:               ID:20130729194959     3
 OLDACT:REG 13-07-29 15:43 OP:cam  STATUS:               ID:20130729194959     3
 2013-07-29-1949-59M.COL___267                                                 6
 STAT SP IPHASW D HRMM SECON CODA AMPLIT PERI AZIMU VELO AIN AR TRES W  DIS CAZ7
 SPBC HZ EP       1955  6.03                             148   -0.2310 68.4 222 
 RUS  HZ IP     C 1955  6.76                             148   -0.0810 68.4 111 
 RUS  HN ES       1955 21.22                             148   -0.2910 68.4 111 
 RUS  HZ I        1955 22.63        26.1 0.22            145           68.4 111 
 SPBC HZ I        1955  6.28        86.8 0.22            147           68.4 222 
 SPBC HN ES       1955 20.99                             148    0.5010 68.4 222 
 BAR2 SZ EP       1955  7.12                             146    0.2210 74.8  45 
 BAR2 SZ ES       1955 21.58                             146   -0.0310 74.8  45 
 BAR2 SZ I        1955 22.82       188.3 0.32            141           74.8  45 
 PTB  HZ EP     D 1955  7.40                             137   -1.1010 99.9 298 
 PTB  HE ES   1   1955 25.14                             137    0.67 7 99.9 298 
 PTB  HZ I        1955 25.80        44.1 0.20            134           99.9 298 
 BRR  HZ EP       1955  9.33                             134   -0.0110  110 357 
 BRR  HE ES       1955 25.82                             134   -0.1510  110 357 
 BRR  HZ I        1955 29.58        39.7 0.12            129            110 357 
 GIR2 SZ EP       1955 10.60                             132    0.3010  119  26 
 GIR2 SZ I        1955 29.42        22.7 0.29            127            119  26 
 NOR  HZ EP       1955 12.57                             125   -0.34 9  147 246 
 NOR  HN ES       1955 32.22                             125   -0.10 9  147 246 
 NOR  HZ I        1955 33.85        72.9 0.20            122            147 246 
 PAM  SZ EP       1955 16.49                             121    0.43 9  172  38 
 PAM  SE ES   1   1955 37.83                             121   -0.09 7  172  38 
 PAM  SZ I        1955 38.80        11.0 0.15            116            172  38 
 ZAR  HZ EP   1   1955 18.39                             116   -0.24 6  202 319 
 ZAR  HE ES       1955 42.17                             116   -0.32 9  202 319 
 ZAR  HZ I        1955 44.64        30.3 0.28            112            202 319 
 HEL  HZ EP   1   1955 20.55                             115    0.90 6  207 272 
 HEL  HN ES   1   1955 44.54                             115    0.23 6  207 272 
 HEL  HZ I        1955 48.64         6.5 0.20            113            207 272 
 GUY2CHZ EP       1955 20.97                             115    0.53 8  213 243 
 URE  HZ EP   1   1955 25.96                             108   -0.94 6  275 311 
 PRA  HZ EP   1   1955 30.15                             107    0.51 5  298 207 
 PRA  HN ES   1   1956  1.73                             107   -0.36 5  298 207 
 PRA  HZ I        1956  5.58        11.2 0.22            104            298 207 
 SML  HZ EP   2   1955 30.34                             106    0.48 4  301 351 
 SML  HN ES       1956  3.03                             106    0.54 7  301 351 
 SML  HZ I        1956  7.13        16.7 0.26            103            301 351 
                                                                                
