 2010  929 1521  3.8 L   6.822 -73.076152.0  RSN  4 0.1 1.6LRSN                1
 GAP=172        0.32       3.2     6.7  5.7  0.1445E+02 -0.2852E+02 -0.9365E+01E
 Epicentro: LOS SANTOS - SANTANDER                                             3
 ACTION:UP  11-02-18 11:06 OP:tino STATUS:               ID:20100929152103 L   I
 2010-09-29-1516-24S.COL___125                                                 6
 STAT SP IPHASW D HRMM SECON CODA AMPLIT PERI AZIMU VELO SNR AR TRES W  DIS CAZ7
 BAR2 SZ EP       1521 24.20                             169    -0.110   28 205 
 BAR2 SZ I        1521 24.39         9.5 0.43                            28 205 
 BRR  HZ EP       1521 25.95                             152     0.010   77 294 
 BRR  HZ I        1521 26.43        14.7 0.32                            77 294 
 BRR  HN ES       1521 43.26                             152     0.010   77 294 
 RUS  HZ EP       1521 28.40                             144     0.110  103 180 
 RUS  HN ES   1   1521 47.47                             144     0.0 7  103 180 
 RUS  HZ I        1521 50.44         2.7 0.38                           103 180 
 GUE  SZ EP   1   1521 28.86                             142     0.0 7  113   9 
                                                                                
