 2012  129 1002 30.9 L   6.826 -73.145146.1  RSN  9 0.3 1.7LRSN                1
 GAP=135        0.71       3.7     3.7  5.2  0.1144E+00  0.2742E+01  0.1747E+01E
 Epicentro: LOS SANTOS - SANTANDER                                             3
 ACTION:UP  12-02-03 08:21 OP:REBC STATUS:               ID:20120129100230 L   I
 2012-01-29-1000-00M.COL___188                                                 6
 STAT SP IPHASW D HRMM SECON CODA AMPLIT PERI AZIMU VELO SNR AR TRES W  DIS CAZ7
 BAR2 SZ EP       10 2 50.53                             169    -0.110   26 189 
 BAR2 SZ I        10 3  8.29         8.0 0.92                            26 189 
 GIR2 SZ EP       10 2 50.41                             168    -0.210   28 349 
 GIR2 SZ ES   1   10 3  5.82                             168    -0.1 7   28 349 
 BRR  HZ EP       10 2 52.30                             153     0.210   70 296 
 BRR  HN ES   1   10 3  9.19                             153     0.7 7   70 296 
 BRR  HZ I        10 3 13.42        16.7 0.16                            70 296 
 PAM  SZ EP       10 2 53.09                             152     0.010   75  41 
 PAM  SN ES   1   10 3 10.10                             152    -0.2 7   75  41 
 RUS  HZ EP       10 2 55.22                             143     0.310  103 176 
 RUS  HN ES   1   10 3 13.45                             143    -0.2 7  103 176 
 RUS  HZ I        10 3 15.36         5.8 0.30                           103 176 
 PTB  HZ EP       10 2 57.66                             132    -0.3 9  148 258 
 PTB  HN ES   1   10 3 18.98                             132    -0.1 7  148 258 
 PTB  HZ I        10 3 20.51         5.1 0.12                           148 258 
 OCA  SZ EP       10 2 59.10                             130     0.1 9  157 353 
 OCA  SZ I        10 3 25.34         8.1 0.40                           157 353 
 ZAR  HZ EP   1   10 3  3.24                             123    -0.1 6  203 291 
 ZAR  HE ES   1   10 3 28.34                             123    -0.2 6  203 291 
 ZAR  HZ I        10 3 33.77        10.4 0.30                           203 291 
 CHI  HZ EP   1   10 3  9.30                             117     0.3 6  251 195 
 CHI  HZ I        10 3 45.13         2.7 0.44                           251 195 
                                                                                
