 2017  129 1042 48.4 L   6.802 -73.154145.5  RSN  8 0.4 1.8LRSN                1
 GAP=135        0.90       3.7     4.1  6.7  0.6963E+00  0.5823E+01  0.2524E+01E
 Epicentro: LOS SANTOS - SANTANDER                                             3
 ACTION:UPD 17-05-22 16:04 OP:jn   STATUS:               ID:20170129104248 L   I
 OLDACT:REG 17-01-29 22:06 OP:dnl  STATUS:               ID:20170129103748     3
 2017-01-29-1038-00M.COL___333                                                 6
 STAT SP IPHASW D HRMM SECON CODA AMPLIT PERI AZIMU VELO AIN AR TRES W  DIS CAZ7
 BAR2 EZ EP     C 1043  7.78                             170   -0.1810 23.4 188 
 BAR2 EZ ES       1043 22.91                             170   -0.3410 23.4 188 
 BAR2 EZ I        1043 23.64        11.7 0.30            170           23.4 188 
 BRR  HZ EP       1043  9.58                             153    0.1510 70.3 299 
 BRR  HN ES       1043 26.61                             153    0.7410 70.3 299 
 BRR  HZ I        1043 30.20        14.4 0.12            151           70.3 299 
 PAM  EZ EP       1043 10.65                             151    0.0810 77.8  40 
 PAM  EN ES       1043 27.59                             151   -0.3110 77.8  40 
 PAM  EZ I        1043 29.58        13.5 0.50            153           77.8  40 
 RUS  HZ EP   2   1043 12.05                             144   -0.05 5  101 176 
 RUS  HN ES       1043 30.94                             144    0.3210  101 176 
 RUS  HZ I        1043 32.30        10.0 0.32            145            101 176 
 PTB  HZ EP   2   1043 14.74                             132   -0.49 5  147 259 
 PTB  HN ES       1043 35.45                             132   -0.74 9  147 259 
 PTB  HZ I        1043 38.27         8.8 0.24            132            147 259 
 ZAR  HZ EP   2   1043 20.68                             122   -0.01 4  203 292 
 ZAR  HE ES       1043 46.10                             122    0.18 9  203 292 
 ZAR  HZ I        1043 51.19         6.6 0.42            122            203 292 
 CHI  HZ EP   2   1043 26.13                             117    0.10 4  249 195 
 CHI  HE ES       1043 55.64                             117    0.22 8  249 195 
 CHI  HZ I        1043 58.85         2.2 0.28            118            249 195 
 URE  HZ EP   4   1043 31.25                             114    1.94 0  283 292 
 URE  HN ES   4   1043 58.90                             114   -2.36 0  283 292 
 URE  HZ I        1044  3.09         3.5 0.20            114            283 292 
                                                                                
