 2015  729 1141 17.6 L   6.485 -73.180141.7  RSN  7 0.5 2.1LRSN                1
 GAP=172        1.30       6.1     7.5  9.1  0.6563E+01  0.3615E+02  0.8708E+01E
 Epicentro: PINCHOTE - SANTANDER                                               3
 ACTION:UPD 15-09-08 21:51 OP:cam  STATUS:               ID:20150729114117 L   I
 OLDACT:ARG 15-07-29 19:51 OP:spq  STATUS:               ID:20150729113748     3
 2015-07-29-1137-48M.COL___334                                                 6
 STAT SP IPHASW D HRMM SECON CODA AMPLIT PERI AZIMU VELO AIN AR TRES W  DIS CAZ7
 BAR2 EZ EP       1141 36.49                             175   -0.1210 11.8 359 
 BAR2 EZ ES       1141 50.93                             175   -0.4810 11.8 359 
 BAR2 EZ I        1141 52.12        59.3 0.28            174           11.8 359 
 RUS  HZ EP       1141 38.78                             154   -0.0310 66.4 171 
 RUS  HN ES       1141 55.48                             154    0.1610 66.4 171 
 RUS  HZ I        1141 57.22        28.3 0.28            156           66.4 171 
 BRR  HZ EP       1141 39.95                             146    0.3610 90.5 320 
 BRR  HZ I        1141 40.19        26.2 0.16            145           90.5 320 
 BRR  HN ES       1141 57.48                             146    0.7810 90.5 320 
 CPBEREZ EP       1141 43.07                             132   -0.63 9  141 273 
 NOR  HZ EP       1141 51.00                             120    0.17 8  213 242 
 NOR  HE ES       1142 15.79                             120   -0.91 8  213 242 
 NOR  HZ I        1142 19.67         7.8 0.24            121            213 242 
 ZAR  HZ EP       1141 50.62                             120   -0.50 8  216 301 
 ZAR  HN ES       1142 16.93                             120   -0.30 8  216 301 
 ZAR  HZ I        1142 22.87        13.5 0.32            120            216 301 
 GUY2CHZ EP       1141 59.44                             113    0.84 7  279 240 
 GUY2CHN ES       1142 31.43                             113    0.90 7  279 240 
 GUY2CHZ I        1142 38.55         4.7 0.72                           279 240 
                                                                                
