 2011 1229 1532  1.3 L   6.764 -73.173144.5  RSN  8 0.4 1.8LRSN                1
 GAP=135        0.70       4.5     5.6  7.5 -0.1209E+00  0.1344E+02  0.6735E+01E
 Epicentro: LOS SANTOS - SANTANDER                                             3
 ACTION:UPD 12-07-13 16:19 OP:ep   STATUS:               ID:20111229153202dL   I
 2011-12-29-1530-00M.COL___188                                                 6
 STAT SP IPHASW D HRMM SECON CODA AMPLIT PERI AZIMU VELO AIN AR TRES W  DIS CAZ7
 BAR2 SZ EP   1   1532 20.56                             172   -0.09 7 19.0 183 
 BAR2 SZ ES   2   1532 34.93                             172   -0.84 5 19.0 183 
 BAR2 SZ I        1532 37.78        12.2 0.19                          19.0 183 
 GIR2 SZ EP   1   1532 20.74                             166   -0.13 7 34.9 356 
 BRR  HZ EP   1   1532 22.95                             152    0.72 7 70.6 303 
 BRR  HE ES   2   1532 39.06                             152    0.47 5 70.6 303 
 BRR  HZ I        1532 41.29        18.6 0.14                          70.6 303 
 PAM  SZ EP   1   1532 23.47                             149   -0.16 7 82.4  39 
 PAM  SZ I        1532 24.05         5.5 0.17                          82.4  39 
 PAM  SN ES   2   1532 40.72                             149   -0.37 5 82.4  39 
 RUS  HZ EP   1   1532 24.78                             145    0.17 7 96.9 174 
 RUS  HE ES   2   1532 43.52                             145    0.69 5 96.9 174 
 RUS  HZ I        1532 45.76         7.9 0.44                          96.9 174 
 ZAR  HZ EP   1   1532 33.09                             122   -0.39 6  203 293 
 ZAR  HN ES   2   1532 58.86                             122    0.24 4  203 293 
 ZAR  HZ I        1533  4.99         7.4 0.29                           203 293 
 NOR  SZ EP   1   1532 36.19                             119   -0.21 6  230 235 
 NOR  SN ES   2   1533  3.06                             119   -0.75 4  230 235 
 CHI  HZ EP   1   1532 38.62                             117    0.24 6  244 195 
 CHI  HN ES   2   1533  7.06                             117   -0.27 4  244 195 
                                                                                
