 2012  329 1205 38.3 L   6.782 -73.106147.1  RSN 11 0.4 2.2LRSN                1
 GAP=118        0.78       4.1     4.8  6.6 -0.6213E+00  0.6042E+01  0.7567E+01E
 ACTION:UP  12-03-31 23:24 OP:EP   STATUS:               ID:20120329120538 L   I
 2012-03-29-1200-00M.COL___196                                                 6
 STAT SP IPHASW D HRMM SECON CODA AMPLIT PERI AZIMU VELO SNR AR TRES W  DIS CAZ7
 BAR2 SZ EP   1   12 5 58.00                             171    -0.1 7   23 202 
 BAR2 SZ ES   2   12 6 12.71                             171    -0.8 5   23 202 
 BAR2 SZ I        12 6 15.87        42.6 0.23                            23 202 
 PAM  SZ EP   1   12 6  0.89                             152     0.3 7   76  36 
 PAM  SN ES   1   12 6 17.87                             152    -0.1 7   76  36 
 BRR  HZ EP   1   12 5 59.46                             151    -0.4 7   76 298 
 BRR  HN ES   1   12 6 17.53                             151     0.8 7   76 298 
 BRR  HZ I        12 6 20.87        28.6 0.18                            76 298 
 RUS  HZ EP       12 6  1.82                             145    -0.210   98 179 
 RUS  HN ES       12 6 20.82                             145     0.310   98 179 
 RUS  HZ I        12 6 21.95        33.7 0.26                            98 179 
 PTB  HZ EP   2   12 6  4.87                             132    -0.9 5  152 260 
 PTB  HE ES   2   12 6 26.41                             132    -0.7 5  152 260 
 PTB  HZ I        12 6 28.39        12.3 0.38                           152 260 
 YOP  SZ EP   2   12 6  8.28                             127     0.2 4  175 154 
 YOP  SN ES   2   12 6 31.21                             127    -0.1 4  175 154 
 NOR  SN ES   2   12 6 42.53                             119     0.0 4  237 235 
 CHI  HZ EP   1   12 6 16.18                             118     0.2 6  248 196 
 CHI  HN ES   2   12 6 45.50                             118     0.1 4  248 196 
 CHI  HZ I        12 6 48.86        10.9 0.40                           248 196 
 HEL  HN ES   2   12 6 50.86                             115     0.1 4  276 256 
 RREF HZ EP   2   12 6 25.47                             111     0.7 3  324 230 
 RREF HN ES   2   12 7  1.39                             111     0.4 3  324 230 
 RREF HZ I        12 7 10.35        12.5 0.53                           324 230 
 PRA  HZ EP   2   12 6 31.98                             107     0.0 3  392 210 
 PRA  HN ES   2   12 7 13.65                             107    -0.1 3  392 210 
                                                                                
