 2011  329 1511 50.7 L   6.726 -73.080138.1  RSN 11 0.4 2.4LRSN                1
 GAP=166        0.80       5.1     7.0  6.4 -0.2170E+02 -0.2326E+01  0.7726E+01E
 Epicentro: JORDAN - SANTANDER                                                 3
 ACTION:UP  11-06-16 14:36 OP:jfem STATUS:               ID:20110329151150 L   I
 2011-03-29-1510-18S.COL___138                                                 6
 STAT SP IPHASW D HRMM SECON CODA AMPLIT PERI AZIMU VELO SNR AR TRES W  DIS CAZ7
 BAR2 SZ IP       1512  9.61                             172     0.310   19 218 
 BAR2 SZ ES   1   1512 23.19                             172    -0.6 7   19 218 
 BAR2 SZ I        1512 25.50        78.7 0.28                            19 218 
 BTL  SZ IP       1512  9.73                             167     0.210   30 316 
 GIR2 SZ IP       1512  9.68                             163    -0.110   41 342 
 GIR2 SZ ES   2   1512 24.84                             163     0.2 5   41 342 
 PAM  SZ EP       1512 12.58                             149     0.310   80  32 
 PAM  SN ES   2   1512 29.45                             149     0.4 5   80  32 
 PAM  SZ I        1512 34.12        14.0 0.24                            80  32 
 BRR  HZ IP     C 1512 11.49                             148    -0.210   82 301 
 BRR  HZ I        1512 11.97       152.3 0.11                            82 301 
 BRR  HE ES   1   1512 28.50                             148     0.5 7   82 301 
 GRA  SZ IP       1512 15.51                             134    -0.310  132  13 
 GRA  SZ ES   1   1512 35.05                             134    -0.3 7  132  13 
 GRA  SZ I        1512 36.18        37.8 0.40                           132  13 
 OCA  SZ EP   2   1512 18.57                             126    -0.7 5  169 351 
 OCA  SZ I        1512 43.51        25.6 0.26                           169 351 
 NOR  SZ EP   1   1512 25.88                             117    -0.3 6  236 237 
 NOR  SE ES   2   1512 53.50                             117    -0.3 4  236 237 
 CHI  HZ EP   2   1512 28.12                             116     0.8 4  243 197 
 CHI  HE ES   2   1512 55.13                             116    -0.8 4  243 197 
 CHI  HZ I        1513  4.27         8.0 0.34                           243 197 
 RREF HZ EP   2   1512 36.75                             109     0.2 3  322 231 
 RREF HN ES   2   1513 12.70                             109     0.4 3  322 231 
 RREF HZ I        1513 18.67        15.2 0.18                           322 231 
 PRA  HE ES   2   1513 25.05                             105     0.3 3  389 211 
                                                                                
