 2016  329 1142 10.0 L   6.458 -73.732 87.6  RSN  7 0.4 1.5LRSN                1
 GAP=124        0.92       3.7     3.0  8.2  0.1861E+01  0.1199E+02  0.5139E+01E
 Epicentro: SANTA HELENA DEL OPON - SANTANDER                                  3
 ACTION:UPD 16-05-13 21:28 OP:cam  STATUS:               ID:20160329114210 L   I
 OLDACT:UP  16-03-29 22:33 OP:ak   STATUS:               ID:20160329113742     3
 OLDACT:UP  16-03-29 22:32 OP:ak   STATUS:               ID:20160329113742     3
 OLDACT:REG 16-03-29 20:12 OP:ak   STATUS:               ID:20160329113742     3
 2016-03-29-1137-42M.COL___306                                                 6
 STAT SP IPHASW D HRMM SECON CODA AMPLIT PERI AZIMU VELO AIN AR TRES W  DIS CAZ7
 BAR2 EZ EP   1   1142 24.97                             142    0.09 7 62.6  76 
 BAR2 EZ ES       1142 37.10                             142    0.5810 62.6  76 
 BAR2 EZ I        1142 39.03        17.0 0.18            148           62.6  76 
 PTB  HZ EP   1   1142 25.42                             134   -0.65 7 80.6 276 
 PTB  HN ES       1142 38.25                             134   -0.3910 80.6 276 
 PTB  HZ I        1142 41.25         6.8 0.12            137           80.6 276 
 RUS  HZ EP   1   1142 27.46                             129   -0.61 7 95.2 131 
 RUS  HE ES       1142 41.85                             129   -0.3310 95.2 131 
 NOR  HZ EP   1   1142 34.16                             114   -0.21 7  160 232 
 NOR  HE ES       1142 53.79                             114    0.38 9  160 232 
 NOR  HZ I        1142 56.77         4.9 0.26            116            160 232 
 ZAR  HZ EP       1142 35.25                             112   -0.08 9  169 313 
 ZAR  HE ES       1142 55.34                             112    0.22 9  169 313 
 CHI  HZ EP   2   1142 40.61                             109    0.94 4  202 180 
 GUY2CHZ EP   1   1142 42.73                             106    0.12 6  226 233 
 GUY2CHN ES       1143  8.45                             106    0.37 8  226 233 
 GUY2CHZ I        1143 14.61         2.0 0.32                           226 233 
                                                                                
