 2010  929 1348 18.0 L   6.782 -73.060140.7  RSN 13 0.5 2.9LRSN                1
 GAP=168        1.32       5.3     7.3  8.3 -0.9684E+01  0.1156E+02 -0.5257E+01E
 Epicentro: LOS SANTOS - SANTANDER                                             3
 ACTION:UP  11-02-18 11:06 OP:tino STATUS:               ID:20100929134818 L   I
 2010-09-29-1346-40S.COL___125                                                 6
 STAT SP IPHASW D HRMM SECON CODA AMPLIT PERI AZIMU VELO SNR AR TRES W  DIS CAZ7
 BAR2 SZ IP       1348 37.21                             169     0.110   25 213 
 BAR2 SZ ES   1   1348 51.75                             169    -0.2 7   25 213 
 BAR2 SZ I        1348 53.05       290.0 0.68                            25 213 
 GIR2 SZ EP       1348 37.29                             165     0.110   36 336 
 URB  SZ EP       1348 38.84                             156     0.710   59 329 
 BRR  HZ EP       1348 39.12                             148    -0.110   81 297 
 BRR  HZ I        1348 39.48       370.3 0.16                            81 297 
 BRR  HN ES       1348 56.15                             148     0.410   81 297 
 RUS  HZ EP       1348 41.20                             143     0.110   98 182 
 RUS  HN ES       1348 58.71                             143    -0.410   98 182 
 RUS  HZ I        1349  0.78       102.8 0.11                            98 182 
 GUE  SZ EP       1348 42.32                             138     0.010  117   7 
 GUE  SZ I        1348 43.23        30.0 0.08                           117   7 
 GRA  SZ EP       1348 42.20                             136    -0.610  125  13 
 OCA  SZ EP       1348 45.81                             128    -0.5 9  164 350 
 OCA  SZ I        1349 11.53       140.3 0.38                           164 350 
 ROSC BZ EP       1348 57.36                             115     1.1 8  256 213 
 ROSC BN ES   2   1349 25.38                             115    -0.7 4  256 213 
 ROSC BZ I        1349 33.69        37.5 1.02                           256 213 
 HEL  HZ EP   1   1348 59.09                             113     0.1 6  281 257 
 HEL  HN ES       1349 30.46                             113    -0.4 7  281 257 
 HEL  HZ I        1349 36.92        32.3 0.38                           281 257 
 DBB  SZ EP       1349  5.74                             108    -0.7 6  349 274 
 TOL  SZ EP       1349  7.13                             108     0.4 6  349 226 
 DBB  SZ I        1349 47.99        11.2 0.42                           349 274 
 ANIL HN ES   1   1349 46.57                             107    -0.9 5  363 226 
 ANIL HZ I        1349 51.72        59.4 0.24                           363 226 
                                                                                
