 2013  529 1603 14.7 L   6.836 -73.151136.0  RSN  4 0.5 1.8LRSN                1
 GAP=279        0.91      12.4     6.6 11.9  0.3468E+02  0.6526E-01 -0.6588E+02E
 Epicentro: LOS SANTOS - SANTANDER                                             3
 ACTION:UPD 13-06-20 09:54 OP:ep   STATUS:               ID:20130529160315 L   I
 OLDACT:UP  13-05-31 22:29 OP:Juan STATUS:               ID:20130529160315 L   3
 2013-05-29-1558-50M.COL___208                                                 6
 STAT SP IPHASW D HRMM SECON CODA AMPLIT PERI AZIMU VELO AIN AR TRES W  DIS CAZ7
 RUS  HZ EP       16 3 38.07                             141    0.2110  105 176 
 RUS  HN ES       16 3 55.82                             141   -0.0710  105 176 
 RUS  HE I        16 3 57.09        10.1 0.54            137            105 176 
 PTB  HZ EP       16 3 40.58                             130   -0.38 9  148 257 
 PTB  HN ES       16 4  1.72                             130    0.31 9  148 257 
 PTB  HE I        16 4  4.58         8.2 0.18            127            148 257 
 NOR  HZ EP   1   16 3 49.37                             116   -0.77 6  237 234 
 NOR  HE ES       16 4 17.57                             116   -0.17 8  237 234 
 NOR  HN I        16 4 23.01         9.0 0.16            115            237 234 
 GUY2CHZ EP   1   16 3 59.22                             110    1.08 5  303 234 
 GUY2CHE ES   4   16 4 34.41                             110    2.43 0  303 234 
 GUY2CHN I        16 4 37.82         2.7 0.38                           303 234 
                                                                                
