 2010  529 1900 26.4 L   6.816 -73.369147.0  RSN  5 0.3 2.2LRSN                1
 GAP=173        0.83       7.1    23.5 12.3 -0.1023E+03  0.1536E+03 -0.2447E+02E
 Epicentro: ZAPATOCA - SANTANDER                                               3
 ACTION:UP  10-08-24 10:07 OP:vdl  STATUS:               ID:20100529190026 L   I
 2010-05-29-1856-10S.COL___109                                                 6
 STAT SP IPHASW D HRMM SECON CODA AMPLIT PERI AZIMU VELO SNR AR TRES W  DIS CAZ7
 BAR2 SZ EP       19 0 46.22                             167    -0.210   32 140 
 BAR2 SZ ES   2   19 1  2.20                             167     0.2 5   32 140 
 GUE  SZ EP       19 0 51.26                             138    -0.510  122  24 
 GRA  SZ IP       19 0 53.01                             135     0.610  134  28 
 GRA  SZ ES       19 1 12.70                             135     0.010  134  28 
 OCA  SZ EP   1   19 0 54.54                             130     0.0 7  157   2 
 OCA  SZ ES   2   19 1 16.85                             130     0.3 5  157   2 
 OCA  SZ I        19 1 22.86        26.5 0.50                           157   2 
 CHI  HZ EP   2   19 1  4.30                             118     0.5 4  245 189 
 CHI  HZ I        19 1  6.70         6.5 0.41                           245 189 
                                                                                
