 2010  329 1356 25.3 L   6.794 -73.041148.8  RSN 12 0.5 3.3LRSN                1
 GAP=134        0.83       4.5     7.5  7.2 -0.1249E+02  0.6493E+01  0.4814E+01E
 Epicentro: LOS SANTOS - SANTANDER                                             3
 ACTION:UP  10-08-24 09:56 OP:vdl  STATUS:               ID:20100329135625 L   I
 2010-03-29-1353-40S.COL___098                                                 6
 STAT SP IPHASW D HRMM SECON CODA AMPLIT PERI AZIMU VELO SNR AR TRES W  DIS CAZ7
 BAR2 SZ IP       1356 45.33                             169     0.010   27 215 
 BAR2 SZ ES   2   1357  0.78                             169    -0.3 5   27 215 
 BRR  HZ EP   1   1356 47.39                             150     0.0 7   82 295 
 BRR  HZ I        1356 48.93       270.5 0.16                            82 295 
 BRR  HE ES   2   1357  4.89                             150     0.2 5   82 295 
 RUS  HZ EP   1   1356 49.20                             145    -0.1 7  100 183 
 RUS  HE ES   2   1357  7.74                             145    -0.3 5  100 183 
 RUS  HZ I        1357  9.26       103.0 0.38                           100 183 
 OCA  SZ EP   1   1356 54.00                             130    -0.1 7  163 349 
 OCA  SZ ES   2   1357 16.99                             130     0.5 5  163 349 
 CHI  HZ EP   1   1357  3.03                             117    -0.4 6  251 198 
 CHI  HN ES   2   1357 34.24                             117     1.0 4  251 198 
 CHI  HZ I        1357 41.10        64.4 0.24                           251 198 
 ROSC BZ EP   1   1357  4.98                             117     0.8 6  258 213 
 ROSC BE ES   2   1357 34.59                             117     0.1 4  258 213 
 ROSC BZ I        1357 43.13       140.1 0.38                           258 213 
 HEL  HZ EP   1   1357  5.87                             114    -1.0 6  283 257 
 HEL  HZ I        1357 43.13        79.3 0.79                           283 257 
 RREF BZ EP   1   1357 12.34                             111    -0.2 5  330 231 
 RREF BN ES   2   1357 48.76                             111    -0.6 3  330 231 
 RREF BZ I        1357 53.84        99.2 0.27                           330 231 
 TOL  SZ EP   1   1357 15.63                             109     1.1 5  351 226 
 TOL  SZ ES   2   1357 53.43                             109     0.4 3  351 226 
 SDV  BZ EP   1   1357 14.68                             109     0.2 5  352  49 
 ANIL BZ EP   1   1357 16.53                             108     0.4 5  365 226 
 ANIL BN ES   2   1357 56.18                             108     0.4 3  365 226 
 ANIL BZ I        1357 59.29       186.8 0.30                           365 226 
 PRA  HZ EP   1   1357 18.60                             107    -0.9 4  397 211 
 PRA  HE ES   2   1358  1.42                             107    -0.4 3  397 211 
 PRA  HZ I        1358  7.18        88.0 0.76                           397 211 
                                                                                
