 2010 1129 1017  7.1 L   7.443 -73.249124.4  RSN  6 0.3 1.5LRSN                1
 GAP=131        0.69       5.3    10.6 11.0 -0.1862E+02 -0.4279E+01 -0.7762E+00E
 Epicentro: EL PLAYON - SANTANDER                                              3
 ACTION:UP  10-12-17 16:55 OP:REBC STATUS:               ID:20101129101707 L   I
 2010-11-29-1014-02S.COL___131                                                 6
 STAT SP IPHASW D HRMM SECON CODA AMPLIT PERI AZIMU VELO SNR AR TRES W  DIS CAZ7
 GUE  SZ EP   2   1017 25.23                             154    -0.3 5   56  40 
 BTL  SZ EP       1017 25.95                             153     0.410   58 182 
 BRR  HZ EP   2   1017 24.94                             151    -0.5 5   63 234 
 BRR  HN ES   2   1017 39.74                             151    -0.1 5   63 234 
 BRR  HZ I        1017 40.35         4.4 0.34                            63 234 
 GRA  SZ EP   2   1017 25.74                             149    -0.3 5   69  45 
 GRA  SZ ES   2   1017 40.83                             149     0.0 5   69  45 
 GRA  SZ I        1017 42.84        16.3 0.45                            69  45 
 OCA  SZ EP   1   1017 27.24                             142    -0.1 7   88 355 
 OCA  SZ I        1017 27.64         4.4 0.24                            88 355 
 OCA  SZ ES   2   1017 43.35                             142     0.2 5   88 355 
 BAR2 SZ ES   2   1017 43.71                             140    -0.5 5   94 176 
 BAR2 SZ I        1017 46.34         9.7 0.43                            94 176 
                                                                                
