 2016  929 1449  5.3 L   6.732 -73.126138.2  RSN  8 0.4 1.6LRSN                1
 GAP=142        0.95       4.4     4.3  6.4 -0.5925E+01  0.8266E+01  0.8002E+00E
 Epicentro: JORDAN - SANTANDER                                                 3
 ACTION:UPD 17-08-17 21:17 OP:lp   STATUS:               ID:20160929144905 L   I
 OLDACT:UP  16-09-30 00:35 OP:edw  STATUS:               ID:20160929144744     3
 OLDACT:UP  16-09-30 00:33 OP:edw  STATUS:               ID:20160929144744     3
 OLDACT:REG 16-09-29 20:22 OP:edw  STATUS:               ID:20160929144744     3
 2016-09-29-1448-00M.COL___362                                                 6
 STAT SP IPHASW D HRMM SECON CODA AMPLIT PERI AZIMU VELO AIN AR TRES W  DIS CAZ7
 BAR2 EZ EP       1449 23.55                             173   -0.3410 16.7 202 
 BAR2 EZ ES       1449 38.56                             173    0.1610 16.7 202 
 BAR2 EZ I        1449 39.75        11.9 0.26            171           16.7 202 
 BRR  HZ EP       1449 26.08                             149    0.1210 76.8 303 
 BRR  HN ES       1449 42.30                             149    0.2010 76.8 303 
 PAM  EZ EP       1449 27.07                             148    0.0710 82.0  35 
 PAM  EN ES       1449 43.79                             148   -0.1410 82.0  35 
 PAM  EZ I        1449 44.47         5.0 0.36            151           82.0  35 
 RUS  HZ EP   4   1449 25.85                             144   -1.90 0 93.0 177 
 RUS  HN ES   2   1449 45.68                             144    0.41 5 93.0 177 
 RUS  HZ I        1449 47.30         2.6 0.24            145           93.0 177 
 PTB  HZ EP       1449 30.90                             130   -0.82 9  149 262 
 PTB  HN ES       1449 51.74                             130   -0.61 9  149 262 
 PTB  HZ I        1449 54.42         5.8 0.16            130            149 262 
 SPBC HZ EP       1449 33.04                             128    0.25 9  159 221 
 SPBC HN ES       1449 54.15                             128   -0.10 9  159 221 
 SPBC HZ I        1449 58.69         6.3 0.22            128            159 221 
 ZAR  HZ EP       1449 38.30                             120    0.54 8  209 294 
 ZAR  HE ES       1450  3.34                             120    0.24 8  209 294 
 ZAR  HZ I        1450  8.96         5.9 0.26            121            209 294 
 NOR  HZ EP   4   1449 38.18                             117   -2.13 0  232 236 
 NOR  HN ES       1450  8.22                             117    0.58 8  232 236 
 NOR  HZ I        1450  9.92         3.3 0.18            118            232 236 
 GUY2CHE ES   4   1450 23.22                             111    1.42 0  299 236 
                                                                                
