 2014  629 1142 11.7 L   6.818 -73.122136.1  RSN  5 0.3 1.5LRSN                1
 GAP=220        0.84       4.1     5.9  8.4  0.2499E+01  0.7709E+01 -0.8118E+01E
 Epicentro: LOS SANTOS - SANTANDER                                             3
 ACTION:UPD 14-07-01 22:57 OP:nd   STATUS:               ID:20140629114211 L   I
 OLDACT:UP  14-06-29 22:55 OP:spq  STATUS:               ID:20140629113818     3
 OLDACT:REG 14-06-29 20:08 OP:spq  STATUS:               ID:20140629113818     3
 2014-06-29-1138-18M.COL___243                                                 6
 STAT SP IPHASW D HRMM SECON CODA AMPLIT PERI AZIMU VELO AIN AR TRES W  DIS CAZ7
 BAR2 SZ IP     D 1142 30.79                             169    0.6110 25.9 195 
 BAR2 SZ ES   1   1142 44.09                             169   -0.54 7 25.9 195 
 BAR2 SZ I        1142 46.84         5.5 0.14            167           25.9 195 
 PTB  HZ EP       1142 37.82                             129   -0.31 9  151 258 
 PTB  HN ES       1142 58.86                             129    0.08 9  151 258 
 PTB  HZ I        1143  1.75         3.8 0.10            129            151 258 
 SPBC HZ EP       1142 39.78                             126    0.03 9  166 219 
 SPBC HE ES       1143  1.67                             126    0.02 9  166 219 
 SPBC HZ I        1143  8.67         3.0 0.20            128            166 219 
 ZAR  HZ EP       1142 43.16                             120   -0.51 8  206 291 
 ZAR  HN ES       1143  8.90                             120    0.27 8  206 291 
 ZAR  HZ I        1143 17.16         3.1 0.32            121            206 291 
 SML  HN ES       1143 15.80                             115    0.03 8  243 335 
 SML  HZ I        1143 21.16         2.8 0.12            117            243 335 
                                                                                
