 2012 1129 1418 37.0 L   6.805 -73.183144.1  RSN 10 0.2 2.6LRSN                1
 GAP= 69        0.45       1.7     1.6  2.7 -0.2509E+00  0.9683E+00  0.5714E+00E
 Epicentro: LOS SANTOS - SANTANDER                                             3
 ACTION:UPD 12-12-05 15:37 OP:}ep  STATUS:               ID:20121129141837 L   I
 2012-11-29-1410-00M.COL___236                                                 6
 STAT SP IPHASW D HRMM SECON CODA AMPLIT PERI AZIMU VELO AIN AR TRES W  DIS CAZ7
 BAR2 SZ EP       1418 56.53                             170    0.1010 23.5 180 
 BAR2 SZ ES       1419 11.66                             170    0.0710 23.5 180 
 BAR2 SZ I        1419 13.19       137.0 0.16                          23.5 180 
 GIR2 SZ EP       1418 56.65                             167    0.2110 30.3 358 
 PAM  SZ EP       1418 59.36                             150    0.1810 79.7  42 
 PAM  SE ES       1419 16.36                             150   -0.1110 79.7  42 
 PAM  SZ I        1419 18.92        66.3 0.45                          79.7  42 
 RUS  HZ EP       1419  0.50                             143   -0.1510  101 174 
 RUS  HE ES       1419 18.92                             143   -0.1810  101 174 
 RUS  HE I        1419 21.23       101.3 0.24                           101 174 
 PTB  HZ EP       1419  3.10                             132   -0.37 9  144 258 
 PTB  HE ES       1419 24.23                             132    0.12 9  144 258 
 PTB  HZ I        1419 31.72        47.4 0.30                           144 258 
 TAM  HZ EP       1419  4.92                             129   -0.01 9  159 105 
 ZAR  HZ EP       1419  8.88                             123   -0.04 9  200 292 
 ZAR  HN ES       1419 33.65                             123   -0.16 9  200 292 
 ZAR  HZ I        1419 40.14        23.2 0.48                           200 292 
 NOR  HZ EP   1   1419 12.43                             118    0.13 6  232 234 
 NOR  HE ES       1419 40.06                             118    0.23 8  232 234 
 NOR  HZ I        1419 46.23        42.5 0.21                           232 234 
 CHI  HZ EP       1419 14.74                             117    0.20 8  248 194 
 CHI  HE ES       1419 43.82                             117   -0.01 8  248 194 
 PRA  HZ EP       1419 30.07                             106   -0.20 6  390 209 
                                                                                
