 2017  129 1839 56.3 L   6.828 -73.142151.0  RSN  8 0.4 1.8LRSN                1
 GAP=136        1.09       4.3     4.6  6.5  0.3193E+00  0.8110E+01  0.5569E+01E
 Epicentro: LOS SANTOS - SANTANDER                                             3
 ACTION:UPD 17-05-22 16:04 OP:jn   STATUS:               ID:20170129183956 L   I
 OLDACT:UP  17-01-29 23:44 OP:dani STATUS:               ID:20170129183745     3
 OLDACT:UP  17-01-29 23:44 OP:dani STATUS:               ID:20170129183745     3
 OLDACT:UP  17-01-29 23:43 OP:dani STATUS:               ID:20170129183745     3
 OLDACT:UP  17-01-29 23:43 OP:dani STATUS:               ID:20170129183745     3
 OLDACT:REG 17-01-29 22:40 OP:dnl  STATUS:               ID:20170129183745     3
 2017-01-29-1838-00M.COL___348                                                 6
 STAT SP IPHASW D HRMM SECON CODA AMPLIT PERI AZIMU VELO AIN AR TRES W  DIS CAZ7
 BAR2 EZ EP       1840 16.37                             170   -0.2510 26.5 190 
 BAR2 EZ ES       1840 32.38                             170   -0.0910 26.5 190 
 BAR2 EZ I        1840 38.54        11.5 0.17            167           26.5 190 
 BRR  HZ EP       1840 18.47                             154    0.5210 70.1 296 
 BRR  HE ES       1840 35.36                             154    0.5210 70.1 296 
 BRR  HZ I        1840 39.04        15.0 0.70            156           70.1 296 
 PAM  EZ EP       1840 19.44                             152    0.5210 74.8  41 
 PAM  EN ES       1840 36.26                             152   -0.3110 74.8  41 
 PAM  EZ I        1840 38.29         6.8 0.58            159           74.8  41 
 RUS  HZ EP       1840 20.75                             144   -0.0310  104 176 
 RUS  HN ES       1840 39.77                             144   -0.1110  104 176 
 PTB  HZ EP       1840 23.37                             133   -0.41 9  149 258 
 PTB  HE ES       1840 44.49                             133   -0.73 9  149 258 
 PTB  HZ I        1840 50.00         9.5 0.26            135            149 258 
 ZAR  HZ EP       1840 28.09                             124   -0.91 9  203 291 
 ZAR  HN ES       1840 54.78                             124    0.27 9  203 291 
 NOR  HZ EP       1840 33.03                             119    0.48 8  237 234 
 NOR  HE ES       1841  1.34                             119    0.50 8  237 234 
 NOR  HZ I        1841  5.14         6.0 0.18            122            237 234 
 CHI  HZ EP       1840 34.53                             118   -0.09 8  252 195 
 CHI  HE ES       1841  4.68                             118    0.16 8  252 195 
 CHI  HZ I        1841 12.05         3.2 0.49            120            252 195 
                                                                                
