 2013  429 1115 40.4 L   6.708 -73.213146.8  RSN  4 0.4 1.8LRSN                1
 GAP=216        0.86       7.1    10.7  8.8  0.4391E+02 -0.1512E+01 -0.1600E+01E
 Epicentro: VILLANUEVA - SANTANDER                                             3
 ACTION:UPD 13-05-22 14:41 OP:EP   STATUS:               ID:20130429111540 L   I
 2013-04-29-1110-00M.COL___248                                                 6
 STAT SP IPHASW D HRMM SECON CODA AMPLIT PERI AZIMU VELO AIN AR TRES W  DIS CAZ7
 BAR2 SZ EP       1115 59.65                             174   -0.3610 13.2 165 
 BAR2 SZ ES   1   1116 14.62                             174   -0.68 7 13.2 165 
 BAR2 SZ I        1116 16.17        13.4 0.22            167           13.2 165 
 BRR  HZ IP     D 1116  1.59                             153   -0.0610 70.6 309 
 BRR  HN ES       1116 18.55                             153    0.3410 70.6 309 
 BRR  HN I        1116 22.17        13.6 0.20            147           70.6 309 
 RUS  HZ EP   1   1116  4.09                             146    0.47 7 91.3 171 
 RUS  HN ES       1116 21.98                             146    0.2510 91.3 171 
 RUS  HN I        1116 22.85         6.9 0.24            145           91.3 171 
 NOR  HN ES   2   1116 41.54                             120   -0.32 4  223 235 
 NOR  HN I        1116 48.66         5.9 0.18            118            223 235 
                                                                                
