 2013 1029 1918  7.1 L   6.792 -73.152145.6  RSN  8 0.4 1.9LRSN                1
 GAP=136        1.01       4.0     4.1  6.4 -0.1477E+00  0.6266E+01  0.6853E+01E
 Epicentro: LOS SANTOS - SANTANDER                                             3
 ACTION:UPD 13-11-25 09:24 OP:ep   STATUS:               ID:20131029191807 L   I
 OLDACT:REG 13-10-29 16:17 OP:carl STATUS:               ID:20131029191736     3
 2013-10-29-1917-36M.COL___218                                                 6
 STAT SP IPHASW D HRMM SECON CODA AMPLIT PERI AZIMU VELO AIN AR TRES W  DIS CAZ7
 BAR2 SZ EP       1918 26.73                             171    0.0410 22.3 189 
 BAR2 SZ ES       1918 41.85                             171   -0.1110 22.3 189 
 BAR2 SZ I        1918 42.94        33.0 0.20            167           22.3 189 
 BRR  HZ EP       1918 28.08                             153   -0.1410 71.0 299 
 BRR  HN ES       1918 45.68                             153    0.9910 71.0 299 
 BRR  HN I        1918 45.82        23.1 0.26            150           71.0 299 
 PAM  SZ EP       1918 29.54                             150    0.1710 78.6  40 
 PAM  SN ES       1918 46.52                             150   -0.2110 78.6  40 
 PAM  SZ I        1918 47.18         5.8 0.16            155           78.6  40 
 RUS  HZ EP       1918 30.69                             144   -0.0810 99.7 176 
 RUS  HN ES       1918 48.91                             144   -0.3210 99.7 176 
 RUS  HZ I        1918 50.51         3.9 0.46            144           99.7 176 
 PTB  HZ EP       1918 33.59                             132   -0.38 9  147 259 
 PTB  HN ES       1918 54.23                             132   -0.70 9  147 259 
 PTB  HZ I        1919  1.70         9.9 0.30            130            147 259 
 ZAR  HN ES       1919  4.53                             122   -0.24 9  204 292 
 ZAR  HN I        1919 10.38        19.4 0.34            122            204 292 
 NOR  HZ EP       1918 42.97                             119    0.27 8  234 235 
 NOR  HN ES       1919 10.79                             119    0.33 8  234 235 
 NOR  HZ I        1919 15.98         7.7 0.18            118            234 235 
 CHI  HZ EP       1918 44.87                             117    0.20 8  248 195 
 CHI  HN ES       1919 14.38                             117    0.41 8  248 195 
 CHI  HZ I        1919 21.05         3.7 0.38            117            248 195 
                                                                                
