 2011  629 1633 42.5 L   6.762 -73.056143.9  RSN 16 0.5 2.7LRSN                1
 GAP=124        1.11       3.1     5.6  5.9 -0.3894E+01  0.6940E+01  0.4461E+01E
 Epicentro: LOS SANTOS - SANTANDER                                             3
 ACTION:UP  11-07-14 19:09 OP:ep   STATUS:               ID:20110629163342 L   I
 2011-06-29-1632-36S.COL___140                                                 6
 STAT SP IPHASW D HRMM SECON CODA AMPLIT PERI AZIMU VELO SNR AR TRES W  DIS CAZ7
 BAR2 SZ IP       1634  1.57                             170    -0.310   23 217 
 BAR2 SZ ES   1   1634 16.79                             170    -0.2 7   23 217 
 BAR2 SZ I        1634 18.36       121.8 0.27                            23 217 
 BTL  SZ IP       1634  2.42                             168     0.410   29 307 
 PAM  SZ EP       1634  4.35                             151     0.010   75  32 
 PAM  SZ I        1634  4.64        28.6 0.20                            75  32 
 PAM  SN ES       1634 21.47                             151     0.110   75  32 
 BRR  HZ EP       1634  3.42                             149    -0.610   82 298 
 BRR  HZ I        1634  3.77       256.0 0.18                            82 298 
 BRR  HN ES       1634 21.11                             149     0.210   82 298 
 RUS  HZ EP       1634  5.53                             145    -0.210   96 182 
 RUS  HN ES       1634 23.70                             145    -0.110   96 182 
 RUS  HZ I        1634 25.44        58.7 0.45                            96 182 
 BRI  SZ EP       1634  6.11                             141    -0.110  109  15 
 BRI  SZ ES   1   1634 25.00                             141     0.2 7  109  15 
 GRA  SZ EP       1634  7.33                             136    -0.310  127  13 
 GRA  SZ ES       1634 26.84                             136    -0.510  127  13 
 GRA  SZ I        1634 28.05        65.0 0.30                           127  13 
 OCA  SZ EP       1634 11.38                             128     0.2 9  166 350 
 OCA  SZ ES       1634 34.18                             128     0.6 9  166 350 
 OCA  SZ I        1634 39.15        66.4 0.22                           166 350 
 YOP  SZ EP       1634 12.03                             127     0.5 9  171 156 
 YOP  SN ES   2   1634 35.83                             127     1.6 4  171 156 
 NOR  SN ES   2   1634 46.30                             117    -0.7 4  240 237 
 CHI  HZ EP       1634 19.45                             117    -0.5 8  247 198 
 CHI  HN ES   1   1634 49.14                             117     0.0 6  247 198 
 HEL  HZ EP       1634 23.46                             114    -0.1 7  281 257 
 HEL  HN ES   3   1634 55.70                             114     0.1 2  281 257 
 HEL  HZ I        1634 58.90        34.4 0.07                           281 257 
 RREF HZ EP       1634 30.01                             110     0.9 7  327 231 
 RREF HN ES   2   1635  5.79                             110     0.4 3  327 231 
 RREF HZ I        1635 12.80        30.7 0.39                           327 231 
 TOL  SZ EP       1634 31.80                             109     0.7 6  348 226 
 DBB  SZ EP   2   1634 31.03                             108     0.0 3  350 275 
 PRA  HZ EP       1634 34.98                             106    -1.1 6  393 211 
                                                                                
