 2012  529 1115 36.3 L   6.787 -73.154141.4  RSN  4 0.2 1.5LRSN                1
 GAP=256        0.53       7.3     4.5  5.8  0.6109E+01  0.1049E+02 -0.1126E+02E
 Epicentro: LOS SANTOS - SANTANDER                                             3
 ACTION:UP  12-07-05 12:08 OP:pat  STATUS:               ID:20120529111536 L   I
 2012-05-29-1110-00M.COL___200                                                 6
 STAT SP IPHASW D HRMM SECON CODA AMPLIT PERI AZIMU VELO AIN AR TRES W  DIS CAZ7
 BAR2 SZ EP       1115 55.53                             171     0.210   22 188 
 BAR2 SZ ES       1116 10.16                             171    -0.110   22 188 
 BAR2 SZ I        1116 12.19         7.7 0.21                            22 188 
 PTB  HZ EP       1116  2.65                             131    -0.1 9  147 259 
 PTB  HN ES   1   1116 23.26                             131    -0.2 7  147 259 
 PTB  HZ I        1116 26.69         3.3 0.09                           147 259 
 ZAR  HZ EP   1   1116  8.28                             121    -0.1 6  204 293 
 ZAR  HN ES   1   1116 33.80                             121     0.3 6  204 293 
 ZAR  HZ I        1116 39.45         4.7 0.24                           204 293 
 NOR  SE ES   2   1116 39.59                             118     0.5 4  233 235 
                                                                                
