 2013  429 1859 54.8 L   6.769 -73.153150.0  RSN  5 0.4 2.1LRSN                1
 GAP=200        0.87       4.7     8.3  8.8  0.1203E+02  0.1468E+01 -0.4640E+00E
 Epicentro: LOS SANTOS - SANTANDER                                             3
 ACTION:UPD 13-05-22 14:41 OP:EP   STATUS:               ID:20130429185954 L   I
 2013-04-29-1858-48M.COL___220                                                 6
 STAT SP IPHASW D HRMM SECON CODA AMPLIT PERI AZIMU VELO AIN AR TRES W  DIS CAZ7
 BRR  HZ EP   1   19 0 16.84                             153    0.35 7 72.2 301 
 BRR  HN ES       19 0 33.88                             153    0.5010 72.2 301 
 BRR  HN I        19 0 38.23        21.2 0.20            150           72.2 301 
 RUS  HZ EP   1   19 0 19.00                             146    0.24 7 97.2 175 
 RUS  HN ES   1   19 0 36.86                             146   -0.57 7 97.2 175 
 RUS  HN I        19 0 39.02        16.3 0.38            147           97.2 175 
 PTB  HZ EP   1   19 0 21.66                             133   -0.35 7  146 260 
 PTB  HN ES   1   19 0 42.76                             133   -0.45 7  146 260 
 PTB  HN I        19 0 45.93        11.3 0.12            132            146 260 
 NOR  HZ EP   1   19 0 30.92                             120    0.40 6  232 235 
 NOR  HN ES   2   19 0 58.67                             120    0.31 4  232 235 
 NOR  HN I        19 1  4.85        11.6 0.20            120            232 235 
 SML  HN ES       19 1  0.48                             118   -0.50 8  246 336 
 SML  HN I        19 1  2.96        18.0 0.10            120            246 336 
                                                                                
