 2012  529 1613  7.5 L   6.668 -73.192147.5  RSN  4 0.2 1.5LRSN                1
 GAP=236        0.46       8.1     3.8  7.0  0.1401E+02 -0.8302E+00 -0.3899E+01E
 Epicentro: VILLANUEVA - SANTANDER                                             3
 ACTION:UP  12-07-05 12:08 OP:pat  STATUS:               ID:20120529161307 L   I
 2012-05-29-1610-00M.COL___200                                                 6
 STAT SP IPHASW D HRMM SECON CODA AMPLIT PERI AZIMU VELO AIN AR TRES W  DIS CAZ7
 BAR2 SZ EP       1613 27.18                             177     0.110    8 173 
 BAR2 SZ ES   2   1613 42.38                             177     0.0 5    8 173 
 BAR2 SZ I        1613 44.38         6.9 0.38                             8 173 
 RUS  HZ EP   2   1613 29.98                             148    -0.4 5   87 172 
 PTB  HZ EP       1613 34.02                             134     0.1 9  141 264 
 PTB  HN ES       1613 54.55                             134     0.0 9  141 264 
 PTB  HZ I        1613 57.44         2.6 0.13                           141 264 
 ZAR  HN ES   1   1614  5.47                             122    -0.2 6  205 296 
 ZAR  HZ I        1614 11.55         5.0 0.27                           205 296 
                                                                                
