 2013  429 1318 49.2 L   6.692 -73.107140.0  RSN  6 0.4 2.0LRSN                1
 GAP=185        0.76       7.3     5.6  9.2 -0.2415E+02 -0.4680E+01  0.3653E+02E
 Epicentro: JORDAN - SANTANDER                                                 3
 ACTION:UPD 13-05-22 14:41 OP:EP   STATUS:               ID:20130429131850dL   I
 2013-04-29-1317-48M.COL___202                                                 6
 STAT SP IPHASW D HRMM SECON CODA AMPLIT PERI AZIMU VELO AIN AR TRES W  DIS CAZ7
 BAR2 SZ EP   1   1319  8.38                             174    0.40 7 13.8 217 
 BRR  HZ EP   1   1319 10.30                             148   -0.04 7 81.1 305 
 BRR  HN ES       1319 27.16                             148    0.3310 81.1 305 
 BRR  HN I        1319 27.97        22.9 0.28            140           81.1 305 
 PAM  SZ EP   1   1319 11.43                             148    0.16 7 84.6  32 
 PAM  SN ES       1319 28.22                             148   -0.2610 84.6  32 
 PAM  SN I        1319 29.26        10.2 0.22            143           84.6  32 
 PTB  HZ EP   1   1319 15.21                             130   -0.72 7  150 264 
 PTB  HN ES   2   1319 35.87                             130   -0.91 5  150 264 
 PTB  HN I        1319 41.46         9.7 0.28            125            150 264 
 NOR  HZ EP   1   1319 24.56                             118    0.29 6  232 237 
 NOR  HN ES       1319 51.68                             118    0.07 8  232 237 
 NOR  HN I        1319 54.33         8.0 0.16            115            232 237 
 SML  HN ES   2   1319 56.54                             115    0.23 4  256 336 
 SML  HN I        1320  2.34        14.2 0.10            111            256 336 
                                                                                
