 2016 1229 1619 38.7 L   6.798 -73.167148.8  RSN  6 0.4 1.4LRSN                1
 GAP=134        0.94       4.2     4.5  8.8  0.5618E+00  0.1030E+02  0.8728E+01E
 Epicentro: LOS SANTOS - SANTANDER                                             3
 ACTION:UPD 17-01-11 20:20 OP:rebc STATUS:               ID:20161229161938 L   I
 OLDACT:REG 16-12-29 21:15 OP:y    STATUS:               ID:20161229161751     3
 2016-12-29-1618-00M.COL___374                                                 6
 STAT SP IPHASW D HRMM SECON CODA AMPLIT PERI AZIMU VELO AIN AR TRES W  DIS CAZ7
 BAR2 EZ I        1620 16.27         8.1 0.32            170           22.8 184 
 PAM  EZ EP       1620  1.55                             151    0.1910 79.1  41 
 PAM  EN ES       1620 18.98                             151   -0.0410 79.1  41 
 PAM  EZ I        1620 20.87         5.5 0.74            156           79.1  41 
 RUS  HZ EP       1620  2.75                             144   -0.0210  101 175 
 RUS  HN ES       1620 21.48                             144   -0.0510  101 175 
 RUS  HZ I        1620 22.35         3.3 0.36            146            101 175 
 PTB  HZ EP       1620  4.98                             133   -0.75 9  145 259 
 PTB  HN ES       1620 26.48                             133   -0.32 9  145 259 
 PTB  HZ I        1620 33.17         3.2 0.58            134            145 259 
 ZAR  HN ES       1620 37.14                             123    0.68 9  202 292 
 CHI  HZ EP       1620 16.63                             118    0.13 8  248 195 
 CHI  HE ES       1620 46.43                             118    0.46 8  248 195 
 CHI  HZ I        1620 50.03         1.5 0.72            120            248 195 
                                                                                
