 2015  429 1538 36.0 L   6.848 -73.276126.7  RSN  5 0.4 1.5LRSN                1
 GAP=228        0.78       7.5     6.0 10.0  0.3344E+01  0.3690E+02  0.1000E+02E
 Epicentro: ZAPATOCA - SANTANDER                                               3
 ACTION:UPD 15-06-03 16:58 OP:cam  STATUS:               ID:20150429153836 L   I
 OLDACT:REG 15-04-29 20:53 OP:ak   STATUS:               ID:20150429153750     3
 2015-04-29-1537-50M.COL___274                                                 6
 STAT SP IPHASW D HRMM SECON CODA AMPLIT PERI AZIMU VELO AIN AR TRES W  DIS CAZ7
 BAR2 EZ EP   1   1538 53.42                             166   -0.07 7 30.1 160 
 BAR2 EZ ES       1539  7.03                             166   -0.1310 30.1 160 
 BAR2 EZ I        1539  9.29         7.1 0.28            165           30.1 160 
 PTB  HZ EP   2   1539  0.27                             130    0.04 5  135 255 
 PTB  HN ES       1539 19.75                             130    0.6010  135 255 
 PTB  HZ I        1539 23.48         4.8 0.17            131            135 255 
 ZAR  HN ES   1   1539 28.27                             120   -0.47 7  189 292 
 NOR  HZ EP   2   1539 10.48                             115    0.72 4  226 231 
 NOR  HN ES       1539 35.78                             115   -0.32 8  226 231 
 NOR  HZ I        1539 39.42         2.3 0.13            117            226 231 
 GUY2CHZ ES   2   1539 49.77                             109   -0.65 4  293 232 
                                                                                
