 2015  929 1903 24.8 L   6.816 -73.130148.1  RSN  8 0.5 2.0LRSN                1
 GAP=154        1.13       5.5     5.9  7.9 -0.1075E+02  0.1009E+01  0.1606E+02E
 Epicentro: LOS SANTOS - SANTANDER                                             3
 ACTION:UPD 15-10-28 16:29 OP:cam  STATUS:               ID:20150929190324 L   I
 OLDACT:REG 15-09-29 22:46 OP:ar   STATUS:               ID:20150929185748     3
 2015-09-29-1857-48M.COL___349                                                 6
 STAT SP IPHASW D HRMM SECON CODA AMPLIT PERI AZIMU VELO AIN AR TRES W  DIS CAZ7
 BAR2 EZ EP       19 3 44.32                             170   -0.4810 25.4 193 
 BAR2 EZ ES       19 3 59.91                             170   -0.4610 25.4 193 
 BAR2 EZ I        19 4  2.34        18.5 0.36            169           25.4 193 
 BRR  HZ EP       19 3 46.71                             153    0.4210 71.9 297 
 BRR  HN ES       19 4  3.75                             153    0.7310 71.9 297 
 BRR  HZ I        19 4  8.88        18.4 0.38            152           71.9 297 
 PAM  EZ EP       19 3 47.27                             152    0.1010 74.9  39 
 PAM  EN ES       19 4  4.58                             152    0.0010 74.9  39 
 PAM  EZ I        19 4  6.34        15.0 0.54            156           74.9  39 
 PTB  HZ EP       19 3 51.51                             132   -0.68 9  150 258 
 PTB  HN ES       19 4 13.27                             132   -0.25 9  150 258 
 PTB  HZ I        19 4 15.06        14.1 0.12            133            150 258 
 SPBC HZ EP       19 3 53.77                             129    0.01 9  166 219 
 SPBC HN ES       19 4 16.02                             129   -0.29 9  166 219 
 SPBC HZ I        19 4 19.12        11.8 0.10            131            166 219 
 ZAR  HZ EP   4   19 3 58.25                             123    0.70 0  205 292 
 ZAR  HE ES   2   19 4 23.09                             123    0.04 4  205 292 
 ZAR  HZ I        19 4 28.46        10.0 0.38            124            205 292 
 CHI  HZ EP       19 4  3.12                             117    0.21 8  251 195 
 CHI  HN ES       19 4 33.55                             117    0.95 8  251 195 
 CHI  HZ I        19 4 36.67         2.8 0.42            120            251 195 
 URE  HN ES   4   19 4 36.38                             114   -1.97 0  285 291 
 URE  HZ I        19 4 38.38         5.2 0.36            116            285 291 
                                                                                
