 2012  829 1146 26.1 L   6.759 -73.144146.7  RSN  7 0.5 1.8LRSN                1
 GAP=185        0.95       7.9     6.6  9.8  0.2930E+01  0.1443E+02 -0.3445E+01E
 Epicentro: LOS SANTOS - SANTANDER                                             3
 ACTION:UPD 12-09-10 11:59 OP:ep   STATUS:               ID:20120829114626 L   I
 2012-08-29-1140-00M.COL___218                                                 6
 STAT SP IPHASW D HRMM SECON CODA AMPLIT PERI AZIMU VELO AIN AR TRES W  DIS CAZ7
 BAR2 SZ EP       1146 45.52                             172   -0.2710 19.0 193 
 BAR2 SZ ES   1   1147  1.09                             172   -0.04 7 19.0 193 
 BAR2 SZ I        1147  2.12        12.2 0.13                          19.0 193 
 GIR2 SZ EP   1   1146 46.07                             165    0.03 7 35.7 351 
 BRR  HZ EP       1146 47.97                             152    0.4610 73.6 302 
 BRR  HN ES   1   1147  4.43                             152    0.23 7 73.6 302 
 BRR  HZ I        1147  8.95        15.0 0.15                          73.6 302 
 RUS  HN ES   2   1147  8.29                             145    0.29 5 96.1 176 
 PTB  HZ EP       1146 52.76                             132   -0.35 9  147 261 
 PTB  HN ES   1   1147 13.18                             132   -0.99 7  147 261 
 PTB  HZ I        1147 17.99         5.7 0.20                           147 261 
 ZAR  HN ES   1   1147 24.52                             122    0.18 6  206 293 
 ZAR  HZ I        1147 29.71         8.9 0.43                           206 293 
 NOR  SN ES   1   1147 30.26                             119    0.90 6  232 235 
                                                                                
