 2014  329 1717 33.2 L   6.811 -73.157145.3  RSN 13 0.4 2.2LRSN                1
 GAP=135        0.92       2.5     3.7  5.2 -0.1154E+01  0.6037E+01 -0.7078E+00E
 Epicentro: LOS SANTOS - SANTANDER                                             3
 ACTION:UPD 14-04-09 23:21 OP:nd   STATUS:               ID:20140329171733 L   I
 OLDACT:REG 14-03-29 15:34 OP:nd   STATUS:               ID:20140329171035     3
 2014-03-29-1710-35M.COL___259                                                 6
 STAT SP IPHASW D HRMM SECON CODA AMPLIT PERI AZIMU VELO AIN AR TRES W  DIS CAZ7
 BAR2 SZ EP       1717 52.78                             170   -0.0410 24.4 187 
 BAR2 SZ ES       1718  7.57                             170   -0.5410 24.4 187 
 BAR2 SZ I        1718  9.87        38.0 0.20            170           24.4 187 
 BRR  HZ EP       1717 54.79                             153    0.5610 69.5 298 
 BRR  HN ES   2   1718 11.23                             153    0.62 5 69.5 298 
 BRR  HZ I        1718 17.45        23.4 0.22            152           69.5 298 
 PAM  SZ EP       1717 55.60                             151    0.2110 77.3  41 
 PAM  SN ES       1718 12.77                             151    0.1010 77.3  41 
 PAM  SZ I        1718 15.11        22.3 0.46            155           77.3  41 
 RUS  HZ EP       1717 56.52                             143   -0.5110  102 175 
 RUS  HN ES       1718 15.63                             143    0.0410  102 175 
 RUS  HZ I        1718 18.30        12.8 0.34            147            102 175 
 PTB  HZ EP       1717 59.62                             132   -0.45 9  147 258 
 PTB  HN ES       1718 20.43                             132   -0.57 9  147 258 
 PTB  HZ I        1718 22.95        26.4 0.38            133            147 258 
 OCA  HZ EP   1   1718  1.67                             130    0.30 7  159 354 
 OCA  HN ES   1   1718 24.04                             130    0.71 7  159 354 
 OCA  HZ I        1718 28.58        15.0 0.42            133            159 354 
 SPBC HZ EP       1718  1.79                             129    0.08 9  163 218 
 SPBC HN ES       1718 24.47                             129    0.55 9  163 218 
 SPBC HZ I        1718 29.65        25.8 0.14            131            163 218 
 ZAR  HZ EP       1718  5.48                             122    0.00 9  202 292 
 ZAR  HN ES       1718 30.72                             122    0.09 9  202 292 
 ZAR  HZ I        1718 39.60        16.4 0.42            124            202 292 
 NOR  HZ EP       1718  8.63                             118   -0.27 8  234 234 
 NOR  HN ES       1718 37.21                             118    0.49 8  234 234 
 NOR  HZ I        1718 40.56        20.0 0.18            121            234 234 
 SML  HZ EP       1718  9.45                             117   -0.20 8  242 335 
 SML  HN ES       1718 37.55                             117   -0.51 8  242 335 
 SML  HZ I        1718 42.74        21.6 0.22            120            242 335 
 CHI  HZ EP       1718 11.09                             117    0.10 8  249 195 
 CHI  HN ES       1718 40.57                             117    0.12 8  249 195 
 CHI  HZ I        1718 47.98         5.0 0.42            120            249 195 
 GUY2CHZ EP   4   1718 17.57                             112    0.79 0  301 234 
 GUY2CHN ES   4   1718 54.29                             112    3.54 0  301 234 
 GUY2CHZ I        1718 59.66        10.6 0.76                           301 234 
 SJC  HZ EP   4   1718 26.95                             106   -1.62 0  408 327 
 SJC  HN ES   4   1719 10.22                             106   -1.52 0  408 327 
 SJC  HZ I        1719 12.96         3.0 0.28            108            408 327 
                                                                                
