 2012 1229 1054 57.7 L   6.751 -73.192142.2  RSN  5 0.3 1.6LRSN                1
 GAP=228        0.56       5.0     4.9  5.3  0.1502E+02  0.1200E+01 -0.8403E+00E
 Epicentro: VILLANUEVA - SANTANDER                                             3
 ACTION:UPD 13-01-04 14:31 OP:ep   STATUS:               ID:20121229105457 L   I
 2012-12-29-1050-00M.COL___242                                                 6
 STAT SP IPHASW D HRMM SECON CODA AMPLIT PERI AZIMU VELO AIN AR TRES W  DIS CAZ7
 BAR2 SZ EP       1055 16.47                             173   -0.3010 17.5 177 
 BAR2 SZ ES   2   1055 32.06                             173    0.39 5 17.5 177 
 BAR2 SZ I        1055 32.53         7.1 0.18                          17.5 177 
 BRR  HZ EP       1055 18.52                             152    0.1710 69.7 304 
 BRR  HN ES       1055 34.41                             152   -0.0810 69.7 304 
 BRR  HZ I        1055 44.30        12.0 0.32                          69.7 304 
 RUS  HZ EP   1   1055 20.53                             144   -0.19 7 95.6 173 
 RUS  HE ES   1   1055 38.93                             144    0.23 7 95.6 173 
 PTB  HZ EP   1   1055 23.74                             132   -0.07 7  142 261 
 PTB  HN ES   1   1055 44.10                             132   -0.10 7  142 261 
 PTB  HZ I        1055 47.47         3.3 0.11                           142 261 
 ZAR  HZ EP   1   1055 30.22                             122    0.59 6  202 294 
 ZAR  HE ES   1   1055 54.37                             122   -0.18 6  202 294 
 ZAR  HZ I        1056  0.64         3.1 0.17                           202 294 
                                                                                
