 2017  129 1716 10.9 L   6.164 -73.962 10.2  RSN  4 0.3 1.3LRSN                1
 GAP=200        0.70       3.0     2.3  5.8  0.4036E+01 -0.6142E+01 -0.6619E+01E
 Epicentro: CIMITARRA - SANTANDER                                              3
 ACTION:UPD 17-05-22 16:04 OP:jn   STATUS:               ID:20170129171610 L   I
 OLDACT:REG 17-01-29 22:37 OP:dnl  STATUS:               ID:20170129170744     3
 2017-01-29-1708-00M.COL___345                                                 6
 STAT SP IPHASW D HRMM SECON CODA AMPLIT PERI AZIMU VELO AIN AR TRES W  DIS CAZ7
 PTB  HZ EP       1716 21.84                              95   -0.0810 68.6 307 
 PTB  HN ES       1716 30.48                              95   -0.0610 68.6 307 
 PTB  HZ I        1716 31.33        17.3 0.14             95           68.6 307 
 RUS  HZ EP       1716 27.95                              94    0.5310  102 107 
 RUS  HE ES       1716 39.96                              94   -0.3810  102 107 
 RUS  HZ I        1716 41.61         4.3 0.32             93            102 107 
 BRR  HZ EP       1716 27.74                              93   -0.0910  108  15 
 BRR  HN ES       1716 41.17                              93    0.1010  108  15 
 BRR  HZ I        1716 43.15         7.7 0.32             93            108  15 
 PAM  EN ES       1717  2.74                              56   -0.03 9  191  47 
 PAM  EZ I        1717  4.74         2.7 0.20             56            191  47 
                                                                                
