 2013  929 1152  5.4 L   6.817 -73.170146.0  RSN 14 0.4 2.2LRSN                1
 GAP=133        1.05       2.7     3.9  5.3 -0.9952E+00  0.6104E+01  0.1811E+01E
 Epicentro: LOS SANTOS - SANTANDER                                             3
 ACTION:UPD 13-10-22 09:25 OP:ep   STATUS:               ID:20130929115205 L   I
 OLDACT:REG 13-09-29 14:30 OP:jn   STATUS:               ID:20130929114959     3
 2013-09-29-1149-59M.COL___272                                                 6
 STAT SP IPHASW D HRMM SECON CODA AMPLIT PERI AZIMU VELO AIN AR TRES W  DIS CAZ7
 BAR2 SZ EP       1152 25.07                             170   -0.0310 24.8 183 
 BAR2 SZ ES       1152 40.08                             170   -0.3810 24.8 183 
 BAR2 SZ I        1152 41.72        29.5 0.20            169           24.8 183 
 BRR  HZ EP       1152 26.88                             154    0.4710 67.9 298 
 BRR  HN ES       1152 43.90                             154    1.1210 67.9 298 
 BRR  HZ I        1152 44.89        21.8 0.36            151           67.9 298 
 PAM  SZ EP       1152 28.03                             151    0.3510 77.8  42 
 PAM  SN ES       1152 45.11                             151    0.0710 77.8  42 
 PAM  SZ I        1152 47.17        38.4 0.46            154           77.8  42 
 RUS  HZ EP       1152 29.12                             143   -0.2210  103 175 
 RUS  HN ES       1152 47.77                             143   -0.2210  103 175 
 RUS  HZ I        1152 48.92        23.9 0.24            145            103 175 
 PTB  HZ EP       1152 31.87                             133   -0.32 9  145 258 
 PTB  HN ES       1152 52.80                             133   -0.28 9  145 258 
 PTB  HZ I        1152 54.99        28.9 0.12            132            145 258 
 OCA  HN ES       1152 54.77                             130   -0.71 9  158 354 
 OCA  HZ I        1152 59.66        17.6 0.38            131            158 354 
 SPBC HZ EP       1152 34.10                             129    0.20 9  163 218 
 SPBC HE ES       1152 56.16                             129    0.03 9  163 218 
 SPBC HZ I        1152 58.76        24.1 0.34            129            163 218 
 ZAR  HZ EP       1152 37.50                             123   -0.04 9  201 292 
 ZAR  HN ES       1153  2.74                             123    0.14 9  201 292 
 ZAR  HZ I        1153  9.58        16.6 0.26            123            201 292 
 NOR  HZ EP       1152 40.98                             119   -0.05 8  234 234 
 NOR  HN ES       1153  8.25                             119   -0.57 8  234 234 
 NOR  HZ I        1153 16.51        12.8 0.38            119            234 234 
 SML  HZ EP       1152 41.39                             118   -0.36 8  241 336 
 SML  HN ES       1153  9.77                             118   -0.32 8  241 336 
 CHI  HZ EP       1152 43.18                             117   -0.06 8  250 194 
 CHI  HN ES       1153 12.87                             117    0.12 8  250 194 
 CHI  HZ I        1153 16.08        11.6 0.32            118            250 194 
 HEL  HZ EP   1   1152 45.47                             115    0.08 6  270 255 
 HEL  HN ES       1153 16.31                             115   -0.27 8  270 255 
 HEL  HZ I        1153 24.15        10.4 0.48            115            270 255 
 GUY2CHZ EP       1152 50.22                             112    1.32 7  300 234 
 GUY2CHN ES   4   1153 24.33                             112    1.51 0  300 234 
 GUY2CHZ I        1153 29.73         6.6 0.28                           300 234 
 PRA  HZ EP       1152 59.07                             107    0.10 6  392 209 
 PRA  HN ES       1153 40.48                             107   -0.27 6  392 209 
 PRA  HZ I        1153 47.42         6.8 0.30            107            392 209 
                                                                                
