 2010  129 1524 43.0 L   6.820 -73.109141.0  RSN  4 0.2 1.5LRSN                1
 GAP=196        0.39       3.6    11.7  5.1 -0.4269E+01  0.2453E+02  0.2450E+01E
 Epicentro: LOS SANTOS - SANTANDER                                             3
 ACTION:UP  10-08-24 09:46 OP:vdl  STATUS:               ID:20100129152443 L   I
 2010-01-29-1521-49S.COL___094                                                 6
 STAT SP IPHASW D HRMM SECON CODA AMPLIT PERI AZIMU VELO SNR AR TRES W  DIS CAZ7
 BAR2 SZ EP   1   1525  2.19                             169     0.1 7   27 198 
 BAR2 SZ ES   2   1525 16.71                             169    -0.3 5   27 198 
 GIR2 SZ EP   1   1525  2.22                             167     0.1 7   30 342 
 GIR2 SZ ES   2   1525 16.93                             167     0.0 5   30 342 
 RUS  BZ EP   1   1525  6.20                             142    -0.2 7  103 178 
 RUS  BZ I        1525  7.39         5.5 0.26                           103 178 
 RUS  BN ES   1   1525 24.89                             142     0.2 7  103 178 
 PRA  HZ EP   1   1525 36.77                             105     0.0 4  396 210 
 PRA  HN ES   2   1526 18.87                             105     0.1 3  396 210 
                                                                                
