 2014  929 1312  3.6 L   6.805 -73.071151.2  RSN 10 0.5 2.3LRSN                1
 GAP=187        1.26       4.1     6.9  7.8  0.7147E+01 -0.2658E+01  0.6990E+01E
 Epicentro: LOS SANTOS - SANTANDER                                             3
 ACTION:UPD 14-10-03 23:09 OP:nd   STATUS:               ID:20140929131203 L   I
 OLDACT:UP  14-09-29 22:03 OP:cam  STATUS:               ID:20140929131000     3
 OLDACT:REG 14-09-29 20:34 OP:cam  STATUS:               ID:20140929131000     3
 2014-09-29-1310-00M.COL___252                                                 6
 STAT SP IPHASW D HRMM SECON CODA AMPLIT PERI AZIMU VELO AIN AR TRES W  DIS CAZ7
 BAR2 SZ EP     C 1312 24.53                             170    0.5910 26.6 208 
 BAR2 SZ ES       1312 39.13                             170   -0.6910 26.6 208 
 BAR2 SZ I        1312 42.23        24.9 0.28            166           26.6 208 
 BRR  HZ EP       1312 26.41                             151    0.6710 78.3 295 
 BRR  HN ES       1312 43.63                             151    0.6210 78.3 295 
 BRR  HN I        1312 46.36        53.9 0.20            149           78.3 295 
 SPBC HZ EP       1312 32.12                             129   -0.93 9  169 221 
 SPBC HN ES       1312 56.14                             129    0.11 9  169 221 
 SPBC HZ I        1313  1.30        29.8 0.14            129            169 221 
 ZAR  HN ES       1313  2.85                             123   -0.50 8  212 291 
 ZAR  HZ I        1313  9.00        16.5 0.26            122            212 291 
 SML  HZ EP       1312 41.00                             118    0.14 8  247 334 
 SML  HN ES       1313  9.31                             118   -0.62 8  247 334 
 SML  HZ I        1313 13.37        16.7 0.10            119            247 334 
 CHI  HZ EP       1312 42.61                             118    0.71 8  251 197 
 CHI  HN ES       1313 11.83                             118    0.05 8  251 197 
 CHI  HZ I        1313 17.84         4.9 0.34            118            251 197 
 PTGC HZ EP       1312 47.21                             113   -0.22 7  306 160 
 PTGC HZ I        1312 47.87        29.1 0.12            114            306 160 
 PTGC HE ES       1313 21.27                             113   -0.35 7  306 160 
 GUY2CHZ EP   4   1312 49.46                             113    1.21 0  308 236 
 GUY2CHN ES       1313 22.78                             113   -0.31 7  308 236 
 GUY2CHZ I        1313 31.12         9.2 0.30                           308 236 
 MON  HN ES   4   1313 30.09                             109   -2.38 0  360 308 
 PRA  HZ EP       1312 57.43                             107   -0.41 6  397 211 
 PRA  HN ES       1313 40.85                             107    0.69 6  397 211 
 PRA  HZ I        1313 45.05         5.8 0.42            108            397 211 
 SJC  HZ EP   4   1312 55.65                             106   -4.17 0  413 326 
 SJC  HN ES   4   1313 40.16                             106   -3.51 0  413 326 
 SJC  HN I        1313 43.70         4.4 0.36            107            413 326 
                                                                                
