 2017  929 1405  8.4 L   6.798 -73.121139.0  RSN  7 0.4 1.6LRSN                1
 GAP=140        1.05       4.4     4.7  6.7 -0.1692E+01  0.1328E+02  0.3771E+01E
 Epicentro: LOS SANTOS - SANTANDER                                             3
 ACTION:UPD 17-10-05 19:17 OP:rebc STATUS:               ID:20170929140508 L   I
 OLDACT:REG 17-09-29 20:12 OP:osc  STATUS:               ID:20170929135253     3
 2017-09-29-1358-00M.COL___452                                                 6
 STAT SP IPHASW D HRMM SECON CODA AMPLIT PERI AZIMU VELO AIN AR TRES W  DIS CAZ7
 BAR2 EZ EP       14 5 27.00                             170   -0.2410 23.8 197 
 BAR2 EZ ES       14 5 41.57                             170   -0.3610 23.8 197 
 BAR2 EZ I        14 5 42.57        16.4 0.38            171           23.8 197 
 BRR  HZ EP       14 5 29.01                             150    0.0210 73.8 298 
 BRR  HN ES       14 5 45.66                             150    0.6210 73.8 298 
 BRR  HZ I        14 5 47.36         7.5 0.14            148           73.8 298 
 PAM  EZ EP       14 5 29.89                             150    0.0710 75.8  38 
 PAM  EE ES       14 5 46.67                             150    0.1510 75.8  38 
 PAM  EZ I        14 5 49.15         7.5 0.46            151           75.8  38 
 RUS  HZ EP       14 5 31.36                             142   -0.1210  100 178 
 RUS  HN ES       14 5 49.52                             142    0.0510  100 178 
 RUS  HZ I        14 5 50.83         4.1 0.52            146            100 178 
 ZAR  HZ EP       14 5 40.40                             120   -0.31 8  207 292 
 ZAR  HE ES       14 6  5.36                             120   -0.54 8  207 292 
 ZAR  HZ I        14 6 13.55         3.8 0.28            121            207 292 
 NOR  HZ EP       14 5 43.70                             117   -0.30 8  237 235 
 NOR  HE ES       14 6 11.22                             117   -0.53 8  237 235 
 NOR  HZ I        14 6 12.84         2.4 0.16            118            237 235 
 GUY2CHZ EP       14 5 53.09                             111    1.12 7  303 235 
 GUY2CHE ES       14 6 26.71                             111    0.78 7  303 235 
 GUY2CHZ I        14 6 32.35         2.2 0.26                           303 235 
                                                                                
