 2016  729 1936 20.2 L   6.793 -73.158139.9  RSN  7 0.2 1.8LRSN                1
 GAP=135        0.54       2.2     2.8  4.0 -0.1423E+01  0.5602E+01 -0.1194E+00E
 Epicentro: LOS SANTOS - SANTANDER                                             3
 ACTION:UPD 17-03-29 16:56 OP:lp   STATUS:               ID:20160729193620 L   I
 OLDACT:REG 16-07-29 21:02 OP:ar   STATUS:               ID:20160729192737     3
 2016-07-29-1928-00M.COL___362                                                 6
 STAT SP IPHASW D HRMM SECON CODA AMPLIT PERI AZIMU VELO AIN AR TRES W  DIS CAZ7
 BAR2 EZ EP       1936 39.05                             170   -0.0110 22.4 187 
 BAR2 EZ ES       1936 53.89                             170    0.0810 22.4 187 
 BAR2 EZ I        1936 55.24        14.1 0.22            169           22.4 187 
 PAM  EZ EP       1936 41.86                             149    0.0210 78.8  40 
 PAM  EN ES       1936 58.88                             149    0.1310 78.8  40 
 PAM  EZ I        1937  1.13         9.8 0.50            154           78.8  40 
 RUS  HZ EP       1936 42.87                             143   -0.4210100.0 175 
 RUS  HN ES       1937  1.27                             143   -0.0610100.0 175 
 RUS  HZ I        1937  3.00         7.9 0.26            145          100.0 175 
 SPBC HZ EP       1936 48.08                             128    0.01 9  162 219 
 SPBC HN ES       1937  9.96                             128    0.11 9  162 219 
 SPBC HZ I        1937 16.71         8.2 0.12            129            162 219 
 ZAR  HZ EP       1936 52.44                             121    0.32 9  203 292 
 ZAR  HN ES       1937 16.64                             121   -0.41 9  203 292 
 ZAR  HZ I        1937 23.19         5.5 0.12            122            203 292 
 GUY2CHZ EP   2   1937  4.03                             111    0.71 4  300 235 
 GUY2CHN ES       1937 37.19                             111    0.20 7  300 235 
 GUY2CHZ I        1937 51.30         2.3 0.54                           300 235 
 PRA  HZ EP   2   1937 13.33                             106    0.01 3  391 209 
 PRA  HN ES       1937 54.87                             106    0.07 6  391 209 
 PRA  HZ I        1937 59.90         4.2 0.77            107            391 209 
                                                                                
