 2010  329 1054  1.0 L   6.816 -72.870144.9  RSN  5 0.3 1.6LRSN                1
 GAP=272        0.56       6.1    10.0  7.7 -0.3142E+01 -0.9346E-01  0.2473E+02E
 Epicentro: SAN ANDRES - SANTANDER                                             3
 ACTION:UP  10-08-24 09:56 OP:vdl  STATUS:               ID:20100329105401 L   I
 2010-03-29-1051-39S.COL___098                                                 6
 STAT SP IPHASW D HRMM SECON CODA AMPLIT PERI AZIMU VELO SNR AR TRES W  DIS CAZ7
 BAR2 SZ EP   1   1054 21.58                             163     0.5 7   43 234 
 BAR2 SZ ES   2   1054 36.34                             163    -0.4 5   43 234 
 BRR  HZ EP   1   1054 23.77                             144    -0.1 7   98 289 
 BRR  HE ES   2   1054 41.45                             144    -0.2 5   98 289 
 CHI  HZ EP   1   1054 39.68                             116    -0.2 6  260 202 
 CHI  HZ I        1054 50.70         1.6 0.77                           260 202 
 CHI  HE ES   2   1055 10.34                             116     0.1 4  260 202 
 RREF BZ EP   1   1054 49.63                             109    -0.3 5  347 232 
 RREF BN ES   2   1055 28.74                             109     0.6 3  347 232 
 RREF BZ I        1055 32.38         1.9 0.31                           347 232 
 PRA  HZ EP   1   1054 56.27                             106    -0.3 4  409 213 
 PRA  HN ES   2   1055 40.10                             106     0.2 3  409 213 
 PRA  HZ I        1055 43.22         1.3 0.32                           409 213 
                                                                                
