 2010 1229 1820 27.8 L   6.813 -73.164138.3  RSN 14 0.5 3.0LRSN                1
 GAP=134        0.94       3.0     5.7  7.3 -0.3268E+01  0.1774E+02  0.2242E+01E
 Epicentro: LOS SANTOS - SANTANDER                                             3
 ACTION:UP  11-01-14 15:27 OP:pat  STATUS:               ID:20101229182027 L   I
 2010-12-29-1820-00M.COL___137                                                 6
 STAT SP IPHASW D HRMM SECON CODA AMPLIT PERI AZIMU VELO SNR AR TRES W  DIS CAZ7
 BAR2 SZ IP       1820 46.83                             169     0.310   25 185 
 BAR2 SZ ES   1   1821  1.16                             169     0.0 7   25 185 
 BAR2 SZ I        1821  4.12       202.0 0.22                            25 185 
 GIR2 SZ EP       1820 45.82                             167    -0.710   30 354 
 RUS  HZ EP   1   1820 50.80                             142    -0.1 7  102 175 
 RUS  HN ES   1   1821  8.84                             142    -0.2 7  102 175 
 RUS  HZ I        1821 11.14       175.2 0.34                           102 175 
 GRA  SZ EP       1820 52.58                             135     0.310  125  19 
 GRA  SZ ES   1   1821 11.88                             135     0.4 7  125  19 
 GRA  SZ I        1821 13.26       251.6 0.21                           125  19 
 OCA  SZ EP   1   1820 55.29                             128    -0.1 7  159 354 
 OCA  SZ ES   1   1821 16.59                             128    -0.3 7  159 354 
 OCA  SZ I        1821 21.49       140.5 0.25                           159 354 
 YOP  SZ EP   1   1820 57.65                             124     0.1 7  181 153 
 YOP  SE ES   1   1821 21.37                             124     0.6 7  181 153 
 YOP  SZ I        1821 23.94        88.8 0.31                           181 153 
 NOR  SZ EP       1821  2.79                             117    -0.2 8  234 234 
 NOR  SN ES   1   1821 30.81                             117     0.3 6  234 234 
 CHI  HZ EP   1   1821  5.19                             115     0.0 6  249 195 
 CHI  HE ES   1   1821 34.37                             115     0.0 6  249 195 
 CHI  HZ I        1821 41.70        67.1 0.39                           249 195 
 HEL  HZ EP   1   1821  8.42                             113     1.0 6  270 255 
 HEL  HN ES   2   1821 38.95                             113     0.5 4  270 255 
 HEL  HZ I        1821 46.05        49.6 0.35                           270 255 
 VIL  SZ EP   2   1821 11.02                             110     0.2 4  303 189 
 VIL  SN ES   1   1821 43.63                             110    -0.7 5  303 189 
 VIL  SZ I        1821 50.41        49.2 0.30                           303 189 
 DBB  SZ EP   1   1821 14.11                             108    -0.6 5  337 274 
 DBB  SZ I        1821 56.56        14.2 0.26                           337 274 
 TOL  SZ EP   1   1821 16.70                             108     1.0 5  343 224 
 PRA  HZ EP   1   1821 20.73                             105    -0.4 4  392 209 
 PRA  HE ES       1822  2.50                             105    -0.2 6  392 209 
 SJA  SZ EP   2   1821 21.18                             105    -1.0 3  401 193 
                                                                                
