 2013  529 1402 28.8 L   6.788 -73.201148.5  RSN  4 0.5 1.7LRSN                1
 GAP=130        1.19      13.3     7.3 14.4 -0.5047E+02 -0.3488E+02  0.1235E+03E
 Epicentro: ZAPATOCA - SANTANDER                                               3
 ACTION:UPD 13-06-20 09:54 OP:ep   STATUS:               ID:20130529140228 L   I
 2013-05-29-1358-53M.COL___208                                                 6
 STAT SP IPHASW D HRMM SECON CODA AMPLIT PERI AZIMU VELO AIN AR TRES W  DIS CAZ7
 BRR  HZ EP       14 2 50.36                             155    0.4110 66.6 302 
 BRR  HE ES       14 3  7.16                             155    0.6810 66.6 302 
 PAM  SZ EP       14 2 51.53                             150   -0.0310 82.3  42 
 PAM  SE ES       14 3  8.81                             150   -0.5410 82.3  42 
 RUS  HZ EP       14 2 53.05                             145    0.3210 99.9 173 
 PTB  HZ EP       14 2 55.05                             134   -0.34 9  142 259 
 PTB  HN ES       14 3 15.56                             134   -0.61 9  142 259 
 PTB  HE I        14 3 21.81         6.6 0.32            134            142 259 
                                                                                
