 2012  929 1118 54.0 L   6.725 -73.158146.0  RSN 14 0.5 2.7LRSN 3.0WRSN        1
 SPEC AVERAGE  MO 13.7 ST  4.6 OM  2.7 f0 4.16 R0.3578 AL 2.09 WI 10.0 MW  3.0 3
 SPEC SD       MO  0.1 ST0.963 OM  0.8 f00.460 R0.0424 AL      WI      MW  0.0 3
 GAP= 73        1.09       4.4     3.9  6.4 -0.2372E+01  0.1342E+01  0.8110E+01E
 Epicentro: VILLANUEVA - SANTANDER                                             3
 SPEC PRA HH N MO 13.6 ST  4.4 OM  1.6 f0 4.38 R0.3356 AL 2.02 WI 12.5 MW  3.0 3
 SPEC PRA HH N T112026 K 0.000 GD  410 VS 4.20 DE 3.00 Q0230.0 QA 0.60 VS 4.20 3
 SPEC PTB HH N MO 13.7 ST  4.6 OM  2.0 f0 4.12 R0.3568 AL 1.89 WI  5.9 MW  3.1 3
 SPEC PTB HH N T111940 K 0.000 GD  205 VS 4.20 DE 3.00 Q0230.0 QA 0.60 VS 4.20 3
 SPEC HEL HH N MO 13.8 ST  3.2 OM  1.9 f0 3.45 R0.4261 AL 2.14 WI 12.0 MW  3.1 3
 SPEC HEL HH N T1120 5 K 0.000 GD  306 VS 4.20 DE 3.00 Q0230.0 QA 0.60 VS 4.20 3
 SPEC CHI HH N MO 13.6 ST  5.9 OM  1.8 f0 4.70 R0.3128 AL 2.32 WI  9.7 MW  3.0 3
 SPEC CHI HH N T1120 0 K 0.000 GD  280 VS 4.20 DE 3.00 Q0230.0 QA 0.60 VS 4.20 3
 ACTION:UPD 12-10-22 14:21 OP:ep   STATUS:               ID:20120929111854 L   I
 2012-09-29-1117-44M.COL___205                                                 6
 STAT SP IPHASW D HRMM SECON CODA AMPLIT PERI AZIMU VELO AIN AR TRES W  DIS CAZ7
 BAR2 SZ IP       1119 13.30                             174   -0.2310 15.0 190 
 BAR2 SZ ES   1   1119 28.57                             174   -0.19 7 15.0 190 
 BAR2 SZ I        1119 30.07       179.0 0.40                          15.0 190 
 GIR2 SZ EP       1119 13.39                             164   -0.5610 39.3 354 
 GIR2 SZ ES       1119 29.69                             164    0.1810 39.3 354 
 BRR  HZ IP     C 1119 15.20                             151   -0.1710 74.4 305 
 BRR  HE ES   1   1119 32.86                             151    0.83 7 74.4 305 
 BRR  HN I        1119 36.67       244.7 0.14                          74.4 305 
 PAM  SZ EP       1119 16.11                             149   -0.5910 84.7  37 
 PAM  SN ES   1   1119 33.54                             149   -0.86 7 84.7  37 
 PAM  SN I        1119 34.52       123.2 0.50                          84.7  37 
 RUS  HZ EP       1119 17.36                             146    0.1510 92.4 175 
 RUS  HN ES   1   1119 35.81                             146    0.49 7 92.4 175 
 RUS  HZ I        1119 37.18        48.6 0.24                          92.4 175 
 GRA  SZ IP       1119 21.12                             135    1.1410  134  17 
 GRA  SZ ES   1   1119 40.90                             135    0.67 7  134  17 
 GRA  SZ I        1119 41.90        50.0 0.32                           134  17 
 PTB  HN ES   1   1119 41.31                             133   -0.30 7  145 262 
 TAM  HZ EP       1119 21.44                             131   -0.21 9  154 102 
 TAM  HN ES   1   1119 43.19                             131   -0.02 7  154 102 
 TAM  HN I        1119 43.98       106.8 0.54                           154 102 
 ZAR  HZ EP   1   1119 26.62                             122   -0.06 6  206 294 
 ZAR  HN ES   1   1119 51.54                             122   -0.62 6  206 294 
 ZAR  HN I        1120  1.43        86.2 0.36                           206 294 
 NOR  SN ES   1   1119 56.70                             119    0.17 6  229 236 
 CHI  HZ EP       1119 31.21                             118    0.39 8  240 195 
 CHI  HN I        1120  6.03        26.2 0.28                           240 195 
 HEL  HE ES   1   1120  4.89                             115   -0.09 6  269 257 
 HEL  HE I        1120 13.48        25.6 0.24                           269 257 
 RREF HZ EP   2   1119 39.99                             111    0.55 3  315 230 
 RREF HZ I        1120 21.90        18.8 0.28                           315 230 
 PRA  HZ EP       1119 46.66                             107    0.04 6  384 210 
 PRA  HN ES   2   1120 26.86                             107   -0.80 3  384 210 
 PRA  HN I        1120 36.12         9.8 0.66                           384 210 
                                                                                
