 2013  129 1725 45.7 L   6.792 -73.029148.8  RSN  4 0.4 1.6LRSN                1
 GAP=153        1.03       5.6     8.3  8.4 -0.1908E+01 -0.5324E+01  0.2087E+01E
 Epicentro: CEPITA - SANTANDER                                                 3
 ACTION:UPD 13-02-15 09:17 OP:ep   STATUS:               ID:20130129172545 L   I
 2013-01-29-1720-00M.COL___241                                                 6
 STAT SP IPHASW D HRMM SECON CODA AMPLIT PERI AZIMU VELO AIN AR TRES W  DIS CAZ7
 BAR2 SZ EP       1726  5.55                             169   -0.2310 27.8 218 
 BAR2 SZ I        1726  6.10         7.4 0.28            167           27.8 218 
 BAR2 SZ ES       1726 21.76                             169    0.3110 27.8 218 
 PAM  SZ EP       1726  8.47                             154    0.6210 70.6  31 
 PAM  SN ES       1726 24.74                             154   -0.3910 70.6  31 
 BRR  HZ EP       1726  7.31                             149   -0.5710 83.2 295 
 BRR  HN ES       1726 25.44                             149    0.2610 83.2 295 
 BRR  HN I        1726 28.08        16.7 0.16            148           83.2 295 
 RUS  HZ EP       1726  9.92                             145    0.2510 99.6 183 
 RUS  HN ES       1726 28.14                             145   -0.2410 99.6 183 
 RUS  HN I        1726 30.10         3.7 0.36            145           99.6 183 
                                                                                
