 2011  829 1116 54.7 L   6.765 -73.065146.0  RSN  4 0.1 1.5LRSN                1
 GAP=203        0.31       6.0    12.1  9.6  0.6401E+02 -0.9339E+02 -0.4314E+02E
 Epicentro: LOS SANTOS - SANTANDER                                             3
 ACTION:UPD 12-07-13 15:54 OP:ep   STATUS:               ID:20110829111654 L   I
 2011-08-29-1114-56S.COL___160                                                 6
 STAT SP IPHASW D HRMM SECON CODA AMPLIT PERI AZIMU VELO AIN AR TRES W  DIS CAZ7
 BAR2 SZ EP   2   1117 14.18                             171   -0.18 5 23.1 214 
 BAR2 SZ I        1117 30.72         7.7 0.12                          23.1 214 
 GIR2 SZ EP   1   1117 14.64                             165    0.05 7 37.5 338 
 BRR  HZ EP   2   1117 16.40                             149   -0.05 5 80.8 298 
 BRR  HZ I        1117 30.62         6.4 0.21                          80.8 298 
 BRR  HN ES   1   1117 33.42                             149    0.01 7 80.8 298 
 RUS  HZ EP   2   1117 18.29                             145    0.10 5 96.5 181 
 RUS  HN ES   1   1117 36.50                             145   -0.01 7 96.5 181 
 RUS  HZ I        1117 38.14         3.7 0.24                          96.5 181 
                                                                                
