 2010  629 2150 30.6 L   6.871 -72.935136.0  RSN  4 0.6 1.8LRSN                1
 GAP=188        1.48      12.5    23.2 21.0  0.1886E+03 -0.3057E+03 -0.1517E+03E
 Epicentro: GUACA - SANTANDER                                                  3
 ACTION:UP  10-08-24 10:14 OP:vdl  STATUS:               ID:20100629215030 L   I
 2010-06-29-2149-51S.COL___118                                                 6
 STAT SP IPHASW D HRMM SECON CODA AMPLIT PERI AZIMU VELO SNR AR TRES W  DIS CAZ7
 BAR2 SZ EP   1   2150 49.73                             163     0.2 7   41 222 
 BAR2 SZ ES   1   2151  3.32                             163    -1.1 7   41 222 
 BRR  HZ EP       2150 51.38                             145    -0.510   90 287 
 BRR  HZ I        2150 51.74        26.0 0.20                            90 287 
 BRR  HN ES       2151  8.94                             145     0.410   90 287 
 GUE  SZ EP   1   2150 54.15                             140     0.6 7  106   1 
 RUS  HZ EP   1   2150 53.50                             140    -0.6 7  109 189 
 RUS  HN ES       2151 12.98                             140     0.610  109 189 
 RUS  HZ I        2151 13.36         4.2 0.06                           109 189 
                                                                                
