 2010  829 2211 48.2 L   6.774 -73.068140.0  RSN  6 0.2 1.9LRSN                1
 GAP=198        0.49       3.8     6.0  4.7 -0.1149E+02 -0.5979E+01  0.2222E+01E
 Epicentro: LOS SANTOS - SANTANDER                                             3
 ACTION:UP  10-09-07 10:59 OP:vdl  STATUS:               ID:20100829221148 L   I
 2010-08-29-2209-55S.COL___120                                                 6
 STAT SP IPHASW D HRMM SECON CODA AMPLIT PERI AZIMU VELO SNR AR TRES W  DIS CAZ7
 BAR2 SZ EP       2212  7.22                             170     0.010   24 212 
 BAR2 SZ ES   1   2212 21.90                             170    -0.1 7   24 212 
 BAR2 SZ I        2212 23.27        18.3 0.18                            24 212 
 BRR  HZ EP       2212  9.02                             149    -0.310   80 297 
 BRR  HE ES   1   2212 25.99                             149     0.2 7   80 297 
 BRR  HZ I        2212 30.24        16.5 0.16                            80 297 
 GUE  SZ EP       2212 12.46                             138    -0.110  118   8 
 GRA  SZ EP   1   2212 13.06                             136     0.0 7  126  13 
 GRA  SZ ES   1   2212 32.55                             136     0.2 7  126  13 
 GRA  SZ I        2212 33.42         8.6 0.48                           126  13 
 OCA  SZ EP   3   2212 16.49                             128     0.0 2  164 350 
 OCA  SZ I        2212 40.91         8.4 0.26                           164 350 
 PRA  HZ EP   1   2212 42.07                             106     0.3 4  394 211 
 PRA  HE ES   2   2213 23.97                             106     0.4 3  394 211 
 PRA  HZ I        2213 30.85         1.9 0.28                           394 211 
                                                                                
