 2017  129 2111 25.0 L   6.781 -73.125147.2  RSN  4 0.1 1.3LRSN                1
 GAP=140        0.37       2.0     3.3  3.3 -0.8546E+00 -0.2784E+01  0.9787E+00E
 Epicentro: LOS SANTOS - SANTANDER                                             3
 ACTION:UPD 17-05-22 16:04 OP:jn   STATUS:               ID:20170129211125 L   I
 OLDACT:UP  17-01-30 03:01 OP:edw  STATUS:               ID:20170129210746d    3
 OLDACT:DUP 17-01-30 02:53 OP:edw  STATUS:               ID:20170129210746d    3
 OLDACT:UP  17-01-30 02:51 OP:edw  STATUS:               ID:20170129210745     3
 OLDACT:REG 17-01-30 02:29 OP:edw  STATUS:               ID:20170129210745     3
 2017-01-29-2108-00M.COL___348                                                 6
 STAT SP IPHASW D HRMM SECON CODA AMPLIT PERI AZIMU VELO AIN AR TRES W  DIS CAZ7
 BAR2 EZ EP       2111 44.99                             171    0.1910 21.8 197 
 BAR2 EZ ES       2112  0.21                             171   -0.0110 21.8 197 
 BAR2 EZ I        2112  0.83         4.2 0.30            172           21.8 197 
 BRR  HN ES       2112  3.22                             152   -0.0310 74.2 299 
 PAM  EZ IP     C 2111 47.26                             151   -0.1410 77.6  37 
 PAM  EN ES       2112  4.92                             151    0.0510 77.6  37 
 PAM  EZ I        2112  6.43         2.7 0.44            151           77.6  37 
 RUS  HZ EP       2111 48.74                             145   -0.0110 98.3 177 
 RUS  HN ES       2112  7.22                             145   -0.0510 98.3 177 
 RUS  HZ I        2112  8.18         3.3 0.32            145           98.3 177 
                                                                                
