 2013 1229 2225 10.9 L   6.790 -73.158144.0  RSN  9 0.4 1.9LRSN                1
 GAP=135        1.02       4.8     5.0  6.5 -0.4283E+01  0.5801E+01  0.3927E+01E
 Epicentro: LOS SANTOS - SANTANDER                                             3
 ACTION:UPD 14-01-13 10:22 OP:ep   STATUS:               ID:20131229222510 L   I
 OLDACT:REG 13-12-29 21:24 OP:cma  STATUS:               ID:20131229222000     3
 2013-12-29-2220-00M.COL___285                                                 6
 STAT SP IPHASW D HRMM SECON CODA AMPLIT PERI AZIMU VELO AIN AR TRES W  DIS CAZ7
 BAR2 SZ EP       2225 30.25                             171   -0.0310 22.0 187 
 BAR2 SZ ES       2225 45.02                             171   -0.3810 22.0 187 
 BAR2 SZ I        2225 46.29        38.5 0.20            168           22.0 187 
 BRR  HZ EP       2225 32.18                             152    0.3710 70.6 300 
 BRR  HN ES       2225 48.91                             152    0.7810 70.6 300 
 BRR  HZ I        2225 52.90        12.6 0.14            154           70.6 300 
 PAM  SZ EP     D 2225 33.30                             150    0.2810 79.1  40 
 PAM  SN ES       2225 49.95                             150   -0.3310 79.1  40 
 PAM  SZ I        2225 51.59        10.0 0.16            156           79.1  40 
 RUS  HZ EP       2225 34.27                             144   -0.1210 99.5 175 
 RUS  HE ES       2225 52.90                             144    0.1810 99.5 175 
 RUS  HZ I        2225 58.82         3.9 0.28            144           99.5 175 
 PTB  HZ EP       2225 36.92                             132   -0.65 9  146 259 
 PTB  HN ES       2225 57.63                             132   -0.75 9  146 259 
 PTB  HZ I        2226  0.28        11.5 0.12            133            146 259 
 SPBC HZ EP       2225 39.37                             129    0.29 9  161 219 
 SPBC HN ES   2   2226  1.78                             129    0.70 5  161 219 
 NOR  HZ EP   2   2225 46.77                             118    0.45 4  233 235 
 NOR  HN ES   2   2226 14.05                             118    0.08 4  233 235 
 NOR  HZ I        2226 21.15         9.0 0.14            120            233 235 
 SML  HZ EP   2   2225 47.22                             117   -0.24 4  244 336 
 CHI  HZ EP   2   2225 48.56                             117    0.23 4  247 195 
 SJC  HZ EP   4   2226  5.21                             105   -1.21 0  409 327 
                                                                                
