 2010  729 2119  5.8 L   6.788 -73.105144.8  RSN  7 0.3 2.0LRSN                1
 GAP=169        0.59       4.0     7.1  5.5  0.7984E+01 -0.3056E+01 -0.1863E+01E
 Epicentro: LOS SANTOS - SANTANDER                                             3
 ACTION:UPD 10-12-01 15:21 OP:pat  STATUS:               ID:20100729211905 L   I
 2010-07-29-2115-05S.COL___123                                                 6
 STAT SP IPHASW D HRMM SECON CODA AMPLIT PERI AZIMU VELO AIN AR TRES W  DIS CAZ7
 BAR2 SZ IP       2119 25.22                             170     0.010   23 202 
 BAR2 SZ ES   1   2119 40.30                             170    -0.2 7   23 202 
 BAR2 SZ I        2119 41.72        22.6 0.19                            23 202 
 GIR2 SZ EP   2   2119 26.16                             166     0.8 5   34 343 
 BRR  HZ IP     C 2119 27.05                             151     0.010   76 298 
 BRR  HE ES   1   2119 43.61                             151    -0.1 7   76 298 
 BRR  HZ I        2119 45.73        16.5 0.43                            76 298 
 RUS  HZ IP     C 2119 29.12                             144    -0.210   99 179 
 RUS  HN ES   1   2119 47.96                             144     0.3 7   99 179 
 RUS  HZ I        2119 49.55         8.0 0.43                            99 179 
 GUE  SZ EP   1   2119 30.38                             139     0.0 7  117  10 
 HEL  HZ EP   2   2119 46.86                             114     0.5 4  276 256 
 HEL  HZ I        2120 24.00         6.3 0.33                           276 256 
 PRA  HZ EP   2   2119 58.84                             106    -0.5 3  393 210 
 PRA  HE ES   2   2120 41.13                             106     0.0 3  393 210 
 PRA  HZ I        2120 47.44         4.5 0.43                           393 210 
                                                                                
