 2011  529 2105 54.6 L   6.794 -73.122145.8  RSN  9 0.5 2.3LRSN                1
 GAP=140        1.14       4.6     8.3  8.0 -0.1621E+02  0.8060E+01  0.1607E+01E
 Epicentro: LOS SANTOS - SANTANDER                                             3
 ACTION:UP  11-06-29 08:57 OP:tino STATUS:               ID:20110529210554 L   I
 2011-05-29-2104-45S.COL___113                                                 6
 STAT SP IPHASW D HRMM SECON CODA AMPLIT PERI AZIMU VELO SNR AR TRES W  DIS CAZ7
 BAR2 SZ IP       21 6 14.25                             170     0.010   23 197 
 BAR2 SZ ES   1   21 6 29.42                             170    -0.2 7   23 197 
 BAR2 SZ I        21 6 31.95        38.7 0.21                            23 197 
 BRR  HZ IP     C 21 6 16.13                             152     0.210   74 298 
 BRR  HZ I        21 6 16.41        94.2 0.16                            74 298 
 BRR  HN ES   1   21 6 33.72                             152     1.2 7   74 298 
 PAM  SZ EP   2   21 6 17.18                             151     0.4 5   76  38 
 RUS  HZ EP       21 6 18.55                             144     0.210  100 178 
 RUS  HN ES   1   21 6 36.51                             144    -0.3 7  100 178 
 RUS  HZ I        21 6 38.13        18.9 0.28                           100 178 
 BRI  SZ EP       21 6 18.75                             141     0.210  108  19 
 BRI  SZ ES   1   21 6 36.83                             141    -0.3 7  108  19 
 GRA  SZ IP       21 6 20.06                             137     0.210  126  16 
 GRA  SZ I        21 6 21.18        24.8 0.30                           126  16 
 GRA  SZ ES   1   21 6 38.92                             137    -0.6 7  126  16 
 OCA  SZ EP       21 6 23.12                             129     0.1 9  161 352 
 OCA  SZ ES   1   21 6 44.41                             129    -0.8 7  161 352 
 OCA  SZ I        21 6 51.24        23.4 0.18                           161 352 
 NOR  SZ EP       21 6 29.82                             118    -0.7 8  236 235 
 NOR  SN ES   1   21 6 57.96                             118    -0.6 6  236 235 
 PRA  HZ EP       21 6 48.57                             106     0.3 6  393 210 
                                                                                
