 2010  529 2132 22.4 L   6.576 -73.376116.8  RSN  5 0.3 1.7LRSN                1
 GAP=277        0.47      11.0    24.1 12.1 -0.1762E+03  0.2211E+03 -0.1053E+03E
 Epicentro: HATO - SANTANDER                                                   3
 ACTION:UP  10-08-24 10:07 OP:vdl  STATUS:               ID:20100529213222 L   I
 2010-05-29-2131-16S.COL___109                                                 6
 STAT SP IPHASW D HRMM SECON CODA AMPLIT PERI AZIMU VELO SNR AR TRES W  DIS CAZ7
 BAR2 SZ ES   2   2132 51.16                             169     0.0 5   21  85 
 GIR2 SZ EP       2132 40.09                             152     0.110   59  20 
 GUE  SZ EP       2132 47.51                             125    -0.1 9  147  20 
 GUE  SZ ES   2   2133  6.81                             125    -0.4 5  147  20 
 GRA  SZ ES   3   2133  9.86                             123     1.1 2  158  24 
 OCA  SZ EP       2132 51.16                             118     0.0 9  184   2 
 OCA  SZ I        2133 19.59         5.7 0.33                           184   2 
                                                                                
