 2010 1229 2136 44.9 L   6.767 -73.266144.0  RSN 10 0.5 2.4LRSN                1
 GAP=127        1.01       4.6    11.9  8.9 -0.1889E+02  0.3391E+02 -0.5188E+01E
 Epicentro: ZAPATOCA - SANTANDER                                               3
 ACTION:UP  11-01-14 15:28 OP:pat  STATUS:               ID:20101229213644 L   I
 2010-12-29-2133-07S.COL___135                                                 6
 STAT SP IPHASW D HRMM SECON CODA AMPLIT PERI AZIMU VELO SNR AR TRES W  DIS CAZ7
 BTL  SZ EP       2137  5.16                                     1.010   17 360 
 BAR2 SZ EP       2137  4.14                             171    -0.110   21 155 
 BAR2 SZ ES   1   2137 19.37                             171     0.0 7   21 155 
 BAR2 SZ I        2137 20.68        69.1 0.24                            21 155 
 GIR2 SZ EP   2   2137  4.24                             166    -0.2 5   35  13 
 GIR2 SZ ES   2   2137 19.87                             166     0.1 5   35  13 
 RUS  HZ EP       2137  8.05                             144    -0.310   99 168 
 RUS  HN ES   1   2137 26.62                             144     0.0 7   99 168 
 RUS  HZ I        2137 28.48        33.2 0.32                            99 168 
 GRA  SZ EP   1   2137 10.90                             135     0.2 7  134  22 
 GRA  SZ ES   1   2137 30.73                             135     0.0 7  134  22 
 GRA  SZ I        2137 31.80        46.6 0.55                           134  22 
 OCA  SZ EP       2137 12.92                             129    -0.4 9  163 358 
 OCA  SZ ES   2   2137 34.75                             129    -0.7 5  163 358 
 OCA  SZ I        2137 39.32        55.2 0.06                           163 358 
 YOP  SZ EP   2   2137 14.28                             125    -0.9 4  182 149 
 YOP  SZ I        2137 42.82        18.8 0.82                           182 149 
 NOR  SZ EP   2   2137 19.83                             120     0.7 4  222 233 
 NOR  SN ES   2   2137 44.98                             120    -0.9 4  222 233 
 CHI  HZ EP   2   2137 22.00                             118     0.2 4  242 192 
 CHI  HE ES   2   2137 50.87                             118     0.3 4  242 192 
 CHI  HZ I        2137 59.03        13.0 0.34                           242 192 
 PRA  HZ EP   2   2137 37.44                             107     0.2 3  382 208 
                                                                                
