 2010 1029 2056 51.5 L   6.082 -73.655 99.0  RSN  5 0.3 1.7LRSN                1
 GAP=139        0.60       6.0     4.4  9.7 -0.1319E+02  0.2027E+02 -0.1507E+01E
 Epicentro: CHIPATA - SANTANDER                                                3
 ACTION:UP  11-02-18 11:13 OP:tino STATUS:               ID:20101029205651 L   I
 2010-10-29-2054-55S.COL___127                                                 6
 STAT SP IPHASW D HRMM SECON CODA AMPLIT PERI AZIMU VELO SNR AR TRES W  DIS CAZ7
 RUS  HZ EP       2057  8.23                             144     0.010   67 108 
 RUS  HZ I        2057  8.67         7.5 0.16                            67 108 
 RUS  HE ES   2   2057 21.54                             144     0.3 5   67 108 
 BAR2 SZ ES   1   2057 21.77                             140    -0.2 7   77  43 
 BAR2 SZ I        2057 23.69        35.6 0.31                            77  43 
 BTL  SZ EP   1   2057 11.15                             131     0.3 7  102  25 
 NOR  SZ EP   1   2057 14.65                             120    -0.4 7  146 247 
 NOR  SN ES   1   2057 33.64                             120     0.2 7  146 247 
 HEL  HZ EP   2   2057 22.54                             111     0.2 4  208 273 
 HEL  HZ I        2057 48.91         3.8 0.39                           208 273 
                                                                                
