 2015  629 2135 41.2 L   6.854 -73.087146.0  RSN  7 0.3 2.1LRSN                1
 GAP=189        0.74       2.5     5.4  5.2  0.3402E+01  0.8619E+01 -0.2022E+01E
 Epicentro: LOS SANTOS - SANTANDER                                             3
 ACTION:UPD 15-09-10 22:15 OP:cam  STATUS:               ID:20150629213541 L   I
 OLDACT:UP  15-06-30 04:42 OP:drio STATUS:               ID:20150629212750     3
 OLDACT:REG 15-06-30 04:07 OP:drio STATUS:               ID:20150629212750     3
 2015-06-29-2127-50M.COL___316                                                 6
 STAT SP IPHASW D HRMM SECON CODA AMPLIT PERI AZIMU VELO AIN AR TRES W  DIS CAZ7
 BAR2 EZ EP       2136  1.26                             168    0.2410 30.8 200 
 BAR2 EZ ES       2136 16.34                             168   -0.1510 30.8 200 
 BAR2 EZ I        2136 16.81        18.7 0.32            165           30.8 200 
 RUS  HZ EP       2136  5.65                             142    0.2610  106 180 
 RUS  HE ES       2136 23.97                             142   -0.2910  106 180 
 RUS  HZ I        2136 25.22         4.6 0.36            144            106 180 
 OCA  HZ EP       2136  8.55                             131   -0.50 9  155 351 
 OCA  HN ES       2136 31.14                             131    0.36 9  155 351 
 OCA  HZ I        2136 35.92        26.3 0.30            131            155 351 
 ZAR  HZ EP       2136 14.16                             122    0.11 8  208 290 
 ZAR  HN ES       2136 39.67                             122   -0.01 8  208 290 
 ZAR  HZ I        2136 45.54        13.9 0.44            121            208 290 
 SML  HZ EP       2136 17.74                             118    0.19 8  241 333 
 SML  HE ES       2136 46.02                             118    0.11 8  241 333 
 SML  HZ I        2136 50.47        14.3 0.24            118            241 333 
 PRA  HZ EP       2136 36.03                             106    0.32 6  400 210 
 PRA  HN ES       2137 18.24                             106    0.02 6  400 210 
 PRA  HZ I        2137 24.74         4.1 0.50            107            400 210 
 SJC  HZ EP       2136 35.62                             106   -0.98 6  408 326 
 SJC  HE ES   4   2137 14.76                             106   -5.05 0  408 326 
 SJC  HZ I        2137 20.62         2.6 0.52            106            408 326 
                                                                                
