 2016 1029 2022 16.1 L   6.778 -73.139150.5  RSN 28 0.4 3.1LRSN                1
 GAP= 66        0.83       2.5     2.3  3.7 -0.1503E+01  0.1690E+01  0.2503E+00E
 Epicentro: LOS SANTOS - SANTANDER                                             3
 ACTION:UPD 16-11-09 19:24 OP:rebc STATUS:               ID:20161029202216 L   I
 OLDACT:UP  16-10-30 04:09 OP:and  STATUS:               ID:20161029201746     3
 OLDACT:UP  16-10-30 04:06 OP:and  STATUS:               ID:20161029201746     3
 OLDACT:UP  16-10-30 04:03 OP:and  STATUS:               ID:20161029201746     3
 OLDACT:UP  16-10-30 04:03 OP:and  STATUS:               ID:20161029201746     3
 OLDACT:UP  16-10-30 03:56 OP:and  STATUS:               ID:20161029201746     3
 OLDACT:UP  16-10-30 03:47 OP:and  STATUS:               ID:20161029201746     3
 OLDACT:REG 16-10-30 02:53 OP:and  STATUS:               ID:20161029201746     3
 2016-10-29-2018-00M.COL___322                                                 6
 STAT SP IPHASW D HRMM SECON CODA AMPLIT PERI AZIMU VELO AIN AR TRES W  DIS CAZ7
 BAR2 EZ IP     D 2022 36.10                             172   -0.1810 21.1 193 
 BAR2 EZ ES       2022 52.09                             172    0.0910 21.1 193 
 BAR2 EZ I        2022 53.23       207.5 0.20            170           21.1 193 
 BRR  HZ IP     D 2022 38.04                             153    0.1610 73.0 300 
 BRR  HN ES       2022 55.47                             153    0.6110 73.0 300 
 BRR  HZ I        2022 58.80       157.0 0.26            148           73.0 300 
 PAM  EZ IP     D 2022 38.93                             151    0.0010 78.8  38 
 PAM  EN ES       2022 56.13                             151   -0.5910 78.8  38 
 PAM  EZ I        2022 59.02       283.1 0.62            150           78.8  38 
 RUS  HZ EP       2022 39.96                             145   -0.2110 98.1 176 
 RUS  HE ES       2022 58.79                             145   -0.1310 98.1 176 
 RUS  HZ I        2023  1.59       150.7 0.38            144           98.1 176 
 PTB  HZ EP       2022 42.66                             133   -0.84 9  148 260 
 PTB  HN ES       2023  4.24                             133   -0.62 9  148 260 
 PTB  HZ I        2023  8.05       111.9 0.16            129            148 260 
 TAM  HZ IP     D 2022 44.28                             132    0.22 9  154 104 
 TAM  HN ES       2023  6.32                             132    0.47 9  154 104 
 SPBC HZ EP       2022 45.05                             130    0.20 9  162 220 
 SPBC HN ES       2023  7.43                             130    0.17 9  162 220 
 SPBC HZ I        2023 12.20       314.5 0.28            127            162 220 
 NOR  HZ EP       2022 51.75                             120   -0.29 8  234 235 
 NOR  HN ES       2023 20.02                             120   -0.04 8  234 235 
 NOR  HZ I        2023 22.42       106.4 0.28            117            234 235 
 CHI  HZ EP       2022 54.00                             118    0.15 8  246 195 
 CHI  HN ES       2023 23.31                             118    0.03 8  246 195 
 CHI  HZ I        2023 31.67        63.6 0.44            116            246 195 
 ROSC BZ EP   9   2022 55.65                             118    1.33 0  251 211 
 ROSC BN ES       2023 25.32                             118   -0.12 8  251 211 
 ROSC BZ I        2023 33.93        94.4 0.35            115            251 211 
 HEL  HZ EP   4   2022 57.86                             116    1.27 0  272 256 
 HEL  HN ES       2023 28.54                             116    0.39 8  272 256 
 HEL  HZ I        2023 34.30        57.6 0.46            113            272 256 
 URE  HZ EP   2   2022 56.75                             114   -0.85 4  285 292 
 URE  HN ES   4   2023 27.31                             114   -2.64 0  285 292 
 URE  HZ I        2023 38.04        65.3 0.24            112            285 292 
 GUY2CHZ EP   3   2023  1.00                             113    1.14 2  300 235 
 GUY2CHE ES       2023 34.28                             113    0.31 7  300 235 
 GUY2CHZ I        2023 40.96        78.4 0.30                           300 235 
 PTGC HZ EP   2   2022 58.94                             113   -0.97 4  306 159 
 PTGC HN ES   4   2023 32.30                             113   -1.76 0  306 159 
 PTGC HZ I        2023 37.13        56.4 0.38            111            306 159 
 LL1C HZ EP       2023  0.94                             112    0.72 7  309 352 
 LL1C HN ES   4   2023 36.55                             112    1.94 0  309 352 
 LL6C HZ EP   9   2022 41.32                             111   -21.0 0  327 357 
 LL6C HZ I        2023 20.79        29.0 0.40            109            327 357 
 ELA  HZ EP   9   2023  4.91                             111    1.85 0  328 230 
 ELA  HN ES       2023 42.32                                    0.80 7  328 230 
 ELA  HZ I        2023 47.81        58.9 0.48            109            328 230 
 CBOC HZ EP   4   2023  4.57                             111    1.34 0  334 253 
 CBOC HN ES       2023 39.99                             111    0.02 7  334 253 
 CBOC HZ I        2023 46.49        27.7 0.46            108            334 253 
 ANIL HZ EP   9   2023  7.23                             109    1.26 0  356 225 
 ANIL HN ES       2023 46.10                             109   -0.01 6  356 225 
 ANIL HZ I        2023 51.96       122.7 0.28            107            356 225 
 ARGC HZ EP   2   2023  6.35                             109    0.10 3  362 340 
 ARGC HE ES       2023 45.58                             109    0.22 6  362 340 
 ARGC HZ I        2023 54.34        24.5 0.28            107            362 340 
 ORTC HZ EP       2023 10.29                             107    0.27 6  394 216 
 ORTC HN ES   4   2023 53.95                             107    1.88 0  394 216 
 ORTC HZ I        2023 59.88        43.8 0.23            105            394 216 
 PAL  HZ EP       2023 11.60                             107    0.24 6  405 239 
 PAL  HE ES   4   2023 51.87                             107   -2.59 0  405 239 
 PAL  HZ I        2023 58.58        27.2 0.22            105            405 239 
 SJC  HZ EP   3   2023 10.36                             106   -1.77 1  412 327 
 SJC  HN ES   4   2023 51.49                             106   -4.32 0  412 327 
 SJC  HZ I        2023 55.87        26.2 0.40            104            412 327 
 CRJC HZ EP   9   2023 16.28                             104   -2.76 0  470   3 
 CRJC HN ES       2024  5.48                             104    0.12 5  470   3 
 CRJC HZ I        2024  9.47        47.0 0.14            102            470   3 
 YOT  HZ EP       2023 18.94                             104   -0.23 5  471 229 
 YOT  HE ES       2024  8.80                             104    0.45 5  471 229 
 URI  HZ EP   4   2023 26.28                             101   -3.22 0  559  13 
 URI  HN ES   4   2024 21.04                             101   -5.69 0  559  13 
 URI  HZ I        2024 40.47         4.3 0.28            100            559  13 
 GARC HZ EP       2023 30.36                             101   -0.90 3  571 207 
 BBAC HZ EP       2023 46.95                              98    0.71 1  696 221 
 BBAC HN ES   4   2024 55.21                              98   -1.33 0  696 221 
 BBAC HZ I        2025  1.79         2.9 0.11             97            696 221 
                                                                                
