 2017  929 2354 59.5 L   6.800 -73.110144.9  RSN 11 0.6 2.5LRSN                1
 GAP=215        1.16       5.3     5.3  6.3  0.1434E+02  0.7869E+01  0.1003E+02E
 Epicentro: LOS SANTOS - SANTANDER                                             3
 ACTION:UPD 17-10-05 19:17 OP:rebc STATUS:               ID:20170929235459 L   I
 OLDACT:UP  17-09-30 06:09 OP:leo  STATUS:               ID:20170929234741     3
 OLDACT:UP  17-09-30 06:02 OP:leo  STATUS:               ID:20170929234741     3
 OLDACT:REG 17-09-30 03:24 OP:leo  STATUS:               ID:20170929234741     3
 2017-09-29-2348-00M.COL___450                                                 6
 STAT SP IPHASW D HRMM SECON CODA AMPLIT PERI AZIMU VELO AIN AR TRES W  DIS CAZ7
 BAR2 EZ EP       2355 19.12                             170    0.0310 24.3 199 
 BAR2 EZ ES       2355 34.12                             170   -0.2110 24.3 199 
 BAR2 EZ I        2355 35.36        82.6 0.30            162           24.3 199 
 BRR  HZ EP       2355 20.97                             151    0.1710 74.7 297 
 BRR  HN ES       2355 37.78                             151    0.4010 74.7 297 
 BRR  HZ I        2355 39.24        51.7 0.12            148           74.7 297 
 RUS  HZ EP       2355 23.06                             144   -0.1410  100 178 
 RUS  HN ES       2355 41.94                             144    0.3010  100 178 
 RUS  HZ I        2355 43.43        34.3 0.44            141            100 178 
 YPLC HZ IP     C 2355 29.60                             127    0.51 9  175 152 
 YPLC HN ES   3 C 2355 53.41                             127    1.27 2  175 152 
 ZAR  HZ EP       2355 31.78                             122   -0.53 8  208 292 
 ZAR  HN ES       2355 57.10                             122   -0.77 8  208 292 
 ZAR  HZ I        2356  2.27        32.7 0.38            121            208 292 
 NOR  HZ EP       2355 35.29                             118   -0.28 8  238 235 
 NOR  HN ES       2356  3.49                             118   -0.18 8  238 235 
 NOR  HZ I        2356 11.15        16.5 0.34            117            238 235 
 CHI  HZ EP       2355 37.37                             117    0.06 8  250 196 
 CHI  HN ES       2356  6.76                             117   -0.00 8  250 196 
 CHI  HZ I        2356 10.20        21.0 0.62            116            250 196 
 HEL  HZ EP       2355 40.97                             114    0.83 7  276 256 
 HEL  HN ES       2356 11.48                             114   -0.32 7  276 256 
 HEL  HZ I        2356 17.58        15.0 0.36            113            276 256 
 GUY2CHZ EP       2355 43.78                             112    0.30 7  304 235 
 GUY2CHN ES   4   2356 21.73                             112    3.98 0  304 235 
 GUY2CHZ I        2356 25.58        15.3 0.58                           304 235 
 PTGC HZ EP     D 2355 42.40                             111   -0.80 7  307 159 
 PTGC HN ES       2356 16.23                             111   -1.02 7  307 159 
 PTGC HZ I        2356 17.53        16.6 0.28            112            307 159 
 ELA  HZ EP       2355 48.14                             110    1.43 7  332 230 
 ELA  HE ES   4   2356 26.23                             110    2.74 0  332 230 
 ELA  HZ I        2356 31.88        14.2 0.60            109            332 230 
                                                                                
