 2013  829 2325 34.1 L   6.748 -73.171146.4  RSN  7 0.4 1.7LRSN                1
 GAP=136        1.04       5.2     5.0  8.0  0.4891E+01  0.1713E+00 -0.7129E+01E
 Epicentro: VILLANUEVA - SANTANDER                                             3
 ACTION:UPD 14-01-14 09:08 OP:ep   STATUS:               ID:20130829232534 L   I
 OLDACT:REG 13-08-29 23:34 OP:stll STATUS:               ID:20130829231850     3
 2013-08-29-2318-50M.COL___217                                                 6
 STAT SP IPHASW D HRMM SECON CODA AMPLIT PERI AZIMU VELO AIN AR TRES W  DIS CAZ7
 BAR2 SZ EP       2325 53.76                             173    0.0510 17.3 184 
 BAR2 SZ ES       2326  8.59                             173   -0.4110 17.3 184 
 BAR2 SZ I        2326 10.20        10.7 0.28            174           17.3 184 
 BRR  HZ EP       2325 55.71                             152    0.3510 71.8 304 
 BRR  HN ES       2326 12.57                             152    0.6310 71.8 304 
 BRR  HZ I        2326 15.18         8.1 0.34            153           71.8 304 
 PAM  SZ EP       2325 56.71                             149   -0.0610 83.6  38 
 PAM  SZ I        2325 56.91        21.9 0.20            151           83.6  38 
 RUS  HZ EP       2325 57.38                             145   -0.1510 95.1 174 
 RUS  HN ES       2326 15.69                             145   -0.1210 95.1 174 
 RUS  HZ I        2326 17.80         3.8 0.30            148           95.1 174 
 PTB  HZ EP       2326  0.70                             133   -0.09 9  144 261 
 PTB  HN ES       2326 20.91                             133   -0.70 9  144 261 
 PTB  HZ I        2326 24.15         4.6 0.10            135            144 261 
 SPBC HN ES       2326 24.60                             130    0.71 9  157 220 
 ZAR  HN ES       2326 31.61                             122   -0.27 9  204 294 
                                                                                
