 2010 1229 2323 58.6 L   6.792 -73.147137.7  RSN  9 0.3 1.8LRSN                1
 GAP=136        0.52       2.5     4.6  6.3 -0.1165E+01  0.6903E+01 -0.8682E+00E
 Epicentro: LOS SANTOS - SANTANDER                                             3
 ACTION:UP  11-01-14 15:28 OP:pat  STATUS:               ID:20101229232358 L   I
 2010-12-29-2320-00M.COL___137                                                 6
 STAT SP IPHASW D HRMM SECON CODA AMPLIT PERI AZIMU VELO SNR AR TRES W  DIS CAZ7
 BTL  SZ EP       2324 17.39                             172     0.210   19 316 
 BAR2 SZ EP   2   2324 17.09                             170    -0.2 5   23 191 
 BAR2 SZ ES   2   2324 32.08                             170     0.3 5   23 191 
 BAR2 SZ I        2324 33.68        20.9 0.22                            23 191 
 RUS  HZ EP   2   2324 21.19                             142    -0.3 5  100 176 
 RUS  HN ES   2   2324 39.33                             142     0.0 5  100 176 
 RUS  HZ I        2324 41.84        11.9 0.27                           100 176 
 GRA  SZ EP   1   2324 23.47                             135     0.3 7  127  17 
 GRA  SZ I        2324 47.15         6.6 0.31                           127  17 
 OCA  SZ EP   1   2324 26.14                             128    -0.2 7  161 353 
 OCA  SZ ES   1   2324 47.85                             128    -0.2 7  161 353 
 OCA  SZ I        2324 56.00         9.0 0.17                           161 353 
 YOP  SZ EP   2   2324 27.79                             125    -0.2 4  178 153 
 YOP  SE ES   2   2324 50.55                             125    -0.4 4  178 153 
 YOP  SZ I        2324 54.81         9.6 0.51                           178 153 
 NOR  SZ EP   2   2324 33.86                             117     0.0 4  234 235 
 NOR  SE ES   2   2325  1.39                             117     0.1 4  234 235 
 CHI  HZ EP   2   2324 36.32                             116     0.5 4  248 195 
 CHI  HE ES   2   2325  4.68                             116    -0.1 4  248 195 
 CHI  HZ I        2325  9.07         3.3 0.50                           248 195 
 HEL  HZ EP   2   2324 38.88                             113     0.5 4  272 256 
 HEL  HN ES   2   2325  8.77                             113    -0.6 4  272 256 
 HEL  HZ I        2325 16.39         4.7 0.45                           272 256 
                                                                                
