 2011 1129 2212 24.5 L   6.760 -73.117144.5  RSN 10 0.3 2.2LRSN                1
 GAP=128        0.61       3.6     3.7  4.4 -0.4650E+01  0.3346E+01  0.3220E+01E
 Epicentro: LOS SANTOS - SANTANDER                                             3
 ACTION:UPD 12-07-13 16:13 OP:ep   STATUS:               ID:20111129221224 L   I
 2011-11-29-2208-12S.COL___160                                                 6
 STAT SP IPHASW D HRMM SECON CODA AMPLIT PERI AZIMU VELO AIN AR TRES W  DIS CAZ7
 BAR2 SZ IP       2212 43.86                             172   -0.0510 19.9 201 
 BAR2 SZ ES   1   2212 58.69                             172   -0.37 7 19.9 201 
 BAR2 SZ I        2212 59.98        40.3 0.24                          19.9 201 
 BRR  HZ EP   1   2212 45.76                             151   -0.04 7 76.1 300 
 BRR  HN ES   1   2213  2.88                             151    0.47 7 76.1 300 
 BRR  HZ I        2213  3.65        43.5 0.11                          76.1 300 
 PAM  SZ EP   1   2212 46.90                             150    0.23 7 79.0  36 
 PAM  SZ I        2212 47.13        26.3 0.16                          79.0  36 
 PAM  SN ES   1   2213  3.76                             150   -0.21 7 79.0  36 
 RUS  HZ EP   1   2212 47.87                             145    0.07 7 96.0 178 
 RUS  HE ES   1   2213  6.29                             145    0.32 7 96.0 178 
 RUS  HZ I        2213  7.41        22.5 0.26                          96.0 178 
 NOR  SZ EP   1   2213  0.40                             118    0.24 6  235 236 
 NOR  SN ES   1   2213 27.44                             118   -0.53 6  235 236 
 CHI  HZ EP   1   2213  1.95                             117    0.20 6  245 196 
 CHI  HZ I        2213 39.42         7.5 0.40                           245 196 
 HEL  HZ EP   1   2213  5.34                             114    0.47 6  274 257 
 HEL  HN ES   1   2213 35.82                             114   -0.54 6  274 257 
 HEL  HZ I        2213 42.36        13.2 0.45                           274 257 
 RREF HZ EP   1   2213 10.90                             111    0.37 5  321 230 
 RREF HZ I        2213 52.33         7.8 0.59                           321 230 
 SDV  BZ EP   1   2213 13.85                             108   -0.69 5  361  49 
 PRA  HZ EP   2   2213 17.63                             106   -0.08 3  390 210 
 PRA  HN ES   1   2213 58.75                             106   -0.46 4  390 210 
                                                                                
