 2012  429 2337 43.7 L   6.798 -73.181132.5  RSN  4 0.1 1.5LRSN                1
 GAP=132        0.41       2.5     3.4  3.9  0.6627E+00 -0.2493E+01  0.9118E+00E
 Epicentro: LOS SANTOS - SANTANDER                                             3
 ACTION:UPD 12-07-05 11:56 OP:tino STATUS:               ID:20120429233743 L   I
 2012-04-29-2330-00M.COL___189                                                 6
 STAT SP IPHASW D HRMM SECON CODA AMPLIT PERI AZIMU VELO AIN AR TRES W  DIS CAZ7
 BAR2 SZ EP       2338  1.63                             170    -0.110   23 180 
 BAR2 SZ ES   1   2338 15.96                             170     0.2 7   23 180 
 BAR2 SZ I        2338 18.79         4.5 0.37                            23 180 
 BRR  HZ EP       2338  3.42                             151     0.210   68 300 
 BRR  HE ES       2338 18.29                             151    -0.210   68 300 
 BRR  HZ I        2338 24.55        10.0 0.14                            68 300 
 PAM  SZ EP       2338  4.67                             147     0.010   80  42 
 PAM  SN ES   1   2338 21.03                             147     0.0 7   80  42 
 RUS  HZ EP       2338  6.09                             141    -0.110  101 174 
 RUS  HE ES   1   2338 23.67                             141     0.0 7  101 174 
                                                                                
