 2013 1229 2247 44.5 L   6.796 -73.142151.8  RSN  9 0.4 1.8LRSN                1
 GAP=137        1.03       3.7     4.6  6.6  0.1311E-02  0.5686E+01 -0.1520E+01E
 Epicentro: LOS SANTOS - SANTANDER                                             3
 ACTION:UPD 14-01-13 10:22 OP:ep   STATUS:               ID:20131229224744 L   I
 OLDACT:UP  13-12-29 22:08 OP:cam  STATUS:               ID:20131229224000     3
 OLDACT:UP  13-12-29 22:08 OP:cam  STATUS:               ID:20131229224000     3
 OLDACT:REG 13-12-29 21:26 OP:cma  STATUS:               ID:20131229224000     3
 2013-12-29-2240-00M.COL___285                                                 6
 STAT SP IPHASW D HRMM SECON CODA AMPLIT PERI AZIMU VELO AIN AR TRES W  DIS CAZ7
 BAR2 SZ EP   2   2248  4.72                             171   -0.09 5 22.9 191 
 BAR2 SZ ES       2248 20.81                             171    0.1310 22.9 191 
 BAR2 SZ I        2248 21.06        21.0 0.44            170           22.9 191 
 BRR  HZ EP       2248  6.65                             153    0.3510 71.8 299 
 BRR  HN ES       2248 24.12                             153    0.7910 71.8 299 
 BRR  HZ I        2248 26.92         9.2 0.44            153           71.8 299 
 PAM  SZ EP       2248  7.60                             152    0.2710 77.5  39 
 PAM  SN ES       2248 24.84                             152   -0.3310 77.5  39 
 PAM  SZ I        2248 26.97        16.4 0.54            156           77.5  39 
 RUS  HZ EP       2248  8.67                             145   -0.1110  100 176 
 RUS  HN ES       2248 27.63                             145   -0.1110  100 176 
 RUS  HZ I        2248 28.98         4.2 0.52            147            100 176 
 PTB  HZ EP   1   2248 11.76                             133   -0.20 7  148 259 
 PTB  HN ES       2248 32.76                             133   -0.64 9  148 259 
 PTB  HZ I        2248 38.68         8.2 0.24            134            148 259 
 OCA  HN ES   4   2248 37.35                             131    1.56 0  161 353 
 SPBC HZ EP       2248 13.85                             131    0.43 9  163 219 
 SPBC HE ES       2248 35.43                             131   -0.58 9  163 219 
 SPBC HZ I        2248 40.82         8.8 0.42            131            163 219 
 ZAR  HN ES       2248 43.47                             124    0.44 9  205 292 
 SML  HZ EP   1   2248 21.12                             119   -0.38 6  244 335 
 SML  HE ES       2248 49.70                             119   -0.69 8  244 335 
 CHI  HZ EP   2   2248 22.93                             118    0.47 4  248 195 
                                                                                
