 2014  629 2102 12.4 L   6.801 -73.146142.0  RSN 15 0.5 2.2LRSN                1
 GAP=136        1.03       3.0     4.4  5.9 -0.2866E+01  0.8728E+01  0.1450E+01E
 Epicentro: LOS SANTOS - SANTANDER                                             3
 ACTION:UPD 14-07-01 22:57 OP:nd   STATUS:               ID:20140629210212 L   I
 OLDACT:UP  14-06-30 05:37 OP:mh   STATUS:               ID:20140629205818     3
 OLDACT:UP  14-06-30 04:40 OP:mh   STATUS:               ID:20140629205818     3
 OLDACT:REG 14-06-30 02:33 OP:mh   STATUS:               ID:20140629205818     3
 2014-06-29-2058-18M.COL___251                                                 6
 STAT SP IPHASW D HRMM SECON CODA AMPLIT PERI AZIMU VELO AIN AR TRES W  DIS CAZ7
 BAR2 SZ EP       21 2 31.85                             170    0.2810 23.4 190 
 BAR2 SZ ES       21 2 46.02                             170   -0.5010 23.4 190 
 BAR2 SZ I        21 2 47.97        15.2 0.83            168           23.4 190 
 BRR  HZ EP       21 2 33.74                             152    0.6110 71.1 299 
 BRR  HE ES   1   21 2 49.84                             152    0.54 7 71.1 299 
 BRR  HZ I        21 2 54.10        37.4 0.76            150           71.1 299 
 PAM  SZ EP       21 2 34.83                             150    0.6310 77.4  40 
 PAM  SN ES       21 2 51.18                             150   -0.0410 77.4  40 
 PAM  SZ I        21 2 53.76        47.4 0.27            156           77.4  40 
 RUS  HZ EP   1   21 2 36.37                             143    0.59 7  101 176 
 RUS  HN ES   1   21 2 53.68                             143   -0.34 7  101 176 
 RUS  HZ I        21 2 56.14        15.0 0.35            145            101 176 
 PTB  HZ EP       21 2 38.83                             131   -0.21 9  148 259 
 PTB  HN ES   1   21 2 59.83                             131   -0.01 7  148 259 
 PTB  HZ I        21 3  3.30        13.6 0.10            131            148 259 
 OCA  HZ EP       21 2 39.81                             129   -0.59 9  160 353 
 OCA  HN ES   1   21 3  1.22                             129   -1.03 7  160 353 
 OCA  HZ I        21 3  8.12        16.0 0.36            131            160 353 
 SPBC HZ EP       21 2 40.80                             128    0.20 9  163 219 
 SPBC HN ES   1   21 3  2.31                             128   -0.29 7  163 219 
 SPBC HZ I        21 3 10.30        20.1 0.33            129            163 219 
 ZAR  HZ EP       21 2 44.72                             121    0.14 9  204 292 
 ZAR  HN ES   1   21 3 10.49                             121    0.80 6  204 292 
 ZAR  HZ I        21 3 15.70        20.7 0.32            122            204 292 
 SML  HZ EP   1   21 2 48.01                             116   -0.79 6  244 335 
 SML  HE ES   1   21 3 16.84                             116   -0.35 6  244 335 
 SML  HZ I        21 3 20.09        18.6 0.10            119            244 335 
 CHI  HZ EP       21 2 50.13                             116    0.25 8  249 195 
 CHI  HN ES       21 3 18.96                             116   -0.17 8  249 195 
 CHI  HZ I        21 3 23.91         4.1 0.21            118            249 195 
 HEL  HZ EP   4   21 2 55.04                             114    2.64 0  272 256 
 HEL  HN ES   1   21 3 23.82                             114    0.20 6  272 256 
 GUY2CHZ EP   4   21 2 57.91                             111    2.09 0  301 235 
 GUY2CHN ES   1   21 3 30.15                             111    0.45 5  301 235 
 GUY2CHZ I        21 3 39.70         7.0 0.53                           301 235 
 RREF HZ EP   4   21 2 57.13                             110   -1.24 0  322 229 
 RREF HN ES       21 3 33.57                             110   -0.66 7  322 229 
 RREF HZ I        21 3 46.49         6.9 0.30            111            322 229 
 PRA  HZ EP       21 3  5.80                             106    0.02 6  392 210 
 PRA  HN ES       21 3 46.69                             106   -0.74 6  392 210 
 PRA  HZ I        21 3 54.22         6.5 0.18            107            392 210 
 SJC  HZ EP   4   21 3  6.30                             105   -1.52 0  409 327 
 SJC  HN ES   4   21 3 45.71                             105   -5.34 0  409 327 
 SJC  HZ I        21 3 51.59         4.7 0.24            107            409 327 
                                                                                
