 2015  829 2028 56.0 L   6.833 -73.198148.6  RSN  6 0.2 1.8LRSN                1
 GAP=132        0.42       2.8     3.2  4.6  0.1710E+01  0.4641E+01 -0.1241E+01E
 Epicentro: ZAPATOCA - SANTANDER                                               3
 ACTION:UPD 15-09-15 23:06 OP:cam  STATUS:               ID:20150829202856 L   I
 OLDACT:UP  15-08-30 04:09 OP:ar   STATUS:               ID:20150829201748     3
 OLDACT:REG 15-08-30 02:39 OP:ar   STATUS:               ID:20150829201748     3
 2015-08-29-2017-48M.COL___367                                                 6
 STAT SP IPHASW D HRMM SECON CODA AMPLIT PERI AZIMU VELO AIN AR TRES W  DIS CAZ7
 BAR2 EZ EP       2029 15.93                             169   -0.0910 26.7 176 
 BAR2 EZ ES       2029 31.69                             169    0.0310 26.7 176 
 BAR2 EZ I        2029 32.51        10.7 0.24            168           26.7 176 
 PAM  EZ EP   2   2029 18.78                             151    0.22 5 78.5  45 
 PAM  EN ES   2   2029 36.08                             151   -0.10 5 78.5  45 
 PAM  EZ I        2029 37.94        10.0 0.52            151           78.5  45 
 SPBC HE ES   2   2029 47.53                             130    0.54 5  163 217 
 SPBC HZ I        2029 51.16         7.4 0.42            128            163 217 
 ZAR  HE ES       2029 52.60                             124   -0.23 9  197 292 
 SML  HZ EP   2   2029 32.29                             119    0.15 4  238 336 
 SML  HN ES   2   2030  0.91                             119    0.56 4  238 336 
 SML  HZ I        2030  4.33         8.3 0.10            118            238 336 
 CHI  HZ EP   2   2029 33.90                             117   -0.16 4  251 194 
 CHI  HN ES   2   2030  3.74                             117   -0.03 4  251 194 
 CHI  HZ I        2030  7.12         3.0 0.50            116            251 194 
                                                                                
