 2010  429 2046 49.6 L   6.773 -73.003143.1  RSN 14 0.6 2.7LRSN                1
 GAP=151        1.20       6.4     9.0 10.0 -0.3759E+02 -0.3263E+02  0.3330E+02E
 Epicentro: CEPITA - SANTANDER                                                 3
 ACTION:UP  10-08-24 10:01 OP:vdl  STATUS:               ID:20100429204649 L   I
 2010-04-29-2042-21S.COL___104                                                 6
 STAT SP IPHASW D HRMM SECON CODA AMPLIT PERI AZIMU VELO SNR AR TRES W  DIS CAZ7
 BAR2 SZ EP       2047  8.78                             168    -0.210   28 225 
 BAR2 SZ ES   2   2047 24.10                             168    -0.1 5   28 225 
 BRR  HZ IP       2047 11.16                             147    -0.310   87 295 
 BRR  HN ES       2047 28.49                             147     0.110   87 295 
 BRR  HZ I        2047 30.66        71.9 0.32                            87 295 
 BRI  SZ EP       2047 13.65                             141     0.510  107  12 
 BRI  SZ ES   2   2047 30.97                             141    -0.5 5  107  12 
 GUE  SZ EP       2047 15.01                             138     0.910  117   4 
 GRA  SZ EP   1   2047 14.98                             136     0.4 7  125  10 
 GRA  SZ ES   2   2047 33.36                             136    -0.6 5  125  10 
 OCA  SZ EP       2047 17.62                             128    -0.6 9  166 348 
 OCA  SZ ES   2   2047 40.96                             128     0.4 5  166 348 
 OCA  SZ I        2047 43.81        95.3 0.42                           166 348 
 CHI  HZ EP       2047 26.79                             116    -0.6 8  250 199 
 CHI  HN ES   2   2047 57.51                             116     0.7 4  250 199 
 CHI  HZ I        2048  1.39        16.7 1.05                           250 199 
 ROSC BZ EP   1   2047 29.09                             116     0.8 6  259 214 
 ROSC BN ES   3   2047 59.43                             116     1.0 2  259 214 
 ROSC BZ I        2048  2.39        23.5 0.57                           259 214 
 HEL  HZ EP   1   2047 30.81                             113    -0.5 6  287 257 
 HEL  HZ I        2048  6.87        17.1 0.24                           287 257 
 RREF BZ EP   1   2047 37.36                             110     0.5 5  332 232 
 RREF BN ES   1   2048 14.01                             110     0.4 5  332 232 
 RREF BZ I        2048 19.96        24.3 0.67                           332 232 
 SDV  BN ES   1   2048 15.81                             108    -0.6 5  350  48 
 TOL  SZ EP   1   2047 38.67                             108    -0.2 5  353 227 
 ANIL BN ES   2   2048 20.67                             107     0.7 3  367 227 
 ANIL BZ I        2048 25.18        34.1 1.06                           367 227 
 PRA  HZ EP       2047 42.46                             106    -1.2 6  398 212 
 PRA  HN ES   2   2048 24.51                             106    -1.3 3  398 212 
 PRA  HZ I        2048 28.49        20.0 0.52                           398 212 
                                                                                
