 2016 1029 2246 21.3 L   6.758 -73.115144.0  RSN  4 0.3 1.3LRSN                1
 GAP=142        0.69       9.1     5.7  5.5 -0.3098E+02  0.3200E+01  0.1915E+01E
 Epicentro: LOS SANTOS - SANTANDER                                             3
 *BAR2-BRR-PTB                                                                 3
 ACTION:UPD 16-11-09 19:24 OP:rebc STATUS:               ID:20161029224621 L   I
 OLDACT:DUP 16-10-30 05:05 OP:and  STATUS:               ID:20161029223749d    3
 2016-10-29-2238-00M.COL___322                                                 6
 STAT SP IPHASW D HRMM SECON CODA AMPLIT PERI AZIMU VELO AIN AR TRES W  DIS CAZ7
 BRR  HZ EP       2246 42.85                             151    0.2610 76.4 300 
 BRR  HN ES       2246 59.35                             151    0.1810 76.4 300 
 PAM  EZ EP       2246 43.71                             150    0.2610 79.1  35 
 PAM  EN ES       2247  0.41                             150   -0.3010 79.1  35 
 PAM  EZ I        2247  2.84         5.2 0.25            152           79.1  35 
 RUS  HZ EP   9   2246 44.47                             145   -0.08 0 95.7 178 
 RUS  HE ES       2247  2.77                                    0.1810 95.7 178 
 RUS  HZ I        2247  4.37         1.7 0.24            145           95.7 178 
 PTB  HZ EP       2246 47.98                             131   -0.39 9  150 261 
 PTB  HE ES   2   2247  9.23                             131   -0.24 5  150 261 
 PTB  HZ I        2247 10.73         3.2 0.18            133            150 261 
                                                                                
