 2012  529 2242  0.4 L   6.816 -73.155147.0  RSN  4 0.3 1.2LRSN                1
 GAP=135        0.55       4.2     3.9  8.0 -0.2360E+01  0.9656E+01 -0.2607E+00E
 Epicentro: LOS SANTOS - SANTANDER                                             3
 ACTION:UP  12-07-05 12:08 OP:pat  STATUS:               ID:20120529224200 L   I
 2012-05-29-2240-00M.COL___200                                                 6
 STAT SP IPHASW D HRMM SECON CODA AMPLIT PERI AZIMU VELO AIN AR TRES W  DIS CAZ7
 PAM  SZ EP   1   2242 22.90                             151     0.2 7   77  41 
 PAM  SZ I        2242 23.49         2.7 0.20                            77  41 
 PAM  SN ES   1   2242 39.99                             151    -0.1 7   77  41 
 RUS  HZ EP   1   2242 24.25                             143    -0.2 7  102 176 
 RUS  HE ES   1   2242 43.40                             143     0.2 7  102 176 
 PTB  HZ EP   1   2242 27.44                             132     0.0 7  147 258 
 PTB  HN ES   1   2242 48.17                             132    -0.3 7  147 258 
 PTB  HZ I        2242 50.85         2.0 0.15                           147 258 
 ZAR  HN ES   2   2242 58.60                             123     0.6 4  202 292 
                                                                                
