 2011  729 2233 25.7 L   6.778 -73.110143.4  RSN  4 0.2 1.6LRSN                1
 GAP=142        0.47       3.3     4.9  5.1 -0.3310E+00 -0.1666E+01  0.6188E+00E
 Epicentro: LOS SANTOS - SANTANDER                                             3
 ACTION:UPD 12-07-25 14:04 OP:epov STATUS:               ID:20110729223325 L   I
 2011-07-29-2230-00S.COL___138                                                 6
 STAT SP IPHASW D HRMM SECON CODA AMPLIT PERI AZIMU VELO AIN AR TRES W  DIS CAZ7
 BAR2 SZ EP   1   2233 45.02                             171   -0.05 7 22.1 201 
 BAR2 SZ ES   1   2233 59.81                             171   -0.33 7 22.1 201 
 BAR2 SZ I        2234  1.18         8.8 0.21                          22.1 201 
 BRR  HZ EP   1   2233 46.63                             151   -0.28 7 75.8 299 
 BRR  HN ES   1   2234  3.70                             151    0.28 7 75.8 299 
 BRR  HZ I        2234  9.79        11.0 0.21                          75.8 299 
 PAM  SZ EP   1   2233 47.83                             151    0.15 7 76.9  36 
 PAM  SE ES   1   2234  4.80                             151    0.01 7 76.9  36 
 RUS  HZ EP   1   2233 49.12                             144    0.04 7 98.0 178 
 RUS  HE ES   1   2234  7.46                             144    0.18 7 98.0 178 
 RUS  HZ I        2234  8.91         5.9 0.28                          98.0 178 
                                                                                
