 2016  429 2300 52.6 L   6.825 -73.151138.5  RSN 23 0.5 2.9LRSN 3.5WRSN        1
 SPEC AVERAGE  MO 14.3 ST0.347 OM  2.5 f0 1.22 R1.7813 AL 0.00 WI 41.0 MW  3.5 3
 SPEC SD       MO  0.1 ST0.655 OM  0.3 f00.702 R0.6146 AL      WI      MW  0.1 3
 GAP= 96        1.21       3.3     3.6  5.7 -0.3975E+01  0.5571E+01  0.2011E+01E
 Epicentro: LOS SANTOS - SANTANDER                                             3
 SPEC PAM EH Z MO 14.3 ST0.197 OM  2.4 f0 1.16 R1.6586 AL-0.00 WI 41.0 MW  3.5 3
 SPEC PAM EH Z T23 129 K 0.000 GD  157 VS 5.20 DE 3.50 Q0750.0 QA 1.50 VS 3.50 3
 SPEC RUS HH Z MO 14.3 ST0.169 OM  2.4 f0 1.07 R1.7981 AL-0.00 WI 41.0 MW  3.5 3
 SPEC RUS HH Z T23 132 K 0.000 GD  172 VS 5.20 DE 3.50 Q0750.0 QA 1.50 VS 3.50 3
 SPEC OCA HH Z MO 14.2 ST  1.8 OM  2.2 f0 2.55 R0.7545 AL-0.00 WI 41.0 MW  3.4 3
 SPEC OCA HH Z T23 140 K 0.000 GD  209 VS 5.20 DE 3.50 Q0750.0 QA 1.50 VS 3.50 3
 SPEC CHI HH Z MO 14.2 ST0.142 OM  2.0 f0 1.16 R1.6586 AL-0.00 WI 41.0 MW  3.4 3
 SPEC CHI HH Z T23 157 K 0.000 GD  286 VS 5.20 DE 3.50 Q0750.0 QA 1.50 VS 3.50 3
 SPEC ROSCBH Z MO 14.6 ST0.135 OM  2.4 f00.835 R2.3042 AL-0.00 WI 41.0 MW  3.7 3
 SPEC ROSCBH Z T23 159 K 0.000 GD  290 VS 5.20 DE 3.50 Q0750.0 QA 1.50 VS 3.50 3
 SPECGUY2CHH Z MO 14.4 ST0.085 OM  2.2 f00.797 R2.4141 AL-0.00 WI 41.0 MW  3.6 3
 SPECGUY2CHH Z T23 2 8 K 0.000 GD  332 VS 5.20 DE 3.50 Q0750.0 QA 1.50 Q1 0.00 3
 SPEC ELA HH Z MO 14.5 ST0.091 OM  2.2 f00.797 R2.4141 AL-0.00 WI 41.0 MW  3.6 3
 SPEC ELA HH Z T23 215 K 0.000 GD  357 VS 5.20 DE 3.50 Q0750.0 QA 1.50 VS 3.50 3
 SPEC CBOCHH Z MO 14.3 ST0.071 OM  2.0 f00.852 R2.2582 AL-0.00 WI 41.0 MW  3.5 3
 SPEC CBOCHH Z T23 215 K 0.000 GD  361 VS 5.20 DE 3.50 Q0750.0 QA 1.50 VS 3.50 3
 SPEC ORTCHH Z MO 14.1 ST0.217 OM  1.8 f0 1.37 R1.4044 AL-0.00 WI 41.0 MW  3.4 3
 SPEC ORTCHH Z T23 227 K 0.000 GD  420 VS 5.20 DE 3.50 Q0750.0 QA 1.50 VS 3.50 3
 OLDACT:UP  16-04-30 03:55 OP:drio STATUS:               ID:20160429225745     3
 OLDACT:UP  16-04-30 03:54 OP:drio STATUS:               ID:20160429225745     3
 OLDACT:UP  16-04-30 03:52 OP:drio STATUS:               ID:20160429225745     3
 OLDACT:UP  16-04-30 03:52 OP:drio STATUS:               ID:20160429225745     3
 OLDACT:UP  16-04-30 03:51 OP:drio STATUS:               ID:20160429225745     3
 OLDACT:REG 16-04-30 03:17 OP:drio STATUS:               ID:20160429225745     3
 ACTION:UPD 16-05-05 14:25 OP:rebc STATUS:               ID:20160429230052 L   I
 2016-04-29-2257-45M.COL___260                                                 6
 STAT SP IPHASW D HRMM SECON CODA AMPLIT PERI AZIMU VELO AIN AR TRES W  DIS CAZ7
 BAR2 EZ IP     D 23 1 11.58                             169    0.1210 26.0 188 
 BAR2 EZ ES       23 1 25.38                             169   -0.7610 26.0 188 
 BAR2 EZ I        23 1 27.82       180.1 0.22            170           26.0 188 
 PAM  EZ EP     D 23 1 14.44                             150    0.4510 75.7  41 
 PAM  EN ES       23 1 31.42                             150    0.7810 75.7  41 
 PAM  EZ I        23 1 33.74       264.0 0.50            151           75.7  41 
 RUS  HZ EP       23 1 15.66                             141   -0.2410  103 176 
 RUS  HE ES       23 1 34.39                             141    0.3510  103 176 
 RUS  HZ I        23 1 35.51       133.9 0.32            144            103 176 
 PTB  HZ EP       23 1 18.10                             130   -0.93 9  148 258 
 PTB  HN ES       23 1 39.35                             130   -0.25 9  148 258 
 PTB  HZ I        23 1 41.81        59.2 0.42            129            148 258 
 TAM  HZ EP       23 1 20.02                             128    0.14 9  156 106 
 TAM  HN ES       23 1 41.56                             128    0.43 9  156 106 
 OCA  HZ EP       23 1 19.45                             128   -0.68 9  157 353 
 OCA  HE ES       23 1 41.67                             128    0.10 9  157 353 
 OCA  HZ I        23 1 51.33       157.9 0.18            128            157 353 
 SPBC HZ EP       23 1 20.59                             127   -0.18 9  165 218 
 SPBC HN ES       23 1 42.31                             127   -0.40 9  165 218 
 SPBC HZ I        23 1 44.31       147.4 0.18            127            165 218 
 NOR  HZ EP       23 1 27.68                             117   -0.41 8  236 234 
 NOR  HE ES       23 1 55.41                             117   -0.32 8  236 234 
 NOR  HZ I        23 2  1.23        74.4 0.18            117            236 234 
 CHI  HZ EP       23 1 29.67                             115   -0.56 8  251 195 
 CHI  HN ES       23 1 59.00                             115   -0.54 8  251 195 
 CHI  HZ I        23 2  2.82        46.7 0.58            116            251 195 
 ROSC BZ EP       23 1 31.42                             115    0.81 8  255 211 
 ROSC BE ES       23 2  0.51                             115    0.30 8  255 211 
 ROSC BZ I        23 2  5.45        75.1 0.40            115            255 211 
 HEL  HZ EP       23 1 33.11                             113    0.60 8  272 255 
 HEL  HE ES   4   23 2  2.39                             113   -1.21 0  272 255 
 HEL  HZ I        23 2 10.63        39.1 0.42            113            272 255 
 GUY2CHZ EP   4   23 1 37.21                             111    1.16 0  302 234 
 GUY2CHE ES       23 2 10.29                             111    0.38 7  302 234 
 GUY2CHZ I        23 2 17.76        47.6 0.34                           302 234 
 VIL  SZ EP       23 1 35.26                             110   -0.78 7  306 191 
 VIL  SE ES       23 2  9.98                             110    0.10 7  306 191 
 LL6C HZ EP   4   23 1 36.21                             109   -1.52 0  322 358 
 LL6C HN ES   4   23 2 10.23                             109   -2.66 0  322 358 
 LL6C HZ I        23 2 18.58        19.2 0.40            109            322 358 
 ELA  HZ EP       23 1 40.03                             109    0.68 7  330 229 
 ELA  HN ES   4   23 2 17.23                             109    1.44 0  330 229 
 ELA  HZ I        23 2 31.11        28.8 0.50            109            330 229 
 CBOC HZ EP       23 1 39.71                             108    0.41 7  334 252 
 CBOC HN ES       23 2 16.62                             108    0.93 7  334 252 
 CBOC HZ I        23 2 19.63        12.5 0.46            108            334 252 
 SDV  BZ EP       23 1 41.62                             107   -0.65 6  359  51 
 SDV  BE ES   4   23 2 18.30                             107   -2.68 0  359  51 
 SDV  BZ I        23 2 21.75        17.5 0.40            108            359  51 
 ANIL HZ EP       23 1 42.88                             107    0.52 6  359 224 
 ANIL HE ES   4   23 2 22.64                             107    1.50 0  359 224 
 ANIL HZ I        23 2 26.06        84.2 0.32            107            359 224 
 ORTC HZ EP       23 1 45.93                             105   -0.62 6  397 216 
 ORTC HN ES       23 2 29.40                             105    0.81 6  397 216 
 ORTC HZ I        23 2 35.43        28.8 0.46            105            397 216 
 CRJC HZ EP   4   23 1 51.83                             102   -2.80 0  465   4 
 CRJC HE ES   4   23 2 39.51                             102   -3.46 0  465   4 
 CRJC HZ I        23 2 46.73        24.3 0.36            102            465   4 
 YOT  HZ EP       23 1 56.46                             102    0.80 5  473 229 
 YOT  HE ES   4   23 2 48.44                             102    3.63 0  473 229 
 YOT  HZ I        23 2 51.18         4.3 0.22            102            473 229 
 SMAR HZ EP   4   23 1 56.27                             101   -1.73 0  494 346 
 SMAR HE ES   4   23 2 44.63                             101   -4.35 0  494 346 
 SMAR HZ I        23 2 48.02        13.6 0.14            101            494 346 
 URI  HZ EP   4   23 2  1.97                             100   -3.22 0  554  13 
 URI  HE ES   4   23 2 56.73                             100   -5.04 0  554  13 
 URI  HZ I        23 3 11.70         2.9 0.20            100            554  13 
                                                                                
