 2012  829 2059 40.0 L   6.783 -73.157142.0  RSN 11 0.5 2.4LRSN                1
 GAP=136        0.90       3.3     4.5  5.9  0.1300E+01  0.6035E+01  0.1273E+01E
 Epicentro: LOS SANTOS - SANTANDER                                             3
 ACTION:UPD 12-09-10 11:59 OP:ep   STATUS:               ID:20120829205940 L   I
 2012-08-29-2056-36M.COL___211                                                 6
 STAT SP IPHASW D HRMM SECON CODA AMPLIT PERI AZIMU VELO AIN AR TRES W  DIS CAZ7
 BAR2 SZ EP   1   2059 59.12                             171   -0.04 7 21.2 188 
 BAR2 SZ ES   1   21 0 13.89                             171   -0.20 7 21.2 188 
 BAR2 SZ I        21 0 15.04       141.2 0.33                          21.2 188 
 GIR2 SZ EP   1   2059 59.23                             166   -0.07 7 33.0 353 
 BRR  HZ EP       21 0  0.86                             152    0.1010 71.1 300 
 BRR  HZ I        21 0  1.15        89.2 0.22                          71.1 300 
 BRR  HN ES       21 0 17.76                             152    0.8310 71.1 300 
 PAM  SZ EP   1   21 0  2.04                             150    0.06 7 79.6  39 
 PAM  SN ES   1   21 0 19.09                             150   -0.01 7 79.6  39 
 PAM  SZ I        21 0 21.91        24.2 0.32                          79.6  39 
 RUS  HZ EP   1   21 0  3.18                             144   -0.09 7 98.8 175 
 RUS  HE ES       21 0 21.26                             144   -0.1510 98.8 175 
 RUS  HZ I        21 0 23.54        17.8 0.26                          98.8 175 
 PTB  HZ EP   1   21 0  5.65                             132   -0.89 7  146 259 
 PTB  HN ES   1   21 0 26.70                             132   -0.53 7  146 259 
 PTB  HZ I        21 0 27.90        14.9 0.16                           146 259 
 OCA  HZ EP   1   21 0  7.40                             129   -0.81 7  162 354 
 OCA  HE ES       21 0 30.25                             129    0.05 9  162 354 
 OCA  HZ I        21 0 33.78        63.6 0.18                           162 354 
 ZAR  HZ EP   1   21 0 12.88                             122    0.70 6  204 293 
 ZAR  HN ES       21 0 36.91                             122   -0.36 9  204 293 
 ZAR  HZ I        21 0 44.42        23.6 0.19                           204 293 
 CHI  HZ EP   1   21 0 17.62                             117    0.34 6  246 195 
 CHI  HN ES   2   21 0 47.05                             117    0.71 4  246 195 
 CHI  HZ I        21 0 51.54         8.1 0.30                           246 195 
 DBB  SZ EP   1   21 0 27.36                             109    0.13 5  338 275 
 PRA  HZ EP   1   21 0 33.91                             106    0.76 4  390 210 
 PRA  HN ES   2   21 1 14.77                             106    0.18 3  390 210 
 PRA  HZ I        21 1 19.98         9.7 0.45                           390 210 
                                                                                
