 2013  129 2032 11.2 L   6.776 -73.148148.0  RSN  8 0.4 2.1LRSN                1
 GAP=137        0.75       3.4     4.5  6.6  0.6092E+00  0.5125E+01  0.4590E+01E
 Epicentro: LOS SANTOS - SANTANDER                                             3
 ACTION:UPD 13-02-15 09:17 OP:ep   STATUS:               ID:20130129203211 L   I
 2013-01-29-2030-00M.COL___242                                                 6
 STAT SP IPHASW D HRMM SECON CODA AMPLIT PERI AZIMU VELO AIN AR TRES W  DIS CAZ7
 BAR2 SZ EP   1   2032 31.15                             172    0.06 7 20.7 190 
 BAR2 SZ ES   1   2032 46.86                             172    0.29 7 20.7 190 
 BRR  HZ EP   1   2032 33.21                             153    0.52 7 72.2 300 
 BRR  HN ES   1   2032 50.04                             153    0.62 7 72.2 300 
 BRR  HZ I        2032 53.32        17.6 0.36            146           72.2 300 
 PAM  SZ EP   1   2032 34.01                             150    0.18 7 79.6  39 
 PAM  SE ES   1   2032 51.21                             150   -0.24 7 79.6  39 
 PAM  SZ I        2032 53.13        24.7 0.40            153           79.6  39 
 RUS  HZ EP   1   2032 34.99                             145   -0.04 7 98.0 176 
 RUS  HN ES   1   2032 53.12                             145   -0.47 7 98.0 176 
 PTB  HZ EP   1   2032 37.82                             133   -0.51 7  147 260 
 PTB  HN ES   1   2032 58.89                             133   -0.56 7  147 260 
 PTB  HZ I        2033  5.04        20.6 0.46            129            147 260 
 OCA  HN ES   1   2033  1.87                             130   -0.50 7  163 353 
 OCA  HZ I        2033  6.13        17.0 0.46            128            163 353 
 ZAR  HE ES   1   2033  9.53                             123    0.14 6  205 293 
 ZAR  HZ I        2033 19.91        13.4 0.40            120            205 293 
 CHI  HZ EP   1   2032 49.12                             118    0.33 6  246 195 
 CHI  HN ES   1   2033 18.26                             118    0.19 6  246 195 
 CHI  HZ I        2033 22.45         4.7 0.34            118            246 195 
                                                                                
