 2011  929 2348  7.1 L   6.775 -73.116141.5  RSN  9 0.4 2.2LRSN                1
 GAP=142        0.95       4.6     7.1  7.2 -0.3423E+01  0.5309E+01  0.9540E+01E
 Epicentro: LOS SANTOS - SANTANDER                                             3
 ACTION:UPD 12-07-13 16:00 OP:ep   STATUS:               ID:20110929234807 L   I
 2011-09-29-2346-32S.COL___168                                                 6
 STAT SP IPHASW D HRMM SECON CODA AMPLIT PERI AZIMU VELO AIN AR TRES W  DIS CAZ7
 BAR2 SZ EP       2348 26.01                             171   -0.1810 21.5 200 
 BAR2 SZ I        2348 26.16        38.4 0.40                          21.5 200 
 BAR2 SZ ES   1   2348 40.32                             171   -0.75 7 21.5 200 
 BTL  SZ EP       2348 27.08                             170    0.8610 23.1 313 
 BTL  SZ ES   3   2348 42.07                             170    0.94 2 23.1 313 
 BRR  HZ EP       2348 28.03                             150   -0.0210 75.4 299 
 BRR  HN ES   1   2348 44.77                             150    0.39 7 75.4 299 
 BRR  HZ I        2348 46.40        38.2 0.32                          75.4 299 
 PAM  SZ EP       2348 29.02                             150    0.1410 77.5  36 
 PAM  SN ES   1   2348 45.89                             150    0.03 7 77.5  36 
 RUS  HZ EP       2348 29.93                             144   -0.2910 97.6 178 
 RUS  HZ I        2348 50.15        13.1 0.28                          97.6 178 
 OCA  SZ EP       2348 34.84                             128   -0.55 9  163 352 
 OCA  SZ I        2349  1.27        25.3 0.40                           163 352 
 ZAR  HZ EP   2   2348 39.60                             121   -0.11 4  208 293 
 ZAR  HN ES   2   2349  4.51                             121   -0.62 4  208 293 
 ZAR  HZ I        2349  9.96        20.2 0.48                           208 293 
 CHI  HZ EP       2348 44.82                             116    0.45 8  247 196 
 CHI  HE ES   1   2349 13.21                             116   -0.23 6  247 196 
 CHI  HZ I        2349 17.32         4.8 0.30                           247 196 
 PRA  HZ EP       2349  0.38                             106   -0.01 6  391 210 
                                                                                
