 2010  129 2230 48.7 L   6.786 -73.213140.3  RSN  6 0.6 1.7LRSN                1
 GAP=167        0.71      10.4    17.9  9.6 -0.7795E+02  0.8589E+02  0.9371E+01E
 Epicentro: ZAPATOCA - SANTANDER                                               3
 ACTION:UP  10-08-24 09:46 OP:vdl  STATUS:               ID:20100129223048 L   I
 2010-01-29-2227-48S.COL___094                                                 6
 STAT SP IPHASW D HRMM SECON CODA AMPLIT PERI AZIMU VELO SNR AR TRES W  DIS CAZ7
 BAR2 SZ ES   2   2231 21.64                             170    -0.7 5   22 171 
 GIR2 SZ ES   3   2231 23.17                             166     0.6 2   32   4 
 RUS  BZ EP       2231 11.85                             142     0.010  100 172 
 RUS  BN ES   2   2231 30.40                             142     0.5 5  100 172 
 CHI  HZ EP       2231 25.97                             116     0.3 8  245 194 
 CHI  HE ES   1   2231 54.24                             116    -0.3 6  245 194 
 CHI  HZ I        2231 59.13         3.0 0.87                           245 194 
 RREF BN ES   3   2232 10.96                             110     1.9 2  315 229 
 RREF BZ I        2232 16.63         3.1 0.29                           315 229 
 PRA  HZ EP       2231 41.14                             105    -0.3 6  387 209 
 PRA  HN ES   3   2232 21.36                             105    -1.2 1  387 209 
                                                                                
