 2016  529 2108 38.3 L   6.725 -73.189156.1  RSN  4 0.2 1.4LRSN                1
 GAP=226        0.67       5.7     5.6  5.6  0.1667E+02  0.5594E+01  0.2515E+01E
 Epicentro: VILLANUEVA - SANTANDER                                             3
 ACTION:UPD 16-08-18 17:50 OP:cam  STATUS:               ID:20160529210838 L   I
 OLDACT:REG 16-05-30 02:31 OP:drio STATUS:               ID:20160529210742     3
 2016-05-29-2107-42M.COL___316                                                 6
 STAT SP IPHASW D HRMM SECON CODA AMPLIT PERI AZIMU VELO AIN AR TRES W  DIS CAZ7
 BAR2 EZ ES       21 9 14.81                             174   -0.4310 14.7 177 
 BRR  HZ EP       21 9  0.78                             154    0.1610 71.6 306 
 BRR  HE ES       21 9 18.26                             154    0.2510 71.6 306 
 RUS  HZ EP       21 9  2.61                             148    0.0210 92.8 173 
 RUS  HN ES       21 9 21.77                             148    0.2610 92.8 173 
 RUS  HZ I        21 9 23.05         2.6 0.38            146           92.8 173 
 PTB  HZ EP       21 9  5.35                             136   -0.27 9  142 262 
 PTB  HN ES       21 9 26.90                             136   -0.01 9  142 262 
 PTB  HZ I        21 9 30.22         3.9 0.12            134            142 262 
                                                                                
