 2012  629 2353 50.2 L   6.774 -73.200138.7  RSN  5 0.4 1.4LRSN                1
 GAP=131        0.63       5.9     4.7  7.9 -0.4330E+01  0.1198E+01  0.2921E+01E
 Epicentro: VILLANUEVA - SANTANDER                                             3
 ACTION:UPD 12-08-06 17:53 OP:ep   STATUS:               ID:20120629235350 L   I
 2012-06-29-2350-00M.COL___201                                                 6
 STAT SP IPHASW D HRMM SECON CODA AMPLIT PERI AZIMU VELO AIN AR TRES W  DIS CAZ7
 BAR2 SZ EP   2   2354  9.52                             171    0.57 5 20.2 174 
 BAR2 SZ ES   2   2354 23.37                             171   -0.18 5 20.2 174 
 BRR  HZ EP   2   2354 11.26                             153    0.85 5 67.5 303 
 BRR  HN ES   2   2354 26.68                             153    0.53 5 67.5 303 
 BRR  HZ I        2354 31.86         9.4 0.21                          67.5 303 
 PAM  SZ EP   1   2354 11.95                             147   -0.14 7 83.5  41 
 PAM  SN ES   2   2354 28.70                             147   -0.44 5 83.5  41 
 RUS  HZ EP   1   2354 13.12                             143   -0.01 7 98.3 172 
 RUS  HE ES   2   2354 31.19                             143    0.20 5 98.3 172 
 RUS  HZ I        2354 33.40         3.6 0.25                          98.3 172 
 PTB  HZ EP   1   2354 15.79                             132   -0.25 7  141 260 
 PTB  HE ES   1   2354 35.82                             132   -0.35 7  141 260 
 PTB  HZ I        2354 39.48         3.0 0.18                           141 260 
                                                                                
