 2015 1129 2149 59.8 L   6.816 -73.165146.4  RSN  8 0.5 2.0LRSN                1
 GAP=133        1.10       4.2     4.7  6.8  0.9341E+00  0.8549E+01 -0.4290E+01E
 Epicentro: LOS SANTOS - SANTANDER                                             3
 ACTION:UPD 15-12-28 16:14 OP:cam  STATUS:               ID:20151129214959 L   I
 OLDACT:REG 15-11-30 04:16 OP:dnl  STATUS:               ID:20151129214748     3
 2015-11-29-2147-48M.COL___313                                                 6
 STAT SP IPHASW D HRMM SECON CODA AMPLIT PERI AZIMU VELO AIN AR TRES W  DIS CAZ7
 BAR2 EZ EP       2150 19.50                             170   -0.0510 24.8 184 
 BAR2 EZ ES       2150 34.75                             170   -0.1910 24.8 184 
 BAR2 EZ I        2150 36.55        11.0 0.24            172           24.8 184 
 BRR  HZ EP       2150 21.35                             154    0.4710 68.4 298 
 BRR  HE ES       2150 38.32                             154    1.0210 68.4 298 
 BRR  HZ I        2150 41.80        18.2 0.35            153           68.4 298 
 PAM  EZ EP     D 2150 22.26                             151    0.1610 77.4  42 
 PAM  EN ES       2150 39.25                             151   -0.2310 77.4  42 
 PAM  EZ I        2150 41.64        23.7 0.43            153           77.4  42 
 RUS  HZ EP       2150 23.66                             143   -0.1110  103 175 
 RUS  HN ES       2150 42.24                             143   -0.2110  103 175 
 RUS  HZ I        2150 43.51        12.7 0.48            147            103 175 
 PTB  HZ EP   2   2150 26.63                             133   -0.04 5  146 258 
 PTB  HN ES       2150 47.13                             133   -0.49 9  146 258 
 PTB  HZ I        2150 49.41         6.9 0.10            134            146 258 
 ZAR  HZ EP       2150 32.62                             123    0.60 9  201 292 
 ZAR  HE ES       2150 56.30                             123   -0.84 9  201 292 
 ZAR  HZ I        2151  3.26         8.6 0.16            124            201 292 
 SML  HZ EP       2150 35.82                             118   -0.38 8  241 336 
 SML  HN ES       2151  4.35                             118   -0.23 8  241 336 
 SML  HZ I        2151  6.75        16.9 0.13            119            241 336 
 GUY2CHZ EP   1   2150 43.43                             112    0.06 5  300 234 
 GUY2CHE ES   1   2151 17.78                             112    0.44 5  300 234 
 GUY2CHZ I        2151 29.94         3.3 0.57                           300 234 
                                                                                
