 2017  929 2234 48.4 L   6.632 -74.083  4.0  RSN 10 0.6 2.2LRSN                1
 GAP= 90        1.51       3.1     2.4  6.6 -0.2132E+01  0.3861E+00  0.2332E+01E
 Epicentro: PUERTO PARRA - SANTANDER                                           3
 ACTION:UPD 17-10-05 19:17 OP:rebc STATUS:               ID:20170929223448 L   I
 OLDACT:UP  17-09-30 03:59 OP:leo  STATUS:               ID:20170929222743     3
 OLDACT:UP  17-09-30 03:56 OP:leo  STATUS:               ID:20170929222743     3
 OLDACT:UP  17-09-30 03:52 OP:leo  STATUS:               ID:20170929222743     3
 OLDACT:REG 17-09-30 03:20 OP:leo  STATUS:               ID:20170929222743     3
 2017-09-29-2228-00M.COL___450                                                 6
 STAT SP IPHASW D HRMM SECON CODA AMPLIT PERI AZIMU VELO AIN AR TRES W  DIS CAZ7
 BRR  HZ IP     D 2234 58.93                              47   -0.1710 66.6  38 
 BRR  HN ES       2235  7.36                              47   -0.0810 66.6  38 
 BRR  HZ I        2235  7.93       109.2 0.10             47           66.6  38 
 BAR2 EZ EP       2235  4.21                              47   -0.1410 99.6  92 
 BAR2 EZ ES       2235 16.38                              47   -0.4110 99.6  92 
 BAR2 EZ I        2235 22.43        35.2 0.46             47           99.6  92 
 ZAR  HZ EP       2235  8.60                              47    0.1810  128 318 
 ZAR  HN ES       2235 23.75                              47   -0.2610  128 318 
 ZAR  HZ I        2235 25.60        41.8 0.28             47            128 318 
 RUS  HZ EP       2235 10.57                              47    0.21 9  138 126 
 RUS  HN ES       2235 26.72                              47   -0.75 9  138 126 
 RUS  HZ I        2235 30.83        39.8 0.22             47            138 126 
 NOR  HZ EP       2235 10.99                              47   -0.31 9  147 216 
 NOR  HN ES       2235 28.65                              47   -0.51 9  147 216 
 NOR  HZ I        2235 30.88        17.2 0.30             47            147 216 
 HEL  HZ EP       2235 14.46                              47   -0.28 9  167 253 
 HEL  HN ES       2235 34.14                              47   -1.12 9  167 253 
 HEL  HZ I        2235 35.08        93.9 0.30             47            167 253 
 PAM  EZ EP       2235 15.61                              47    0.08 9  172  63 
 PAM  EN ES       2235 37.47                              47    0.79 9  172  63 
 PAM  EZ I        2235 38.40        62.6 0.22             47            172  63 
 GUY2CHZ EP       2235 21.59                              37    1.00 8  211 222 
 GUY2CHN ES       2235 46.28                              37    0.60 8  211 222 
 GUY2CHZ I        2235 50.95        17.8 0.60                           211 222 
 CHI  HZ EP   4   2235 27.31                              37    5.04 0  225 170 
 CHI  HN ES   4   2235 53.82                              37    5.14 0  225 170 
 CHI  HZ I        2235 55.74         4.4 0.40             37            225 170 
 ELA  HZ EP       2235 26.45                              37    1.60 8  244 217 
 ELA  HN ES       2235 53.83                              37    0.57 8  244 217 
 ELA  HZ I        2236  0.59        20.6 0.48             37            244 217 
                                                                                
