 2014  329 2029 53.2 L   6.796 -73.155148.5  RSN 10 0.4 1.9LRSN                1
 GAP=136        0.95       3.6     4.5  6.7 -0.1507E+01  0.4590E+01  0.3197E+01E
 Epicentro: LOS SANTOS - SANTANDER                                             3
 OLDACT:REG 14-03-29 22:25 OP:fm   STATUS:               ID:20140329202816     3
 ACTION:UPD 14-04-09 23:21 OP:nd   STATUS:               ID:20140329202953 L   I
 OLDACT:UP  14-03-29 23:31 OP:fm   STATUS:               ID:20140329202816     3
 2014-03-29-2028-16M.COL___259                                                 6
 STAT SP IPHASW D HRMM SECON CODA AMPLIT PERI AZIMU VELO AIN AR TRES W  DIS CAZ7
 BAR2 SZ EP       2030 12.82                             171   -0.3210 22.7 188 
 BAR2 SZ ES   1   2030 28.16                             171   -0.54 7 22.7 188 
 BAR2 SZ I        2030 34.33        18.1 0.86            172           22.7 188 
 BRR  HZ EP       2030 15.08                             153    0.4810 70.5 299 
 BRR  HN ES       2030 32.08                             153    0.7810 70.5 299 
 BRR  SZ I        2030 35.93        14.8 0.16            153           70.5 299 
 PAM  SZ EP     C 2030 16.03                             151    0.2710 78.4  40 
 PAM  SN ES       2030 33.07                             151   -0.2910 78.4  40 
 PAM  SZ I        2030 34.64         6.9 0.70            153           78.4  40 
 RUS  HZ EP       2030 17.59                             144    0.4010  100 175 
 RUS  HE ES       2030 35.95                             144    0.0410  100 175 
 RUS  SZ I        2030 37.07         9.3 0.38            147            100 175 
 PTB  HZ EP       2030 20.31                             133    0.03 9  147 259 
 PTB  HN ES       2030 41.15                             133   -0.27 9  147 259 
 PTB  SZ I        2030 43.73        10.4 0.14            134            147 259 
 OCA  HN ES   1   2030 43.49                             130   -0.53 7  161 354 
 ZAR  HN ES   2   2030 50.31                             123   -0.81 4  203 292 
 NOR  HN ES   1   2030 56.98                             119    0.11 6  234 234 
 SML  HZ EP   2   2030 29.70                             118   -0.27 4  244 336 
 SML  HE ES   2   2030 57.72                             118   -0.93 4  244 336 
 SML  SZ I        2031  7.13        14.8 0.08            120            244 336 
 CHI  HZ EP   1   2030 30.74                             118   -0.23 6  248 195 
 CHI  HE ES   1   2030 59.81                             118   -0.63 6  248 195 
 CHI  SZ I        2031  5.39         4.9 2.58            120            248 195 
 GUY2CHN ES   4   2031 12.38                             113    1.56 0  300 235 
                                                                                
