 2017  329 2326 38.6 L   6.781 -73.180140.5  RSN  5 0.3 1.6LRSN                1
 GAP=133        0.78       4.3     4.3  6.4  0.9858E+00  0.8408E+01  0.4712E+01E
 Epicentro: LOS SANTOS - SANTANDER                                             3
 ACTION:UPD 17-05-25 18:47 OP:jn   STATUS:               ID:20170329232638 L   I
 OLDACT:REG 17-03-30 03:21 OP:cog  STATUS:               ID:20170329231740     3
 2017-03-29-2318-00M.COL___350                                                 6
 STAT SP IPHASW D HRMM SECON CODA AMPLIT PERI AZIMU VELO AIN AR TRES W  DIS CAZ7
 BAR2 EZ ES       2327 12.68                             171    0.4110 20.9 181 
 BAR2 EZ I        2327 12.97         8.8 0.30            170           20.9 181 
 BRR  HZ EP       2326 59.50                             152    0.5010 69.0 302 
 BRR  HN ES       2327 14.86                             152   -0.0910 69.0 302 
 BRR  HZ I        2327 17.66        11.5 0.62            152           69.0 302 
 PAM  EN ES       2327 17.23                             149   -0.3110 81.4  41 
 RUS  HZ EP       2327  1.45                             143   -0.2110 98.9 174 
 RUS  HN ES       2327 19.63                             143   -0.0510 98.9 174 
 RUS  HZ I        2327 21.12         3.0 0.36            144           98.9 174 
 PTB  HZ EP       2327  4.76                             132    0.04 9  144 259 
 PTB  HE ES       2327 24.82                             132   -0.31 9  144 259 
 PTB  HZ I        2327 28.18         6.6 0.12            132            144 259 
                                                                                
