 2010 1129 2353 16.9 L   6.817 -73.117148.3  RSN 11 0.4 2.2LRSN                1
 GAP=179        0.72       3.9     6.9  5.6 -0.1451E+02  0.3573E+01  0.4960E+01E
 Epicentro: LOS SANTOS - SANTANDER                                             3
 ACTION:UP  10-12-17 16:56 OP:REBC STATUS:               ID:20101129235316 L   I
 2010-11-29-2349-29S.COL___131                                                 6
 STAT SP IPHASW D HRMM SECON CODA AMPLIT PERI AZIMU VELO SNR AR TRES W  DIS CAZ7
 BTL  SZ ES   2   2353 53.17                             172     0.9 5   20 304 
 BAR2 SZ EP   1   2353 36.75                             170    -0.2 7   26 196 
 BAR2 SZ ES   1   2353 52.35                             170    -0.1 7   26 196 
 BAR2 SZ I        2353 53.20        35.1 0.30                            26 196 
 BRR  HZ IP     C 2353 38.73                             152     0.310   73 296 
 BRR  HZ I        2353 39.00        30.3 0.18                            73 296 
 BRR  HE ES   1   2353 55.35                             152     0.1 7   73 296 
 GRA  SZ EP   1   2353 42.44                             138     0.3 7  123  16 
 GRA  SZ ES   1   2354  1.33                             138    -0.5 7  123  16 
 GRA  SZ I        2354  3.27        16.1 0.26                           123  16 
 OCA  SZ EP   1   2353 45.60                             130     0.3 7  159 352 
 OCA  SZ ES   1   2354  7.01                             130    -0.4 7  159 352 
 OCA  SZ I        2354 10.39        24.9 0.19                           159 352 
 NOR  SZ EP   1   2353 53.09                             118    -0.1 6  238 235 
 NOR  SN ES   2   2354 20.64                             118    -0.9 4  238 235 
 CHI  HZ EP   1   2353 55.14                             117     0.1 6  251 196 
 CHI  HN ES   2   2354 24.32                             117    -0.5 4  251 196 
 CHI  HZ I        2354 29.20         6.4 0.66                           251 196 
 HEL  HZ EP   2   2353 56.82                             115    -0.8 4  276 256 
 HEL  HZ I        2354 35.29         9.2 0.34                           276 256 
 GUY  SZ EP   2   2354  1.70                             112     0.6 4  305 235 
 GUY  SE ES   2   2354 35.85                             112     0.3 4  305 235 
 GUY  SZ I        2354 42.60        11.5 0.37                           305 235 
 RREF HZ EP   2   2354  3.91                             111     0.3 3  325 229 
 RREF HN ES   2   2354 39.74                             111    -0.2 3  325 229 
 RREF HZ I        2354 48.89         8.1 0.30                           325 229 
 PRA  HZ EP   2   2354 10.89                             107     0.0 3  395 210 
 PRA  HE ES   2   2354 52.98                             107     0.0 3  395 210 
                                                                                
