 2016  529 2054 35.2 L   6.768 -73.118145.7  RSN  5 0.3 1.8LRSN                1
 GAP=142        0.90       4.4     6.1  6.7 -0.8593E+01  0.3230E+01  0.3981E+01E
 Epicentro: LOS SANTOS - SANTANDER                                             3
 ACTION:UPD 16-08-18 17:50 OP:cam  STATUS:               ID:20160529205435 L   I
 OLDACT:REG 16-05-30 02:29 OP:drio STATUS:               ID:20160529204746     3
 2016-05-29-2047-46M.COL___316                                                 6
 STAT SP IPHASW D HRMM SECON CODA AMPLIT PERI AZIMU VELO AIN AR TRES W  DIS CAZ7
 BAR2 EZ ES       2055  9.50                             171   -0.5710 20.8 200 
 BAR2 EZ I        2055 11.08        22.1 0.20            171           20.8 200 
 BRR  HZ EP       2054 56.63                             151    0.0010 75.6 300 
 BRR  HE ES       2055 13.70                             151    0.3910 75.6 300 
 BRR  HZ I        2055 17.88         9.6 0.26            150           75.6 300 
 PAM  EZ EP       2054 57.45                             151   -0.0410 78.2  36 
 PAM  EE ES       2055 14.82                             151   -0.0310 78.2  36 
 PAM  EZ I        2055 16.79         9.0 0.48            153           78.2  36 
 RUS  HZ EP       2054 58.57                             145   -0.1410 96.9 178 
 RUS  HN ES       2055 17.66                             145    0.6310 96.9 178 
 RUS  HZ I        2055 18.46         8.0 0.30            148           96.9 178 
 SPBC HZ EP       2055  3.75                             129    0.09 9  162 221 
 SPBC HN ES       2055 25.46                             129   -0.37 9  162 221 
 SPBC HZ I        2055 28.29        13.4 0.20            131            162 221 
                                                                                
