 2015  529 2354 53.6 L   6.517 -73.475114.2  RSN  6 0.3 1.7LRSN                1
 GAP=160        0.67       3.2     3.0  6.0 -0.2553E+01  0.5927E+01 -0.2841E+01E
 Epicentro: SIMACOTA - SANTANDER                                               3
 ACTION:UPD 15-09-10 22:08 OP:cam  STATUS:               ID:20150529235453 L   I
 OLDACT:UP  15-05-30 11:34 OP:mh   STATUS:               ID:20150529234745     3
 OLDACT:REG 15-05-30 10:32 OP:mh   STATUS:               ID:20150529234745     3
 2015-05-29-2347-45M.COL___315                                                 6
 STAT SP IPHASW D HRMM SECON CODA AMPLIT PERI AZIMU VELO AIN AR TRES W  DIS CAZ7
 BAR2 EZ EP       2355 10.06                             163    0.3410 33.4  76 
 BAR2 EZ ES   1   2355 22.48                             163    0.15 7 33.4  76 
 BAR2 EZ I        2355 23.49        25.9 0.36            168           33.4  76 
 BRR  HZ EP       2355 11.03                             146   -0.3110 70.3 338 
 BRR  HN ES       2355 24.89                             146   -0.3210 70.3 338 
 BRR  HZ I        2355 57.06        13.8 0.36            147           70.3 338 
 PAM  SZ EP   1   2355 16.28                             129   -0.27 7  125  43 
 PAM  SN ES       2355 34.62                             129    0.1510  125  43 
 PAM  SZ I        2355 35.56         4.6 0.42            144            125  43 
 NOR  HN ES       2355 44.68                             117   -0.12 9  187 236 
 NOR  HZ I        2355 47.71         4.3 0.14            130            187 236 
 ZAR  HN ES       2355 45.20                             117    0.48 9  187 305 
 SML  HZ EP   1   2355 30.58                             108   -0.05 6  261 345 
 SML  HN ES       2355 59.45                             108   -0.09 8  261 345 
 SML  HZ I        2356  1.56         4.8 0.26            119            261 345 
                                                                                
