 2010  729 2342 46.8 L   6.739 -73.136148.3  RSN  5 0.2 1.7LRSN                1
 GAP=165        0.44       3.3     6.3  4.5  0.5478E+01 -0.4803E+01 -0.1762E+01E
 Epicentro: JORDAN - SANTANDER                                                 3
 ACTION:UPD 10-12-01 15:21 OP:pat  STATUS:               ID:20100729234246 L   I
 2010-07-29-2338-41S.COL___122                                                 6
 STAT SP IPHASW D HRMM SECON CODA AMPLIT PERI AZIMU VELO AIN AR TRES W  DIS CAZ7
 BAR2 SZ IP       2343  6.64                             173     0.010   17 198 
 BAR2 SZ ES   1   2343 22.13                             173     0.0 7   17 198 
 BAR2 SZ I        2343 24.13        11.0 0.29                            17 198 
 BRR  HZ EP   1   2343  8.54                             151     0.1 7   76 303 
 BRR  HN ES   1   2343 25.41                             151     0.0 7   76 303 
 BRR  HZ I        2343 29.37         8.4 0.43                            76 303 
 RUS  HZ EP   1   2343 10.60                             146     0.3 7   94 176 
 RUS  HE ES   1   2343 28.56                             146    -0.1 7   94 176 
 RUS  HZ I        2343 30.59         4.9 0.22                            94 176 
 GUE  SZ EP   1   2343 12.07                             138    -0.2 7  123  11 
 PRA  HZ EP   2   2343 40.23                             107     0.4 3  387 210 
 PRA  HN ES   2   2344 20.45                             107    -0.7 3  387 210 
 PRA  HZ I        2344 29.20         2.0 0.28                           387 210 
                                                                                
