 2010 1029 2147 38.0 L   6.796 -73.119144.7  RSN  4 0.1 1.7LRSN                1
 GAP=162        0.41       5.1    10.6  8.8  0.4082E+02 -0.6628E+02 -0.2729E+02E
 Epicentro: LOS SANTOS - SANTANDER                                             3
 ACTION:UP  11-02-18 11:13 OP:tino STATUS:               ID:20101029214738 L   I
 2010-10-29-2145-34S.COL___127                                                 6
 STAT SP IPHASW D HRMM SECON CODA AMPLIT PERI AZIMU VELO SNR AR TRES W  DIS CAZ7
 BTL  SZ EP   1   2147 57.68                             171     0.2 7   21 310 
 BRR  HZ EP   1   2147 59.29                             151     0.1 7   74 298 
 BRR  HN ES   1   2148 15.63                             151    -0.1 7   74 298 
 BRR  HZ I        2148 20.25        18.0 0.47                            74 298 
 RUS  HZ EP   1   2148  1.45                             144    -0.2 7  100 178 
 RUS  HN ES   1   2148 20.06                             144     0.0 7  100 178 
 RUS  HZ I        2148 22.31         5.0 0.31                           100 178 
 GRA  SZ EP   2   2148  3.00                             137    -0.1 5  125  16 
 GRA  SZ I        2148 24.02         4.9 0.41                           125  16 
                                                                                
