 2014 1029 2309 46.5 L   6.808 -73.186132.6  RSN  5 0.5 1.4LRSN                1
 GAP=131        1.37       6.9     6.6 10.1 -0.3973E+01  0.9116E+01  0.4017E+01E
 Epicentro: ZAPATOCA - SANTANDER                                               3
 ACTION:UPD 14-11-29 23:58 OP:nd   STATUS:               ID:20141029230946 L   I
 OLDACT:ARG 14-10-31 14:10 OP:stll STATUS:               ID:20141029230743     3
 2014-10-29-2307-43M.COL___274                                                 6
 STAT SP IPHASW D HRMM SECON CODA AMPLIT PERI AZIMU VELO AIN AR TRES W  DIS CAZ7
 BAR2 SZ EP       2310  4.51                             169   -0.0310 23.8 179 
 BAR2 SZ ES       2310 18.41                             169   -0.2210 23.8 179 
 BAR2 SZ I        2310 21.67         7.7 0.28            169           23.8 179 
 BRR  HZ EP       2310  6.46                             151    0.4910 66.9 300 
 BRR  HN ES       2310 21.93                             151    0.7710 66.9 300 
 PAM  SZ EP       2310  7.91                             147    0.4510 79.6  42 
 PAM  SN ES       2310 23.03                             147   -0.7910 79.6  42 
 PAM  SZ I        2310 26.56         4.1 0.44            151           79.6  42 
 RUS  HZ EP       2310  9.38                             140    0.3210  102 174 
 RUS  HN ES       2310 26.80                             140    0.1310  102 174 
 RUS  HZ I        2310 29.14         3.6 0.58            143            102 174 
 PTB  HZ EP       2310 11.12                             130   -0.89 9  144 258 
 PTB  HN ES       2310 31.55                             130   -0.38 9  144 258 
 PTB  HZ I        2310 35.25         6.2 0.22            132            144 258 
                                                                                
