 2010  329 2239 12.6 L   6.792 -73.122146.7  RSN  4 0.2 1.9LRSN                1
 GAP=239        0.39       4.4     9.5  6.3  0.2052E+02  0.9117E+00  0.8400E+01E
 Epicentro: LOS SANTOS - SANTANDER                                             3
 ACTION:UP  10-08-24 09:56 OP:vdl  STATUS:               ID:20100329223912 L   I
 2010-03-29-2238-21S.COL___098                                                 6
 STAT SP IPHASW D HRMM SECON CODA AMPLIT PERI AZIMU VELO SNR AR TRES W  DIS CAZ7
 BRR  HZ EP   1   2239 33.99                             152     0.0 7   74 298 
 BRR  HE ES   2   2239 50.76                             152     0.0 5   74 298 
 BRR  HZ I        2239 52.82        16.3 0.22                            74 298 
 RUS  HZ EP   1   2239 36.31                             144    -0.1 7  100 178 
 RUS  HE ES   2   2239 55.13                             144     0.2 5  100 178 
 RUS  HZ I        2239 56.20         4.7 0.32                           100 178 
 CHI  HZ EP   1   2239 50.54                             117     0.2 6  248 196 
 CHI  HN ES   2   2240 19.32                             117    -0.5 4  248 196 
 CHI  HZ I        2240 27.57         4.4 0.33                           248 196 
 PRA  HZ EP   2   2240  6.39                             107     0.2 3  393 210 
 PRA  HN ES   3   2240 48.66                             107     0.6 1  393 210 
 PRA  HZ I        2240 52.84         5.7 0.46                           393 210 
                                                                                
