 2017  129 2322 22.8 L   6.778 -73.174143.7  RSN  7 0.3 1.8LRSN                1
 GAP=134        0.72       2.9     3.1  4.7  0.9296E+00  0.3862E+01  0.1367E+01E
 Epicentro: LOS SANTOS - SANTANDER                                             3
 ACTION:UPD 17-05-22 16:04 OP:jn   STATUS:               ID:20170129232222 L   I
 OLDACT:REG 17-01-30 02:37 OP:edw  STATUS:               ID:20170129231739     3
 2017-01-29-2318-00M.COL___342                                                 6
 STAT SP IPHASW D HRMM SECON CODA AMPLIT PERI AZIMU VELO AIN AR TRES W  DIS CAZ7
 BAR2 EZ EP       2322 42.21                             171    0.0410 20.6 182 
 BAR2 EZ ES       2322 57.18                             171   -0.0610 20.6 182 
 BAR2 EZ I        2322 59.95        25.0 0.30            170           20.6 182 
 BRR  HZ EP       2322 43.96                             153    0.2810 69.7 302 
 BRR  HN ES       2323  0.32                             153    0.3910 69.7 302 
 BRR  HZ I        2323  3.60        12.1 0.32            153           69.7 302 
 PAM  EZ EP       2322 45.11                             149    0.0410 81.3  40 
 PAM  EN ES       2323  2.27                             149   -0.1410 81.3  40 
 PAM  EZ I        2323  5.20         8.2 0.30            153           81.3  40 
 RUS  HZ EP       2322 45.86                             144   -0.3710 98.5 174 
 RUS  HN ES       2323  4.52                             144    0.0410 98.5 174 
 RUS  HZ I        2323  6.02         7.6 0.36            145           98.5 174 
 PTB  HZ EP       2322 48.81                             132   -0.51 9  144 260 
 PTB  HE ES       2323  9.79                             132   -0.17 9  144 260 
 PTB  HZ I        2323 12.47         7.2 0.12            133            144 260 
 ZAR  HZ EP       2322 55.32                             122    0.37 9  202 293 
 ZAR  HN ES       2323 19.69                             122   -0.29 9  202 293 
 ZAR  HZ I        2323 25.35         6.3 0.24            124            202 293 
 CHI  HZ EP   2   2323  0.55                             117    0.47 4  245 195 
 CHI  HN ES       2323 29.51                             117    0.38 8  245 195 
 CHI  HZ I        2323 35.91         3.3 0.34            119            245 195 
                                                                                
