 2010  329 2228  1.7 L   6.011 -73.600107.4  RSN  5 0.6 1.5LRSN                1
 GAP=169        0.93       5.0    21.4 16.9 -0.3415E+02  0.1921E+03 -0.1330E+02E
 Epicentro: GUEPSA - SANTANDER                                                 3
 ACTION:UP  10-08-24 09:56 OP:vdl  STATUS:               ID:20100329222801 L   I
 2010-03-29-2225-43S.COL___098                                                 6
 STAT SP IPHASW D HRMM SECON CODA AMPLIT PERI AZIMU VELO SNR AR TRES W  DIS CAZ7
 RUS  HZ EP   2   2228 18.16                             150    -0.6 5   59 103 
 RUS  HZ I        2228 18.82         5.4 0.11                            59 103 
 RUS  HE ES   3   2228 31.97                             150    -0.1 2   59 103 
 BAR2 SZ ES   2   2228 34.11                             141     0.2 5   79  36 
 BRR  HZ EP   3   2228 23.73                             127     0.5 2  122 354 
 BRR  HZ I        2228 24.15        12.9 0.07                           122 354 
 BRR  HN ES   2   2228 39.31                             127    -0.8 5  122 354 
 CHI  HZ EP   1   2228 26.81                             121    -0.2 7  153 185 
 CHI  HE ES   2   2228 47.63                             121     0.9 5  153 185 
 CHI  HZ I        2228 50.99         4.1 0.25                           153 185 
 OCA  SZ EP   1   2228 36.83                             108    -0.5 6  248   7 
 OCA  SZ ES   1   2229  5.92                             108     0.9 6  248   7 
                                                                                
