 2011  929 2101 39.1 L   6.781 -73.137142.5  RSN 11 0.4 2.2LRSN                1
 GAP=138        0.68       3.0     4.3  4.7 -0.2695E+01  0.4657E+01  0.2260E+01E
 Epicentro: LOS SANTOS - SANTANDER                                             3
 ACTION:UPD 12-07-13 16:00 OP:ep   STATUS:               ID:20110929210139 L   I
 2011-09-29-2059-06S.COL___168                                                 6
 STAT SP IPHASW D HRMM SECON CODA AMPLIT PERI AZIMU VELO AIN AR TRES W  DIS CAZ7
 BTL  SZ EP       21 1 58.92                             171    0.6010 20.9 316 
 BAR2 SZ EP       21 1 58.46                             171    0.1410 21.5 193 
 BAR2 SZ ES   1   21 2 12.85                             171   -0.45 7 21.5 193 
 BAR2 SZ I        21 2 14.54        44.9 0.22                          21.5 193 
 BRR  HZ EP       21 2  0.00                             151   -0.0310 73.0 300 
 BRR  HE ES   1   21 2 16.86                             151    0.53 7 73.0 300 
 BRR  HZ I        21 2 19.41        33.3 0.18                          73.0 300 
 PAM  SZ EP       21 2  1.06                             150    0.0110 78.4  38 
 PAM  SN ES   1   21 2 18.01                             150   -0.15 7 78.4  38 
 RUS  HZ EP       21 2  2.29                             144   -0.1110 98.4 177 
 RUS  HN ES   1   21 2 20.31                             144   -0.24 7 98.4 177 
 OCA  SZ EP       21 2  7.04                             128   -0.35 9  162 353 
 OCA  SZ I        21 2 31.85        28.7 0.20                           162 353 
 ZAR  HZ EP   3   21 2 11.64                             121    0.11 2  206 293 
 ZAR  HN ES   2   21 2 36.09                             121   -0.72 4  206 293 
 ZAR  HZ I        21 2 42.75        15.5 0.22                           206 293 
 NOR  SZ EP       21 2 14.63                             118    0.01 8  234 235 
 NOR  SN ES   1   21 2 41.93                             118   -0.38 6  234 235 
 CHI  HZ EP       21 2 16.48                             117    0.03 8  247 196 
 CHI  HE ES   2   21 2 46.43                             117    0.86 4  247 196 
 CHI  HZ I        21 2 52.80         7.6 0.50                           247 196 
 RREF HZ EP   2   21 2 25.43                             110    0.37 3  321 230 
 RREF HN ES   3   21 3  1.25                             110    0.37 2  321 230 
 RREF HZ I        21 3 12.29         7.0 0.38                           321 230 
 PRA  HZ EP       21 2 32.11                             106   -0.27 6  391 210 
                                                                                
