 2014  529 2034 22.4 L   7.460 -73.471108.8  RSN  5 0.3 1.4LRSN                1
 GAP=187        0.84       6.2     3.4  8.3  0.4320E+01  0.5150E+01 -0.1426E+02E
 Epicentro: SABANA DE TORRES - SANTANDER                                       3
 ACTION:UPD 15-03-16 17:01 OP:nd   STATUS:               ID:20140529203422 L   I
 OLDACT:UP  14-05-30 06:05 OP:spq  STATUS:               ID:20140529202819     3
 OLDACT:REG 14-05-30 05:18 OP:spq  STATUS:               ID:20140529202819     3
 2014-05-29-2028-19M.COL___259                                                 6
 STAT SP IPHASW D HRMM SECON CODA AMPLIT PERI AZIMU VELO AIN AR TRES W  DIS CAZ7
 BRR  HZ EP       2034 38.46                             155    0.2610 47.2 214 
 BRR  HE ES       2034 50.14                             155   -0.3910 47.2 214 
 BRR  HZ I        2034 50.75        15.5 0.27            149           47.2 214 
 PAM  SZ EP       2034 41.64                             139    0.1210 86.2  99 
 PAM  SN ES       2034 56.38                             139   -0.0510 86.2  99 
 PAM  SZ I        2034 58.49         3.6 0.26            136           86.2  99 
 BAR2 SZ ES   1   2034 58.46                             134    0.41 7  101 162 
 BAR2 SZ I        2035  1.84         7.8 0.16            129            101 162 
 ZAR  HZ EP       2034 46.63                             121   -0.56 9  153 271 
 ZAR  HN ES       2035  6.97                             121    0.45 9  153 271 
 ZAR  HZ I        2035  9.13         7.3 0.16            119            153 271 
 RUS  HE ES   1   2035 12.28                             117   -0.19 7  179 166 
 RUS  HZ I        2035 16.46         1.0 0.38            113            179 166 
                                                                                
