 2010  929 2226 56.3 L   6.831 -73.090144.6  RSN 17 0.4 3.0LRSN                1
 GAP=106        1.03       3.6     5.5  6.5 -0.7645E+01  0.8868E+00  0.7708E+01E
 Epicentro: LOS SANTOS - SANTANDER                                             3
 ACTION:UP  11-02-18 11:06 OP:tino STATUS:               ID:20100929222656 L   I
 2010-09-29-2224-45S.COL___125                                                 6
 STAT SP IPHASW D HRMM SECON CODA AMPLIT PERI AZIMU VELO SNR AR TRES W  DIS CAZ7
 BAR2 SZ IP       2227 16.09                             168     0.210   28 201 
 BAR2 SZ ES   1   2227 31.10                             168    -0.1 7   28 201 
 BAR2 SZ I        2227 32.54       427.0 0.19                            28 201 
 BRR  HZ IP     D 2227 17.92                             151     0.410   75 294 
 BRR  HE ES   1   2227 34.74                             151     0.6 7   75 294 
 BRR  HZ I        2227 37.50       253.6 0.16                            75 294 
 RUS  HZ IP     C 2227 19.99                             143    -0.210  104 180 
 RUS  HZ I        2227 40.14       106.2 0.38                           104 180 
 GUE  SZ EP       2227 19.92                             140    -0.610  112   9 
 GRA  SZ IP       2227 20.84                             138    -0.210  121  15 
 GRA  SZ ES   1   2227 39.97                             138    -0.3 7  121  15 
 GRA  SZ I        2227 42.76       101.5 0.55                           121  15 
 OCA  SZ EP       2227 24.71                             130     0.4 9  158 351 
 OCA  SZ ES   1   2227 45.78                             130    -0.3 7  158 351 
 OCA  SZ I        2227 49.66       163.2 0.22                           158 351 
 YOP  SZ EP       2227 26.72                             126     0.4 9  179 156 
 NOR  SZ EP       2227 31.97                             117    -0.7 8  242 235 
 NOR  SN ES   2   2228  0.84                             117    -0.3 4  242 235 
 NOR  SZ I        2228  5.39        19.7 0.45                           242 235 
 CHI  HZ IP     D 2227 34.27                             116    -0.2 8  254 196 
 CHI  HE ES   1   2228  3.39                             116    -0.8 6  254 196 
 CHI  HZ I        2228 10.78        68.5 0.62                           254 196 
 ROSC BZ EP       2227 35.85                             116     0.8 8  259 212 
 ROSC BE ES   2   2228  4.41                             116    -0.8 4  259 212 
 ROSC BZ I        2228 13.84        75.2 0.51                           259 212 
 CVER SZ EP       2227 37.35                             114     0.2 7  278 203 
 CVER SZ I        2227 39.11       116.5 0.23                           278 203 
 HEL  HZ EP       2227 37.27                             114     0.1 7  279 255 
 HEL  HE ES   3   2228  8.95                             114    -0.1 2  279 255 
 HEL  HZ I        2228 15.85        60.0 0.48                           279 255 
 RREF HZ EP   1   2227 43.34                             110     0.2 5  329 230 
 RREF HN ES   1   2228 19.38                             110    -0.3 5  329 230 
 RREF HZ I        2228 25.59        65.8 0.37                           329 230 
 DBB  SZ EP       2227 43.81                             109    -0.6 7  345 274 
 TOL  SZ EP       2227 45.30                             109     0.0 6  350 225 
 SDV  BZ EP       2227 45.58                             108     0.1 6  354  50 
 ANIL HZ EP       2227 47.18                             108     0.4 6  364 225 
 ANIL HE ES   2   2228 26.94                             108     0.7 3  364 225 
                                                                                
