 2013  329 2207  0.3 L   6.807 -73.119133.7  RSN  6 0.5 2.2LRSN                1
 GAP=186        1.15       4.7     6.1  8.6  0.6557E+01  0.1650E+01 -0.9059E+01E
 Epicentro: LOS SANTOS - SANTANDER                                             3
 ACTION:UPD 13-04-09 14:05 OP:ep   STATUS:               ID:20130329220700 L   I
 2013-03-29-2200-00M.COL___245                                                 6
 STAT SP IPHASW D HRMM SECON CODA AMPLIT PERI AZIMU VELO AIN AR TRES W  DIS CAZ7
 BAR2 SZ EP       22 7 18.94                             169    0.3810 24.8 197 
 BAR2 SZ ES       22 7 32.34                             169   -0.4310 24.8 197 
 BAR2 SZ I        22 7 35.00        17.4 0.18            171           24.8 197 
 BRR  HZ EP       22 7 20.91                             149    0.5710 73.5 297 
 BRR  HN ES       22 7 36.44                             149    0.5010 73.5 297 
 BRR  HE I        22 7 38.13        42.5 0.24            151           73.5 297 
 RUS  HZ EP       22 7 23.09                             141    0.1110  101 178 
 RUS  HN ES       22 7 40.73                             141    0.0910  101 178 
 RUS  HN I        22 7 43.07        12.4 0.42            144            101 178 
 PTB  HZ EP       22 7 26.07                             128   -0.58 9  151 259 
 PTB  HN ES       22 7 46.51                             128   -0.66 9  151 259 
 PTB  HN I        22 7 48.76        20.8 0.26            131            151 259 
 OCA  HZ EP       22 7 27.50                             127   -0.20 9  160 352 
 OCA  HN ES       22 7 48.58                             127   -0.47 9  160 352 
 OCA  HN I        22 7 52.96        63.8 0.20            129            160 352 
 ZAR  HN ES       22 7 57.78                             119    0.56 8  207 292 
 ZAR  HN I        22 7 58.29        15.6 0.12            122            207 292 
                                                                                
