 2014  429 2221  0.5 L   6.750 -73.147148.4  RSN  9 0.5 2.0LRSN                1
 GAP=139        1.16       4.0     5.0  7.8 -0.4126E+01  0.1124E+02 -0.1708E+01E
 Epicentro: LOS SANTOS - SANTANDER                                             3
 ACTION:UPD 14-05-13 23:12 OP:nd   STATUS:               ID:20140429222100 L   I
 OLDACT:REG 14-04-30 02:49 OP:nd   STATUS:               ID:20140429222000     3
 2014-04-29-2220-00M.COL___270                                                 6
 STAT SP IPHASW D HRMM SECON CODA AMPLIT PERI AZIMU VELO AIN AR TRES W  DIS CAZ7
 BRR  HZ EP       2221 22.50                             152    0.4510 73.8 302 
 BRR  HN ES       2221 39.35                             152    0.4710 73.8 302 
 BRR  HZ I        2221 39.73        19.4 0.50            150           73.8 302 
 PAM  SZ EP       2221 23.31                             150    0.0810 81.8  37 
 PAM  SN ES       2221 40.45                             150   -0.5310 81.8  37 
 RUS  HZ EP       2221 24.05                             146   -0.0510 95.1 176 
 RUS  HN ES       2221 42.68                             146    0.1610 95.1 176 
 RUS  HZ I        2221 44.00        12.7 0.36            148           95.1 176 
 PTB  HZ EP       2221 27.05                             133   -0.50 9  147 261 
 PTB  HN ES   1   2221 47.60                             133   -1.07 7  147 261 
 PTB  HZ I        2221 52.06        13.2 0.24            132            147 261 
 SPBC HZ EP       2221 29.00                             130    0.24 9  159 220 
 SPBC HN ES       2221 51.06                             130    0.23 9  159 220 
 SPBC HZ I        2221 53.35        10.2 0.24            131            159 220 
 ZAR  HZ EP       2221 33.60                             123    0.31 8  206 294 
 ZAR  HN ES       2221 58.93                             123    0.04 8  206 294 
 ZAR  HZ I        2222  4.38        12.6 0.24            123            206 294 
 NOR  HZ EP   2   2221 35.42                             119   -0.58 4  231 236 
 NOR  HN ES       2222  3.26                             119   -0.45 8  231 236 
 NOR  HZ I        2222  6.80         7.6 0.22            120            231 236 
 SML  HZ EP       2221 36.70                             118   -1.08 8  249 336 
 SML  HN ES   1   2222  7.95                             118    1.07 6  249 336 
 SML  HZ I        2222 11.31        12.6 0.28            118            249 336 
 GUY2CHZ EP   2   2221 44.84                             113    1.01 4  298 236 
 GUY2CHN ES       2222 18.20                             113    0.55 7  298 236 
 GUY2CHZ I        2222 26.57         3.9 0.44                           298 236 
                                                                                
