 2013 1129 2057 22.5 L   6.741 -73.116145.1  RSN  7 0.5 1.8LRSN                1
 GAP=143        1.24       6.2     6.0  8.3 -0.9253E+01  0.1140E+02  0.6416E+01E
 Epicentro: JORDAN - SANTANDER                                                 3
 ACTION:UPD 14-01-09 16:31 OP:ep   STATUS:               ID:20131129205722 L   I
 OLDACT:REG 13-11-29 22:27 OP:nd   STATUS:               ID:20131129205000     3
 2013-11-29-2050-00M.COL___282                                                 6
 STAT SP IPHASW D HRMM SECON CODA AMPLIT PERI AZIMU VELO AIN AR TRES W  DIS CAZ7
 BAR2 SZ EP       2057 42.12                             173    0.1210 18.0 204 
 BAR2 SZ ES       2057 56.85                             173   -0.3210 18.0 204 
 BAR2 SZ I        2057 58.17        16.4 0.64            170           18.0 204 
 BRR  HZ EP       2057 44.12                             150    0.1510 77.3 302 
 BRR  HN ES       2058  1.71                             150    1.0210 77.3 302 
 BRR  HZ I        2058 12.98        13.9 0.32            147           77.3 302 
 PAM  SZ EP       2057 45.02                             150    0.1410 80.6  35 
 PAM  SN ES       2058  1.84                             150   -0.4710 80.6  35 
 PAM  SZ I        2058  4.34        14.5 0.50            153           80.6  35 
 RUS  HZ EP       2057 46.03                             146    0.2810 93.9 178 
 RUS  HN ES       2058  3.93                             146    0.0710 93.9 178 
 RUS  HZ I        2058  6.20         4.2 0.38            152           93.9 178 
 PTB  HZ EP       2057 49.09                             131   -0.56 9  150 262 
 PTB  HN ES       2058  9.91                             131   -0.88 9  150 262 
 PTB  HZ I        2058 15.99         9.5 0.26            132            150 262 
 NOR  HZ EP       2057 58.07                             118   -0.05 8  234 236 
 NOR  HN ES       2058 26.33                             118    0.46 8  234 236 
 NOR  HZ I        2058 30.02         5.7 0.24            121            234 236 
 GUY2CHZ EP   4   2058  8.18                             112    2.18 0  300 236 
 GUY2CHN ES   4   2058 42.26                             112    2.35 0  300 236 
 GUY2CHZ I        2058 48.87         4.7 0.36                           300 236 
                                                                                
