 2016  329 2153 28.3 L   6.793 -73.213142.0  RSN  6 0.4 1.3LRSN                1
 GAP=128        0.64       4.8     4.2  9.5  0.4854E+01 -0.1025E+01 -0.6785E+01E
 Epicentro: ZAPATOCA - SANTANDER                                               3
 ACTION:UPD 16-05-13 21:28 OP:cam  STATUS:               ID:20160329215328 L   I
 OLDACT:REG 16-03-30 04:06 OP:dnl  STATUS:               ID:20160329214749     3
 2016-03-29-2147-49M.COL___313                                                 6
 STAT SP IPHASW D HRMM SECON CODA AMPLIT PERI AZIMU VELO AIN AR TRES W  DIS CAZ7
 BAR2 EZ EP   2   2153 47.89                             171    0.48 5 22.4 171 
 BAR2 EZ ES   2   2154  1.95                             171   -0.40 5 22.4 171 
 BAR2 EZ I        2154  4.17         5.8 0.24            106           22.4 171 
 PAM  EZ EP       2153 50.35                             148   -0.0610 82.9  43 
 PAM  EZ I        2154 36.32         2.6 0.32             61           82.9  43 
 RUS  HZ EP   2   2153 51.68                             143    0.05 5  101 172 
 RUS  HN ES   2   2154 10.32                             143    0.45 5  101 172 
 RUS  HZ I        2154 11.66         2.2 0.24             96            101 172 
 PTB  HZ EP   2   2153 54.49                             133    0.26 5  140 259 
 PTB  HN ES   2   2154 15.22                             133    0.72 5  140 259 
 PTB  HZ I        2154 17.96         2.2 0.16             94            140 259 
 ZAR  HZ EP   4   2154  2.19                             122    2.42 0  197 293 
 ZAR  HE ES       2154 24.12                             122   -0.24 9  197 293 
 ZAR  HZ I        2154 30.91         2.0 0.19             61            197 293 
 CHI  HZ EP   2   2154  5.73                             117    0.28 4  246 194 
 CHI  HN ES   2   2154 33.42                             117   -1.05 4  246 194 
 CHI  HZ I        2154 38.46         1.4 0.26             61            246 194 
                                                                                
