 2015  929 2122 44.6 L   6.805 -73.164142.1  RSN 12 0.5 2.1LRSN                1
 GAP=134        1.08       3.1     4.0  5.6 -0.7621E+00  0.6914E+01  0.7238E+00E
 Epicentro: LOS SANTOS - SANTANDER                                             3
 ACTION:UPD 15-10-28 16:29 OP:cam  STATUS:               ID:20150929212244 L   I
 OLDACT:UP  15-09-30 07:26 OP:mh   STATUS:               ID:20150929211749     3
 OLDACT:UP  15-09-30 07:26 OP:mh   STATUS:               ID:20150929211749     3
 OLDACT:UP  15-09-30 07:26 OP:mh   STATUS:               ID:20150929211749     3
 OLDACT:UP  15-09-30 07:24 OP:mh   STATUS:               ID:20150929211749     3
 OLDACT:REG 15-09-30 03:43 OP:mh   STATUS:               ID:20150929211749     3
 2015-09-29-2117-49M.COL___352                                                 6
 STAT SP IPHASW D HRMM SECON CODA AMPLIT PERI AZIMU VELO AIN AR TRES W  DIS CAZ7
 BAR2 EZ EP       2123  3.97                             170    0.1710 23.6 185 
 BAR2 EZ ES       2123 18.73                             170   -0.0410 23.6 185 
 BAR2 EZ I        2123 19.53        38.8 0.28            168           23.6 185 
 BRR  HZ EP       2123  5.17                             153   -0.0710 69.2 299 
 BRR  HN ES       2123 21.90                             153    0.5610 69.2 299 
 BRR  HZ I        2123 23.76        30.2 0.30            151           69.2 299 
 PAM  EZ EP       2123  6.96                             150    0.4810 78.3  41 
 PAM  EN ES       2123 23.34                             150   -0.2110 78.3  41 
 PAM  EZ I        2123 25.52        22.0 0.56            154           78.3  41 
 RUS  HZ EP       2123  7.93                             143   -0.1210  101 175 
 RUS  HN ES       2123 26.48                             143    0.1510  101 175 
 RUS  HZ I        2123 27.18        10.8 0.22            143            101 175 
 PTB  HZ EP       2123 10.49                             132   -0.61 9  146 258 
 PTB  HN ES       2123 31.04                             132   -0.74 9  146 258 
 PTB  HZ I        2123 33.33        17.0 0.22            131            146 258 
 SPBC HZ EP       2123 12.85                             128    0.11 9  162 218 
 SPBC HN ES       2123 34.85                             128    0.16 9  162 218 
 SPBC HZ I        2123 41.01        18.0 0.30            128            162 218 
 ZAR  HZ EP       2123 16.34                             122   -0.26 9  202 292 
 ZAR  HN ES       2123 42.28                             122    0.72 9  202 292 
 ZAR  HZ I        2123 44.66        14.4 0.18            122            202 292 
 NOR  HZ EP   1   2123 20.79                             118    0.81 6  233 234 
 NOR  HN ES       2123 47.26                             118   -0.31 8  233 234 
 NOR  HZ I        2123 52.77        10.6 0.22            118            233 234 
 SML  HZ EP       2123 20.38                             117   -0.50 8  242 336 
 SML  HN ES       2123 48.61                             117   -0.57 8  242 336 
 SML  HZ I        2123 51.29        13.5 0.10            118            242 336 
 CHI  HZ EP       2123 21.78                             116   -0.32 8  249 195 
 CHI  HN ES       2123 50.76                             116   -0.59 8  249 195 
 CHI  HZ I        2123 58.21         3.4 0.50            117            249 195 
 HEL  HZ EP       2123 25.34                             114    0.91 8  270 256 
 HEL  HN ES       2123 55.51                             114    0.02 8  270 256 
 HEL  HZ I        2124  4.33         5.5 0.22            114            270 256 
 GUY2CHZ EP       2123 28.53                             112    0.64 7  300 234 
 GUY2CHN ES   4   2124  3.30                             112    1.64 0  300 234 
 GUY2CHZ I        2124 10.28         6.5 0.52                           300 234 
                                                                                
