 2014  929 2224 48.3 L   6.810 -73.128147.8  RSN 11 0.4 1.7LRSN                1
 GAP=138        0.78       2.8     3.7  5.2 -0.3260E+00  0.3061E+01  0.2029E+01E
 Epicentro: LOS SANTOS - SANTANDER                                             3
 ACTION:UPD 14-10-03 23:09 OP:nd   STATUS:               ID:20140929222448 L   I
 OLDACT:REG 14-09-30 02:44 OP:spq  STATUS:               ID:20140929221821     3
 2014-09-29-2218-21M.COL___301                                                 6
 STAT SP IPHASW D HRMM SECON CODA AMPLIT PERI AZIMU VELO AIN AR TRES W  DIS CAZ7
 BAR2 SZ EP   1   2225  8.16                             170   -0.01 7 24.8 194 
 BAR2 SZ ES   1   2225 23.36                             170   -0.33 7 24.8 194 
 BAR2 SZ I        2225 24.78        11.0 0.18            169           24.8 194 
 BRR  HZ EP       2225  9.85                             152    0.1510 72.4 297 
 BRR  HN ES       2225 27.11                             152    0.6910 72.4 297 
 BRR  HZ I        2225 29.85         7.1 0.38            151           72.4 297 
 PAM  SZ EP     D 2225 10.66                             152    0.0910 75.3  39 
 PAM  SN ES   1   2225 27.56                             152   -0.41 7 75.3  39 
 PAM  SZ I        2225 30.17         6.9 0.52            153           75.3  39 
 RUS  HZ EP       2225 12.35                             144    0.0710  102 177 
 RUS  HN ES   1   2225 30.70                             144   -0.32 7  102 177 
 RUS  HZ I        2225 32.19         4.9 0.28            144            102 177 
 PTB  HZ EP   1   2225 15.50                             132   -0.09 7  150 259 
 PTB  HE ES       2225 36.46                             132   -0.45 9  150 259 
 PTB  HZ I        2225 38.32         4.2 0.07            131            150 259 
 OCA  HN ES   1   2225 39.29                             130    0.49 7  159 352 
 OCA  HZ I        2225 43.70        10.6 0.22            131            159 352 
 ZAR  HZ EP   1   2225 21.22                             123    0.23 6  205 292 
 ZAR  HE ES   1   2225 46.50                             123   -0.01 6  205 292 
 ZAR  HZ I        2225 51.70         7.8 0.44            122            205 292 
 SML  HZ EP   1   2225 24.62                             118   -0.37 6  244 335 
 SML  HE ES   1   2225 52.82                             118   -0.81 6  244 335 
 SML  HZ I        2225 55.15         9.1 0.10            118            244 335 
 CHI  HZ EP   1   2225 26.15                             117   -0.10 6  250 196 
 CHI  HE ES   1   2225 56.35                             117    0.48 6  250 196 
 CHI  HZ I        2226  0.46         1.7 0.26            118            250 196 
 GUY2CHZ EP   1   2225 32.32                             112    0.10 5  303 235 
 GUY2CHN ES   1   2226  5.97                             112   -0.54 5  303 235 
 GUY2CHZ I        2226 14.84         2.5 0.30                           303 235 
 PRA  HN ES   1   2226 24.79                             107    0.73 4  394 210 
 PRA  HZ I        2226 34.11         2.9 0.36            107            394 210 
                                                                                
