 2016 1229 2031 20.6 L   6.770 -73.133136.8  RSN  7 0.3 1.6LRSN                1
 GAP=140        0.84       3.4     3.7  5.8 -0.7826E+00  0.8051E+01  0.3984E+01E
 Epicentro: LOS SANTOS - SANTANDER                                             3
 ACTION:UPD 17-01-11 20:20 OP:rebc STATUS:               ID:20161229203120 L   I
 OLDACT:REG 16-12-30 02:36 OP:cara STATUS:               ID:20161229201150     3
 2016-12-29-2028-00M.COL___382                                                 6
 STAT SP IPHASW D HRMM SECON CODA AMPLIT PERI AZIMU VELO AIN AR TRES W  DIS CAZ7
 BAR2 EZ EP       2031 39.30                             171    0.1910 20.4 196 
 BAR2 EZ ES       2031 53.59                             171    0.0510 20.4 196 
 BAR2 EZ I        2031 55.43        11.4 0.28            171           20.4 196 
 PAM  EZ IP     D 2031 42.22                             149    0.2310 79.1  37 
 PAM  EE ES       2031 58.31                             149   -0.3510 79.1  37 
 PAM  EZ I        2032  1.38         8.8 0.52            151           79.1  37 
 RUS  HZ EP       2031 42.97                             143   -0.2710 97.2 177 
 RUS  HN ES       2032  1.28                             143    0.3810 97.2 177 
 RUS  HZ I        2032  3.47         3.6 0.44            145           97.2 177 
 PTB  HZ EP       2031 47.52                             130    0.58 9  149 260 
 PTB  HN ES       2032  7.15                             130   -0.32 9  149 260 
 PTB  HZ I        2032  9.91         3.4 0.14            131            149 260 
 ZAR  HN ES       2032 17.73                             120   -0.10 8  207 293 
 ZAR  HZ I        2032 22.58         4.8 0.34            121            207 293 
 CHI  HZ EP       2031 57.46                             115   -0.06 8  246 196 
 CHI  HN ES       2032 25.78                             115   -0.53 8  246 196 
 CHI  HZ I        2032 30.17         2.5 0.60            117            246 196 
 GUY2CHZ EP       2032  3.28                             111   -0.46 7  300 235 
 GUY2CHN ES       2032 37.83                             111    0.45 7  300 235 
 GUY2CHZ I        2032 45.47         1.9 0.32                           300 235 
                                                                                
