 2017  129 2334  4.9 L   6.777 -73.157140.0  RSN  8 0.3 2.3LRSN                1
 GAP=136        0.76       2.9     3.1  4.8 -0.3840E-01  0.3731E+01  0.3860E+01E
 Epicentro: LOS SANTOS - SANTANDER                                             3
 ACTION:UPD 17-05-22 16:04 OP:jn   STATUS:               ID:20170129233404 L   I
 OLDACT:DUP 17-01-30 03:21 OP:cara STATUS:               ID:20170129232746d    3
 OLDACT:REG 17-01-30 02:37 OP:edw  STATUS:               ID:20170129232745     3
 2017-01-29-2328-00M.COL___342                                                 6
 STAT SP IPHASW D HRMM SECON CODA AMPLIT PERI AZIMU VELO AIN AR TRES W  DIS CAZ7
 BAR2 EZ EP       2334 23.76                             171   -0.0610 20.6 188 
 BAR2 EZ ES       2334 37.90                             171   -0.6510 20.6 188 
 BAR2 EZ I        2334 40.38        47.6 0.20            170           20.6 188 
 BRR  HZ EP       2334 25.69                             151    0.2110 71.4 301 
 BRR  HN ES       2334 41.98                             151    0.4810 71.4 301 
 BRR  HZ I        2334 46.41        36.5 0.34            151           71.4 301 
 PAM  EZ EP       2334 26.86                             149    0.1410 80.2  39 
 PAM  EE ES       2334 43.84                             149    0.1410 80.2  39 
 PAM  EZ I        2334 46.04        32.5 0.48            153           80.2  39 
 RUS  HZ EP       2334 27.84                             143   -0.1110 98.1 175 
 RUS  HN ES       2334 46.03                             143    0.1410 98.1 175 
 RUS  HZ I        2334 47.56        25.2 0.26            146           98.1 175 
 PTB  HZ EP       2334 30.95                             131   -0.34 9  146 260 
 PTB  HN ES       2334 51.69                             131   -0.15 9  146 260 
 PTB  HZ I        2334 55.18        27.2 0.16            132            146 260 
 ZAR  HN ES       2335  1.76                             121   -0.25 9  204 293 
 ZAR  HZ I        2335  6.94        18.5 0.18            122            204 293 
 NOR  HZ EP       2334 39.92                             117   -0.15 8  232 235 
 NOR  HN ES       2335  7.89                             117    0.42 8  232 235 
 NOR  HZ I        2335 12.48        17.8 0.26            119            232 235 
 CHI  HZ EP       2334 41.92                             116   -0.10 8  246 195 
 CHI  HN ES       2335 11.27                             116    0.33 8  246 195 
 CHI  HZ I        2335 14.60        12.6 0.38            118            246 195 
                                                                                
