 2012 1029 2147 37.0 L   6.750 -73.133140.7  RSN  6 0.2 2.0LRSN                1
 GAP=140        0.51       3.0     3.0  4.8  0.1354E+01  0.2496E+01  0.2572E+01E
 Epicentro: LOS SANTOS - SANTANDER                                             3
 ACTION:UPD 12-11-22 17:06 OP:ep   STATUS:               ID:20121029214737 L   I
 2012-10-29-2140-00M.COL___231                                                 6
 STAT SP IPHASW D HRMM SECON CODA AMPLIT PERI AZIMU VELO AIN AR TRES W  DIS CAZ7
 BAR2 SZ EP   1   2147 55.56                             172   -0.34 7 18.3 197 
 BAR2 SZ I        2148 12.23        25.1 0.40                          18.3 197 
 GIR2 SZ EP       2147 56.07                             165   -0.1410 36.9 350 
 BRR  HZ EP       2147 58.05                             150    0.2410 75.2 302 
 BRR  HE ES       2148 14.13                             150    0.0610 75.2 302 
 BRR  HZ I        2148 16.07        33.0 0.25                          75.2 302 
 PAM  SZ EP       2147 58.82                             149   -0.0510 80.9  36 
 PAM  SZ I        2147 59.13        16.0 0.24                          80.9  36 
 PAM  SN ES       2148 16.00                             149    0.0510 80.9  36 
 RUS  HZ EP       2147 59.82                             144    0.0010 95.0 177 
 RUS  HN ES   1   2148 17.73                             144    0.08 7 95.0 177 
 RUS  HN I        2148 20.10        14.7 0.30                          95.0 177 
 ZAR  HZ EP   1   2148  9.85                             121    0.40 6  207 293 
 ZAR  HE ES   1   2148 34.34                             121   -0.44 6  207 293 
 ZAR  HZ I        2148 40.68         7.5 0.33                           207 293 
                                                                                
