 2016 1029 2004 52.2 L   6.812 -73.144141.7  RSN 33 0.7 3.2LRSN                1
 GAP= 68        1.03       2.7     2.8  4.3 -0.1363E+01  0.3466E+01  0.4740E+00E
 Epicentro: LOS SANTOS - SANTANDER                                             3
 ACTION:UPD 16-11-09 19:24 OP:rebc STATUS:               ID:20161029200452 L   I
 OLDACT:UP  16-10-30 03:32 OP:and  STATUS:               ID:20161029195231     3
 OLDACT:UP  16-10-30 03:27 OP:and  STATUS:               ID:20161029195231     3
 OLDACT:UP  16-10-30 03:22 OP:and  STATUS:               ID:20161029195231     3
 OLDACT:UP  16-10-30 03:16 OP:and  STATUS:               ID:20161029195231     3
 OLDACT:REG 16-10-30 02:51 OP:and  STATUS:               ID:20161029195231     3
 2016-10-29-1958-00M.COL___322                                                 6
 STAT SP IPHASW D HRMM SECON CODA AMPLIT PERI AZIMU VELO AIN AR TRES W  DIS CAZ7
 VALLCHZ EP       20 5 45.69                                                    
 VALLCHN ES   2   20 6 33.64                                                    
 BAR2 EZ IP     C 20 5 11.33                             170   -0.0810 24.6 190 
 BAR2 EZ ES       20 5 26.00                             170   -0.3710 24.6 190 
 BAR2 EZ I        20 5 27.00       439.2 0.28            167           24.6 190 
 BRR  HZ IP     D 20 5 13.22                             152    0.2910 70.7 298 
 BRR  HE ES       20 5 29.95                             152    0.8910 70.7 298 
 BRR  HZ I        20 5 32.96       227.6 0.15            150           70.7 298 
 PAM  EZ IP     D 20 5 14.18                             150    0.2210 76.3  40 
 PAM  EN ES       20 5 30.89                             150   -0.0110 76.3  40 
 PAM  EZ I        20 5 33.29       698.4 0.46            154           76.3  40 
 RUS  HZ EP       20 5 15.37                             143   -0.3210  102 176 
 RUS  HE ES       20 5 33.69                             143   -0.2910  102 176 
 RUS  HZ I        20 5 35.33       174.9 0.30            142            102 176 
 PTB  HZ EP       20 5 18.18                             131   -0.74 9  148 258 
 PTB  HN ES       20 5 39.67                             131   -0.06 9  148 258 
 PTB  HZ I        20 5 41.28       205.1 0.14            130            148 258 
 TAM  HZ IP     C 20 5 19.73                             129    0.11 9  155 105 
 TAM  HN ES       20 5 41.16                             129    0.19 9  155 105 
 TAM  HZ I        20 5 41.71        98.9 0.24            132            155 105 
 SPBC HZ EP       20 5 20.47                             128   -0.07 9  164 219 
 SPBC HE ES       20 5 42.42                             128   -0.19 9  164 219 
 SPBC HZ I        20 5 47.59       183.4 0.26            127            164 219 
 NOR  HZ EP       20 5 27.49                             117   -0.35 8  236 234 
 NOR  HN ES       20 5 55.02                             117   -0.58 8  236 234 
 NOR  HZ I        20 5 58.92        74.0 0.22            117            236 234 
 CHI  HZ EP       20 5 29.59                             116   -0.27 8  250 195 
 CHI  HN ES       20 5 59.14                             116   -0.06 8  250 195 
 CHI  HZ I        20 6  3.13        57.6 0.46            116            250 195 
 ROSC BZ EP   3   20 5 31.32                             116    1.04 2  254 211 
 ROSC BN ES   3   20 6  1.84                             116    1.90 2  254 211 
 ROSC BZ I        20 6  7.62       117.4 0.55            116            254 211 
 HEL  HZ EP       20 5 31.86                             114   -0.45 8  273 256 
 HEL  HN ES   3   20 6  2.15                             114   -1.41 2  273 256 
 HEL  HZ I        20 6  8.38        65.8 0.30            114            273 256 
 URE  HZ EP   9   20 5 31.81                             113   -1.27 0  283 292 
 URE  HN ES       20 6  2.91                                   -0.75 7  283 292 
 URE  HZ I        20 6  5.37       176.9 0.14            113            283 292 
 GUY2CHZ EP       20 5 36.07                             111    0.30 7  302 235 
 GUY2CHN ES       20 6 10.46                             111    0.74 7  302 235 
 GUY2CHZ I        20 6 18.92        85.6 0.62                           302 235 
 LL1C HZ EP       20 5 36.32                             111    0.80 7  305 351 
 LL1C HN ES   4   20 6 13.59                             111    4.32 0  305 351 
 VIL  HZ EP   2   20 5 34.94                             111   -0.69 4  305 192 
 VIL  HN ES   2   20 6  9.01                             111   -0.45 4  305 192 
 LL1C HZ I        20 6 18.79       242.3 0.24            112            305 351 
 PTGC HZ EP   4   20 5 34.55                             111   -1.50 0  310 159 
 PTGC HE ES   4   20 6  7.39                             111   -2.83 0  310 159 
 PTGC HZ I        20 6 10.19       129.3 0.36            111            310 159 
 LL6C HZ EP   9   20 5 16.91                             110   -20.7 0  324 358 
 LL6C HE ES   4   20 5 54.63                                    2.32 0  324 358 
 LL6C HZ I        20 5 59.24        29.4 0.28            111            324 358 
 ELA  HZ EP   9   20 5 41.23                             109    2.19 0  330 229 
 ELA  HN ES       20 6 18.46                                    0.73 7  330 229 
 ELA  HZ I        20 6 26.97        42.5 0.34            110            330 229 
 CBOC HZ EP       20 5 39.47                             109    0.41 7  334 252 
 CBOC HE ES       20 6 14.80                             109   -0.77 7  334 252 
 CBOC HZ I        20 6 21.87        23.4 0.18            109            334 252 
 DBB  HZ EP       20 5 39.56                             109   -0.01 7  340 274 
 DBB  HN ES       20 6 15.93                             109   -0.55 7  340 274 
 ANIL HZ EP       20 5 42.61                             108    0.59 6  358 224 
 ANIL HE ES   3   20 6 21.61                             108    0.77 2  358 224 
 ANIL HZ I        20 6 27.34       158.2 0.26            108            358 224 
 ARGC HZ EP       20 5 42.34                             107    0.73 6  358 340 
 ARGC HN ES       20 6 20.56                             107    0.44 6  358 340 
 ARGC HZ I        20 6 28.60        29.5 0.24            108            358 340 
 PRA  HZ EP       20 5 45.25                             106   -0.52 6  393 209 
 PRA  HN ES       20 6 27.31                             106   -0.21 6  393 209 
 PRA  HZ I        20 6 34.80        56.5 0.28            106            393 209 
 ORTC HZ EP       20 5 46.13                             106   -0.03 6  397 216 
 ORTC HN ES       20 6 28.58                             106    0.36 6  397 216 
 ORTC HZ I        20 6 34.59        47.7 0.40            106            397 216 
 SJC  HZ EP   4   20 5 45.91                             105   -1.65 0  408 327 
 SJC  HN ES   4   20 6 27.33                             105   -3.37 0  408 327 
 SJC  HZ I        20 6 31.10        67.4 0.52            106            408 327 
 LCBC HZ EP       20 5 48.73                             104   -0.29 5  421 303 
 LCBC HN ES   3   20 6 32.38                             104   -0.92 1  421 303 
 LCBC HZ I        20 6 37.54        34.4 0.28            105            421 303 
 CRJC HZ EP   3   20 5 52.00                             103   -2.48 1  466   4 
 CRJC HN ES   3   20 6 39.10                             103   -3.92 1  466   4 
 CRJC HZ I        20 6 44.15        31.8 0.18            103            466   4 
 YOT  HZ EP       20 5 55.03                             102   -0.27 5  473 229 
 YOT  HN ES       20 6 47.39                             102    2.92 5  473 229 
 YOT  HZ I        20 6 51.68         8.5 0.50            103            473 229 
 GUA  EZ EP   9   20 5 54.16                             102   -1.28 0  475 173 
 GUA  EE ES       20 6 42.96                                   -0.49 5  475 173 
 GUA  EZ I        20 6 46.15        33.5 0.22            103            475 173 
 PTA  HZ EP   2   20 5 59.69                             101   -0.67 2  517 274 
 URI  HZ IP   9 C 20 6  2.36                             100   -2.64 0  555  13 
 URI  HN ES       20 6 59.27                                    0.16 4  555  13 
 BBAC HZ EP       20 6 22.98                              97    0.46 1  698 221 
 BBAC HN ES   2   20 7 32.53                              97   -0.41 1  698 221 
                                                                                
