 2016  529 2041 54.8 L   6.799 -73.121148.7  RSN  9 0.4 1.9LRSN                1
 GAP=140        0.96       4.3     4.7  5.8 -0.6621E+01  0.5387E+01  0.5923E+01E
 Epicentro: LOS SANTOS - SANTANDER                                             3
 ACTION:UPD 16-08-18 17:50 OP:cam  STATUS:               ID:20160529204154 L   I
 OLDACT:UP  16-05-30 03:11 OP:drio STATUS:               ID:20160529203741d    3
 OLDACT:UP  16-05-30 03:11 OP:drio STATUS:               ID:20160529203741d    3
 OLDACT:DUP 16-05-30 03:02 OP:drio STATUS:               ID:20160529203741d    3
 2016-05-29-2037-40M.COL___316                                                 6
 STAT SP IPHASW D HRMM SECON CODA AMPLIT PERI AZIMU VELO AIN AR TRES W  DIS CAZ7
 BAR2 EZ ES       2042 29.77                             171   -0.5710 23.8 197 
 BAR2 EZ I        2042 31.27        19.1 0.28            168           23.8 197 
 BRR  HZ EP       2042 16.55                             152    0.1910 73.7 298 
 BRR  HE ES       2042 33.82                             152    0.6110 73.7 298 
 BRR  HZ I        2042 42.01        10.7 0.30            148           73.7 298 
 PAM  EZ EP       2042 17.54                             152    0.3510 75.8  38 
 PAM  EE ES       2042 34.63                             152   -0.0610 75.8  38 
 PAM  EZ I        2042 36.90         9.7 0.52            156           75.8  38 
 RUS  HZ EP       2042 18.71                             144   -0.0610  100 178 
 RUS  HE ES       2042 37.61                             144    0.1010  100 178 
 RUS  HZ I        2042 38.42         5.8 0.20            148            100 178 
 PTB  HZ EP       2042 21.82                             132   -0.38 9  150 259 
 PTB  HE ES       2042 43.10                             132   -0.51 9  150 259 
 PTB  HZ I        2042 49.16         7.5 0.36            131            150 259 
 SPBC HZ EP       2042 23.29                             129   -0.34 9  165 220 
 SPBC HE ES       2042 46.45                             129    0.29 9  165 220 
 SPBC HZ I        2042 50.15        14.2 0.18            130            165 220 
 NOR  HZ EP       2042 30.78                             119   -0.10 8  237 235 
 NOR  HE ES       2042 59.17                             119    0.11 8  237 235 
 NOR  HZ I        2043  8.08         4.7 0.14            120            237 235 
 PRA  HZ EP       2042 48.18                             107   -0.34 6  393 210 
 PRA  HE ES       2043 31.58                             107    1.12 6  393 210 
 PRA  HZ I        2043 36.80         5.4 0.70            109            393 210 
 SJC  HZ EP   4   2042 48.67                             106   -1.93 0  411 327 
 SJC  HN ES   4   2043 31.32                             106   -2.84 0  411 327 
 SJC  HZ I        2043 36.52         1.6 0.58            107            411 327 
                                                                                
