 2016  929 2229 27.7 L   6.983 -73.522107.1  RSN  7 0.4 1.6LRSN                1
 GAP=123        0.93       4.6     3.9  6.3  0.3440E+01  0.1654E+01 -0.1033E+01E
 Epicentro: SAN VICENTE DE CHUCURI - SANTANDER                                 3
 ACTION:UPD 17-08-17 21:17 OP:lp   STATUS:               ID:20160929222927 L   I
 OLDACT:UP  16-09-30 06:05 OP:and  STATUS:               ID:20160929222748     3
 OLDACT:UP  16-09-30 06:01 OP:and  STATUS:               ID:20160929222748     3
 OLDACT:REG 16-09-30 03:11 OP:and  STATUS:               ID:20160929222748     3
 2016-09-29-2228-00M.COL___369                                                 6
 STAT SP IPHASW D HRMM SECON CODA AMPLIT PERI AZIMU VELO AIN AR TRES W  DIS CAZ7
 BRR  HZ EP       2229 42.34                             166   -0.0910 25.0 303 
 BRR  HN ES       2229 54.02                             166    0.1310 25.0 303 
 BRR  HZ I        2229 54.68        18.0 0.15            165           25.0 303 
 BAR2 EZ EP       2229 44.40                             150    0.1210 57.3 139 
 BAR2 EZ ES       2229 57.47                             150    0.2910 57.3 139 
 BAR2 EZ I        2229 58.89        15.9 0.22            152           57.3 139 
 PAM  EZ EP       2229 47.74                             134   -0.0510 99.1  67 
 PAM  EN ES   3   2230  2.50                             134   -0.93 2 99.1  67 
 PAM  EZ I        2230  6.47         7.4 0.22            136           99.1  67 
 PTB  HZ EP       2229 47.93                             130   -0.6110  114 245 
 PTB  HN ES       2230  4.47                             130   -0.2910  114 245 
 PTB  HZ I        2230  7.77         6.0 0.17            131            114 245 
 RUS  HZ EP       2229 50.79                             126    0.1010  130 158 
 RUS  HN ES       2230  8.19                             126   -0.4110  130 158 
 RUS  HZ I        2230 11.32         4.6 0.24            128            130 158 
 ZAR  HZ EP       2229 53.64                             119    0.71 9  158 291 
 ZAR  HN ES   4   2230 14.18                             119    1.61 0  158 291 
 ZAR  HZ I        2230 16.16        11.7 0.24            121            158 291 
 SPBC HZ EP   4   2229 55.91                             120    2.73 0  159 202 
 SPBC HN ES   2   2230 14.00                             120    0.98 5  159 202 
                                                                                
