 2012  529 2216 34.6 L   6.800 -73.196134.8  RSN  5 0.2 1.4LRSN                1
 GAP=130        0.56       4.0     3.6  6.9  0.6727E+00  0.1055E+02 -0.4068E+00E
 Epicentro: ZAPATOCA - SANTANDER                                               3
 ACTION:UP  12-07-05 12:08 OP:pat  STATUS:               ID:20120529221634 L   I
 2012-05-29-2210-00M.COL___201                                                 6
 STAT SP IPHASW D HRMM SECON CODA AMPLIT PERI AZIMU VELO AIN AR TRES W  DIS CAZ7
 BAR2 SZ ES   1   2217  6.84                             170    -0.3 7   23 176 
 PAM  SZ EP   2   2216 55.96                             147     0.1 5   81  43 
 PAM  SN ES   1   2217 12.58                             147     0.1 7   81  43 
 RUS  HZ EP   1   2216 57.21                             141    -0.1 7  101 173 
 RUS  HN ES   1   2217 15.47                             141     0.4 7  101 173 
 RUS  HZ I        2217 16.62         4.5 0.20                           101 173 
 PTB  HZ EP   1   2216 59.96                             130    -0.2 7  142 258 
 PTB  HN ES   1   2217 20.08                             130    -0.1 7  142 258 
 PTB  HZ I        2217 23.06         3.8 0.14                           142 258 
 ZAR  HN ES   1   2217 30.48                             121     0.3 6  199 293 
                                                                                
