 2014 1029 2048 21.1 L   6.792 -73.150139.4  RSN  4 0.5 1.3LRSN                1
 GAP=140        1.24       7.3     7.3 10.6 -0.1679E+02  0.2306E+02 -0.7422E+01E
 Epicentro: LOS SANTOS - SANTANDER                                             3
 ACTION:UPD 14-11-29 23:58 OP:nd   STATUS:               ID:20141029204821 L   I
 OLDACT:ARG 14-10-31 14:09 OP:stll STATUS:               ID:20141029203740     3
 2014-10-29-2037-40M.COL___280                                                 6
 STAT SP IPHASW D HRMM SECON CODA AMPLIT PERI AZIMU VELO AIN AR TRES W  DIS CAZ7
 BAR2 SZ ES       2048 54.05                             170   -0.6210 22.4 189 
 BAR2 SZ I        2048 56.39         5.6 0.16            168           22.4 189 
 PAM  SZ EP       2048 43.00                             149    0.2710 78.4  39 
 PAM  SZ I        2048 43.27         6.0 0.24            152           78.4  39 
 PAM  SN ES       2048 59.71                             149    0.1410 78.4  39 
 RUS  HZ EP       2048 43.46                             143   -0.7310 99.8 176 
 RUS  HN ES       2049  2.92                             143    0.7310 99.8 176 
 RUS  HZ I        2049  5.49         1.9 0.28            142           99.8 176 
 PTB  HZ EP       2048 47.63                             131    0.11 9  147 259 
 PTB  HN ES       2049  8.23                             131    0.13 9  147 259 
 PTB  HZ I        2049  9.21         3.1 0.42            132            147 259 
                                                                                
