 2011 1129 2307 15.5 L   6.781 -73.116138.8  RSN  4 0.1 1.7LRSN                1
 GAP=141        0.37       2.5     3.7  3.9 -0.6892E+00 -0.1989E+01 -0.1884E+00E
 Epicentro: LOS SANTOS - SANTANDER                                             3
 ACTION:UPD 12-07-13 16:13 OP:ep   STATUS:               ID:20111129230715 L   I
 2011-11-29-2304-18S.COL___158                                                 6
 STAT SP IPHASW D HRMM SECON CODA AMPLIT PERI AZIMU VELO AIN AR TRES W  DIS CAZ7
 BAR2 SZ EP   1   23 7 34.26                             170    0.02 7 22.1 199 
 BAR2 SZ ES   1   23 7 48.73                             170   -0.15 7 22.1 199 
 BAR2 SZ I        23 7 50.17        18.2 0.28                          22.1 199 
 BRR  HZ EP   1   23 7 35.83                             150   -0.28 7 75.1 299 
 BRR  HN ES   1   23 7 52.39                             150    0.19 7 75.1 299 
 PAM  SZ EP       23 7 37.01                             150    0.0810 77.0  37 
 PAM  SZ I        23 7 37.19         8.3 0.15                          77.0  37 
 PAM  SN ES   1   23 7 53.63                             150   -0.04 7 77.0  37 
 RUS  HZ EP   1   23 7 38.47                             143    0.09 7 98.3 178 
 RUS  HN ES   1   23 7 56.26                             143    0.02 7 98.3 178 
 RUS  HZ I        23 7 57.76         5.1 0.28                          98.3 178 
                                                                                
