 2014 1029 2259 24.4 L   6.810 -73.185144.4  RSN  6 0.4 1.4LRSN                1
 GAP=131        0.98       4.6     4.8  6.7 -0.5481E+01  0.4314E+01  0.3495E+01E
 Epicentro: ZAPATOCA - SANTANDER                                               3
 ACTION:UPD 14-11-29 23:58 OP:nd   STATUS:               ID:20141029225924 L   I
 OLDACT:ARG 14-10-31 14:10 OP:stll STATUS:               ID:20141029225748     3
 2014-10-29-2257-48M.COL___271                                                 6
 STAT SP IPHASW D HRMM SECON CODA AMPLIT PERI AZIMU VELO AIN AR TRES W  DIS CAZ7
 BAR2 SZ EP       2259 43.71                             170   -0.1710 24.1 179 
 BAR2 SZ ES       2259 58.81                             170   -0.2610 24.1 179 
 BAR2 SZ I        23 0  0.09         5.1 0.20            167           24.1 179 
 BRR  HZ EP       2259 45.53                             154    0.3710 66.9 299 
 BRR  HN ES       23 0  1.69                             154    0.3410 66.9 299 
 PAM  SZ EP       2259 46.71                             150    0.1210 79.4  42 
 PAM  SZ I        2259 46.77         5.0 0.16            154           79.4  42 
 PAM  SN ES       23 0  3.93                             150    0.0310 79.4  42 
 RUS  HZ EP       2259 47.81                             143   -0.3110  102 174 
 RUS  HN ES       23 0  6.57                             143   -0.0610  102 174 
 RUS  HZ I        23 0  8.38         2.6 0.28            142            102 174 
 PTB  HZ EP       2259 50.69                             132   -0.20 9  144 258 
 PTB  HN ES       23 0 10.81                             132   -0.74 9  144 258 
 PTB  HZ I        23 0 13.53         3.8 0.44            132            144 258 
 SPBC HZ EP       2259 52.70                             129    0.08 9  161 218 
 SPBC HN ES       23 0 15.46                             129    0.83 9  161 218 
 SPBC HZ I        23 0 21.60         5.2 0.34            128            161 218 
                                                                                
