 2015  429 2259 43.0 L   6.181 -73.887 94.0  RSN  7 0.4 1.6LRSN                1
 GAP= 90        0.88       3.1     3.2  7.4 -0.1414E+01  0.3448E+01 -0.6303E+01E
 Epicentro: LANDAZURI - SANTANDER                                              3
 ACTION:UPD 15-06-03 16:58 OP:cam  STATUS:               ID:20150429225943 L   I
 OLDACT:REG 15-04-30 02:54 OP:spq  STATUS:               ID:20150429225747     3
 2015-04-29-2257-47M.COL___271                                                 6
 STAT SP IPHASW D HRMM SECON CODA AMPLIT PERI AZIMU VELO AIN AR TRES W  DIS CAZ7
 SPBC HZ EP       2259 58.56                             144    0.3010 62.0 199 
 SPBC HE ES       23 0 10.76                             144    0.5710 62.0 199 
 SPBC HZ I        23 0 12.45        27.7 0.16            148           62.0 199 
 PTB  HZ EP       2259 58.69                             139   -0.4210 74.4 302 
 PTB  HN ES   1   23 0 11.00                             139   -0.71 7 74.4 302 
 PTB  HZ I        23 0 14.64        11.1 0.16            140           74.4 302 
 BAR2 EZ EP       23 0  0.92                             133    0.1410 90.3  60 
 BAR2 EZ ES   1   23 0 14.45                             133   -0.23 7 90.3  60 
 BAR2 EZ I        23 0 16.22        27.5 0.20            138           90.3  60 
 RUS  HZ EP   1   23 0  1.04                             132   -0.48 7 94.6 110 
 RUS  HE ES   1   23 0 15.62                             132   -0.37 7 94.6 110 
 RUS  HZ I        23 0 16.63         2.9 0.20            138           94.6 110 
 BRR  HZ EP       23 0  1.72                             129   -0.0510  104  11 
 BRR  HN ES       23 0 16.82                             129    0.3810  104  11 
 BRR  HZ I        23 0 17.97        14.5 0.12            132            104  11 
 NOR  HZ EP   1   23 0  4.22                             122   -0.06 7  128 238 
 NOR  HN ES   1   23 0 20.52                             122   -0.39 7  128 238 
 NOR  HZ I        23 0 24.07         5.4 0.14            125            128 238 
 ZAR  HZ EP       23 0 10.18                             113    0.25 9  180 324 
 ZAR  HE ES   1   23 0 31.27                             113    0.31 7  180 324 
 ZAR  HZ I        23 0 33.66         5.5 0.26            115            180 324 
                                                                                
