 2013  629 2248 18.1 L   6.782 -73.160150.6  RSN  5 0.4 1.6LRSN                1
 GAP=234        0.78       5.0     6.9  6.4  0.1251E+02  0.1191E+02  0.7267E+01E
 Epicentro: LOS SANTOS - SANTANDER                                             3
 ACTION:UPD 14-01-08 09:58 OP:ep   STATUS:               ID:20130629224818 L   I
 OLDACT:UP  13-06-30 05:26 OP:cam  STATUS:               ID:20130629223959     3
 OLDACT:REG 13-06-30 04:55 OP:cam  STATUS:               ID:20130629223959     3
 2013-06-29-2239-59M.COL___266                                                 6
 STAT SP IPHASW D HRMM SECON CODA AMPLIT PERI AZIMU VELO AIN AR TRES W  DIS CAZ7
 BAR2 SZ EP       2248 38.16                             172   -0.1310 21.1 187 
 BAR2 SZ ES       2248 53.74                             172   -0.2810 21.1 187 
 BRR  HZ EP   1   2248 40.02                             153    0.25 7 70.8 301 
 BRR  HN ES   1   2248 57.47                             153    0.81 7 70.8 301 
 RUS  HZ EP   1   2248 42.10                             145   -0.12 7 98.7 175 
 RUS  HN ES       2249  1.02                             145    0.0110 98.7 175 
 RUS  HZ I        2249  3.51         6.5 0.40            142           98.7 175 
 PTB  HZ EP       2248 44.97                             133   -0.34 9  146 259 
 PTB  HN ES   1   2249  6.13                             133   -0.39 7  146 259 
 PTB  HZ I        2249  8.15         7.6 0.38            132            146 259 
 CHI  HZ EP   1   2248 56.32                             118    0.48 6  246 195 
 CHI  HN ES       2249 25.54                             118    0.29 8  246 195 
 CHI  HZ I        2249 30.92         2.3 0.26            117            246 195 
                                                                                
