 2011 1029 2326 55.1 L   6.794 -73.074141.8  RSN  4 0.1 1.3LRSN                1
 GAP=146        0.30       3.4     3.9  5.1  0.3900E+01 -0.2490E+01  0.5129E+01E
 Epicentro: LOS SANTOS - SANTANDER                                             3
 ACTION:UPD 12-07-13 16:06 OP:ep   STATUS:               ID:20111029232655 L   I
 2011-10-29-2325-46S.COL___157                                                 6
 STAT SP IPHASW D HRMM SECON CODA AMPLIT PERI AZIMU VELO AIN AR TRES W  DIS CAZ7
 BAR2 SZ EP   2   2327 14.17                             169   -0.10 5 25.4 208 
 BAR2 SZ I        2327 29.87         3.5 0.38                          25.4 208 
 PAM  SN ES   2   2327 33.42                             151    0.01 5 73.1  34 
 BRR  HZ EP   1   2327 16.29                             149    0.06 7 78.6 296 
 BRR  HN ES       2327 32.72                             149   -0.0210 78.6 296 
 BRR  HZ I        2327 34.61         5.9 0.49                          78.6 296 
 RUS  HZ EP   2   2327 18.35                             143   -0.02 5 99.7 181 
 RUS  HE ES   2   2327 36.60                             143    0.05 5 99.7 181 
 RUS  HZ I        2327 38.18         2.7 0.19                          99.7 181 
                                                                                
