 2015 1029 2015 12.3 L   6.777 -73.154141.7  RSN  8 0.4 1.9LRSN                1
 GAP=137        0.95       3.7     4.2  6.1 -0.9099E+00  0.8508E+01  0.6863E+01E
 Epicentro: LOS SANTOS - SANTANDER                                             3
 ACTION:UPD 15-12-22 20:43 OP:cam  STATUS:               ID:20151029201512 L   I
 OLDACT:UP  15-10-30 06:30 OP:drio STATUS:               ID:20151029200748     3
 OLDACT:REG 15-10-30 05:04 OP:drio STATUS:               ID:20151029200748     3
 2015-10-29-2007-48M.COL___319                                                 6
 STAT SP IPHASW D HRMM SECON CODA AMPLIT PERI AZIMU VELO AIN AR TRES W  DIS CAZ7
 BAR2 EZ EP       2015 31.14                             171   -0.2510 20.6 189 
 BAR2 EZ ES       2015 46.03                             171   -0.2410 20.6 189 
 BAR2 EZ I        2015 47.28        16.8 0.34            168           20.6 189 
 BRR  HZ EP       2015 33.11                             152    0.0710 71.6 301 
 BRR  HE ES       2015 49.41                             152    0.2010 71.6 301 
 PAM  EZ EP       2015 34.00                             149   -0.2510 80.0  39 
 PAM  EE ES       2015 51.41                             149    0.0510 80.0  39 
 PAM  EZ I        2015 53.40         9.2 0.46            154           80.0  39 
 RUS  HZ EP       2015 35.33                             144   -0.1410 98.1 175 
 RUS  HE ES       2015 54.20                             144    0.6610 98.1 175 
 RUS  HZ I        2015 56.76         9.3 0.40            143           98.1 175 
 ZAR  HN ES       2016  9.53                             122   -0.08 9  204 293 
 ZAR  HZ I        2016 16.37         9.7 0.30            122            204 293 
 NOR  HZ EP       2015 47.63                             118    0.08 8  232 235 
 NOR  HE ES       2016 14.37                             118   -0.68 8  232 235 
 NOR  HZ I        2016 20.70         7.5 0.52            118            232 235 
 CHI  HZ EP       2015 49.19                             117   -0.29 8  246 195 
 CHI  HN ES       2016 18.22                             117   -0.25 8  246 195 
 CHI  HZ I        2016 28.36         3.5 0.34            117            246 195 
 GUY2CHZ EP       2015 56.66                             112    1.19 7  299 235 
 GUY2CHN ES       2016 29.28                             112    0.14 7  299 235 
 GUY2CHZ I        2016 39.98         4.4 0.52                           299 235 
                                                                                
