 2014  629 2122 33.5 L   7.110 -74.270 63.4  RSN  8 0.4 1.8LRSN                1
 GAP=133        0.85       3.3     3.0  7.2 -0.4547E+01  0.4860E+01 -0.8304E+01E
 Epicentro: BARRANCABERMEJA - SANTANDER                                        3
 ACTION:UPD 14-07-01 22:57 OP:nd   STATUS:               ID:20140629212233 L   I
 OLDACT:UP  14-06-30 05:41 OP:mh   STATUS:               ID:20140629211818     3
 OLDACT:REG 14-06-30 02:33 OP:mh   STATUS:               ID:20140629211818     3
 2014-06-29-2118-18M.COL___251                                                 6
 STAT SP IPHASW D HRMM SECON CODA AMPLIT PERI AZIMU VELO AIN AR TRES W  DIS CAZ7
 BRR  HZ EP       2122 45.88                             130    0.0510 61.6  90 
 BRR  HN ES       2122 55.56                             130    0.1010 61.6  90 
 PTB  HZ EP       2122 46.21                             128   -0.1010 66.4 198 
 PTB  HN ES       2122 56.14                             128   -0.1710 66.4 198 
 PTB  HZ I        2122 57.31        31.4 0.09             99           66.4 198 
 BAR2 SZ EP       2122 54.04                             108    0.0910  133 115 
 BAR2 SZ ES   1   2123 10.38                             108    0.47 7  133 115 
 BAR2 SZ I        2123 13.07        13.6 0.38             61            133 115 
 OCA  HN ES   1   2123 15.13                             104   -0.91 7  163  40 
 HEL  HZ EP       2122 59.04                             103    0.26 9  172 234 
 HEL  HN ES   1   2123 18.57                             103    0.06 7  172 234 
 HEL  HZ I        2123 23.79         6.5 0.06             61            172 234 
 PAM  SZ EP   1   2122 59.68                             103    0.40 7  175  82 
 PAM  SN ES   1   2123 19.36                             103   -0.03 7  175  82 
 RUS  HZ EP       2123  0.44                             102   -0.38 9  188 136 
 RUS  HE ES   4   2123 22.72                             102    0.59 0  188 136 
 RUS  HZ I        2123 26.61         4.4 0.24             61            188 136 
 SML  HZ EP   1   2122 59.61                             101   -0.63 7  188   7 
 SML  HN ES   1   2123 22.02                             101    0.91 7  188   7 
 SML  HZ I        2123 23.46        29.8 0.18             61            188   7 
 GUY2CHZ EP   4   2123  8.92                              98    1.65 0  241 210 
 GUY2CHN ES   4   2123 35.54                              98    1.93 0  241 210 
                                                                                
