 2016 1229 2051 59.0 L   6.777 -73.168137.9  RSN 10 0.4 2.0LRSN                1
 GAP=135        0.99       3.6     3.8  5.7 -0.4405E+00  0.7228E+01  0.4733E+01E
 Epicentro: LOS SANTOS - SANTANDER                                             3
 ACTION:UPD 17-01-11 20:20 OP:rebc STATUS:               ID:20161229205159 L   I
 OLDACT:REG 16-12-30 02:37 OP:cara STATUS:               ID:20161229204743     3
 2016-12-29-2048-00M.COL___382                                                 6
 STAT SP IPHASW D HRMM SECON CODA AMPLIT PERI AZIMU VELO AIN AR TRES W  DIS CAZ7
 BAR2 EZ EP       2052 17.27                             171   -0.4010 20.5 184 
 BAR2 EZ ES       2052 32.26                             171    0.0710 20.5 184 
 BAR2 EZ I        2052 35.32        48.5 0.30            171           20.5 184 
 BRR  HZ EP       2052 19.46                             151    0.1710 70.3 301 
 BRR  HN ES       2052 35.15                             151    0.0710 70.3 301 
 BRR  HZ I        2052 38.88        27.0 0.18            151           70.3 301 
 PAM  EZ IP     C 2052 20.47                             148   -0.1810 81.0  40 
 PAM  EN ES       2052 37.54                             148    0.0410 81.0  40 
 PAM  EZ I        2052 40.57        13.0 0.34            152           81.0  40 
 RUS  HZ EP       2052 21.49                             143   -0.3610 98.2 174 
 RUS  HN ES       2052 40.20                             143    0.5610 98.2 174 
 RUS  HZ I        2052 41.40        16.2 0.38            145           98.2 174 
 PTB  HZ EP       2052 24.46                             131   -0.64 9  145 260 
 PTB  HN ES       2052 44.99                             131   -0.44 9  145 260 
 PTB  HZ I        2052 47.89        11.2 0.12            131            145 260 
 ZAR  HZ EP       2052 31.95                             121    1.10 9  203 293 
 ZAR  HN ES       2052 55.61                             121   -0.04 9  203 293 
 ZAR  HZ I        2053  0.70        14.3 0.24            122            203 293 
 NOR  HZ EP       2052 33.75                             117   -0.19 8  231 235 
 NOR  HN ES       2053  1.24                             117    0.08 8  231 235 
 NOR  HZ I        2053  9.39         8.3 0.18            118            231 235 
 CHI  HZ EP       2052 35.79                             116   -0.18 8  246 195 
 CHI  HN ES       2053  4.84                             116    0.07 8  246 195 
 CHI  HZ I        2053 11.26         6.5 0.36            117            246 195 
 GUY2CHZ EP       2052 42.52                             111    0.63 7  298 235 
 GUY2CHE ES       2053 15.37                             111    0.05 7  298 235 
 GUY2CHZ I        2053 23.91         7.1 0.64                           298 235 
 SJC  HZ EP   4   2052 51.70                             104   -2.75 0  410 327 
 SJC  HN ES   4   2053 31.02                             104   -6.65 0  410 327 
 SJC  HZ I        2053 44.90         2.6 0.32            106            410 327 
                                                                                
