 2015 1229 2303 37.9 L   6.780 -73.111148.4  RSN 12 0.3 2.3LRSN                1
 GAP=142        0.75       2.6     2.9  3.9 -0.4949E+00  0.3345E+01  0.2311E+01E
 Epicentro: LOS SANTOS - SANTANDER                                             3
 ACTION:UPD 16-02-04 15:08 OP:cam  STATUS:               ID:20151229230337 L   I
 OLDACT:REG 15-12-30 03:40 OP:cara STATUS:               ID:20151229225748     3
 2015-12-29-2257-48M.COL___334                                                 6
 STAT SP IPHASW D HRMM SECON CODA AMPLIT PERI AZIMU VELO AIN AR TRES W  DIS CAZ7
 BAR2 EZ IP     D 23 3 57.79                             171   -0.0810 22.2 201 
 BAR2 EZ ES       23 4 13.57                             171    0.1610 22.2 201 
 BAR2 EZ I        23 4 15.37        22.5 0.38            167           22.2 201 
 BRR  HZ IP       23 3 59.51                             151   -0.1210 75.6 299 
 BRR  HN ES       23 4 16.95                             151    0.4010 75.6 299 
 BRR  HZ I        23 4 22.14        35.8 0.46            151           75.6 299 
 PAM  EZ IP       23 4  0.74                             151    0.3310 76.7  36 
 PAM  EN ES       23 4 17.77                             151   -0.1510 76.7  36 
 PAM  EZ I        23 4 20.04        26.9 0.48            158           76.7  36 
 RUS  HZ IP     C 23 4  1.87                             145    0.0810 98.2 178 
 RUS  HN ES       23 4 20.11                             145   -0.2810 98.2 178 
 PTB  HZ IP     D 23 4  4.88                             132   -0.56 9  151 260 
 PTB  HE ES       23 4 26.52                             132   -0.36 9  151 260 
 PTB  HZ I        23 4 31.69        30.4 0.26            132            151 260 
 SPBC HZ IP     C 23 4  6.87                             129    0.15 9  164 221 
 SPBC HN ES       23 4 29.28                             129    0.11 9  164 221 
 SPBC HZ I        23 4 35.94        45.4 0.32            130            164 221 
 ZAR  HZ EP       23 4 10.51                             122   -0.51 8  208 292 
 ZAR  HN ES       23 4 36.83                             122    0.02 8  208 292 
 ZAR  HZ I        23 4 42.35        28.1 0.54            124            208 292 
 NOR  HZ IP     C 23 4 14.15                             119    0.12 8  237 235 
 NOR  HN ES       23 4 42.09                             119   -0.09 8  237 235 
 NOR  HZ I        23 4 45.55        19.1 0.18            120            237 235 
 CHI  HZ IP       23 4 16.22                             118    0.54 8  248 196 
 CHI  HN ES       23 4 44.66                             118   -0.44 8  248 196 
 CHI  HZ I        23 4 52.97         6.3 0.30            120            248 196 
 HEL  HZ EP       23 4 19.02                             115    0.37 8  275 256 
 HEL  HE ES       23 4 50.77                             115    0.37 8  275 256 
 HEL  HZ I        23 4 57.51         7.1 0.26            116            275 256 
 GUY2CHZ EP       23 4 21.82                             113   -0.07 7  303 236 
 GUY2CHN ES   4   23 4 57.49                             113    1.32 0  303 236 
 GUY2CHZ I        23 5  5.05        11.1 0.62                           303 236 
 PRA  HZ EP       23 4 31.24                             107   -0.32 6  392 210 
 PRA  HE ES       23 5 14.04                             107    0.66 6  392 210 
 PRA  HZ I        23 5 21.29         6.5 0.26            109            392 210 
                                                                                
