 2010  829 2245 58.0 L   6.779 -73.104148.4  RSN  5 0.3 2.1LRSN                1
 GAP=188        0.64       4.4     7.7  5.2 -0.1819E+02  0.7909E+00 -0.1694E+01E
 Epicentro: LOS SANTOS - SANTANDER                                             3
 ACTION:UP  10-09-07 10:59 OP:vdl  STATUS:               ID:20100829224558 L   I
 2010-08-29-2244-36S.COL___120                                                 6
 STAT SP IPHASW D HRMM SECON CODA AMPLIT PERI AZIMU VELO SNR AR TRES W  DIS CAZ7
 BAR2 SZ EP   2   2246 17.91                             171     0.0 5   23 203 
 BAR2 SZ ES       2246 33.35                             171    -0.110   23 203 
 BAR2 SZ I        2246 35.02        18.7 0.16                            23 203 
 BRR  HZ EP       2246 19.84                             151     0.210   76 298 
 BRR  HE ES   1   2246 36.67                             151     0.0 7   76 298 
 BRR  HZ I        2246 38.27        24.3 0.13                            76 298 
 GRA  SZ IP       2246 23.59                             137     0.110  127  15 
 GRA  SZ I        2246 24.89        16.1 0.20                           127  15 
 GRA  SZ ES       2246 43.36                             137    -0.110  127  15 
 OCA  SZ EP   1   2246 26.25                             129    -0.5 7  163 352 
 OCA  SZ ES   2   2246 49.39                             129     0.2 5  163 352 
 OCA  SZ I        2246 51.21         8.2 0.44                           163 352 
 PRA  HZ EP   1   2246 52.37                             107     0.8 4  392 210 
 PRA  HN ES   2   2247 32.53                             107    -0.9 3  392 210 
 PRA  HZ I        2247 42.19         7.1 0.25                           392 210 
                                                                                
