 2016  729 2319  4.0 L   6.780 -73.146143.9  RSN 12 0.4 2.2LRSN                1
 GAP=137        0.96       3.5     3.8  5.3 -0.2609E+01  0.5627E+01  0.2323E+01E
 Epicentro: LOS SANTOS - SANTANDER                                             3
 ACTION:UPD 17-03-29 16:56 OP:lp   STATUS:               ID:20160729231904 L   I
 OLDACT:REG 16-07-30 03:04 OP:lv   STATUS:               ID:20160729231759     3
 2016-07-29-2317-59S.COL___343                                                 6
 STAT SP IPHASW D HRMM SECON CODA AMPLIT PERI AZIMU VELO AIN AR TRES W  DIS CAZ7
 BAR2 EZ EP       2319 23.32                             171   -0.0410 21.2 191 
 BAR2 EZ ES       2319 38.46                             171    0.0010 21.2 191 
 BAR2 EZ I        2319 41.10        51.3 0.31            169           21.2 191 
 BRR  HZ IP     C 2319 25.08                             152    0.0810 72.2 300 
 BRR  HN ES       2319 42.19                             152    0.8110 72.2 300 
 BRR  HZ I        2319 46.17        28.2 0.26            149           72.2 300 
 PAM  EZ EP       2319 26.18                             150    0.0710 79.1  39 
 PAM  EN ES       2319 42.59                             150   -0.7810 79.1  39 
 PAM  EZ I        2319 46.03        12.7 0.37            155           79.1  39 
 RUS  HZ EP       2319 27.50                             144    0.0910 98.4 176 
 RUS  HE ES       2319 45.97                             144    0.3010 98.4 176 
 RUS  HZ I        2319 47.33        20.3 0.34            146           98.4 176 
 PTB  HZ EP       2319 30.71                             132   -0.06 9  147 260 
 PTB  HE ES       2319 51.34                             132   -0.31 9  147 260 
 PTB  HZ I        2319 57.42        10.1 0.18            131            147 260 
 SPBC HZ EP       2319 32.36                             129    0.17 9  161 219 
 SPBC HN ES       2319 54.01                             129   -0.17 9  161 219 
 SPBC HZ I        2319 59.18        21.6 0.16            129            161 219 
 ZAR  HZ EP       2319 37.25                             122    0.85 9  205 293 
 ZAR  HN ES       2320  1.09                             122   -0.58 9  205 293 
 ZAR  HZ I        2320  7.21        12.8 0.21            122            205 293 
 NOR  HZ EP       2319 39.19                             118   -0.29 8  233 235 
 NOR  HE ES       2320  7.28                             118    0.13 8  233 235 
 NOR  HZ I        2320 12.85        10.5 0.18            119            233 235 
 ROSC BZ EP   9   2319 43.91                             116    2.10 0  251 211 
 ROSC BN ES       2320 13.31                                   -0.09 8  251 211 
 ROSC BZ I        2320 18.10        22.9 0.40            118            251 211 
 URE  HZ EP   4   2319 47.93                             113    2.87 0  285 292 
 URE  HE ES   4   2320 15.91                             113   -1.18 0  285 292 
 URE  HZ I        2320 24.71         9.0 0.20            114            285 292 
 GUY2CHZ EP   4   2319 48.55                             112    1.18 0  300 235 
 GUY2CHN ES       2320 20.79                             112   -0.41 7  300 235 
 GUY2CHZ I        2320 29.53         8.7 0.34                           300 235 
 PRA  HZ EP       2319 57.13                             106   -0.10 6  390 210 
 PRA  HN ES       2320 38.50                             106   -0.25 6  390 210 
 PRA  HZ I        2320 45.51        10.8 0.40            108            390 210 
 SJC  HZ EP   4   2319 57.51                             105   -2.19 0  411 327 
 SJC  HN ES   4   2320 38.28                             105   -4.88 0  411 327 
                                                                                
