 2012  429 2315 19.5 L   6.795 -73.090146.1  RSN  4 0.2 1.2LRSN                1
 GAP=144        0.54       3.8     5.6  5.8 -0.1750E+01 -0.4582E+01 -0.5742E+00E
 Epicentro: LOS SANTOS - SANTANDER                                             3
 ACTION:UPD 12-07-05 11:56 OP:tino STATUS:               ID:20120429231519 L   I
 2012-04-29-2310-00M.COL___189                                                 6
 STAT SP IPHASW D HRMM SECON CODA AMPLIT PERI AZIMU VELO AIN AR TRES W  DIS CAZ7
 BAR2 SZ EP   2   2315 39.63                             170     0.4 5   25 204 
 BAR2 SZ ES   1   2315 54.85                             170     0.3 7   25 204 
 BAR2 SZ I        2315 56.52         4.0 0.27                            25 204 
 PAM  SZ EP       2315 41.70                             152     0.210   74  36 
 PAM  SE ES   1   2315 58.50                             152    -0.2 7   74  36 
 BRR  HZ EP   1   2315 40.86                             151    -0.1 7   77 297 
 BRR  HE ES   1   2315 57.71                             151    -0.1 7   77 297 
 BRR  HZ I        2316  7.11         4.1 0.36                            77 297 
 RUS  HZ EP   1   2315 43.05                             144    -0.2 7  100 180 
 RUS  HN ES   1   2316  1.57                             144    -0.2 7  100 180 
 RUS  HZ I        2316  3.00         1.7 0.42                           100 180 
                                                                                
