 2010  629 2342 41.1 L   6.783 -73.052146.4  RSN  9 0.4 2.8LRSN                1
 GAP=133        0.86       3.6     6.1  5.8 -0.5499E+01 -0.6925E+01 -0.2066E+00E
 Epicentro: LOS SANTOS - SANTANDER                                             3
 ACTION:UP  10-08-24 10:14 OP:vdl  STATUS:               ID:20100629234241 L   I
 2010-06-29-2341-37S.COL___118                                                 6
 STAT SP IPHASW D HRMM SECON CODA AMPLIT PERI AZIMU VELO SNR AR TRES W  DIS CAZ7
 BAR2 SZ EP       2343  0.85                             170     0.010   26 215 
 BAR2 SZ ES   1   2343 16.21                             170     0.0 7   26 215 
 BRR  HZ IP       2343  2.68                             149    -0.210   81 296 
 BRR  HZ I        2343  2.99       340.5 0.06                            81 296 
 BRR  HN ES       2343 20.03                             149     0.110   81 296 
 RUS  HZ EP       2343  4.69                             144     0.010   99 182 
 RUS  HN ES   1   2343 22.98                             144    -0.2 7   99 182 
 RUS  HZ I        2343 24.83        88.1 0.62                            99 182 
 GUE  SZ EP       2343  5.74                             139    -0.110  117   7 
 GRA  SZ IP       2343  6.66                             137     0.410  125  13 
 GRA  SZ ES   1   2343 26.65                             137     0.7 7  125  13 
 OCA  SZ EP       2343  9.30                             129    -0.5 9  164 350 
 OCA  SZ ES   1   2343 31.58                             129    -0.5 7  164 350 
 OCA  SZ I        2343 37.29        73.5 0.26                           164 350 
 HEL  HZ EP   1   2343 23.01                             114     0.6 6  282 257 
 HEL  HZ I        2343 59.51        33.4 0.13                           282 257 
 TOL  SZ EP       2343 30.58                             109     0.5 6  350 226 
 TOL  SZ ES   2   2344  7.35                             109    -0.9 3  350 226 
 SDV  BZ EP       2343 30.25                             109    -0.1 6  354  49 
 SDV  BZ I        2344 11.99         8.2 0.48                           354  49 
                                                                                
