 2014  929 2233 50.7 L   6.773 -73.148143.3  RSN  9 0.3 1.7LRSN                1
 GAP=137        0.79       3.3     3.5  5.6  0.8629E+00  0.4047E+01  0.4122E+01E
 Epicentro: LOS SANTOS - SANTANDER                                             3
 ACTION:UPD 14-10-03 23:09 OP:nd   STATUS:               ID:20140929223350 L   I
 OLDACT:DUP 14-09-30 05:09 OP:spq  STATUS:               ID:20140929222820d    3
 2014-09-29-2228-19M.COL___298                                                 6
 STAT SP IPHASW D HRMM SECON CODA AMPLIT PERI AZIMU VELO AIN AR TRES W  DIS CAZ7
 BAR2 SZ EP   1   2234 10.05                             171    0.08 7 20.4 191 
 BAR2 SZ ES   1   2234 25.10                             171    0.10 7 20.4 191 
 BAR2 SZ I        2234 27.66         7.3 0.30            170           20.4 191 
 BRR  HZ EP     D 2234 12.01                             152    0.3610 72.4 301 
 BRR  HE ES       2234 28.36                             152    0.3710 72.4 301 
 BRR  HZ I        2234 33.34        10.0 0.51            150           72.4 301 
 PAM  SZ EP       2234 13.03                             150    0.2310 79.8  38 
 PAM  SN ES       2234 29.63                             150   -0.4110 79.8  38 
 PAM  SZ I        2234 32.25         5.7 0.21            153           79.8  38 
 RUS  HZ EP       2234 14.34                             144    0.3510 97.7 176 
 RUS  HN ES   1   2234 31.67                             144   -0.49 7 97.7 176 
 RUS  HZ I        2234 33.86         2.8 0.10            147           97.7 176 
 PTB  HZ EP       2234 16.97                             132   -0.42 9  147 260 
 PTB  HN ES       2234 38.31                             132    0.10 9  147 260 
 PTB  HZ I        2234 43.96         7.2 0.40            132            147 260 
 ZAR  HE ES       2234 47.89                             122   -0.43 9  205 293 
 ZAR  HZ I        2234 54.48         7.2 0.09            122            205 293 
 CHI  HZ EP   1   2234 27.36                             117   -0.58 6  246 195 
 CHI  HN ES   1   2234 57.00                             117    0.01 6  246 195 
 CHI  HZ I        2235  1.61         1.7 0.41            119            246 195 
 SML  HN ES   1   2234 55.92                             117   -0.22 6  246 336 
 SML  HZ I        2235  2.30         8.2 0.10            118            246 336 
 GUY2CHZ EP   1   2234 34.40                             112    0.43 5  299 235 
 GUY2CHN ES   4   2235  9.44                             112    1.71 0  299 235 
 GUY2CHZ I        2235 16.82         4.0 0.78                           299 235 
 TOL  SE ES   4   2235 17.71                             109    1.77 0  341 225 
                                                                                
