 2012  829 2255 54.0 L   6.719 -73.168145.5  RSN  6 0.3 1.7LRSN                1
 GAP=178        0.62       4.7     4.5  6.3  0.1193E+02 -0.1435E+01 -0.6484E+01E
 Epicentro: VILLANUEVA - SANTANDER                                             3
 ACTION:UPD 12-09-10 11:59 OP:ep   STATUS:               ID:20120829225554 L   I
 2012-08-29-2250-00M.COL___218                                                 6
 STAT SP IPHASW D HRMM SECON CODA AMPLIT PERI AZIMU VELO AIN AR TRES W  DIS CAZ7
 BAR2 SZ EP   1   2256 13.34                             174   -0.11 7 14.1 186 
 BAR2 SZ I        2256 30.67        11.5 0.16                          14.1 186 
 GIR2 SZ EP   1   2256 13.40                             164   -0.51 7 39.9 356 
 BRR  HZ EP   1   2256 15.31                             152    0.03 7 73.8 306 
 BRR  HN ES       2256 32.10                             152    0.2410 73.8 306 
 BRR  HZ I        2256 35.58        14.4 0.27                          73.8 306 
 RUS  HZ EP   1   2256 17.54                             146    0.42 7 91.9 174 
 RUS  HE ES       2256 35.11                             146   -0.0410 91.9 174 
 RUS  HZ I        2256 37.10         3.9 0.15                          91.9 174 
 PTB  HZ EP   1   2256 20.34                             133   -0.26 7  144 262 
 PTB  HN ES       2256 41.21                             133   -0.12 9  144 262 
 PTB  HZ I        2256 44.20         4.8 0.14                           144 262 
 ZAR  HZ EP   1   2256 27.12                             122    0.55 6  205 295 
 ZAR  HE ES       2256 51.84                             122   -0.12 8  205 295 
 ZAR  HZ I        2256 58.05         6.1 0.31                           205 295 
                                                                                
