 2011  530 0305 58.7 L   6.777 -73.092140.3  RSN  5 0.2 1.5LRSN                1
 GAP=162        0.54       2.8     5.9  5.5 -0.4161E+01 -0.7158E+01 -0.8514E+00E
 Epicentro: LOS SANTOS - SANTANDER                                             3
 ACTION:UP  11-06-29 08:57 OP:tino STATUS:               ID:20110530030558 L   I
 2011-05-30-0301-54S.COL___113                                                 6
 STAT SP IPHASW D HRMM SECON CODA AMPLIT PERI AZIMU VELO SNR AR TRES W  DIS CAZ7
 BAR2 SZ EP   1    3 6 17.35                             170    -0.3 7   23 206 
 BAR2 SZ ES   1    3 6 32.25                             170    -0.2 7   23 206 
 BRR  HZ EP   1    3 6 19.44                             149    -0.2 7   78 298 
 BRR  HN ES   1    3 6 36.13                             149     0.2 7   78 298 
 BRR  HZ I         3 6 41.47         5.1 0.16                            78 298 
 RUS  HZ EP   1    3 6 21.75                             143     0.1 7   98 179 
 RUS  HZ I         3 6 39.43         8.0 0.54                            98 179 
 RUS  HE ES   1    3 6 39.76                             143     0.1 7   98 179 
 BRI  SZ EP   1    3 6 22.49                             140     0.4 7  109  17 
 BRI  SZ ES   1    3 6 40.42                             140     0.1 7  109  17 
 BRI  SZ I         3 6 42.27         7.0 0.45                           109  17 
 GRA  SZ EP   1    3 6 23.29                             136    -0.2 7  127  15 
 GRA  SZ ES   1    3 6 42.68                             136    -0.2 7  127  15 
 GRA  SZ I         3 6 43.68         4.4 0.41                           127  15 
                                                                                
