 2015  630 0316 25.1 L   7.418 -73.148122.0  RSN  5 0.3 1.7LRSN                1
 GAP=189        0.65       2.5     4.4  6.4  0.4102E+01  0.7200E+01  0.2885E+01E
 Epicentro: EL PLAYON - SANTANDER                                              3
 ACTION:UPD 15-09-10 22:15 OP:cam  STATUS:               ID:20150630031625 L   I
 OLDACT:UP  15-06-30 16:59 OP:ar   STATUS:               ID:20150630030748     3
 OLDACT:UP  15-06-30 16:58 OP:ar   STATUS:               ID:20150630030748     3
 OLDACT:REG 15-06-30 13:49 OP:ar   STATUS:               ID:20150630030748     3
 2015-06-30-0307-48M.COL___316                                                 6
 STAT SP IPHASW D HRMM SECON CODA AMPLIT PERI AZIMU VELO AIN AR TRES W  DIS CAZ7
 BAR2 EZ EP        316 45.60                             141    0.1110 91.4 182 
 BAR2 EZ ES        317  1.83                             141    0.4210 91.4 182 
 BAR2 EZ I         317  3.13        22.2 0.22            143           91.4 182 
 OCA  HZ EP        316 45.52                             141    0.0510 92.7 348 
 OCA  HN ES        317  1.30                             141   -0.0810 92.7 348 
 OCA  HZ I         317  3.96         8.2 0.32            144           92.7 348 
 RUS  HZ EP        316 52.62                             123   -0.36 9  169 178 
 RUS  HN ES        317 14.42                             123   -0.32 9  169 178 
 RUS  HZ I         317 18.25         2.4 0.36            125            169 178 
 ZAR  HZ EP        316 54.64                             119    0.18 9  189 273 
 ZAR  HN ES        317 17.22                             119   -0.16 9  189 273 
 ZAR  HZ I         317 21.48         6.7 0.32            121            189 273 
 GUY2CHZ EP   3    317 14.41                             105    1.58 2  345 225 
 GUY2CHN ES   4    317 54.22                             105    4.14 0  345 225 
 GUY2CHZ I         318  1.08         1.6 0.56                           345 225 
                                                                                
