 2013  730 0835 40.6 L   6.005 -74.172 21.8  RSN  7 0.4 1.5LRSN                1
 GAP= 94        0.93       2.5     2.6  3.7 -0.6977E+00 -0.2960E+01 -0.1747E+01E
 Epicentro: LA BELLEZA - SANTANDER                                             3
 ACTION:UPD 13-08-12 10:41 OP:ep   STATUS:               ID:20130730083540 L   I
 OLDACT:REG 13-07-30 08:08 OP:carl STATUS:               ID:20130730082959     3
 2013-07-30-0829-59M.COL___267                                                 6
 STAT SP IPHASW D HRMM SECON CODA AMPLIT PERI AZIMU VELO AIN AR TRES W  DIS CAZ7
 SPBC HZ IP     C  835 48.31                             116    0.2710 40.5 164 
 SPBC HE ES   1    835 54.10                             116    0.24 7 40.5 164 
 SPBC HE I         835 54.36        22.6 0.38            111           40.5 164 
 PTB  HZ EP        835 51.61                             106   -0.0910 66.9 332 
 PTB  HN ES   1    836  0.11                             106   -0.27 7 66.9 332 
 PTB  HZ I         836  0.50        14.1 0.16            102           66.9 332 
 NOR  HN ES        836  6.56                             102   -0.2910 91.3 238 
 NOR  HN I         836  7.09        39.0 0.14             99           91.3 238 
 RUS  HZ EP   1    836  0.35                              56    0.30 7  121  96 
 RUS  HN ES   1    836 14.21                              56   -1.03 7  121  96 
 BAR2 SZ ES   1    836 15.96                              56   -0.09 7  127  59 
 BAR2 SZ I         836 18.17         5.3 0.32             96            127  59 
 BRR  HN ES   1    836 17.38                              56    0.78 7  132  23 
 BRR  HN I         836 18.73        10.2 0.16             56            132  23 
 GUY2CHE IS        836 23.53                              56    0.18 9  158 237 
 GUY2CHE ES        836 23.53                                            158 237 
 GUY2CHE I         836 28.68         3.1 0.48                           158 237 
                                                                                
