 2010  830 0625  4.5 L   6.848 -73.024139.0  RSN  5 0.2 1.5LRSN                1
 GAP=196        0.49       8.2    15.0  8.8  0.9843E+02 -0.5476E+02 -0.4007E+02E
 Epicentro: CEPITA - SANTANDER                                                 3
 ACTION:UP  10-09-07 10:59 OP:vdl  STATUS:               ID:20100830062504 L   I
 2010-08-30-0621-29S.COL___120                                                 6
 STAT SP IPHASW D HRMM SECON CODA AMPLIT PERI AZIMU VELO SNR AR TRES W  DIS CAZ7
 BAR2 SZ EP   1    625 23.75                             168     0.2 7   33 212 
 BAR2 SZ ES   2    625 38.06                                    -0.4 5   33 212 
 BAR2 SZ I         625 39.69         7.0 0.33                            33 212 
 BRR  HZ EP        625 25.36                             150    -0.210   81 291 
 BRR  HN ES   2    625 42.34                             150     0.4 5   81 291 
 BRR  HZ I         625 45.58         7.4 0.23                            81 291 
 RUS  HZ EP   2    625 28.14                             142     0.2 5  106 184 
 RUS  HN ES   1    625 46.27                             142     0.0 7  106 184 
 RUS  HZ I         625 48.23         3.7 0.34                           106 184 
 OCA  SZ EP   3    625 32.01                             129     0.0 2  157 348 
 OCA  SZ I         626  5.24         3.5 0.73                           157 348 
 HEL  HZ EP   3    625 45.75                             113    -0.2 2  286 255 
 HEL  HZ I         626 22.24         1.7 0.23                           286 255 
                                                                                
