 2015  130 0440 59.0 L   6.794 -73.138143.3  RSN 19 0.5 2.1LRSN                1
 GAP= 66        1.14       2.8     3.3  5.2 -0.7331E-01  0.4591E+01  0.1659E+01E
 Epicentro: LOS SANTOS - SANTANDER                                             3
 ACTION:UPD 15-03-02 15:43 OP:nd   STATUS:               ID:20150130044059 L   I
 OLDACT:UP  15-01-30 16:34 OP:cam  STATUS:               ID:20150130043816     3
 OLDACT:UP  15-01-30 16:34 OP:cam  STATUS:               ID:20150130043816     3
 OLDACT:REG 15-01-30 13:03 OP:cam  STATUS:               ID:20150130043816     3
 2015-01-30-0438-16M.COL___268                                                 6
 STAT SP IPHASW D HRMM SECON CODA AMPLIT PERI AZIMU VELO AIN AR TRES W  DIS CAZ7
 BAR2 EZ IP     C  441 18.42                             171    0.1410 22.8 192 
 BAR2 EZ ES        441 33.24                             171   -0.1110 22.8 192 
 BAR2 EZ I         441 33.87        32.0 0.36            170           22.8 192 
 BRR  HZ EP        441 20.30                             152    0.4010 72.3 299 
 BRR  HN ES        441 37.04                             152    0.8010 72.3 299 
 BRR  HZ I         441 41.27        25.5 0.12            151           72.3 299 
 PAM  SZ EP        441 21.30                             150    0.3810 77.4  39 
 PAM  SN ES        441 38.08                             150    0.0410 77.4  39 
 PAM  SZ I         441 40.16        28.0 0.46            154           77.4  39 
 RUS  HZ EP        441 22.35                             144   -0.0610 99.8 176 
 RUS  HN ES        441 40.86                             144    0.1610 99.8 176 
 RUS  HZ I         441 42.48        15.1 0.42            145           99.8 176 
 PTB  HZ EP        441 24.90                             131   -0.89 9  148 259 
 PTB  HN ES   4    441 45.41                             131   -1.30 0  148 259 
 PTB  HZ I         441 48.10        13.5 0.16            132            148 259 
 TAM  HZ EP     C  441 26.79                             130    0.44 9  154 105 
 TAM  HE ES        441 47.52                             130   -0.20 9  154 105 
 TAM  HE I         441 48.93        16.5 0.20            134            154 105 
 OCA  HZ EP        441 26.79                             129   -0.37 9  161 353 
 OCA  HN ES        441 48.26                             129   -0.89 9  161 353 
 OCA  HZ I         441 53.80        16.2 0.28            131            161 353 
 SPBC HZ EP        441 27.41                             128    0.14 9  163 219 
 SPBC HN ES        441 49.13                             128   -0.21 9  163 219 
 ZAR  HZ EP        441 31.76                             122    0.41 9  205 292 
 ZAR  HE ES        441 56.82                             122    0.20 9  205 292 
 ZAR  HZ I         442  3.02        16.4 0.32            123            205 292 
 NOR  HZ EP        441 34.97                             118    0.40 8  235 235 
 NOR  HN ES        442  1.86                             118   -0.49 8  235 235 
 NOR  HZ I         442  9.63         9.7 0.18            119            235 235 
 SML  HZ EP        441 35.02                             117   -0.54 8  245 335 
 SML  HN ES        442  3.91                             117   -0.19 8  245 335 
 SML  HZ I         442  5.93        19.3 0.24            118            245 335 
 CHI  HZ EP        441 36.64                             117    0.17 8  248 195 
 CHI  HN ES        442  5.07                             117   -0.66 8  248 195 
 CHI  HZ I         442  9.13         5.1 0.52            118            248 195 
 HEL  HZ EP        441 39.90                             114    0.78 8  273 256 
 HEL  HN ES        442  9.78                             114   -0.66 8  273 256 
 HEL  HZ I         442 17.39         5.9 0.36            115            273 256 
 URE  HE ES   4    442 10.34                             113   -1.72 0  285 292 
 GUY2CHZ EP   4    441 43.83                             112    1.35 0  301 235 
 GUY2CHN ES   4    442 17.68                             112    1.25 0  301 235 
 GUY2CHZ I         442 23.57         5.7 0.28                           301 235 
 PTGC HZ EP        441 41.77                             111   -0.83 7  308 159 
 PTGC HN ES   4    442 14.37                             111   -2.27 0  308 159 
 PTGC HZ I         442 17.93         8.2 0.58            113            308 159 
 CBOC HZ EP        441 46.46                             109    0.62 7  334 252 
 CBOC HN ES   4    442 20.79                             109   -1.61 0  334 252 
 MON  HZ EP   4    441 46.11                             108   -1.88 0  355 308 
 MON  HN ES   4    442 24.78                             108   -1.46 0  355 308 
 MON  HZ I         442 25.48         2.5 0.30            109            355 308 
 ORTC HZ EP        441 53.30                             106    0.51 6  395 216 
 ORTC HN ES   4    442 32.35                             106   -2.42 0  395 216 
 ORTC HZ I         442 41.37         4.1 0.50            107            395 216 
 PAL  HZ EP        441 54.71                             105    0.63 6  406 239 
                                                                                
