 2014  630 0129 16.9 L   6.762 -73.171151.7  RSN  4 0.1 1.2LRSN                1
 GAP=232        0.44       2.8     3.3  4.5  0.2871E+01 -0.1329E+01 -0.7720E+00E
 Epicentro: LOS SANTOS - SANTANDER                                             3
 ACTION:UPD 14-07-01 22:58 OP:nd   STATUS:               ID:20140630012916 L   I
 OLDACT:REG 14-06-30 14:23 OP:stll STATUS:               ID:20140630012821     3
 2014-06-30-0128-21M.COL___247                                                 6
 STAT SP IPHASW D HRMM SECON CODA AMPLIT PERI AZIMU VELO AIN AR TRES W  DIS CAZ7
 BRR  HZ EP        129 38.63                             154   -0.0910 70.9 303 
 BRR  HN ES        129 55.75                             154    0.0410 70.9 303 
 BRR  HZ I         129 59.84         2.7 0.40            151           70.9 303 
 RUS  HZ EP        129 40.85                             146   -0.1610 96.6 174 
 RUS  HN ES        129 59.88                             146    0.1010 96.6 174 
 RUS  HZ I         130  1.24         1.1 0.22            147           96.6 174 
 PTB  HZ EP        129 44.37                             134    0.28 9  144 260 
 PTB  HN ES        130  5.12                             134   -0.14 9  144 260 
 PTB  HZ I         130 10.92         2.3 0.24            133            144 260 
 SPBC HN ES        130  7.64                             131   -0.02 9  158 219 
 SPBC HZ I         130 13.81         2.9 0.28            131            158 219 
                                                                                
