 2010  730 0123 43.2 L   6.774 -73.157148.0  RSN  8 0.4 2.2LRSN                1
 GAP=158        1.06       6.2    13.7 10.4 -0.2629E+02 -0.1760E+02  0.1024E+02E
 Epicentro: LOS SANTOS - SANTANDER                                             3
 ACTION:UPD 10-12-01 15:21 OP:pat  STATUS:               ID:20100730012343 L   I
 2010-07-30-0121-36S.COL___123                                                 6
 STAT SP IPHASW D HRMM SECON CODA AMPLIT PERI AZIMU VELO AIN AR TRES W  DIS CAZ7
 BAR2 SZ EP        124  2.98                             172     0.010   20 188 
 BAR2 SZ ES   2    124 18.05                             172    -0.5 5   20 188 
 BAR2 SZ I         124 18.94        55.0 0.30                            20 188 
 GIR2 SZ EP        124  2.93                             166    -0.310   34 353 
 GIR2 SZ ES   2    124 18.71                             166    -0.1 5   34 353 
 BRR  HZ IP        124  4.63                             153     0.010   72 301 
 BRR  HZ I         124  4.90        93.7 0.09                            72 301 
 BRR  HN ES   2    124 21.89                             153     0.6 5   72 301 
 RUS  HZ EP        124  6.91                             145     0.010   98 175 
 RUS  HZ I         124 26.66        10.2 0.23                            98 175 
 GUE  SZ EP        124  7.90                             139    -0.410  120  12 
 GRA  SZ EP        124  9.68                             137     0.810  129  18 
 GRA  SZ ES   1    124 29.45                             137     0.5 7  129  18 
 GRA  SZ I         124 36.64        10.1 0.52                           129  18 
 OCA  SZ EP   1    124 11.43                             130    -0.5 7  163 354 
 OCA  SZ ES   2    124 33.56                             130    -0.8 5  163 354 
 OCA  SZ I         124 37.73        15.8 0.52                           163 354 
 PRA  HZ EP   1    124 37.01                             107     0.6 4  389 210 
                                                                                
