 2014  430 0450  6.4 L   6.598 -73.553101.7  RSN  7 0.4 1.6LRSN                1
 GAP=143        0.70       4.5     2.9  8.1  0.1035E+01  0.4310E+01 -0.5318E+01E
 Epicentro: EL CARMEN DE CHUCURI - SANTANDER                                   3
 OLDACT:REG 14-04-30 12:40 OP:fm   STATUS:               ID:20140430045000     3
 ACTION:UPD 14-05-13 20:49 OP:nd   STATUS:               ID:20140430045006 L   I
 OLDACT:UP  14-04-30 17:00 OP:fm   STATUS:               ID:20140430045000     3
 2014-04-30-0450-00M.COL___270                                                 6
 STAT SP IPHASW D HRMM SECON CODA AMPLIT PERI AZIMU VELO AIN AR TRES W  DIS CAZ7
 RUS  HZ EP        450 25.52                             134   -0.0210 93.7 146 
 RUS  HN ES   1    450 39.88                             134   -0.59 7 93.7 146 
 RUS  HZ I         450 43.66         4.6 1.70            140           93.7 146 
 PTB  HZ EP        450 25.28                             131   -0.1810  100 266 
 PTB  HN ES        450 40.20                             131   -0.1210  100 266 
 PTB  HZ I         450 44.39         9.1 0.30            136            100 266 
 SPBC HZ EP   1    450 27.66                             126    0.27 7  119 209 
 SPBC HN ES        450 44.13                             126    0.3810  119 209 
 SPBC HZ I         450 46.32        10.6 0.18            131            119 209 
 PAM  SE ES   2    450 46.43                             125    0.72 5  125  49 
 NOR  HN ES   2    450 56.70                             113    0.55 4  185 232 
 HEL  HN ES   1    451  4.77                             109    0.21 6  223 258 
 CBOC HZ EP   1    450 45.89                             103   -0.08 6  284 254 
 CBOC HN ES   1    451 16.27                             103   -0.56 6  284 254 
 CBOC HZ I         451 19.80         4.3 2.84            108            284 254 
