 2014 1030 0610 29.5 L   6.399 -73.337116.0  RSN  5 0.4 1.0LRSN                1
 GAP=181        1.02       4.0     5.7  8.4  0.6446E+01  0.6334E+01  0.6315E+01E
 Epicentro: SIMACOTA - SANTANDER                                               3
 ACTION:UPD 14-11-29 23:58 OP:nd   STATUS:               ID:20141030061029 L   I
 OLDACT:REG 14-10-31 16:02 OP:fm   STATUS:               ID:20141030060744     3
 2014-10-30-0607-44M.COL___271                                                 6
 STAT SP IPHASW D HRMM SECON CODA AMPLIT PERI AZIMU VELO AIN AR TRES W  DIS CAZ7
 RUS  HZ EP        610 47.38                             150   -0.2710 62.6 153 
 RUS  HN ES        611  1.49                             150   -0.3410 62.6 153 
 RUS  HZ I         611  5.46         1.8 0.30            157           62.6 153 
 BRR  HZ EP        610 48.92                             140    0.1410 88.6 332 
 BRR  HN ES        611  4.39                             140    0.5510 88.6 332 
 BRR  HZ I         611 12.87         2.0 0.38            146           88.6 332 
 SPBC HZ EP        610 51.63                             132    0.4010  116 225 
 SPBC HN ES        611  8.41                             132    0.2010  116 225 
 SPBC HZ I         611 14.35         2.6 0.54            138            116 225 
 PTB  HZ EP        610 51.64                             129   -0.3110  125 277 
 PTB  HN ES        611  8.86                             129   -0.6310  125 277 
 PTB  HZ I         611 12.00         2.0 0.16            135            125 277 
 CHI  HZ EP        611  0.03                             116   -0.27 9  200 193 
 CHI  HN ES        611 24.90                             116    0.56 9  200 193 
 CHI  HZ I         611 27.86         1.3 0.26            123            200 193 
                                                                                
