 2013  630 0708 41.0 L   6.766 -73.156140.2  RSN  9 0.5 1.7LRSN                1
 GAP=137        1.25       4.9     5.4  8.4  0.1788E+01  0.1124E+02 -0.4499E+01E
 Epicentro: LOS SANTOS - SANTANDER                                             3
 ACTION:UPD 14-01-08 09:58 OP:ep   STATUS:               ID:20130630070841 L   I
 OLDACT:REG 13-06-30 08:19 OP:jn   STATUS:               ID:20130630070641     3
 2013-06-30-0706-41M.COL___230                                                 6
 STAT SP IPHASW D HRMM SECON CODA AMPLIT PERI AZIMU VELO AIN AR TRES W  DIS CAZ7
 BAR2 SZ EP        7 8 59.88                             172   -0.0410 19.4 189 
 BAR2 SZ ES        7 9 14.13                             172   -0.5210 19.4 189 
 BAR2 SZ I         7 9 15.92        10.5 0.30            173           19.4 189 
 GIR2 SZ EP        7 9  0.04                             165   -0.1110 34.9 353 
 BRR  HZ EP        7 9  1.74                             151    0.1010 72.1 302 
 BRR  HN ES        7 9 18.37                             151    0.6610 72.1 302 
 BRR  HZ I         7 9 20.43         9.2 0.66            150           72.1 302 
 PAM  SZ EP        7 9  2.80                             149   -0.0910 81.1  38 
 PAM  SN ES        7 9 19.87                             149   -0.0710 81.1  38 
 PAM  SZ I         7 9 21.81        11.8 0.60            150           81.1  38 
 RUS  HZ EP        7 9  3.81                             144   -0.1610 96.9 175 
 RUS  HE ES        7 9 22.68                             144    0.8210 96.9 175 
 RUS  HZ I         7 9 23.35         3.2 0.22            147           96.9 175 
 PTB  HZ EP        7 9  6.59                             131   -0.79 9  146 260 
 PTB  HN ES        7 9 27.39                             131   -0.55 9  146 260 
 PTB  HZ I         7 9 29.65         7.1 0.16            132            146 260 
 OCA  HN ES   1    7 9 30.67                             128   -0.62 7  164 354 
 OCA  HZ I         7 9 34.20         4.4 0.24            129            164 354 
 ZAR  HZ EP        7 9 14.04                             121    0.88 9  204 293 
 ZAR  HE ES        7 9 38.17                             121   -0.05 9  204 293 
 ZAR  HZ I         7 9 44.57         7.1 0.48            122            204 293 
 SML  HE ES   1    7 9 47.06                             116    0.80 6  247 336 
                                                                                
