 2015  530 0914 30.0 L   6.818 -73.204139.9  RSN 19 0.6 2.1LRSN                1
 GAP=114        1.30       2.9     4.7  6.1 -0.1981E+01  0.1080E+02  0.1024E+01E
 Epicentro: ZAPATOCA - SANTANDER                                               3
 ACTION:UPD 15-09-10 22:08 OP:cam  STATUS:               ID:20150530091430 L   I
 OLDACT:UP  15-06-01 11:35 OP:Mher STATUS:               ID:20150530091430 L   3
 OLDACT:REG 15-05-30 14:23 OP:ar   STATUS:               ID:20150530090743     3
 2015-05-30-0907-43M.COL___306                                                 6
 STAT SP IPHASW D HRMM SECON CODA AMPLIT PERI AZIMU VELO AIN AR TRES W  DIS CAZ7
 BAR2 EZ IP     D  914 49.06                             169    0.1110 25.1 174 
 BAR2 EZ ES        915  3.36                             169   -0.3910 25.1 174 
 BAR2 EZ I         915  7.41        31.6 0.26            169           25.1 174 
 BRR  HZ IP     D  914 50.93                             154    0.8010 64.6 300 
 BRR  HN ES        915  6.31                             154    0.4610 64.6 300 
 BRR  HZ I         915 12.64        16.0 0.26            145           64.6 300 
 PAM  SZ EP     C  914 51.78                             149    0.0210 80.2  44 
 PAM  SZ I         914 51.98        36.9 0.24            147           80.2  44 
 PAM  SN ES        915  8.79                             149    0.0510 80.2  44 
 RUS  HZ EP        914 52.95                             142   -0.4110  103 173 
 RUS  HE ES        915 11.55                             142   -0.0510  103 173 
 RUS  HN I         915 13.20        42.8 0.34            140            103 173 
 RUS  HZ I         915 14.40        17.2 0.40                           103 173 
 OCA  HZ EP        914 58.30                             129    0.70 9  158 355 
 OCA  HN ES        915 18.59                             129   -0.54 9  158 355 
 OCA  HZ I         915 24.61        23.3 0.26            124            158 355 
 SPBC HZ EP        914 57.88                             128    0.07 9  161 217 
 SPBC HZ I         915  0.11        26.7 0.20            123            161 217 
 SPBC HN ES        915 19.92                             128    0.40 9  161 217 
 ZAR  HZ EP        915  1.71                             122    0.36 9  197 292 
 ZAR  HN ES        915 25.35                             122   -0.47 9  197 292 
 ZAR  HZ I         915 34.06        14.8 0.32            116            197 292 
 NOR  HZ EP        915  5.41                             117    0.47 8  231 233 
 NOR  HN ES        915 31.85                             117   -0.36 8  231 233 
 NOR  HZ I         915 38.42        12.7 0.52            113            231 233 
 SML  HZ EP        915  5.57                             116   -0.23 8  239 336 
 SML  HN ES        915 33.13                             116   -0.61 8  239 336 
 SML  HZ I         915 40.53        18.3 0.24            112            239 336 
 CHI  HZ EP        915  7.28                             116   -0.12 8  249 194 
 CHI  HE ES        915 36.36                             116   -0.23 8  249 194 
 CHI  HZ I         915 46.17         5.9 0.66            112            249 194 
 HEL  HZ EP   4    915 11.33                             114    2.07 0  266 255 
 HEL  HN ES        915 39.49                             114   -0.41 8  266 255 
 HEL  HZ I         915 47.45         6.8 0.28            110            266 255 
 URE  HZ EP        915  9.67                             113   -0.35 7  277 292 
 URE  HE E         915 39.65                                            277 292 
 URE  HE ES   4    915 39.65                             113   -1.59 0  277 292 
 GUY2CHZ EP        915 13.58                             111    0.72 7  297 234 
 GUY2CHE ES        915 46.59                             111    0.28 7  297 234 
 GUY2CHZ I         915 57.61         8.2 0.48                           297 234 
 PTGC HZ IP   9 C  915 11.98                             110   -2.09 0  313 158 
 PTGC HE ES        915 44.47                                   -1.90 7  313 158 
 CBOC HZ EP   1    915 17.31                             109    1.28 5  328 251 
 CBOC HZ I         915 58.05         3.0 0.46            105            328 251 
 MON  HZ EP   9    915 16.20                             108   -1.83 0  347 309 
 MON  HN ES        915 53.75                                    0.07 6  347 309 
 MON  HZ I         915 58.69         2.0 0.56            104            347 309 
 PRA  HZ EP        915 23.19                             105    0.05 6  391 209 
 PRA  HN ES        916  3.08                             105   -1.53 6  391 209 
 PRA  HZ I         916  9.02         4.4 0.50            103            391 209 
 ORTC HZ EP        915 23.48                             105    0.02 6  393 215 
 ORTC HN ES        916  5.88                             105    0.71 6  393 215 
 ORTC HZ I         916 12.61         4.0 0.48            102            393 215 
 SJC  HZ EP        915 23.19                             105   -1.56 6  404 328 
 SJC  HZ I         916  8.00         2.3 0.46            102            404 328 
                                                                                
