 2011 1230 0816 32.6 L   6.550 -73.901 97.9  RSN  4 0.3 1.2LRSN                1
 GAP=186        0.55       7.2     7.4 11.9  0.4574E+02  0.4978E+02  0.5484E+02E
 Epicentro: PUERTO PARRA - SANTANDER                                           3
 ACTION:UPD 12-07-13 16:19 OP:ep   STATUS:               ID:20111230081632 L   I
 2011-12-30-0810-00M.COL___186                                                 6
 STAT SP IPHASW D HRMM SECON CODA AMPLIT PERI AZIMU VELO AIN AR TRES W  DIS CAZ7
 BRR  HZ EP   1    816 48.54                             144    0.20 7 65.0  19 
 BRR  HZ I         816 48.97         5.2 0.15                          65.0  19 
 BRR  HN ES   1    817  0.75                             144    0.11 7 65.0  19 
 BAR2 SZ EP   1    816 49.36                             138   -0.45 7 79.6  87 
 BAR2 SZ I         817  3.44         7.7 0.45                          79.6  87 
 RUS  HZ EP   1    816 53.82                             127    0.34 7  116 129 
 RUS  HN ES   1    817  9.71                             127   -0.09 7  116 129 
 RUS  HZ I         817 10.79         2.3 0.28                           116 129 
 ZAR  HN ES   1    817 14.51                             119   -0.11 7  148 315 
                                                                                
