 2017  930 0439 27.4 L   6.723 -73.127134.3  RSN  7 0.4 1.4LRSN                1
 GAP=234        1.05       4.6     7.0  7.5  0.1373E+02  0.2486E+02  0.1175E+02E
 Epicentro: JORDAN - SANTANDER                                                 3
 ACTION:UPD 17-10-05 19:17 OP:rebc STATUS:               ID:20170930043927 L   I
 OLDACT:UP  17-09-30 16:47 OP:edw  STATUS:               ID:20170930042942d    3
 OLDACT:DUP 17-09-30 16:42 OP:edw  STATUS:               ID:20170930042942d    3
 OLDACT:UP  17-09-30 16:40 OP:edw  STATUS:               ID:20170930042941     3
 OLDACT:REG 17-09-30 12:44 OP:edw  STATUS:               ID:20170930042941     3
 2017-09-30-0438-00M.COL___441                                                 6
 STAT SP IPHASW D HRMM SECON CODA AMPLIT PERI AZIMU VELO AIN AR TRES W  DIS CAZ7
 BAR2 EZ EP        439 45.26                             173   -0.2510 15.7 203 
 BAR2 EZ ES        439 59.83                             173    0.1910 15.7 203 
 BAR2 EZ I         440  1.51         6.8 0.18            171           15.7 203 
 BRR  HZ EP        439 47.17                             148   -0.5310 77.3 303 
 BRR  HN ES        440  3.73                             148    0.2010 77.3 303 
 BRR  HZ I         440  8.05         3.7 0.18            148           77.3 303 
 RUS  HZ EP        439 49.92                             144    0.5210 92.0 177 
 RUS  HN ES        440  6.56                             144   -0.0110 92.0 177 
 RUS  HZ I         440  9.63         4.5 0.28            147           92.0 177 
 ZAR  HZ EP        440  0.26                             119    0.59 8  209 294 
 ZAR  HN ES        440 24.31                             119   -0.54 8  209 294 
 ZAR  HZ I         440 29.50         2.4 0.32            121            209 294 
 CHI  HN ES        440 31.08                             115   -0.84 8  241 196 
 GUY2CHN ES        440 44.12                             110    0.63 7  298 236 
 PRA  HZ EP        440 19.91                             105    0.11 6  386 210 
 PRA  HN ES        441  0.72                             105    0.05 6  386 210 
                                                                                
