 2017  930 0221 32.0 L   6.510 -73.325148.6  RSN  4 0.2 1.3LRSN                1
 GAP=144        0.52       5.5     6.4  4.9  0.2923E+02  0.9977E+01  0.5354E+01E
 Epicentro: HATO - SANTANDER                                                   3
 ACTION:UPD 17-10-05 19:17 OP:rebc STATUS:               ID:20170930022132 L   I
 OLDACT:UP  17-09-30 14:38 OP:edw  STATUS:               ID:20170930021738     3
 OLDACT:REG 17-09-30 12:22 OP:edw  STATUS:               ID:20170930021738     3
 2017-09-30-0218-00M.COL___447                                                 6
 STAT SP IPHASW D HRMM SECON CODA AMPLIT PERI AZIMU VELO AIN AR TRES W  DIS CAZ7
 BAR2 EZ EP        221 51.95                             173    0.0710 18.1  60 
 BAR2 EZ ES        222  7.21                             173   -0.1710 18.1  60 
 BAR2 EZ I         222  9.99         5.9 0.30            176           18.1  60 
 RUS  HZ EP        221 54.00                             153   -0.2910 73.3 159 
 RUS  HN ES        222 11.88                             153    0.2110 73.3 159 
 RUS  HZ I         222 17.19         2.9 0.38            151           73.3 159 
 BRR  HZ EP        221 54.11                             151    0.2310 78.7 327 
 BRR  HN ES        222 10.96                             151    0.0110 78.7 327 
 ZAR  HN ES        222 29.49                             123   -0.08 9  201 303 
                                                                                
