 2014  630 0838 43.3 L   6.070 -73.706112.4  RSN  6 0.5 1.5LRSN                1
 GAP=115        1.24       6.4     4.2  9.1 -0.5391E+01  0.1572E+02 -0.6719E+00E
 Epicentro: BOLIVAR - SANTANDER                                                3
 ACTION:UPD 14-07-01 22:58 OP:nd   STATUS:               ID:20140630083843 L   I
 OLDACT:REG 14-06-30 14:41 OP:stll STATUS:               ID:20140630083809     3
 2014-06-30-0838-09M.COL___244                                                 6
 STAT SP IPHASW D HRMM SECON CODA AMPLIT PERI AZIMU VELO AIN AR TRES W  DIS CAZ7
 SPBC HZ EP        839  0.34                             149   -0.0910 61.5 221 
 SPBC HN ES        839 13.80                             149   -0.0110 61.5 221 
 SPBC HZ I         839 15.32         9.2 0.18            150           61.5 221 
 RUS  HZ EP        839  1.64                             145   -0.0310 71.7 106 
 RUS  HN ES        839 15.46                             145   -0.5610 71.7 106 
 RUS  HZ I         839 17.23         4.5 0.30            149           71.7 106 
 BAR2 SZ EP        839  2.45                             141    0.4010 81.8  45 
 BAR2 SZ ES        839 17.31                             141    0.6210 81.8  45 
 BAR2 SZ I         839 17.93        19.7 0.12            144           81.8  45 
 PTB  HZ EP        839  2.35                             136   -0.7010 97.9 302 
 PTB  HN ES        839 18.44                             136   -0.0210 97.9 302 
 PTB  HZ I         839 19.80         5.1 0.10            136           97.9 302 
 HEL  HZ EP        839 14.30                             114    0.24 9  202 274 
 HEL  HE ES        839 37.49                             114   -0.57 9  202 274 
 HEL  HZ I         839 42.41         2.2 0.22            116            202 274 
 GUY2CHZ EP        839 14.40                             114   -0.24 8  206 243 
 GUY2CHN ES        839 40.21                             114    1.11 8  206 243 
 GUY2CHZ I         839 41.87         2.2 0.30                           206 243 
                                                                                
