 2013 1230 0331 14.5 L   6.654 -73.223153.7  RSN  4 0.4 1.3LRSN                1
 GAP=209        0.97      14.2     9.3 16.4  0.1011E+03 -0.5869E+02 -0.1448E+03E
 Epicentro: BARICHARA - SANTANDER                                              3
 ACTION:UPD 14-01-13 10:22 OP:ep   STATUS:               ID:20131230033114 L   I
 OLDACT:REG 13-12-30 08:03 OP:mh   STATUS:               ID:20131230033000     3
 2013-12-30-0330-00M.COL___285                                                 6
 STAT SP IPHASW D HRMM SECON CODA AMPLIT PERI AZIMU VELO AIN AR TRES W  DIS CAZ7
 BAR2 SZ EP        331 34.49                             177   -0.4410 8.16 146 
 BAR2 SZ I         331 50.85        10.0 0.18            153           8.16 146 
 RUS  HZ EP   1    331 38.85                             150    0.75 7 85.6 170 
 RUS  HN ES        331 56.58                             150    0.1110 85.6 170 
 RUS  HZ I         331 58.02         2.2 0.24            157           85.6 170 
 PTB  HZ EP        331 40.98                             136   -0.26 9  137 265 
 PTB  HN ES        332  1.80                             136   -0.25 9  137 265 
 PTB  HZ I         332  4.21         2.0 0.12            145            137 265 
 ZAR  HN ES        332 13.56                             124    0.51 9  203 297 
                                                                                
