 2014  830 0331 19.8 L   6.809 -73.113150.3  RSN 15 0.5 2.2LRSN                1
 GAP=186        1.08       2.9     5.3  6.3 -0.5183E-01  0.3574E+01  0.4447E-01E
 Epicentro: LOS SANTOS - SANTANDER                                             3
 ACTION:UPD 14-09-15 21:54 OP:nd   STATUS:               ID:20140830033119 L   I
 OLDACT:REG 14-08-30 12:48 OP:fm   STATUS:               ID:20140830032806     3
 2014-08-30-0328-06M.COL___266                                                 6
 STAT SP IPHASW D HRMM SECON CODA AMPLIT PERI AZIMU VELO AIN AR TRES W  DIS CAZ7
 BAR2 SZ EP        331 40.13                             170    0.1710 25.2 198 
 BAR2 SZ ES   1    331 56.02                             170    0.30 7 25.2 198 
 BAR2 SZ I         331 56.95        21.7 0.48            166           25.2 198 
 BRR  HZ EP     C  331 42.00                             152    0.4610 73.9 297 
 BRR  HN ES        331 59.45                             152    0.9210 73.9 297 
 BRR  HZ I         332  4.40        16.8 0.28            148           73.9 297 
 RUS  HZ EP   1    331 43.56                             145   -0.45 7  101 178 
 RUS  HN ES        332  2.67                             145   -0.2610  101 178 
 RUS  HZ I         332  3.81        13.1 0.26            145            101 178 
 PTB  HZ EP        331 46.82                             132   -0.60 9  151 259 
 PTB  HN ES        332  8.22                             132   -0.78 9  151 259 
 PTB  HZ I         332 15.37        16.2 0.42            130            151 259 
 OCA  HZ EP        331 48.42                             131    0.05 9  160 352 
 OCA  HN ES        332 10.36                             131   -0.33 9  160 352 
 OCA  HZ I         332 15.98        15.2 0.18            132            160 352 
 SPBC HZ EP        331 49.06                             130    0.17 9  166 220 
 SPBC HN ES        332 11.56                             130   -0.05 9  166 220 
 SPBC HZ I         332 14.07        18.2 0.34            128            166 220 
 ZAR  HN ES        332 17.96                             123   -0.61 8  207 292 
 ZAR  HZ I         332 24.25        25.0 0.30            122            207 292 
 SML  HZ EP        331 56.87                             118    0.17 8  244 334 
 SML  HN ES        332 25.26                             118   -0.26 8  244 334 
 SML  HZ I         332 29.87        14.6 0.22            119            244 334 
 CHI  HZ EP   1    331 57.67                             118   -0.24 6  251 196 
 CHI  HN ES        332 27.17                             118   -0.51 8  251 196 
 CHI  HZ I         332 35.18         4.6 0.26            118            251 196 
 ROSC BN ES   1    332 29.13                             117    0.56 6  255 212 
 ROSC BZ I         332 37.89        11.4 0.60            117            255 212 
 GUY2CHZ EP   1    332  3.87                             113   -0.10 5  305 235 
 GUY2CHE ES   4    332 40.12                             113    1.67 0  305 235 
 GUY2CHZ I         332 48.94         7.4 0.50                           305 235 
 CBOC HZ EP   1    332  8.10                             110    0.82 5  337 252 
 CBOC HN ES        332 45.29                             110    0.94 7  337 252 
 CBOC HZ I         332 54.88         2.7 0.44            110            337 252 
 TOL  SZ EP   1    332  9.36                             110    0.80 5  347 225 
 TOL  SN ES   4    332 48.16                             110    1.53 0  347 225 
 TOL  SZ I         332 52.42        13.0 0.60            110            347 225 
 PRA  HZ EP   1    332 13.93                             107    0.19 4  395 210 
 PRA  HN ES   4    332 54.95                             107   -0.90 0  395 210 
 PRA  HZ  AMP      332 59.67        63.7 0.30                           395 210 
 SJC  HZ EP   4    332 13.81                             106   -1.79 0  410 326 
 SJC  HN ES   4    332 55.46                             106   -3.69 0  410 326 
 SJC  HZ I         333  0.42         1.9 0.42            107            410 326 
                                                                                
