 2012  530 0304 29.4 L   6.774 -73.200145.4  RSN  4 0.2 1.5LRSN                1
 GAP=239        0.50       6.8     5.0  6.4  0.2257E+02  0.3812E+01 -0.6362E+01E
 Epicentro: VILLANUEVA - SANTANDER                                             3
 ACTION:UP  12-07-05 12:09 OP:pat  STATUS:               ID:20120530030429 L   I
 2012-05-30-0300-00M.COL___201                                                 6
 STAT SP IPHASW D HRMM SECON CODA AMPLIT PERI AZIMU VELO AIN AR TRES W  DIS CAZ7
 BAR2 SZ EP   1    3 4 48.86                             172    -0.1 7   20 174 
 BAR2 SZ ES   1    3 5  4.07                             172    -0.1 7   20 174 
 BAR2 SZ I         3 5  5.38        13.6 0.31                            20 174 
 RUS  HZ EP   1    3 4 53.01                             144     0.0 7   98 172 
 RUS  HN ES   1    3 5 11.63                             144     0.3 7   98 172 
 RUS  HZ I         3 5 13.70         4.2 0.37                            98 172 
 PTB  HZ EP   1    3 4 55.71                             133    -0.1 7  141 259 
 PTB  HN ES   1    3 5 16.10                             133    -0.2 7  141 259 
 PTB  HZ I         3 5 19.76         3.2 0.07                           141 259 
 ZAR  HN ES   1    3 5 26.66                             123     0.3 6  200 294 
                                                                                
