 2014  430 0507 27.8 L   6.822 -73.179142.3  RSN  4 0.3 1.6LRSN                1
 GAP=175        0.69       5.3     3.8  7.9 -0.9259E+01  0.1104E+02 -0.2073E+01E
 Epicentro: ZAPATOCA - SANTANDER                                               3
 OLDACT:REG 14-04-30 12:42 OP:fm   STATUS:               ID:20140430050000     3
 ACTION:UPD 14-05-13 20:49 OP:nd   STATUS:               ID:20140430050727 L   I
 OLDACT:UP  14-04-30 17:12 OP:fm   STATUS:               ID:20140430050000     3
 2014-04-30-0500-00M.COL___270                                                 6
 STAT SP IPHASW D HRMM SECON CODA AMPLIT PERI AZIMU VELO AIN AR TRES W  DIS CAZ7
 PAM  SZ EP        5 7 49.68                             150   -0.0110 78.0  43 
 PAM  SN ES        5 8  6.76                             150    0.0010 78.0  43 
 PAM  SZ I         5 8 10.97         6.6 0.58            154           78.0  43 
 PTB  HZ EP        5 7 53.74                             132   -0.47 9  145 258 
 PTB  HN ES        5 8 14.64                             132   -0.17 9  145 258 
 PTB  SZ I         5 8 20.67         5.0 1.30            136            145 258 
 SPBC HN ES   1    5 8 18.44                             128    0.44 7  163 217 
 ZAR  HZ EP        5 7 59.99                             122    0.41 9  200 292 
 ZAR  HN ES        5 8 24.45                             122    0.08 9  200 292 
 ZAR  SZ I         5 8 30.17         3.9 0.30            126            200 292 
