 2013  730 0242 31.5 L   6.806 -73.078145.1  RSN  8 0.4 1.7LRSN                1
 GAP=190        0.94       4.2     7.1  8.9 -0.2083E+01  0.2123E+01 -0.9269E+01E
 Epicentro: LOS SANTOS - SANTANDER                                             3
 ACTION:UPD 13-08-12 10:41 OP:ep   STATUS:               ID:20130730024231 L   I
 OLDACT:REG 13-07-30 07:37 OP:carl STATUS:               ID:20130730023959     3
 2013-07-30-0239-59M.COL___267                                                 6
 STAT SP IPHASW D HRMM SECON CODA AMPLIT PERI AZIMU VELO AIN AR TRES W  DIS CAZ7
 BAR2 SZ EP        242 51.12                             169   -0.0110 26.3 206 
 BAR2 SZ ES   1    243  5.95                             169   -0.48 7 26.3 206 
 BAR2 SZ I         243  7.71         5.2 0.22            169           26.3 206 
 GIR2 SZ EP        242 51.61                             167    0.4610 32.7 337 
 GIR2 SZ I         243  8.33         5.5 0.50            164           32.7 337 
 BRR  HN ES        243 10.22                             150    0.5310 77.5 295 
 RUS  HN ES   1    243 13.87                             144    0.14 7  101 180 
 PTB  HZ EP   1    242 59.58                             130    0.47 7  155 259 
 PTB  HE ES   1    243 20.35                             130   -0.29 7  155 259 
 PTB  HZ I         243 22.64         3.2 0.22            127            155 259 
 OCA  HN ES   1    243 21.09                             129   -0.78 7  161 350 
 OCA  HN I         243 25.49        27.9 0.24            123            161 350 
 SPBC HN ES        243 22.59                             128   -0.47 9  169 221 
 SPBC HN I         243 28.19         9.6 0.10            124            169 221 
 SML  HZ EP   1    243  7.94                             117   -0.44 6  246 334 
 SML  HE ES   1    243 37.20                             117    0.06 6  246 334 
 SML  HZ I         243 43.48         4.3 0.26            112            246 334 
                                                                                
