 2016 1030 0752 10.7 L   6.766 -73.165147.7  RSN  5 0.3 1.7LRSN                1
 GAP=233        0.82       4.5     5.8  6.5  0.5569E+01  0.9712E+00  0.6804E+01E
 Epicentro: LOS SANTOS - SANTANDER                                             3
 ACTION:UPD 16-11-09 19:24 OP:rebc STATUS:               ID:20161030075210 L   I
 OLDACT:REG 16-10-30 14:55 OP:cog  STATUS:               ID:20161030074749     3
 2016-10-30-0748-00M.COL___321                                                 6
 STAT SP IPHASW D HRMM SECON CODA AMPLIT PERI AZIMU VELO AIN AR TRES W  DIS CAZ7
 BRR  HZ IP     C  752 32.16                             153    0.0810 71.3 302 
 BRR  HN ES        752 49.00                             153    0.2610 71.3 302 
 BRR  HZ I         752 49.79        13.7 0.10            150           71.3 302 
 RUS  HZ EP        752 34.42                             145    0.0210 96.9 175 
 RUS  HE ES        752 52.60                             145   -0.2810 96.9 175 
 RUS  HZ I         752 54.32         4.0 0.28            144           96.9 175 
 PTB  HZ EP        752 36.90                             133   -0.69 9  145 260 
 PTB  HN ES        752 58.36                             133   -0.20 9  145 260 
 PTB  HZ I         753  5.34         6.1 0.44            131            145 260 
 SPBC HZ EP        752 39.39                             130    0.43 9  159 219 
 SPBC HN ES        753  1.32                             130    0.33 9  159 219 
 SPBC HZ I         753  6.22         6.4 0.03            129            159 219 
 PRA  HZ EP        753  4.13                             107    0.34 6  388 210 
 PRA  HN ES        753 45.06                             107   -0.14 6  388 210 
 PRA  HZ I         753 48.47         2.7 0.24            108            388 210 
                                                                                
