 2014 1030 0916 21.6 L   6.758 -73.199131.7  RSN  4 0.3 1.1LRSN                1
 GAP=228        0.70       6.2     4.8 12.0  0.9042E+01 -0.6137E+01 -0.4387E+02E
 Epicentro: VILLANUEVA - SANTANDER                                             3
 ACTION:UPD 14-11-29 23:58 OP:nd   STATUS:               ID:20141030090739dL   I
 OLDACT:DUP 14-11-04 16:45 OP:fm   STATUS:               ID:20141030090739dL   3
 2014-10-30-0907-37M.COL___271                                                 6
 STAT SP IPHASW D HRMM SECON CODA AMPLIT PERI AZIMU VELO AIN AR TRES W  DIS CAZ7
 BRR  HZ EP        916 40.77                             151   -0.2910 68.6 304 
 RUS  HZ EP        916 43.99                             142    0.3210 96.6 172 
 RUS  HE ES        917  0.88                             142   -0.0210 96.6 172 
 RUS  HZ I         917  3.43         1.8 0.26            138           96.6 172 
 PTB  HZ EP        916 46.76                             130   -0.05 9  141 260 
 PTB  HN ES        917  6.83                             130    0.34 9  141 260 
 PTB  HZ I         917  9.01         1.7 0.44            127            141 260 
 SPBC HN ES        917  8.85                             127   -0.33 9  156 218 
 SPBC HZ I         917 15.44         2.2 0.18            124            156 218 
                                                                                
