 2012  830 0555 15.5 L   6.793 -73.170143.9  RSN  8 0.4 2.0LRSN                1
 GAP=109        0.77       4.6     4.5  5.3  0.5629E+01 -0.6976E+00 -0.1054E+01E
 Epicentro: LOS SANTOS - SANTANDER                                             3
 ACTION:UPD 12-09-10 11:59 OP:ep   STATUS:               ID:20120830055515 L   I
 2012-08-30-0550-00M.COL___218                                                 6
 STAT SP IPHASW D HRMM SECON CODA AMPLIT PERI AZIMU VELO AIN AR TRES W  DIS CAZ7
 BAR2 SZ EP        555 34.91                             171    0.0710 22.2 184 
 BAR2 SZ ES   1    555 49.42                             171   -0.54 7 22.2 184 
 BAR2 SZ I         555 50.82        44.8 0.32                          22.2 184 
 GIR2 SZ EP        555 34.93                             167    0.0110 31.7 355 
 GIR2 SZ ES   1    555 49.89                             167   -0.21 7 31.7 355 
 BRR  HZ EP        555 36.70                             153    0.4010 69.3 300 
 BRR  HN ES   1    555 53.41                             153    0.86 7 69.3 300 
 BRR  HZ I         555 54.35        34.2 0.12                          69.3 300 
 RUS  HZ EP        555 39.00                             144    0.0110  100 174 
 RUS  HN ES   2    555 57.33                             144   -0.01 5  100 174 
 RUS  HZ I         555 59.32         7.8 0.32                           100 174 
 PTB  HZ EP        555 41.59                             132   -0.43 9  145 259 
 PTB  HN ES   2    556  2.44                             132   -0.30 5  145 259 
 PTB  HZ I         556  5.81         4.3 0.24                           145 259 
 TAM  HZ EP        555 43.36                             130    0.15 9  157 104 
 TAM  HZ I         555 43.66        19.9 0.22                           157 104 
 OCA  HZ EP        555 43.48                             129   -0.19 9  161 354 
 OCA  HN ES   2    556  4.98                             129   -0.69 5  161 354 
 OCA  HZ I         556  9.71        23.5 0.28                           161 354 
 ZAR  HZ EP        555 47.75                             122    0.19 9  202 293 
 ZAR  HN ES   2    556 12.23                             122   -0.37 4  202 293 
 ZAR  HZ I         556 21.56         8.7 0.24                           202 293 
                                                                                
