 2011  730 0508 21.3 L   6.824 -73.253143.2  RSN  5 0.3 1.4LRSN                1
 GAP=136        0.48       4.6    10.5  8.1  0.1367E+02 -0.4463E+02 -0.1452E+02E
 Epicentro: ZAPATOCA - SANTANDER                                               3
 ACTION:UPD 12-07-25 14:04 OP:epov STATUS:               ID:20110730050821 L   I
 2011-07-30-0504-28S.COL___142                                                 6
 STAT SP IPHASW D HRMM SECON CODA AMPLIT PERI AZIMU VELO AIN AR TRES W  DIS CAZ7
 BAR2 SZ EP   2    5 8 40.75                             169    0.00 5 26.8 163 
 BAR2 SZ ES   2    5 8 56.38                             169    0.50 5 26.8 163 
 BAR2 SZ I         5 8 57.65         6.3 0.39                          26.8 163 
 BRR  HZ EP   2    5 8 42.00                             156    0.40 5 59.6 302 
 BRR  HZ I         5 8 44.11         7.1 0.10                          59.6 302 
 BRR  HE ES   2    5 8 57.07                             156   -0.33 5 59.6 302 
 RUS  HZ EP   1    5 8 45.21                             142    0.06 7  105 170 
 RUS  HE ES   2    5 9  3.28                             142   -0.44 5  105 170 
 RUS  HZ I         5 9  5.10         2.9 0.49                           105 170 
 BRI  SZ EP   2    5 8 45.26                             140    0.08 5  111  27 
 GRA  SZ EP   1    5 8 46.34                             136   -0.16 7  127  23 
 GRA  SZ I         5 8 47.62         3.9 0.27                           127  23 
                                                                                
