 2011 1030 0017 28.1 L   6.822 -73.328118.1  RSN  7 0.2 1.8LRSN                1
 GAP=129        0.51       2.9     3.7  4.6  0.4045E+01  0.7082E-01 -0.1877E+01E
 Epicentro: ZAPATOCA - SANTANDER                                               3
 ACTION:UPD 12-07-13 16:06 OP:ep   STATUS:               ID:20111030001728 L   I
 2011-10-30-0015-49S.COL___155                                                 6
 STAT SP IPHASW D HRMM SECON CODA AMPLIT PERI AZIMU VELO AIN AR TRES W  DIS CAZ7
 BTL  SZ EP        017 44.40                             174    0.1510 12.6  32 
 BAR2 SZ IP        017 44.64                             165   -0.0110 30.1 148 
 BAR2 SZ I         017 44.81        27.0 0.16                          30.1 148 
 BAR2 SZ ES   1    017 57.29                             165   -0.23 7 30.1 148 
 BRR  HZ EP        017 45.09                             154   -0.1810 52.9 307 
 BRR  HN ES   1    017 58.96                             154    0.33 7 52.9 307 
 BRR  HZ I         017 59.69        24.3 0.20                          52.9 307 
 PAM  SN ES   2    018  4.55                             140    0.30 5 90.0  50 
 RUS  HZ EP        017 49.98                             135    0.2110  106 165 
 RUS  HN ES   2    018  6.08                             135   -0.55 5  106 165 
 RUS  HZ I         018  7.22         5.9 0.50                           106 165 
 OCA  SZ EP        017 54.01                             123   -0.08 9  157   0 
 OCA  SZ ES   2    018 13.94                             123   -0.40 5  157   0 
 OCA  SZ I         018 15.85        14.0 0.50                           157   0 
 ZAR  HN ES   1    018 19.14                             118   -0.06 7  185 294 
 ZAR  HZ I         018 22.43         7.4 0.32                           185 294 
                                                                                
