 2015 1230 0804 24.7 L   6.060 -73.694117.0  RSN 29 0.5 2.6LRSN                1
 GAP= 35        1.13       2.0     2.1  4.7 -0.8284E+00  0.1678E+01  0.3441E+00E
 Epicentro: VELEZ - SANTANDER                                                  3
 ACTION:UPD 16-02-04 15:09 OP:cam  STATUS:               ID:20151230080424 L   I
 OLDACT:REG 15-12-30 13:14 OP:ak   STATUS:               ID:20151230075750     3
 2015-12-30-0757-50M.COL___334                                                 6
 STAT SP IPHASW D HRMM SECON CODA AMPLIT PERI AZIMU VELO AIN AR TRES W  DIS CAZ7
 SPBC HZ EP        8 4 42.40                             150    0.0310 61.5 223 
 SPBC HN ES        8 4 55.68                             150   -0.4510 61.5 223 
 SPBC HZ I         8 4 57.99       108.3 0.20            151           61.5 223 
 RUS  HZ EP        8 4 43.72                             147    0.2310 70.1 105 
 RUS  HN ES        8 4 57.71                             147   -0.4110 70.1 105 
 RUS  HZ I         8 4 59.71        50.2 0.22            150           70.1 105 
 BAR2 EZ IP     D  8 4 44.35                             143    0.4110 81.7  44 
 BAR2 EZ ES        8 4 59.01                             143    0.0910 81.7  44 
 BAR2 EZ I         8 5  0.54       241.1 0.36            145           81.7  44 
 PTB  HZ EP        8 4 44.14                             137   -0.9110 99.6 302 
 PTB  HN ES   4    8 4 59.62                             137   -1.27 0 99.6 302 
 PTB  HZ I         8 5  3.69        71.2 0.10            137           99.6 302 
 BRR  HZ EP     D  8 4 46.60                             132    0.1610  116 359 
 BRR  HN ES        8 5  3.99                             132    0.6210  116 359 
 BRR  HZ I         8 5  6.92       114.6 0.12            134            116 359 
 NOR  HZ EP        8 4 48.35                             126   -0.57 9  141 247 
 NOR  HN ES        8 5  7.58                             126   -0.21 9  141 247 
 NOR  HZ I         8 5 11.43        77.7 0.26            127            141 247 
 ROSC BZ EP   9    8 4 51.71                             124    1.29 0  152 207 
 ROSC BN ES        8 5 12.57                                    0.83 9  152 207 
 ROSC BZ I         8 5 17.56        30.3 0.30            125            152 207 
 CHI  HZ IP     D  8 4 51.00                             123   -0.11 9  158 182 
 CHI  HN ES        8 5 11.51                             123   -0.17 9  158 182 
 CHI  HZ I         8 5 15.98        15.5 0.40            125            158 182 
 PAM  EZ EP        8 4 53.84                             119    0.43 9  179  38 
 PAM  EN ES        8 5 15.70                             119   -0.07 9  179  38 
 PAM  EZ I         8 5 19.28        25.3 0.28            121            179  38 
 HEL  HZ EP        8 4 56.20                             115    0.30 9  204 274 
 HEL  HN ES        8 5 19.27                             115   -0.93 9  204 274 
 HEL  HZ I         8 5 28.77        21.4 0.28            117            204 274 
 ZAR  HZ EP        8 4 55.10                             115   -0.39 9  204 321 
 ZAR  HN ES        8 5 18.86                             115   -0.62 9  204 321 
 ZAR  HZ I         8 5 21.51        95.3 0.28            117            204 321 
 GUY2CHZ EP        8 4 57.08                             115    0.69 8  207 244 
 GUY2CHN ES        8 5 21.38                             115    0.29 8  207 244 
 GUY2CHZ I         8 5 27.52        36.6 0.70                           207 244 
 VIL  SZ EP        8 4 57.08                             114    0.18 8  215 180 
 VIL  SN ES        8 5 22.42                             114    0.43 8  215 180 
 TAM  HZ EP        8 4 57.05                             114    0.35 8  215  79 
 TAM  HN ES        8 5 22.26                             114    0.62 8  215  79 
 TAM  HZ I         8 5 23.40        38.6 0.26            116            215  79 
 OCA  HZ EP        8 5  0.22                             111    0.00 8  245  10 
 OCA  HN ES        8 5 28.62                             111    0.73 8  245  10 
 OCA  HZ I         8 5 37.15        65.0 0.40            112            245  10 
 ANIL HZ EP        8 5  2.11                             109    0.31 8  257 228 
 ANIL HN ES        8 5 31.37                             109    0.65 8  257 228 
 ANIL HZ I         8 5 34.90        70.6 0.36            111            257 228 
 CBOC HZ EP        8 5  2.26                             109    0.53 8  258 265 
 CBOC HE ES        8 5 30.53                             109   -0.07 8  258 265 
 PTGC HZ EP        8 5  2.08                             108   -0.74 8  269 140 
 PTGC HN ES        8 5 31.73                             108   -0.79 8  269 140 
 PTGC HZ I         8 5 36.60        16.0 0.34            110            269 140 
 URE  HZ EP   9    8 5  1.81                             108   -1.88 0  276 313 
 URE  HN ES        8 5 31.34                                   -0.86 7  276 313 
 URE  HZ I         8 5 41.50        41.4 0.18            109            276 313 
 PRA  HZ EP        8 5  5.30                             107   -0.16 7  291 207 
 PRA  HN ES        8 5 37.55                             107    0.32 7  291 207 
 PRA  HZ I         8 5 44.71        18.6 0.54            108            291 207 
 ORTC HZ EP        8 5  6.00                             106    0.26 7  294 216 
 ORTC HN ES        8 5 38.01                             106    0.28 7  294 216 
 ORTC HZ I         8 5 43.54        34.5 0.58            108            294 216 
 DBB  SZ EP        8 5  6.17                             106   -0.11 7  298 291 
 DBB  SZ ES        8 5 38.69                             106    0.00 7  298 291 
 DBB  SZ I         8 5 47.27        30.3 0.64            107            298 291 
 SML  HZ EP        8 5  6.86                             106   -0.29 7  306 352 
 SML  HN ES        8 5 40.25                             106    0.02 7  306 352 
 PAL  HZ EP        8 5  7.92                             105   -0.26 7  314 246 
 PAL  HN ES        8 5 43.00                             105    0.94 7  314 246 
 SOCV BZ EP   4    8 5 16.84                             101   -1.32 0  398  52 
 SOCV BN ES   4    8 5 56.91                             101   -2.93 0  398  52 
 GUA  SZ EP        8 5 18.22                             100   -0.86 6  406 163 
 GUA  SN ES   4    8 5 59.46                             100   -2.01 0  406 163 
 GUA  SZ I         8 6  5.39        20.7 0.18            102            406 163 
 MACC HZ EP   4    8 5 20.51                              99   -1.81 0  433 182 
 MACC HN ES   4    8 6  3.53                              99   -3.71 0  433 182 
 MACC HZ I         8 6  8.59         4.5 0.36            101            433 182 
 SJC  HZ EP   4    8 5 23.51                              99   -1.48 0  455 339 
 SJC  HN ES   4    8 6  7.57                              99   -4.41 0  455 339 
 SJC  HZ I         8 6 11.65         8.1 0.40            100            455 339 
 GARC HZ EP        8 5 26.45                              98   -0.91 5  473 205 
 ELOV BZ EP        8 5 26.77                              98   -0.83 5  477  77 
 ELOV BN ES   4    8 6 13.88                              98   -2.76 0  477  77 
                                                                                
