 2010  630 0724  8.6 L   6.813 -73.072140.0  RSN  8 0.5 1.6LRSN                1
 GAP=164        1.06       7.2     9.5 11.2 -0.1939E+02 -0.1878E+02 -0.1618E+02E
 Epicentro: LOS SANTOS - SANTANDER                                             3
 ACTION:UP  10-08-24 10:14 OP:vdl  STATUS:               ID:20100630072408 L   I
 2010-06-30-0719-22S.COL___118                                                 6
 STAT SP IPHASW D HRMM SECON CODA AMPLIT PERI AZIMU VELO SNR AR TRES W  DIS CAZ7
 BAR2 SZ EP   2    724 27.33                             168    -0.3 5   27 207 
 BAR2 SZ ES   2    724 42.20                             168    -0.2 5   27 207 
 BRR  HZ EP   1    724 29.41                             149    -0.1 8   78 295 
 BRR  HE ES   1    724 46.19                             149     0.4 8   78 295 
 BRR  HZ I         724 51.10        13.9 0.15                            78 295 
 RUS  HZ EP   2    724 31.89                             142     0.1 5  102 181 
 RUS  HE ES   2    724 49.98                             142     0.0 5  102 181 
 RUS  HZ I         724 53.28         2.7 0.28                           102 181 
 BRI  SZ EP        724 32.21                             141     0.610  104  17 
 BRI  SZ ES   2    724 49.15                             141    -0.4 5  104  17 
 GUE  SZ EP        724 31.59                             139    -0.910  114   8 
 GRA  SZ IP        724 33.51                             137     0.510  122  14 
 OCA  SZ EP   1    724 36.14                             128    -0.3 7  160 350 
 OCA  SZ ES   2    724 58.13                             128     0.0 5  160 350 
 OCA  SZ I         725  1.95        10.4 0.21                           160 350 
 HEL  HZ EP   2    724 49.73                             113     0.3 4  280 256 
 HEL  HN ES   2    725 20.90                             113    -0.4 4  280 256 
 HEL  HZ I         725 28.13         2.0 0.25                           280 256 
                                                                                
