 2015  330 0936 21.2 L   6.777 -73.166145.7  RSN  7 0.5 1.7LRSN                1
 GAP=135        1.17       4.7     5.1  8.5 -0.3173E+01  0.1206E+02  0.3468E+01E
 Epicentro: LOS SANTOS - SANTANDER                                             3
 ACTION:UPD 15-04-30 16:30 OP:nd   STATUS:               ID:20150330093621 L   I
 OLDACT:UP  15-03-30 20:04 OP:mh   STATUS:               ID:20150330093049     3
 OLDACT:UP  15-03-30 20:03 OP:mh   STATUS:               ID:20150330093049     3
 OLDACT:REG 15-03-30 18:47 OP:akv  STATUS:               ID:20150330093049     3
 2015-03-30-0930-49M.COL___284                                                 6
 STAT SP IPHASW D HRMM SECON CODA AMPLIT PERI AZIMU VELO AIN AR TRES W  DIS CAZ7
 BRR  HZ EP        936 42.62                             153    0.3010 70.6 301 
 BRR  HN ES        936 59.52                             153    0.7410 70.6 301 
 BRR  HZ I         937  0.70        11.4 0.20            152           70.6 301 
 PAM  SZ EP        936 43.76                             150    0.1410 80.8  40 
 PAM  SE ES        937  0.53                             150   -0.5710 80.8  40 
 PAM  SZ I         937  2.96         6.7 0.47            153           80.8  40 
 RUS  HZ EP        936 44.99                             144    0.2010 98.2 175 
 RUS  HN ES        937  3.12                             144   -0.0510 98.2 175 
 RUS  HZ I         937  4.98         4.4 0.21            148           98.2 175 
 PTB  HZ EP        936 47.30                             132   -0.64 9  145 260 
 PTB  HN ES   1    937  8.29                             132   -0.49 7  145 260 
 PTB  HZ I         937 13.16         7.7 0.05            133            145 260 
 SPBC HZ EP   1    936 49.79                             130    0.40 7  160 219 
 SPBC HN ES        937 11.23                             130   -0.13 9  160 219 
 SPBC HZ I         937 14.46         8.1 0.18            131            160 219 
 ZAR  HZ EP        936 54.31                             122    0.76 9  203 293 
 ZAR  HN ES        937 18.16                             122   -0.61 9  203 293 
 ZAR  HZ I         937 25.61         6.2 0.32            124            203 293 
 NOR  HZ EP        936 55.97                             119   -0.62 8  231 235 
 NOR  HN ES        937 24.56                             119    0.38 8  231 235 
                                                                                
