 2014  830 0900  8.3 L   6.785 -73.210129.1  RSN  4 0.5 1.1LRSN                1
 GAP=229        1.27       8.9     9.2 11.6 -0.9300E+01  0.2627E+02  0.9365E+01E
 Epicentro: ZAPATOCA - SANTANDER                                               3
 ACTION:UPD 14-09-15 21:54 OP:nd   STATUS:               ID:20140830090008 L   I
 OLDACT:REG 14-08-30 14:58 OP:fm   STATUS:               ID:20140830085808     3
 2014-08-30-0858-08M.COL___275                                                 6
 STAT SP IPHASW D HRMM SECON CODA AMPLIT PERI AZIMU VELO AIN AR TRES W  DIS CAZ7
 BAR2 SZ EP        9 0 26.25                             170    0.3310 21.6 172 
 BAR2 SZ ES        9 0 39.03                             170   -0.6110 21.6 172 
 BAR2 SZ I         9 0 41.27         3.9 0.18            170           21.6 172 
 BRR  HZ EP        9 0 27.67                             151    0.2910 65.9 303 
 BRR  HN ES        9 0 42.70                             151    0.4610 65.9 303 
 PTB  HZ EP        9 0 32.54                             129   -0.76 9  140 259 
 PTB  HN ES        9 0 52.43                             129   -0.34 9  140 259 
 PTB  HZ I         9 0 55.88         1.7 0.16            130            140 259 
 SPBC HN ES        9 0 56.46                             126    0.59 9  157 217 
                                                                                
