 2011  330 0453 56.2 L   6.711 -73.082134.0  RSN  5 0.3 1.4LRSN                1
 GAP=189        0.80       7.4     8.3  9.5 -0.2475E+02 -0.2242E+02  0.7204E+01E
 Epicentro: JORDAN - SANTANDER                                                 3
 ACTION:UP  11-06-16 14:36 OP:jfem STATUS:               ID:20110330045356 L   I
 2011-03-30-0449-26S.COL___138                                                 6
 STAT SP IPHASW D HRMM SECON CODA AMPLIT PERI AZIMU VELO SNR AR TRES W  DIS CAZ7
 BAR2 SZ EP        454 14.37                             172     0.010   17 220 
 BAR2 SZ ES   2    454 28.19                             172    -0.3 5   17 220 
 BAR2 SZ I         454 30.22         6.1 0.28                            17 220 
 BTL  SZ EP        454 14.93                             166     0.310   31 318 
 PAM  SZ EP        454 17.36                             147    -0.110   81  31 
 PAM  SZ I         454 17.60         4.0 0.25                            81  31 
 PAM  SN ES   2    454 33.94                             147    -0.1 5   81  31 
 BRR  HZ EP        454 16.34                             147    -0.510   82 302 
 BRR  HN ES   1    454 33.24                             147     0.3 7   82 302 
 BRR  HZ I         454 34.18         6.9 0.24                            82 302 
 GRA  SZ EP        454 21.43                             132     0.310  133  13 
 GRA  SZ ES   1    454 40.32                             132    -0.2 7  133  13 
 GRA  SZ I         454 42.98         3.4 0.31                           133  13 
                                                                                
