 2017  530 0920 47.3 L   6.723 -73.195152.9  RSN  4 0.2 1.3LRSN                1
 GAP=226        0.54       3.4     4.0  5.5  0.4123E+01 -0.1754E+01 -0.1316E+01E
 Epicentro: VILLANUEVA - SANTANDER                                             3
 ACTION:UPD 17-06-16 13:40 OP:jn   STATUS:               ID:20170530092047 L   I
 OLDACT:REG 17-05-30 12:37 OP:osc  STATUS:               ID:20170530091737     3
 2017-05-30-0918-00M.COL___335                                                 6
 STAT SP IPHASW D HRMM SECON CODA AMPLIT PERI AZIMU VELO AIN AR TRES W  DIS CAZ7
 BRR  HZ EP        921  9.39                             154    0.1910 71.2 307 
 BRR  HN ES        921 26.33                             154    0.0310 71.2 307 
 RUS  HZ EP        921 11.30                             147    0.1110 92.6 172 
 RUS  HN ES        921 29.66                             147   -0.1910 92.6 172 
 RUS  HZ I         921 31.40         2.4 0.28            148           92.6 172 
 PTB  HZ EP        921 13.91                             135   -0.32 9  141 262 
 PTB  HN ES        921 35.18                             135   -0.09 9  141 262 
 PTB  HZ I         921 37.00         2.9 0.68            136            141 262 
 SPBC HN ES        921 37.61                             133    0.26 9  153 219 
                                                                                
