 2010 1030 0905 34.2 L   6.737 -73.151151.1  RSN  8 0.5 2.0LRSN                1
 GAP=156        1.07       5.5    10.3 11.6 -0.1613E+01 -0.5629E+02 -0.1350E+02E
 Epicentro: JORDAN - SANTANDER                                                 3
 ACTION:UP  11-02-18 11:13 OP:tino STATUS:               ID:20101030090534 L   I
 2010-10-30-0902-50S.COL___127                                                 6
 STAT SP IPHASW D HRMM SECON CODA AMPLIT PERI AZIMU VELO SNR AR TRES W  DIS CAZ7
 GIR2 SZ EP        9 5 54.66                             165     0.010   38 353 
 BRR  HZ EP        9 5 56.39                             152     0.310   74 303 
 BRR  HN ES        9 6 13.62                             152     0.510   74 303 
 BRR  HZ I         9 6 18.06        35.2 0.16                            74 303 
 RUS  HZ EP        9 5 58.19                             147     0.210   94 175 
 RUS  HN ES   1    9 6 16.08                             147    -0.5 7   94 175 
 RUS  HZ I         9 6 18.19        12.4 0.94                            94 175 
 BRI  SZ EP        9 5 59.25                             141     0.210  115  20 
 GUE  SZ EP        9 5 59.68                             139    -0.210  123  12 
 GUE  SZ I         9 6  0.93         8.9 0.11                           123  12 
 GRA  SZ EP        9 6  0.46                             137     0.010  133  17 
 GRA  SZ I         9 6  1.79        17.2 0.19                           133  17 
 GRA  SZ ES   2    9 6 20.00                             137    -0.9 5  133  17 
 OCA  SZ EP        9 6  3.26                             129    -0.3 9  167 354 
 OCA  SZ ES   2    9 6 25.60                             129    -0.8 5  167 354 
 OCA  SZ I         9 6 29.42        22.1 1.17                           167 354 
 NOR  SN ES   2    9 6 36.21                             120    -1.3 4  230 236 
 NOR  SZ I         9 6 43.72         1.7 0.57                           230 236 
                                                                                
