 2010  130 0135 18.8 L   6.811 -73.024149.1  RSN 10 0.5 2.1LRSN                1
 GAP=195        1.04       4.5     9.3  9.7 -0.1158E+02  0.3240E+02  0.9716E+01E
 Epicentro: CEPITA - SANTANDER                                                 3
 ACTION:UP  10-08-24 09:46 OP:vdl  STATUS:               ID:20100130013518 L   I
 2010-01-30-0134-45S.COL___094                                                 6
 STAT SP IPHASW D HRMM SECON CODA AMPLIT PERI AZIMU VELO SNR AR TRES W  DIS CAZ7
 BAR2 SZ EP        135 39.07                             168     0.110   30 216 
 BAR2 SZ ES   2    135 54.21                             168    -0.5 5   30 216 
 GIR2 SZ EP   1    135 39.30                             166     0.3 7   35 328 
 GIR2 SZ ES   2    135 54.08                             166    -0.6 5   35 328 
 RUS  BZ EP        135 42.95                             144     0.010  102 184 
 RUS  BZ I         135 44.16        13.3 0.43                           102 184 
 OCA  SZ EP        135 47.48                             130     0.0 9  161 348 
 OCA  SZ ES   1    136 10.31                             130     0.5 7  161 348 
 CHI  HZ EP        135 57.05                             117    -0.2 8  254 198 
 CHI  HN ES        136 27.30                             117     0.1 8  254 198 
 CHI  HZ I         136 30.05         9.8 1.15                           254 198 
 HEL  HN ES   2    136 33.10                             114    -0.2 4  285 256 
 HEL  HZ I         136 37.80         7.7 0.25                           285 256 
 RREF BZ EP        136  7.20                             111     0.8 7  333 231 
 RREF BE ES        136 44.08                             111     0.6 7  333 231 
 DBB  SZ EP        136  7.14                             109    -0.8 6  353 274 
 TOL  SZ EP        136  7.01                             109    -1.4 6  354 226 
 PRA  HZ EP        136 13.43                             107     0.1 6  400 211 
 PRA  HN ES        136 56.28                             107     0.4 6  400 211 
                                                                                
