 2015 1230 0527 19.8 L   6.795 -73.157151.7  RSN  8 0.4 1.6LRSN                1
 GAP=200        1.03       3.6     5.8  6.1  0.6827E+01  0.2183E+01 -0.1871E+01E
 Epicentro: LOS SANTOS - SANTANDER                                             3
 ACTION:UPD 16-02-04 15:09 OP:cam  STATUS:               ID:20151230052719 L   I
 OLDACT:REG 15-12-30 12:52 OP:ak   STATUS:               ID:20151230051748     3
 2015-12-30-0517-48M.COL___334                                                 6
 STAT SP IPHASW D HRMM SECON CODA AMPLIT PERI AZIMU VELO AIN AR TRES W  DIS CAZ7
 BAR2 EZ EP        527 40.17                             171    0.0610 22.6 187 
 BAR2 EZ ES        527 55.83                             171   -0.1310 22.6 187 
 BAR2 EZ I         527 56.75         5.8 0.18            169           22.6 187 
 BRR  HZ EP        527 42.12                             154    0.6010 70.3 299 
 BRR  HN ES        527 59.20                             154    0.7110 70.3 299 
 BRR  HZ I         528  0.36        20.2 0.04            150           70.3 299 
 RUS  HZ EP        527 43.96                             145   -0.1310  100 175 
 RUS  HE ES        528  2.60                             145   -0.4510  100 175 
 RUS  HZ I         528  5.64         3.1 0.42            145            100 175 
 PTB  HZ EP        527 46.59                             134   -0.53 9  146 259 
 PTB  HN ES        528  8.03                             134   -0.41 9  146 259 
 PTB  HZ I         528 14.03         3.7 0.14            131            146 259 
 SPBC HZ EP        527 49.10                             131    0.47 9  162 219 
 SPBC HN ES        528 10.95                             131   -0.18 9  162 219 
 SPBC HZ I         528 13.95         6.5 0.24            129            162 219 
 ZAR  HZ EP        527 52.06                             124   -0.46 9  203 292 
 ZAR  HN ES        528 18.35                             124    0.30 9  203 292 
 ZAR  HZ I         528 24.68         2.7 0.17            123            203 292 
 SML  HZ EP        527 56.59                             119   -0.15 8  244 336 
 SML  HE ES        528 25.06                             119   -0.51 8  244 336 
 SML  HZ I         528 31.70         5.0 0.11            119            244 336 
 CHI  HZ EP        527 58.24                             118    0.52 8  248 195 
 CHI  HN ES        528 27.50                             118    0.18 8  248 195 
 CHI  HZ I         528 33.35         1.0 0.68            119            248 195 
 PRA  HZ EP   4    528 14.98                             108    1.60 0  391 209 
 PRA  HE ES   4    528 51.07                             108   -4.12 0  391 209 
                                                                                
