 2010  630 0707  8.5 L   6.431 -72.854  4.0  RSN  6 0.5 0.8LRSN                1
 GAP=201        0.87       3.4     6.8 10.2 -0.5352E+00  0.3455E+02 -0.4975E+01E
 Epicentro: SAN JOAQUIN - SANTANDER                                            3
 ACTION:UP  10-08-24 10:14 OP:vdl  STATUS:               ID:20100630070708 L   I
 2010-06-30-0702-59S.COL___118                                                 6
 STAT SP IPHASW D HRMM SECON CODA AMPLIT PERI AZIMU VELO SNR AR TRES W  DIS CAZ7
 BAR2 SZ EP   1    7 7 14.98                              47    -0.5 7   41 296 
 BAR2 SZ ES   2    7 7 19.94                              47    -1.0 5   41 296 
 RUS  HZ EP   1    7 7 19.42                              47     0.0 7   65 203 
 RUS  HE ES   2    7 7 27.84                              47    -0.1 5   65 203 
 RUS  HZ I         7 7 29.12         3.3 0.26                            65 203 
 BRR  HZ EP   1    7 7 27.84                              47     0.5 7  121 308 
 BRR  HN ES   1    7 7 42.76                              47     0.7 7  121 308 
 BRR  HZ I         7 7 43.72         3.1 0.13                           121 308 
 BRI  SZ EP   2    7 7 30.78                              47     0.0 5  142   3 
 GUE  SZ EP   2    7 7 32.49                              47    -0.4 5  155 357 
 GRA  SZ EP   2    7 7 34.14                              47     0.5 5  161   2 
 GRA  SZ ES   2    7 7 52.62                              47    -0.6 5  161   2 
                                                                                
