 2012  430 0207 21.0 L   6.667 -73.177155.4  RSN  4 0.2 1.3LRSN                1
 GAP=224        0.47       5.8     5.2  7.0  0.1178E+02 -0.6056E+01  0.4207E+01E
 Epicentro: VILLANUEVA - SANTANDER                                             3
 ACTION:UPD 12-07-05 11:56 OP:tino STATUS:               ID:20120430020721 L   I
 2012-04-30-0200-00M.COL___189                                                 6
 STAT SP IPHASW D HRMM SECON CODA AMPLIT PERI AZIMU VELO AIN AR TRES W  DIS CAZ7
 BAR2 SZ EP   1    2 7 41.43                             177    -0.2 7    8 184 
 BRR  HZ EP   1    2 7 43.63                             152     0.1 7   77 309 
 BRR  HE ES   1    2 8  1.09                             152     0.0 7   77 309 
 BRR  HZ I         2 8  2.55         4.7 0.19                            77 309 
 RUS  HZ EP   1    2 7 45.10                             150     0.3 7   86 173 
 RUS  HN ES   2    2 8  3.19                             150    -0.2 5   86 173 
 PTB  HZ EP   1    2 7 48.04                             135    -0.3 7  142 264 
 PTB  HE ES   1    2 8  9.69                             135     0.1 7  142 264 
 PTB  HZ I         2 8 16.46         1.4 0.52                           142 264 
                                                                                
