 2016  930 0837 27.9 L   6.792 -73.154145.2  RSN 13 0.3 1.9LRSN                1
 GAP=136        0.85       2.5     3.1  4.8 -0.1110E+01  0.4831E+01  0.1997E+01E
 Epicentro: LOS SANTOS - SANTANDER                                             3
 ACTION:UPD 17-08-17 21:18 OP:lp   STATUS:               ID:20160930083727 L   I
 OLDACT:DUP 16-09-30 18:03 OP:cara STATUS:               ID:20160930082746d    3
 OLDACT:DUP 16-09-30 17:59 OP:cara STATUS:               ID:20160930082745d    3
 2016-09-30-0828-00M.COL___369                                                 6
 STAT SP IPHASW D HRMM SECON CODA AMPLIT PERI AZIMU VELO AIN AR TRES W  DIS CAZ7
 BAR2 EZ EP        837 47.42                             171   -0.0510 22.3 188 
 BAR2 EZ ES        838  2.51                             171   -0.2010 22.3 188 
 BAR2 EZ I         838  3.59        24.5 0.18            169           22.3 188 
 BRR  HZ EP        837 49.39                             153    0.4010 70.8 300 
 BRR  HN ES        838  6.12                             153    0.7010 70.8 300 
 BRR  HZ I         838  7.61        10.9 0.20            149           70.8 300 
 PAM  EZ IP        837 50.37                             150    0.2110 78.7  40 
 PAM  EN ES        838  7.56                             150    0.0610 78.7  40 
 PAM  EZ I         838  9.60         9.8 0.54            154           78.7  40 
 RUS  HZ EP        837 51.31                             144   -0.2510 99.8 175 
 RUS  HE ES        838 10.05                             144    0.0510 99.8 175 
 RUS  HZ I         838 10.93        11.1 0.28            146           99.8 175 
 PTB  HZ EP        837 54.29                             132   -0.46 9  147 259 
 PTB  HN ES        838 15.15                             132   -0.51 9  147 259 
 PTB  HZ I         838 22.39        11.9 0.42            131            147 259 
 OCA  HN ES        838 17.87                             129   -0.50 9  161 354 
 OCA  HZ I         838 22.46        25.6 0.34            130            161 354 
 SPBC HZ EP        837 56.21                             129   -0.05 9  162 219 
 SPBC HN ES        838 18.34                             129   -0.01 9  162 219 
 SPBC HZ I         838 20.83        17.9 0.34            129            162 219 
 ZAR  HZ EP        838  0.27                             122   -0.01 9  204 292 
 ZAR  HE ES        838 25.40                             122   -0.11 9  204 292 
 ZAR  HZ I         838 32.34         9.7 0.40            122            204 292 
 NOR  HN ES        838 30.81                             118   -0.41 8  233 235 
 NOR  HZ I         838 36.47         7.6 0.28            118            233 235 
 CHI  HZ EP        838  5.36                             117   -0.11 8  248 195 
 CHI  HN ES        838 34.99                             117    0.23 8  248 195 
 CHI  HZ I         838 40.20         2.6 0.32            118            248 195 
 HEL  HN ES   4    838 36.80                             115   -2.42 0  271 256 
 HEL  HZ I         838 46.19         4.9 0.28            115            271 256 
 GUY2CHZ EP   4    838 12.98                             112    1.62 0  300 235 
 GUY2CHE ES        838 45.47                             112    0.23 7  300 235 
 GUY2CHZ I         838 53.62         5.3 0.28                           300 235 
 PTGC HZ EP   4    838 10.29                             111   -1.41 0  308 158 
 PTGC HN ES   4    838 43.62                             111   -2.23 0  308 158 
 CBOC HZ EP        838 15.51                             110    0.83 7  332 252 
 CBOC HN ES        838 51.51                             110    0.36 7  332 252 
 CBOC HZ I         838 58.79         1.5 0.46            110            332 252 
                                                                                
