 2012  830 0513 28.4 L   6.657 -73.177136.0  RSN  4 0.4 0.9LRSN                1
 GAP=187        0.69      13.7     8.5 11.3 -0.6503E+01  0.9654E+01  0.9830E+02E
 Epicentro: VILLANUEVA - SANTANDER                                             3
 ACTION:UPD 12-09-10 11:59 OP:ep   STATUS:               ID:20120830051328 L   I
 2012-08-30-0510-00M.COL___218                                                 6
 STAT SP IPHASW D HRMM SECON CODA AMPLIT PERI AZIMU VELO AIN AR TRES W  DIS CAZ7
 BAR2 SZ EP   1    513 46.76                             177    0.11 7 7.15 185 
 BAR2 SZ ES   3    514  1.58                             177    0.71 2 7.15 185 
 GIR2 SZ ES   2    514  1.32                             159   -1.03 5 46.7 358 
 BRR  HZ EP        513 49.17                             148    0.2610 77.3 310 
 BRR  HN ES   1    514  5.06                             148    0.18 7 77.3 310 
 PTB  HZ EP        513 53.87                             130   -0.22 9  142 265 
 PTB  HN ES   2    514 14.02                             130   -0.09 5  142 265 
 PTB  HZ I         514 19.62         1.1 0.12                           142 265 
                                                                                
