 2016 1230 0344  3.1 L   6.820 -73.102150.7  RSN 20 0.6 2.2LRSN                1
 GAP= 69        1.37       4.5     4.1  6.3  0.1210E+00  0.8570E+01 -0.3986E+00E
 Epicentro: LOS SANTOS - SANTANDER                                             3
 ACTION:UPD 17-01-11 20:20 OP:rebc STATUS:               ID:20161230034403 L   I
 OLDACT:UP  16-12-30 16:18 OP:edw  STATUS:               ID:20161230033743     3
 OLDACT:UP  16-12-30 16:17 OP:edw  STATUS:               ID:20161230033743     3
 OLDACT:REG 16-12-30 12:46 OP:edw  STATUS:               ID:20161230033743     3
 2016-12-30-0338-00M.COL___374                                                 6
 STAT SP IPHASW D HRMM SECON CODA AMPLIT PERI AZIMU VELO AIN AR TRES W  DIS CAZ7
 BAR2 EZ EP        344 23.42                             169    0.0210 26.7 199 
 BAR2 EZ ES        344 38.48                             169   -0.7510 26.7 199 
 BAR2 EZ I         344 40.58        49.4 0.26            165           26.7 199 
 PAM  EZ EP     D  344 26.27                             153    0.6910 72.6  38 
 PAM  EN ES        344 43.23                             153    0.1210 72.6  38 
 PAM  EZ I         344 45.26        44.8 0.54            151           72.6  38 
 BRR  HZ EP        344 25.44                             152    0.4610 74.4 295 
 BRR  HE ES        344 42.34                             152    0.3110 74.4 295 
 BRR  HZ I         344 45.60        18.6 0.14            153           74.4 295 
 RUS  HZ EP     C  344 27.23                             144   -0.2610  103 179 
 RUS  HN ES        344 45.77                             144   -0.7410  103 179 
 RUS  HZ I         344 47.13        31.9 0.32            139            103 179 
 TAM  HZ IP   4 D  344 31.69                             132    0.87 0  151 106 
 TAM  HZ I         344 51.38        12.4 0.16            127            151 106 
 TAM  HN ES        344 52.68                             132    0.25 9  151 106 
 PTB  HZ EP   9    344 30.32                             132   -0.63 0  153 258 
 PTB  HN ES        344 51.26                             132   -0.77 9  153 258 
 PTB  HZ I         344 54.30        27.7 0.14            130            153 258 
 ZAR  HZ EP        344 36.65                             123    0.40 8  208 291 
 ZAR  HN ES        345  2.40                             123    0.30 8  208 291 
 ZAR  HZ I         345  7.59        24.5 0.32            121            208 291 
 NOR  HZ EP        344 39.99                             119    0.30 8  240 235 
 NOR  HN ES        345  7.67                             119   -0.54 8  240 235 
 NOR  HZ I         345 11.78        11.9 0.12            116            240 235 
 CHI  HZ EP   9    344 41.60                             118    0.14 0  252 196 
 CHI  HN ES        345 10.82                             117   -0.69 8  252 196 
 CHI  HZ I         345 20.63         4.0 0.30            114            252 196 
 ROSC BZ EP   4    344 43.60                             117    1.62 0  257 212 
 ROSC BE ES        345 13.61                             117    1.31 8  257 212 
 ROSC BZ I         345 21.14         9.7 0.35            114            257 212 
 URE  HZ EP        344 44.07                             114   -0.76 7  287 291 
 URE  HN ES   4    345 15.48                             114   -1.88 0  287 291 
 URE  HZ I         345 17.78        19.2 0.12            112            287 291 
 GUY2CHZ EP   4    344 49.14                             113    1.60 0  306 235 
 GUY2CHN ES   4    345 25.06                             113    2.87 0  306 235 
 GUY2CHZ I         345 30.21         5.4 0.44                           306 235 
 PTGC HZ EP        344 46.57                             112   -0.67 7  309 160 
 PTGC HN ES   4    345 19.58                             112   -2.08 0  309 160 
 PTGC HZ I         345 26.41         9.5 0.30            109            309 160 
 LL6C HZ EP   4    344 28.95                             111   -19.8 0  323 357 
 LL6C HZ ES   4    345  2.86                             111   -21.6 0  323 357 
 ELA  HN ES   4    345 30.53                             111    2.61 0  334 230 
 CBOC HZ EP   4    344 51.95                             110    1.12 0  339 252 
 CBOC HN ES        345 28.47                             110    0.41 7  339 252 
 CBOC HZ I         345 30.13         3.5 0.20            108            339 252 
 DBB  EZ EP        344 51.59                             110    0.27 7  344 274 
 DBB  EN ES        345 27.75                             110   -1.17 7  344 274 
 DBB  EZ I         345 31.03         7.3 0.38            108            344 274 
 ANIL HZ EP   4    344 48.04                             109   -5.64 0  362 225 
 ANIL HE ES   4    345 35.90                             109    2.77 0  362 225 
 ANIL HZ I         345 44.52        16.3 0.30            106            362 225 
 ORTC HZ EP        344 58.64                             107    0.89 6  400 217 
 ORTC HN ES        345 41.24                             107    0.88 6  400 217 
 ORTC HZ I         345 46.53         3.2 0.34            104            400 217 
 APAC HZ EP        344 57.61                             107   -0.31 6  402 287 
 APAC HN ES        345 39.78                             107   -0.89 6  402 287 
 APAC HZ I         345 44.75         3.6 0.30            105            402 287 
 SJC  HZ IP     D  344 58.44                             106   -0.49 6  410 326 
 SJC  HN ES   4    345 38.99                             106   -3.47 0  410 326 
 SJC  HZ I         345 43.86         2.1 0.26            104            410 326 
 CRJC HZ EP        345  4.16                             104   -1.29 5  465   3 
 CRJC HN ES   4    345 50.45                             104   -3.63 0  465   3 
                                                                                
