 2011 1230 0721 24.6 L   6.813 -73.220133.1  RSN  5 0.3 1.4LRSN                1
 GAP=230        0.60       7.9     8.8  8.7  0.5021E+02  0.1841E+02 -0.5909E+01E
 Epicentro: ZAPATOCA - SANTANDER                                               3
 ACTION:UPD 12-07-13 16:19 OP:ep   STATUS:               ID:20111230072124 L   I
 2011-12-30-0720-00M.COL___186                                                 6
 STAT SP IPHASW D HRMM SECON CODA AMPLIT PERI AZIMU VELO AIN AR TRES W  DIS CAZ7
 BAR2 SZ EP        721 42.62                             169   -0.1610 24.7 170 
 BAR2 SZ ES   1    721 56.63                             169   -0.29 7 24.7 170 
 BAR2 SZ I         721 58.83         4.7 0.38                          24.7 170 
 BRR  HZ EP   1    721 44.43                             153    0.45 7 63.4 301 
 BRR  HZ I         721 44.70         8.6 0.17                          63.4 301 
 RUS  HN ES   1    722  5.34                             140    0.29 7  103 172 
 ZAR  HN ES   1    722 19.40                             120   -0.06 6  196 293 
 ZAR  HZ I         722 26.86         2.0 0.14                           196 293 
 CHI  HZ EP   2    722  1.14                             114   -0.46 4  248 193 
                                                                                
