 2011 1130 0157 20.5 L   6.793 -73.115140.2  RSN  6 0.3 1.7LRSN                1
 GAP=141        0.62       3.3     5.5  5.3 -0.1677E+01  0.2506E+01  0.3597E+01E
 Epicentro: LOS SANTOS - SANTANDER                                             3
 ACTION:UPD 12-07-13 16:13 OP:ep   STATUS:               ID:20111130015720 L   I
 2011-11-30-0153-36S.COL___160                                                 6
 STAT SP IPHASW D HRMM SECON CODA AMPLIT PERI AZIMU VELO AIN AR TRES W  DIS CAZ7
 BAR2 SZ EP        157 39.33                             170   -0.1710 23.4 199 
 BAR2 SZ ES   1    157 53.83                             170   -0.47 7 23.4 199 
 BAR2 SZ I         157 55.67        15.8 0.21                          23.4 199 
 BRR  HZ EP        157 41.15                             150   -0.1410 74.6 298 
 BRR  HZ I         157 42.67         9.3 0.12                          74.6 298 
 BRR  HN ES   1    157 57.75                             150    0.27 7 74.6 298 
 PAM  SZ EP        157 42.23                             150    0.1510 75.9  37 
 PAM  SN ES   1    157 59.17                             150    0.30 7 75.9  37 
 RUS  HZ EP        157 43.44                             143   -0.2410 99.6 178 
 RUS  HN ES   1    158  2.02                             143    0.30 7 99.6 178 
 RUS  HZ I         158  2.99         6.5 0.20                          99.6 178 
 OCA  SZ ES   2    158 10.13                             128   -0.26 5  162 352 
 CTAU SZ EP        157 53.57                             121    0.32 9  204 210 
                                                                                
