 2011 1130 0556 14.7 L   6.800 -73.102143.9  RSN  7 0.4 1.6LRSN                1
 GAP=142        0.94       5.2     8.5  7.2 -0.9888E+01  0.8194E+01  0.7090E+01E
 Epicentro: LOS SANTOS - SANTANDER                                             3
 ACTION:UPD 12-07-13 16:13 OP:ep   STATUS:               ID:20111130055614 L   I
 2011-11-30-0554-41S.COL___160                                                 6
 STAT SP IPHASW D HRMM SECON CODA AMPLIT PERI AZIMU VELO AIN AR TRES W  DIS CAZ7
 BAR2 SZ EP        556 33.82                             170   -0.3110 24.7 201 
 BAR2 SZ ES   1    556 48.99                             170   -0.29 7 24.7 201 
 BAR2 SZ I         556 50.40        18.5 0.22                          24.7 201 
 PAM  SZ EP        556 36.76                             152    0.2310 74.4  37 
 PAM  SE ES   1    556 54.18                             152    0.62 7 74.4  37 
 BRR  HZ EP        556 35.65                             151   -0.2410 75.5 297 
 BRR  HE ES   1    556 52.80                             151    0.38 7 75.5 297 
 BRR  HZ I         556 53.55         7.2 0.12                          75.5 297 
 RUS  HZ EP        556 38.09                             143   -0.1610  100 179 
 RUS  HN ES   2    556 56.15                             143   -0.47 5  100 179 
 RUS  HZ I         556 57.77         6.0 0.36                           100 179 
 OCA  SZ EP        556 42.42                             129   -0.50 9  161 351 
 OCA  SZ I         557  7.81         2.5 0.20                           161 351 
 CTAU SZ EP        556 47.88                             122    0.08 9  205 211 
 CTAB SZ EP        556 51.46                             119    0.85 8  232 212 
                                                                                
