 2016  630 0135 36.7 L   6.727 -73.149146.3  RSN  6 0.3 1.5LRSN                1
 GAP=231        0.88       4.9     5.2  6.5  0.9868E+01  0.6132E+01  0.2065E+01E
 Epicentro: JORDAN - SANTANDER                                                 3
 ACTION:UPD 16-07-21 22:24 OP:rebc STATUS:               ID:20160630013536 L   I
 OLDACT:REG 16-06-30 12:36 OP:edw  STATUS:               ID:20160630012742     3
 2016-06-30-0127-42M.COL___349                                                 6
 STAT SP IPHASW D HRMM SECON CODA AMPLIT PERI AZIMU VELO AIN AR TRES W  DIS CAZ7
 BAR2 EZ EP        135 55.75                             174   -0.4610 15.4 194 
 BAR2 EZ ES        136 11.20                             174   -0.2710 15.4 194 
 BAR2 EZ I         136 11.63         7.1 0.22                          15.4 194 
 BRR  HZ EP        135 57.92                             151   -0.1610 75.1 304 
 BRR  HE ES        136 15.34                             151    0.5410 75.1 304 
 BRR  HZ I         136 42.56        11.4 0.36                          75.1 304 
 RUS  HZ EP        136  0.53                             146    0.6410 92.6 176 
 RUS  HE ES        136 17.98                             146   -0.0510 92.6 176 
 RUS  HZ I         136 19.09         2.9 0.24                          92.6 176 
 PTB  HZ EP        136  3.18                             132   -0.33 9  146 262 
 PTB  HE ES        136 24.31                             132   -0.15 9  146 262 
 PTB  HZ I         136 25.68         5.5 0.20                           146 262 
 SPBC HZ EP        136  4.78                             130    0.19 9  157 221 
 SPBC HN ES        136 26.37                             130   -0.01 9  157 221 
 SPBC HZ I         136 28.74         3.9 0.46                           157 221 
 ZAR  HN ES        136 35.03                             122    0.04 8  207 294 
                                                                                
