 2016  330 0031 17.3 L   6.844 -73.154141.0  RSN 20 0.5 2.1LRSN                1
 GAP= 56        1.17       3.2     2.9  5.9 -0.1182E+01  0.6406E+01 -0.1158E+01E
 Epicentro: LOS SANTOS - SANTANDER                                             3
 ACTION:UPD 16-05-13 21:28 OP:cam  STATUS:               ID:20160330003117 L   I
 OLDACT:REG 16-03-30 13:09 OP:ak   STATUS:               ID:20160330002749     3
 2016-03-30-0027-49M.COL___314                                                 6
 STAT SP IPHASW D HRMM SECON CODA AMPLIT PERI AZIMU VELO AIN AR TRES W  DIS CAZ7
 BAR2 EZ EP        031 36.53                             168    0.0910 28.0 186 
 BAR2 EZ ES        031 51.52                             168    0.1210 28.0 186 
 BAR2 EZ I         031 54.92        16.4 0.27            169           28.0 186 
 PAM  EZ EP        031 39.30                             151    0.5010 74.3  42 
 PAM  EN ES        031 56.08                             151    0.4910 74.3  42 
 PAM  EZ I         031 58.52        25.6 0.66            155           74.3  42 
 RUS  HZ EP        031 40.36                             141   -0.5710  106 176 
 RUS  HN ES        031 58.61                             141   -0.7810  106 176 
 PTB  HZ EP        031 43.51                             131   -0.36 9  148 257 
 PTB  HN ES        032  4.03                             131   -0.59 9  148 257 
 PTB  HZ I         032  7.08        23.1 0.14            132            148 257 
 OCA  HZ EP        031 45.10                             129    0.35 9  155 353 
 OCA  HN ES        032  5.92                             129   -0.26 9  155 353 
 OCA  HZ I         032 11.14        35.4 0.36            132            155 353 
 TAM  HZ EP        031 45.05                             129    0.26 9  157 107 
 TAM  HE ES        032  5.77                             129   -0.48 9  157 107 
 SPBC HZ EP        031 45.89                             127    0.16 9  166 218 
 SPBC HN ES        032  8.26                             127    0.33 9  166 218 
 SPBC HZ I         032 13.95        12.6 0.23            129            166 218 
 ZAR  HZ EP        031 48.62                             121   -0.52 9  201 291 
 ZAR  HN ES        032 15.03                             121    1.03 9  201 291 
 ZAR  HZ I         032 20.21        16.1 0.28            123            201 291 
 NOR  HZ EP        031 53.10                             117    0.13 8  237 233 
 NOR  HN ES        032 21.03                             117    0.23 8  237 233 
 NOR  HZ I         032 26.39        14.7 0.14            119            237 233 
 HEL  HZ EP   4    031 58.66                             114    1.37 0  272 255 
 HEL  HE ES        032 28.94                             114    0.44 8  272 255 
 HEL  HZ I         032 35.22         7.3 0.42            115            272 255 
 URE  HZ EP   4    032  0.22                             113    2.40 0  281 291 
 URE  HE ES        032 28.57                             113   -0.88 7  281 291 
 URE  HZ I         032 37.21        11.8 0.26            114            281 291 
 GUY2CHZ EP        032  1.05                             111    0.14 7  303 234 
 GUY2CHN ES        032 35.57                             111    0.63 7  303 234 
 GUY2CHZ I         032 42.17         5.4 0.68                           303 234 
 PTGC HZ EP   9    031 59.96                             110   -1.52 0  314 159 
 PTGC HE ES        032 33.45                                   -0.99 7  314 159 
 CBOC HZ EP        032  4.80                             109    0.73 7  334 251 
 CBOC HN ES        032 39.93                             109   -0.65 7  334 251 
 CBOC HZ I         032 52.74         3.0 0.50            111            334 251 
 DBB  SZ EP        032  5.05                             108    0.63 7  338 273 
 DBB  SZ ES        032 40.51                             108   -0.68 7  338 273 
 MON  HZ EP   4    032  4.28                             108   -1.38 0  350 308 
 MON  HE ES        032 43.12                             108   -0.28 6  350 308 
 MON  HZ I         032 43.47         2.8 0.18            110            350 308 
 SDV  BZ EP        032  6.16                             107   -0.70 6  358  51 
 SDV  BE ES   4    032 42.43                             107   -3.10 0  358  51 
 SDV  BZ I         032 45.26         1.4 0.55            110            358  51 
 ORTC HZ EP   2    032 11.84                             105    0.40 3  399 216 
 ORTC HN ES        032 54.47                             105    0.78 6  399 216 
 ORTC HZ I         032 58.11         3.1 0.16            107            399 216 
 SJC  HZ EP   2    032 11.20                             105   -0.94 3  405 327 
 SJC  HN ES   4    032 51.59                             105   -3.35 0  405 327 
 SJC  HZ I         032 55.71         3.2 0.40            107            405 327 
 PAL  HZ EP        032 12.71                             105    0.22 6  407 238 
 PAL  HN ES   4    032 53.73                             105   -1.82 0  407 238 
                                                                                
