 2014 1130 0434  1.4 L   6.821 -73.189137.5  RSN  6 0.4 1.7LRSN                1
 GAP=179        0.95       4.0     6.7 11.0 -0.8941E+01  0.2788E+02 -0.1531E+02E
 Epicentro: ZAPATOCA - SANTANDER                                               3
 ACTION:UPD 14-12-19 15:48 OP:nd   STATUS:               ID:20141130043401 L   I
 OLDACT:REG 14-11-30 13:24 OP:mh   STATUS:               ID:20141130042744     3
 2014-11-30-0427-44M.COL___300                                                 6
 STAT SP IPHASW D HRMM SECON CODA AMPLIT PERI AZIMU VELO AIN AR TRES W  DIS CAZ7
 BAR2 SZ EP   1    434 20.25                             169    0.21 8 25.3 178 
 BAR2 SZ I         434 37.54         9.5 0.38            173           25.3 178 
 RUS  HN ES        434 42.78                             141    0.2010  103 174 
 RUS  HZ I         434 43.86         9.2 0.38            146            103 174 
 PTB  HZ EP        434 26.73                             131   -0.55 9  144 258 
 PTB  HN ES   1    434 47.44                             131   -0.06 7  144 258 
 PTB  HZ I         434 54.67         6.6 0.22            134            144 258 
 OCA  HZ EP        434 29.28                             128    0.51 9  157 355 
 OCA  HN ES        434 49.86                             128   -0.30 9  157 355 
 OCA  HZ I         434 56.63         5.9 0.44            129            157 355 
 SPBC HZ EP        434 28.69                             127   -0.44 9  162 217 
 SPBC HN ES        434 50.66                             127   -0.13 9  162 217 
 HEL  HZ EP   1    434 41.12                             113    0.41 6  268 255 
 HEL  HN ES   1    435 12.50                             113    1.09 6  268 255 
 HEL  HZ I         435 18.88         2.9 0.46            116            268 255 
                                                                                
