 2013 1030 0139 12.7 L   6.787 -73.161148.2  RSN  7 0.4 1.4LRSN                1
 GAP=135        0.89       3.5     4.6  5.7 -0.2750E+00  0.4129E+01  0.4341E+00E
 Epicentro: LOS SANTOS - SANTANDER                                             3
 ACTION:UPD 13-11-25 09:24 OP:ep   STATUS:               ID:20131030013912 L   I
 OLDACT:REG 13-10-30 07:08 OP:jn   STATUS:               ID:20131030013740     3
 2013-10-30-0137-40M.COL___221                                                 6
 STAT SP IPHASW D HRMM SECON CODA AMPLIT PERI AZIMU VELO AIN AR TRES W  DIS CAZ7
 BAR2 SZ EP        139 32.66                             171    0.0810 21.6 186 
 BAR2 SZ ES        139 47.82                             171   -0.2710 21.6 186 
 BAR2 SZ I         139 49.18         9.5 0.20            172           21.6 186 
 BRR  HZ EP        139 34.55                             153    0.4910 70.4 300 
 BRR  HN ES        139 51.44                             153    0.7210 70.4 300 
 BRR  HZ I         139 55.90         5.9 0.44            152           70.4 300 
 PAM  SZ EP        139 35.34                             151    0.0510 79.6  40 
 PAM  SN ES        139 52.58                             151   -0.3410 79.6  40 
 PAM  SZ I         139 54.69         3.1 0.40            154           79.6  40 
 RUS  HZ EP        139 36.94                             145    0.3610 99.2 175 
 RUS  HN ES        139 55.03                             145   -0.1910 99.2 175 
 RUS  HZ I         139 56.08         3.2 0.30            148           99.2 175 
 PTB  HZ EP        139 39.40                             133   -0.28 9  146 259 
 PTB  HN ES        140  0.40                             133   -0.33 9  146 259 
 PTB  HZ I         140  5.14         2.9 0.12            133            146 259 
 SML  HZ EP   1    139 49.24                             118   -0.28 6  244 336 
 SML  HE ES   1    140 17.57                             118   -0.68 6  244 336 
 CHI  HZ EP   1    139 50.40                             118    0.08 6  247 195 
 CHI  HN ES   1    140 19.51                             118   -0.16 6  247 195 
                                                                                
