 2013 1030 0334 11.4 L   6.811 -73.169144.3  RSN  8 0.5 1.6LRSN                1
 GAP=133        1.18       4.6     7.0  7.8 -0.3148E+01  0.1151E+02 -0.3160E+01E
 Epicentro: LOS SANTOS - SANTANDER                                             3
 ACTION:UPD 13-11-25 09:24 OP:ep   STATUS:               ID:20131030033411 L   I
 OLDACT:REG 13-10-30 06:35 OP:jn   STATUS:               ID:20131030033000     3
 2013-10-30-0330-00M.COL___273                                                 6
 STAT SP IPHASW D HRMM SECON CODA AMPLIT PERI AZIMU VELO AIN AR TRES W  DIS CAZ7
 BAR2 SZ EP        334 30.89                             170    0.0410 24.3 184 
 BAR2 SZ ES        334 45.69                             170   -0.3510 24.3 184 
 BAR2 SZ I         334 50.79         8.0 0.40            175           24.3 184 
 BRR  HZ EP        334 32.85                             153    0.6410 68.4 299 
 BRR  HN ES        334 49.40                             153    0.9510 68.4 299 
 BRR  HZ I         334 52.93         8.7 0.16            151           68.4 299 
 PAM  SZ EP   1    334 33.97                             150    0.50 7 78.1  42 
 PAM  SN ES   1    334 50.77                             150    0.06 7 78.1  42 
 PAM  SZ I         334 53.12         8.3 0.60            151           78.1  42 
 RUS  HZ EP   1    334 34.98                             143   -0.11 7  102 175 
 RUS  HN ES   1    334 52.80                             143   -0.78 7  102 175 
 RUS  HZ I         334 53.84         4.7 0.46            151            102 175 
 PTB  HZ EP        334 37.72                             132   -0.30 9  146 258 
 PTB  HN ES   1    334 58.42                             132   -0.38 7  146 258 
 PTB  HZ I         335  1.77         4.6 0.26            135            146 258 
 OCA  HN ES   1    335  0.57                             130   -0.73 7  159 354 
 OCA  HZ I         335 16.89         8.5 0.50            130            159 354 
 SPBC HZ EP        334 39.97                             129    0.27 9  163 218 
 SPBC HN ES   1    335  1.67                             129   -0.13 7  163 218 
 SPBC HZ I         335  5.66         4.5 0.16            134            163 218 
 SML  HZ EP        334 47.55                             117   -0.13 8  242 336 
 SML  HN ES   1    335 14.92                             117   -1.07 6  242 336 
                                                                                
