 2015  730 0719 50.5 L   6.564 -73.450120.3  RSN  6 0.4 1.4LRSN                1
 GAP=109        0.81       6.2     6.4  9.1  0.1736E+02  0.3626E+02 -0.2435E+01E
 Epicentro: HATO - SANTANDER                                                   3
 ACTION:UPD 15-09-08 21:51 OP:cam  STATUS:               ID:20150730071950 L   I
 OLDACT:REG 15-07-30 12:10 OP:stll STATUS:               ID:20150730071750     3
 2015-07-30-0717-50M.COL___307                                                 6
 STAT SP IPHASW D HRMM SECON CODA AMPLIT PERI AZIMU VELO AIN AR TRES W  DIS CAZ7
 BAR2 EZ EP        720  7.65                             165    0.3610 29.7  84 
 BAR2 EZ ES        720 19.88                             165   -0.4810 29.7  84 
 RUS  HZ EP   2    720 10.24                             143   -0.39 5 84.6 151 
 RUS  HN ES   2    720 26.36                             143    0.05 5 84.6 151 
 RUS  HZ I         720 27.84         2.0 0.24            145           84.6 151 
 ZAR  HZ EP        720 19.75                             119    0.20 9  186 303 
 ZAR  HE ES        720 42.81                             119    0.63 9  186 303 
 ZAR  HZ I         720 44.28         6.5 0.48            118            186 303 
 OCA  HN ES   2    720 42.31                             119   -0.09 4  186   4 
 OCA  HZ I         720 48.21         6.6 0.18            118            186   4 
 HEL  HZ EP   2    720 25.09                             113   -0.13 4  234 260 
 HEL  HN ES   2    720 51.72                             113   -0.54 4  234 260 
 HEL  HZ I         720 54.88         1.4 0.42            113            234 260 
 MON  HZ EP   2    720 37.22                             104   -0.55 3  346 315 
 MON  HN ES        721 14.02                             104   -0.58 6  346 315 
 MON  HZ I         721 15.62         1.0 0.28            104            346 315 
                                                                                
