 2012  430 0036 38.1 L   6.804 -73.144146.5  RSN  8 0.4 1.7LRSN                1
 GAP=137        1.02       5.0     5.7  8.5 -0.6837E-01  0.6416E+01  0.1083E+02E
 Epicentro: LOS SANTOS - SANTANDER                                             3
 ACTION:UPD 12-07-05 11:56 OP:tino STATUS:               ID:20120430003638 L   I
 2012-04-30-0030-00M.COL___189                                                 6
 STAT SP IPHASW D HRMM SECON CODA AMPLIT PERI AZIMU VELO AIN AR TRES W  DIS CAZ7
 BAR2 SZ EP   1    036 57.67                             170    -0.1 7   24 190 
 BAR2 SZ ES   1    037 12.76                             170    -0.4 7   24 190 
 BAR2 SZ I         037 16.32        13.6 0.61                            24 190 
 BRR  HZ EP        036 59.50                             153     0.210   71 298 
 BRR  HN ES   1    037 16.49                             153     0.7 7   71 298 
 BRR  HZ I         037 19.91        10.9 0.23                            71 298 
 PAM  SZ EP        037  0.48                             151     0.210   77  40 
 PAM  SN ES   1    037 17.46                             151    -0.2 7   77  40 
 RUS  HZ EP        037  1.80                             144    -0.110  101 176 
 RUS  HZ I         037  3.06         6.6 0.18                           101 176 
 RUS  HN ES   1    037 20.68                             144     0.2 7  101 176 
 PTB  HZ EP   1    037  4.42                             132    -0.7 7  148 259 
 PTB  HN ES   1    037 25.34                             132    -0.9 7  148 259 
 PTB  HZ I         037 28.38         5.1 0.20                           148 259 
 ZAR  HN ES   1    037 36.28                             122     0.4 6  204 292 
 ZAR  HZ I         037 41.05         7.4 0.33                           204 292 
 CHI  HZ EP   1    037 15.51                             117    -0.3 6  249 195 
 CHI  HN ES   1    037 46.00                             117     0.7 6  249 195 
 CHI  HZ I         037 52.59         3.0 0.37                           249 195 
 PRA  HN ES   1    038 14.00                             107     0.6 4  392 210 
                                                                                
