 2014  330 0451  4.8 L   6.828 -73.168144.0  RSN 10 0.5 2.1LRSN                1
 GAP=132        1.14       3.1     4.7  6.9 -0.2482E+01  0.1066E+02 -0.4730E+00E
 Epicentro: LOS SANTOS - SANTANDER                                             3
 ACTION:UPD 14-04-09 23:21 OP:nd   STATUS:               ID:20140330045104 L   I
 OLDACT:REG 14-03-30 08:00 OP:carl STATUS:               ID:20140330045043     3
 2014-03-30-0450-43M.COL___250                                                 6
 STAT SP IPHASW D HRMM SECON CODA AMPLIT PERI AZIMU VELO AIN AR TRES W  DIS CAZ7
 BAR2 SZ EP        451 24.38                             169    0.1010 26.1 183 
 BAR2 SZ ES        451 39.14                             169   -0.3310 26.1 183 
 BAR2 SZ I         451 40.67        51.2 0.22            168           26.1 183 
 PAM  SZ EP        451 27.24                             151    0.4610 76.7  42 
 PAM  SN ES        451 44.01                             151    0.0810 76.7  42 
 PAM  SZ I         451 46.34        23.4 0.40            156           76.7  42 
 RUS  HZ EP        451 28.46                             142   -0.1610  104 175 
 RUS  HN ES        451 47.15                             142   -0.0510  104 175 
 RUS  HZ I         451 48.91         9.1 0.36            144            104 175 
 PTB  HZ EP        451 30.97                             132   -0.49 9  146 257 
 PTB  HN ES        451 51.88                             132   -0.37 9  146 257 
 PTB  HZ I         451 57.04        17.0 0.16            132            146 257 
 OCA  HZ EP        451 31.95                             130   -0.70 9  157 354 
 OCA  HN ES        451 55.02                             130    0.64 9  157 354 
 OCA  HZ I         451 57.14        16.6 0.18            132            157 354 
 SPBC HZ EP        451 33.48                             128    0.23 9  164 218 
 SPBC HN ES        451 55.27                             128   -0.17 9  164 218 
 SPBC HZ I         452  1.55        14.7 0.20            129            164 218 
 ZAR  HZ EP        451 37.32                             122    0.55 9  201 292 
 ZAR  HE ES        452  2.46                             122    0.75 9  201 292 
 ZAR  HZ I         452  9.51        10.4 0.10            123            201 292 
 NOR  HZ EP        451 40.82                             118    0.41 8  235 233 
 NOR  HN ES        452  8.56                             118    0.38 8  235 233 
 NOR  HZ I         452 14.72         6.1 0.18            119            235 233 
 SML  HZ EP   2    451 39.31                             117   -1.59 4  240 336 
 SML  HN ES   1    452  7.74                             117   -1.33 6  240 336 
 CHI  HZ EP        451 42.83                             116    0.17 8  251 194 
 CHI  HN ES        452 11.87                             116   -0.32 8  251 194 
 CHI  HZ I         452 21.14         5.3 0.42            118            251 194 
 ROSC BZ EP   4    451 44.83                             116    1.85 0  254 210 
 ROSC BN ES   4    452 15.51                             116    2.75 0  254 210 
                                                                                
