 2015  530 0421 56.5 L   6.778 -73.120146.7  RSN  6 0.4 1.5LRSN                1
 GAP=141        1.04       4.4     5.2  7.0 -0.4562E-01  0.9803E+01  0.4994E+00E
 Epicentro: LOS SANTOS - SANTANDER                                             3
 ACTION:UPD 15-09-10 22:08 OP:cam  STATUS:               ID:20150530042156 L   I
 OLDACT:REG 15-05-30 13:40 OP:ar   STATUS:               ID:20150530041742     3
 2015-05-30-0417-42M.COL___309                                                 6
 STAT SP IPHASW D HRMM SECON CODA AMPLIT PERI AZIMU VELO AIN AR TRES W  DIS CAZ7
 BAR2 EZ EP        422 16.23                             171    0.0010 21.7 199 
 BAR2 EZ ES        422 32.14                             171    0.5410 21.7 199 
 BAR2 EZ I         422 33.72         8.5 0.26            171           21.7 199 
 BRR  HZ EP        422 17.88                             151   -0.0910 74.8 299 
 BRR  HN ES        422 35.02                             151    0.3110 74.8 299 
 BRR  HZ I         422 37.47         3.5 0.32            152           74.8 299 
 PAM  SZ EP        422 18.42                             151   -0.4210 77.5  37 
 PAM  SE ES        422 36.11                             151   -0.1510 77.5  37 
 PAM  SZ I         422 37.78         5.8 0.68            153           77.5  37 
 RUS  HZ EP        422 20.21                             145    0.0410 98.0 178 
 RUS  HE ES        422 38.38                             145   -0.2510 98.0 178 
 RUS  HZ I         422 39.68         3.7 0.30            147           98.0 178 
 SPBC HZ EP        422 25.76                             129    0.68 9  163 220 
 SPBC HE ES        422 46.76                             129   -0.60 9  163 220 
 SPBC HZ I         422 49.44         6.4 0.20            131            163 220 
 ZAR  HZ EP        422 29.90                             122    0.52 8  208 292 
 ZAR  HE ES        422 54.45                             122   -0.58 8  208 292 
                                                                                
