 2013 1030 0355 34.8 L   6.713 -73.223144.9  RSN  4 0.4 1.1LRSN                1
 GAP=212        1.03       9.9     7.8  9.8  0.1972E+02  0.1922E+02 -0.1262E+02E
 Epicentro: VILLANUEVA - SANTANDER                                             3
 ACTION:UPD 13-11-25 09:24 OP:ep   STATUS:               ID:20131030035534 L   I
 OLDACT:REG 13-10-30 06:37 OP:jn   STATUS:               ID:20131030035000     3
 2013-10-30-0350-00M.COL___273                                                 6
 STAT SP IPHASW D HRMM SECON CODA AMPLIT PERI AZIMU VELO AIN AR TRES W  DIS CAZ7
 BAR2 SZ EP        355 53.94                             174   -0.2710 14.1 161 
 BAR2 SZ ES        356  8.80                             174   -0.5310 14.1 161 
 BAR2 SZ I         356 11.37         5.5 0.28            174           14.1 161 
 BRR  HZ EP        355 55.88                             153    0.0810 69.4 309 
 BRR  HE ES   1    356 12.90                             153    0.76 7 69.4 309 
 BRR  HZ I         356 18.59         2.7 0.66            150           69.4 309 
 RUS  HN ES   1    356 16.58                             146    0.69 7 92.0 170 
 RUS  HZ I         356 16.78         0.8 0.36            153           92.0 170 
 PTB  HZ EP        356  1.03                             134    0.19 9  138 262 
 PTB  HN ES        356 20.82                             134   -0.30 9  138 262 
 PTB  HZ I         356 27.16         1.5 0.56            135            138 262 
                                                                                
