 2013 1230 0134 16.5 L   6.770 -73.142146.3  RSN  7 0.4 1.6LRSN                1
 GAP=183        0.85       3.3     5.2  7.1  0.3560E+00  0.4652E+01  0.6046E+01E
 Epicentro: LOS SANTOS - SANTANDER                                             3
 ACTION:UPD 14-01-13 10:22 OP:ep   STATUS:               ID:20131230013416 L   I
 OLDACT:UP  13-12-30 10:29 OP:mh   STATUS:               ID:20131230013000     3
 OLDACT:REG 13-12-30 07:47 OP:mh   STATUS:               ID:20131230013000     3
 2013-12-30-0130-00M.COL___285                                                 6
 STAT SP IPHASW D HRMM SECON CODA AMPLIT PERI AZIMU VELO AIN AR TRES W  DIS CAZ7
 BAR2 SZ EP   1    134 35.71                             172   -0.43 7 20.1 193 
 BAR2 SZ ES   1    134 51.62                             172    0.16 7 20.1 193 
 BAR2 SZ I         134 53.06        16.7 0.17            169           20.1 193 
 BRR  HZ EP   1    134 38.16                             152    0.33 7 73.2 301 
 BRR  HN ES        134 55.04                             152    0.5810 73.2 301 
 BRR  HZ I         134 59.48         6.8 0.12            151           73.2 301 
 RUS  HZ EP   1    134 40.40                             145    0.33 7 97.2 176 
 RUS  HN ES        134 58.15                             145   -0.3010 97.2 176 
 RUS  HZ I         135  0.17         3.7 0.21            146           97.2 176 
 PTB  HZ EP   4    134 43.19                             132   -0.31 0  148 260 
 PTB  HN ES        135  3.89                             132   -0.66 9  148 260 
 PTB  HZ I         135  7.38         4.1 0.14            132            148 260 
 OCA  HN ES        135  7.26                             129   -0.28 9  164 353 
 NOR  HZ EP   1    134 52.18                             119    0.09 6  233 235 
 NOR  HE ES        135 20.10                             119    0.25 8  233 235 
 NOR  HZ I         135 24.52         3.9 0.21            120            233 235 
 CHI  HZ EP   1    134 53.94                             118    0.05 6  245 195 
 CHI  HN ES        135 23.20                             118    0.14 8  245 195 
 CHI  HZ I         135 27.62         1.5 0.26            119            245 195 
 SML  HN ES   4    135 21.37                             117   -1.00 0  247 336 
                                                                                
