 2013 1030 0509 56.4 L   6.717 -73.181143.4  RSN  5 0.4 1.2LRSN                1
 GAP=227        0.80       5.4     6.4  7.5  0.1139E+02  0.8864E+01  0.8341E+01E
 Epicentro: VILLANUEVA - SANTANDER                                             3
 ACTION:UPD 13-11-25 09:24 OP:ep   STATUS:               ID:20131030050956 L   I
 OLDACT:REG 13-10-30 06:38 OP:jn   STATUS:               ID:20131030051000     3
 2013-10-30-0510-00M.COL___273                                                 6
 STAT SP IPHASW D HRMM SECON CODA AMPLIT PERI AZIMU VELO AIN AR TRES W  DIS CAZ7
 BAR2 SZ EP   1    510 15.15                             174   -0.48 7 13.8 181 
 BAR2 SZ ES        510 30.49                             174   -0.1110 13.8 181 
 BAR2 SZ I         510 32.85         7.0 0.46            170           13.8 181 
 BRR  HZ EP   1    510 17.40                             151   -0.03 7 72.8 306 
 BRR  HE ES        510 34.20                             151    0.3910 72.8 306 
 RUS  HZ EP   1    510 19.66                             146    0.32 7 91.8 173 
 RUS  HN ES        510 37.12                             146   -0.0910 91.8 173 
 RUS  HZ I         510 39.19         1.1 0.22            145           91.8 173 
 PTB  HN ES   1    510 42.48                             133   -0.76 7  142 262 
 PTB  HZ I         510 46.02         1.5 0.18            132            142 262 
 SPBC HZ EP   1    510 24.04                             130    0.18 7  154 220 
 SPBC HN ES   1    510 45.70                             130    0.45 7  154 220 
 SPBC HZ I         510 48.91         2.5 0.18            130            154 220 
                                                                                
