 2015 1030 0152 58.3 L   5.887 -73.775115.1  RSN 12 0.6 2.0LRSN                1
 GAP= 89        1.27       3.5     3.8  7.4 -0.4241E+01  0.8466E+01 -0.6120E+01E
 Epicentro: JESUS MARIA - SANTANDER                                            3
 ACTION:UPD 15-12-22 20:44 OP:cam  STATUS:               ID:20151030015258 L   I
 OLDACT:UP  15-12-16 20:02 OP:cam  STATUS:               ID:20151030015258 L   3
 OLDACT:UP  15-11-01 03:33 OP:DRIO STATUS:               ID:20151030015258 L   3
 OLDACT:UP  15-10-30 14:29 OP:mh   STATUS:               ID:20151030014750     3
 OLDACT:REG 15-10-30 12:33 OP:mh   STATUS:               ID:20151030014750     3
 2015-10-30-0147-50M.COL___319                                                 6
 STAT SP IPHASW D HRMM SECON CODA AMPLIT PERI AZIMU VELO AIN AR TRES W  DIS CAZ7
 SPBC HZ EP   1    153 14.50                             159   -0.17 7 41.9 232 
 SPBC HN ES        153 26.77                             159   -0.6910 41.9 232 
 SPBC HZ I         153 30.42        26.7 0.10            158           41.9 232 
 RUS  HZ EP     C  153 17.47                             144    0.1810 76.6  90 
 RUS  HN ES        153 31.73                             144   -0.3810 76.6  90 
 RUS  HZ I         153 32.98        10.5 0.32            147           76.6  90 
 BAR2 EZ IP     C  153 19.17                             135    0.2510  102  40 
 BAR2 EZ ES        153 35.25                             135    0.2310  102  40 
 NOR  HZ EP        153 21.03                             129    0.1410  126 254 
 NOR  HN ES   1    153 38.78                             129    0.26 7  126 254 
 NOR  HZ I         153 39.50        23.4 0.16            129            126 254 
 BRR  HZ EP     C  153 21.35                             126   -0.3110  135   3 
 BRR  HE ES        153 41.49                             126    1.6010  135   3 
 BRR  HZ I         153 42.32        39.7 0.14            127            135   3 
 CHI  HZ EP   1    153 22.97                             126    0.36 7  139 178 
 CHI  HN ES        153 41.57                             126   -0.01 9  139 178 
 CHI  HZ I         153 46.13         7.3 0.48            127            139 178 
 GUY2CHZ EP   1    153 28.69                             117    0.61 7  191 247 
 GUY2CHN ES   1    153 52.25                             117    0.93 7  191 247 
 GUY2CHZ I         153 57.45         7.0 0.28                           191 247 
 HEL  HZ EP        153 28.38                             116   -0.24 9  197 280 
 HEL  HN ES        153 51.74                             116   -0.55 9  197 280 
 HEL  HZ I         153 56.74         7.0 0.22            116            197 280 
 PAM  EZ EP        153 28.85                             115   -0.23 9  200  36 
 PAM  EN ES        153 52.71                             115   -0.40 9  200  36 
 PAM  EZ I         153 56.38         8.6 0.21            117            200  36 
 ZAR  HZ EP   1    153 29.90                             113   -0.16 6  214 326 
 ZAR  HN ES        153 54.48                             113   -0.36 8  214 326 
 ZAR  HZ I         154  0.14        14.7 0.30            114            214 326 
 ORTC HZ EP        153 37.06                             108    0.25 8  273 217 
 ORTC HN ES   4    154  8.72                             108    1.85 0  273 217 
 ORTC HZ I         154 12.80         7.8 0.52            108            273 217 
 SML  HZ EP   1    153 41.81                             104   -0.94 5  324 354 
 SML  HN ES   1    154 16.32                             104   -1.11 5  324 354 
 SML  HZ I         154 21.41        10.9 0.24            105            324 354 
                                                                                
