 2010 1030 0344 31.2 L   6.751 -73.146153.1  RSN  4 0.3 1.6LRSN                1
 GAP=234        0.62       4.5     5.5  6.1  0.9088E+01  0.8244E+01  0.6242E+01E
 Epicentro: LOS SANTOS - SANTANDER                                             3
 ACTION:UP  11-02-18 11:13 OP:tino STATUS:               ID:20101030034431 L   I
 2010-10-30-0341-31S.COL___127                                                 6
 STAT SP IPHASW D HRMM SECON CODA AMPLIT PERI AZIMU VELO SNR AR TRES W  DIS CAZ7
 BRR  HZ EP        344 53.06                             153    -0.210   74 302 
 BRR  HN ES        345 10.61                             153     0.110   74 302 
 BRR  HZ I         345 12.33        13.3 0.14                            74 302 
 RUS  HZ EP        344 55.37                             147     0.110   95 176 
 RUS  HN ES        345 13.97                             147    -0.110   95 176 
 RUS  HZ I         345 15.54         7.4 1.28                            95 176 
 NOR  SZ EP        345  7.26                             120     0.2 8  232 236 
 NOR  SN ES   1    345 35.32                             120     0.3 6  232 236 
 NOR  SZ I         345 42.39         1.0 0.24                           232 236 
 HEL  HN ES   2    345 42.42                             116    -0.8 4  271 257 
                                                                                
