 2013  930 0838 42.3 L   6.751 -73.148138.1  RSN  5 0.5 1.3LRSN                1
 GAP=233        1.34       7.7     8.4  9.9  0.1530E+02  0.1318E+02  0.8523E+01E
 Epicentro: LOS SANTOS - SANTANDER                                             3
 ACTION:UPD 13-10-22 09:26 OP:ep   STATUS:               ID:20130930083842 L   I
 OLDACT:REG 13-09-30 06:05 OP:nd   STATUS:               ID:20130930082959     3
 2013-09-30-0829-59M.COL___272                                                 6
 STAT SP IPHASW D HRMM SECON CODA AMPLIT PERI AZIMU VELO AIN AR TRES W  DIS CAZ7
 BAR2 SZ EP        839  0.96                             172    0.0610 18.0 192 
 BAR2 SZ ES        839 14.34                             172   -1.0710 18.0 192 
 BAR2 SZ I         839 16.96         5.8 0.16            171           18.0 192 
 BRR  HZ IP     C  839  2.88                             150    0.1210 73.7 302 
 BRR  HN ES        839 19.51                             150    0.7810 73.7 302 
 BRR  HZ I         839 23.80         4.5 0.10            152           73.7 302 
 RUS  HZ EP        839  5.01                             144    0.1110 95.2 176 
 RUS  HN ES        839 23.14                             144    0.6010 95.2 176 
 RUS  HZ I         839 26.43         1.7 0.32            146           95.2 176 
 PTB  HZ EP        839  7.86                             130   -0.67 9  147 261 
 PTB  HN ES        839 28.90                             130   -0.09 9  147 261 
 PTB  HZ I         839 30.94         5.2 0.18            132            147 261 
 SPBC HZ EP        839  9.90                             128    0.11 9  159 220 
 SPBC HN ES        839 31.22                             128   -0.02 9  159 220 
 SPBC HZ I         839 35.16         2.3 0.22            130            159 220 
                                                                                
