 2010  730 0612  0.4 L   6.933 -73.288122.9  RSN  4 0.3 1.0LRSN                1
 GAP=142        0.55       5.2    12.0 15.2  0.1762E+02 -0.1317E+03 -0.3427E+02E
 Epicentro: BETULIA - SANTANDER                                                3
 ACTION:UPD 10-12-01 15:21 OP:pat  STATUS:               ID:20100730061200 L   I
 2010-07-30-0610-06S.COL___123                                                 6
 STAT SP IPHASW D HRMM SECON CODA AMPLIT PERI AZIMU VELO AIN AR TRES W  DIS CAZ7
 BRR  HZ EP   1    612 17.89                             156     0.0 8   51 292 
 BRR  HZ I         612 29.87         6.2 0.51                            51 292 
 BRR  HN ES   2    612 31.49                             156    -0.1 5   51 292 
 GUE  SZ EP        612 22.45                             136     0.210  107  22 
 RUS  HZ EP   2    612 23.35                             134     0.0 5  117 169 
 RUS  HN ES   2    612 41.26                             134     0.0 5  117 169 
 RUS  HZ I         612 42.40         0.8 0.52                           117 169 
 GRA  SZ EP   2    612 22.34                             133    -0.6 5  118  27 
 GRA  SZ I         612 44.91         1.6 0.34                           118  27 
                                                                                
