 2014  430 0332 17.2 L   6.825 -73.174138.0  RSN 13 0.4 2.2LRSN                1
 GAP= 69        0.81       3.0     3.0  6.4 -0.1143E+01  0.8541E+01  0.1074E+01E
 Epicentro: LOS SANTOS - SANTANDER                                             3
 OLDACT:DUP 14-04-30 16:30 OP:fm   STATUS:               ID:20140430033001d    3
 ACTION:UPD 14-05-13 20:49 OP:nd   STATUS:               ID:20140430033217 L   I
 OLDACT:UP  14-04-30 16:31 OP:fm   STATUS:               ID:20140430033001d    3
 2014-04-30-0330-00M.COL___270                                                 6
 STAT SP IPHASW D HRMM SECON CODA AMPLIT PERI AZIMU VELO AIN AR TRES W  DIS CAZ7
 PAM  SZ EP        332 38.79                             150    0.1710 77.3  43 
 PAM  SN ES        332 55.72                             150    0.4210 77.3  43 
 PAM  SZ I         332 58.07        25.2 0.34            157           77.3  43 
 RUS  HZ EP        332 40.07                             142   -0.3810  104 174 
 RUS  HE ES        332 58.45                             142   -0.1210  104 174 
 PTB  HZ EP        332 42.80                             131   -0.54 9  145 258 
 PTB  HE ES        333  4.00                             131    0.29 9  145 258 
 PTB  SZ I         333  9.21        24.7 0.24            132            145 258 
 TAM  HN ES   1    333  6.05                             128   -0.01 7  159 106 
 SPBC HZ EP   1    332 44.87                             127   -0.29 7  163 218 
 SPBC HE ES   1    333  6.95                             127   -0.01 7  163 218 
 SPBC SZ I         333 15.92        21.3 0.24            130            163 218 
 ZAR  HZ EP   1    332 48.50                             121   -0.26 6  200 292 
 ZAR  HN ES   1    333 12.64                             121   -0.72 6  200 292 
 ZAR  SZ I         333 19.74        16.4 0.56            124            200 292 
 NOR  HZ EP        332 52.60                             117    0.18 8  234 233 
 NOR  HN ES        333 20.00                             117    0.13 8  234 233 
 NOR  SZ I         333 28.02        13.0 0.18            120            234 233 
 SML  HZ EP   4    332 51.36                             116   -1.64 0  240 336 
 SML  HN ES   1    333 20.49                             116   -0.42 6  240 336 
 SML  SZ I         333 26.78        15.8 0.08            120            240 336 
 CHI  HN ES   1    333 23.77                             116   -0.19 6  251 194 
 ROSC BN ES   4    333 26.22                             115    1.71 0  254 210 
 HEL  HZ EP   1    332 57.77                             114    0.98 6  270 255 
 HEL  HN ES   1    333 28.29                             114    0.64 6  270 255 
 HEL  SZ I         333 34.80         8.3 0.62            116            270 255 
 URE  HN ES   4    333 27.50                             113   -1.38 0  280 292 
 CBOC HZ EP   1    333  3.90                             109    0.31 5  332 251 
 CBOC HN ES   4    333 38.02                             109   -1.73 0  332 251 
 PRA  HZ EP   1    333 10.21                             105   -0.39 4  393 209 
 PRA  HN ES   4    333 50.41                             105   -1.81 0  393 209 
 PRA  SZ I         333 56.61         6.3 0.74            109            393 209 
 ORTC HN ES   1    333 53.66                             105    0.82 4  396 216 
