 2014  530 0916  9.6 L   6.826 -73.148144.9  RSN 22 0.4 2.3LRSN 3.1WRSN        1
 SPEC AVERAGE  MO 13.7 ST0.104 OM  2.0 f0 1.50 R1.3197 AL 0.00 WI 30.0 MW  3.1 3
 SPEC SD       MO  0.1 ST0.377 OM  0.4 f00.759 R0.3785 AL      WI      MW  0.1 3
 GAP= 70        0.94       2.3     2.6  4.6 -0.7224E+00  0.3020E+01  0.1419E+01E
 Epicentro: LOS SANTOS - SANTANDER                                             3
 SPEC PAM SH Z MO 13.5 ST0.068 OM  1.6 f0 1.49 R1.2913 AL-0.00 WI 30.0 MW  3.0 3
 SPEC PAM SH Z T 91647 K 0.000 GD  163 VS 5.20 DE 3.50 Q0750.0 QA 1.50 VS 5.20 3
 SPEC TAM HH Z MO 13.7 ST0.076 OM  1.7 f0 1.31 R1.4687 AL-0.00 WI 30.0 MW  3.1 3
 SPEC TAM HH Z T 91657 K 0.000 GD  212 VS 5.20 DE 3.50 Q0750.0 QA 1.50 VS 5.20 3
 SPEC NOR HH Z MO 13.7 ST0.204 OM  1.5 f0 1.94 R0.9918 AL-0.00 WI 30.0 MW  3.0 3
 SPEC NOR HH Z T 91711 K 0.000 GD  276 VS 5.20 DE 3.50 Q0750.0 QA 1.50 VS 5.20 3
 SPECGUY2CHH Z MO 13.8 ST  0.0 OM  1.6 f00.969 R  1.99 AL-0.00 WI 30.0 MW  3.2 3
 SPECGUY2CHH Z T 91726 K       GD335.9 VS 5.20 DE 3.50 Q0750.0 QA 1.50 VS 5.20 3
 SPEC PRA HH Z MO 13.7 ST0.067 OM  1.4 f0 1.26 R1.5270 AL-0.00 WI 30.0 MW  3.1 3
 SPEC PRA HH Z T 91743 K 0.000 GD  419 VS 5.20 DE 3.50 Q0750.0 QA 1.50 VS 5.20 3
 OLDACT:UP  14-05-30 16:05 OP:mh   STATUS:               ID:20140530090813d    3
 OLDACT:DUP 14-05-30 16:04 OP:mh   STATUS:               ID:20140530090813d    3
 ACTION:UPD 15-03-16 17:02 OP:nd   STATUS:               ID:20140530091609 L   I
 OLDACT:UP  14-05-30 16:21 OP:mh   STATUS:               ID:20140530090813d    3
 2014-05-30-0908-12M.COL___235                                                 6
 STAT SP IPHASW D HRMM SECON CODA AMPLIT PERI AZIMU VELO AIN AR TRES W  DIS CAZ7
 BAR2 SZ EP     D  916 29.31                             169    0.1410 26.2 188 
 BAR2 SZ ES        916 43.91                             169   -0.5410 26.2 188 
 BAR2 SZ I         916 46.70        31.6 0.24            167           26.2 188 
 BRR  HZ EP     C  916 31.05                             153    0.5010 69.7 297 
 BRR  HN ES   1    916 47.39                             153    0.48 7 69.7 297 
 BRR  SZ I         916 50.36        28.2 0.12            152           69.7 297 
 PAM  SZ EP   1    916 32.14                             151    0.56 7 75.3  41 
 PAM  SN ES   1    916 49.06                             151    0.31 7 75.3  41 
 PAM  SZ I         916 50.44        22.6 0.40            156           75.3  41 
 RUS  HZ EP     C  916 33.32                             143   -0.1410  103 176 
 RUS  HN ES   1    916 51.73                             143   -0.36 7  103 176 
 RUS  SZ I         916 53.64        16.1 0.26            143            103 176 
 PTB  HZ EP        916 35.85                             132   -0.66 9  148 258 
 PTB  HN ES        916 56.90                             132   -0.62 9  148 258 
 PTB  SZ I         916 59.78        29.1 0.08            131            148 258 
 TAM  HZ IP     D  916 37.71                             130    0.43 9  156 106 
 TAM  HN ES        916 59.07                             130    0.18 9  156 106 
 TAM  SZ I         916 59.82        15.6 0.30            134            156 106 
 OCA  HZ EP        916 37.06                             130   -0.49 9  157 353 
 OCA  HN ES        916 59.64                             130    0.27 9  157 353 
 OCA  SZ I         917  2.20        26.9 0.24            132            157 353 
 SPBC HZ EP   1    916 38.22                             128    0.01 7  165 218 
 SPBC HN ES        917  0.53                             128   -0.02 9  165 218 
 SPBC SZ I         917  7.25        34.8 0.28            128            165 218 
 ZAR  HZ EP        916 41.31                             122   -0.53 9  203 291 
 ZAR  HN ES        917  7.12                             122    0.12 9  203 291 
 ZAR  SZ I         917 14.20        14.3 0.24            123            203 291 
 NOR  HZ EP        916 45.24                             118   -0.18 8  236 234 
 NOR  HN ES        917 13.33                             118   -0.05 8  236 234 
 NOR  SZ I         917 17.83        18.3 0.18            118            236 234 
 SML  HZ EP        916 45.58                             117   -0.28 8  241 335 
 SML  HN ES        917 13.80                             117   -0.36 8  241 335 
 SML  SZ I         917 20.02        24.0 0.10            119            241 335 
 CHI  HZ EP        916 47.61                             117    0.08 8  251 195 
 CHI  HN ES        917 17.14                             117    0.01 8  251 195 
 CHI  SZ I         917 27.77        10.6 0.44            117            251 195 
 ROSC BZ EP   4    916 49.15                             116    1.24 0  255 211 
 ROSC BN ES   4    917 19.00                             116    1.19 0  255 211 
 ROSC SZ I         917 31.18        12.1 0.35            117            255 211 
 HEL  HZ EP   1    916 49.92                             114    0.12 6  273 255 
 HEL  HN ES        917 22.07                             114    0.89 8  273 255 
 HEL  SZ I         917 27.25        13.9 0.48            115            273 255 
 URE  HZ EP   4    916 48.90                             113   -1.56 0  283 291 
 URE  HN ES   4    917 19.45                             113   -2.90 0  283 291 
 URE  SZ I         917 32.06        17.2 0.18            114            283 291 
 GUY2CHZ EP   1    916 53.05                             112   -0.27 5  303 234 
 GUY2CHN ES        917 28.27                             112    0.84 7  303 234 
 GUY2CSZ I         917 35.31        11.4 0.58                           303 234 
 PTGC HZ EP   4    916 51.91                             111   -1.80 0  311 159 
 PTGC HN ES   4    917 25.14                             111   -3.00 0  311 159 
 PTGC SZ I         917 32.63        18.2 0.40            112            311 159 
 RREF HZ EP   1    916 55.41                             110   -0.47 5  323 229 
 RREF HN ES   4    917 35.56                             110    3.56 0  323 229 
 RREF SZ I         917 40.61         7.1 0.64            111            323 229 
 CBOC HZ EP        916 57.25                             110    0.71 7  334 252 
 CBOC HN ES   1    917 34.05                             110    0.89 5  334 252 
 CBOC SZ I         917 37.57         4.2 2.44            110            334 252 
 TOL  SZ EP   1    916 58.74                             109    0.72 5  345 224 
 TOL  SN ES        917 35.88                             109    0.08 6  345 224 
 ANIL HN ES   4    917 39.91                             108    1.34 0  359 224 
 PRA  HZ EP        917  3.13                             106   -0.22 6  394 209 
 PRA  HN ES   1    917 44.76                             106   -0.53 4  394 209 
 PRA  SZ I         917 49.75        12.4 0.82            107            394 209 
 ORTC HZ EP        917  2.92                             106   -0.81 6  398 216 
 ORTC HN ES        917 45.96                             106   -0.00 6  398 216 
 ORTC SZ I         917 54.03         6.3 0.18            107            398 216 
                                                                                
