 2011  930 0546 15.4 L   6.785 -73.131143.2  RSN 14 0.5 2.6LRSN                1
 GAP=116        0.93       3.6     5.2  6.1 -0.2496E+01  0.9653E+01  0.4211E+01E
 Epicentro: LOS SANTOS - SANTANDER                                             3
 ACTION:UPD 12-07-13 16:01 OP:ep   STATUS:               ID:20110930054615 L   I
 2011-09-30-0544-25S.COL___168                                                 6
 STAT SP IPHASW D HRMM SECON CODA AMPLIT PERI AZIMU VELO AIN AR TRES W  DIS CAZ7
 BAR2 SZ EP        546 34.79                             171    0.1010 22.0 195 
 BAR2 SZ ES   1    546 49.62                             171   -0.12 7 22.0 195 
 BAR2 SZ I         546 51.57       101.1 0.35                          22.0 195 
 BRR  HZ EP        546 36.69                             151    0.2910 73.4 299 
 BRR  HE ES   1    546 53.51                             151    0.73 7 73.4 299 
 BRR  HZ I         546 56.64        73.9 0.22                          73.4 299 
 PAM  SZ EP   1    546 37.56                             150    0.20 7 77.7  38 
 PAM  SN ES   1    546 54.51                             150    0.02 7 77.7  38 
 RUS  HZ EP   1    546 38.60                             144   -0.17 7 98.8 177 
 RUS  HN ES   1    546 56.84                             144   -0.16 7 98.8 177 
 RUS  HZ I         546 58.74        40.7 0.26                          98.8 177 
 OCA  SZ EP        546 43.29                             129   -0.40 9  162 353 
 OCA  SZ ES   1    547  5.14                             129   -0.61 7  162 353 
 OCA  SZ I         547 11.43        63.6 0.39                           162 353 
 YOP  SZ EP   1    546 45.24                             126    0.21 7  177 154 
 YOP  SZ I         547 12.13        11.7 0.31                           177 154 
 ZAR  HZ EP   1    546 47.44                             121   -0.46 6  206 292 
 NOR  SZ EP        546 50.90                             118   -0.12 8  235 235 
 NOR  SE ES   1    547 17.52                             118   -1.28 6  235 235 
 CHI  HZ EP   1    546 52.24                             117   -0.58 6  247 196 
 CHI  HE ES   1    547 21.74                             117   -0.28 6  247 196 
 CHI  HZ I         547 28.09        33.1 0.34                           247 196 
 ROSC BZ EP   1    546 54.51                             116    1.20 6  252 212 
 ROSC BZ I         547 30.96        68.6 0.47                           252 212 
 HEL  HZ EP   1    546 56.46                             114    0.85 6  273 256 
 HEL  HN ES   1    547 27.30                             114    0.32 6  273 256 
 HEL  HZ I         547 33.75        26.7 0.33                           273 256 
 VIL  SZ EP   2    546 59.14                             112    0.59 4  302 192 
 VIL  SZ I         547 39.87        19.1 0.71                           302 192 
 RREF HZ EP   1    547  1.84                             110    0.40 5  322 230 
 RREF HZ I         547 46.41        51.7 0.37                           322 230 
 PRA  HZ EP   1    547  8.29                             106   -0.46 4  391 210 
                                                                                
