 2016 1130 0828 18.8 L   6.690 -73.581110.0  RSN  6 0.5 1.7LRSN                1
 GAP= 82        1.38       6.4     5.4  9.9 -0.1463E+02 -0.2111E+01  0.2862E+02E
 Epicentro: EL CARMEN - SANTANDER                                              3
 ACTION:UPD 17-10-26 21:13 OP:lp   STATUS:               ID:20161130082818 L   I
 OLDACT:REG 16-11-30 14:50 OP:dani STATUS:               ID:20161130081744     3
 2016-11-30-0818-00M.COL___342                                                 6
 STAT SP IPHASW D HRMM SECON CODA AMPLIT PERI AZIMU VELO AIN AR TRES W  DIS CAZ7
 BAR2 EZ EP        828 35.39                             156    0.3810 45.3 104 
 BAR2 HN ES        828 48.04                             156    0.4010 45.3 104 
 BAR2 EZ I         828 48.81        26.7 0.20            156           45.3 104 
 BRR  HZ EP        828 35.08                             155    0.2610 48.3 343 
 BRR  HN ES        828 47.93                             155    0.6410 48.3 343 
 PTB  HZ EP        828 38.38                             135   -0.0210 98.3 260 
 PTB  HN ES        828 52.94                             135   -0.7410 98.3 260 
 PTB  HZ I         828 54.26        11.1 0.16            135           98.3 260 
 PAM  EZ EP        828 40.79                             129   -0.3110  121  54 
 PAM  EE ES        828 57.55                             129   -0.9310  121  54 
 PAM  EZ I         829  1.61         8.0 0.46            130            121  54 
 NOR  HZ EP        828 48.52                             115    0.87 9  189 229 
 NOR  HN ES        829  9.64                             115   -0.49 9  189 229 
 NOR  HZ I         829 15.63         3.8 0.24            116            189 229 
 CHI  HZ EP        828 52.86                             111    0.36 8  229 184 
 CHI  HE ES        829 18.36                             111   -0.41 8  229 184 
                                                                                
