 2014  730 0758 14.6 L   6.737 -73.144145.8  RSN  5 0.4 1.5LRSN                1
 GAP=140        0.95       5.7     5.0  9.0  0.4088E+01  0.1235E+02 -0.9264E+01E
 Epicentro: LOS SANTOS - SANTANDER                                             3
 ACTION:UPD 15-03-16 20:48 OP:nd   STATUS:               ID:20140730075814 L   I
 OLDACT:REG 14-07-30 18:36 OP:mh   STATUS:               ID:20140730075645     3
 2014-07-30-0756-45M.COL___251                                                 6
 STAT SP IPHASW D HRMM SECON CODA AMPLIT PERI AZIMU VELO AIN AR TRES W  DIS CAZ7
 BAR2 SZ EP   1    758 34.08                             173   -0.01 7 16.6 195 
 BAR2 SZ ES   1    758 49.45                             173    0.14 7 16.6 195 
 BAR2 SZ I         758 50.20         8.9 0.30            174           16.6 195 
 PAM  SZ EP   1    758 37.28                             149    0.16 7 82.8  36 
 PAM  SN ES   1    758 54.33                             149   -0.38 7 82.8  36 
 PAM  SZ I         758 56.76         5.3 0.48            150           82.8  36 
 RUS  HZ EP        758 37.36                             146   -0.4810 93.6 176 
 RUS  HN ES        758 56.48                             146    0.5010 93.6 176 
 RUS  HZ I         758 58.24         2.8 0.41            149           93.6 176 
 PTB  HZ EP   1    758 41.34                             132   -0.11 7  147 262 
 PTB  HN ES        759  1.83                             132   -0.59 9  147 262 
 PTB  HZ I         759  3.93         4.7 0.50            133            147 262 
 ZAR  HZ EP   1    758 48.10                             122    0.78 6  207 294 
 ZAR  HN ES        759 13.24                             122    0.38 8  207 294 
 ZAR  HZ I         759 19.04         4.5 0.05            123            207 294 
                                                                                
