 2010 1130 0142 30.3 L   6.464 -73.692 97.5  RSN  8 0.3 1.8LRSN                1
 GAP=105        0.66       2.9     4.1  6.2 -0.5477E+01  0.5117E+01  0.5661E+00E
 Epicentro: SANTA HELENA DEL OPON - SANTANDER                                  3
 ACTION:UP  10-12-17 16:56 OP:REBC STATUS:               ID:20101130014230 L   I
 2010-11-30-0139-23S.COL___129                                                 6
 STAT SP IPHASW D HRMM SECON CODA AMPLIT PERI AZIMU VELO SNR AR TRES W  DIS CAZ7
 BAR2 SZ EP        142 46.08                             147     0.110   58  76 
 BAR2 SZ I         142 46.69        24.2 0.13                            58  76 
 BAR2 SZ ES   1    142 58.25                             147     0.2 7   58  76 
 BRR  HZ EP   1    142 46.44                             141    -0.1 7   71 358 
 BRR  HE ES   1    142 59.14                             141    -0.1 7   71 358 
 BRR  HZ I         143  7.94        22.1 0.37                            71 358 
 NOR  SZ EP   1    142 55.73                             117     0.0 7  164 233 
 NOR  SE ES   2    143 15.46                             117    -0.1 5  164 233 
 GUE  SZ EP        142 56.76                             115    -0.3 9  173  29 
 GRA  SZ EP   1    142 59.10                             114     0.9 7  185  32 
 GRA  SZ ES   1    143 19.95                             114     0.0 7  185  32 
 GRA  SZ I         143 22.52         8.1 0.35                           185  32 
 OCA  SZ EP   2    142 59.91                             112    -0.1 4  201  12 
 OCA  SZ ES   2    143 22.24                             112    -0.8 4  201  12 
 CHI  HZ EP   2    143  0.51                             112     0.0 4  203 181 
 CHI  HN ES   1    143 23.77                             112    -0.3 6  203 181 
 HEL  HZ EP   3    143  1.19                             111     0.4 2  205 262 
 HEL  HN ES   2    143 24.77                             111     0.2 4  205 262 
 HEL  HZ I         143 31.65         3.3 0.43                           205 262 
                                                                                
