 2012 1130 0456  9.3 L   6.768 -73.200141.3  RSN  6 0.4 1.7LRSN                1
 GAP=239        0.85       4.9     5.3  6.8  0.1292E+02  0.1322E+02  0.1041E+02E
 Epicentro: VILLANUEVA - SANTANDER                                             3
 ACTION:UPD 12-12-05 15:37 OP:}ep  STATUS:               ID:20121130045609 L   I
 2012-11-30-0450-00M.COL___236                                                 6
 STAT SP IPHASW D HRMM SECON CODA AMPLIT PERI AZIMU VELO AIN AR TRES W  DIS CAZ7
 BAR2 SZ EP        456 28.01                             172   -0.2710 19.5 174 
 BAR2 SZ ES        456 43.18                             172    0.0610 19.5 174 
 BAR2 SZ I         456 46.66         9.1 0.20                          19.5 174 
 RUS  HZ EP        456 32.41                             144    0.0410 97.7 172 
 RUS  HN ES        456 50.51                             144    0.1310 97.7 172 
 RUS  HN I         456 52.50         7.6 0.40                          97.7 172 
 PTB  HZ EP        456 34.88                             132   -0.40 9  141 260 
 PTB  HN ES        456 55.76                             132    0.19 9  141 260 
 PTB  HN I         457  1.34        10.5 0.26                           141 260 
 ZAR  HN ES        457  5.81                             122    0.07 9  200 294 
 CHI  HZ EP        456 47.05                             117    0.87 8  244 194 
 CHI  HN ES        457 14.37                             117   -0.60 8  244 194 
 CHI  HE I         457 23.71         3.0 0.54                           244 194 
 PRA  HN ES        457 43.03                             106    0.02 6  386 209 
 PRA  HN I         457 50.08         1.1 0.32                           386 209 
                                                                                
