 2013  830 0558 50.8 L   6.882 -73.478111.8  RSN  7 0.5 1.2LRSN                1
 GAP=128        1.19       5.1     6.0 10.9  0.3246E+01  0.2214E+02  0.1104E+01E
 Epicentro: SAN VICENTE DE CHUCURI - SANTANDER                                 3
 ACTION:UPD 14-01-14 09:08 OP:ep   STATUS:               ID:20130830055850 L   I
 OLDACT:REG 13-08-30 08:16 OP:jn   STATUS:               ID:20130830054843     3
 2013-08-30-0548-43M.COL___211                                                 6
 STAT SP IPHASW D HRMM SECON CODA AMPLIT PERI AZIMU VELO AIN AR TRES W  DIS CAZ7
 BRR  HZ EP        559  6.89                             161    0.4410 35.9 314 
 BRR  HN ES        559 18.90                             161    0.2710 35.9 314 
 BRR  HZ I         559 20.17         3.4 0.12            163           35.9 314 
 BAR2 SZ EP   1    559  7.56                             156    0.32 7 45.8 134 
 BAR2 SZ ES        559 20.07                             156    0.0310 45.8 134 
 BAR2 SZ I         559 21.44         4.5 0.16            156           45.8 134 
 PTB  HZ EP        559 11.94                             131   -0.0810  115 251 
 PTB  HN ES        559 27.69                             131   -0.8710  115 251 
 PTB  HZ I         559 29.53         3.5 0.44            132            115 251 
 RUS  HN ES   1    559 29.73                             130   -0.49 7  118 158 
 RUS  HZ I         559 32.99         1.4 0.36            131            118 158 
 SPBC HN ES   1    559 35.61                             122    0.50 7  151 206 
 OCA  HN ES   1    559 34.43                             122   -0.81 7  151   7 
 OCA  HZ I         559 36.63         5.0 0.36            123            151   7 
 ZAR  HN ES   1    559 38.72                             119    0.89 7  167 294 
                                                                                
