 2013  430 0600 16.2 L   6.802 -73.146154.9  RSN  6 0.5 1.8LRSN                1
 GAP=136        1.03       5.9     6.6  8.6  0.2684E+01 -0.5221E-01 -0.5363E+01E
 Epicentro: LOS SANTOS - SANTANDER                                             3
 ACTION:UPD 13-05-22 14:41 OP:EP   STATUS:               ID:20130430060016 L   I
 2013-04-30-0600-00M.COL___253                                                 6
 STAT SP IPHASW D HRMM SECON CODA AMPLIT PERI AZIMU VELO AIN AR TRES W  DIS CAZ7
 BAR2 SZ EP     C  6 0 36.73                             171   -0.2210 23.6 190 
 BRR  HZ EP        6 0 38.76                             154    0.4110 71.0 298 
 BRR  HN ES        6 0 56.09                             154    0.4810 71.0 298 
 BRR  HZ I         6 0 59.78         5.9 0.18            152           71.0 298 
 PAM  SZ EP        6 0 39.68                             152    0.2810 77.2  40 
 PAM  SN ES   1    6 0 56.93                             152   -0.55 7 77.2  40 
 PAM  SZ I         6 0 58.96        13.9 0.54            156           77.2  40 
 RUS  HZ EP        6 0 41.17                             146    0.2810  101 176 
 RUS  HN ES        6 0 59.86                             146   -0.2710  101 176 
 PTB  HZ EP   1    6 0 44.05                             134    0.11 7  148 259 
 PTB  HN ES   1    6 1  4.80                             134   -0.77 7  148 259 
 PTB  HZ I         6 1 10.64         8.7 0.22            134            148 259 
 SJC  HZ EP     C  6 1 11.02                             107   -1.05 6  409 327 
                                                                                
