 2011  530 0733 33.4 L   6.512 -73.484113.7  RSN  5 0.3 1.5LRSN                1
 GAP=114        0.64       5.2     5.1  8.6 -0.1324E+02  0.2736E+02 -0.1963E+02E
 Epicentro: SIMACOTA - SANTANDER                                               3
 ACTION:UP  11-06-29 08:57 OP:tino STATUS:               ID:20110530073333 L   I
 2011-05-30-0730-28S.COL___113                                                 6
 STAT SP IPHASW D HRMM SECON CODA AMPLIT PERI AZIMU VELO SNR AR TRES W  DIS CAZ7
 BAR2 SZ IP        733 49.63                             162     0.010   35  75 
 BAR2 SZ ES   1    734  2.22                             162     0.0 7   35  75 
 BAR2 SZ I         734  3.11        24.1 0.23                            35  75 
 BRR  HZ EP   1    733 50.57                             146    -0.6 7   70 339 
 BRR  HZ I         734  2.62        17.6 0.10                            70 339 
 RUS  HZ EP   2    733 52.67                             142     0.0 5   82 147 
 RUS  HE ES   2    734  7.68                             142     0.0 5   82 147 
 RUS  HZ I         734 10.70         2.2 0.22                            82 147 
 GRA  SZ EP   1    734  0.62                             120     0.2 7  169  26 
 GRA  SZ ES   1    734 21.72                             120     0.2 7  169  26 
 GRA  SZ I         734 26.81         3.6 0.28                           169  26 
 HEL  HZ EP   1    734  7.20                             112    -0.1 6  229 261 
 HEL  HN ES   1    734 34.04                             112     0.4 6  229 261 
 HEL  HZ I         734 34.95         1.3 0.36                           229 261 
                                                                                
