 2014  930 0451  8.2 L   6.808 -73.139140.0  RSN 14 0.6 2.2LRSN                1
 GAP= 71        1.32       3.3     4.2  6.4 -0.1339E+01  0.5213E+01  0.3482E+01E
 Epicentro: LOS SANTOS - SANTANDER                                             3
 ACTION:UPD 14-10-03 23:09 OP:nd   STATUS:               ID:20140930045108 L   I
 OLDACT:REG 14-09-30 12:27 OP:stll STATUS:               ID:20140930044811     3
 2014-09-30-0448-11M.COL___292                                                 6
 STAT SP IPHASW D HRMM SECON CODA AMPLIT PERI AZIMU VELO AIN AR TRES W  DIS CAZ7
 BAR2 SZ IP     C  451 27.43                             170    0.3210 24.3 191 
 BAR2 SZ ES        451 41.65                             170   -0.2510 24.3 191 
 BAR2 SZ I         451 43.18        22.9 0.14            170           24.3 191 
 BRR  HZ EP        451 29.38                             151    0.6910 71.5 298 
 BRR  HN ES        451 45.52                             151    0.8010 71.5 298 
 BRR  HZ I         451 50.33        23.3 0.12            151           71.5 298 
 PAM  SN ES        451 46.40                             150   -0.0810 76.2  40 
 PAM  SZ I         451 49.26        49.3 0.54            152           76.2  40 
 RUS  HZ EP        451 31.64                             142    0.2410  101 177 
 RUS  HN ES        451 49.26                             142   -0.2710  101 177 
 RUS  HZ I         451 51.52        18.9 0.38            144            101 177 
 PTB  HZ EP        451 34.10                             130   -0.64 9  149 259 
 PTB  HN ES        451 54.99                             130   -0.49 9  149 259 
 PTB  HZ I         451 58.33        16.8 0.20            131            149 259 
 TAM  HZ IP     D  451 35.80                             129    0.47 9  155 105 
 TAM  HZ I         451 35.92        45.7 0.20            132            155 105 
 TAM  HN ES        451 56.35                             129   -0.17 9  155 105 
 OCA  HZ EP        451 35.80                             128   -0.14 9  159 353 
 OCA  HN ES        451 57.21                             128   -0.41 9  159 353 
 OCA  HZ I         452  1.42        20.5 0.18            130            159 353 
 SPBC HZ EP        451 36.26                             127   -0.07 9  164 219 
 SPBC HN ES        451 58.21                             127   -0.09 9  164 219 
 SPBC HZ I         452  2.23        19.0 0.20            128            164 219 
 SML  HZ EP        451 43.75                             116   -0.66 8  243 335 
 SML  HE ES        452 12.54                             116   -0.15 8  243 335 
 SML  HZ I         452 18.35        21.4 0.24            117            243 335 
 CHI  HZ EP        451 45.68                             116    0.03 8  250 195 
 CHI  HE ES        452 14.30                             116   -0.60 8  250 195 
 CHI  HZ I         452 18.09         5.3 0.26            117            250 195 
 GUY2CHZ EP        451 53.45                             111    1.82 7  302 235 
 GUY2CHE ES        452 26.44                             111    0.90 7  302 235 
 GUY2CHZ I         452 30.64         5.6 0.34                           302 235 
 MON  HZ EP   9    451 55.04                             107   -1.90 0  354 308 
 MON  HE ES        452 32.11                                   -0.99 6  354 308 
 MON  HZ I         452 34.57         5.7 0.20            108            354 308 
 PRA  HZ EP        452  0.54                             105   -1.07 6  393 210 
 PRA  HN ES        452 42.36                             105   -0.95 6  393 210 
 PRA  HZ I         452 51.97         3.9 0.44            106            393 210 
 ORTC HZ EP        452  2.02                             105    0.00 6  397 216 
 ORTC HE ES        452 44.13                             105    0.10 6  397 216 
 ORTC HZ I         452 50.30         3.9 0.46            106            397 216 
                                                                                
