 2015  130 0231  4.8 L   6.834 -73.204147.6  RSN  7 0.4 1.3LRSN                1
 GAP=128        1.01       4.1     5.0  6.5  0.1201E+01  0.5048E+01  0.1722E+01E
 Epicentro: ZAPATOCA - SANTANDER                                               3
 ACTION:UPD 15-03-02 15:43 OP:nd   STATUS:               ID:20150130023104 L   I
 OLDACT:UP  15-01-30 14:41 OP:cam  STATUS:               ID:20150130022816     3
 OLDACT:REG 15-01-30 12:57 OP:cam  STATUS:               ID:20150130022816     3
 2015-01-30-0228-16M.COL___268                                                 6
 STAT SP IPHASW D HRMM SECON CODA AMPLIT PERI AZIMU VELO AIN AR TRES W  DIS CAZ7
 BAR2 EZ EP        231 24.80                             169    0.0410 26.9 175 
 BAR2 EZ ES        231 39.95                             169   -0.3510 26.9 175 
 BAR2 EZ I         231 40.72         8.2 0.24            155           26.9 175 
 BRR  HZ EP        231 26.24                             155    0.4610 63.7 298 
 BRR  HN ES        231 42.92                             155    0.8010 63.7 298 
 PAM  SZ EP     D  231 27.61                             151    0.2810 78.9  45 
 PAM  SN ES        231 44.68                             151   -0.2010 78.9  45 
 PAM  SN I         231 45.69         4.7 0.48            142           78.9  45 
 RUS  HZ EP        231 28.80                             143   -0.2810  105 173 
 RUS  HN ES        231 47.96                             143   -0.0410  105 173 
 RUS  HZ I         231 49.47         1.7 0.22            126            105 173 
 PTB  HZ EP        231 31.32                             134   -0.14 9  142 257 
 PTB  HN ES        231 51.85                             134   -0.38 9  142 257 
 PTB  HZ I         231 55.89         2.2 0.36            121            142 257 
 SML  HE ES        232  8.37                             118   -0.67 8  238 336 
 CHI  HZ EP        231 43.14                             117    0.28 8  251 194 
 CHI  HZ I         232 19.80         1.1 0.36            107            251 194 
                                                                                
