 2013  530 0650 36.1 L   7.215 -74.028 19.8  RSN  6 0.3 1.3LRSN                1
 GAP=182        0.87       2.8     2.4  3.6 -0.2603E+01  0.2223E+01 -0.4730E+01E
 Epicentro: PUERTO WILCHES - SANTANDER                                         3
 ACTION:UPD 13-06-20 09:54 OP:ep   STATUS:               ID:20130530065036 L   I
 2013-05-30-0650-00M.COL___261                                                 6
 STAT SP IPHASW D HRMM SECON CODA AMPLIT PERI AZIMU VELO AIN AR TRES W  DIS CAZ7
 BRR  HZ IP     D  650 42.91                             115    0.0310 36.9 109 
 BRR  HN ES        650 48.41                             115    0.2810 36.9 109 
 BRR  HZ I         650 48.83        20.5 0.12            110           36.9 109 
 PTB  HZ EP        650 50.42                             101    0.0510 88.4 212 
 PTB  HN ES        651  1.13                             101   -0.3310 88.4 212 
 PTB  HZ I         651  2.24        11.9 0.56             98           88.4 212 
 GIR2 SZ EP        650 51.32                             100    0.0610 93.4  99 
 GIR2 SZ ES        651  2.86                             100   -0.1810 93.4  99 
 GIR2 SZ I         651  3.73         4.3 0.30             98           93.4  99 
 BAR2 SZ EP        650 54.97                              98    0.2210  116 126 
 BAR2 SZ ES        651  8.77                              98   -0.4910  116 126 
 BAR2 SZ I         651 10.29         6.6 0.56             96            116 126 
 OCA  HZ EP        650 57.62                              56    0.18 9  138  35 
 OCA  HN ES        651 13.62                              56   -0.43 9  138  35 
 OCA  HZ I         651 16.97        10.2 0.48             56            138  35 
 RUS  HZ EP        651  3.91                              56    0.81 9  180 144 
 RUS  HN ES        651 24.04                              56   -0.09 9  180 144 
 RUS  HZ I         651 26.16         2.8 0.26             56            180 144 
                                                                                
