 2016 1030 0944  4.0 L   6.771 -73.084149.1  RSN  4 0.2 1.1LRSN                1
 GAP=242        0.66       5.4     5.3  5.4  0.1446E+02  0.1213E+01 -0.1016E+01E
 Epicentro: LOS SANTOS - SANTANDER                                             3
 ACTION:UPD 16-11-09 19:24 OP:rebc STATUS:               ID:20161030094404 L   I
 OLDACT:REG 16-10-30 15:08 OP:cog  STATUS:               ID:20161030093744     3
 2016-10-30-0938-00M.COL___315                                                 6
 STAT SP IPHASW D HRMM SECON CODA AMPLIT PERI AZIMU VELO AIN AR TRES W  DIS CAZ7
 BAR2 EZ EP        944 24.20                             171    0.1510 22.6 209 
 BAR2 EZ ES        944 39.61                             171   -0.0610 22.6 209 
 BRR  HZ EP        944 26.27                             151    0.2910 78.8 298 
 BRR  HN ES        944 42.92                             151   -0.1810 78.8 298 
 BRR  HZ I         944 46.52         5.0 0.30            150           78.8 298 
 RUS  HZ EP        944 27.90                             145    0.0310 97.1 180 
 RUS  HE ES        944 46.43                             145   -0.0410 97.1 180 
 RUS  HZ I         944 47.92         1.4 0.31            147           97.1 180 
 PTB  HZ EP        944 31.31                             131   -0.52 9  154 261 
 PTB  HE ES        944 53.82                             131    0.30 9  154 261 
 PTB  HZ I         944 55.92         1.1 0.10            132            154 261 
                                                                                
