 2012  630 0028 30.9 L   7.001 -73.208135.8  RSN  6 0.2 1.8LRSN                1
 GAP=179        0.39       2.8     3.2  4.2  0.3304E+01  0.9344E+00  0.2740E+00E
 Epicentro: GIRON - SANTANDER                                                  3
 ACTION:UPD 12-08-06 17:53 OP:ep   STATUS:               ID:20120630002830 L   I
 2012-06-30-0020-00M.COL___201                                                 6
 STAT SP IPHASW D HRMM SECON CODA AMPLIT PERI AZIMU VELO AIN AR TRES W  DIS CAZ7
 BAR2 SZ EP   1    028 50.07                             161    0.06 7 45.2 176 
 BAR2 SZ ES   1    029  4.77                             161   -0.16 7 45.2 176 
 BAR2 SZ I         029  6.02        24.5 0.38                          45.2 176 
 BRR  HZ EP   1    028 50.31                             156    0.12 7 57.0 282 
 BRR  HZ I         028 51.58        16.4 0.32                          57.0 282 
 BRR  HN ES   1    029  5.47                             156    0.23 7 57.0 282 
 RUS  HZ EP   1    028 55.59                             136    0.08 7  123 174 
 RUS  HN ES   1    029 14.77                             136    0.05 7  123 174 
 OCA  HN ES   2    029 15.88                             132   -0.25 5  137 355 
 PTB  HZ EP   1    028 56.85                             130   -0.16 7  147 250 
 PTB  HN ES   1    029 17.11                             130   -0.27 7  147 250 
 PTB  HZ I         029 18.33         3.4 0.18                           147 250 
 ZAR  HN ES   2    029 25.27                             122    0.32 4  190 287 
                                                                                
