 2010  930 0013  1.0 L   6.809 -73.151139.1  RSN  6 0.5 1.4LRSN                1
 GAP=223        0.82       8.6    11.8 12.0  0.1845E+02  0.1613E+02  0.1306E+02E
 Epicentro: LOS SANTOS - SANTANDER                                             3
 ACTION:UP  11-02-18 11:06 OP:tino STATUS:               ID:20100930001301 L   I
 2010-09-30-0011-46S.COL___125                                                 6
 STAT SP IPHASW D HRMM SECON CODA AMPLIT PERI AZIMU VELO SNR AR TRES W  DIS CAZ7
 BTL  SZ EP   1    013 20.16                             172     0.4 7   18 313 
 BAR2 SZ EP   2    013 19.65                             170    -0.2 5   24 188 
 BAR2 SZ ES   2    013 34.54                             170     0.0 5   24 188 
 BAR2 SZ I         013 35.51         6.9 0.33                            24 188 
 BRR  HZ EP   1    013 21.61                             151     0.2 7   70 298 
 BRR  HZ I         013 23.52         7.8 0.21                            70 298 
 BRR  HN ES   2    013 36.33                             151    -0.9 5   70 298 
 RUS  HZ EP   2    013 23.59                             142    -0.6 5  102 176 
 RUS  HE ES   2    013 42.46                             142     0.2 5  102 176 
 RUS  HZ I         013 43.90         3.0 0.19                           102 176 
 NOR  SE ES   2    014  4.44                             117     0.5 4  235 234 
 CHI  HZ EP   2    013 37.75                             115    -0.7 4  249 195 
 CHI  HZ I         014 12.27         1.1 0.17                           249 195 
                                                                                
