 2011  730 0740 43.2 L   6.829 -73.310123.1  RSN 13 0.3 2.5LRSN                1
 GAP=102        0.54       2.5     3.2  3.4 -0.1193E+01  0.3910E+01  0.1579E+01E
 Epicentro: ZAPATOCA - SANTANDER                                               3
 ACTION:UPD 12-07-25 14:04 OP:epov STATUS:               ID:20110730074043 L   I
 2011-07-30-0740-00M.COL___142                                                 6
 STAT SP IPHASW D HRMM SECON CODA AMPLIT PERI AZIMU VELO AIN AR TRES W  DIS CAZ7
 BAR2 SZ IP        741  0.45                             166    0.1710 29.7 152 
 BAR2 SZ ES   1    741 13.09                             166   -0.51 7 29.7 152 
 BAR2 SZ I         741 14.67       320.4 0.46                          29.7 152 
 GIR2 SZ EP        741  0.43                             165    0.2810 30.5  25 
 GIR2 SZ ES        741 13.46                             165    0.0810 30.5  25 
 BRR  HZ IP     C  741  0.90                             155   -0.0310 54.0 305 
 BRR  HE ES   1    741 15.07                             155    0.30 7 54.0 305 
 BRR  HZ I         741 15.90       113.3 0.16                          54.0 305 
 PAM  SZ EP   1    741  3.54                             143   -0.26 7 87.9  50 
 PAM  SN ES   2    741 20.11                             143    0.24 5 87.9  50 
 RUS  HZ EP   1    741  5.23                             137   -0.05 7  107 166 
 RUS  HE ES   2    741 22.24                             137   -0.26 5  107 166 
 RUS  HZ I         741 24.14        27.6 0.29                           107 166 
 BRI  SZ EP   1    741  5.56                             135    0.13 7  113  30 
 OCA  SZ EP   1    741  8.62                             125   -0.79 7  156 360 
 OCA  SZ ES   2    741 29.72                             125   -0.13 5  156 360 
 OCA  SZ I         741 33.71        43.8 0.13                           156 360 
 NOR  SZ EP   2    741 15.99                             115   -0.33 4  222 231 
 NOR  SE ES   2    741 41.83                             115   -0.33 4  222 231 
 HEL  HZ EP        741 20.52                             111    0.07 8  255 254 
 HEL  HN ES   2    741 49.28                             111   -0.23 4  255 254 
 VIL  SZ EP   1    741 26.14                             107    0.45 5  303 188 
 VIL  SN ES   2    741 58.69                             107   -0.14 4  303 188 
 VIL  SZ I         742  2.52        10.4 0.35                           303 188 
 DBB  SZ EP        741 27.90                             106    0.20 7  321 274 
 PRA  HZ EP   2    741 35.58                             103    0.24 3  386 207 
 SJA  SZ EP   2    741 36.95                             102   -0.07 3  400 190 
 SJA  SZ ES   2    742 19.19                             102    0.20 3  400 190 
                                                                                
