 2015 1130 0656  9.1 L   6.786 -73.135143.7  RSN  8 0.4 1.5LRSN                1
 GAP=184        0.93       3.3     5.0  5.7  0.3527E+01  0.2220E+01 -0.4274E+01E
 Epicentro: LOS SANTOS - SANTANDER                                             3
 ACTION:UPD 15-12-28 16:14 OP:cam  STATUS:               ID:20151130065609 L   I
 OLDACT:REG 15-11-30 14:06 OP:drio STATUS:               ID:20151130064742     3
 2015-11-30-0647-42M.COL___289                                                 6
 STAT SP IPHASW D HRMM SECON CODA AMPLIT PERI AZIMU VELO AIN AR TRES W  DIS CAZ7
 BAR2 EZ EP        656 28.59                             171    0.1410 22.0 194 
 BAR2 EZ ES        656 43.25                             171   -0.2910 22.0 194 
 BAR2 EZ I         656 44.61         6.9 0.22            170           22.0 194 
 BRR  HZ EP        656 30.67                             152    0.5510 73.0 299 
 BRR  HN ES        656 47.01                             152    0.4910 73.0 299 
 RUS  HZ EP        656 32.37                             144   -0.1510 98.9 177 
 RUS  HE ES        656 50.95                             144    0.1510 98.9 177 
 RUS  HZ I         656 51.94         3.4 0.26            145           98.9 177 
 PTB  HZ EP        656 35.50                             131   -0.47 9  149 260 
 PTB  HN ES        656 56.30                             131   -0.63 9  149 260 
 PTB  HZ I         657  1.04         2.5 0.14            131            149 260 
 OCA  HZ EP        656 37.34                             129   -0.07 9  162 353 
 OCA  HE ES        656 59.16                             129   -0.33 9  162 353 
 OCA  HZ I         657  2.80         5.0 0.28            130            162 353 
 SPBC HZ EP        656 37.50                             129    0.11 9  163 220 
 SPBC HE ES   4    656 58.15                             129   -1.31 0  163 220 
 SPBC HZ I         657  1.63         5.8 0.12            129            163 220 
 ZAR  HZ EP        656 42.19                             122    0.61 8  206 292 
 ZAR  HE ES        657  7.14                             122    0.22 8  206 292 
 ZAR  HZ I         657  8.95         2.1 0.30            122            206 292 
 SML  HZ EP        656 45.46                             117   -0.36 8  246 335 
 SML  HE ES        657 14.39                             117   -0.07 8  246 335 
                                                                                
