 2017  430 0652  0.3 L   6.806 -73.181151.1  RSN  5 0.3 1.7LRSN                1
 GAP=234        0.86       4.6     6.4  7.1  0.8540E+01 -0.4726E+01  0.5696E+01E
 Epicentro: ZAPATOCA - SANTANDER                                               3
 ACTION:UPD 17-05-30 21:17 OP:jn   STATUS:               ID:20170430065200 L   I
 OLDACT:REG 17-04-30 12:35 OP:dnl  STATUS:               ID:20170430064738     3
 2017-04-30-0648-00M.COL___371                                                 6
 STAT SP IPHASW D HRMM SECON CODA AMPLIT PERI AZIMU VELO AIN AR TRES W  DIS CAZ7
 BRR  HZ EP        652 22.00                             155    0.2110 67.5 300 
 BRR  HN ES        652 38.95                             155    0.3710 67.5 300 
 BRR  HZ I         652 39.70         9.5 0.16            151           67.5 300 
 RUS  HZ EP        652 24.38                             145   -0.2310  102 174 
 RUS  HE ES        652 43.27                             145   -0.3310  102 174 
 RUS  HZ I         652 44.69         6.6 0.18            142            102 174 
 PTB  HZ EP        652 27.04                             134   -0.30 9  144 258 
 PTB  HN ES        652 47.90                             134   -0.56 9  144 258 
 PTB  HZ I         652 52.82         6.4 0.40            130            144 258 
 SPBC HZ EP        652 29.01                             131    0.01 9  161 218 
 SPBC HN ES        652 51.90                             131    0.49 9  161 218 
 SPBC HZ I         653  0.14         8.8 0.22            127            161 218 
 CHI  HZ EP        652 38.59                             118    0.37 8  248 194 
 CHI  HN ES        653  7.99                             118    0.16 8  248 194 
 CHI  HZ I         653 12.58         1.9 0.36            117            248 194 
                                                                                
