 2016 1130 0940 44.6 L   6.531 -73.080153.4  RSN  4 0.3 1.0LRSN                1
 GAP=318        0.72       9.1     6.0  6.2  0.2236E+02  0.1266E+02  0.8566E+01E
 Epicentro: SAN GIL - SANTANDER                                                3
 ACTION:UPD 17-10-26 21:13 OP:lp   STATUS:               ID:20161130094044 L   I
 OLDACT:UP  16-11-30 18:40 OP:cog  STATUS:               ID:20161130093747     3
 OLDACT:REG 16-11-30 15:02 OP:dani STATUS:               ID:20161130093747     3
 2016-11-30-0938-00M.COL___342                                                 6
 STAT SP IPHASW D HRMM SECON CODA AMPLIT PERI AZIMU VELO AIN AR TRES W  DIS CAZ7
 BAR2 EZ EP        941  5.21                             175    0.1710 13.2 301 
 BAR2 EZ ES        941 21.08                             175    0.1410 13.2 301 
 BRR  HE ES        941 25.94                             147   -0.3510 94.6 312 
 PTB  HZ EP        941 12.14                             133   -0.50 9  152 270 
 PTB  HE ES        941 34.63                             133    0.15 9  152 270 
 PTB  HZ I         941 38.98         1.1 0.50            131            152 270 
 ZAR  HZ EP        941 19.85                             121    0.27 8  223 299 
 ZAR  HE ES        941 47.05                             121    0.22 8  223 299 
                                                                                
