 2013  130 0002 24.2 L   6.774 -73.068149.0  RSN  4 0.1 1.4LRSN                1
 GAP=148        0.36       2.4     3.2  3.8 -0.2031E+00 -0.1729E+01  0.2548E+01E
 Epicentro: LOS SANTOS - SANTANDER                                             3
 ACTION:UPD 13-02-15 09:17 OP:ep   STATUS:               ID:20130130000224 L   I
 2013-01-30-0000-00M.COL___241                                                 6
 STAT SP IPHASW D HRMM SECON CODA AMPLIT PERI AZIMU VELO AIN AR TRES W  DIS CAZ7
 PAM  SZ EP        0 2 46.69                             152    0.0710 74.6  33 
 PAM  SE ES   1    0 3  3.95                             152   -0.14 7 74.6  33 
 PAM  SZ I         0 3  6.59         3.9 0.21             47           74.6  33 
 BRR  HZ IP     C  0 2 46.20                             150   -0.0410 80.1 297 
 BRR  HE ES        0 3  3.43                             150    0.0210 80.1 297 
 BRR  HE I         0 3  6.67        11.4 0.32             47           80.1 297 
 RUS  HZ EP   1    0 2 48.27                             145    0.20 7 97.5 181 
 RUS  HE ES   1    0 3  6.68                             145    0.00 7 97.5 181 
 RUS  HE I         0 3  8.73         2.7 0.33             47           97.5 181 
 CHI  HZ EP   1    0 3  1.81                             118   -0.25 6  248 197 
 CHI  HZ I         0 3 36.90         1.4 0.55             37            248 197 
                                                                                
