 2013 1030 0440 40.3 L   6.826 -73.159144.0  RSN 16 0.5 2.5LRSN                1
 GAP= 69        1.14       2.8     3.3  5.4 -0.7859E+00  0.4026E+01  0.1203E+01E
 Epicentro: LOS SANTOS - SANTANDER                                             3
 ACTION:UPD 13-11-25 09:24 OP:ep   STATUS:               ID:20131030044040 L   I
 OLDACT:REG 13-10-30 06:37 OP:jn   STATUS:               ID:20131030044000     3
 2013-10-30-0440-00M.COL___273                                                 6
 STAT SP IPHASW D HRMM SECON CODA AMPLIT PERI AZIMU VELO AIN AR TRES W  DIS CAZ7
 BAR2 SZ EP        440 59.83                             169    0.0410 25.9 186 
 BAR2 SZ ES        441 15.11                             169    0.1410 25.9 186 
 BAR2 SZ I         441 16.35       141.2 0.34            169           25.9 186 
 BRR  HZ EP        441  1.60                             153    0.4810 68.5 297 
 BRR  HN ES        441 18.21                             153    0.8610 68.5 297 
 BRR  HZ I         441 21.83        53.1 0.30            151           68.5 297 
 PAM  SZ EP        441  2.80                             151    0.5310 76.2  42 
 PAM  SN ES        441 19.28                             151   -0.1210 76.2  42 
 PAM  SZ I         441 21.97        48.2 0.52            154           76.2  42 
 RUS  HZ EP        441  3.80                             143   -0.3110  104 175 
 RUS  HE ES        441 22.35                             143   -0.3110  104 175 
 RUS  HZ I         441 23.46        31.7 0.32            145            104 175 
 PTB  HZ EP        441  6.46                             132   -0.60 9  147 258 
 PTB  HN ES        441 27.15                             132   -0.76 9  147 258 
 PTB  HZ I         441 29.67        43.8 0.16            131            147 258 
 TAM  HZ EP        441  8.26                             130    0.20 9  157 106 
 TAM  HN ES        441 29.80                             130    0.10 9  157 106 
 OCA  HZ EP        441  7.88                             130   -0.33 9  157 354 
 OCA  HN ES        441 29.78                             130   -0.18 9  157 354 
 OCA  HZ I         441 38.32        41.3 0.24            131            157 354 
 SPBC HZ EP        441  8.64                             128   -0.16 9  164 218 
 SPBC HN ES        441 30.72                             128   -0.30 9  164 218 
 SPBC HZ I         441 35.12        63.6 0.46            129            164 218 
 ZAR  HZ EP        441 12.87                             122    0.48 9  202 292 
 ZAR  HE ES   1    441 37.68                             122    0.27 6  202 292 
 ZAR  HZ I         441 43.00        40.8 0.40            123            202 292 
 NOR  HZ EP   1    441 15.58                             118   -0.41 6  235 234 
 NOR  HN ES        441 43.76                             118   -0.05 8  235 234 
 NOR  HZ I         441 53.41        17.4 0.16            119            235 234 
 SML  HZ EP        441 15.96                             117   -0.53 8  240 335 
 SML  HN ES        441 43.97                             117   -0.74 8  240 335 
 CHI  HZ EP        441 17.96                             116   -0.21 8  251 195 
 CHI  HN ES        441 47.36                             116   -0.34 8  251 195 
 CHI  HZ I         441 52.69        24.5 0.34            118            251 195 
 ROSC BZ EP        441 20.03                             116    1.51 8  254 210 
 HEL  HZ EP   1    441 20.31                             114   -0.04 6  271 255 
 HEL  HN ES   1    441 51.90                             114    0.32 6  271 255 
 HEL  HZ I         441 57.91        19.5 0.30            115            271 255 
 CBOC HZ EP   1    441 28.00                             110    0.91 5  333 252 
 CBOC HN ES   1    442  4.44                             110    0.86 5  333 252 
 CBOC HZ I         442  9.74         5.4 0.24            110            333 252 
 ORTC HZ EP   1    441 33.86                             106   -0.48 4  397 216 
 ORTC HN ES   1    442 16.07                             106   -0.41 4  397 216 
 ORTC HZ I         442 21.26        14.9 0.28            107            397 216 
                                                                                
