 2017  330 0835 44.1 L   6.773 -73.127143.9  RSN  6 0.4 1.2LRSN                1
 GAP=140        0.69       5.8     4.5  6.2 -0.2867E+01 -0.5244E+01  0.3135E+01E
 Epicentro: LOS SANTOS - SANTANDER                                             3
 ACTION:UPD 17-05-25 18:47 OP:jn   STATUS:               ID:20170330083544 L   I
 OLDACT:UP  17-03-30 17:33 OP:and  STATUS:               ID:20170330082739     3
 OLDACT:UP  17-03-30 17:32 OP:and  STATUS:               ID:20170330082739     3
 OLDACT:REG 17-03-30 12:44 OP:and  STATUS:               ID:20170330082739     3
 2017-03-30-0828-00M.COL___353                                                 6
 STAT SP IPHASW D HRMM SECON CODA AMPLIT PERI AZIMU VELO AIN AR TRES W  DIS CAZ7
 BAR2 EZ EP   2    836  3.28                             171   -0.19 5 20.9 197 
 BAR2 EZ ES   2    836 18.16                             171   -0.41 5 20.9 197 
 BRR  HZ EP        836  4.99                             151   -0.2610 74.5 300 
 BRR  HN ES        836 22.21                             151    0.4710 74.5 300 
 BRR  HZ I         836 23.28         3.4 0.28            149           74.5 300 
 PAM  EZ EP     C  836  6.10                             150   -0.0910 78.4  37 
 PAM  EN ES        836 23.36                             150   -0.0510 78.4  37 
 PAM  EZ I         836 27.72         2.0 0.64            151           78.4  37 
 RUS  HZ EP   2    836  8.00                             144    0.54 5 97.5 177 
 RUS  HN ES   2    836 25.71                             144    0.05 5 97.5 177 
 RUS  HZ I         836 27.37         1.8 0.48            146           97.5 177 
 PTB  HZ EP   9    836 10.31                             131   -0.76 0  149 260 
 PTB  HN ES        836 30.93                             132   -0.40 9  149 260 
 PTB  HZ I         836 35.84         1.7 0.15            131            149 260 
 ZAR  HZ EP   3    836 17.76                             121    1.00 2  207 293 
 ZAR  HN ES   2    836 41.61                             121   -0.61 4  207 293 
 ZAR  HZ I         836 47.39         2.3 0.28            121            207 293 
                                                                                
