 2014 1230 0730 29.5 L   6.775 -73.136144.3  RSN 10 0.4 1.4LRSN                1
 GAP= 72        0.95       2.9     3.0  5.9  0.4414E+00  0.2325E+01  0.1911E+00E
 Epicentro: LOS SANTOS - SANTANDER                                             3
 ACTION:UPD 15-02-10 17:08 OP:nd   STATUS:               ID:20141230073029 L   I
 OLDACT:REG 14-12-30 13:06 OP:stll STATUS:               ID:20141230072747     3
 2014-12-30-0727-47M.COL___262                                                 6
 STAT SP IPHASW D HRMM SECON CODA AMPLIT PERI AZIMU VELO AIN AR TRES W  DIS CAZ7
 BAR2 EZ EP        730 48.99                             171    0.0810 20.8 194 
 BAR2 EZ I         731  5.07         4.6 0.24            171           20.8 194 
 BRR  HZ EP        730 50.78                             151    0.1510 73.5 300 
 BRR  HN ES        731  7.64                             151    0.5310 73.5 300 
 BRR  HZ I         731 17.88         3.3 0.68            151           73.5 300 
 PAM  SZ EP        730 51.86                             150    0.2010 78.9  38 
 PAM  SZ I         730 52.06         9.9 0.20            155           78.9  38 
 PAM  SN ES        731  8.49                             150   -0.4510 78.9  38 
 RUS  HN ES        731 11.17                             144    0.0110 97.7 177 
 RUS  HZ I         731 14.36         1.8 0.36            148           97.7 177 
 PTB  HZ EP        730 56.18                             132   -0.22 9  148 260 
 PTB  HN ES        731 16.89                             132   -0.50 9  148 260 
 PTB  HZ I         731 24.25         3.8 0.52            133            148 260 
 TAM  HZ EP        730 57.14                             130    0.23 9  153 104 
 TAM  HN ES        731 18.41                             130    0.13 9  153 104 
 SPBC HZ EP        730 58.09                             129    0.34 9  162 220 
 SPBC HN ES        731 19.69                             129   -0.10 9  162 220 
 SPBC HZ I         731 27.69         5.1 0.26            132            162 220 
 ZAR  HZ EP        731  2.51                             122    0.44 8  206 293 
 ZAR  HN ES        731 28.10                             122    0.63 8  206 293 
 ZAR  HZ I         731 37.00         2.5 0.24            124            206 293 
 CHI  HZ EP        731  6.77                             117   -0.09 8  246 196 
 CHI  HZ I         731  9.09         0.9 0.12            121            246 196 
 CHI  HN ES        731 35.41                             117   -0.59 8  246 196 
 SML  HZ EP        731  6.04                             117   -0.33 8  247 335 
 SML  HN ES        731 34.28                             117   -0.85 8  247 335 
 SML  HZ I         731 41.10         5.8 0.30            120            247 335 
                                                                                
