 2016 1130 0526 41.9 L   7.351 -73.182130.0  RSN  4 0.4 1.2LRSN                1
 GAP=176        0.50       8.7     2.6  4.7 -0.4445E+01  0.4242E+01  0.1331E+01E
 Epicentro: RIONEGRO - SANTANDER                                               3
 ACTION:UPD 17-10-26 21:13 OP:lp   STATUS:               ID:20161130052641 L   I
 OLDACT:UP  16-11-30 18:58 OP:dani STATUS:               ID:20161130051154     3
 OLDACT:UP  16-11-30 18:58 OP:dani STATUS:               ID:20161130051154     3
 OLDACT:UP  16-11-30 18:57 OP:dani STATUS:               ID:20161130051154     3
 OLDACT:UP  16-11-30 18:56 OP:dani STATUS:               ID:20161130051154     3
 OLDACT:REG 16-11-30 13:06 OP:dani STATUS:               ID:20161130051154     3
 2016-11-30-0518-00M.COL___343                                                 6
 STAT SP IPHASW D HRMM SECON CODA AMPLIT PERI AZIMU VELO AIN AR TRES W  DIS CAZ7
 PAM  EZ EP        527  1.07                             157   -0.0310 53.3  91 
 PAM  EE ES        527 16.15                             157    0.0810 53.3  91 
 PAM  EZ I         527 19.06         4.1 0.30            160           53.3  91 
 BRR  HZ EP        527  0.87                             152   -0.1110 64.4 245 
 BRR  HE ES        527 15.79                             152   -0.0610 64.4 245 
 BRR  HZ I         527 19.10         3.3 0.48            151           64.4 245 
 PTB  HZ EP        527  9.51                             124   -0.03 9  167 238 
 PTB  HE ES   3    527 32.46                             124    1.38 2  167 238 
 PTB  HZ I         527 35.26         1.5 0.19            126            167 238 
 ZAR  HZ EP   3    527 12.91                             121    1.47 2  186 275 
 ZAR  HN ES        527 34.47                             121    0.00 9  186 275 
 ZAR  HZ I         527 37.40         1.9 0.16            124            186 275 
                                                                                
