 2010  130 0206 48.8 L   6.823 -72.994146.1  RSN  8 0.6 1.8LRSN                1
 GAP=198        1.09       4.4    11.4 11.7 -0.1367E+02  0.7668E+02 -0.8007E+01E
 Epicentro: CEPITA - SANTANDER                                                 3
 ACTION:UP  10-08-24 09:46 OP:vdl  STATUS:               ID:20100130020648 L   I
 2010-01-30-0203-11S.COL___094                                                 6
 STAT SP IPHASW D HRMM SECON CODA AMPLIT PERI AZIMU VELO SNR AR TRES W  DIS CAZ7
 BAR2 SZ EP        2 7  8.68                             166     0.010   33 219 
 RUS  BZ EP        2 7 12.70                             143    -0.110  103 185 
 RUS  BN ES        2 7 31.61                             143     0.110  103 185 
 RUS  BZ I         2 7 34.08         6.5 0.25                           103 185 
 OCA  SZ EP        2 7 17.40                             130     0.2 9  161 347 
 OCA  SZ ES   1    2 7 39.25                             130    -0.1 7  161 347 
 CHI  HZ EP   1    2 7 26.97                             117    -0.4 6  256 199 
 CHI  HN ES        2 7 57.16                             117    -0.2 8  256 199 
 CHI  HZ I         2 8  4.49         3.5 0.37                           256 199 
 HEL  HZ EP        2 7 30.73                             113    -0.2 7  289 256 
 HEL  HN ES   2    2 8  1.89                             113    -1.9 4  289 256 
 HEL  HZ I         2 8  8.07         4.8 0.04                           289 256 
 RREF BZ EP        2 7 36.93                             110     0.3 7  336 231 
 RREF BN ES   1    2 8 15.86                             110     1.9 5  336 231 
 RREF BZ I         2 8 16.06         4.3 0.05                           336 231 
 TOL  SZ EP   1    2 7 39.10                             109     0.4 5  357 226 
 PRA  HZ EP   1    2 7 42.87                             106    -0.7 4  403 211 
 PRA  HN ES        2 8 26.12                             106    -0.2 6  403 211 
                                                                                
