 2014  830 0945 25.3 L   7.003 -73.129147.3  RSN  6 0.5 1.5LRSN                1
 GAP=126        1.36       6.6     7.1  9.2 -0.1858E+01  0.1110E+02 -0.7282E+01E
 Epicentro: FLORIDABLANCA - SANTANDER                                          3
 ACTION:UPD 14-09-15 21:54 OP:nd   STATUS:               ID:20140830094525 L   I
 OLDACT:DUP 14-08-30 19:36 OP:fm   STATUS:               ID:20140830093822d    3
 2014-08-30-0938-20M.COL___275                                                 6
 STAT SP IPHASW D HRMM SECON CODA AMPLIT PERI AZIMU VELO AIN AR TRES W  DIS CAZ7
 BAR2 SZ EP        945 46.09                             162    0.2810 45.8 187 
 BAR2 SZ I         945 46.32         7.4 0.24            152           45.8 187 
 BAR2 SZ ES        946  1.34                             162   -0.4410 45.8 187 
 PAM  SZ EP        945 47.49                             157    0.6910 60.2  52 
 PAM  SZ I         945 47.54         3.9 0.16            155           60.2  52 
 PAM  SN ES        946  2.93                             157   -0.6110 60.2  52 
 BRR  HZ EP        945 46.92                             155    0.5710 65.5 280 
 BRR  HN ES        946  3.68                             155    0.9510 65.5 280 
 BRR  HZ I         946  6.08        11.7 0.12            151           65.5 280 
 RUS  HZ EP        945 50.72                             138   -0.2410  123 178 
 RUS  HZ I         946 12.27         1.9 0.44            129            123 178 
 PTB  HZ EP        945 52.81                             131   -0.33 9  155 251 
 PTB  HN ES        946 14.32                             131   -0.50 9  155 251 
 PTB  HZ I         946 18.05         2.5 0.32            123            155 251 
 SML  HZ EP        945 59.65                             120   -0.34 8  224 332 
 SML  HN ES        946 26.62                             120   -0.39 8  224 332 
 SML  HZ I         946 33.03         5.1 0.10            115            224 332 
                                                                                
