 2015  630 0815  8.4 L   6.763 -73.203144.9  RSN  9 0.5 1.9LRSN                1
 GAP=177        1.10       3.4     5.1  7.7 -0.1548E+01  0.1896E+02 -0.4469E+01E
 Epicentro: ZAPATOCA - SANTANDER                                               3
 ACTION:UPD 15-09-10 22:15 OP:cam  STATUS:               ID:20150630081508 L   I
 OLDACT:UP  15-06-30 18:46 OP:ar   STATUS:               ID:20150630080749     3
 OLDACT:UP  15-06-30 18:31 OP:ar   STATUS:               ID:20150630080749     3
 OLDACT:UP  15-06-30 18:28 OP:ar   STATUS:               ID:20150630080749     3
 OLDACT:REG 15-06-30 14:40 OP:ar   STATUS:               ID:20150630080749     3
 2015-06-30-0807-49M.COL___310                                                 6
 STAT SP IPHASW D HRMM SECON CODA AMPLIT PERI AZIMU VELO AIN AR TRES W  DIS CAZ7
 BAR2 EZ EP        815 27.68                             172   -0.1910 19.0 173 
 BAR2 EZ ES        815 43.41                             172    0.3710 19.0 173 
 BAR2 EZ I         815 47.00        11.1 0.32            173           19.0 173 
 RUS  HZ EP        815 31.82                             145   -0.0210 97.1 172 
 RUS  HE ES        815 49.77                             145   -0.3410 97.1 172 
 RUS  HZ I         815 51.35         9.4 0.38            153           97.1 172 
 OCA  HZ EP        815 37.07                             129    0.08 9  164 355 
 OCA  HN ES        815 58.92                             129   -0.36 9  164 355 
 OCA  HZ I         816  9.97        13.8 0.48            131            164 355 
 ZAR  HZ EP        815 40.96                             123    0.58 9  200 294 
 ZAR  HN ES        816  5.74                             123    0.43 9  200 294 
 ZAR  HZ I         816 11.76        10.8 0.36            125            200 294 
 NOR  HZ EP        815 42.60                             119   -0.70 8  227 234 
 NOR  HN ES        816 11.25                             119    0.75 8  227 234 
 NOR  HZ I         816 18.70         4.5 0.18            123            227 234 
 SML  HZ EP        815 45.13                             117   -0.00 8  245 337 
 SML  HE ES        816 13.95                             117    0.19 8  245 337 
 SML  HZ I         816 21.54         9.0 0.10            120            245 337 
 URE  HN ES        816 19.68                             114   -0.93 7  280 293 
 URE  HZ I         816 32.67         5.6 0.28            116            280 293 
 GUY2CHZ EP        815 51.70                             113    0.56 7  294 235 
 GUY2CHN ES        816 24.18                             113   -0.29 7  294 235 
 GUY2CHZ I         816 32.26         3.3 0.30                           294 235 
 CBOC HZ EP        815 55.13                             110    0.66 7  326 252 
 CBOC HN ES        816 29.50                             110   -0.89 7  326 252 
 CBOC HZ I         816 33.91         1.2 0.50            114            326 252 
                                                                                
