 2016  730 0808 26.0 L   6.810 -73.139148.7  RSN 20 0.5 2.3LRSN                1
 GAP= 71        1.04       3.8     2.8  4.7 -0.1940E+01  0.2702E+01  0.1102E+00E
 Epicentro: LOS SANTOS - SANTANDER                                             3
 ACTION:UPD 17-03-29 16:56 OP:lp   STATUS:               ID:20160730080826 L   I
 OLDACT:UP  16-07-30 18:14 OP:edw  STATUS:               ID:20160730080759     3
 OLDACT:UP  16-07-30 18:13 OP:edw  STATUS:               ID:20160730080759     3
 OLDACT:REG 16-07-30 14:01 OP:edw  STATUS:               ID:20160730080759     3
 2016-07-30-0807-59S.COL___334                                                 6
 STAT SP IPHASW D HRMM SECON CODA AMPLIT PERI AZIMU VELO AIN AR TRES W  DIS CAZ7
 BAR2 EZ EP        8 8 45.93                             170   -0.0910 24.5 191 
 BAR2 EZ ES        8 9  1.29                             170   -0.3410 24.5 191 
 BAR2 EZ I         8 9  2.35        84.2 0.28            169           24.5 191 
 BRR  HZ EP     C  8 8 47.76                             153    0.2710 71.3 297 
 BRR  HN ES        8 9  4.92                             153    0.6810 71.3 297 
 BRR  HZ I         8 9  8.68        39.5 0.28            150           71.3 297 
 PAM  EZ EP        8 8 48.80                             152    0.3310 76.1  40 
 PAM  EE ES        8 9  6.03                             152    0.0510 76.1  40 
 PAM  EZ I         8 9  7.95        31.3 0.52            154           76.1  40 
 RUS  HZ EP        8 8 49.91                             144   -0.2210  102 176 
 RUS  HE ES        8 9  8.66                             144   -0.2810  102 176 
 RUS  HZ I         8 9 10.01        17.2 0.40            145            102 176 
 PTB  HZ EP        8 8 52.55                             132   -0.75 9  149 258 
 PTB  HE ES        8 9 14.58                             132   -0.01 9  149 258 
 PTB  HZ I         8 9 19.79        21.7 0.28            131            149 258 
 TAM  HZ EP        8 8 54.15                             131    0.26 9  155 105 
 TAM  HE ES        8 9 15.92                             131    0.29 9  155 105 
 TAM  HZ I         8 9 18.41        14.7 0.30            135            155 105 
 SPBC HZ EP        8 8 54.87                             130    0.01 9  164 219 
 SPBC HN ES        8 9 17.27                             130   -0.09 9  164 219 
 SPBC HZ I         8 9 21.66        45.5 0.22            129            164 219 
 ZAR  HZ EP        8 8 59.13                             123    0.45 9  204 292 
 ZAR  HN ES        8 9 23.62                             123   -0.54 9  204 292 
 ZAR  HZ I         8 9 29.00        28.8 0.36            122            204 292 
 NOR  HZ EP        8 9  2.07                             119    0.03 8  236 234 
 NOR  HE ES        8 9 29.55                             119   -0.60 8  236 234 
 NOR  HZ I         8 9 37.59        16.2 0.12            119            236 234 
 HEL  HZ EP        8 9  7.35                             115    0.87 8  273 256 
 HEL  HE ES        8 9 38.35                             115    0.30 8  273 256 
 HEL  HZ I         8 9 44.03        10.2 0.28            115            273 256 
 URE  HZ EP   4    8 9  5.23                             114   -2.02 0  284 292 
 URE  HE ES   4    8 9 37.29                             114   -2.13 0  284 292 
 URE  HZ I         8 9 49.83        13.6 0.20            114            284 292 
 SOCV BZ EP        8 9  8.71                             113   -0.35 7  300  57 
 SOCV BN ES   4    8 9 40.45                             113   -2.19 0  300  57 
 GUY2CHZ EP        8 9 10.41                             113    0.52 7  302 235 
 GUY2CHE ES   4    8 9 48.44                             113    4.32 0  302 235 
 GUY2CHZ I         8 9 51.94        13.8 0.36                           302 235 
 LL6C HZ EP        8 9 10.43                             111   -1.29 7  324 357 
 LL6C HN ES   4    8 9 45.82                             111   -1.55 0  324 357 
 ELA  HZ EP   4    8 9 15.51                             111    2.38 0  330 229 
 ELA  HE ES   4    8 9 53.15                             111    3.27 0  330 229 
 ELA  HZ I         8 9 58.47        11.5 0.52            111            330 229 
 CBOC HZ EP        8 9 13.89                             110    0.72 7  335 252 
 CBOC HN ES        8 9 49.82                             110   -0.13 7  335 252 
 CBOC HZ I         8 9 55.63         3.7 0.74            110            335 252 
 PRA  HZ EP        8 9 19.47                             107   -0.32 6  393 210 
 PRA  HN ES   4    810  1.45                             107   -0.28 0  393 210 
 PRA  HZ I         810  7.99        15.9 0.34            107            393 210 
 PAL  HZ EP        8 9 21.31                             106   -0.10 6  407 239 
 PAL  HN ES   4    810  2.68                             106   -1.94 0  407 239 
 PAL  HZ I         810 11.44         2.7 0.32            106            407 239 
 SJC  HZ EP   4    8 9 19.51                             106   -2.10 0  409 327 
 SJC  HN ES   4    810  1.03                             106   -3.95 0  409 327 
 SJC  HZ I         810 15.73         3.9 0.60            106            409 327 
 CRJC HZ EP   4    8 9 26.27                             104   -2.19 0  466   3 
 CRJC HE ES   4    810 14.44                             104   -2.73 0  466   3 
 CRJC HZ I         810 15.86         6.7 0.18            104            466   3 
                                                                                
