 2015  830 0417 34.7 L   6.805 -73.054149.5  RSN  4 0.4 1.5LRSN                1
 GAP=238        1.04       5.2    11.7  8.5  0.1574E+01  0.1311E+01 -0.1183E+02E
 Epicentro: LOS SANTOS - SANTANDER                                             3
 ACTION:UPD 15-09-15 23:06 OP:cam  STATUS:               ID:20150830041734 L   I
 OLDACT:UP  15-08-30 17:09 OP:ak   STATUS:               ID:20150830040747d    3
 OLDACT:UP  15-08-30 17:08 OP:ak   STATUS:               ID:20150830040747d    3
 OLDACT:DUP 15-08-30 17:04 OP:ak   STATUS:               ID:20150830040747d    3
 OLDACT:REG 15-08-30 13:44 OP:ak   STATUS:               ID:20150830040746     3
 2015-08-30-0407-46M.COL___358                                                 6
 STAT SP IPHASW D HRMM SECON CODA AMPLIT PERI AZIMU VELO AIN AR TRES W  DIS CAZ7
 BAR2 EZ EP        417 54.77                             169   -0.0810 27.5 211 
 BAR2 EZ ES        418 10.35                             169   -0.2310 27.5 211 
 BAR2 EZ I         418 11.61         6.0 0.26            164           27.5 211 
 BRR  HZ EP        417 57.72                             150    0.9710 80.0 295 
 BRR  HN ES        418 14.02                             150    0.0610 80.0 295 
 BRR  HZ I         418 18.57         3.9 0.12            146           80.0 295 
 SPBC HZ EP   1    418  3.90                             128   -0.23 7  170 222 
 SPBC HE ES        418 26.92                             128   -0.18 9  170 222 
 SPBC HZ I         418 30.90         6.9 0.05            128            170 222 
 SML  HZ EP        418 11.54                             118   -0.41 8  248 333 
 SML  HE ES        418 40.68                             118   -0.33 8  248 333 
                                                                                
