 2012 1030 0330 56.5 L   6.798 -73.114141.2  RSN 11 0.5 2.8LRSN                1
 GAP=141        0.89       3.9     4.8  6.3  0.1696E+01  0.4360E+01  0.6082E+01E
 Epicentro: LOS SANTOS - SANTANDER                                             3
 ACTION:UPD 12-11-22 17:06 OP:ep   STATUS:               ID:20121030033057dL   I
 2012-10-30-0330-00M.COL___231                                                 6
 STAT SP IPHASW D HRMM SECON CODA AMPLIT PERI AZIMU VELO AIN AR TRES W  DIS CAZ7
 BAR2 SZ EP        331 15.49                             170   -0.0610 24.0 198 
 BAR2 SZ ES   1    331 29.94                             170   -0.50 7 24.0 198 
 BAR2 SZ I         331 31.88       143.5 0.20                          24.0 198 
 GIR2 SZ EP   1    331 15.56                             167   -0.05 7 32.3 344 
 BRR  HZ EP        331 17.31                             151    0.0110 74.4 297 
 BRR  HN ES        331 34.26                             151    0.7010 74.4 297 
 BRR  HN I         331 34.76       276.6 0.16                          74.4 297 
 PAM  SZ EP        331 18.32                             151    0.2610 75.4  37 
 PAM  SN ES   2    331 34.99                             151    0.07 5 75.4  37 
 RUS  HZ EP   1    331 19.55                             143   -0.18 7  100 178 
 RUS  HN ES   2    331 37.73                             143   -0.15 5  100 178 
 OCA  HZ EP   1    331 23.82                             129   -0.66 7  161 352 
 OCA  HN ES   1    331 46.07                             129   -0.27 7  161 352 
 OCA  HN I         331 48.23       197.8 0.22                           161 352 
 ZAR  HZ EP   1    331 28.81                             121   -0.14 6  207 292 
 ZAR  HE ES        331 53.81                             121   -0.49 8  207 292 
 ZAR  HN I         331 56.68        47.8 0.12                           207 292 
 CHI  HZ EP   1    331 33.97                             116   -0.01 6  249 196 
 CHI  HN ES   2    332  2.71                             116   -0.54 4  249 196 
 CHI  HN I         332  5.59        26.6 0.56                           249 196 
 ROSC BZ EP   1    331 35.60                             116    1.09 6  254 212 
 HEL  HZ EP   1    331 37.80                             114    0.99 6  275 256 
 HEL  HE ES   2    332  7.52                             114   -0.77 4  275 256 
 HEL  HN I         332 14.59        19.6 0.24                           275 256 
 PRA  HZ EP   1    331 49.39                             106   -0.61 4  394 210 
 PRA  HN ES   2    332 31.74                             106   -0.03 3  394 210 
 PRA  HN I         332 38.05        12.3 0.74                           394 210 
                                                                                
