 2016  130 0822 19.7 L   6.778 -73.189136.7  RSN  5 0.2 0.9LRSN                1
 GAP=197        0.60       3.4     4.2  5.3  0.4982E+01  0.5290E+01 -0.5977E+01E
 Epicentro: ZAPATOCA - SANTANDER                                               3
 ACTION:UPD 16-03-09 23:29 OP:cam  STATUS:               ID:20160130082219 L   I
 OLDACT:DUP 16-01-30 18:29 OP:cara STATUS:               ID:20160130080460d    3
 2016-01-30-0804-59S.COL___219                                                 6
 STAT SP IPHASW D HRMM SECON CODA AMPLIT PERI AZIMU VELO AIN AR TRES W  DIS CAZ7
 BAR2 EZ EP        822 37.83                             171   -0.4010 20.5 178 
 BAR2 EZ ES        822 52.74                             171    0.0910 20.5 178 
 RUS  HZ EP        822 42.56                             142    0.0910 98.6 173 
 RUS  HE ES        823  0.26                             142    0.0710 98.6 173 
 RUS  HZ I         823  1.30         0.9 0.34            145           98.6 173 
 PTB  HZ EP        822 45.86                             131    0.35 9  143 259 
 PTB  HN ES        823  5.45                             131   -0.15 9  143 259 
 PTB  HZ I         823  7.74         1.1 0.48            132            143 259 
 ZAR  HZ EP        822 51.07                             121   -0.18 9  201 293 
 SML  HZ EP   4    822 54.11                             115   -1.80 0  244 337 
 SML  HE ES        823 24.28                             115    0.16 8  244 337 
 SML  HZ I         823 28.32         1.2 0.22            116            244 337 
                                                                                
