 2013  630 0623 14.0 L   6.766 -73.144144.0  RSN 10 0.5 1.9LRSN                1
 GAP=138        1.08       4.3     4.9  6.7 -0.1409E+00  0.6339E+01  0.6909E+01E
 Epicentro: LOS SANTOS - SANTANDER                                             3
 ACTION:UPD 14-01-08 09:58 OP:ep   STATUS:               ID:20130630062314 L   I
 OLDACT:REG 13-06-30 07:43 OP:jn   STATUS:               ID:20130630061959     3
 2013-06-30-0619-59M.COL___267                                                 6
 STAT SP IPHASW D HRMM SECON CODA AMPLIT PERI AZIMU VELO AIN AR TRES W  DIS CAZ7
 BAR2 SZ EP     D  623 33.33                             172   -0.0110 19.7 192 
 BAR2 SZ ES        623 48.55                             172    0.1210 19.7 192 
 BAR2 SZ I         623 49.60        22.5 0.28            164           19.7 192 
 GIR2 SZ EP        623 33.44                             166   -0.1210 35.0 351 
 BRR  HZ EP     C  623 35.16                             152    0.1010 73.2 301 
 BRR  HE ES        623 52.40                             152    0.9010 73.2 301 
 BRR  HZ I         623 56.48        13.3 0.18            134           73.2 301 
 PAM  SZ EP        623 36.21                             150    0.0210 80.2  38 
 PAM  SN ES        623 53.14                             150   -0.3610 80.2  38 
 PAM  SZ I         623 55.53         7.5 0.48            139           80.2  38 
 RUS  HZ EP        623 37.35                             145    0.0510 96.9 176 
 RUS  HN ES        623 55.36                             145   -0.1210 96.9 176 
 RUS  HZ I         623 57.37        14.1 0.34            131           96.9 176 
 PTB  HZ EP        623 40.10                             132   -0.66 9  147 260 
 PTB  HN ES        624  1.05                             132   -0.60 9  147 260 
 PTB  HZ I         624  7.02         8.4 0.20            115            147 260 
 ZAR  HE ES   1    624 11.39                             122   -0.43 6  206 293 
 ZAR  HZ I         624 17.09        13.1 0.34            108            206 293 
 CHI  HZ EP     C  623 51.62                             117    0.42 8  245 195 
 CHI  HN ES        624 20.20                             117   -0.03 8  245 195 
 CHI  HZ I         624 23.17         2.7 0.34            106            245 195 
 HEL  HZ EP   1    623 55.42                             114    1.39 6  271 257 
 HEL  HZ I         624 33.31         3.5 0.38            104            271 257 
 PRA  HZ EP   1    624  7.08                             106    0.00 4  389 210 
 PRA  HZ I         624 55.72         3.3 0.44             99            389 210 
                                                                                
