 2017  830 0427 18.4 L   6.794 -73.120146.8  RSN 12 0.7 1.9LRSN                1
 GAP=114        1.58       5.9     6.0  8.5  0.4109E+01  0.9149E+01  0.1766E+02E
 Epicentro: LOS SANTOS - SANTANDER                                             3
 ACTION:UPD 17-09-04 20:26 OP:rebc STATUS:               ID:20170830042718 L   I
 OLDACT:UP  17-08-30 14:43 OP:dani STATUS:               ID:20170830041740d    3
 OLDACT:UP  17-08-30 14:43 OP:dani STATUS:               ID:20170830041740d    3
 OLDACT:UP  17-08-30 14:42 OP:dani STATUS:               ID:20170830041740d    3
 OLDACT:UP  17-08-30 14:42 OP:dani STATUS:               ID:20170830041740d    3
 OLDACT:UP  17-08-30 14:42 OP:dani STATUS:               ID:20170830041740d    3
 OLDACT:DUP 17-08-30 14:37 OP:dani STATUS:               ID:20170830041740d    3
 OLDACT:UP  17-08-30 14:37 OP:dani STATUS:               ID:20170830041739     3
 OLDACT:UP  17-08-30 14:36 OP:dani STATUS:               ID:20170830041739     3
 OLDACT:REG 17-08-30 12:36 OP:dani STATUS:               ID:20170830041739     3
 2017-08-30-0418-00M.COL___408                                                 6
 STAT SP IPHASW D HRMM SECON CODA AMPLIT PERI AZIMU VELO AIN AR TRES W  DIS CAZ7
 BAR2 EZ EP        427 37.67                             170   -0.4810 23.4 197 
 BAR2 EZ ES        427 53.32                             170   -0.2410 23.4 197 
 BRR  HZ EP        427 39.71                             152   -0.1010 74.0 298 
 BRR  HE ES        427 57.05                             152    0.5310 74.0 298 
 BRR  HZ I         427 57.99        14.3 0.19            152           74.0 298 
 PAM  EZ EP        427 40.57                             151   -0.0710 76.1  38 
 PAM  EN ES        427 58.23                             151    0.2310 76.1  38 
 RUS  HZ EP        427 42.01                             144   -0.1810 99.8 178 
 RUS  HE ES        428  0.79                             144    0.0410 99.8 178 
 SPBC HZ EP        427 46.63                             129   -0.46 9  164 220 
 SPBC HE ES        428  9.39                             129   -0.09 9  164 220 
 YPLC HZ EP        427 48.04                             127   -0.03 9  175 152 
 YPLC HN ES        428 11.84                             127    0.61 9  175 152 
 ZAR  HN ES        428 16.34                             122   -0.45 8  207 292 
 NOR  HZ EP        427 54.12                             118   -0.27 8  237 235 
 NOR  HE ES        428 21.87                             118   -0.60 8  237 235 
 CHI  HZ EP        427 55.76                             117   -0.40 8  249 196 
 ROSC BZ EP        427 58.32                             117    1.65 8  254 212 
 GUY2CHZ EP        428  4.33                             112    2.06 7  303 235 
 PTGC HZ EP        428  0.75                             112   -1.36 7  307 159 
                                                                                
