 2012  830 0826 22.3 L   6.752 -73.192146.0  RSN  5 0.4 1.4LRSN                1
 GAP=173        0.46      10.8    11.3  8.4  0.7980E+02  0.3781E+01  0.3825E+02E
 Epicentro: VILLANUEVA - SANTANDER                                             3
 ACTION:UPD 12-09-10 11:59 OP:ep   STATUS:               ID:20120830082622 L   I
 2012-08-30-0820-00M.COL___218                                                 6
 STAT SP IPHASW D HRMM SECON CODA AMPLIT PERI AZIMU VELO AIN AR TRES W  DIS CAZ7
 BAR2 SZ EP   3    826 40.84                             173   -1.05 2 17.7 177 
 BAR2 SZ ES   2    826 56.90                             173   -0.24 5 17.7 177 
 BAR2 SZ I         826 58.19        15.9 0.16                          17.7 177 
 GIR2 SZ EP   3    826 41.53                             165   -0.64 2 36.1 360 
 BRR  HZ EP   3    826 43.38                             153   -0.04 2 69.6 304 
 BRR  HN ES   2    827  0.26                             153    0.40 5 69.6 304 
 BRR  HZ I         827  0.78         6.3 0.48                          69.6 304 
 RUS  HZ EP        826 45.90                             145    0.1410 95.8 173 
 RUS  HE ES   3    827  3.88                             145   -0.16 2 95.8 173 
 RUS  HZ I         827  5.46         2.1 0.22                          95.8 173 
 PTB  HZ EP   3    826 48.36                             133   -0.42 2  142 261 
 PTB  HN ES   3    827  8.82                             133   -0.59 2  142 261 
 PTB  HZ I         827  9.53         1.3 0.56                           142 261 
                                                                                
