 2016  830 0932  5.7 L   6.755 -73.111146.9  RSN  6 0.3 1.4LRSN                1
 GAP=143        0.69       2.9     3.5  4.7 -0.1187E+00  0.4381E+01  0.1251E+00E
 Epicentro: LOS SANTOS - SANTANDER                                             3
 ACTION:UPD 16-10-29 15:40 OP:rebc STATUS:               ID:20160830093205 L   I
 OLDACT:REG 16-08-30 13:02 OP:edw  STATUS:               ID:20160830092738     3
 2016-08-30-0928-00M.COL___346                                                 6
 STAT SP IPHASW D HRMM SECON CODA AMPLIT PERI AZIMU VELO AIN AR TRES W  DIS CAZ7
 BAR2 EZ EP        932 25.15                             172   -0.2510 19.6 204 
 BAR2 EZ ES        932 40.75                             172   -0.0210 19.6 204 
 BAR2 EZ I         932 42.12         8.0 0.30                          19.6 204 
 BRR  HZ EP        932 27.32                             151    0.0110 77.0 300 
 BRR  HN ES        932 44.67                             151    0.5110 77.0 300 
 PAM  EZ EP        932 28.40                             150    0.2610 79.1  35 
 PAM  EE ES        932 45.30                             150   -0.3410 79.1  35 
 PAM  EZ I         932 47.81         4.1 0.56                          79.1  35 
 RUS  HZ EP        932 29.53                             145    0.3310 95.4 178 
 RUS  HN ES        932 47.40                             145   -0.1310 95.4 178 
 RUS  HZ I         932 49.02         2.2 0.30                          95.4 178 
 SPBC HZ EP        932 34.29                             129    0.13 9  162 221 
 SPBC HN ES        932 56.19                             129   -0.16 9  162 221 
 SPBC HZ I         933  5.25         2.8 0.20                           162 221 
 ZAR  HZ EP        932 38.54                             122   -0.25 8  209 293 
 ZAR  HN ES        933  4.37                             122   -0.22 8  209 293 
 ZAR  HZ I         933  7.22         1.9 0.10                           209 293 
                                                                                
