 2013 1130 0954  9.5 L   6.087 -73.713104.0  RSN  4 0.2 1.1LRSN                1
 GAP=255        0.57       5.3     2.8  5.9  0.1965E+01  0.5080E+01  0.7703E+01E
 Epicentro: BOLIVAR - SANTANDER                                                3
 ACTION:UPD 14-01-09 16:32 OP:ep   STATUS:               ID:20131130095409 L   I
 OLDACT:UP  13-11-30 13:28 OP:mh   STATUS:               ID:20131130095000     3
 OLDACT:REG 13-11-30 08:45 OP:mher STATUS:               ID:20131130095000     3
 2013-11-30-0950-00M.COL___282                                                 6
 STAT SP IPHASW D HRMM SECON CODA AMPLIT PERI AZIMU VELO AIN AR TRES W  DIS CAZ7
 BAR2 SZ EP        954 27.75                             139    0.3210 81.0  46 
 BAR2 SZ ES        954 41.21                             139   -0.1910 81.0  46 
 PTB  HZ EP        954 28.55                             134    0.1410 96.3 301 
 PTB  HN ES        954 43.08                             134   -0.0810 96.3 301 
 PTB  HZ I         954 46.32         1.7 0.09            134           96.3 301 
 BRR  HZ EP        954 29.68                             129   -0.2310  113   0 
 BRR  HN ES        954 45.95                             129    0.1310  113   0 
 BRR  HZ I         954 51.59         3.4 0.43            128            113   0 
 ZAR  HZ EP        954 38.93                             112   -0.30 9  200 321 
 ZAR  HN ES        955  2.56                             112    0.16 9  200 321 
 ZAR  HZ I         955  4.51         2.5 0.37            113            200 321 
                                                                                
