 2011  430 0604 56.8 L   6.770 -73.103147.6  RSN 10 0.4 2.2LRSN                1
 GAP=119        0.81       3.4     5.3  5.8 -0.5508E+01  0.3865E+01  0.6622E+00E
 Epicentro: LOS SANTOS - SANTANDER                                             3
 ACTION:UP  11-06-22 15:34 OP:REBC STATUS:               ID:20110430060456 L   I
 2011-04-30-0603-14S.COL___129                                                 6
 STAT SP IPHASW D HRMM SECON CODA AMPLIT PERI AZIMU VELO SNR AR TRES W  DIS CAZ7
 BAR2 SZ EP        6 5 16.52                             171    -0.110   22 204 
 BAR2 SZ ES   1    6 5 31.64                             171    -0.4 7   22 204 
 BAR2 SZ I         6 5 33.25        50.6 0.23                            22 204 
 BRR  HZ EP        6 5 18.38                             151    -0.110   77 299 
 BRR  HN ES   1    6 5 35.77                             151     0.4 7   77 299 
 BRR  HZ I         6 5 37.82        37.6 0.13                            77 299 
 PAM  SZ EP   1    6 5 19.17                             151     0.0 7   77  35 
 PAM  SN ES   1    6 5 36.60                             151     0.0 7   77  35 
 RUS  HZ EP   1    6 5 20.40                             145    -0.1 7   97 179 
 RUS  HN ES   1    6 5 39.09                             145     0.2 7   97 179 
 RUS  HZ I         6 5 40.46        21.4 0.40                            97 179 
 BRI  SZ EP   1    6 5 21.06                             141     0.1 7  110  18 
 GRA  SZ IP        6 5 22.28                             137     0.010  128  15 
 GRA  SZ ES   1    6 5 42.19                             137    -0.1 7  128  15 
 GRA  SZ I         6 5 44.16        18.6 0.21                           128  15 
 OCA  SZ EP   1    6 5 24.79                             129    -0.8 7  164 352 
 OCA  SZ ES   1    6 5 48.53                             129     0.5 7  164 352 
 OCA  SZ I         6 5 52.61        28.3 0.18                           164 352 
 YOP  SZ EP   1    6 5 27.02                             128     0.6 7  174 154 
 YOP  SZ I         6 5 55.52         7.0 0.25                           174 154 
 NOR  SZ EP   1    6 5 32.41                             119    -0.4 6  237 236 
 NOR  SE ES   1    6 6  0.62                             119    -0.3 6  237 236 
 HEL  HZ EP   1    6 5 38.24                             115     0.7 6  276 257 
 HEL  HZ I         6 6 15.47         7.4 0.41                           276 257 
                                                                                
