 2014  330 0327 22.7 L   6.902 -73.189146.5  RSN  5 0.1 1.5LRSN                1
 GAP=154        0.33       2.1     2.0  3.1 -0.1301E+01  0.2283E+01  0.3428E+00E
 Epicentro: BETULIA - SANTANDER                                                3
 ACTION:UPD 14-04-09 23:21 OP:nd   STATUS:               ID:20140330032722 L   I
 OLDACT:REG 14-03-30 07:51 OP:carl STATUS:               ID:20140330032045     3
 2014-03-30-0320-45M.COL___250                                                 6
 STAT SP IPHASW D HRMM SECON CODA AMPLIT PERI AZIMU VELO AIN AR TRES W  DIS CAZ7
 BAR2 SZ EP        327 42.80                             166    0.1310 34.3 179 
 BAR2 SZ ES        327 58.25                             166   -0.0110 34.3 179 
 BAR2 SZ I         327 59.68         9.5 0.46            163           34.3 179 
 PAM  SN ES        328  1.88                             152    0.0110 72.6  48 
 RUS  HZ EP        327 47.34                             141   -0.0310  112 174 
 RUS  HN ES        328  6.53                             141   -0.1010  112 174 
 RUS  HZ I         328  8.07         2.0 0.24            140            112 174 
 PTB  HZ EP        327 49.42                             133   -0.10 9  146 254 
 PTB  HN ES        328 10.42                             133   -0.04 9  146 254 
 PTB  HZ I         328 12.19         5.0 0.18            132            146 254 
 SPBC HN ES        328 14.68                             128    0.14 9  169 215 
 SPBC HZ I         328 21.40         4.3 0.30            127            169 215 
                                                                                
