 2013  830 0940 57.8 L   6.717 -73.176144.1  RSN  4 0.5 1.4LRSN                1
 GAP=237        1.06       9.2     9.7 10.4 -0.1362E+02  0.8168E+01  0.1955E+02E
 Epicentro: VILLANUEVA - SANTANDER                                             3
 ACTION:UPD 14-01-14 09:08 OP:ep   STATUS:               ID:20130830094057 L   I
 OLDACT:REG 13-08-30 08:34 OP:jn   STATUS:               ID:20130830093851d    3
 2013-08-30-0938-50M.COL___211                                                 6
 STAT SP IPHASW D HRMM SECON CODA AMPLIT PERI AZIMU VELO AIN AR TRES W  DIS CAZ7
 BAR2 SZ EP        941 16.80                             174   -0.3010 13.8 183 
 BAR2 SZ ES   1    941 31.75                             174   -0.39 7 13.8 183 
 BAR2 SZ I         941 32.68         4.4 0.14            169           13.8 183 
 BRR  HZ EP        941 19.47                             151    0.5510 73.3 306 
 BRR  HN ES   1    941 35.84                             151    0.47 7 73.3 306 
 BRR  HN I         941 36.04         8.1 0.22            150           73.3 306 
 PTB  HZ EP        941 23.87                             133   -0.35 9  143 262 
 PTB  HN ES   1    941 44.04                             133   -0.77 7  143 262 
 PTB  HZ I         941 48.49         2.0 0.14            131            143 262 
 SPBC HZ EP        941 25.37                             130    0.04 9  154 220 
 SPBC HN ES   1    941 47.54                             130    0.76 7  154 220 
 SPBC HZ I         941 50.21         2.5 0.34            129            154 220 
                                                                                
