 2015  330 0939  9.1 L   5.937 -73.796110.0  RSN  5 0.4 1.9LRSN                1
 GAP=131        0.96       5.2     4.1  8.6  0.5247E+01  0.6520E+01 -0.1008E+02E
 Epicentro: SUCRE - SANTANDER                                                  3
 ACTION:UPD 15-04-30 16:30 OP:nd   STATUS:               ID:20150330093909 L   I
 OLDACT:DUP 15-03-30 20:03 OP:mh   STATUS:               ID:20150330093050d    3
 2015-03-30-0930-49M.COL___284                                                 6
 STAT SP IPHASW D HRMM SECON CODA AMPLIT PERI AZIMU VELO AIN AR TRES W  DIS CAZ7
 SPBC HZ EP        939 25.10                             157    0.1210 43.9 224 
 SPBC HN ES   1    939 37.16                             157   -0.23 7 43.9 224 
 SPBC HZ I         939 39.03        40.1 0.05            158           43.9 224 
 RUS  HZ EP        939 28.00                             142    0.2310 79.1  94 
 RUS  HN ES        939 42.25                             142   -0.0910 79.1  94 
 PTB  HZ EP        939 28.01                             135   -0.7010 98.9 312 
 PTB  HN ES        939 44.48                             135    0.4510 98.9 312 
 PTB  HZ I         939 47.02         7.0 0.23            137           98.9 312 
 NOR  HZ EP        939 31.15                             127   -0.1010  126 251 
 NOR  HN ES   1    939 48.73                             127    0.19 7  126 251 
 NOR  HZ I         939 50.02        21.0 0.11            130            126 251 
 ZAR  HZ EP   1    939 40.88                             113    0.93 6  208 326 
 ZAR  HN ES        940  3.68                             113   -0.35 8  208 326 
                                                                                
