 2016 1030 0156 45.2 L   6.059 -73.900  4.0  RSN  4 0.6 0.9LRSN                1
 GAP=108        1.47       3.2     3.7  9.4  0.1010E+01 -0.1241E+00 -0.1321E+01E
 Epicentro: EL PENON - SANTANDER                                               3
 ACTION:UPD 16-11-09 19:24 OP:rebc STATUS:               ID:20161030015645 L   I
 OLDACT:UP  16-10-30 15:48 OP:cog  STATUS:               ID:20161030014744     3
 OLDACT:REG 16-10-30 13:40 OP:cog  STATUS:               ID:20161030014744     3
 2016-10-30-0148-00M.COL___315                                                 6
 STAT SP IPHASW D HRMM SECON CODA AMPLIT PERI AZIMU VELO AIN AR TRES W  DIS CAZ7
 SPBC HZ EP        156 53.97                              47    0.6410 48.9 203 
 SPBC HN ES        156 59.35                              47   -0.3010 48.9 203 
 SPBC HZ I         157  0.68         8.3 0.12             93           48.9 203 
 PTB  HZ EP        156 57.45                              47   -0.7210 81.3 311 
 PTB  HE ES        157  8.33                              47    0.0710 81.3 311 
 PTB  HZ I         157  8.72         5.0 0.22             92           81.3 311 
 RUS  HZ EP        157  0.02                              47   -0.2910 92.2 101 
 RUS  HN ES        157 11.97                              47   -0.1110 92.2 101 
 RUS  HZ I         157 12.53         1.9 0.00             92           92.2 101 
 BRR  HZ EP        157  4.82                              47    1.1510  118  10 
 BRR  HE ES        157 17.63                              47   -0.4110  118  10 
 BRR  HN ES        157 17.72                              47            118  10 
                                                                                
