 2015  130 0241 40.7 L   6.880 -73.134147.5  RSN 12 0.5 1.8LRSN                1
 GAP=134        1.14       3.4     4.6  6.0 -0.4566E+00  0.7483E+01  0.1169E+01E
 Epicentro: LOS SANTOS - SANTANDER                                             3
 ACTION:UPD 15-03-02 15:43 OP:nd   STATUS:               ID:20150130024140 L   I
 OLDACT:UP  15-01-30 15:10 OP:cam  STATUS:               ID:20150130023819     3
 OLDACT:UP  15-01-30 15:05 OP:cam  STATUS:               ID:20150130023819     3
 OLDACT:UP  15-01-30 15:05 OP:cam  STATUS:               ID:20150130023819     3
 OLDACT:UP  15-01-30 15:05 OP:cam  STATUS:               ID:20150130023819     3
 OLDACT:UP  15-01-30 15:03 OP:cam  STATUS:               ID:20150130023819     3
 OLDACT:UP  15-01-30 15:03 OP:cam  STATUS:               ID:20150130023819     3
 OLDACT:UP  15-01-30 15:03 OP:cam  STATUS:               ID:20150130023819     3
 OLDACT:UP  15-01-30 15:03 OP:cam  STATUS:               ID:20150130023819     3
 OLDACT:UP  15-01-30 15:02 OP:cam  STATUS:               ID:20150130023819     3
 OLDACT:UP  15-01-30 15:02 OP:cam  STATUS:               ID:20150130023819     3
 OLDACT:REG 15-01-30 12:58 OP:cam  STATUS:               ID:20150130023819     3
 2015-01-30-0238-19M.COL___271                                                 6
 STAT SP IPHASW D HRMM SECON CODA AMPLIT PERI AZIMU VELO AIN AR TRES W  DIS CAZ7
 BAR2 EZ EP        242  0.74                             167    0.0210 32.3 190 
 BAR2 EZ ES        242 15.91                             167   -0.4510 32.3 190 
 BAR2 EZ I         242 17.53         8.3 0.48            166           32.3 190 
 BRR  HZ IP     D  242  2.22                             154    0.3610 68.7 291 
 BRR  HN ES        242 19.23                             154    0.8310 68.7 291 
 BRR  HZ I         242 22.65        17.3 0.14            152           68.7 291 
 PAM  SZ EP        242  3.09                             153    0.4510 69.8  43 
 PAM  SN ES        242 20.11                             153    0.3310 69.8  43 
 PAM  SZ I         242 22.06         9.5 0.36            158           69.8  43 
 RUS  HZ EP        242  5.06                             142   -0.1710  109 177 
 RUS  HE ES        242 23.75                             142   -0.6510  109 177 
 RUS  HZ I         242 24.92         4.2 0.36            143            109 177 
 PTB  HZ EP        242  7.74                             132   -0.33 9  151 256 
 PTB  HN ES        242 28.81                             132   -0.64 9  151 256 
 PTB  HZ I         242 30.96        17.4 0.40            131            151 256 
 SPBC HZ EP        242 10.23                             128    0.19 9  171 217 
 SPBC HN ES        242 33.20                             128    0.25 9  171 217 
 SPBC HZ I         242 40.54         9.3 0.20            128            171 217 
 ZAR  HZ EP        242 13.30                             123    0.28 9  202 290 
 ZAR  HN ES        242 38.68                             123    0.41 9  202 290 
 SML  HZ EP        242 16.20                             119   -0.38 8  236 334 
 SML  HN ES        242 43.47                             119   -1.13 8  236 334 
 SML  HZ I         242 47.83         9.9 0.20            120            236 334 
 NOR  HZ EP        242 17.56                             118    0.39 8  241 233 
 NOR  HE ES        242 45.38                             118   -0.27 8  241 233 
 NOR  HZ I         242 52.52         5.8 0.16            119            241 233 
 CHI  HZ EP        242 19.23                             117   -0.20 8  258 195 
 CHI  HE ES        242 49.79                             117    0.13 8  258 195 
 CHI  HZ I         242 53.50         2.0 0.50            118            258 195 
 HEL  HZ I         242 59.83         4.4 0.28            115            276 254 
 GUY2CHZ EP        242 25.41                             112    0.35 7  307 234 
 GUY2CHZ I         243  6.74         3.0 0.34                           307 234 
 MON  HZ EP   4    242 27.45                             109   -1.78 0  349 307 
 MON  HN ES   4    243  5.58                             109   -1.53 0  349 307 
                                                                                
