 2015  430 0552  2.7 L   6.765 -73.134149.2  RSN  9 0.4 1.5LRSN                1
 GAP=140        0.76       3.2     3.7  6.6 -0.3694E+01  0.7570E+01 -0.4098E+00E
 Epicentro: LOS SANTOS - SANTANDER                                             3
 ACTION:UPD 15-06-03 16:58 OP:cam  STATUS:               ID:20150430055202 L   I
 OLDACT:UP  15-04-30 16:33 OP:ar   STATUS:               ID:20150430054748     3
 OLDACT:REG 15-04-30 12:19 OP:stll STATUS:               ID:20150430054748     3
 2015-04-30-0547-48M.COL___277                                                 6
 STAT SP IPHASW D HRMM SECON CODA AMPLIT PERI AZIMU VELO AIN AR TRES W  DIS CAZ7
 BAR2 EZ EP   1    552 22.13                             172   -0.51 7 19.8 196 
 BAR2 EZ ES   2    552 38.22                             172   -0.00 5 19.8 196 
 BAR2 EZ I         552 39.75         5.4 0.26            172           19.8 196 
 BRR  HZ IP     C  552 24.66                             152    0.3110 74.2 301 
 BRR  HN ES   1    552 41.63                             152    0.36 7 74.2 301 
 BRR  HZ I         552 46.16         3.7 0.11            150           74.2 301 
 PAM  SZ EP        552 25.58                             151    0.2110 79.6  37 
 PAM  SE ES        552 43.20                             151    0.1110 79.6  37 
 PAM  SZ I         552 45.29         3.5 0.62            154           79.6  37 
 RUS  HZ EP   2    552 26.12                             146   -0.35 5 96.6 177 
 RUS  HE ES   1    552 44.89                             146   -0.16 7 96.6 177 
 RUS  HZ I         552 46.38         2.5 0.46            151           96.6 177 
 PTB  HZ EP   1    552 29.02                             133   -0.94 7  148 260 
 PTB  HN ES   1    552 50.73                             133   -0.53 7  148 260 
 PTB  HZ I         552 56.08         4.0 0.46            134            148 260 
 SPBC HZ EP   2    552 31.48                             130    0.26 5  161 220 
 SPBC HN ES        552 53.64                             130    0.14 9  161 220 
 SPBC HZ I         552 56.86         5.2 0.42            133            161 220 
 OCA  HZ EP   2    552 31.70                             130    0.09 5  164 353 
 OCA  HN ES   1    552 53.88                             130   -0.31 7  164 353 
 OCA  HZ I         552 59.17         7.0 0.28            132            164 353 
 ZAR  HZ EP   2    552 36.09                             123    0.49 4  207 293 
 ZAR  HN ES        553  1.20                             123   -0.10 8  207 293 
 ZAR  HZ I         553  7.67         4.2 0.32            124            207 293 
 GUY2CHN ES        553 20.89                             113    0.55 7  300 236 
                                                                                
