 2014  930 0209 27.6 L   6.766 -73.210148.0  RSN  5 0.3 1.1LRSN                1
 GAP=227        0.74       4.4     4.9  6.7  0.4823E+01 -0.2896E+01  0.1018E+01E
 Epicentro: ZAPATOCA - SANTANDER                                               3
 ACTION:UPD 14-10-03 23:09 OP:nd   STATUS:               ID:20140930020927 L   I
 OLDACT:DUP 14-09-30 15:37 OP:stll STATUS:               ID:20140930020822d    3
 2014-09-30-0208-20M.COL___292                                                 6
 STAT SP IPHASW D HRMM SECON CODA AMPLIT PERI AZIMU VELO AIN AR TRES W  DIS CAZ7
 BAR2 SZ EP        2 9 46.98                             172   -0.4910 19.5 171 
 BAR2 SZ I         2 9 47.52         2.9 0.18            165           19.5 171 
 BRR  HZ EP        2 9 48.98                             154    0.1710 67.1 304 
 BRR  HE ES        210  5.36                             154    0.0410 67.1 304 
 RUS  HZ EP        2 9 51.43                             145    0.0210 97.6 172 
 RUS  HZ I         2 9 52.90         0.9 0.66            141           97.6 172 
 RUS  HN ES        210 10.20                             145    0.2610 97.6 172 
 PTB  HZ EP        2 9 53.98                             134   -0.13 9  140 260 
 PTB  HN ES        210 14.90                             134    0.14 9  140 260 
 PTB  HZ I         210 20.87         1.8 0.38            130            140 260 
 SPBC HZ EP        2 9 56.04                             131    0.41 9  156 218 
 SPBC HE ES        210 17.05                             131   -0.41 9  156 218 
 SPBC HZ I         210 25.12         2.6 0.24            127            156 218 
                                                                                
