 2015  430 0422  7.3 L   6.791 -73.106141.4  RSN  7 0.5 1.3LRSN                1
 GAP=142        1.36       5.8     5.9  9.3 -0.1821E+01  0.1194E+02  0.4868E+01E
 Epicentro: LOS SANTOS - SANTANDER                                             3
 ACTION:UPD 15-06-03 16:58 OP:cam  STATUS:               ID:20150430042207 L   I
 OLDACT:REG 15-04-30 12:16 OP:stll STATUS:               ID:20150430041735     3
 2015-04-30-0417-35M.COL___277                                                 6
 STAT SP IPHASW D HRMM SECON CODA AMPLIT PERI AZIMU VELO AIN AR TRES W  DIS CAZ7
 BAR2 EZ EP        422 26.60                             170    0.2110 23.6 201 
 BAR2 EZ I         422 27.10         3.1 0.20            170           23.6 201 
 BAR2 EZ ES        422 41.19                             170   -0.1010 23.6 201 
 PAM  SZ EP        422 29.23                             151    0.3210 75.4  36 
 PAM  SZ I         422 29.47         3.4 0.20            151           75.4  36 
 PAM  SN ES        422 45.45                             151   -0.3310 75.4  36 
 BRR  HZ EP        422 28.30                             150    0.0910 75.6 298 
 BRR  HN ES        422 45.25                             150    0.7110 75.6 298 
 RUS  HZ EP        422 31.10                             143    0.5810 99.4 179 
 RUS  HN ES        422 47.81                             143   -0.8310 99.4 179 
 PTB  HZ EP        422 33.21                             130   -1.07 9  152 260 
 PTB  HN ES        422 55.38                             130    0.04 9  152 260 
 PTB  HZ I         422 56.92         4.3 0.48            130            152 260 
 SPBC HZ EP        422 35.78                             128    0.13 9  165 220 
 SPBC HE ES        422 58.40                             128    0.63 9  165 220 
 ZAR  HN ES        423  4.82                             121   -0.54 8  209 292 
                                                                                
