 2015  330 0453 30.5 L   7.444 -73.181132.7  RSN  5 0.3 1.4LRSN                1
 GAP=113        0.72       4.3     5.5  7.4 -0.8610E+01 -0.5837E+01  0.1686E+02E
 Epicentro: EL PLAYON - SANTANDER                                              3
 ACTION:UPD 15-04-30 16:30 OP:nd   STATUS:               ID:20150330045330 L   I
 OLDACT:REG 15-03-30 18:06 OP:mh   STATUS:               ID:20150330044749     3
 2015-03-30-0447-49M.COL___287                                                 6
 STAT SP IPHASW D HRMM SECON CODA AMPLIT PERI AZIMU VELO AIN AR TRES W  DIS CAZ7
 PAM  SZ EP        453 50.56                             156    0.4710 54.4 102 
 PAM  SN ES   1    454  5.07                             156   -0.26 7 54.4 102 
 PAM  SZ I         454  7.79         2.9 0.52            145           54.4 102 
 BRR  HZ EP        453 50.21                             151    0.0210 69.4 238 
 BRR  HN ES        454  5.48                             151   -0.0310 69.4 238 
 BRR  HZ I         454  6.07         6.2 0.12            146           69.4 238 
 OCA  HN ES        454  8.17                             144   -0.0610 89.2 350 
 OCA  HZ I         454 11.31         5.4 0.43            138           89.2 350 
 BAR2 EZ EP        453 51.92                             142   -0.2710 94.2 180 
 BAR2 EZ I         454  9.59         5.6 0.38            133           94.2 180 
 SPBC HZ EP   1    454  3.55                             117   -0.58 6  221 206 
 SPBC HN ES        454 30.66                             117    0.33 8  221 206 
 SPBC HZ I         454 36.36         4.4 0.84            109            221 206 
                                                                                
