 2011  130 0949  1.8 L   6.799 -73.110142.1  RSN 13 0.6 3.0LRSN                1
 GAP=129        1.44       5.3    10.0  7.6 -0.3084E+02  0.1733E+02 -0.4545E+00E
 Epicentro: LOS SANTOS - SANTANDER                                             3
 ACTION:UP  11-02-08 08:43 OP:pat  STATUS:               ID:20110130094901 L   I
 2011-01-30-0947-14S.COL___138                                                 6
 STAT SP IPHASW D HRMM SECON CODA AMPLIT PERI AZIMU VELO SNR AR TRES W  DIS CAZ7
 BTL  SZ IP     C  949 21.24                             171     0.310   22 307 
 BAR2 SZ IP     D  949 21.07                             170     0.110   24 200 
 BAR2 SZ ES        949 35.94                             170     0.010   24 200 
 BAR2 SZ I         949 37.10       561.9 0.35                            24 200 
 GIR2 SZ IP     C  949 21.14                             166     0.110   32 343 
 GIR2 SZ ES        949 36.10                             166     0.010   32 343 
 RUS  HZ EP        949 25.02                             143    -0.110  100 178 
 RUS  HE ES        949 43.15                             143    -0.210  100 178 
 RUS  HZ I         949 44.52       154.8 0.27                           100 178 
 GRA  SZ IP     C  949 26.88                             136     0.310  125  16 
 GRA  SZ ES        949 46.28                             136     0.310  125  16 
 GRA  SZ I         949 47.31       120.3 0.47                           125  16 
 OCA  SZ EP        949 29.50                             129    -0.4 9  161 352 
 OCA  SZ I         949 54.74       161.8 0.34                           161 352 
 NOR  SZ EP        949 36.93                             117    -0.7 8  238 235 
 NOR  SN ES        950  4.73                             117    -0.9 8  238 235 
 CHI  HZ EP        949 39.25                             116    -0.1 8  250 196 
 CHI  HE ES        950  8.12                             116    -0.6 8  250 196 
 CHI  HZ I         950 11.86        37.3 0.46                           250 196 
 ROSC BZ EP        949 41.39                             116     1.5 8  255 212 
 ROSC BE ES   1    950 10.95                             116     1.3 6  255 212 
 ROSC BZ I         950 16.50        65.5 0.46                           255 212 
 HEL  HZ EP   2    949 42.52                             114     0.3 4  276 256 
 HEL  HZ I         950 21.18        50.7 0.66                           276 256 
 GUY  SZ EP   2    949 46.19                             111     0.6 4  305 235 
 GUY  SZ I         950 28.36        76.4 0.59                           305 235 
 RREF HZ EP   1    949 48.39                             110     0.3 5  325 230 
 RREF HZ I         950 35.07        49.7 0.23                           325 230 
 SDV  BZ EP        949 50.62                             108    -0.7 6  357  50 
 SDV  BZ I         950 32.26        21.0 0.63                           357  50 
                                                                                
