 2014  130 0708  3.0 L   7.488 -73.333123.0  RSN  5 0.4 1.5LRSN                1
 GAP=131        1.11       5.1     6.8 11.5  0.3586E+01  0.3574E+02  0.2578E+02E
 Epicentro: EL PLAYON - SANTANDER                                              3
 ACTION:UPD 14-03-13 09:59 OP:ep   STATUS:               ID:20140130070803 L   I
 OLDACT:REG 14-01-30 08:19 OP:stll STATUS:               ID:20140130065817     3
 2014-01-30-0658-17M.COL___227                                                 6
 STAT SP IPHASW D HRMM SECON CODA AMPLIT PERI AZIMU VELO AIN AR TRES W  DIS CAZ7
 PAM  SN ES        7 8 38.23                             148    0.5810 71.8 103 
 PAM  SZ I         7 8 39.57         4.9 0.32            154           71.8 103 
 OCA  HN ES        7 8 37.79                             144   -0.3910 83.1   1 
 OCA  HZ I         7 8 41.25         7.8 0.24            146           83.1   1 
 BAR2 SZ EP        7 8 24.70                             138    0.4910  100 170 
 BAR2 SZ ES        7 8 40.31                             138   -0.4510  100 170 
 BAR2 SZ I         7 8 42.22        12.3 0.20            142            100 170 
 PTB  HZ EP        7 8 29.42                             123   -0.26 9  163 230 
 PTB  HE ES        7 8 51.01                             123    0.52 9  163 230 
 PTB  HZ I         7 8 54.12         3.1 0.54            126            163 230 
 RUS  HZ EP        7 8 31.87                             121   -0.09 9  179 171 
 RUS  HE ES        7 8 54.06                             121   -0.49 9  179 171 
                                                                                
