 2010 1230 0742 56.6 L   6.817 -73.112143.0  RSN  9 0.4 1.9LRSN                1
 GAP=162        0.85       3.6     6.4  7.2 -0.9919E+01  0.1917E+02 -0.1446E+01E
 Epicentro: LOS SANTOS - SANTANDER                                             3
 ACTION:UP  11-01-14 15:28 OP:pat  STATUS:               ID:20101230074256 L   I
 2010-12-30-0740-00M.COL___137                                                 6
 STAT SP IPHASW D HRMM SECON CODA AMPLIT PERI AZIMU VELO SNR AR TRES W  DIS CAZ7
 BAR2 SZ EP        743 16.01                             169     0.110   26 198 
 BAR2 SZ ES   1    743 30.93                             169    -0.1 7   26 198 
 BAR2 SZ I         743 33.66        19.6 0.30                            26 198 
 RUS  HZ EP   1    743 19.83                             143    -0.3 7  102 178 
 RUS  HE ES   1    743 38.89                             143     0.3 7  102 178 
 RUS  HZ I         743 39.92         5.6 0.22                           102 178 
 GRA  SZ EP        743 21.79                             137     0.510  123  16 
 GRA  SZ ES   1    743 40.83                             137     0.2 7  123  16 
 GRA  SZ I         743 42.54        14.8 0.25                           123  16 
 OCA  SZ EP   1    743 24.45                             129    -0.1 7  159 352 
 OCA  SZ ES   1    743 45.50                             129    -0.9 7  159 352 
 OCA  SZ I         743 52.12        10.2 0.22                           159 352 
 NOR  SZ EP   1    743 32.20                             117    -0.4 6  239 235 
 NOR  SE ES   1    744  0.51                             117    -0.2 6  239 235 
 CHI  HZ EP   1    743 33.95                             116    -0.5 6  251 196 
 CHI  HE ES   2    744  3.46                             116    -0.5 4  251 196 
 CHI  HZ I         744 11.76         4.3 0.27                           251 196 
 HEL  HZ EP   1    743 37.71                             114     0.6 6  276 256 
 HEL  HN ES   1    744  9.08                             114     0.4 6  276 256 
 HEL  HZ I         744 14.88         5.1 0.40                           276 256 
 GUY  SZ EP   1    743 41.00                             111     0.5 5  305 235 
 GUY  SZ I         744 22.54        13.1 0.33                           305 235 
 PRA  HZ EP   1    743 50.01                             106    -0.4 4  395 210 
 PRA  HE ES   1    744 32.61                             106     0.2 4  395 210 
                                                                                
