 2015  930 0806 60.0 L   6.781 -73.129133.7  RSN  6 0.2 1.5LRSN                1
 GAP=140        0.47       2.4     3.0  3.7 -0.3335E+01  0.4020E+01 -0.1051E+01E
 Epicentro: LOS SANTOS - SANTANDER                                             3
 ACTION:UPD 15-10-28 16:29 OP:cam  STATUS:               ID:20150930080660 L   I
 OLDACT:DUP 15-09-30 18:39 OP:stll STATUS:               ID:20150930075741d    3
 2015-09-30-0757-40M.COL___355                                                 6
 STAT SP IPHASW D HRMM SECON CODA AMPLIT PERI AZIMU VELO AIN AR TRES W  DIS CAZ7
 BAR2 EZ EP        8 7 18.21                             170    0.0910 21.7 196 
 BAR2 EZ I         8 7 18.40         7.4 0.20            167           21.7 196 
 BAR2 EZ ES        8 7 32.38                             170    0.1110 21.7 196 
 BRR  HZ EP        8 7 20.16                             149    0.1710 73.8 299 
 BRR  HZ I         8 7 20.52        14.8 0.24            149           73.8 299 
 PAM  EZ EP        8 7 20.93                             148   -0.0110 77.8  38 
 PAM  EZ I         8 7 22.61         4.1 0.18            151           77.8  38 
 PAM  EN ES        8 7 37.18                             148   -0.1210 77.8  38 
 RUS  HZ EP        8 7 22.36                             142   -0.0310 98.4 177 
 RUS  HN ES        8 7 39.82                             142   -0.0610 98.4 177 
 RUS  HZ I         8 7 41.72         2.3 0.18            140           98.4 177 
 PTB  HZ EP   1    8 7 26.43                             129    0.31 7  149 260 
 PTB  HN ES   1    8 7 46.11                             129   -0.41 7  149 260 
 PTB  HZ I         8 7 47.98         3.6 0.36            128            149 260 
 SPBC HZ EP        8 7 27.27                             126   -0.26 9  163 220 
 SPBC HN ES        8 7 49.18                             126    0.15 9  163 220 
 SPBC HZ I         8 7 55.97         4.4 0.28            125            163 220 
                                                                                
