 2013  530 0605 40.7 L   6.764 -73.212149.6  RSN  4 0.2 1.3LRSN                1
 GAP=194        0.51       2.7     4.1  4.6  0.4889E+01 -0.4143E+01 -0.4731E+01E
 Epicentro: VILLANUEVA - SANTANDER                                             3
 ACTION:UPD 13-06-20 09:54 OP:ep   STATUS:               ID:20130530060540 L   I
 2013-05-30-0600-00M.COL___261                                                 6
 STAT SP IPHASW D HRMM SECON CODA AMPLIT PERI AZIMU VELO AIN AR TRES W  DIS CAZ7
 BRR  HZ EP        6 6  2.22                             154    0.1910 67.0 305 
 BRR  HN ES        6 6 18.82                             154    0.1410 67.0 305 
 BRR  HZ I         6 6 23.76         2.4 0.26            155           67.0 305 
 RUS  HZ EP        6 6  4.84                             145    0.2410 97.4 172 
 RUS  HN ES        6 6 22.96                             145   -0.2910 97.4 172 
 RUS  HZ I         6 6 24.78         1.7 0.36            150           97.4 172 
 PTB  HZ EP        6 6  7.23                             134   -0.04 9  140 260 
 PTB  HN ES        6 6 27.96                             134   -0.05 9  140 260 
 PTB  HZ I         6 6 31.01         3.1 0.10            138            140 260 
 SML  HZ EP        6 6 17.42                             118   -0.20 8  244 337 
 SML  HN ES        6 6 46.29                             118   -0.12 8  244 337 
 SML  HZ I         6 6 48.12         3.4 0.28            121            244 337 
                                                                                
