 2014 1030 0007 10.0 L   6.757 -73.141147.3  RSN  8 0.5 1.7LRSN                1
 GAP=139        1.17       4.6     5.5  6.8 -0.4289E+01  0.9022E+01  0.5593E+01E
 Epicentro: LOS SANTOS - SANTANDER                                             3
 ACTION:UPD 14-11-29 23:58 OP:nd   STATUS:               ID:20141030000710 L   I
 OLDACT:REG 14-10-31 15:25 OP:fm   STATUS:               ID:20141030000000     3
 2014-10-30-0000-00M.COL___274                                                 6
 STAT SP IPHASW D HRMM SECON CODA AMPLIT PERI AZIMU VELO AIN AR TRES W  DIS CAZ7
 BAR2 SZ EP        0 7 29.99                             172    0.2910 18.8 194 
 BAR2 SZ ES        0 7 44.73                             172   -0.3610 18.8 194 
 BAR2 SZ I         0 7 46.08        15.6 0.20            172           18.8 194 
 BRR  HZ EP        0 7 31.87                             152    0.4310 74.0 302 
 BRR  HN ES        0 7 48.74                             152    0.5510 74.0 302 
 BRR  HZ I         0 7 53.20        16.7 0.12            152           74.0 302 
 PAM  SZ EP        0 7 32.87                             150    0.3210 80.8  37 
 PAM  SN ES        0 7 49.53                             150   -0.6310 80.8  37 
 PAM  SZ I         0 7 51.87        14.7 0.48            153           80.8  37 
 RUS  HZ EP        0 7 33.86                             145    0.3310 95.8 176 
 RUS  HN ES        0 7 52.25                             145    0.3410 95.8 176 
 RUS  HZ I         0 7 53.68         9.2 0.26            147           95.8 176 
 PTB  HZ EP        0 7 36.70                             132   -0.33 9  147 261 
 PTB  HE ES        0 7 57.71                             132   -0.42 9  147 261 
 PTB  HZ I         0 7 60.00         4.7 0.16            133            147 261 
 CHI  HZ EP        0 7 47.26                             118   -0.01 8  244 196 
 CHI  HE ES        0 8 15.43                             118   -0.93 8  244 196 
 CHI  HZ I         0 8 20.62         1.4 0.36            119            244 196 
 GUY2CHZ EP        0 7 53.81                             113    0.42 7  299 236 
 GUY2CHN ES        0 8 27.49                             113    0.24 7  299 236 
 GUY2CHZ I         0 8 36.61         1.9 0.34                           299 236 
 SJC  HZ EP        0 8  4.91                             106   -1.17 6  413 327 
 SJC  HN ES   4    0 8 46.56                             106   -3.29 0  413 327 
 SJC  HZ I         0 8 50.13         0.7 0.36            107            413 327 
                                                                                
