 2011 1130 0834 28.7 L   6.816 -73.107148.3  RSN  6 0.4 1.6LRSN                1
 GAP=141        1.02       5.5     9.6  8.7 -0.6646E+01  0.9157E+01  0.1848E+01E
 Epicentro: LOS SANTOS - SANTANDER                                             3
 ACTION:UPD 12-07-13 16:13 OP:ep   STATUS:               ID:20111130083428 L   I
 2011-11-30-0832-56S.COL___160                                                 6
 STAT SP IPHASW D HRMM SECON CODA AMPLIT PERI AZIMU VELO AIN AR TRES W  DIS CAZ7
 BAR2 SZ ES   2    835  3.84                             169   -0.41 5 26.1 199 
 BAR2 SZ I         835  6.30         7.3 0.36                          26.1 199 
 PAM  SZ EP        834 51.42                             153    0.5010 73.4  38 
 PAM  SE ES   1    835  8.45                             153    0.17 7 73.4  38 
 BRR  HZ EP        834 50.48                             152    0.2210 74.2 296 
 BRR  HZ I         834 50.85         7.8 0.10                          74.2 296 
 BRR  HN ES   1    835  7.31                             152    0.21 7 74.2 296 
 RUS  HZ EP        834 52.80                             144    0.0210  102 178 
 RUS  HN ES   1    835 11.04                             144   -0.54 7  102 178 
 OCA  SZ EP        834 56.16                             130   -0.91 9  159 352 
 CTAU SZ EP        835  2.47                             123    0.29 8  206 210 
                                                                                
