 2017  530 0142 33.5 L   6.810 -73.160142.0  RSN  6 0.3 1.7LRSN                1
 GAP=237        0.56       3.2     3.8  6.3  0.5820E+01 -0.9962E+00 -0.2098E+00E
 Epicentro: LOS SANTOS - SANTANDER                                             3
 ACTION:UPD 17-06-16 13:40 OP:jn   STATUS:               ID:20170530014233 L   I
 OLDACT:UP  17-05-30 13:18 OP:and  STATUS:               ID:20170530013737     3
 OLDACT:UP  17-05-30 13:17 OP:and  STATUS:               ID:20170530013737     3
 OLDACT:UP  17-05-30 13:16 OP:and  STATUS:               ID:20170530013737     3
 OLDACT:UP  17-05-30 13:16 OP:and  STATUS:               ID:20170530013737     3
 OLDACT:UP  17-05-30 13:14 OP:and  STATUS:               ID:20170530013737     3
 OLDACT:REG 17-05-30 12:14 OP:and  STATUS:               ID:20170530013737     3
 2017-05-30-0138-00M.COL___347                                                 6
 STAT SP IPHASW D HRMM SECON CODA AMPLIT PERI AZIMU VELO AIN AR TRES W  DIS CAZ7
 BRR  HZ IP     C  142 53.86                             153   -0.3010 69.3 298 
 BRR  HN ES        143 10.62                             153    0.3710 69.3 298 
 BRR  HZ I         143 14.14        12.3 0.12            151           69.3 298 
 RUS  HZ EP        142 57.13                             143    0.1410  102 175 
 RUS  HN ES     D  143 15.12                             143   -0.1710  102 175 
 RUS  HZ I         143 16.68         5.6 0.26            143            102 175 
 PTB  HZ EP   3    142 59.24                             132   -0.82 2  146 258 
 PTB  HN ES        143 20.67                             132   -0.10 9  146 258 
 PTB  HZ I         143 22.71         4.0 0.26            131            146 258 
 SPBC HZ EP   3    143  2.37                             129    0.65 2  163 218 
 SPBC HN ES        143 23.82                             129    0.11 9  163 218 
 SPBC HZ I         143 30.75         6.4 0.14            128            163 218 
 ZAR  HZ EP   3    143  6.59                             122    1.06 2  202 292 
 ZAR  HN ES        143 30.35                             122   -0.15 9  202 292 
 ZAR  HZ I         143 35.60         7.1 0.32            122            202 292 
 CHI  HN ES   2    143 40.56                             117    0.18 4  249 195 
 PTGC HZ EP   4    143 15.61                             111   -1.78 0  310 158 
 SJC  HZ EP   4    143 26.20                             105   -2.56 0  407 327 
 SJC  HN ES   4    144  3.79                             105   -8.05 0  407 327 
                                                                                
