 2011  630 0527 37.9 L   6.787 -73.087152.0  RSN  8 0.3 1.6LRSN                1
 GAP=162        0.79       4.1     8.7  7.0 -0.6919E+01 -0.7014E+01 -0.6094E+01E
 Epicentro: LOS SANTOS - SANTANDER                                             3
 ACTION:DUP 11-07-14 19:09 OP:ep   STATUS:               ID:20110630052738dL   I
 2011-06-30-0522-09S.COL___140                                                 6
 STAT SP IPHASW D HRMM SECON CODA AMPLIT PERI AZIMU VELO SNR AR TRES W  DIS CAZ7
 BAR2 SZ EP        527 58.02                             171    -0.310   24 206 
 BAR2 SZ I         527 58.43         6.4 0.11                            24 206 
 BAR2 SZ ES   1    528 14.97                             171     0.7 7   24 206 
 BTL  SZ EP        527 58.32                             170     0.010   25 306 
 GIR2 SZ EP        527 58.21                             167    -0.210   34 340 
 BRR  HZ EP        528  0.13                             151     0.010   78 297 
 BRR  HZ I         528  0.48        10.5 0.09                            78 297 
 BRR  HE ES   1    528 17.35                             151    -0.1 7   78 297 
 RUS  HZ EP   1    528  2.55                             145     0.4 7   99 180 
 RUS  HE ES   1    528 20.73                             145    -0.4 7   99 180 
 BRI  SZ EP   2    528  2.57                             143     0.2 5  108  17 
 GRA  SZ EP        528  3.94                             138     0.210  125  14 
 GRA  SZ I         528  5.16         3.2 0.33                           125  14 
 GRA  SZ ES        528 23.57                             138    -0.210  125  14 
 OCA  SZ EP        528  7.11                             130     0.2 9  163 351 
 OCA  SZ I         528 37.44         6.5 0.37                           163 351 
                                                                                
