 2014  430 0225 10.8 L   6.810 -73.134147.2  RSN 22 0.5 2.7LRSN                1
 GAP= 71        1.04       2.7     2.9  5.2 -0.4612E+00  0.3487E+01  0.2474E+01E
 Epicentro: LOS SANTOS - SANTANDER                                             3
 OLDACT:REG 14-04-30 12:29 OP:fm   STATUS:               ID:20140430022000     3
 ACTION:UPD 14-05-13 20:49 OP:nd   STATUS:               ID:20140430022510 L   I
 OLDACT:UP  14-04-30 16:08 OP:fm   STATUS:               ID:20140430022000     3
 2014-04-30-0220-00M.COL___270                                                 6
 STAT SP IPHASW D HRMM SECON CODA AMPLIT PERI AZIMU VELO AIN AR TRES W  DIS CAZ7
 BRR  HZ EP        225 32.57                             153    0.4110 71.8 297 
 BRR  HN ES        225 49.52                             153    0.7210 71.8 297 
 BRR  HZ I         225 54.74        58.9 0.14            154           71.8 297 
 PAM  SZ IP     C  225 33.41                             152    0.3210 75.6  39 
 PAM  SN ES        225 50.37                             152   -0.0810 75.6  39 
 PAM  HZ I         225 52.58        92.9 0.30            153           75.6  39 
 RUS  HZ EP        225 34.48                             144   -0.3110  102 177 
 RUS  HN ES        225 53.19                             144   -0.2910  102 177 
 PTB  HZ EP        225 37.36                             132   -0.69 9  149 259 
 PTB  HN ES        225 58.50                             132   -0.78 9  149 259 
 PTB  HZ I         226  4.17        78.2 0.54            133            149 259 
 TAM  HZ EP        225 38.58                             131    0.06 9  154 106 
 TAM  HZ I         225 59.39        40.6 0.28            131            154 106 
 TAM  HE ES        225 59.97                             131   -0.16 9  154 106 
 SPBC HZ EP        225 39.49                             129   -0.11 9  165 219 
 SPBC HE ES        226  2.33                             129    0.29 9  165 219 
 SPBC HZ I         226  6.52        91.3 0.24            129            165 219 
 ZAR  HZ EP        225 43.27                             123   -0.18 9  205 292 
 ZAR  HE ES        226  8.23                             123   -0.66 9  205 292 
 ZAR  HZ I         226 14.74        58.9 0.34            124            205 292 
 NOR  HZ EP        225 46.41                             119   -0.42 8  236 234 
 NOR  HN ES        226 14.73                             119   -0.17 8  236 234 
 NOR  HZ I         226 18.26        40.0 0.36            119            236 234 
 SML  HZ EP        225 46.90                             118   -0.58 8  243 335 
 SML  HN ES        226 16.52                             118    0.45 8  243 335 
 SML  HZ I         226 19.11        78.7 0.06            119            243 335 
 CHI  HZ EP        225 48.67                             117   -0.09 8  250 195 
 CHI  HN ES        226 17.82                             117   -0.53 8  250 195 
 CHI  HZ I         226 26.30        20.3 0.34            117            250 195 
 ROSC BZ EP        225 50.37                             117    1.16 8  254 211 
 ROSC BN ES        226 20.13                             117    0.99 8  254 211 
 ROSC HZ I         226 28.40        58.4 0.50            117            254 211 
 HEL  HZ EP        225 51.88                             115    0.59 8  274 256 
 HEL  HN ES        226 23.12                             115    0.28 8  274 256 
 HEL  HZ I         226 29.27        30.3 0.38            115            274 256 
 URE  HE ES   4    226 21.95                             114   -2.27 0  285 292 
 GUY2CHZ EP        225 54.72                             112    0.02 7  303 235 
 GUY2CHE ES   4    226 30.95                             112    2.03 0  303 235 
 GUY2CHZ I         226 37.14        36.8 0.36                           303 235 
 VIL  SZ EP   2    225 54.22                             112   -0.25 4  305 192 
 VIL  SN ES   4    226 27.55                             112   -0.95 0  305 192 
 VIL  HZ I         226 33.77        34.2 0.58            112            305 192 
 CBOC HZ EP   1    225 58.16                             110    0.17 5  335 252 
 CBOC HN ES   4    226 31.86                             110   -2.91 0  335 252 
 TOL  SZ EP   1    225 59.74                             109    0.40 5  345 225 
 TOL  SZ ES   4    226 38.65                             109    1.47 0  345 225 
 TOL  HZ I         226 44.43        15.6 0.35            110            345 225 
 ARGC HZ EP   2    226  0.84                             108    0.38 3  359 340 
 ARGC HN ES   2    226 39.22                             108    0.04 3  359 340 
 SDV  BZ EP   4    225 59.61                             109   -1.11 0  359  50 
 SDV  BE ES   4    226 35.40                             109   -4.23 0  359  50 
 SDV  HZ I         226 41.35        10.2 4.05            109            359  50 
 PRA  HZ EP        226  4.22                             107   -0.37 6  394 210 
 PRA  HN ES        226 46.80                             107    0.28 6  394 210 
 PRA  HZ I         226 51.80        25.1 0.28            107            394 210 
 ORTC HZ EP        226  4.89                             106   -0.11 6  397 216 
 ORTC HE ES        226 47.27                             106    0.02 6  397 216 
 ORTC HZ I         226 55.20        18.6 0.20            107            397 216 
 SJC  HZ EP   4    226  4.78                             106   -1.63 0  409 327 
 SJC  HN ES   4    226 45.90                             106   -3.86 0  409 327 
 SJC  HZ I         226 52.77         8.3 0.66            106            409 327 
 MACC HZ EP   4    226 17.18                             102   -2.55 0  522 189 
 MACC HN ES   4    227  7.63                             102   -5.85 0  522 189 
 MACC HZ I         227 11.49         4.8 1.06            102            522 189 
