 2017  830 0444 24.1 L   6.812 -73.132140.4  RSN 18 0.6 2.2LRSN                1
 GAP=113        1.05       3.2     3.4  5.3  0.2331E+01  0.7086E+01  0.4485E+01E
 Epicentro: LOS SANTOS - SANTANDER                                             3
 ACTION:UPD 17-09-04 20:26 OP:rebc STATUS:               ID:20170830044424 L   I
 OLDACT:UP  17-08-30 15:00 OP:dani STATUS:               ID:20170830043737d    3
 OLDACT:UP  17-08-30 14:58 OP:dani STATUS:               ID:20170830043737d    3
 OLDACT:UP  17-08-30 14:58 OP:dani STATUS:               ID:20170830043737d    3
 OLDACT:DUP 17-08-30 14:53 OP:dani STATUS:               ID:20170830043737d    3
 OLDACT:UP  17-08-30 14:51 OP:dani STATUS:               ID:20170830043736     3
 OLDACT:REG 17-08-30 12:38 OP:dani STATUS:               ID:20170830043736     3
 2017-08-30-0438-00M.COL___399                                                 6
 STAT SP IPHASW D HRMM SECON CODA AMPLIT PERI AZIMU VELO AIN AR TRES W  DIS CAZ7
 BAR2 EZ EP     C  444 42.86                             170   -0.2610 24.9 193 
 BAR2 EZ ES        444 57.64                             170   -0.3110 24.9 193 
 BAR2 EZ I         444 59.10        34.4 0.20            167           24.9 193 
 BRR  HZ IP     C  444 44.76                             151    0.0510 71.9 297 
 BRR  HN ES        445  1.56                             151    0.7710 71.9 297 
 BRR  HZ I         445  5.79        46.6 0.12            151           71.9 297 
 PAM  EZ EP        444 45.87                             150    0.2410 75.5  39 
 PAM  EN ES        445  2.66                             150    0.2410 75.5  39 
 PAM  EZ I         445  4.90        24.5 0.30            155           75.5  39 
 RUS  HZ EP        444 46.93                             142   -0.4810  102 177 
 RUS  HN ES        445  5.09                             142   -0.5110  102 177 
 RUS  HZ I         445  6.14        19.5 0.54            143            102 177 
 SPBC HZ EP        444 51.94                             127   -0.43 9  165 219 
 SPBC HN ES        445 13.99                             127   -0.44 9  165 219 
 SPBC HZ I         445 18.31        31.7 0.24            128            165 219 
 YPLC HZ EP     D  444 53.30                             125   -0.25 9  177 152 
 YPLC HN ES        445 17.07                             125    0.55 9  177 152 
 YPLC HZ I         445 19.72        10.6 0.26            128            177 152 
 ZAR  HZ EP        444 55.91                             121   -0.38 9  205 292 
 ZAR  HN ES        445 21.64                             121    0.24 9  205 292 
 ZAR  HZ I         445 26.72        25.7 0.28            122            205 292 
 NOR  HZ EP        444 59.38                             117   -0.35 8  237 234 
 NOR  HN ES        445 27.18                             117   -0.34 8  237 234 
 NOR  HZ I         445 31.20        12.7 0.30            118            237 234 
 CHI  HZ EP        445  2.69                             116    1.01 8  250 195 
 CHI  HN ES   3    445 32.29                             116    1.29 2  250 195 
 CHI  HZ I         445 34.90         4.9 0.52            117            250 195 
 ROSC BZ EP        445  2.73                             115    0.60 8  255 211 
 ROSC BN ES   3    445 30.80                             115   -1.00 2  255 211 
 ROSC BZ I         445 39.09        22.3 0.55            117            255 211 
 HEL  HZ EP        445  4.96                             113    0.72 8  274 256 
 HEL  HN ES        445 35.16                             113   -0.38 8  274 256 
 HEL  HZ I         445 42.17         8.3 0.26            115            274 256 
 URE  HZ EP        445  4.80                             112   -0.21 7  285 292 
 URE  HN ES        445 36.27                             112   -0.65 7  285 292 
 GUY2CHZ EP   3    445  8.95                             111    1.27 2  303 235 
 GUY2CHN ES   4    445 44.05                             111    2.37 0  303 235 
 GUY2CHZ I         445 48.30        11.0 0.22                           303 235 
 PTGC HZ EP   3    445  6.14                             110   -1.65 2  309 159 
 PTGC HN ES   4    445 39.38                             110   -2.49 0  309 159 
 PTGC HZ I         445 44.08         7.3 0.28            112            309 159 
 LL6C HZ EP   4    445  6.55                             109   -2.88 0  324 357 
 DBB  EZ EP   3    445 13.04                             108    1.52 2  341 274 
 DBB  EN ES        445 48.73                             108    0.22 7  341 274 
 DBB  EZ I         445 55.38         4.6 0.32            110            341 274 
 PRA  HZ EP        445 17.23                             105   -0.42 6  394 210 
 PRA  HE ES        445 59.93                             105    0.51 6  394 210 
 PRA  HZ I         446  1.40         4.6 0.26            107            394 210 
 ORTC HZ EP   3    445 19.50                             105    1.44 1  397 216 
 ORTC HN ES        446  1.35                             105    1.20 6  397 216 
 SJC  HZ EP   3    445 17.77                             105   -1.68 1  409 327 
 SJC  HN ES   4    445 58.93                             105   -3.70 0  409 327 
 SJC  HZ I         446  2.34         4.0 0.44            106            409 327 
                                                                                
