 2017  330 0621 27.3 L   6.791 -73.141146.0  RSN  7 0.5 1.3LRSN                1
 GAP=137        0.73       5.8     5.3  7.0 -0.9417E+01  0.1101E+02 -0.6999E+01E
 Epicentro: LOS SANTOS - SANTANDER                                             3
 ACTION:UPD 17-05-25 18:47 OP:jn   STATUS:               ID:20170330062127 L   I
 OLDACT:UP  17-03-30 16:01 OP:and  STATUS:               ID:20170330061741d    3
 OLDACT:UP  17-03-30 16:00 OP:and  STATUS:               ID:20170330061741d    3
 OLDACT:DUP 17-03-30 15:57 OP:and  STATUS:               ID:20170330061741d    3
 OLDACT:UP  17-03-30 15:51 OP:and  STATUS:               ID:20170330061738     3
 OLDACT:UP  17-03-30 15:51 OP:and  STATUS:               ID:20170330061738     3
 OLDACT:UP  17-03-30 15:51 OP:and  STATUS:               ID:20170330061738     3
 OLDACT:UP  17-03-30 15:48 OP:and  STATUS:               ID:20170330061738     3
 OLDACT:UP  17-03-30 15:48 OP:and  STATUS:               ID:20170330061738     3
 OLDACT:UP  17-03-30 15:45 OP:and  STATUS:               ID:20170330061738     3
 OLDACT:UP  17-03-30 15:45 OP:and  STATUS:               ID:20170330061738     3
 OLDACT:REG 17-03-30 12:36 OP:and  STATUS:               ID:20170330061738     3
 2017-03-30-0618-00M.COL___353                                                 6
 STAT SP IPHASW D HRMM SECON CODA AMPLIT PERI AZIMU VELO AIN AR TRES W  DIS CAZ7
 BAR2 EZ EP   2    621 47.17                             171    0.21 5 22.4 192 
 BAR2 EZ ES        622  2.14                             171   -0.1410 22.4 192 
 BRR  HZ EP        621 48.38                             152   -0.1710 72.1 299 
 BRR  HN ES   2    622  5.87                             152    0.77 5 72.1 299 
 PAM  EZ IP     D  621 49.99                             150    0.4010 77.9  39 
 PAM  EN ES        622  6.68                             150   -0.2810 77.9  39 
 PAM  EZ I         622 10.07         2.6 0.52            152           77.9  39 
 RUS  HZ EP   2    621 51.40                             144    0.38 5 99.5 176 
 RUS  HN ES   2    622  9.67                             144    0.16 5 99.5 176 
 RUS  HZ I         622 10.90         2.4 0.32            144           99.5 176 
 PTB  HZ EP   2    621 53.35                             132   -0.98 5  148 259 
 PTB  HN ES   2    622 15.92                             132    0.52 5  148 259 
 PTB  HZ I         622 16.47         2.5 0.38            133            148 259 
 SPBC HN ES   3    622 16.70                             129   -1.30 2  163 219 
 SPBC HZ I         622 21.00         4.1 0.10            130            163 219 
 ZAR  HN ES   2    622 25.17                             122   -0.08 4  205 292 
                                                                                
