 2015 1130 0106 46.4 L   6.770 -73.113141.2  RSN  8 0.4 1.8LRSN                1
 GAP=142        1.02       4.0     4.3  6.2 -0.1832E+01  0.6114E+01 -0.2661E+01E
 Epicentro: LOS SANTOS - SANTANDER                                             3
 ACTION:UPD 15-12-28 16:14 OP:cam  STATUS:               ID:20151130010646 L   I
 OLDACT:REG 15-11-30 13:55 OP:drio STATUS:               ID:20151130005743     3
 2015-11-30-0057-43M.COL___313                                                 6
 STAT SP IPHASW D HRMM SECON CODA AMPLIT PERI AZIMU VELO AIN AR TRES W  DIS CAZ7
 BAR2 EZ EP        1 7  5.65                             171    0.2110 21.1 201 
 BAR2 EZ ES        1 7 20.58                             171    0.2910 21.1 201 
 BAR2 EZ I         1 7 21.47         5.2 0.30            171           21.1 201 
 BRR  HZ EP        1 7  7.45                             150    0.1110 75.9 299 
 BRR  HN ES        1 7 23.97                             150    0.3010 75.9 299 
 BRR  HZ I         1 7 28.08        12.8 0.72            149           75.9 299 
 PAM  EZ EP        1 7  8.47                             150    0.3110 77.8  36 
 PAM  EE ES        1 7 24.84                             150   -0.2910 77.8  36 
 PAM  EZ I         1 7 27.46        17.1 0.50            153           77.8  36 
 RUS  HZ EP        1 7  9.72                             144    0.2710 97.1 178 
 RUS  HE ES        1 7 27.02                             144   -0.4110 97.1 178 
 RUS  HZ I         1 7 30.09         6.2 0.36            148           97.1 178 
 PTB  HZ EP        1 7 12.58                             130   -0.69 9  151 260 
 PTB  HN ES        1 7 33.70                             130   -0.53 9  151 260 
 PTB  HZ I         1 7 39.36         4.8 0.28            131            151 260 
 SPBC HZ EP        1 7 14.73                             128    0.20 9  163 221 
 SPBC HE ES        1 7 36.56                             128    0.09 9  163 221 
 SPBC HZ I         1 7 39.34        11.4 0.24            130            163 221 
 OCA  HZ EP        1 7 13.99                             128   -0.73 9  164 352 
 OCA  HE ES   4    1 7 35.18                             128   -1.62 0  164 352 
 OCA  HZ I         1 7 40.27        12.4 0.20            130            164 352 
 ZAR  HZ EP        1 7 19.69                             121    0.66 8  209 293 
 ZAR  HN ES        1 7 44.67                             121    0.19 8  209 293 
 ZAR  HZ I         1 7 50.16         7.9 0.26            122            209 293 
                                                                                
