 2010 1230 0249 53.9 L   6.824 -73.242139.1  RSN  6 0.5 1.6LRSN                1
 GAP=143        1.11       5.5    19.3 14.8 -0.2628E+02  0.1494E+03 -0.1715E+02E
 Epicentro: ZAPATOCA - SANTANDER                                               3
 *HORQ                                                                         3
 ACTION:UP  11-01-14 15:28 OP:pat  STATUS:               ID:20101230024953 L   I
 2010-12-30-0240-00M.COL___137                                                 6
 STAT SP IPHASW D HRMM SECON CODA AMPLIT PERI AZIMU VELO SNR AR TRES W  DIS CAZ7
 BAR2 SZ EP   2    250 12.80                             168     0.0 5   26 166 
 BAR2 SZ ES   2    250 28.16                             168     0.6 5   26 166 
 BAR2 SZ I         250 29.46        10.9 0.12                            26 166 
 RUS  HZ EP   1    250 16.82                             141    -0.5 7  104 170 
 RUS  HN ES   1    250 35.25                             141    -0.3 7  104 170 
 RUS  HZ I         250 36.74         4.6 0.54                           104 170 
 GRA  SZ EP   1    250 19.48                             135     0.8 7  127  22 
 GRA  SZ ES   2    250 38.37                             135     0.4 5  127  22 
 GRA  SZ I         250 40.55         4.2 0.31                           127  22 
 OCA  SZ EP   1    250 21.04                             128    -0.3 7  157 357 
 OCA  SZ ES   1    250 42.02                             128    -0.7 7  157 357 
 OCA  SZ I         250 48.03         8.9 0.48                           157 357 
 NOR  SZ EP   1    250 29.13                             117     0.6 6  228 232 
 CHI  HZ EP   2    250 31.00                             115    -0.2 4  249 193 
 CHI  HZ I         251  6.03         2.3 0.33                           249 193 
                                                                                
