 2011 1130 0606 53.4 L   6.758 -73.107144.0  RSN  4 0.2 1.4LRSN                1
 GAP=143        0.37       4.1     4.9  6.6  0.4614E+01 -0.1554E+02 -0.6313E+01E
 Epicentro: LOS SANTOS - SANTANDER                                             3
 ACTION:UPD 12-07-13 16:13 OP:ep   STATUS:               ID:20111130060653 L   I
 2011-11-30-0605-01S.COL___160                                                 6
 STAT SP IPHASW D HRMM SECON CODA AMPLIT PERI AZIMU VELO AIN AR TRES W  DIS CAZ7
 BAR2 SZ EP        6 7 12.67                             172   -0.0410 20.1 205 
 BAR2 SZ I         6 7 23.64         6.9 0.74                          20.1 205 
 BRR  HZ EP        6 7 14.53                             151   -0.1410 77.2 300 
 BRR  HZ I         6 7 14.70         4.0 0.16                          77.2 300 
 BRR  HE ES   1    6 7 31.46                             151    0.17 7 77.2 300 
 PAM  SZ EP        6 7 15.51                             150    0.0610 78.5  35 
 PAM  SN ES   3    6 7 32.43                             150   -0.25 2 78.5  35 
 RUS  HZ EP   3    6 7 17.15                             145    0.56 2 95.7 178 
 RUS  HN ES   2    6 7 34.73                             145    0.02 5 95.7 178 
                                                                                
