 2016  830 0414 50.2 L   6.798 -73.151143.5  RSN  7 0.3 1.5LRSN                1
 GAP=136        0.76       3.1     3.2  4.8 -0.2689E+00  0.4037E+01  0.2210E+00E
 Epicentro: LOS SANTOS - SANTANDER                                             3
 ACTION:UPD 16-10-29 15:40 OP:rebc STATUS:               ID:20160830041450 L   I
 OLDACT:UP  16-08-30 15:15 OP:edw  STATUS:               ID:20160830040736d    3
 OLDACT:UP  16-08-30 15:13 OP:edw  STATUS:               ID:20160830040736d    3
 OLDACT:DUP 16-08-30 15:10 OP:edw  STATUS:               ID:20160830040736d    3
 OLDACT:UP  16-08-30 15:09 OP:edw  STATUS:               ID:20160830040735     3
 OLDACT:REG 16-08-30 12:37 OP:edw  STATUS:               ID:20160830040735     3
 2016-08-30-0408-00M.COL___359                                                 6
 STAT SP IPHASW D HRMM SECON CODA AMPLIT PERI AZIMU VELO AIN AR TRES W  DIS CAZ7
 BAR2 EZ EP        415  9.50                             170   -0.0310 23.0 189 
 BAR2 EZ ES        415 23.90                             170   -0.7210 23.0 189 
 BAR2 EZ I         415 25.69        15.0 0.78                          23.0 189 
 BRR  HZ EP        415 11.20                             152    0.1410 70.8 299 
 BRR  HN ES        415 27.91                             152    0.5610 70.8 299 
 PAM  EZ EP        415 12.18                             150   -0.0210 78.0  40 
 PAM  EE ES        415 29.44                             150    0.0810 78.0  40 
 PAM  EZ I         415 31.54         8.7 0.48                          78.0  40 
 RUS  HZ EP        415 13.75                             143    0.0510  100 176 
 RUS  HN ES        415 32.26                             143    0.2310  100 176 
 RUS  HZ I         415 33.23         3.4 0.30                           100 176 
 PTB  HZ EP        415 16.79                             132   -0.12 9  147 259 
 PTB  HE ES        415 37.86                             132    0.11 9  147 259 
 PTB  HZ I         415 39.76         1.7 0.18                           147 259 
 SPBC HZ EP        415 18.45                             129   -0.00 9  163 219 
 SPBC HN ES        415 40.56                             129    0.06 9  163 219 
 SPBC HZ I         415 47.39         3.6 0.36                           163 219 
 ZAR  HZ EP        415 22.36                             122   -0.08 9  204 292 
 ZAR  HN ES        415 47.22                             122   -0.37 9  204 292 
 ZAR  HZ I         415 53.53         1.9 0.12                           204 292 
                                                                                
