 2016  830 0528 47.0 L   6.753 -73.162150.9  RSN  4 0.2 1.2LRSN                1
 GAP=232        0.62       3.9     4.6  5.6  0.5432E+01 -0.1613E+01  0.4437E+00E
 Epicentro: LOS SANTOS - SANTANDER                                             3
 ACTION:UPD 16-10-29 15:40 OP:rebc STATUS:               ID:20160830052847 L   I
 OLDACT:REG 16-08-30 12:44 OP:edw  STATUS:               ID:20160830052736     3
 2016-08-30-0528-00M.COL___353                                                 6
 STAT SP IPHASW D HRMM SECON CODA AMPLIT PERI AZIMU VELO AIN AR TRES W  DIS CAZ7
 BRR  HZ EP        529  8.84                             153    0.0210 72.3 303 
 BRR  HN ES        529 25.87                             153    0.0710 72.3 303 
 RUS  HZ EP        529 11.14                             146    0.1810 95.5 175 
 RUS  HN ES        529 29.43                             146   -0.1810 95.5 175 
 RUS  HZ I         529 30.15         2.3 0.20                          95.5 175 
 PTB  HZ EP        529 13.69                             134   -0.51 9  145 261 
 PTB  HE ES        529 35.49                             134    0.11 9  145 261 
 PTB  HZ I         529 37.10         1.6 0.24                           145 261 
 SPBC HZ EP        529 15.77                             131    0.30 9  158 220 
 SPBC HN ES        529 37.63                             131   -0.00 9  158 220 
 SPBC HZ I         529 39.83         2.0 0.11                           158 220 
                                                                                
