 2016  630 0319 59.0 L   6.301 -73.638113.2  RSN 12 0.5 1.9LRSN                1
 GAP= 69        1.17       3.0     3.4  6.6  0.5913E+00  0.1016E+02  0.1684E+01E
 Epicentro: SANTA HELENA DEL OPON - SANTANDER                                  3
 ACTION:UPD 16-07-21 22:24 OP:rebc STATUS:               ID:20160630031959 L   I
 OLDACT:UP  16-07-05 18:29 OP:nlst STATUS:               ID:20160630031959 L   3
 OLDACT:UP  16-06-30 13:52 OP:ar   STATUS:               ID:20160630031748     3
 OLDACT:REG 16-06-30 12:52 OP:edw  STATUS:               ID:20160630031748     3
 2016-06-30-0317-48M.COL___340                                                 6
 STAT SP IPHASW D HRMM SECON CODA AMPLIT PERI AZIMU VELO AIN AR TRES W  DIS CAZ7
 BAR2 EZ EP        320 16.63                             150    0.3310 59.8  57 
 BAR2 EZ ES        320 30.17                             150    0.3510 59.8  57 
 RUS  HZ EP        320 17.50                             144   -0.2510 76.2 126 
 RUS  HN ES        320 31.95                             144   -0.4610 76.2 126 
 RUS  HZ I         320 33.72        11.8 0.38                          76.2 126 
 SPBC HZ EP        320 17.63                             140   -0.3110 86.4 214 
 SPBC HN ES        320 32.78                             140    0.0210 86.4 214 
 SPBC HZ I         320 36.11        26.4 0.38                          86.4 214 
 BRR  HZ EP        320 18.08                             139    0.0110 89.5 355 
 BRR  HN ES        320 33.51                             139    0.5310 89.5 355 
 BRR  HZ I         320 33.79        13.0 0.14                          89.5 355 
 PTB  HZ EP        320 17.53                             137   -0.9510 94.3 286 
 PTB  HN ES        320 33.52                             137   -0.1910 94.3 286 
 PTB  HZ I         320 35.08        16.0 0.52                          94.3 286 
 NOR  HZ EP        320 24.07                             121   -0.61 9  159 239 
 NOR  HN ES        320 44.73                             121   -0.02 9  159 239 
 NOR  HZ I         320 46.17        16.7 0.16                           159 239 
 CHI  HZ EP        320 28.69                             117    0.74 9  185 183 
 CHI  HN ES        320 50.45                             117   -0.11 9  185 183 
 CHI  HZ I         320 54.60         5.7 0.62                           185 183 
 ZAR  HZ EP        320 27.61                             116   -0.18 9  188 314 
 ZAR  HN ES        320 50.81                             116    0.52 9  188 314 
 ZAR  HZ I         320 54.11        22.1 0.40                           188 314 
 HEL  HZ EP        320 31.05                             114    0.47 8  210 267 
 HEL  HN ES        320 55.35                             114    0.09 8  210 267 
 HEL  HZ I         321  1.16         7.5 0.34                           210 267 
 GUY2CHZ EP        320 33.03                             112    0.54 8  225 238 
 GUY2CHN ES        320 59.03                             112    0.38 8  225 238 
 GUY2CHZ I         321  4.39         7.1 0.36                           225 238 
 URE  HZ EP        320 35.70                             108   -0.61 8  264 308 
 URE  HN ES        321  4.53                             108   -0.93 8  264 308 
 URE  HZ I         321  6.02        11.9 0.12                           264 308 
 CBOC HZ EP        320 37.64                             108    0.72 8  267 260 
 CBOC HZ I         320 47.53         3.0 0.16                           267 260 
 CBOC HN ES        321  6.80                             108    0.27 8  267 260 
                                                                                
