 2010 1130 0652 37.7 L   6.783 -73.108141.4  RSN 15 0.4 2.6LRSN                1
 GAP=181        0.81       3.4     5.4  4.9 -0.9502E+01  0.5217E+01  0.3305E+01E
 Epicentro: LOS SANTOS - SANTANDER                                             3
 ACTION:UP  10-12-17 16:56 OP:REBC STATUS:               ID:20101130065237 L   I
 2010-11-30-0650-29S.COL___132                                                 6
 STAT SP IPHASW D HRMM SECON CODA AMPLIT PERI AZIMU VELO SNR AR TRES W  DIS CAZ7
 BAR2 SZ IP        652 56.82                             170     0.010   23 202 
 BAR2 SZ ES   1    653 11.31                             170    -0.4 7   23 202 
 BAR2 SZ I         653 13.17        58.7 0.32                            23 202 
 BTL  SZ EP        652 57.17                             170     0.310   23 310 
 GIR2 SZ EP        652 56.95                             166     0.010   34 344 
 GIR2 SZ ES   1    653 11.56                             166    -0.4 7   34 344 
 BRR  HZ EP        652 58.77                             150     0.110   76 298 
 BRR  HE ES   1    653 15.67                             150     0.6 7   76 298 
 BRR  HZ I         653 16.71        72.7 0.13                            76 298 
 GUE  SZ EP        653  2.29                             138     0.210  118  10 
 GRA  SZ IP        653  2.76                             136     0.110  126  15 
 GRA  SZ ES   1    653 22.12                             136     0.0 7  126  15 
 GRA  SZ I         653 23.18        40.0 0.65                           126  15 
 OCA  SZ EP        653  5.36                             128    -0.6 9  163 352 
 OCA  SZ ES   1    653 27.89                             128    -0.1 7  163 352 
 OCA  SZ I         653 32.05        53.1 0.27                           163 352 
 NOR  SZ EP        653 13.32                             117    -0.2 8  237 236 
 NOR  SN ES   2    653 40.49                             117    -0.9 4  237 236 
 CHI  HZ EP        653 14.97                             116    -0.2 8  248 196 
 CHI  HE ES   1    653 44.60                             116     0.3 6  248 196 
 CHI  HZ I         653 50.75         9.9 0.28                           248 196 
 HEL  HZ EP        653 18.67                             113     0.5 7  276 256 
 HEL  HE ES   2    653 48.86                             113    -0.8 4  276 256 
 HEL  HZ I         653 56.48        15.4 0.23                           276 256 
 GUY  SZ EP        653 21.74                             111     0.3 7  304 236 
 GUY  SN ES   2    653 55.00                             111    -0.5 4  304 236 
 GUY  SZ I         654  2.05        26.9 0.51                           304 236 
 RREF HZ EP   2    653 23.37                             110    -0.5 3  324 230 
 RREF HE ES   1    654  0.36                             110     0.4 5  324 230 
 RREF HZ I         654  5.93        12.3 0.27                           324 230 
 DBB  SZ EP        653 25.41                             108    -0.1 7  344 275 
 MON  HZ EP   3    653 24.50                             108    -2.6 2  357 308 
 PRA  HZ EP        653 31.26                             106     0.1 6  392 210 
 PRA  HN ES   2    654 12.41                             106    -0.4 3  392 210 
 PRA  HZ I         654 17.37        40.7 0.23                           392 210 
                                                                                
