 2011 1030 0145 24.5 L   6.805 -73.130144.2  RSN 11 0.4 2.0LRSN                1
 GAP=138        0.65       3.4     4.6  4.9 -0.2932E+01  0.6434E+01 -0.1676E+00E
 Epicentro: LOS SANTOS - SANTANDER                                             3
 ACTION:UPD 12-07-13 16:06 OP:ep   STATUS:               ID:20111030014524 L   I
 2011-10-30-0143-34S.COL___157                                                 6
 STAT SP IPHASW D HRMM SECON CODA AMPLIT PERI AZIMU VELO AIN AR TRES W  DIS CAZ7
 BTL  SZ EP        145 44.03                             172    0.2010 19.7 310 
 BAR2 SZ IP        145 43.77                             170   -0.1410 24.2 194 
 BAR2 SZ I         145 44.06        31.3 0.34                          24.2 194 
 BAR2 SZ ES   1    145 58.64                             170   -0.45 7 24.2 194 
 BRR  HZ IP     C  145 45.58                             152    0.0810 72.5 298 
 BRR  HZ I         145 45.74        37.3 0.16                          72.5 298 
 BRR  HN ES   1    146  2.48                             152    0.56 7 72.5 298 
 PAM  SZ EP        145 46.65                             151    0.2410 75.9  39 
 PAM  SN ES   1    146  3.53                             151   -0.01 7 75.9  39 
 RUS  HZ EP        145 47.87                             143   -0.2110  101 177 
 RUS  HZ I         145 48.96         7.8 0.14                           101 177 
 RUS  HE ES   1    146  6.67                             143    0.16 7  101 177 
 OCA  SZ EP        145 52.35                             129   -0.26 9  160 353 
 OCA  SZ ES   3    146 12.86                             129   -1.72 2  160 353 
 OCA  SZ I         146 18.76        11.7 0.50                           160 353 
 ZAR  HN ES   3    146 20.65                             122   -1.63 2  205 292 
 ZAR  HZ I         146 27.47        15.3 0.54                           205 292 
 NOR  SZ EP        146  0.11                             118   -0.16 8  236 235 
 NOR  SN ES   3    146 27.82                             118   -0.39 2  236 235 
 HEL  HZ EP   2    146  4.94                             114    0.15 4  274 256 
 HEL  HN ES   2    146 36.39                             114    0.15 4  274 256 
 HEL  HZ I         146 42.10         5.6 0.34                           274 256 
 RREF HZ EP   2    146 11.79                             110    1.08 3  323 230 
 RREF HZ I         146 52.44         3.4 0.28                           323 230 
 PRA  HZ EP   2    146 18.34                             106    0.27 3  393 210 
                                                                                
