 2016  830 0544 52.1 L   6.815 -73.123154.6  RSN 19 0.5 2.3LRSN                1
 GAP= 53        1.22       3.3     3.2  5.5 -0.1511E+01  0.8117E+00 -0.4499E+00E
 Epicentro: LOS SANTOS - SANTANDER                                             3
 ACTION:UPD 16-10-29 15:40 OP:rebc STATUS:               ID:20160830054452 L   I
 OLDACT:UP  16-08-30 16:21 OP:edw  STATUS:               ID:20160830053736     3
 OLDACT:UP  16-08-30 16:20 OP:edw  STATUS:               ID:20160830053736     3
 OLDACT:REG 16-08-30 12:45 OP:edw  STATUS:               ID:20160830053736     3
 2016-08-30-0538-00M.COL___353                                                 6
 STAT SP IPHASW D HRMM SECON CODA AMPLIT PERI AZIMU VELO AIN AR TRES W  DIS CAZ7
 BAR2 EZ EP        545 12.66                             170   -0.1410 25.4 195 
 BAR2 EZ ES        545 28.58                             170   -0.3910 25.4 195 
 BAR2 EZ I         545 30.53        32.5 0.38                          25.4 195 
 BRR  HZ EP        545 14.54                             154    0.2810 72.7 296 
 BRR  HN ES        545 32.13                             154    0.5710 72.7 296 
 BRR  HZ I         545 35.63        20.9 0.14                          72.7 296 
 PAM  EZ EP        545 15.67                             153    0.6010 74.5  39 
 PAM  EN ES        545 33.01                             153   -0.0010 74.5  39 
 PAM  EZ I         545 35.14        27.2 0.64                          74.5  39 
 RUS  HZ EP        545 16.72                             145   -0.0810  102 178 
 RUS  HN ES        545 35.70                             145   -0.3910  102 178 
 RUS  HZ I         545 37.29        12.6 0.30                           102 178 
 PTB  HZ EP        545 19.64                             133   -0.37 9  151 258 
 PTB  HN ES        545 41.02                             133   -0.79 9  151 258 
 PTB  HZ I         545 43.64        19.7 0.18                           151 258 
 TAM  HZ IP     D  545 20.95                             133    0.67 9  153 106 
 TAM  HN ES   2    545 42.45                             133    0.17 5  153 106 
 OCA  HZ EP        545 21.17                             132    0.21 9  159 352 
 OCA  HE ES        545 43.95                             132    0.45 9  159 352 
 OCA  HZ I         545 46.79        46.8 0.20                           159 352 
 SPBC HZ EP        545 21.67                             130    0.15 9  166 219 
 SPBC HN ES        545 44.42                             130   -0.07 9  166 219 
 SPBC HZ I         545 49.34        29.2 0.18                           166 219 
 ZAR  HZ EP        545 25.50                             124    0.22 8  206 291 
 ZAR  HN ES        545 51.69                             124    0.51 8  206 291 
 ZAR  HZ I         545 56.04        15.7 0.28                           206 291 
 NOR  HN ES        545 57.71                             120    0.55 8  238 235 
 CHI  HZ EP        545 31.31                             119    0.81 8  251 196 
 CHI  HN ES        546  0.59                             119    0.10 8  251 196 
 ROSC HZ EP   4    545 32.81                             118    1.84 0  255 211 
 ROSC BN ES   4    546  4.22                             118    2.91 0  255 211 
 ROSC HZ I         546  8.62        16.7 0.35                           255 211 
 HEL  HZ EP        545 32.65                             116   -0.40 8  275 256 
 HEL  HN ES        546  5.43                             116    0.41 8  275 256 
 HEL  HZ I         546 13.30         7.6 0.28                           275 256 
 URE  HZ EP        545 33.11                             115   -0.66 7  286 291 
 URE  HE ES        546  5.05                             115   -1.25 7  286 291 
 URE  HZ I         546 15.35        10.9 0.29                           286 291 
 SOCV BZ EP        545 35.52                             114    0.32 7  298  57 
 SOCV BN ES        546  7.43                             114   -1.41 7  298  57 
 GUY2CHZ EP   4    545 37.94                             114    1.51 0  304 235 
 GUY2CHN ES   4    546 14.43                             114    3.40 0  304 235 
 GUY2CHZ I         546 19.16        11.7 0.28                           304 235 
 PTGC HZ EP        545 35.74                             113   -0.66 7  309 159 
 PTGC HN ES   4    546  8.74                             113   -2.24 0  309 159 
 PTGC HZ I         546  8.85         5.8 0.38                           309 159 
 SJC  HZ EP        545 47.23                             107   -0.70 6  409 327 
 SJC  HN ES   4    546 28.54                             107   -2.97 0  409 327 
 SMAR HZ EP        545 58.08                             104    0.02 4  496 346 
 SMAR HN ES   4    546 46.91                             104   -2.63 0  496 346 
                                                                                
