 2013  630 0027 55.1 L   6.724 -73.220143.1  RSN  4 0.4 1.0LRSN                1
 GAP=216        0.77       7.6     7.7  7.6  0.2843E+02  0.1590E+02  0.3678E+01E
 Epicentro: VILLANUEVA - SANTANDER                                             3
 ACTION:UPD 14-01-08 09:58 OP:ep   STATUS:               ID:20130630002755 L   I
 OLDACT:REG 13-06-30 07:24 OP:jn   STATUS:               ID:20130630001959     3
 2013-06-30-0019-59M.COL___267                                                 6
 STAT SP IPHASW D HRMM SECON CODA AMPLIT PERI AZIMU VELO AIN AR TRES W  DIS CAZ7
 BAR2 SZ ES        028 29.68                             174    0.4110 15.1 164 
 BRR  HZ EP        028 15.96                             153    0.0810 69.0 308 
 BRR  HE ES   1    028 31.42                             153   -0.63 7 69.0 308 
 BRR  HZ I         028 42.97         3.0 0.44            152           69.0 308 
 RUS  HZ EP   1    028 18.13                             145    0.03 7 93.1 171 
 RUS  HN ES   1    028 35.53                             145   -0.48 7 93.1 171 
 RUS  HZ I         028 37.85         1.2 0.30            158           93.1 171 
 PTB  HZ EP   1    028 21.02                             133   -0.02 7  138 262 
 PTB  HN ES   1    028 41.49                             133    0.26 7  138 262 
 PTB  HZ I         028 43.16         1.4 0.24            139            138 262 
                                                                                
