 2016 1030 0945 18.6 L   6.754 -73.186149.4  RSN  5 0.4 1.3LRSN                1
 GAP=159        0.93       7.0     5.4  6.9  0.1499E+02 -0.7705E+01 -0.5316E+01E
 Epicentro: VILLANUEVA - SANTANDER                                             3
 ACTION:UPD 16-11-09 19:24 OP:rebc STATUS:               ID:20161030094518 L   I
 OLDACT:DUP 16-10-30 20:59 OP:dani STATUS:               ID:20161030093745d    3
 OLDACT:REG 16-10-30 15:08 OP:cog  STATUS:               ID:20161030093744     3
 2016-10-30-0938-00M.COL___315                                                 6
 STAT SP IPHASW D HRMM SECON CODA AMPLIT PERI AZIMU VELO AIN AR TRES W  DIS CAZ7
 BAR2 EZ EP        945 38.41                             173   -0.1610 17.8 179 
 BAR2 EZ ES        945 53.59                             173   -0.5610 17.8 179 
 BAR2 EZ I         945 54.57         6.2 0.48            171           17.8 179 
 BRR  HZ EP        945 40.34                             153    0.2610 70.1 304 
 BRR  HN ES        945 57.31                             153    0.4710 70.1 304 
 BRR  HZ I         945 58.63         3.2 0.13            152           70.1 304 
 RUS  HZ EP        945 42.69                             146    0.3010 95.9 173 
 RUS  HN ES        946  1.31                             146    0.3710 95.9 173 
 RUS  HZ I         946  2.10         2.7 0.35            146           95.9 173 
 PTB  HZ EP        945 45.26                             134   -0.14 9  142 261 
 PTB  HE ES        946  5.92                             134   -0.38 9  142 261 
 PTB  HZ I         946  9.77         2.2 0.17            133            142 261 
 TAM  HZ EP        945 46.59                             131   -0.26 9  158 103 
                                                                                
