 2015 1130 0842 38.5 L   6.549 -73.556116.9  RSN  4 0.3 1.6LRSN                1
 GAP=223        0.68       6.6     5.9  6.0  0.2417E+02  0.6724E+01 -0.9049E+01E
 Epicentro: EL CARMEN - SANTANDER                                              3
 ACTION:UPD 15-12-28 16:14 OP:cam  STATUS:               ID:20151130084238 L   I
 OLDACT:REG 15-11-30 14:12 OP:drio STATUS:               ID:20151130083741     3
 2015-11-30-0837-41M.COL___289                                                 6
 STAT SP IPHASW D HRMM SECON CODA AMPLIT PERI AZIMU VELO AIN AR TRES W  DIS CAZ7
 BAR2 EZ EP        842 55.42                             159    0.1610 41.6  83 
 BAR2 EZ ES        843  7.96                             159   -0.4010 41.6  83 
 BAR2 EZ I         843  9.25        17.4 0.34            168           41.6  83 
 BRR  HZ EP        842 56.27                             149    0.1610 64.1 344 
 BRR  HN ES        843 10.26                             149    0.3810 64.1 344 
 ZAR  HZ EP   4    843  8.22                             119    1.88 0  178 306 
 ZAR  HE ES        843 27.85                             119   -0.24 9  178 306 
 ZAR  HZ I         843 33.55         2.9 0.26            119            178 306 
 SML  HZ EP        843 15.01                             110    0.01 8  255 347 
 SML  HE ES        843 43.30                             110   -0.19 8  255 347 
                                                                                
