 2013  130 0310 10.4 L   6.769 -73.146145.7  RSN  7 0.3 1.8LRSN                1
 GAP= 97        0.67       3.2     3.6  5.1 -0.2821E+01 -0.1673E+01  0.5754E+01E
 Epicentro: LOS SANTOS - SANTANDER                                             3
 ACTION:UPD 13-02-15 09:17 OP:ep   STATUS:               ID:20130130031010 L   I
 2013-01-30-0310-00M.COL___241                                                 6
 STAT SP IPHASW D HRMM SECON CODA AMPLIT PERI AZIMU VELO AIN AR TRES W  DIS CAZ7
 BAR2 SZ EP   1    310 29.79                             172   -0.15 7 20.0 192 
 BAR2 SZ ES   1    310 45.23                             172    0.03 7 20.0 192 
 BAR2 SZ I         310 47.84        13.2 0.42            167           20.0 192 
 BRR  HZ EP        310 31.71                             152    0.0910 72.9 301 
 BRR  HN ES   1    310 48.93                             152    0.74 7 72.9 301 
 BRR  HN I         310 49.60        16.7 0.33            154           72.9 301 
 PAM  SZ EP        310 32.57                             150   -0.1810 80.0  38 
 PAM  SZ I         310 32.87        11.2 0.22            155           80.0  38 
 PAM  SE ES        310 50.14                             150   -0.0610 80.0  38 
 RUS  HZ EP        310 33.91                             145    0.0210 97.2 176 
 RUS  HN ES   1    310 51.96                             145   -0.26 7 97.2 176 
 RUS  HN I         310 54.40        14.7 0.43            143           97.2 176 
 PTB  HZ EP   1    310 37.21                             132   -0.08 7  147 260 
 PTB  HN ES   1    310 57.56                             132   -0.72 7  147 260 
 PTB  HZ I         311  0.01         5.8 0.10            133            147 260 
 TAM  HZ EP        310 37.95                             131   -0.02 9  154 104 
 CHI  HZ EP        310 48.02                             117    0.30 8  245 195 
 CHI  HE ES        311 17.07                             117    0.22 8  245 195 
 CHI  HZ I         311 26.12         2.8 0.83            118            245 195 
                                                                                
