 2013  630 0134 39.1 L   6.505 -73.585111.4  RSN  6 0.4 1.3LRSN                1
 GAP=132        0.99       4.7     4.0  7.5  0.1805E+01  0.1033E+00 -0.1636E+01E
 Epicentro: SANTA HELENA DEL OPON - SANTANDER                                  3
 ACTION:UPD 14-01-08 09:58 OP:ep   STATUS:               ID:20130630013439 L   I
 OLDACT:REG 13-06-30 07:26 OP:jn   STATUS:               ID:20130630012959     3
 2013-06-30-0129-59M.COL___267                                                 6
 STAT SP IPHASW D HRMM SECON CODA AMPLIT PERI AZIMU VELO AIN AR TRES W  DIS CAZ7
 BAR2 SZ EP        134 55.89                             156    0.3910 45.6  78 
 BAR2 SZ ES        135  8.19                             156   -0.0810 45.6  78 
 BRR  HZ EP        134 56.68                             146    0.2010 68.0 348 
 BRR  HN ES        135 10.61                             146    0.6010 68.0 348 
 BRR  HZ I         135 13.15         3.2 0.15            149           68.0 348 
 GIR2 SZ EP        134 57.44                             143    0.1410 76.8  34 
 RUS  HZ EP        134 58.81                             139    0.1910 87.6 141 
 RUS  HN ES        135 13.73                             139   -0.0810 87.6 141 
 RUS  HZ I         135 15.80         4.7 0.42            144           87.6 141 
 PTB  HZ EP        134 58.62                             136   -0.0710 96.4 272 
 PTB  HN ES        135 13.35                             136   -0.5910 96.4 272 
 PTB  HZ I         135 18.21         6.4 0.30            138           96.4 272 
 PAM  SZ EP        135  2.58                             126   -0.2610  135  47 
 PAM  SE ES   1    135 20.40                             126   -0.93 7  135  47 
 PAM  SZ I         135 21.58         3.4 0.24            131            135  47 
 GUY2CHZ EP   4    135 17.78                             110    3.20 0  243 234 
 GUY2CHN ES   4    135 47.70                             110    5.47 0  243 234 
                                                                                
