 2012  730 0315  6.8 L   6.761 -73.160149.1  RSN  8 0.4 1.7LRSN                1
 GAP= 73        1.02       5.5     5.4  8.9  0.2668E+01  0.3836E+00  0.5174E+00E
 Epicentro: LOS SANTOS - SANTANDER                                             3
 ACTION:UPD 12-08-14 11:46 OP:ep   STATUS:               ID:20120730031506 L   I
 2012-07-30-0310-00M.COL___215                                                 6
 STAT SP IPHASW D HRMM SECON CODA AMPLIT PERI AZIMU VELO AIN AR TRES W  DIS CAZ7
 BAR2 SZ EP   1    315 26.73                             172     0.0 7   19 187 
 BAR2 SZ ES   1    315 42.16                             172    -0.1 7   19 187 
 BAR2 SZ I         315 42.88        10.4 0.19            172             19 187 
 BRR  HZ EP        315 28.74                             153     0.410   72 302 
 BRR  HZ I         315 31.66        18.5 0.10            152             72 302 
 BRR  HN ES   1    315 46.08                             153     0.9 7   72 302 
 PAM  SZ EP   1    315 29.68                             150     0.1 7   82  38 
 PAM  SZ I         315 30.07        11.2 0.26            150             82  38 
 PAM  SN ES   1    315 46.95                             150    -0.5 7   82  38 
 RUS  HZ EP   1    315 30.56                             146     0.0 7   96 175 
 RUS  HE ES   1    315 49.15                             146     0.0 7   96 175 
 RUS  HZ I         315 50.44         6.1 0.35            145             96 175 
 PTB  HZ EP   1    315 33.34                             133    -0.5 7  145 260 
 PTB  HN ES   1    315 54.12                             133    -0.8 7  145 260 
 PTB  HZ I         315 55.96         4.9 0.15            132            145 260 
 TAM  HZ EP   1    315 34.96                             131     0.2 7  156 103 
 OCA  HN ES   1    315 57.85                             130    -0.5 7  164 354 
 ZAR  HN ES   1    316  5.12                             123     0.2 6  204 293 
