 2010  730 0405 48.5 L   6.744 -73.087144.3  RSN  8 0.4 1.7LRSN                1
 GAP=166        0.97       5.0    10.6  9.2 -0.3506E+01 -0.2322E+02 -0.4693E+01E
 Epicentro: JORDAN - SANTANDER                                                 3
 ACTION:UPD 10-12-01 15:21 OP:pat  STATUS:               ID:20100730040548 L   I
 2010-07-30-0402-36S.COL___123                                                 6
 STAT SP IPHASW D HRMM SECON CODA AMPLIT PERI AZIMU VELO AIN AR TRES W  DIS CAZ7
 BAR2 SZ EP        4 6  7.66                             172    -0.210   20 212 
 BAR2 SZ ES   1    4 6 22.84                             172    -0.1 7   20 212 
 BAR2 SZ I         4 6 24.57        20.9 0.25                            20 212 
 BRR  HZ IP     D  4 6  9.71                             150    -0.310   80 300 
 BRR  HN ES   1    4 6 26.92                             150     0.2 7   80 300 
 BRR  HZ I         4 6 28.89         8.7 0.06                            80 300 
 RUS  HZ EP        4 6 11.74                             145     0.110   94 180 
 RUS  HE ES   2    4 6 30.11                             145     0.4 5   94 180 
 RUS  HZ I         4 6 31.69         4.8 0.48                            94 180 
 GUE  SZ EP   1    4 6 12.89                             138    -0.5 7  121   8 
 GRA  SZ EP        4 6 14.61                             136     0.710  130  14 
 GRA  SZ ES   2    4 6 33.34                             136    -0.4 5  130  14 
 GRA  SZ I         4 6 35.80         5.2 0.34                           130  14 
 OCA  SZ EP   2    4 6 16.43                             128    -0.9 5  167 351 
 OCA  SZ ES   2    4 6 40.32                             128     0.5 5  167 351 
 OCA  SZ I         4 6 42.56         5.1 0.48                           167 351 
 CHI  HE ES   2    4 6 54.17                             117    -0.4 4  245 197 
 HEL  HZ EP   2    4 6 29.81                             114     0.7 4  277 257 
 HEL  HZ I         4 7  6.87         2.4 0.26                           277 257 
                                                                                
