 2014  630 0231 30.2 L   6.278 -73.654108.5  RSN  5 0.3 1.2LRSN                1
 GAP= 90        0.90       3.8     3.9  8.3 -0.1113E+01  0.8875E+01 -0.3099E+01E
 Epicentro: SANTA HELENA DEL OPON - SANTANDER                                  3
 ACTION:UPD 14-07-01 22:58 OP:nd   STATUS:               ID:20140630023130 L   I
 OLDACT:REG 14-06-30 14:29 OP:stll STATUS:               ID:20140630022812     3
 2014-06-30-0228-12M.COL___247                                                 6
 STAT SP IPHASW D HRMM SECON CODA AMPLIT PERI AZIMU VELO AIN AR TRES W  DIS CAZ7
 BAR2 SZ EP        231 47.42                             148    0.2010 62.7  56 
 BAR2 SZ I         231 47.50         8.2 0.72            154           62.7  56 
 BAR2 SZ ES        232  0.66                             148    0.1610 62.7  56 
 RUS  HN ES        232  2.28                             143   -0.5410 76.2 124 
 RUS  HZ I         232  3.31         1.2 0.34            146           76.2 124 
 SPBC HZ EP        231 48.50                             140    0.0010 83.2 214 
 SPBC HN ES        232  3.34                             140    0.5610 83.2 214 
 SPBC HZ I         232  9.27         3.7 0.36            141           83.2 214 
 BRR  HZ EP        231 49.32                             136    0.2410 91.9 356 
 BRR  HN ES        232  3.91                             136    0.1010 91.9 356 
 BRR  HZ I         232  6.15         5.7 0.18            141           91.9 356 
 PTB  HZ EP        231 48.83                             136   -0.3910 93.3 288 
 PTB  HN ES        232  3.72                             136   -0.3410 93.3 288 
 PTB  HZ I         232  4.52         7.0 0.38            138           93.3 288 
                                                                                
