 2011  530 0958 13.3 L   6.789 -73.136145.8  RSN 10 0.3 2.2LRSN                1
 GAP=138        0.59       3.0     4.6  5.2 -0.8277E+01  0.1143E+02 -0.2829E+01E
 Epicentro: LOS SANTOS - SANTANDER                                             3
 ACTION:UP  11-06-29 08:57 OP:tino STATUS:               ID:20110530095813 L   I
 2011-05-30-0955-39S.COL___113                                                 6
 STAT SP IPHASW D HRMM SECON CODA AMPLIT PERI AZIMU VELO SNR AR TRES W  DIS CAZ7
 BAR2 SZ EP   1    958 32.74                             171    -0.1 7   22 193 
 BAR2 SZ ES   1    958 47.94                             171    -0.2 7   22 193 
 BAR2 SZ I         958 49.44        75.2 0.18                            22 193 
 BRR  HZ EP   1    958 34.60                             152     0.1 7   73 299 
 BRR  HZ I         958 52.50        28.2 0.16                            73 299 
 PAM  SZ EP   1    958 35.55                             151     0.1 7   78  38 
 PAM  SN ES   1    958 53.03                             151     0.2 7   78  38 
 RUS  HZ EP   1    958 36.63                             144    -0.3 7   99 177 
 RUS  HE ES   1    958 55.52                             144     0.1 7   99 177 
 RUS  HZ I         958 56.68        19.2 0.34                            99 177 
 BRI  SZ EP   1    958 37.33                             141     0.1 7  109  20 
 BRI  SZ ES   1    958 56.17                             141     0.3 7  109  20 
 BRI  SZ I         959  1.24        12.0 0.55                           109  20 
 GRA  SZ EP   1    958 38.57                             137     0.0 7  127  17 
 GRA  SZ I         958 39.99        15.7 0.23                           127  17 
 GRA  SZ ES   1    958 58.20                             137    -0.1 7  127  17 
 OCA  SZ EP   1    958 41.30                             129    -0.4 7  162 353 
 OCA  SZ I         959 10.37        13.1 0.41                           162 353 
 NOR  SN ES   1    959 16.55                             118    -0.4 6  235 235 
 HEL  HZ EP   1    958 53.93                             115     0.4 6  273 256 
 HEL  HN ES   1    959 25.14                             115     0.1 6  273 256 
 HEL  HZ I         959 31.44         6.2 0.33                           273 256 
 PRA  HZ EP   1    959  6.52                             106    -0.2 4  392 210 
 PRA  HN ES   1    959 49.28                             106     0.8 4  392 210 
 PRA  HZ I         959 54.55        17.2 0.26                           392 210 
                                                                                
