 2016 1130 0623 50.1 L   6.737 -73.160143.5  RSN  5 0.5 1.4LRSN                1
 GAP=151        1.34      11.1     6.4 10.7 -0.1582E+02  0.1482E+02  0.2350E+01E
 Epicentro: LOS SANTOS - SANTANDER                                             3
 ACTION:UPD 17-10-26 21:13 OP:lp   STATUS:               ID:20161130062350 L   I
 OLDACT:UP  16-11-30 19:55 OP:nlst STATUS:               ID:20161130062350 L   3
 OLDACT:DUP 16-11-30 19:29 OP:dani STATUS:               ID:20161130061539d    3
 OLDACT:UP  16-11-30 19:27 OP:dani STATUS:               ID:20161130061538d    3
 OLDACT:DUP 16-11-30 19:25 OP:dani STATUS:               ID:20161130061538d    3
 OLDACT:REG 16-11-30 13:23 OP:dani STATUS:               ID:20161130061537     3
 2016-11-30-0618-00M.COL___343                                                 6
 STAT SP IPHASW D HRMM SECON CODA AMPLIT PERI AZIMU VELO AIN AR TRES W  DIS CAZ7
 BAR2 EZ EP        624  9.57                             173    0.2410 16.1 189 
 BAR2 EZ ES        624 24.44                             173    0.1110 16.1 189 
 BAR2 EZ I         624 25.40         6.8 0.18            175           16.1 189 
 BRR  HZ EP        624 11.65                             151    0.5210 73.5 304 
 BRR  HN ES        624 28.37                             151    0.8310 73.5 304 
 BRR  HZ I         624 32.64         4.9 0.25            150           73.5 304 
 PAM  EZ EP        624 12.61                             148    0.1310 83.9  37 
 PAM  EN ES        624 29.09                             148   -0.8410 83.9  37 
 PAM  EZ I         624 31.54         3.2 0.47            150           83.9  37 
 PTB  HZ EP        624 16.41                             132   -0.22 9  145 261 
 PTB  HN ES        624 36.56                             132   -0.76 9  145 261 
 PTB  HZ I         624 39.68         2.6 0.25            134            145 261 
 ZAR  HN ES        624 47.64                             122   -0.19 8  205 294 
                                                                                
