 2014  430 0208 24.1 L   6.814 -73.133146.4  RSN 20 0.5 2.7LRSN                1
 GAP= 71        1.12       2.7     3.0  5.6 -0.1118E+01  0.3652E+01  0.2379E+01E
 Epicentro: LOS SANTOS - SANTANDER                                             3
 OLDACT:REG 14-04-30 14:08 OP:fm   STATUS:               ID:20140430020748     3
 ACTION:UPD 14-05-13 20:49 OP:nd   STATUS:               ID:20140430020824 L   I
 OLDACT:UP  14-04-30 14:56 OP:fm   STATUS:               ID:20140430020748     3
 2014-04-30-0207-48M.COL___251                                                 6
 STAT SP IPHASW D HRMM SECON CODA AMPLIT PERI AZIMU VELO AIN AR TRES W  DIS CAZ7
 BRR  HZ EP        2 8 45.85                             152    0.5310 71.7 297 
 BRR  HN ES        2 9  2.79                             152    0.9010 71.7 297 
 PAM  SZ EP        2 8 46.64                             151    0.4010 75.4  39 
 PAM  SN ES        2 9  3.62                             151    0.0910 75.4  39 
 PAM  HZ I         2 9  5.83        83.9 0.30            156           75.4  39 
 RUS  HZ EP        2 8 47.73                             144   -0.2610  102 177 
 RUS  HN ES        2 9  6.13                             144   -0.5110  102 177 
 PTB  HZ EP        2 8 50.46                             132   -0.78 9  149 258 
 PTB  HN ES        2 9 11.56                             132   -0.87 9  149 258 
 PTB  HZ I         2 9 17.41        70.4 0.54            132            149 258 
 TAM  HZ IP     D  2 8 52.05                             131    0.33 9  154 106 
 TAM  HN ES        2 9 13.35                             131    0.07 9  154 106 
 OCA  HZ EP        2 8 52.32                             130    0.01 9  159 353 
 OCA  HE ES        2 9 13.89                             130   -0.44 9  159 353 
 OCA  HZ I         2 9 19.94        54.4 0.40            133            159 353 
 SPBC HZ EP        2 8 52.65                             129   -0.16 9  165 219 
 SPBC HN ES        2 9 15.15                             129   -0.08 9  165 219 
 SPBC HZ I         2 9 19.76        80.7 0.26            130            165 219 
 ZAR  HZ EP        2 8 55.92                             122   -0.71 9  205 292 
 ZAR  HE ES        2 9 22.10                             122    0.07 9  205 292 
 ZAR  HZ I         2 9 28.15        52.5 0.32            124            205 292 
 NOR  HZ EP        2 8 59.95                             118   -0.10 8  237 234 
 NOR  HN ES        2 9 27.52                             118   -0.59 8  237 234 
 NOR  HZ I         2 9 36.09        29.0 0.16            120            237 234 
 SML  HZ EP        2 9  0.38                             118   -0.27 8  243 335 
 SML  HE ES        2 9 29.58                             118    0.40 8  243 335 
 SML  HZ I         2 9 31.91        55.6 0.08            120            243 335 
 CHI  HZ EP   1    2 9  1.67                             117   -0.33 6  250 195 
 CHI  HN ES        2 9 31.62                             117    0.03 8  250 195 
 CHI  HZ I         2 9 34.90        19.4 0.50            119            250 195 
 ROSC BZ EP   1    2 9  3.48                             117    1.03 6  255 211 
 ROSC BN ES   4    2 9 34.24                             117    1.87 0  255 211 
 ROSC HZ I         2 9 41.64        52.8 0.50            118            255 211 
 HEL  HZ EP        2 9  5.30                             115    0.79 8  274 256 
 HEL  HN ES        2 9 36.25                             115    0.21 8  274 256 
 HEL  HZ I         2 9 42.53        28.6 0.38            116            274 256 
 URE  HE ES   4    2 9 34.43                             114   -2.94 0  285 292 
 GUY2CHZ EP        2 9  8.45                             112    0.51 7  303 235 
 GUY2CHN ES   4    2 9 43.97                             112    1.83 0  303 235 
 GUY2CHZ I         2 9 50.38        33.6 0.38                           303 235 
 RREF HZ EP        2 9 10.95                             111    0.48 7  324 229 
 RREF HN ES        2 9 47.38                             111    0.72 7  324 229 
 RREF HZ I         2 9 54.83        26.1 0.72            112            324 229 
 CBOC HZ EP        2 9 11.55                             110    0.33 7  335 252 
 CBOC HE ES        2 9 47.40                             110   -0.58 7  335 252 
 SDV  BZ EP   1    2 9 12.90                             108   -1.01 5  358  50 
 ANIL HN ES   4    2 9 55.15                             108    1.97 0  359 225 
 PRA  HZ EP        2 9 17.25                             106   -0.60 6  394 210 
 PRA  HN ES        210  0.01                             106    0.22 6  394 210 
 PRA  HZ I         210  5.02        25.0 0.30            108            394 210 
 ORTC HZ EP   2    2 9 18.22                             106   -0.03 3  397 216 
 ORTC HN ES   1    210  1.29                             106    0.78 4  397 216 
 ORTC HZ I         210  8.44        16.9 0.20            108            397 216 
 SJC  HZ EP   4    2 9 17.90                             106   -1.70 0  409 327 
 SJC  HN ES   4    2 9 57.49                             106   -5.41 0  409 327 
 SJC  HZ I         210  4.92         8.6 1.30            107            409 327 
 SMAR HN ES   4    210 16.19                             102   -4.93 0  496 346 
 MACC HN ES   4    210 21.57                             102   -5.20 0  522 189 
