 2016  930 0005 23.6 L   6.904 -73.151146.7  RSN  7 0.2 1.4LRSN                1
 GAP=130        0.44       2.3     2.5  3.7 -0.2579E+01 -0.1120E+01  0.2192E+01E
 Epicentro: PIEDECUESTA - SANTANDER                                            3
 ACTION:UPD 17-08-17 21:17 OP:lp   STATUS:               ID:20160930000523 L   I
 OLDACT:UP  16-09-30 12:58 OP:edw  STATUS:               ID:20160930000000     3
 OLDACT:UP  16-09-30 12:58 OP:edw  STATUS:               ID:20160930000000     3
 OLDACT:UP  16-09-30 12:57 OP:edw  STATUS:               ID:20160930000000     3
 OLDACT:UP  16-09-30 12:57 OP:edw  STATUS:               ID:20160930000000     3
 OLDACT:UP  16-09-30 12:56 OP:edw  STATUS:               ID:20160930000000     3
 OLDACT:UP  16-09-30 12:53 OP:edw  STATUS:               ID:20160930000000     3
 OLDACT:REG 16-09-30 11:40 OP:edw  STATUS:               ID:20160930000000     3
 2016-09-30-0000-15M.COL___375                                                 6
 STAT SP IPHASW D HRMM SECON CODA AMPLIT PERI AZIMU VELO AIN AR TRES W  DIS CAZ7
 BRR  HZ EP        0 5 44.56                             154   -0.0410 65.9 290 
 BRR  HN ES        0 6  1.05                             154    0.1010 65.9 290 
 BRR  HZ I         0 6  5.12         4.9 0.14            151           65.9 290 
 PAM  EZ EP        0 5 45.57                             154    0.0710 69.4  46 
 PAM  EN ES        0 6  2.43                             154   -0.1210 69.4  46 
 PAM  EZ I         0 6  4.54         5.7 0.28            155           69.4  46 
 RUS  HZ EP        0 5 48.32                             141   -0.0110  112 176 
 RUS  HN ES        0 6  7.77                             141    0.1710  112 176 
 RUS  HZ I         0 6  8.42         1.9 0.30            145            112 176 
 PTB  HZ EP   9    0 5 50.16                             132   -0.71 0  150 254 
 PTB  HN ES        0 6 11.36                             121   -0.04 9  150 254 
 PTB  HZ I         0 6 15.64         3.6 0.20            131            150 254 
 SPBC HZ EP   4    0 5 58.26                             128    5.22 0  172 216 
 SPBC HN ES        0 6 15.62                             128   -0.35 9  172 216 
 ZAR  HZ EP   4    0 6  6.07                             123   10.40 0  199 289 
 ZAR  HN ES   4    0 6 23.87                             123    3.21 0  199 289 
 ZAR  HZ I         0 6 25.79         3.3 0.12            123            199 289 
 NOR  HN ES        0 6 28.73                             118    0.18 8  241 232 
 GUY2CHN ES   4    0 6 47.48                             112    4.88 0  307 233 
 SJC  HZ EP   4    0 6 16.46                             106   -1.61 0  399 326 
 SJC  HE ES   4    0 6 57.75                             106   -2.78 0  399 326 
                                                                                
