 2016  630 0628 34.3 L   6.785 -73.123147.2  RSN 25 0.5 2.7LRSN                1
 GAP= 67        1.01       2.4     2.5  4.2 -0.1555E+00  0.2369E+01  0.2335E+01E
 Epicentro: LOS SANTOS - SANTANDER                                             3
 ACTION:UPD 16-07-21 22:24 OP:rebc STATUS:               ID:20160630062834 L   I
 OLDACT:UP  16-06-30 16:33 OP:edw  STATUS:               ID:20160630062747     3
 OLDACT:REG 16-06-30 13:24 OP:edw  STATUS:               ID:20160630062747     3
 2016-06-30-0627-47M.COL___346                                                 6
 STAT SP IPHASW D HRMM SECON CODA AMPLIT PERI AZIMU VELO AIN AR TRES W  DIS CAZ7
 BAR2 EZ IP     D  628 54.09                             171   -0.0310 22.3 197 
 BAR2 EZ ES        629  9.43                             171   -0.1310 22.3 197 
 BAR2 EZ I         629 10.36       126.2 0.22                          22.3 197 
 BRR  HZ EP        628 56.00                             152    0.1910 74.1 299 
 BRR  HN ES        629 13.34                             152    0.7810 74.1 299 
 BRR  HZ I         629 17.12        76.6 0.12                          74.1 299 
 PAM  EZ IP     C  628 57.11                             151    0.4210 77.1  37 
 PAM  EN ES        629 14.05                             151   -0.0810 77.1  37 
 PAM  EZ I         629 16.30       168.5 0.50                          77.1  37 
 RUS  HZ EP        628 58.32                             145    0.2110 98.8 177 
 RUS  HN ES        629 17.03                             145    0.3810 98.8 177 
 RUS  HZ I         629 18.02        72.6 0.30                          98.8 177 
 PTB  HZ EP        629  1.02                             132   -0.60 9  150 260 
 PTB  HN ES        629 22.05                             132   -0.84 9  150 260 
 PTB  HZ I         629 26.93        36.9 0.22                           150 260 
 TAM  HZ EP        629  2.12                             131    0.24 9  152 105 
 TAM  HN ES        629 23.51                             131    0.16 9  152 105 
 SPBC HZ EP        629  3.01                             129    0.03 9  163 220 
 SPBC HN ES        629 24.97                             129   -0.35 9  163 220 
 SPBC HZ I         629 31.44        77.5 0.42                           163 220 
 ZAR  HZ EP        629  6.60                             122   -0.58 8  207 292 
 ZAR  HN ES        629 32.28                             122   -0.51 8  207 292 
 NOR  HZ EP        629 10.36                             119    0.09 8  236 235 
 NOR  HN ES        629 37.78                             119   -0.51 8  236 235 
 NOR  HZ I         629 45.98        35.7 0.16                           236 235 
 CHI  HZ EP        629 12.32                             118    0.30 8  248 196 
 CHI  HN ES        629 41.74                             118    0.33 8  248 196 
 CHI  HZ I         629 45.38        32.2 0.54                           248 196 
 ROSC BZ EP   4    629 14.30                             117    1.77 0  253 212 
 ROSC BN ES        629 42.48                             117    0.17 8  253 212 
 ROSC BZ I         629 47.96        54.4 0.40                           253 212 
 HEL  HZ EP        629 15.38                             115    0.53 8  274 256 
 HEL  HN ES        629 46.23                             115   -0.21 8  274 256 
 HEL  HZ I         629 53.15        22.1 0.40                           274 256 
 URE  HZ EP   4    629 14.81                             114   -0.99 0  287 292 
 URE  HN ES   4    629 46.70                             114   -1.44 0  287 292 
 URE  HZ I         629 54.69        25.8 0.20                           287 292 
 SOCV BZ EP   4    629 17.25                             112   -0.07 0  300  56 
 SOCV BN ES   4    629 48.72                             112   -2.13 0  300  56 
 VIL  SZ EP        629 17.83                             112    0.13 7  302 192 
 GUY2CHN ES        629 52.93                             113    0.63 7  302 235 
 GUY2CHZ I         630  0.28        27.5 0.32                           302 235 
 VIL  SN ES        629 51.27                             112   -0.25 7  302 192 
 GUY2CHZ EP        629 18.31                             113    0.17 7  302 235 
 PTGC HZ EP        629 17.27                             112   -0.72 7  306 159 
 PTGC HN ES        629 50.94                             112   -1.10 7  306 159 
 PTGC HZ I         629 55.53        37.2 0.30                           306 159 
 LL6C HZ EP   4    629 18.62                             111   -1.68 0  327 357 
 LL6C HE ES   2    629 53.82                             111   -2.33 3  327 357 
 ELA  HZ EP   4    629 23.34                             111    1.99 0  330 230 
 ELA  HN ES   4    629 58.81                             111    0.80 0  330 230 
 CBOC HZ EP        629 21.78                             110    0.25 7  335 252 
 CBOC HE ES        629 59.03                             110    0.70 7  335 252 
 CBOC HZ I         630  2.27         7.4 0.18                           335 252 
 DBB  SZ EP   4    629 21.65                             110   -0.52 0  342 274 
 DBB  SZ ES   4    629 57.09                             110   -2.39 0  342 274 
 DBB  SZ I         629 59.73        50.2 0.30                           342 274 
 ANIL HZ EP        629 24.94                             109    0.67 6  358 225 
 ANIL HE ES        630  3.56                             109    0.35 6  358 225 
 ANIL HZ I         630  8.74        54.5 0.44                           358 225 
 ARGC HZ EP        629 24.76                             108    0.44 6  362 340 
 ARGC HN ES        630  3.38                             108    0.07 6  362 340 
 ARGC HZ I         630  8.14         8.0 0.22                           362 340 
 PRA  HZ EP        629 28.00                             107    0.11 6  392 210 
 PRA  HN ES        630  8.56                             107   -1.10 6  392 210 
 PRA  HZ I         630 16.62        17.6 0.16                           392 210 
 PAL  HZ EP        629 29.68                             106   -0.02 6  407 239 
 PAL  HN ES        630 12.74                             106   -0.14 6  407 239 
 PAL  HZ I         630 16.54         8.6 0.21                           407 239 
 SJC  HZ EP   4    629 28.29                             106   -1.98 0  412 327 
 SJC  HN ES   4    630  9.29                             106   -4.60 0  412 327 
 CRJC HZ EP   4    629 34.43                             103   -2.62 0  469   3 
 CRJC HN ES   4    630 22.15                             103   -3.82 0  469   3 
 GUA  SZ EP        629 37.12                             103   -0.19 5  472 173 
 GUA  SN ES        630 25.96                             103   -0.46 5  472 173 
 GUA  SZ I         630 29.17        23.7 0.22                           472 173 
 YOT  HZ EP        629 37.81                             103    0.29 5  473 229 
 YOT  HN ES        630 27.10                             103    0.30 5  473 229 
                                                                                
