 2011 1030 0106 19.2 L   6.735 -73.062139.6  RSN  6 0.4 1.5LRSN                1
 GAP=151        0.85       4.8     7.9  8.8  0.3886E+00 -0.1390E-01 -0.5750E+01E
 Epicentro: JORDAN - SANTANDER                                                 3
 ACTION:UPD 12-07-13 16:06 OP:ep   STATUS:               ID:20111030010619 L   I
 2011-10-30-0104-47S.COL___157                                                 6
 STAT SP IPHASW D HRMM SECON CODA AMPLIT PERI AZIMU VELO AIN AR TRES W  DIS CAZ7
 BAR2 SZ EP        1 6 37.56                             171   -0.4510 20.7 220 
 BAR2 SZ I         1 6 53.89         5.6 0.24                          20.7 220 
 PAM  SZ EP        1 6 41.05                             149    0.2810 77.9  31 
 PAM  SN ES   1    1 6 57.35                             149   -0.26 7 77.9  31 
 BRR  HZ EP        1 6 39.97                             148   -0.4110 82.8 300 
 BRR  HN ES   1    1 6 57.17                             148    0.25 7 82.8 300 
 BRR  HZ I         1 7  1.93        10.2 0.14                          82.8 300 
 RUS  HZ EP        1 6 41.70                             145   -0.0910 93.2 181 
 RUS  HN ES   1    1 6 59.97                             145    0.54 7 93.2 181 
 RUS  HZ I         1 7  1.53         4.3 0.26                          93.2 181 
 OCA  SZ EP        1 6 48.24                             127    0.41 9  169 350 
 OCA  SZ I         1 7 19.36         5.4 0.53                           169 350 
 ZAR  HZ EP   3    1 6 53.37                             120    0.95 2  215 293 
                                                                                
