 2014  430 0738 35.4 L   6.735 -73.281118.9  RSN  4 0.4 1.3LRSN                1
 GAP=231        0.89      10.2    11.4 20.4  0.7702E+02 -0.1106E+03 -0.1530E+03E
 Epicentro: ZAPATOCA - SANTANDER                                               3
 OLDACT:REG 14-04-30 14:08 OP:fm   STATUS:               ID:20140430073741     3
 ACTION:UPD 14-05-13 20:49 OP:nd   STATUS:               ID:20140430073835 L   I
 OLDACT:UP  14-04-30 18:23 OP:fm   STATUS:               ID:20140430073741     3
 2014-04-30-0737-41M.COL___242                                                 6
 STAT SP IPHASW D HRMM SECON CODA AMPLIT PERI AZIMU VELO AIN AR TRES W  DIS CAZ7
 RUS  HN ES   2    739 12.41                             139   -0.00 5 95.7 167 
 PTB  HZ EP   1    738 57.89                             128   -0.82 7  132 261 
 PTB  HN ES        739 16.63                             128   -0.3010  132 261 
 PTB  HZ I         739 20.63         4.2 1.28            136            132 261 
 SPBC HE ES   1    739 20.47                             125    0.47 7  148 216 
 ZAR  HZ EP        739  5.35                             117    0.32 9  193 296 
 ZAR  HE ES        739 28.47                             117    0.30 9  193 296 
 ZAR  HZ I         739 35.55         1.5 0.26            123            193 296 
