 2013  630 0742 31.6 L   6.746 -73.127147.6  RSN  5 0.4 1.2LRSN                1
 GAP=188        0.96       7.0     6.8  7.8  0.1607E+02  0.1696E+01 -0.7882E+01E
 Epicentro: JORDAN - SANTANDER                                                 3
 ACTION:UPD 14-01-08 09:58 OP:ep   STATUS:               ID:20130630074231 L   I
 OLDACT:REG 13-06-30 07:47 OP:jn   STATUS:               ID:20130630073959     3
 2013-06-30-0739-59M.COL___267                                                 6
 STAT SP IPHASW D HRMM SECON CODA AMPLIT PERI AZIMU VELO AIN AR TRES W  DIS CAZ7
 BAR2 SZ EP        742 51.39                             173    0.0610 18.0 200 
 BAR2 SZ ES        743  6.22                             173   -0.5210 18.0 200 
 BAR2 SZ I         743  8.46         3.9 0.35            173           18.0 200 
 GIR2 SZ EP        742 51.49                             165   -0.1510 37.6 349 
 BRR  HZ EP        742 53.28                             151    0.0910 76.0 302 
 BRR  HN ES        743 10.57                             151    0.5110 76.0 302 
 BRR  HZ I         743 14.99         3.0 0.46            152           76.0 302 
 RUS  HZ EP   1    742 55.80                             146    0.73 7 94.4 177 
 RUS  HN ES        743 13.48                             146    0.0710 94.4 177 
 RUS  HZ I         743 15.37         1.5 0.70            150           94.4 177 
 PTB  HZ EP        742 58.20                             132   -0.58 9  149 261 
 PTB  HN ES        743 20.04                             132    0.04 9  149 261 
 PTB  HZ I         743 21.97         2.4 0.20            134            149 261 
                                                                                
