 2011  130 0335 45.4 L   6.805 -73.238138.3  RSN  8 0.6 2.2LRSN                1
 GAP=144        1.77       5.7    19.7 14.3 -0.4438E+02  0.1547E+03 -0.1603E+02E
 Epicentro: ZAPATOCA - SANTANDER                                               3
 ACTION:UP  11-02-08 08:43 OP:pat  STATUS:               ID:20110130033545 L   I
 2011-01-30-0333-40S.COL___138                                                 6
 STAT SP IPHASW D HRMM SECON CODA AMPLIT PERI AZIMU VELO SNR AR TRES W  DIS CAZ7
 BTL  SZ IP     D  336  3.12                             175    -0.910   13 346 
 BAR2 SZ IP     C  336  4.03                             169    -0.110   24 166 
 BAR2 SZ ES        336 18.67                             169    -0.110   24 166 
 BAR2 SZ I         336 20.13        43.6 0.33                            24 166 
 RUS  HZ EP        336  8.08                             141    -0.510  102 170 
 RUS  HN ES        336 26.95                             141     0.310  102 170 
 RUS  HZ I         336 27.85        23.4 0.32                           102 170 
 GRA  SZ IP     C  336 10.87                             134     0.610  129  22 
 GRA  SZ ES        336 30.62                             134     1.010  129  22 
 GRA  SZ I         336 31.85        30.3 0.32                           129  22 
 OCA  SZ EP        336 12.63                             128    -0.4 9  159 357 
 OCA  SZ ES        336 33.87                             128    -0.7 9  159 357 
 OCA  SZ I         336 39.36        19.7 0.57                           159 357 
 NOR  SZ EP   1    336 20.10                             118     0.2 6  227 233 
 CHI  HZ EP        336 22.26                             115    -0.2 8  247 193 
 CHI  HE ES        336 51.68                             115     0.3 8  247 193 
 CHI  HZ I         336 55.25        15.4 0.60                           247 193 
 HEL  HZ EP   1    336 25.82                             114     1.7 6  262 255 
 HEL  HZ I         337  2.12        10.3 0.44                           262 255 
                                                                                
