 2017  530 0511 23.2 L   6.881 -73.037139.8  RSN 12 0.6 1.9LRSN                1
 GAP=178        0.80       3.2     4.6  5.6  0.6676E+01 -0.5695E+01 -0.2564E+01E
 Epicentro: PIEDECUESTA - SANTANDER                                            3
 ACTION:UPD 17-06-16 13:40 OP:jn   STATUS:               ID:20170530051123 L   I
 OLDACT:UP  17-05-30 15:37 OP:and  STATUS:               ID:20170530050739     3
 OLDACT:UP  17-05-30 15:37 OP:and  STATUS:               ID:20170530050739     3
 OLDACT:UP  17-05-30 15:36 OP:and  STATUS:               ID:20170530050739     3
 OLDACT:UP  17-05-30 15:32 OP:and  STATUS:               ID:20170530050739     3
 OLDACT:UP  17-05-30 15:32 OP:and  STATUS:               ID:20170530050739     3
 OLDACT:UP  17-05-30 15:32 OP:and  STATUS:               ID:20170530050739     3
 OLDACT:UP  17-05-30 15:31 OP:and  STATUS:               ID:20170530050739     3
 OLDACT:UP  17-05-30 15:31 OP:and  STATUS:               ID:20170530050739     3
 OLDACT:UP  17-05-30 15:30 OP:and  STATUS:               ID:20170530050739     3
 OLDACT:UP  17-05-30 15:28 OP:and  STATUS:               ID:20170530050739     3
 OLDACT:UP  17-05-30 15:28 OP:and  STATUS:               ID:20170530050739     3
 OLDACT:UP  17-05-30 15:27 OP:and  STATUS:               ID:20170530050739     3
 OLDACT:UP  17-05-30 15:27 OP:and  STATUS:               ID:20170530050739     3
 OLDACT:REG 17-05-30 12:23 OP:and  STATUS:               ID:20170530050739     3
 2017-05-30-0508-00M.COL___347                                                 6
 STAT SP IPHASW D HRMM SECON CODA AMPLIT PERI AZIMU VELO AIN AR TRES W  DIS CAZ7
 BRR  HZ IP     C  511 44.26                             149    0.0510 78.7 289 
 BRR  HN ES        512  0.96                             149    0.4010 78.7 289 
 BRR  HZ I         512  6.50        24.1 0.12            147           78.7 289 
 RUS  HZ EP        511 46.86                             140   -0.2310  109 183 
 RUS  HN ES        512  5.07                             140   -0.6210  109 183 
 RUS  HZ I         512  6.83        10.6 0.26            140            109 183 
 PTB  HZ EP   9    511 49.49                             128   -1.53 0  161 257 
 PTB  HN ES        512 11.27                             130    0.11 9  161 257 
 PTB  HZ I         512 17.05        11.2 0.18            127            161 257 
 SPBC HZ EP   2    511 52.03                             125   -0.70 4  178 220 
 SPBC HN ES        512 15.70                             125   -0.02 9  178 220 
 SPBC HZ I         512 19.48        13.4 0.20            125            178 220 
 YPLC HZ EP        511 53.10                             125    0.22 9  180 156 
 YPLC HN ES   2    512 16.98                             125    0.98 4  180 156 
 YPLC HZ I         512 21.48         7.6 0.36            126            180 156 
 ZAR  HZ EP   2    511 55.32                             120   -0.85 4  212 289 
 ZAR  HN ES        512 21.79                             120   -0.05 8  212 289 
 ZAR  HZ I         512 23.94        11.5 0.05            120            212 289 
 CHI  HZ EP        512  2.20                             114    0.26 8  261 197 
 CHI  HN ES        512 32.36                             114    0.24 8  261 197 
 CHI  HZ I         512 36.80         2.1 0.20            115            261 197 
 ROSC BN ES   4    512 35.69                             114    2.41 0  267 212 
 ROSC BZ I         512 38.72         7.5 0.45            114            267 212 
 HEL  HZ EP        512  5.13                             112    0.41 7  286 255 
 HEL  HN ES   3    512 34.97                             112   -2.11 2  286 255 
 HEL  HZ I         512 41.14         5.3 0.34            112            286 255 
 CBOC HZ EP        512 11.71                             108    0.14 6  348 251 
 CBOC HN ES   3    512 47.29                             108   -1.97 2  348 251 
 CBOC HZ I         512 58.64         2.6 0.54            108            348 251 
 DBB  EN ES   4    512 46.75                             108   -2.95 0  351 273 
 DBB  EZ I         512 49.59         5.6 0.18            108            351 273 
 ARGC HZ EP   3    512 13.68                             107    1.48 2  355 338 
 ARGC HN ES        512 50.03                             107   -0.35 6  355 338 
 ARGC HZ I         512 59.19         1.7 0.34            108            355 338 
                                                                                
