 2014  130 0724 58.8 L   5.938 -73.774108.9  RSN  6 0.5 1.3LRSN                1
 GAP=133        1.39       7.1     4.7 10.1 -0.1385E+02  0.1125E+02 -0.7163E+00E
 Epicentro: GUAVATA - SANTANDER                                                3
 ACTION:UPD 14-03-13 09:59 OP:ep   STATUS:               ID:20140130072458 L   I
 OLDACT:REG 14-01-30 08:19 OP:stll STATUS:               ID:20140130071806     3
 2014-01-30-0718-06M.COL___227                                                 6
 STAT SP IPHASW D HRMM SECON CODA AMPLIT PERI AZIMU VELO AIN AR TRES W  DIS CAZ7
 SPBC HZ EP        725 14.34                             156   -0.3010 45.7 226 
 SPBC HZ I         725 14.37         8.2 0.26            157           45.7 226 
 SPBC HN ES        725 26.74                             156   -0.2910 45.7 226 
 RUS  HZ EP        725 17.08                             142   -0.0910 76.6  94 
 RUS  HN ES        725 31.37                             142   -0.1510 76.6  94 
 BAR2 SZ EP        725 18.95                             135    0.4510 97.6  42 
 BAR2 SZ ES        725 34.55                             135    0.6610 97.6  42 
 BAR2 SZ I         725 35.85        14.0 0.56            136           97.6  42 
 PTB  HZ EP        725 18.05                             134   -0.4210  101 311 
 PTB  HE ES        725 33.52                             134   -0.3110  101 311 
 PTB  HZ I         725 35.80         1.7 0.12            134            101 311 
 NOR  HZ EP        725 20.25                             126   -0.8410  128 251 
 NOR  HN ES        725 38.73                             126    0.2310  128 251 
 NOR  HZ I         725 39.83         6.3 0.14            128            128 251 
 GUY2CHZ EP        725 28.45                             115   -0.04 9  193 246 
 GUY2CHE ES        725 53.06                             115    1.38 9  193 246 
 GUY2CHZ I         725 55.73         1.2 0.74                           193 246 
                                                                                
