 2010  830 0810  4.9 L   6.823 -73.079144.0  RSN  7 0.4 1.9LRSN                1
 GAP=172        0.69       3.9     7.1  6.4  0.8710E+00 -0.5164E+01 -0.4423E+01E
 Epicentro: LOS SANTOS - SANTANDER                                             3
 ACTION:UP  10-09-07 10:59 OP:vdl  STATUS:               ID:20100830081004 L   I
 2010-08-30-0807-52S.COL___120                                                 6
 STAT SP IPHASW D HRMM SECON CODA AMPLIT PERI AZIMU VELO SNR AR TRES W  DIS CAZ7
 BAR2 SZ EP        810 24.42                             169     0.010   28 204 
 BAR2 SZ ES   1    810 39.26                             169    -0.4 7   28 204 
 BAR2 SZ I         810 40.67        13.3 0.08                            28 204 
 BRR  HZ EP   1    810 26.27                             151     0.1 7   77 294 
 BRR  HE ES   1    810 43.12                             151     0.4 7   77 294 
 BRR  HZ I         810 47.66        20.7 0.14                            77 294 
 RUS  HZ EP   1    810 28.49                             143    -0.1 7  103 180 
 RUS  HN ES   2    810 47.47                             143     0.3 5  103 180 
 RUS  HZ I         810 49.09         4.6 0.41                           103 180 
 GUE  SZ EP   1    810 29.28                             140     0.2 7  113   9 
 OCA  SZ EP        810 32.91                             130     0.0 9  159 350 
 OCA  SZ ES   1    810 54.42                             130    -0.4 7  159 350 
 OCA  SZ I         810 58.85         7.8 0.27                           159 350 
 HEL  HZ EP   2    810 46.69                                     0.8 4  280 256 
 HEL  HE ES   2    811 16.91                             114    -0.9 4  280 256 
 HEL  HZ I         811 24.24         5.3 0.20                           280 256 
 PRA  HZ EP   2    810 58.62                             106    -0.4 3  398 210 
 PRA  HZ I         811 47.48         3.7 0.24                           398 210 
                                                                                
