 2016  130 0150 55.4 L   7.447 -73.188133.4  RSN 13 0.4 2.3LRSN                1
 GAP=112        0.90       2.5     3.7  6.0  0.6907E+00  0.9769E+01  0.2477E+01E
 Epicentro: EL PLAYON - SANTANDER                                              3
 ACTION:UPD 16-03-09 23:29 OP:cam  STATUS:               ID:20160130015055 L   I
 OLDACT:REG 16-01-30 11:42 OP:mh   STATUS:               ID:20160130012400     3
 2016-01-30-0123-59S.COL___229                                                 6
 STAT SP IPHASW D HRMM SECON CODA AMPLIT PERI AZIMU VELO AIN AR TRES W  DIS CAZ7
 PAM  EZ EP        151 15.40                             156    0.3810 55.2 102 
 PAM  EE ES        151 30.66                             156    0.3210 55.2 102 
 PAM  EZ I         151 33.19        45.2 0.32            159           55.2 102 
 OCA  HZ EP        151 16.74                             144    0.1810 88.7 351 
 OCA  HN ES        151 33.41                             144    0.3110 88.7 351 
 OCA  HZ I         151 35.38        72.4 0.44            148           88.7 351 
 BAR2 EZ IP     C  151 16.96                             143   -0.1410 94.5 180 
 BAR2 EZ ES        151 33.57                             143   -0.4910 94.5 180 
 BAR2 EZ I         151 34.52        44.8 0.14            141           94.5 180 
 PTB  HZ EP        151 23.28                             124   -0.48 9  172 234 
 PTB  HN ES        151 45.55                             124   -0.36 9  172 234 
 PTB  HZ I         151 48.37        16.9 0.12            124            172 234 
 RUS  HZ EP        151 24.22                             125   -0.16 9  172 176 
 RUS  HN ES        151 46.72                             125   -0.29 9  172 176 
 SML  HZ EP        151 23.91                             123   -0.45 9  179 327 
 SML  HE ES        151 46.36                             123   -0.62 9  179 327 
 SML  HZ I         151 48.20        55.7 0.10            125            179 327 
 ZAR  HZ EP        151 25.19                             122    0.21 9  184 272 
 ZAR  HN ES        151 48.51                             122    0.43 9  184 272 
 ZAR  HZ I         151 52.47        27.5 0.52            122            184 272 
 SPBC HZ EP        151 29.32                             117    0.33 8  221 206 
 SPBC HE ES   4    151 56.37                             117    1.15 0  221 206 
 SPBC HZ I         152  2.89        20.0 0.22            117            221 206 
 URE  HN ES   4    152  0.91                             113   -1.93 0  261 278 
 URE  HZ I         152  3.72        12.2 0.34            113            261 278 
 NOR  HZ EP        151 35.77                             111    0.38 7  279 222 
 NOR  HN ES        152  7.09                             111    0.48 7  279 222 
 NOR  HZ I         152 12.83        10.2 0.16            111            279 222 
 CHI  HZ EP   9    151 41.37                             109    1.16 0  317 191 
 CHI  HN ES        152 16.60                                    0.25 7  317 191 
 CHI  HZ I         152 27.90         3.1 0.48            109            317 191 
 GUY2CHZ EP   4    151 45.01                             107    1.61 0  344 225 
 GUY2CHN ES        152 21.20                             107    0.33 7  344 225 
 GUY2CHZ I         152 29.57         6.4 0.28                           344 225 
 ELA  HZ EP   4    151 49.54                             105    2.28 0  377 221 
 ELA  HE ES   4    152 29.33                             105    1.59 0  377 221 
 ELA  HZ I         152 38.18         6.7 0.34            106            377 221 
                                                                                
