 2016  730 0018 38.8 L   6.757 -73.094143.9  RSN  9 0.4 1.7LRSN                1
 GAP=145        0.80       3.3     3.8  4.7 -0.1184E+01  0.3896E+01 -0.2070E+00E
 Epicentro: LOS SANTOS - SANTANDER                                             3
 ACTION:UPD 17-03-29 16:56 OP:lp   STATUS:               ID:20160730001838 L   I
 OLDACT:UP  16-07-30 15:25 OP:edw  STATUS:               ID:20160730001759     3
 OLDACT:UP  16-07-30 15:05 OP:edw  STATUS:               ID:20160730001759     3
 OLDACT:REG 16-07-30 12:44 OP:edw  STATUS:               ID:20160730001759     3
 2016-07-30-0017-59S.COL___343                                                 6
 STAT SP IPHASW D HRMM SECON CODA AMPLIT PERI AZIMU VELO AIN AR TRES W  DIS CAZ7
 BAR2 EZ EP        018 58.21                             172    0.0310 20.7 208 
 BAR2 EZ ES        019 13.36                             172    0.0910 20.7 208 
 PAM  EZ EP        019  1.10                             150    0.2410 77.7  34 
 PAM  EN ES        019 17.79                             150   -0.2610 77.7  34 
 PAM  EZ I         019 20.15        11.2 0.42            150           77.7  34 
 BRR  HZ EP        019  0.12                             150   -0.0810 78.5 300 
 BRR  HN ES        019 16.98                             150    0.1010 78.5 300 
 RUS  HZ EP        019  2.22                             145    0.1810 95.6 179 
 RUS  HN ES        019 20.52                             145    0.3810 95.6 179 
 RUS  HZ I         019 21.45         4.8 0.24            148           95.6 179 
 PTB  HZ EP   9    019  5.08                             131   -1.00 0  153 261 
 PTB  HN ES        019 26.56                             130    0.22 9  153 261 
 PTB  HZ I         019 28.47         4.6 0.20            129            153 261 
 SPBC HZ EP        019  6.48                             129   -0.71 9  163 222 
 SPBC HN ES        019 28.72                             129   -0.59 9  163 222 
 ZAR  HZ EP   4    019 14.95                             121    3.06 0  211 293 
 ZAR  HN ES   4    019 36.86                             121   -0.81 0  211 293 
 ZAR  HZ I         019 44.49         6.0 0.26            119            211 293 
 URE  HZ EP        019 20.82                             113    0.22 7  291 292 
 URE  HN ES        019 53.37                             113    0.19 7  291 292 
 URE  HZ I         020  4.37         3.2 0.38            112            291 292 
 GUY2CHZ EP   2    019 23.23                             112    0.66 4  303 236 
 GUY2CHN ES   2    019 57.50                             112    0.80 4  303 236 
 GUY2CHZ I         020  2.90         1.7 0.56                           303 236 
                                                                                
