 2010  830 0137 51.9 L   5.920 -73.754107.7  RSN  8 0.3 2.1LRSN                1
 GAP=139        0.70       2.8     4.7  8.3 -0.6479E+01  0.1520E+02 -0.5131E+01E
 Epicentro: GUAVATA - SANTANDER                                                3
 ACTION:UP  10-09-07 10:59 OP:vdl  STATUS:               ID:20100830013751 L   I
 2010-08-30-0136-28S.COL___120                                                 6
 STAT SP IPHASW D HRMM SECON CODA AMPLIT PERI AZIMU VELO SNR AR TRES W  DIS CAZ7
 BAR2 SZ IP        138 11.84                             135     0.310   97  40 
 BAR2 SZ ES   1    138 26.89                             135     0.0 7   97  40 
 BAR2 SZ I         138 28.80        83.7 0.46                            97  40 
 BRR  HZ EP        138 14.05                             125    -0.410  131   2 
 BRR  HE ES   2    138 31.65                             125    -0.3 5  131   2 
 BRR  HZ I         138 34.84        24.0 0.09                           131   2 
 CHI  HZ EP   1    138 16.21                             123     0.1 7  143 179 
 CHI  HN ES   1    138 34.90                             123    -0.1 7  143 179 
 CHI  HZ I         138 37.65         6.8 0.18                           143 179 
 HEL  HZ EP        138 22.48                             113     0.4 9  199 279 
 HEL  HN ES   2    138 45.29                             113    -0.3 4  199 279 
 HEL  HZ I         138 50.35         7.5 0.26                           199 279 
 GUE  SZ EP   1    138 25.11                             110    -0.5 6  230  23 
 GUE  SZ I         138 27.32        13.5 0.11                           230  23 
 GRA  SZ EP        138 26.65                             108     0.0 8  241  26 
 GRA  SZ ES   1    138 53.54                             108    -0.2 6  241  26 
 GRA  SZ I         138 58.15        12.7 0.06                           241  26 
 OCA  SZ EP        138 29.27                             107     0.3 8  261  11 
 OCA  SZ ES   1    138 57.99                             107     0.2 6  261  11 
 OCA  SZ I         139  3.98        11.0 0.22                           261  11 
 PRA  HZ EP   1    138 29.91                             106    -0.5 6  274 207 
 PRA  HE ES   2    139  0.28                             106    -0.1 4  274 207 
 PRA  HZ I         139  6.70        10.2 0.25                           274 207 
                                                                                
