 2015  330 0918 14.3 L   6.825 -73.173141.8  RSN  7 0.3 1.7LRSN                1
 GAP=132        0.78       3.0     3.7  7.2 -0.1242E+01  0.1121E+02 -0.4357E+00E
 Epicentro: ZAPATOCA - SANTANDER                                               3
 ACTION:UPD 15-04-30 16:30 OP:nd   STATUS:               ID:20150330091814 L   I
 OLDACT:UP  15-03-30 19:58 OP:mh   STATUS:               ID:20150330091336     3
 OLDACT:REG 15-03-30 18:43 OP:akv  STATUS:               ID:20150330091336     3
 2015-03-30-0913-36M.COL___284                                                 6
 STAT SP IPHASW D HRMM SECON CODA AMPLIT PERI AZIMU VELO AIN AR TRES W  DIS CAZ7
 BAR2 EZ EP        918 33.65                             169    0.1510 25.8 182 
 BAR2 EZ I         918 49.70         6.0 0.21            169           25.8 182 
 PAM  SZ EP        918 36.41                             150    0.3310 77.3  43 
 PAM  SN ES        918 53.00                             150   -0.0810 77.3  43 
 PAM  SZ I         918 55.38        11.9 0.55            149           77.3  43 
 RUS  HZ EP        918 37.84                             142   -0.0410  104 175 
 RUS  HN ES        918 56.36                             142    0.0810  104 175 
 RUS  HZ I         918 57.57         5.9 0.28            142            104 175 
 PTB  HZ EP        918 40.59                             132   -0.14 9  145 258 
 PTB  HN ES   1    919  0.70                             132   -0.64 7  145 258 
 PTB  HZ I         919  2.86         5.6 0.30            132            145 258 
 OCA  HN ES   1    919  3.02                             129   -0.60 7  157 354 
 OCA  HZ I         919  8.21        12.4 0.26            130            157 354 
 SPBC HZ EP        918 42.21                             128   -0.31 9  164 218 
 SPBC HN ES        919  4.67                             128    0.13 9  164 218 
 SPBC HZ I         919 11.29         7.6 0.34            128            164 218 
 ZAR  HZ EP        918 46.03                             122   -0.06 9  200 292 
 ZAR  HN ES        919 11.55                             122    0.66 9  200 292 
                                                                                
