 2011  930 0725 46.8 L   6.858 -73.357120.0  RSN  5 0.2 2.1LRSN                1
 GAP= 93        0.48       4.3     4.0  4.6 -0.3535E+01  0.3193E+01 -0.6288E+01E
 Epicentro: SAN VICENTE DE CHUCURI - SANTANDER                                 3
 ACTION:UPD 12-07-13 16:01 OP:ep   STATUS:               ID:20110930072547dL   I
 2011-09-30-0724-10S.COL___168                                                 6
 STAT SP IPHASW D HRMM SECON CODA AMPLIT PERI AZIMU VELO AIN AR TRES W  DIS CAZ7
 BAR2 SZ EP   1    726  3.69                             163    0.00 7 35.2 147 
 BAR2 SZ ES   1    726 16.63                             163   -0.24 7 35.2 147 
 BAR2 SZ I         726 18.11        45.8 0.22                          35.2 147 
 BRR  HZ EP        726  3.77                             157   -0.1110 47.9 305 
 BRR  HZ I         726  4.01        49.2 0.12                          47.9 305 
 BRR  HN ES   1    726 17.45                             157    0.24 7 47.9 305 
 PAM  SZ EP   1    726  7.38                             141    0.12 7 90.1  54 
 PAM  SN ES   1    726 23.45                             141    0.22 7 90.1  54 
 OCA  SZ EP        726 12.26                             125   -0.21 9  153   2 
 OCA  SZ I         726 34.40        10.4 0.33                           153   2 
 NOR  SZ EP   2    726 20.04                             114    0.50 4  220 230 
                                                                                
