 2016  930 0826  6.7 L   6.765 -73.132140.4  RSN 10 0.3 1.5LRSN                1
 GAP=140        0.78       2.4     3.2  5.2 -0.9917E+00  0.4289E+01  0.1898E+01E
 Epicentro: LOS SANTOS - SANTANDER                                             3
 ACTION:UPD 17-08-17 21:18 OP:lp   STATUS:               ID:20160930082606 L   I
 OLDACT:REG 16-09-30 12:41 OP:edw  STATUS:               ID:20160930081744     3
 2016-09-30-0818-00M.COL___369                                                 6
 STAT SP IPHASW D HRMM SECON CODA AMPLIT PERI AZIMU VELO AIN AR TRES W  DIS CAZ7
 BAR2 EZ EP        826 25.86                             172    0.2610 20.0 196 
 BAR2 EZ ES        826 40.65                             172    0.2910 20.0 196 
 BAR2 EZ I         826 41.82        12.8 0.16            171           20.0 196 
 BRR  HZ EP        826 27.41                             150   -0.0310 74.4 301 
 BRR  HE ES        826 44.04                             150    0.4010 74.4 301 
 BRR  HZ I         826 48.05         3.6 0.18            150           74.4 301 
 PAM  EZ IP        826 28.62                             149    0.1710 79.4  37 
 PAM  EN ES        826 45.49                             149    0.0510 79.4  37 
 PAM  EZ I         826 47.94         3.6 0.64            152           79.4  37 
 RUS  HZ EP        826 29.57                             144   -0.0510 96.7 177 
 RUS  HN ES        826 46.94                             144   -0.5810 96.7 177 
 RUS  HZ I         826 48.57         3.5 0.28            145           96.7 177 
 PTB  HZ EP        826 33.63                             131    0.34 9  149 260 
 PTB  HE ES        826 54.02                             131   -0.03 9  149 260 
 PTB  HZ I         826 57.95         3.2 0.44            131            149 260 
 SPBC HZ EP        826 34.61                             128    0.03 9  161 220 
 SPBC HN ES        826 56.18                             128   -0.17 9  161 220 
 SPBC HZ I         827  1.49         4.9 0.22            129            161 220 
 OCA  HE ES        826 56.50                             128   -0.52 9  164 353 
 OCA  HZ I         827  0.65         8.3 0.26            130            164 353 
 ZAR  HZ EP   4    826 39.88                             121    0.80 0  207 293 
 ZAR  HN ES        827  3.87                             121   -0.49 8  207 293 
 ZAR  HZ I         827  7.00         4.3 0.10            122            207 293 
 CHI  HN ES        827 12.54                             116   -0.08 8  245 196 
 CHI  HZ I         827 19.55         1.7 0.34            118            245 196 
 GUY2CHZ EP   4    826 51.40                             111    1.46 0  300 236 
 GUY2CHE ES        827 24.04                             111    0.36 7  300 236 
 GUY2CHZ I         827 33.54         1.3 0.26                           300 236 
                                                                                
