 2017  330 0148 35.4 L   6.790 -73.093153.9  RSN 10 0.5 1.6LRSN                1
 GAP=124        0.71       4.4     5.7  6.2 -0.2051E+01  0.2416E+00  0.8352E+01E
 Epicentro: LOS SANTOS - SANTANDER                                             3
 ACTION:UPD 17-05-25 18:47 OP:jn   STATUS:               ID:20170330014835 L   I
 OLDACT:UP  17-03-30 13:31 OP:and  STATUS:               ID:20170330014745     3
 OLDACT:UP  17-03-30 13:30 OP:and  STATUS:               ID:20170330014745     3
 OLDACT:UP  17-03-30 13:30 OP:and  STATUS:               ID:20170330014745     3
 OLDACT:UP  17-03-30 13:29 OP:and  STATUS:               ID:20170330014745     3
 OLDACT:UP  17-03-30 13:28 OP:and  STATUS:               ID:20170330014745     3
 OLDACT:UP  17-03-30 13:28 OP:and  STATUS:               ID:20170330014745     3
 OLDACT:REG 17-03-30 12:26 OP:and  STATUS:               ID:20170330014745     3
 2017-03-30-0148-00M.COL___350                                                 6
 STAT SP IPHASW D HRMM SECON CODA AMPLIT PERI AZIMU VELO AIN AR TRES W  DIS CAZ7
 BAR2 EZ EP   2    148 55.96                             171   -0.03 5 23.9 204 
 BAR2 EZ ES   2    149 11.85                             171   -0.22 5 23.9 204 
 PAM  EZ EP   2    148 58.94                             153    0.63 5 74.8  36 
 PAM  EN ES   2    149 15.85                             153   -0.35 5 74.8  36 
 PAM  EZ I         149 18.19         5.5 0.20            159           74.8  36 
 BRR  HZ EP        148 58.09                             152    0.3710 76.9 297 
 BRR  HN ES        149 15.23                             152    0.0810 76.9 297 
 RUS  HZ EP   2    148 59.83                             146   -0.00 5 99.2 179 
 RUS  HN ES   2    149 18.02                             146   -0.89 5 99.2 179 
 RUS  HZ I         149 20.18         1.7 0.20            148           99.2 179 
 PTB  HZ EP        149  2.94                             133   -0.56 9  153 260 
 PTB  HN ES   4    149 23.69                             133   -1.75 0  153 260 
 PTB  HZ I         149 31.41         5.5 0.30            132            153 260 
 SPBC HZ EP        149  4.97                             130    0.20 9  166 221 
 SPBC HN ES        149 28.04                             130    0.34 9  166 221 
 SPBC HZ I         149 34.48         8.1 0.44            131            166 221 
 ZAR  HN ES   2    149 34.56                             123   -0.58 4  210 292 
 ZAR  HZ I         149 40.51         4.4 0.17            124            210 292 
 NOR  HZ EP   2    149 11.54                             120   -0.48 4  239 236 
 NOR  HE ES   3    149 39.85                             120   -0.75 2  239 236 
 CHI  HZ EP   2    149 13.46                             119   -0.12 4  249 197 
 CHI  HN ES   3    149 44.90                             119    1.51 2  249 197 
 PTGC HZ EP   2    149 18.89                             113   -0.36 4  306 160 
                                                                                
