 2013  630 0333  4.2 L   7.276 -73.481108.6  RSN  6 0.3 1.2LRSN                1
 GAP=211        0.69       6.2     3.7  7.2 -0.9712E+01 -0.1900E+01  0.1216E+02E
 Epicentro: SABANA DE TORRES - SANTANDER                                       3
 ACTION:UPD 14-01-08 09:58 OP:ep   STATUS:               ID:20130630033304 L   I
 OLDACT:REG 13-06-30 07:34 OP:jn   STATUS:               ID:20130630032959     3
 2013-06-30-0329-59M.COL___267                                                 6
 STAT SP IPHASW D HRMM SECON CODA AMPLIT PERI AZIMU VELO AIN AR TRES W  DIS CAZ7
 BRR  HN ES   1    333 31.43                             162    0.36 8 31.6 234 
 BRR  HZ I         333 32.06        14.9 0.10            156           31.6 234 
 GIR2 SZ EP   1    333 19.72                             159   -0.06 8 38.5 124 
 BAR2 SZ EP   1    333 23.29                             140    0.62 8 82.5 156 
 BAR2 SZ I         333 40.37         3.2 0.31                          82.5 156 
 PAM  SZ EP   1    333 23.00                             139   -0.34 8 86.5  85 
 PAM  SN ES   1    333 38.05                             139   -0.21 8 86.5  85 
 PAM  SZ I         333 40.11         3.8 0.18            130           86.5  85 
 PTB  HZ EP        333 27.18                             124    0.0310  135 233 
 PTB  HN ES        333 44.74                             124   -0.3010  135 233 
 PTB  HZ I         333 48.22         2.4 0.36            118            135 233 
 RUS  HZ EP   1    333 30.59                             120    0.34 7  159 164 
 RUS  HN ES   1    333 50.29                             120   -0.27 7  159 164 
 RUS  HZ I         333 55.19         0.9 0.38            112            159 164 
                                                                                
