 2012 1030 0041  1.6 L   6.803 -73.098148.2  RSN  8 0.4 2.3LRSN                1
 GAP= 95        0.90       4.2     4.9  5.7  0.2341E+01 -0.3504E+01  0.1205E+01E
 Epicentro: LOS SANTOS - SANTANDER                                             3
 ACTION:UPD 12-11-22 17:06 OP:ep   STATUS:               ID:20121030004101 L   I
 2012-10-30-0040-00M.COL___231                                                 6
 STAT SP IPHASW D HRMM SECON CODA AMPLIT PERI AZIMU VELO AIN AR TRES W  DIS CAZ7
 BAR2 SZ EP        041 21.36                             170   -0.2410 25.1 202 
 BAR2 SZ I         041 21.51        26.4 0.20                          25.1 202 
 BAR2 SZ ES   1    041 36.52                             170   -0.65 7 25.1 202 
 GIR2 SZ EP        041 21.60                             167   -0.0310 32.3 341 
 GIR2 SZ ES   1    041 36.78                             167   -0.44 7 32.3 341 
 PAM  SZ EP        041 24.22                             152    0.3110 73.8  37 
 PAM  SN ES        041 41.28                             152    0.0010 73.8  37 
 PAM  SN I         041 42.86        31.4 0.44                          73.8  37 
 BRR  HZ IP     C  041 23.38                             151    0.0710 75.8 296 
 BRR  HZ I         041 23.52        27.0 0.36                          75.8 296 
 BRR  HN ES        041 40.62                             151    0.4110 75.8 296 
 RUS  HZ EP        041 25.25                             144   -0.3910  101 179 
 RUS  HE ES        041 44.92                             144    0.5610  101 179 
 TAM  HZ IP     C  041 29.54                             132    0.49 9  150 106 
 TAM  HZ I         041 29.63        20.2 0.34                           150 106 
 TAM  HE ES   1    041 50.13                             132   -0.30 7  150 106 
 OCA  HZ EP        041 29.99                             130   -0.19 9  161 351 
 OCA  HN I         041 56.31        56.6 0.20                           161 351 
 CHI  HZ EP   1    041 39.10                             117   -0.56 6  250 196 
 CHI  HN I         042 11.19        11.4 0.28                           250 196 
                                                                                
