 2013  330 0014 42.7 L   6.130 -74.034  4.4  RSN  4 0.3 1.2LRSN                1
 GAP=210        0.72       4.4     2.8  7.0  0.7728E+01 -0.8822E+01 -0.1662E+02E
 Epicentro: CIMITARRA - SANTANDER                                              3
 ACTION:UPD 13-04-09 14:05 OP:ep   STATUS:               ID:20130330001442 L   I
 2013-03-30-0010-00M.COL___245                                                 6
 STAT SP IPHASW D HRMM SECON CODA AMPLIT PERI AZIMU VELO AIN AR TRES W  DIS CAZ7
 PTB  HZ EP        014 52.98                              47   -0.2210 65.1 314 
 PTB  HN ES   1    015  1.36                              47    0.00 7 65.1 314 
 PTB  HZ I         015  1.93        18.3 0.14             96           65.1 314 
 BAR2 SZ EP   1    015  0.35                              47    0.53 7  107  61 
 BAR2 SZ ES   1    015 12.69                              47   -0.45 7  107  61 
 BAR2 SZ I         015 15.54         8.6 0.38             91            107  61 
 RUS  HZ EP        015  0.59                              47    0.3210  109 104 
 RUS  HN ES   1    015 13.58                              47   -0.37 7  109 104 
 RUS  HZ I         015 14.89         3.3 0.34             92            109 104 
 BRR  HZ EP   2    015  0.30                              47   -0.27 5  114  18 
 BRR  HE ES   1    015 14.73                              47    0.25 7  114  18 
 BRR  HZ I         015 15.00         5.0 0.42             91            114  18 
                                                                                
