 2017  730 0917 50.9 L   6.793 -73.120143.5  RSN 12 0.5 1.6LRSN                1
 GAP=114        1.05       3.6     3.6  5.4  0.5842E+00  0.4869E+01  0.3424E+01E
 Epicentro: LOS SANTOS - SANTANDER                                             3
 ACTION:UPD 17-08-30 15:38 OP:rebc STATUS:               ID:20170730091750 L   I
 OLDACT:REG 17-07-30 14:07 OP:ar   STATUS:               ID:20170730090743     3
 2017-07-30-0908-00M.COL___377                                                 6
 STAT SP IPHASW D HRMM SECON CODA AMPLIT PERI AZIMU VELO AIN AR TRES W  DIS CAZ7
 BAR2 EZ IP     C  918 10.03                             170   -0.1910 23.3 197 
 BAR2 EZ ES        918 24.79                             170   -0.5310 23.3 197 
 BAR2 EZ I         918 26.32        19.8 0.16            169           23.3 197 
 BRR  HZ EP        918 11.96                             151    0.0310 74.0 298 
 BRR  HE ES        918 28.89                             151    0.5310 74.0 298 
 PAM  EZ EP        918 12.94                             150    0.1810 76.2  38 
 PAM  EN ES        918 29.96                             150    0.1110 76.2  38 
 PAM  EZ I         918 31.84         4.6 0.32            154           76.2  38 
 RUS  HZ EP        918 13.81                             143   -0.5110 99.7 178 
 RUS  HN ES        918 32.46                             143   -0.1710 99.7 178 
 RUS  HZ I         918 38.27         2.4 0.20            144           99.7 178 
 PTB  HZ EP   9    918 16.75                             131   -1.13 0  150 259 
 PTB  HE ES        918 37.08                                   -0.75 9  150 259 
 PTB  HZ I         918 41.59         4.0 0.16            132            150 259 
 SPBC HZ EP        918 18.99                             128   -0.31 9  164 220 
 SPBC HE ES        918 41.26                             128   -0.23 9  164 220 
 SPBC HZ I         918 44.13         7.1 0.30            129            164 220 
 YPLC HZ EP        918 20.43                             126    0.14 9  175 152 
 YPLC HN ES        918 43.74                             126    0.49 9  175 152 
 YPLC HZ I         918 47.66         3.8 0.30            128            175 152 
 ZAR  HZ EP        918 24.01                             121    0.55 8  207 292 
 ZAR  HN ES        918 48.37                             121   -0.52 8  207 292 
 ZAR  HZ I         918 53.74         6.5 0.48            123            207 292 
 NOR  HZ EP        918 26.54                             117   -0.12 8  237 235 
 NOR  HE ES        918 54.40                             117   -0.19 8  237 235 
 NOR  HZ I         918 58.16         3.1 0.16            119            237 235 
 CHI  HN ES   2    918 58.80                             116    1.05 4  249 196 
 ROSC BZ EP   4    918 30.37                             116    1.42 0  254 212 
 ROSC BN ES   4    919  0.96                             116    2.30 0  254 212 
 HEL  HZ EP        918 30.82                             114   -0.42 8  275 256 
 HEL  HE ES   2    919  4.58                             114    1.84 4  275 256 
 GUY2CHZ EP        918 34.77                             111    0.19 7  303 235 
 GUY2CHE ES        919  9.43                             111    0.75 7  303 235 
 GUY2CHZ I         919 16.60         3.6 0.36                           303 235 
                                                                                
