 2016  430 0741 51.8 L   6.822 -73.169143.4  RSN  5 0.3 1.6LRSN                1
 GAP=133        0.55       3.8     4.8  4.7 -0.1098E+02  0.5215E+01  0.7282E+00E
 Epicentro: LOS SANTOS - SANTANDER                                             3
 ACTION:UPD 16-05-05 14:25 OP:rebc STATUS:               ID:20160430074151 L   I
 OLDACT:DUP 16-04-30 18:05 OP:dnl  STATUS:               ID:20160430072931d    3
 2016-04-30-0730-00M.COL                                                       6
 STAT SP IPHASW D HRMM SECON CODA AMPLIT PERI AZIMU VELO AIN AR TRES W  DIS CAZ7
 BAR2 EZ EP        742 11.21                             170    0.0210 25.4 183 
 BAR2 EZ ES        742 26.36                             170    0.0410 25.4 183 
 BAR2 EZ I         742 27.88         9.7 0.20            164           25.4 183 
 PAM  EZ EP        742 13.94                             151    0.1910 77.2  42 
 PAM  EN ES        742 30.86                             151   -0.0210 77.2  42 
 PAM  EZ I         742 33.02         9.3 0.60            153           77.2  42 
 RUS  HZ EP     D  742 15.21                             143   -0.3010  103 175 
 RUS  HE ES   2    742 33.33                             143   -0.68 5  103 175 
 RUS  HZ I         742 34.89         2.8 0.32            148            103 175 
 SPBC HZ EP        742 20.27                             128    0.13 9  163 218 
 SPBC HN ES        742 42.52                             128    0.26 9  163 218 
 SPBC HZ I         742 48.38         9.2 0.24            128            163 218 
 ZAR  HZ EP   3    742 22.77                             122   -0.98 2  201 292 
 ZAR  HN ES   2    742 48.43                             122   -0.24 4  201 292 
 ZAR  HZ I         742 59.93         4.7 0.26            119            201 292 
                                                                                
