 2013  130 0943 41.3 L   6.803 -73.167139.9  RSN  7 0.2 1.5LRSN                1
 GAP=134        0.47       2.4     2.5  3.8  0.3297E+00  0.6983E+00  0.2051E+01E
 Epicentro: LOS SANTOS - SANTANDER                                             3
 ACTION:UPD 13-02-15 09:17 OP:ep   STATUS:               ID:20130130094341 L   I
 2013-01-30-0940-00M.COL___241                                                 6
 STAT SP IPHASW D HRMM SECON CODA AMPLIT PERI AZIMU VELO AIN AR TRES W  DIS CAZ7
 BAR2 SZ EP        944  0.25                             170    0.0210 23.3 184 
 BAR2 SZ ES   1    944 14.91                             170   -0.08 7 23.3 184 
 BAR2 SZ I         944 15.90         6.2 0.18            169           23.3 184 
 BRR  HZ EP        944  2.01                             152    0.3210 69.0 299 
 BRR  HN ES        944 17.58                             152   -0.0210 69.0 299 
 BRR  HN I         944 19.42        12.3 0.42            150           69.0 299 
 PAM  SZ EP        944  2.94                             149   -0.0410 78.7  41 
 PAM  SZ I         944  3.15         4.9 0.24            152           78.7  41 
 PAM  SN ES   1    944 19.74                             149   -0.14 7 78.7  41 
 RUS  HZ EP   1    944  4.52                             142    0.00 7  101 175 
 RUS  HE ES   1    944 22.77                             142    0.15 7  101 175 
 RUS  HE I         944 24.69         5.2 0.14            143            101 175 
 PTB  HZ EP   1    944  7.03                             131   -0.56 7  146 259 
 PTB  HE ES   1    944 27.91                             131   -0.19 7  146 259 
 PTB  HE I         944 30.34         3.4 0.20            130            146 259 
 ZAR  HN ES   1    944 38.22                             121    0.26 6  202 292 
 ZAR  HN I         944 44.00         3.2 0.14            121            202 292 
 CHI  HZ EP   1    944 18.63                             116   -0.02 6  248 195 
 CHI  HN ES   1    944 47.84                             116    0.07 6  248 195 
 CHI  HZ I         944 49.21         1.2 0.21            116            248 195 
                                                                                
