 2017  730 0221 56.3 L   6.794 -73.145147.8  RSN  5 0.4 1.0LRSN                1
 GAP=237        0.86       7.6     6.5  7.5  0.9139E+01  0.6744E+01  0.3179E+01E
 Epicentro: LOS SANTOS - SANTANDER                                             3
 ACTION:UPD 17-08-30 15:38 OP:rebc STATUS:               ID:20170730022156 L   I
 OLDACT:REG 17-07-30 13:14 OP:ar   STATUS:               ID:20170730021737     3
 2017-07-30-0218-00M.COL___383                                                 6
 STAT SP IPHASW D HRMM SECON CODA AMPLIT PERI AZIMU VELO AIN AR TRES W  DIS CAZ7
 BAR2 EZ EP        222 16.04                             172   -0.1010 22.7 191 
 BAR2 EZ ES        222 31.36                             172   -0.2710 22.7 191 
 BAR2 EZ I         222 32.42         3.8 0.38            170           22.7 191 
 BRR  HZ EP        222 17.83                             153    0.1610 71.6 299 
 BRR  HN ES        222 34.86                             153    0.5010 71.6 299 
 RUS  HZ EP   2    222 20.38                             145    0.20 5 99.9 176 
 RUS  HN ES   2    222 38.91                             145    0.08 5 99.9 176 
 RUS  HZ I         222 39.79         1.1 0.34            144           99.9 176 
 PTB  HZ EP        222 23.41                             133   -0.00 9  148 259 
 PTB  HN ES        222 43.94                             133   -0.63 9  148 259 
 PTB  HZ I         222 44.84         1.2 0.42            133            148 259 
 SPBC HE ES   2    222 48.15                             130    0.94 5  163 219 
                                                                                
