 2016 1030 0333  5.7 L   6.778 -73.162151.4  RSN  5 0.3 1.4LRSN                1
 GAP=234        0.80       4.9     5.2  5.9  0.5330E+01  0.3326E+01  0.2304E+01E
 Epicentro: LOS SANTOS - SANTANDER                                             3
 ACTION:UPD 16-11-09 19:24 OP:rebc STATUS:               ID:20161030033305 L   I
 OLDACT:REG 16-10-30 14:10 OP:cog  STATUS:               ID:20161030032745     3
 2016-10-30-0328-00M.COL___316                                                 6
 STAT SP IPHASW D HRMM SECON CODA AMPLIT PERI AZIMU VELO AIN AR TRES W  DIS CAZ7
 BAR2 EZ EP        333 25.82                             172   -0.1310 20.7 186 
 BAR2 EZ ES        333 41.27                             172   -0.4810 20.7 186 
 BAR2 EZ I         333 42.05         6.9 0.09            169           20.7 186 
 BRR  HZ EP        333 27.58                             154    0.1510 70.8 301 
 BRR  HE ES        333 44.90                             154    0.5210 70.8 301 
 BRR  HZ I         333 51.03         3.6 0.22            151           70.8 301 
 RUS  HZ EP        333 29.95                             146    0.1110 98.3 175 
 RUS  HN ES        333 48.80                             146    0.1210 98.3 175 
 RUS  HZ I         333 49.56         3.1 0.26            148           98.3 175 
 PTB  HZ EP        333 32.57                             134   -0.35 9  145 260 
 PTB  HN ES        333 53.80                             134   -0.36 9  145 260 
 PTB  HZ I         333 57.31         2.3 0.16            133            145 260 
 SPBC HZ EP        333 34.46                             131    0.12 9  160 219 
 SPBC HN ES        333 56.98                             131    0.29 9  160 219 
 SPBC HZ I         334  2.57         4.6 0.22            131            160 219 
                                                                                
