 2015 1030 0820 13.5 L   7.469 -73.188130.4  RSN  5 0.3 1.5LRSN                1
 GAP=138        0.78       4.6     4.2  7.8  0.4540E+01  0.6295E+01 -0.1502E+02E
 Epicentro: EL PLAYON - SANTANDER                                              3
 ACTION:UPD 15-12-22 20:44 OP:cam  STATUS:               ID:20151030081749 L   I
 OLDACT:UPD 15-10-30 14:48 OP:AK   STATUS:               ID:20151030081749 L   3
 2015-10-30-0817-49M.COL___313                                                 6
 STAT SP IPHASW D HRMM SECON CODA AMPLIT PERI AZIMU VELO AIN AR TRES W  DIS CAZ7
 PAM  EZ EP        820 33.55                             156    0.6710 55.7 105 
 PAM  EN ES   1    820 47.86                             156   -0.12 7 55.7 105 
 PAM  EZ I         820 49.58         5.1 0.42            170           55.7 105 
 BRR  HZ EP   1    820 32.92                             150   -0.07 7 70.3 235 
 BRR  HN ES   1    820 48.43                             150    0.27 7 70.3 235 
 BRR  HZ I         821 14.25         6.7 0.18            148           70.3 235 
 BAR2 EZ EP        820 34.97                             141   -0.2010 96.9 180 
 BAR2 EZ ES        820 51.67                             141   -0.3710 96.9 180 
 BAR2 EZ I         820 52.33         6.0 0.12            146           96.9 180 
 SML  HZ EP        820 41.84                             123   -0.29 9  177 327 
 SML  HN ES   1    821  4.14                             123   -0.30 7  177 327 
 SML  HZ I         821  5.63         9.3 0.10            132            177 327 
 ZAR  HZ EP        820 43.02                             122    0.07 9  184 271 
 ZAR  HN ES        821  6.11                             122    0.21 9  184 271 
 ZAR  HZ I         821  9.60         3.4 0.44            127            184 271 
                                                                                
