 2013  730 0236 20.1 L   6.793 -73.138148.0  RSN  9 0.5 1.9LRSN                1
 GAP=184        1.03       4.1     6.1  7.6  0.4008E+00  0.1100E+02 -0.8028E+01E
 Epicentro: LOS SANTOS - SANTANDER                                             3
 ACTION:UPD 13-08-12 10:41 OP:ep   STATUS:               ID:20130730023620 L   I
 OLDACT:REG 13-07-30 07:36 OP:carl STATUS:               ID:20130730022959     3
 2013-07-30-0229-59M.COL___267                                                 6
 STAT SP IPHASW D HRMM SECON CODA AMPLIT PERI AZIMU VELO AIN AR TRES W  DIS CAZ7
 BAR2 SZ EP        236 40.14                             171    0.1810 22.7 193 
 BAR2 SZ ES   1    236 55.56                             171    0.09 7 22.7 193 
 BAR2 SZ I         236 56.40        10.6 0.18            172           22.7 193 
 GIR2 SZ EP        236 40.25                             167    0.2210 32.2 349 
 GIR2 SZ ES   1    236 55.15                             167   -0.45 7 32.2 349 
 BRR  HZ EP        236 41.96                             153    0.4410 72.3 299 
 BRR  HN ES   1    236 59.00                             153    0.74 7 72.3 299 
 BRR  HN I         236 59.39        33.4 0.24            150           72.3 299 
 RUS  HZ EP   2    236 44.74                             145    0.76 5 99.7 177 
 RUS  HN ES   1    237  2.46                             145   -0.17 7 99.7 177 
 RUS  HZ I         237  3.40         4.3 0.26            148           99.7 177 
 PTB  HZ EP        236 47.09                             132   -0.20 9  148 259 
 PTB  HN ES   1    237  7.49                             132   -1.02 7  148 259 
 PTB  HZ I         237 10.09         9.7 0.14            132            148 259 
 OCA  HN ES   1    237 10.21                             130   -0.71 7  161 353 
 SPBC HE ES        237 10.81                             130   -0.28 9  163 219 
 ZAR  HZ EP        236 52.66                             123   -0.12 9  205 292 
 ZAR  HE ES        237 19.06                             123    0.78 9  205 292 
 ZAR  HZ I         237 24.48         6.5 0.28            122            205 292 
 SML  HZ EP        236 56.49                             118   -0.45 8  245 335 
 SML  HE ES        237 25.52                             118   -0.17 8  245 335 
 SML  HZ I         237 33.89        10.8 0.10            118            245 335 
                                                                                
