 2011  630 0604 31.6 L   6.571 -73.516113.2  RSN  5 0.2 1.4LRSN                1
 GAP=193        0.50       5.1     8.9  5.6  0.3396E+02  0.8187E+01  0.2219E+01E
 Epicentro: EL CARMEN DE CHUCURI - SANTANDER                                   3
 ACTION:UP  11-07-14 19:09 OP:ep   STATUS:               ID:20110630060431 L   I
 2011-06-30-0600-08S.COL___140                                                 6
 STAT SP IPHASW D HRMM SECON CODA AMPLIT PERI AZIMU VELO SNR AR TRES W  DIS CAZ7
 BAR2 SZ EP        6 4 47.84                             160     0.010   37  86 
 BAR2 SZ ES   1    6 5  0.19                             160    -0.3 7   37  86 
 BAR2 SZ I         6 5  1.67        32.6 0.51                            37  86 
 BTL  SZ EP        6 4 48.38                             156     0.110   47  36 
 BRR  HZ EP        6 4 48.58                             149    -0.310   63 340 
 BRR  HE ES   1    6 5  2.50                             149     0.2 7   63 340 
 BRR  HZ I         6 5  6.35         6.1 0.14                            63 340 
 GIR2 SZ EP        6 4 49.37                             147     0.110   67  32 
 RUS  HZ EP   1    6 4 51.48                             139     0.1 7   89 147 
 RUS  HE ES   1    6 5  6.86                             139     0.0 7   89 147 
 RUS  HZ I         6 5  9.30         1.9 0.27                            89 147 
                                                                                
