 2011  630 0949  4.4 L   6.810 -73.120140.7  RSN 11 0.3 1.6LRSN                1
 GAP=139        0.78       3.1     5.4  6.0 -0.6002E+01  0.7346E+01  0.2468E+01E
 Epicentro: LOS SANTOS - SANTANDER                                             3
 ACTION:UP  11-07-14 19:09 OP:ep   STATUS:               ID:20110630094904 L   I
 2011-06-30-0944-30S.COL___140                                                 6
 STAT SP IPHASW D HRMM SECON CODA AMPLIT PERI AZIMU VELO SNR AR TRES W  DIS CAZ7
 BAR2 SZ EP        949 22.96                             169    -0.510   25 196 
 BAR2 SZ ES   2    949 39.08                             169     0.8 5   25 196 
 BAR2 SZ I         949 39.92        11.8 0.20                            25 196 
 GIR2 SZ EP   1    949 23.60                             167     0.1 7   31 345 
 BRR  HZ EP        949 25.25                             151     0.110   73 297 
 BRR  HE ES   1    949 40.99                             151    -0.3 7   73 297 
 BRR  HZ I         949 45.60        10.8 0.17                            73 297 
 PAM  SZ EP   1    949 25.83                             151    -0.1 7   75  38 
 PAM  SE ES   1    949 42.95                             151     0.2 7   75  38 
 PAM  SZ I         949 44.13         2.5 0.30                            75  38 
 RUS  HZ EP   1    949 27.60                             142    -0.1 7  102 178 
 RUS  HZ I         949 28.83         4.6 0.15                           102 178 
 RUS  HN ES   1    949 46.04                             142     0.1 7  102 178 
 GRA  SZ EP        949 29.13                             136     0.110  124  16 
 GRA  SZ ES   1    949 48.00                             136    -0.3 7  124  16 
 GRA  SZ I         949 50.95         6.3 0.22                           124  16 
 OCA  SZ EP   1    949 32.91                             128     0.7 7  160 352 
 OCA  SZ ES   1    949 53.75                             128    -0.2 7  160 352 
 OCA  SZ I         949 58.31         6.6 0.22                           160 352 
 NOR  SZ EP   1    949 39.68                             117    -0.5 6  238 235 
 NOR  SN ES   1    950  8.07                             117     0.0 6  238 235 
 CHI  HZ EP   1    949 41.74                             116    -0.3 6  250 196 
 CHI  HE ES   1    950 11.64                             116     0.3 6  250 196 
 CHI  HZ I         950 18.64         2.6 0.39                           250 196 
 HEL  HZ EP   1    949 45.32                             113     0.6 6  275 256 
 HEL  HZ I         950 21.10         5.1 0.81                           275 256 
 PRA  HZ EP   1    949 58.25                             105     0.2 4  394 210 
                                                                                
