 2010  630 0507 48.8 L   6.752 -73.171154.8  RSN  5 0.3 1.2LRSN                1
 GAP=153        0.50       4.2     7.5  8.1  0.6294E+01 -0.3148E+02 -0.1668E+02E
 Epicentro: VILLANUEVA - SANTANDER                                             3
 ACTION:UP  10-08-24 10:14 OP:vdl  STATUS:               ID:20100630050748 L   I
 2010-06-30-0506-41S.COL___118                                                 6
 STAT SP IPHASW D HRMM SECON CODA AMPLIT PERI AZIMU VELO SNR AR TRES W  DIS CAZ7
 BRR  HZ EP   1    5 8 11.18                             154     0.2 8   72 303 
 BRR  HZ I         5 8 11.37         4.7 0.21                            72 303 
 BRR  HE ES   1    5 8 28.09                             154    -0.1 8   72 303 
 RUS  HZ EP   3    5 8 14.04                             147     0.9 3   96 174 
 RUS  HN ES   1    5 8 32.00                             147    -0.1 8   96 174 
 RUS  HZ I         5 8 33.00         1.6 0.22                            96 174 
 BRI  SZ EP   2    5 8 13.83                             142    -0.2 5  114  21 
 GUE  SZ EP   2    5 8 14.61                             140    -0.2 5  122  13 
 GRA  SZ EP        5 8 15.20                             138    -0.110  132  18 
 GRA  SZ ES   2    5 8 36.48                             138     0.5 5  132  18 
                                                                                
