 2012  930 0934  8.3 L   6.793 -73.130139.0  RSN 10 0.4 2.7LRSN                1
 GAP= 72        0.79       3.6     4.3  5.2 -0.8414E+00  0.1820E+01  0.5824E+01E
 Epicentro: LOS SANTOS - SANTANDER                                             3
 ACTION:UPD 12-10-22 14:21 OP:ep   STATUS:               ID:20120930093408 L   I
 2012-09-30-0930-00M.COL___220                                                 6
 STAT SP IPHASW D HRMM SECON CODA AMPLIT PERI AZIMU VELO AIN AR TRES W  DIS CAZ7
 BAR2 SZ EP        934 27.27                             170    0.2010 23.0 195 
 BAR2 SZ ES   1    934 41.36                             170   -0.38 7 23.0 195 
 BAR2 SZ I         934 43.65       179.6 0.27                          23.0 195 
 GIR2 SZ EP        934 27.19                             166    0.0310 32.3 347 
 BRR  HZ IP     C  934 29.05                             151    0.2610 73.1 298 
 BRR  HZ I         934 29.54       133.5 0.16                          73.1 298 
 BRR  HE ES        934 45.26                             151    0.4610 73.1 298 
 PAM  SZ EP        934 29.99                             150    0.2610 76.9  38 
 PAM  SZ I         934 30.49       245.4 0.27                          76.9  38 
 PAM  SN ES   1    934 45.69                             150   -0.78 7 76.9  38 
 RUS  HZ EP        934 31.31                             143    0.0210 99.7 177 
 RUS  HE ES   1    934 49.25                             143    0.00 7 99.7 177 
 RUS  HZ I         934 51.79        42.6 0.39                          99.7 177 
 TAM  HZ EP        934 35.52                             129    0.28 9  153 105 
 TAM  HZ I         934 56.18        27.6 0.48                           153 105 
 ZAR  HZ EP        934 39.84                             121   -0.63 8  206 292 
 ZAR  HZ I         935 10.92        56.4 0.30                           206 292 
 NOR  SZ EP        934 43.40                             117   -0.32 8  236 235 
 CHI  HZ EP        934 45.46                             116   -0.11 8  248 196 
 CHI  HN ES   1    935 14.42                             116   -0.24 6  248 196 
 CHI  HZ I         935 22.86        17.4 0.66                           248 196 
 PRA  HZ EP   1    935  1.18                             105   -0.40 4  392 210 
 PRA  HN ES   1    935 43.58                             105    0.41 4  392 210 
 PRA  HZ I         935 47.09        21.3 0.25                           392 210 
                                                                                
