 2013  330 0237 14.9 L   6.725 -73.130155.2  RSN  5 0.3 1.2LRSN                1
 GAP=233        0.56       5.7     5.3  5.8  0.1580E+02  0.3026E+00 -0.3784E+01E
 Epicentro: JORDAN - SANTANDER                                                 3
 ACTION:UPD 13-04-09 14:05 OP:ep   STATUS:               ID:20130330023714 L   I
 2013-03-30-0230-00M.COL___245                                                 6
 STAT SP IPHASW D HRMM SECON CODA AMPLIT PERI AZIMU VELO AIN AR TRES W  DIS CAZ7
 BAR2 SZ EP        237 35.47                             174   -0.1210 15.8 201 
 BAR2 SZ ES   1    237 51.66                             174   -0.03 7 15.8 201 
 BAR2 SZ I         237 54.21         5.2 0.48            170           15.8 201 
 BRR  HZ EP        237 37.45                             152    0.0210 76.9 303 
 BRR  HN ES   1    237 54.90                             152   -0.07 7 76.9 303 
 BRR  HZ I         237 57.32         2.9 0.36            152           76.9 303 
 RUS  HZ EP   1    237 39.42                             148    0.35 7 92.2 177 
 RUS  HN ES   1    237 58.01                             148    0.11 7 92.2 177 
 RUS  HZ I         237 59.73         1.0 0.42            148           92.2 177 
 PTB  HZ EP   1    237 42.42                             134   -0.30 7  148 262 
 PTB  HE ES   1    238  4.13                             134   -0.26 7  148 262 
 PTB  HZ I         238  9.26         2.2 0.22            134            148 262 
 ZAR  HE ES   2    238 15.65                             124    0.97 4  209 294 
                                                                                
