 2015  130 0610 47.9 L   6.780 -73.116142.2  RSN  9 0.5 1.4LRSN                1
 GAP=141        1.27       4.1     5.4  7.3 -0.3050E+01  0.8820E+01 -0.4698E+01E
 Epicentro: LOS SANTOS - SANTANDER                                             3
 ACTION:UPD 15-03-02 15:43 OP:nd   STATUS:               ID:20150130061047 L   I
 OLDACT:REG 15-01-30 13:12 OP:cam  STATUS:               ID:20150130060812     3
 2015-01-30-0608-12M.COL___268                                                 6
 STAT SP IPHASW D HRMM SECON CODA AMPLIT PERI AZIMU VELO AIN AR TRES W  DIS CAZ7
 BAR2 EZ EP        611  7.10                             171    0.0510 22.0 199 
 BAR2 EZ ES        611 21.66                             171   -0.3510 22.0 199 
 BAR2 EZ I         611 22.77         5.0 0.20            171           22.0 199 
 BRR  HZ EP        611  8.94                             151    0.0710 75.1 299 
 BRR  HN ES        611 26.06                             151    0.8110 75.1 299 
 BRR  HZ I         611 27.68         3.7 0.36            150           75.1 299 
 PAM  SZ EP     C  611 10.09                             150    0.3910 77.1  37 
 PAM  SN ES        611 27.10                             150    0.3810 77.1  37 
 PAM  SZ I         611 29.24         6.2 0.68            152           77.1  37 
 RUS  HZ EP        611 10.85                             144   -0.2610 98.2 178 
 RUS  HN ES        611 28.99                             144   -0.2410 98.2 178 
 RUS  HZ I         611 30.52         2.1 0.32            146           98.2 178 
 PTB  HZ EP        611 15.41                             131    0.60 9  151 260 
 PTB  HN ES        611 34.92                             131   -0.90 9  151 260 
 PTB  HZ I         611 36.65         3.6 0.52            131            151 260 
 OCA  HZ EP        611 15.45                             128   -0.71 9  163 352 
 OCA  HN ES        611 37.80                             128   -0.43 9  163 352 
 OCA  HZ I         611 40.67         2.7 0.48            129            163 352 
 SPBC HZ EP        611 16.71                             128    0.57 9  164 220 
 SPBC HN ES        611 38.04                             128   -0.15 9  164 220 
 SPBC HZ I         611 41.35         2.3 0.14            130            164 220 
 ZAR  HZ EP        611 21.06                             121    0.57 8  208 292 
 ZAR  HN ES        611 46.06                             121    0.13 8  208 292 
 ZAR  HZ I         611 51.66         3.8 0.42            122            208 292 
 SML  HZ EP        611 23.90                             116   -0.77 8  247 335 
                                                                                
