 2017  330 0552 14.7 L   6.750 -73.111153.9  RSN  6 0.2 1.1LRSN                1
 GAP=237        0.40       3.8     4.9  5.5  0.6643E+01 -0.4942E+01  0.9352E+00E
 Epicentro: LOS SANTOS - SANTANDER                                             3
 ACTION:UPD 17-05-25 18:47 OP:jn   STATUS:               ID:20170330055214 L   I
 OLDACT:REG 17-03-30 12:35 OP:and  STATUS:               ID:20170330054745     3
 2017-03-30-0548-00M.COL___353                                                 6
 STAT SP IPHASW D HRMM SECON CODA AMPLIT PERI AZIMU VELO AIN AR TRES W  DIS CAZ7
 BAR2 EZ EP   2    552 35.11                             173   -0.08 5 19.1 204 
 BRR  HZ EP        552 37.00                             152   -0.0310 77.3 301 
 BRR  HE ES        552 54.52                             152    0.0510 77.3 301 
 BRR  HZ I         552 58.28         4.4 0.30            158           77.3 301 
 RUS  HZ EP   2    552 39.31                             147    0.49 5 94.8 178 
 RUS  HN ES   2    552 57.35                             147   -0.32 5 94.8 178 
 RUS  HZ I         553  1.18         1.1 0.22            151           94.8 178 
 PTB  HZ EP   2    552 42.16                             133   -0.38 5  151 261 
 PTB  HN ES   2    553  4.27                             133   -0.02 5  151 261 
 PTB  HZ I         553  4.66         1.3 0.44            140            151 261 
 SPBC HE ES   2    553  6.41                             131    0.19 5  161 221 
 ZAR  HZ EP   4    552 50.33                             123    2.11 0  210 293 
 ZAR  HN ES   2    553 14.40                             123    0.01 4  210 293 
                                                                                
