 2014  930 0119 21.9 L   6.840 -73.150144.6  RSN  7 0.4 1.6LRSN                1
 GAP=201        1.00       3.5     6.6  6.1  0.5866E+01  0.1583E+01 -0.9779E+00E
 Epicentro: LOS SANTOS - SANTANDER                                             3
 ACTION:UPD 14-10-03 23:09 OP:nd   STATUS:               ID:20140930011921 L   I
 OLDACT:REG 14-09-30 12:02 OP:stll STATUS:               ID:20140930011813     3
 2014-09-30-0118-13M.COL___292                                                 6
 STAT SP IPHASW D HRMM SECON CODA AMPLIT PERI AZIMU VELO AIN AR TRES W  DIS CAZ7
 BAR2 SZ ES        119 56.90                             169    0.1610 27.6 187 
 BAR2 SZ I         119 58.46         5.8 0.56            170           27.6 187 
 BRR  HZ EP        119 43.60                             153    0.8410 68.7 295 
 BRR  HN ES        119 58.51                             153   -0.5410 68.7 295 
 RUS  HZ EP        119 45.96                             142    0.1210  105 176 
 RUS  HN ES        120  4.35                             142   -0.1810  105 176 
 RUS  HZ I         120  7.04         3.6 0.40            144            105 176 
 PTB  HZ EP        119 48.55                             132   -0.24 9  148 257 
 PTB  HN ES        120 10.15                             132    0.37 9  148 257 
 PTB  HZ I         120 11.72         8.1 0.10            133            148 257 
 SPBC HZ EP        119 50.57                             128   -0.02 9  166 218 
 SPBC HZ I         119 51.72         7.3 0.10            129            166 218 
 SPBC HN ES        120 12.81                             128   -0.17 9  166 218 
 SML  HZ EP        119 58.12                             118    0.14 8  239 335 
 SML  HN ES        120 25.83                             118   -0.31 8  239 335 
 SML  HZ I         120 31.66         7.2 0.24            118            239 335 
 CHI  HZ EP        119 59.22                             116   -0.74 8  253 195 
 CHI  HZ I         120  1.40         2.0 0.48            117            253 195 
 CHI  HN ES        120 30.03                             116    0.36 8  253 195 
                                                                                
