 2013  930 0920 42.8 L   6.809 -73.247161.0  RSN  5 0.5 1.5LRSN                1
 GAP=238        1.28       5.8    12.5 11.3 -0.4152E+01 -0.4716E+02 -0.6864E+01E
 Epicentro: ZAPATOCA - SANTANDER                                               3
 ACTION:UPD 13-10-22 09:26 OP:ep   STATUS:               ID:20130930092042 L   I
 OLDACT:REG 13-09-30 06:08 OP:nd   STATUS:               ID:20130930091959     3
 2013-09-30-0919-59M.COL___272                                                 6
 STAT SP IPHASW D HRMM SECON CODA AMPLIT PERI AZIMU VELO AIN AR TRES W  DIS CAZ7
 BRR  HZ EP        921  5.43                             158    0.3310 61.1 303 
 BRR  HN ES        921 22.52                             158    0.0110 61.1 303 
 BRR  HZ I         921 24.57         2.9 0.40            151           61.1 303 
 PTB  HZ EP        921 10.23                             138    0.11 9  137 258 
 PTB  HN ES        921 31.11                             138   -0.34 9  137 258 
 PTB  HZ I         921 39.01         3.1 0.26            132            137 258 
 SPBC HZ EP        921 12.39                             133    0.44 9  157 216 
 SPBC HN ES        921 34.39                             133   -0.32 9  157 216 
 SPBC HZ I         921 41.95         3.4 0.22            130            157 216 
 ZAR  HZ EP        921 14.11                             127   -1.10 9  193 293 
 ZAR  HN ES        921 41.45                             127    0.94 9  193 293 
 ZAR  HZ I         921 47.75         2.5 0.24            124            193 293 
 SML  HZ EP        921 20.10                             121    0.36 8  238 338 
 SML  HN ES        921 48.02                             121   -0.55 8  238 338 
 SML  HZ I         921 51.36         4.7 0.10            121            238 338 
                                                                                
