 2012  530 0649 37.2 L   6.804 -73.200133.7  RSN  7 0.3 2.0LRSN                1
 GAP=180        0.61       2.9     4.2  6.5 -0.1861E+01  0.8870E+01 -0.6755E+00E
 Epicentro: ZAPATOCA - SANTANDER                                               3
 ACTION:UP  12-07-05 12:09 OP:pat  STATUS:               ID:20120530064937 L   I
 2012-05-30-0646-48S.COL___181                                                 6
 STAT SP IPHASW D HRMM SECON CODA AMPLIT PERI AZIMU VELO AIN AR TRES W  DIS CAZ7
 BAR2 SZ EP   1    649 55.80                             170     0.4 7   23 175 
 BAR2 SZ ES   1    650  9.38                             170    -0.2 7   23 175 
 BAR2 SZ I         650 12.08        21.7 0.26                            23 175 
 PTB  HZ EP   1    650  2.57                             130    -0.1 7  142 258 
 PTB  HN ES   1    650 22.69                             130     0.1 7  142 258 
 PTB  HZ I         650 26.07         9.7 0.16                           142 258 
 OCA  HZ EP   1    650  4.17                             127    -0.4 7  159 355 
 OCA  HN ES   1    650 26.01                             127     0.2 7  159 355 
 OCA  HZ I         650 28.99        23.7 0.24                           159 355 
 ZAR  HZ EP   1    650  8.29                             120     0.0 6  198 293 
 ZAR  HN ES   1    650 32.92                             120     0.3 6  198 293 
 ZAR  HZ I         650 39.57         8.5 0.32                           198 293 
 CHI  HN ES   1    650 43.00                             115     0.0 6  248 194 
 HEL  HN ES   1    650 46.11                             113    -0.5 6  266 255 
 PRA  HN ES   1    651 11.65                             105     0.4 4  389 209 
                                                                                
