 2016 1030 0910 18.0 L   6.771 -73.155156.1  RSN  4 0.4 1.1LRSN                1
 GAP=234        1.06       8.8     8.3  8.5  0.3539E+02  0.3703E+01 -0.9060E+00E
 Epicentro: LOS SANTOS - SANTANDER                                             3
 ACTION:UPD 16-11-09 19:24 OP:rebc STATUS:               ID:20161030091018 L   I
 OLDACT:REG 16-10-30 15:05 OP:cog  STATUS:               ID:20161030090741     3
 2016-10-30-0908-00M.COL___315                                                 6
 STAT SP IPHASW D HRMM SECON CODA AMPLIT PERI AZIMU VELO AIN AR TRES W  DIS CAZ7
 BAR2 EZ EP        910 38.20                             172   -0.6110 20.0 189 
 BAR2 EZ ES        910 54.55                             172   -0.4910 20.0 189 
 BAR2 EZ E         910 54.83                                           20.0 189 
 BAR2 EZ I         910 56.15         3.0 0.22            171           20.0 189 
 BRR  HZ EP        910 40.53                             154    0.2210 71.9 301 
 BRR  HE ES        910 58.23                             154    0.5210 71.9 301 
 RUS  HZ EP     C  910 42.78                             147    0.2210 97.5 175 
 RUS  HE ES        911  2.14                             147    0.4110 97.5 175 
 RUS  HZ I         911  3.45         1.8 0.30            146           97.5 175 
 PTB  HZ EP        910 45.72                             135    0.04 9  146 260 
 PTB  HN ES        911  6.92                             135   -0.35 9  146 260 
                                                                                
