 2016 1030 0251 21.7 L   6.793 -73.113142.3  RSN  9 0.4 1.4LRSN                1
 GAP=141        0.88       5.4     5.3  5.7 -0.1647E+02 -0.3955E+01  0.1267E+02E
 Epicentro: LOS SANTOS - SANTANDER                                             3
 ACTION:UPD 16-11-09 19:24 OP:rebc STATUS:               ID:20161030025121 L   I
 OLDACT:UP  16-10-30 21:15 OP:dani STATUS:               ID:20161030024747     3
 OLDACT:UP  16-10-30 21:14 OP:dani STATUS:               ID:20161030024747     3
 OLDACT:UP  16-10-30 16:11 OP:cog  STATUS:               ID:20161030024747     3
 OLDACT:REG 16-10-30 14:04 OP:cog  STATUS:               ID:20161030024747     3
 2016-10-30-0248-00M.COL___315                                                 6
 STAT SP IPHASW D HRMM SECON CODA AMPLIT PERI AZIMU VELO AIN AR TRES W  DIS CAZ7
 BAR2 EZ EP        251 40.81                             170   -0.1310 23.5 199 
 BAR2 EZ ES        251 56.16                             170    0.2210 23.5 199 
 BAR2 EZ I         251 57.51         5.2 0.40            169           23.5 199 
 BRR  HZ EP        251 42.28                             152   -0.4310 74.7 298 
 BRR  HN ES        251 58.86                             152   -0.2110 74.7 298 
 PAM  HZ EP        251 43.84                             151    0.3710 75.7  37 
 PAM  EN ES        252  0.50                             151    0.0610 75.7  37 
 PAM  EE ES   3    252  0.89                             151    0.45 2 75.7  37 
 PAM  HZ I         252 33.72         2.8 0.38            128           75.7  37 
 RUS  HZ EP        251 44.78                             143   -0.2910 99.7 178 
 RUS  HN ES   3    252  1.71                             143   -1.57 2 99.7 178 
 RUS  HZ I         252  4.66         1.1 0.03            135           99.7 178 
 PTB  HZ EP   9    251 47.42                             131   -1.30 0  151 259 
 PTB  HN ES        252  7.87                             129   -0.61 9  151 259 
 PTB  HZ I         252 14.73         2.7 0.24            122            151 259 
 SPBC HZ EP        251 49.82                             128   -0.30 9  165 220 
 SPBC HE ES        252 12.84                             128    0.56 9  165 220 
 SPBC HZ I         252 17.71         4.8 0.08            120            165 220 
 NOR  HZ EP        251 57.31                             118   -0.21 8  237 235 
 NOR  HE ES        252 25.86                             118    0.41 8  237 235 
 NOR  HZ I         252 28.81         2.1 0.24            110            237 235 
 GUY2CHZ EP   4    252  7.91                             111    2.45 0  304 235 
 GUY2CHN ES   4    252 43.58                             111    4.01 0  304 235 
 GUY2CHZ I         252 48.26         1.2 0.34                           304 235 
 PRA  HZ EP        252 15.69                             106    0.43 6  393 210 
 PRA  HZ I         253  2.16         1.5 0.26            101            393 210 
                                                                                
