 2017  630 0544 22.8 L   6.158 -73.704109.9  RSN  8 0.5 1.3LRSN                1
 GAP=166        0.83       3.7     4.3  6.4 -0.7390E+01  0.8768E+01 -0.4470E+00E
 Epicentro: LA PAZ - SANTANDER                                                 3
 ACTION:UPD 17-09-14 16:56 OP:jn   STATUS:               ID:20170630054422 L   I
 OLDACT:UP  17-06-30 16:12 OP:and  STATUS:               ID:20170630052941d    3
 OLDACT:UP  17-06-30 16:11 OP:and  STATUS:               ID:20170630052941d    3
 OLDACT:UP  17-06-30 16:11 OP:and  STATUS:               ID:20170630052941d    3
 OLDACT:UP  17-06-30 16:11 OP:and  STATUS:               ID:20170630052941d    3
 OLDACT:DUP 17-06-30 16:09 OP:and  STATUS:               ID:20170630052941d    3
 OLDACT:UP  17-06-30 16:08 OP:and  STATUS:               ID:20170630052940     3
 OLDACT:UP  17-06-30 16:08 OP:and  STATUS:               ID:20170630052940     3
 OLDACT:UP  17-06-30 16:08 OP:and  STATUS:               ID:20170630052940     3
 OLDACT:UP  17-06-30 16:07 OP:and  STATUS:               ID:20170630052940     3
 OLDACT:REG 17-06-30 13:28 OP:and  STATUS:               ID:20170630052940     3
 2017-06-30-0538-00M.COL___365                                                 6
 STAT SP IPHASW D HRMM SECON CODA AMPLIT PERI AZIMU VELO AIN AR TRES W  DIS CAZ7
 SPBC HZ IP     D  544 40.03                             145   -0.2010 69.2 216 
 SPBC HN ES        544 53.94                             145    0.1410 69.2 216 
 SPBC HZ I         544 57.66         7.6 0.10            147           69.2 216 
 BAR2 EZ EP   2    544 40.91                             143    0.06 5 75.0  50 
 BAR2 EZ ES        544 54.88                             143   -0.0310 75.0  50 
 BAR2 EZ I         544 55.84         7.8 0.28            148           75.0  50 
 PTB  HZ IP   2 D  544 40.95                             136   -1.04 5 93.3 297 
 PTB  HN ES        544 56.33                             136   -0.5910 93.3 297 
 PTB  HZ I         544 59.15         1.5 0.08            138           93.3 297 
 BRR  HZ EP   3    544 43.58                             133    0.61 2  105 359 
 BRR  HN ES        544 59.26                             133    0.5810  105 359 
 NOR  HZ EP   2    544 46.94                             123    0.04 5  145 243 
 NOR  HN ES        545  5.58                             123   -0.09 9  145 243 
 NOR  HZ I         545  8.70         3.3 0.26            125            145 243 
 ZAR  HZ EP        544 52.04                             114   -0.18 9  195 319 
 ZAR  HN ES   3    545 16.51                             114    1.36 2  195 319 
 ZAR  HZ I         545 17.00         2.4 0.12            117            195 319 
 GUY2CHZ EP        544 54.79                             112    0.19 8  211 241 
 GUY2CHN ES   2    545 20.40                             112    1.02 4  211 241 
 GUY2CHZ I         545 23.80         1.3 0.54                           211 241 
 CBOC HZ EP   2    544 59.92                             107    0.35 4  258 263 
 CBOC HN ES   2    545 28.81                             107    0.59 4  258 263 
                                                                                
