 2015  130 0521 36.3 L   6.810 -73.148146.1  RSN 16 0.4 2.1LRSN                1
 GAP= 71        0.99       2.5     2.7  4.8 -0.6156E+00  0.2896E+01  0.6145E+00E
 Epicentro: LOS SANTOS - SANTANDER                                             3
 ACTION:UPD 15-03-02 15:43 OP:nd   STATUS:               ID:20150130052136 L   I
 OLDACT:UP  15-01-30 16:42 OP:cam  STATUS:               ID:20150130051817     3
 OLDACT:UP  15-01-30 16:42 OP:cam  STATUS:               ID:20150130051817     3
 OLDACT:REG 15-01-30 13:08 OP:cam  STATUS:               ID:20150130051817     3
 2015-01-30-0518-17M.COL___268                                                 6
 STAT SP IPHASW D HRMM SECON CODA AMPLIT PERI AZIMU VELO AIN AR TRES W  DIS CAZ7
 BAR2 EZ IP     D  521 55.99                             170    0.0010 24.3 189 
 BAR2 EZ ES        522 10.81                             170   -0.5310 24.3 189 
 BAR2 EZ I         522 13.73        16.7 0.34            171           24.3 189 
 BRR  HZ EP     D  521 57.79                             153    0.3510 70.5 298 
 BRR  HE ES        522 14.68                             153    0.7510 70.5 298 
 BRR  HZ I         522 20.02        14.3 0.14            151           70.5 298 
 PAM  SZ EP        521 58.73                             151    0.2210 76.7  40 
 PAM  SN ES        522 15.71                             151   -0.1210 76.7  40 
 PAM  SZ I         522 17.88        14.1 0.34            153           76.7  40 
 RUS  HZ EP        521 59.87                             144   -0.2910  102 176 
 RUS  HN ES        522 18.76                             144   -0.0110  102 176 
 RUS  HZ I         522 19.45         8.7 0.26            146            102 176 
 PTB  HZ EP        522  2.67                             132   -0.62 9  148 258 
 PTB  HN ES        522 24.14                             132   -0.20 9  148 258 
 PTB  HZ I         522 31.20        24.7 0.34            132            148 258 
 TAM  HZ EP        522  4.19                             130    0.14 9  156 105 
 TAM  HN ES        522 26.34                             130    0.65 9  156 105 
 TAM  HN I         522 30.26        14.8 0.30            135            156 105 
 OCA  HZ EP        522  4.79                             130    0.26 9  159 353 
 OCA  HN ES        522 26.06                             130   -0.49 9  159 353 
 OCA  HZ I         522 35.88        12.0 0.36            131            159 353 
 SPBC HZ EP        522  4.88                             129   -0.01 9  164 219 
 SPBC HN ES        522 26.77                             129   -0.41 9  164 219 
 SPBC HZ I         522 31.40        18.8 0.16            130            164 219 
 ZAR  HZ EP        522  8.81                             122    0.11 9  203 292 
 ZAR  HN ES        522 34.22                             122    0.25 9  203 292 
 ZAR  HZ I         522 39.97        25.3 0.26            123            203 292 
 NOR  HZ EP        522 11.83                             118   -0.26 8  235 234 
 NOR  HN ES        522 39.97                             118   -0.04 8  235 234 
 NOR  HZ I         522 45.34        10.4 0.32            120            235 234 
 SML  HZ EP        522 12.47                             118   -0.35 8  243 335 
 SML  HN ES        522 41.01                             118   -0.30 8  243 335 
 SML  HZ I         522 45.84        10.5 0.10            119            243 335 
 CHI  HZ EP        522 13.82                             117   -0.30 8  250 195 
 CHI  HN ES        522 43.29                             117   -0.33 8  250 195 
 CHI  HZ I         522 53.13         5.1 0.34            119            250 195 
 HEL  HZ EP   4    522 18.00                             115    1.47 0  272 256 
 HEL  HN ES        522 48.05                             115    0.14 8  272 256 
 HEL  HZ I         522 54.86         7.3 0.36            116            272 256 
 GUY2CHZ EP        522 20.42                             112    0.45 7  302 235 
 GUY2CHN ES        522 55.23                             112    1.20 7  302 235 
 GUY2CHZ I         523  4.59         6.7 0.54                           302 235 
 TOL  SZ EP   4    522 26.19                             109    1.55 0  344 224 
 TOL  SN ES   4    523  4.10                             109    1.76 0  344 224 
 TOL  SZ I         523  7.06         5.3 0.40            111            344 224 
 MON  HZ EP   4    522 23.42                             109   -1.79 0  353 308 
 MON  HN ES   4    523  1.32                             109   -2.04 0  353 308 
 MON  HZ I         523 16.94         4.1 0.70            110            353 308 
                                                                                
