 2010 1130 0719 17.6 L   6.858 -73.373114.1  RSN 10 0.4 1.8LRSN                1
 GAP=105        0.68       4.6     6.6  6.5 -0.1055E+02  0.3555E+01  0.7029E+01E
 Epicentro: SAN VICENTE DE CHUCURI - SANTANDER                                 3
 ACTION:UP  10-12-17 16:56 OP:REBC STATUS:               ID:20101130071917 L   I
 2010-11-30-0715-05S.COL___131                                                 6
 STAT SP IPHASW D HRMM SECON CODA AMPLIT PERI AZIMU VELO SNR AR TRES W  DIS CAZ7
 GIR2 SZ EP   2    719 33.69                             163     0.1 5   31  39 
 BAR2 SZ EP   1    719 33.83                             162    -0.1 7   36 145 
 BAR2 SZ ES   2    719 45.98                             162    -0.6 5   36 145 
 BAR2 SZ I         719 47.87        41.3 0.27                            36 145 
 BRR  HZ EP   1    719 33.91                             156    -0.1 7   47 306 
 BRR  HN ES   1    719 47.14                             156     0.4 7   47 306 
 BRR  HZ I         719 49.42         9.1 0.20                            47 306 
 GUE  SZ EP   2    719 39.83                             131     0.1 5  118  25 
 OCA  SZ EP   1    719 42.88                             123    -0.1 7  153   2 
 OCA  SZ I         720  9.00        11.4 0.34                           153   2 
 NOR  SZ EP   1    719 49.59                             113    -0.4 6  219 229 
 NOR  SN ES   2    720 14.58                             113    -0.6 4  219 229 
 CHI  HZ EP   2    719 53.85                             110    -0.1 4  250 189 
 CHI  HN ES   2    720 23.05                             110     0.9 4  250 189 
 HEL  HZ EP   2    719 54.47                             110     0.6 4  250 253 
 HEL  HZ I         720 25.02         3.4 0.22                           250 253 
 CHI  HZ I         720 26.80         2.1 0.08                           250 189 
 RREF HN ES   2    720 34.38                             105    -0.3 4  308 225 
 RREF HZ I         720 45.41         3.0 0.37                           308 225 
 PRA  HZ EP   2    720 10.42                             101     0.9 3  386 206 
 PRA  HZ I         720 57.95         6.9 0.11                           386 206 
                                                                                
