 2011 1030 0450  3.8 L   6.346 -73.590112.5  RSN 18 0.4 2.4LRSN                1
 GAP= 71        0.85       2.7     3.3  6.1  0.1109E+01  0.9842E+01  0.4316E+01E
 Epicentro: SANTA HELENA DEL OPON - SANTANDER                                  3
 ACTION:UPD 12-07-13 16:07 OP:ep   STATUS:               ID:20111030045003 L   I
 2011-10-30-0448-33S.COL___157                                                 6
 STAT SP IPHASW D HRMM SECON CODA AMPLIT PERI AZIMU VELO AIN AR TRES W  DIS CAZ7
 BAR2 SZ IP     C  450 20.81                             153    0.1710 52.6  59 
 BAR2 SZ ES   1    450 33.57                             153   -0.21 7 52.6  59 
 BAR2 SZ I         450 35.42        89.0 0.24                          52.6  59 
 BTL  SZ EP        450 22.33                             145    0.4410 72.6  29 
 RUS  HZ EP        450 22.08                             144   -0.3510 75.2 132 
 RUS  HN ES   1    450 36.41                             144   -0.56 7 75.2 132 
 RUS  HZ I         450 39.05        41.8 0.22                          75.2 132 
 BRR  HZ IP     D  450 22.36                             140   -0.1410 85.3 351 
 BRR  HN ES   1    450 37.64                             140    0.55 7 85.3 351 
 BRR  HZ I         450 44.83        25.4 0.10                          85.3 351 
 PAM  SZ EP        450 28.88                             123    0.02 9  147  42 
 CTAB SZ EP   2    450 31.38                             121    1.00 5  163 205 
 NOR  SZ EP   1    450 29.99                             120   -0.23 7  166 239 
 NOR  SN ES   1    450 50.33                             120   -0.51 7  166 239 
 YOP  SZ EP        450 30.84                             119    0.16 9  170 130 
 YOP  SN ES   1    450 52.20                             119    0.55 7  170 130 
 YOP  SZ I         450 53.70        48.6 0.44                           170 130 
 ZAR  HZ EP        450 32.80                             116    0.16 9  189 312 
 ZAR  HN ES   2    450 55.52                             116    0.36 4  189 312 
 ZAR  HZ I         451  0.59        22.7 0.28                           189 312 
 OCA  SZ EP        450 34.96                             113   -0.36 8  211   8 
 OCA  SZ I         451  6.44        28.3 0.40                           211   8 
 HEL  HZ EP        450 36.09                             113    0.07 8  215 266 
 HEL  HZ I         451  4.75        18.0 0.28                           215 266 
 GUY  SZ EP   3    450 39.12                             111    0.74 2  235 238 
 VIL  SZ EP        450 38.85                             109   -0.52 8  247 183 
 VIL  SE ES   2    451  7.99                             109    0.87 4  247 183 
 RREF HZ EP        450 40.59                             109    0.06 8  252 231 
 RREF HZ I         451 15.09        18.3 0.26                           252 231 
 TOL  SZ EP        450 43.33                             107    0.70 8  273 225 
 ANIL HZ EP   1    450 44.25                             106    0.05 5  287 225 
 ANIL HZ I         451 25.22        33.4 0.36                           287 225 
 PRA  HZ EP        450 47.64                             103   -0.67 7  325 206 
 MON  HE ES   1    451 28.09                             102   -0.93 5  353 320 
                                                                                
