 2016  830 0156 52.6 L   6.920 -73.393114.0  RSN  9 0.4 1.5LRSN                1
 GAP=118        0.83       2.8     3.1  4.9  0.2664E+00  0.3232E+01  0.2455E+01E
 Epicentro: SAN VICENTE DE CHUCURI - SANTANDER                                 3
 ACTION:UPD 16-10-29 15:40 OP:rebc STATUS:               ID:20160830015652 L   I
 OLDACT:UP  16-08-30 13:37 OP:edw  STATUS:               ID:20160830014738d    3
 OLDACT:UP  16-08-30 13:36 OP:edw  STATUS:               ID:20160830014738d    3
 OLDACT:DUP 16-08-30 13:29 OP:edw  STATUS:               ID:20160830014738d    3
 OLDACT:UP  16-08-30 13:27 OP:edw  STATUS:               ID:20160830014737     3
 OLDACT:REG 16-08-30 12:22 OP:edw  STATUS:               ID:20160830014737     3
 2016-08-30-0148-00M.COL___359                                                 6
 STAT SP IPHASW D HRMM SECON CODA AMPLIT PERI AZIMU VELO AIN AR TRES W  DIS CAZ7
 BRR  HZ EP        157  8.62                             159   -0.0810 40.8 300 
 BRR  HE ES        157 21.47                             159    0.2310 40.8 300 
 BRR  HZ I         157 22.47         7.4 0.12                          40.8 300 
 BAR2 EZ EP        157  8.91                             158   -0.2410 43.1 147 
 BAR2 EZ ES        157 21.69                             158   -0.3610 43.1 147 
 BAR2 EZ I         157 22.89        23.8 0.14                          43.1 147 
 PAM  EZ EP        157 12.80                             140    0.3110 89.6  59 
 PAM  EE ES        157 28.31                             140    0.3210 89.6  59 
 PAM  EZ I         157 31.17         8.2 0.32                          89.6  59 
 RUS  HZ EP        157 14.25                             131   -0.7510  119 163 
 RUS  HN ES        157 32.54                             131    0.0710  119 163 
 RUS  HZ I         157 35.36         2.4 0.28                           119 163 
 PTB  HZ EP   9    157 13.61                             129   -1.33 0  125 250 
 PTB  HE ES        157 31.11                             128    0.0910  125 250 
 PTB  HZ I         157 34.74         3.5 0.11                           125 250 
 SPBC HZ EP        157 18.64                             122    0.18 9  159 208 
 SPBC HN ES        157 38.62                             122   -0.00 9  159 208 
 SPBC HZ I         157 43.62         5.3 0.09                           159 208 
 ZAR  HZ EP        157 19.56                             119   -0.33 9  174 291 
 ZAR  HN ES        157 41.22                             119    0.04 9  174 291 
 ZAR  HZ I         157 44.95         6.1 0.09                           174 291 
 CHI  HZ EP   2    157 29.76                             109    0.14 4  256 188 
 CHI  HN ES        157 59.33                             109    0.84 8  256 188 
 GUY2CHZ EP   2    157 33.44                             106    0.06 4  288 229 
 GUY2CHN ES   2    158  5.23                             106    0.05 4  288 229 
 GUY2CHZ I         158 12.83         1.8 0.48                           288 229 
                                                                                
