 2015 1230 0512 35.7 L   6.809 -73.153144.8  RSN 13 0.4 2.0LRSN                1
 GAP=182        0.91       2.3     4.2  4.9 -0.2362E+00  0.2080E+01  0.9288E+00E
 Epicentro: LOS SANTOS - SANTANDER                                             3
 ACTION:UPD 16-02-04 15:09 OP:cam  STATUS:               ID:20151230051235 L   I
 OLDACT:DUP 15-12-30 16:33 OP:ak   STATUS:               ID:20151230050749d    3
 2015-12-30-0507-48M.COL___334                                                 6
 STAT SP IPHASW D HRMM SECON CODA AMPLIT PERI AZIMU VELO AIN AR TRES W  DIS CAZ7
 BAR2 EZ EP        512 55.48                             170    0.2410 24.2 188 
 BAR2 EZ ES        513 10.14                             170   -0.3410 24.2 188 
 BAR2 EZ I         513 11.83        27.4 0.34            168           24.2 188 
 BRR  HZ IP     C  512 57.28                             153    0.5910 70.0 298 
 BRR  HN ES        513 13.94                             153    0.8910 70.0 298 
 BRR  HZ I         513 18.26        18.6 0.42            148           70.0 298 
 RUS  HZ EP        512 59.46                             143    0.0210  102 176 
 RUS  HN ES        513 17.85                             143   -0.1110  102 176 
 PTB  HZ EP        513  2.50                             132   -0.04 9  147 258 
 PTB  HN ES        513 23.23                             132   -0.24 9  147 258 
 PTB  HZ I         513 30.44         7.3 0.27            130            147 258 
 OCA  HZ EP        513  3.44                             130   -0.41 9  159 353 
 OCA  HN ES        513 25.68                             130   -0.11 9  159 353 
 OCA  HZ I         513 29.31        21.2 0.20            130            159 353 
 SPBC HZ EP        513  4.18                             129    0.02 9  163 219 
 SPBC HN ES        513 26.02                             129   -0.33 9  163 219 
 ZAR  HZ EP   4    513  9.48                             122    1.51 0  203 292 
 ZAR  HN ES        513 33.05                             122   -0.09 9  203 292 
 ZAR  HZ I         513 40.22         9.1 0.29            121            203 292 
 NOR  HZ EP   4    513 15.54                             118    4.17 0  235 234 
 NOR  HN ES        513 38.64                             118   -0.55 8  235 234 
 SML  HZ EP        513 11.66                             117   -0.49 8  242 335 
 SML  HN ES        513 40.39                             117   -0.18 8  242 335 
 SML  HZ I         513 44.17        12.9 0.07            118            242 335 
 CHI  HZ EP        513 13.46                             117    0.03 8  249 195 
 CHI  HN ES        513 42.70                             117   -0.16 8  249 195 
 CHI  HZ I         513 46.48         4.1 0.60            118            249 195 
 PRA  HZ EP        513 29.53                             106    0.28 6  392 209 
 PRA  HN ES        514 11.00                             106   -0.00 6  392 209 
 PRA  HZ I         514 16.68         5.4 0.32            107            392 209 
 ORTC HZ EP        513 30.59                             106    0.96 6  396 216 
 ORTC HN ES        514 12.18                             106    0.49 6  396 216 
 ORTC HZ I         514 16.98         2.3 0.14            107            396 216 
 SJC  HZ EP   4    513 29.74                             106   -1.35 0  408 327 
 SJC  HN ES   4    514 12.17                             106   -2.12 0  408 327 
 SJC  HZ I         514 17.69         1.9 0.29            106            408 327 
                                                                                
