 2016  430 0643 40.4 L   6.794 -73.165142.0  RSN  5 0.3 1.4LRSN                1
 GAP=135        0.62       2.6     5.9  7.8 -0.5605E+01  0.7650E+01 -0.6761E+01E
 Epicentro: LOS SANTOS - SANTANDER                                             3
 ACTION:UPD 16-05-05 14:25 OP:rebc STATUS:               ID:20160430064340 L   I
 OLDACT:DUP 16-04-30 17:21 OP:dnl  STATUS:               ID:20160430062929d    3
 2016-04-30-0630-00M.COL                                                       6
 STAT SP IPHASW D HRMM SECON CODA AMPLIT PERI AZIMU VELO AIN AR TRES W  DIS CAZ7
 BAR2 EZ EP   2    643 59.55                             171   -0.04 5 22.4 185 
 BAR2 EZ I         644 15.68         6.2 0.34            172           22.4 185 
 PAM  EZ EP        644  2.36                             150   -0.0110 79.2  40 
 PAM  EN ES   2    644 18.58                             150   -0.89 5 79.2  40 
 PAM  EZ I         644 34.59         5.1 0.24            150           79.2  40 
 RUS  HZ EP        644  3.80                             143    0.0210  100 175 
 RUS  HN ES        644 22.24                             143    0.2510  100 175 
 RUS  HZ I         644 23.12         2.0 0.50            149            100 175 
 SPBC HZ EP   2    644  8.56                             129    0.09 5  161 219 
 SPBC HN ES        644 30.14                             129   -0.20 9  161 219 
 SPBC HZ I         644 36.23         3.7 0.40            138            161 219 
 OCA  HZ EP        644  8.29                             129   -0.21 9  161 354 
 OCA  HN IS        644 30.73                             129    0.34 9  161 354 
 OCA  HZ I         644 33.44         4.9 0.16            134            161 354 
                                                                                
