 2013  630 0900 33.6 L   6.600 -73.582102.8  RSN 11 0.5 1.7LRSN                1
 GAP= 74        1.18       4.1     3.8  8.0  0.9973E+00  0.9409E+01 -0.2717E+01E
 Epicentro: EL CARMEN DE CHUCURI - SANTANDER                                   3
 ACTION:UPD 14-01-08 09:58 OP:ep   STATUS:               ID:20130630090033 L   I
 OLDACT:REG 13-06-30 07:55 OP:jn   STATUS:               ID:20130630085959     3
 2013-06-30-0859-59M.COL___267                                                 6
 STAT SP IPHASW D HRMM SECON CODA AMPLIT PERI AZIMU VELO AIN AR TRES W  DIS CAZ7
 BAR2 SZ EP        9 0 49.34                             155    0.3610 44.2  91 
 BAR2 SZ ES        9 1  1.44                             155    0.4910 44.2  91 
 BAR2 SZ I         9 1  3.13        95.8 0.18            165           44.2  91 
 BRR  HZ EP     C  9 0 49.39                             148   -0.0410 57.9 346 
 BRR  HN ES   1    9 1  2.61                             148    0.86 7 57.9 346 
 BRR  HZ I         9 1 13.05        10.3 0.12            152           57.9 346 
 GIR2 SZ EP        9 0 50.30                             144   -0.0310 68.2  39 
 RUS  HZ EP        9 0 53.12                             134    0.0810 95.8 145 
 RUS  HN ES        9 1  7.89                             134   -0.2910 95.8 145 
 RUS  HZ I         9 1 10.84         8.1 0.24            142           95.8 145 
 PTB  HZ EP        9 0 51.92                             133   -0.5810 96.9 266 
 PTB  HN ES        9 1  6.43                             133   -0.7810 96.9 266 
 PTB  HZ I         9 1  8.32        14.3 0.10            136           96.9 266 
 PAM  SZ EP   1    9 0 55.23                             125   -0.79 7  127  50 
 PAM  SN ES   1    9 1 12.76                             125   -0.71 7  127  50 
 PAM  SZ I         9 1 13.96         9.8 0.14            134            127  50 
 ZAR  HZ EP        9 1  0.24                             116    0.11 9  172 305 
 ZAR  HE ES   1    9 1 20.94                             116    0.16 7  172 305 
 ZAR  HZ I         9 1 26.54        14.5 0.38            120            172 305 
 OCA  HE ES   1    9 1 24.03                             114    0.65 7  184   9 
 CHI  HZ EP   1    9 1  6.91                             110    1.03 6  219 184 
 CHI  HN ES   4    9 1 33.12                             110    2.09 0  219 184 
 CHI  HZ I         9 1 37.40         1.9 0.25            115            219 184 
 HEL  HZ EP   1    9 1  6.53                             109    0.53 6  220 258 
 HEL  HN ES   1    9 1 31.85                             109    0.61 6  220 258 
 HEL  HZ I         9 1 40.60         4.1 0.28            114            220 258 
 SML  HN ES   1    9 1 35.88                             106   -0.57 6  249 348 
                                                                                
