 2014  930 0001 41.9 L   6.822 -73.163143.9  RSN 26 0.5 2.6LRSN                1
 GAP= 53        1.85       3.8     4.7  7.6 -0.1544E+01  0.9888E+01  0.4740E+01E
 Epicentro: LOS SANTOS - SANTANDER                                             3
 ACTION:UPD 14-10-03 23:09 OP:nd   STATUS:               ID:20140930000141 L   I
 OLDACT:REG 14-09-30 11:59 OP:stll STATUS:               ID:20140930000003     3
 2014-09-30-0000-03M.COL___292                                                 6
 STAT SP IPHASW D HRMM SECON CODA AMPLIT PERI AZIMU VELO AIN AR TRES W  DIS CAZ7
 BAR2 SZ IP     C  0 2  1.58                             169    0.2510 25.5 185 
 BAR2 SZ ES        0 2 16.48                             169   -0.0310 25.5 185 
 BAR2 SZ I         0 2 17.68        81.7 0.22            167           25.5 185 
 BRR  HZ IP     C  0 2  3.37                             153    0.7010 68.4 298 
 BRR  HZ I         0 2  3.68        78.5 0.16            152           68.4 298 
 BRR  HN ES        0 2 19.61                             153    0.7310 68.4 298 
 PAM  SZ EP     C  0 2  4.27                             151    0.4110 76.8  42 
 PAM  SN ES        0 2 20.64                             151   -0.3710 76.8  42 
 PAM  SZ I         0 2 23.57        71.5 0.56            156           76.8  42 
 RUS  HZ IP     D  0 2  5.39                             142   -0.2410  103 175 
 RUS  HE ES        0 2 24.19                             142    0.0310  103 175 
 RUS  HZ I         0 2 27.22        30.3 0.24            143            103 175 
 PTB  HZ EP        0 2  8.05                             131   -0.52 9  146 258 
 PTB  HN ES        0 2 29.17                             131   -0.21 9  146 258 
 PTB  HZ I         0 2 36.75        89.2 0.36            132            146 258 
 OCA  HZ EP        0 2  9.45                             129   -0.35 9  158 354 
 OCA  HN ES        0 2 31.86                             129    0.28 9  158 354 
 OCA  HZ I         0 2 40.58        53.7 0.44            132            158 354 
 TAM  HZ IP     D  0 2  9.74                             129    0.10 9  158 106 
 TAM  HZ I         0 2  9.87        31.5 0.18            134            158 106 
 TAM  HN ES        0 2 30.50                             129   -0.80 9  158 106 
 SPBC HZ EP   1    0 2 10.60                             128    0.30 7  164 218 
 SPBC HN ES        0 2 32.48                             128    0.01 9  164 218 
 SPBC HZ I         0 2 40.09        66.1 0.16            129            164 218 
 ZAR  HZ EP        0 2 13.61                             122   -0.31 9  201 292 
 ZAR  HN ES        0 2 38.93                             122    0.01 9  201 292 
 ZAR  HZ I         0 2 45.52        55.9 0.44            123            201 292 
 SML  HZ EP        0 2 17.51                             117   -0.57 8  241 335 
 SML  HN ES        0 2 45.85                             117   -0.46 8  241 335 
 SML  HZ I         0 2 49.72        69.4 0.26            119            241 335 
 CHI  HZ EP        0 2 19.70                             116    0.03 8  250 195 
 CHI  HN ES        0 2 48.48                             116   -0.67 8  250 195 
 CHI  HZ I         0 2 58.52        16.0 0.28            118            250 195 
 ROSC BZ EP        0 2 21.30                             116    1.29 8  254 210 
 ROSC BN ES        0 2 50.70                             116    0.94 8  254 210 
 ROSC BZ I         0 2 59.24        41.2 0.40            117            254 210 
 GUY2CHZ EP        0 2 25.93                             112    0.55 7  301 234 
 GUY2CHN ES        0 3  0.19                             112    0.88 7  301 234 
 GUY2CHZ I         0 3  6.73        23.4 0.44                           301 234 
 SOCV BZ EP   9    0 2 24.23                             111   -0.65 0  302  57 
 SOCV BE ES        0 2 53.77                                   -4.00 7  302  57 
 VIL  SZ EP        0 2 24.96                             111   -0.47 7  305 191 
 VIL  SN ES        0 2 58.68                             111   -0.73 7  305 191 
 VIL  SZ I         0 3 15.18        26.0 0.34            113            305 191 
 PTGC HZ EP   9    0 2 24.47                             111   -1.52 0  312 158 
 PTGC HZ I         0 2 24.98        61.7 0.12            113            312 158 
 PTGC HN ES        0 2 57.35                                   -1.52 7  312 158 
 RREF HZ EP   9    0 2 24.78                             110   -3.17 0  322 229 
 RREF HN ES        0 2 59.51                                   -1.21 7  322 229 
 CBOC HZ EP        0 2 28.85                             109    0.26 7  333 252 
 CBOC HN ES        0 3  4.13                             109   -0.89 7  333 252 
 CBOC HZ I         0 3 13.74         7.5 0.38            110            333 252 
 DBB  SZ EP        0 2 28.75                             109   -0.29 7  337 274 
 DBB  SZ ES        0 3  4.48                             109   -1.34 7  337 274 
 TOL  SZ EP        0 2 31.23                             109    1.13 7  344 224 
 TOL  SN ES        0 3  7.82                             109    0.11 7  344 224 
 MON  HZ EP   9    0 2 28.80                             108   -1.66 0  351 308 
 MON  HN ES        0 3  6.19                                   -0.50 6  351 308 
 MON  HZ I         0 3 11.47         7.3 0.16            110            351 308 
 ARGC HZ EP        0 2 31.22                             108    0.09 6  356 341 
 ANIL HZ EP        0 2 31.99                             108    0.34 6  358 224 
 ANIL HE ES        0 3 10.42                             108   -0.06 6  358 224 
 ANIL HZ I         0 3 17.79         4.0 0.44            109            358 224 
 PRA  HZ EP        0 2 35.20                             106   -0.27 6  393 209 
 PRA  HN ES        0 3 17.13                             106   -0.14 6  393 209 
 PRA  HZ I         0 3 24.02        17.7 0.34            107            393 209 
 ORTC HZ EP        0 2 35.80                             106   -0.03 6  396 216 
 ORTC HN ES        0 3 17.68                             106   -0.23 6  396 216 
 ORTC HZ I         0 3 25.39        12.0 0.44            107            396 216 
 SJC  HZ EP   9    0 2 35.33                             105   -1.69 0  406 327 
 SJC  HE ES        0 3 15.16                                   -3.18 6  406 327 
 SJC  HZ I         0 3 21.20        12.7 0.58            107            406 327 
                                                                                
