 2013  730 0356 45.2 L   6.711 -73.603100.8  RSN  7 0.4 1.4LRSN                1
 GAP=111        1.01       4.4     4.2  7.1  0.5600E+01  0.1167E+02  0.2307E+01E
 Epicentro: EL CARMEN DE CHUCURI - SANTANDER                                   3
 ACTION:UPD 13-08-12 10:41 OP:ep   STATUS:               ID:20130730035645 L   I
 OLDACT:REG 13-07-30 07:40 OP:carl STATUS:               ID:20130730034959     3
 2013-07-30-0349-59M.COL___268                                                 6
 STAT SP IPHASW D HRMM SECON CODA AMPLIT PERI AZIMU VELO AIN AR TRES W  DIS CAZ7
 BRR  HZ EP   1    357  0.12                             154    0.13 7 45.5 345 
 BRR  HN ES        357 11.73                             154    0.1710 45.5 345 
 BRR  HN I         357 13.89        41.6 0.16            153           45.5 345 
 BAR2 SZ EP        357  0.67                             152    0.1810 48.3 106 
 BAR2 SZ ES   1    357 12.82                             152    0.37 7 48.3 106 
 BAR2 SZ I         357 14.36         6.6 0.48            155           48.3 106 
 GIR2 SZ EP        357  1.10                             146   -0.0310 60.8  48 
 GIR2 SZ ES        357 13.24                             146   -0.3510 60.8  48 
 GIR2 SZ I         357 14.81         5.9 0.30            147           60.8  48 
 PTB  HZ IP     C  357  3.28                             132   -0.5110 96.3 259 
 PTB  HN ES   1    357 17.56                             132   -0.76 7 96.3 259 
 PTB  HZ I         357 19.10         7.5 0.18            133           96.3 259 
 RUS  HZ EP   1    357  5.38                             129   -0.05 7  107 148 
 RUS  HN ES   1    357 21.38                             129    0.13 7  107 148 
 RUS  HZ I         357 22.83         2.1 0.40            132            107 148 
 ZAR  HZ EP        357 11.43                             116    0.85 9  163 302 
 ZAR  HE ES        357 30.88                             116    0.47 9  163 302 
 ZAR  HZ I         357 34.73         3.3 0.44            117            163 302 
 SML  HZ EP   1    357 18.39                             107   -0.53 6  237 347 
 SML  HN ES   1    357 44.57                             107   -0.68 6  237 347 
 SML  HZ I         357 49.31         3.1 0.24            108            237 347 
                                                                                
