 2012  830 0216 30.7 L   6.782 -73.157146.1  RSN 13 0.5 2.4LRSN                1
 GAP= 71        1.05       4.5     4.2  7.1 -0.1569E+01  0.5707E+01  0.5071E+01E
 Epicentro: LOS SANTOS - SANTANDER                                             3
 ACTION:UPD 12-09-10 11:59 OP:ep   STATUS:               ID:20120830021630 L   I
 2012-08-30-0210-00M.COL___218                                                 6
 STAT SP IPHASW D HRMM SECON CODA AMPLIT PERI AZIMU VELO AIN AR TRES W  DIS CAZ7
 BAR2 SZ EP        216 50.29                             171   -0.0510 21.1 188 
 BAR2 SZ ES   2    217  5.32                             171   -0.32 5 21.1 188 
 BAR2 SZ I         217  7.09        69.0 0.20                          21.1 188 
 GIR2 SZ EP        216 50.43                             167   -0.0410 33.1 353 
 BRR  HZ EP        216 52.26                             153    0.3710 71.1 300 
 BRR  HE ES   1    217  9.61                             153    1.21 7 71.1 300 
 BRR  HZ I         217 14.15        41.9 0.12                          71.1 300 
 PAM  SZ EP        216 53.34                             150    0.2410 79.7  39 
 PAM  SN ES   1    217 10.29                             150   -0.27 7 79.7  39 
 PAM  SZ I         217 12.62        45.5 0.60                          79.7  39 
 RUS  HZ EP        216 54.28                             144   -0.0710 98.7 175 
 RUS  HE ES   1    217 12.68                             144   -0.12 7 98.7 175 
 RUS  HZ I         217 14.31        20.4 0.64                          98.7 175 
 PTB  HZ EP        216 57.15                             132   -0.41 9  146 260 
 PTB  HN ES   2    217 17.98                             132   -0.52 5  146 260 
 PTB  HZ I         217 21.69        19.2 0.36                           146 260 
 TAM  HZ IP     D  216 58.51                             131    0.03 9  156 104 
 TAM  HZ I         216 58.64        48.9 0.36                           156 104 
 OCA  HZ EP        216 58.54                             130   -0.68 9  162 354 
 OCA  HZ I         217 25.24        61.5 0.44                           162 354 
 ZAR  HZ EP        217  2.74                             123   -0.39 9  204 293 
 ZAR  HE ES   1    217 27.89                             123   -0.53 6  204 293 
 ZAR  HZ I         217 36.27        17.0 0.12                           204 293 
 NOR  SZ EP        217  6.20                             119   -0.02 8  232 235 
 NOR  SN ES   1    217 33.30                             119   -0.62 6  232 235 
 NOR  SZ I         217 39.80        14.3 0.38                           232 235 
 CHI  HZ EP        217  8.37                             117    0.19 8  246 195 
 CHI  HZ I         217 10.90         9.5 0.24                           246 195 
 CHI  HN ES   2    217 37.33                             117   -0.07 4  246 195 
 HEL  HZ EP        217 12.24                             115    1.49 8  270 256 
 HEL  HN ES   1    217 41.86                             115   -0.12 6  270 256 
 HEL  HZ I         217 48.52        11.7 0.32                           270 256 
 PRA  HZ EP   1    217 23.91                             107   -0.05 4  390 210 
 PRA  HN ES   3    218  5.40                             107   -0.10 1  390 210 
 PRA  HZ I         218 11.88        16.9 0.28                           390 210 
                                                                                
