 2015  330 0419 30.8 L   6.819 -73.132148.3  RSN  8 0.5 1.7LRSN                1
 GAP=153        1.19       5.3     6.1  7.8 -0.9201E+01  0.1111E+02 -0.2154E+01E
 Epicentro: LOS SANTOS - SANTANDER                                             3
 ACTION:UPD 15-04-30 16:30 OP:nd   STATUS:               ID:20150330041930 L   I
 OLDACT:REG 15-03-30 18:05 OP:mh   STATUS:               ID:20150330041740     3
 2015-03-30-0417-40M.COL___287                                                 6
 STAT SP IPHASW D HRMM SECON CODA AMPLIT PERI AZIMU VELO AIN AR TRES W  DIS CAZ7
 BAR2 EZ EP        419 50.78                             170    0.0210 25.7 193 
 BAR2 EZ ES        420  5.46                             170   -0.8910 25.7 193 
 BAR2 EZ I         420  6.60        12.9 0.24            159           25.7 193 
 BRR  HZ EP        419 52.40                             153    0.1810 71.6 296 
 BRR  HN ES        420  9.60                             153    0.6510 71.6 296 
 BRR  HZ I         420 13.59         7.9 0.16            133           71.6 296 
 PAM  SZ EP        419 53.72                             152    0.6110 74.7  40 
 PAM  SN ES        420 10.74                             152    0.2110 74.7  40 
 PAM  SZ I         420 12.73         2.9 0.20            137           74.7  40 
 OCA  HZ EP        419 59.21                             130    0.10 9  158 352 
 OCA  HN ES        420 20.89                             130   -0.31 9  158 352 
 OCA  HZ I         420 29.16         7.5 0.48            112            158 352 
 SPBC HZ EP        419 59.37                             129   -0.35 9  166 219 
 SPBC HZ I         420 27.91         6.4 0.22            111            166 219 
 ZAR  HN ES        420 28.61                             123   -0.33 9  205 291 
 ZAR  HZ I         420 43.12        11.4 0.10            106            205 291 
 NOR  HN ES        420 35.62                             119    0.50 8  237 234 
 SML  HZ EP        420  6.81                             118   -0.60 8  242 335 
 SML  HZ I         420 44.19         5.6 0.24            104            242 335 
                                                                                
