 2013  630 0328 56.9 L   6.741 -73.197147.7  RSN  5 0.2 1.3LRSN                1
 GAP=172        0.48       4.0     4.1  4.5  0.7447E+01  0.1445E+01 -0.1554E+01E
 Epicentro: VILLANUEVA - SANTANDER                                             3
 ACTION:UPD 14-01-08 09:58 OP:ep   STATUS:               ID:20130630032856 L   I
 OLDACT:REG 13-06-30 08:19 OP:jn   STATUS:               ID:20130630032735     3
 2013-06-30-0327-35M.COL___229                                                 6
 STAT SP IPHASW D HRMM SECON CODA AMPLIT PERI AZIMU VELO AIN AR TRES W  DIS CAZ7
 BAR2 SZ EP   1    329 16.55                             173   -0.09 7 16.6 174 
 BAR2 SZ ES   1    329 32.11                             173    0.07 7 16.6 174 
 BAR2 SZ I         329 34.28         4.6 0.16            164           16.6 174 
 GIR2 SZ EP   1    329 16.60                             165   -0.37 7 37.3   1 
 BRR  HZ EP   1    329 18.24                             153    0.07 7 69.8 305 
 BRR  HN ES   1    329 34.98                             153    0.21 7 69.8 305 
 RUS  HZ EP        329 20.71                             146    0.2910 94.7 172 
 RUS  HN ES        329 38.63                             146   -0.1510 94.7 172 
 RUS  HZ I         329 42.11         1.9 0.32            143           94.7 172 
 PTB  HZ EP        329 23.43                             134    0.01 9  141 261 
 PTB  HN ES   1    329 43.95                             134   -0.16 7  141 261 
 PTB  HZ I         329 52.04         4.1 0.46            130            141 261 
                                                                                
