 2012 1030 0052 24.7 L   6.789 -73.097150.7  RSN  8 0.4 1.9LRSN                1
 GAP=143        0.82       3.3     5.2  5.7  0.8463E+00  0.2892E+01  0.4799E+01E
 Epicentro: LOS SANTOS - SANTANDER                                             3
 ACTION:UPD 12-11-22 17:06 OP:ep   STATUS:               ID:20121030005224 L   I
 2012-10-30-0050-00M.COL___231                                                 6
 STAT SP IPHASW D HRMM SECON CODA AMPLIT PERI AZIMU VELO AIN AR TRES W  DIS CAZ7
 BAR2 SZ EP        052 44.76                             171   -0.1310 23.7 203 
 BAR2 SZ ES   1    053  0.77                             171    0.10 7 23.7 203 
 BAR2 SZ I         053  3.99        14.8 0.60                          23.7 203 
 GIR2 SZ EP        052 45.23                             167    0.2410 33.7 342 
 GIR2 SZ ES   1    053  0.94                             167    0.10 7 33.7 342 
 PAM  SZ EP        052 47.55                             152    0.2810 75.0  36 
 PAM  SN ES        053  4.72                             152   -0.1810 75.0  36 
 BRR  HZ EP        052 46.66                             152    0.0210 76.5 297 
 BRR  HZ I         052 48.20        15.5 0.14                          76.5 297 
 BRR  HN ES        053  4.26                             152    0.4710 76.5 297 
 RUS  HZ EP        052 48.51                             145   -0.2910 99.2 179 
 RUS  HN ES        053  7.21                             145   -0.4210 99.2 179 
 OCA  HN ES   1    053 15.83                             130   -0.22 7  162 351 
 ZAR  HN ES   1    053 23.04                             123   -0.94 6  209 292 
 CHI  HZ EP        053  2.90                             118    0.23 8  249 196 
 CHI  HE ES   1    053 32.97                             118    0.65 6  249 196 
                                                                                
