 2010  830 0754 24.8 L   6.793 -73.037144.4  RSN  6 0.2 2.2LRSN                1
 GAP=177        0.46       2.5     4.4  4.2  0.1000E+01  0.1461E+00 -0.2449E+01E
 Epicentro: CEPITA - SANTANDER                                                 3
 ACTION:UP  10-09-07 10:59 OP:vdl  STATUS:               ID:20100830075424 L   I
 2010-08-30-0751-26S.COL___120                                                 6
 STAT SP IPHASW D HRMM SECON CODA AMPLIT PERI AZIMU VELO SNR AR TRES W  DIS CAZ7
 BAR2 SZ EP        754 44.37                             169     0.010   28 216 
 BAR2 SZ ES   1    754 59.57                             169    -0.1 7   28 216 
 BAR2 SZ I         755  1.97        30.5 0.28                            28 216 
 BRR  HZ IP     C  754 46.37                             149    -0.110   82 295 
 BRR  HZ I         754 48.29        66.6 0.15                            82 295 
 BRR  HE ES   1    755  3.55                             149     0.2 7   82 295 
 RUS  HZ EP   1    754 48.24                             144    -0.1 7  100 183 
 RUS  HN ES   1    755  6.84                             144     0.1 7  100 183 
 RUS  HZ I         755  9.77        16.8 0.19                           100 183 
 GUE  SZ EP   1    754 49.60                             139     0.3 7  115   6 
 GUE  SZ I         754 52.01        10.3 0.12                           115   6 
 OCA  SZ EP   1    754 53.12                             129    -0.2 7  163 349 
 OCA  SZ ES   1    755 15.40                             129    -0.1 7  163 349 
 OCA  SZ I         755 24.03        25.9 0.43                           163 349 
 HEL  HZ EP   1    755  6.62                             113     0.4 6  284 257 
 HEL  HN ES   2    755 38.21                             113    -0.4 4  284 257 
 HEL  HZ I         755 43.53         8.8 0.52                           284 257 
                                                                                
