 2013  330 0020 16.8 L   6.526 -72.572 16.3  RSN  7 0.4 1.6LRSN                1
 GAP=122        0.94       3.9     2.7 12.8 -0.9219E+00 -0.5854E+01 -0.1846E+02E
 Epicentro: CAPITANEJO - SANTANDER                                             3
 ACTION:UPD 13-04-09 14:05 OP:ep   STATUS:               ID:20130330002016 L   I
 2013-03-30-0020-00M.COL___245                                                 6
 STAT SP IPHASW D HRMM SECON CODA AMPLIT PERI AZIMU VELO AIN AR TRES W  DIS CAZ7
 BAR2 SZ IPg       020 28.34                             101    0.2310 67.9 276 
 BAR2 SZ ES   1    020 36.60                             101   -0.33 7 67.9 276 
 BAR2 SZ I         020 38.00        34.5 0.24             90           67.9 276 
 TAM  HZ EP   1    020 31.60                              98    0.85 7 86.9  97 
 TAM  HN ES   1    020 40.92                              98   -0.70 7 86.9  97 
 TAM  HZ I         020 56.73        12.3 0.36             90           86.9  97 
 RUS  HZ EP        020 31.93                              98    0.2410 90.1 219 
 RUS  HE ES   1    020 42.91                              98   -0.39 7 90.1 219 
 RUS  HZ I         020 47.04         7.0 0.24             90           90.1 219 
 PAM  SZ IP     C  020 31.81                              98   -0.0210 91.0 351 
 PAM  SZ I         020 45.50        16.4 0.14             90           91.0 351 
 BRR  HZ EP   4    020 41.09                              56    2.40 0  141 297 
 BRR  HN ES   4    020 58.25                              56    2.49 0  141 297 
 BRR  HZ I         021  3.13        10.3 0.42             90            141 297 
 CAPV BZ EP   1    020 39.84                              56   -0.28 7  151  11 
 PTB  HZ EP   4    020 51.15                              56    4.07 0  208 271 
 PTB  HN ES   4    021 16.03                              56    5.33 0  208 271 
 PTB  HZ I         021 18.09        20.9 0.28             56            208 271 
 SOCV BZ EP   4    020 51.59                              56   -3.37 0  271  44 
 SOCV BZ ES   4    021 31.41                              56    6.68 0  271  44 
 ZAR  HZ EP   4    020 59.69                              55    4.39 0  274 293 
 ZAR  HN ES   4    021 32.15                              55    6.82 0  274 293 
                                                                                
