 2012 1230 0657 16.5 L   6.795 -73.106145.6  RSN  7 0.4 1.6LRSN                1
 GAP=187        0.85       4.9     5.8  7.4  0.5907E+01  0.1346E+02 -0.1409E+01E
 Epicentro: LOS SANTOS - SANTANDER                                             3
 ACTION:UPD 13-01-04 14:31 OP:ep   STATUS:               ID:20121230065716 L   I
 2012-12-30-0650-00M.COL___242                                                 6
 STAT SP IPHASW D HRMM SECON CODA AMPLIT PERI AZIMU VELO AIN AR TRES W  DIS CAZ7
 BAR2 SZ EP   1    657 36.61                             170    0.44 9 23.9 201 
 BAR2 SZ ES   1    657 51.32                             170   -0.16 9 23.9 201 
 BAR2 SZ I         657 52.72        15.9 0.22                          23.9 201 
 BRR  HZ EP   1    657 38.23                             151    0.31 9 75.3 297 
 BRR  HN ES   1    657 54.83                             151    0.25 9 75.3 297 
 BRR  HZ I         657 58.83         7.2 0.30                          75.3 297 
 RUS  HZ EP   1    657 40.26                             144    0.03 9 99.8 179 
 RUS  HN ES   1    657 58.49                             144   -0.21 9 99.8 179 
 RUS  HZ I         658  0.02         4.4 0.30                          99.8 179 
 PTB  HZ EP   1    657 43.48                             131   -0.40 8  152 259 
 PTB  HE ES   1    658  5.00                             131   -0.20 8  152 259 
 PTB  HZ I         658  7.19         5.0 0.14                           152 259 
 OCA  HE ES   1    658  7.35                             129    0.24 8  161 352 
 ZAR  HZ EP        657 48.62                             122   -0.8010  208 292 
 ZAR  HN ES   1    658 14.80                             122   -0.26 7  208 292 
 ZAR  HZ I         658 21.68         5.2 0.24                           208 292 
 HEL  HZ EP   1    657 57.78                             114    0.58 7  276 256 
 HEL  HN ES   1    658 29.87                             114    0.95 7  276 256 
 HEL  HZ I         658 38.64         2.4 0.24                           276 256 
                                                                                
