 2012  130 0713  4.3 L   6.681 -73.340146.8  RSN  4 0.3 1.1LRSN                1
 GAP=203        0.63       6.5     6.3  8.3  0.2685E+02  0.2461E+01  0.7031E+00E
 Epicentro: GALAN - SANTANDER                                                  3
 ACTION:UP  12-02-03 08:22 OP:REBC STATUS:               ID:20120130071304 L   I
 2012-01-30-0710-00M.COL___188                                                 6
 STAT SP IPHASW D HRMM SECON CODA AMPLIT PERI AZIMU VELO SNR AR TRES W  DIS CAZ7
 BRR  HZ EP   1    713 24.69                             156    -0.4 7   62 319 
 BRR  HN ES   1    713 41.39                             156     0.1 7   62 319 
 BRR  HZ I         713 43.95         4.1 0.10                            62 319 
 RUS  HZ EP   1    713 27.94                             147     0.4 7   92 162 
 RUS  HN ES   1    713 45.57                             147    -0.1 7   92 162 
 RUS  HZ I         713 47.49         1.4 0.25                            92 162 
 PTB  HZ EP   1    713 29.14                             137    -0.2 7  124 263 
 PTB  HN ES   1    713 48.74                             137    -0.1 7  124 263 
 ZAR  HE ES   1    714  0.00                             125     0.3 7  190 298 
                                                                                
