 2012  430 0322 12.3 L   6.720 -73.460113.9  RSN  4 0.1 1.7LRSN                1
 GAP=148        0.34       6.2     5.7  5.7  0.2528E+02  0.2201E+02  0.2237E+02E
 Epicentro: EL CARMEN DE CHUCURI - SANTANDER                                   3
 ACTION:UPD 12-07-05 11:56 OP:tino STATUS:               ID:20120430032212 L   I
 2012-04-30-0320-00M.COL___189                                                 6
 STAT SP IPHASW D HRMM SECON CODA AMPLIT PERI AZIMU VELO AIN AR TRES W  DIS CAZ7
 BAR2 SZ EP   1    322 28.42                             162     0.0 7   34 115 
 BAR2 SZ ES   1    322 40.96                             162    -0.1 7   34 115 
 BAR2 SZ I         322 43.07        22.3 0.22                            34 115 
 BRR  HZ EP   1    322 28.85                             154     0.0 7   51 327 
 BRR  HZ I         322 29.25         9.5 0.11                            51 327 
 BRR  HN ES   2    322 42.00                             154     0.2 5   51 327 
 RUS  HZ EP   1    322 33.19                             136     0.1 7  101 155 
 PTB  HZ EP   1    322 33.39                             132     0.0 7  112 260 
                                                                                
