 2017  930 0052  4.0 L   6.323 -73.578115.4  RSN  6 0.2 1.4LRSN                1
 GAP=109        0.62       2.6     2.6  4.8  0.3141E+01  0.4523E+01  0.2975E+01E
 Epicentro: SANTA HELENA DEL OPON - SANTANDER                                  3
 ACTION:UPD 17-10-05 19:17 OP:rebc STATUS:               ID:20170930005204 L   I
 OLDACT:UP  17-09-30 14:20 OP:edw  STATUS:               ID:20170930004748     3
 OLDACT:REG 17-09-30 12:07 OP:edw  STATUS:               ID:20170930004748     3
 2017-09-30-0048-00M.COL___450                                                 6
 STAT SP IPHASW D HRMM SECON CODA AMPLIT PERI AZIMU VELO AIN AR TRES W  DIS CAZ7
 BAR2 EZ EP        052 21.29                             154    0.1310 52.9  56 
 BAR2 EZ ES        052 34.95                             154    0.3910 52.9  56 
 BAR2 EZ I         052 35.66        11.4 0.54            154           52.9  56 
 RUS  HZ EP        052 22.47                             146   -0.2610 72.5 131 
 RUS  HN ES        052 37.14                             146   -0.2110 72.5 131 
 RUS  HZ I         052 39.45         3.3 0.20            146           72.5 131 
 BRR  HZ EP        052 22.92                             140   -0.2510 88.0 350 
 BRR  HN ES        052 37.88                             140   -0.2610 88.0 350 
 NOR  HN ES        052 51.38                             121    0.07 9  166 240 
 YPLC HZ EP        052 31.02                             120    0.24 9  168 128 
 YPLC HN ES        052 51.74                             120    0.05 9  168 128 
 YPLC HZ I         052 54.48         4.7 0.28            121            168 128 
 ZAR  HZ EP        052 33.22                             116   -0.06 9  192 313 
 ZAR  HN ES        052 56.43                             116    0.29 9  192 313 
                                                                                
