 2010 1230 0842 47.6 L   6.823 -73.175140.8  RSN  7 0.3 1.7LRSN                1
 GAP=155        0.54       2.9     8.2  7.8 -0.1002E+02  0.2652E+02 -0.4026E+01E
 Epicentro: LOS SANTOS - SANTANDER                                             3
 ACTION:UP  11-01-14 15:28 OP:pat  STATUS:               ID:20101230084247 L   I
 2010-12-30-0840-00M.COL___137                                                 6
 STAT SP IPHASW D HRMM SECON CODA AMPLIT PERI AZIMU VELO SNR AR TRES W  DIS CAZ7
 BAR2 SZ EP   1    843  6.59                             169    -0.1 7   26 182 
 BAR2 SZ I         843 24.22        10.2 0.36                            26 182 
 RUS  HZ EP   1    843 11.01                             142     0.0 7  103 174 
 RUS  HN ES   1    843 29.17                             142    -0.2 7  103 174 
 RUS  HZ I         843 30.71         5.9 0.32                           103 174 
 GRA  SZ EP   1    843 12.48                             136     0.2 7  124  19 
 GRA  SZ ES   2    843 32.05                             136     0.6 5  124  19 
 OCA  SZ EP   1    843 15.11                             129    -0.1 7  157 354 
 OCA  SZ ES   2    843 36.12                             129    -0.7 5  157 354 
 OCA  SZ I         843 37.97         6.4 0.41                           157 354 
 NOR  SN ES   2    843 50.85                             117     0.4 4  234 234 
 CHI  HZ EP   1    843 25.01                             116    -0.2 6  250 194 
 CHI  HN ES   2    843 54.97                             116     0.5 4  250 194 
 CHI  HZ I         843 57.81         3.7 0.59                           250 194 
 PRA  HZ EP   1    843 40.94                             105     0.0 4  393 209 
                                                                                
