 2011  630 0714 55.4 L   6.766 -73.059145.3  RSN 11 0.2 2.1LRSN                1
 GAP=166        0.45       1.6     3.5  2.6 -0.1791E+01 -0.5569E+00  0.5760E+00E
 Epicentro: LOS SANTOS - SANTANDER                                             3
 ACTION:UP  11-07-14 19:09 OP:ep   STATUS:               ID:20110630071455 L   I
 2011-06-30-0711-55S.COL___140                                                 6
 STAT SP IPHASW D HRMM SECON CODA AMPLIT PERI AZIMU VELO SNR AR TRES W  DIS CAZ7
 BAR2 SZ IP        715 15.02                             170     0.010   24 215 
 BAR2 SZ I         715 15.35        42.1 0.06                            24 215 
 BAR2 SZ ES        715 30.12                             170    -0.110   24 215 
 BTL  SZ EP        715 15.14                             168     0.010   29 306 
 GIR2 SZ EP        715 15.06                             165    -0.210   38 337 
 GIR2 SZ ES   1    715 30.76                             165     0.1 7   38 337 
 BRR  HZ IP     C  715 16.86                             149    -0.310   81 298 
 BRR  HZ I         715 17.23        51.5 0.12                            81 298 
 BRR  HE ES        715 34.12                             149     0.110   81 298 
 RUS  HZ EP        715 18.76                             145    -0.110   97 182 
 RUS  HE ES   1    715 37.30                             145     0.2 7   97 182 
 RUS  HZ I         715 38.47        14.5 0.45                            97 182 
 BRI  SZ EP        715 19.51                             141     0.210  109  15 
 GRA  SZ IP        715 20.77                             137     0.110  127  13 
 GRA  SZ ES        715 40.50                             137     0.110  127  13 
 GRA  SZ I         715 41.48        15.9 0.32                           127  13 
 OCA  SZ EP        715 23.96                             129    -0.2 9  165 350 
 OCA  SZ ES   1    715 46.60                             129     0.0 7  165 350 
 OCA  SZ I         715 51.96        11.9 0.21                           165 350 
 CHI  HZ EP   1    715 32.85                             117    -0.1 6  248 198 
 CHI  HN ES   1    716  2.36                             117     0.1 6  248 198 
 CHI  HZ I         716 10.10         4.2 0.85                           248 198 
 HEL  HZ EP   1    715 36.98                             114     0.4 6  281 257 
 HEL  HZ I         716 14.06         7.3 0.24                           281 257 
 PRA  HZ EP        715 48.98                             106    -0.1 6  394 211 
 PRA  HN ES   1    716 31.29                             106     0.3 4  394 211 
                                                                                
