 2017  930 0525 20.3 L   6.575 -73.480114.8  RSN 11 0.4 1.6LRSN                1
 GAP=110        0.93       3.3     3.5  5.8  0.6679E+01  0.1202E+02  0.9145E+01E
 Epicentro: EL CARMEN - SANTANDER                                              3
 ACTION:UPD 17-10-05 19:17 OP:rebc STATUS:               ID:20170930052520 L   I
 OLDACT:UP  17-09-30 17:10 OP:edw  STATUS:               ID:20170930051435     3
 OLDACT:REG 17-09-30 12:46 OP:edw  STATUS:               ID:20170930051435     3
 2017-09-30-0518-00M.COL___441                                                 6
 STAT SP IPHASW D HRMM SECON CODA AMPLIT PERI AZIMU VELO AIN AR TRES W  DIS CAZ7
 BAR2 EZ IP     C  525 36.81                             163    0.2510 32.9  87 
 BAR2 EZ ES        525 48.78                             163   -0.4210 32.9  87 
 BRR  HZ EP        525 37.77                             149   -0.0110 64.2 336 
 BRR  HN ES        525 51.77                             149    0.3910 64.2 336 
 BRR  HZ I         526  1.30         8.4 0.68            152           64.2 336 
 RUS  HZ EP        525 40.19                             140    0.0810 87.3 150 
 RUS  HN ES        525 55.33                             140   -0.2010 87.3 150 
 RUS  HZ I         525 56.40         4.7 0.40            146           87.3 150 
 YPLC HZ EP        525 48.76                             118    0.51 9  178 137 
 YPLC HN ES        526  9.80                             118   -0.22 9  178 137 
 YPLC HZ I         526 11.72         8.8 0.26            125            178 137 
 ZAR  HZ EP        525 48.69                             117    0.02 9  183 304 
 ZAR  HN ES        526 11.28                             117    0.52 9  183 304 
 ZAR  HZ I         526 16.81         6.4 0.44            121            183 304 
 CHI  HZ EP        525 52.97                             113    0.04 8  217 187 
 CHI  HN ES        526 18.22                             113   -0.13 8  217 187 
 CHI  HZ I         526 27.06         1.8 0.34            117            217 187 
 HEL  HZ EP        525 54.86                             112    0.44 8  231 260 
 HEL  HN ES        526 20.53                             112   -0.47 8  231 260 
 HEL  HZ I         526 22.93         3.6 0.36            115            231 260 
 GUY2CHZ EP        525 57.21                             109   -0.32 8  257 235 
 GUY2CHN ES        526 27.18                             109    0.64 8  257 235 
 GUY2CHZ I         526 33.32         3.1 0.58                           257 235 
 URE  HZ EP        525 56.52                             108   -0.98 8  261 300 
 URE  HN ES        526 25.89                             108   -0.60 8  261 300 
 URE  HZ I         526 34.16         3.9 0.22            112            261 300 
 PTGC HN ES   4    526 32.94                             105   -1.96 0  302 150 
 PRA  HZ EP        526  8.36                             102    0.09 6  353 206 
 PRA  HN ES   4    526 44.59                             102   -1.06 0  353 206 
 PRA  HZ I         526 52.67         1.5 0.44            106            353 206 
 ORTC HZ EP        526  8.52                             102    0.11 6  354 214 
 ORTC HN ES   4    526 47.34                             102    1.44 0  354 214 
 ORTC HZ I         526 50.38         1.2 0.46            106            354 214 
                                                                                
