 2012  630 0517 21.9 L   6.759 -73.169145.9  RSN  8 0.3 1.7LRSN                1
 GAP= 76        0.67       3.6     3.5  5.6  0.1270E+01  0.1540E+01 -0.2875E+00E
 Epicentro: LOS SANTOS - SANTANDER                                             3
 ACTION:UPD 12-08-06 17:53 OP:ep   STATUS:               ID:20120630051721 L   I
 2012-06-30-0510-00M.COL___201                                                 6
 STAT SP IPHASW D HRMM SECON CODA AMPLIT PERI AZIMU VELO AIN AR TRES W  DIS CAZ7
 BAR2 SZ EP   1    517 41.46                             172    0.05 7 18.5 185 
 BAR2 SZ ES   1    517 56.50                             172   -0.17 7 18.5 185 
 BAR2 SZ I         517 58.16        13.5 0.25                          18.5 185 
 BRR  HZ EP   1    517 43.36                             152    0.34 7 71.3 303 
 BRR  HZ I         517 43.62         9.5 0.17                          71.3 303 
 BRR  HN ES   1    517 59.97                             152    0.44 7 71.3 303 
 PAM  SZ EP   1    517 44.12                             149   -0.27 7 82.5  39 
 PAM  SN ES   1    518  1.55                             149   -0.43 7 82.5  39 
 RUS  HZ EP   1    517 45.35                             145    0.04 7 96.3 174 
 RUS  HN ES   1    518  4.01                             145    0.40 7 96.3 174 
 RUS  HZ I         518  5.79         7.8 0.42                          96.3 174 
 PTB  HZ EP   1    517 48.08                             133   -0.45 7  144 260 
 PTB  HN ES   1    518  8.85                             133   -0.48 7  144 260 
 PTB  HZ I         518 10.94         4.4 0.15                           144 260 
 TAM  HZ EP   1    517 49.62                             130   -0.05 7  157 103 
 OCA  HN ES   1    518 13.24                             129    0.27 7  164 354 
 ZAR  HZ EP   1    517 54.77                             122    0.53 6  203 294 
 ZAR  HN ES   1    518 19.28                             122   -0.22 6  203 294 
                                                                                
