 2017  830 0430 40.7 L   6.812 -73.124139.7  RSN  7 0.4 1.5LRSN                1
 GAP=215        1.03       4.9     5.1  6.7  0.1220E+02  0.4476E+01  0.2380E+01E
 Epicentro: LOS SANTOS - SANTANDER                                             3
 ACTION:UPD 17-09-04 20:26 OP:rebc STATUS:               ID:20170830043040 L   I
 OLDACT:DUP 17-08-30 14:46 OP:dani STATUS:               ID:20170830042742d    3
 2017-08-30-0428-00M.COL___405                                                 6
 STAT SP IPHASW D HRMM SECON CODA AMPLIT PERI AZIMU VELO AIN AR TRES W  DIS CAZ7
 BAR2 EZ EP        430 59.16                             169   -0.5110 25.1 195 
 BAR2 EZ ES        431 14.56                             169    0.1210 25.1 195 
 BAR2 EZ I         431 15.26         9.6 0.22            169           25.1 195 
 BRR  HZ EP     D  431  0.90                             151   -0.4210 72.7 297 
 BRR  HN ES        431 17.77                             151    0.4010 72.7 297 
 BRR  HZ I         431 20.87         4.4 0.14            150           72.7 297 
 RUS  HZ EP        431  4.50                             142    0.5310  102 177 
 RUS  HN ES        431 22.33                             142    0.2210  102 177 
 SPBC HN ES        431 30.54                             127   -0.54 9  166 219 
 YPLC HZ EP        431  9.95                             125   -0.14 9  177 152 
 YPLC HE ES        431 32.74                             125   -0.25 9  177 152 
 YPLC HZ I         431 36.04         4.0 0.28            126            177 152 
 ZAR  HZ EP        431 13.60                             121    0.63 8  206 292 
 ZAR  HN ES        431 37.53                             121   -0.59 8  206 292 
 ZAR  HZ I         431 43.47         4.9 0.35            121            206 292 
 NOR  HZ EP        431 16.78                             117    0.37 8  237 235 
 NOR  HN ES        431 44.46                             117    0.22 8  237 235 
 NOR  HZ I         431 48.00         1.6 0.16            117            237 235 
                                                                                
