 2010  830 0422 11.5 L   6.769 -73.094148.0  RSN  4 0.2 1.5LRSN                1
 GAP=165        0.44       3.9     5.9  6.0 -0.1418E+00 -0.1301E+02 -0.6815E+01E
 Epicentro: LOS SANTOS - SANTANDER                                             3
 ACTION:UP  10-09-07 10:59 OP:vdl  STATUS:               ID:20100830042211 L   I
 2010-08-30-0419-48S.COL___120                                                 6
 STAT SP IPHASW D HRMM SECON CODA AMPLIT PERI AZIMU VELO SNR AR TRES W  DIS CAZ7
 BAR2 SZ EP   1    422 31.37                             172     0.0 7   22 207 
 BAR2 SZ ES   2    422 46.64                                    -0.3 5   22 207 
 BAR2 SZ I         422 47.85         6.2 0.17                            22 207 
 BRR  HZ EP        422 33.18                             152    -0.110   78 299 
 BRR  HZ I         422 33.40        13.5 0.15                            78 299 
 BRR  HE ES   1    422 50.50                             152     0.2 7   78 299 
 RUS  HZ EP   3    422 35.93                             146     0.7 2   97 179 
 RUS  HN ES   2    422 53.94                             146     0.2 5   97 179 
 RUS  HZ I         422 55.18         2.9 0.40                            97 179 
 GRA  SZ IP        422 37.15                             138     0.010  127  15 
 GRA  SZ ES   2    422 57.19                                     0.1 5  127  15 
 GRA  SZ I         422 57.82         2.8 0.31                           127  15 
                                                                                
