 2010  930 0353 44.9 L   6.804 -73.075144.4  RSN 13 0.4 2.3LRSN                1
 GAP=131        0.74       3.0     5.0  5.2 -0.6785E+01  0.8207E+00  0.1147E+01E
 Epicentro: LOS SANTOS - SANTANDER                                             3
 ACTION:UP  11-02-18 11:06 OP:tino STATUS:               ID:20100930035344 L   I
 2010-09-30-0352-36S.COL___125                                                 6
 STAT SP IPHASW D HRMM SECON CODA AMPLIT PERI AZIMU VELO SNR AR TRES W  DIS CAZ7
 BTL  SZ EP        354  4.60                             170     0.210   25 301 
 BAR2 SZ EP        354  4.33                             169    -0.110   26 207 
 BAR2 SZ ES   1    354 19.41                             169    -0.3 7   26 207 
 BAR2 SZ I         354 21.14        52.1 0.35                            26 207 
 BRR  HZ IP     C  354  6.28                             150     0.010   78 295 
 BRR  HZ I         354  6.65        55.0 0.30                            78 295 
 BRR  HN ES   1    354 23.28                             150     0.3 7   78 295 
 RUS  HZ EP   1    354  8.45                             143    -0.1 7  101 181 
 RUS  HE ES   1    354 27.02                             143     0.0 7  101 181 
 RUS  HZ I         354 28.37        22.7 0.31                           101 181 
 GUE  SZ EP        354  9.40                             140     0.110  115   8 
 GRA  SZ IP        354 10.14                             137     0.310  123  14 
 GRA  SZ ES   1    354 29.35                             137     0.1 7  123  14 
 GRA  SZ I         354 32.73        33.0 0.32                           123  14 
 OCA  SZ EP   2    354 12.88                             129    -0.3 5  161 350 
 OCA  SZ ES   2    354 34.25                             129    -1.0 5  161 350 
 OCA  SZ I         354 40.33        36.3 0.10                           161 350 
 NOR  SZ EP   2    354 20.72                             117    -0.6 4  242 236 
 NOR  SE ES   2    354 48.89                             117    -0.8 4  242 236 
 CHI  HZ EP   1    354 22.53                             116    -0.3 6  251 197 
 CHI  HZ I         354 25.40         9.5 0.20                           251 197 
 CHI  HE ES   1    354 52.45                             116     0.1 6  251 197 
 ROSC BZ EP   1    354 24.16                             116     0.7 6  257 212 
 ROSC BZ I         355  0.45        17.1 0.51                           257 212 
 HEL  HZ EP   2    354 26.67                             114     0.8 4  280 256 
 HEL  HE ES   2    354 57.40                             114    -0.5 4  280 256 
 HEL  HZ I         355  5.02         9.6 0.45                           280 256 
 RREF HZ EP   1    354 31.66                             110    -0.1 5  328 230 
 RREF HE ES   1    355  8.37                             110     0.1 5  328 230 
 RREF HZ I         355 14.43        12.8 0.30                           328 230 
 SDV  BZ EP   1    354 33.39                             108    -0.8 5  354  49 
 SDV  BZ I         354 34.68         4.5 0.19                           354  49 
                                                                                
