 2012  130 0600 54.5 L   6.839 -73.107135.7  RSN  5 0.4 1.4LRSN                1
 GAP=139        0.91       6.0     6.5  9.9  0.7266E+01  0.1004E+02 -0.7611E+00E
 Epicentro: LOS SANTOS - SANTANDER                                             3
 ACTION:UP  12-02-03 08:22 OP:REBC STATUS:               ID:20120130060054 L   I
 2012-01-30-0600-00M.COL___188                                                 6
 STAT SP IPHASW D HRMM SECON CODA AMPLIT PERI AZIMU VELO SNR AR TRES W  DIS CAZ7
 BAR2 SZ ES   1    6 1 27.71                             168     0.2 7   28 197 
 PAM  SZ EP   1    6 1 15.66                             151     0.4 7   71  39 
 PAM  SZ I         6 1 16.10         4.1 0.16                            71  39 
 PAM  SN ES   1    6 1 30.91                             151    -0.5 7   71  39 
 BRR  HZ EP   1    6 1 14.80                             150     0.2 7   73 294 
 BRR  HE ES   1    6 1 30.85                             150     0.5 7   73 294 
 BRR  HZ I         6 1 34.82         4.5 0.14                            73 294 
 RUS  HZ EP   1    6 1 17.60                             140     0.1 7  105 179 
 RUS  HN ES   1    6 1 35.20                             140    -0.4 7  105 179 
 RUS  HZ I         6 1 35.59         6.0 0.68                           105 179 
 ZAR  HN ES   1    6 1 50.90                             120    -0.6 6  206 291 
                                                                                
