 2011  430 0347 59.2 L   6.766 -73.121151.5  RSN  8 0.2 1.9LRSN                1
 GAP=141        0.56       3.4     4.5  4.8 -0.5741E+01  0.1219E+01 -0.4208E+01E
 Epicentro: LOS SANTOS - SANTANDER                                             3
 ACTION:UP  11-06-22 15:34 OP:REBC STATUS:               ID:20110430034759 L   I
 2011-04-30-0344-56S.COL___129                                                 6
 STAT SP IPHASW D HRMM SECON CODA AMPLIT PERI AZIMU VELO SNR AR TRES W  DIS CAZ7
 BAR2 SZ EP   1    348 19.51                             172     0.1 8   20 199 
 BAR2 SZ ES   1    348 35.21                             172     0.0 8   20 199 
 BAR2 SZ I         348 36.23        14.3 0.21                            20 199 
 BRR  HZ EP   1    348 21.34                             152     0.2 8   75 300 
 BRR  HZ I         348 21.61        37.9 0.12                            75 300 
 BRR  HE ES   1    348 38.56                             152     0.2 8   75 300 
 PAM  SZ EP   1    348 22.25                             151     0.2 8   79  36 
 PAM  SN ES   1    348 39.66                             151    -0.3 8   79  36 
 RUS  HZ EP   1    348 23.28                             146     0.0 8   97 178 
 RUS  HN ES   1    348 41.93                             146    -0.1 8   97 178 
 RUS  HZ I         348 43.34         6.5 0.29                            97 178 
 BRI  SZ EP   1    348 24.04                             142     0.2 8  111  19 
 GRA  SZ EP        348 25.26                             137     0.110  129  16 
 GRA  SZ I         348 51.17         5.1 0.32                           129  16 
 OCA  SZ EP   1    348 27.74                             130    -0.6 7  164 352 
 OCA  SZ I         348 56.13         8.7 0.25                           164 352 
 NOR  SN ES   1    349  3.16                             120    -0.2 6  235 236 
                                                                                
