 2012 1030 0055 14.6 L   6.786 -73.108144.9  RSN 10 0.4 2.5LRSN 3.1WRSN        1
 SPEC AVERAGE  MO 13.8 ST 32.2 OM  2.5 f0 5.98 R0.2747 AL 3.80 WI 15.1 MW  3.1 3
 SPEC SD       MO  0.3 ST 36.2 OM  0.9 f0 2.00 R0.0908 AL      WI      MW  0.2 3
 GAP= 74        0.91       3.1     4.3  5.1 -0.5024E+00  0.2485E+01  0.2199E+01E
 Epicentro: LOS SANTOS - SANTANDER                                             3
 SPEC TAM HH Z MO 13.9 ST  4.5 OM  1.4 f0 3.55 R0.4141 AL 1.76 WI  9.7 MW  3.2 3
 SPEC TAM HH Z T 05541 K 0.000 GD  209 VP 7.60 DE 3.00 Q0230.0 QA 0.60 VS 4.20 3
 SPEC OCA HH N MO 14.1 ST 26.4 OM  2.4 f0 5.31 R0.2768 AL 3.18 WI 21.9 MW  3.3 3
 SPEC OCA HH N T 056 4 K 0.000 GD  217 VS 4.20 DE 3.00 Q0230.0 QA 0.60 VS 4.20 3
 SPEC RUS HH N MO 13.2 ST  4.8 OM  1.6 f0 5.98 R0.2458 AL 3.45 WI 13.7 MW  2.8 3
 SPEC RUS HH N T 05556 K 0.000 GD  175 VS 4.20 DE 3.00 Q0230.0 QA 0.60 VS 4.20 3
 SPEC BRR HH Z MO 14.0 ST 93.0 OM  1.6 f0 9.08 R0.1619 AL 6.79 WI 15.2 MW  3.2 3
 SPEC BRR HH Z T 05535 K 0.000 GD  163 VP 7.60 DE 3.00 Q0230.0 QA 0.60 VS 4.20 3
 ACTION:UPD 12-11-22 17:06 OP:ep   STATUS:               ID:20121030005514 L   I
 2012-10-30-0050-00M.COL___231                                                 6
 STAT SP IPHASW D HRMM SECON CODA AMPLIT PERI AZIMU VELO AIN AR TRES W  DIS CAZ7
 BAR2 SZ IP     D  055 33.99                             171   -0.1110 23.0 201 
 BAR2 SZ ES        055 49.39                             171    0.0710 23.0 201 
 BAR2 SZ I         055 52.64        48.1 0.72                          23.0 201 
 GIR2 SZ IP     C  055 34.06                             166   -0.1610 33.7 344 
 BRR  HZ IP     C  055 35.85                             151   -0.0510 75.6 298 
 BRR  HZ I         055 36.11        49.8 0.30                          75.6 298 
 BRR  HN ES        055 53.01                             151    0.5010 75.6 298 
 PAM  SZ IP     D  055 36.75                             151    0.1310 76.0  36 
 PAM  SZ I         055 36.99        59.4 0.20                          76.0  36 
 PAM  SN ES        055 53.94                             151    0.1310 76.0  36 
 RUS  HZ EP        055 37.87                             144   -0.2610 98.9 178 
 RUS  HN ES        055 56.25                             144   -0.2410 98.9 178 
 RUS  HN I         055 58.26        57.6 0.42                          98.9 178 
 TAM  HZ IP     C  055 42.12                             131    0.34 9  151 105 
 TAM  HZ I         055 42.25        39.7 0.34                           151 105 
 TAM  HN ES   1    056  3.46                             131    0.47 7  151 105 
 OCA  HZ EP        055 42.42                             129   -0.60 9  162 352 
 OCA  HN ES   1    056  4.42                             129   -0.78 7  162 352 
 OCA  HN I         056  7.48       119.7 0.32                           162 352 
 CHI  HZ EP        055 52.22                             117    0.02 8  248 196 
 CHI  HN ES        056 21.04                             117   -0.50 8  248 196 
 CHI  HN I         056 26.63        15.6 0.28                           248 196 
 HEL  HZ EP        055 55.91                             114    0.74 7  276 256 
 HEL  HN I         056 33.51         8.8 0.34                           276 256 
 GUY  SZ EP   1    055 59.50                             112    0.79 5  306 236 
                                                                                
