 2013  630 0515 54.5 L   6.761 -73.151144.0  RSN  7 0.3 1.6LRSN                1
 GAP=138        0.81       4.5     3.6  6.6  0.4395E+00  0.2393E+01  0.2738E+01E
 Epicentro: LOS SANTOS - SANTANDER                                             3
 ACTION:UPD 14-01-08 09:58 OP:ep   STATUS:               ID:20130630051554 L   I
 OLDACT:DUP 13-06-30 10:52 OP:jn   STATUS:               ID:20130630050960d    3
 OLDACT:REG 13-06-30 07:37 OP:jn   STATUS:               ID:20130630050959     3
 2013-06-30-0509-59M.COL___267                                                 6
 STAT SP IPHASW D HRMM SECON CODA AMPLIT PERI AZIMU VELO AIN AR TRES W  DIS CAZ7
 BAR2 SZ EP        516 13.96                             172    0.1210 19.0 190 
 BAR2 SZ ES   1    516 28.68                             172   -0.24 7 19.0 190 
 BAR2 SZ I         516 30.45        18.7 0.20            173           19.0 190 
 GIR2 SZ EP        516 14.09                             165    0.0110 35.4 352 
 BRR  HZ EP     D  516 15.75                             152    0.2010 72.8 302 
 BRR  HN ES        516 32.71                             152    0.7410 72.8 302 
 BRR  HZ I         516 35.43         7.4 0.26            151           72.8 302 
 PAM  SZ EP        516 16.80                             149    0.0510 81.1  38 
 PAM  SN ES        516 33.73                             149   -0.3810 81.1  38 
 PAM  SZ I         516 36.09         7.5 0.50            152           81.1  38 
 RUS  HZ EP        516 17.85                             145    0.0810 96.4 176 
 RUS  HN ES   1    516 35.80                             145   -0.13 7 96.4 176 
 RUS  HZ I         516 37.93         3.0 0.44            148           96.4 176 
 PTB  HZ EP   1    516 21.14                             132   -0.06 7  146 260 
 PTB  HN ES        516 41.78                             132   -0.24 9  146 260 
 PTB  HZ I         516 43.80         4.9 0.12            133            146 260 
 ZAR  HE ES        516 51.73                             122   -0.52 9  205 293 
 ZAR  HZ I         516 58.33         5.5 0.38            123            205 293 
                                                                                
