 2015 1030 0109 34.5 L   5.959 -73.756108.2  RSN  6 0.4 1.5LRSN                1
 GAP=150        0.88       3.7     3.4  9.7 -0.4280E+01  0.1664E+02 -0.5679E+01E
 Epicentro: BOLIVAR - SANTANDER                                                3
 ACTION:UPD 15-12-22 20:44 OP:cam  STATUS:               ID:20151030010934 L   I
 OLDACT:UP  15-12-16 20:01 OP:cam  STATUS:               ID:20151030010934 L   3
 OLDACT:UP  15-11-01 03:33 OP:DRIO STATUS:               ID:20151030010934 L   3
 OLDACT:UP  15-10-30 14:18 OP:mh   STATUS:               ID:20151030010746     3
 OLDACT:UP  15-10-30 14:16 OP:mh   STATUS:               ID:20151030010746     3
 OLDACT:UP  15-10-30 14:16 OP:mh   STATUS:               ID:20151030010746     3
 OLDACT:REG 15-10-30 12:33 OP:mh   STATUS:               ID:20151030010746     3
 2015-10-30-0107-46M.COL___319                                                 6
 STAT SP IPHASW D HRMM SECON CODA AMPLIT PERI AZIMU VELO AIN AR TRES W  DIS CAZ7
 RUS  HZ EP        1 9 52.49                             143   -0.2410 74.9  96 
 RUS  HN ES        110  6.54                             143   -0.3910 74.9  96 
 RUS  HZ I         110  8.15         3.8 0.36            147           74.9  96 
 BAR2 EZ EP        1 9 54.23                             136    0.2910 94.5  42 
 BAR2 EZ ES        110  9.54                             136    0.4610 94.5  42 
 BAR2 EZ I         110 11.28        13.7 0.24            138           94.5  42 
 BRR  HZ EP        1 9 56.58                             126   -0.0410  127   2 
 BRR  HN ES        110 13.97                             126    0.1210  127   2 
 BRR  HZ I         110 17.50        11.1 0.05            129            127   2 
 NOR  HN ES        110 14.44                             125   -0.1910  131 251 
 GUY2CHZ EP   1    110  4.36                             114   -0.16 6  196 246 
 GUY2CHE ES        110 28.50                             114    0.59 9  196 246 
 GUY2CHZ I         110 33.66         2.2 0.48                           196 246 
 ZAR  HE ES        110 28.87                             112   -0.57 8  209 324 
                                                                                
