 2013 1230 0058  5.0 L   6.771 -73.132144.7  RSN  9 0.3 1.8LRSN                1
 GAP=140        0.82       3.1     3.4  5.0 -0.1448E+01  0.3777E+01  0.2685E+01E
 Epicentro: LOS SANTOS - SANTANDER                                             3
 ACTION:UPD 14-01-13 10:22 OP:ep   STATUS:               ID:20131230005805 L   I
 OLDACT:UP  13-12-30 13:24 OP:mh   STATUS:               ID:20131230005640     3
 OLDACT:UP  13-12-30 13:24 OP:mh   STATUS:               ID:20131230005640     3
 OLDACT:REG 13-12-30 13:20 OP:mh   STATUS:               ID:20131230005640     3
 2013-12-30-0056-40M.COL___240                                                 6
 STAT SP IPHASW D HRMM SECON CODA AMPLIT PERI AZIMU VELO AIN AR TRES W  DIS CAZ7
 BAR2 SZ EP        058 24.35                             172   -0.0910 20.5 196 
 BAR2 SZ ES   1    058 39.31                             172   -0.30 7 20.5 196 
 BAR2 SZ I         058 40.79        30.4 0.11            168           20.5 196 
 BRR  HZ IP     C  058 26.38                             151    0.1910 74.0 300 
 BRR  HN ES        058 43.37                             151    0.6510 74.0 300 
 BRR  HZ I         058 46.02        13.4 0.14            149           74.0 300 
 PAM  SZ EP        058 27.34                             150    0.1510 79.0  37 
 PAM  SN ES        058 44.35                             150   -0.1610 79.0  37 
 PAM  SZ I         058 45.21         7.3 0.21            155           79.0  37 
 RUS  HZ EP        058 28.44                             144    0.0310 97.3 177 
 RUS  HN ES        058 46.59                             144   -0.0710 97.3 177 
 RUS  HZ I         058 48.11         4.8 0.20            146           97.3 177 
 PTB  HZ EP        058 31.42                             132   -0.53 9  149 260 
 PTB  HN ES        058 52.53                             132   -0.45 9  149 260 
 PTB  HZ I         058 58.30        10.2 0.21            131            149 260 
 SPBC HZ EP        058 33.51                             129    0.24 9  162 220 
 SPBC HN ES        058 54.99                             129   -0.32 9  162 220 
 SPBC HZ I         058 59.93         7.8 0.07            129            162 220 
 ZAR  HZ EP        058 37.62                             122   -0.02 8  207 293 
 ZAR  HN ES   1    059  2.76                             122   -0.34 6  207 293 
 ZAR  HZ I         059  8.84        11.3 0.40            122            207 293 
 NOR  HZ EP        058 40.77                             118    0.18 8  234 235 
 NOR  HN ES        059  8.89                             118    0.53 8  234 235 
 NOR  HZ I         059 14.43         6.5 0.65            119            234 235 
 CHI  HZ EP        058 42.08                             117   -0.26 8  246 196 
 CHI  HN ES   1    059 12.15                             117    0.68 6  246 196 
 CHI  HZ I         059 15.96         1.9 0.35            119            246 196 
                                                                                
