 2013 1030 0614 19.7 L   6.368 -73.719105.5  RSN  5 0.4 1.3LRSN                1
 GAP= 80        0.96       4.6     4.8 10.3  0.9772E-01  0.1095E+02  0.1214E+02E
 Epicentro: SANTA HELENA DEL OPON - SANTANDER                                  3
 ACTION:UPD 13-11-25 09:24 OP:ep   STATUS:               ID:20131030061419 L   I
 OLDACT:REG 13-10-30 06:45 OP:jn   STATUS:               ID:20131030061000     3
 2013-10-30-0610-00M.COL___273                                                 6
 STAT SP IPHASW D HRMM SECON CODA AMPLIT PERI AZIMU VELO AIN AR TRES W  DIS CAZ7
 BAR2 SZ EP   1    614 36.54                             146   -0.02 7 64.3  67 
 BAR2 SZ ES        614 49.49                             146   -0.2010 64.3  67 
 BAR2 SZ I         614 50.70         6.7 0.42            153           64.3  67 
 BRR  HZ EP   1    614 37.59                             139    0.08 7 81.8   1 
 BRR  HN ES        614 51.83                             139    0.4510 81.8   1 
 PTB  HZ EP   1    614 36.73                             138   -0.96 7 83.7 283 
 PTB  HN ES   1    614 51.29                             138   -0.42 7 83.7 283 
 PTB  HZ I         614 54.11         4.6 0.42            141           83.7 283 
 RUS  HZ EP   1    614 38.63                             137   -0.06 7 87.8 127 
 RUS  HN ES   1    614 53.12                             137   -0.36 7 87.8 127 
 SPBC HZ EP        614 38.69                             137    0.5210 88.3 206 
 SPBC HE ES   1    614 52.91                             137    0.36 7 88.3 206 
 SPBC HZ I         614 55.78         3.3 0.22            139           88.3 206 
                                                                                
