 2012  730 0135 20.9 L   6.264 -73.584105.3  RSN  6 0.3 1.7LRSN                1
 GAP=161        0.75       5.3     4.5  8.0  0.1008E+02  0.9041E+01 -0.4049E+01E
 Epicentro: LA PAZ - SANTANDER                                                 3
 ACTION:UPD 12-08-14 11:46 OP:ep   STATUS:               ID:20120730013521 L   I
 2012-07-30-0130-00M.COL___215                                                 6
 STAT SP IPHASW D HRMM SECON CODA AMPLIT PERI AZIMU VELO AIN AR TRES W  DIS CAZ7
 BAR2 SZ EP   1    135 37.48                             149     0.2 7   57  51 
 BAR2 SZ ES   1    135 49.44                             149    -0.6 7   57  51 
 BAR2 SZ I         135 52.21        31.3 0.35            151             57  51 
 RUS  HZ EP   1    135 38.34                             145    -0.1 7   69 127 
 RUS  HN ES   1    135 52.40                             145     0.3 7   69 127 
 BRR  HZ EP   1    135 39.54                             135    -0.2 7   94 351 
 BRR  HZ I         135 39.86        10.2 0.11            137             94 351 
 BRR  HN ES   1    135 54.85                             135     0.4 7   94 351 
 PTB  HZ EP   1    135 40.04                             132    -0.3 7  101 288 
 PTB  HN ES   1    135 55.75                             132     0.2 7  101 288 
 PTB  HZ I         135 56.73         6.5 0.16            135            101 288 
 ZAR  HN ES   1    136 12.79                             113    -0.2 6  196 314 
 OCA  HZ EP   1    135 53.53                             110     0.4 6  220   8 
