 2013 1230 0555 21.9 L   6.761 -73.061148.5  RSN 10 0.3 1.6LRSN                1
 GAP=149        0.60       2.1     5.0  5.0 -0.2755E+01  0.1119E+02  0.8985E+00E
 Epicentro: LOS SANTOS - SANTANDER                                             3
 ACTION:UPD 14-01-13 10:22 OP:ep   STATUS:               ID:20131230055521 L   I
 OLDACT:DUP 13-12-30 11:59 OP:mh   STATUS:               ID:20131230055001d    3
 2013-12-30-0550-00M.COL___285                                                 6
 STAT SP IPHASW D HRMM SECON CODA AMPLIT PERI AZIMU VELO AIN AR TRES W  DIS CAZ7
 BAR2 SZ EP        555 41.87                             171    0.0610 23.0 216 
 BAR2 SZ I         555 58.07        18.0 0.24            172           23.0 216 
 PAM  SE ES        556  1.56                             152   -0.1610 75.4  32 
 BRR  HZ EP        555 43.75                             150   -0.1510 81.4 298 
 BRR  HN ES   2    556  1.09                             150   -0.01 5 81.4 298 
 BRR  HZ I         556  6.68         4.0 0.20            138           81.4 298 
 RUS  HZ EP        555 45.68                             146    0.1210 96.1 181 
 RUS  HN ES        556  4.14                             146    0.0910 96.1 181 
 RUS  HZ I         556  5.76         3.5 0.31            144           96.1 181 
 PTB  HZ EP   4    555 48.79                             131   -1.02 0  156 261 
 PTB  HN ES   4    556  9.72                             131   -1.90 0  156 261 
 PTB  HZ I         556 17.12         6.2 0.37            122            156 261 
 OCA  HZ EP   4    555 54.61                             129    3.70 0  166 350 
 OCA  HN ES        556 13.92                             129    0.35 9  166 350 
 SPBC HZ EP        555 50.83                             129    0.00 9  166 222 
 SPBC HE ES        556 13.16                             129   -0.27 9  166 222 
 SPBC HZ I         556 14.26         6.7 0.25            122            166 222 
 CHI  HZ EP        555 59.42                             118   -0.12 8  247 198 
 CHI  HN ES        556 28.97                             118    0.03 8  247 198 
 CHI  HZ I         556 34.45         1.1 0.34            112            247 198 
 SML  HZ EP   1    555 58.79                             117   -0.70 6  252 334 
 SML  HZ I         556 31.71         7.1 0.08            108            252 334 
 GUY2CHZ EP        556  6.75                             112    0.57 7  306 236 
 GUY2CHN ES   4    556 43.31                             112    2.55 0  306 236 
 GUY2CHZ I         556 48.87         2.5 0.51                           306 236 
 SJC  HZ EP   4    556 16.02                             106   -2.51 0  418 326 
 SJC  HN ES   4    556 56.80                             106   -5.94 0  418 326 
                                                                                
