 2013  830 0524  6.0 L   6.805 -73.159144.0  RSN 12 0.4 2.2LRSN                1
 GAP=135        1.01       3.3     4.1  5.9 -0.2519E+01  0.4862E+01  0.6068E+01E
 Epicentro: LOS SANTOS - SANTANDER                                             3
 ACTION:UPD 14-01-14 09:08 OP:ep   STATUS:               ID:20130830052406 L   I
 OLDACT:REG 13-08-30 08:10 OP:jn   STATUS:               ID:20130830051843     3
 2013-08-30-0518-43M.COL___211                                                 6
 STAT SP IPHASW D HRMM SECON CODA AMPLIT PERI AZIMU VELO AIN AR TRES W  DIS CAZ7
 BAR2 SZ EP        524 25.45                             170    0.0510 23.6 186 
 BAR2 SZ ES        524 40.64                             170    0.0910 23.6 186 
 BAR2 SZ I         524 42.11        37.7 0.36            169           23.6 186 
 BRR  HZ EP        524 27.20                             153    0.3510 69.6 299 
 BRR  HN ES        524 44.17                             153    1.0410 69.6 299 
 BRR  HZ I         524 46.78        22.4 0.28            149           69.6 299 
 PAM  SZ EP        524 28.40                             150    0.3610 77.9  41 
 PAM  SE ES        524 44.98                             150   -0.2610 77.9  41 
 PAM  SZ I         524 46.18        13.8 0.20            153           77.9  41 
 RUS  HZ EP        524 29.33                             143   -0.2710  101 175 
 RUS  HN ES   1    524 47.56                             143   -0.47 7  101 175 
 RUS  HZ I         524 49.05        14.0 0.30            145            101 175 
 PTB  HZ EP        524 32.14                             132   -0.54 9  146 259 
 PTB  HN ES        524 52.74                             132   -0.76 9  146 259 
 PTB  HZ I         524 55.27        18.7 0.16            130            146 259 
 OCA  HN ES        524 55.41                             129   -0.60 9  160 354 
 OCA  HZ I         525  3.89        21.2 0.22            129            160 354 
 SPBC HZ EP        524 34.46                             129    0.17 9  163 218 
 SPBC HE ES        524 56.44                             129    0.07 9  163 218 
 SPBC HZ I         525  0.71        25.8 0.44            128            163 218 
 ZAR  HN ES   1    525  3.03                             122   -0.21 6  202 292 
 ZAR  HZ I         525  8.65        19.5 0.26            121            202 292 
 NOR  HZ EP        524 41.57                             118    0.06 8  234 234 
 NOR  HN ES   1    525  9.05                             118   -0.17 6  234 234 
 NOR  HZ I         525 18.81        11.1 0.44            118            234 234 
 CHI  HZ EP        524 43.71                             117    0.12 8  249 195 
 CHI  HN ES        525 13.00                             117    0.07 8  249 195 
 CHI  HZ I         525 18.29        10.6 0.38            117            249 195 
 HEL  HZ EP   1    524 46.75                             115    0.80 6  271 256 
 HEL  HE ES   1    525 17.31                             115    0.17 6  271 256 
 HEL  HZ I         525 23.91         8.4 0.38            114            271 256 
 PRA  HZ EP   1    524 59.27                             106   -0.13 4  392 209 
 PRA  HN ES        525 41.20                             106    0.12 6  392 209 
 PRA  HZ I         525 47.56        11.5 0.74            107            392 209 
                                                                                
