 2015  330 0243 52.3 L   6.120 -73.531127.3  RSN  6 0.3 1.5LRSN                1
 GAP=112        0.75       3.2     3.8  6.0 -0.3585E+01  0.6298E+01 -0.1473E+01E
 Epicentro: SAN BENITO - SANTANDER                                             3
 ACTION:UPD 15-04-30 16:30 OP:nd   STATUS:               ID:20150330024352 L   I
 OLDACT:UP  15-03-30 19:19 OP:mh   STATUS:               ID:20150330023742     3
 OLDACT:REG 15-03-30 18:03 OP:mh   STATUS:               ID:20150330023742     3
 2015-03-30-0237-42M.COL___287                                                 6
 STAT SP IPHASW D HRMM SECON CODA AMPLIT PERI AZIMU VELO AIN AR TRES W  DIS CAZ7
 RUS  HZ EP        244 11.23                             155   -0.1310 55.5 117 
 RUS  HZ I         244 28.08         3.7 0.19            146           55.5 117 
 BAR2 EZ EP   1    244 11.57                             151    0.07 7 64.9  36 
 BAR2 EZ ES        244 26.44                             151    0.0010 64.9  36 
 BAR2 EZ I         244 27.43                             149           64.9  36 
 SPBC HZ EP        244 12.23                             146    0.0410 79.2 229 
 SPBC HN ES        244 27.42                             146   -0.2510 79.2 229 
 SPBC HZ I         244 32.32         8.4 0.34            143           79.2 229 
 BRR  HZ EP        244 14.11                             136   -0.4010  111 350 
 BRR  HN ES        244 32.29                             136    0.5010  111 350 
 BRR  HZ I         244 34.71         5.2 0.12            137            111 350 
 NOR  HZ EP        244 19.60                             125    0.42 9  160 248 
 NOR  HN ES        244 40.24                             125    0.13 9  160 248 
 NOR  HZ I         244 44.48         4.5 0.36            123            160 248 
 ZAR  HZ EP        244 24.55                             117    0.12 8  211 316 
 ZAR  HN ES        244 48.96                             117   -0.49 8  211 316 
 ZAR  HZ I         244 51.49         5.5 0.38            117            211 316 
                                                                                
