 2011 1030 0258 31.1 L   6.785 -73.115142.0  RSN  6 0.4 1.7LRSN                1
 GAP=141        0.70       4.9     6.3  6.7 -0.5027E+00 -0.2219E+01  0.1127E+01E
 Epicentro: LOS SANTOS - SANTANDER                                             3
 ACTION:UPD 12-07-13 16:07 OP:ep   STATUS:               ID:20111030025831 L   I
 2011-10-30-0255-30S.COL___157                                                 6
 STAT SP IPHASW D HRMM SECON CODA AMPLIT PERI AZIMU VELO AIN AR TRES W  DIS CAZ7
 BAR2 SZ ES   1    259  4.51                             170   -0.67 7 22.6 199 
 BAR2 SZ I         259  6.27        10.9 0.38                          22.6 199 
 BRR  HZ IP     C  258 51.91                             150   -0.1310 75.0 298 
 BRR  HN ES   1    259  8.87                             150    0.48 7 75.0 298 
 BRR  HZ I         259 13.05        14.4 0.16                          75.0 298 
 PAM  SZ EP        258 52.92                             150    0.0810 76.6  37 
 PAM  SN ES   1    259  9.94                             150    0.12 7 76.6  37 
 RUS  HZ EP        258 54.55                             143    0.2310 98.8 178 
 RUS  HN ES   2    259 12.51                             143    0.05 5 98.8 178 
 RUS  HZ I         259 14.46         2.8 0.30                          98.8 178 
 OCA  SZ EP   2    258 58.64                             128   -0.65 5  162 352 
 ZAR  HN ES   3    259 28.50                             121   -0.59 2  208 292 
 ZAR  HZ I         259 33.66         7.8 0.48                           208 292 
                                                                                
