 2017  830 0427  4.2 L   6.794 -73.138140.8  RSN 13 0.5 1.9LRSN                1
 GAP=113        0.91       4.2     4.4  5.3  0.5656E+01  0.4414E+01  0.3947E+01E
 Epicentro: LOS SANTOS - SANTANDER                                             3
 ACTION:UPD 17-09-04 20:26 OP:rebc STATUS:               ID:20170830042704 L   I
 OLDACT:UP  17-08-30 14:37 OP:dani STATUS:               ID:20170830041739     3
 OLDACT:UP  17-08-30 14:36 OP:dani STATUS:               ID:20170830041739     3
 OLDACT:REG 17-08-30 12:36 OP:dani STATUS:               ID:20170830041739     3
 2017-08-30-0418-00M.COL___408                                                 6
 STAT SP IPHASW D HRMM SECON CODA AMPLIT PERI AZIMU VELO AIN AR TRES W  DIS CAZ7
 BAR2 EZ EP        427 22.94                             170   -0.2810 22.8 192 
 BAR2 EZ ES        427 37.65                             170   -0.4010 22.8 192 
 BRR  HZ EP        427 24.75                             151   -0.1210 72.3 299 
 BRR  HN ES        427 41.65                             151    0.6510 72.3 299 
 BRR  HZ I         427 44.11        18.3 0.22            150           72.3 299 
 PAM  EZ EP        427 25.86                             150   -0.0210 77.4  39 
 PAM  EZ I         427 44.78        17.1 0.64            137           77.4  39 
 RUS  HZ EP        427 27.46                             143    0.0510 99.8 177 
 RUS  HN ES        427 46.03                             143    0.5210 99.8 177 
 RUS  HZ I         427 47.40        14.2 0.32            146           99.8 177 
 SPBC HZ EP        427 32.12                             128   -0.20 9  163 219 
 YPLC HZ EP        427 33.47                             126   -0.06 9  176 151 
 ZAR  HZ EP        427 36.73                             121    0.30 9  205 292 
 ZAR  HN ES        428  0.98                             121   -0.59 9  205 292 
 NOR  HZ EP        427 39.36                             117   -0.31 8  235 235 
 NOR  HE ES        428  6.93                             117   -0.41 8  235 235 
 CHI  HZ EP        427 41.66                             116    0.08 8  248 195 
 ROSC BZ EP   3    427 43.61                             116    1.58 2  253 211 
 HEL  HZ EP        427 44.94                             114    0.71 8  273 256 
 GUY2CHZ EP   3    427 48.84                             111    1.23 2  301 235 
 PTGC HZ EP   3    427 46.26                             111   -1.47 2  308 159 
                                                                                
