 2011 1230 0620  4.3 L   6.852 -72.964145.5  RSN  6 0.3 1.5LRSN                1
 GAP=258        0.61       7.8     9.3  5.8  0.5649E+02  0.7956E+01  0.5576E+01E
 Epicentro: CEPITA - SANTANDER                                                 3
 ACTION:UPD 12-07-13 16:19 OP:ep   STATUS:               ID:20111230062004 L   I
 2011-12-30-0620-00M.COL___186                                                 6
 STAT SP IPHASW D HRMM SECON CODA AMPLIT PERI AZIMU VELO AIN AR TRES W  DIS CAZ7
 BAR2 SZ EP   1    620 24.43                             165    0.20 7 37.5 220 
 BAR2 SZ ES   1    620 39.89                             165    0.08 7 37.5 220 
 BAR2 SZ I         620 41.04         7.4 0.28                          37.5 220 
 BRR  HZ EP   1    620 26.27                             147   -0.11 7 87.4 289 
 BRR  HE ES   1    620 43.20                             147   -0.42 7 87.4 289 
 BRR  HZ I         620 44.14         7.6 0.27                          87.4 289 
 RUS  HZ EP   1    620 28.70                             142    0.24 7  107 187 
 RUS  HN ES   1    620 47.40                             142    0.08 7  107 187 
 RUS  HZ I         620 49.07         2.5 0.28                           107 187 
 ZAR  HE ES   1    621  5.42                             120    0.30 6  221 289 
 ZAR  HZ I         621  7.20         3.8 0.25                           221 289 
 CHI  HZ EP   1    620 42.45                             116   -0.75 6  260 199 
 CHI  HZ I         620 43.47         1.4 0.09                           260 199 
 HEL  HZ EP   1    620 47.14                             113    0.34 5  293 256 
 HEL  HZ I         621 24.64         2.1 0.29                           293 256 
                                                                                
