 2017  130 0133 16.5 L   6.798 -73.126147.7  RSN  6 0.2 1.6LRSN                1
 GAP=139        0.59       2.5     3.3  4.2  0.9975E+00  0.2392E+01  0.2708E+01E
 Epicentro: LOS SANTOS - SANTANDER                                             3
 ACTION:UPD 17-05-22 16:04 OP:jn   STATUS:               ID:20170130013316 L   I
 OLDACT:REG 17-01-30 13:02 OP:ar   STATUS:               ID:20170130012745     3
 2017-01-30-0128-00M.COL___342                                                 6
 STAT SP IPHASW D HRMM SECON CODA AMPLIT PERI AZIMU VELO AIN AR TRES W  DIS CAZ7
 BAR2 EZ EP        133 36.19                             170   -0.1810 23.6 195 
 BAR2 EZ ES        133 52.03                             170    0.1710 23.6 195 
 BAR2 EZ I         133 52.38        11.4 0.20            170           23.6 195 
 BRR  HZ EP        133 38.14                             152    0.1710 73.2 298 
 BRR  HN ES        133 54.86                             152    0.1510 73.2 298 
 BRR  HZ I         133 58.94         6.6 0.16            152           73.2 298 
 PAM  EZ EP        133 39.20                             152    0.3510 76.2  38 
 PAM  EE ES        133 55.97                             152   -0.3110 76.2  38 
 PAM  EZ I         133 58.11        11.5 0.54            154           76.2  38 
 RUS  HZ EP        133 40.15                             144   -0.2710  100 177 
 RUS  HE ES        133 59.11                             144    0.0410  100 177 
 RUS  HZ I         134  0.39         4.1 0.26            145            100 177 
 ZAR  HN ES        134 14.60                             122   -0.25 8  206 292 
 CHI  HZ EP        133 54.54                             117    0.19 8  249 196 
 CHI  HN ES        134 23.77                             117   -0.09 8  249 196 
 CHI  HZ I         134 27.42         1.9 0.48            119            249 196 
                                                                                
