 2012  930 0001  4.3 L   6.820 -73.144148.6  RSN 20 0.5 3.2LRSN 3.7WRSN        1
 SPEC AVERAGE  MO 14.7 ST 37.7 OM  3.9 f0 3.57 R0.4334 AL 2.85 WI  6.6 MW  3.7 3
 SPEC SD       MO  0.1 ST 33.0 OM  0.9 f00.864 R0.0907 AL      WI      MW  0.0 3
 GAP= 55        1.04       3.3     3.2  5.1  0.8058E+00  0.2564E+01  0.4078E+01E
 Epicentro: LOS SANTOS - SANTANDER                                             3
 SPEC YOP SH N MO 14.7 ST 93.8 OM  3.0 f0 4.99 R0.2946 AL 4.92 WI  6.1 MW  3.8 3
 SPEC YOP SH N T 0 159 K 0.000 GD  234 VS 4.20 DE 3.00 Q0230.0 QA 0.60 VS 4.20 3
 SPEC TAM HH N MO 14.7 ST 29.2 OM  3.0 f0 3.48 R0.4224 AL 2.63 WI  4.8 MW  3.7 3
 SPEC TAM HH N T 0 153 K 0.000 GD  214 VS 4.20 DE 3.00 Q0230.0 QA 0.60 VS 4.20 3
 SPEC ROSCBH Z MO 14.6 ST 11.9 OM  2.8 f0 2.71 R0.5424 AL 1.85 WI 11.5 MW  3.7 3
 SPEC ROSCBH Z T 0 215 K 0.000 GD  295 VS 4.20 DE 3.00 Q0230.0 QA 0.60 VS 4.20 3
 SPEC PAM SH N MO 14.6 ST 16.0 OM  3.0 f0 3.10 R0.4742 AL 2.00 WI  4.0 MW  3.7 3
 SPEC PAM SH N T 0 144 K 0.000 GD  166 VS 4.20 DE 3.00 Q0230.0 QA 0.60 VS 4.20 3
 ACTION:UPD 12-10-22 14:21 OP:ep   STATUS:               ID:20120930000104 L   I
 2012-09-30-0000-00M.COL___220                                                 6
 STAT SP IPHASW D HRMM SECON CODA AMPLIT PERI AZIMU VELO AIN AR TRES W  DIS CAZ7
 BAR2 SZ EP        0 1 24.29                             170   -0.0810 25.5 190 
 BAR2 SZ ES   1    0 1 39.63                             170   -0.36 7 25.5 190 
 BAR2 SZ I         0 1 43.60       384.3 0.39                          25.5 190 
 GIR2 SZ IP        0 1 24.55                             168    0.2410 29.1 349 
 GIR2 SZ ES   1    0 1 40.19                             168    0.31 7 29.1 349 
 BRR  HZ IP     C  0 1 26.17                             153    0.4110 70.3 297 
 BRR  HN ES        0 1 43.26                             153    0.8010 70.3 297 
 BRR  HZ I         0 1 48.17       155.7 0.14                          70.3 297 
 PAM  SZ IP        0 1 27.03                             152    0.2610 75.6  40 
 PAM  SZ I         0 1 27.33       374.0 0.21                          75.6  40 
 PAM  SE ES   1    0 1 43.73                             152   -0.52 7 75.6  40 
 PAM  SN I         0 1 45.56       374.3 0.52                          75.6  40 
 RUS  HZ EP        0 1 28.18                             144   -0.3610  103 176 
 RUS  HN ES   1    0 1 46.50                             144   -0.91 7  103 176 
 RUS  HZ I         0 1 48.15       111.7 0.40                           103 176 
 PTB  HN ES   1    0 1 52.02                             133   -0.85 7  148 258 
 PTB  HN I         0 1 53.64       244.7 0.18                           148 258 
 TAM  HZ IP     C  0 1 32.42                             131    0.13 9  155 106 
 TAM  HN ES        0 1 54.05                             131   -0.04 9  155 106 
 YOP  SZ IP        0 1 34.77                             127   -0.01 9  181 154 
 YOP  SN ES   1    0 1 59.00                             127    0.48 7  181 154 
 YOP  SN I         0 2  2.14       177.5 0.38                           181 154 
 ZAR  HZ EP   1    0 1 36.52                             123   -0.40 6  203 292 
 ZAR  HN ES   1    0 2  2.32                             123    0.00 6  203 292 
 ZAR  HN I         0 2  8.71       190.7 0.18                           203 292 
 NOR  SN ES   1    0 2  8.40                             119   -0.12 6  236 234 
 NOR  SN I         0 2 14.45       286.8 0.18                           236 234 
 CHI  HZ EP        0 1 41.83                             117   -0.61 8  251 195 
 CHI  HZ I         0 1 45.00        58.2 0.28                           251 195 
 CHI  HN ES   1    0 2 11.74                             117   -0.41 6  251 195 
 CHI  HN I         0 2 19.33       147.6 0.42                           251 195 
 ROSC BZ EP        0 1 43.89                             117    1.05 8  255 211 
 ROSC BZ I         0 2 22.06       171.3 0.45                           255 211 
 HEL  HZ EP   1    0 1 45.00                             115    0.21 6  273 255 
 HEL  HZ I         0 2 22.49        49.3 0.26                           273 255 
 VIL  SZ EP   1    0 1 47.28                             112   -0.86 5  306 192 
 VIL  SZ I         0 1 54.37        38.9 0.30                           306 192 
 VIL  SE ES   1    0 2 23.53                             112    1.22 5  306 192 
 RREF HZ EP   1    0 1 51.24                             111    0.44 5  323 229 
 DBB  SZ EP        0 1 51.75                             110   -0.20 7  340 274 
 DBB  SZ ES   1    0 2 28.18                             110   -0.89 5  340 274 
 DBB  SZ I         0 2 30.89        63.1 0.46                           340 274 
 COD  HZ EP   1    0 1 53.11                             109    0.52 5  346 355 
 COD  HN ES   1    0 2 29.56                             109   -0.66 5  346 355 
 COD  HZ I         0 2 36.83        25.8 0.60                           346 355 
 ANIL HZ EP   1    0 1 54.85                             109    0.39 5  359 224 
 ANIL HZ I         0 1 56.73       104.2 0.22                           359 224 
 SDV  BZ EP   1    0 1 53.46                             109   -0.86 5  359  50 
 PRA  HZ EP   1    0 1 57.55                             107   -0.65 4  394 209 
 PRA  HZ I         0 2  0.06        60.1 0.18                           394 209 
 PRA  HN ES   1    0 2 40.51                             107    0.30 4  394 209 
 PRA  HN I         0 2 45.77        68.4 0.70                           394 209 
                                                                                
