 2016 1030 0254  0.4 L   6.865 -73.117151.8  RSN  6 0.6 1.3LRSN                1
 GAP=152        0.86       9.1     7.4  7.9 -0.1550E+02  0.2099E+02  0.1220E+02E
 Epicentro: LOS SANTOS - SANTANDER                                             3
 ACTION:UPD 16-11-09 19:24 OP:rebc STATUS:               ID:20161030025400 L   I
 OLDACT:UP  16-10-30 21:19 OP:dani STATUS:               ID:20161030024748d    3
 OLDACT:UP  16-10-30 21:19 OP:dani STATUS:               ID:20161030024748d    3
 OLDACT:DUP 16-10-30 21:15 OP:dani STATUS:               ID:20161030024748d    3
 OLDACT:UP  16-10-30 21:15 OP:dani STATUS:               ID:20161030024747     3
 OLDACT:UP  16-10-30 21:14 OP:dani STATUS:               ID:20161030024747     3
 OLDACT:UP  16-10-30 16:11 OP:cog  STATUS:               ID:20161030024747     3
 OLDACT:REG 16-10-30 14:04 OP:cog  STATUS:               ID:20161030024747     3
 2016-10-30-0248-00M.COL___315                                                 6
 STAT SP IPHASW D HRMM SECON CODA AMPLIT PERI AZIMU VELO AIN AR TRES W  DIS CAZ7
 BAR2 EZ EP        254 21.19                             168    0.2510 31.0 193 
 BAR2 EZ ES        254 36.69                             168   -0.2710 31.0 193 
 BAR2 EZ I         254 39.85         4.4 0.48            168           31.0 193 
 PAM  EE ES        254 40.41                             154    0.0510 69.8  41 
 PAM  EZ I         254 41.20         5.8 0.22            158           69.8  41 
 BRR  HZ EP        254 22.36                             153    0.1510 71.0 292 
 BRR  HN ES        254 39.22                             153    0.0210 71.0 292 
 BRR  HZ I         254 42.65         3.2 0.20            154           71.0 292 
 PTB  HZ EP        254 27.92                             132   -0.38 9  152 256 
 PTB  HN ES   4    254 49.04                             132   -1.00 0  152 256 
 PTB  HZ I         254 50.81         2.2 0.23            134            152 256 
 NOR  HN ES   3    255  9.25                             119    3.31 2  241 234 
 GUY2CHZ EP   4    254 42.01                             113   -3.06 0  308 234 
 GUY2CHE ES   4    255 26.83                             113    6.93 0  308 234 
 GUY2CHZ I         255 33.62         0.8 0.68                           308 234 
                                                                                
