 2017  730 0136 36.1 L   6.743 -73.148152.0  RSN  5 0.5 1.4LRSN                1
 GAP=233        1.32       8.2     9.3  9.9  0.2045E+02  0.1634E+02  0.9535E+01E
 Epicentro: LOS SANTOS - SANTANDER                                             3
 ACTION:UPD 17-08-30 15:38 OP:rebc STATUS:               ID:20170730013636 L   I
 OLDACT:UP  17-07-30 15:49 OP:ar   STATUS:               ID:20170730012738d    3
 OLDACT:DUP 17-07-30 15:39 OP:ar   STATUS:               ID:20170730012738d    3
 2017-07-30-0128-00M.COL___383                                                 6
 STAT SP IPHASW D HRMM SECON CODA AMPLIT PERI AZIMU VELO AIN AR TRES W  DIS CAZ7
 BAR2 HE ES        137 11.70                             173   -0.5010 17.1 193 
 BAR2 EZ I         137 13.54         6.3 0.32            169           17.1 193 
 BRR  HZ EP        136 58.14                             153    0.0410 74.2 303 
 BRR  HN ES        137 16.00                             153    0.7510 74.2 303 
 RUS  HZ EP        136 59.51                             147   -0.5410 94.3 176 
 RUS  HN ES        137 19.01                             147    0.2910 94.3 176 
 RUS  HZ I         137 21.55         2.3 0.28            145           94.3 176 
 PTB  HZ EP        137  3.45                             134   -0.02 9  146 261 
 PTB  HN ES        137 23.90                             134   -0.91 9  146 261 
 PTB  HZ I         137 25.24         1.7 0.32            134            146 261 
 SPBC HZ EP        137  5.09                             131    0.46 9  158 220 
 SPBC HN ES        137 27.33                             131    0.46 9  158 220 
 SPBC HZ I         137 31.52         5.0 0.10            131            158 220 
                                                                                
