 2013 1030 0052 19.5 L   6.800 -73.177136.0  RSN  4 0.4 1.1LRSN                1
 GAP=198        0.75       5.6     7.1 14.7  0.1095E+02 -0.2433E+01 -0.4422E+02E
 Epicentro: LOS SANTOS - SANTANDER                                             3
 ACTION:UPD 13-11-25 09:24 OP:ep   STATUS:               ID:20131030005219 L   I
 OLDACT:REG 13-10-30 06:25 OP:jn   STATUS:               ID:20131030005000     3
 2013-10-30-0050-00M.COL___273                                                 6
 STAT SP IPHASW D HRMM SECON CODA AMPLIT PERI AZIMU VELO AIN AR TRES W  DIS CAZ7
 RUS  HZ EP   1    052 42.82                             142    0.54 8  101 174 
 RUS  HN ES   1    052 59.78                             142   -0.30 8  101 174 
 RUS  HZ I         053  4.01         1.2 0.34            145            101 174 
 PTB  HZ EP        052 44.88                             131   -0.4510  144 259 
 PTB  HN ES   1    053  5.84                             131    0.33 7  144 259 
 PTB  HZ I         053  8.87         1.9 0.10            135            144 259 
 SPBC HN ES   1    053  8.64                             127    0.13 7  161 218 
 SPBC HZ I         053 12.07         2.1 0.32            131            161 218 
 SML  HE ES   1    053 23.53                             116    0.10 6  242 336 
                                                                                
