 2015 1130 0717 49.9 L   6.828 -73.168144.0  RSN  9 0.4 1.6LRSN                1
 GAP=181        0.88       2.5     4.4  5.0  0.7538E+00  0.2681E+01 -0.1265E+01E
 Epicentro: LOS SANTOS - SANTANDER                                             3
 ACTION:UPD 15-12-28 16:14 OP:cam  STATUS:               ID:20151130071749 L   I
 OLDACT:REG 15-11-30 14:07 OP:drio STATUS:               ID:20151130070749     3
 2015-11-30-0707-49M.COL___289                                                 6
 STAT SP IPHASW D HRMM SECON CODA AMPLIT PERI AZIMU VELO AIN AR TRES W  DIS CAZ7
 BAR2 EZ EP        718  9.45                             169    0.1110 26.1 184 
 BAR2 EZ ES        718 24.65                             169    0.1210 26.1 184 
 BAR2 EZ I         718 27.38         6.9 0.24            170           26.1 184 
 BRR  HZ EP        718 11.36                             153    0.7410 67.6 297 
 BRR  HN ES        718 26.52                             153   -0.2910 67.6 297 
 BRR  HZ I         718 31.74         5.3 0.46            152           67.6 297 
 RUS  HZ EP        718 13.14                             142   -0.5410  104 175 
 RUS  HN ES        718 32.25                             142   -0.0110  104 175 
 RUS  HZ I         718 35.42         2.4 0.16            146            104 175 
 PTB  HZ EP        718 16.44                             132   -0.09 9  146 257 
 PTB  HN ES        718 37.67                             132    0.35 9  146 257 
 PTB  HZ I         718 43.32         7.2 0.36            133            146 257 
 OCA  HZ EP        718 18.10                             130    0.38 9  157 354 
 OCA  HN ES        718 38.96                             130   -0.49 9  157 354 
 OCA  HZ I         718 44.94         6.8 0.16            133            157 354 
 SPBC HZ EP        718 18.42                             128    0.11 9  164 218 
 SPBC HN ES        718 40.71                             128    0.21 9  164 218 
 SPBC HZ I         718 43.82         7.1 0.14            131            164 218 
 ZAR  HZ EP        718 21.96                             122    0.12 9  201 292 
 ZAR  HE ES        718 46.36                             122   -0.42 9  201 292 
 ZAR  HZ I         718 53.03         5.7 0.32            124            201 292 
 SML  HZ EP        718 25.74                             117   -0.24 8  240 336 
 SML  HE ES        718 54.29                             117    0.15 8  240 336 
 PRA  HZ EP        718 43.63                             106    0.13 6  394 209 
 PRA  HE ES        719 24.51                             106   -0.82 6  394 209 
 PRA  HZ I         719 28.44         1.9 0.62            109            394 209 
 SJC  HZ EP   4    718 43.62                             106   -1.29 0  405 327 
 SJC  HN ES   4    719 25.44                             106   -2.40 0  405 327 
                                                                                
