 2016  930 0502 16.5 L   6.740 -73.170158.3  RSN  4 0.1 1.0LRSN                1
 GAP=230        0.33       2.1     2.5  2.9  0.1491E+01 -0.5383E+00  0.1760E-01E
 Epicentro: VILLANUEVA - SANTANDER                                             3
 ACTION:UPD 17-08-17 21:18 OP:lp   STATUS:               ID:20160930050216 L   I
 OLDACT:UP  16-09-30 17:32 OP:edw  STATUS:               ID:20160930045642     3
 OLDACT:REG 16-09-30 12:20 OP:edw  STATUS:               ID:20160930045642     3
 2016-09-30-0457-00M.COL___375                                                 6
 STAT SP IPHASW D HRMM SECON CODA AMPLIT PERI AZIMU VELO AIN AR TRES W  DIS CAZ7
 BRR  HZ EP        5 2 39.19                             154    0.1610 72.4 304 
 BRR  HN ES        5 2 56.56                             154   -0.0810 72.4 304 
 RUS  HZ EP        5 2 41.02                             148   -0.0110 94.2 174 
 RUS  HN ES        5 3  0.20                             148   -0.0010 94.2 174 
 RUS  HZ I         5 3  0.89         1.0 0.38            146           94.2 174 
 PTB  HZ EP        5 2 44.05                             135   -0.09 9  144 261 
 PTB  HE ES        5 3  5.78                             135    0.04 9  144 261 
 SPBC HZ EP        5 2 45.25                             133   -0.07 9  156 220 
 SPBC HN ES        5 3  7.90                             133    0.05 9  156 220 
 SPBC HZ I         5 3 12.00         2.1 0.42            131            156 220 
                                                                                
