 2014 1030 0304 14.0 L   6.794 -73.141147.3  RSN 18 0.5 2.3LRSN                1
 GAP= 72        1.07       3.2     3.2  5.2 -0.1987E+01  0.4002E+01  0.2625E+01E
 Epicentro: LOS SANTOS - SANTANDER                                             3
 ACTION:UPD 14-11-29 23:58 OP:nd   STATUS:               ID:20141030030414 L   I
 OLDACT:REG 14-10-31 15:40 OP:fm   STATUS:               ID:20141030025747     3
 2014-10-30-0257-47M.COL___277                                                 6
 STAT SP IPHASW D HRMM SECON CODA AMPLIT PERI AZIMU VELO AIN AR TRES W  DIS CAZ7
 BAR2 SZ EP        3 4 33.80                             171   -0.0310 22.8 192 
 BAR2 SZ ES        3 4 49.11                             171   -0.1710 22.8 192 
 BAR2 SZ I         3 4 51.12        49.5 0.28            168           22.8 192 
 BRR  HZ EP     C  3 4 35.74                             153    0.3610 72.0 299 
 BRR  HN ES        3 4 52.95                             153    0.9110 72.0 299 
 BRR  HZ I         3 4 54.78        60.4 0.14            152           72.0 299 
 PAM  SZ EP        3 4 36.68                             151    0.2710 77.6  39 
 PAM  SN ES        3 4 53.80                             151   -0.0810 77.6  39 
 PAM  SZ I         3 4 56.50        42.8 0.58            154           77.6  39 
 RUS  HZ EP        3 4 38.12                             144    0.2510 99.9 176 
 RUS  HE ES        3 4 56.46                             144   -0.0210 99.9 176 
 RUS  HZ I         3 4 58.78        25.4 0.40            143           99.9 176 
 PTB  HZ EP        3 4 40.25                             132   -0.90 9  148 259 
 PTB  HN ES        3 5  1.41                             132   -0.90 9  148 259 
 PTB  HZ I         3 5  3.39        28.3 0.16            131            148 259 
 TAM  HZ EP        3 4 41.95                             131    0.19 9  154 105 
 TAM  HN ES        3 5  3.36                             131   -0.03 9  154 105 
 TAM  HZ I         3 5  5.33        12.2 0.32            132            154 105 
 OCA  HZ EP        3 4 42.56                             130    0.04 9  161 353 
 OCA  HN ES        3 5  4.12                             130   -0.62 9  161 353 
 OCA  HZ I         3 5  7.53        25.5 0.42            131            161 353 
 SPBC HZ EP        3 4 42.70                             129    0.08 9  163 219 
 SPBC HN ES        3 5  4.65                             129   -0.28 9  163 219 
 SPBC HZ I         3 5  7.52        26.3 0.28            128            163 219 
 CHI  HZ EP        3 4 51.06                             117   -0.69 8  248 195 
 CHI  HN ES        3 5 21.40                             117    0.22 8  248 195 
 CHI  HZ I         3 5 29.49         4.5 0.62            117            248 195 
 HEL  HZ EP        3 4 54.36                             115    0.01 8  272 256 
 HEL  HN ES        3 5 26.41                             115    0.60 8  272 256 
 HEL  HZ I         3 5 33.96        12.4 0.30            115            272 256 
 URE  HZ EP   4    3 4 54.31                             114   -0.93 0  285 292 
 GUY2CHZ EP        3 4 57.81                             113    0.11 7  301 235 
 GUY2CHN ES        3 5 32.02                             113    0.24 7  301 235 
 GUY2CHZ I         3 5 40.02        10.7 0.48                           301 235 
 PTGC HZ EP   4    3 4 56.56                             112   -1.29 0  308 159 
 PTGC HE ES   4    3 5 28.35                             112   -3.70 0  308 159 
 PTGC HZ I         3 5 37.20         9.9 0.42            112            308 159 
 RREF HZ EP   4    3 4 57.20                             111   -3.02 0  322 230 
 RREF HN ES   4    3 5 33.12                             111   -3.15 0  322 230 
 RREF HZ I         3 5 39.48        10.5 0.36            111            322 230 
 CBOC HZ EP   1    3 5  1.77                             110    0.74 5  334 252 
 CBOC HN ES   4    3 5 35.90                             110   -1.80 0  334 252 
 CBOC HZ I         3 5 48.74         4.2 0.38            110            334 252 
 DBB  SZ EP        3 5  2.05                             110    0.43 7  340 274 
 DBB  SZ ES   4    3 5 36.79                             110   -1.96 0  340 274 
 TOL  SZ EP   4    3 5  3.26                             110    0.94 0  343 225 
 TOL  SN ES        3 5 40.45                             110    0.45 7  343 225 
 TOL  SZ I         3 5 48.25        14.7 0.48            109            343 225 
 PRA  HZ EP        3 5  6.93                             107   -0.63 6  392 210 
 PRA  HN ES   4    3 5 47.20                             107   -2.12 0  392 210 
 PRA  HZ I         3 5 56.75         4.7 0.32            107            392 210 
 SJC  HZ EP   4    3 5  8.21                             106   -1.52 0  410 327 
 SJC  HN ES   4    3 5 48.35                             106   -4.83 0  410 327 
 SJC  HZ I         3 5 54.43         3.8 0.48            106            410 327 
                                                                                
