 2012  630 0203  9.8 L   6.796 -73.175150.1  RSN  6 0.2 1.3LRSN                1
 GAP=180        0.50       3.8     4.1  5.3  0.6973E+01  0.2592E+01 -0.5237E+00E
 Epicentro: LOS SANTOS - SANTANDER                                             3
 ACTION:UPD 12-08-06 17:53 OP:ep   STATUS:               ID:20120630020309 L   I
 2012-06-30-0200-00M.COL___201                                                 6
 STAT SP IPHASW D HRMM SECON CODA AMPLIT PERI AZIMU VELO AIN AR TRES W  DIS CAZ7
 BAR2 SZ EP   1    2 3 29.64                             171   -0.33 7 22.5 182 
 BAR2 SZ ES   1    2 3 45.66                             171   -0.02 7 22.5 182 
 BAR2 SZ I         2 3 46.55         4.7 0.30                          22.5 182 
 BRR  HZ EP   1    2 3 31.78                             154    0.47 7 68.6 300 
 BRR  HE ES   1    2 3 48.28                             154    0.21 7 68.6 300 
 RUS  HZ EP   1    2 3 33.99                             145   -0.01 7  100 174 
 RUS  HN ES   1    2 3 52.80                             145   -0.05 7  100 174 
 RUS  HZ I         2 3 54.75         2.7 0.44                           100 174 
 PTB  HZ EP   1    2 3 36.99                             134    0.13 7  144 259 
 PTB  HN ES   1    2 3 57.92                             134   -0.03 7  144 259 
 PTB  HZ I         2 4  0.05         3.5 0.16                           144 259 
 OCA  HN ES   2    2 4  0.59                             131   -0.26 5  160 354 
 ZAR  HN ES   1    2 4  7.24                             124   -0.34 6  201 293 
                                                                                
