 2011 1130 0923 21.3 L   6.749 -73.104133.9  RSN  5 0.4 1.4LRSN                1
 GAP=144        0.75       4.6     7.5  7.3  0.2393E+00 -0.2527E+01 -0.5667E+01E
 Epicentro: LOS SANTOS - SANTANDER                                             3
 ACTION:UPD 12-07-13 16:13 OP:ep   STATUS:               ID:20111130092321 L   I
 2011-11-30-0921-49S.COL___160                                                 6
 STAT SP IPHASW D HRMM SECON CODA AMPLIT PERI AZIMU VELO AIN AR TRES W  DIS CAZ7
 BAR2 SZ EP   1    923 39.34                             171   -0.11 7 19.4 206 
 BAR2 SZ ES   1    923 53.27                             171   -0.32 7 19.4 206 
 BAR2 SZ I         923 55.11         7.0 0.20                          19.4 206 
 BRR  HZ EP   1    923 41.11                             148   -0.52 7 77.9 301 
 BRR  HN ES   1    923 57.70                             148    0.24 7 77.9 301 
 BRR  HZ I         924  0.99         5.5 0.18                          77.9 301 
 PAM  SZ EP   1    923 41.91                             148   -0.49 7 79.1  34 
 PAM  SZ I         923 42.35         5.0 0.15                          79.1  34 
 PAM  SN ES   1    923 59.05                             148    0.21 7 79.1  34 
 RUS  HZ EP   1    923 43.65                             143    0.16 7 94.8 179 
 RUS  HN ES   1    924  1.10                             143    0.31 7 94.8 179 
 RUS  HZ I         924  3.88         3.1 0.34                          94.8 179 
 OCA  SZ EP   1    923 49.99                             126    0.64 7  166 352 
                                                                                
