 2015  430 0721 28.8 L   6.058 -73.595122.0  RSN 14 0.5 2.2LRSN                1
 GAP= 78        1.14       2.8     3.0  5.7 -0.2970E+01  0.5169E+01 -0.1364E+01E
 Epicentro: GUEPSA - SANTANDER                                                 3
 ACTION:UPD 15-06-03 16:58 OP:cam  STATUS:               ID:20150430072128 L   I
 OLDACT:REG 15-04-30 12:22 OP:stll STATUS:               ID:20150430071744     3
 2015-04-30-0717-44M.COL___277                                                 6
 STAT SP IPHASW D HRMM SECON CODA AMPLIT PERI AZIMU VELO AIN AR TRES W  DIS CAZ7
 RUS  HZ EP        721 46.98                             153   -0.4910 59.5 108 
 RUS  HN ES        722  2.19                             153    0.1910 59.5 108 
 RUS  HZ I         722  2.81        12.5 0.20            157           59.5 108 
 SPBC HZ EP        721 47.25                             149   -0.2310 69.4 230 
 SPBC HN ES        722  2.09                             149    0.0710 69.4 230 
 SPBC HZ I         722  5.71        47.3 0.50            148           69.4 230 
 BAR2 EZ EP        721 47.96                             147   -0.0710 74.6  38 
 BAR2 EZ ES        722  3.30                             147    0.2910 74.6  38 
 BAR2 EZ I         722  4.44        52.9 0.42            148           74.6  38 
 PTB  HZ EP        721 49.33                             135   -1.0610  109 299 
 PTB  HN ES        722  6.67                             135   -0.5410  109 299 
 PTB  HZ I         722  8.69        27.1 0.52            134            109 299 
 BRR  HZ EP        721 50.97                             133   -0.0610  117 354 
 BRR  HN ES        722  8.92                             133    0.5810  117 354 
 BRR  HZ I         722 10.76        10.1 0.12            133            117 354 
 NOR  HZ EP        721 53.77                             125   -0.61 9  151 249 
 NOR  HN ES        722 14.94                             125    0.63 9  151 249 
 NOR  HZ I         722 17.96        55.2 0.20            125            151 249 
 CHI  HZ EP        721 55.46                             124   -0.14 9  159 185 
 CHI  HN ES        722 16.15                             124   -0.32 9  159 185 
 CHI  HZ I         722 19.54        10.0 0.42            126            159 185 
 PAM  SZ EP        721 56.97                             122   -0.17 9  173  35 
 PAM  SN ES        722 19.47                             122    0.25 9  173  35 
 PAM  SZ I         722 22.55         8.0 0.30            123            173  35 
 ZAR  HZ EP        722  0.60                             116   -0.04 8  211 319 
 ZAR  HN ES        722 25.41                             116   -0.05 8  211 319 
 ZAR  HZ I         722 27.01        15.7 0.46            116            211 319 
 HEL  HZ EP        722  1.65                             116    0.19 8  215 274 
 HEL  HN ES        722 26.24                             116   -0.68 8  215 274 
 HEL  HZ I         722 33.02        16.3 0.26            116            215 274 
 GUY2CHZ EP        722  2.31                             115    0.47 8  217 245 
 GUY2CHN ES        722 28.69                             115    1.11 8  217 245 
 GUY2CHZ I         722 35.95        11.4 0.36                           217 245 
 OCA  HZ EP        722  4.79                             112    0.42 8  243   7 
 OCA  HE ES        722 32.22                             112    0.13 8  243   7 
 OCA  HZ I         722 41.82        31.0 0.42            113            243   7 
 TOL  SZ EP        722  6.24                             112    0.72 8  251 230 
 TOL  SN ES        722 34.31                             112    0.17 8  251 230 
 TOL  SZ I         722 39.36        19.6 0.60            112            251 230 
 CBOC HZ EP        722  7.45                             110    0.16 8  269 266 
 CBOC HN ES        722 37.19                             110   -0.11 8  269 266 
 CBOC HZ I         722 50.28         6.0 0.58            110            269 266 
                                                                                
