 2016 1230 0243 52.1 L   6.848 -73.139144.8  RSN 24 0.6 2.6LRSN                1
 GAP= 70        1.28       4.3     3.8  5.7 -0.2026E+01  0.8013E+01 -0.4555E-01E
 Epicentro: LOS SANTOS - SANTANDER                                             3
 ACTION:UPD 17-01-11 20:20 OP:rebc STATUS:               ID:20161230024352 L   I
 OLDACT:UP  16-12-30 15:39 OP:edw  STATUS:               ID:20161230023749     3
 OLDACT:REG 16-12-30 12:41 OP:edw  STATUS:               ID:20161230023749     3
 2016-12-30-0238-00M.COL___375                                                 6
 STAT SP IPHASW D HRMM SECON CODA AMPLIT PERI AZIMU VELO AIN AR TRES W  DIS CAZ7
 BAR2 EZ IP     C  244 11.62                             168   -0.1010 28.7 190 
 BAR2 EZ ES        244 26.73                             168   -0.3110 28.7 190 
 BAR2 EZ I         244 27.41        96.1 0.20            166           28.7 190 
 BRR  HZ IP     C  244 13.55                             153    0.5110 69.5 294 
 BRR  HN ES        244 30.44                             153    1.0610 69.5 294 
 BRR  HZ I         244 33.58        62.7 0.16            150           69.5 294 
 PAM  EZ EP     C  244 14.50                             152    0.5610 72.9  42 
 PAM  EN ES        244 31.07                             152    0.0910 72.9  42 
 PAM  EZ I         244 33.64        55.0 0.15            156           72.9  42 
 RUS  HZ IP     C  244 15.52                             142   -0.6110  106 177 
 RUS  HN ES        244 33.80                             142   -1.0810  106 177 
 RUS  HZ I         244 35.75       100.0 0.30            143            106 177 
 PTB  HZ EP   9    244 18.55                             131   -0.60 0  150 257 
 PTB  HN ES        244 39.16                             131   -0.49 9  150 257 
 PTB  HZ I         244 41.71        54.3 0.18            130            150 257 
 TAM  HZ IP     C  244 20.02                             130    0.26 9  156 107 
 TAM  HN ES        244 41.20                             130   -0.13 9  156 107 
 TAM  HZ I         244 41.95        30.6 0.24            134            156 107 
 ZAR  HZ EP        244 24.76                             122    0.41 9  203 291 
 ZAR  HN ES   4    244 50.67                             122    1.16 0  203 291 
 ZAR  HZ I         244 55.37        37.6 0.24            122            203 291 
 NOR  HZ IP     C  244 28.31                             118    0.14 8  238 234 
 NOR  HE ES        244 55.61                             118   -0.70 8  238 234 
 NOR  HZ I         245  1.45        32.0 0.28            118            238 234 
 CHI  HZ EP        244 30.00                             116   -0.32 8  254 195 
 CHI  HN ES   4    244 58.67                             116   -1.46 0  254 195 
 CHI  HZ I         245  2.31        14.8 0.32            117            254 195 
 ROSC BZ EP   4    244 31.79                             116    1.09 0  258 211 
 ROSC BE ES        245  1.66                             116    0.85 8  258 211 
 ROSC BZ I         245  6.37        27.1 0.35            116            258 211 
 URE  HZ EP        244 31.93                             113   -1.05 7  283 291 
 URE  HN ES   4    245  3.55                             113   -1.32 0  283 291 
 URE  HZ I         245 15.35        29.5 0.18            113            283 291 
 LL1C HZ EP   4    244 37.85                             112    2.79 0  301 351 
 GUY2CHZ EP        244 36.50                             112    0.42 7  305 234 
 GUY2CHN ES        245 11.00                             112    0.62 7  305 234 
 GUY2CHZ I         245 19.04        17.4 0.48                           305 234 
 PTGC HZ EP   4 D  244 34.96                             111   -1.47 0  313 159 
 PTGC HN ES   4    245  8.27                             111   -2.75 0  313 159 
 PTGC HZ I         245 10.65        22.1 0.34            112            313 159 
 ELA  HZ EP   4    244 40.82                             110    1.45 0  333 229 
 ELA  HE ES   4    245 19.97                             110    3.73 0  333 229 
 ELA  HZ I         245 22.98        18.6 0.68            110            333 229 
 CBOC HZ EP        244 39.83                             109    0.59 7  336 251 
 CBOC HN ES        245 15.24                             109   -0.78 7  336 251 
 CBOC HZ I         245 19.10         7.0 0.18            110            336 251 
 DBB  EZ EP        244 40.10                             109    0.52 7  340 273 
 DBB  EN ES   4    245 14.89                             109   -1.73 0  340 273 
 DBB  EZ I         245 19.29        10.0 0.16            109            340 273 
 ANIL HZ EP   2    244 42.19                             108   -0.17 3  362 224 
 ANIL HE ES   2    245 22.66                             108    1.09 3  362 224 
 ANIL HZ I         245 34.80        27.3 0.28            108            362 224 
 APAC HZ EP        244 46.12                             106   -0.03 6  397 287 
 APAC HN ES        245 27.91                             106   -0.40 6  397 287 
 ORTC HZ EP        244 46.72                             106    0.19 6  400 216 
 ORTC HN ES   4    245 30.15                             106    1.15 0  400 216 
 ORTC HZ I         245 36.29        12.4 0.44            106            400 216 
 SJC  HZ EP        244 46.21                             106   -0.94 6  405 326 
 SJC  HN ES   4    245 27.32                             106   -2.78 0  405 326 
 SJC  HZ I         245 32.11         6.6 0.35            106            405 326 
 PAL  HZ EP     D  244 47.84                             105    0.22 6  409 238 
 PAL  HN ES   4    245 32.34                             105    1.41 0  409 238 
 PAL  HZ I         245 37.30         5.3 0.22            106            409 238 
 LCBC HZ EP   4    244 56.19                             105    7.42 0  420 302 
 LCBC HE ES   2    245 32.50                             105   -0.48 3  420 302 
 CRJC HZ EP        244 52.61                             103   -1.32 5  462   3 
 CRJC HN ES   4    245 39.59                             103   -2.58 0  462   3 
 YOT  HZ EP   2    244 54.86                             103   -0.73 2  476 228 
 YOT  HE ES   4    245 49.25                             103    4.12 0  476 228 
 MACC HZ EP   4    244 59.67                             101   -1.75 0  526 189 
 MACC HN ES   4    245 51.61                             101   -3.88 0  526 189 
                                                                                
