 2013  130 0929 16.0 L   6.764 -73.135144.7  RSN  6 0.3 2.0LRSN                1
 GAP=140        0.66       3.5     3.3  5.0  0.2689E+01  0.2734E+01 -0.8534E+00E
 Epicentro: LOS SANTOS - SANTANDER                                             3
 ACTION:UPD 13-02-15 09:17 OP:ep   STATUS:               ID:20130130092916 L   I
 2013-01-30-0924-49M.COL___182                                                 6
 STAT SP IPHASW D HRMM SECON CODA AMPLIT PERI AZIMU VELO AIN AR TRES W  DIS CAZ7
 BAR2 SZ IP        929 35.47                             172    0.0410 19.7 195 
 BAR2 SZ ES   1    929 50.55                             172   -0.03 7 19.7 195 
 BAR2 SZ I         929 51.84        22.7 0.16            169           19.7 195 
 BRR  HZ IP     C  929 37.23                             151    0.0310 74.2 301 
 BRR  HE ES        929 54.28                             151    0.5410 74.2 301 
 BRR  HE I         929 54.86        35.6 0.15            149           74.2 301 
 PAM  SZ EP        929 38.22                             150   -0.0110 79.7  37 
 PAM  SZ I         929 38.67        21.6 0.34            153           79.7  37 
 PAM  SN ES   1    929 55.12                             150   -0.46 7 79.7  37 
 RUS  HZ EP        929 39.50                             145    0.1510 96.6 177 
 RUS  HE ES        929 57.53                             145   -0.0410 96.6 177 
 RUS  HE I         929 59.53        18.8 0.26            145           96.6 177 
 PTB  HZ EP        929 42.67                             132   -0.24 9  148 260 
 PTB  HE ES   1    930  3.44                             132   -0.47 7  148 260 
 PTB  HZ I         930  8.48         4.4 0.09            130            148 260 
 ZAR  HZ EP   1    929 48.93                             122    0.29 6  207 293 
 ZAR  HN ES        930 13.95                             122   -0.15 8  207 293 
 ZAR  HZ I         930 19.97         6.2 0.25            121            207 293 
                                                                                
