 2015  130 0137 18.1 L   6.730 -73.180146.5  RSN  4 0.3 1.5LRSN                1
 GAP=228        0.83       6.7     6.8  7.2  0.2453E+02  0.7410E+01  0.3917E+01E
 Epicentro: VILLANUEVA - SANTANDER                                             3
 ACTION:UPD 15-03-02 15:43 OP:nd   STATUS:               ID:20150130013718 L   I
 OLDACT:DUP 15-01-30 14:04 OP:cam  STATUS:               ID:20150130012811d    3
 2015-01-30-0128-09M.COL___271                                                 6
 STAT SP IPHASW D HRMM SECON CODA AMPLIT PERI AZIMU VELO AIN AR TRES W  DIS CAZ7
 BAR2 EZ ES        137 52.72                             174   -0.2810 15.2 181 
 BRR  HZ EP        137 38.96                             152   -0.4610 72.1 305 
 BRR  HN ES        137 56.50                             152    0.4910 72.1 305 
 BRR  HN I         137 58.49         9.2 0.20            152           72.1 305 
 RUS  HZ EP        137 41.73                             146    0.2810 93.2 173 
 RUS  HE ES        137 59.65                             146    0.0310 93.2 173 
 RUS  HZ I         138  1.20         4.3 0.34            147           93.2 173 
 PTB  HZ EP   1    137 44.93                             133    0.22 7  143 262 
 PTB  HN ES        138  5.24                             133   -0.20 9  143 262 
 PTB  HZ I         138  7.75         2.4 0.12            133            143 262 
                                                                                
