 2011 1030 0614 42.3 L   6.786 -73.145142.0  RSN  6 0.4 1.5LRSN                1
 GAP=137        0.75       5.1     8.1  7.7  0.2787E+01 -0.2476E+01 -0.7378E+01E
 Epicentro: LOS SANTOS - SANTANDER                                             3
 ACTION:UPD 12-07-13 16:07 OP:ep   STATUS:               ID:20111030061442 L   I
 2011-10-30-0613-33S.COL___156                                                 6
 STAT SP IPHASW D HRMM SECON CODA AMPLIT PERI AZIMU VELO AIN AR TRES W  DIS CAZ7
 BAR2 SZ EP        615  1.40                             171   -0.0410 21.9 191 
 BAR2 SZ ES   1    615 15.62                             171   -0.75 7 21.9 191 
 BAR2 SZ I         615 18.06        11.4 0.20                          21.9 191 
 BRR  HZ EP        615  3.16                             151    0.0810 72.0 300 
 BRR  HZ I         615  5.06         6.0 0.10                          72.0 300 
 BRR  HE ES   2    615 20.27                             151    0.97 5 72.0 300 
 PAM  SZ EP        615  4.37                             149    0.2010 78.5  39 
 PAM  SN ES   2    615 21.43                             149    0.19 5 78.5  39 
 RUS  HZ EP        615  5.74                             143    0.1810 99.1 176 
 RUS  HN ES   2    615 23.78                             143    0.07 5 99.1 176 
 RUS  HZ I         615 25.12         3.2 0.46                          99.1 176 
 OCA  SZ EP   1    615  9.96                             128   -0.49 7  162 353 
 OCA  SZ ES   3    615 32.07                             128   -0.35 2  162 353 
 OCA  SZ I         615 35.25         4.9 0.20                           162 353 
 ZAR  HN ES   3    615 38.69                             121   -1.05 2  205 293 
                                                                                
