 2011  830 0456 33.4 L   6.777 -73.096144.6  RSN  4 0.1 1.7LRSN                1
 GAP=241        0.31       2.4     5.2  3.1  0.5973E+01  0.5507E+00  0.1393E+01E
 Epicentro: LOS SANTOS - SANTANDER                                             3
 ACTION:UPD 12-07-13 15:54 OP:ep   STATUS:               ID:20110830045633 L   I
 2011-08-30-0456-27S.COL___156                                                 6
 STAT SP IPHASW D HRMM SECON CODA AMPLIT PERI AZIMU VELO AIN AR TRES W  DIS CAZ7
 BAR2 SZ EP        456 52.84                             171    0.0110 22.6 205 
 BAR2 SZ ES   1    457  7.88                             171   -0.13 7 22.6 205 
 BRR  HZ EP        456 54.71                             150   -0.0210 77.2 298 
 BRR  HN ES   1    457 11.47                             150    0.07 7 77.2 298 
 BRR  HZ I         457 16.34        15.3 0.16                          77.2 298 
 RUS  HZ EP   1    456 56.73                             144   -0.07 7 97.8 179 
 RUS  HN ES   1    457 15.24                             144    0.17 7 97.8 179 
 RUS  HZ I         457 16.66         9.0 0.38                          97.8 179 
 CHI  HZ EP   1    457 10.98                             117    0.09 6  248 197 
 CHI  HE ES   1    457 40.04                             117   -0.12 6  248 197 
 CHI  HZ I         457 46.05         2.7 0.28                           248 197 
                                                                                
