 2015  630 0743 38.4 L   6.770 -73.149142.9  RSN  7 0.5 1.8LRSN                1
 GAP=182        1.17       4.0     7.3 12.0  0.3067E+00  0.4340E+02 -0.4110E+01E
 Epicentro: LOS SANTOS - SANTANDER                                             3
 ACTION:UPD 15-09-10 22:15 OP:cam  STATUS:               ID:20150630074339dL   I
 OLDACT:REG 15-06-30 14:38 OP:ar   STATUS:               ID:20150630073749     3
 2015-06-30-0737-49M.COL___310                                                 6
 STAT SP IPHASW D HRMM SECON CODA AMPLIT PERI AZIMU VELO AIN AR TRES W  DIS CAZ7
 RUS  HZ EP        744  1.26                             144   -0.3710 97.3 176 
 RUS  HN ES        744 19.76                             144    0.0010 97.3 176 
 RUS  HZ I         744 21.38        12.3 0.22            147           97.3 176 
 OCA  HN ES        744 29.54                             128    0.61 9  163 353 
 OCA  HZ I         744 31.04        12.7 0.44            132            163 353 
 ZAR  HZ EP        744 11.23                             122    0.49 9  205 293 
 ZAR  HE ES        744 35.09                             122   -0.88 9  205 293 
 ZAR  HZ I         744 40.78         5.9 0.28            123            205 293 
 SML  HZ EP        744 14.81                             116   -0.35 8  247 336 
 SML  HN ES        744 43.75                             116   -0.09 8  247 336 
 SML  HZ I         744 47.51         7.6 0.10            119            247 336 
 HEL  HN ES   4    744 51.13                             114    1.65 0  271 256 
 HEL  HZ I         744 56.40         3.9 0.30            116            271 256 
 GUY2CHZ EP        744 21.02                             112   -0.59 7  299 235 
 GUY2CHN ES        744 56.32                             112    0.99 7  299 235 
 GUY2CHZ I         745  9.58         3.6 0.56                           299 235 
 CBOC HZ EP        744 25.60                             109    0.57 7  332 253 
 CBOC HN ES        745  1.33                             109   -0.07 7  332 253 
 CBOC HZ I         745 12.51         1.2 0.46            111            332 253 
                                                                                
