 2017  930 0126 53.1 L   6.795 -73.131147.5  RSN 17 0.4 2.2LRSN                1
 GAP=113        0.78       2.6     2.7  4.2  0.8988E+00  0.3802E+01  0.4272E+01E
 Epicentro: LOS SANTOS - SANTANDER                                             3
 ACTION:UPD 17-10-05 19:17 OP:rebc STATUS:               ID:20170930012653 L   I
 OLDACT:UP  17-09-30 14:32 OP:edw  STATUS:               ID:20170930011745     3
 OLDACT:UP  17-09-30 14:32 OP:edw  STATUS:               ID:20170930011745     3
 OLDACT:REG 17-09-30 12:11 OP:edw  STATUS:               ID:20170930011745     3
 2017-09-30-0118-00M.COL___450                                                 6
 STAT SP IPHASW D HRMM SECON CODA AMPLIT PERI AZIMU VELO AIN AR TRES W  DIS CAZ7
 BAR2 EZ EP        127 12.71                             171   -0.1710 23.1 194 
 BAR2 EZ ES        127 28.46                             171    0.1110 23.1 194 
 BAR2 EZ I         127 29.26        62.7 0.16            167           23.1 194 
 BRR  HZ EP        127 14.52                             152    0.0410 72.9 298 
 BRR  HN ES        127 31.52                             152    0.3210 72.9 298 
 BRR  HZ I         127 35.47        41.7 0.40            148           72.9 298 
 PAM  EZ EP        127 15.66                             151    0.2410 76.8  38 
 PAM  EN ES        127 32.72                             151   -0.1410 76.8  38 
 PAM  EZ I         127 34.76        40.0 0.60            155           76.8  38 
 RUS  HZ EP        127 16.62                             144   -0.3010 99.9 177 
 RUS  HN ES        127 35.48                             144   -0.0610 99.9 177 
 RUS  HZ I         127 36.77         9.8 0.26            144           99.9 177 
 YPLC HZ IP     C  127 23.10                             127    0.26 9  176 152 
 YPLC HE ES        127 46.14                             127    0.06 9  176 152 
 YPLC HZ I         127 49.99         6.9 0.38            129            176 152 
 ZAR  HZ EP        127 25.79                             122    0.00 8  206 292 
 ZAR  HN ES        127 50.67                             122   -0.65 8  206 292 
 ZAR  HZ I         127 57.40        18.5 0.36            121            206 292 
 CHI  HZ EP        127 30.99                             117    0.16 8  248 196 
 CHI  HN ES        128  0.48                             117    0.18 8  248 196 
 CHI  HZ I         128  3.71        11.7 0.56            117            248 196 
 ROSC BZ EP   4    127 32.86                             117    1.56 0  253 211 
 ROSC BN ES   4    127 59.45                             117   -1.69 0  253 211 
 ROSC BZ I         128  8.89        17.3 0.35            116            253 211 
 HEL  HZ EP   4    127 38.43                             115    4.92 0  274 256 
 HEL  HN ES   4    128  7.37                             115    2.30 0  274 256 
 HEL  HZ I         128 12.96         7.0 0.30            114            274 256 
 URE  HE ES   4    128  3.18                             114   -3.47 0  286 292 
 GUY2CHZ EP        127 37.68                             113    0.83 7  302 235 
 GUY2CHN ES        128 10.48                             113   -0.54 7  302 235 
 GUY2CHZ I         128 20.08         7.0 0.34                           302 235 
 PTGC HZ EP        127 35.91                             112   -0.94 7  308 159 
 PTGC HN ES   4    128  9.46                             112   -1.56 0  308 159 
 PTGC HZ I         128 11.94        12.2 0.40            113            308 159 
 ELA  HZ EP   2    127 39.71                             111   -0.36 3  330 230 
 ELA  HN ES        128 16.76                             111    0.01 7  330 230 
 ELA  HZ I         128 25.38         8.3 0.60            110            330 230 
 CBOC HZ EP   4    127 33.39                             110   -6.80 0  335 252 
 CBOC HN ES        128 17.39                             110    0.42 7  335 252 
 CBOC HZ I         128 29.35         2.5 0.70            109            335 252 
 PRA  HZ EP        127 47.12                             107    0.45 6  392 210 
 PRA  HN ES        128 27.96                             107   -0.52 6  392 210 
 PRA  HZ I         128 34.64         9.2 0.28            107            392 210 
 ORTC HZ EP        127 47.32                             107    0.23 6  396 216 
 ORTC HN ES        128 29.45                             107    0.22 6  396 216 
 ORTC HZ I         128 34.21         6.1 0.54            106            396 216 
 SJC  HZ EP   4    127 46.75                             106   -2.08 0  411 327 
 SJC  HN ES   4    128 28.04                             106   -4.30 0  411 327 
 SJC  HZ I         128 42.77         2.6 0.52            106            411 327 
 CRJC HZ EP   9    127 52.99                             104   -2.67 0  468   3 
 CRJC HN ES        128 41.73                             104   -0.09 5  468   3 
                                                                                
