 2017  930 0539 58.1 L   6.846 -73.155153.8  RSN 11 0.4 1.8LRSN                1
 GAP=185        0.98       4.1     6.1  5.5  0.1286E+02  0.7257E+01  0.3342E+01E
 Epicentro: LOS SANTOS - SANTANDER                                             3
 ACTION:UPD 17-10-05 19:17 OP:rebc STATUS:               ID:20170930053958 L   I
 OLDACT:UP  17-09-30 17:21 OP:edw  STATUS:               ID:20170930053740     3
 OLDACT:UP  17-09-30 17:21 OP:edw  STATUS:               ID:20170930053740     3
 OLDACT:UP  17-09-30 17:19 OP:edw  STATUS:               ID:20170930053740     3
 OLDACT:REG 17-09-30 12:48 OP:edw  STATUS:               ID:20170930053740     3
 2017-09-30-0538-00M.COL___407                                                 6
 STAT SP IPHASW D HRMM SECON CODA AMPLIT PERI AZIMU VELO AIN AR TRES W  DIS CAZ7
 BAR2 EZ EP        540 18.75                             169   -0.0210 28.3 186 
 BAR2 EZ ES        540 34.37                             169   -0.5410 28.3 186 
 BAR2 EZ I         540 36.49        15.7 0.28            166           28.3 186 
 BRR  HZ EP        540 19.74                             155   -0.1910 68.0 295 
 BRR  HN ES        540 37.69                             155    0.7210 68.0 295 
 BRR  HZ I         540 38.67         9.5 0.36            152           68.0 295 
 RUS  HZ EP        540 22.99                             144    0.0010  106 176 
 RUS  HN ES        540 42.48                             144    0.0710  106 176 
 RUS  HZ I         540 42.74         8.2 0.28            143            106 176 
 YPLC HZ IP     D  540 29.10                             127    0.16 9  182 152 
 YPLC HN ES   4    540 54.96                             127    1.94 0  182 152 
 YPLC HZ I         540 55.96         3.0 0.36            128            182 152 
 ZAR  HZ EP        540 31.26                             124    0.49 9  201 291 
 ZAR  HN ES        540 56.12                             124   -0.15 9  201 291 
 ZAR  HZ I         541  2.05         7.3 0.40            123            201 291 
 CHI  HZ EP        540 37.53                             118    0.80 8  253 195 
 CHI  HN ES        541  6.30                             118   -0.58 8  253 195 
 CHI  HZ I         541  9.65         3.6 0.64            118            253 195 
 HEL  HN ES   2    541 10.58                             116    0.12 4  272 255 
 GUY2CHZ EP        540 41.89                             114   -0.42 7  303 234 
 GUY2CHN ES   4    541 15.28                             114   -1.53 0  303 234 
 GUY2CHZ I         541 25.07         2.3 0.52                           303 234 
 PTGC HZ EP   4    540 41.88                             113   -1.00 0  314 159 
 PTGC HE ES   4    541 15.80                             113   -2.02 0  314 159 
 CBOC HZ EP   4    540 47.00                             111    1.59 0  334 251 
 CBOC HN ES   4    541 20.30                             111   -2.03 0  334 251 
 CBOC HZ I         541 28.19         1.6 0.24            110            334 251 
 PRA  HZ EP        540 52.90                             108    0.56 6  396 209 
 PRA  HN ES        541 34.31                             108   -0.36 6  396 209 
 PRA  HZ I         541 40.91         3.7 0.34            107            396 209 
 SJC  HZ EP        540 52.83                             107   -0.52 6  404 327 
 SJC  HN ES        541 35.69                             107   -0.77 6  404 327 
 SJC  HZ I         541 41.73         1.4 0.64            107            404 327 
                                                                                
