 2014  930 0839 29.1 L   6.816 -73.139142.0  RSN 21 0.5 2.8LRSN                1
 GAP= 71        0.99       2.6     2.8  4.7 -0.2243E+00  0.3705E+01  0.2093E+01E
 Epicentro: LOS SANTOS - SANTANDER                                             3
 ACTION:UPD 14-10-03 23:10 OP:nd   STATUS:               ID:20140930083929 L   I
 OLDACT:UP  14-09-30 19:26 OP:mh   STATUS:               ID:20140930083805     3
 OLDACT:REG 14-09-30 12:53 OP:stll STATUS:               ID:20140930083805     3
 2014-09-30-0838-05M.COL___286                                                 6
 STAT SP IPHASW D HRMM SECON CODA AMPLIT PERI AZIMU VELO AIN AR TRES W  DIS CAZ7
 BAR2 SZ EP        839 48.39                             169    0.1210 25.3 191 
 BAR2 SZ ES        840  2.53                             169   -0.7410 25.3 191 
 BAR2 SZ I         840  4.35       141.4 0.07            169           25.3 191 
 BRR  HZ EP     C  839 50.23                             152    0.4410 71.0 297 
 BRR  HN ES        840  6.57                             152    0.6110 71.0 297 
 BRR  HZ I         840  9.98       118.4 0.44            155           71.0 297 
 PAM  SZ EP     D  839 51.32                             151    0.5710 75.5  40 
 PAM  SN ES        840  8.08                             151    0.4010 75.5  40 
 PAM  SZ I         840  9.97       135.6 0.46            149           75.5  40 
 RUS  HZ EP     C  839 52.42                             142   -0.1510  102 177 
 RUS  HN ES        840 10.92                             142    0.0110  102 177 
 RUS  HZ I         840 12.37       120.8 0.36            142            102 177 
 PTB  HZ EP     D  839 54.92                             131   -0.90 9  149 258 
 PTB  HN ES        840 16.64                             131   -0.06 9  149 258 
 PTB  HZ I         840 21.39       102.7 0.28            132            149 258 
 TAM  HZ IP     C  839 56.79                             130    0.38 9  155 106 
 TAM  HN ES        840 17.62                             130   -0.13 9  155 106 
 TAM  HZ I         840 44.69        24.2 0.56            128            155 106 
 OCA  HZ EP   1    839 56.67                             129   -0.24 7  159 353 
 OCA  HN ES        840 17.96                             129   -0.68 9  159 353 
 OCA  HZ I         840 28.29        45.3 0.18            129            159 353 
 SPBC HZ IP     D  839 57.36                             128   -0.09 9  165 219 
 SPBC HN ES   1    840 19.47                             128   -0.13 7  165 219 
 SPBC HZ I         840 21.82       107.9 0.22            128            165 219 
 ZAR  HZ EP   1    840  1.29                             121    0.03 6  204 292 
 ZAR  HN ES        840 26.68                             121    0.30 9  204 292 
 ZAR  HZ I         840 32.56        82.9 0.28            122            204 292 
 SML  HZ EP        840  4.72                             117   -0.61 8  242 335 
 SML  HN ES   1    840 33.63                             117    0.01 6  242 335 
 SML  HZ I         840 39.34        85.0 0.20            117            242 335 
 CHI  HZ EP     C  840  6.86                             116    0.10 8  251 195 
 CHI  HN ES        840 35.58                             116   -0.59 8  251 195 
 CHI  HZ I         840 41.61        23.1 0.24            116            251 195 
 ROSC BZ EP   4 C  840  8.61                             116    1.43 0  255 211 
 ROSC BN ES   4    840 37.67                             116    0.74 0  255 211 
 ROSC BZ I         840 42.04        45.2 0.35            116            255 211 
 URE  HZ EP   4    840  8.76                             113   -1.19 0  284 292 
 URE  HN ES   4    840 39.73                             113   -2.12 0  284 292 
 GUY2CHZ EP   1    840 12.69                             111    0.01 5  303 235 
 GUY2CHN ES   4    840 47.65                             111    0.94 0  303 235 
 GUY2CHZ I         840 59.72        25.4 0.66                           303 235 
 VIL  SZ EP   4    840 12.26                             111   -0.26 0  305 192 
 VIL  SN ES   4    840 46.42                             111   -0.00 0  305 192 
 CBOC HZ EP   1    840 16.28                             109    0.32 5  335 252 
 CBOC HN ES        840 52.62                             109    0.07 7  335 252 
 CBOC HZ I         841  9.11        15.0 0.62            109            335 252 
 DBB  SZ EP   1    840 16.26                             109   -0.19 5  340 274 
 TOL  SZ EP   1    840 17.62                             108    0.25 5  345 225 
 TOL  SN ES   4    840 56.53                             108    1.47 0  345 225 
 MON  HZ EP   4    840 15.99                             108   -1.86 0  353 308 
 MON  HN ES   4    840 52.83                             108   -3.08 0  353 308 
 MON  HZ I         840 55.10        10.9 0.18            108            353 308 
 ANIL HZ EP   4    840 19.56                             108    0.63 0  359 224 
 ANIL HN ES   4    840 57.93                             108    0.10 0  359 224 
 PRA  HZ EP   1    840 22.31                             106   -0.36 4  394 210 
 PRA  HN ES   1    841  4.38                             106   -0.12 4  394 210 
 PRA  HZ I         841 11.23        31.9 0.26            106            394 210 
 ORTC HZ EP   1    840 23.00                             106   -0.07 4  397 216 
 ORTC HN ES        841  6.66                             106    1.45 6  397 216 
 ORTC HZ I         841 13.23        23.5 0.50            106            397 216 
 PAL  HZ EP     C  840 24.55                             105    0.27 6  407 239 
 PAL  HN ES        841  7.45                             105    0.10 6  407 239 
 SJC  HZ EP   4 C  840 22.42                             105   -1.94 0  408 327 
 SJC  HN ES   4    841  4.18                             105   -3.33 0  408 327 
 SJC  HZ I         841  8.22        13.6 0.34            105            408 327 
                                                                                
