 2012  430 0828 10.5 L   6.776 -73.149150.1  RSN  7 0.4 1.8LRSN                1
 GAP=137        0.90       4.8     5.3  7.7 -0.5229E-01  0.8170E+01 -0.5070E+01E
 Epicentro: LOS SANTOS - SANTANDER                                             3
 ACTION:UPD 12-07-05 11:56 OP:tino STATUS:               ID:20120430082810 L   I
 2012-04-30-0820-00M.COL___189                                                 6
 STAT SP IPHASW D HRMM SECON CODA AMPLIT PERI AZIMU VELO AIN AR TRES W  DIS CAZ7
 BAR2 SZ EP   1    828 30.59                             172     0.0 7   21 190 
 BAR2 SZ I         828 30.74        11.6 0.14                            21 190 
 BAR2 SZ ES   1    828 45.86                             172    -0.4 7   21 190 
 BRR  HZ EP   1    828 32.73                             153     0.6 7   72 301 
 BRR  HZ I         828 34.83        16.2 0.14                            72 301 
 BRR  HN ES   1    828 49.36                             153     0.3 7   72 301 
 PAM  SZ EP   1    828 33.55                             151     0.3 7   80  38 
 PAM  SE ES   1    828 50.84                             151    -0.3 7   80  38 
 RUS  HZ EP   1    828 34.63                             145     0.2 7   98 176 
 RUS  HN ES   1    828 53.56                             145     0.4 7   98 176 
 RUS  HZ I         828 57.03         3.1 0.51                            98 176 
 PTB  HZ EP   1    828 37.06                             133    -0.7 7  147 260 
 PTB  HN ES   1    828 58.47                             133    -0.5 7  147 260 
 PTB  HZ I         829  5.91         7.4 0.37                           147 260 
 OCA  SZ EP   1    828 39.23                             130    -0.1 7  163 353 
 OCA  SZ ES   1    829  1.78                             130    -0.1 7  163 353 
 ZAR  HZ EP   1    828 42.96                             123    -0.3 6  205 293 
 ZAR  HN ES   1    829  9.62                             123     0.7 6  205 293 
 ZAR  HZ I         829 14.59        11.1 0.42                           205 293 
                                                                                
