 2011  830 0457 22.3 L   6.795 -73.065140.9  RSN  4 0.1 1.6LRSN                1
 GAP=205        0.32       5.0     8.9  4.5  0.3717E+02 -0.2002E+02 -0.1019E+02E
 Epicentro: LOS SANTOS - SANTANDER                                             3
 ACTION:UPD 12-07-13 15:54 OP:ep   STATUS:               ID:20110830045722 L   I
 2011-08-30-0456-27S.COL___156                                                 6
 STAT SP IPHASW D HRMM SECON CODA AMPLIT PERI AZIMU VELO AIN AR TRES W  DIS CAZ7
 BAR2 SZ EP   1    457 41.45                             169    0.07 7 25.9 210 
 BAR2 SZ ES   1    457 56.17                             169   -0.11 7 25.9 210 
 BAR2 SZ I         457 59.34        11.9 0.17                          25.9 210 
 GIR2 SZ EP   2    457 41.59                             166    0.13 5 34.4 336 
 BRR  HZ EP   1    457 43.39                             149   -0.01 7 79.4 296 
 BRR  HN ES   1    457 59.88                             149    0.01 7 79.4 296 
 BRR  HZ I         458  4.36         7.9 0.11                          79.4 296 
 RUS  HZ EP   1    457 45.36                             143   -0.14 7 99.8 181 
 RUS  HN ES   1    458  3.72                             143    0.11 7 99.8 181 
 RUS  HZ I         458  5.43         4.4 0.44                          99.8 181 
                                                                                
