 2012 1230 0711  4.7 L   6.795 -73.142146.6  RSN 10 0.4 2.1LRSN                1
 GAP=183        0.82       3.3     4.8  6.1  0.1221E+01  0.6238E+01  0.2462E+01E
 Epicentro: LOS SANTOS - SANTANDER                                             3
 ACTION:UPD 13-01-04 14:31 OP:ep   STATUS:               ID:20121230071104 L   I
 2012-12-30-0710-00M.COL___242                                                 6
 STAT SP IPHASW D HRMM SECON CODA AMPLIT PERI AZIMU VELO AIN AR TRES W  DIS CAZ7
 BAR2 SZ IP        711 24.36                             171   -0.1010 22.8 191 
 BAR2 SZ ES   1    711 39.81                             171   -0.03 7 22.8 191 
 BAR2 SZ I         711 41.13        40.1 0.38                          22.8 191 
 BRR  HZ IP     C  711 26.25                             152    0.2410 71.8 299 
 BRR  HE ES   1    711 43.30                             152    0.70 7 71.8 299 
 RUS  HZ EP   1    711 28.31                             144   -0.22 7  100 176 
 RUS  HN ES   1    711 46.53                             144   -0.56 7  100 176 
 RUS  HZ I         711 48.16         8.2 0.16                           100 176 
 PTB  HZ EP   1    711 31.05                             132   -0.75 7  148 259 
 PTB  HN ES   1    711 52.29                             132   -0.61 7  148 259 
 PTB  HZ I         711 59.69        30.8 0.28                           148 259 
 OCA  HZ EP   1    711 32.83                             130   -0.34 7  161 353 
 OCA  HN ES   1    711 55.72                             130    0.37 7  161 353 
 OCA  HZ I         711 59.28        18.7 0.32                           161 353 
 ZAR  HZ EP   1    711 37.07                             122   -0.22 6  205 292 
 ZAR  HE ES   1    712  2.60                             122   -0.09 6  205 292 
 ZAR  HZ I         712  9.66        14.0 0.24                           205 292 
 CHI  HZ EP   1    711 42.37                             117   -0.06 6  248 195 
 CHI  HN ES   1    712 12.19                             117    0.35 6  248 195 
 CHI  HZ I         712 16.97         4.1 0.58                           248 195 
 ROSC BZ EP   1    711 43.69                             117    0.82 6  252 211 
 ROSC BN ES   1    712 13.46                             117    0.85 6  252 211 
 ROSC BZ I         712 22.18        11.0 0.45                           252 211 
 HEL  HZ EP   1    711 45.33                             115    0.31 6  272 256 
 HEL  HE ES   1    712 16.08                             115   -0.35 6  272 256 
 HEL  HZ I         712 22.69         9.7 0.32                           272 256 
 URE  HZ EP   4    711 44.02                             114   -1.89 0  284 292 
 URE  HN ES   4    712 16.63                             114   -1.39 0  284 292 
 MON  HZ EP   4    711 51.72                             109   -2.12 0  354 308 
 MON  HN ES   4    712 30.84                             109   -1.31 0  354 308 
 ANIL HZ EP   2    711 54.76                             109    0.20 3  357 225 
 ANIL HN ES   2    712 33.56                             109    0.14 3  357 225 
 ANIL HZ I         712 44.15         3.7 0.30                           357 225 
                                                                                
