 2014  930 0932 34.9 L   6.798 -73.125150.2  RSN 11 0.4 1.7LRSN                1
 GAP=203        0.90       3.4     5.7  6.7 -0.8759E+00  0.1721E+01  0.5080E+01E
 Epicentro: LOS SANTOS - SANTANDER                                             3
 ACTION:UPD 14-10-03 23:10 OP:nd   STATUS:               ID:20140930093234 L   I
 OLDACT:REG 14-09-30 13:05 OP:stll STATUS:               ID:20140930092818     3
 2014-09-30-0928-18M.COL___286                                                 6
 STAT SP IPHASW D HRMM SECON CODA AMPLIT PERI AZIMU VELO AIN AR TRES W  DIS CAZ7
 BAR2 SZ EP        932 55.34                             171    0.2910 23.6 195 
 BAR2 SZ ES   1    933 10.36                             171   -0.42 7 23.6 195 
 BAR2 SZ I         933 11.90        13.6 0.16            166           23.6 195 
 BRR  HZ EP        932 57.19                             153    0.5610 73.3 298 
 BRR  HN ES        933 14.19                             153    0.6010 73.3 298 
 BRR  HZ I         933 17.83         8.1 0.48            150           73.3 298 
 PTB  HZ EP        933  2.31                             133   -0.10 9  150 259 
 PTB  HE ES        933 23.37                             133   -0.51 9  150 259 
 PTB  HZ I         933 28.68         6.5 0.62            130            150 259 
 OCA  HN ES        933 25.44                             131   -0.54 9  161 352 
 OCA  HZ I         933 28.66         5.0 0.34            132            161 352 
 ZAR  HZ EP   1    933  7.92                             123    0.08 6  206 292 
 ZAR  HE ES        933 33.61                             123    0.06 8  206 292 
 ZAR  HZ I         933 39.91         6.6 0.24            122            206 292 
 SML  HZ EP   1    933 11.24                             118   -0.64 6  245 335 
 SML  HE ES   1    933 40.74                             118   -0.00 6  245 335 
 SML  HZ I         933 43.13         6.5 0.10            119            245 335 
 CHI  HZ EP   1    933 12.78                             118   -0.09 6  249 196 
 CHI  HN ES   1    933 41.92                             118   -0.58 6  249 196 
 CHI  HZ I         933 49.97         2.1 0.52            118            249 196 
 GUY2CHZ EP   4    933 21.31                             113    2.42 0  303 235 
 GUY2CHN ES   4    933 55.50                             113    2.29 0  303 235 
 GUY2CHZ I         934  1.94         2.2 0.24                           303 235 
 TOL  SN ES   1    934  1.73                             110    0.34 5  345 225 
 TOL  SZ I         934  9.22         2.9 0.20            110            345 225 
 MON  HN ES   4    934  1.30                             109   -1.51 0  356 308 
 MON  HZ I         934  3.46         1.0 0.18            110            356 308 
 PRA  HZ EP   1    933 29.27                             107    0.60 4  393 210 
 PRA  HN ES   1    934 10.30                             107   -0.31 4  393 210 
 PRA  HZ I         934 16.45         1.8 0.56            107            393 210 
 SJC  HZ EP   4    933 29.60                             106   -1.16 0  411 327 
                                                                                
