 2013  430 0527  0.2 L   6.741 -73.230154.2  RSN  4 0.2 1.3LRSN                1
 GAP=192        0.52       3.5     5.6  5.4  0.8778E+01 -0.6868E+01 -0.5557E+01E
 Epicentro: VILLANUEVA - SANTANDER                                             3
 ACTION:UPD 13-05-22 14:41 OP:EP   STATUS:               ID:20130430052700 L   I
 2013-04-30-0520-00M.COL___253                                                 6
 STAT SP IPHASW D HRMM SECON CODA AMPLIT PERI AZIMU VELO AIN AR TRES W  DIS CAZ7
 BRR  HZ IP     C  527 21.81                             155   -0.2010 66.9 307 
 BRR  HN ES        527 38.84                             155   -0.2010 66.9 307 
 BRR  HZ I         527 40.49         3.6 0.40            152           66.9 307 
 RUS  HZ EP   1    527 24.54                             147    0.15 7 95.2 170 
 RUS  HN ES   1    527 43.47                             147    0.18 7 95.2 170 
 RUS  HZ I         527 43.84         2.9 0.24            151           95.2 170 
 PTB  HZ EP   1    527 26.82                             136   -0.12 7  137 261 
 PTB  HN ES   1    527 48.07                             136    0.24 7  137 261 
 PTB  HZ I         527 49.65         2.2 0.12            137            137 261 
 SML  HZ EP   1    527 37.43                             119   -0.09 6  246 338 
 SML  HN ES   1    528  7.17                             119    0.51 6  246 338 
 SML  HZ I         528 17.32         2.0 0.10            117            246 338 
                                                                                
