 2011  930 0941 28.9 L   6.756 -73.124139.6  RSN  5 0.1 1.5LRSN                1
 GAP=141        0.29       2.0     3.4  2.8  0.1623E+01 -0.2313E+01 -0.5614E+00E
 Epicentro: LOS SANTOS - SANTANDER                                             3
 ACTION:UPD 12-07-13 16:01 OP:ep   STATUS:               ID:20110930094128 L   I
 2011-09-30-0938-02S.COL___168                                                 6
 STAT SP IPHASW D HRMM SECON CODA AMPLIT PERI AZIMU VELO AIN AR TRES W  DIS CAZ7
 BAR2 SZ EP   1    941 47.53                             172   -0.16 7 19.2 200 
 BAR2 SZ ES   1    942  2.41                             172    0.06 7 19.2 200 
 BAR2 SZ I         942  4.13         9.4 0.30                          19.2 200 
 BRR  HZ EP        941 49.63                             150    0.0010 75.7 301 
 BRR  HN ES   1    942  5.82                             150    0.00 7 75.7 301 
 PAM  SZ EP        941 50.63                             149    0.0410 79.8  36 
 RUS  HZ EP   1    941 51.67                             144    0.01 7 95.6 177 
 RUS  HN ES   1    942  9.41                             144   -0.02 7 95.6 177 
 RUS  HZ I         942 11.54         4.7 0.20                          95.6 177 
 CHI  HZ EP   1    942  5.87                             116    0.07 6  245 196 
 CHI  HZ I         942 38.89         2.5 0.36                           245 196 
                                                                                
