 2014  130 0354 15.9 L   6.823 -73.126147.1  RSN 11 0.6 1.6LRSN                1
 GAP=138        1.46       3.9     6.2  7.6 -0.6451E+01  0.1181E+02  0.9149E+00E
 Epicentro: LOS SANTOS - SANTANDER                                             3
 ACTION:UPD 14-03-13 09:59 OP:ep   STATUS:               ID:20140130035415 L   I
 OLDACT:REG 14-01-30 07:52 OP:stll STATUS:               ID:20140130034814     3
 2014-01-30-0348-14M.COL___230                                                 6
 STAT SP IPHASW D HRMM SECON CODA AMPLIT PERI AZIMU VELO AIN AR TRES W  DIS CAZ7
 BAR2 SZ EP        354 35.81                             169    0.0810 26.3 194 
 BAR2 SZ ES        354 50.83                             169   -0.3810 26.3 194 
 BAR2 SZ I         354 53.59        10.6 0.26            169           26.3 194 
 BRR  HZ EP        354 37.63                             153    0.4210 71.9 296 
 BRR  HE ES        354 54.29                             153    0.4410 71.9 296 
 BRR  HZ I         354 57.96         5.9 0.28            151           71.9 296 
 PAM  SZ EP        354 38.48                             152    0.4410 74.0  40 
 PAM  SN ES        354 56.02                             152    0.7010 74.0  40 
 PAM  SZ I         354 57.90         5.9 0.56            156           74.0  40 
 RUS  HZ EP        354 40.20                             143    0.2610  103 177 
 RUS  HN ES        354 58.31                             143   -0.3910  103 177 
 RUS  HZ I         354 59.74         2.5 0.24            146            103 177 
 PTB  HZ EP        354 42.75                             132   -0.45 9  150 258 
 PTB  HN ES        355  3.86                             132   -0.64 9  150 258 
 PTB  HZ I         355 11.22         7.6 0.44            132            150 258 
 OCA  HZ EP        354 43.87                             130   -0.21 9  158 352 
 OCA  HN ES        355  6.06                             130   -0.01 9  158 352 
 OCA  HZ I         355  9.99         4.4 0.20            132            158 352 
 SPBC HZ EP        354 44.68                             129   -0.12 9  167 219 
 SPBC HN ES        355  7.03                             129   -0.33 9  167 219 
 SPBC HZ I         355 11.82         5.5 0.40            130            167 219 
 NOR  HZ EP        354 51.90                             118   -0.14 8  238 234 
 NOR  HN ES        355 19.91                             118   -0.33 8  238 234 
 NOR  HZ I         355 24.03         3.3 0.18            120            238 234 
 SML  HZ EP        354 51.82                             118   -0.61 8  242 335 
 SML  HN ES        355 20.23                             118   -0.70 8  242 335 
 SML  HZ I         355 27.27         5.4 0.10            119            242 335 
 CHI  HZ EP        354 53.89                             117   -0.10 8  252 195 
 CHI  HN ES        355 23.15                             117   -0.56 8  252 195 
 CHI  HZ I         355 32.57         1.5 0.60            119            252 195 
 GUY2CHZ EP        355  0.32                             112    0.40 7  304 235 
 GUY2CHN ES        355 36.82                             112    2.55 7  304 235 
 GUY2CHZ I         355 41.53         1.8 0.54                           304 235 
                                                                                
