 2017  630 0906 43.6 L   6.806 -73.108151.4  RSN  5 0.4 1.4LRSN                1
 GAP=263        0.61       4.6     5.1  6.7  0.3343E+01  0.9924E+01 -0.3706E+01E
 Epicentro: LOS SANTOS - SANTANDER                                             3
 ACTION:UPD 17-09-14 16:56 OP:jn   STATUS:               ID:20170630090643 L   I
 OLDACT:UP  17-06-30 17:21 OP:and  STATUS:               ID:20170630085742     3
 OLDACT:UP  17-06-30 17:21 OP:and  STATUS:               ID:20170630085742     3
 OLDACT:UP  17-06-30 17:21 OP:and  STATUS:               ID:20170630085742     3
 OLDACT:UP  17-06-30 17:21 OP:and  STATUS:               ID:20170630085742     3
 OLDACT:REG 17-06-30 13:44 OP:and  STATUS:               ID:20170630085742     3
 2017-06-30-0858-00M.COL___356                                                 6
 STAT SP IPHASW D HRMM SECON CODA AMPLIT PERI AZIMU VELO AIN AR TRES W  DIS CAZ7
 BAR2 EZ EP        9 7  3.92                             170   -0.0510 25.0 199 
 BAR2 EZ ES        9 7 19.57                             170   -0.2610 25.0 199 
 BAR2 EZ I         9 7 20.51        10.2 0.18            168           25.0 199 
 BRR  HZ EP        9 7  5.71                             152    0.1410 74.5 297 
 BRR  HN ES   2    9 7 23.49                             152    0.80 5 74.5 297 
 PTB  HZ EP   2    9 7 11.03                             132   -0.40 5  152 259 
 PTB  HN ES   3    9 7 31.92                             132   -1.20 2  152 259 
 PTB  HZ I         9 7 34.89         1.6 0.21            130            152 259 
 SPBC HZ EP   2    9 7 13.21                             129    0.36 5  166 220 
 SPBC HN ES        9 7 35.81                             129    0.16 9  166 220 
 SPBC HZ I         9 7 37.80         4.1 0.09            129            166 220 
 ZAR  HZ EP   4    9 7 19.59                             123    2.79 0  208 292 
 ZAR  HN ES        9 7 42.57                             123   -0.12 8  208 292 
 ZAR  HZ I         9 7 47.85         1.7 0.16            122            208 292 
                                                                                
