 2014  330 0134 39.8 L   6.804 -73.129146.8  RSN 18 0.5 2.7LRSN                1
 GAP= 72        1.11       3.0     3.1  5.2 -0.7873E+00  0.4193E+01  0.1309E+01E
 Epicentro: LOS SANTOS - SANTANDER                                             3
 ACTION:UPD 14-04-09 23:21 OP:nd   STATUS:               ID:20140330013439 L   I
 OLDACT:REG 14-03-30 07:46 OP:carl STATUS:               ID:20140330013045     3
 2014-03-30-0130-45M.COL___256                                                 6
 STAT SP IPHASW D HRMM SECON CODA AMPLIT PERI AZIMU VELO AIN AR TRES W  DIS CAZ7
 BAR2 SZ EP        134 59.66                             170    0.0710 24.1 194 
 BAR2 SZ ES        135 14.20                             170   -0.8010 24.1 194 
 BAR2 SZ I         135 17.52       132.5 0.36            170           24.1 194 
 BRR  HZ EP        135  1.54                             152    0.3810 72.6 298 
 BRR  HN ES        135 18.75                             152    0.9510 72.6 298 
 BRR  HZ I         135 23.32        65.9 0.16            150           72.6 298 
 PAM  SZ EP        135  2.39                             151    0.3410 75.9  39 
 PAM  SN ES        135 19.84                             151    0.4410 75.9  39 
 PAM  SZ I         135 22.03        77.4 0.64            149           75.9  39 
 RUS  HZ EP        135  3.57                             144   -0.1210  101 177 
 RUS  HN ES        135 22.27                             144   -0.0410  101 177 
 RUS  HZ I         135 23.32        39.3 0.28            142            101 177 
 PTB  HZ EP        135  6.48                             132   -0.56 9  150 259 
 PTB  HN ES        135 27.51                             132   -0.76 9  150 259 
 PTB  HZ I         135 30.48        67.0 0.18            129            150 259 
 TAM  HZ EP        135  7.85                             131    0.43 9  153 105 
 TAM  HZ I         135 28.63        31.2 0.30            129            153 105 
 TAM  HE ES        135 28.85                             131   -0.10 9  153 105 
 OCA  HZ EP   1    135  8.27                             130    0.08 7  160 352 
 OCA  HN ES   1    135 30.15                             130   -0.17 7  160 352 
 OCA  HZ I         135 34.49        81.9 0.30            127            160 352 
 SPBC HZ EP        135  8.54                             129    0.00 9  165 219 
 SPBC HN ES        135 30.75                             129   -0.19 9  165 219 
 SPBC HZ I         135 36.24       111.1 0.40            127            165 219 
 ZAR  HZ EP        135 12.10                             122   -0.39 8  206 292 
 ZAR  HE ES        135 37.87                             122   -0.10 8  206 292 
 ZAR  HZ I         135 43.92        52.9 0.36            120            206 292 
 NOR  HZ EP        135 15.44                             118   -0.35 8  236 235 
 NOR  HE ES        135 43.79                             118   -0.07 8  236 235 
 NOR  HZ I         135 47.26        55.2 0.28            116            236 235 
 SML  HZ EP        135 16.23                             117   -0.31 8  244 335 
 SML  HN ES   1    135 44.45                             117   -0.74 6  244 335 
 SML  HZ I         135 52.71        78.2 0.26            115            244 335 
 CHI  HZ EP        135 17.62                             117   -0.05 8  250 196 
 CHI  HN ES        135 46.56                             117   -0.63 8  250 196 
 CHI  HZ I         135 52.56        18.9 0.28            115            250 196 
 ROSC BZ EP   4    135 19.49                             117    1.35 0  254 211 
 ROSC BN ES   4    135 50.33                             117    2.30 0  254 211 
 HEL  HZ EP        135 20.73                             115    0.44 8  274 256 
 HEL  HN ES        135 52.73                             115    0.87 8  274 256 
 HEL  HZ I         136  0.18        29.5 0.38            113            274 256 
 URE  HZ EP   4    135 19.16                             114   -1.95 0  285 292 
 URE  HN ES   4    135 50.84                             114   -2.48 0  285 292 
 GUY2CHZ EP   1    135 24.00                             112    0.33 5  303 235 
 GUY2CHN ES   1    135 58.90                             112    1.02 5  303 235 
 GUY2CHZ I         136  6.45        41.7 0.78                           303 235 
 CBOC HZ EP   4    135 26.89                             110   -0.10 0  336 252 
 CBOC HE ES   4    136  1.03                             110   -2.76 0  336 252 
 CBOC HZ I         136 17.65        11.6 0.68            108            336 252 
 DBB  SZ EP        135 27.09                             109   -0.45 7  341 274 
 DBB  SZ ES   4    136  1.29                             109   -3.48 0  341 274 
 ANIL HZ EP   4    135 30.67                             108    0.82 0  359 225 
 ANIL HN ES   4    136  9.31                             108    0.44 0  359 225 
 ANIL HZ I         136 21.09        65.7 0.28            107            359 225 
 ORTC HZ EP        135 34.33                             106    0.39 6  397 216 
 ORTC HN ES        136 17.06                             106    0.90 6  397 216 
 ORTC HZ I         136 23.40        16.9 0.38            105            397 216 
                                                                                
