 2016 1030 0326  4.9 L   6.549 -73.539114.0  RSN 11 0.5 1.9LRSN                1
 GAP= 73        1.03       3.8     4.1  6.8 -0.6294E+01  0.4713E+01  0.8220E+01E
 Epicentro: EL CARMEN - SANTANDER                                              3
 ACTION:UPD 16-11-09 19:24 OP:rebc STATUS:               ID:20161030032604 L   I
 OLDACT:REG 16-10-30 14:09 OP:cog  STATUS:               ID:20161030031745     3
 2016-10-30-0318-00M.COL___316                                                 6
 STAT SP IPHASW D HRMM SECON CODA AMPLIT PERI AZIMU VELO AIN AR TRES W  DIS CAZ7
 BAR2 HZ IP     C  326 21.40                             160    0.1410 39.8  83 
 BAR2 HZ ES        326 34.05                             160    0.0110 39.8  83 
 BRR  HZ EP        326 22.27                             149    0.0310 64.6 343 
 BRR  HE ES        326 36.36                             149    0.5610 64.6 343 
 BRR  HZ I         326 39.03        13.2 0.12            151           64.6 343 
 RUS  HZ IP     C  326 24.46                             140   -0.1910 88.4 145 
 PTB  HZ IP     C  326 24.27                             136   -0.7910  101 269 
 PTB  HE ES   4    326 39.38                             136   -1.44 0  101 269 
 PTB  HZ ES   3    326 39.86                             136   -0.96 2  101 269 
 PTB  HZ I         326 40.53        24.4 0.14            136            101 269 
 PTB  HE I         326 41.19        27.2 0.03                           101 269 
 SPBC HZ EP        326 26.42                             132    0.0110  115 211 
 SPBC HE ES        326 43.45                             132    0.2410  115 211 
 SPBC HZ I         326 45.10        20.8 0.24            132            115 211 
 PAM  EZ EP        326 28.15                             129    0.0710  127  47 
 PAM  EN ES        326 45.99                             129   -0.1910  127  47 
 PAM  EZ I         326 47.30        16.0 0.28            132            127  47 
 NOR  HZ EP        326 32.90                             118   -0.33 9  183 234 
 NOR  HN ES        326 54.63                             118   -0.72 9  183 234 
 NOR  HZ I         326 59.71         8.6 0.14            118            183 234 
 CHI  HZ EP        326 36.59                             114   -0.42 8  213 186 
 CHI  HE ES        327  2.68                             114    0.59 8  213 186 
 CHI  HZ I         327  7.52         4.5 0.48            114            213 186 
 GUY2CHZ EP   4    326 42.54                             110    1.33 0  250 234 
 GUY2CHN ES   4    327 13.55                             110    3.98 0  250 234 
 GUY2CHZ I         327 14.08         6.0 0.26                           250 234 
 CBOC HZ EP   2    326 45.91                             107    1.10 4  284 255 
 CBOC HN ES        327 16.82                             107    0.85 7  284 255 
 CBOC HZ I         327 20.89         2.4 0.20            108            284 255 
 PRA  HZ EP        326 52.70                             103    0.58 6  347 206 
 PRA  HE ES   3    327 29.48                             103    0.49 2  347 206 
 PRA  HZ I         327 32.99         5.2 0.26            104            347 206 
                                                                                
