 2012  430 0322 28.4 L   6.800 -73.121144.1  RSN 10 0.4 2.2LRSN                1
 GAP=140        0.93       3.6     4.9  6.6 -0.1527E+01  0.8594E+01  0.2253E+01E
 Epicentro: LOS SANTOS - SANTANDER                                             3
 ACTION:UPD 12-07-05 11:56 OP:tino STATUS:               ID:20120430032228 L   I
 2012-04-30-0320-00M.COL___189                                                 6
 STAT SP IPHASW D HRMM SECON CODA AMPLIT PERI AZIMU VELO AIN AR TRES W  DIS CAZ7
 BAR2 SZ EP        322 47.72                             170    -0.210   24 196 
 BAR2 SZ ES   1    323  2.73                             170    -0.3 7   24 196 
 BAR2 SZ I         323  4.21        63.0 0.23                            24 196 
 BRR  HZ EP        322 49.55                             151     0.010   74 298 
 BRR  HN ES   1    323  6.74                             151     0.7 7   74 298 
 BRR  HZ I         323  9.77        45.9 0.15                            74 298 
 PAM  SZ EP        322 50.60                             151     0.210   76  38 
 PAM  SN ES   1    323  7.50                             151     0.0 7   76  38 
 RUS  HZ EP   1    322 51.61                             144    -0.4 7  100 178 
 RUS  HN ES   1    323 10.82                             144     0.4 7  100 178 
 RUS  HZ I         323 11.40        15.3 0.25                           100 178 
 PTB  HZ EP   2    322 54.75                             131    -0.8 5  150 259 
 PTB  HN ES   2    323 15.69                             131    -0.9 5  150 259 
 PTB  HZ I         323 21.31        13.8 0.21                           150 259 
 OCA  SZ EP        322 56.37                             129    -0.3 9  161 352 
 OCA  SZ ES   1    323 18.50                             129    -0.2 7  161 352 
 ZAR  HZ EP   1    323  1.58                             122     0.5 6  207 292 
 ZAR  HN ES   1    323 25.80                             122    -0.7 6  207 292 
 ZAR  HZ I         323 32.39        42.7 0.25                           207 292 
 CHI  HZ EP   1    323  6.07                             117     0.0 6  249 196 
 CHI  HN ES   1    323 35.33                             117    -0.2 6  249 196 
 CHI  HZ I         323 38.81         7.2 0.55                           249 196 
 HEL  HZ EP   1    323  9.68                             114     0.8 6  275 256 
 HEL  HN ES   1    323 41.03                             114     0.7 6  275 256 
 HEL  HZ I         323 46.06         8.0 0.48                           275 256 
 PRA  HZ EP   1    323 22.08                             106     0.0 4  393 210 
 PRA  HE ES   1    324  3.61                             106    -0.3 4  393 210 
                                                                                
