 2013  630 0955 32.9 L   6.751 -73.206143.5  RSN  4 0.2 1.0LRSN                1
 GAP=226        0.53       5.7     5.6  5.9  0.1715E+02  0.6883E+01  0.3767E+01E
 Epicentro: VILLANUEVA - SANTANDER                                             3
 ACTION:UPD 14-01-08 09:58 OP:ep   STATUS:               ID:20130630095532 L   I
 OLDACT:DUP 13-06-30 13:19 OP:jn   STATUS:               ID:20130630094960d    3
 OLDACT:REG 13-06-30 07:58 OP:jn   STATUS:               ID:20130630094959     3
 2013-06-30-0949-59M.COL___267                                                 6
 STAT SP IPHASW D HRMM SECON CODA AMPLIT PERI AZIMU VELO AIN AR TRES W  DIS CAZ7
 BAR2 SZ ES   1    956  6.84                             173   -0.33 7 17.8 171 
 BAR2 SZ I         956  7.74         2.7 0.32            171           17.8 171 
 BRR  HZ EP   1    955 53.62                             153   -0.01 7 68.3 305 
 BRR  HN ES   1    956 10.07                             153    0.26 7 68.3 305 
 BRR  HZ I         956 12.86         2.7 0.36            153           68.3 305 
 RUS  HZ EP   1    955 56.38                             145    0.30 7 95.9 172 
 RUS  HE ES   1    956 14.22                             145    0.05 7 95.9 172 
 RUS  HZ I         956 16.42         1.3 0.22            146           95.9 172 
 PTB  HZ EP   1    955 58.61                             133   -0.38 7  140 260 
 PTB  HN ES   1    956 19.43                             133    0.08 7  140 260 
 PTB  HZ I         956 22.35         1.4 0.16            133            140 260 
                                                                                
