 2011 1130 0328 33.4 L   6.756 -73.112139.5  RSN  4 0.2 1.6LRSN                1
 GAP=143        0.52       4.0     4.9  6.9 -0.1393E+01 -0.3299E+01  0.9212E+01E
 Epicentro: LOS SANTOS - SANTANDER                                             3
 ACTION:UPD 12-07-13 16:13 OP:ep   STATUS:               ID:20111130032833 L   I
 2011-11-30-0327-06S.COL___160                                                 6
 STAT SP IPHASW D HRMM SECON CODA AMPLIT PERI AZIMU VELO AIN AR TRES W  DIS CAZ7
 BAR2 SZ EP        328 51.83                             172   -0.3510 19.7 203 
 BAR2 SZ I         329  8.61         8.8 0.44                          19.7 203 
 BRR  HZ EP        328 54.12                             149   -0.0610 76.8 300 
 BRR  HE ES   1    329 10.58                             149    0.16 7 76.8 300 
 BRR  HZ I         329 13.60         8.5 0.38                          76.8 300 
 PAM  SZ EP        328 55.11                             149    0.0910 79.0  35 
 PAM  SE ES   1    329 11.91                             149   -0.01 7 79.0  35 
 RUS  HZ EP        328 56.39                             144    0.2510 95.5 178 
 RUS  HE ES   2    329 13.85                             144   -0.05 5 95.5 178 
                                                                                
