 2014  930 0325 40.7 L   6.777 -73.121145.0  RSN 21 0.6 2.4LRSN                1
 GAP= 55        1.45       3.5     3.8  6.3 -0.7368E+00  0.5633E+01  0.5333E+01E
 Epicentro: LOS SANTOS - SANTANDER                                             3
 ACTION:UPD 14-10-03 23:09 OP:nd   STATUS:               ID:20140930032540 L   I
 OLDACT:REG 14-09-30 12:17 OP:stll STATUS:               ID:20140930031818     3
 2014-09-30-0318-18M.COL___292                                                 6
 STAT SP IPHASW D HRMM SECON CODA AMPLIT PERI AZIMU VELO AIN AR TRES W  DIS CAZ7
 BAR2 SZ IP     D  326  0.63                             171    0.3910 21.5 198 
 BAR2 SZ ES        326 15.35                             171   -0.1010 21.5 198 
 BAR2 SZ I         326 16.87        29.5 0.18            171           21.5 198 
 BRR  HZ EP        326  2.63                             151    0.6110 74.8 299 
 BRR  HN ES        326 19.60                             151    1.0010 74.8 299 
 BRR  HZ I         326 22.14        40.4 0.16            137           74.8 299 
 PAM  SZ EP        326  3.49                             150    0.5910 77.7  37 
 PAM  SN ES        326 20.21                             150    0.0410 77.7  37 
 PAM  SZ I         326 21.85        32.1 0.16            138           77.7  37 
 RUS  HZ EP        326  4.36                             144    0.1410 97.9 178 
 RUS  HZ I         326  5.03        61.0 0.94            137           97.9 178 
 RUS  HE ES        326 21.98                             144   -0.5510 97.9 178 
 PTB  HZ EP        326  7.19                             131   -0.66 9  150 260 
 PTB  HN ES        326 28.39                             131   -0.59 9  150 260 
 PTB  HZ I         326 34.42        28.6 0.36            119            150 260 
 TAM  HZ EP        326  8.72                             131    0.66 9  152 104 
 TAM  HN ES        326 29.33                             131   -0.03 9  152 104 
 TAM  HZ I         326 29.52        24.4 0.40            120            152 104 
 SPBC HZ EP        326  9.38                             129    0.22 9  163 220 
 SPBC HN ES        326 31.61                             129    0.29 9  163 220 
 SPBC HZ I         326 37.81        46.9 0.24            118            163 220 
 OCA  HZ EP        326  9.01                             129   -0.26 9  163 352 
 OCA  HN ES        326 30.70                             129   -0.81 9  163 352 
 OCA  HZ I         326 37.16        23.5 0.48            115            163 352 
 ZAR  HZ EP        326 13.16                             122   -0.34 8  208 293 
 ZAR  HE ES        326 38.77                             122   -0.27 8  208 293 
 ZAR  HZ I         326 44.04        25.1 0.18            109            208 293 
 CHI  HZ EP        326 18.38                             117    0.17 8  247 196 
 CHI  HN ES        326 47.47                             117    0.04 8  247 196 
 CHI  HZ I         326 51.81         9.6 0.40            107            247 196 
 SML  HZ EP        326 17.04                             117   -0.66 8  247 335 
 SML  HE ES   4    326 45.26                             117   -1.27 0  247 335 
 SML  HZ I         326 50.24        29.0 0.10            105            247 335 
 SOCV BZ EP   9    326 23.06                             112   -0.60 0  300  56 
 SOCV BE ES        326 55.49                                   -1.04 7  300  56 
 GUY2CHZ EP        326 25.36                             112    0.96 7  302 235 
 GUY2CHE ES        326 58.78                             112    0.33 7  302 235 
 GUY2CHZ I         327  7.08        18.9 0.30                           302 235 
 PTGC HZ EP     C  326 23.40                             112   -0.78 7  305 159 
 PTGC HN ES        326 55.98                             112   -2.08 7  305 159 
 CBOC HZ EP        326 28.26                             109    0.43 7  335 253 
 CBOC HN ES        327  3.34                             109   -1.22 7  335 253 
 DBB  SZ EP        326 28.17                             109   -0.35 7  342 275 
 TOL  SZ EP        326 29.39                             109    0.41 7  344 225 
 TOL  SE ES        327  6.75                             109    0.15 7  344 225 
 ANIL HZ EP        326 31.77                             108    1.24 6  357 225 
 ANIL HN ES        327  9.21                             108   -0.15 6  357 225 
 ANIL HZ I         327 14.45         4.0 0.30             99            357 225 
 MON  HZ EP   9    326 27.80                             108   -2.35 0  357 308 
 MON  HN ES        327  4.79                                   -1.54 6  357 308 
 MON  HZ I         327  9.55         4.3 0.36             98            357 308 
 PRA  HZ EP        326 33.91                             106   -0.22 6  391 210 
 PRA  HN ES        327 16.37                             106    0.60 6  391 210 
 PRA  HZ I         327 22.13        12.7 0.32             97            391 210 
 ORTC HZ EP        326 34.82                             106    0.24 6  395 217 
 ORTC HN ES        327 16.55                             106   -0.02 6  395 217 
 ORTC HZ I         327 23.36         7.0 0.34             97            395 217 
                                                                                
