 2014  430 0640  0.6 L   6.770 -73.185156.9  RSN  4 0.5 1.6LRSN                1
 GAP=141        1.03       7.3     6.8 11.5 -0.2485E+02  0.1119E+02  0.5254E+01E
 Epicentro: VILLANUEVA - SANTANDER                                             3
 OLDACT:REG 14-04-30 12:58 OP:fm   STATUS:               ID:20140430064000     3
 ACTION:UPD 14-05-13 20:49 OP:nd   STATUS:               ID:20140430064000 L   I
 OLDACT:UP  14-04-30 17:55 OP:fm   STATUS:               ID:20140430064000     3
 2014-04-30-0640-00M.COL___270                                                 6
 STAT SP IPHASW D HRMM SECON CODA AMPLIT PERI AZIMU VELO AIN AR TRES W  DIS CAZ7
 PAM  SZ EP        640 25.02                             151    0.6810 82.7  40 
 PAM  SE ES        640 42.52                             151   -0.3210 82.7  40 
 PAM  SZ I         640 45.00         5.3 2.20            158           82.7  40 
 RUS  HZ EP   1    640 24.75                             147   -0.54 7 97.7 173 
 RUS  HN ES   1    640 44.55                             147    0.02 7 97.7 173 
 RUS  SZ I         640 46.60         3.6 0.92            151           97.7 173 
 PTB  HZ EP   1    640 27.20                             135   -0.90 7  143 260 
 PTB  HN ES        640 49.68                             135    0.15 9  143 260 
 PTB  SZ I         640 57.92         5.7 1.66            136            143 260 
 SPBC HZ EP   1    640 29.82                             132    0.30 7  158 218 
 SPBC HE ES   1    640 52.28                             132    0.22 7  158 218 
 SPBC SZ I         640 58.71         5.2 0.26            135            158 218 
 SJC  HZ EP   4    640 56.51                             107   -0.11 0  410 328 
