 2017  330 0728 42.1 L   6.763 -73.155146.0  RSN  8 0.5 1.4LRSN                1
 GAP=120        1.05       5.1     4.5  6.6  0.3444E+01  0.5342E+01  0.1403E+01E
 Epicentro: LOS SANTOS - SANTANDER                                             3
 ACTION:UPD 17-05-25 18:47 OP:jn   STATUS:               ID:20170330072842 L   I
 OLDACT:UP  17-03-30 16:54 OP:and  STATUS:               ID:20170330072739     3
 OLDACT:UP  17-03-30 16:52 OP:and  STATUS:               ID:20170330072739     3
 OLDACT:UP  17-03-30 16:52 OP:and  STATUS:               ID:20170330072739     3
 OLDACT:UP  17-03-30 16:52 OP:and  STATUS:               ID:20170330072739     3
 OLDACT:REG 17-03-30 12:39 OP:and  STATUS:               ID:20170330072739     3
 2017-03-30-0728-00M.COL___353                                                 6
 STAT SP IPHASW D HRMM SECON CODA AMPLIT PERI AZIMU VELO AIN AR TRES W  DIS CAZ7
 BAR2 EZ EP        729  1.84                             172    0.1810 19.1 189 
 BAR2 EZ ES        729 17.07                             172    0.1310 19.1 189 
 BRR  HZ IP     C  729  3.53                             152    0.2010 72.4 302 
 BRR  HN ES        729 20.54                             152    0.6510 72.4 302 
 BRR  HZ I         729 27.67         4.7 0.36            151           72.4 302 
 PAM  EZ IP     D  729  4.69                             150    0.1310 81.2  38 
 PAM  EN ES        729 21.34                             150   -0.7510 81.2  38 
 PAM  EZ I         729 23.28         3.8 0.14            153           81.2  38 
 RUS  HZ EP   2    729  6.10                             145    0.53 5 96.5 175 
 RUS  HN ES        729 24.10                             145    0.2110 96.5 175 
 RUS  HZ I         729 25.90         4.6 0.24            149           96.5 175 
 PTB  HZ EP        729  8.51                             132   -0.40 9  146 260 
 PTB  HN ES        729 29.17                             132   -0.67 9  146 260 
 PTB  HZ I         729 33.63         3.3 0.18            133            146 260 
 SPBC HN ES   3    729 31.22                             130   -0.98 2  159 220 
 ZAR  HZ EP        729 15.19                             122    0.58 9  205 293 
 ZAR  HN ES        729 39.79                             122   -0.19 9  205 293 
 ZAR  HZ I         729 46.22         4.1 0.26            124            205 293 
 PTGC HZ EP        729 25.20                             112   -0.36 7  305 158 
                                                                                
