 2011  930 0608 47.7 L   6.818 -73.139137.9  RSN  8 0.5 1.9LRSN                1
 GAP=136        0.87       4.0     7.2  8.0 -0.4970E+01  0.1004E+02  0.5341E+01E
 Epicentro: LOS SANTOS - SANTANDER                                             3
 ACTION:UPD 12-07-13 16:01 OP:ep   STATUS:               ID:20110930060847 L   I
 2011-09-30-0607-49S.COL___168                                                 6
 STAT SP IPHASW D HRMM SECON CODA AMPLIT PERI AZIMU VELO AIN AR TRES W  DIS CAZ7
 BAR2 SZ EP   1    6 9  6.47                             169   -0.01 8 25.5 191 
 BAR2 SZ I         6 9 22.68        17.7 0.13                          25.5 191 
 BRR  HZ EP   1    6 9  8.36                             151    0.33 8 70.9 297 
 BRR  HN ES   1    6 9 24.43                             151    0.57 8 70.9 297 
 BRR  HZ I         6 9 29.02        19.7 0.18                          70.9 297 
 PAM  SZ EP   1    6 9  9.32                             150    0.32 8 75.3  40 
 PAM  SN ES   1    6 9 25.85                             150    0.26 8 75.3  40 
 RUS  HZ EP   1    6 9 10.60                             142   -0.28 8  103 177 
 RUS  HN ES   1    6 9 28.40                             142   -0.53 8  103 177 
 RUS  HZ I         6 9 30.71         9.4 0.28                           103 177 
 OCA  SZ EP        6 9 15.14                             128   -0.1310  158 353 
 OCA  SZ ES   1    6 9 35.85                             128   -0.89 7  158 353 
 OCA  SZ I         6 9 48.14        11.8 0.23                           158 353 
 CHI  HZ EP   1    6 9 26.00                             115    0.75 6  251 195 
 CHI  HZ I         6 9 57.77         4.3 0.58                           251 195 
 RREF HN ES   1    610  9.10                             109   -0.58 6  324 229 
 PRA  HZ EP   1    6 9 41.45                             105    0.20 5  394 210 
                                                                                
