 2016  430 0209 49.1 L   6.820 -73.195140.0  RSN  7 0.3 1.5LRSN                1
 GAP=130        0.64       3.7     5.0  6.8 -0.9944E+01  0.1275E+02 -0.2959E+01E
 Epicentro: ZAPATOCA - SANTANDER                                               3
 ACTION:UPD 16-05-05 14:25 OP:rebc STATUS:               ID:20160430020949 L   I
 OLDACT:REG 16-04-30 13:32 OP:dnl  STATUS:               ID:20160430015932     3
 2016-04-30-0200-00M.COL                                                       6
 STAT SP IPHASW D HRMM SECON CODA AMPLIT PERI AZIMU VELO AIN AR TRES W  DIS CAZ7
 BAR2 EZ EP        210  8.02                             169   -0.0910 25.2 177 
 BAR2 EZ ES   2    210 22.60                             169   -0.31 5 25.2 177 
 BAR2 EZ I         210 24.11         7.2 0.46            170           25.2 177 
 PAM  EZ EP        210 10.96                             150    0.1110 79.3  44 
 PAM  EE ES        210 27.83                             150    0.0310 79.3  44 
 PAM  EZ I         210 28.58         4.8 0.20            153           79.3  44 
 RUS  HZ EP        210 12.03                             142   -0.4910  103 173 
 RUS  HN ES        210 31.21                             142    0.4410  103 173 
 RUS  HZ I         210 31.81         3.3 0.26            146            103 173 
 SPBC HZ EP   2    210 17.36                             128    0.32 5  162 217 
 SPBC HN ES        210 38.66                             128   -0.15 9  162 217 
 SPBC HZ I         210 41.31         6.1 0.16            129            162 217 
 ZAR  HN ES   2    210 45.45                             122    0.31 4  198 292 
 ZAR  HZ I         210 51.59         3.0 0.11            121            198 292 
 NOR  HZ EP   3    210 23.47                             118   -0.73 2  232 233 
 NOR  HN ES   2    210 51.67                             118    0.11 4  232 233 
 NOR  HZ I         210 55.25         2.6 0.18            118            232 233 
 GUY2CHZ EP   2    210 32.84                             112    0.71 4  298 234 
 GUY2CHE ES   4    211  7.56                             112    1.90 0  298 234 
 GUY2CHZ I         211 16.24         1.8 0.36                           298 234 
                                                                                
