 2010  730 0314 25.1 L   6.766 -73.136148.1  RSN  8 0.5 1.8LRSN                1
 GAP=160        1.06       5.8    12.0 10.1 -0.9730E+01 -0.1886E+02 -0.9563E+01E
 Epicentro: LOS SANTOS - SANTANDER                                             3
 ACTION:UPD 10-12-01 15:21 OP:pat  STATUS:               ID:20100730031425 L   I
 2010-07-30-0311-24S.COL___123                                                 6
 STAT SP IPHASW D HRMM SECON CODA AMPLIT PERI AZIMU VELO AIN AR TRES W  DIS CAZ7
 BAR2 SZ ES   2    315  0.64                             172     0.2 5   20 195 
 BAR2 SZ I         315  1.46        22.1 0.23                            20 195 
 GIR2 SZ EP   2    314 44.87                             166    -0.3 5   35 350 
 BRR  HZ IP     C  314 46.60                             152    -0.110   74 301 
 BRR  HN ES   1    315  3.59                             152     0.1 7   74 301 
 BRR  HZ I         315  6.31        10.2 0.20                            74 301 
 RUS  HZ EP   1    314 48.65                             145    -0.2 7   97 177 
 RUS  HN ES   1    315  7.00                             145    -0.3 7   97 177 
 RUS  HZ I         315  8.58         4.6 0.38                            97 177 
 GUE  SZ EP   1    314 49.71                             139    -0.6 7  120  11 
 GRA  SZ EP        314 51.54                             137     0.710  129  16 
 GRA  SZ ES   2    315 11.28                             137     0.4 5  129  16 
 GRA  SZ I         315 15.49         5.2 0.43                           129  16 
 OCA  SZ EP   1    314 53.19                             129    -0.8 7  164 353 
 OCA  SZ I         315 21.91         7.3 0.06                           164 353 
 PRA  HZ EP   1    315 19.27                             107     0.9 4  389 210 
 PRA  HE ES   2    315 59.93                             107     0.0 3  389 210 
 PRA  HZ I         316  6.49         3.4 0.33                           389 210 
                                                                                
