 2013 1030 0648 12.3 L   6.808 -73.159137.1  RSN 12 0.5 2.0LRSN                1
 GAP=134        1.02       3.4     5.2  7.4 -0.2375E+01  0.1673E+02 -0.3590E+00E
 Epicentro: LOS SANTOS - SANTANDER                                             3
 ACTION:UPD 13-11-25 09:24 OP:ep   STATUS:               ID:20131030064812 L   I
 OLDACT:UP  13-10-30 09:56 OP:jn   STATUS:               ID:20131030064646     3
 OLDACT:REG 13-10-30 07:09 OP:jn   STATUS:               ID:20131030064646     3
 2013-10-30-0646-46M.COL___221                                                 6
 STAT SP IPHASW D HRMM SECON CODA AMPLIT PERI AZIMU VELO AIN AR TRES W  DIS CAZ7
 BAR2 SZ EP        648 31.07                             170    0.1310 24.0 186 
 BAR2 SZ ES   1    648 44.98                             170   -0.47 7 24.0 186 
 BAR2 SZ I         648 48.56        62.1 0.40            168           24.0 186 
 BRR  HZ EP        648 32.88                             151    0.4310 69.5 298 
 BRR  HN ES   4    648 49.70                             151    1.56 0 69.5 298 
 BRR  HZ I         648 52.20        17.8 0.22            143           69.5 298 
 PAM  SZ EP        648 33.95                             149    0.3010 77.6  41 
 PAM  SN ES        648 50.48                             149    0.2110 77.6  41 
 PAM  SZ I         648 52.90        19.6 0.44            147           77.6  41 
 RUS  HZ EP        648 35.17                             142   -0.1510  102 175 
 RUS  HN ES        648 53.57                             142    0.3210  102 175 
 RUS  HZ I         648 55.44        24.6 0.32            140            102 175 
 PTB  HZ EP        648 38.06                             130   -0.43 9  146 258 
 PTB  HN ES   1    648 58.57                             130   -0.32 7  146 258 
 PTB  HZ I         649  1.53        19.3 0.18            124            146 258 
 OCA  HZ EP   1    648 38.88                             128   -1.00 7  159 354 
 OCA  HN ES   1    649  0.62                             128   -0.74 7  159 354 
 OCA  HZ I         649  8.72         7.3 0.20            123            159 354 
 SPBC HZ EP        648 40.03                             127   -0.14 9  163 218 
 SPBC HN ES   1    649  1.88                             127    0.01 7  163 218 
 SPBC HZ I         649  4.43        20.9 0.50            122            163 218 
 ZAR  HZ EP   1    648 45.35                             121    1.30 6  202 292 
 ZAR  HN ES   1    649  9.34                             121    0.55 6  202 292 
 ZAR  HZ I         649 15.20        17.0 0.34            115            202 292 
 SML  HE ES   2    649 15.70                             116   -0.70 4  242 336 
 CHI  HZ EP   1    648 49.47                             115   -0.16 6  249 195 
 CHI  HN ES   1    649 17.99                             115   -0.72 6  249 195 
 CHI  HZ I         649 23.23         4.4 0.24            112            249 195 
 ROSC BZ EP   4    648 51.50                             115    1.50 0  253 211 
 GUY2CHZ EP   2    648 55.45                             111   -0.03 4  301 234 
 GUY2CHZ I         649 36.30         6.5 0.30                           301 234 
 CBOC HZ EP   1    648 59.45                             108    0.67 5  332 252 
 CBOC HZ I         649 38.81         1.8 0.18            105            332 252 
                                                                                
