 2015  130 0804 54.5 L   6.799 -73.171151.1  RSN  5 0.3 1.4LRSN                1
 GAP=199        0.73       3.8     5.3  5.5  0.8689E+01 -0.7424E+00 -0.5652E+01E
 Epicentro: LOS SANTOS - SANTANDER                                             3
 ACTION:UPD 15-03-02 15:43 OP:nd   STATUS:               ID:20150130080454 L   I
 OLDACT:UP  15-01-30 17:18 OP:cam  STATUS:               ID:20150130075814d    3
 OLDACT:UP  15-01-30 17:18 OP:cam  STATUS:               ID:20150130075814d    3
 OLDACT:DUP 15-01-30 17:14 OP:cam  STATUS:               ID:20150130075814d    3
 2015-01-30-0758-12M.COL___268                                                 6
 STAT SP IPHASW D HRMM SECON CODA AMPLIT PERI AZIMU VELO AIN AR TRES W  DIS CAZ7
 BAR2 EZ EP        8 5 14.83                             171    0.0210 22.9 183 
 BAR2 EZ ES        8 5 30.71                             171    0.0910 22.9 183 
 BAR2 EZ I         8 5 30.98         5.6 0.24            177           22.9 183 
 BRR  HZ IP     D  8 5 16.56                             154    0.4110 68.8 300 
 BRR  HN ES        8 5 32.91                             154   -0.0910 68.8 300 
 BRR  HZ I         8 5 40.13         2.9 0.70            153           68.8 300 
 RUS  HZ EP        8 5 19.17                             145    0.3310  101 174 
 RUS  HN ES        8 5 37.40                             145   -0.3910  101 174 
 RUS  HZ I         8 5 38.15         2.0 0.44            152            101 174 
 PTB  HZ EP        8 5 21.28                             134   -0.43 9  145 259 
 PTB  HN ES        8 5 43.12                             134    0.21 9  145 259 
 SML  HZ EP   1    8 5 31.06                             119   -0.30 6  243 336 
 SML  HE ES        8 5 59.96                             119   -0.12 8  243 336 
 SML  HZ I         8 6  7.73         3.6 0.10            119            243 336 
                                                                                
