 2012 1030 0831  6.1 L   6.776 -73.119147.4  RSN  5 0.5 1.8LRSN                1
 GAP=141        0.89       6.2     7.6  9.0  0.6614E+01  0.5526E+01 -0.6662E+00E
 Epicentro: LOS SANTOS - SANTANDER                                             3
 ACTION:UPD 12-11-22 17:06 OP:ep   STATUS:               ID:20121030083106 L   I
 2012-10-30-0830-00M.COL___230                                                 6
 STAT SP IPHASW D HRMM SECON CODA AMPLIT PERI AZIMU VELO AIN AR TRES W  DIS CAZ7
 BAR2 SZ EP        831 25.82                             171   -0.0810 21.5 199 
 BAR2 SZ ES   1    831 40.47                             171   -0.86 7 21.5 199 
 BAR2 SZ I         831 42.22         9.5 0.38                          21.5 199 
 BRR  HZ EP        831 27.78                             151    0.1310 75.1 299 
 BRR  HE ES   1    831 45.09                             151    0.63 7 75.1 299 
 BRR  HE I         831 48.30        16.8 0.20                          75.1 299 
 PAM  SZ EP   1    831 28.60                             151    0.09 7 77.6  37 
 PAM  SE ES   1    831 46.00                             151    0.02 7 77.6  37 
 PAM  SE I         831 47.31        13.6 0.74                          77.6  37 
 RUS  HZ EP   1    831 29.66                             145   -0.16 7 97.8 178 
 RUS  HN ES   1    831 48.80                             145    0.49 7 97.8 178 
 RUS  HN I         831 50.10         8.0 0.44                          97.8 178 
 ZAR  HN ES   2    832  3.80                             122   -0.94 4  208 293 
 ZAR  HN I         832 15.27         5.5 0.14                           208 293 
                                                                                
