 2013  130 0434  9.0 L   6.744 -73.173150.1  RSN  4 0.2 1.2LRSN                1
 GAP=136        0.53       3.9     4.3  5.5  0.5950E+01 -0.2885E+01 -0.3792E+01E
 Epicentro: VILLANUEVA - SANTANDER                                             3
 ACTION:UPD 13-02-15 09:17 OP:ep   STATUS:               ID:20130130043409 L   I
 2013-01-30-0430-00M.COL___241                                                 6
 STAT SP IPHASW D HRMM SECON CODA AMPLIT PERI AZIMU VELO AIN AR TRES W  DIS CAZ7
 BRR  HZ EP        434 30.96                             153    0.2810 71.9 304 
 BRR  HN ES        434 47.62                             153    0.0410 71.9 304 
 BRR  HN I         434 51.50         5.9 0.20            153           71.9 304 
 PAM  SZ EP   1    434 31.75                             149   -0.36 7 84.1  38 
 PAM  SZ I         434 32.05         3.2 0.25            153           84.1  38 
 RUS  HZ EP   1    434 32.73                             146   -0.07 7 94.6 174 
 RUS  HE ES        434 51.39                             146    0.0510 94.6 174 
 RUS  HE I         434 52.67         2.0 0.20            150           94.6 174 
 PTB  HZ EP        434 36.05                             134    0.06 9  144 261 
 PTB  HN ES   1    434 56.67                             134   -0.36 7  144 261 
 PTB  HZ I         435  0.10         1.3 0.23            135            144 261 
                                                                                
