 2013  830 0106 54.3 L   6.745 -73.159147.3  RSN  5 0.5 1.5LRSN                1
 GAP=232        1.13       9.0     8.8 10.5  0.2290E+02  0.1162E+02  0.9524E+01E
 Epicentro: JORDAN - SANTANDER                                                 3
 ACTION:UPD 14-01-14 09:08 OP:ep   STATUS:               ID:20130830010654 L   I
 OLDACT:REG 13-08-30 07:55 OP:jn   STATUS:               ID:20130830005844     3
 2013-08-30-0058-44M.COL___211                                                 6
 STAT SP IPHASW D HRMM SECON CODA AMPLIT PERI AZIMU VELO AIN AR TRES W  DIS CAZ7
 BAR2 SZ EP        1 7 13.91                             173   -0.1110 17.1 189 
 BAR2 SZ ES        1 7 28.61                             173   -0.7910 17.1 189 
 BAR2 SZ I         1 7 32.04        13.4 0.92            168           17.1 189 
 BRR  HN ES   1    1 7 33.40                             152    0.96 7 73.0 303 
 RUS  HZ EP        1 7 18.07                             145    0.2710 94.6 175 
 RUS  HN ES        1 7 36.50                             145    0.3810 94.6 175 
 RUS  HZ I         1 7 38.23         2.7 0.38            144           94.6 175 
 PTB  HZ EP   1    1 7 20.80                             132   -0.38 7  145 261 
 PTB  HN ES   1    1 7 41.93                             132   -0.21 7  145 261 
 PTB  HZ I         1 7 44.87         3.1 0.30            132            145 261 
 SPBC HN ES   1    1 7 44.33                             130    0.01 7  158 220 
 SPBC HZ I         1 7 48.78         5.2 0.40            129            158 220 
                                                                                
