 2012  630 0006  6.6 L   6.752 -73.201155.1  RSN  4 0.4 1.3LRSN                1
 GAP=177        0.66       5.3     6.8  8.9  0.1157E+02 -0.3538E+01 -0.6290E+00E
 Epicentro: VILLANUEVA - SANTANDER                                             3
 ACTION:UPD 12-08-06 17:53 OP:ep   STATUS:               ID:20120630000606 L   I
 2012-06-30-0000-00M.COL___201                                                 6
 STAT SP IPHASW D HRMM SECON CODA AMPLIT PERI AZIMU VELO AIN AR TRES W  DIS CAZ7
 BRR  HZ EP   1    0 6 28.86                             155    0.25 7 68.8 305 
 BRR  HN ES   1    0 6 46.22                             155    0.42 7 68.8 305 
 RUS  HZ EP   1    0 6 31.25                             147    0.31 7 96.0 172 
 RUS  HZ I         0 6 49.62         4.6 0.65                          96.0 172 
 RUS  HN ES   1    0 6 49.67                             147   -0.27 7 96.0 172 
 PTB  HZ EP   1    0 6 33.54                             136   -0.18 7  141 260 
 PTB  HN ES   1    0 6 54.55                             136   -0.33 7  141 260 
 PTB  HZ I         0 6 56.96         1.6 0.13                           141 260 
 OCA  HN ES   2    0 6 58.36                             131   -0.68 5  165 355 
                                                                                
