 2011  430 0541 19.2 L   6.784 -73.140139.7  RSN  9 0.5 2.0LRSN                1
 GAP=138        1.00       4.5     6.1  7.7 -0.1167E+02  0.1396E+02 -0.2905E+01E
 Epicentro: LOS SANTOS - SANTANDER                                             3
 ACTION:UP  11-06-22 15:34 OP:REBC STATUS:               ID:20110430054119 L   I
 2011-04-30-0538-17S.COL___129                                                 6
 STAT SP IPHASW D HRMM SECON CODA AMPLIT PERI AZIMU VELO SNR AR TRES W  DIS CAZ7
 BAR2 SZ EP   1    541 37.99                             171    -0.1 7   22 193 
 BAR2 SZ ES   1    541 52.21                             171    -0.5 7   22 193 
 BAR2 SZ I         541 53.80        32.5 0.17                            22 193 
 BRR  HZ EP   1    541 39.97                             151     0.2 7   73 299 
 BRR  HN ES   1    541 56.68                             151     0.9 7   73 299 
 BRR  HZ I         541 57.95        34.1 0.15                            73 299 
 PAM  SZ EP   1    541 40.99                             149     0.2 7   78  38 
 PAM  SN ES   1    541 57.73                             149     0.1 7   78  38 
 RUS  HZ EP   1    541 41.98                             143    -0.2 7   99 176 
 RUS  HN ES   1    542  0.29                             143     0.1 7   99 176 
 RUS  HZ I         542  2.12         9.5 0.17                            99 176 
 BRI  SZ EP   1    541 42.80                             140     0.2 7  110  20 
 GRA  SZ EP   1    541 44.11                             135     0.1 7  127  17 
 GRA  SZ ES   1    542  3.58                             135     0.2 7  127  17 
 GRA  SZ I         542  4.61        17.6 0.36                           127  17 
 OCA  SZ EP   1    541 46.69                             128    -0.5 7  162 353 
 OCA  SZ ES   1    542  8.21                             128    -0.8 7  162 353 
 OCA  SZ I         542 11.57        17.8 0.26                           162 353 
 NOR  SZ EP   1    541 54.52                             117     0.0 6  234 235 
 NOR  SN ES   1    542 21.74                             117    -0.3 6  234 235 
 HEL  HZ EP   1    542  0.13                             113     1.0 6  272 256 
 HEL  HE ES   1    542 29.66                             113    -0.6 6  272 256 
 HEL  HZ I         542 37.63         4.6 0.44                           272 256 
                                                                                
