 2011  130 0557 59.7 L   6.834 -73.080144.0  RSN  4 0.2 1.2LRSN                1
 GAP=171        0.45       4.5    17.6  5.4 -0.4116E+02  0.3914E+02 -0.8130E+01E
 Epicentro: LOS SANTOS - SANTANDER                                             3
 ACTION:UP  11-02-08 08:43 OP:pat  STATUS:               ID:20110130055759 L   I
 2011-01-30-0557-03S.COL___138                                                 6
 STAT SP IPHASW D HRMM SECON CODA AMPLIT PERI AZIMU VELO SNR AR TRES W  DIS CAZ7
 BAR2 SZ EP        558 19.45                             168     0.210   29 203 
 BAR2 SZ ES   2    558 34.24                             168    -0.3 5   29 203 
 BAR2 SZ I         558 37.37         5.9 0.26                            29 203 
 RUS  HZ EP        558 23.47                             143    -0.110  104 180 
 RUS  HE ES        558 42.16                             143     0.010  104 180 
 RUS  HZ I         558 44.84         1.9 0.37                           104 180 
 GRA  SZ EP   2    558 24.12                             138    -0.2 5  120  15 
 CHI  HZ EP        558 37.73                             116    -0.2 8  254 197 
 CHI  HZ I         558 38.25         1.0 0.22                           254 197 
 CHI  HN ES   2    559  7.89                             116     0.2 4  254 197 
                                                                                
