 2017  330 0240 19.0 L   6.829 -73.149151.5  RSN 36 0.7 3.0LRSN                1
 GAP=118        1.03       2.4     3.3  4.2 -0.7018E+00  0.2829E+01  0.8027E+00E
 Epicentro: LOS SANTOS - SANTANDER                                             3
 ACTION:UPD 17-05-25 18:47 OP:jn   STATUS:               ID:20170330024019 L   I
 OLDACT:UP  17-03-30 14:19 OP:and  STATUS:               ID:20170330023256     3
 OLDACT:UP  17-03-30 14:18 OP:and  STATUS:               ID:20170330023256     3
 OLDACT:UP  17-03-30 14:17 OP:and  STATUS:               ID:20170330023256     3
 OLDACT:UP  17-03-30 14:10 OP:and  STATUS:               ID:20170330023256     3
 OLDACT:UP  17-03-30 14:09 OP:and  STATUS:               ID:20170330023256     3
 OLDACT:UP  17-03-30 14:05 OP:and  STATUS:               ID:20170330023256     3
 OLDACT:UP  17-03-30 14:05 OP:and  STATUS:               ID:20170330023256     3
 OLDACT:UP  17-03-30 14:04 OP:and  STATUS:               ID:20170330023256     3
 OLDACT:UP  17-03-30 14:02 OP:and  STATUS:               ID:20170330023256     3
 OLDACT:UP  17-03-30 13:58 OP:and  STATUS:               ID:20170330023256     3
 OLDACT:UP  17-03-30 13:58 OP:and  STATUS:               ID:20170330023256     3
 OLDACT:UP  17-03-30 13:56 OP:and  STATUS:               ID:20170330023256     3
 OLDACT:UP  17-03-30 13:56 OP:and  STATUS:               ID:20170330023256     3
 OLDACT:REG 17-03-30 12:28 OP:and  STATUS:               ID:20170330023256     3
 2017-03-30-0238-00M.COL___350                                                 6
 STAT SP IPHASW D HRMM SECON CODA AMPLIT PERI AZIMU VELO AIN AR TRES W  DIS CAZ7
 BAR2 EZ IP     D  240 39.68                             170    0.3310 26.4 188 
 BAR2 EZ ES        240 54.53                             170   -0.7310 26.4 188 
 BAR2 EZ I         240 55.95       278.7 0.26            167           26.4 188 
 BRR  HZ IP     C  240 41.42                             154    0.7710 69.4 296 
 BRR  HN ES        240 58.47                             154    0.9110 69.4 296 
 BRR  HZ I         241  2.59       177.0 0.34            151           69.4 296 
 PAM  EZ EP        240 42.42                             152    0.7510 75.2  41 
 PAM  EN ES        240 58.92                             152   -0.4610 75.2  41 
 PAM  EZ I         241  1.88       356.9 0.50            157           75.2  41 
 RUS  HZ IP     D  240 43.55                             144    0.0310  104 176 
 RUS  HN ES        241  2.04                             144   -0.6210  104 176 
 RUS  HZ I         241  3.48       107.7 0.24            144            104 176 
 PTB  HZ EP        240 46.36                             133   -0.08 9  148 258 
 PTB  HN ES        241  7.18                             133   -0.69 9  148 258 
 PTB  HZ I         241 10.41        67.2 0.17            132            148 258 
 SPBC HZ EP        240 48.59                             130    0.46 9  165 218 
 SPBC HN ES        241 10.77                             130   -0.10 9  165 218 
 SPBC HZ I         241 15.52       160.8 0.26            129            165 218 
 ZAR  HZ EP        240 52.15                             123    0.51 9  203 291 
 ZAR  HN ES        241 16.33                             123   -0.80 9  203 291 
 ZAR  HZ I         241 24.49       124.4 0.40            123            203 291 
 TABC EZ EP   3    240 57.06                             120    1.72 2  233 210 
 TABC EZ ES        241 24.32                             120    0.61 8  233 210 
 TABC EZ I         241 29.07        86.7 0.46            120            233 210 
 NOR  HZ EP        240 55.66                             119    0.45 8  236 234 
 NOR  HN ES        241 22.85                             119   -0.62 8  236 234 
 NOR  HZ I         241 29.59        54.1 0.32            119            236 234 
 CHI  HZ EP        240 57.66                             118    0.35 8  252 195 
 CHI  HN ES        241 27.15                             118   -0.07 8  252 195 
 CHI  HZ I         241 30.70        72.4 0.48            118            252 195 
 ROSC BZ EP   3    240 59.39                             117    1.70 2  255 211 
 ROSC BN ES        241 28.22                             117    0.33 8  255 211 
 ROSC BZ I         241 33.54       123.5 0.45            118            255 211 
 HEL  HZ EP   3    241  1.25                             116    1.72 2  273 255 
 HEL  HN ES        241 31.66                             116    0.49 8  273 255 
 HEL  HZ I         241 37.80        38.6 0.28            116            273 255 
 URE  HZ EP        240 59.30                             114   -0.86 7  282 291 
 URE  HN ES   3    241 30.51                             114   -1.78 2  282 291 
 URE  HZ I         241 41.48        75.1 0.28            115            282 291 
 VIL  EZ EP   2    241  3.36                             113    0.36 4  306 191 
 VIL  EN ES        241 36.77                             113   -0.57 7  306 191 
 VIL  EZ I         241 40.37       103.6 0.36            114            306 191 
 PTGC HZ IP     D  241  2.79                             112   -0.65 7  312 159 
 PTGC HN ES   3    241 36.17                             112   -1.95 2  312 159 
 PTGC HZ I         241 41.12        77.4 0.30            114            312 159 
 LL6C HN EP   9    240 45.36                             111   -19.2 0  322 358 
 LL6C HE ES        241 21.42                             114    0.50 7  322 358 
 LL6C HN I         241 22.48        41.7 0.40            113            322 358 
 CBOC HZ EP   9    241  7.73                             111    1.53 0  334 252 
 CBOC HN ES        241 44.28                             110   -0.29 7  334 252 
 CBOC HZ I         241 47.86        12.7 0.18            111            334 252 
 DBB  EZ EP        241  6.95                             110    0.33 7  339 274 
 DBB  EN ES   3    241 42.30                             110   -1.49 2  339 274 
 DBB  EZ I         241 44.39        18.4 0.40            111            339 274 
 ARGC HZ EP   9    241 10.34                             109    1.85 0  356 340 
 ARGC HN ES        241 48.78                             108   -0.19 6  356 340 
 ARGC HZ I         241 59.86        18.0 0.26            110            356 340 
 PRA  HZ EP        241 13.40                             107    0.40 6  395 209 
 PRA  HN ES        241 55.10                             107   -0.04 6  395 209 
 PRA  HZ I         242  1.63        48.2 0.26            108            395 209 
 ORTC HZ EP        241 13.96                             107    0.59 6  398 216 
 ORTC HN ES   3    241 57.11                             107    1.31 1  398 216 
 ORTC HZ I         242  0.94        33.4 0.46            108            398 216 
 SJC  HZ EP        241 13.91                             106   -0.48 6  406 327 
 SJC  HN ES   4    241 55.04                             106   -2.58 0  406 327 
 SJC  HZ I         241 59.44        21.1 0.60            107            406 327 
 VALLCHZ EP        241 13.47                             106   -0.96 6  407 358 
 VALLCHN ES        241 57.57                             106   -0.12 6  407 358 
 PAL  HZ EP        241 15.22                             106    0.74 6  407 239 
 PAL  HE ES        241 57.37                             106   -0.42 6  407 239 
 PAL  HZ I         242  2.11        15.0 0.22            107            407 239 
 LCBC HN ES        242  0.33                             106    0.05 5  420 302 
 YOT  HZ EP        241 22.45                             104    0.05 5  474 229 
 YOT  HN ES   4    242  9.17                             104   -2.70 0  474 229 
 SMAR HZ EP        241 24.03                             103   -0.59 4  494 346 
 SMAR HN ES   4    242 12.61                             103   -3.21 0  494 346 
 SMAR HZ I         242 16.20        17.1 0.30            104            494 346 
 BET  EZ EP        241 26.89                             102   -0.81 4  519 209 
 BET  EN ES   2    242 19.99                             102   -1.32 2  519 209 
 BET  EZ I         242 23.12         7.8 0.18            103            519 209 
 MACC HZ IP   3 D  241 26.73                             102   -1.46 1  524 189 
 MACC HN ES   4    242 17.77                             102   -4.42 0  524 189 
 MACC HZ I         242 26.16         9.4 0.56            103            524 189 
 URI  HZ EP   2    241 30.21                             101   -1.53 2  554  13 
 URI  HN ES   4    242 24.21                             101   -4.30 0  554  13 
 URI  HZ I         242 39.85         3.9 0.20            102            554  13 
 MAL  EZ EP   4    241 34.36                             101    2.02 0  559 236 
 GARC HZ EP        241 33.76                             101   -0.91 3  575 207 
 GARC HN ES   4 C  242 31.32                             101   -2.40 0  575 207 
 CONO HZ EP        241 40.37                             100    0.63 3  614 216 
 POP2 HZ EP        241 39.03                             100   -0.34 3  615 220 
 POP2 HN ES        242 41.63                             100   -0.45 3  615 220 
 FLO2 HZ EP        241 42.47                              99   -0.06 2  643 206 
 SOTO HZ EP   3    241 45.03                              99    1.64 1  645 217 
 SOTO HN ES   3    242 47.77                              99   -1.46 1  645 217 
 BBAC HZ EP   3    241 50.88                              98    1.34 0  700 221 
 BBAC HN ES        242 59.70                              98   -0.49 1  700 221 
 BBAC HZ I         243  4.61         1.3 0.26             99            700 221 
                                                                                
