 2014  330 0038 16.5 L   5.949 -73.818114.8  RSN 10 0.4 2.0LRSN                1
 GAP= 92        1.03       2.7     3.8  6.4 -0.9972E-01  0.6173E+01  0.1132E+01E
 Epicentro: SUCRE - SANTANDER                                                  3
 ACTION:UPD 14-04-09 23:21 OP:nd   STATUS:               ID:20140330003816 L   I
 OLDACT:REG 14-03-30 07:45 OP:carl STATUS:               ID:20140330003059     3
 2014-03-30-0030-59M.COL___082                                                 6
 STAT SP IPHASW D HRMM SECON CODA AMPLIT PERI AZIMU VELO AIN AR TRES W  DIS CAZ7
 SPBC HZ EP        038 33.21                             158    0.3310 43.3 221 
 SPBC HN ES        038 45.95                             158    0.2610 43.3 221 
 SPBC HZ I         038 46.61        48.3 0.38            156           43.3 221 
 RUS  HZ IP     D  038 35.82                             143    0.0210 81.6  94 
 RUS  HN ES        038 50.26                             143   -0.6210 81.6  94 
 RUS  HZ I         038 54.89         7.4 0.38            145           81.6  94 
 PTB  HZ EP        038 35.81                             137   -0.4710 96.2 313 
 PTB  HN ES        038 51.64                             137   -0.1110 96.2 313 
 PTB  HZ I         038 53.02        20.1 0.14            138           96.2 313 
 BAR2 SZ EP        038 36.84                             136   -0.0710100.0  45 
 BAR2 SZ ES        038 53.01                             136    0.1510100.0  45 
 BAR2 SZ I         038 54.60       170.4 0.68            139          100.0  45 
 BRR  HZ EP        038 39.70                             128    0.5210  129   5 
 BRR  HN ES        038 57.32                             128    0.4210  129   5 
 BRR  HZ I         039  0.52        14.4 0.12            130            129   5 
 CHI  HZ EP        038 41.53                             124    0.06 9  146 176 
 CHI  HN ES        039  0.98                             124   -0.00 9  146 176 
 CHI  HZ I         039  5.48         8.3 0.36            125            146 176 
 GUY2CHZ EP   4    038 47.22                             117    1.16 0  189 245 
 GUY2CHN ES   4    039  9.70                             117    0.54 0  189 245 
 GUY2CHZ I         039 16.11         7.7 0.40                           189 245 
 HEL  HZ EP   4    038 47.23                             117    1.08 0  191 278 
 HEL  HN ES   4    039  8.40                             117   -0.91 0  191 278 
 HEL  HZ I         039 15.58         8.6 0.22            117            191 278 
 ZAR  HZ EP        038 46.40                             114   -0.88 8  206 326 
 ZAR  HE ES        039 11.36                             114    0.03 8  206 326 
 ZAR  HZ I         039 14.42        11.0 0.24            115            206 326 
 ORTC HZ EP        038 56.10                             107    0.80 7  276 215 
 ORTC HN ES        039 25.18                             107   -0.42 7  276 215 
 ORTC HZ I         039 32.86         8.7 0.38            108            276 215 
                                                                                
