 2012 1130 0602 12.1 L   6.814 -73.161143.4  RSN 11 0.5 2.0LRSN                1
 GAP=134        1.09       3.2     4.2  6.6 -0.2165E+01  0.1020E+02  0.1580E+01E
 Epicentro: LOS SANTOS - SANTANDER                                             3
 ACTION:UPD 12-12-05 15:37 OP:}ep  STATUS:               ID:20121130060212 L   I
 2012-11-30-0600-00M.COL___236                                                 6
 STAT SP IPHASW D HRMM SECON CODA AMPLIT PERI AZIMU VELO AIN AR TRES W  DIS CAZ7
 BAR2 SZ EP        6 2 31.39                             170   -0.1310 24.6 185 
 BAR2 SZ ES        6 2 46.01                             170   -0.6210 24.6 185 
 BAR2 SZ I         6 2 49.32        17.6 0.16                          24.6 185 
 GIR2 SZ EP        6 2 31.75                             168    0.2610 29.5 353 
 PAM  SZ EP        6 2 34.29                             150    0.1910 77.4  41 
 PAM  SN ES        6 2 51.60                             150    0.3610 77.4  41 
 PAM  SN I         6 2 52.53        14.7 0.20                          77.4  41 
 RUS  HZ EP        6 2 35.26                             143   -0.5210  102 175 
 RUS  HN ES        6 2 54.37                             143    0.1510  102 175 
 RUS  HN I         6 2 55.56        14.3 0.38                           102 175 
 PTB  HZ EP        6 2 38.44                             132   -0.35 9  146 258 
 PTB  HN ES        6 2 59.76                             132    0.18 9  146 258 
 PTB  HN I         6 3  4.69        30.9 0.46                           146 258 
 OCA  HZ EP        6 2 39.36                             129   -0.75 9  159 354 
 OCA  HN ES        6 3  2.76                             129    0.84 9  159 354 
 ZAR  HZ EP        6 2 43.75                             122   -0.46 9  202 292 
 ZAR  HE ES        6 3  8.67                             122   -0.55 9  202 292 
 ZAR  HE I         6 3 15.59        32.7 0.50                           202 292 
 NOR  HN ES        6 3 15.49                             118    0.09 8  234 234 
 CHI  HZ EP        6 2 49.65                             116   -0.17 8  250 195 
 CHI  HN ES        6 3 19.50                             116    0.29 8  250 195 
 CHI  HN I         6 3 26.41         5.8 0.52                           250 195 
 HEL  HZ EP        6 2 52.84                             114    0.75 8  271 255 
 HEL  HN ES        6 3 23.59                             114    0.34 8  271 255 
 HEL  HN I         6 3 31.35         4.5 0.22                           271 255 
 PRA  HZ EP        6 3  5.93                             106    0.30 6  392 209 
 PRA  HN ES        6 3 48.09                             106    0.73 6  392 209 
 PRA  HN I         6 3 52.96         1.9 0.26                           392 209 
                                                                                
