 2016  630 0738 39.1 L   6.792 -73.195144.9  RSN  9 0.2 1.5LRSN                1
 GAP=231        0.59       2.5     2.9  4.0  0.1561E+01  0.3441E+01  0.2487E+01E
 Epicentro: ZAPATOCA - SANTANDER                                               3
 ACTION:UPD 16-07-21 22:24 OP:rebc STATUS:               ID:20160630073839 L   I
 OLDACT:DUP 16-06-30 17:50 OP:edw  STATUS:               ID:20160630073746d    3
 2016-06-30-0737-45M.COL___343                                                 6
 STAT SP IPHASW D HRMM SECON CODA AMPLIT PERI AZIMU VELO AIN AR TRES W  DIS CAZ7
 BAR2 EZ EP        738 58.33                             171   -0.2610 22.1 176 
 BAR2 EZ ES        739 13.51                             171   -0.3010 22.1 176 
 BAR2 EZ I         739 15.19         7.2 0.24                          22.1 176 
 BRR  HZ EP        739  0.02                             154    0.1110 66.9 301 
 BRR  HN ES        739 16.34                             154    0.1910 66.9 301 
 BRR  HZ I         739 20.77         6.2 0.64                          66.9 301 
 RUS  HZ EP        739  2.99                             144    0.2610  100 173 
 RUS  HE ES        739 21.28                             144    0.1110  100 173 
 RUS  HZ I         739 22.94         2.2 0.44                           100 173 
 PTB  HZ EP        739  5.29                             133   -0.20 9  142 259 
 PTB  HN ES        739 26.21                             133    0.13 9  142 259 
 PTB  HZ I         739 31.30         4.1 0.28                           142 259 
 SPBC HZ EP        739  7.41                             130    0.28 9  159 218 
 SPBC HN ES        739 29.21                             130    0.20 9  159 218 
 SPBC HZ I         739 32.58         5.3 0.22                           159 218 
 ZAR  HN ES        739 35.81                             123   -0.07 9  199 293 
 NOR  HN ES        739 41.19                             119   -0.46 8  230 234 
 CHI  HE ES        739 45.48                             117   -0.19 8  246 194 
 GUY2CHZ EP        739 21.90                             113   -0.20 7  296 234 
 GUY2CHE ES        739 55.88                             113    0.24 7  296 234 
                                                                                
