 2012  930 0755 25.1 L   6.595 -73.221142.5  RSN  4 0.2 1.6LRSN                1
 GAP=174        0.47       7.4     4.3  6.1  0.1103E+02  0.3618E+01 -0.6504E+01E
 Epicentro: CABRERA - SANTANDER                                                3
 ACTION:UPD 12-10-22 14:21 OP:ep   STATUS:               ID:20120930075525 L   I
 2012-09-30-0750-39M.COL___199                                                 6
 STAT SP IPHASW D HRMM SECON CODA AMPLIT PERI AZIMU VELO AIN AR TRES W  DIS CAZ7
 BAR2 SZ EP   1    755 44.43                             178    0.28 7 4.24  94 
 BAR2 SZ ES   1    755 58.77                             178   -0.21 7 4.24  94 
 BAR2 SZ I         756  0.69         9.2 0.22                          4.24  94 
 BRR  HZ EP        755 46.23                             149   -0.1510 78.5 316 
 BRR  HN ES   1    756  3.19                             149    0.24 7 78.5 316 
 BRR  HN I         756  6.66        13.7 0.18                          78.5 316 
 PTB  HN ES   1    756 10.96                             134    0.04 7  137 268 
 PTB  HN I         756 13.61         3.3 0.50                           137 268 
 ZAR  HN ES   1    756 22.85                             121   -0.10 6  206 299 
                                                                                
