 2010  630 0436 39.6 L   6.808 -73.056139.4  RSN  7 0.4 1.5LRSN                1
 GAP=166        0.66       5.0     9.1  8.1 -0.1715E+02 -0.4175E+01 -0.5109E+01E
 Epicentro: LOS SANTOS - SANTANDER                                             3
 ACTION:UP  10-08-24 10:14 OP:vdl  STATUS:               ID:20100630043639 L   I
 2010-06-30-0433-13S.COL___118                                                 6
 STAT SP IPHASW D HRMM SECON CODA AMPLIT PERI AZIMU VELO SNR AR TRES W  DIS CAZ7
 BAR2 SZ EP   2    436 58.22                             168    -0.4 5   28 211 
 BAR2 SZ ES   2    437 13.52                             168     0.1 5   28 211 
 BRR  HZ EP   2    437  0.06                             149    -0.6 5   80 295 
 BRR  HN ES   2    437 16.90                             149    -0.1 5   80 295 
 BRR  HZ I         437 18.33         9.5 0.15                            80 295 
 RUS  HZ EP   2    437  2.21                             142    -0.6 5  101 182 
 RUS  HE ES   2    437 21.37                             142     0.5 5  101 182 
 RUS  HZ I         437 22.26         3.4 0.36                           101 182 
 BRI  SZ EP   1    437  2.84                             141     0.2 7  105  16 
 BRI  SZ ES   2    437 19.96                             141    -0.6 5  105  16 
 GUE  SZ EP   2    437  3.47                             139    -0.1 5  114   7 
 GRA  SZ EP   1    437  4.10                             136     0.1 7  122  13 
 GRA  SZ ES   2    437 23.60                             136     0.6 5  122  13 
 HEL  HZ EP   2    437 21.36                             113     0.7 4  282 256 
 HEL  HZ I         437 57.94         1.7 0.31                           282 256 
                                                                                
