 2015 1130 0236  3.2 L   6.486 -73.309 38.9  RSN  5 0.3 1.3LRSN                1
 GAP=109        0.82       2.8     5.2  8.1  0.7731E+01  0.3252E+02  0.1214E+02E
 Epicentro: SIMACOTA - SANTANDER                                               3
 ACTION:UPD 15-12-28 16:14 OP:cam  STATUS:               ID:20151130023603 L   I
 OLDACT:REG 15-11-30 13:58 OP:drio STATUS:               ID:20151130022748     3
 2015-11-30-0227-48M.COL___289                                                 6
 STAT SP IPHASW D HRMM SECON CODA AMPLIT PERI AZIMU VELO AIN AR TRES W  DIS CAZ7
 BAR2 EZ IP     D  236 10.35                             151    0.2810 18.3  50 
 BAR2 EZ ES        236 15.26                             151   -0.1510 18.3  50 
 BAR2 EZ I         236 17.02        12.1 0.30            169           18.3  50 
 RUS  HZ EP        236 16.03                             105    0.3510 70.2 159 
 RUS  HN ES        236 25.09                             105   -0.3110 70.2 159 
 RUS  HZ I         236 26.35         6.3 0.14            116           70.2 159 
 BRR  HZ EP        236 16.38                             100   -0.1210 81.9 327 
 BRR  HN ES        236 27.06                             100    0.1910 81.9 327 
 BRR  HZ I         236 28.62        13.3 0.10            110           81.9 327 
 SPBC HZ EP   4    236 23.29                              95    1.32 0  125 223 
 SPBC HN ES        236 36.88                              95    0.2910  125 223 
 SPBC HZ I         236 41.33         6.3 0.22            100            125 223 
 PTB  HZ EP        236 21.57                              95   -0.5510  127 273 
 PTB  HN ES   4    236 35.32                              95   -1.55 0  127 273 
 PTB  HZ I         236 37.20        10.0 0.16             99            127 273 
                                                                                
