 2013  430 0323 53.2 L   6.550 -73.504115.6  RSN  8 0.4 1.8LRSN                1
 GAP= 97        0.84       3.7     4.4  6.3  0.2069E+01  0.1552E+02  0.1694E+01E
 Epicentro: EL CARMEN DE CHUCURI - SANTANDER                                   3
 ACTION:UPD 13-05-22 14:41 OP:EP   STATUS:               ID:20130430032353 L   I
 2013-04-30-0320-00M.COL___253                                                 6
 STAT SP IPHASW D HRMM SECON CODA AMPLIT PERI AZIMU VELO AIN AR TRES W  DIS CAZ7
 BAR2 SZ EP     C  324  9.61                             162   -0.0610 35.9  83 
 BAR2 SZ ES        324 22.45                             162   -0.0210 35.9  83 
 BAR2 SZ I         324 23.79        24.6 0.22            169           35.9  83 
 BRR  HZ EP        324 10.43                             148   -0.4410 65.7 340 
 BRR  HE ES        324 24.35                             148   -0.2610 65.7 340 
 BRR  HE I         324 29.98        15.9 0.18            147           65.7 340 
 RUS  HZ EP   1    324 13.37                             141    0.35 7 86.3 147 
 RUS  HN ES   1    324 28.97                             141    0.52 7 86.3 147 
 PTB  HZ IP   4 C  324 12.42                             134   -1.51 0  105 269 
 PTB  HZ I         324 12.73        10.8 0.26            135            105 269 
 PTB  HN ES   4    324 27.35                             134   -2.70 0  105 269 
 ZAR  HZ EP        324 21.91                             118    0.36 9  182 305 
 ZAR  HE ES   1    324 44.39                             118    0.76 7  182 305 
 ZAR  HZ I         324 47.94         6.5 0.28            120            182 305 
 NOR  HZ EP        324 21.51                             117   -0.54 9  186 234 
 NOR  HN ES   1    324 44.74                             117    0.22 7  186 234 
 NOR  HZ I         324 46.81         7.1 0.16            121            186 234 
 HEL  HZ EP   1    324 27.12                             112    0.11 6  228 260 
 HEL  HN ES   1    324 53.00                             112   -0.35 6  228 260 
 HEL  HZ I         324 57.81         2.8 0.20            115            228 260 
 SML  HZ EP        324 29.74                             109   -0.12 8  257 346 
 SML  HE ES   2    324 59.49                             109    1.06 4  257 346 
 SML  HZ I         325  2.83         4.8 0.10            112            257 346 
                                                                                
