 2013 1030 0342 36.2 L   6.792 -73.162146.0  RSN  8 0.5 1.6LRSN                1
 GAP=135        1.14       4.3     5.1  7.3 -0.1796E+01  0.7461E+01 -0.1680E+01E
 Epicentro: LOS SANTOS - SANTANDER                                             3
 ACTION:UPD 13-11-25 09:24 OP:ep   STATUS:               ID:20131030034236 L   I
 OLDACT:DUP 13-10-30 09:24 OP:jn   STATUS:               ID:20131030034001d    3
 2013-10-30-0340-00M.COL___273                                                 6
 STAT SP IPHASW D HRMM SECON CODA AMPLIT PERI AZIMU VELO AIN AR TRES W  DIS CAZ7
 BAR2 SZ EP        342 55.83                             171   -0.0210 22.2 186 
 BAR2 SZ ES        343 10.79                             171   -0.3710 22.2 186 
 BAR2 SZ I         343 12.25        19.7 0.18            171           22.2 186 
 BRR  HZ EP        342 57.69                             153    0.3710 70.1 300 
 BRR  HN ES        343 14.60                             153    0.8110 70.1 300 
 BRR  HZ I         343 17.87         6.8 0.30            151           70.1 300 
 PAM  SZ EP        342 58.76                             150    0.2010 79.3  40 
 PAM  SN ES        343 15.67                             150   -0.3310 79.3  40 
 PAM  SZ I         343 17.82         6.7 0.48            153           79.3  40 
 RUS  HZ EP        343  0.32                             144    0.3910 99.8 175 
 RUS  HN ES        343 18.37                             144   -0.0610 99.8 175 
 RUS  HZ I         343 19.43         3.1 0.24            147           99.8 175 
 PTB  HZ EP        343  2.80                             132   -0.22 9  146 259 
 PTB  HN ES        343 23.33                             132   -0.60 9  146 259 
 PTB  HZ I         343 25.91         4.7 0.14            132            146 259 
 SPBC HZ EP        343  4.98                             129    0.43 9  161 219 
 SPBC HN ES        343 26.25                             129   -0.41 9  161 219 
 SPBC HZ I         343 31.79         3.2 0.34            130            161 219 
 ZAR  HE ES   1    343 34.49                             122    0.74 6  203 293 
 ZAR  HZ I         343 40.12         5.3 0.66            123            203 293 
 SML  HZ EP   1    343 12.03                             117   -0.83 6  244 336 
 SML  HN ES   1    343 40.58                             117   -0.86 6  244 336 
                                                                                
