 2015  430 0441 23.7 L   6.729 -73.079143.9  RSN 10 0.8 1.9LRSN                1
 GAP=148        1.99       7.3     8.5 12.7 -0.7070E+01  0.2936E+02  0.1664E+02E
 Epicentro: JORDAN - SANTANDER                                                 3
 ACTION:UPD 15-06-03 16:58 OP:cam  STATUS:               ID:20150430044123 L   I
 OLDACT:UP  15-04-30 16:12 OP:drio STATUS:               ID:20150430043747     3
 OLDACT:REG 15-04-30 12:16 OP:stll STATUS:               ID:20150430043747     3
 2015-04-30-0437-47M.COL___277                                                 6
 STAT SP IPHASW D HRMM SECON CODA AMPLIT PERI AZIMU VELO AIN AR TRES W  DIS CAZ7
 BAR2 EZ ES        441 57.45                             172   -0.6910 18.9 217 
 BAR2 EZ I         441 59.92        10.7 0.22            170           18.9 217 
 PAM  SZ EP        441 46.47                             150    0.5810 79.5  32 
 PAM  SZ I         441 46.88        21.2 0.24            153           79.5  32 
 PAM  SE ES        442  3.62                             150    0.4610 79.5  32 
 BRR  HZ EP        441 45.67                             149    0.3610 81.5 301 
 BRR  HN ES        442  3.00                             149    0.8610 81.5 301 
 BRR  HZ I         442  7.15         8.8 0.32            148           81.5 301 
 RUS  HZ EP        441 45.17                             146   -1.5710 92.4 180 
 RUS  HE ES        442  4.01                             146   -0.6610 92.4 180 
 RUS  HZ I         442  7.22         5.7 0.42            148           92.4 180 
 PTB  HZ EP        441 50.65                             130   -0.46 9  154 262 
 PTB  HN ES        442 12.01                             130   -0.45 9  154 262 
 PTB  HZ I         442 17.49         6.4 0.28            131            154 262 
 SPBC HZ EP        441 52.53                             129    0.54 9  162 223 
 SPBC HN ES        442 15.10                             129    1.08 9  162 223 
 SPBC HZ I         442 21.91        12.6 0.36            130            162 223 
 OCA  HZ EP   4    441 52.41                             127   -0.34 0  169 351 
 OCA  HN ES   4    442 13.91                             127   -1.47 0  169 351 
 OCA  HZ I         442 19.06        18.2 0.16            130            169 351 
 ZAR  HN ES        442 22.16                             120   -0.95 8  214 293 
 NOR  HZ EP        441 59.53                             118   -0.01 8  236 237 
 NOR  HE ES        442 27.31                             118   -0.16 8  236 237 
 NOR  HZ I         442 31.47         6.0 0.18            119            236 237 
 CHI  HE ES        442 30.97                             117    1.37 8  243 197 
                                                                                
