 2012  130 0312  8.1 L   6.667 -74.256 62.7  RSN 10 0.4 1.9LRSN                1
 GAP= 87        1.00       3.3     2.6  7.4 -0.2674E+01 -0.3415E+01  0.4844E+01E
 Epicentro: PUERTO PARRA - SANTANDER                                           3
 ACTION:UP  12-02-03 08:22 OP:REBC STATUS:               ID:20120130031208 L   I
 2012-01-30-0310-00M.COL___188                                                 6
 STAT SP IPHASW D HRMM SECON CODA AMPLIT PERI AZIMU VELO SNR AR TRES W  DIS CAZ7
 PTB  HZ EP        312 17.62                             155    -0.110   26 238 
 PTB  HN ES   1    312 25.40                             155     0.2 7   26 238 
 BRR  HZ EP   1    312 21.66                             123    -0.3 7   77  51 
 BRR  HN ES        312 32.88                             123     0.110   77  51 
 BRR  HZ I         312 33.81        33.3 0.11                            77  51 
 ZAR  HZ EP   1    312 25.31                             111    -0.6 7  113 324 
 ZAR  HN ES   1    312 39.80                             111     0.0 7  113 324 
 ZAR  HZ I         312 40.78        37.3 0.37                           113 324 
 BAR2 SZ EP   1    312 27.06                             110     0.2 7  119  94 
 BAR2 SZ I         312 27.39        60.8 0.13                           119  94 
 BAR2 SZ ES        312 41.69                             110     0.210  119  94 
 GIR2 SZ EP        312 27.57                             109     0.010  126  69 
 NOR  SZ EP   1    312 30.11                             107     1.0 7  140 209 
 NOR  SN ES        312 44.61                             107    -0.8 9  140 209 
 HEL  HZ EP   1    312 31.15                             105     0.4 7  150 250 
 HEL  HN ES   1    312 48.85                             105     0.5 7  150 250 
 HEL  HZ I         312 51.56        13.6 0.27                           150 250 
 RUS  HZ EP   1    312 31.21                             105    -0.3 7  155 123 
 RUS  HZ I         312 32.93         6.6 0.10                           155 123 
 RUS  HN ES   1    312 49.47                             105    -0.3 7  155 123 
 PAM  SZ EP   1    312 35.14                             101    -0.2 7  187  67 
 PAM  SN ES   1    312 56.54                             101     0.0 7  187  67 
 PAM  SZ I         312 58.55         7.5 0.28                           187  67 
 CHI  HZ EP   1    312 41.17                              99     0.4 6  233 166 
 CHI  HN ES   2    313  7.06                              99     0.8 4  233 166 
                                                                                
