 2011  430 0306 58.0 L   6.734 -73.477109.0  RSN  9 0.4 2.1LRSN                1
 GAP= 88        0.85       4.8     4.5  6.3 -0.1296E+02  0.7283E+01 -0.3038E+01E
 Epicentro: EL CARMEN DE CHUCURI - SANTANDER                                   3
 ACTION:UP  11-06-22 15:34 OP:REBC STATUS:               ID:20110430030658 L   I
 2011-04-30-0300-00M.COL___140                                                 6
 STAT SP IPHASW D HRMM SECON CODA AMPLIT PERI AZIMU VELO SNR AR TRES W  DIS CAZ7
 BAR2 SZ IP        3 7 13.85                             160     0.210   36 116 
 BAR2 SZ ES   1    3 7 26.15                             160     0.2 7   36 116 
 BAR2 SZ I         3 7 27.15        67.2 0.21                            36 116 
 BRR  HZ EP        3 7 13.63                             154    -0.310   49 328 
 BRR  HN ES   1    3 7 26.31                             154    -0.1 7   49 328 
 BRR  HZ I         3 7 29.02        58.5 0.23                            49 328 
 PAM  SZ EP   1    3 7 18.87                             132    -0.2 7  109  52 
 PAM  SN ES   1    3 7 35.44                             132    -0.1 7  109  52 
 BRI  SZ EP   1    3 7 20.93                             126     0.0 7  132  35 
 BRI  SZ I         3 7 42.61        17.5 0.30                           132  35 
 GRA  SZ EP        3 7 22.33                             122    -0.1 9  147  30 
 GRA  SZ ES   1    3 7 41.30                             122    -0.2 7  147  30 
 GRA  SZ I         3 7 43.22        19.1 0.21                           147  30 
 OCA  SZ EP        3 7 25.12                             118     0.6 9  167   6 
 YOP  SZ EP   2    3 7 27.77                             115     0.6 4  192 142 
 NOR  SZ EP   1    3 7 27.13                             113    -1.0 6  201 230 
 NOR  SN ES   1    3 7 51.64                             113     0.0 6  201 230 
 HEL  HZ EP   1    3 7 32.48                             110     0.1 6  235 255 
 HEL  HN ES   1    3 7 59.56                             110     0.5 6  235 255 
 HEL  HZ I         3 8  1.68         5.8 0.29                           235 255 
                                                                                
