 2016 1030 0928 47.2 L   6.809 -73.155147.9  RSN 20 0.6 3.1LRSN 3.6WRSN        1
 SPEC AVERAGE  MO 14.5 ST0.318 OM  2.7 f0 1.17 R1.8368 AL 0.00 WI 30.0 MW  3.6 3
 SPEC SD       MO  0.2 ST0.268 OM  0.5 f00.402 R0.4852 AL      WI      MW  0.1 3
 GAP=102        1.21       4.2     3.3  5.9 -0.9372E+00  0.3795E+01  0.8472E+01E
 Epicentro: LOS SANTOS - SANTANDER                                             3
 SPEC BRR HH Z MO 14.2 ST0.990 OM  2.3 f0 2.12 R0.9075 AL-0.00 WI 30.0 MW  3.4 3
 SPEC BRR HH Z T 92923 K 0.000 GD  163 VS 5.20 DE 3.50 Q0750.0 QA 1.50 VS 3.50 3
 SPEC PAM EH Z MO 14.1 ST0.284 OM  2.2 f0 1.50 R1.2827 AL-0.00 WI 30.0 MW  3.4 3
 SPEC PAM EH Z T 92925 K 0.000 GD  166 VS 5.20 DE 3.50 Q0750.0 QA 1.50 VS 3.50 3
 SPEC CHI HH Z MO 14.5 ST0.342 OM  2.3 f0 1.23 R1.5642 AL-0.00 WI 30.0 MW  3.6 3
 SPEC CHI HH Z T 92953 K 0.000 GD  289 VS 5.20 DE 3.50 Q0750.0 QA 1.50 VS 3.50 3
 SPEC ROSCBH Z MO 14.7 ST0.223 OM  2.5 f00.911 R2.1120 AL-0.00 WI 30.0 MW  3.7 3
 SPEC ROSCBH Z T 92955 K 0.000 GD  293 VS 5.20 DE 3.50 Q0750.0 QA 1.50 VS 3.50 3
 SPECGUY2CHH Z MO 14.5 ST0.131 OM  2.3 f00.851 R2.2609 AL-0.00 WI 30.0 MW  3.6 3
 SPECGUY2CHH Z T 930 6 K 0.000 GD  335 VS 5.20 DE 3.50 Q0750.0 QA 1.50 Q1 0.00 3
 SPEC ELA HH Z MO 14.5 ST0.199 OM  2.2 f0 1.03 R1.8680 AL-0.00 WI 30.0 MW  3.6 3
 SPEC ELA HH Z T 93010 K 0.000 GD  360 VS 5.20 DE 3.50 Q0750.0 QA 1.50 VS 3.50 3
 SPEC CBOCHH Z MO 14.4 ST0.061 OM  2.1 f00.746 R2.5791 AL-0.00 WI 30.0 MW  3.5 3
 SPEC CBOCHH Z T 930 8 K 0.000 GD  364 VS 5.20 DE 3.50 Q0750.0 QA 1.50 VS 3.50 3
 SPEC SJC HH Z MO 14.2 ST0.146 OM  1.9 f0 1.10 R1.7491 AL-0.00 WI 30.0 MW  3.4 3
 SPEC SJC HH Z T 93020 K 0.000 GD  433 VS 5.20 DE 3.50 Q0750.0 QA 1.50 VS 3.50 3
 SPEC BAR2EH Z MO 15.1 ST0.295 OM  3.2 f00.731 R2.6320 AL-0.00 WI 30.0 MW  4.0 3
 SPEC BAR2EH Z T 92921 K 0.000 GD  149 VS 5.20 DE 3.50 Q0750.0 QA 1.50 VS 3.50 3
 OLDACT:REG 16-10-30 15:07 OP:cog  STATUS:               ID:20161030092739     3
 OLDACT:UP  16-10-30 17:45 OP:cog  STATUS:               ID:20161030092739     3
 ACTION:UPD 16-11-09 19:24 OP:rebc STATUS:               ID:20161030092847 L   I
 OLDACT:UP  16-10-30 17:46 OP:cog  STATUS:               ID:20161030092739     3
 2016-10-30-0928-00M.COL___315                                                 6
 STAT SP IPHASW D HRMM SECON CODA AMPLIT PERI AZIMU VELO AIN AR TRES W  DIS CAZ7
 BAR2 EZ IP     D  929  7.26                             170    0.1610 24.1 187 
 BAR2 EZ ES        929 22.85                             170    0.2310 24.1 187 
 BAR2 EZ I         929 23.30       374.2 0.34            170           24.1 187 
 BRR  HZ IP     C  929  8.96                             153    0.4610 69.9 298 
 BRR  HN ES        929 24.82                             153   -0.3010 69.9 298 
 BRR  HZ I         929 29.41       204.4 0.26            151           69.9 298 
 PAM  EZ EP        929  9.38                             151   -0.2610 77.3  41 
 PAM  EN ES        929 27.19                             151    0.0510 77.3  41 
 PAM  EZ I         929 30.08       115.4 0.38            149           77.3  41 
 RUS  HZ IP     D  929 11.19                             144   -0.0410  102 176 
 RUS  HN ES        929 30.03                             144    0.0510  102 176 
 RUS  HZ I         929 30.92       113.1 0.18            142            102 176 
 PTB  HZ EP        929 13.62                             133   -0.65 9  147 258 
 PTB  HN ES        929 34.95                             133   -0.43 9  147 258 
 PTB  HZ I         929 36.96       134.8 0.16            130            147 258 
 TAM  HZ IP     D  929 15.68                             131    0.52 9  156 105 
 TAM  HZ I         929 36.53        76.6 0.34            128            156 105 
 TAM  HN ES        929 37.30                             131    0.33 9  156 105 
 SPBC HZ EP        929 15.98                             129    0.11 9  163 219 
 SPBC HE ES        929 38.24                             129    0.00 9  163 219 
 SPBC HZ I         929 40.69       173.0 0.12            127            163 219 
 NOR  HZ EP        929 23.21                             119    0.19 8  234 234 
 NOR  HN ES        929 51.16                             119    0.19 8  234 234 
 NOR  HZ I         929 56.24        78.9 0.18            116            234 234 
 CHI  HZ EP        929 25.44                             117    0.35 8  249 195 
 CHI  HN ES        929 54.93                             117    0.29 8  249 195 
 CHI  HZ I         929 59.87        67.7 0.44            115            249 195 
 ROSC BZ EP        929 25.92                             117    0.45 8  253 211 
 ROSC BE ES   2    929 56.69                             117    1.37 4  253 211 
 ROSC BZ I         930  1.94       203.2 0.40            115            253 211 
 HEL  HZ EP   3    929 27.87                             115    0.43 2  271 256 
 HEL  HN ES   3    929 59.90                             115    1.07 2  271 256 
 HEL  HZ I         930  7.56        65.9 0.28            113            271 256 
 GUY2CHZ EP   4    929 31.34                             113    0.46 0  301 235 
 GUY2CHN ES   4    930  8.38                             113    3.44 0  301 235 
 GUY2CHZ I         930 13.48        68.9 0.34                           301 235 
 PTGC HZ IP     D  929 30.37                             112   -0.92 7  310 159 
 PTGC HN ES        930  3.63                             112   -2.06 7  310 159 
 PTGC HZ I         930  6.54        42.5 0.30            110            310 159 
 ELA  HZ EP   4    929 36.23                             111    2.11 0  329 229 
 ELA  HN ES   4    930 12.13                             111    1.41 0  329 229 
 ELA  HZ I         930 18.68        40.6 0.30            109            329 229 
 CBOC HZ EP        929 34.79                             110    0.66 7  333 252 
 CBOC HN ES        930 10.25                             110   -0.48 7  333 252 
 CBOC HZ I         930 24.85        17.0 0.24            108            333 252 
 DBB  HN ES        930 10.61                             110   -1.03 7  338 274 
 PRA  HZ EP        929 40.78                             107   -0.05 6  392 209 
 PRA  HN ES        930 22.28                             107   -0.39 6  392 209 
 PRA  HZ  AMP      930 27.38       761.4 0.25                           392 209 
 PAL  HZ EP        929 42.71                             106    0.32 6  405 239 
 PAL  HN ES        930 26.91                             106    1.48 6  405 239 
 PAL  HZ I         930 32.64        16.9 0.30            104            405 239 
 SJC  HZ EP   4 C  929 41.46                             106   -1.21 0  408 327 
 SJC  HN ES   4    930 22.45                             106   -3.49 0  408 327 
 SJC  HZ I         930 26.48        18.1 0.26            104            408 327 
 CRJC HZ EP   4    929 47.69                             104   -1.96 0  467   4 
 CRJC HN ES   4    930 33.38                             104   -4.99 0  467   4 
 CRJC HZ I         930 38.32        23.5 0.42            102            467   4 
                                                                                
