 2012  630 0627 53.2 L   6.790 -73.145142.3  RSN  7 0.3 1.9LRSN                1
 GAP=137        0.69       3.6     4.2  6.6 -0.1068E+01  0.9397E+01 -0.5184E+01E
 Epicentro: LOS SANTOS - SANTANDER                                             3
 ACTION:UPD 12-08-06 17:53 OP:ep   STATUS:               ID:20120630062753 L   I
 2012-06-30-0620-00M.COL___201                                                 6
 STAT SP IPHASW D HRMM SECON CODA AMPLIT PERI AZIMU VELO AIN AR TRES W  DIS CAZ7
 BAR2 SZ EP        628 12.59                             171    0.1710 22.2 191 
 BAR2 SZ I         628 12.85        22.2 0.20                          22.2 191 
 BAR2 SZ ES   1    628 27.30                             171   -0.09 7 22.2 191 
 BRR  HZ EP   1    628 14.44                             152    0.41 7 71.8 299 
 BRR  HZ I         628 14.85        27.3 0.31                          71.8 299 
 PAM  SZ EP   1    628 15.28                             150    0.15 7 78.2  39 
 PAM  SN ES   1    628 32.53                             150    0.32 7 78.2  39 
 RUS  HZ EP   1    628 16.49                             143   -0.07 7 99.5 176 
 RUS  HN ES   1    628 34.58                             143   -0.18 7 99.5 176 
 RUS  HZ I         628 36.22         8.4 0.44                          99.5 176 
 PTB  HZ EP   1    628 19.63                             131   -0.27 7  148 259 
 PTB  HN ES   1    628 40.37                             131   -0.33 7  148 259 
 PTB  HZ I         628 45.31         9.8 0.16                           148 259 
 OCA  HZ EP   1    628 21.23                             129   -0.14 7  161 353 
 OCA  HN ES   1    628 42.58                             129   -0.75 7  161 353 
 ZAR  HZ EP   1    628 25.37                             121   -0.12 6  204 292 
 ZAR  HN ES   1    628 51.37                             121    0.71 6  204 292 
                                                                                
