 2014  130 0324 14.8 L   7.439 -73.211122.0  RSN  9 0.7 1.6LRSN                1
 GAP=109        1.61       4.6     6.5 10.0 -0.2150E+01  0.2350E+02  0.3646E+01E
 Epicentro: EL PLAYON - SANTANDER                                              3
 ACTION:UPD 14-03-13 09:59 OP:ep   STATUS:               ID:20140130032414 L   I
 OLDACT:DUP 14-01-30 09:47 OP:stll STATUS:               ID:20140130031819d    3
 2014-01-30-0318-18M.COL___233                                                 6
 STAT SP IPHASW D HRMM SECON CODA AMPLIT PERI AZIMU VELO AIN AR TRES W  DIS CAZ7
 PAM  SZ IP     C  324 33.60                             154    0.3210 57.5 101 
 PAM  SN ES        324 48.12                             154    0.4010 57.5 101 
 BRR  HZ IP     C  324 33.25                             150    0.1610 66.4 236 
 BRR  HN ES        324 48.12                             150    0.7310 66.4 236 
 OCA  HZ EP        324 34.92                             142    0.0310 89.2 352 
 OCA  HN ES        324 51.18                             142    0.5810 89.2 352 
 OCA  HZ I         324 53.43         7.5 0.76            142           89.2 352 
 BAR2 SZ EP        324 34.91                             140   -0.4410 93.7 178 
 BAR2 SZ ES        324 50.33                             140   -1.0910 93.7 178 
 BAR2 SZ I         324 52.37        11.2 0.26            142           93.7 178 
 PTB  HZ EP        324 41.76                             122   -0.38 9  170 234 
 PTB  HN ES        325  2.63                             122   -0.86 9  170 234 
 SML  HZ EP        324 42.06                             121   -0.91 9  178 328 
 SML  HN ES        325  4.26                             121   -0.71 9  178 328 
 ZAR  HN ES        325  6.11                             120    0.38 9  182 272 
 SPBC HZ EP        324 47.65                             115    0.08 8  219 206 
 SPBC HN ES        325 13.31                             115    0.16 8  219 206 
 GUY2CHZ EP        325  3.78                             105    1.65 7  342 224 
 GUY2CHZ I         325  4.61         1.1 0.54                           342 224 
 GUY2CHE ES        325 40.08                             105    0.99 7  342 224 
                                                                                
