 2014  130 0838  8.4 L   6.820 -73.174141.0  RSN  5 0.3 1.1LRSN                1
 GAP=145        0.84       4.1     4.8  6.2 -0.5530E+01  0.6838E+01  0.4076E+01E
 Epicentro: LOS SANTOS - SANTANDER                                             3
 ACTION:UPD 14-03-13 09:59 OP:ep   STATUS:               ID:20140130083808 L   I
 OLDACT:REG 14-01-30 12:20 OP:stll STATUS:               ID:20140130082809     3
 2014-01-30-0828-09M.COL___227                                                 6
 STAT SP IPHASW D HRMM SECON CODA AMPLIT PERI AZIMU VELO AIN AR TRES W  DIS CAZ7
 BAR2 SZ EP        838 28.07                             169    0.5610 25.2 182 
 BAR2 SZ ES        838 42.69                             169    0.2810 25.2 182 
 BAR2 SZ I         838 43.76         5.3 0.22            170           25.2 182 
 PAM  SZ EP        838 30.53                             150    0.3810 77.8  42 
 PAM  SN ES        838 46.58                             150   -0.5210 77.8  42 
 PAM  SZ I         838 49.67         2.1 0.38            153           77.8  42 
 RUS  HZ EP        838 31.69                             142   -0.1910  103 174 
 RUS  HN ES        838 50.04                             142   -0.1510  103 174 
 RUS  HZ I         838 52.24         1.8 0.30            146            103 174 
 PTB  HZ EP        838 34.48                             131   -0.27 9  145 258 
 PTB  HN ES        838 55.28                             131   -0.02 9  145 258 
 PTB  HZ I         839  2.54         2.0 0.32            131            145 258 
 CHI  HZ EP        838 45.83                             116   -0.17 8  250 194 
 CHI  HZ I         838 46.35         0.9 0.18            118            250 194 
 CHI  HN ES        839 15.32                             116    0.01 8  250 194 
                                                                                
