 2010 1030 0932  7.7 L   6.725 -73.145146.2  RSN  5 0.6 2.0LRSN                1
 GAP=208        1.59      13.5    24.6 15.5  0.2243E+03 -0.9038E+02 -0.3410E+02E
 Epicentro: JORDAN - SANTANDER                                                 3
 ACTION:UP  11-02-18 11:13 OP:tino STATUS:               ID:20101030093207 L   I
 2010-10-30-0931-13S.COL___127                                                 6
 STAT SP IPHASW D HRMM SECON CODA AMPLIT PERI AZIMU VELO SNR AR TRES W  DIS CAZ7
 BAR2 SZ EP        932 27.15                             173    -0.110   15 196 
 BAR2 SZ ES   1    932 40.91                             173    -1.6 7   15 196 
 BAR2 SZ I         932 42.96        19.7 0.28                            15 196 
 BTL  SZ EP        932 27.47                             169     0.110   25 328 
 BRR  HZ EP        932 29.11                             150     0.010   76 304 
 BRR  HZ I         932 29.48        27.6 0.21                            76 304 
 BRR  HN ES        932 46.18                             150     0.310   76 304 
 RUS  HZ EP        932 31.05                             145     0.210   92 176 
 RUS  HN ES        932 49.50                             145     0.510   92 176 
 RUS  HZ I         932 50.50         7.8 0.19                            92 176 
 PRA  HN ES   2    933 39.89                             106    -1.6 3  385 210 
 PRA  HZ I         933 47.18         4.3 0.23                           385 210 
                                                                                
