 2015 1030 0553 10.9 L   6.810 -73.167146.0  RSN 14 0.4 2.0LRSN                1
 GAP=133        0.98       2.5     3.9  5.0 -0.1127E+01  0.6713E+01  0.1080E+01E
 Epicentro: LOS SANTOS - SANTANDER                                             3
 ACTION:UPD 15-12-22 20:44 OP:cam  STATUS:               ID:20151030054750 L   I
 OLDACT:UP  15-10-30 16:08 OP:mh   STATUS:               ID:20151030054750 L   3
 OLDACT:UPD 15-10-30 14:48 OP:AK   STATUS:               ID:20151030054750 L   3
 2015-10-30-0547-50M.COL___313                                                 6
 STAT SP IPHASW D HRMM SECON CODA AMPLIT PERI AZIMU VELO AIN AR TRES W  DIS CAZ7
 BAR2 EZ EP        553 30.48                             170   -0.0710 24.2 184 
 BAR2 EZ ES        553 45.38                             170   -0.5210 24.2 184 
 BAR2 EZ I         553 46.92        19.7 0.20            169           24.2 184 
 BRR  HZ IP     C  553 32.35                             153    0.4510 68.5 299 
 BRR  HN ES        553 49.17                             153    0.8710 68.5 299 
 BRR  HZ I         553 52.46        19.3 0.30            152           68.5 299 
 PAM  EZ EP        553 33.23                             151    0.0710 78.1  41 
 PAM  EN ES        553 50.49                             151   -0.0410 78.1  41 
 PAM  EZ I         553 52.30        26.2 0.50            155           78.1  41 
 RUS  HZ EP   1    553 34.52                             143   -0.22 7  102 175 
 RUS  HN ES        553 53.50                             143    0.1410  102 175 
 RUS  HZ I         553 55.86         6.5 0.34            145            102 175 
 OCA  HZ EP   1    553 38.81                             130   -0.26 7  159 354 
 OCA  HN ES        554  1.26                             130    0.20 9  159 354 
 OCA  HZ I         554  4.67        21.1 0.38            132            159 354 
 SPBC HZ EP        553 39.38                             129    0.05 9  163 218 
 SPBC HN ES        554  1.21                             129   -0.32 9  163 218 
 SPBC HZ I         554  7.42        17.6 0.26            129            163 218 
 ZAR  HZ EP        553 42.83                             123   -0.23 9  201 292 
 ZAR  HN ES        554  8.29                             123    0.12 9  201 292 
 ZAR  HZ I         554 11.00        12.8 0.18            123            201 292 
 NOR  HZ EP        553 46.44                             119   -0.04 8  233 234 
 NOR  HN ES        554 13.47                             119   -0.78 8  233 234 
 NOR  HZ I         554 19.63         7.9 0.36            119            233 234 
 SML  HZ EP        553 46.79                             118   -0.50 8  242 336 
 SML  HN ES        554 15.08                             118   -0.62 8  242 336 
 SML  HZ I         554 24.05        22.1 0.10            119            242 336 
 CHI  HZ EP        553 48.63                             117   -0.01 8  249 195 
 CHI  HN ES        554 18.20                             117    0.11 8  249 195 
 CHI  HZ I         554 25.81         2.5 0.28            118            249 195 
 HEL  HZ EP        553 51.78                             115    0.91 8  270 255 
 HEL  HN ES        554 21.63                             115   -0.44 8  270 255 
 HEL  HZ I         554 29.71         8.0 0.24            116            270 255 
 GUY2CHZ EP   1    553 55.06                             112    0.71 5  300 234 
 GUY2CHN ES   4    554 30.99                             112    2.73 0  300 234 
 GUY2CHZ I         554 36.74         4.9 0.50                           300 234 
 MON  HZ EP   9    553 57.40                             109   -2.19 0  351 308 
 MON  HN ES        554 35.36                             109   -0.03 6  351 308 
 MON  HZ I         554 37.39         2.6 0.42            110            351 308 
 ORTC HZ EP        554  4.58                             106   -0.17 6  395 216 
 ORTC HN ES        554 47.60                             106    0.84 6  395 216 
 ORTC HZ I         554 55.20         2.1 0.46            107            395 216 
                                                                                
