 2015  130 0652 14.4 L   6.745 -73.181140.7  RSN  6 0.3 1.0LRSN                1
 GAP=134        0.69       4.2     3.6  5.0  0.5959E+01  0.5770E+00 -0.4702E+01E
 Epicentro: VILLANUEVA - SANTANDER                                             3
 ACTION:UPD 15-03-02 15:43 OP:nd   STATUS:               ID:20150130065214 L   I
 OLDACT:REG 15-01-30 13:14 OP:cam  STATUS:               ID:20150130064818     3
 2015-01-30-0648-18M.COL___268                                                 6
 STAT SP IPHASW D HRMM SECON CODA AMPLIT PERI AZIMU VELO AIN AR TRES W  DIS CAZ7
 BAR2 EZ EP        652 33.35                             173    0.0310 16.9 180 
 BAR2 EZ ES        652 48.13                             173    0.0710 16.9 180 
 BAR2 EZ I         652 49.28         2.7 0.24            175           16.9 180 
 BRR  HZ EP        652 34.87                             152   -0.1310 71.0 304 
 BRR  HN ES        652 51.22                             152    0.1610 71.0 304 
 BRR  HZ I         652 57.22         2.5 0.14            153           71.0 304 
 PAM  SZ EP        652 36.18                             148   -0.3710 84.6  39 
 RUS  HZ EP        652 37.40                             144    0.1410 94.9 173 
 RUS  HN ES        652 55.20                             144    0.1210 94.9 173 
 RUS  HZ I         652 57.20         1.0 0.24            149           94.9 173 
 PTB  HZ EP        652 40.47                             132   -0.05 9  143 261 
 PTB  HN ES        653  0.32                             132   -0.56 9  143 261 
 PTB  HZ I         653  3.10         2.2 0.20            135            143 261 
 ZAR  HZ EP        652 46.84                             121    0.44 9  203 294 
 ZAR  HN ES        653 11.62                             121    0.27 9  203 294 
                                                                                
