 2012  830 0633 10.5 L   6.710 -73.065145.9  RSN  6 0.5 1.4LRSN                1
 GAP=234        0.65      17.1    11.9 14.4  0.1332E+03  0.3501E+02  0.7961E+02E
 Epicentro: ARATOCA - SANTANDER                                                3
 ACTION:UPD 12-09-10 11:59 OP:ep   STATUS:               ID:20120830063310 L   I
 2012-08-30-0630-00M.COL___218                                                 6
 STAT SP IPHASW D HRMM SECON CODA AMPLIT PERI AZIMU VELO AIN AR TRES W  DIS CAZ7
 BAR2 SZ EP        633 30.39                             172    0.3010 18.4 225 
 BAR2 SZ I         633 30.52         5.5 0.20                          18.4 225 
 GIR2 SZ EP   3    633 30.63                             163    0.04 2 43.1 341 
 GIR2 SZ ES   3    633 45.61                             163   -0.63 2 43.1 341 
 BRR  HZ EP        633 32.36                             149   -0.0910 83.9 302 
 BRR  HZ I         633 32.65         6.5 0.12                          83.9 302 
 BRR  HN ES   2    633 49.17                             149   -0.38 5 83.9 302 
 PTB  HZ EP   2    633 37.30                             131   -0.87 5  155 263 
 PTB  HZ I         634  0.46         1.5 0.24                           155 263 
 OCA  HZ EP   3    633 39.50                             128   -0.41 2  171 351 
 OCA  HZ I         634  6.41         5.1 0.30                           171 351 
 ZAR  HN ES   2    634 11.26                             121    0.74 4  216 294 
                                                                                
