 2013  830 0036 23.4 L   6.809 -73.170144.8  RSN  8 0.5 1.6LRSN                1
 GAP=142        1.04       6.4     5.3  8.2 -0.8711E+01  0.1245E+02 -0.1979E+01E
 Epicentro: LOS SANTOS - SANTANDER                                             3
 ACTION:UPD 14-01-14 09:08 OP:ep   STATUS:               ID:20130830003623 L   I
 OLDACT:UP  13-08-30 08:46 OP:jn   STATUS:               ID:20130830002850     3
 OLDACT:REG 13-08-30 07:53 OP:jn   STATUS:               ID:20130830002850     3
 2013-08-30-0028-50M.COL___211                                                 6
 STAT SP IPHASW D HRMM SECON CODA AMPLIT PERI AZIMU VELO AIN AR TRES W  DIS CAZ7
 BAR2 SZ EP        036 42.96                             170    0.0710 24.0 183 
 BAR2 SZ ES        036 57.93                             170   -0.1910 24.0 183 
 BAR2 SZ I         036 59.34         6.5 0.22            171           24.0 183 
 BRR  HZ EP        036 44.70                             153    0.4610 68.3 299 
 BRR  HN ES        037  0.91                             153    0.3810 68.3 299 
 BRR  HZ I         037  5.53        10.2 0.38            148           68.3 299 
 PAM  SZ EP        036 45.77                             150    0.2410 78.4  42 
 PAM  SN ES        037  2.56                             150   -0.2610 78.4  42 
 PAM  SZ I         037  5.17         5.4 0.54            153           78.4  42 
 PTB  HZ EP        036 49.67                             132   -0.36 9  145 258 
 PTB  HN ES   1    037 10.32                             132   -0.50 7  145 258 
 PTB  HZ I         037 17.18         4.4 0.56            132            145 258 
 ZAR  HE ES   1    037 21.42                             122    0.95 6  201 292 
 ZAR  HZ I         037 28.97         4.2 0.16            122            201 292 
 NOR  HN ES   1    037 26.23                             118   -0.32 6  233 234 
 SML  HN ES   1    037 26.91                             117   -1.15 6  242 336 
 GCUF HZ E         030 56.31                                            772 217 
                                                                                
