 2010 1130 0140 58.5 L   6.783 -73.087142.1  RSN 11 0.4 2.1LRSN                1
 GAP=182        0.68       3.7     5.8  5.0 -0.1328E+02  0.5912E+00  0.3963E+01E
 Epicentro: LOS SANTOS - SANTANDER                                             3
 ACTION:UP  10-12-17 16:56 OP:REBC STATUS:               ID:20101130014058 L   I
 2010-11-30-0139-23S.COL___129                                                 6
 STAT SP IPHASW D HRMM SECON CODA AMPLIT PERI AZIMU VELO SNR AR TRES W  DIS CAZ7
 BAR2 SZ IP     D  141 17.77                             170     0.110   24 207 
 BAR2 SZ I         141 17.93        28.2 0.18                            24 207 
 BAR2 SZ ES   1    141 32.77                             170     0.1 7   24 207 
 BRR  HZ EP        141 19.63                             150     0.010   78 298 
 BRR  HE ES   1    141 36.35                             150     0.2 7   78 298 
 GUE  SZ EP        141 23.07                             139     0.110  117   9 
 GRA  SZ EP        141 23.67                             136     0.210  126  14 
 GRA  SZ ES   1    141 42.39                             136    -0.5 7  126  14 
 OCA  SZ EP        141 26.55                             128    -0.3 9  163 351 
 OCA  SZ I         141 53.09        10.1 0.64                           163 351 
 NOR  SZ EP        141 34.16                             117    -0.3 8  239 236 
 NOR  SE ES   2    142  2.29                             117    -0.3 4  239 236 
 CHI  HZ EP        141 36.51                             116     0.5 8  249 197 
 CHI  HE ES   2    142  4.62                             116    -0.6 4  249 197 
 HEL  HZ EP   1    141 39.57                             114     0.4 6  278 257 
 HEL  HZ I         142 16.35         6.0 0.54                           278 257 
 GUY  SZ EP   3    141 40.18                             111    -2.3 2  306 236 
 GUY  SE ES   2    142 17.37                             111     0.6 4  306 236 
 RREF HZ EP   1    141 44.74                             110    -0.2 5  325 230 
 RREF HE ES   2    142 20.98                             110    -0.1 3  325 230 
 RREF HZ I         142 25.35         3.8 0.24                           325 230 
 PRA  HZ EP   1    141 52.24                             106     0.1 4  394 211 
 PRA  HN ES   2    142 33.18                             106    -0.7 3  394 211 
 PRA  HZ I         142 41.29         9.2 0.18                           394 211 
                                                                                
