 2014  630 0023  6.0 L   6.869 -73.406110.6  RSN  8 0.6 1.7LRSN                1
 GAP= 85        1.69       5.0     5.6 10.8 -0.2276E+01  0.1310E+02 -0.7422E+01E
 Epicentro: SAN VICENTE DE CHUCURI - SANTANDER                                 3
 ACTION:UPD 14-07-01 22:57 OP:nd   STATUS:               ID:20140630002306 L   I
 OLDACT:REG 14-06-30 14:18 OP:stll STATUS:               ID:20140630001819     3
 2014-06-30-0018-19M.COL___247                                                 6
 STAT SP IPHASW D HRMM SECON CODA AMPLIT PERI AZIMU VELO AIN AR TRES W  DIS CAZ7
 BAR2 SZ IP     C  023 22.67                             159    0.7010 39.3 141 
 BAR2 SZ I         023 22.73        35.9 0.20            165           39.3 141 
 BAR2 SZ ES        023 34.70                             159    0.2610 39.3 141 
 BRR  HZ IP     D  023 22.31                             157    0.5310 42.9 308 
 BRR  HZ I         023 22.49        14.9 0.12            155           42.9 308 
 BRR  HN ES        023 34.94                             157    0.8410 42.9 308 
 PAM  SZ EP        023 26.39                             137    0.5010 93.8  56 
 PAM  SN ES        023 40.59                             137   -0.8210 93.8  56 
 PAM  SZ I         023 43.24         6.3 0.40            137           93.8  56 
 RUS  HZ EP        023 27.87                             131    0.2210  114 162 
 RUS  HN ES        023 44.12                             131   -0.4210  114 162 
 RUS  HZ I         023 45.77         5.9 0.38            137            114 162 
 PTB  HZ IP     C  023 27.19                             128   -0.5710  122 253 
 PTB  HN ES        023 43.32                             128   -1.4210  122 253 
 PTB  HZ I         023 48.69         8.7 0.32            132            122 253 
 OCA  HZ EP        023 30.61                             122   -0.33 9  152   4 
 OCA  HN ES        023 49.71                             122   -0.70 9  152   4 
 OCA  HZ I         023 51.52        17.9 0.32            122            152   4 
 SPBC HZ I         023 33.93         9.6 0.30            127            153 209 
 SPBC HN ES        023 50.64                             121    0.07 9  153 209 
 ZAR  HZ EP        023 33.75                             118    0.58 9  175 293 
 ZAR  HN ES        023 54.90                             118    0.52 9  175 293 
 ZAR  HZ I         023 58.92         5.5 0.20            119            175 293 
                                                                                
