 2012  130 0148 36.4 L   7.517 -73.039152.1  RSN  6 0.3 1.4LRSN                1
 GAP=139        0.67       5.4     5.0  7.8  0.3122E+01  0.3504E+01 -0.2114E+01E
 Epicentro: SURATA - SANTANDER                                                 3
 ACTION:UP  12-02-03 08:22 OP:REBC STATUS:               ID:20120130014836 L   I
 2012-01-30-0146-37S.COL___163                                                 6
 STAT SP IPHASW D HRMM SECON CODA AMPLIT PERI AZIMU VELO SNR AR TRES W  DIS CAZ7
 PAM  SZ EP   1    148 57.78                             164     0.2 7   42 118 
 PAM  SN ES   1    149 14.14                             164    -0.1 7   42 118 
 PAM  SZ I         149 15.85         3.6 0.21                            42 118 
 GIR2 SZ EP   1    148 57.89                             160     0.4 7   51 199 
 OCA  SZ EP   1    148 58.82                             149    -0.4 7   86 339 
 OCA  SZ I         149 24.02         5.6 0.29                            86 339 
 BRR  HZ EP   1    148 59.48                             149     0.4 7   87 239 
 BRR  HZ I         149  8.68         3.3 0.13                            87 239 
 BRR  HN ES   1    149 16.88                             149     0.0 7   87 239 
 RUS  HZ EP   1    149  7.16                             128    -0.3 7  180 182 
 RUS  HZ I         149  8.13         2.1 0.13                           180 182 
 RUS  HN ES   1    149 31.51                             128    -0.2 7  180 182 
 ZAR  HN ES   1    149 34.16                             124    -0.1 6  201 269 
                                                                                
