 2013 1230 0351 56.4 L   6.697 -73.222149.3  RSN  5 0.3 1.4LRSN                1
 GAP=181        0.61       4.3     8.1  6.3  0.2553E+02 -0.1859E+02 -0.1356E+02E
 Epicentro: VILLANUEVA - SANTANDER                                             3
 ACTION:UPD 14-01-13 10:22 OP:ep   STATUS:               ID:20131230035156 L   I
 OLDACT:UP  13-12-30 11:39 OP:mh   STATUS:               ID:20131230035001d    3
 OLDACT:DUP 13-12-30 11:37 OP:mh   STATUS:               ID:20131230035001d    3
 2013-12-30-0350-00M.COL___285                                                 6
 STAT SP IPHASW D HRMM SECON CODA AMPLIT PERI AZIMU VELO AIN AR TRES W  DIS CAZ7
 BAR2 SZ EP   1    352 15.85                             175   -0.43 7 12.4 159 
 BAR2 SZ I         352 32.17         8.4 0.25            164           12.4 159 
 BRR  HZ EP        352 17.98                             153    0.0910 70.6 310 
 BRR  HN ES        352 34.45                             153   -0.2110 70.6 310 
 BRR  HZ I         352 36.35         5.2 0.34            155           70.6 310 
 RUS  HZ EP        352 19.95                             147    0.1710 90.3 170 
 RUS  HN ES        352 38.16                             147    0.1310 90.3 170 
 RUS  HZ I         352 39.65         1.1 0.30            147           90.3 170 
 PTB  HZ EP   2    352 22.94                             135    0.18 5  138 263 
 PTB  HN ES   2    352 43.23                             135   -0.09 5  138 263 
 SML  HZ EP        352 33.60                             117   -0.38 8  251 338 
 SML  HN ES        353  3.75                             117    0.45 8  251 338 
 SML  HZ I         353 10.58         2.7 0.08            116            251 338 
                                                                                
