 2013  830 0019 38.2 L   6.764 -73.176145.8  RSN  7 0.4 1.6LRSN                1
 GAP=134        0.93       4.7     4.5  6.5 -0.4086E+01  0.4900E+01  0.3579E+01E
 Epicentro: LOS SANTOS - SANTANDER                                             3
 ACTION:UPD 14-01-14 09:08 OP:ep   STATUS:               ID:20130830001938 L   I
 OLDACT:REG 13-08-30 07:52 OP:jn   STATUS:               ID:20130830001853     3
 2013-08-30-0018-53M.COL___211                                                 6
 STAT SP IPHASW D HRMM SECON CODA AMPLIT PERI AZIMU VELO AIN AR TRES W  DIS CAZ7
 BAR2 SZ EP        019 57.86                             172    0.0610 19.0 182 
 BAR2 SZ ES        020 13.17                             172    0.1210 19.0 182 
 BAR2 SZ I         020 14.25         9.6 0.48            165           19.0 182 
 BRR  HZ EP        019 59.64                             153    0.2910 70.3 303 
 BRR  HN ES        020 16.41                             153    0.6010 70.3 303 
 BRR  HZ I         020 20.44        10.9 0.60            147           70.3 303 
 PAM  SZ EP        020  0.79                             149    0.0110 82.6  40 
 PAM  SN ES        020 17.93                             149   -0.4310 82.6  40 
 PAM  SZ I         020 20.12         4.2 0.50            145           82.6  40 
 RUS  HZ EP        020  1.84                             145    0.1010 96.9 174 
 RUS  HN ES        020 19.95                             145   -0.1110 96.9 174 
 RUS  HZ I         020 22.66         3.5 0.26            134           96.9 174 
 PTB  HZ EP        020  4.39                             133   -0.46 9  144 260 
 PTB  HN ES        020 24.94                             133   -0.66 9  144 260 
 PTB  HZ I         020 27.44         5.6 0.40            123            144 260 
 SPBC HZ EP   1    020  6.76                             130    0.51 7  158 219 
 SPBC HZ I         020 35.89         5.6 0.20            120            158 219 
 NOR  HN ES   1    020 41.15                             119    0.27 6  230 235 
                                                                                
