 2016  830 0951 27.5 L   7.452 -73.171127.1  RSN 14 0.4 2.1LRSN                1
 GAP= 81        0.99       3.0     2.9  4.8 -0.2470E+01  0.2475E+01  0.9628E+00E
 Epicentro: EL PLAYON - SANTANDER                                              3
 ACTION:UPD 16-10-29 15:40 OP:rebc STATUS:               ID:20160830095127 L   I
 OLDACT:UP  16-08-30 18:29 OP:edw  STATUS:               ID:20160830094734     3
 OLDACT:UP  16-08-30 18:28 OP:edw  STATUS:               ID:20160830094734     3
 OLDACT:REG 16-08-30 13:03 OP:edw  STATUS:               ID:20160830094734     3
 2016-08-30-0948-00M.COL___346                                                 6
 STAT SP IPHASW D HRMM SECON CODA AMPLIT PERI AZIMU VELO AIN AR TRES W  DIS CAZ7
 PAM  EZ EP        951 46.69                             156    0.3610 53.5 103 
 PAM  EN ES        952  1.68                             156    0.6310 53.5 103 
 PAM  EZ I         952  2.80        21.8 0.18                          53.5 103 
 BRR  HZ IP     C  951 46.44                             149   -0.1610 70.9 237 
 BRR  HN ES        952  1.70                             149    0.1610 70.9 237 
 BRR  HZ I         952  5.68        22.3 0.46                          70.9 237 
 OCA  HZ EP        951 48.19                             143    0.1610 88.5 349 
 OCA  HN ES        952  3.76                             143   -0.3210 88.5 349 
 OCA  HZ I         952  6.92        58.8 0.20                          88.5 349 
 BAR2 EZ IP     C  951 48.31                             141   -0.3310 95.1 181 
 BAR2 EZ ES        952  5.01                             141   -0.1510 95.1 181 
 BAR2 EZ I         952  5.90        23.0 0.12                          95.1 181 
 RUS  HZ EP        951 55.91                             123   -0.18 9  173 177 
 RUS  HE ES        952 17.81                             123   -0.62 9  173 177 
 RUS  HZ I         952 21.02         4.6 0.33                           173 177 
 PTB  HZ EP   9    951 54.93                             122   -0.69 0  174 235 
 PTB  HN ES        952 16.73                             122   -0.17 9  174 235 
 PTB  HZ I         952 20.29         9.5 0.18                           174 235 
 ZAR  HZ IP     C  951 56.63                             121   -0.24 9  186 271 
 ZAR  HN ES        952 19.73                             121   -0.08 9  186 271 
 ZAR  HZ I         952 22.57        14.9 0.22                           186 271 
 SPBC HZ EP        952  0.84                             116   -0.04 8  223 207 
 SPBC HN ES        952 27.52                             116    0.56 8  223 207 
 SPBC HZ I         952 34.41        13.7 0.21                           223 207 
 URE  HZ EP        952  4.94                             111   -0.34 8  263 277 
 URE  HE ES   4    952 33.27                             111   -1.51 0  263 277 
 URE  HZ I         952 39.22         7.3 0.14                           263 277 
 SOCV BZ EP        952  6.62                             111    0.35 8  271  70 
 SOCV BN ES        952 36.03                             111   -0.51 8  271  70 
 NOR  HZ EP        952  7.16                             110   -0.24 7  281 222 
 NOR  HN ES        952 38.22                             110   -0.33 7  281 222 
 NOR  HZ I         952 42.96         8.3 0.36                           281 222 
 HEL  HZ EP        952 11.01                             109    1.52 7  296 242 
 HEL  HN ES        952 41.82                             109   -0.45 7  296 242 
 HEL  HZ I         952 49.81         5.4 0.48                           296 242 
 GUY2CHZ EP   4    952 17.63                             106    2.15 0  346 225 
 GUY2CHN ES        952 53.30                             106    0.37 6  346 225 
 GUY2CHZ I         953  0.86         4.8 0.32                           346 225 
 ELA  HZ EP        952 19.59                             104    0.24 6  378 221 
 ELA  HE ES        952 59.80                             104   -0.03 6  378 221 
 ELA  HZ I         953  9.56         5.0 0.32                           378 221 
 ANIL HN ES   4    953 10.95                             102    4.86 0  410 217 
                                                                                
