 2017  830 0825  5.9 L   6.813 -73.101142.0  RSN 10 0.4 2.0LRSN                1
 GAP=243        0.92       3.9     4.7  5.4  0.5742E+01  0.1052E+02  0.6364E+01E
 Epicentro: LOS SANTOS - SANTANDER                                             3
 ACTION:UPD 17-09-04 20:26 OP:rebc STATUS:               ID:20170830082505 L   I
 OLDACT:REG 17-08-30 12:54 OP:dani STATUS:               ID:20170830081737     3
 2017-08-30-0818-00M.COL___384                                                 6
 STAT SP IPHASW D HRMM SECON CODA AMPLIT PERI AZIMU VELO AIN AR TRES W  DIS CAZ7
 BAR2 EZ EP     C  825 25.09                             169   -0.0310 26.0 200 
 BAR2 EZ ES        825 39.98                             169   -0.1510 26.0 200 
 BAR2 EZ I         825 41.53        31.8 0.18            164           26.0 200 
 BRR  HZ EP     C  825 26.90                             151    0.0510 74.9 296 
 BRR  HN ES        825 43.79                             151    0.5910 74.9 296 
 BRR  HZ I         825 44.65        18.6 0.12            148           74.9 296 
 RUS  HZ EP        825 29.17                             143   -0.1910  102 179 
 RUS  HN ES        825 47.62                             143   -0.0410  102 179 
 RUS  HZ I         825 49.57         5.5 0.30            142            102 179 
 ZAR  HZ EP        825 38.63                             121    0.12 8  208 291 
 ZAR  HE ES        826  3.31                             121   -0.65 8  208 291 
 ZAR  HZ I         826  9.27        11.6 0.16            121            208 291 
 NOR  HZ EP     C  825 41.50                             117   -0.42 8  240 235 
 NOR  HN ES        826  9.47                             117   -0.56 8  240 235 
 NOR  HZ I         826 14.29        10.5 0.46            117            240 235 
 CHI  HZ EP        825 43.47                             116   -0.20 8  251 196 
 CHI  HN ES        826 13.28                             116    0.13 8  251 196 
 CHI  HZ I         826 19.78         6.8 0.47            116            251 196 
 HEL  HZ EP        825 47.06                             114    0.58 7  277 256 
 HEL  HN ES        826 17.64                             114   -0.51 7  277 256 
 HEL  HZ I         826 24.54         5.9 0.59            114            277 256 
 GUY2CHZ EP        825 50.62                             111    0.75 7  306 235 
 GUY2CHE ES        826 25.03                             111    0.85 7  306 235 
 GUY2CHZ I         826 31.67         5.8 0.54                           306 235 
 PRA  HZ EP        825 59.37                             106   -0.34 6  396 210 
 PRA  HN ES        826 41.96                             106    0.27 6  396 210 
 PRA  HZ I         826 47.41         6.5 0.33            106            396 210 
 PAL  HZ EP        826  1.54                             105    0.03 6  411 239 
                                                                                
