 2015  430 0424 58.8 L   6.827 -73.161140.7  RSN  5 0.4 1.5LRSN                1
 GAP=133        1.01       4.8     5.0  8.2 -0.6182E+01  0.3375E+01  0.8420E+01E
 Epicentro: LOS SANTOS - SANTANDER                                             3
 ACTION:UPD 15-06-03 16:58 OP:cam  STATUS:               ID:20150430042458 L   I
 OLDACT:DUP 15-04-30 18:53 OP:drio STATUS:               ID:20150430041736d    3
 2015-04-30-0417-35M.COL___277                                                 6
 STAT SP IPHASW D HRMM SECON CODA AMPLIT PERI AZIMU VELO AIN AR TRES W  DIS CAZ7
 BRR  HZ IP     D  425 19.68                             153    0.4410 68.3 297 
 BRR  HN ES        425 35.67                             153    0.4910 68.3 297 
 BRR  HZ I         425 36.28         5.2 0.62            153           68.3 297 
 PAM  SZ IP     D  425 20.74                             150    0.3410 76.2  42 
 PAM  SZ I         425 20.92         6.0 0.20            152           76.2  42 
 PAM  SN ES        425 36.67                             150   -0.5810 76.2  42 
 RUS  HZ EP        425 22.05                             142   -0.2310  104 175 
 RUS  HN ES        425 40.79                             142    0.1910  104 175 
 RUS  HZ I         425 41.65         3.1 0.32            142            104 175 
 PTB  HZ EP        425 25.04                             131   -0.22 9  147 258 
 PTB  HN ES        425 45.27                             131   -0.63 9  147 258 
 PTB  HZ I         425 47.64         4.7 0.16            131            147 258 
 SPBC HZ EP        425 26.97                             128   -0.07 9  164 218 
 SPBC HE ES        425 49.24                             128    0.18 9  164 218 
 SPBC HZ I         425 51.31         4.5 0.10            128            164 218 
                                                                                
