 2016  930 0116  4.1 L   6.674 -73.250147.9  RSN  7 0.2 1.3LRSN                1
 GAP=187        0.51       4.2     6.0  4.6  0.1538E+02  0.1463E+02  0.7345E+01E
 Epicentro: BARICHARA - SANTANDER                                              3
 ACTION:UPD 17-08-17 21:17 OP:lp   STATUS:               ID:20160930011604 L   I
 OLDACT:UP  16-09-30 14:06 OP:edw  STATUS:               ID:20160930010741d    3
 OLDACT:UP  16-09-30 14:05 OP:edw  STATUS:               ID:20160930010741d    3
 OLDACT:UP  16-09-30 14:04 OP:edw  STATUS:               ID:20160930010741d    3
 OLDACT:UP  16-09-30 14:03 OP:edw  STATUS:               ID:20160930010741d    3
 OLDACT:UP  16-09-30 14:03 OP:edw  STATUS:               ID:20160930010741d    3
 OLDACT:UP  16-09-30 14:02 OP:edw  STATUS:               ID:20160930010741d    3
 OLDACT:DUP 16-09-30 13:34 OP:edw  STATUS:               ID:20160930010741d    3
 OLDACT:UP  16-09-30 13:33 OP:edw  STATUS:               ID:20160930010740     3
 OLDACT:UP  16-09-30 13:32 OP:edw  STATUS:               ID:20160930010740     3
 OLDACT:REG 16-09-30 11:45 OP:edw  STATUS:               ID:20160930010740     3
 2016-09-30-0108-00M.COL___375                                                 6
 STAT SP IPHASW D HRMM SECON CODA AMPLIT PERI AZIMU VELO AIN AR TRES W  DIS CAZ7
 BAR2 EZ ES        116 39.22                             175    0.0810 11.7 140 
 BRR  HZ EP        116 25.05                             153   -0.3210 70.0 313 
 BRR  HN ES        116 42.09                             153    0.1010 70.0 313 
 RUS  HZ EP        116 27.44                             148    0.2610 88.3 168 
 RUS  HN ES        116 45.02                             148   -0.2010 88.3 168 
 RUS  HZ I         116 47.14         2.4 0.26            146           88.3 168 
 PAM  EZ EP   4    116 26.24                             146   -1.42 0 95.5  40 
 PAM  EE ES   4    116 48.56                             146    2.50 0 95.5  40 
 PAM  EZ I         116 52.15         3.9 0.34            142           95.5  40 
 PTB  HZ EP        116 30.10                             135    0.1010  134 264 
 PTB  HN ES   4    116 52.40                             135    2.15 0  134 264 
 PTB  HZ I         116 52.71         1.7 0.30            135            134 264 
 ZAR  HN ES   4    117  1.73                             123    0.53 0  199 297 
 GUY2CHZ EP   2    116 45.76                             114   -0.05 4  284 236 
 GUY2CHN ES   2    117 18.36                             114   -0.01 4  284 236 
 GUY2CHZ I         117 29.26         1.2 0.36                           284 236 
 LL5C HZ EP   4    116 50.96                             109   -1.07 0  344 351 
 LL5C HN ES   4    117 20.22                             109   -9.22 0  344 351 
 PRA  HZ EP   4    116 57.27                             108    1.70 0  374 209 
 PRA  HE ES   4    117 39.00                             108    3.25 0  374 209 
 PRA  HZ I         117 45.45         1.8 0.52            106            374 209 
                                                                                
