 2015 1130 0526 33.1 L   6.839 -73.166143.2  RSN 17 0.4 2.1LRSN                1
 GAP=132        0.99       2.5     3.7  4.7 -0.2142E+01  0.6213E+01  0.3944E+00E
 Epicentro: LOS SANTOS - SANTANDER                                             3
 ACTION:UPD 15-12-28 16:14 OP:cam  STATUS:               ID:20151130052633 L   I
 OLDACT:REG 15-11-30 14:04 OP:drio STATUS:               ID:20151130051746     3
 2015-11-30-0517-46M.COL___289                                                 6
 STAT SP IPHASW D HRMM SECON CODA AMPLIT PERI AZIMU VELO AIN AR TRES W  DIS CAZ7
 BAR2 EZ EP     D  526 52.48                             169   -0.0010 27.4 184 
 BAR2 EZ ES        527  7.37                             169   -0.2510 27.4 184 
 BAR2 EZ I         527  8.79        40.1 0.12            167           27.4 184 
 BRR  HZ EP     D  526 54.31                             153    0.5910 67.2 296 
 BRR  HN ES        527 10.26                             153    0.4410 67.2 296 
 BRR  HZ I         527 12.23        18.9 0.14            149           67.2 296 
 PAM  EZ EP        526 55.45                             151    0.5510 75.6  43 
 PAM  EN ES        527 12.09                             151    0.1610 75.6  43 
 PAM  EZ I         527 14.55        29.5 0.50            156           75.6  43 
 RUS  HZ EP        526 56.53                             142   -0.3810  105 175 
 RUS  HN ES        527 15.27                             142   -0.2210  105 175 
 PTB  HZ EP        526 59.11                             132   -0.61 9  146 257 
 PTB  HN ES        527 20.33                             132   -0.17 9  146 257 
 PTB  HZ I         527 27.38        17.5 0.56            130            146 257 
 OCA  HZ EP        527  0.37                             130   -0.38 9  156 354 
 OCA  HN ES        527 22.37                             130    0.03 9  156 354 
 OCA  HZ I         527 26.32        25.1 0.24            131            156 354 
 SPBC HZ EP        527  1.19                             128   -0.38 9  165 217 
 SPBC HN ES        527 23.39                             128   -0.41 9  165 217 
 ZAR  HZ EP        527  5.07                             122    0.10 9  200 291 
 ZAR  HE ES        527 30.26                             122    0.41 9  200 291 
 ZAR  HZ I         527 36.54        11.5 0.32            122            200 291 
 NOR  HZ EP        527  8.78                             118    0.04 8  235 233 
 NOR  HN ES        527 36.09                             118   -0.46 8  235 233 
 NOR  HZ I         527 41.36        11.4 0.26            118            235 233 
 SML  HZ EP        527  8.59                             117   -0.43 8  239 335 
 SML  HN ES        527 36.63                             117   -0.43 8  239 335 
 ROSC BZ EP        527 12.07                             116    0.73 8  255 210 
 ROSC BN ES        527 41.83                             116    0.64 8  255 210 
 ROSC BZ I         527 46.25        17.8 0.40            117            255 210 
 HEL  HZ EP   4    527 14.39                             114    1.35 0  271 255 
 HEL  HE ES   4    527 43.15                             114   -1.06 0  271 255 
 HEL  HZ I         527 52.79         7.6 0.28            115            271 255 
 URE  HZ EP        527 13.10                             113   -0.51 7  280 291 
 URE  HN ES   4    527 42.95                             113   -2.27 0  280 291 
 GUY2CHZ EP        527 17.22                             112    0.57 7  302 234 
 GUY2CHN ES        527 50.24                             112   -0.39 7  302 234 
 GUY2CHZ I         528  0.00         6.5 0.32                           302 234 
 CBOC HZ EP        527 20.55                             109    0.75 7  333 251 
 CBOC HE ES   4    527 54.58                             109   -1.66 0  333 251 
 CBOC HZ I         528  6.41         1.8 0.42            110            333 251 
 ORTC HZ EP        527 26.76                             106   -0.41 6  398 216 
 ORTC HN ES        528 10.14                             106    0.78 6  398 216 
 ORTC HZ I         528 17.17         4.2 0.42            107            398 216 
 SJC  HZ EP   4    527 26.61                             105   -1.37 0  404 327 
 SJC  HN ES   4    528  6.37                             105   -4.43 0  404 327 
 PAL  HZ EP        527 28.05                             105   -0.14 6  406 238 
 PAL  HE ES        528 11.59                             105    0.41 6  406 238 
 PAL  HZ I         528 15.08         2.6 0.28            106            406 238 
                                                                                
