 2015  830 0255 45.7 L   6.387 -73.478114.4  RSN 13 0.5 1.6LRSN                1
 GAP= 86        1.17       2.6     4.2  6.6 -0.1637E+01  0.1379E+02  0.1107E+01E
 Epicentro: CONTRATACION - SANTANDER                                           3
 ACTION:UPD 15-09-15 23:06 OP:cam  STATUS:               ID:20150830025545 L   I
 OLDACT:REG 15-08-30 12:09 OP:ak   STATUS:               ID:20150830024749     3
 2015-08-30-0247-49M.COL___358                                                 6
 STAT SP IPHASW D HRMM SECON CODA AMPLIT PERI AZIMU VELO AIN AR TRES W  DIS CAZ7
 BAR2 EZ EP        256  2.45                             160    0.3610 39.8  55 
 BAR2 EZ ES        256 15.48                             160    0.5610 39.8  55 
 BAR2 EZ I         256 16.51        17.0 0.21            165           39.8  55 
 RUS  HZ EP        256  3.30                             147   -0.8310 70.0 141 
 RUS  HN ES        256 17.83                             147   -0.7210 70.0 141 
 RUS  HZ I         256 19.49         6.3 0.20            152           70.0 141 
 BRR  HZ EP        256  4.31                             141   -0.1210 83.7 342 
 BRR  HN ES        256 19.41                             141    0.3410 83.7 342 
 BRR  HZ I         256 25.86         8.0 0.16            144           83.7 342 
 NOR  HZ EP        256 14.04                             118    0.46 9  179 239 
 NOR  HN ES        256 35.28                             118   -0.08 9  179 239 
 NOR  HZ I         256 38.48         4.4 0.14            120            179 239 
 ZAR  HZ EP        256 14.58                             116   -0.74 9  195 309 
 ZAR  HN ES        256 38.46                             116   -0.00 9  195 309 
 ZAR  HZ I         256 43.78        10.4 0.46            118            195 309 
 CHI  HZ EP        256 15.93                             116   -0.01 9  196 188 
 CHI  HN ES        256 39.85                             116    0.29 9  196 188 
 CHI  HZ I         256 42.15         1.9 0.25            119            196 188 
 OCA  HZ EP        256 17.57                             114    0.94 8  206   5 
 OCA  HN ES        256 40.72                             114   -0.06 8  206   5 
 HEL  HZ EP        256 19.63                             112    0.22 8  228 265 
 HEL  HN ES        256 45.40                             112   -0.34 8  228 265 
 HEL  HZ I         256 47.35         2.3 0.34            114            228 265 
 GUY2CHZ EP        256 22.17                             110    0.64 8  245 238 
 GUY2CHN ES        256 48.81                             110   -0.70 8  245 238 
 GUY2CHZ I         256 56.72         2.6 0.42                           245 238 
 SML  HZ EP        256 24.00                             107   -0.34 8  275 346 
 SML  HN ES        256 54.00                             107   -0.51 8  275 346 
 TOL  SN ES        256 57.61                             107    0.20 7  285 226 
 TOL  SZ I         257  2.26         2.7 0.26            109            285 226 
 PRA  HZ EP        256 30.74                             103   -0.64 7  334 208 
 PRA  HE ES        257  7.81                             103    0.76 7  334 208 
 PRA  HZ I         257 14.59         2.8 0.30            106            334 208 
 ORTC HZ EP        256 31.75                             103    0.06 7  337 216 
 ORTC HN ES        257  8.13                             103    0.53 7  337 216 
 ORTC HZ I         257 12.58         2.1 0.22            106            337 216 
                                                                                
