 2014  930 0705  9.1 L   6.697 -73.160151.3  RSN  4 0.2 1.1LRSN                1
 GAP=215        0.49       4.5     5.4  6.3 -0.5667E+01 -0.1110E+02  0.5651E+01E
 Epicentro: VILLANUEVA - SANTANDER                                             3
 ACTION:UPD 14-10-03 23:10 OP:nd   STATUS:               ID:20140930070509 L   I
 OLDACT:DUP 14-09-30 18:07 OP:mh   STATUS:               ID:20140930065814d    3
 OLDACT:REG 14-09-30 12:46 OP:stll STATUS:               ID:20140930065813     3
 2014-09-30-0658-13M.COL___286                                                 6
 STAT SP IPHASW D HRMM SECON CODA AMPLIT PERI AZIMU VELO AIN AR TRES W  DIS CAZ7
 BAR2 SZ EP   1    7 5 29.22                             175    0.03 7 11.8 192 
 BAR2 SZ I         7 5 45.91         3.5 0.17            156           11.8 192 
 BRR  HZ EP        7 5 30.84                             152   -0.2510 76.0 307 
 BRR  HN ES        7 5 48.38                             152    0.1210 76.0 307 
 BRR  HZ I         7 5 59.06         2.7 0.61            172           76.0 307 
 PTB  HZ EP        7 5 36.45                             134    0.25 9  144 263 
 PTB  HN ES        7 5 57.22                             134   -0.14 9  144 263 
 PTB  HZ I         7 5 58.35         1.1 0.14            155            144 263 
 SML  HE ES   1    7 6 16.72                             117    0.02 6  253 337 
                                                                                
