 2014  130 0841 59.5 L   6.783 -73.169141.6  RSN  7 0.4 1.4LRSN                1
 GAP=134        1.07       4.3     5.8  6.9 -0.8864E+01  0.1173E+02 -0.1870E+01E
 Epicentro: LOS SANTOS - SANTANDER                                             3
 ACTION:UPD 14-03-13 09:59 OP:ep   STATUS:               ID:20140130084159 L   I
 OLDACT:DUP 14-01-30 12:46 OP:stll STATUS:               ID:20140130083818d    3
 OLDACT:REG 14-01-30 08:21 OP:stll STATUS:               ID:20140130083817     3
 2014-01-30-0838-17M.COL___227                                                 6
 STAT SP IPHASW D HRMM SECON CODA AMPLIT PERI AZIMU VELO AIN AR TRES W  DIS CAZ7
 BAR2 SZ EP        842 18.76                             171    0.1210 21.2 184 
 BAR2 SZ ES        842 33.66                             171    0.1410 21.2 184 
 BAR2 SZ I         842 36.63         9.4 0.40            172           21.2 184 
 PAM  SZ EP        842 21.83                             149    0.3210 80.5  40 
 PAM  SZ I         842 22.09         4.6 0.24            142           80.5  40 
 PAM  SN ES        842 38.16                             149   -0.4910 80.5  40 
 RUS  HZ EP        842 23.01                             143    0.2410 98.9 174 
 RUS  HN ES        842 41.07                             143    0.1810 98.9 174 
 RUS  HZ I         842 42.45         2.6 0.22            147           98.9 174 
 PTB  HN EP        842 26.44                             132    0.53 9  145 259 
 PTB  HN ES        842 46.03                             132   -0.44 9  145 259 
 SPBC HZ EP        842 27.49                             129    0.06 9  160 219 
 SPBC HN ES        842 49.68                             129    0.49 9  160 219 
 SPBC HZ I         842 52.30         4.4 0.26            126            160 219 
 SML  HZ EP        842 35.66                             116   -0.35 8  244 336 
 SML  HZ I         843  8.36         3.7 0.22            110            244 336 
 CHI  HZ EP        842 36.61                             116   -0.14 8  246 195 
 CHI  HZ I         842 37.65         0.9 0.50            115            246 195 
 CHI  HN ES        843  4.59                             116   -1.17 8  246 195 
                                                                                
