 2014  630 0847 46.7 L   6.796 -73.162141.9  RSN  5 0.5 1.3LRSN                1
 GAP=135        1.27       5.5     7.8 11.7 -0.5807E+01  0.3569E+02 -0.1130E+01E
 Epicentro: LOS SANTOS - SANTANDER                                             3
 ACTION:UPD 14-07-01 22:58 OP:nd   STATUS:               ID:20140630084746 L   I
 OLDACT:DUP 14-06-30 18:16 OP:stll STATUS:               ID:20140630083810d    3
 2014-06-30-0838-09M.COL___244                                                 6
 STAT SP IPHASW D HRMM SECON CODA AMPLIT PERI AZIMU VELO AIN AR TRES W  DIS CAZ7
 BAR2 SZ EP        848  5.59                             170   -0.2310 22.7 186 
 BAR2 SZ ES        848 20.26                             170   -0.5010 22.7 186 
 BAR2 SZ I         848 22.12         4.7 0.32            169           22.7 186 
 PAM  SN ES        848 25.28                             150   -0.3610 78.8  40 
 RUS  HZ EP        848  9.78                             143   -0.2310  100 175 
 RUS  HN ES        848 29.16                             143    0.9310  100 175 
 RUS  HZ I         848 31.22         2.5 0.28            144            100 175 
 PTB  HZ EP        848 12.94                             131   -0.21 9  146 259 
 PTB  HN ES        848 33.75                             131   -0.06 9  146 259 
 PTB  HZ I         848 36.53         3.0 0.52            132            146 259 
 OCA  HN ES        848 37.32                             129    0.75 9  160 354 
                                                                                
