 2010  130 0924 29.3 L   6.827 -72.962144.8  RSN  9 0.6 2.3LRSN                1
 GAP=202        1.34       5.1    13.3  9.3 -0.2609E+02  0.4241E+02  0.2341E+01E
 Epicentro: CEPITA - SANTANDER                                                 3
 ACTION:UP  10-08-24 09:46 OP:vdl  STATUS:               ID:20100130092429 L   I
 2010-01-30-0922-21S.COL___094                                                 6
 STAT SP IPHASW D HRMM SECON CODA AMPLIT PERI AZIMU VELO SNR AR TRES W  DIS CAZ7
 BAR2 SZ EP        924 49.08                             165     0.010   36 223 
 BAR2 SZ ES   1    925  3.42                             165    -1.2 7   36 223 
 GIR2 SZ EP        924 50.02                             165     1.010   38 317 
 GIR2 SZ ES   1    925  5.02                             165     0.6 7   38 317 
 RUS  BZ EP        924 53.50                             142     0.310  104 187 
 RUS  BZ I         924 54.37        18.5 0.21                           104 187 
 RUS  BE ES        925 11.83                             142     0.010  104 187 
 OCA  SZ EP        924 57.42                             129    -0.2 9  161 346 
 OCA  SZ ES   1    925 18.86                             129    -0.8 7  161 346 
 CHI  HZ EP        925  7.64                             116    -0.3 8  258 199 
 CHI  HN ES        925 37.86                             116    -0.2 8  258 199 
 CHI  HZ I         925 40.89         7.8 0.58                           258 199 
 ROSC BZ EP   1    925  7.97                             115    -0.9 6  266 214 
 ROSC BN ES        925 40.15                             115     0.5 8  266 214 
 ROSC BZ I         925 44.52        16.5 0.18                           266 214 
 RREF BZ EP        925 17.11                             109    -0.3 7  339 231 
 RREF BN ES        925 55.46                             109     0.5 7  339 231 
 RREF BZ I         926  0.93         9.9 0.29                           339 231 
 TOL  SZ EP   1    925 19.49                             108     0.1 5  360 227 
 PRA  HN ES   1    926  6.18                             106    -1.0 4  405 212 
                                                                                
