 2011 1230 0451 56.2 L   6.780 -73.076148.2  RSN  9 0.3 2.5LRSN                1
 GAP=147        0.60       2.4     4.1  4.2 -0.2605E+01  0.5893E+01  0.1358E+01E
 Epicentro: LOS SANTOS - SANTANDER                                             3
 ACTION:UPD 12-07-13 16:19 OP:ep   STATUS:               ID:20111230045145 L   I
 2011-12-30-0450-00M.COL___186                                                 6
 STAT SP IPHASW D HRMM SECON CODA AMPLIT PERI AZIMU VELO AIN AR TRES W  DIS CAZ7
 BAR2 SZ IP        452 16.06                             170   -0.1110 23.9 209 
 BAR2 SZ ES   1    452 31.11                             170   -0.61 7 23.9 209 
 BAR2 SZ I         452 33.98        75.0 0.28                          23.9 209 
 PAM  SZ EP   1    452 18.87                             152    0.33 7 74.5  34 
 PAM  SE ES   1    452 36.03                             152    0.08 7 74.5  34 
 PAM  SZ I         452 38.08        16.4 0.25                          74.5  34 
 BRR  HZ EP        452 17.93                             150   -0.1710 79.0 297 
 BRR  HE ES   1    452 35.39                             150    0.23 7 79.0 297 
 BRR  HZ I         452 39.04        69.5 0.14                          79.0 297 
 RUS  HZ EP        452 19.97                             145   -0.0810 98.1 180 
 RUS  HN ES   1    452 39.08                             145    0.45 7 98.1 180 
 OCA  SZ EP        452 24.95                             130   -0.09 9  164 351 
 OCA  SZ ES   1    452 47.78                             130    0.27 7  164 351 
 NOR  SZ EP        452 32.22                             118   -0.42 8  240 236 
 NOR  SE ES   1    453  1.09                             118    0.04 6  240 236 
 CHI  HZ EP        452 34.20                             118    0.13 8  249 197 
 CHI  HN ES   1    453  3.46                             118   -0.12 6  249 197 
 CHI  HZ I         453 13.28        14.9 0.28                           249 197 
 HEL  HZ EP        452 37.23                             115   -0.11 7  279 257 
 HEL  HZ I         453 15.16        31.5 0.33                           279 257 
 RREF HZ EP        452 43.31                             111    0.32 7  326 231 
 RREF HE ES   1    453 20.05                             111    0.59 5  326 231 
 RREF HZ I         453 29.14        23.5 0.51                           326 231 
                                                                                
