 2015  730 0757 59.9 L   6.842 -73.188128.1  RSN 10 0.5 2.4LRSN                1
 GAP=179        1.07       4.0     6.5  8.3 -0.8092E+01  0.3354E+02 -0.7780E+01E
 Epicentro: ZAPATOCA - SANTANDER                                               3
 ACTION:UPD 15-09-08 21:51 OP:cam  STATUS:               ID:20150730075759 L   I
 OLDACT:UP  15-08-01 06:28 OP:AK   STATUS:               ID:20150730075759 L   3
 OLDACT:REG 15-07-30 12:15 OP:stll STATUS:               ID:20150730074736     3
 2015-07-30-0747-36M.COL___307                                                 6
 STAT SP IPHASW D HRMM SECON CODA AMPLIT PERI AZIMU VELO AIN AR TRES W  DIS CAZ7
 BAR2 EZ EP        758 17.86                             167    0.3510 27.6 179 
 BAR2 EZ ES        758 31.40                             167    0.1510 27.6 179 
 BAR2 EZ I         758 33.53        77.8 0.28            165           27.6 179 
 BRR  HZ IP     C  758 19.76                             151    0.9810 64.9 297 
 BRR  HZ I         758 20.00        67.4 0.26            143           64.9 297 
 BRR  HE ES   4    758 35.57                             151    2.06 0 64.9 297 
 RUS  HZ EP        758 21.84                             138   -0.5110  106 174 
 RUS  HN ES        758 39.58                             138   -0.2910  106 174 
 OCA  HZ EP        758 26.22                             126   -0.17 9  155 355 
 OCA  HE ES        758 46.54                             126   -0.51 9  155 355 
 OCA  HZ I         758 51.13        85.0 0.40            121            155 355 
 NOR  HZ EP        758 34.69                             115    0.14 8  234 233 
 NOR  HN ES        759  1.54                             115   -0.04 8  234 233 
 NOR  HZ I         759  3.67        15.6 0.18            110            234 233 
 HEL  HZ EP   1    758 39.35                             111    0.46 6  269 255 
 HEL  HE ES        759  8.98                             111   -0.33 8  269 255 
 HEL  HZ I         759 19.01         8.5 0.52            107            269 255 
 GUY2CHZ EP        758 42.76                             109    0.14 7  300 234 
 GUY2CHE ES        759 15.60                             109   -0.36 7  300 234 
 GUY2CHZ I         759 23.23        11.7 0.26                           300 234 
 CBOC HZ EP        758 46.43                             107    0.64 7  331 251 
 CBOC HZ I         759 26.75         4.7 0.28            103            331 251 
 DBB  SZ EP        758 45.44                             106   -0.69 7  335 274 
 SJC  HZ EP   4    758 52.44                             103   -1.72 0  403 327 
 SJC  HN ES   4    759 32.41                             103   -4.08 0  403 327 
 SJC  HZ I         759 38.12         5.5 0.58             99            403 327 
                                                                                
