 2011  630 0249 11.4 L   6.767 -73.127144.0  RSN  8 0.3 1.8LRSN                1
 GAP=158        0.72       3.4     4.3  5.2 -0.5550E+01  0.1244E+01  0.1313E+01E
 Epicentro: LOS SANTOS - SANTANDER                                             3
 ACTION:UP  11-07-14 19:09 OP:ep   STATUS:               ID:20110630024911 L   I
 2011-06-30-0240-00M.COL___124                                                 6
 STAT SP IPHASW D HRMM SECON CODA AMPLIT PERI AZIMU VELO SNR AR TRES W  DIS CAZ7
 BAR2 SZ ES   1    249 45.54                             172    -0.4 7   20 198 
 BAR2 SZ I         249 48.26        13.8 0.29                            20 198 
 BRR  HZ EP        249 32.59                             151     0.010   75 300 
 BRR  HN ES        249 49.61                             151     0.510   75 300 
 BRR  HZ I         249 50.71        16.7 0.13                            75 300 
 RUS  HZ EP        249 34.92                             145     0.210   97 177 
 RUS  HN ES   1    249 52.97                             145     0.1 7   97 177 
 RUS  HZ I         249 54.90         6.8 0.44                            97 177 
 BRI  SZ EP        249 35.36                             140     0.010  111  19 
 GRA  SZ EP        249 36.71                             136    -0.110  129  16 
 GRA  SZ ES   1    249 56.12                             136    -0.4 7  129  16 
 GRA  SZ I         249 57.69         5.6 0.33                           129  16 
 NOR  SZ EP   1    249 46.94                             118    -0.1 6  234 235 
 NOR  SE ES   1    250 14.15                             118    -0.6 6  234 235 
 HEL  HZ EP   1    249 51.84                             114     0.2 6  273 257 
 HEL  HN ES   1    250 22.64                             114    -0.4 6  273 257 
 HEL  HZ I         250 29.86         4.2 0.08                           273 257 
 PRA  HZ EP   1    250  4.90                             106     0.3 4  390 210 
 PRA  HE ES   2    250 46.73                             106     0.6 3  390 210 
                                                                                
