 2010 1130 0712 13.8 L   6.701 -73.060147.9  RSN  6 0.4 1.7LRSN                1
 GAP=191        0.63      11.2    12.0  9.3  0.6147E+02 -0.4284E+02 -0.1347E+02E
 Epicentro: ARATOCA - SANTANDER                                                3
 ACTION:UP  10-12-17 16:56 OP:REBC STATUS:               ID:20101130071213 L   I
 2010-11-30-0710-39S.COL___132                                                 6
 STAT SP IPHASW D HRMM SECON CODA AMPLIT PERI AZIMU VELO SNR AR TRES W  DIS CAZ7
 BAR2 SZ EP        712 33.88                             173     0.210   18 229 
 BAR2 SZ ES   2    712 48.88                             173    -0.2 5   18 229 
 BAR2 SZ I         712 50.66        11.9 0.24                            18 229 
 BTL  SZ EP        712 34.14                             168     0.210   33 316 
 BRR  HZ EP        712 35.86                             149    -0.210   85 302 
 BRR  HZ I         712 36.20        16.6 0.10                            85 302 
 BRR  HE ES   1    712 53.12                             149    -0.3 7   85 302 
 GUE  SZ EP   2    712 39.42                             138    -0.1 5  126   7 
 CHI  HZ EP   3    712 49.60                             118    -1.2 2  241 198 
 CHI  HZ I         713 24.13         1.4 0.65                           241 198 
 HEL  HZ EP   3    712 55.89                             115     1.0 2  279 258 
 HEL  HZ I         713 33.20         2.5 0.35                           279 258 
                                                                                
