 2010 1030 0957 36.2 L   6.801 -73.024142.9  RSN 13 0.7 2.2LRSN                1
 GAP=170        1.41       5.7     9.5  9.2 -0.2333E+02  0.1584E+02  0.1439E+01E
 Epicentro: CEPITA - SANTANDER                                                 3
 ACTION:UP  11-02-18 11:13 OP:tino STATUS:               ID:20101030095736 L   I
 2010-10-30-0954-26S.COL___127                                                 6
 STAT SP IPHASW D HRMM SECON CODA AMPLIT PERI AZIMU VELO SNR AR TRES W  DIS CAZ7
 BAR2 SZ EP        957 55.89                             168     0.310   29 217 
 BAR2 SZ ES   1    958 10.35                             168    -0.4 7   29 217 
 BAR2 SZ I         958 12.15        57.3 0.77                            29 217 
 BRR  HZ EP        957 57.83                             148     0.110   83 294 
 BRR  HZ I         957 58.17        50.8 0.08                            83 294 
 BRR  HN ES   1    958 14.99                             149     0.4 7   83 294 
 RUS  HZ EP        957 59.90                             143     0.310  101 184 
 RUS  HN ES   1    958 17.94                             143     0.0 7  101 184 
 BRI  SZ EP        957 59.90                             142     0.410  104  14 
 GUE  SZ EP        958  0.92                             139     0.510  114   6 
 GRA  SZ EP        958  0.92                             137     0.110  122  11 
 OCA  SZ EP        958  3.46                             129    -1.0 9  162 348 
 OCA  SZ ES   1    958 26.14                             129    -0.4 7  162 348 
 NOR  SZ EP        958 12.04                             118    -0.9 8  246 236 
 NOR  SN ES   1    958 40.45                             118    -1.2 6  246 236 
 NOR  SZ I         958 45.60         4.0 0.44                           246 236 
 ROSC BZ EP        958 14.50                             116    -0.4 8  260 214 
 HEL  HZ EP        958 17.95                             114     0.3 7  285 256 
 GUY  SZ EP        958 22.02                             112     1.1 7  312 236 
 GUY  SN ES   2    958 57.84                             113     2.0 3  312 236 
 TOL  SZ EP        958 25.84                             110     0.4 6  353 226 
 PRA  HZ EP        958 29.24                             108    -1.2 6  399 211 
                                                                                
