 2013  330 0244 58.7 L   6.751 -73.151158.7  RSN  5 0.1 1.4LRSN                1
 GAP=233        0.34       3.7     3.2  3.3  0.7620E+01  0.1096E+01  0.4443E+00E
 Epicentro: LOS SANTOS - SANTANDER                                             3
 ACTION:UPD 13-04-09 14:05 OP:ep   STATUS:               ID:20130330024458 L   I
 2013-03-30-0240-00M.COL___245                                                 6
 STAT SP IPHASW D HRMM SECON CODA AMPLIT PERI AZIMU VELO AIN AR TRES W  DIS CAZ7
 BAR2 SZ EP   1    245 19.74                             173   -0.05 7 17.9 191 
 BAR2 SZ ES   1    245 36.02                             173   -0.23 7 17.9 191 
 BAR2 SZ I         245 37.53         7.2 0.16            174           17.9 191 
 BRR  HZ EP   1    245 21.37                             154   -0.01 7 73.5 302 
 BRR  HN ES   1    245 39.26                             154    0.19 7 73.5 302 
 RUS  HZ EP        245 23.40                             148    0.0210 95.2 176 
 RUS  HN ES   1    245 42.80                             148    0.16 7 95.2 176 
 RUS  HZ I         245 43.37         1.0 0.36            150           95.2 176 
 PTB  HZ EP        245 26.60                             135   -0.02 9  146 261 
 PTB  HN ES   1    245 48.29                             135   -0.11 7  146 261 
 PTB  HZ I         245 49.61         3.2 0.12            135            146 261 
 ZAR  HN ES   1    245 58.32                             125    0.03 6  206 294 
 ZAR  HZ I         246  4.04         3.3 0.38            125            206 294 
                                                                                
