 2013  630 0658 23.9 L   7.039 -73.627107.8  RSN  5 0.2 1.0LRSN                1
 GAP=136        0.56       4.4     3.0  6.4  0.8605E+00  0.2514E+01  0.2133E+00E
 Epicentro: SAN VICENTE DE CHUCURI - SANTANDER                                 3
 ACTION:UPD 14-01-08 09:58 OP:ep   STATUS:               ID:20130630065823 L   I
 OLDACT:REG 13-06-30 07:45 OP:jn   STATUS:               ID:20130630064959     3
 2013-06-30-0649-59M.COL___267                                                 6
 STAT SP IPHASW D HRMM SECON CODA AMPLIT PERI AZIMU VELO AIN AR TRES W  DIS CAZ7
 BRR  HZ EP   1    658 38.81                             173    0.39 7 12.0 309 
 BRR  HN ES   1    658 49.81                             173    0.09 7 12.0 309 
 GIR2 SZ EP        658 39.57                             154   -0.3110 48.1  85 
 BAR2 SZ ES        658 54.99                             145    0.0310 69.7 135 
 BAR2 SZ I         658 55.94         5.1 0.24            142           69.7 135 
 PTB  HZ EP   1    658 44.37                             132    0.27 7  107 239 
 PTB  HN ES        658 59.66                             132   -0.1810  107 239 
 PTB  HZ I         659  2.82         2.1 0.16            129            107 239 
 RUS  HE ES   1    659  6.79                             124    0.08 7  140 155 
 RUS  HZ I         659  9.71         0.7 0.24            121            140 155 
                                                                                
