 2016  830 0415 58.8 L   5.965 -73.589127.1  RSN  4 0.4 0.9LRSN                1
 GAP=155        1.12       8.4     5.3  9.4  0.1364E-01  0.1696E+02  0.1052E+01E
 Epicentro: BARBOSA - SANTANDER                                                3
 ACTION:UPD 16-10-29 15:40 OP:rebc STATUS:               ID:20160830041558 L   I
 OLDACT:UP  16-08-30 15:21 OP:edw  STATUS:               ID:20160830040737d    3
 OLDACT:DUP 16-08-30 15:17 OP:edw  STATUS:               ID:20160830040737d    3
 OLDACT:UP  16-08-30 15:15 OP:edw  STATUS:               ID:20160830040736d    3
 OLDACT:UP  16-08-30 15:13 OP:edw  STATUS:               ID:20160830040736d    3
 OLDACT:DUP 16-08-30 15:10 OP:edw  STATUS:               ID:20160830040736d    3
 OLDACT:UP  16-08-30 15:09 OP:edw  STATUS:               ID:20160830040735     3
 OLDACT:REG 16-08-30 12:37 OP:edw  STATUS:               ID:20160830040735     3
 2016-08-30-0408-00M.COL___359                                                 6
 STAT SP IPHASW D HRMM SECON CODA AMPLIT PERI AZIMU VELO AIN AR TRES W  DIS CAZ7
 RUS  HZ EP        416 17.97                             155    0.1010 56.6  98 
 RUS  HN ES        416 33.09                             155    0.3710 56.6  98 
 RUS  HZ I         416 33.45         1.2 0.26                          56.6  98 
 SPBC HZ EP        416 16.76                             152   -0.9210 63.7 237 
 SPBC HN ES        416 32.16                             152   -0.2210 63.7 237 
 SPBC HZ I         416 32.55         2.6 0.28                          63.7 237 
 PTB  HZ EP        416 21.18                             135   -0.1610  115 304 
 PTB  HE ES        416 39.03                             135    0.1310  115 304 
 PTB  HZ I         416 41.04         1.2 0.11                           115 304 
 GUY2CHZ EP        416 32.30                             117    0.58 8  213 247 
 GUY2CHN ES        416 57.78                             117    0.41 8  213 247 
 GUY2CHZ I         417  4.05         0.7 0.44                           213 247 
                                                                                
