 2016 1130 0241 39.9 L   6.711 -73.140146.3  RSN  4 0.4 1.3LRSN                1
 GAP=165        0.87       9.0     6.2  7.1 -0.2257E+02  0.5026E+01  0.7811E+01E
 Epicentro: JORDAN - SANTANDER                                                 3
 ACTION:UPD 17-10-26 21:13 OP:lp   STATUS:               ID:20161130024139 L   I
 OLDACT:UP  16-11-30 16:12 OP:dani STATUS:               ID:20161130023745     3
 OLDACT:REG 16-11-30 12:39 OP:dani STATUS:               ID:20161130023745     3
 2016-11-30-0238-00M.COL___345                                                 6
 STAT SP IPHASW D HRMM SECON CODA AMPLIT PERI AZIMU VELO AIN AR TRES W  DIS CAZ7
 BAR2 EZ EP        241 59.66                             174    0.2210 14.0 200 
 BAR2 EZ ES        242 14.75                             174    0.0710 14.0 200 
 BAR2 EZ I         242 15.70         7.6 0.30            175           14.0 200 
 BRR  HZ EP        242  1.69                             151    0.2510 76.9 305 
 BRR  HN ES        242 18.65                             151    0.4210 76.9 305 
 BRR  HZ I         242 19.70         4.3 0.13            150           76.9 305 
 PAM  EZ EP        242  2.70                             149    0.0710 84.8  35 
 PAM  EN ES        242 19.83                             149   -0.5210 84.8  35 
 PAM  EZ I         242 21.69         3.7 0.65            150           84.8  35 
 PTB  HZ EP        242  6.46                             132   -0.37 9  147 263 
 PTB  HN ES   2    242 26.99                             132   -0.84 5  147 263 
 PTB  HZ I         242 29.40         1.7 0.14            133            147 263 
                                                                                
