 2017  730 0126 36.0 L   6.812 -73.146145.2  RSN  7 0.5 1.5LRSN                1
 GAP=136        1.30       5.5     5.5  8.3 -0.7308E+00  0.1177E+02  0.7639E+00E
 Epicentro: LOS SANTOS - SANTANDER                                             3
 ACTION:UPD 17-08-30 15:38 OP:rebc STATUS:               ID:20170730012636 L   I
 OLDACT:UP  17-07-30 15:33 OP:ar   STATUS:               ID:20170730011745     3
 OLDACT:REG 17-07-30 13:06 OP:ar   STATUS:               ID:20170730011745     3
 2017-07-30-0118-00M.COL___383                                                 6
 STAT SP IPHASW D HRMM SECON CODA AMPLIT PERI AZIMU VELO AIN AR TRES W  DIS CAZ7
 BAR2 EZ EP        126 54.92                             170   -0.7110 24.6 189 
 BAR2 EZ ES        127 10.68                             170   -0.2210 24.6 189 
 BAR2 EZ I         127 14.14         6.6 0.22            170           24.6 189 
 BRR  HZ EP        126 57.14                             153    0.0510 70.5 298 
 BRR  HN ES        127 14.15                             153    0.6510 70.5 298 
 BRR  HZ I         127 17.79         9.0 0.48            153           70.5 298 
 PAM  EZ EP        126 58.17                             151    0.0410 76.4  40 
 PAM  EN ES        127 15.36                             151   -0.0110 76.4  40 
 PAM  EZ I         127 17.42         5.7 0.54            155           76.4  40 
 RUS  HZ EP        126 59.99                             143    0.1610  102 176 
 RUS  HN ES        127 18.56                             143    0.1710  102 176 
 RUS  HZ I         127 19.67         3.7 0.40            146            102 176 
 PTB  HZ EP        127  2.30                             132   -0.68 9  148 258 
 PTB  HN ES        127 23.17                             132   -0.82 9  148 258 
 PTB  HZ I         127 24.84         2.8 0.38            133            148 258 
 SPBC HZ EP        127  4.54                             129   -0.05 9  164 219 
 SPBC HE ES        127 27.57                             129    0.71 9  164 219 
 SPBC HZ I         127 32.62         4.5 0.26            131            164 219 
 ZAR  HZ EP        127  9.42                             122    1.03 9  203 292 
 ZAR  HE ES        127 33.43                             122   -0.19 9  203 292 
 ZAR  HZ I         127 39.02         4.8 0.12            124            203 292 
                                                                                
