 2010  830 0228  8.6 L   6.601 -74.184 12.9  RSN  5 0.4 2.2LRSN                1
 GAP=163        0.92       6.6     5.0 10.0 -0.1134E+02  0.3458E+02 -0.2553E+01E
 Epicentro: PUERTO PARRA - SANTANDER                                           3
 ACTION:UP  10-09-07 10:59 OP:vdl  STATUS:               ID:20100830022808 L   I
 2010-08-30-0225-54S.COL___120                                                 6
 STAT SP IPHASW D HRMM SECON CODA AMPLIT PERI AZIMU VELO SNR AR TRES W  DIS CAZ7
 BRR  HZ IP     D  228 20.86                              99     0.010   76  43 
 BRR  HZ I         228 29.97        58.4 0.14                            76  43 
 BRR  HN ES   2    228 29.98                              99    -0.4 5   76  43 
 BAR2 SZ IP        228 26.47                              96     0.310  111  91 
 BAR2 SZ ES   1    228 39.50                              96    -0.5 7  111  91 
 BAR2 SZ I         228 40.93        82.3 0.14                           111  91 
 HEL  HZ IP     D  228 33.37                              56     0.4 9  156 253 
 HEL  HE ES   2    228 51.02                              56    -0.9 5  156 253 
 HEL  HZ I         228 52.52        55.8 0.36                           156 253 
 GUE  SZ EP   1    228 37.40                              56    -0.3 6  194  46 
 GUE  SZ I         229  0.99         9.7 0.13                           194  46 
 GRA  SZ ES   2    229  3.44                              56     0.2 4  208  47 
                                                                                
