 2011  730 0922 36.7 L   6.771 -73.074144.0  RSN  9 0.4 1.5LRSN                1
 GAP=164        0.66       3.0     5.9  5.5 -0.4208E+01  0.4163E+01  0.4806E+00E
 Epicentro: LOS SANTOS - SANTANDER                                             3
 ACTION:UPD 12-07-25 14:04 OP:epov STATUS:               ID:20110730092236 L   I
 2011-07-30-0920-10S.COL___141                                                 6
 STAT SP IPHASW D HRMM SECON CODA AMPLIT PERI AZIMU VELO AIN AR TRES W  DIS CAZ7
 BAR2 SZ EP   1    922 55.82                             170   -0.27 7 23.1 211 
 BAR2 SZ ES   1    923 10.64                             170   -0.59 7 23.1 211 
 BAR2 SZ I         923 13.38         6.2 0.22                          23.1 211 
 BRR  HZ EP   1    922 57.74                             149   -0.41 7 79.7 298 
 BRR  HZ I         922 57.86         9.6 0.30                          79.7 298 
 BRR  HE ES   1    923 15.37                             149    0.48 7 79.7 298 
 RUS  HZ EP   1    923  0.15                             144    0.14 7 97.1 181 
 RUS  HE ES   1    923 18.83                             144    0.63 7 97.1 181 
 RUS  HZ I         923 19.50         3.2 0.25                          97.1 181 
 BRI  SZ EP   1    923  0.39                             141   -0.06 7  109  16 
 OCA  SZ EP   1    923  5.34                             128    0.07 7  165 351 
 OCA  SZ ES   1    923 27.71                             128    0.15 7  165 351 
 OCA  SZ I         923 32.67         6.3 0.49                           165 351 
 NOR  SN ES   2    923 40.79                             118   -0.20 4  239 236 
 CHI  HE ES   2    923 42.74                             117   -0.69 4  248 197 
 CHI  HZ I         923 51.19         1.5 0.61                           248 197 
 RREF HZ EP   1    923 23.54                             110    0.33 5  326 231 
 RREF HN ES   1    923 59.29                             110   -0.20 5  326 231 
 RREF HZ I         924 13.48         1.9 0.41                           326 231 
 PRA  HZ EP   1    923 30.50                             106    0.22 4  393 211 
 PRA  HN ES   2    924 12.17                             106    0.08 3  393 211 
                                                                                
