 2014  630 0607 46.8 L   6.715 -73.191151.5  RSN  4 0.2 1.2LRSN                1
 GAP=225        0.49       3.9     3.7  3.9  0.6920E+01  0.1486E+01  0.4124E+00E
 Epicentro: VILLANUEVA - SANTANDER                                             3
 ACTION:UPD 14-07-01 22:58 OP:nd   STATUS:               ID:20140630060746 L   I
 OLDACT:REG 14-06-30 14:36 OP:stll STATUS:               ID:20140630055812     3
 2014-06-30-0558-12M.COL___247                                                 6
 STAT SP IPHASW D HRMM SECON CODA AMPLIT PERI AZIMU VELO AIN AR TRES W  DIS CAZ7
 BAR2 SZ EP        6 8  6.54                             175   -0.3810 13.6 176 
 BAR2 SZ I         6 8  7.01         4.6 0.10            173           13.6 176 
 BAR2 SZ ES        6 8 22.65                             175    0.0110 13.6 176 
 BRR  HZ EP        6 8  8.70                             153    0.1410 72.0 307 
 BRR  HN ES        6 8 25.66                             153    0.0810 72.0 307 
 BRR  HZ I         6 8 28.96         3.7 0.44            151           72.0 307 
 RUS  HZ EP        6 8 10.61                             147    0.1410 91.7 172 
 RUS  HZ I         6 8 11.76         1.3 0.18            148           91.7 172 
 RUS  HN ES        6 8 29.01                             147    0.0510 91.7 172 
 PTB  HZ EP        6 8 13.68                             135    0.07 9  141 262 
 PTB  HN ES        6 8 34.45                             135   -0.12 9  141 262 
 PTB  HZ I         6 8 39.23         2.4 0.12            133            141 262 
                                                                                
