 2011  130 0800 17.6 L   6.854 -73.301138.0  RSN  4 0.2 1.0LRSN                1
 GAP=195        0.50       4.0    19.5  7.7 -0.6308E+02  0.1104E+03 -0.1894E+02E
 Epicentro: ZAPATOCA - SANTANDER                                               3
 ACTION:UP  11-02-08 08:43 OP:pat  STATUS:               ID:20110130080017 L   I
 2011-01-30-0754-15S.COL___138                                                 6
 STAT SP IPHASW D HRMM SECON CODA AMPLIT PERI AZIMU VELO SNR AR TRES W  DIS CAZ7
 BAR2 SZ EP        8 0 36.56                             167     0.110   32 156 
 BAR2 SZ ES   2    8 0 50.95                             167    -0.3 5   32 156 
 RUS  HZ EP        8 0 40.94                             140    -0.310  109 167 
 RUS  HZ I         8 0 41.88         1.0 0.22                           109 167 
 RUS  HE ES        8 0 59.81                             140     0.110  109 167 
 GRA  SZ EP        8 0 42.18                             135     0.010  126  26 
 GRA  SZ ES   1    8 1  1.53                             135     0.1 7  126  26 
 GRA  SZ I         8 1  4.72         2.7 0.70                           126  26 
 CHI  HZ EP        8 0 55.24                             115     0.2 8  251 191 
                                                                                
