 2014 1030 0257  9.1 L   6.801 -73.138142.0  RSN 23 0.5 2.7LRSN                1
 GAP=120        1.14       3.0     4.2  5.2 -0.2858E+01  0.6299E+01  0.3336E+01E
 Epicentro: LOS SANTOS - SANTANDER                                             3
 ACTION:UPD 14-11-29 23:58 OP:nd   STATUS:               ID:20141030025709 L   I
 OLDACT:DUP 14-10-31 20:04 OP:fm   STATUS:               ID:20141030024748d    3
 2014-10-30-0247-47M.COL___274                                                 6
 STAT SP IPHASW D HRMM SECON CODA AMPLIT PERI AZIMU VELO AIN AR TRES W  DIS CAZ7
 BAR2 SZ EP        257 28.31                             170    0.0110 23.6 192 
 BAR2 SZ ES        257 42.78                             170   -0.4810 23.6 192 
 BAR2 SZ I         257 44.40       118.3 0.14            169           23.6 192 
 BRR  HZ EP     C  257 30.36                             152    0.4610 71.9 298 
 BRR  HN ES        257 47.00                             152    0.8910 71.9 298 
 BRR  HZ I         257 51.30       108.3 0.14            148           71.9 298 
 PAM  SZ EP     C  257 31.27                             150    0.3810 76.8  39 
 PAM  SN ES        257 47.78                             150   -0.1010 76.8  39 
 PAM  SZ I         257 50.38       124.5 0.46            153           76.8  39 
 RUS  HZ EP        257 32.38                             143   -0.1210  101 177 
 RUS  HN ES        257 50.95                             143    0.2110  101 177 
 PTB  HZ EP        257 35.25                             131   -0.61 9  149 259 
 PTB  HE ES        257 56.33                             131   -0.39 9  149 259 
 PTB  HZ I         257 58.39        74.1 0.18            130            149 259 
 OCA  HZ EP        257 36.69                             129   -0.45 9  160 353 
 OCA  HN ES        257 58.84                             129   -0.15 9  160 353 
 OCA  HZ I         258  3.53        87.0 0.22            129            160 353 
 SPBC HZ EP        257 37.32                             128   -0.07 9  164 219 
 SPBC HN ES        257 59.02                             128   -0.42 9  164 219 
 SPBC HZ I         258  0.27        33.8 0.22            128            164 219 
 CHI  HZ EP        257 47.20                             116    0.56 8  249 195 
 CHI  HE ES        258 15.53                             116   -0.38 8  249 195 
 CHI  HZ I         258 22.41        18.0 0.38            117            249 195 
 ROSC BZ EP        257 47.69                             116    0.60 8  253 211 
 ROSC BN ES        258 17.52                             116    0.81 8  253 211 
 ROSC BZ I         258 24.64        46.2 0.40            116            253 211 
 HEL  HZ EP        257 50.02                             114    0.78 8  273 256 
 HEL  HN ES   4    258 23.62                             114    3.09 0  273 256 
 HEL  HZ I         258 27.74        27.6 0.34            114            273 256 
 URE  HZ EP        257 49.24                             113   -0.85 7  285 292 
 URE  HN ES   4    258 19.66                             113   -2.39 0  285 292 
 URE  HZ I         258 32.01        37.2 0.22            113            285 292 
 GUY2CHZ EP        257 53.23                             111    0.59 7  302 235 
 GUY2CHN ES        258 25.94                             111   -0.65 7  302 235 
 GUY2CHZ I         258 35.91        17.0 0.52                           302 235 
 PTGC HZ EP        257 51.72                             111   -1.06 7  308 159 
 PTGC HN ES   4    258 24.34                             111   -2.50 0  308 159 
 PTGC HZ I         258 26.71        19.0 0.22            112            308 159 
 RREF HZ EP   4    257 51.68                             110   -3.50 0  322 229 
 RREF HN ES   4    258 29.58                             110   -1.53 0  322 229 
 RREF HZ I         258 33.59        20.8 0.22            110            322 229 
 DBB  SZ EP        257 56.60                             109    0.06 7  340 274 
 DBB  SZ ES        258 33.10                             109   -0.43 7  340 274 
 DBB  SZ I         258 40.43        65.1 0.44            109            340 274 
 TOL  SZ EP        257 57.83                             109    0.53 7  344 225 
 TOL  SN ES        258 35.18                             109    0.30 7  344 225 
 TOL  SZ I         258 40.60        34.3 0.42            109            344 225 
 ANIL HZ EP        257 58.64                             108   -0.22 6  358 225 
 ANIL HE ES        258 38.23                             108    0.58 6  358 225 
 ANIL HZ I         258 44.42         4.9 0.30            108            358 225 
 SDV  BN ES   4    258 34.04                             108   -3.75 0  360  50 
 SDV  BZ I         258 38.47        14.0 0.30            109            360  50 
 PRA  HZ EP        258  3.04                             106    0.47 6  393 210 
 PRA  HN ES        258 43.26                             106   -1.00 6  393 210 
 PRA  HZ I         258 48.90        21.1 0.24            106            393 210 
 ORTC HZ EP        258  3.21                             106    0.23 6  396 216 
 ORTC HN ES        258 44.67                             106   -0.32 6  396 216 
 ORTC HZ I         258 48.61        10.9 0.64            106            396 216 
 SJC  HZ EP   4    258  2.95                             105   -1.65 0  410 327 
 SJC  HN ES   4    258 44.46                             105   -3.42 0  410 327 
 SJC  HZ I         258 48.57        17.8 0.38            105            410 327 
 YOT  HZ EP   4    258 10.25                             103   -1.89 0  473 229 
 MACC HZ EP   4    258 15.88                             101   -1.88 0  521 189 
 MACC HN ES   4    259  7.27                             101   -4.03 0  521 189 
 MACC HZ I         259 12.20         3.8 0.52            102            521 189 
 URI  HZ EP   4    258 18.95                             100   -3.05 0  556  13 
 URI  HE ES   4    259 13.17                             100   -5.68 0  556  13 
 URI  HZ I         259 17.71         4.1 0.70            101            556  13 
                                                                                
