 2012  530 0828 25.1 L   6.821 -73.165142.8  RSN 10 0.4 2.5LRSN                1
 GAP=133        0.80       3.1     4.0  6.3 -0.2297E+01  0.9575E+01  0.1697E+01E
 Epicentro: LOS SANTOS - SANTANDER                                             3
 ACTION:UP  12-07-05 12:09 OP:pat  STATUS:               ID:20120530082825 L   I
 2012-05-30-0826-48S.COL___179                                                 6
 STAT SP IPHASW D HRMM SECON CODA AMPLIT PERI AZIMU VELO AIN AR TRES W  DIS CAZ7
 BAR2 SZ EP   1    828 44.62                             169     0.2 9   25 184 
 BAR2 SZ ES   1    828 59.67                             169     0.1 9   25 184 
 BAR2 SZ I         829  1.16        60.9 0.15                            25 184 
 PAM  SZ EP   1    828 47.61                             150     0.6 9   77  42 
 PAM  SN ES   1    829  4.41                             150     0.3 9   77  42 
 PAM  SZ I         829  5.28        30.6 0.32                            77  42 
 RUS  HZ EP   1    828 48.62                             142    -0.2 9  103 175 
 RUS  HN ES   1    829  7.17                             142    -0.1 9  103 175 
 RUS  HZ I         829  9.13        28.7 0.20                           103 175 
 PTB  HZ EP   1    828 51.22                             132    -0.5 9  146 258 
 PTB  HN ES   1    829 12.12                             132    -0.3 9  146 258 
 PTB  HZ I         829 17.99        28.3 0.18                           146 258 
 OCA  HZ EP   1    828 52.68                             129    -0.3 9  158 354 
 OCA  HN ES   1    829 13.94                             129    -0.8 9  158 354 
 OCA  HZ I         829 18.17        59.1 0.25                           158 354 
 ZAR  HZ EP   1    828 57.39                             122     0.3 8  201 292 
 ZAR  HN ES   1    829 22.43                             122     0.4 8  201 292 
 ZAR  HZ I         829 27.75        30.4 0.31                           201 292 
 NOR  SZ EP   1    829  0.53                             118    -0.1 7  234 234 
 NOR  SN ES        829 28.54                             118     0.210  234 234 
 CHI  HZ EP   1    829  2.86                             116     0.0 7  250 195 
 CHI  HN ES   1    829 31.56                             116    -0.7 7  250 195 
 CHI  HZ I         829 36.04        29.5 0.48                           250 195 
 HEL  HZ EP   1    829  5.47                             114     0.4 7  271 255 
 HEL  HN ES   1    829 36.26                             114     0.1 7  271 255 
 HEL  HZ I         829 43.78        20.8 0.37                           271 255 
 PRA  HZ EP   1    829 18.91                             106     0.2 5  393 209 
 PRA  HN ES   1    830  0.82                             106     0.4 5  393 209 
                                                                                
