 2012 1030 0450 34.8 L   6.791 -73.099155.4  RSN  5 0.4 1.7LRSN                1
 GAP=197        0.61       8.1     9.2  7.5  0.4559E+02 -0.1251E+02 -0.7740E+01E
 Epicentro: LOS SANTOS - SANTANDER                                             3
 ACTION:UPD 12-11-22 17:06 OP:ep   STATUS:               ID:20121030045034 L   I
 2012-10-30-0450-00M.COL___231                                                 6
 STAT SP IPHASW D HRMM SECON CODA AMPLIT PERI AZIMU VELO AIN AR TRES W  DIS CAZ7
 BAR2 SZ EP        450 55.51                             171   -0.1010 23.8 203 
 BAR2 SZ ES   2    451 10.88                             171   -0.95 5 23.8 203 
 BAR2 SZ I         451 13.20        10.9 0.36                          23.8 203 
 GIR2 SZ EP        450 55.67                             167   -0.0210 33.5 342 
 GIR2 SZ ES   2    451 12.22                             167    0.25 5 33.5 342 
 BRR  HZ EP        450 57.42                             152    0.1410 76.3 297 
 BRR  HN ES   1    451 15.02                             152    0.20 7 76.3 297 
 BRR  HN I         451 16.11        18.9 0.18                          76.3 297 
 RUS  HZ EP   2    450 59.31                             146   -0.12 5 99.3 179 
 RUS  HE ES   2    451 19.21                             146    0.57 5 99.3 179 
 RUS  HE I         451 21.39         3.6 0.36                          99.3 179 
 ZAR  HN ES   2    451 34.20                             124   -0.44 4  209 292 
                                                                                
