 2012  730 0505  3.9 L   6.728 -73.203146.0  RSN  5 0.2 1.4LRSN                1
 GAP=225        0.47       4.6     4.4  5.4  0.1097E+02  0.8082E-01 -0.2104E+01E
 Epicentro: VILLANUEVA - SANTANDER                                             3
 ACTION:UPD 12-08-14 11:46 OP:ep   STATUS:               ID:20120730050503 L   I
 2012-07-30-0500-00M.COL___215                                                 6
 STAT SP IPHASW D HRMM SECON CODA AMPLIT PERI AZIMU VELO AIN AR TRES W  DIS CAZ7
 BAR2 SZ EP   1    5 5 23.37                             174    -0.1 7   15 171 
 BAR2 SZ ES   2    5 5 38.46                             174    -0.2 5   15 171 
 BAR2 SZ I         5 5 39.53         7.5 0.40            171             15 171 
 BRR  HZ EP        5 5 25.06                             153     0.010   70 307 
 BRR  HE ES   1    5 5 41.72                             153     0.2 7   70 307 
 BRR  HZ I         5 5 42.99         9.0 0.14            153             70 307 
 RUS  HZ EP   1    5 5 27.48                             146     0.3 7   93 172 
 RUS  HN ES   1    5 5 45.25                             146    -0.1 7   93 172 
 RUS  HZ I         5 5 47.45         2.4 0.21            146             93 172 
 PTB  HZ EP   1    5 5 30.03                             134    -0.2 7  140 262 
 PTB  HN ES   1    5 5 50.92                             134     0.1 7  140 262 
 PTB  HZ I         5 5 53.45         1.8 0.11            134            140 262 
 ZAR  HN ES   2    5 6  0.89                             123    -0.4 4  201 295 
