 2010  730 0307 18.5 L   6.389 -73.473116.3  RSN 12 0.5 2.2LRSN                1
 GAP= 87        1.27       4.7     7.4  9.3 -0.1292E+02  0.2948E+02 -0.2938E+01E
 Epicentro: CONTRATACION - SANTANDER                                           3
 ACTION:UPD 10-12-01 15:21 OP:pat  STATUS:               ID:20100730030718 L   I
 2010-07-30-0305-48S.COL___123                                                 6
 STAT SP IPHASW D HRMM SECON CODA AMPLIT PERI AZIMU VELO AIN AR TRES W  DIS CAZ7
 BAR2 SZ IP        3 7 35.20                             160     0.110   39  55 
 BAR2 SZ ES   1    3 7 48.45                             160     0.4 7   39  55 
 BAR2 SZ I         3 7 49.08       151.1 0.13                            39  55 
 RUS  HZ IP     D  3 7 36.87                             147    -0.210   70 142 
 RUS  HN ES   1    3 7 51.18                             147    -0.5 7   70 142 
 RUS  HZ I         3 7 53.52        30.1 0.24                            70 142 
 GIR2 SZ IP        3 7 37.66                             142     0.210   82  22 
 BRR  HZ IP     D  3 7 37.09                             141    -0.310   84 342 
 BRR  HN ES   1    3 7 51.95                             141    -0.3 7   84 342 
 GUE  SZ IP        3 7 45.59                             120    -0.4 9  171  21 
 GRA  SZ EP        3 7 48.00                             118     1.1 9  181  24 
 GRA  SZ I         3 8 13.60        15.4 0.18                           181  24 
 ROSC BZ EP   1    3 7 49.76                             116     1.1 6  195 209 
 ROSC BZ I         3 7 52.07         7.5 0.25                           195 209 
 CHI  HZ EP   2    3 7 47.65                             116    -1.2 4  197 188 
 CHI  HZ I         3 7 49.45         7.4 0.43                           197 188 
 CHI  HE ES   2    3 8 13.04                             116     0.4 4  197 188 
 OCA  SZ EP        3 7 49.11                             115    -0.4 8  205   5 
 OCA  SZ I         3 8 19.82        27.3 0.42                           205   5 
 HEL  HZ EP   1    3 7 52.16                             112    -0.2 6  229 265 
 HEL  HN ES   2    3 8 18.86                             112     0.0 4  229 265 
 HEL  HZ I         3 8 23.05         9.4 0.26                           229 265 
 RREF HZ IP     C  3 7 56.66                             109    -0.2 8  265 232 
 RREF HN ES   1    3 8 27.01                             109     0.2 6  265 232 
 RREF HZ I         3 8 31.69        11.7 0.37                           265 232 
 PRA  HZ EP   1    3 8  3.50                             104    -0.8 5  335 208 
 PRA  HN ES   1    3 8 40.81                             104     0.8 5  335 208 
 PRA  HZ I         3 8 44.85         9.2 0.20                           335 208 
                                                                                
