 2012  730 0505 47.3 L   5.884 -73.639118.7  RSN  5 0.3 1.6LRSN                1
 GAP=220        0.60       5.8     4.6  8.0  0.1427E+02  0.1370E+02  0.2638E+01E
 Epicentro: PUENTE NACIONAL - SANTANDER                                        3
 ACTION:UPD 12-08-14 11:46 OP:ep   STATUS:               ID:20120730050547 L   I
 2012-07-30-0500-00M.COL___215                                                 6
 STAT SP IPHASW D HRMM SECON CODA AMPLIT PERI AZIMU VELO AIN AR TRES W  DIS CAZ7
 RUS  HZ EP   1    5 6  5.75                             151     0.0 7   62  89 
 RUS  HN ES   1    5 6 20.25                             151     0.2 7   62  89 
 RUS  HZ I         5 6 21.44         7.4 0.22            162             62  89 
 BAR2 SZ EP   1    5 6  7.87                             139     0.3 7   93  33 
 BAR2 SZ ES   1    5 6 22.98                             139    -0.4 7   93  33 
 BAR2 SZ I         5 6 24.79        14.0 0.21            149             93  33 
 PTB  HZ EP   2    5 6  8.72                             132    -0.5 5  116 309 
 PTB  HN ES   1    5 6 26.22                             132     0.0 7  116 309 
 PTB  HZ I         5 6 32.85         4.8 0.16            136            116 309 
 BRR  HZ EP   1    5 6 10.80                             128    -0.2 7  135 357 
 BRR  HE ES   1    5 6 29.60                             128     0.1 7  135 357 
 BRR  HZ I         5 6 31.60         6.8 0.17            134            135 357 
 ZAR  HN ES   1    5 6 46.32                             113     0.3 6  223 323 
