 2015  530 0233  4.4 L   6.780 -73.124145.0  RSN  4 0.1 1.7LRSN                1
 GAP=140        0.35       1.6     2.2  3.5  0.5252E+00  0.3824E+01 -0.1054E+01E
 Epicentro: LOS SANTOS - SANTANDER                                             3
 ACTION:UPD 15-09-10 22:08 OP:cam  STATUS:               ID:20150530023304 L   I
 OLDACT:REG 15-05-30 13:16 OP:ar   STATUS:               ID:20150530022749     3
 2015-05-30-0227-49M.COL___309                                                 6
 STAT SP IPHASW D HRMM SECON CODA AMPLIT PERI AZIMU VELO AIN AR TRES W  DIS CAZ7
 PAM  SZ EP        233 26.62                             151    0.0710 77.6  37 
 PAM  SN ES        233 43.84                             151    0.0110 77.6  37 
 PAM  SZ I         233 45.67         7.5 0.52            153           77.6  37 
 RUS  HZ EP        233 27.80                             144   -0.1110 98.2 177 
 RUS  HE ES        233 46.27                             144    0.0210 98.2 177 
 RUS  HZ I         233 47.44         5.8 0.32            149           98.2 177 
 ZAR  HZ EP        233 37.34                             122    0.22 8  207 292 
 ZAR  HE ES        234  2.59                             122   -0.05 8  207 292 
 ZAR  HZ I         234  7.78         4.2 0.26            123            207 292 
 SML  HZ EP        233 41.21                             117   -0.11 8  247 335 
 SML  HN ES        234 10.04                             117   -0.07 8  247 335 
 SML  HZ I         234 17.19         5.1 0.22            119            247 335 
                                                                                
