 2016  430 0225 21.6 L   6.765 -73.100144.9  RSN  5 0.1 1.4LRSN                1
 GAP=144        0.32       3.3     6.5  4.9 -0.4247E+01  0.1347E+02 -0.2287E+00E
 Epicentro: LOS SANTOS - SANTANDER                                             3
 ACTION:UPD 16-05-05 14:25 OP:rebc STATUS:               ID:20160430022521 L   I
 OLDACT:DUP 16-04-30 15:26 OP:dnl  STATUS:               ID:20160430015933d    3
 OLDACT:REG 16-04-30 13:32 OP:dnl  STATUS:               ID:20160430015932     3
 2016-04-30-0200-00M.COL                                                       6
 STAT SP IPHASW D HRMM SECON CODA AMPLIT PERI AZIMU VELO AIN AR TRES W  DIS CAZ7
 BAR2 EZ EP        225 41.08                             171   -0.0410 21.2 206 
 BAR2 EZ ES   2    225 56.15                             171   -0.16 5 21.2 206 
 BAR2 EZ I         225 57.26         4.0 0.11            165           21.2 206 
 PAM  EZ EP   2    225 43.90                             151    0.14 5 77.4  35 
 PAM  EE ES   2    226  1.03                             151    0.02 5 77.4  35 
 PAM  EZ I         226  4.48         3.6 0.34            153           77.4  35 
 RUS  HZ EP        225 44.95                             145   -0.0610 96.5 179 
 RUS  HN ES   2    226  3.55                             145    0.31 5 96.5 179 
 RUS  HZ I         226  4.42         2.8 0.24            150           96.5 179 
 SPBC HZ EP   3    225 50.09                             129   -0.01 2  164 221 
 SPBC HN ES   4    226 10.78                             129   -1.52 0  164 221 
 SPBC HZ I         226 16.73         4.9 0.34            129            164 221 
 ZAR  HZ EP   2    225 54.82                             121    0.15 4  210 293 
 ZAR  HN ES   4    226 18.43                             121   -1.99 0  210 293 
 ZAR  HZ I         226 27.70         2.7 0.11            120            210 293 
                                                                                
