 2010  830 0130 32.6 L   6.810 -73.048141.6  RSN  8 0.3 2.1LRSN                1
 GAP=185        0.64       3.7     6.1  5.5 -0.1056E+02 -0.2566E+01  0.2802E+01E
 Epicentro: LOS SANTOS - SANTANDER                                             3
 ACTION:UP  10-09-07 10:59 OP:vdl  STATUS:               ID:20100830013032 L   I
 2010-08-30-0128-23S.COL___120                                                 6
 STAT SP IPHASW D HRMM SECON CODA AMPLIT PERI AZIMU VELO SNR AR TRES W  DIS CAZ7
 BAR2 SZ EP        130 51.79                             169     0.010   28 212 
 BAR2 SZ ES   1    131  6.63                             169    -0.2 7   28 212 
 BAR2 SZ I         131  8.15        39.3 0.23                            28 212 
 BRR  HZ IP     C  130 53.54                             150    -0.310   80 294 
 BRR  HZ I         130 53.81        40.8 0.08                            80 294 
 BRR  HN ES   1    131 10.55                             150     0.1 7   80 294 
 GUE  SZ EP   1    130 56.77                             139     0.1 7  114   7 
 GUE  SZ I         130 57.90         9.5 0.12                           114   7 
 GRA  SZ IP        130 57.53                             137     0.410  122  13 
 GRA  SZ ES   1    131 16.49                             137     0.2 7  122  13 
 GRA  SZ I         131 18.17        15.6 0.19                           122  13 
 OCA  SZ EP   1    131  0.29                             129    -0.3 7  161 349 
 OCA  SZ ES   2    131 22.29                             129    -0.2 5  161 349 
 OCA  SZ I         131 26.51        15.7 0.23                           161 349 
 CHI  HZ EP   2    131 10.25                             116    -0.3 4  253 197 
 CHI  HN ES   2    131 40.95                             116     0.9 4  253 197 
 CHI  HZ I         131 45.97         4.2 0.43                           253 197 
 HEL  HZ EP   2    131 13.79                             113     0.0 4  283 256 
 HEL  HE ES   2    131 46.16                                     0.2 4  283 256 
 HEL  HZ I         131 50.45         5.8 0.40                           283 256 
 PRA  HZ EP   1    131 26.41                             106    -0.3 4  398 211 
 PRA  HN ES   2    132  8.91                             106     0.0 3  398 211 
 PRA  HZ I         132 14.98         5.0 0.12                           398 211 
                                                                                
