 2016  830 0225  1.0 L   6.733 -73.218152.2  RSN  5 0.2 1.2LRSN                1
 GAP=224        0.58       3.6     4.2  5.2  0.4390E+01 -0.1120E+01  0.6478E+00E
 Epicentro: VILLANUEVA - SANTANDER                                             3
 ACTION:UPD 16-10-29 15:40 OP:rebc STATUS:               ID:20160830022501 L   I
 OLDACT:UP  16-08-30 14:10 OP:edw  STATUS:               ID:20160830021734     3
 OLDACT:REG 16-08-30 12:26 OP:edw  STATUS:               ID:20160830021734     3
 2016-08-30-0218-00M.COL___359                                                 6
 STAT SP IPHASW D HRMM SECON CODA AMPLIT PERI AZIMU VELO AIN AR TRES W  DIS CAZ7
 BRR  HZ EP        225 22.78                             154    0.0810 68.5 307 
 BRR  HN ES        225 39.65                             154    0.0310 68.5 307 
 RUS  HZ EP        225 25.19                             147    0.2510 94.1 171 
 RUS  HN ES        225 43.40                             147   -0.2110 94.1 171 
 RUS  HZ I         225 44.82         2.4 0.32                          94.1 171 
 PTB  HZ EP        225 27.67                             135   -0.02 9  139 261 
 PTB  HE ES        225 48.39                             135   -0.13 9  139 261 
 SPBC HZ EP        225 28.66                             132   -0.35 9  152 218 
 SPBC HN ES        225 51.19                             132    0.34 9  152 218 
 SPBC HZ I         225 54.19         2.3 0.18                           152 218 
 GUY2CHZ EP   4    225 45.67                             114    1.97 0  290 235 
 GUY2CHN ES   4    226 19.42                             114    2.41 0  290 235 
 GUY2CHZ I         226 25.83         0.7 0.36                           290 235 
                                                                                
