 2013  130 0313 43.8 L   6.795 -73.147143.6  RSN  6 0.4 1.5LRSN                1
 GAP=137        0.86       4.7     5.1  8.0 -0.4069E+01 -0.8363E+00  0.1595E+02E
 Epicentro: LOS SANTOS - SANTANDER                                             3
 ACTION:UPD 13-02-15 09:17 OP:ep   STATUS:               ID:20130130031343 L   I
 2013-01-30-0310-00M.COL___241                                                 6
 STAT SP IPHASW D HRMM SECON CODA AMPLIT PERI AZIMU VELO AIN AR TRES W  DIS CAZ7
 BAR2 SZ EP        314  2.85                             171   -0.2810 22.8 190 
 BAR2 SZ I         314 19.19         8.6 0.32            165           22.8 190 
 BRR  HZ IP     D  314  4.88                             152    0.1910 71.3 299 
 BRR  HN ES        314 21.50                             152    0.4910 71.3 299 
 PAM  SZ EP        314  5.85                             150    0.0610 77.9  39 
 PAM  SZ I         314  6.25         9.3 0.22            150           77.9  39 
 PAM  SN ES        314 22.68                             150   -0.2810 77.9  39 
 RUS  HZ EP        314  7.77                             143    0.5010  100 176 
 RUS  HE ES   1    314 25.34                             143   -0.26 7  100 176 
 RUS  HE I         314 27.08         5.7 0.30            138            100 176 
 PTB  HZ EP   1    314  9.81                             132   -0.72 7  147 259 
 PTB  HE ES   1    314 30.92                             132   -0.49 7  147 259 
 PTB  HZ I         314 33.13         3.9 0.29            130            147 259 
 CHI  HZ EP   1    314 21.33                             117    0.04 6  248 195 
 CHI  HN ES   1    314 50.67                             117    0.12 6  248 195 
 CHI  HZ I         314 58.67         1.7 0.46            114            248 195 
                                                                                
