 2015  330 0644 27.3 L   6.813 -73.143142.2  RSN 14 0.4 1.9LRSN                1
 GAP= 71        0.87       2.6     2.6  5.7 -0.8903E+00  0.4033E+01 -0.2346E+01E
 Epicentro: LOS SANTOS - SANTANDER                                             3
 ACTION:UPD 15-04-30 16:30 OP:nd   STATUS:               ID:20150330064427 L   I
 OLDACT:DUP 15-03-30 19:21 OP:spq  STATUS:               ID:20150330063744d    3
 2015-03-30-0637-43M.COL___287                                                 6
 STAT SP IPHASW D HRMM SECON CODA AMPLIT PERI AZIMU VELO AIN AR TRES W  DIS CAZ7
 BAR2 EZ EP        644 46.54                             170    0.0310 24.8 190 
 BAR2 EZ ES   1    645  1.12                             170   -0.39 7 24.8 190 
 BAR2 EZ I         645  2.30        15.5 0.18            170           24.8 190 
 BRR  HZ EP        644 48.42                             152    0.4010 70.8 297 
 BRR  HZ I         645  9.34        10.8 0.11            148           70.8 297 
 PAM  SZ EP        644 49.44                             151    0.4010 76.1  40 
 PAM  SN ES        645  6.35                             151    0.3410 76.1  40 
 PAM  SZ I         645  8.44        27.8 0.46            150           76.1  40 
 RUS  HZ EP   1    644 50.72                             143   -0.07 7  102 176 
 RUS  HE ES        645  8.75                             143   -0.3710  102 176 
 RUS  HZ I         645 10.21         7.8 0.33            144            102 176 
 PTB  HZ EP        644 53.58                             131   -0.43 9  148 258 
 PTB  HN ES        645 15.05                             131    0.19 9  148 258 
 PTB  HZ I         645 16.44        11.1 0.14            129            148 258 
 TAM  HZ EP     C  644 54.90                             130    0.21 9  155 106 
 TAM  HE ES        645 16.20                             130    0.14 9  155 106 
 TAM  HZ I         645 16.91         4.5 0.26            131            155 106 
 OCA  HZ EP        644 54.79                             129   -0.39 9  159 353 
 OCA  HE ES        645 16.39                             129   -0.55 9  159 353 
 OCA  HZ I         645 20.62        27.3 0.18            127            159 353 
 SPBC HZ EP        644 55.69                             128    0.06 9  164 219 
 SPBC HE ES        645 17.59                             128   -0.16 9  164 219 
 SPBC HZ I         645 21.30         8.8 0.20            127            164 219 
 ZAR  HZ EP   1    644 59.66                             122    0.19 6  204 292 
 ZAR  HN ES        645 25.28                             122    0.71 9  204 292 
 ZAR  HZ I         645 28.93         8.8 0.23            120            204 292 
 NOR  HN ES   1    645 30.12                             118   -0.60 6  236 234 
 NOR  HZ I         645 35.71         4.0 0.30            117            236 234 
 SML  HZ EP        645  3.05                             117   -0.53 8  243 335 
 SML  HE ES   1    645 31.85                             117   -0.04 6  243 335 
 SML  HZ I         645 38.52        11.3 0.28            115            243 335 
 HEL  HE ES   1    645 38.71                             114    0.04 6  273 256 
 HEL  HZ I         645 45.87         2.6 0.26            113            273 256 
 GUY2CHN ES   1    645 45.57                             112    0.74 5  302 235 
 GUY2CHZ I         645 54.10         3.7 0.62                           302 235 
 SJC  HZ EP   4    645 21.38                             105   -1.22 0  408 327 
 SJC  HN ES   4    646  2.34                             105   -3.41 0  408 327 
 SJC  HZ I         646  6.52         2.9 0.38            104            408 327 
                                                                                
