 2011  430 0216 38.8 L   6.785 -73.095154.5  RSN  4 0.2 1.3LRSN                1
 GAP=144        0.45       3.5     5.2  6.1  0.7390E+00  0.9746E+00  0.3539E+01E
 Epicentro: LOS SANTOS - SANTANDER                                             3
 ACTION:UP  11-06-22 15:34 OP:REBC STATUS:               ID:20110430021638 L   I
 2011-04-30-0213-42S.COL___130                                                 6
 STAT SP IPHASW D HRMM SECON CODA AMPLIT PERI AZIMU VELO SNR AR TRES W  DIS CAZ7
 GIR2 SZ EP   2    216 59.54                             167     0.0 5   34 341 
 PAM  SZ EP   2    217  1.34                             153    -0.5 5   75  35 
 PAM  SN ES   1    217 19.92                             153     0.1 7   75  35 
 BRR  HZ EP   1    217  1.27                             152     0.1 7   77 298 
 BRR  HN ES   1    217 18.64                             152     0.0 7   77 298 
 BRR  HZ I         217 20.36         6.0 0.12                            77 298 
 RUS  HZ EP   1    217  3.47                             146     0.2 7   99 179 
 RUS  HN ES   1    217 22.21                             146    -0.2 7   99 179 
 RUS  HZ I         217 24.02         2.1 0.33                            99 179 
                                                                                
