 2014 1130 0559 10.5 L   6.787 -73.153145.6  RSN 13 0.3 2.3LRSN                1
 GAP=136        0.67       2.4     2.6  3.8 -0.1313E+01  0.2838E+01  0.1080E+01E
 Epicentro: LOS SANTOS - SANTANDER                                             3
 ACTION:UPD 14-12-19 15:48 OP:nd   STATUS:               ID:20141130055910 L   I
 OLDACT:REG 14-11-30 13:31 OP:mh   STATUS:               ID:20141130055742     3
 2014-11-30-0557-42M.COL___300                                                 6
 STAT SP IPHASW D HRMM SECON CODA AMPLIT PERI AZIMU VELO AIN AR TRES W  DIS CAZ7
 BAR2 SZ EP        559 30.07                             171    0.0210 21.8 189 
 BAR2 SZ ES        559 45.04                             171   -0.2910 21.8 189 
 BAR2 SZ I         559 47.84        59.6 0.23            170           21.8 189 
 BRR  HZ EP        559 31.94                             152    0.3410 71.2 300 
 BRR  HN ES        559 48.51                             152    0.4310 71.2 300 
 BRR  HZ I         6 0  0.93        17.7 0.08            150           71.2 300 
 PAM  SZ EP        559 32.92                             150    0.1610 79.0  39 
 PAM  SN ES        559 50.29                             150    0.1310 79.0  39 
 PAM  SZ I         559 52.87        29.2 0.54            155           79.0  39 
 RUS  HZ EP        559 33.86                             144   -0.2510 99.2 176 
 RUS  HN ES   1    559 52.51                             144   -0.03 7 99.2 176 
 RUS  HZ I         559 54.10        21.1 0.25            150           99.2 176 
 PTB  HZ EP   1    559 36.79                             132   -0.53 7  147 259 
 PTB  HN ES        559 57.91                             132   -0.36 9  147 259 
 PTB  HZ I         6 0  0.73        31.0 0.10            133            147 259 
 OCA  HZ EP   1    559 38.28                             129   -0.61 7  162 353 
 OCA  HN ES        6 0  0.99                             129   -0.07 9  162 353 
 OCA  HZ I         6 0  5.34        28.5 0.72            132            162 353 
 SPBC HZ EP        559 38.96                             129    0.16 9  162 219 
 SPBC HN ES   1    6 0  1.02                             129    0.12 7  162 219 
 SPBC HZ I         6 0  6.81        75.2 0.82            132            162 219 
 ZAR  HZ EP        559 42.55                             122   -0.33 9  204 293 
 ZAR  HN ES        6 0  8.09                             122   -0.07 9  204 293 
 ZAR  HZ I         6 0 14.16        26.4 0.32            124            204 293 
 NOR  HZ EP        559 46.02                             119   -0.01 8  233 235 
 NOR  HN ES        6 0 13.73                             119   -0.03 8  233 235 
 NOR  HZ I         6 0 17.59        19.0 0.22            121            233 235 
 HEL  HZ EP        559 50.88                             115    0.34 8  271 256 
 HEL  HN ES        6 0 22.00                             115    0.20 8  271 256 
 HEL  HZ I         6 0 30.68        11.5 0.12            117            271 256 
 PTGC HZ EP   4    559 52.95                             112   -1.25 0  308 158 
 PTGC HN ES   4    6 0 24.90                             112   -3.41 0  308 158 
 PTGC HZ I         6 0 28.79         6.5 0.22            116            308 158 
 TOL  SZ EP        559 59.03                             109    0.50 7  342 225 
 TOL  SN ES   4    6 0 38.02                             109    2.00 0  342 225 
 MON  HZ EP   4    559 57.31                             108   -2.18 0  354 309 
 MON  HN ES   4    6 0 34.95                             108   -2.78 0  354 309 
 MON  HZ I         6 0 50.41         5.0 0.58            111            354 309 
                                                                                
