 2017  630 0923 36.0 L   5.725 -73.883108.0  RSN 14 0.5 1.6LRSN                1
 GAP= 92        1.07       2.8     3.1  5.7 -0.9912E+00 -0.1005E+01 -0.6352E+00E
 Epicentro: ALBANIA - SANTANDER                                                3
 ACTION:UPD 17-09-14 16:56 OP:jn   STATUS:               ID:20170630092336 L   I
 OLDACT:UP  17-06-30 17:40 OP:and  STATUS:               ID:20170630091741d    3
 OLDACT:UP  17-06-30 17:39 OP:and  STATUS:               ID:20170630091741d    3
 OLDACT:UP  17-06-30 17:39 OP:and  STATUS:               ID:20170630091741d    3
 OLDACT:UP  17-06-30 17:37 OP:and  STATUS:               ID:20170630091741d    3
 OLDACT:DUP 17-06-30 17:35 OP:and  STATUS:               ID:20170630091741d    3
 OLDACT:UP  17-06-30 17:33 OP:and  STATUS:               ID:20170630091740     3
 OLDACT:UP  17-06-30 17:33 OP:and  STATUS:               ID:20170630091740     3
 OLDACT:REG 17-06-30 13:45 OP:and  STATUS:               ID:20170630091740     3
 2017-06-30-0918-00M.COL___356                                                 6
 STAT SP IPHASW D HRMM SECON CODA AMPLIT PERI AZIMU VELO AIN AR TRES W  DIS CAZ7
 SPBC HZ EP        923 50.74                             168   -0.0910 22.4 249 
 SPBC HN ES        924  2.24                             168   -0.1810 22.4 249 
 SPBC HZ I         924  4.16        25.9 0.11            167           22.4 249 
 TABC EZ EP   2    923 55.45                             139    0.44 5 86.6 204 
 TABC EZ ES   2    924 10.49                             139    0.63 5 86.6 204 
 PTB  HZ IP   9 C  923 55.09                             131   -1.35 0  110 325 
 PTB  HN ES        924 10.88                             131   -0.1910  110 325 
 PTB  HZ I         924 14.60         8.1 0.16            133            110 325 
 NOR  HZ EP        923 56.27                             131   -0.2710  111 261 
 NOR  HN ES        924 12.04                             131   -0.5510  111 261 
 NOR  HZ I         924 14.22        15.6 0.12            132            111 261 
 CHI  HZ EP        923 57.83                             128   -0.2910  122 172 
 CHI  HN ES        924 15.25                             128   -0.1610  122 172 
 CHI  HZ I         924 20.03         4.5 0.32            129            122 172 
 BAR2 EZ IP     D  923 58.17                             127    0.1810  123  39 
 BAR2 EZ ES        924 15.95                             127    0.7810  123  39 
 BAR2 EZ I         924 17.71        10.3 0.66            130            123  39 
 BRR  HZ IP     C  924  0.45                             120   -0.33 9  154   7 
 BRR  HN ES        924 20.64                             120    0.50 9  154   7 
 GUY2CHZ EP        924  3.81                             118    0.35 9  173 251 
 GUY2CHN ES        924 25.62                             118    0.71 9  173 251 
 GUY2CHZ I         924 30.87         3.5 0.30                           173 251 
 HEL  HZ EP        924  5.43                             115    0.35 9  189 286 
 HEL  HN ES        924 27.72                             115   -0.07 9  189 286 
 HEL  HZ I         924 29.62         2.4 0.30            116            189 286 
 ZAR  HZ EP        924  7.38                             110   -1.05 8  223 331 
 ZAR  HE ES        924 33.24                             110   -0.52 8  223 331 
 ZAR  HZ I         924 34.63         6.6 0.28            112            223 331 
 CBOC HZ EP   9    924 11.14                             109    0.99 0  236 274 
 CBOC HN ES        924 37.57                             110   -0.24 8  236 274 
 CBOC HZ I         924 40.32         1.4 0.56            110            236 274 
 ORTC HZ EP        924 12.34                             108    0.61 8  251 217 
 ORTC HN ES   3    924 41.48                             108    1.86 2  251 217 
 ORTC HZ I         924 43.98         1.6 0.24            109            251 217 
 PTGC HZ EP        924 12.00                             107   -0.35 8  257 131 
 PTGC HN ES   3    924 39.60                             107   -1.14 2  257 131 
 URE  HZ EP   4    924 13.93                             105   -2.16 0  289 321 
 URE  HN ES   4    924 44.34                             105   -3.06 0  289 321 
 URE  HZ I         924 48.73         6.8 0.14            106            289 321 
                                                                                
