 2011  530 1050 23.4 L   6.805 -73.071150.0  RSN  8 0.3 1.7LRSN                1
 GAP=164        0.78       4.2     7.1  6.9 -0.1103E+02 -0.4632E+00 -0.2596E+01E
 Epicentro: LOS SANTOS - SANTANDER                                             3
 ACTION:UP  11-06-29 08:57 OP:tino STATUS:               ID:20110530105023 L   I
 2011-05-30-1047-23S.COL___112                                                 6
 STAT SP IPHASW D HRMM SECON CODA AMPLIT PERI AZIMU VELO SNR AR TRES W  DIS CAZ7
 BAR2 SZ EP   1   1050 43.20                             169    -0.4 7   27 208 
 BAR2 SZ I        1050 43.59         9.6 0.12                            27 208 
 BAR2 SZ ES   1   1050 58.79                             169    -0.6 7   27 208 
 BRR  HZ EP   1   1050 45.11                             151    -0.3 7   78 295 
 BRR  HZ I        1050 48.41        11.3 0.27                            78 295 
 BRR  HN ES   1   1051  3.00                             151     0.4 7   78 295 
 RUS  HZ EP   1   1050 47.42                             145    -0.2 7  101 181 
 RUS  HN ES   1   1051  7.06                             145     0.6 7  101 181 
 RUS  HZ I        1051  7.15         4.2 0.23                           101 181 
 BRI  SZ EP   1   1050 47.84                             143     0.4 7  105  17 
 GRA  SZ EP   1   1050 48.80                             139     0.0 7  123  14 
 GRA  SZ ES   1   1051  8.55                             139     0.0 7  123  14 
 GRA  SZ I        1051  9.78         7.3 0.25                           123  14 
 OCA  SZ EP   1   1050 52.14                             130     0.1 7  161 350 
 NOR  SN ES   1   1051 28.71                             119    -0.1 6  242 236 
 PRA  HZ IP   1   1051 17.71                             107     0.1 4  397 211 
                                                                                
