 2013  330 1754 15.0 L   6.796 -73.140143.3  RSN  9 0.5 2.6LRSN                1
 GAP=137        1.06       3.9     4.6  6.7 -0.1304E+01  0.7362E+01 -0.1911E+01E
 Epicentro: LOS SANTOS - SANTANDER                                             3
 ACTION:UPD 13-04-09 14:05 OP:ep   STATUS:               ID:20130330175414 L   I
 2013-03-30-1750-00M.COL___245                                                 6
 STAT SP IPHASW D HRMM SECON CODA AMPLIT PERI AZIMU VELO AIN AR TRES W  DIS CAZ7
 BAR2 SZ EP       1754 34.40                             170    0.0410 23.0 192 
 BAR2 SZ ES       1754 49.04                             170   -0.3910 23.0 192 
 BAR2 SZ I        1754 50.52       106.9 0.18            169           23.0 192 
 GIR2 SZ EP       1754 34.42                             167   -0.0110 31.8 349 
 BRR  HZ IP     C 1754 36.21                             152    0.2510 72.0 299 
 BRR  HE ES       1754 52.97                             152    0.6910 72.0 299 
 BRR  HE I        1754 58.09       102.0 0.16            150           72.0 299 
 PAM  SZ EP       1754 37.22                             150    0.2310 77.3  39 
 PAM  SE ES       1754 54.40                             150    0.3010 77.3  39 
 PAM  SE I        1754 55.92        60.2 0.48            155           77.3  39 
 RUS  HZ EP       1754 38.48                             144   -0.0310  100 176 
 RUS  HN ES       1754 56.83                             144    0.0110  100 176 
 RUS  HN I        1754 58.47        23.5 0.32            147            100 176 
 PTB  HZ EP   1   1754 41.31                             131   -0.54 7  148 259 
 PTB  HN ES   1   1755  1.78                             131   -0.99 7  148 259 
 PTB  HN I        1755  8.04        31.4 0.42            132            148 259 
 OCA  HZ EP       1754 42.64                             129   -0.56 9  161 353 
 OCA  HE ES       1755  4.49                             129   -0.68 9  161 353 
 OCA  HE I        1755  4.91        64.8 0.16            132            161 353 
 ZAR  HZ EP   1   1754 48.24                             122    0.84 6  205 292 
 ZAR  HN ES       1755 13.05                             122    0.41 9  205 292 
 ZAR  HN I        1755 18.35        43.0 0.22            123            205 292 
 NOR  HZ EP   1   1754 50.92                             118    0.27 6  235 235 
 NOR  HN ES   1   1755 18.34                             118   -0.09 6  235 235 
                                                                                
