 2016  330 1058  4.1 L   6.787 -73.207139.6  RSN  7 0.2 1.6LRSN                1
 GAP=130        0.73       3.4     3.6  5.0 -0.3468E+01  0.1049E+01  0.3329E+01E
 Epicentro: ZAPATOCA - SANTANDER                                               3
 ACTION:UPD 16-05-13 21:29 OP:cam  STATUS:               ID:20160330105804 L   I
 OLDACT:REG 16-03-30 20:24 OP:drio STATUS:               ID:20160330104748     3
 2016-03-30-1047-48M.COL___310                                                 6
 STAT SP IPHASW D HRMM SECON CODA AMPLIT PERI AZIMU VELO AIN AR TRES W  DIS CAZ7
 BAR2 EZ EP       1058 23.07                             170    0.0610 21.7 173 
 BAR2 EZ ES       1058 38.08                             170    0.3610 21.7 173 
 BAR2 EZ I        1058 38.84         7.4 0.16            172           21.7 173 
 PAM  EZ EP       1058 26.07                             148    0.0110 82.9  43 
 PAM  EE ES       1058 42.86                             148   -0.2910 82.9  43 
 PAM  EZ I        1058 44.57         6.1 0.28            149           82.9  43 
 RUS  HZ EP       1058 27.52                             142    0.2810 99.9 172 
 RUS  HE ES       1058 45.13                             142   -0.1310 99.9 172 
 PTB  HZ EP       1058 29.96                             132   -0.03 9  141 259 
 PTB  HN ES       1058 49.94                             132   -0.20 9  141 259 
 PTB  HZ I        1058 53.79         8.0 0.44            129            141 259 
 ZAR  HZ EP   9   1058 37.92                             122    2.31 0  198 293 
 ZAR  HN ES       1059  2.17                             122   -0.29 9  198 293 
 ZAR  HZ I        1059  6.96         5.5 0.34            120            198 293 
 CHI  HZ EP       1058 41.46                             116    0.29 8  246 194 
 CHI  HE ES       1059  9.63                             116   -0.43 8  246 194 
 CHI  HZ I        1059 13.71         2.2 0.38            116            246 194 
 GUY2CHZ EP   9   1058 48.77                             112    2.01 0  295 234 
 GUY2CHN ES       1059 22.71                             111    0.70 7  295 234 
 GUY2CHZ I        1059 28.44         2.3 0.28                           295 234 
                                                                                
