 2012 1230 1145 11.6 L   6.730 -73.205141.4  RSN  5 0.3 1.4LRSN                1
 GAP=224        0.63       5.5     4.5  5.6  0.1202E+02  0.4892E+01 -0.9813E+00E
 Epicentro: VILLANUEVA - SANTANDER                                             3
 ACTION:UPD 13-01-04 14:31 OP:ep   STATUS:               ID:20121230114511 L   I
 2012-12-30-1140-00M.COL___242                                                 6
 STAT SP IPHASW D HRMM SECON CODA AMPLIT PERI AZIMU VELO AIN AR TRES W  DIS CAZ7
 BAR2 SZ EP       1145 30.55                             173    0.0210 15.4 171 
 BAR2 SZ ES       1145 44.89                             173   -0.4410 15.4 171 
 BAR2 SZ I        1145 46.55         8.8 0.26                          15.4 171 
 BRR  HZ IP     C 1145 32.42                             152    0.2510 69.9 307 
 BRR  HZ I        1145 36.23         5.1 0.49                          69.9 307 
 BRR  HN ES   1   1145 48.55                             152    0.31 7 69.9 307 
 RUS  HZ EP   1   1145 34.18                             145   -0.21 7 93.6 172 
 RUS  HN ES   1   1145 52.59                             145    0.40 7 93.6 172 
 RUS  HN I        1145 55.03         3.5 0.45                          93.6 172 
 PTB  HZ EP       1145 37.40                             132   -0.07 9  140 261 
 PTB  HN ES       1145 57.73                             132    0.05 9  140 261 
 ZAR  HN ES   1   1146  8.07                             122   -0.21 6  201 295 
 ZAR  HZ I        1146 14.02         2.8 0.37                           201 295 
                                                                                
