 2010  830 1421 33.2 L   6.790 -73.044142.7  RSN  5 0.2 1.7LRSN                1
 GAP=170        0.59       3.0     6.7  6.6 -0.1720E+01 -0.1535E+02 -0.3031E+01E
 Epicentro: LOS SANTOS - SANTANDER                                             3
 ACTION:UP  10-09-07 10:59 OP:vdl  STATUS:               ID:20100830142133 L   I
 2010-08-30-1418-32S.COL___120                                                 6
 STAT SP IPHASW D HRMM SECON CODA AMPLIT PERI AZIMU VELO SNR AR TRES W  DIS CAZ7
 BAR2 SZ EP       1421 52.61                             169     0.110   27 215 
 BAR2 SZ ES   2   1422  7.54                             169     0.0 5   27 215 
 BAR2 SZ I        1422  9.04        11.7 0.21                            27 215 
 BRR  HZ EP       1421 54.29                             149    -0.310   82 295 
 BRR  HZ I        1421 54.59        15.1 0.13                            82 295 
 BRR  HN ES   1   1422 11.60                             149     0.2 7   82 295 
 RUS  HZ EP       1421 56.48                             144    -0.110   99 182 
 RUS  HE ES   1   1422 14.76                             144     0.0 7   99 182 
 RUS  HZ I        1422 16.23         4.2 0.54                            99 182 
 GUE  SZ EP       1421 57.64                             139     0.110  116   7 
 GRA  SZ EP       1421 58.23                             137     0.210  124  12 
 GRA  SZ ES   1   1422 17.07                             137    -0.3 7  124  12 
 GRA  SZ I        1422 20.62         7.1 0.36                           124  12 
                                                                                
