 2010  430 1220 13.1 L   6.840 -73.201152.0  RSN  5 0.2 1.8LRSN                1
 GAP=169        0.41       5.1     9.0  8.0 -0.2870E+02 -0.4007E+02  0.2853E+02E
 Epicentro: ZAPATOCA - SANTANDER                                               3
 ACTION:UPD 10-08-24 10:02 OP:vdl  STATUS:               ID:20100430122013 L   I
 2010-04-30-1217-11S.COL___105                                                 6
 STAT SP IPHASW D HRMM SECON CODA AMPLIT PERI AZIMU VELO SNR AR TRES W  DIS CAZ7
 BRR  HZ IP     C 1220 34.43                             160    -0.110   64 298 
 BRR  HZ I        1220 37.64         8.0 0.35                            64 298 
 BRR  HE ES   1   1220 51.44                             160     0.2 7   64 298 
 BRI  SZ EP   2   1220 37.49                             143     0.0 5  107  25 
 CHI  HZ EP   2   1220 52.00                             118     0.5 4  251 194 
 CHI  HE ES   2   1221 21.24                             118    -0.1 4  251 194 
 CHI  HZ I        1221 27.87         2.2 0.38                           251 194 
 RREF BZ EP   2   1220 59.35                             113     0.0 3  320 228 
 RREF BE ES   2   1221 35.39                             113     0.0 3  320 228 
 RREF BZ I        1221 43.20         3.1 0.44                           320 228 
 PRA  HE ES   2   1221 48.70                             108    -0.3 3  393 208 
 PRA  HZ I        1221 55.47         2.6 0.35                           393 208 
                                                                                
