 2011 1030 1628 39.2 L   6.591 -74.129  1.1  RSN  5 0.3 1.2LRSN                1
 GAP= 99        0.42       1.9     1.6  4.3 -0.2273E+00  0.1019E+01  0.1995E+00E
 Epicentro: PUERTO PARRA - SANTANDER                                           3
 ACTION:UPD 12-07-13 16:07 OP:ep   STATUS:               ID:20111030162839 L   I
 2011-10-30-1625-13S.COL___157                                                 6
 STAT SP IPHASW D HRMM SECON CODA AMPLIT PERI AZIMU VELO AIN AR TRES W  DIS CAZ7
 BRR  HZ EP   1   1628 51.21                              47   -0.12 7 73.3  39 
 BRR  HZ I        1628 51.73        11.4 0.11                          73.3  39 
 BRR  HN ES   2   1629  0.71                              47   -0.07 5 73.3  39 
 ZAR  HZ EP   2   1628 59.92                              47    0.28 5  128 321 
 ZAR  HN ES   2   1629 15.77                              47    0.20 5  128 321 
 ZAR  HZ I        1629 16.36         4.8 0.16                           128 321 
 RUS  HZ EP   1   1629  1.73                              47   -0.09 7  139 124 
 RUS  HZ I        1629  1.97         1.8 0.12                           139 124 
 RUS  HN ES   2   1629 19.60                              47    0.16 5  139 124 
 HEL  HZ EP   1   1629  4.93                              47   -0.08 7  161 254 
 HEL  HZ I        1629 24.08         3.1 0.65                           161 254 
 HEL  HN ES   2   1629 24.60                              47   -0.52 5  161 254 
 GUY  SZ EP   2   1629 11.88                              37    0.62 4  206 223 
 GUY  SN ES   2   1629 36.33                              37    0.09 4  206 223 
 GUY  SZ I        1629 38.60         2.8 0.41                           206 223 
                                                                                
