 2016  730 1038  6.0 L   5.898 -73.760117.3  RSN  7 0.3 1.5LRSN                1
 GAP=141        0.87       3.5     3.0  6.0 -0.1857E+01  0.3758E+01 -0.5612E+01E
 Epicentro: JESUS MARIA - SANTANDER                                            3
 ACTION:UPD 17-03-29 16:56 OP:lp   STATUS:               ID:20160730103806 L   I
 OLDACT:UP  16-07-30 22:08 OP:edw  STATUS:               ID:20160730102760d    3
 OLDACT:UP  16-07-30 21:43 OP:edw  STATUS:               ID:20160730102760d    3
 OLDACT:DUP 16-07-30 21:36 OP:edw  STATUS:               ID:20160730102760d    3
 OLDACT:UP  16-07-30 21:33 OP:edw  STATUS:               ID:20160730102759     3
 OLDACT:REG 16-07-30 20:11 OP:edw  STATUS:               ID:20160730102759     3
 2016-07-30-1027-59S.COL___337                                                 6
 STAT SP IPHASW D HRMM SECON CODA AMPLIT PERI AZIMU VELO AIN AR TRES W  DIS CAZ7
 SPBC HZ EP       1038 22.50                             158   -0.2110 44.0 232 
 SPBC HN ES       1038 35.51                             158   -0.2610 44.0 232 
 SPBC HZ I        1038 37.08        12.4 0.38            160           44.0 232 
 RUS  HZ EP       1038 25.16                             146    0.0710 75.0  90 
 RUS  HN ES       1038 39.77                             146   -0.2310 75.0  90 
 RUS  HZ I        1038 44.46         4.5 0.62            147           75.0  90 
 BAR2 EZ EP       1038 27.05                             137    0.4110 99.9  40 
 BAR2 EZ ES       1038 42.82                             137    0.0610 99.9  40 
 PTB  HZ EP       1038 26.07                             135   -0.6710  105 313 
 PTB  HE ES       1038 43.33                             135    0.3910  105 313 
 PTB  HZ I        1038 44.44         6.6 0.42            138            105 313 
 NOR  HZ EP       1038 29.27                             129    0.3310  128 253 
 NOR  HE ES       1038 47.17                             129    0.3210  128 253 
 NOR  HZ I        1038 48.58         8.1 0.52            132            128 253 
 BRR  HZ EP       1038 29.66                             128    0.2810  134   2 
 BRR  HN ES       1038 47.76                             128    0.1110  134   2 
 ZAR  HZ EP       1038 37.50                             114   -0.34 8  214 326 
 ZAR  HN ES       1039  2.31                             114   -0.39 8  214 326 
 ZAR  HZ I        1039  4.24         4.0 0.12            117            214 326 
                                                                                
