 2014 1130 1706 46.8 L   6.831 -73.148149.9  RSN 26 0.5 2.6LRSN                1
 GAP= 56        1.11       2.7     2.7  4.5 -0.1138E+01  0.2637E+01  0.1085E+01E
 Epicentro: LOS SANTOS - SANTANDER                                             3
 ACTION:UPD 14-12-19 15:49 OP:nd   STATUS:               ID:20141130170646 L   I
 OLDACT:REG 14-11-30 21:31 OP:fm   STATUS:               ID:20141130165745     3
 2014-11-30-1657-45M.COL___297                                                 6
 STAT SP IPHASW D HRMM SECON CODA AMPLIT PERI AZIMU VELO AIN AR TRES W  DIS CAZ7
 BAR2 SZ EP       17 7  7.22                             169    0.2010 26.7 188 
 BAR2 SZ ES       17 7 22.62                             169   -0.1510 26.7 188 
 BAR2 SZ I        17 7 25.05       111.1 0.26            168           26.7 188 
 BRR  HZ EP       17 7  8.93                             154    0.6110 69.4 296 
 BRR  HE ES       17 7 25.86                             154    0.7710 69.4 296 
 BRR  HZ I        17 7 29.97        85.8 0.26            152           69.4 296 
 PAM  SZ EP     C 17 7 10.06                             152    0.7310 74.9  41 
 PAM  SN ES       17 7 27.01                             152    0.1210 74.9  41 
 PAM  SZ I        17 7 30.27        61.5 0.34            156           74.9  41 
 RUS  HZ EP     D 17 7 11.20                             144   -0.0310  104 176 
 RUS  HN ES       17 7 29.18                             144   -1.0810  104 176 
 RUS  HZ I        17 7 31.31        48.6 0.30            145            104 176 
 PTB  HZ EP       17 7 13.95                             133   -0.22 9  148 258 
 PTB  HE ES       17 7 34.92                             133   -0.58 9  148 258 
 PTB  HZ I        17 7 37.56        45.3 0.14            132            148 258 
 TAM  HZ IP     C 17 7 15.69                             131    0.76 9  156 106 
 TAM  HN ES       17 7 36.47                             131   -0.39 9  156 106 
 TAM  HZ I        17 7 36.77        29.3 0.28            135            156 106 
 OCA  HZ EP       17 7 14.84                             131   -0.30 9  157 353 
 OCA  HE ES       17 7 37.24                             131    0.02 9  157 353 
 OCA  HZ I        17 7 45.64        56.4 0.24            133            157 353 
 SPBC HZ EP       17 7 16.23                             129    0.35 9  166 218 
 SPBC HE ES       17 7 38.70                             129    0.16 9  166 218 
 SPBC HZ I        17 7 45.15        71.8 0.36            130            166 218 
 ZAR  HZ EP       17 7 18.64                             123   -0.75 9  203 291 
 ZAR  HN ES       17 7 44.81                             123    0.02 9  203 291 
 ZAR  HZ I        17 7 50.44        50.1 0.26            124            203 291 
 NOR  HZ EP       17 7 22.71                             119   -0.28 8  237 234 
 NOR  HE ES       17 7 51.40                             119    0.20 8  237 234 
 NOR  HZ I        17 7 58.15        30.0 0.18            120            237 234 
 CHI  HZ EP       17 7 25.56                             118    0.45 8  252 195 
 CHI  HN ES       17 7 54.50                             118   -0.46 8  252 195 
 CHI  HZ I        17 8  0.08        24.4 0.32            119            252 195 
 HEL  HZ EP       17 7 27.30                             115   -0.02 8  273 255 
 HEL  HE ES       17 7 58.73                             115   -0.18 8  273 255 
 HEL  HZ I        17 8  7.50        22.2 0.36            116            273 255 
 URE  HZ EP   4   17 7 23.89                             114   -4.04 0  282 291 
 URE  HE ES   4   17 7 56.91                             114   -3.09 0  282 291 
 URE  HZ I        17 8 10.77        21.6 0.34            115            282 291 
 GUY2CHZ EP       17 7 31.45                             113    0.62 7  303 234 
 GUY2CHE ES       17 8  5.38                             113    0.23 7  303 234 
 GUY2CHZ I        17 8 13.65        25.5 0.62                           303 234 
 VIL  SZ EP   1   17 7 30.84                             112    0.03 5  307 191 
 VIL  SN ES   4   17 8  2.63                             112   -2.48 0  307 191 
 VIL  SZ I        17 8  8.09        31.2 0.34            114            307 191 
 PTGC HZ EP       17 7 30.75                             112   -0.49 7  312 159 
 PTGC HE ES   4   17 8  2.37                             112   -3.51 0  312 159 
 PTGC HZ I        17 8 11.89        19.8 0.28            114            312 159 
 RREF HZ EP   4   17 7 35.16                             111    1.78 0  324 229 
 RREF HN ES   4   17 8 11.18                             111    1.48 0  324 229 
 RREF HZ I        17 8 14.40        25.7 0.28            112            324 229 
 CBOC HZ EP       17 7 34.87                             110    0.86 7  334 252 
 CBOC HN ES   4   17 8  8.61                             110   -2.21 0  334 252 
 CBOC HZ I        17 8 20.16         6.6 0.56            111            334 252 
 DBB  SZ EP       17 7 34.05                             110   -0.37 7  339 274 
 DBB  SZ ES   4   17 8  6.54                             110   -5.00 0  339 274 
 TOL  SZ EP       17 7 36.15                             110    0.64 6  346 224 
 TOL  SN ES       17 8 13.66                             110    0.17 6  346 224 
 TOL  SZ I        17 8 23.62        47.5 0.34            111            346 224 
 MON  HZ EP       17 7 35.32                             109   -0.40 6  351 308 
 MON  HE ES       17 8 13.27                             109   -0.59 6  351 308 
 MON  HZ I        17 8 15.04         9.4 0.34            110            351 308 
 SDV  BZ EP       17 7 36.58                             109   -0.21 6  358  51 
 SDV  BE ES   1   17 8 14.81                             109   -0.95 5  358  51 
 ANIL HZ EP   4   17 7 38.58                             109    1.52 0  360 224 
 ANIL HN ES   4   17 8 17.75                             109    1.52 0  360 224 
 ANIL HZ I        17 8 23.56         5.9 0.32            110            360 224 
 ORTC HZ EP       17 7 41.53                             107    0.33 6  398 216 
 ORTC HN ES       17 8 24.15                             107    0.54 6  398 216 
 ORTC HZ I        17 8 31.14        12.1 0.36            108            398 216 
 SJC  HZ EP       17 7 41.22                             106   -0.95 6  406 327 
 SJC  HE ES   4   17 8 21.58                             106   -3.76 0  406 327 
 SJC  HZ I        17 8 32.04         5.7 0.44            107            406 327 
 PAL  HZ EP       17 7 41.91                             106   -0.40 6  407 239 
 PAL  HE ES       17 8 24.92                             106   -0.67 6  407 239 
 PAL  HZ I        17 8 32.62         7.1 0.30            107            407 239 
                                                                                
