 2011  130 1927 25.1 L   6.721 -73.064135.9  RSN  9 0.5 2.2LRSN                1
 GAP=133        1.13       8.2    12.4  9.6 -0.6363E+02  0.3536E+02 -0.2121E+02E
 Epicentro: JORDAN - SANTANDER                                                 3
 ACTION:UP  11-02-08 08:43 OP:pat  STATUS:               ID:20110130192725 L   I
 2011-01-30-1925-12S.COL___134                                                 6
 STAT SP IPHASW D HRMM SECON CODA AMPLIT PERI AZIMU VELO SNR AR TRES W  DIS CAZ7
 BAR2 SZ IP       1927 43.61                             172     0.210   19 223 
 BAR2 SZ I        1927 43.91        63.9 0.07                            19 223 
 BAR2 SZ ES   1   1927 57.30                             172    -0.5 7   19 223 
 RUS  HZ EP       1927 47.55                             144     0.310   92 181 
 RUS  HZ I        1927 48.43        11.5 0.07                            92 181 
 RUS  HN ES   2   1928  4.48                             144     0.0 5   92 181 
 GRA  SZ EP       1927 50.57                             133     0.610  132  13 
 GRA  SZ I        1928 12.30        26.2 0.40                           132  13 
 NOR  SZ EP       1928  0.01                             116    -0.6 8  237 238 
 CHI  HZ EP   2   1928  1.94                             116     0.3 4  243 198 
 CHI  HN ES   1   1928 30.13                             116     0.0 6  243 198 
 CHI  HZ I        1928 37.72         5.5 0.51                           243 198 
 HEL  HZ EP   2   1928  5.24                             112    -0.3 4  279 258 
 HEL  HZ I        1928 42.63        13.3 0.25                           279 258 
 GUY  SZ EP   2   1928  9.24                             110     0.7 4  304 237 
 RREF HZ EP       1928 10.93                             109     0.0 7  323 232 
 RREF HZ I        1928 52.78         9.0 0.23                           323 232 
 SDV  BZ EP       1928 13.52                             107    -1.1 6  359  48 
 SDV  BZ I        1928 14.25         4.2 0.11                           359  48 
                                                                                
