 2016  930 1829 12.9 L   6.801 -73.166147.8  RSN  7 0.4 1.7LRSN                1
 GAP=134        1.10       4.8     4.7  7.5 -0.1108E+01  0.6829E+01  0.3169E+01E
 Epicentro: LOS SANTOS - SANTANDER                                             3
 ACTION:UPD 17-08-17 21:18 OP:lp   STATUS:               ID:20160930182912 L   I
 OLDACT:REG 16-09-30 20:24 OP:dani STATUS:               ID:20160930182744     3
 2016-09-30-1828-00M.COL___369                                                 6
 STAT SP IPHASW D HRMM SECON CODA AMPLIT PERI AZIMU VELO AIN AR TRES W  DIS CAZ7
 BAR2 EZ EP       1829 32.61                             171   -0.1110 23.1 184 
 BAR2 EZ ES       1829 47.82                             171   -0.4010 23.1 184 
 BAR2 EZ I        1829 48.88        12.0 0.27            171           23.1 184 
 BRR  HZ EP       1829 34.47                             153    0.3610 69.2 299 
 BRR  HE ES       1829 51.70                             153    1.0110 69.2 299 
 BRR  HZ I        1829 51.71        12.2 0.33            152           69.2 299 
 PAM  EZ EP       1829 34.95                             151   -0.4210 78.8  41 
 PAM  EN ES       1829 52.69                             151   -0.2310 78.8  41 
 PAM  EZ I        1829 54.94        13.9 0.50            152           78.8  41 
 RUS  HZ EP       1829 37.16                             144    0.3410  101 175 
 RUS  HN ES       1829 55.67                             144    0.1510  101 175 
 RUS  HZ I        1829 56.45         6.7 0.28            146            101 175 
 PTB  HZ EP       1829 39.88                             133    0.09 9  146 259 
 PTB  HN ES       1830  0.34                             133   -0.46 9  146 259 
 PTB  HZ I        1830  2.35         4.5 0.08            132            146 259 
 SPBC HZ EP       1829 41.63                             130    0.25 9  162 218 
 SPBC HE ES       1830  3.33                             130   -0.30 9  162 218 
 SPBC HZ I        1830  6.83         9.0 0.09            130            162 218 
 ZAR  HN ES       1830 10.00                             123   -0.46 9  202 292 
 ZAR  HZ I        1830 16.74         3.5 0.16            123            202 292 
                                                                                
