 2011 1130 1556 16.8 L   6.771 -73.106146.7  RSN  6 0.2 1.9LRSN                1
 GAP=143        0.48       2.7     3.5  3.9 -0.3021E+01  0.2329E+01  0.2798E+01E
 Epicentro: LOS SANTOS - SANTANDER                                             3
 ACTION:UPD 12-07-13 16:13 OP:ep   STATUS:               ID:20111130155616 L   I
 2011-11-30-1554-49S.COL___161                                                 6
 STAT SP IPHASW D HRMM SECON CODA AMPLIT PERI AZIMU VELO AIN AR TRES W  DIS CAZ7
 BAR2 SZ EP       1556 36.51                             171   -0.0110 21.5 203 
 BAR2 SZ ES   1   1556 51.53                             171   -0.36 7 21.5 203 
 BAR2 SZ I        1556 52.97        21.0 0.13                          21.5 203 
 BRR  HZ EP       1556 38.30                             151   -0.0710 76.6 299 
 BRR  HN ES   1   1556 55.55                             151    0.35 7 76.6 299 
 BRR  HZ I        1557  0.45        28.9 0.45                          76.6 299 
 PAM  SZ EP       1556 39.33                             151    0.2110 77.3  35 
 PAM  SE ES       1556 56.35                             151   -0.1710 77.3  35 
 RUS  HZ EP       1556 40.39                             145   -0.0210 97.1 179 
 RUS  HN ES   1   1556 59.13                             145    0.32 7 97.1 179 
 RUS  HZ I        1557  0.84         9.3 0.37                          97.1 179 
 NOR  SZ EP   1   1556 52.69                             118   -0.09 6  236 236 
 NOR  SE ES   1   1557 20.65                             118   -0.19 6  236 236 
 CHI  HZ EP   1   1556 54.21                             117   -0.14 6  247 196 
 CHI  HN ES   2   1557 23.85                             117    0.22 4  247 196 
 CHI  HZ I        1557 27.43         4.4 0.46                           247 196 
                                                                                
