 2013  330 1808 36.5 L   6.779 -73.151147.4  RSN  6 0.3 2.0LRSN                1
 GAP=184        0.70       4.8     4.9  5.4  0.1335E+02  0.5544E+01  0.2631E+01E
 Epicentro: LOS SANTOS - SANTANDER                                             3
 ACTION:UPD 13-04-09 14:05 OP:ep   STATUS:               ID:20130330180836 L   I
 2013-03-30-1800-00M.COL___245                                                 6
 STAT SP IPHASW D HRMM SECON CODA AMPLIT PERI AZIMU VELO AIN AR TRES W  DIS CAZ7
 BAR2 SZ I        18 7 58.68        28.1 0.36            171           20.9 190 
 BAR2 SZ EP       18 8 55.90                             172   -0.3510 20.9 190 
 BAR2 SZ ES   1   18 9 11.86                             172    0.18 7 20.9 190 
 GIR2 SZ EP   1   18 8 56.28                             167   -0.12 7 33.5 352 
 GIR2 SZ ES   1   18 9 11.44                             167   -0.50 7 33.5 352 
 GIR2 SZ I        18 9 12.59         8.5 0.30             47           33.5 352 
 BRR  HZ EP       18 8 57.95                             153    0.1110 71.9 300 
 BRR  HE ES       18 9 14.90                             153    0.4110 71.9 300 
 BRR  HE I        18 9 16.36        20.7 0.18             47           71.9 300 
 RUS  HZ EP       18 9  0.39                             145    0.1710 98.3 176 
 RUS  HN ES       18 9 18.84                             145    0.1010 98.3 176 
 RUS  HN I        18 9 20.48        11.0 0.46             47           98.3 176 
 PTB  HZ EP       18 9  3.58                             133    0.09 9  147 260 
 PTB  HN ES   1   18 9 23.85                             133   -0.70 7  147 260 
 PTB  HN I        18 9 26.23         9.7 0.12             47            147 260 
 ZAR  HZ EP   2   18 9  9.22                             123    0.15 4  204 293 
 ZAR  HE ES       18 9 34.55                             123    0.07 9  204 293 
 ZAR  HE I        18 9 39.27        19.7 0.20             37            204 293 
                                                                                
