 2011 1130 1233 49.8 L   6.765 -73.135145.8  RSN  6 0.1 1.7LRSN                1
 GAP=139        0.37       2.3     2.8  3.0 -0.2308E+01  0.1548E+01  0.5978E+00E
 Epicentro: LOS SANTOS - SANTANDER                                             3
 ACTION:UPD 12-07-13 16:13 OP:ep   STATUS:               ID:20111130123349 L   I
 2011-11-30-1230-36S.COL___161                                                 6
 STAT SP IPHASW D HRMM SECON CODA AMPLIT PERI AZIMU VELO AIN AR TRES W  DIS CAZ7
 BAR2 SZ EP       1234  9.33                             172   -0.0110 19.8 195 
 BAR2 SZ ES       1234 24.65                             172    0.0510 19.8 195 
 BAR2 SZ I        1234 26.13        22.6 0.27                          19.8 195 
 BRR  HZ EP       1234 11.19                             151    0.1010 74.1 301 
 BRR  HN ES   1   1234 27.88                             151    0.16 7 74.1 301 
 BRR  HZ I        1234 35.86        11.7 0.36                          74.1 301 
 PAM  SZ EP       1234 12.20                             150    0.0710 79.7  37 
 PAM  SN ES       1234 29.35                             150   -0.2210 79.7  37 
 RUS  HZ EP   1   1234 13.28                             145    0.04 7 96.6 177 
 RUS  HN ES   1   1234 31.61                             145    0.06 7 96.6 177 
 RUS  HZ I        1234 33.27         4.8 0.42                          96.6 177 
 NOR  SZ EP   2   1234 25.25                             119   -0.11 4  233 235 
 NOR  SE ES   1   1234 52.74                             119   -0.38 6  233 235 
 CHI  HZ EP   2   1234 27.21                             117    0.11 4  245 196 
 CHI  HZ I        1235  5.41         3.1 0.35                           245 196 
                                                                                
