 2014  830 1320 42.4 L   6.783 -73.157136.5  RSN 18 0.6 2.2LRSN                1
 GAP=136        1.90       4.9     6.1  9.0 -0.4546E+01  0.1639E+02  0.9867E+01E
 Epicentro: LOS SANTOS - SANTANDER                                             3
 ACTION:UPD 14-09-15 21:54 OP:nd   STATUS:               ID:20140830132042 L   I
 OLDACT:REG 14-08-30 20:50 OP:stll STATUS:               ID:20140830131818     3
 2014-08-30-1318-18M.COL___269                                                 6
 STAT SP IPHASW D HRMM SECON CODA AMPLIT PERI AZIMU VELO AIN AR TRES W  DIS CAZ7
 BAR2 SZ IP     C 1321  1.14                             170    0.2410 21.2 188 
 BAR2 SZ ES       1321 15.77                             170    0.4510 21.2 188 
 BAR2 SZ I        1321 17.22        73.4 0.18            170           21.2 188 
 BRR  HZ IP     C 1321  2.93                             151    0.3510 71.1 300 
 BRR  HZ I        1321  3.19        37.3 0.26            148           71.1 300 
 BRR  HN ES       1321 19.13                             151    0.8410 71.1 300 
 PAM  SZ EP     C 1321  3.81                             148   -0.0010 79.6  39 
 PAM  SZ I        1321  4.18        98.7 0.22            151           79.6  39 
 PAM  SN ES       1321 20.36                             148   -0.1310 79.6  39 
 RUS  HZ EP       1321  5.55                             142    0.4010 98.8 175 
 RUS  HE ES       1321 22.15                             142   -0.7110 98.8 175 
 RUS  HZ I        1321 25.34        22.4 0.36            144           98.8 175 
 PTB  HZ EP       1321  8.11                             130   -0.40 9  146 259 
 PTB  HN ES       1321 28.17                             130   -0.69 9  146 259 
 PTB  HZ I        1321 33.98        22.4 0.34            129            146 259 
 SPBC HZ EP       1321 10.04                             127    0.02 9  161 219 
 SPBC HZ I        1321 10.46        23.8 0.18            127            161 219 
 SPBC HN ES       1321 31.27                             127   -0.26 9  161 219 
 OCA  HZ EP       1321  9.71                             127   -0.50 9  162 354 
 OCA  HN ES       1321 30.79                             127   -1.09 9  162 354 
 OCA  HZ I        1321 32.81        17.4 0.36            127            162 354 
 ZAR  HZ EP       1321 15.36                             120    1.11 9  204 293 
 ZAR  HN ES       1321 39.78                             120    0.71 9  204 293 
 ZAR  HZ I        1321 44.63        17.3 0.30            120            204 293 
 NOR  HZ EP       1321 17.44                             116    0.03 8  233 235 
 NOR  HN ES       1321 44.65                             116   -0.04 8  233 235 
 NOR  HZ I        1321 50.51         7.9 0.54            117            233 235 
 SML  HZ EP   9   1321 17.43                             115   -1.26 0  245 336 
 SML  HN ES       1321 44.39                                   -1.32 8  245 336 
 SML  HZ I        1321 52.86        16.3 0.10            115            245 336 
 CHI  HZ EP       1321 18.90                             115   -0.49 8  246 195 
 CHI  HZ I        1321 21.89         6.6 0.42            116            246 195 
 CHI  HN ES       1321 48.50                             115    0.28 8  246 195 
 HEL  HZ IP     C 1321 23.23                             113    1.23 8  270 256 
 HEL  HE ES       1321 52.17                             113   -0.70 8  270 256 
 HEL  HZ I        1322  0.29        12.7 0.42            113            270 256 
 GUY2CHZ EP       1321 24.93                             110   -0.46 7  299 235 
 GUY2CHN ES       1321 59.35                             110    0.46 7  299 235 
 GUY2CHZ I        1322  6.55         5.9 0.24                           299 235 
 CBOC HZ EP       1321 29.00                             108    0.23 7  332 252 
 CBOC HE ES       1322  3.44                             108   -1.48 7  332 252 
 TOL  SZ EP       1321 30.88                             107    0.81 7  341 225 
 TOL  SE ES       1322  6.97                             107   -0.26 7  341 225 
 MON  HZ EP   9   1321 27.52                             107   -3.60 0  354 309 
 MON  HN ES       1322  7.29                                    1.79 6  354 309 
 MON  HZ I        1322 16.82         2.3 0.32            107            354 309 
 PRA  HZ EP       1321 35.06                             105   -0.32 6  390 210 
 PRA  HN ES       1322 16.62                             105   -0.06 6  390 210 
 PRA  HZ I        1322 24.34         6.7 0.22            105            390 210 
 SJC  HZ EP   9   1321 35.36                             104   -2.45 0  410 327 
 SJC  HN ES       1322 14.28                                   -4.28 6  410 327 
 SJC  HZ I        1322 20.99         4.9 0.44            104            410 327 
                                                                                
