 2013 1030 1633 10.6 L   6.517 -73.563111.6  RSN  8 0.5 2.1LRSN                1
 GAP= 68        1.29       4.1     4.0  8.2 -0.2335E+01  0.8901E+01 -0.4055E+00E
 Epicentro: EL CARMEN DE CHUCURI - SANTANDER                                   3
 ACTION:UPD 13-11-25 09:24 OP:ep   STATUS:               ID:20131030163310 L   I
 OLDACT:REG 13-10-30 16:52 OP:carl STATUS:               ID:20131030162839     3
 2013-10-30-1628-39M.COL___224                                                 6
 STAT SP IPHASW D HRMM SECON CODA AMPLIT PERI AZIMU VELO AIN AR TRES W  DIS CAZ7
 BAR2 SZ IP     D 1633 27.09                             158    0.2810 42.9  79 
 BAR2 SZ ES       1633 39.22                             158   -0.2810 42.9  79 
 BAR2 SZ I        1633 41.08       269.4 0.44            162           42.9  79 
 BRR  HZ IP       1633 28.02                             147    0.1510 67.3 346 
 BRR  HN ES       1633 42.24                             147    0.8710 67.3 346 
 RUS  HZ EP       1633 30.14                             140    0.1310 87.1 142 
 RUS  HN ES       1633 45.58                             140    0.3910 87.1 142 
 RUS  HZ I        1633 47.00        14.5 0.42            142           87.1 142 
 PTB  HZ EP       1633 29.90                             135   -0.4310 98.8 271 
 PTB  HN ES       1633 44.73                             135   -1.0210 98.8 271 
 SPBC HZ EP       1633 31.75                             132    0.2510  111 211 
 SPBC HE ES       1633 48.10                             132    0.2510  111 211 
 SPBC HZ I        1633 53.92        19.0 0.36            133            111 211 
 PAM  SZ EP       1633 33.66                             127   -0.3510  132  46 
 PAM  SN ES       1633 51.55                             127   -0.7510  132  46 
 PAM  SZ I        1633 52.63         8.6 0.18            131            132  46 
 ZAR  HZ EP       1633 38.44                             117    0.15 9  179 307 
 ZAR  HN ES       1634  0.57                             117    0.64 9  179 307 
 ZAR  HZ I        1634  3.74        13.3 0.38            119            179 307 
 NOR  HZ EP       1633 38.58                             117    0.25 9  179 234 
 NOR  HE ES       1633 59.50                             117   -0.49 9  179 234 
 NOR  HZ I        1634  4.58        11.4 0.18            119            179 234 
                                                                                
