 2013  430 1053 21.1 L   6.823 -73.127148.3  RSN 21 0.5 3.5LRSN 3.6WRSN        1
 SPEC AVERAGE  MO 14.5 ST 27.1 OM  2.7 f0 3.41 R0.4656 AL 2.49 WI 31.2 MW  3.6 3
 SPEC SD       MO  0.1 ST 32.4 OM  0.5 f00.989 R0.1260 AL      WI      MW  0.1 3
 GAP= 71        1.00       3.0     3.1  5.2 -0.7556E+00  0.7369E+00 -0.1615E+01E
 Epicentro: LOS SANTOS - SANTANDER                                             3
 SPEC URE HH N MO 14.5 ST 28.6 OM  2.6 f0 4.02 R0.3657 AL 2.32 WI 43.4 MW  3.6 3
 SPEC URE HH N T105429 K 0.000 GD  321 VS 4.20 DE 3.20 Q0300.0 QA 0.60 VS 4.20 3
 SPEC ZAR HH N MO 14.7 ST124.7 OM  2.9 f0 5.65 R0.2602 AL 2.50 WI 25.6 MW  3.7 3
 SPEC ZAR HH N T105417 K 0.000 GD  253 VS 4.20 DE 3.20 Q0300.0 QA 0.60 VS 4.20 3
 SPEC TAM HH N MO 14.6 ST 14.5 OM  2.9 f0 2.92 R0.5034 AL 3.33 WI 24.5 MW  3.7 3
 SPEC TAM HH N T1054 8 K 0.000 GD  213 VS 4.20 DE 3.20 Q0300.0 QA 0.60 VS 4.20 3
 SPEC PTB HH N MO 14.6 ST 16.5 OM  2.9 f0 3.06 R0.4804 AL 2.06 WI 22.6 MW  3.7 3
 SPEC PTB HH N T1054 7 K 0.000 GD  210 VS 4.20 DE 3.20 Q0300.0 QA 0.60 VS 4.20 3
 SPEC RUS HH N MO 14.5 ST  6.8 OM  2.8 f0 2.59 R0.5676 AL 2.80 WI 24.3 MW  3.6 3
 SPEC RUS HH N T1054 1 K 0.000 GD  180 VS 4.20 DE 3.20 Q0300.0 QA 0.60 VS 4.20 3
 SPEC PRA HH Z MO 14.6 ST 54.9 OM  1.8 f0 4.66 R0.3155 AL 3.32 WI 38.5 MW  3.7 3
 SPEC PRA HH Z T105412 K 0.000 GD  421 VP 7.60 DE 3.20 Q0300.0 QA 0.60 VS 4.20 3
 SPEC HEL HH Z MO 14.5 ST 17.1 OM  1.8 f0 3.49 R0.4212 AL 2.70 WI 28.9 MW  3.6 3
 SPEC HEL HH Z T1054 0 K 0.000 GD  312 VP 7.60 DE 3.20 Q0300.0 QA 0.60 VS 4.20 3
 SPEC NOR HH Z MO 14.6 ST 27.1 OM  2.0 f0 3.62 R0.4061 AL 2.36 WI 27.9 MW  3.7 3
 SPEC NOR HH Z T105353 K 0.000 GD  280 VP 7.60 DE 3.20 Q0300.0 QA 0.60 VS 4.20 3
 SPEC COD HH N MO 14.7 ST  6.4 OM  2.7 f0 2.15 R0.6837 AL 2.01 WI 42.0 MW  3.7 3
 SPEC COD HH N T105443 K 0.000 GD  376 VS 4.20 DE 3.20 Q0300.0 QA 0.60 VS 4.20 3
 SPEC BRR HH Z MO 14.4 ST 19.6 OM  2.0 f0 3.88 R0.3789 AL 2.12 WI 19.3 MW  3.5 3
 SPEC BRR HH Z T105339 K 0.000 GD  164 VP 7.60 DE 3.20 Q0300.0 QA 0.60 VS 4.20 3
 SPEC GIR2SH Z MO 14.3 ST  2.9 OM  2.7 f0 2.24 R0.6562 AL 2.13 WI 37.4 MW  3.5 3
 SPEC GIR2SH Z T105354 K 0.000 GD  151 VS 4.20 DE 3.20 Q0300.0 QA 0.60 VS 4.20 3
 SPEC BAR2SH Z MO 14.4 ST  6.3 OM  2.8 f0 2.68 R0.5485 AL 2.22 WI 40.4 MW  3.5 3
 SPEC BAR2SH Z T105353 K 0.000 GD  150 VS 4.20 DE 3.20 Q0300.0 QA 0.60 VS 4.20 3
 ACTION:UPD 13-05-22 14:41 OP:EP   STATUS:               ID:20130430105321 L   I
 2013-04-30-1050-00M.COL___253                                                 6
 STAT SP IPHASW D HRMM SECON CODA AMPLIT PERI AZIMU VELO AIN AR TRES W  DIS CAZ7
 CNOCAEZ EP   4   1053 57.38                             119                    
 BAR2 SZ IP     C 1053 41.29                             170    0.2110 26.2 194 
 BAR2 SZ ES   1   1053 56.42                             170   -0.25 7 26.2 194 
 BAR2 SZ I        1053 57.96       495.7 0.26            164           26.2 194 
 GIR2 SZ EP     D 1053 41.34                             168    0.3410 29.2 345 
 GIR2 SZ ES   1   1053 56.22                             168   -0.32 7 29.2 345 
 GIR2 SZ I        1053 58.08       278.9 0.42            169           29.2 345 
 BRR  HZ IP     D 1053 43.17                             153    0.6210 71.9 296 
 BRR  HE ES   1   1053 59.83                             153    0.54 7 71.9 296 
 BRR  HZ I        1054  5.47       247.7 0.16            149           71.9 296 
 RUS  HZ IP     D 1053 45.16                             144   -0.1010  103 177 
 RUS  HN ES       1054  3.58                             144   -0.5310  103 177 
 RUS  HZ I        1054  4.68       229.1 0.32            136            103 177 
 CAPV BZ EP       1053 49.15                             133    0.76 9  146  38 
 PTB  HZ EP       1053 47.78                             132   -0.71 9  150 258 
 PTB  HN ES   1   1054  9.18                             132   -0.69 7  150 258 
 PTB  HZ I        1054 16.86       418.7 0.34            126            150 258 
 TAM  HZ IP     D 1053 49.47                             131    0.63 9  154 106 
 TAM  HZ I        1054 10.30       196.0 0.40            125            154 106 
 TAM  HE ES   1   1054 10.32                             131   -0.16 7  154 106 
 OCA  HZ EP   1   1053 49.13                             131   -0.25 7  158 352 
 OCA  HN ES       1054 11.38                             131   -0.07 9  158 352 
 OCA  HZ I        1054 17.64       344.9 0.34            126            158 352 
 ZAR  HZ EP   1   1053 53.91                             123    0.11 6  205 291 
 ZAR  HN ES       1054 19.55                             123    0.23 9  205 291 
 ZAR  HN I        1054 21.26       517.8 0.14            117            205 291 
 ZAR  HZ I        1054 25.72       286.9 0.36                           205 291 
 CTAB SZ EP   4   1053 58.81                             119    1.48 0  233 211 
 NOR  HZ EP   1   1053 57.08                             119   -0.22 6  238 234 
 NOR  HN ES       1054 25.59                             119    0.04 8  238 234 
 SML  HZ EP   1   1053 57.33                             118   -0.37 6  242 335 
 SML  HN ES   1   1054 26.00                             118   -0.26 6  242 335 
 SML  HZ I        1054 29.89       356.3 0.10            114            242 335 
 ROSC BZ EP   4   1054  0.97                             117    1.27 0  256 211 
 ROSC BN ES   4   1054 31.90                             117    2.09 0  256 211 
 ROSC BZ I        1054 35.84       316.2 0.43            111            256 211 
 HEL  HZ EP   1   1054  2.00                             115    0.28 6  275 255 
 HEL  HN ES       1054 33.92                             115    0.50 8  275 255 
 HEL  HZ I        1054 39.65       139.7 0.44            110            275 255 
 URE  HZ EP   4   1054  1.06                             114   -1.33 0  285 291 
 URE  HN ES   4   1054 32.02                             114   -2.59 0  285 291 
 URE  HN I        1054 42.36       282.5 0.28            109            285 291 
 SOCV BZ EP       1054  3.39                             113   -0.50 7  298  57 
 RREF HZ EP   1   1054  8.27                             111    0.56 5  325 229 
 RREF HZ I        1054 53.30       182.0 0.36            106            325 229 
 DBB  SZ EP   4   1054  8.92                             110    0.04 0  341 274 
 COD  HZ EP       1054  8.57                             109   -0.72 6  346 354 
 COD  HN ES   1   1054 46.30                             109   -0.60 5  346 354 
 SDV  BZ EP   4   1054 10.43                             109   -0.42 0  357  50 
 PRA  HZ EP     D 1054 14.16                             107   -0.91 6  395 210 
 PRA  HN ES   1   1054 57.92                             107    0.74 4  395 210 
 PRA  HZ I        1055  2.74       182.7 0.64            102            395 210 
 SJC  HZ EP   4   1054 14.98                             106   -1.64 0  408 327 
 SJC  HN ES   4   1054 56.72                             106   -3.21 0  408 327 
 SJC  HN I        1054 59.54       101.1 0.33            102            408 327 
 SMAR HZ EP   1   1054 25.78                             103   -1.01 3  495 346 
 SMAR HE ES   4   1055 14.16                             103   -3.88 0  495 346 
 URI  HZ EP   4   1054 31.63                             101   -2.16 0  554  13 
 URI  HN ES   4   1055 25.11                             101   -5.39 0  554  13 
 URI  HN I        1055 29.29        23.4 0.44             98            554  13 
                                                                                
