 2012 1130 1113 11.1 L   6.788 -73.180141.4  RSN  5 0.1 1.4LRSN                1
 GAP=133        0.37       3.5     2.3  7.2  0.1438E+01 -0.1014E+01 -0.1310E+02E
 Epicentro: LOS SANTOS - SANTANDER                                             3
 ACTION:UPD 12-12-05 15:37 OP:}ep  STATUS:               ID:20121130111311 L   I
 2012-11-30-1110-00M.COL___236                                                 6
 STAT SP IPHASW D HRMM SECON CODA AMPLIT PERI AZIMU VELO AIN AR TRES W  DIS CAZ7
 BAR2 SZ EP       1113 30.01                             171   -0.1310 21.6 181 
 BAR2 SZ I        1113 46.38         6.8 0.20                          21.6 181 
 PAM  SZ EP       1113 33.04                             149    0.0110 80.9  41 
 PAM  SZ I        1113 33.51         4.3 0.23                          80.9  41 
 RUS  HZ EP   1   1113 34.47                             143    0.15 7 99.6 174 
 RUS  HN ES   1   1113 52.54                             143    0.09 7 99.6 174 
 RUS  HN I        1113 54.95         3.1 0.44                          99.6 174 
 PTB  HZ EP       1113 37.26                             132   -0.05 9  144 259 
 PTB  HN ES   1   1113 57.64                             132   -0.14 7  144 259 
 PTB  HZ I        1114  1.81         2.3 0.20                           144 259 
 ZAR  HN ES   1   1114  7.99                             122    0.24 6  201 293 
 ZAR  HZ I        1114 11.64         2.8 0.12                           201 293 
                                                                                
