 2016  530 1317 23.7 L   6.745 -73.166150.9  RSN  5 0.3 1.3LRSN                1
 GAP=136        0.74       4.0     3.9  5.4 -0.1439E+01  0.2339E+01  0.6937E+00E
 Epicentro: LOS SANTOS - SANTANDER                                             3
 ACTION:UPD 16-08-18 17:50 OP:cam  STATUS:               ID:20160530131723 L   I
 OLDACT:REG 16-05-30 20:15 OP:cara STATUS:               ID:20160530130740     3
 2016-05-30-1307-40M.COL___310                                                 6
 STAT SP IPHASW D HRMM SECON CODA AMPLIT PERI AZIMU VELO AIN AR TRES W  DIS CAZ7
 BAR2 EZ IP     D 1317 43.83                             173    0.0310 17.0 186 
 BAR2 EZ ES       1317 59.48                             173   -0.0310 17.0 186 
 BAR2 EZ I        1318  0.05         6.5 0.34            174           17.0 186 
 BRR  HZ EP       1317 45.68                             153    0.2510 72.4 304 
 BRR  HN ES       1318  2.87                             153    0.4610 72.4 304 
 BRR  HZ I        1318  5.30         6.6 0.38            153           72.4 304 
 PAM  EZ IP       1317 46.75                             150   -0.0410 83.5  38 
 PAM  EN ES       1318  4.50                             150   -0.3310 83.5  38 
 PAM  EZ I        1318  5.92         2.0 0.40            151           83.5  38 
 RUS  HZ EP       1317 47.87                             146    0.3510 94.7 174 
 RUS  HE ES       1318  6.03                             146   -0.0910 94.7 174 
 RUS  HZ I        1318  7.27         2.1 0.36            148           94.7 174 
 PTB  HZ EP       1317 50.40                             134   -0.36 9  144 261 
 PTB  HN ES       1318 11.59                             134   -0.31 9  144 261 
 PTB  HZ I        1318 13.66         2.5 0.12            135            144 261 
                                                                                
