 2015  530 1655 23.8 L   6.778 -73.142156.1  RSN 15 0.4 2.2LRSN                1
 GAP=126        0.94       3.2     4.6  5.1 -0.3885E+01  0.4894E+01  0.4670E+00E
 Epicentro: LOS SANTOS - SANTANDER                                             3
 ACTION:UPD 15-09-10 22:08 OP:cam  STATUS:               ID:20150530165523 L   I
 OLDACT:UP  15-05-31 00:56 OP:spq  STATUS:               ID:20150530164750     3
 OLDACT:UP  15-05-31 00:55 OP:spq  STATUS:               ID:20150530164750     3
 OLDACT:REG 15-05-30 21:40 OP:spq  STATUS:               ID:20150530164750     3
 2015-05-30-1647-50M.COL___321                                                 6
 STAT SP IPHASW D HRMM SECON CODA AMPLIT PERI AZIMU VELO AIN AR TRES W  DIS CAZ7
 BAR2 EZ EP       1655 44.49                             172   -0.1410 21.0 192 
 BAR2 EZ ES   1   1656  0.44                             172   -0.44 7 21.0 192 
 BAR2 EZ I        1656  2.22        26.9 0.48            171           21.0 192 
 BRR  HZ EP       1655 46.55                             154    0.3910 72.8 300 
 BRR  HN ES       1656  4.12                             154    0.5210 72.8 300 
 BRR  HZ I        1656  7.30        28.1 0.48            152           72.8 300 
 PAM  SZ EP       1655 47.72                             152    0.5010 79.0  38 
 PAM  SE ES   1   1656  5.69                             152    0.21 7 79.0  38 
 PAM  SZ I        1656  7.70        14.4 0.18            155           79.0  38 
 RUS  HZ EP       1655 48.23                             147   -0.1810 98.1 176 
 RUS  HE ES       1656  7.28                             147   -0.3310 98.1 176 
 RUS  HZ I        1656  9.03        17.4 0.46            148           98.1 176 
 SPBC HZ EP       1655 52.87                             132   -0.09 9  162 220 
 SPBC HN ES       1656 16.07                             132    0.36 9  162 220 
 SPBC HZ I        1656 19.84        23.1 0.10            132            162 220 
 OCA  HZ EP       1655 52.61                             131   -0.55 9  163 353 
 OCA  HE ES       1656 15.97                             131   -0.09 9  163 353 
 OCA  HZ I        1656 18.24        40.3 0.22            133            163 353 
 ZAR  HZ EP       1655 56.58                             124   -0.49 8  205 293 
 ZAR  HE ES   1   1656 22.36                             124   -0.66 6  205 293 
 ZAR  HZ I        1656 27.95        11.2 0.30            124            205 293 
 NOR  HZ EP       1655 59.58                             121   -0.45 8  234 235 
 NOR  HE ES   4   1656 26.58                             121   -1.72 0  234 235 
 NOR  HZ I        1656 31.78        10.4 0.26            121            234 235 
 SML  HE ES   4   1656 28.97                             119   -1.55 0  246 335 
 SML  HZ I        1656 32.61        21.3 0.06            120            246 335 
 HEL  HZ EP       1656  4.98                             117    0.45 8  272 256 
 GUY2CHZ EP       1656  8.43                             114    0.65 7  300 235 
 GUY2CHN ES   4   1656 40.89                             114   -1.20 0  300 235 
 GUY2CHZ I        1656 50.61         6.5 0.58                           300 235 
 TOL  SZ EP   1   1656 13.20                             111    0.88 5  342 225 
 TOL  SN ES       1656 49.74                             111   -0.43 7  342 225 
 TOL  SZ I        1656 57.69         5.3 0.68            112            342 225 
 MON  HN ES   4   1656 49.42                             110   -2.72 0  356 309 
 MON  HZ I        1656 54.26         3.0 0.24            111            356 309 
 SDV  BZ EP       1656 14.16                             110   -0.23 6  362  50 
 SDV  BN ES   4   1656 52.42                             110   -1.44 0  362  50 
 SDV  BZ I        1656 54.88         2.3 0.40            112            362  50 
 PRA  HZ EP   1   1656 17.78                             108    0.31 4  390 210 
 PRA  HN ES   4   1656 57.55                             108   -1.78 0  390 210 
 PRA  HZ I        1657  6.16         6.0 0.36            109            390 210 
                                                                                
