 2011 1030 1155 46.9 L   6.764 -73.073154.0  RSN  4 0.2 1.5LRSN                1
 GAP=148        0.39       4.3     6.2  5.8  0.1082E+01  0.1512E+01 -0.3558E+00E
 Epicentro: LOS SANTOS - SANTANDER                                             3
 ACTION:UPD 12-07-13 16:07 OP:ep   STATUS:               ID:20111030115546 L   I
 2011-10-30-1152-41S.COL___157                                                 6
 STAT SP IPHASW D HRMM SECON CODA AMPLIT PERI AZIMU VELO AIN AR TRES W  DIS CAZ7
 BAR2 SZ EP   1   1156  7.52                             171   -0.01 7 22.5 212 
 BAR2 SZ ES   2   1156 23.70                             171    0.10 5 22.5 212 
 BAR2 SZ I        1156 24.33         6.4 0.19                          22.5 212 
 PAM  SZ EP   2   1156 10.00                             153    0.07 5 75.8  33 
 PAM  SN ES   2   1156 27.83                             153   -0.05 5 75.8  33 
 BRR  HZ EP   1   1156  9.25                             151   -0.22 7 80.1 298 
 BRR  HZ I        1156 17.05         6.9 0.40                          80.1 298 
 BRR  HN ES   2   1156 27.31                             151    0.25 5 80.1 298 
 RUS  HZ EP   2   1156 11.60                             147    0.40 5 96.4 181 
 RUS  HZ I        1156 27.67         3.5 0.78                          96.4 181 
 RUS  HN ES   2   1156 29.88                             147   -0.26 5 96.4 181 
                                                                                
