 2014 1030 1530 53.2 L   6.764 -73.134149.7  RSN  6 0.3 1.8LRSN                1
 GAP=140        0.92       4.5     4.7  6.8 -0.5272E+01  0.3612E+01  0.8093E+00E
 Epicentro: LOS SANTOS - SANTANDER                                             3
 ACTION:UPD 14-11-29 23:58 OP:nd   STATUS:               ID:20141030153053 L   I
 OLDACT:REG 14-11-25 16:15 OP:cam  STATUS:               ID:20141030152747     3
 2014-10-30-1527-47M.COL___277                                                 6
 STAT SP IPHASW D HRMM SECON CODA AMPLIT PERI AZIMU VELO AIN AR TRES W  DIS CAZ7
 BAR2 SZ EP       1531 13.56                             172    0.3310 19.8 196 
 BAR2 SZ ES       1531 28.55                             172   -0.3110 19.8 196 
 BAR2 SZ I        1531 31.24        14.8 0.38            174           19.8 196 
 BRR  HZ EP       1531 14.32                             152   -0.6210 74.3 301 
 BRR  HN ES       1531 32.54                             152    0.6410 74.3 301 
 BRR  HN I        1531 32.79        39.2 0.28            152           74.3 301 
 PAM  SZ EP       1531 16.22                             151    0.2610 79.6  37 
 PAM  SN ES       1531 33.53                             151   -0.1910 79.6  37 
 PAM  SZ I        1531 37.44         5.3 0.46            152           79.6  37 
 RUS  HZ EP       1531 17.04                             146   -0.0110 96.6 177 
 RUS  HN ES       1531 35.65                             146   -0.0110 96.6 177 
 RUS  HZ I        1531 37.21         4.8 0.32            149           96.6 177 
 PTB  HZ EP       1531 20.60                             133    0.06 9  148 260 
 PTB  HE ES       1531 41.48                             133   -0.39 9  148 260 
 PTB  HZ I        1531 48.46         8.4 0.42            134            148 260 
 SPBC HZ I        1531 42.10        13.9 0.32            133            161 220 
 SPBC HN ES       1531 44.34                             130    0.24 9  161 220 
                                                                                
