 2010  430 1214 56.2 L   6.746 -72.993141.3  RSN  5 0.2 1.8LRSN                1
 GAP=209        0.38       4.6     6.8  5.7 -0.8206E+01 -0.1499E+02  0.2679E+01E
 Epicentro: CEPITA - SANTANDER                                                 3
 ACTION:UPD 10-08-24 10:02 OP:vdl  STATUS:               ID:20100430121456 L   I
 2010-04-30-1210-53S.COL___105                                                 6
 STAT SP IPHASW D HRMM SECON CODA AMPLIT PERI AZIMU VELO SNR AR TRES W  DIS CAZ7
 BAR2 SZ EP   2   1215 15.57                             169     0.2 5   27 231 
 BAR2 SZ ES   2   1215 30.09                             169    -0.2 5   27 231 
 BRR  HZ EP   2   1215 17.99                             147     0.0 5   89 297 
 BRR  HN ES   1   1215 35.02                             147     0.0 7   89 297 
 BRR  HZ I        1215 39.08         9.9 0.18                            89 297 
 GUE  SZ EP   2   1215 20.83                             138     0.0 5  120   4 
 GUE  SZ ES   2   1215 40.20                             138     0.2 5  120   4 
 OCA  SZ EP   2   1215 24.57                             128    -0.4 5  169 348 
 PRA  HZ EP   2   1215 50.17                             106     0.2 3  395 212 
 PRA  HZ I        1216 38.41         1.8 0.54                           395 212 
                                                                                
