 2017  930 1618  9.3 L   6.858 -73.092145.7  RSN  5 0.4 1.5LRSN                1
 GAP=250        0.68       5.3     5.0  6.2  0.1064E+02  0.1474E+02  0.4756E+01E
 Epicentro: LOS SANTOS - SANTANDER                                             3
 ACTION:UPD 17-10-05 19:18 OP:rebc STATUS:               ID:20170930161809 L   I
 OLDACT:REG 17-09-30 20:56 OP:osc  STATUS:               ID:20170930161744     3
 2017-09-30-1618-00M.COL___413                                                 6
 STAT SP IPHASW D HRMM SECON CODA AMPLIT PERI AZIMU VELO AIN AR TRES W  DIS CAZ7
 BAR2 EZ EP       1618 29.20                             167    0.0910 31.1 199 
 BAR2 EZ ES       1618 44.64                             167    0.0810 31.1 199 
 BAR2 EZ I        1618 47.47         7.2 0.40            162           31.1 199 
 RUS  HZ EP       1618 33.34                             142   -0.1710  107 180 
 RUS  HN ES       1618 52.27                             142   -0.1210  107 180 
 RUS  HZ I        1618 53.90         2.5 0.28            141            107 180 
 ZAR  HN ES       1619  7.53                             122   -0.13 8  207 290 
 NOR  HZ EP   2   1618 44.92                             117   -1.04 4  243 234 
 NOR  HN ES   2   1619 14.07                             117   -0.48 4  243 234 
 NOR  HZ I        1619 20.99         2.0 0.18            118            243 234 
 GUY2CHZ EP       1618 54.58                             111    0.69 7  310 234 
 GUY2CHN ES       1619 28.87                             111    0.21 7  310 234 
 GUY2CHZ I        1619 37.11         1.9 0.74                           310 234 
                                                                                
