 2016  730 1940 34.9 L   6.830 -73.094152.0  RSN 23 0.5 2.6LRSN                1
 GAP=103        1.06       2.9     3.1  4.6 -0.3201E+01  0.1448E+01 -0.1072E-01E
 Epicentro: LOS SANTOS - SANTANDER                                             3
 ACTION:UPD 17-03-29 16:56 OP:lp   STATUS:               ID:20160730194034 L   I
 OLDACT:REG 16-07-30 21:03 OP:edw  STATUS:               ID:20160730193759     3
 2016-07-30-1937-59S.COL___346                                                 6
 STAT SP IPHASW D HRMM SECON CODA AMPLIT PERI AZIMU VELO AIN AR TRES W  DIS CAZ7
 BAR2 EZ IP     D 1940 55.53                             169    0.1810 28.0 200 
 BAR2 EZ ES       1941 11.12                             169   -0.2010 28.0 200 
 BAR2 EZ I        1941 12.17        75.1 0.20            166           28.0 200 
 PAM  EZ EP       1940 58.29                             154    0.8810 71.2  38 
 PAM  EN ES       1941 15.40                             154    0.4110 71.2  38 
 PAM  EZ I        1941 17.72        27.0 0.21            157           71.2  38 
 BRR  HZ EP       1940 57.51                             152    0.6110 74.9 294 
 BRR  HN ES       1941 14.50                             152    0.4110 74.9 294 
 BRR  HZ I        1941 19.25        37.1 0.36            149           74.9 294 
 RUS  HZ IP     D 1940 59.51                             144    0.0510  104 179 
 RUS  HN ES       1941 18.18                             144   -0.4510  104 179 
 RUS  HZ I        1941 19.41        25.6 0.32            144            104 179 
 PTB  HZ EP       1941  2.47                             132   -0.45 9  154 258 
 PTB  HN ES       1941 24.05                             132   -0.74 9  154 258 
 SPBC HZ EP       1941  4.57                             129    0.13 9  169 220 
 SPBC HN ES       1941 27.35                             129   -0.14 9  169 220 
 SPBC HZ I        1941 33.73        73.6 0.09            128            169 220 
 ZAR  HZ EP       1941  8.37                             123    0.21 8  208 291 
 ZAR  HN ES       1941 33.67                             123   -0.44 8  208 291 
 ZAR  HZ I        1941 39.23        39.4 0.29            122            208 291 
 NOR  HZ EP       1941 11.68                             119    0.01 8  241 235 
 NOR  HN ES       1941 39.39                             119   -0.98 8  241 235 
 NOR  HZ I        1941 47.28        27.0 0.17            118            241 235 
 ROSC BZ EP   9   1941 16.04                             117    2.07 0  259 212 
 ROSC BN ES       1941 46.85                                    0.32 8  259 212 
 ROSC BZ I        1941 53.59        47.5 0.35            117            259 212 
 HEL  HZ EP   4   1941 17.64                             115    1.53 0  278 255 
 HEL  HN ES       1941 48.22                             115   -0.06 7  278 255 
 HEL  HZ I        1941 54.69        19.6 0.46            115            278 255 
 URE  HZ EP   2   1941 15.86                             114   -0.86 4  288 291 
 URE  HN ES   4   1941 46.81                             114   -2.54 0  288 291 
 URE  HZ I        1941 56.31        14.5 0.08            114            288 291 
 SOCV BZ EP       1941 17.95                             114    0.47 7  295  57 
 SOCV BN ES       1941 49.57                             114   -1.13 7  295  57 
 GUY2CHZ EP   1   1941 20.38                             113    0.86 5  308 235 
 GUY2CHN ES   4   1941 56.17                             113    1.83 0  308 235 
 GUY2CHZ I        1942  2.03        22.6 0.42                           308 235 
 VIL  EZ EP   2   1941 18.83                             113   -0.25 4  308 193 
 VIL  EN ES       1941 53.89                             113    0.33 7  308 193 
 PTGC HZ EP       1941 18.59                             113   -0.54 7  310 160 
 LL6C HZ EP       1941 20.19                             112   -0.32 7  322 357 
 LL6C HN ES       1941 55.99                             112   -0.11 7  322 357 
 ELA  HZ EP   4   1941 24.71                             111    1.97 0  336 230 
 ELA  HN ES   4   1942  3.76                             111    3.69 0  336 230 
 ELA  HZ I        1942 15.36        17.2 0.48            111            336 230 
 CBOC HZ EP       1941 23.19                             111    0.40 7  340 252 
 CBOC HN ES       1942  0.51                             111    0.34 7  340 252 
 CBOC HZ I        1942 14.32         6.9 0.46            110            340 252 
 ANIL HZ EP   2   1941 26.39                             109    0.73 3  364 225 
 ANIL HN ES       1942  5.24                             109   -0.03 6  364 225 
 ANIL HZ I        1942 10.00        35.1 0.42            109            364 225 
 PRA  HZ EP       1941 28.90                             107   -0.38 6  398 210 
 PRA  HN ES       1942 11.83                             107    0.11 6  398 210 
 PRA  HZ I        1942 16.46        18.8 0.30            107            398 210 
 SJC  HZ EP   4   1941 29.34                             107   -1.36 0  410 326 
 SJC  HN ES   4   1942 10.94                             107   -3.30 0  410 326 
 SJC  HZ I        1942 13.55         4.6 0.28            107            410 326 
 PAL  HZ EP       1941 31.14                             106    0.12 6  412 239 
 PAL  HN ES       1942 15.89                             106    1.08 6  412 239 
 PAL  HZ I        1942 16.95         6.3 0.20            106            412 239 
 CRJC HZ EP   4   1941 35.96                             104   -1.17 0  464   3 
 CRJC HN ES       1942 25.10                             104   -0.59 5  464   3 
 CRJC HZ I        1942 31.75         8.0 0.09            105            464   3 
                                                                                
