 2015  530 1040 54.7 L   6.826 -73.113152.4  RSN  5 0.3 1.3LRSN                1
 GAP=139        0.65       3.8     5.7  6.3  0.5975E+01 -0.4266E+01 -0.3498E+01E
 Epicentro: LOS SANTOS - SANTANDER                                             3
 ACTION:UPD 15-09-10 22:08 OP:cam  STATUS:               ID:20150530104054 L   I
 OLDACT:REG 15-05-30 21:01 OP:spq  STATUS:               ID:20150530103749     3
 2015-05-30-1037-49M.COL___309                                                 6
 STAT SP IPHASW D HRMM SECON CODA AMPLIT PERI AZIMU VELO AIN AR TRES W  DIS CAZ7
 BAR2 EZ EP       1041 14.91                             170   -0.2910 26.9 197 
 PAM  SZ EP       1041 17.59                             153    0.2210 72.9  39 
 PAM  SE ES   1   1041 34.99                             153   -0.07 7 72.9  39 
 PAM  SZ I        1041 36.74         3.2 0.50            153           72.9  39 
 BRR  HZ EP   1   1041 16.92                             153    0.25 7 73.2 295 
 BRR  HN ES       1041 34.03                             153    0.2110 73.2 295 
 BRR  HZ I        1041 35.44         4.1 0.37            152           73.2 295 
 RUS  HZ EP   1   1041 19.29                             144    0.00 7  103 178 
 RUS  HN ES   1   1041 38.30                             144   -0.18 7  103 178 
 RUS  HZ I        1041 39.17         1.3 0.40            147            103 178 
 SML  HZ EP   1   1041 31.93                             119    0.34 6  243 334 
 SML  HN ES   1   1041 59.61                             119   -0.76 6  243 334 
 SML  HZ I        1042  4.62         2.7 0.08            119            243 334 
                                                                                
