 2011  430 1750  2.8 L   6.754 -73.445107.9  RSN  5 0.2 1.6LRSN                1
 GAP=166        0.55       3.7     7.4  5.7  0.1553E+02 -0.1360E+02 -0.7439E+01E
 Epicentro: EL CARMEN DE CHUCURI - SANTANDER                                   3
 ACTION:UP  11-06-22 15:34 OP:REBC STATUS:               ID:20110430175002 L   I
 2011-04-30-1746-50S.COL___130                                                 6
 STAT SP IPHASW D HRMM SECON CODA AMPLIT PERI AZIMU VELO SNR AR TRES W  DIS CAZ7
 BAR2 SZ EP   1   1750 18.21                             161    -0.1 7   34 122 
 BAR2 SZ ES   1   1750 30.25                             161    -0.1 7   34 122 
 BAR2 SZ I        1750 31.22        20.3 0.15                            34 122 
 BRR  HZ EP   1   1750 18.24                             154    -0.4 7   49 323 
 BRR  HE ES   1   1750 31.17                             154     0.2 7   49 323 
 BRR  HZ I        1750 31.91        13.0 0.13                            49 323 
 RUS  HZ EP   1   1750 23.28                             133    -0.1 7  103 157 
 RUS  HN ES   1   1750 39.51                             133     0.2 7  103 157 
 RUS  HZ I        1750 40.47         3.4 0.33                           103 157 
 PAM  SZ EP   1   1750 23.42                             133     0.0 7  105  52 
 OCA  SZ EP   1   1750 29.40                             119     0.4 7  165   5 
 OCA  SZ ES   2   1750 49.21                             119    -0.2 5  165   5 
 OCA  SZ I        1750 55.55        10.1 0.49                           165   5 
                                                                                
