 2010 1130 1101 21.6 L   6.762 -73.099140.3  RSN  9 0.3 2.0LRSN                1
 GAP=182        0.63       4.2     6.0  5.3 -0.1075E+02 -0.5929E+00  0.4261E+01E
 Epicentro: LOS SANTOS - SANTANDER                                             3
 ACTION:UP  10-12-17 16:56 OP:REBC STATUS:               ID:20101130110121 L   I
 2010-11-30-1058-49S.COL___132                                                 6
 STAT SP IPHASW D HRMM SECON CODA AMPLIT PERI AZIMU VELO SNR AR TRES W  DIS CAZ7
 BAR2 SZ IP       11 1 40.49                             171    -0.110   21 206 
 BAR2 SZ ES   1   11 1 55.50                             171     0.2 7   21 206 
 BAR2 SZ I        11 1 56.79        39.6 0.26                            21 206 
 BRR  HZ EP   1   11 1 42.39                             149    -0.2 7   78 299 
 BRR  HN ES   1   11 1 58.80                             149    -0.1 7   78 299 
 BRR  HZ I        11 2  1.90        21.3 0.03                            78 299 
 GRA  SZ EP   1   11 1 46.44                             135    -0.2 7  128  15 
 GRA  SZ I        11 2  9.24         7.0 0.34                           128  15 
 OCA  SZ EP   1   11 1 50.59                             127     0.6 7  165 352 
 OCA  SZ I        11 2 14.34        15.3 0.11                           165 352 
 NOR  SZ EP   1   11 1 56.98                             117    -0.3 6  237 236 
 NOR  SE ES   1   11 2 25.03                             117     0.0 6  237 236 
 NOR  SZ I        11 2 30.17         1.4 0.31                           237 236 
 CHI  HZ EP   1   11 1 58.60                             116    -0.1 6  246 197 
 CHI  HE ES   2   11 2 27.82                             116     0.1 4  246 197 
 CHI  HZ I        11 2 35.15         4.2 0.15                           246 197 
 HEL  HZ EP   2   11 2  1.81                             113    -0.2 4  276 257 
 HEL  HZ I        11 2 39.64         5.4 0.40                           276 257 
 RREF HN ES   2   11 2 44.45                             110     0.8 3  323 231 
 RREF HZ I        11 2 52.79         4.2 0.25                           323 231 
 PRA  HZ EP   1   11 2 15.11                             106     0.3 4  391 211 
 PRA  HZ I        11 3  1.82        19.7 0.19                           391 211 
                                                                                
