 2012  130 1317  5.8 L   7.289 -73.015158.8  RSN  5 0.4 1.7LRSN                1
 GAP=186        0.63      15.1     9.0  8.4 -0.5286E+02  0.2562E+02 -0.6492E+01E
 Epicentro: CHARTA - SANTANDER                                                 3
 ACTION:UP  12-02-03 08:22 OP:REBC STATUS:               ID:20120130131707 L   I
 2012-01-30-1310-00M.COL___188                                                 6
 STAT SP IPHASW D HRMM SECON CODA AMPLIT PERI AZIMU VELO SNR AR TRES W  DIS CAZ7
 GIR2 SZ EP   2   1317 27.22                             169     0.2 5   31 220 
 GIR2 SZ ES   2   1317 43.10                             169    -0.5 5   31 220 
 PAM  SE ES   2   1317 44.41                             167    -0.3 5   35  81 
 BAR2 SZ ES   2   1317 47.73                             152     0.3 5   79 193 
 BAR2 SZ I        1317 50.70         4.4 0.94                            79 193 
 BRR  HZ EP   2   1317 28.92                             152     0.0 5   80 255 
 BRR  HZ I        1317 30.24        15.2 0.23                            80 255 
 BRR  HN ES   1   1317 47.22                             152     0.4 7   80 255 
 PTB  HZ EP   1   1317 36.83                             129     0.0 7  180 243 
 PTB  HE ES   2   1318  0.15                             129    -0.8 4  180 243 
                                                                                
