 2016  930 1704 38.2 L   6.837 -73.204142.4  RSN  6 0.3 1.6LRSN                1
 GAP=148        0.65       4.3     3.8  5.4 -0.3717E+01  0.3145E+01 -0.5438E+01E
 Epicentro: ZAPATOCA - SANTANDER                                               3
 ACTION:UPD 17-08-17 21:18 OP:lp   STATUS:               ID:20160930170438 L   I
 OLDACT:UP  16-09-30 23:02 OP:dani STATUS:               ID:20160930165739     3
 OLDACT:REG 16-09-30 20:15 OP:dani STATUS:               ID:20160930165739     3
 2016-09-30-1658-00M.COL___369                                                 6
 STAT SP IPHASW D HRMM SECON CODA AMPLIT PERI AZIMU VELO AIN AR TRES W  DIS CAZ7
 BAR2 EZ EP       17 4 57.59                             169    0.0710 27.1 175 
 BAR2 EZ ES       17 5 12.27                             169   -0.3110 27.1 175 
 BAR2 EZ I        17 5 15.37        15.6 0.40            171           27.1 175 
 PAM  EZ EP       17 5  0.49                             150    0.3410 78.7  45 
 RUS  HZ EP       17 5  1.84                             142   -0.1410  105 173 
 RUS  HN ES       17 5 20.51                             142   -0.0010  105 173 
 RUS  HZ I        17 5 21.45         4.3 0.30            146            105 173 
 PTB  HZ EP       17 5  4.25                             132   -0.16 9  142 257 
 PTB  HN ES       17 5 24.75                             132   -0.09 9  142 257 
 PTB  HZ I        17 5 30.46         3.3 0.14            133            142 257 
 SPBC HN ES       17 5 28.82                             128    0.47 9  162 216 
 PRA  HZ EP       17 5 31.29                             106   -0.38 6  392 208 
                                                                                
