 2011 1030 1002 19.9 L   6.727 -73.198136.0  RSN  7 0.2 1.5LRSN                1
 GAP=133        0.38       2.6     3.2  4.2  0.5813E+00  0.3345E+01 -0.3258E+00E
 Epicentro: VILLANUEVA - SANTANDER                                             3
 ACTION:UPD 12-07-13 16:07 OP:ep   STATUS:               ID:20111030100219 L   I
 2011-10-30-1001-09S.COL___157                                                 6
 STAT SP IPHASW D HRMM SECON CODA AMPLIT PERI AZIMU VELO AIN AR TRES W  DIS CAZ7
 BAR2 SZ EP   1   10 2 38.32                             173    0.14 7 15.0 173 
 BAR2 SZ ES   2   10 2 52.55                             173    0.09 5 15.0 173 
 BAR2 SZ I        10 2 54.81         5.2 0.69                          15.0 173 
 BRR  HZ EP   1   10 2 40.07                             151    0.13 7 70.7 307 
 BRR  HZ I        10 2 40.31        20.5 0.15                          70.7 307 
 BRR  HE ES   1   10 2 55.66                             151    0.06 7 70.7 307 
 PAM  SZ EP   2   10 2 41.62                             146   -0.09 5 87.3  39 
 PAM  SN ES   2   10 2 58.99                             146    0.25 5 87.3  39 
 RUS  HZ EP   2   10 2 41.93                             144   -0.20 5 93.1 172 
 RUS  HZ I        10 2 42.84         3.3 0.24                          93.1 172 
 RUS  HN ES   2   10 2 59.03                             144   -0.45 5 93.1 172 
 OCA  SZ EP   2   10 2 48.10                             126   -0.07 5  168 355 
 OCA  SZ ES   2   10 3  9.98                             126   -0.27 5  168 355 
 OCA  SZ I        10 3 17.23         5.5 0.56                           168 355 
 ZAR  HZ EP   1   10 2 51.51                             120    0.03 6  202 295 
 ZAR  HN ES   2   10 3 15.66                             120   -0.48 4  202 295 
 ZAR  HZ I        10 3 18.84         3.1 0.37                           202 295 
 RREF HN ES   2   10 3 39.81                             110    0.50 3  312 230 
 RREF HZ I        10 3 46.53         1.4 0.39                           312 230 
                                                                                
