 2016  630 1400 58.2 L   6.816 -73.127143.1  RSN 13 0.5 2.0LRSN                1
 GAP=138        1.00       3.5     3.8  5.6  0.1006E+01  0.9577E+01  0.5914E+01E
 Epicentro: LOS SANTOS - SANTANDER                                             3
 ACTION:UPD 16-07-21 22:24 OP:rebc STATUS:               ID:20160630140058 L   I
 OLDACT:REG 16-06-30 21:52 OP:ak   STATUS:               ID:20160630135747     3
 2016-06-30-1357-47M.COL___346                                                 6
 STAT SP IPHASW D HRMM SECON CODA AMPLIT PERI AZIMU VELO AIN AR TRES W  DIS CAZ7
 BAR2 EZ IP     C 14 1 17.65                             169    0.0810 25.5 194 
 BAR2 EZ ES       14 1 32.09                             169   -0.5810 25.5 194 
 BAR2 EZ I        14 1 37.13        15.1 0.35                          25.5 194 
 BRR  HZ IP     C 14 1 19.41                             152    0.2810 72.2 296 
 BRR  HN ES       14 1 35.44                             152   -0.0110 72.2 296 
 BRR  HZ I        14 1 39.41        14.2 0.23                          72.2 296 
 PAM  EZ EP   2   14 1 20.57                             151    0.59 5 74.7  39 
 PAM  EN ES       14 1 37.38                             151    0.4210 74.7  39 
 PAM  EZ I        14 1 39.84        16.9 0.32                          74.7  39 
 RUS  HZ EP       14 1 21.58                             143   -0.2410  102 177 
 RUS  HN ES       14 1 40.69                             143    0.4510  102 177 
 RUS  HZ I        14 1 42.19         9.2 0.18                           102 177 
 PTB  HZ EP       14 1 24.18                             131   -1.00 9  150 258 
 PTB  HN ES       14 1 45.66                             131   -0.56 9  150 258 
 PTB  HZ I        14 1 50.98        13.8 0.22                           150 258 
 ZAR  HZ EP       14 1 30.38                             122   -0.24 8  205 291 
 ZAR  HN ES       14 1 56.13                             122    0.24 8  205 291 
 ZAR  HZ I        14 2  1.34        15.1 0.44                           205 291 
 NOR  HZ EP       14 1 33.85                             118   -0.23 8  237 234 
 NOR  HE ES       14 2  2.58                             118    0.52 8  237 234 
 NOR  HZ I        14 2  9.68         8.4 0.18                           237 234 
 CHI  HZ EP       14 1 35.83                             116   -0.18 8  251 196 
 CHI  HN ES       14 2  5.42                             116   -0.07 8  251 196 
 CHI  HZ I        14 2  8.88         4.3 0.42                           251 196 
 URE  HE ES   4   14 2  9.72                             113   -1.62 0  285 291 
 GUY2CHZ EP   2   14 1 42.86                             112    0.85 4  304 235 
 GUY2CHE ES       14 2 16.50                             112    0.33 7  304 235 
 GUY2CHZ I        14 2 25.65         6.9 0.40                           304 235 
 CBOC HZ EP   2   14 1 45.75                             109    0.44 3  336 252 
 CBOC HN ES       14 2 22.08                             109    0.04 7  336 252 
 DBB  SZ EP       14 1 45.26                             109   -0.54 7  341 274 
 DBB  SZ ES       14 2 23.89                             109    0.96 7  341 274 
 ANIL HE ES       14 2 27.89                             108    0.64 6  360 225 
 PRA  HZ EP       14 1 52.12                             106    0.18 6  395 210 
 PRA  HN ES       14 2 33.68                             106   -0.17 6  395 210 
 PRA  HZ I        14 2 40.17         4.2 0.30                           395 210 
                                                                                
