 2011  630 1137 37.6 L   6.774 -73.110140.9  RSN  8 0.4 1.5LRSN                1
 GAP=142        0.99       5.7     9.8  9.0 -0.1145E+01 -0.2898E+02 -0.1353E+02E
 Epicentro: LOS SANTOS - SANTANDER                                             3
 ACTION:UP  11-07-14 19:09 OP:ep   STATUS:               ID:20110630113737 L   I
 2011-06-30-1133-51S.COL___140                                                 6
 STAT SP IPHASW D HRMM SECON CODA AMPLIT PERI AZIMU VELO SNR AR TRES W  DIS CAZ7
 BAR2 SZ EP       1137 56.54                             171    -0.110   22 202 
 BAR2 SZ ES   1   1138 10.87                             171    -0.6 7   22 202 
 BAR2 SZ I        1138 12.92        10.0 0.37                            22 202 
 BTL  SZ EP       1137 57.45                             170     0.810   24 312 
 BTL  SZ ES   2   1138 11.77                             170     0.2 5   24 312 
 GIR2 SZ EP       1137 56.65                             165    -0.210   35 345 
 BRR  HZ EP       1137 58.32                             150    -0.210   76 299 
 BRR  HZ I        1137 58.54        11.5 0.17                            76 299 
 BRR  HN ES   1   1138 14.98                             150     0.1 7   76 299 
 PAM  SZ EP       1137 59.40                             150     0.110   77  36 
 PAM  SN ES   2   1138 16.92                             150     0.7 5   77  36 
 RUS  HZ EP       1138  0.98                             143     0.310   98 178 
 RUS  HN ES   1   1138 18.36                             143    -0.3 7   98 178 
 RUS  HZ I        1138 19.97         2.7 0.17                            98 178 
 BRI  SZ EP       1138  1.00                             140    -0.210  110  18 
 GRA  SZ EP       1138  2.22                             135    -0.410  127  15 
 GRA  SZ I        1138 21.17         3.8 0.36                           127  15 
                                                                                
