 2017  730 1258 16.2 L   6.723 -73.179150.0  RSN  5 0.3 1.5LRSN                1
 GAP=228        0.57       4.9     5.5  5.7  0.1651E+02  0.7825E+01 -0.2068E+01E
 Epicentro: VILLANUEVA - SANTANDER                                             3
 ACTION:UPD 17-08-30 15:38 OP:rebc STATUS:               ID:20170730125816 L   I
 OLDACT:DUP 17-07-30 23:19 OP:and  STATUS:               ID:20170730125340d    3
 2017-07-30-1254-00M.COL___383                                                 6
 STAT SP IPHASW D HRMM SECON CODA AMPLIT PERI AZIMU VELO AIN AR TRES W  DIS CAZ7
 BAR2 EZ IP     C 1258 35.96                             174   -0.2010 14.5 182 
 BAR2 EZ ES       1258 51.98                             174    0.2210 14.5 182 
 BAR2 EZ I        1258 52.22         6.3 0.26            161           14.5 182 
 BRR  HZ EP       1258 37.71                             153   -0.1410 72.6 306 
 BRR  HN ES       1258 54.78                             153    0.0110 72.6 306 
 RUS  HN ES       1258 58.18                             147   -0.0110 92.4 173 
 RUS  HZ I        1259  0.11         5.3 0.20            140           92.4 173 
 ZAR  HZ EP   2   1258 49.94                             123    1.05 4  204 295 
 ZAR  HN ES       1259 14.33                             123   -0.09 9  204 295 
 ZAR  HZ I        1259 19.78         5.5 0.26            120            204 295 
 NOR  HN ES   2   1259 18.63                             121   -0.09 4  227 236 
 NOR  HZ I        1259 26.83         1.8 0.52            115            227 236 
                                                                                
