 2016  730 1227 51.6 L   6.783 -73.112144.0  RSN 17 0.5 2.5LRSN                1
 GAP= 98        1.04       3.7     3.0  4.8 -0.1703E+01  0.3810E+01  0.4261E+01E
 Epicentro: LOS SANTOS - SANTANDER                                             3
 ACTION:UPD 17-03-29 16:56 OP:lp   STATUS:               ID:20160730122751 L   I
 OLDACT:REG 16-07-30 20:25 OP:edw  STATUS:               ID:20160730121759     3
 2016-07-30-1217-59S.COL___346                                                 6
 STAT SP IPHASW D HRMM SECON CODA AMPLIT PERI AZIMU VELO AIN AR TRES W  DIS CAZ7
 BAR2 EZ IP       1228 10.62                             171   -0.3810 22.5 200 
 BAR2 EZ ES       1228 26.36                             171    0.2310 22.5 200 
 BAR2 EZ I        1228 27.33        50.0 0.30            168           22.5 200 
 BRR  HZ EP       1228 12.71                             151   -0.0910 75.4 298 
 BRR  HN ES       1228 29.72                             151    0.3810 75.4 298 
 BRR  HZ I        1228 31.94        30.7 0.58            151           75.4 298 
 PAM  EZ EP       1228 13.51                             151   -0.0710 76.5  36 
 PAM  EN ES       1228 30.69                             151   -0.0310 76.5  36 
 PAM  EZ I        1228 32.78        55.0 0.50            155           76.5  36 
 RUS  HZ EP       1228 14.38                             144   -0.6510 98.5 178 
 RUS  HN ES       1228 32.99                             144   -0.3110 98.5 178 
 TAM  HZ EP       1228 18.62                             131   -0.13 9  151 105 
 TAM  HN ES       1228 40.72                             131    0.79 9  151 105 
 PTB  HZ EP   9   1228 17.45                             131   -1.28 0  151 260 
 PTB  HN ES       1228 38.84                                    0.23 9  151 260 
 PTB  HZ I        1228 44.50        41.1 0.20            131            151 260 
 SPBC HZ EP       1228 19.60                             128   -0.46 9  164 220 
 SPBC HN ES       1228 42.16                             128   -0.09 9  164 220 
 SPBC HZ I        1228 47.45        55.7 0.12            129            164 220 
 ZAR  HZ EP       1228 24.43                             121    0.06 8  208 292 
 ZAR  HN ES       1228 49.65                             121   -0.27 8  208 292 
 NOR  HZ EP       1228 26.75                             118   -0.69 8  237 235 
 NOR  HN ES       1228 54.74                             118   -0.66 8  237 235 
 NOR  HZ I        1228 58.46        22.6 0.22            119            237 235 
 ROSC BZ EP       1228 30.01                             116    0.35 8  253 212 
 ROSC BN ES   4   1228 59.69                             116    0.34 0  253 212 
 ROSC BZ I        1229  8.48        26.1 0.40            117            253 212 
 HEL  HZ EP       1228 32.96                             114    0.88 8  275 256 
 HEL  HE ES       1229  3.58                             114   -0.07 8  275 256 
 HEL  HZ I        1229  9.35        14.2 0.36            115            275 256 
 URE  HZ EP   4   1228 31.49                             113   -1.57 0  288 292 
 URE  HN ES   4   1229  3.31                             113   -2.08 0  288 292 
 URE  HZ I        1229 13.62        10.1 0.16            114            288 292 
 SOCV BZ EP   4   1228 33.01                             112   -1.32 0  299  56 
 SOCV BN ES   4   1229  4.77                             112   -2.88 0  299  56 
 GUY2CHZ EP       1228 35.78                             112    0.42 7  303 235 
 GUY2CHN ES   4   1229 14.23                             112    4.75 0  303 235 
 GUY2CHZ I        1229 17.50        22.2 0.74                           303 235 
 ELA  HZ EP       1228 38.95                             110    0.38 7  331 230 
 ELA  HN ES       1229 15.69                             110    0.49 7  331 230 
 ELA  HZ I        1229 22.45        13.2 0.36            111            331 230 
 CBOC HZ EP       1228 38.85                             109    0.06 7  337 253 
 CBOC HN ES   4   1229  3.61                             109   -12.0 0  337 253 
 CBOC HZ I        1229  5.42         6.5 0.54            110            337 253 
 ANIL HZ EP       1228 42.05                             108    0.56 6  359 225 
 ANIL HN ES       1229 21.56                             108    1.15 6  359 225 
 ANIL HZ I        1229 24.70        36.7 0.36            109            359 225 
 PRA  HZ EP       1228 44.26                             106   -0.83 6  392 210 
 PRA  HN ES       1229 27.22                             106    0.41 6  392 210 
 PRA  HZ I        1229 32.07        14.3 0.60            107            392 210 
 SJC  HZ EP   4   1228 44.72                             105   -2.81 0  413 327 
 SJC  HN ES   4   1229 26.55                             105   -4.61 0  413 327 
                                                                                
