 2012  830 1943 27.1 L   7.126 -73.080157.0  RSN  4 0.1 1.9LRSN                1
 GAP=282        0.32       5.4     3.3  3.7 -0.2419E+01  0.4411E+00 -0.5701E+01E
 Epicentro: BUCARAMANGA - SANTANDER                                            3
 ACTION:UPD 12-09-10 11:59 OP:ep   STATUS:               ID:20120830194327 L   I
 2012-08-30-1940-00M.COL___218                                                 6
 STAT SP IPHASW D HRMM SECON CODA AMPLIT PERI AZIMU VELO AIN AR TRES W  DIS CAZ7
 GIR2 SZ EP       1943 47.65                             175   -0.1010 13.5 247 
 BAR2 SZ EP   1   1943 49.36                             158    0.12 7 60.1 191 
 BAR2 SZ ES   1   1944  6.52                             158   -0.02 7 60.1 191 
 BAR2 SZ I        1944  7.21        20.6 0.21                          60.1 191 
 BRR  HZ EP       1943 49.46                             155    0.1010 69.8 268 
 BRR  HZ I        1943 49.63        18.7 0.14                          69.8 268 
 BRR  HN ES   1   1944  6.76                             155    0.00 7 69.8 268 
 PTB  HZ EP       1943 56.47                             131   -0.07 9  165 247 
 PTB  HN ES   1   1944 19.54                             131    0.00 7  165 247 
 PTB  HZ I        1944 22.02         5.5 0.22                           165 247 
                                                                                
