 2011  330 1319 51.2 L   6.746 -73.085138.3  RSN  5 0.2 1.9LRSN                1
 GAP=180        0.56       4.9     5.8  6.1 -0.1364E+02 -0.6320E+01 -0.1410E+01E
 Epicentro: JORDAN - SANTANDER                                                 3
 ACTION:UP  11-06-16 14:36 OP:jfem STATUS:               ID:20110330131951 L   I
 2011-03-30-1320-00M.COL___140                                                 6
 STAT SP IPHASW D HRMM SECON CODA AMPLIT PERI AZIMU VELO SNR AR TRES W  DIS CAZ7
 BAR2 SZ EP       1320  9.94                             171     0.110   20 213 
 BAR2 SZ ES   1   1320 24.28                             171    -0.2 7   20 213 
 BAR2 SZ I        1320 26.12        13.3 0.16                            20 213 
 PAM  SZ EP   1   1320 12.97                             149     0.3 7   78  33 
 PAM  SZ I        1320 13.33        11.4 0.21                            78  33 
 BRR  HZ EP       1320 12.07                             148     0.010   80 300 
 BRR  HE ES   1   1320 28.71                             148     0.3 7   80 300 
 BRR  HZ I        1320 29.94        23.1 0.09                            80 300 
 GRA  SZ IP       1320 16.07                             134    -0.110  130  14 
 GRA  SZ ES   1   1320 35.28                             134    -0.3 7  130  14 
 GRA  SZ I        1320 37.32        10.8 0.30                           130  14 
 NOR  SN ES   2   1320 54.08                             116    -0.4 4  237 237 
                                                                                
