 2010  530 1133 31.6 L   6.813 -73.125140.0  RSN  5 0.6 1.8LRSN                1
 GAP=184        1.14      11.4    13.1 12.1 -0.1011E+03  0.8073E+02 -0.5292E+02E
 Epicentro: LOS SANTOS - SANTANDER                                             3
 ACTION:UP  10-08-24 10:07 OP:vdl  STATUS:               ID:20100530113331 L   I
 2010-05-30-1130-11S.COL___109                                                 6
 STAT SP IPHASW D HRMM SECON CODA AMPLIT PERI AZIMU VELO SNR AR TRES W  DIS CAZ7
 BAR2 SZ EP       1133 50.07                             169    -0.510   25 195 
 BAR2 SZ ES       1134  5.66                             169     0.310   25 195 
 GUE  SZ EP       1133 55.74                             138     0.110  115  11 
 CHI  HN ES   2   1134 37.71                             115    -0.8 4  251 196 
 CHI  HZ I        1134 42.59         3.0 0.75                           251 196 
 HEL  HN ES   1   1134 42.49                             113    -0.7 6  275 256 
 HEL  HZ I        1134 48.88         3.1 0.39                           275 256 
 RREF BZ EP   1   1134 18.66                             109     0.9 5  324 229 
 RREF BN ES   1   1134 54.56                             109     0.7 5  324 229 
 RREF BZ I        1134 59.45         3.9 0.19                           324 229 
                                                                                
