 2012 1130 1142 33.7 L   6.825 -73.187138.3  RSN  5 0.2 1.4LRSN                1
 GAP=146        0.54       3.8     4.0  6.6 -0.4580E+01  0.4609E+01  0.3769E+01E
 Epicentro: ZAPATOCA - SANTANDER                                               3
 ACTION:UPD 12-12-05 15:37 OP:}ep  STATUS:               ID:20121130114233 L   I
 2012-11-30-1140-00M.COL___236                                                 6
 STAT SP IPHASW D HRMM SECON CODA AMPLIT PERI AZIMU VELO AIN AR TRES W  DIS CAZ7
 BAR2 SZ EP       1142 52.60                             169    0.1410 25.7 179 
 BAR2 SZ I        1143  9.04        13.1 0.15                          25.7 179 
 PAM  SZ EP       1142 55.44                             149    0.2810 78.4  43 
 PAM  SN ES   1   1143 11.56                             149   -0.36 7 78.4  43 
 PAM  SZ I        1143 14.43         5.0 0.49                          78.4  43 
 RUS  HZ EP       1142 56.68                             141   -0.2610  104 174 
 RUS  HZ I        1142 57.84         2.8 0.14                           104 174 
 RUS  HE ES   1   1143 15.32                             141    0.23 7  104 174 
 PTB  HZ EP   1   1142 59.62                             131   -0.06 7  144 257 
 PTB  HN ES   1   1143 19.96                             131   -0.01 7  144 257 
 PTB  HZ I        1143 23.25         2.5 0.29                           144 257 
 CHI  HZ EP   1   1143 11.01                             115   -0.13 6  250 194 
 CHI  HZ I        1143 47.53         1.5 0.56                           250 194 
                                                                                
