 2016 1230 1025 28.8 L   6.863 -73.141146.0  RSN 17 0.7 2.9LRSN                1
 GAP= 69        1.87       5.6     5.8  9.8  0.6135E+01  0.1172E+02 -0.6204E+01E
 Epicentro: LOS SANTOS - SANTANDER                                             3
 ACTION:UPD 17-01-11 20:20 OP:rebc STATUS:               ID:20161230102528 L   I
 OLDACT:UP  16-12-30 21:53 OP:cog  STATUS:               ID:20161230101455     3
 OLDACT:UP  16-12-30 21:52 OP:cog  STATUS:               ID:20161230101455     3
 OLDACT:REG 16-12-30 20:17 OP:cog  STATUS:               ID:20161230101455     3
 2016-12-30-1018-00M.COL___372                                                 6
 STAT SP IPHASW D HRMM SECON CODA AMPLIT PERI AZIMU VELO AIN AR TRES W  DIS CAZ7
 BAR2 EZ IP     C 1025 48.55                             168   -0.0410 30.3 189 
 BAR2 HN ES       1026  3.89                             168   -0.1510 30.3 189 
 BAR2 EZ I        1026  5.16       304.1 0.36            159           30.3 189 
 BRR  HZ IP     C 1025 50.17                             153    0.3710 68.6 293 
 BRR  HN ES       1026  6.51                             153    0.3110 68.6 293 
 BRR  HZ I        1026 11.24       281.9 0.20            151           68.6 293 
 PAM  EZ EP       1025 50.98                             153    0.3010 71.8  43 
 RUS  HZ EP       1025 52.70                             142   -0.3510  107 177 
 RUS  HN ES       1026 11.60                             142   -0.3910  107 177 
 RUS  HZ I        1026 13.05       110.3 0.28            134            107 177 
 PTB  HZ EP       1025 55.12                             132   -0.82 9  150 256 
 TAM  HZ IP     C 1025 56.85                             130    0.25 9  157 107 
 TAM  HZ I        1026 17.43        78.4 0.20            127            157 107 
 TAM  HE ES       1026 18.47                             130    0.17 9  157 107 
 ZAR  HZ EP       1026  3.16                             123    2.14 9  202 290 
 ZAR  HE ES       1026 26.83                             123    0.65 9  202 290 
 CHI  HZ EP       1026  7.12                             116   -0.10 8  255 195 
 CHI  HN ES       1026 36.14                             116   -1.08 8  255 195 
 CHI  HZ I        1026 48.11        34.6 0.46            112            255 195 
 URE  HZ EP   9   1026  8.24                             114   -1.38 0  282 291 
 URE  HN ES       1026 39.01                             113   -1.10 7  282 291 
 URE  HZ I        1026 47.17        88.1 0.16            111            282 291 
 LL1C HZ EP       1026 11.08                             112   -0.52 7  300 351 
 LL1C HN ES       1026 43.50                             112   -1.51 7  300 351 
 GUY2CHZ EP       1026 13.71                             112    0.82 7  306 234 
 GUY2CHE ES       1026 47.41                             112    0.10 7  306 234 
 GUY2CHZ I        1026 58.87        53.1 0.62                           306 234 
 LL6C HZ EP   9   1025 53.96                             111   -19.7 0  318 357 
 LL6C HZ ES       1026 26.35                                   -2.65 7  318 357 
 LL6C HZ I        1026 29.77        25.4 0.40            109            318 357 
 ELA  HZ EP   4   1026 17.24                             110    1.04 0  334 229 
 ELA  HE ES   4   1026 51.25                             110   -1.94 0  334 229 
 ELA  HZ I        1027  3.55        30.2 0.44            106            334 229 
 CBOC HZ EP   4   1026 17.86                             110    1.86 0  336 251 
 CBOC HN ES   4   1026 50.81                             110   -2.03 0  336 251 
 CBOC HZ I        1027  3.97        25.0 0.28            107            336 251 
 DBB  EZ EP       1026 16.21                             109   -0.05 7  340 273 
 DBB  EN ES       1026 52.34                             109   -0.97 7  340 273 
 DBB  EZ I        1026 55.77        40.5 0.16            107            340 273 
 ARGC HZ EP   4   1026 19.46                             109    1.76 0  353 340 
 ARGC HN ES       1026 56.13                             109    0.27 6  353 340 
 ARGC HZ I        1027  2.55        21.2 0.34            107            353 340 
 ANIL HZ EP   4   1026 20.98                             108    1.78 0  363 224 
 ANIL HN ES   4   1027  0.16                             108    1.62 0  363 224 
 APAC HZ EP       1026 22.49                             106   -0.29 6  397 287 
 APAC HE ES       1027  4.86                             106   -0.05 6  397 287 
 APAC HZ I        1027 14.13        26.1 0.25            104            397 287 
                                                                                
