 2014 1130 1001 51.4 L   6.101 -73.681112.0  RSN 14 0.4 1.6LRSN                1
 GAP= 73        1.06       2.5     2.8  5.8 -0.1915E+01  0.5864E+01 -0.3157E+00E
 Epicentro: CHIPATA - SANTANDER                                                3
 ACTION:UPD 14-12-19 15:49 OP:nd   STATUS:               ID:20141130100151 L   I
 OLDACT:REG 14-11-30 20:53 OP:fm   STATUS:               ID:20141130095745     3
 2014-11-30-0957-45M.COL___306                                                 6
 STAT SP IPHASW D HRMM SECON CODA AMPLIT PERI AZIMU VELO AIN AR TRES W  DIS CAZ7
 SPBC HZ EP       10 2  9.08                             147    0.3210 65.9 221 
 SPBC HN ES       10 2 22.78                             147    0.4610 65.9 221 
 SPBC HZ I        10 2 24.68        25.8 0.20            148           65.9 221 
 RUS  HZ EP       10 2  9.62                             146    0.0210 70.0 109 
 RUS  HE ES       10 2 23.83                             146    0.0010 70.0 109 
 RUS  HZ I        10 2 25.87         2.5 0.32            148           70.0 109 
 BAR2 SZ EP       10 2 10.23                             143    0.4610 77.4  45 
 BAR2 SZ ES       10 2 24.11                             143   -0.0110 77.4  45 
 BAR2 SZ I        10 2 26.22        26.5 0.52            143           77.4  45 
 PTB  HZ EP       10 2 10.58                             135   -0.5710 98.6 300 
 PTB  HN ES       10 2 26.18                             135   -0.4010 98.6 300 
 PTB  HZ I        10 2 29.88         5.2 0.14            135           98.6 300 
 BRR  HZ EP       10 2 12.62                             132    0.3610  111 358 
 BRR  HN ES       10 2 28.92                             132    0.3710  111 358 
 BRR  HZ I        10 2 30.92         7.0 0.38            132            111 358 
 NOR  HZ EP       10 2 15.53                             124    0.00 9  144 246 
 NOR  HE ES       10 2 34.20                             124   -0.18 9  144 246 
 NOR  HZ I        10 2 36.21         6.8 0.26            124            144 246 
 CHI  HZ EP       10 2 17.61                             120   -0.29 9  163 182 
 CHI  HN ES       10 2 38.25                             120   -0.34 9  163 182 
 CHI  HZ I        10 2 41.45         5.8 0.30            122            163 182 
 PAM  SN ES       10 2 40.44                             118   -0.59 9  175  38 
 PAM  SZ I        10 2 44.27         6.8 0.44            119            175  38 
 ZAR  HZ EP       10 2 21.27                             114   -0.32 9  202 320 
 ZAR  HN ES       10 2 45.59                             114    0.43 9  202 320 
 ZAR  HZ I        10 2 47.35         9.1 0.58            114            202 320 
 HEL  HZ EP       10 2 22.96                             114    0.55 9  205 273 
 HEL  HE ES       10 2 45.68                             114   -0.94 9  205 273 
 HEL  HZ I        10 2 50.10         1.9 0.22            114            205 273 
 GUY2CHZ EP       10 2 24.06                             113    0.91 8  210 243 
 GUY2CHN ES       10 2 48.11                             113    0.16 8  210 243 
 GUY2CHZ I        10 2 52.90         1.7 0.24                           210 243 
 OCA  HE ES       10 2 52.78                             110   -0.41 8  240  10 
 OCA  HZ I        10 3  4.23         6.1 0.54            110            240  10 
 TOL  SZ EP       10 2 26.94                             109   -0.24 8  247 227 
 TOL  SE ES       10 2 54.57                             109   -0.54 8  247 227 
 TOL  SZ I        10 3  3.04         4.2 0.54            110            247 227 
 CBOC HZ EP       10 2 28.54                             108    0.15 8  259 264 
 CBOC HN ES       10 2 57.69                             108    0.42 8  259 264 
 CBOC HZ I        10 3  1.30         1.6 0.30            109            259 264 
                                                                                
