 2015  530 1757 55.9 L   6.804 -73.145147.2  RSN 19 0.4 2.3LRSN                1
 GAP= 71        0.86       2.3     2.6  4.5 -0.5845E+00  0.2599E+01  0.1729E+01E
 Epicentro: LOS SANTOS - SANTANDER                                             3
 ACTION:UPD 15-09-10 22:08 OP:cam  STATUS:               ID:20150530175755 L   I
 OLDACT:DUP 15-05-31 01:18 OP:spq  STATUS:               ID:20150530174752d    3
 OLDACT:REG 15-05-30 21:46 OP:spq  STATUS:               ID:20150530174750     3
 2015-05-30-1747-50M.COL___318                                                 6
 STAT SP IPHASW D HRMM SECON CODA AMPLIT PERI AZIMU VELO AIN AR TRES W  DIS CAZ7
 BAR2 EZ EP       1758 15.50                             170   -0.1610 23.7 190 
 BAR2 EZ ES   1   1758 30.62                             170   -0.49 7 23.7 190 
 BAR2 EZ I        1758 31.91        72.7 0.20            169           23.7 190 
 BRR  HZ EP       1758 17.37                             153    0.2310 71.1 298 
 BRR  HN ES       1758 34.40                             153    0.6510 71.1 298 
 BRR  HZ I        1758 35.30        28.9 0.14            151           71.1 298 
 PAM  SZ EP       1758 18.40                             151    0.2110 77.0  40 
 PAM  SE ES   1   1758 35.79                             151    0.17 7 77.0  40 
 PAM  SZ I        1758 37.57        27.9 0.48            154           77.0  40 
 RUS  HZ EP       1758 19.40                             144   -0.3710  101 176 
 RUS  HE ES       1758 38.24                             144   -0.1810  101 176 
 RUS  HZ I        1758 39.30        27.3 0.32            144            101 176 
 TAM  HZ EP       1758 23.78                             131    0.14 9  155 105 
 TAM  HN ES       1758 45.73                             131    0.42 9  155 105 
 TAM  HZ I        1758 47.54        12.0 0.52            133            155 105 
 OCA  HZ EP       1758 23.83                             130   -0.40 9  160 353 
 OCA  HN ES       1758 45.92                             130   -0.45 9  160 353 
 OCA  HZ I        1758 48.71        56.1 0.20            131            160 353 
 SPBC HZ EP       1758 24.47                             129   -0.02 9  164 219 
 SPBC HE ES       1758 46.67                             129   -0.16 9  164 219 
 SPBC HZ I        1758 49.15        44.2 0.20            129            164 219 
 ZAR  HZ EP   1   1758 27.93                             123   -0.45 6  204 292 
 ZAR  HE ES       1758 54.11                             123    0.36 9  204 292 
 ZAR  HZ I        1758 59.66        19.9 0.32            122            204 292 
 NOR  HZ EP       1758 31.41                             119   -0.28 8  235 234 
 NOR  HE ES       1758 59.19                             119   -0.46 8  235 234 
 NOR  HZ I        1759  0.72        20.3 0.14            118            235 234 
 SML  HZ EP   1   1758 32.37                             118   -0.15 6  243 335 
 SML  HE ES   1   1759  0.64                             118   -0.48 6  243 335 
 SML  HZ I        1759  3.53        25.9 0.10            118            243 335 
 CHI  HZ EP       1758 33.70                             117    0.03 8  249 195 
 CHI  HN ES   1   1759  3.03                             117   -0.14 6  249 195 
 CHI  HZ I        1759  6.21         6.4 0.31            117            249 195 
 ROSC BZ EP   4   1758 35.54                             117    1.45 0  253 211 
 ROSC BN ES   4   1759  6.25                             117    2.33 0  253 211 
 ROSC BZ I        1759 11.28        23.7 0.40            117            253 211 
 HEL  HZ EP   1   1758 36.80                             115    0.64 6  272 256 
 HEL  HE ES   1   1759  8.36                             115    0.77 6  272 256 
 HEL  HZ I        1759 15.94        10.3 0.34            115            272 256 
 GUY2CHZ EP   4   1758 40.76                             113    1.20 0  302 235 
 GUY2CHN ES       1759 13.34                             113   -0.31 7  302 235 
 GUY2CHZ I        1759 21.85        14.4 0.30                           302 235 
 TOL  SZ EP       1758 45.13                             109    0.93 7  344 225 
 TOL  SE ES   4   1759 24.15                             109    2.23 0  344 225 
 TOL  SZ I        1759 28.27         9.9 0.52            109            344 225 
 MON  HN ES   4   1759 21.29                             109   -1.84 0  354 308 
 MON  HZ I        1759 23.12         2.6 0.26            109            354 308 
 PRA  HZ EP       1758 49.22                             107   -0.25 6  392 210 
 PRA  HN ES       1759 30.96                             107   -0.33 6  392 210 
 PRA  HZ I        1759 37.85         9.8 0.36            107            392 210 
 ORTC HZ EP       1758 50.48                             107    0.62 6  396 216 
 ORTC HE ES   1   1759 32.88                             107    0.89 4  396 216 
 ORTC HZ I        1759 37.92         7.6 0.50            107            396 216 
 SJC  HZ EP   4   1758 49.74                             106   -1.68 0  409 327 
 SJC  HN ES   4   1759 30.94                             106   -3.83 0  409 327 
 SJC  HZ I        1759 38.76         2.9 0.52            106            409 327 
                                                                                
