 2016 1130 1520 15.8 L   6.760 -73.123144.8  RSN  4 0.3 1.5LRSN                1
 GAP=163        0.83       7.5     4.5  7.9 -0.1150E+02  0.1322E+02 -0.7891E+01E
 Epicentro: LOS SANTOS - SANTANDER                                             3
 ACTION:UPD 17-10-26 21:13 OP:lp   STATUS:               ID:20161130152015 L   I
 OLDACT:REG 16-11-30 21:00 OP:lv   STATUS:               ID:20161130151746     3
 2016-11-30-1518-00M.COL___346                                                 6
 STAT SP IPHASW D HRMM SECON CODA AMPLIT PERI AZIMU VELO AIN AR TRES W  DIS CAZ7
 BAR2 EZ EP       1520 35.40                             172    0.1510 19.7 200 
 BAR2 EZ ES       1520 50.46                             172    0.0410 19.7 200 
 BAR2 EZ I        1520 51.88         8.5 0.25            174           19.7 200 
 PAM  EZ EP       1520 38.47                             150    0.4310 79.3  36 
 PAM  EN ES       1520 55.04                             150   -0.3310 79.3  36 
 PAM  EZ I        1520 57.61         5.1 0.32            149           79.3  36 
 PTB  HZ EP       1520 42.25                             131   -0.60 9  149 261 
 PTB  HN ES       1521  4.11                             131    0.16 9  149 261 
 PTB  HZ I        1521  5.36         3.9 0.11            132            149 261 
 ZAR  HN ES       1521 14.32                             122    0.13 8  208 293 
 ZAR  HZ I        1521 20.03         3.8 0.14            121            208 293 
                                                                                
