 2016  530 1046 27.3 L   6.789 -73.176142.3  RSN  5 0.3 1.3LRSN                1
 GAP=133        0.84       4.4     4.2  6.2 -0.1717E+01  0.3240E+01  0.1270E+01E
 Epicentro: LOS SANTOS - SANTANDER                                             3
 ACTION:UPD 16-08-18 17:50 OP:cam  STATUS:               ID:20160530104627 L   I
 OLDACT:DUP 16-05-30 20:55 OP:ar   STATUS:               ID:20160530103743d    3
 2016-05-30-1037-42M.COL___298                                                 6
 STAT SP IPHASW D HRMM SECON CODA AMPLIT PERI AZIMU VELO AIN AR TRES W  DIS CAZ7
 BAR2 EZ EP       1046 46.77                             171    0.2810 21.8 182 
 BAR2 EZ ES       1047  1.50                             171    0.0510 21.8 182 
 BAR2 EZ I        1047  2.68         3.5 0.28            168           21.8 182 
 BRR  HZ EP       1046 48.08                             153    0.1310 68.9 301 
 BRR  HN ES       1047  4.44                             153    0.4010 68.9 301 
 BRR  HZ I        1047 23.10        11.6 0.34            145           68.9 301 
 PAM  EZ EP       1046 49.18                             149   -0.1610 80.4  41 
 PAM  EN ES       1047  6.24                             149   -0.2910 80.4  41 
 PAM  EZ I        1047  8.55         2.0 0.28            151           80.4  41 
 RUS  HZ EP       1046 50.41                             143   -0.2410 99.7 174 
 RUS  HE ES       1047  8.98                             143    0.1210 99.7 174 
 PTB  HZ EP       1046 54.02                             132    0.35 9  144 259 
 PTB  HN ES       1047 13.55                             132   -0.68 9  144 259 
 PTB  HZ I        1047 21.10         2.2 0.44            131            144 259 
                                                                                
