 2013  130 1138  2.2 L   6.778 -73.132142.0  RSN  7 0.4 1.6LRSN                1
 GAP=139        0.94       4.9     4.5  7.6 -0.6074E+00  0.3115E+01  0.8348E+01E
 Epicentro: LOS SANTOS - SANTANDER                                             3
 ACTION:UPD 13-02-15 09:18 OP:ep   STATUS:               ID:20130130113802 L   I
 2013-01-30-1128-48M.COL___179                                                 6
 STAT SP IPHASW D HRMM SECON CODA AMPLIT PERI AZIMU VELO AIN AR TRES W  DIS CAZ7
 BAR2 SZ EP       1138 21.02                             171   -0.2810 21.3 195 
 BAR2 SZ ES   1   1138 35.62                             171   -0.61 7 21.3 195 
 BAR2 SZ I        1138 38.13        12.9 0.20            170           21.3 195 
 BRR  HZ EP       1138 22.90                             151   -0.1610 73.7 300 
 BRR  HE ES       1138 40.08                             151    0.7310 73.7 300 
 BRR  HZ I        1138 46.95        16.4 0.40            152           73.7 300 
 PAM  SZ IP     D 1138 24.13                             150    0.0910 78.3  38 
 PAM  SZ I        1138 24.16         9.5 0.22            155           78.3  38 
 PAM  SN ES       1138 40.91                             150   -0.1910 78.3  38 
 RUS  HZ EP       1138 25.76                             144    0.4010 98.1 177 
 RUS  HN ES   1   1138 43.78                             144    0.32 7 98.1 177 
 RUS  HZ I        1138 45.32         5.9 0.36            146           98.1 177 
 PTB  HZ EP   1   1138 28.30                             131   -0.63 7  149 260 
 PTB  HN ES       1138 49.42                             131   -0.38 9  149 260 
 PTB  HZ I        1138 51.78         3.9 0.34            133            149 260 
 ZAR  HN ES   1   1139  0.18                             121    0.26 6  206 293 
 CHI  HZ EP   2   1138 40.22                             117    0.77 4  247 196 
 CHI  HN ES   2   1139  8.36                             117   -0.16 4  247 196 
 CHI  HZ I        1139 11.99         1.3 0.40            119            247 196 
                                                                                
