 2015 1230 1036 11.2 L   6.845 -73.142145.3  RSN  7 0.5 1.5LRSN                1
 GAP=202        0.89       5.4     7.5 10.1  0.4005E+01 -0.1733E+01 -0.5735E+01E
 Epicentro: LOS SANTOS - SANTANDER                                             3
 ACTION:UPD 16-02-04 15:09 OP:cam  STATUS:               ID:20151230103611 L   I
 OLDACT:REG 15-12-30 20:08 OP:dnl  STATUS:               ID:20151230102750     3
 2015-12-30-1027-50M.COL___335                                                 6
 STAT SP IPHASW D HRMM SECON CODA AMPLIT PERI AZIMU VELO AIN AR TRES W  DIS CAZ7
 BAR2 EZ EP   2   1036 30.84                             168   -0.06 5 28.3 189 
 BAR2 EZ ES   2   1036 46.17                             168   -0.09 5 28.3 189 
 BAR2 EZ I        1036 48.82         4.4 0.11            169           28.3 189 
 BRR  HZ EP   2   1036 32.40                             153    0.18 5 69.4 295 
 BRR  HN ES   1   1036 48.78                             153    0.19 8 69.4 295 
 BRR  HZ I        1036 56.62         8.9 0.38            150           69.4 295 
 RUS  HZ EP   2   1036 35.50                             142    0.22 5  105 176 
 RUS  HE ES   2   1036 53.14                             142   -0.91 5  105 176 
 RUS  HZ I        1036 54.46         2.1 0.29            150            105 176 
 PTB  HZ EP   1   1036 37.77                             131   -0.51 7  149 257 
 PTB  HN ES       1036 58.78                             131   -0.6110  149 257 
 PTB  HZ I        1037  4.70         3.9 0.24            134            149 257 
 SPBC HZ EP   2   1036 40.06                             128   -0.02 5  167 218 
 SPBC HE ES       1037  3.39                             128    0.8110  167 218 
 SPBC HZ I        1037  5.88         5.8 0.06            133            167 218 
 ZAR  HZ EP   4   1036 45.20                             122    1.71 0  203 291 
 ZAR  HN ES   2   1037  9.07                             122    0.41 5  203 291 
 ZAR  HZ I        1037 15.43         4.0 0.17            125            203 291 
 SML  HZ EP   2   1036 47.21                             118   -0.15 4  239 335 
 SML  HE ES   2   1037 16.34                             118    0.80 4  239 335 
 SML  HZ I        1037 18.50         4.4 0.07            121            239 335 
                                                                                
