 2014  630 1333 59.0 L   6.810 -73.185131.6  RSN 22 0.4 2.8LRSN                1
 GAP=131        0.89       1.9     2.9  4.8 -0.8923E+00  0.6051E+01  0.7064E+00E
 Epicentro: ZAPATOCA - SANTANDER                                               3
 ACTION:UPD 14-07-01 22:58 OP:nd   STATUS:               ID:20140630133359 L   I
 OLDACT:UP  14-06-30 22:14 OP:spq  STATUS:               ID:20140630132813     3
 OLDACT:REG 14-06-30 20:24 OP:spq  STATUS:               ID:20140630132813     3
 2014-06-30-1328-13M.COL___247                                                 6
 STAT SP IPHASW D HRMM SECON CODA AMPLIT PERI AZIMU VELO AIN AR TRES W  DIS CAZ7
 BAR2 SZ IP     D 1334 17.29                             169    0.3610 24.0 179 
 BAR2 SZ ES   1   1334 30.98                             169    0.06 7 24.0 179 
 BAR2 SZ I        1334 33.03       201.8 0.30            167           24.0 179 
 PAM  SZ EP       1334 20.34                             147    0.4910 79.4  42 
 PAM  SE ES       1334 36.45                             147    0.3310 79.4  42 
 PAM  SZ I        1334 39.70        67.2 0.64            150           79.4  42 
 RUS  HZ EP       1334 21.39                             140   -0.1010  102 174 
 RUS  HE ES       1334 38.69                             140   -0.3410  102 174 
 RUS  HZ I        1334 40.53        86.3 0.24            139            102 174 
 PTB  HZ IP     C 1334 23.83                             129   -0.63 9  144 258 
 PTB  HN ES       1334 43.91                             129   -0.41 9  144 258 
 PTB  HZ I        1334 47.27        66.5 0.18            129            144 258 
 OCA  HZ EP       1334 26.11                             126    0.02 9  159 355 
 OCA  HE ES       1334 46.78                             126   -0.45 9  159 355 
 OCA  HZ I        1334 52.52        86.0 0.25            128            159 355 
 SPBC HZ EP       1334 26.49                             126    0.23 9  161 218 
 SPBC HN ES       1334 47.39                             126   -0.13 9  161 218 
 SPBC HZ I        1334 50.19       105.9 0.20            125            161 218 
 ZAR  HZ EP       1334 30.34                             120    0.26 9  200 292 
 ZAR  HN ES       1334 55.02                             120    0.68 9  200 292 
 ZAR  HZ I        1334 57.60        72.1 0.12            120            200 292 
 SML  HZ EP       1334 34.24                             115   -0.32 8  241 336 
 SML  HE ES       1335  2.01                             115   -0.29 8  241 336 
 SML  HZ I        1335  6.02        99.1 0.11            115            241 336 
 CHI  HZ EP       1334 35.44                             114   -0.50 8  249 194 
 CHI  HN ES       1335  4.36                             114   -0.39 8  249 194 
 CHI  HZ I        1335  8.99        17.1 0.28            114            249 194 
 ROSC BZ EP   4   1334 37.35                             114    1.12 0  251 210 
 ROSC BN ES       1335  5.72                             114    0.44 8  251 210 
 ROSC BZ I        1335 13.64        42.5 0.45            114            251 210 
 HEL  HZ EP       1334 37.87                             112   -0.21 8  268 255 
 HEL  HN ES       1335  9.05                             112    0.49 8  268 255 
 HEL  HZ I        1335 16.66        22.8 0.42            112            268 255 
 URE  HZ EP   4   1334 37.74                             111   -1.17 0  279 292 
 URE  HN ES       1335  9.62                             111   -0.42 7  279 292 
 URE  HZ I        1335 11.38        44.5 0.36            111            279 292 
 GUY2CHZ EP       1334 41.74                             110    0.09 7  298 234 
 GUY2CHN ES       1335 15.12                             110    0.20 7  298 234 
 GUY2CHZ I        1335 22.71        28.2 0.24                           298 234 
 PTGC HZ EP   4   1334 40.51                             108   -2.04 0  311 158 
 PTGC HN ES   4   1335 11.98                             108   -4.54 0  311 158 
 PTGC HZ I        1335 30.49        29.4 0.42            109            311 158 
 RREF HZ EP       1334 44.88                             108    0.62 7  319 229 
 RREF HN ES       1335 19.46                             108   -0.11 7  319 229 
 RREF HZ I        1335 31.38        29.3 0.30            108            319 229 
 CBOC HZ EP       1334 45.54                             107    0.62 7  330 252 
 CBOC HN ES       1335 20.23                             107   -0.50 7  330 252 
 CBOC HZ I        1335 32.58        11.1 0.40            108            330 252 
 DBB  SZ EP       1334 45.21                             107   -0.21 7  335 274 
 DBB  SZ ES   1   1335 21.63                             107    0.00 5  335 274 
 DBB  SZ I        1335 26.07        90.9 0.33            107            335 274 
 TOL  SZ EP       1334 47.09                             107    0.64 7  341 224 
 TOL  SN ES       1335 23.22                             107   -0.24 7  341 224 
 TOL  SZ I        1335 32.43        53.8 0.54            107            341 224 
 ANIL HE ES       1335 27.07                             106    0.81 6  355 224 
 ANIL HZ I        1335 31.80        52.1 0.38            106            355 224 
 PRA  HZ EP       1334 51.27                             104   -0.65 6  391 209 
 PRA  HE ES       1335 32.58                             104   -0.61 6  391 209 
 PRA  HZ I        1335 39.13        14.2 0.34            104            391 209 
 ORTC HZ EP       1334 51.90                             104   -0.36 6  394 216 
 ORTC HN ES       1335 34.26                             104    0.45 6  394 216 
 ORTC HZ I        1335 40.29        12.9 0.42            104            394 216 
 SJC  HZ EP   4   1334 52.05                             103   -1.69 0  406 327 
 SJC  HN ES   4   1335 32.33                             103   -4.11 0  406 327 
 SJC  HZ I        1335 37.64        15.1 0.43            104            406 327 
                                                                                
