 2012  730 1947 36.9 L   6.732 -73.269148.3  RSN  4 0.3 1.4LRSN                1
 GAP=217        0.67       7.5     7.6  7.9  0.3764E+02  0.1762E+01 -0.4542E+01E
 Epicentro: ZAPATOCA - SANTANDER                                               3
 ACTION:UPD 12-08-14 11:46 OP:ep   STATUS:               ID:20120730194736 L   I
 2012-07-30-1940-00M.COL___209                                                 6
 STAT SP IPHASW D HRMM SECON CODA AMPLIT PERI AZIMU VELO AIN AR TRES W  DIS CAZ7
 BRR  HZ EP   2   1947 57.00                             155    -1.0 5   64 310 
 BRR  HN ES   1   1948 14.61                             155     0.2 7   64 310 
 RUS  HZ EP   1   1948  0.67                             146     0.1 7   95 168 
 RUS  HN ES   1   1948 18.92                             146     0.0 7   95 168 
 RUS  HZ I        1948 21.00         3.7 0.15            148             95 168 
 PTB  HZ EP   1   1948  2.93                             136     0.1 7  133 261 
 PTB  HN ES   1   1948 22.74                             136    -0.3 7  133 261 
 PTB  HZ I        1948 26.43         3.6 0.15            134            133 261 
 ZAR  HZ EP   1   1948  8.82                             124     0.2 6  195 296 
 ZAR  HE ES   2   1948 33.36                             124     0.1 4  195 296 
 ZAR  HZ I        1948 40.64         2.8 0.23            124            195 296 
