 2011  630 1433 29.5 L   6.764 -73.103150.9  RSN  7 0.5 1.8LRSN                1
 GAP=179        1.14      11.5    13.4 10.7 -0.6153E+02 -0.7583E+01  0.6051E+01E
 Epicentro: LOS SANTOS - SANTANDER                                             3
 ACTION:UP  11-07-14 19:09 OP:ep   STATUS:               ID:20110630143329 L   I
 2011-06-30-1429-14S.COL___140                                                 6
 STAT SP IPHASW D HRMM SECON CODA AMPLIT PERI AZIMU VELO SNR AR TRES W  DIS CAZ7
 BAR2 SZ EP       1433 49.43                             172    -0.210   21 205 
 BAR2 SZ ES   1   1434  5.03                             172    -0.4 7   21 205 
 BTL  SZ EP       1433 50.81                             170     1.110   25 313 
 BRR  HZ EP       1433 51.37                             151    -0.110   77 299 
 BRR  HN ES   1   1434  8.72                             151     0.0 7   77 299 
 BRR  HZ I        1434 16.59        21.6 0.36                            77 299 
 BRI  SZ EP   3   1433 53.40                             142    -0.6 2  111  18 
 GRA  SZ EP       1433 54.98                             137    -0.410  128  15 
 GRA  SZ I        1434 16.45         3.7 0.23                           128  15 
 NOR  SZ EP       1434  5.49                             119    -0.2 8  236 236 
 NOR  SN ES   3   1434 32.91                             119    -1.0 2  236 236 
 CHI  HZ EP   3   1434  7.45                             118     0.3 2  246 196 
                                                                                
