 2011  830 1353 15.1 L   6.767 -73.137144.8  RSN  5 0.4 1.6LRSN                1
 GAP=187        0.83       6.5     8.7  8.4  0.8659E+00  0.2799E+02  0.1317E+02E
 Epicentro: LOS SANTOS - SANTANDER                                             3
 ACTION:UPD 12-07-13 15:54 OP:ep   STATUS:               ID:20110830135315 L   I
 2011-08-30-1350-09S.COL___165                                                 6
 STAT SP IPHASW D HRMM SECON CODA AMPLIT PERI AZIMU VELO AIN AR TRES W  DIS CAZ7
 BAR2 SZ EP   1   1353 34.24                             172   -0.34 7 20.0 194 
 BAR2 SZ ES   1   1353 49.00                             172   -0.76 7 20.0 194 
 BAR2 SZ I        1353 50.92         7.1 0.17                          20.0 194 
 GIR2 SZ EP   2   1353 35.26                             166    0.47 5 35.0 350 
 GIR2 SZ ES   1   1353 50.90                             166    0.77 7 35.0 350 
 BRR  HZ EP   1   1353 36.11                             151   -0.21 7 73.8 301 
 BRR  HZ I        1353 40.77        14.6 0.41                          73.8 301 
 BRR  HN ES   2   1353 52.48                             151   -0.38 5 73.8 301 
 RUS  HZ EP   1   1353 38.49                             145   -0.03 7 96.9 176 
 RUS  HZ I        1353 39.89         3.9 0.48                          96.9 176 
 RUS  HN ES   1   1353 57.11                             145    0.34 7 96.9 176 
 NOR  SZ EP   1   1353 50.69                             118    0.03 6  233 235 
 NOR  SE ES   1   1354 18.65                             118    0.27 6  233 235 
                                                                                
