 2010  430 1542 15.2 L   6.800 -73.088145.4  RSN 15 0.5 2.7LRSN                1
 GAP=147        0.94       5.0     6.8  6.6 -0.2214E+02 -0.5731E+01  0.9676E+01E
 Epicentro: LOS SANTOS - SANTANDER                                             3
 ACTION:UPD 10-08-24 10:02 OP:vdl  STATUS:               ID:20100430154215 L   I
 2010-04-30-1540-11S.COL___105                                                 6
 STAT SP IPHASW D HRMM SECON CODA AMPLIT PERI AZIMU VELO SNR AR TRES W  DIS CAZ7
 BAR2 SZ IP       1542 34.56                             170    -0.310   25 205 
 BAR2 SZ ES   1   1542 49.43                             170    -0.7 7   25 205 
 BRR  HZ IP     C 1542 36.98                             150     0.310   77 296 
 BRR  HZ I        1542 37.32        76.8 0.15                            77 296 
 BRR  HE ES   1   1542 53.86                             150     0.5 7   77 296 
 BRI  SZ IP       1542 39.23                             142     0.310  106  18 
 BRI  SZ ES   2   1542 57.41                             142     0.0 5  106  18 
 GUE  SZ EP       1542 39.68                             139    -0.110  115   9 
 GRA  SZ IP       1542 40.45                             137     0.210  124  15 
 GRA  SZ ES   1   1543  0.04                             137     0.2 7  124  15 
 OCA  SZ EP   2   1542 43.38                             129    -0.2 5  161 351 
 OCA  SZ ES   2   1543  5.54                             129    -0.2 5  161 351 
 OCA  SZ I        1543  8.04        72.4 0.39                           161 351 
 CHI  HZ EP   2   1542 52.82                             117    -0.3 4  250 197 
 CHI  HN ES   2   1543 22.55                             117    -0.1 4  250 197 
 CHI  HZ I        1543 28.74        11.7 0.25                           250 197 
 ROSC BZ EP   2   1542 54.53                             116     0.8 4  256 212 
 ROSC BZ I        1543 32.30        26.0 0.32                           256 212 
 HEL  HZ EP   2   1542 55.74                             114    -0.4 4  278 256 
 HEL  HE ES   2   1543 27.00                             114    -1.0 4  278 256 
 HEL  HZ I        1543 32.95        24.6 0.35                           278 256 
 RREF BZ EP   2   1543  1.87                             110     0.0 3  327 230 
 RREF BN ES   1   1543 38.70                             110     0.4 5  327 230 
 RREF BZ I        1543 43.25        18.5 0.36                           327 230 
 DBB  SZ EP   1   1543  1.82                             109    -1.6 5  346 274 
 TOL  SZ EP   2   1543  5.40                             109     1.4 3  348 225 
 SDV  BZ IP     C 1543  4.28                             108    -0.4 6  355  50 
 SDV  BZ I        1543  4.99        11.4 0.16                           355  50 
 ANIL BZ EP   2   1543  6.43                             108     0.9 3  362 225 
 ANIL BN ES   2   1543 44.82                             108     0.0 3  362 225 
 ANIL BZ I        1543 55.99        37.7 0.46                           362 225 
 PRA  HZ IP     C 1543  9.12                             106     0.0 6  395 210 
 PRA  HN ES   1   1543 51.68                             106     0.5 4  395 210 
 PRA  HZ I        1543 56.49        15.7 0.29                           395 210 
                                                                                
