 2015  330 1454 34.3 L   6.807 -73.125141.2  RSN  7 0.5 1.9LRSN                1
 GAP=139        1.05       4.2     5.6  6.8 -0.6098E+01  0.1432E+02  0.4022E+00E
 Epicentro: LOS SANTOS - SANTANDER                                             3
 ACTION:UPD 15-04-30 16:30 OP:nd   STATUS:               ID:20150330145434 L   I
 OLDACT:REG 15-03-30 20:26 OP:fm   STATUS:               ID:20150330144746     3
 2015-03-30-1447-46M.COL___284                                                 6
 STAT SP IPHASW D HRMM SECON CODA AMPLIT PERI AZIMU VELO AIN AR TRES W  DIS CAZ7
 BAR2 EZ EP   1   1454 53.35                             170   -0.02 7 24.6 195 
 BAR2 EZ ES       1455  7.43                             170   -0.8410 24.6 195 
 BAR2 EZ I        1455  9.85        14.0 0.42            170           24.6 195 
 BRR  HZ EP   1   1454 55.08                             151    0.06 7 72.9 297 
 BRR  HN ES       1455 12.00                             151    0.7910 72.9 297 
 BRR  HZ I        1455 14.88        14.0 0.46            151           72.9 297 
 PAM  SZ EP       1454 56.21                             151    0.3410 75.3  39 
 PAM  SE ES       1455 12.81                             151    0.0910 75.3  39 
 PAM  SZ I        1455 15.36         8.1 0.48            154           75.3  39 
 RUS  HZ EP       1454 57.68                             143    0.0710  101 177 
 RUS  HN ES       1455 15.95                             143    0.1210  101 177 
 RUS  HZ I        1455 17.24        10.3 0.34            145            101 177 
 NOR  HZ EP   1   1455  9.68                             117   -0.30 6  237 235 
 NOR  HE ES       1455 37.43                             117   -0.41 8  237 235 
 NOR  HZ I        1455 42.34         7.2 0.32            119            237 235 
 SML  HZ EP   1   1455 10.03                             116   -0.63 6  244 335 
 SML  HN ES   1   1455 38.28                             116   -0.78 6  244 335 
 SML  HZ I        1455 39.90         9.6 0.30            118            244 335 
 GUY2CHZ EP       1455 18.16                             111    0.23 7  304 235 
 GUY2CHE ES       1455 52.30                             111    0.31 7  304 235 
 GUY2CHZ I        1456  1.73         3.2 0.34                           304 235 
                                                                                
