 2013  830 1152  1.5 L   6.769 -73.161140.2  RSN  6 0.4 2.5LRSN 2.9WRSN        1
 SPEC AVERAGE  MO 13.4 ST 17.5 OM  2.0 f0 6.87 R0.2951 AL 0.00 WI 14.2 MW  2.9 3
 SPEC SD       MO  0.5 ST 12.4 OM  0.6 f0 3.69 R1.0567 AL      WI      MW  0.3 3
 GAP= 97        0.97       5.3     3.7  7.0 -0.1782E+01  0.2169E+01 -0.2465E+01E
 Epicentro: LOS SANTOS - SANTANDER                                             3
 SPEC HEL HH Z MO 13.6 ST  2.8 OM  1.7 f0 4.00 R0.3885 AL 0.00 WI 29.6 MW  3.0 3
 SPEC HEL HH Z T1153 8 K 0.000 GD  303 VS 4.20 DE 3.20 Q0300.0 QA 0.60 VS 4.20 3
 SPEC CHI HH Z MO 13.3 ST0.884 OM  1.5 f0 3.23 R0.4811 AL 0.00 WI 15.1 MW  2.8 3
 SPEC CHI HH Z T1153 8 K 0.000 GD  285 VS 4.20 DE 3.20 Q0300.0 QA 0.60 VS 4.20 3
 SPEC SML HH Z MO 13.3 ST 25.6 OM  1.5 f0 10.0 R0.1554 AL 0.00 WI 24.5 MW  2.8 3
 SPEC SML HH Z T1153 3 K 0.000 GD  278 VS 4.20 DE 3.20 Q0300.0 QA 0.60 VS 4.20 3
 SPEC NOR HH Z MO 13.3 ST 25.0 OM  1.5 f0 10.0 R0.1554 AL 0.00 WI 15.9 MW  2.8 3
 SPEC NOR HH Z T1153 2 K 0.000 GD  271 VS 4.20 DE 3.20 Q0300.0 QA 0.60 VS 4.20 3
 SPEC ZAR HH Z MO 13.4 ST  6.3 OM  1.6 f0 6.06 R0.2564 AL 0.00 WI 15.8 MW  2.9 3
 SPEC ZAR HH Z T115258 K 0.000 GD  244 VS 4.20 DE 3.20 Q0300.0 QA 0.60 VS 4.20 3
 SPEC YOP SH Z MO 13.6 ST  1.8 OM  1.8 f0 3.48 R0.4466 AL 0.00 WI 15.1 MW  3.0 3
 SPEC YOP SH Z T115252 K 0.000 GD  226 VS 4.20 DE 3.20 Q0300.0 QA 0.60 VS 4.20 3
 SPEC PTB HH Z MO 13.4 ST 29.4 OM  1.7 f0 10.0 R0.1554 AL 0.00 WI 15.5 MW  2.9 3
 SPEC PTB HH Z T115246 K 0.000 GD  201 VS 4.20 DE 3.20 Q0300.0 QA 0.60 VS 4.20 3
 SPEC RUS HH Z MO 13.0 ST  2.2 OM  1.4 f0 5.58 R0.2785 AL 0.00 WI 13.0 MW  2.6 3
 SPEC RUS HH Z T115240 K 0.000 GD  170 VS 4.20 DE 3.20 Q0300.0 QA 0.60 VS 4.20 3
 SPEC PAM SH Z MO 13.1 ST0.864 OM  1.5 f0 3.87 R0.4016 AL 0.00 WI 13.8 MW  2.7 3
 SPEC PAM SH Z T115239 K 0.000 GD  161 VS 4.20 DE 3.20 Q0300.0 QA 0.60 VS 4.20 3
 SPEC PAM SH N MO 13.6 ST0.773 OM  2.0 f0 2.54 R0.6118 AL 0.00 WI 13.5 MW  3.0 3
 SPEC PAM SH N T115238 K 0.000 GD  161 VS 4.20 DE 3.20 Q0300.0 QA 0.60 VS 4.20 3
 SPEC BRR HH N MO 13.6 ST 45.8 OM  2.0 f0 10.0 R0.1554 AL 0.00 WI 20.0 MW  3.0 3
 SPEC BRR HH N T115235 K 0.000 GD  157 VS 4.20 DE 3.20 Q0300.0 QA 0.60 VS 4.20 3
 SPEC BAR2SH Z MO 13.4 ST 25.9 OM  1.9 f0 9.25 R0.1680 AL 0.00 WI  9.6 MW  2.9 3
 SPEC BAR2SH Z T115232 K 0.000 GD  141 VS 4.20 DE 3.20 Q0300.0 QA 0.60 VS 4.20 3
 ACTION:UPD 14-01-14 09:08 OP:ep   STATUS:               ID:20130830115201 L   I
 OLDACT:UP  13-08-30 18:56 OP:nd   STATUS:               ID:20130830114959     3
 OLDACT:REG 13-08-30 16:57 OP:nd   STATUS:               ID:20130830114959     3
 2013-08-30-1149-59M.COL___235                                                 6
 STAT SP IPHASW D HRMM SECON CODA AMPLIT PERI AZIMU VELO AIN AR TRES W  DIS CAZ7
 BAR2 SZ IP     D 1152 20.67                             172    0.2910 19.7 187 
 BAR2 SZ ES       1152 35.25                             172    0.1310 19.7 187 
 BAR2 SZ I        1152 36.87       210.4 0.16            174           19.7 187 
 BRR  HZ EP     C 1152 22.60                             151    0.5410 71.5 302 
 BRR  HN ES   4   1152 37.99                             151   -0.11 0 71.5 302 
 BRR  HZ I        1152 43.27        68.9 0.18            151           71.5 302 
 PAM  SZ EP       1152 23.48                             149    0.1310 81.1  39 
 PAM  SN ES       1152 40.25                             149   -0.1510 81.1  39 
 PAM  SZ I        1152 43.41        35.6 0.52            151           81.1  39 
 RUS  HZ IP     C 1152 24.58                             144    0.1210 97.3 175 
 RUS  HN ES       1152 42.59                             144    0.2210 97.3 175 
 RUS  HZ I        1152 44.26        47.1 0.32            149           97.3 175 
 PTB  HZ EP       1152 27.17                             131   -0.63 9  145 260 
 PTB  HN ES       1152 47.93                             131   -0.39 9  145 260 
 PTB  HZ I        1152 51.20        70.1 0.16            134            145 260 
 TAM  HZ IP     D 1152 29.02                             129    0.22 9  156 104 
 TAM  HN ES       1152 49.44                             129   -0.67 9  156 104 
 TAM  HZ I        1152 49.80        22.1 0.46            134            156 104 
                                                                                
