 2011 1230 1548  8.6 L   7.334 -73.225134.3  RSN  7 0.1 1.9LRSN                1
 GAP=126        0.29       1.9     2.6  2.9  0.1045E+01 -0.7794E+00 -0.9302E+00E
 Epicentro: RIONEGRO - SANTANDER                                               3
 ACTION:UPD 12-07-13 16:19 OP:ep   STATUS:               ID:20111230154000 L   I
 2011-12-30-1540-00M.COL___187                                                 6
 STAT SP IPHASW D HRMM SECON CODA AMPLIT PERI AZIMU VELO AIN AR TRES W  DIS CAZ7
 BRR  HZ IP     C 1548 27.77                             155   -0.1010 59.3 245 
 BRR  HN ES   1   1548 42.82                             155   -0.07 7 59.3 245 
 BRR  HZ I        1548 44.01        43.4 0.10                          59.3 245 
 BRI  SZ EP   3   1548 27.95                             153   -0.41 2 63.5  48 
 BAR2 SZ EP       1548 29.66                             147    0.0810 82.1 177 
 BAR2 SZ I        1548 30.24        17.4 0.12                          82.1 177 
 BAR2 SZ ES   1   1548 45.84                             147   -0.09 7 82.1 177 
 OCA  SZ EP       1548 30.83                             141    0.0310  101 354 
 OCA  SZ I        1548 31.30        13.9 0.20                           101 354 
 OCA  SZ ES   3   1548 48.46                             141    0.37 2  101 354 
 RUS  HZ EP       1548 36.57                             127    0.07 9  160 174 
 RUS  HZ I        1548 37.25         3.6 0.20                           160 174 
 RUS  HN ES   3   1548 58.34                             127    0.09 2  160 174 
 PTB  HZ EP       1548 36.07                             126    0.03 9  162 237 
 PTB  HZ I        1549  0.05         7.9 0.16                           162 237 
 ZAR  HZ EP   2   1548 37.74                             123   -0.22 4  181 276 
 ZAR  HN ES   2   1549  1.04                             123    0.21 4  181 276 
 ZAR  HZ I        1549  5.62        15.9 0.32                           181 276 
                                                                                
