 2011  930 1954 59.9 L   6.738 -73.130146.8  RSN 10 0.3 2.4LRSN                1
 GAP=141        0.63       3.5     3.5  4.9 -0.4584E+00  0.6741E+01  0.3016E+01E
 Epicentro: JORDAN - SANTANDER                                                 3
 ACTION:UPD 12-07-13 16:01 OP:ep   STATUS:               ID:20110930195459 L   I
 2011-09-30-1949-38S.COL___166                                                 6
 STAT SP IPHASW D HRMM SECON CODA AMPLIT PERI AZIMU VELO AIN AR TRES W  DIS CAZ7
 BAR2 SZ EP       1955 19.66                             173    0.1010 17.2 200 
 BAR2 SZ ES   1   1955 34.63                             173   -0.26 7 17.2 200 
 BAR2 SZ I        1955 36.60        63.2 0.19                          17.2 200 
 GIR2 SZ EP   1   1955 19.89                             165   -0.03 7 38.3 350 
 BRR  HZ IP     C 1955 21.69                             151    0.2310 76.1 302 
 BRR  HZ I        1955 22.04       158.7 0.08                          76.1 302 
 BRR  HN ES   1   1955 38.72                             151    0.46 7 76.1 302 
 PAM  SZ EP   1   1955 22.58                             150    0.07 7 81.7  36 
 PAM  SZ I        1955 22.94        40.5 0.19                          81.7  36 
 PAM  SN ES   1   1955 39.73                             150   -0.40 7 81.7  36 
 RUS  HZ EP   1   1955 23.30                             146    0.01 7 93.7 177 
 RUS  HN ES   1   1955 41.41                             146   -0.11 7 93.7 177 
 RUS  HZ I        1955 42.86        42.9 0.36                          93.7 177 
 ZAR  HZ EP   1   1955 32.26                             122   -0.60 6  208 294 
 ZAR  HN ES   1   1955 58.71                             122    0.15 6  208 294 
 ZAR  HZ I        1956  3.96        58.1 0.34                           208 294 
 NOR  SZ EP   1   1955 35.46                             119    0.02 6  232 236 
 NOR  SN ES   1   1956  3.22                             119    0.07 6  232 236 
 NOR  SZ I        1956  9.01         2.1 0.31                           232 236 
 CHI  HZ EP   1   1955 37.63                             118    0.62 6  243 196 
 CHI  HZ I        1956  8.94         7.8 0.30                           243 196 
 HEL  HZ EP   1   1955 40.48                             115    0.29 6  272 257 
 HEL  HN ES   1   1956 11.15                             115   -0.45 6  272 257 
 HEL  HZ I        1956 18.63        15.6 0.27                           272 257 
 GUY  SZ EP   1   1955 42.81                             112   -0.75 5  301 236 
 GUY  SZ I        1956 24.85        22.0 0.38                           301 236 
                                                                                
