 2017  630 1210 28.2 L   7.483 -73.124125.0  RSN  5 0.4 1.8LRSN                1
 GAP=273        0.84       8.3     6.1  8.6  0.2447E+02 -0.5571E+01 -0.3237E+02E
 Epicentro: EL PLAYON - SANTANDER                                              3
 ACTION:UPD 17-09-14 16:56 OP:jn   STATUS:               ID:20170630121028 L   I
 OLDACT:REG 17-06-30 20:33 OP:osc  STATUS:               ID:20170630120743     3
 2017-06-30-1208-00M.COL___356                                                 6
 STAT SP IPHASW D HRMM SECON CODA AMPLIT PERI AZIMU VELO AIN AR TRES W  DIS CAZ7
 BRR  HZ EP       1210 47.60                             147    0.1110 77.1 237 
 BRR  HE ES       1211  2.78                             147    0.2110 77.1 237 
 BRR  HZ I        1211  8.52        16.2 0.22            142           77.1 237 
 BAR2 EZ EP       1210 49.61                             140    0.1810 98.7 184 
 BAR2 EZ ES       1211  5.83                             140   -0.1910 98.7 184 
 BAR2 EZ I        1211  8.07        10.1 0.33            137           98.7 184 
 PTB  HZ EP       1210 56.26                             122   -0.57 9  180 235 
 PTB  HE ES       1211 18.81                             122   -0.39 9  180 235 
 PTB  HZ I        1211 21.12         4.2 0.16            121            180 235 
 ZAR  HZ EP       1210 58.09                             120    0.11 9  191 270 
 ZAR  HE ES       1211 21.39                             120    0.15 9  191 270 
 ZAR  HZ I        1211 22.27        10.7 0.20            120            191 270 
 SPBC HE ES   2   1211 29.95                             115    1.42 4  228 207 
 SPBC HZ I        1211 35.26         5.9 0.03            115            228 207 
                                                                                
