 2017  430 1136 46.2 L   6.754 -73.142156.0  RSN  4 0.3 1.5LRSN                1
 GAP=139        0.51       4.1     5.1  6.6  0.7953E+01 -0.1341E+02 -0.1112E+02E
 Epicentro: LOS SANTOS - SANTANDER                                             3
 ACTION:UPD 17-05-30 21:17 OP:jn   STATUS:               ID:20170430113646 L   I
 OLDACT:REG 17-04-30 20:34 OP:and  STATUS:               ID:20170430112738     3
 2017-04-30-1128-00M.COL___377                                                 6
 STAT SP IPHASW D HRMM SECON CODA AMPLIT PERI AZIMU VELO AIN AR TRES W  DIS CAZ7
 BRR  HZ EP       1137  8.54                             153   -0.0410 74.1 302 
 BRR  HN ES       1137 26.18                             153    0.1210 74.1 302 
 PAM  EZ IP     C 1137  9.60                             151   -0.0910 81.2  37 
 RUS  HZ EP   2   1137 11.36                             147    0.78 5 95.4 176 
 RUS  HN ES       1137 29.52                             147   -0.1110 95.4 176 
 RUS  HZ I        1137 31.04         4.8 0.30            147           95.4 176 
 PTB  HZ EP   2   1137 13.83                             134   -0.10 5  147 261 
 PTB  HN ES   2   1137 35.33                             134   -0.26 5  147 261 
                                                                                
