 2010 1130 1130 57.7 L   6.808 -73.015146.4  RSN  4 0.2 1.5LRSN                1
 GAP=187        0.46       4.5     8.2  5.8  0.4533E+01 -0.1468E+02  0.1963E+01E
 Epicentro: CEPITA - SANTANDER                                                 3
 ACTION:UP  10-12-17 16:56 OP:REBC STATUS:               ID:20101130113057 L   I
 2010-11-30-1128-19S.COL___132                                                 6
 STAT SP IPHASW D HRMM SECON CODA AMPLIT PERI AZIMU VELO SNR AR TRES W  DIS CAZ7
 BAR2 SZ EP   1   1131 17.50                             168    -0.1 7   30 218 
 BAR2 SZ ES   1   1131 33.04                             168    -0.1 7   30 218 
 BAR2 SZ I        1131 34.19         8.0 0.25                            30 218 
 BRR  HZ EP   1   1131 19.56                             149    -0.1 7   84 293 
 BRR  HN ES   1   1131 36.94                             149     0.1 7   84 293 
 BRR  HZ I        1131 39.81         9.4 0.56                            84 293 
 GRA  SZ EP   2   1131 23.06                             138     0.4 5  121  11 
 GRA  SZ I        1131 46.97         4.9 0.22                           121  11 
 CHI  HZ EP   2   1131 35.77                             117    -0.2 4  254 198 
 CHI  HZ I        1131 47.49         1.5 0.67                           254 198 
 CHI  HE ES   2   1132  6.27                             117     0.4 4  254 198 
                                                                                
