 2016 1230 1117  2.6 L   6.770 -73.162141.3  RSN  9 0.5 2.2LRSN                1
 GAP=136        1.15       4.4     5.0  6.6  0.2527E+01  0.9904E+01  0.7175E+01E
 Epicentro: LOS SANTOS - SANTANDER                                             3
 ACTION:UPD 17-01-11 20:20 OP:rebc STATUS:               ID:20161230111702 L   I
 OLDACT:UP  16-12-30 22:24 OP:cog  STATUS:               ID:20161230110740     3
 OLDACT:REG 16-12-30 20:19 OP:cog  STATUS:               ID:20161230110740     3
 2016-12-30-1108-00M.COL___366                                                 6
 STAT SP IPHASW D HRMM SECON CODA AMPLIT PERI AZIMU VELO AIN AR TRES W  DIS CAZ7
 BAR2 EZ EP       1117 21.49                             172   -0.1710 19.8 187 
 BAR2 EZ ES       1117 35.90                             172   -0.6010 19.8 187 
 BAR2 EZ I        1117 37.46        40.8 0.28            169           19.8 187 
 BRR  HZ EP       1117 23.33                             152    0.0210 71.3 302 
 BRR  HN ES       1117 40.44                             152    1.0110 71.3 302 
 BRR  HZ I        1117 43.99        27.7 0.12            151           71.3 302 
 PAM  EZ EP       1117 24.40                             149   -0.2010 81.1  39 
 PAM  EN ES       1117 41.83                             149    0.0910 81.1  39 
 PAM  EZ I        1117 43.38        32.0 0.50            154           81.1  39 
 RUS  HZ EP       1117 25.66                             144   -0.0610 97.4 175 
 RUS  HN ES       1117 44.04                             144    0.3210 97.4 175 
 RUS  HZ I        1117 46.14        24.4 0.28            144           97.4 175 
 PTB  HZ EP       1117 28.20                             131   -0.83 9  145 260 
 PTB  HN ES       1117 49.21                             131   -0.40 9  145 260 
 PTB  HZ I        1117 51.79        18.5 0.12            131            145 260 
 ZAR  HZ EP       1117 34.66                             121   -0.10 9  204 293 
 ZAR  HE ES       1117 59.73                             121   -0.08 9  204 293 
 ZAR  HZ I        1118  5.12        20.6 0.30            122            204 293 
 CHI  HZ EP       1117 40.20                             117    0.51 8  245 195 
 CHI  HN ES       1118  8.46                             117   -0.13 8  245 195 
 CHI  HZ I        1118 17.08         5.6 0.40            117            245 195 
 GUY2CHZ EP       1117 46.48                             112    0.82 7  298 235 
 GUY2CHN ES   4   1118 21.44                             112    2.22 0  298 235 
 GUY2CHZ I        1118 27.64         6.5 0.34                           298 235 
 ORTC HZ EP       1117 56.36                             106    0.39 6  392 216 
 ORTC HN ES   4   1118 40.18                             106    2.61 0  392 216 
 ORTC HZ I        1118 44.47         5.0 0.40            107            392 216 
                                                                                
