 2013  530 1119  5.1 L   7.387 -73.204136.2  RSN 10 0.5 1.9LRSN                1
 GAP= 87        1.38       4.7     6.1  7.4 -0.7311E+01  0.7913E+01 -0.5088E+01E
 Epicentro: EL PLAYON - SANTANDER                                              3
 ACTION:UPD 13-06-20 09:54 OP:ep   STATUS:               ID:20130530111904 L   I
 OLDACT:UP  13-05-31 22:29 OP:Juan STATUS:               ID:20130530111904 L   3
 2013-05-30-1118-50M.COL___215                                                 6
 STAT SP IPHASW D HRMM SECON CODA AMPLIT PERI AZIMU VELO AIN AR TRES W  DIS CAZ7
 GIR2 SZ EP       1119 23.92                             165    0.1610 34.1 178 
 GIR2 SZ ES       1119 37.66                             165   -0.6210 34.1 178 
 PAM  SZ EP       1119 25.36                             157    0.2110 55.9  95 
 PAM  SN ES       1119 40.64                             157   -0.1110 55.9  95 
 PAM  SE I        1119 43.12        27.0 0.32            156           55.9  95 
 BRI  SZ EP       1119 25.70                             156    0.9110 57.9  51 
 BRI  SZ ES       1119 41.13                             156    1.0210 57.9  51 
 BRR  HZ EP       1119 25.06                             153    0.2110 64.0 241 
 BRR  HE ES       1119 40.23                             153    0.0010 64.0 241 
 BRR  HN I        1119 41.05        27.7 0.32            152           64.0 241 
 BAR2 SZ EP       1119 26.87                             145    0.1910 87.9 178 
 BAR2 SZ ES       1119 43.26                             145   -0.2310 87.9 178 
 BAR2 SZ I        1119 44.31        18.4 0.36            143           87.9 178 
 OCA  HZ EP       1119 26.94                             143   -0.1410 95.1 352 
 OCA  HN ES       1119 43.41                             143   -0.7810 95.1 352 
 OCA  HE I        1119 45.21        44.3 0.24            146           95.1 352 
 RUS  HN ES       1119 55.33                             126   -0.66 9  166 175 
 RUS  HE I        1120  3.93         2.6 0.58            125            166 175 
 PTB  HZ EP       1119 33.57                             126    0.36 9  167 236 
 PTB  HN ES       1119 55.52                             126    0.42 9  167 236 
 PTB  HE I        1119 58.73         5.7 0.52            126            167 236 
 SML  HZ EP       1119 34.19                             123   -0.62 9  183 329 
 SOCV BZ EP       1119 44.22                             112   -0.81 7  277  69 
 SOCV BZ ES   4   1120 14.26                             112   -1.89 0  277  69 
                                                                                
