 2012 1030 1618 45.1 L   6.797 -73.132138.1  RSN  5 0.4 2.3LRSN                1
 GAP=138        0.89       4.3     5.9 11.2  0.1690E+01  0.2504E+02 -0.1238E+02E
 Epicentro: LOS SANTOS - SANTANDER                                             3
 ACTION:UPD 12-11-22 17:06 OP:ep   STATUS:               ID:20121030161812 L   I
 2012-10-30-1616-50M.COL___208                                                 6
 STAT SP IPHASW D HRMM SECON CODA AMPLIT PERI AZIMU VELO AIN AR TRES W  DIS CAZ7
 BAR2 SZ EP   1   1619  3.01                             170   -0.84 7 23.4 194 
 BAR2 SZ I        1619 19.60        27.0 0.38                          23.4 194 
 PAM  SZ EP       1619  6.63                             150    0.1410 76.6  39 
 PAM  SN ES   1   1619 23.50                             150    0.34 7 76.6  39 
 PAM  SN I        1619 24.64        34.4 0.52                          76.6  39 
 RUS  HZ EP   1   1619  8.31                             142    0.20 7  100 177 
 RUS  HN ES       1619 26.02                             142   -0.0110  100 177 
 OCA  HZ EP   1   1619 13.41                             128    0.50 7  161 353 
 OCA  HN ES   1   1619 33.87                             128   -0.70 7  161 353 
 OCA  HN I        1619 37.24        71.6 0.38                           161 353 
 ZAR  HZ EP   1   1619 16.95                             120   -0.31 6  206 292 
 ZAR  HE ES       1619 42.67                             120    0.36 8  206 292 
 ZAR  HN I        1619 45.49        15.4 0.14                           206 292 
                                                                                
