 2017  730 1235 24.3 L   6.667 -73.251148.6  RSN  5 0.3 1.0LRSN                1
 GAP= 98        0.64       4.6     7.0  5.6  0.1482E+02 -0.1065E+01 -0.2606E+00E
 Epicentro: BARICHARA - SANTANDER                                              3
 ACTION:UPD 17-08-30 15:38 OP:rebc STATUS:               ID:20170730123524 L   I
 OLDACT:UP  17-08-16 19:58 OP:nlst STATUS:               ID:20170730123524 L   3
 OLDACT:UP  17-07-30 23:12 OP:and  STATUS:               ID:20170730122740d    3
 OLDACT:UP  17-07-30 23:12 OP:and  STATUS:               ID:20170730122740d    3
 OLDACT:UP  17-07-30 23:11 OP:and  STATUS:               ID:20170730122740d    3
 OLDACT:DUP 17-07-30 23:10 OP:and  STATUS:               ID:20170730122740d    3
 2017-07-30-1228-00M.COL___383                                                 6
 STAT SP IPHASW D HRMM SECON CODA AMPLIT PERI AZIMU VELO AIN AR TRES W  DIS CAZ7
 BAR2 EZ EP       1235 44.10                             176    0.0310 11.2 137 
 BAR2 EZ ES       1235 59.22                             176   -0.2910 11.2 137 
 BAR2 EZ I        1236  0.07         3.9 0.33            174           11.2 137 
 BRR  HZ EP       1235 45.37                             153   -0.3310 70.5 314 
 BRR  HN ES       1236  2.75                             153    0.3510 70.5 314 
 RUS  HZ EP       1235 47.42                             148   -0.0110 87.6 168 
 RUS  HN ES       1236  5.68                             148    0.1910 87.6 168 
 RUS  HZ I        1236  6.98         1.1 0.32            148           87.6 168 
 PAM  EZ EP   2   1235 48.51                             146    0.51 5 96.2  39 
 PAM  EN ES   2   1236  6.30                             146   -0.20 5 96.2  39 
 PTB  HZ EP   3   1235 51.02                             136    0.74 2  134 264 
 PTB  HN ES   3   1236  9.48                             136   -1.08 2  134 264 
                                                                                
