 2016  130 1214 40.0 L   6.790 -73.192147.3  RSN  7 0.5 1.7LRSN                1
 GAP=131        1.06       3.5     4.8  7.0  0.1157E+01  0.1008E+02 -0.1303E+01E
 Epicentro: ZAPATOCA - SANTANDER                                               3
 ACTION:UPD 16-03-09 23:29 OP:cam  STATUS:               ID:20160130121440 L   I
 OLDACT:UP  16-01-30 23:34 OP:ak   STATUS:               ID:20160130121200     3
 OLDACT:REG 16-01-30 21:42 OP:ak   STATUS:               ID:20160130121200     3
 2016-01-30-1211-59S.COL___225                                                 6
 STAT SP IPHASW D HRMM SECON CODA AMPLIT PERI AZIMU VELO AIN AR TRES W  DIS CAZ7
 BAR2 EZ EP       1215  0.25                             171    0.4410 21.9 177 
 BAR2 EZ ES       1215 14.98                             171   -0.2610 21.9 177 
 BAR2 EZ I        1215 16.41        16.0 0.36            169           21.9 177 
 PAM  EZ EP       1215  3.21                             150    0.5610 81.6  42 
 PAM  EN ES       1215 20.27                             150   -0.0410 81.6  42 
 PAM  EZ I        1215 22.38        12.6 0.52            155           81.6  42 
 RUS  HZ EP       1215  3.95                             144    0.0710 99.9 173 
 RUS  HE ES       1215 22.21                             144   -0.2710 99.9 173 
 RUS  HZ I        1215 24.69         3.9 0.28            146           99.9 173 
 PTB  HZ EP       1215  6.95                             133    0.31 9  142 259 
 PTB  HN ES       1215 27.16                             133   -0.25 9  142 259 
 PTB  HZ I        1215 35.10         5.2 0.20            133            142 259 
 ZAR  HZ EP   2   1215 12.68                             123    0.56 4  200 293 
 ZAR  HN ES       1215 37.60                             123    0.44 9  200 293 
 ZAR  HZ I        1215 45.15         4.0 0.19            124            200 293 
 SML  HZ EP       1215 15.74                             118   -0.87 8  243 337 
 SML  HN ES       1215 44.91                             118   -0.25 8  243 337 
 CHI  HZ EP       1215 16.67                             118   -0.87 8  246 194 
 CHI  HN ES       1215 47.24                             118    0.43 8  246 194 
 CHI  HZ I        1215 51.23         3.1 0.56            120            246 194 
                                                                                
