 2011 1130 1732  6.7 L   6.555 -73.425118.8  RSN  5 0.1 1.8LRSN                1
 GAP= 97        0.37       3.5     4.7  5.7 -0.1817E+01  0.1326E+02 -0.2565E+01E
 Epicentro: HATO - SANTANDER                                                   3
 ACTION:UPD 12-07-13 16:13 OP:ep   STATUS:               ID:20111130173206 L   I
 2011-11-30-1730-00M.COL___181                                                 6
 STAT SP IPHASW D HRMM SECON CODA AMPLIT PERI AZIMU VELO AIN AR TRES W  DIS CAZ7
 BAR2 SZ ES   1   1732 36.18                             166    0.10 7 27.1  81 
 BAR2 SZ I        1732 37.46        11.3 0.13                          27.1  81 
 GIR2 SZ EP   1   1732 24.73                             150    0.02 7 63.3  24 
 BRR  HZ EP   1   1732 24.70                             148   -0.15 7 68.8 333 
 BRR  HZ I        1732 42.33        21.1 0.40                          68.8 333 
 RUS  HZ EP   1   1732 26.63                             143    0.14 7 82.5 153 
 RUS  HE ES   2   1732 41.65                             143   -0.28 5 82.5 153 
 NOR  SE ES   2   1732 59.77                             117    0.04 4  194 236 
                                                                                
