 2016  430 1242 16.0 L   6.796 -73.146144.0  RSN  8 0.3 2.2LRSN                1
 GAP=137        0.73       2.8     3.4  4.8 -0.2061E+01  0.7399E+01  0.7009E+00E
 Epicentro: LOS SANTOS - SANTANDER                                             3
 ACTION:UPD 16-05-05 14:25 OP:rebc STATUS:               ID:20160430124216 L   I
 OLDACT:REG 16-04-30 21:12 OP:cara STATUS:               ID:20160430123754     3
 2016-04-30-1238-00M.COL___234                                                 6
 STAT SP IPHASW D HRMM SECON CODA AMPLIT PERI AZIMU VELO AIN AR TRES W  DIS CAZ7
 BAR2 EZ IP       1242 35.10                             171   -0.3010 22.8 190 
 BAR2 HN ES       1242 50.65                             171    0.1110 22.8 190 
 BAR2 EZ I        1242 52.14        33.5 0.20            170           22.8 190 
 PAM  EZ IP       1242 38.01                             150   -0.0410 77.8  39 
 PAM  HN ES       1242 55.55                             150    0.3010 77.8  39 
 PAM  EZ I        1242 59.62        22.0 0.82            154           77.8  39 
 RUS  HZ EP       1242 39.31                             144   -0.2310  100 176 
 RUS  HN ES       1242 57.91                             144    0.0110  100 176 
 RUS  HZ I        1242 59.50        12.4 0.38            147            100 176 
 SPBC HZ EP       1242 44.61                             129    0.29 9  163 219 
 SPBC HN ES       1243  6.30                             129   -0.11 9  163 219 
 SPBC HZ I        1243  8.94        32.4 0.28            130            163 219 
 ZAR  HZ EP       1242 48.47                             122    0.13 9  204 292 
 ZAR  HN ES       1243 13.06                             122   -0.50 9  204 292 
 ZAR  HZ I        1243 20.17        30.3 0.34            123            204 292 
 NOR  HZ EP       1242 51.37                             118   -0.22 8  234 235 
 NOR  HE ES       1243 19.33                             118   -0.02 8  234 235 
 NOR  HZ I        1243 26.93        15.1 0.36            120            234 235 
 CHI  HZ EP       1242 53.42                             117   -0.12 8  248 195 
 CHI  HE ES       1243 22.54                             117   -0.29 8  248 195 
 CHI  HZ I        1243 28.36         7.3 0.36            119            248 195 
 GUY2CHZ EP       1243  0.03                             112    0.55 7  301 235 
 GUY2CHE ES       1243 34.20                             112    0.79 7  301 235 
 GUY2CHZ I        1243 43.80         6.6 0.30                           301 235 
                                                                                
