 2011  430 1821 24.0 L   6.802 -73.019146.5  RSN  4 0.2 1.9LRSN                1
 GAP=196        0.48       4.2    10.1  6.5  0.2661E+02 -0.3525E+02 -0.1437E+02E
 Epicentro: CEPITA - SANTANDER                                                 3
 ACTION:UP  11-06-22 15:34 OP:REBC STATUS:               ID:20110430182123 L   I
 2011-04-30-1819-00S.COL___125                                                 6
 STAT SP IPHASW D HRMM SECON CODA AMPLIT PERI AZIMU VELO SNR AR TRES W  DIS CAZ7
 BAR2 SZ EP   1   1821 43.79                             168     0.0 7   29 218 
 BAR2 SZ ES   1   1821 59.04                             168    -0.3 7   29 218 
 BAR2 SZ I        1822  1.46        19.0 0.29                            29 218 
 BRR  HZ EP   1   1821 45.64                             148    -0.3 7   84 294 
 BRR  HZ I        1821 45.93        28.9 0.18                            84 294 
 BRR  HN ES   1   1822  3.26                             148     0.2 7   84 294 
 RUS  HZ EP   1   1821 47.92                             144     0.1 7  101 184 
 RUS  HN ES   1   1822  6.54                             144     0.1 7  101 184 
 RUS  HZ I        1822  7.61         5.1 0.26                           101 184 
 OCA  SZ EP   1   1821 52.58                             129     0.1 7  162 348 
 OCA  SZ ES   2   1822 14.97                             129     0.2 5  162 348 
 OCA  SZ I        1822 19.08         8.1 0.18                           162 348 
                                                                                
