 2014  330 1518 40.8 L   6.493 -73.633 98.0  RSN  5 0.3 1.5LRSN                1
 GAP=224        0.76       8.1     3.8  7.3  0.1892E+02  0.1023E+02  0.1148E+02E
 Epicentro: SANTA HELENA DEL OPON - SANTANDER                                  3
 ACTION:UPD 14-04-09 23:21 OP:nd   STATUS:               ID:20140330151840 L   I
 OLDACT:REG 14-03-30 15:56 OP:nd   STATUS:               ID:20140330151043     3
 2014-03-30-1510-43M.COL___259                                                 6
 STAT SP IPHASW D HRMM SECON CODA AMPLIT PERI AZIMU VELO AIN AR TRES W  DIS CAZ7
 RUS  HZ EP       1518 59.42                             135    0.1210 90.0 137 
 RUS  HN ES       1519 13.76                             135    0.0510 90.0 137 
 RUS  HZ I        1519 16.83         3.4 0.22            138           90.0 137 
 PTB  HZ EP       1518 58.53                             134   -0.2210 91.2 273 
 PTB  HN ES       1519 12.64                             134   -0.1110 91.2 273 
 PTB  HZ I        1519 15.11        16.9 0.40            136           91.2 273 
 NOR  HZ EP       1519  6.87                             116   -0.13 9  171 233 
 NOR  HN ES   2   1519 27.49                             116    0.06 4  171 233 
 NOR  HZ I        1519 28.73         5.1 0.26            117            171 233 
 HEL  HZ EP       1519 12.78                             111    0.69 8  212 261 
 HEL  HN ES       1519 36.71                             111    0.23 8  212 261 
 HEL  HZ I        1519 39.99         4.2 0.24            112            212 261 
 GUY2CHZ EP       1519 14.49                             108   -0.67 8  238 234 
 GUY2CHN ES   2   1519 42.16                             108    0.21 4  238 234 
 GUY2CHZ I        1519 48.19         2.6 0.28                           238 234 
                                                                                
