 2010 1030 1013 40.9 L   6.791 -73.087143.2  RSN 14 0.5 2.9LRSN                1
 GAP=138        0.97       4.3     6.5  6.9 -0.6511E+01  0.3662E+01  0.8283E+01E
 Epicentro: LOS SANTOS - SANTANDER                                             3
 ACTION:UP  11-02-18 11:13 OP:tino STATUS:               ID:20101030101340 L   I
 2010-10-30-1010-23S.COL___127                                                 6
 STAT SP IPHASW D HRMM SECON CODA AMPLIT PERI AZIMU VELO SNR AR TRES W  DIS CAZ7
 BTL  SZ EP   1   1014  0.46                             170     0.2 7   24 305 
 BAR2 SZ IP       1014  0.28                             170     0.010   25 206 
 BAR2 SZ ES   1   1014 14.39                             170    -1.0 7   25 206 
 BAR2 SZ I        1014 18.13       242.8 0.25                            25 206 
 GIR2 SZ EP   1   1014  0.37                             166     0.0 7   34 340 
 BRR  HZ IP     C 1014  2.14                             150     0.010   77 297 
 BRR  HE ES   1   1014 19.47                             150     0.7 7   77 297 
 BRR  HZ I        1014 21.89       172.6 0.12                            77 297 
 RUS  HZ IP     C 1014  4.11                             143    -0.210   99 180 
 RUS  HN ES   1   1014 23.01                             143     0.4 7   99 180 
 RUS  HZ I        1014 25.89        84.5 0.55                            99 180 
 BRI  SZ EP   1   1014  4.83                             141     0.3 7  107  17 
 GRA  SZ EP   1   1014  6.09                             136     0.2 7  125  14 
 GRA  SZ ES   1   1014 24.95                             136    -0.4 7  125  14 
 GRA  SZ I        1014 28.58        79.2 0.05                           125  14 
 YOP  SZ EP       1014 10.78                             126     0.3 9  175 155 
 NOR  SZ EP   1   1014 16.10                             117    -1.0 6  240 236 
 NOR  SE ES   2   1014 44.99                             117    -0.2 4  240 236 
 ROSC BZ EP   1   1014 19.79                             116     0.6 6  255 212 
 ROSC BE ES   2   1014 49.57                             116     0.5 4  255 212 
 ROSC BZ I        1014 57.99        73.1 0.35                           255 212 
 CVER SZ EP   1   1014 21.57                             114     0.2 6  274 204 
 HEL  HZ EP   1   1014 21.64                             114    -0.1 6  278 256 
 TOL  SZ EP   1   1014 29.59                             108     0.0 5  347 226 
 TOL  SZ ES   2   1015  8.42                             108     1.0 3  347 226 
 PRA  HZ EP   1   1014 33.32                             106    -1.3 4  394 210 
 PRA  HE ES   2   1015 15.87                             106    -0.7 3  394 210 
                                                                                
