 2013 1030 1612 23.7 L   6.869 -73.353119.1  RSN 13 0.5 2.6LRSN 2.9WRSN        1
 SPEC AVERAGE  MO 13.4 ST 30.3 OM  1.9 f0 7.40 R0.2962 AL 0.00 WI 20.0 MW  2.9 3
 SPEC SD       MO  0.3 ST 69.7 OM  0.4 f0 5.27 R0.1472 AL      WI      MW  0.2 3
 GAP= 94        1.26       2.6     3.8  6.3 -0.5205E-01  0.5385E+01 -0.3713E+00E
 Epicentro: SAN VICENTE DE CHUCURI - SANTANDER                                 3
 SPEC BAR2SH Z MO 14.2 ST  4.4 OM  2.7 f0 2.89 R0.5377 AL-0.00 WI 20.0 MW  3.4 3
 SPEC BAR2SH Z T161252 K 0.000 GD  124 VS 4.20 DE 3.20 Q0300.0 QA 0.60 VS 4.20 3
 SPEC BRR HH Z MO 13.6 ST  5.1 OM  2.1 f0 4.76 R0.3265 AL-0.00 WI 20.0 MW  3.0 3
 SPEC BRR HH Z T161253 K 0.000 GD  128 VS 4.20 DE 3.20 Q0300.0 QA 0.60 VS 4.20 3
 SPEC PAM SH Z MO 13.4 ST  1.1 OM  1.8 f0 3.40 R0.4571 AL-0.00 WI 20.0 MW  2.9 3
 SPEC PAM SH Z T161258 K 0.000 GD  148 VS 4.20 DE 3.20 Q0300.0 QA 0.60 VS 4.20 3
 SPEC RUS HH Z MO 13.0 ST  2.0 OM  1.4 f0 5.55 R0.2800 AL-0.00 WI 20.0 MW  2.6 3
 SPEC RUS HH Z T1613 1 K 0.000 GD  163 VS 4.20 DE 3.20 Q0300.0 QA 0.60 VS 4.20 3
 SPEC PTB HH Z MO 13.3 ST 33.8 OM  1.7 f0 11.0 R0.1413 AL-0.00 WI 20.0 MW  2.8 3
 SPEC PTB HH Z T1613 2 K 0.000 GD  174 VS 4.20 DE 3.20 Q0300.0 QA 0.60 VS 4.20 3
 SPEC SPBCHH Z MO 13.2 ST 16.7 OM  1.5 f0 9.74 R0.1595 AL-0.00 WI 20.0 MW  2.7 3
 SPEC SPBCHH Z T1613 8 K 0.000 GD  196 VS 4.20 DE 3.20 Q0300.0 QA 0.60 VS 4.20 3
 SPEC ZAR HH Z MO 13.6 ST  8.0 OM  1.9 f0 5.43 R0.2862 AL-0.00 WI 20.0 MW  3.0 3
 SPEC ZAR HH Z T161312 K 0.000 GD  215 VS 4.20 DE 3.20 Q0300.0 QA 0.60 VS 4.20 3
 SPEC NOR HH Z MO 13.5 ST  4.8 OM  1.7 f0 5.07 R0.3065 AL-0.00 WI 20.0 MW  2.9 3
 SPEC NOR HH Z T161321 K 0.000 GD  251 VS 4.20 DE 3.20 Q0300.0 QA 0.60 VS 4.20 3
 SPEC SML HH Z MO 13.3 ST248.7 OM  1.5 f0 21.9 R0.0710 AL-0.00 WI 20.0 MW  2.8 3
 SPEC SML HH Z T161321 K 0.000 GD  257 VS 4.20 DE 3.20 Q0300.0 QA 0.60 VS 4.20 3
 SPEC CHI HH Z MO 13.3 ST0.718 OM  1.5 f0 3.04 R0.5112 AL-0.00 WI 20.0 MW  2.8 3
 SPEC CHI HH Z T161327 K 0.000 GD  277 VS 4.20 DE 3.20 Q0300.0 QA 0.60 VS 4.20 3
 SPEC COD HH Z MO 13.1 ST  8.3 OM  1.1 f0 8.57 R0.1813 AL-0.00 WI 20.0 MW  2.6 3
 SPEC COD HH Z T161344 K 0.000 GD  359 VS 4.20 DE 3.20 Q0300.0 QA 0.60 VS 4.20 3
 OLDACT:REG 13-10-30 16:48 OP:carl STATUS:               ID:20131030160839     3
 ACTION:UPD 13-11-25 09:24 OP:ep   STATUS:               ID:20131030161223 L   I
 OLDACT:UP  13-10-30 19:34 OP:carl STATUS:               ID:20131030160839     3
 2013-10-30-1608-39M.COL___227                                                 6
 STAT SP IPHASW D HRMM SECON CODA AMPLIT PERI AZIMU VELO AIN AR TRES W  DIS CAZ7
 BAR2 SZ IP     C 1612 40.60                             162    0.1210 35.9 148 
 BAR2 SZ ES       1612 53.64                             162    0.0410 35.9 148 
 BAR2 SZ I        1612 54.74      1225.3 0.26            163           35.9 148 
 BRR  HZ IP     D 1612 40.95                             157    0.3310 47.6 304 
 BRR  HE ES       1612 54.56                             157    0.7010 47.6 304 
 BRR  HZ I        1612 56.02        83.4 0.28            155           47.6 304 
 BRR  SZ I        1612 56.14        82.3 0.14                          47.6 304 
 PAM  SZ EP       1612 43.75                             141   -0.2110 89.0  54 
 PAM  SN ES       1612 59.86                             141    0.0610 89.0  54 
 PAM  SZ I        1613  2.19        92.2 0.24            143           89.0  54 
 RUS  HZ EP       1612 45.37                             134   -0.4910  112 165 
 RUS  HN ES       1613  2.65                             134   -0.5310  112 165 
 RUS  SZ I        1613  4.18        33.6 0.18            134            112 165 
 PTB  HZ IP       1612 45.82                             130   -0.7810  127 253 
 PTB  HN ES       1613  3.64                             130   -0.8610  127 253 
 PTB  HZ I        1613  7.45       100.9 0.18            128            127 253 
 PTB  SZ I        1613  7.47       112.0 0.20                           127 253 
 OCA  HN ES       1613  8.57                             124   -0.48 9  152   1 
 SPBC HZ EP       1612 49.14                             123   -0.41 9  156 211 
 SPBC HE ES       1613  9.91                             123    0.17 9  156 211 
 SPBC SZ I        1613 17.25        50.2 0.20            122            156 211 
 ZAR  HZ EP       1612 52.59                             119    0.69 9  180 293 
 ZAR  HN ES       1613 14.38                             119    0.44 9  180 293 
 ZAR  SZ I        1613 18.65        72.6 0.40            118            180 293 
 YOP  SN ES       1613 18.04                             117    0.65 9  197 148 
 NOR  HZ EP       1612 55.81                             114   -0.67 8  221 229 
 NOR  HE ES       1613 22.88                             114    0.80 8  221 229 
 NOR  SZ I        1613 27.92        23.9 0.24            113            221 229 
 NOR  HZ I        1613 31.23        26.4 0.16                           221 229 
 SML  HZ EP       1612 57.37                             113    0.22 8  228 340 
 SML  HN ES       1613 22.68                             113   -0.59 8  228 340 
 SML  SZ I        1613 28.71        78.5 0.10            113            228 340 
 CHI  HZ EP       1613  0.52                             111    0.22 8  251 190 
 CHI  HE ES       1613 29.39                             111    0.50 8  251 190 
 CHI  SZ I        1613 40.44        12.5 0.58            110            251 190 
 COD  HZ EP       1613 10.82                             104    0.77 7  339 358 
 COD  HN ES       1613 46.47                             104    0.23 7  339 358 
 COD  SZ I        1613 52.01         7.8 0.46            104            339 358 
                                                                                
