 2013  130 1207  6.1 L   6.734 -73.195152.2  RSN  4 0.2 1.3LRSN                1
 GAP=227        0.53       5.2     4.2  4.8  0.1008E+02  0.2908E+01 -0.2391E+01E
 Epicentro: VILLANUEVA - SANTANDER                                             3
 ACTION:UPD 13-02-15 09:18 OP:ep   STATUS:               ID:20130130120706 L   I
 2013-01-30-1158-49M.COL___179                                                 6
 STAT SP IPHASW D HRMM SECON CODA AMPLIT PERI AZIMU VELO AIN AR TRES W  DIS CAZ7
 BAR2 SZ EP   1   12 7 26.58                             174    0.20 7 15.8 175 
 BAR2 SZ ES       12 7 41.98                             174   -0.2210 15.8 175 
 BAR2 SZ I        12 7 42.24         7.4 0.29            169           15.8 175 
 BRR  HZ EP   1   12 7 27.95                             154    0.04 7 70.5 306 
 BRR  HN ES   2   12 7 45.31                             154    0.39 5 70.5 306 
 RUS  HZ EP       12 7 30.20                             147    0.1710 93.9 172 
 RUS  HZ I        12 7 30.44         1.5 0.60            145           93.9 172 
 RUS  HN ES       12 7 48.73                             147    0.0310 93.9 172 
 PTB  HZ EP       12 7 32.67                             135   -0.35 9  141 261 
 PTB  HN ES       12 7 54.12                             135    0.11 9  141 261 
 PTB  HZ I        12 7 58.93         2.7 0.42            132            141 261 
                                                                                
