 2011 1130 1423 29.9 L   6.759 -73.119146.0  RSN  6 0.2 2.4LRSN                1
 GAP=142        0.44       2.2     3.2  3.4 -0.2151E+01  0.3113E+01 -0.1029E+01E
 Epicentro: LOS SANTOS - SANTANDER                                             3
 ACTION:UPD 12-07-13 16:13 OP:ep   STATUS:               ID:20111130142329 L   I
 2011-11-30-1419-17S.COL___161                                                 6
 STAT SP IPHASW D HRMM SECON CODA AMPLIT PERI AZIMU VELO AIN AR TRES W  DIS CAZ7
 BAR2 SZ EP       1423 49.42                             172   -0.1110 19.8 201 
 BAR2 SZ ES   1   1424  4.51                             172   -0.30 7 19.8 201 
 BAR2 SZ I        1424  7.17        35.2 0.24                          19.8 201 
 BRR  HZ EP       1423 51.40                             151    0.0210 75.9 300 
 BRR  HN ES   1   1424  8.36                             151    0.24 7 75.9 300 
 BRR  HN I        1424 11.59       107.5 0.14                          75.9 300 
 PAM  SZ EP       1423 52.27                             150   -0.0110 79.1  36 
 PAM  SN ES       1424  9.60                             150   -0.1110 79.1  36 
 RUS  HZ EP       1423 53.42                             145    0.0410 95.9 178 
 RUS  HN ES       1424 11.89                             145    0.2210 95.9 178 
 OCA  SZ EP       1423 58.91                             129    0.19 9  165 352 
 OCA  SZ I        1424 25.32        17.2 0.98                           165 352 
 NOR  SZ EP   1   1424  5.34                             119   -0.32 6  235 236 
 NOR  SN ES   1   1424 33.41                             119   -0.11 6  235 236 
                                                                                
