 2016 1030 1215  8.3 L   6.774 -73.133151.1  RSN 17 0.4 2.3LRSN                1
 GAP= 97        1.00       3.6     3.1  5.3 -0.1811E+01  0.2107E+01  0.4783E+01E
 Epicentro: LOS SANTOS - SANTANDER                                             3
 ACTION:UPD 16-11-09 19:24 OP:rebc STATUS:               ID:20161030121508 L   I
 OLDACT:UP  16-10-30 21:42 OP:edw  STATUS:               ID:20161030120744     3
 OLDACT:UP  16-10-30 21:41 OP:edw  STATUS:               ID:20161030120744     3
 OLDACT:UP  16-10-30 21:40 OP:edw  STATUS:               ID:20161030120744     3
 OLDACT:UP  16-10-30 21:39 OP:edw  STATUS:               ID:20161030120744     3
 OLDACT:REG 16-10-30 19:52 OP:edw  STATUS:               ID:20161030120744     3
 2016-10-30-1208-00M.COL___322                                                 6
 STAT SP IPHASW D HRMM SECON CODA AMPLIT PERI AZIMU VELO AIN AR TRES W  DIS CAZ7
 BAR2 EZ IP     D 1215 28.08                             172   -0.4210 20.8 195 
 BAR2 EZ ES       1215 44.73                             172    0.4510 20.8 195 
 BAR2 EZ I        1215 46.02        29.3 0.13            170           20.8 195 
 BRR  HZ IP     C 1215 30.03                             153   -0.1210 73.8 300 
 BRR  HN ES       1215 47.84                             153    0.6310 73.8 300 
 BRR  HZ I        1215 49.87        25.8 0.16            149           73.8 300 
 PAM  EZ EP       1215 31.03                             151   -0.1210 78.8  37 
 PAM  EN ES       1215 48.33                             151   -0.6510 78.8  37 
 PAM  EZ I        1215 50.35        29.5 0.58            149           78.8  37 
 RUS  HZ EP       1215 31.95                             146   -0.4010 97.6 177 
 RUS  HN ES       1215 51.02                             146   -0.1010 97.6 177 
 RUS  HZ I        1215 51.72         9.6 0.28            142           97.6 177 
 PTB  HZ EP   9   1215 34.91                             133   -0.85 0  149 260 
 PTB  HN ES       1215 56.10                             133   -0.24 9  149 260 
 PTB  HZ I        1216  2.03        29.5 0.26            129            149 260 
 TAM  HZ EP       1215 36.26                             132    0.06 9  153 104 
 TAM  HZ I        1215 56.96        15.1 0.34            128            153 104 
 TAM  HN ES       1215 58.36                             132    0.39 9  153 104 
 SPBC HZ IP     C 1215 37.06                             130   -0.01 9  162 220 
 SPBC HN ES       1215 59.45                             130   -0.07 9  162 220 
 SPBC HZ I        1216  6.20        32.8 0.32            126            162 220 
 NOR  HZ EP       1215 44.54                             120    0.27 8  234 235 
 NOR  HN ES       1216 12.25                             120   -0.09 8  234 235 
 NOR  HZ I        1216 16.92        12.1 0.24            116            234 235 
 CHI  HZ EP       1215 46.32                             118    0.30 8  246 196 
 CHI  HN ES       1216 15.66                             118    0.20 8  246 196 
 CHI  HZ I        1216 23.20         8.2 0.58            115            246 196 
 ROSC BZ EP   4   1215 48.23                             118    1.72 0  251 212 
 ROSC BN ES   4   1216 19.14                             118    2.82 0  251 212 
 ROSC BZ I        1216 25.57        15.2 0.40            114            251 212 
 HEL  HZ EP   4   1215 50.05                             116    1.21 0  273 256 
 HEL  HN ES       1216 19.60                             116   -0.88 8  273 256 
 HEL  HZ I        1216 27.78        11.0 0.24            112            273 256 
 URE  HZ EP   4   1215 48.56                             114   -1.32 0  286 292 
 URE  HN ES       1216 22.90                             114    0.58 7  286 292 
 URE  HZ I        1216 32.42        14.5 0.22            111            286 292 
 GUY2CHZ EP   4   1215 54.33                             113    2.25 0  301 235 
 GUY2CHN ES   4   1216 29.40                             113    3.15 0  301 235 
 GUY2CHZ I        1216 32.90        11.1 0.26                           301 235 
 PTGC HZ EP   4   1215 50.89                             113   -1.13 0  305 159 
 PTGC HN ES   4   1216 24.13                             113   -2.01 0  305 159 
 PTGC HZ I        1216 26.88        12.5 0.32            109            305 159 
 LL6C HZ EP   4   1215 33.99                             111   -20.6 0  328 357 
 LL6C HN ES   4   1216  8.72                             111   -21.9 0  328 357 
 ANIL HE ES   4   1216 40.09                             109    3.01 0  356 225 
 PRA  HZ EP       1216  2.78                             107    1.00 6  390 210 
 PRA  HN ES       1216 42.95                             107   -0.56 6  390 210 
 PRA  HZ I        1216 47.92         6.1 0.49            104            390 210 
 ORTC HZ EP   4   1216  3.72                             107    1.51 0  394 217 
 ORTC HN ES   4   1216 46.09                             107    1.81 0  394 217 
 ORTC HZ I        1216 50.94         4.4 0.19            104            394 217 
 SJC  HZ EP   4   1216  2.22                             106   -2.17 0  412 327 
 SJC  HN ES   4   1216 43.48                             106   -4.68 0  412 327 
 SJC  HZ I        1216 48.34         4.1 0.42            104            412 327 
                                                                                
