 2011  630 1834 46.5 L   6.866 -72.972144.3  RSN  4 0.1 1.7LRSN                1
 GAP=258        0.32       6.7    10.5  4.5  0.6186E+02 -0.2867E+02 -0.1544E+02E
 Epicentro: CEPITA - SANTANDER                                                 3
 ACTION:UP  11-07-14 19:09 OP:ep   STATUS:               ID:20110630183446 L   I
 2011-06-30-1833-22S.COL___140                                                 6
 STAT SP IPHASW D HRMM SECON CODA AMPLIT PERI AZIMU VELO SNR AR TRES W  DIS CAZ7
 BTL  SZ ES   3   1835 21.64                             167     0.1 2   33 280 
 BAR2 SZ EP       1835  6.41                             165     0.110   38 218 
 BAR2 SZ ES   1   1835 21.69                             165    -0.1 7   38 218 
 BAR2 SZ I        1835 23.12         8.1 0.11                            38 218 
 BRR  HZ EP       1835  8.33                             148     0.010   86 288 
 BRR  HZ I        1835  8.59        12.6 0.05                            86 288 
 BRR  HN ES   1   1835 25.46                             148     0.0 7   86 288 
 RUS  HZ EP       1835 10.59                             141    -0.110  108 187 
 RUS  HN ES   2   1835 29.62                             141     0.1 5  108 187 
                                                                                
