 2011  430 1700 52.6 L   5.927 -73.751110.0  RSN  4 0.2 1.6LRSN                1
 GAP=159        0.41       4.7     3.7  7.5 -0.9755E+01  0.1399E+02 -0.6363E+01E
 Epicentro: GUAVATA - SANTANDER                                                3
 ACTION:UP  11-06-22 15:34 OP:REBC STATUS:               ID:20110430170052 L   I
 2011-04-30-1657-38S.COL___130                                                 6
 STAT SP IPHASW D HRMM SECON CODA AMPLIT PERI AZIMU VELO SNR AR TRES W  DIS CAZ7
 RUS  HZ EP   1   17 1 10.98                             144     0.0 7   74  93 
 RUS  HN ES   2   17 1 25.00                             144    -0.2 5   74  93 
 RUS  HZ I        17 1 26.74         3.4 0.30                            74  93 
 BAR2 SZ EP   1   17 1 12.44                             136     0.0 7   97  40 
 BAR2 SZ ES   1   17 1 27.99                             136     0.2 7   97  40 
 BAR2 SZ I        17 1 29.57        14.2 0.33                            97  40 
 NOR  SZ EP   1   17 1 15.39                             126     0.1 7  130 252 
 NOR  SN ES   2   17 1 32.79                             126    -0.1 5  130 252 
 BRR  HZ EP   1   17 1 14.98                             126    -0.2 7  131   2 
 BRR  HZ I        17 1 27.46        11.6 0.23                           131   2 
                                                                                
