 2015  730 1831 38.4 L   6.778 -73.107143.1  RSN  6 0.2 1.8LRSN                1
 GAP=143        0.60       2.7     3.0  4.0  0.2467E+00  0.4607E+01  0.9993E+00E
 Epicentro: LOS SANTOS - SANTANDER                                             3
 ACTION:UPD 15-09-08 21:51 OP:cam  STATUS:               ID:20150730183138 L   I
 OLDACT:REG 15-07-30 20:41 OP:drio STATUS:               ID:20150730182749     3
 2015-07-30-1827-49M.COL___352                                                 6
 STAT SP IPHASW D HRMM SECON CODA AMPLIT PERI AZIMU VELO AIN AR TRES W  DIS CAZ7
 BAR2 EZ EP       1831 57.47                             171   -0.1910 22.1 202 
 BAR2 EZ ES       1832 12.88                             171    0.1910 22.1 202 
 BAR2 EZ I        1832 13.68        23.0 0.18            170           22.1 202 
 BRR  HZ EP       1831 59.43                             150   -0.0910 76.2 299 
 BRR  HN ES       1832 16.16                             150    0.1410 76.2 299 
 PAM  EZ EP       1832  0.39                             151    0.1310 76.7  36 
 PAM  EN ES       1832 17.36                             151    0.0310 76.7  36 
 PAM  EZ I        1832 18.73         7.6 0.36            152           76.7  36 
 RUS  HZ EP       1832  1.40                             144   -0.2710 97.9 178 
 RUS  HE ES       1832 19.74                             144   -0.0910 97.9 178 
 RUS  HZ I        1832 21.85         7.5 0.38            146           97.9 178 
 ZAR  HZ EP       1832 11.20                             121    0.04 8  209 292 
 ZAR  HN ES       1832 36.38                             121   -0.35 8  209 292 
 ZAR  HZ I        1832 42.22         9.3 0.32            122            209 292 
 GUY2CHZ EP       1832 22.82                             112    0.72 7  303 236 
 GUY2CHE ES       1832 56.25                             112    0.05 7  303 236 
 GUY2CHZ I        1833  2.83         3.9 0.42                           303 236 
                                                                                
