 2014  330 1021 43.2 L   6.799 -73.101147.0  RSN  5 0.4 1.5LRSN                1
 GAP=205        0.92       4.3     8.0  7.3 -0.2426E+00  0.2446E+02 -0.2298E+01E
 Epicentro: LOS SANTOS - SANTANDER                                             3
 ACTION:UPD 14-04-09 23:21 OP:nd   STATUS:               ID:20140330102143 L   I
 OLDACT:REG 14-03-30 15:28 OP:nd   STATUS:               ID:20140330102045     3
 2014-03-30-1020-45M.COL___250                                                 6
 STAT SP IPHASW D HRMM SECON CODA AMPLIT PERI AZIMU VELO AIN AR TRES W  DIS CAZ7
 BAR2 SZ EP       1022  3.06                             170    0.0810 24.6 201 
 BAR2 SZ ES       1022 18.87                             170    0.4410 24.6 201 
 BAR2 SZ I        1022 19.40         9.4 0.46            166           24.6 201 
 RUS  HZ EP       1022  6.96                             144   -0.0710  100 179 
 RUS  HN ES       1022 24.97                             144   -0.6610  100 179 
 RUS  HZ I        1022 26.90         2.7 0.42            143            100 179 
 NOR  HZ EP       1022 19.31                             118   -0.09 8  239 235 
 NOR  HN ES       1022 47.56                             118   -0.10 8  239 235 
 NOR  HZ I        1022 52.32         3.2 0.18            117            239 235 
 SML  HZ EP   1   1022 19.50                             117   -0.61 6  246 334 
 SML  HN ES   1   1022 49.02                             117    0.10 6  246 334 
 SML  HZ I        1022 51.65         8.2 0.24            117            246 334 
 CHI  HZ EP       1022 21.86                             117    0.78 8  250 196 
 CHI  HN ES       1022 50.69                             117    0.05 8  250 196 
 CHI  HZ I        1022 57.00         0.6 0.22            117            250 196 
                                                                                
