 2012  530 1221 39.7 L   6.799 -73.189143.6  RSN 10 0.3 2.7LRSN                1
 GAP=131        0.59       2.2     2.7  3.8 -0.9562E+00  0.4393E+01  0.1060E+01E
 Epicentro: ZAPATOCA - SANTANDER                                               3
 ACTION:UP  12-07-05 12:09 OP:pat  STATUS:               ID:20120530122139 L   I
 2012-05-30-1220-00M.COL___200                                                 6
 STAT SP IPHASW D HRMM SECON CODA AMPLIT PERI AZIMU VELO AIN AR TRES W  DIS CAZ7
 BAR2 SZ EP       1221 59.28                             170     0.210   23 178 
 BAR2 SZ ES       1222 14.00                             170    -0.110   23 178 
 BAR2 SZ I        1222 15.88       185.6 0.10                            23 178 
 PAM  SZ EP       1222  2.16                             149     0.310   81  42 
 PAM  SE ES       1222 19.16                             149     0.010   81  42 
 RUS  HZ EP       1222  3.17                             143    -0.110  101 173 
 RUS  HN ES   1   1222 21.81                             143     0.2 7  101 173 
 RUS  HZ I        1222 23.11        66.2 0.30                           101 173 
 PTB  HZ EP       1222  5.86                             132    -0.2 9  143 258 
 PTB  HN ES   1   1222 26.77                             132     0.2 7  143 258 
 PTB  HZ I        1222 30.45        40.6 0.16                           143 258 
 OCA  HZ EP   1   1222  7.43                             129    -0.4 7  160 355 
 OCA  HE ES   1   1222 29.19                             129    -0.5 7  160 355 
 ZAR  HZ EP       1222 11.58                             122     0.0 9  200 293 
 ZAR  HN ES   1   1222 36.67                             122     0.3 6  200 293 
 ZAR  HZ I        1222 40.01        50.7 0.23                           200 293 
 NOR  SZ EP       1222 15.05                             118     0.2 8  231 234 
 NOR  SN ES   1   1222 42.51                             118     0.2 6  231 234 
 CHI  HZ EP       1222 17.10                             117     0.0 8  247 194 
 CHI  HN ES   1   1222 46.05                             117    -0.3 6  247 194 
 CHI  HZ I        1222 50.19        37.2 0.57                           247 194 
 HEL  HZ EP   1   1222 19.75                             115     0.5 6  267 256 
 HEL  HE ES   1   1222 49.86                             115    -0.3 6  267 256 
 HEL  HZ I        1222 57.27        32.2 0.35                           267 256 
 PRA  HZ EP       1222 32.73                             106    -0.1 6  390 209 
 PRA  HN ES   1   1223 13.77                             106    -0.6 4  390 209 
                                                                                
