 2016  630 1043  8.8 L   6.790 -73.179144.9  RSN 17 0.3 2.3LRSN                1
 GAP=133        0.76       2.5     2.6  4.0 -0.4419E+00  0.2595E+01  0.1735E+01E
 Epicentro: LOS SANTOS - SANTANDER                                             3
 ACTION:UPD 16-07-21 22:24 OP:rebc STATUS:               ID:20160630104308 L   I
 OLDACT:DUP 16-06-30 22:54 OP:ak   STATUS:               ID:20160630103747d    3
 2016-06-30-1037-46M.COL___333                                                 6
 STAT SP IPHASW D HRMM SECON CODA AMPLIT PERI AZIMU VELO AIN AR TRES W  DIS CAZ7
 BAR2 EZ EP       1043 28.33                             171   -0.0210 21.8 181 
 BAR2 EZ ES       1043 43.47                             171   -0.0810 21.8 181 
 BAR2 EZ I        1043 44.91        70.5 0.30                          21.8 181 
 BRR  HZ IP     C 1043 30.02                             153    0.2610 68.5 301 
 BRR  HN ES       1043 46.88                             153    0.8210 68.5 301 
 BRR  HZ I        1043 51.18        30.5 0.23                          68.5 301 
 PAM  EZ EP       1043 31.19                             150    0.0210 80.6  41 
 PAM  EN ES       1043 48.16                             150   -0.4210 80.6  41 
 PAM  EZ I        1043 50.36        44.9 0.56                          80.6  41 
 RUS  HZ EP       1043 32.27                             144   -0.1910 99.8 174 
 RUS  HN ES       1043 50.87                             144   -0.0010 99.8 174 
 RUS  HZ I        1043 51.83        18.4 0.28                          99.8 174 
 PTB  HZ EP       1043 34.99                             133   -0.41 9  144 259 
 PTB  HN ES       1043 55.86                             133   -0.25 9  144 259 
 PTB  HZ I        1044  1.58        26.8 0.12                           144 259 
 SPBC HZ EP       1043 37.11                             129    0.13 9  160 218 
 SPBC HN ES       1043 58.81                             129   -0.11 9  160 218 
 SPBC HZ I        1044  1.03        24.5 0.22                           160 218 
 ZAR  HZ EP       1043 41.17                             123    0.24 9  201 293 
 ZAR  HE ES       1044  5.91                             123   -0.04 9  201 293 
 ZAR  HZ I        1044 12.44        22.8 0.38                           201 293 
 NOR  HZ EP   2   1043 44.75                             119    0.62 4  231 234 
 NOR  HN ES       1044 11.47                             119   -0.19 8  231 234 
 NOR  HZ I        1044 17.29        13.7 0.16                           231 234 
 CHI  HZ EP       1043 46.35                             117    0.07 8  247 194 
 CHI  HN ES       1044 15.73                             117    0.26 8  247 194 
 CHI  HZ I        1044 18.61         6.9 0.38                           247 194 
 HEL  HZ EP   9   1043 50.20                             115    1.61 0  268 256 
 HEL  HN ES       1044 21.39                                    0.19 8  268 256 
 HEL  HZ I        1044 28.58         8.4 0.49                           268 256 
 URE  HZ EP   2   1043 48.82                             114   -0.72 4  281 292 
 URE  HN ES   4   1044 19.24                             114   -2.04 0  281 292 
 URE  HZ I        1044 22.12        12.9 0.14                           281 292 
 GUY2CHZ EP   9   1043 53.70                             112    1.70 0  298 235 
 GUY2CHN ES       1044 27.63                                    0.27 7  298 235 
 GUY2CHZ I        1044 36.75         6.7 0.38                           298 235 
 SOCV BZ EP   4   1043 50.33                             112   -1.94 0  305  57 
 SOCV BE ES   4   1044 23.58                             112   -2.57 0  305  57 
 CBOC HZ EP   2   1043 56.09                             110    0.81 3  330 252 
 CBOC HN ES       1044 31.65                             110    0.15 7  330 252 
 DBB  SZ ES       1044 31.86                             110   -0.70 7  336 274 
 ANIL HN ES   4   1044 39.42                             109    2.68 0  354 224 
 PRA  HZ EP       1044  2.39                             107    0.38 6  389 209 
 PRA  HE ES       1044 43.32                             107   -0.16 6  389 209 
 PRA  HZ I        1044 49.45         9.5 0.30                           389 209 
 SJC  HZ EP   4   1044  2.51                             106   -1.75 0  408 327 
 SJC  HN ES   4   1044 43.97                             106   -3.51 0  408 327 
 SJC  HZ I        1044 57.76         5.0 0.30                           408 327 
 CRJC HZ EP   9   1044  8.27                             103   -3.21 0  469   4 
 CRJC HN ES       1044 56.23                                   -0.90 5  469   4 
 CRJC HZ I        1045  0.77         3.9 0.23                           469   4 
                                                                                
