 2010  630 1238 24.7 L   6.776 -73.082151.6  RSN  6 0.2 2.1LRSN                1
 GAP=163        0.49       3.3     5.3  5.6 -0.4969E+01 -0.1371E+02  0.2031E+01E
 Epicentro: LOS SANTOS - SANTANDER                                             3
 ACTION:UP  10-08-24 10:14 OP:vdl  STATUS:               ID:20100630123824 L   I
 2010-06-30-1235-30S.COL___117                                                 6
 STAT SP IPHASW D HRMM SECON CODA AMPLIT PERI AZIMU VELO SNR AR TRES W  DIS CAZ7
 BRR  HZ IP     C 1238 46.80                             151    -0.110   79 298 
 BRR  HZ I        1238 47.07        20.0 0.17                            79 298 
 BRR  HE ES       1239  4.30                             151     0.110   79 298 
 RUS  HZ EP   1   1238 48.84                             146     0.0 7   98 180 
 RUS  HE ES   2   1239  7.47                             146    -0.2 5   98 180 
 BRI  SZ EP   1   1238 49.50                             143     0.3 7  109  17 
 BRI  SZ ES   2   1239  8.04                             143    -0.2 5  109  17 
 GUE  SZ EP   1   1238 49.92                             140    -0.1 7  118   8 
 GRA  SZ IP       1238 50.70                             138     0.210  126  14 
 GRA  SZ ES   1   1239 10.57                             138    -0.1 7  126  14 
 OCA  SZ EP   1   1238 53.37                             130    -0.4 7  164 351 
 OCA  SZ I        1239  9.83        13.2 0.39                           164 351 
                                                                                
