 2012 1230 1021  6.2 L   6.777 -73.136148.0  RSN 13 0.4 3.0LRSN 3.1WRSN        1
 SPEC AVERAGE  MO 13.8 ST  6.3 OM  2.8 f0 4.18 R0.3778 AL 2.76 WI 12.5 MW  3.1 3
 SPEC SD       MO  0.1 ST  3.3 OM  0.8 f0 1.16 R0.0952 AL      WI      MW  0.1 3
 GAP=184        0.93       2.9     4.5  5.0  0.2092E+01  0.4585E+01  0.2530E+01E
 Epicentro: LOS SANTOS - SANTANDER                                             3
 SPEC ROSCBH Z MO 14.0 ST  3.5 OM  2.1 f0 3.02 R0.4868 AL 3.63 WI 10.3 MW  3.3 3
 SPEC ROSCBH Z T102216 K 0.000 GD  291 VS 4.20 DE 3.20 Q0300.0 QA 0.60 VS 4.20 3
 SPEC HEL HH Z MO 13.8 ST  4.5 OM  1.9 f0 3.75 R0.3920 AL 2.60 WI 11.6 MW  3.1 3
 SPEC HEL HH Z T102220 K 0.000 GD  309 VS 4.20 DE 3.20 Q0300.0 QA 0.60 VS 4.20 3
 SPEC BRR HH Z MO 13.6 ST 10.9 OM  2.0 f0 5.77 R0.2548 AL 2.06 WI 15.5 MW  3.0 3
 SPEC BRR HH Z T102143 K 0.000 GD  165 VS 4.20 DE 3.20 Q0300.0 QA 0.60 VS 4.20 3
 ACTION:UPD 13-01-04 14:31 OP:ep   STATUS:               ID:20121230102106 L   I
 2012-12-30-1020-00M.COL___242                                                 6
 STAT SP IPHASW D HRMM SECON CODA AMPLIT PERI AZIMU VELO AIN AR TRES W  DIS CAZ7
 BAR2 SZ IP       1021 26.10                             172    0.0410 21.1 194 
 BAR2 SZ ES       1021 41.21                             172   -0.3310 21.1 194 
 BAR2 SZ I        1021 42.84       332.6 0.28                          21.1 194 
 BRR  HZ IP     C 1021 28.02                             152    0.3110 73.3 300 
 BRR  HZ I        1021 28.34       144.4 0.19                          73.3 300 
 BRR  HN ES       1021 45.39                             152    0.9010 73.3 300 
 RUS  HZ IP     D 1021 29.96                             145   -0.0310 98.0 177 
 RUS  HE ES       1021 48.40                             145   -0.1410 98.0 177 
 RUS  HE I        1021 51.89       106.0 0.20                          98.0 177 
 PTB  HZ EP       1021 32.91                             133   -0.49 9  148 260 
 PTB  HE ES       1021 54.44                             133   -0.17 9  148 260 
 PTB  HZ I        1022  0.01       146.2 0.21                           148 260 
 OCA  HZ EP       1021 34.59                             130   -0.34 9  163 353 
 OCA  HN ES       1021 57.36                             130    0.02 9  163 353 
 OCA  HZ I        1022  1.04       127.3 0.37                           163 353 
 ZAR  HZ EP       1021 38.46                             123   -0.53 8  206 293 
 ZAR  HN ES       1022  4.63                             123    0.07 8  206 293 
 ZAR  HZ I        1022 10.51       138.2 0.37                           206 293 
 CTAB SZ EP   2   1021 42.52                             120    0.61 4  228 211 
 CHI  HZ EP       1021 43.95                             118    0.16 8  246 196 
 CHI  HE ES       1022 13.00                             118   -0.10 8  246 196 
 ROSC BZ EP   4   1021 45.86                             117    1.60 0  251 212 
 ROSC BZ I        1022 23.93       101.6 0.40                           251 212 
 HEL  HZ EP       1021 46.71                             115    0.14 8  272 256 
 HEL  HN ES   1   1022 17.14                             115   -0.92 6  272 256 
 HEL  HZ I        1022 25.34        59.3 0.30                           272 256 
 URE  HZ EP   4   1021 45.90                             114   -1.69 0  286 292 
 VIL  SZ EP   1   1021 48.98                             113   -0.48 5  301 192 
 VIL  SN ES   1   1022 23.97                             113    0.76 5  301 192 
 VIL  SZ I        1022 35.00        41.4 0.30                           301 192 
 TOL  SZ EP       1021 55.26                             110    0.84 7  342 225 
 TOL  SZ I        1022 37.83        21.2 0.29                           342 225 
 MON  HN ES   4   1022 29.87                             109   -4.20 0  356 309 
 ANIL HZ EP   1   1021 56.07                             109    0.10 5  356 225 
 MON  HZ EP   4   1021 53.08                             109   -2.48 0  356 309 
 ANIL HE ES   1   1022 34.90                             109    0.12 5  356 225 
                                                                                
