 2012 1230 1012 28.4 L   6.670 -73.199150.0  RSN  4 0.2 1.4LRSN                1
 GAP=217        0.41       3.8     3.8  4.1  0.6795E+01  0.7287E+00  0.1212E+01E
 Epicentro: VILLANUEVA - SANTANDER                                             3
 ACTION:UPD 13-01-04 14:31 OP:ep   STATUS:               ID:20121230101228 L   I
 2012-12-30-1010-00M.COL___242                                                 6
 STAT SP IPHASW D HRMM SECON CODA AMPLIT PERI AZIMU VELO AIN AR TRES W  DIS CAZ7
 BAR2 SZ EP       1012 48.26                             176   -0.1210 8.84 168 
 BAR2 SZ ES   2   1013  3.68                             176   -0.26 5 8.84 168 
 BAR2 SZ I        1013  6.02         8.4 0.21                          8.84 168 
 BRR  HZ EP       1012 50.37                             152    0.1410 74.5 310 
 BRR  HN ES       1013  7.27                             152    0.0410 74.5 310 
 BRR  HZ I        1013  9.95         3.6 0.08                          74.5 310 
 RUS  HZ EP   1   1012 51.52                             149   -0.18 7 87.0 171 
 RUS  HN ES   1   1013 10.10                             149    0.27 7 87.0 171 
 RUS  HN I        1013 12.63         5.6 0.25                          87.0 171 
 PTB  HZ EP       1012 55.08                             135    0.03 9  140 264 
 PTB  HN ES   1   1013 15.68                             135   -0.13 7  140 264 
 PTB  HZ I        1013 18.51         3.0 0.09                           140 264 
                                                                                
