 2011  830 1707 39.8 L   6.761 -73.141148.7  RSN  7 0.2 2.3LRSN                1
 GAP=183        0.47       2.3     4.3  3.7 -0.5301E+00  0.2533E+01  0.1134E+01E
 Epicentro: LOS SANTOS - SANTANDER                                             3
 ACTION:UPD 12-07-13 15:54 OP:ep   STATUS:               ID:20110830170739 L   I
 2011-08-30-1705-55S.COL___163                                                 6
 STAT SP IPHASW D HRMM SECON CODA AMPLIT PERI AZIMU VELO AIN AR TRES W  DIS CAZ7
 BAR2 SZ IP       17 7 59.62                             172   -0.1010 19.2 194 
 BAR2 SZ ES   1   17 8 14.90                             172   -0.35 7 19.2 194 
 BAR2 SZ I        17 8 18.13        47.8 0.44                          19.2 194 
 GIR2 SZ EP   1   17 7 59.77                             166   -0.18 7 35.6 351 
 GIR2 SZ ES   1   17 8 15.79                             166    0.12 7 35.6 351 
 BRR  HZ EP   1   17 8  1.50                             152    0.08 7 73.8 301 
 BRR  HE ES   1   17 8 18.70                             152    0.42 7 73.8 301 
 BRR  HZ I        17 8 21.79        41.4 0.15                          73.8 301 
 RUS  HZ EP       17 8  3.65                             146    0.1010 96.3 176 
 RUS  HE ES   1   17 8 22.24                             146    0.17 7 96.3 176 
 RUS  HZ I        17 8 23.93        26.8 0.43                          96.3 176 
 OCA  SZ EP   1   17 8  8.92                             130    0.17 7  165 353 
 OCA  SZ ES   1   17 8 31.06                             130   -0.27 7  165 353 
 OCA  SZ I        17 8 43.75        18.5 0.65                           165 353 
 NOR  SZ EP   1   17 8 15.33                             119   -0.16 6  233 235 
 NOR  SN ES   1   17 8 43.06                             119   -0.26 6  233 235 
 PRA  HZ EP   1   17 8 33.30                             107    0.27 4  389 210 
                                                                                
