 2011 1130 1955 43.8 L   6.774 -73.169140.2  RSN 11 0.3 3.1LRSN                1
 GAP=112        0.64       2.2     2.6  3.5 -0.1833E+00  0.2332E+01  0.1711E+01E
 Epicentro: LOS SANTOS - SANTANDER                                             3
 ACTION:UPD 12-07-13 16:13 OP:ep   STATUS:               ID:20111130195543 L   I
 2011-11-30-1953-11S.COL___162                                                 6
 STAT SP IPHASW D HRMM SECON CODA AMPLIT PERI AZIMU VELO AIN AR TRES W  DIS CAZ7
 BAR2 SZ IP       1956  2.75                             171    0.0110 20.1 184 
 BAR2 SZ ES       1956 17.38                             171   -0.1010 20.1 184 
 BAR2 SZ I        1956 18.92       365.2 0.31                          20.1 184 
 BRR  HZ IP     C 1956  4.63                             152    0.2910 70.4 302 
 BRR  HE ES       1956 20.50                             152    0.1710 70.4 302 
 BRR  HZ I        1956 23.42       194.2 0.14                          70.4 302 
 PAM  SZ IP       1956  5.60                             149   -0.1110 81.3  40 
 PAM  SN ES       1956 22.16                             149   -0.6110 81.3  40 
 RUS  HZ EP       1956  6.65                             143   -0.2010 97.9 174 
 RUS  HE ES       1956 24.99                             143    0.1910 97.9 174 
 RUS  HZ I        1956 27.13       144.9 0.35                          97.9 174 
 OCA  SZ EP       1956 12.34                             128    0.37 9  163 354 
 OCA  SZ I        1956 39.80       113.5 0.31                           163 354 
 YOP  SZ EP       1956 13.48                             125    0.13 9  178 152 
 YOP  SZ I        1956 16.29        72.1 0.40                           178 152 
 YOP  SN ES       1956 36.64                             125    0.27 9  178 152 
 NOR  SZ EP       1956 18.81                             118   -0.02 8  231 235 
 NOR  SE ES       1956 46.37                             118    0.24 8  231 235 
 HEL  HZ EP   1   1956 23.67                             114    0.26 6  269 256 
 HEL  HN ES   1   1956 53.94                             114   -0.34 6  269 256 
 HEL  HZ I        1957  0.96        74.4 0.41                           269 256 
 VIL  SZ EP   1   1956 26.20                             111   -0.42 5  300 191 
 VIL  SE ES   1   1956 59.88                             111   -0.11 5  300 191 
 VIL  SZ I        1957 10.62        78.6 0.40                           300 191 
 RREF HZ EP   1   1956 29.17                             110   -0.13 5  318 229 
 RREF HN ES   1   1957  4.16                             110   -0.60 5  318 229 
 RREF HZ I        1957 14.77       110.2 0.09                           318 229 
 PRA  HZ EP   1   1956 36.57                             106   -0.15 4  388 209 
                                                                                
