 2016  630 1856 11.8 L   6.725 -73.191140.0  RSN  8 0.5 1.8LRSN                1
 GAP=226        1.17       5.7     5.6  8.0  0.6125E+01  0.1879E+02  0.5092E+01E
 Epicentro: VILLANUEVA - SANTANDER                                             3
 ACTION:UPD 16-07-21 22:24 OP:rebc STATUS:               ID:20160630185611 L   I
 OLDACT:DUP 16-07-01 00:37 OP:ak   STATUS:               ID:20160630184747d    3
 2016-06-30-1847-46M.COL___355                                                 6
 STAT SP IPHASW D HRMM SECON CODA AMPLIT PERI AZIMU VELO AIN AR TRES W  DIS CAZ7
 BAR2 EZ EP       1856 30.25                             174   -0.3310 14.7 176 
 BAR2 EZ ES       1856 45.44                             174    0.2010 14.7 176 
 BAR2 EZ I        1856 46.02        22.5 0.16                          14.7 176 
 BRR  HZ IP     C 1856 32.18                             152   -0.1610 71.4 306 
 BRR  HN ES       1856 48.42                             152    0.0610 71.4 306 
 BRR  HZ I        1856 50.52        10.0 0.44                          71.4 306 
 RUS  HZ EP       1856 33.95                             145   -0.4710 92.8 173 
 RUS  HN ES       1856 52.73                             145    0.6610 92.8 173 
 RUS  HZ I        1856 54.32         8.1 0.38                          92.8 173 
 PTB  HZ EP       1856 36.91                             132   -0.81 9  141 262 
 PTB  HN ES       1856 57.71                             132   -0.23 9  141 262 
 PTB  HZ I        1857  1.06        11.8 0.10                           141 262 
 ZAR  HZ EP       1856 44.71                             122    0.97 9  203 295 
 ZAR  HN ES       1857  8.88                             122    0.23 9  203 295 
 ZAR  HZ I        1857 14.22         7.2 0.18                           203 295 
 NOR  HZ EP   2   1856 45.65                             119   -0.59 4  226 235 
 NOR  HE ES       1857 12.51                             119   -0.59 8  226 235 
 NOR  HZ I        1857 16.46         4.5 0.16                           226 235 
 GUY2CHZ EP   2   1856 55.06                             112    0.92 4  292 236 
 GUY2CHN ES       1857 27.95                             112    0.79 7  292 236 
 GUY2CHZ I        1857 36.94         2.4 0.38                           292 236 
 CBOC HZ EP   2   1856 58.38                             110    0.74 3  326 253 
 CBOC HE ES       1857 33.31                             110   -0.09 7  326 253 
                                                                                
