 2015  430 1155 48.5 L   6.753 -73.137145.1  RSN  8 0.5 1.8LRSN                1
 GAP=140        1.16       4.3     5.5  7.8 -0.3916E+01  0.1760E+02 -0.4223E+01E
 Epicentro: LOS SANTOS - SANTANDER                                             3
 ACTION:UPD 15-06-03 16:58 OP:cam  STATUS:               ID:20150430115548 L   I
 OLDACT:REG 15-04-30 22:05 OP:ak   STATUS:               ID:20150430114749     3
 2015-04-30-1147-49M.COL___268                                                 6
 STAT SP IPHASW D HRMM SECON CODA AMPLIT PERI AZIMU VELO AIN AR TRES W  DIS CAZ7
 BAR2 EZ IP     C 1156  8.10                             172    0.1410 18.5 196 
 BAR2 EZ ES       1156 22.87                             172   -0.2710 18.5 196 
 BAR2 EZ I        1156 25.55        11.9 0.30            174           18.5 196 
 BRR  HZ EP       1156 10.16                             151    0.3910 74.6 302 
 BRR  HN ES       1156 26.45                             151    0.0910 74.6 302 
 PAM  SZ IP     D 1156 11.36                             149    0.5110 80.9  37 
 PAM  SN ES       1156 28.48                             149    0.1910 80.9  37 
 PAM  SZ I        1156 32.29         6.1 0.40            150           80.9  37 
 RUS  HZ EP   2   1156 11.80                             145   -0.01 5 95.4 176 
 RUS  HN ES       1156 29.70                             145   -0.3010 95.4 176 
 RUS  HZ I        1156 31.61         8.1 0.32            148           95.4 176 
 ZAR  HN ES       1156 47.28                             122    0.59 8  207 293 
 NOR  HZ EP       1156 23.68                             119   -0.27 8  233 236 
 NOR  HN ES       1156 50.75                             119   -0.86 8  233 236 
 NOR  HZ I        1156 57.09         4.3 0.17            120            233 236 
 SML  HZ EP       1156 25.14                             117   -0.49 8  249 336 
 SML  HN ES       1156 53.64                             117   -0.96 8  249 336 
 SML  HZ I        1157  3.25         9.2 0.08            117            249 336 
 GUY2CHN ES       1157  6.55                             112    0.92 7  299 236 
                                                                                
