 2013  330 1948 17.0 L   6.776 -73.150152.2  RSN  4 0.3 1.7LRSN                1
 GAP=137        0.69       4.2     4.0  6.8 -0.8747E+00 -0.8071E+00 -0.7553E+00E
 Epicentro: LOS SANTOS - SANTANDER                                             3
 ACTION:UPD 13-04-09 14:05 OP:ep   STATUS:               ID:20130330194817 L   I
 2013-03-30-1940-00M.COL___245                                                 6
 STAT SP IPHASW D HRMM SECON CODA AMPLIT PERI AZIMU VELO AIN AR TRES W  DIS CAZ7
 BRR  HZ EP       1948 39.19                             153    0.3310 72.2 301 
 BRR  HN ES       1948 56.26                             153    0.3110 72.2 301 
 BRR  HN I        1948 56.67        20.5 0.30            153           72.2 301 
 PAM  SZ EP       1948 40.01                             151    0.0110 79.7  39 
 PAM  SE ES   1   1948 57.50                             151   -0.47 7 79.7  39 
 PAM  SE I        1948 57.70         5.5 0.48            155           79.7  39 
 RUS  HZ EP   1   1948 41.15                             146   -0.02 7 97.9 176 
 RUS  HN ES       1949  0.13                             146    0.0810 97.9 176 
 RUS  HN I        1949  1.86         4.7 0.22            145           97.9 176 
 PTB  HZ EP   1   1948 44.18                             134   -0.20 7  147 260 
 PTB  HN ES       1949  5.37                             134   -0.40 9  147 260 
 PTB  HN I        1949 10.23         6.7 0.50            133            147 260 
                                                                                
