 2010  930 1719 35.1 L   6.580 -73.508115.0  RSN  4 0.2 1.7LRSN                1
 GAP=191        0.59       5.3     8.1  5.0  0.2784E+02 -0.2937E+01 -0.2396E+01E
 Epicentro: EL CARMEN DE CHUCURI - SANTANDER                                   3
 ACTION:UP  11-02-18 11:06 OP:tino STATUS:               ID:20100930171935 L   I
 2010-09-30-1715-09S.COL___125                                                 6
 STAT SP IPHASW D HRMM SECON CODA AMPLIT PERI AZIMU VELO SNR AR TRES W  DIS CAZ7
 BAR2 SZ EP       1719 51.73                             162     0.310   36  88 
 BAR2 SZ ES       1720  4.21                             162     0.010   36  88 
 BAR2 SZ I        1720  5.37        38.4 0.43                            36  88 
 BRR  HZ EP       1719 52.43                             149     0.010   63 339 
 BRR  HZ I        1720  5.82        10.5 0.37                            63 339 
 BRR  HN ES       1720  5.91                             149    -0.110   63 339 
 RUS  HZ EP   1   1719 55.02                             140     0.0 7   89 148 
 RUS  HE ES   2   1720 10.02                             140    -0.6 5   89 148 
 RUS  HZ I        1720 11.90         6.4 0.19                            89 148 
 GUE  SZ EP       1720  0.42                             123    -0.2 9  153  25 
                                                                                
