 2017  930 1241  3.7 L   6.611 -74.089  4.0  RSN  8 0.3 1.5LRSN                1
 GAP=103        0.68       2.0     1.2  3.4 -0.1732E+00  0.5601E+00  0.6636E+00E
 Epicentro: PUERTO PARRA - SANTANDER                                           3
 ACTION:UPD 17-10-05 19:18 OP:rebc STATUS:               ID:20170930124103 L   I
 OLDACT:UP  17-09-30 22:02 OP:osc  STATUS:               ID:20170930123739     3
 OLDACT:REG 17-09-30 20:16 OP:osc  STATUS:               ID:20170930123739     3
 2017-09-30-1238-00M.COL___410                                                 6
 STAT SP IPHASW D HRMM SECON CODA AMPLIT PERI AZIMU VELO AIN AR TRES W  DIS CAZ7
 BAR2 EZ EP       1241 19.92                              47    0.1910  100  91 
 BAR2 EZ ES       1241 31.77                              47   -0.4710  100  91 
 BAR2 EZ I        1241 38.31         6.6 0.48             47            100  91 
 ZAR  HE ES       1241 39.49                              47   -0.1710  129 319 
 ZAR  HZ I        1241 41.23         6.9 0.10             47            129 319 
 RUS  HZ EP       1241 25.80                              47    0.28 9  137 125 
 RUS  HE ES       1241 42.39                              47   -0.14 9  137 125 
 RUS  HZ I        1241 46.44         6.8 0.20             47            137 125 
 NOR  HE ES   2   1241 43.41                              47   -0.41 5  144 217 
 NOR  HZ I        1241 47.28         3.9 0.14             47            144 217 
 HEL  HZ EP       1241 30.16                              47    0.34 9  166 254 
 HEL  HN ES       1241 49.89                              47   -0.30 9  166 254 
 HEL  HZ I        1241 50.72        15.6 0.32             47            166 254 
 PAM  EZ EP       1241 30.90                              47   -0.17 9  173  62 
 PAM  EE ES       1241 52.78                              47    0.36 9  173  62 
 PAM  EZ I        1241 54.03        10.8 0.22             47            173  62 
 GUY2CHZ EP       1241 35.64                              37    0.05 8  208 223 
 GUY2CHE ES       1242  0.73                              37    0.26 8  208 223 
 GUY2CHZ I        1242  6.62         2.8 0.23                           208 223 
 ELA  HZ EP   9   1241 41.51                              37    1.67 0  242 217 
 ELA  HN ES       1242  9.50                              37   -0.20 8  242 217 
 ELA  HZ I        1242 16.06         3.6 0.34             37            242 217 
                                                                                
