 2012 1230 1042 40.8 L   6.792 -73.161144.0  RSN 10 0.5 2.8LRSN                1
 GAP=181        1.12       4.1     5.8  7.2  0.2337E+01  0.7670E+01 -0.1463E+01E
 Epicentro: LOS SANTOS - SANTANDER                                             3
 ACTION:UPD 13-01-04 14:31 OP:ep   STATUS:               ID:20121230104240 L   I
 2012-12-30-1040-00M.COL___242                                                 6
 STAT SP IPHASW D HRMM SECON CODA AMPLIT PERI AZIMU VELO AIN AR TRES W  DIS CAZ7
 BAR2 SZ IP       1043  0.37                             171    0.1310 22.2 186 
 BAR2 SZ ES       1043 14.66                             171   -0.7010 22.2 186 
 BAR2 SZ I        1043 16.26       165.5 0.35                          22.2 186 
 BRR  HZ IP     C 1043  2.09                             153    0.3510 70.1 300 
 BRR  HZ I        1043  2.37       156.4 0.19                          70.1 300 
 BRR  HN ES       1043 18.78                             153    0.7410 70.1 300 
 RUS  HZ EP   1   1043  4.54                             144    0.18 7 99.8 175 
 RUS  HN ES       1043 22.68                             144   -0.0310 99.8 175 
 RUS  HN I        1043 26.41        59.0 0.43                          99.8 175 
 PTB  HZ EP       1043  7.14                             132   -0.35 9  146 259 
 PTB  HE ES       1043 27.86                             132   -0.42 9  146 259 
 PTB  HZ I        1043 30.81        88.3 0.09                           146 259 
 OCA  HZ EP       1043  8.32                             129   -0.76 9  161 354 
 OCA  HN ES       1043 31.57                             129    0.47 9  161 354 
 OCA  HZ I        1043 33.31        73.6 0.24                           161 354 
 ZAR  HZ EP   1   1043 12.90                             122   -0.14 6  203 293 
 ZAR  HE ES   1   1043 37.84                             122   -0.31 6  203 293 
 ZAR  HZ I        1043 44.39        98.7 0.39                           203 293 
 CHI  HZ EP   1   1043 19.03                             117    0.73 6  247 195 
 CHI  HN ES   1   1043 48.20                             117    0.69 6  247 195 
 CHI  HZ I        1043 53.94        19.9 0.25                           247 195 
 ROSC BZ EP   4   1043 21.24                             116    2.56 0  251 211 
 ROSC BN ES   4   1043 49.77                             116    1.57 0  251 211 
 ROSC BZ I        1043 56.23        48.4 0.52                           251 211 
 HEL  HZ EP   1   1043 20.23                             115   -0.52 6  270 256 
 HEL  HN ES   1   1043 52.43                             115    0.55 6  270 256 
 HEL  HZ I        1043 58.93        27.3 0.30                           270 256 
 URE  HZ EP   4   1043 20.10                             113   -1.58 0  283 292 
 MON  HZ EP   4   1043 27.53                             108   -2.15 0  353 309 
 MON  HN ES   4   1044  5.32                             108   -2.45 0  353 309 
 MON  HZ I        1044 25.85        15.8 0.52                           353 309 
                                                                                
