 2017  930 1039  5.6 L   6.774 -73.171147.8  RSN  4 0.3 1.4LRSN                1
 GAP=135        0.58       4.8     6.4  5.9  0.4759E+01  0.9086E+01 -0.1299E+02E
 Epicentro: LOS SANTOS - SANTANDER                                             3
 ACTION:UPD 17-10-05 19:18 OP:rebc STATUS:               ID:20170930103905 L   I
 OLDACT:DUP 17-09-30 21:29 OP:osc  STATUS:               ID:20170930103735d    3
 2017-09-30-1038-00M.COL___404                                                 6
 STAT SP IPHASW D HRMM SECON CODA AMPLIT PERI AZIMU VELO AIN AR TRES W  DIS CAZ7
 BAR2 EZ EP       1039 25.40                             172   -0.0510 20.2 184 
 BAR2 EZ ES       1039 40.96                             172    0.0510 20.2 184 
 BAR2 EZ I        1039 42.49         4.3 0.22            168           20.2 184 
 PAM  EZ EP       1039 28.41                             149    0.1110 81.3  40 
 RUS  HZ EP       1039 29.72                             145    0.3210 98.0 174 
 RUS  HN ES       1039 47.75                             145   -0.1910 98.0 174 
 RUS  HZ I        1039 48.72         1.7 0.18            148           98.0 174 
 ZAR  HZ EP       1039 37.68                             123   -0.38 9  203 293 
 ZAR  HN ES   3   1040  4.16                             123    0.80 2  203 293 
 ZAR  HZ I        1040 10.14         7.1 0.26            121            203 293 
                                                                                
