 2011  830 1121  4.1 L   6.711 -73.428114.9  RSN  4 0.2 1.6LRSN                1
 GAP=167        0.53       5.8     8.4  6.5  0.2847E+02  0.1270E+02  0.8905E+01E
 Epicentro: EL CARMEN DE CHUCURI - SANTANDER                                   3
 ACTION:UPD 12-07-13 15:54 OP:ep   STATUS:               ID:20110830112104 L   I
 2011-08-30-1116-23S.COL___163                                                 6
 STAT SP IPHASW D HRMM SECON CODA AMPLIT PERI AZIMU VELO AIN AR TRES W  DIS CAZ7
 BAR2 SZ EP       1121 20.26                             164    0.0710 30.2 116 
 BAR2 SZ ES   1   1121 32.59                             164   -0.19 7 30.2 116 
 BAR2 SZ I        1121 34.33        11.9 0.33                          30.2 116 
 GIR2 SZ EP   1   1121 21.11                             156    0.31 7 48.3  33 
 GIR2 SZ ES   1   1121 33.77                             156   -0.10 7 48.3  33 
 BRR  HZ EP   1   1121 20.45                             153   -0.44 7 53.9 324 
 BRR  HE ES   1   1121 34.27                             153    0.24 7 53.9 324 
 BRR  HZ I        1121 35.46        10.6 0.48                          53.9 324 
 RUS  HN ES   2   1121 40.95                             137    0.12 5 98.2 157 
                                                                                
