 2014  530 1636 32.1 L   6.853 -73.092137.4  RSN  5 0.5 1.5LRSN                1
 GAP=206        1.30       6.9     9.6 10.4  0.3087E+02  0.6182E-01 -0.1427E+02E
 Epicentro: LOS SANTOS - SANTANDER                                             3
 ACTION:UPD 15-03-16 17:02 OP:nd   STATUS:               ID:20140530163632 L   I
 OLDACT:DUP 14-05-31 00:44 OP:stll STATUS:               ID:20140530162820d    3
 2014-05-30-1628-19M.COL___259                                                 6
 STAT SP IPHASW D HRMM SECON CODA AMPLIT PERI AZIMU VELO AIN AR TRES W  DIS CAZ7
 BAR2 SZ EP       1636 51.29                             167    0.3610 30.6 199 
 BAR2 SZ ES       1637  5.84                             167    0.2410 30.6 199 
 BAR2 SZ I        1637  7.42         9.0 0.24            166           30.6 199 
 BRR  HZ EP       1636 53.00                             150    0.4510 74.1 292 
 BRR  HE ES       1637  8.49                             150    0.0110 74.1 292 
 RUS  HZ EP       1636 54.69                             140   -0.8110  106 180 
 RUS  HN ES       1637 13.54                             140   -0.1910  106 180 
 RUS  HZ I        1637 15.78         2.3 0.36            140            106 180 
 PTB  HZ EP       1636 59.97                             129    0.88 9  155 257 
 PTB  HZ I        1637  1.06         7.8 0.14            129            155 257 
 PTB  HN ES       1637 19.58                             129   -0.55 9  155 257 
 SML  HN ES       1637 35.40                             116   -0.58 8  241 333 
                                                                                
