 2014  830 1111 33.1 L   6.826 -73.191140.9  RSN 10 0.3 1.9LRSN                1
 GAP= 68        0.90       2.5     3.7  4.9 -0.8062E+00  0.9308E+00  0.8563E+00E
 Epicentro: ZAPATOCA - SANTANDER                                               3
 ACTION:UPD 14-09-15 21:54 OP:nd   STATUS:               ID:20140830111133 L   I
 OLDACT:REG 14-08-30 20:47 OP:stll STATUS:               ID:20140830110819     3
 2014-08-30-1108-19M.COL___278                                                 6
 STAT SP IPHASW D HRMM SECON CODA AMPLIT PERI AZIMU VELO AIN AR TRES W  DIS CAZ7
 BAR2 SZ IP     D 1111 52.39                             169    0.1810 25.9 178 
 BAR2 SZ ES       1112  6.73                             169   -0.3710 25.9 178 
 BAR2 SZ I        1112  8.22        16.9 0.30            171           25.9 178 
 BRR  HZ IP     C 1111 54.16                             154    0.7510 65.5 298 
 BRR  HZ I        1111 54.34        16.4 0.28            151           65.5 298 
 BRR  HN ES       1112  9.93                             154    0.6910 65.5 298 
 PAM  SZ EP       1111 55.33                             150    0.4510 78.5  44 
 PAM  SZ I        1111 55.36        16.6 0.18            150           78.5  44 
 PAM  SN ES       1112 11.66                             150   -0.1910 78.5  44 
 RUS  HZ EP       1111 56.46                             142   -0.1710  104 173 
 RUS  HN ES       1112 14.94                             142   -0.0410  104 173 
 RUS  HZ I        1112 16.84         9.3 0.18            144            104 173 
 PTB  HZ EP       1111 58.97                             132   -0.32 9  143 257 
 PTB  HN ES       1112 19.56                             132   -0.15 9  143 257 
 PTB  HZ I        1112 25.63        12.1 0.22            131            143 257 
 OCA  HN ES       1112 21.86                             129   -0.40 9  157 355 
 OCA  HZ I        1112 26.90         8.5 0.28            129            157 355 
 TAM  HZ EP       1112  0.87                             128   -0.06 9  161 106 
 TAM  HZ I        1112  1.24        16.7 0.28            131            161 106 
 SPBC HZ EP       1112  1.09                             128   -0.07 9  162 217 
 SPBC HZ I        1112  1.86        11.1 0.28            128            162 217 
 SPBC HN ES       1112 22.85                             128   -0.19 9  162 217 
 SML  HZ EP       1112  8.84                             117   -0.12 8  239 336 
 SML  HN ES       1112 36.47                             117   -0.45 8  239 336 
 SML  HZ I        1112 43.39         9.0 0.10            116            239 336 
 CHI  HZ EP       1112 10.93                             116    0.22 8  250 194 
 CHI  HZ I        1112 12.31         3.3 0.48            117            250 194 
 CHI  HN ES       1112 40.00                             116   -0.04 8  250 194 
                                                                                
