 2016 1030 1809 30.7 L   6.788 -73.086153.2  RSN  5 0.3 1.2LRSN                1
 GAP=145        0.85       4.8     7.1  7.7 -0.5330E+00 -0.1380E+02 -0.4554E+01E
 Epicentro: LOS SANTOS - SANTANDER                                             3
 ACTION:UPD 16-11-09 19:24 OP:rebc STATUS:               ID:20161030180930 L   I
 OLDACT:REG 16-10-30 20:30 OP:edw  STATUS:               ID:20161030180742     3
 2016-10-30-1808-00M.COL___325                                                 6
 STAT SP IPHASW D HRMM SECON CODA AMPLIT PERI AZIMU VELO AIN AR TRES W  DIS CAZ7
 BAR2 EZ EP       18 9 51.15                             171   -0.1310 24.1 206 
 BAR2 EZ ES       1810  7.19                             171   -0.1110 24.1 206 
 BAR2 EZ I        1810  9.19         4.0 0.29            170           24.1 206 
 PAM  EZ EP       18 9 53.28                             153   -0.3110 74.5  35 
 PAM  EZ I        1810 13.69         2.0 0.26            138           74.5  35 
 BRR  HZ EP       18 9 52.92                             152   -0.1410 77.7 297 
 BRR  HN ES       1810 10.82                             152    0.3510 77.7 297 
 BRR  HZ I        1810 14.13         3.8 0.57            151           77.7 297 
 RUS  HZ EP       18 9 55.77                             146    0.6510 99.0 180 
 RUS  HN ES       1810 14.10                             146   -0.0310 99.0 180 
 RUS  HZ I        1810 16.81         2.3 0.43            146           99.0 180 
 SPBC HN ES       1810 22.68                             130   -0.35 9  166 221 
                                                                                
