 2017  330 1839 55.5 L   6.785 -73.131139.8  RSN 13 0.5 2.4LRSN                1
 GAP=139        1.22       4.0     4.8  6.5 -0.9104E+00  0.9288E+01  0.4887E+01E
 Epicentro: LOS SANTOS - SANTANDER                                             3
 ACTION:UPD 17-05-25 18:47 OP:jn   STATUS:               ID:20170330183955 L   I
 OLDACT:UP  17-03-30 23:17 OP:dnl  STATUS:               ID:20170330183750     3
 OLDACT:UP  17-03-30 23:16 OP:dnl  STATUS:               ID:20170330183750     3
 OLDACT:REG 17-03-30 21:04 OP:dnl  STATUS:               ID:20170330183750     3
 2017-03-30-1838-00M.COL___364                                                 6
 STAT SP IPHASW D HRMM SECON CODA AMPLIT PERI AZIMU VELO AIN AR TRES W  DIS CAZ7
 BAR2 EZ IP     C 1840 14.17                             171   -0.2310 22.1 195 
 BAR2 EZ EP     C 1840 14.25                             169           22.1 195 
 BAR2 EZ ES       1840 28.85                             171   -0.2810 22.1 195 
 BAR2 EZ I        1840 29.89        92.1 0.26            167           22.1 195 
 BRR  HZ IP     C 1840 16.17                             151    0.0110 73.5 299 
 BRR  HN ES       1840 32.91                             151    0.6610 73.5 299 
 BRR  HZ I        1840 38.07        38.4 0.12            151           73.5 299 
 PAM  EZ IP     C 1840 17.34                             150    0.2310 77.6  38 
 PAM  EN ES       1840 33.94                             150   -0.0210 77.6  38 
 PAM  EZ I        1840 36.43        50.1 0.52            155           77.6  38 
 RUS  HZ EP       1840 18.25                             143   -0.3110 98.8 177 
 RUS  HN ES       1840 36.48                             143   -0.0510 98.8 177 
 RUS  HZ I        1840 38.10        23.4 0.50            143           98.8 177 
 PTB  HZ EP       1840 21.10                             130   -1.03 9  149 260 
 PTB  HN ES       1840 41.86                             130   -1.02 9  149 260 
 PTB  HZ I        1840 44.53        33.9 0.48            131            149 260 
 SPBC HZ EP       1840 23.36                             128   -0.18 9  163 220 
 SPBC HE ES       1840 45.95                             128    0.54 9  163 220 
 SPBC HZ I        1840 50.24        28.2 0.26            128            163 220 
 ZAR  HZ EP       1840 28.45                             121    0.64 8  206 292 
 ZAR  HE ES       1840 53.53                             121    0.54 8  206 292 
 ZAR  HZ I        1840 55.19        20.5 0.10            122            206 292 
 NOR  HZ EP       1840 30.53                             117   -0.42 8  235 235 
 NOR  HE ES       1840 58.95                             117    0.36 8  235 235 
 NOR  HZ I        1841  0.15        17.7 0.14            118            235 235 
 CHI  HZ EP       1840 33.52                             116    0.75 8  248 196 
 CHI  HE ES       1841  2.38                             116    0.56 8  248 196 
 CHI  HZ I        1841  9.11         6.6 0.56            117            248 196 
 ROSC BZ EP   4   1840 35.69                             115    2.43 0  252 212 
 ROSC BN ES   4   1841  6.69                             115    3.99 0  252 212 
 ROSC BZ I        1841 10.56        20.1 0.45            116            252 212 
 HEL  HZ EP   4   1840 36.55                             113    0.98 0  273 256 
 HEL  HN ES   4   1841  5.71                             113   -1.10 0  273 256 
 HEL  HZ I        1841 13.25        14.4 0.28            115            273 256 
 URE  HZ EP       1840 36.21                             112   -0.34 7  286 292 
 URE  HN ES   4   1841  6.72                             112   -1.83 0  286 292 
 URE  HZ I        1841  8.35        20.1 0.14            114            286 292 
 PRA  HZ EP       1840 49.13                             105    0.36 6  391 210 
 PRA  HN ES       1841 30.02                             105   -0.28 6  391 210 
 PRA  HZ I        1841 36.81         6.0 0.28            107            391 210 
                                                                                
