 2012  730 1726 21.7 L   6.790 -73.160147.5  RSN 10 0.4 2.3LRSN                1
 GAP= 71        0.89       4.4     5.2  7.8  0.3259E+01  0.7275E+00 -0.9282E-01E
 Epicentro: LOS SANTOS - SANTANDER                                             3
 ACTION:UPD 12-08-14 11:46 OP:ep   STATUS:               ID:20120730172621 L   I
 2012-07-30-1720-00M.COL___209                                                 6
 STAT SP IPHASW D HRMM SECON CODA AMPLIT PERI AZIMU VELO AIN AR TRES W  DIS CAZ7
 BAR2 SZ EP       1726 41.35                             171    -0.210   22 187 
 BAR2 SZ I        1726 57.43        45.7 0.38            170             22 187 
 BRR  HZ EP       1726 43.18                             153     0.210   70 300 
 BRR  HZ I        1726 43.38        79.5 0.12            144             70 300 
 BRR  HN ES   1   1727  0.28                             153     0.7 7   70 300 
 PAM  SZ EP   3   1726 44.09                             150    -0.1 2   79  40 
 PAM  SN ES   3   1727  1.14                             150    -0.6 2   79  40 
 PAM  SZ I        1727  3.71        34.0 0.86            146             79  40 
 RUS  HZ EP       1726 45.70                             144     0.210  100 175 
 RUS  HN ES   1   1727  3.92                             144    -0.2 7  100 175 
 RUS  HZ I        1727  5.17        20.5 0.24            142            100 175 
 PTB  HZ EP       1726 48.03                             133    -0.6 9  146 259 
 PTB  HN ES   2   1727  9.10                             133    -0.6 5  146 259 
 PTB  HZ I        1727 10.82        13.6 0.40            125            146 259 
 TAM  HZ EP       1726 49.84                             131     0.2 9  156 104 
 TAM  HZ I        1726 50.00        24.0 0.20            128            156 104 
 OCA  HZ EP       1726 50.05                             130    -0.2 9  161 354 
 OCA  HN ES   1   1727 12.20                             130    -0.3 7  161 354 
 OCA  HZ I        1727 16.71        30.3 0.30            123            161 354 
 ZAR  HZ EP       1726 54.49                             123     0.3 9  203 293 
 ZAR  HZ I        1727 24.59        20.2 0.42            116            203 293 
 NOR  SZ EP       1726 57.55                             119     0.2 8  233 234 
 DBB  SZ EP   3   1727  9.14                             110     0.1 2  338 274 
