 2012  830 1838 17.9 L   6.791 -73.180138.0  RSN 13 0.5 2.7LRSN                1
 GAP=111        0.89       3.1     3.6  6.0  0.1341E+01  0.9256E+01  0.1538E+01E
 Epicentro: LOS SANTOS - SANTANDER                                             3
 ACTION:UPD 12-09-10 11:59 OP:ep   STATUS:               ID:20120830183817 L   I
 2012-08-30-1830-00M.COL___218                                                 6
 STAT SP IPHASW D HRMM SECON CODA AMPLIT PERI AZIMU VELO AIN AR TRES W  DIS CAZ7
 BAR2 SZ EP       1838 36.67                             171    0.0910 22.0 181 
 BAR2 SZ ES   1   1838 50.62                             171   -0.52 7 22.0 181 
 BRR  HZ EP       1838 38.54                             152    0.4810 68.4 301 
 BRR  HE ES   1   1838 54.64                             152    0.86 7 68.4 301 
 BRR  HZ I        1838 56.70       135.3 0.21                          68.4 301 
 PAM  SZ EP       1838 39.72                             148    0.2110 80.6  41 
 PAM  SZ I        1838 39.92       155.7 0.19                          80.6  41 
 PAM  SN ES   1   1838 56.08                             148   -0.27 7 80.6  41 
 RUS  HZ EP       1838 40.64                             142   -0.2210 99.9 174 
 RUS  HN ES   1   1838 58.64                             142   -0.12 7 99.9 174 
 RUS  HZ I        1839  0.57        60.7 0.34                          99.9 174 
 PTB  HZ EP       1838 43.48                             131   -0.42 9  144 259 
 PTB  HN ES   2   1839  3.30                             131   -0.86 5  144 259 
 PTB  HZ I        1839  7.17        40.6 0.17                           144 259 
 OCA  HZ EP   1   1838 45.27                             128   -0.42 7  161 355 
 OCA  HN ES   1   1839  6.68                             128   -0.67 7  161 355 
 OCA  HZ I        1839 12.53        97.4 0.23                           161 355 
 YOP  SN ES   1   1839 11.12                             124    0.55 7  180 152 
 YOP  SZ I        1839 11.77        58.6 0.34                           180 152 
 ZAR  HZ EP       1838 49.69                             121    0.15 9  201 293 
 ZAR  HN ES   1   1839 15.34                             121    1.14 6  201 293 
 ZAR  HZ I        1839 18.27        44.1 0.19                           201 293 
 NOR  SZ EP   1   1838 53.15                             117    0.34 6  231 234 
 NOR  SN ES   1   1839 20.01                             117   -0.01 6  231 234 
 NOR  SZ I        1839 24.99        25.6 0.25                           231 234 
 CHI  HZ EP   1   1838 55.04                             116    0.06 6  247 194 
 CHI  HN ES   1   1839 23.70                             116   -0.19 6  247 194 
 CHI  HZ I        1839 27.48        14.8 0.62                           247 194 
 HEL  HZ EP   1   1838 57.50                             113    0.19 6  268 256 
 HEL  HN ES   1   1839 27.33                             113   -0.70 6  268 256 
 HEL  HZ I        1839 36.21        21.3 0.38                           268 256 
 URE  HZ EP   1   1838 57.96                             112   -0.30 6  281 292 
 URE  HN ES   1   1839 29.39                             112   -0.34 6  281 292 
 URE  HZ I        1839 35.91        29.9 0.16                           281 292 
 DBB  SZ EP       1839  4.89                             108    0.23 7  336 274 
 DBB  SZ ES   1   1839 40.70                             108   -0.41 5  336 274 
 DBB  SZ I        1839 45.23        25.6 0.37                           336 274 
                                                                                
