 2016  730 1204 25.4 L   6.743 -73.123152.1  RSN  6 0.3 1.2LRSN                1
 GAP=236        0.74       4.2     4.5  5.4  0.7288E+01  0.3588E+01  0.1025E+01E
 Epicentro: LOS SANTOS - SANTANDER                                             3
 ACTION:UPD 17-03-29 16:56 OP:lp   STATUS:               ID:20160730120425 L   I
 OLDACT:UP  16-07-30 22:20 OP:edw  STATUS:               ID:20160730115759     3
 OLDACT:REG 16-07-30 20:23 OP:edw  STATUS:               ID:20160730115759     3
 2016-07-30-1157-59S.COL___346                                                 6
 STAT SP IPHASW D HRMM SECON CODA AMPLIT PERI AZIMU VELO AIN AR TRES W  DIS CAZ7
 BAR2 EZ EP       12 4 45.45                             173   -0.2310 17.9 202 
 BAR2 EZ ES       12 5  1.54                             173    0.0310 17.9 202 
 BRR  HZ EP       12 4 47.41                             152   -0.1110 76.6 302 
 BRR  HN ES       12 5  4.82                             152    0.0410 76.6 302 
 RUS  HZ EP       12 4 49.93                             147    0.6110 94.1 177 
 RUS  HN ES       12 5  7.81                             147   -0.1810 94.1 177 
 RUS  HZ I        12 5  9.03         1.6 0.26            143           94.1 177 
 PTB  HZ EP       12 4 52.51                             133   -0.48 9  149 261 
 PTB  HE ES       12 5 14.44                             133   -0.09 9  149 261 
 PTB  HZ I        12 5 15.51         2.5 0.18            131            149 261 
 SPBC HZ EP       12 4 54.09                             131    0.02 9  160 221 
 SPBC HN ES       12 5 16.53                             131    0.08 9  160 221 
 SPBC HZ I        12 5 22.82         3.0 0.28            128            160 221 
 ZAR  HN ES       12 5 25.11                             123    0.36 8  209 293 
                                                                                
