 2015  130 1618 19.0 L   6.795 -73.152148.2  RSN 24 0.4 2.7LRSN                1
 GAP= 71        0.93       2.5     2.6  4.4 -0.2538E+00  0.3275E+01  0.1462E+01E
 Epicentro: LOS SANTOS - SANTANDER                                             3
 ACTION:UPD 15-03-02 15:43 OP:nd   STATUS:               ID:20150130161819 L   I
 OLDACT:UP  15-01-30 23:35 OP:spq  STATUS:               ID:20150130160745     3
 OLDACT:REG 15-01-30 20:08 OP:spq  STATUS:               ID:20150130160745     3
 2015-01-30-1607-45M.COL___277                                                 6
 STAT SP IPHASW D HRMM SECON CODA AMPLIT PERI AZIMU VELO AIN AR TRES W  DIS CAZ7
 BAR2 EZ EP       1618 38.61                             171   -0.2510 22.7 189 
 BAR2 EZ ES   1   1618 53.87                             171   -0.52 7 22.7 189 
 BAR2 EZ I        1618 54.79        95.5 0.20            168           22.7 189 
 BRR  HZ EP     D 1618 40.50                             153    0.1510 70.8 299 
 BRR  HN ES       1618 57.55                             153    0.5210 70.8 299 
 BRR  HZ I        1619  1.46        82.8 0.14            151           70.8 299 
 PAM  SZ EP     C 1618 41.39                             151   -0.0910 78.2  40 
 PAM  SE ES       1618 58.75                             151   -0.3010 78.2  40 
 PAM  SZ I        1618 59.37        67.4 0.20            151           78.2  40 
 RUS  HZ EP       1618 42.59                             144   -0.3210  100 176 
 RUS  HN ES       1619  1.52                             144   -0.0810  100 176 
 RUS  HZ I        1619  2.87        44.7 0.44            141            100 176 
 PTB  HZ EP       1618 45.39                             133   -0.66 9  147 259 
 PTB  HN ES       1619  6.51                             133   -0.67 9  147 259 
 PTB  HZ I        1619 11.54        59.8 0.48            130            147 259 
 TAM  HZ EP       1618 47.12                             131    0.25 9  156 105 
 TAM  HZ I        1619  8.76        31.7 0.36            129            156 105 
 TAM  HE ES       1619  8.77                             131    0.12 9  156 105 
 OCA  HZ EP   1   1618 47.67                             130    0.18 7  161 353 
 OCA  HE ES       1619 10.67                             130    0.91 9  161 353 
 OCA  HZ I        1619 17.09        68.5 0.24            128            161 353 
 SPBC HZ EP       1618 47.58                             130    0.02 9  162 219 
 SPBC HE ES       1619 10.31                             130    0.44 9  162 219 
 SPBC HZ I        1619 14.46        89.6 0.20            127            162 219 
 ZAR  HZ EP       1618 51.67                             123    0.16 9  204 292 
 ZAR  HN ES       1619 16.60                             123   -0.31 9  204 292 
 ZAR  HZ I        1619 21.96        62.8 0.36            121            204 292 
 NOR  HZ EP       1618 54.69                             119   -0.04 8  234 234 
 NOR  HN ES       1619 23.18                             119    0.54 8  234 234 
 NOR  HZ I        1619 28.27        31.5 0.18            117            234 234 
 SML  HZ EP   1   1618 54.84                             118   -0.90 6  244 335 
 SML  HE ES   1   1619 24.54                             118    0.11 6  244 335 
 SML  HZ I        1619 25.51        65.9 0.28            116            244 335 
 CHI  HZ EP       1618 56.76                             118    0.05 8  248 195 
 CHI  HE ES       1619 26.17                             118    0.01 8  248 195 
 CHI  HZ I        1619 31.49        41.2 0.30            115            248 195 
 ROSC BN ES   4   1619 28.17                             117    1.28 0  252 211 
 ROSC BZ I        1619 33.35        96.4 0.45            115            252 211 
 HEL  HZ EP   1   1618 59.26                             115    0.06 6  271 256 
 HEL  HN ES   1   1619 31.14                             115    0.55 6  271 256 
 HEL  HZ I        1619 36.69        30.6 0.28            113            271 256 
 URE  HZ EP   1   1618 59.33                             114   -0.76 6  283 292 
 URE  HN ES   4   1619 29.17                             114   -3.01 0  283 292 
 URE  HZ I        1619 40.85        40.6 0.20            112            283 292 
 GUY2CHZ EP       1619  2.78                             113    0.20 7  300 235 
 GUY2CHN ES   4   1619 40.19                             113    3.59 0  300 235 
 GUY2CHZ I        1619 45.05        32.8 0.58                           300 235 
 RREF HZ EP   4   1619  6.31                             111    1.21 0  321 229 
 RREF HE ES   4   1619 44.79                             111    3.69 0  321 229 
 RREF HZ I        1619 45.95        29.9 0.22            109            321 229 
 CBOC HZ EP       1619  6.20                             110    0.33 7  333 252 
 CBOC HE ES   1   1619 43.08                             110    0.61 5  333 252 
 CBOC HZ I        1619 55.11         9.3 0.46            108            333 252 
 DBB  SZ EP       1619  5.92                             110   -0.53 7  339 274 
 DBB  SZ ES   1   1619 42.80                             110   -0.70 5  339 274 
 TOL  SZ EP       1619  8.00                             110    0.79 7  343 225 
 TOL  SN ES   4   1619 46.31                             110    1.46 0  343 225 
 TOL  SZ I        1619 54.80        23.6 0.52            108            343 225 
 MON  HZ EP   4   1619  5.81                             109   -2.21 0  353 309 
 MON  HN ES   4   1619 44.36                             109   -1.94 0  353 309 
 MON  HZ I        1619 46.38        15.7 0.36            107            353 309 
 ANIL HZ EP   4   1619  9.46                             109    0.71 0  356 224 
 ANIL HN ES   4   1619 49.06                             109    1.47 0  356 224 
 ANIL HZ I        1619 58.74         9.4 0.30            107            356 224 
 ORTC HZ EP       1619 12.88                             107    0.02 6  395 216 
 ORTC HN ES   4   1619 56.32                             107    1.42 0  395 216 
 ORTC HZ I        1620  1.00        15.1 0.34            105            395 216 
 PAL  HZ EP       1619 14.11                             106    0.02 6  405 239 
                                                                                
