 2010  730 1155 46.3 L   6.778 -73.031144.9  RSN  9 0.3 2.1LRSN                1
 GAP=172        0.65       4.3     7.2  6.7 -0.1308E+02  0.1143E+02  0.1199E+01E
 Epicentro: CEPITA - SANTANDER                                                 3
 ACTION:UPD 10-12-01 15:21 OP:pat  STATUS:               ID:20100730115546 L   I
 2010-07-30-1153-52S.COL___123                                                 6
 STAT SP IPHASW D HRMM SECON CODA AMPLIT PERI AZIMU VELO AIN AR TRES W  DIS CAZ7
 BAR2 SZ IP     D 1156  5.89                             169     0.010   27 219 
 BAR2 SZ ES   2   1156 21.10                             169    -0.1 5   27 219 
 BAR2 SZ I        1156 23.77        29.5 0.30                            27 219 
 GIR2 SZ EP   1   1156  5.93                             165    -0.1 7   38 332 
 BRR  HZ EP   1   1156  7.64                             148    -0.5 7   84 296 
 BRR  HE ES   2   1156 25.02                             148    -0.1 5   84 296 
 BRR  HZ I        1156 29.37        20.3 0.16                            84 296 
 RUS  HZ EP   1   1156  9.96                             144     0.2 7   98 183 
 RUS  HN ES   2   1156 28.49                             144     0.4 5   98 183 
 RUS  HZ I        1156 29.34        12.1 0.34                            98 183 
 GUE  SZ EP   1   1156 10.89                             139    -0.1 7  117   6 
 GRA  SZ EP   1   1156 11.58                             137     0.2 7  125  12 
 GRA  SZ ES   2   1156 31.19                             137     0.2 5  125  12 
 GRA  SZ I        1156 32.90        23.6 0.37                           125  12 
 HEL  HZ EP   1   1156 28.42                             113     0.6 6  284 257 
 HEL  HZ I        1157  4.87         6.4 0.23                           284 257 
 RREF HZ EP   1   1156 33.72                             110     0.4 5  330 231 
 RREF HN ES   2   1157 10.29                             110     0.2 3  330 231 
 RREF HZ I        1157 15.82         8.6 0.21                           330 231 
 PRA  HZ EP   1   1156 39.51                             106    -0.8 4  396 211 
 PRA  HN ES   2   1157 21.71                             106    -0.7 3  396 211 
 PRA  HZ I        1157 26.45         5.9 0.80                           396 211 
                                                                                
