 2014 1030 1539 50.9 L   6.800 -73.212136.8  RSN  5 0.2 1.6LRSN                1
 GAP=145        0.47       2.9     2.8  4.0 -0.3298E+01  0.4573E+01 -0.1797E+01E
 Epicentro: ZAPATOCA - SANTANDER                                               3
 ACTION:UPD 14-11-29 23:58 OP:nd   STATUS:               ID:20141030153950 L   I
 OLDACT:DUP 14-11-25 16:35 OP:cam  STATUS:               ID:20141030153748d    3
 OLDACT:REG 14-11-25 16:15 OP:cam  STATUS:               ID:20141030153747     3
 2014-10-30-1537-47M.COL___277                                                 6
 STAT SP IPHASW D HRMM SECON CODA AMPLIT PERI AZIMU VELO AIN AR TRES W  DIS CAZ7
 BAR2 SZ EP       1540  9.61                             170    0.1610 23.2 172 
 BAR2 SZ ES       1540 24.04                             170    0.1110 23.2 172 
 BAR2 SZ I        1540 25.36        10.5 0.20            172           23.2 172 
 PAM  SZ EP       1540 12.50                             147    0.0210 82.3  43 
 PAM  SN ES       1540 29.25                             147   -0.0710 82.3  43 
 PAM  SZ I        1540 31.75         6.9 0.56            148           82.3  43 
 RUS  HN ES       1540 31.56                             142   -0.1810  101 172 
 PTB  HZ EP       1540 16.20                             131   -0.28 9  141 258 
 PTB  HN ES       1540 36.48                             131    0.04 9  141 258 
 SPBC HZ EP       1540 18.50                             128    0.21 9  159 217 
                                                                                
