 2010  830 1743 36.6 L   6.792 -73.105142.6  RSN  4 0.2 1.9LRSN                1
 GAP=163        0.62       7.0    12.4  8.0  0.6027E+02 -0.4400E+02 -0.2522E+02E
 Epicentro: LOS SANTOS - SANTANDER                                             3
 ACTION:UP  10-09-07 10:59 OP:vdl  STATUS:               ID:20100830174336 L   I
 2010-08-30-1740-40S.COL___120                                                 6
 STAT SP IPHASW D HRMM SECON CODA AMPLIT PERI AZIMU VELO SNR AR TRES W  DIS CAZ7
 BAR2 SZ EP   1   1743 55.61                             170    -0.2 7   24 202 
 BAR2 SZ ES   1   1744 10.57                             170    -0.3 7   24 202 
 BAR2 SZ I        1744 14.02        14.9 0.50                            24 202 
 BRR  HZ IP     C 1743 57.54                             150    -0.110   76 298 
 BRR  HE ES   1   1744 14.35                             150     0.2 7   76 298 
 BRR  HZ I        1744 15.25        24.3 0.61                            76 298 
 RUS  HZ EP   1   1744  0.04                             143     0.1 7   99 179 
 RUS  HE ES   1   1744 18.41                             143     0.2 7   99 179 
 RUS  HZ I        1744 19.49        10.7 0.22                            99 179 
 GRA  SZ EP   2   1744  1.96                             136     0.4 5  125  15 
 GRA  SZ I        1744 22.41        13.2 0.24                           125  15 
                                                                                
