 2017  630 1145 15.0 L   6.819 -73.152145.9  RSN 11 0.4 2.2LRSN                1
 GAP=168        0.83       3.6     2.7  4.7  0.9083E+00  0.1322E+01  0.3952E+01E
 Epicentro: LOS SANTOS - SANTANDER                                             3
 ACTION:UPD 17-09-14 16:56 OP:jn   STATUS:               ID:20170630114515 L   I
 OLDACT:REG 17-06-30 20:25 OP:osc  STATUS:               ID:20170630113744     3
 2017-06-30-1138-00M.COL___356                                                 6
 STAT SP IPHASW D HRMM SECON CODA AMPLIT PERI AZIMU VELO AIN AR TRES W  DIS CAZ7
 BAR2 EZ EP     D 1145 34.50                             170   -0.2110 25.3 188 
 BAR2 EZ ES       1145 49.81                             170   -0.2610 25.3 188 
 BAR2 EZ I        1145 50.60        36.0 0.36            167           25.3 188 
 BRR  HZ EP       1145 36.32                             153    0.2310 69.5 297 
 BRR  HE ES       1145 52.93                             153    0.4010 69.5 297 
 BRR  HZ I        1145 56.67        24.3 0.31            150           69.5 297 
 PTB  HZ EP       1145 41.18                             132   -0.79 9  147 258 
 PTB  HE ES       1146  3.02                             132    0.02 9  147 258 
 PTB  HZ I        1146  4.20        10.8 0.14            130            147 258 
 TAM  HZ EP       1145 42.90                             130    0.07 9  156 106 
 TAM  HE ES       1146  4.74                             130    0.22 9  156 106 
 SPBC HZ EP       1145 43.66                             129    0.02 9  164 218 
 SPBC HE ES       1146  5.64                             129   -0.33 9  164 218 
 SPBC HZ I        1146 10.00        18.4 0.03            128            164 218 
 ZAR  HZ EP       1145 47.25                             123   -0.07 9  203 292 
 ZAR  HE ES       1146 12.49                             123   -0.03 9  203 292 
 ZAR  HZ I        1146 17.68        16.0 0.34            122            203 292 
 NOR  HZ EP       1145 50.63                             118   -0.20 8  235 234 
 NOR  HE ES       1146 19.30                             118    0.54 8  235 234 
 NOR  HZ I        1146 27.82         8.4 0.42            118            235 234 
 CHI  HZ EP       1145 53.13                             117    0.20 8  251 195 
 CHI  HE ES       1146 22.28                             117   -0.22 8  251 195 
 CHI  HZ I        1146 27.10         8.6 0.42            117            251 195 
 URE  HZ EP   2   1145 55.19                             114   -0.74 4  282 292 
 URE  HN ES   4   1146 25.24                             114   -2.60 0  282 292 
 URE  HZ I        1146 37.18         9.7 0.18            113            282 292 
 GUY2CHZ EP       1145 59.51                             112    0.80 7  302 234 
 GUY2CHE ES   4   1146 36.89                             112    4.11 0  302 234 
 GUY2CHZ I        1146 40.88         7.5 0.60                           302 234 
 ORTC HZ EP       1146  9.34                             106    0.25 6  397 216 
 ORTC HE ES   4   1146 53.62                             106    2.35 0  397 216 
 ORTC HZ I        1146 55.92         5.1 0.22            106            397 216 
                                                                                
