 2011  630 1338 49.2 L   6.829 -73.142140.6  RSN 11 0.4 2.1LRSN                1
 GAP=136        0.74       3.4     5.0  5.2 -0.8471E+01  0.4509E+01  0.2622E+01E
 Epicentro: LOS SANTOS - SANTANDER                                             3
 ACTION:UP  11-07-14 19:09 OP:ep   STATUS:               ID:20110630133849 L   I
 2011-06-30-1337-38S.COL___140                                                 6
 STAT SP IPHASW D HRMM SECON CODA AMPLIT PERI AZIMU VELO SNR AR TRES W  DIS CAZ7
 BTL  SZ EP       1339  8.42                             173     0.310   17 305 
 BTL  SZ ES   2   1339 23.27                             173     0.4 5   17 305 
 BAR2 SZ EP       1339  7.68                             169    -0.610   27 190 
 BAR2 SZ ES   2   1339 22.67                             169    -0.5 5   27 190 
 BAR2 SZ I        1339 26.83        24.7 0.62                            27 190 
 BRR  HZ EP       1339  9.75                             152     0.010   70 296 
 BRR  HN ES   1   1339 25.85                             152     0.1 7   70 296 
 BRR  HZ I        1339 29.80        20.6 0.23                            70 296 
 PAM  SZ EP       1339 10.84                             151     0.110   75  41 
 PAM  SN ES   2   1339 27.13                             151    -0.4 5   75  41 
 RUS  HZ EP   2   1339 12.60                             142    -0.1 5  104 176 
 RUS  HN ES   1   1339 31.23                             142     0.2 7  104 176 
 RUS  HZ I        1339 33.53        13.1 0.30                           104 176 
 BRI  SZ EP       1339 12.37                             141     0.010  105  21 
 BRI  SZ ES   1   1339 30.79                             141     0.3 7  105  21 
 GRA  SZ EP       1339 13.65                             137    -0.110  123  18 
 GRA  SZ ES   1   1339 32.78                             137    -0.1 7  123  18 
 OCA  SZ ES   3   1339 39.80                             129     1.4 2  157 353 
 OCA  SZ I        1339 42.22        20.9 0.27                           157 353 
 NOR  SZ EP       1339 24.97                             117     0.1 8  237 234 
 NOR  SN ES   1   1339 52.41                             117    -0.3 6  237 234 
 CHI  HZ EP       1339 27.19                             116     0.2 8  252 195 
 CHI  HN ES   2   1339 57.56                             116     1.1 4  252 195 
 CHI  HZ I        1340  0.45         5.3 0.38                           252 195 
 HEL  HZ EP       1339 29.31                             114     0.0 8  273 255 
 HEL  HZ I        1340  6.93        21.8 0.31                           273 255 
                                                                                
