 2013  330 1026 58.7 L   6.807 -73.147145.1  RSN 15 0.5 3.1LRSN 3.3WRSN        1
 SPEC AVERAGE  MO 14.1 ST 24.5 OM  2.5 f0 5.11 R0.4045 AL 2.14 WI 37.9 MW  3.3 3
 SPEC SD       MO  0.3 ST 33.4 OM  0.5 f0 1.69 R0.1819 AL      WI      MW  0.2 3
 GAP= 71        1.18       3.7     3.7  6.2  0.9866E+00  0.4258E+01  0.4534E+01E
 Epicentro: LOS SANTOS - SANTANDER                                             3
 SPEC ROSCBH Z MO 14.1 ST0.837 OM  2.2 f0 1.74 R0.8448 AL 2.37 WI 29.0 MW  3.3 3
 SPEC ROSCBH Z T1028 7 K 0.000 GD  291 VS 4.20 DE 3.20 Q0300.0 QA 0.60 VS 4.20 3
 SPEC ZAR HH E MO 14.6 ST107.2 OM  2.5 f0 7.33 R0.2483 AL 2.49 WI 44.4 MW  3.7 3
 SPEC ZAR HH E T102755 K 0.050 GD  250 VS 5.20 DE 3.20 Q0750.0 QA 1.50 VS 5.20 3
 SPEC TAM HH E MO 13.8 ST  3.8 OM  1.8 f0 4.34 R0.4194 AL 1.51 WI 20.9 MW  3.1 3
 SPEC TAM HH E T102747 K 0.050 GD  212 VS 5.20 DE 3.20 Q0750.0 QA 1.50 VS 5.20 3
 SPEC PTB HH N MO 14.2 ST 13.5 OM  2.2 f0 4.93 R0.3692 AL 0.75 WI 53.2 MW  3.4 3
 SPEC PTB HH N T102744 K 0.050 GD  207 VS 5.20 DE 3.20 Q0750.0 QA 1.50 VS 5.20 3
 SPEC RUS HH N MO 13.8 ST 10.8 OM  1.9 f0 6.07 R0.2998 AL 2.50 WI 27.7 MW  3.2 3
 SPEC RUS HH N T102740 K 0.050 GD  176 VS 5.20 DE 3.20 Q0750.0 QA 1.50 VS 5.20 3
 SPEC PAM SH N MO 13.9 ST 16.1 OM  2.0 f0 6.58 R0.2766 AL 4.09 WI 46.7 MW  3.2 3
 SPEC PAM SH N T102736 K 0.050 GD  164 VS 5.20 DE 3.20 Q0750.0 QA 1.50 VS 5.20 3
 SPEC HEL HH N MO 13.9 ST  2.9 OM  1.7 f0 3.78 R0.4815 AL 1.53 WI 49.9 MW  3.2 3
 SPEC HEL HH N T102811 K 0.050 GD  308 VS 5.20 DE 3.20 Q0750.0 QA 1.50 VS 5.20 3
 SPEC BRR HH N MO 14.4 ST 40.6 OM  2.5 f0 6.14 R0.2964 AL 1.91 WI 31.5 MW  3.5 3
 SPEC BRR HH N T102736 K 0.050 GD  161 VS 5.20 DE 3.20 Q0750.0 QA 1.50 VS 5.20 3
 ACTION:UPD 13-04-09 14:05 OP:ep   STATUS:               ID:20130330102658 L   I
 2013-03-30-1020-00M.COL___245                                                 6
 STAT SP IPHASW D HRMM SECON CODA AMPLIT PERI AZIMU VELO AIN AR TRES W  DIS CAZ7
 BAR2 SZ IP       1027 18.17                             170   -0.1310 24.1 189 
 BAR2 SZ ES       1027 33.16                             170   -0.3910 24.1 189 
 BAR2 SZ I        1027 34.56       213.7 0.18            168           24.1 189 
 GIR2 SZ EP       1027 18.32                             167    0.0110 30.5 350 
 BRR  HZ IP     C 1027 19.97                             153    0.1910 70.7 298 
 BRR  HE ES       1027 37.18                             153    0.9910 70.7 298 
 BRR  HE I        1027 40.66       292.4 0.18            152           70.7 298 
 PAM  SZ IP     C 1027 21.11                             151    0.2610 76.9  40 
 PAM  SN ES       1027 38.07                             151   -0.0310 76.9  40 
 PAM  SN I        1027 40.12       204.1 0.50            155           76.9  40 
 RUS  HZ EP       1027 22.16                             143   -0.3210  101 176 
 RUS  HN ES   1   1027 40.29                             143   -0.70 7  101 176 
 PTB  HZ EP       1027 24.99                             132   -0.66 9  148 259 
 PTB  HN ES       1027 45.95                             132   -0.68 9  148 259 
 PTB  HN I        1027 51.21       165.8 0.28            132            148 259 
 TAM  HZ EP       1027 26.58                             130    0.18 9  155 105 
 TAM  HE ES       1027 48.20                             130    0.23 9  155 105 
 TAM  HE I        1027 49.51       127.6 0.46            134            155 105 
 OCA  HZ EP   2   1027 27.34                             130    0.42 5  159 353 
 OCA  HN ES       1027 48.68                             130   -0.22 9  159 353 
 OCA  HN I        1027 50.95       369.3 0.24            132            159 353 
 ZAR  HZ EP       1027 31.26                             122    0.17 9  204 292 
 ZAR  HE ES       1027 56.38                             122    0.06 9  204 292 
 ZAR  HE I        1028  2.28       243.5 0.22            123            204 292 
 SML  HZ EP       1027 34.61                             117   -0.63 8  243 335 
 SML  HN ES   4   1028  1.07                             117   -2.64 0  243 335 
 SML  HZ I        1028  5.04        49.5 0.26            119            243 335 
 ROSC BZ EP   1   1027 38.01                             116    1.13 6  253 211 
 ROSC BN ES   1   1028  8.19                             116    1.56 6  253 211 
 ROSC BZ I        1028 14.87        51.4 0.33            117            253 211 
 HEL  HZ EP       1027 39.44                             115    0.52 8  272 256 
 VIL  SZ EP       1027 41.67                             112   -0.54 7  304 192 
 VIL  SN ES       1028 16.30                             112    0.19 7  304 192 
 VIL  SN I        1028 21.95       120.8 0.56            113            304 192 
 RREF HZ EP   4   1027 45.04                             111    0.15 0  322 229 
 COD  HZ EP   4   1027 44.81                             109   -2.19 0  347 355 
 COD  HN ES   4   1028 23.24                             109   -1.39 0  347 355 
 PRA  HZ EP   1   1027 51.77                             106   -0.53 4  393 209 
 SJC  HZ EP   4   1027 52.57                             106   -1.62 0  408 327 
 SJC  HN ES   4   1028 32.99                             106   -4.45 0  408 327 
 SJC  HZ I        1028 37.48        10.2 0.23            107            408 327 
                                                                                
