 2017  730 1721 21.1 L   6.807 -73.143145.9  RSN 24 0.6 2.5LRSN                1
 GAP= 73        0.91       2.9     2.8  4.6  0.4294E+00  0.2154E+01  0.3196E+01E
 Epicentro: LOS SANTOS - SANTANDER                                             3
 ACTION:UPD 17-08-30 15:38 OP:rebc STATUS:               ID:20170730172121 L   I
 OLDACT:UP  17-07-31 01:11 OP:and  STATUS:               ID:20170730171738     3
 OLDACT:UP  17-07-31 01:11 OP:and  STATUS:               ID:20170730171738     3
 OLDACT:UP  17-07-31 01:09 OP:and  STATUS:               ID:20170730171738     3
 OLDACT:UP  17-07-31 01:08 OP:and  STATUS:               ID:20170730171738     3
 OLDACT:UP  17-07-31 01:08 OP:and  STATUS:               ID:20170730171738     3
 OLDACT:UP  17-07-31 01:06 OP:and  STATUS:               ID:20170730171738     3
 OLDACT:UP  17-07-31 01:06 OP:and  STATUS:               ID:20170730171738     3
 OLDACT:REG 17-07-30 21:30 OP:and  STATUS:               ID:20170730171738     3
 2017-07-30-1718-00M.COL___392                                                 6
 STAT SP IPHASW D HRMM SECON CODA AMPLIT PERI AZIMU VELO AIN AR TRES W  DIS CAZ7
 BAR2 EZ IP     C 1721 40.66                             170   -0.1210 24.1 190 
 BAR2 EZ ES       1721 55.68                             170   -0.4310 24.1 190 
 BAR2 EZ I        1721 57.80        54.4 0.32            168           24.1 190 
 BRR  HZ IP     C 1721 42.48                             153    0.2110 71.1 298 
 BRR  HN ES       1721 59.69                             153    0.9210 71.1 298 
 BRR  HZ I        1722  2.92        50.5 0.28            145           71.1 298 
 PAM  EZ EP       1721 43.47                             151    0.1710 76.7  40 
 PAM  EN ES       1722  0.28                             151   -0.3310 76.7  40 
 PAM  EZ I        1722  2.89       101.9 0.50            149           76.7  40 
 RUS  HZ EP       1721 44.64                             144   -0.2910  101 176 
 RUS  HN ES       1722  3.38                             144   -0.1310  101 176 
 RUS  HZ I        1722  4.59        47.9 0.34            141            101 176 
 PTB  HZ EP       1721 47.46                             132   -0.67 9  148 259 
 PTB  HN ES   2   1722  8.35                             132   -0.85 5  148 259 
 PTB  HZ I        1722 14.08        21.9 0.16            126            148 259 
 TAM  HZ IP     C 1721 49.07                             131    0.27 9  155 105 
 SPBC HZ EP       1721 49.41                             129   -0.29 9  164 219 
 SPBC HN ES   2   1722 11.30                             129   -0.68 5  164 219 
 SPBC HZ I        1722 14.29        65.1 0.36            124            164 219 
 YPLC HZ IP     C 1721 51.11                             127    0.14 9  177 152 
 YPLC HN ES       1722 14.91                             127    0.65 9  177 152 
 YPLC HZ I        1722 16.04        49.3 0.26            124            177 152 
 ZAR  HZ EP   2   1721 54.14                             122    0.57 4  204 292 
 ZAR  HN ES       1722 18.68                             122   -0.20 9  204 292 
 ZAR  HZ I        1722 24.38        27.0 0.34            117            204 292 
 TABC EZ IP   3 C 1721 58.29                             119    1.33 2  231 211 
 TABC EZ ES   2   1722 25.16                             119    0.25 4  231 211 
 TABC EZ I        1722 38.64        17.9 0.62            115            231 211 
 NOR  HZ EP       1721 56.85                             118   -0.07 8  235 234 
 NOR  HN ES       1722 25.78                             118    0.93 8  235 234 
 NOR  HZ I        1722 29.38        20.3 0.26            114            235 234 
 CHI  HZ EP     C 1721 58.99                             117    0.08 8  249 195 
 CHI  HN ES       1722 28.09                             117   -0.29 8  249 195 
 CHI  HZ I        1722 31.73        18.9 0.40            114            249 195 
 ROSC BZ EP   3   1722  1.47                             117    2.14 2  254 211 
 ROSC BN ES   4   1722 31.54                             117    2.41 0  254 211 
 ROSC BZ I        1722 32.92        27.5 0.35            113            254 211 
 HEL  HZ EP   3   1722  2.40                             115    1.02 2  272 256 
 HEL  HN ES       1722 32.35                             115   -0.44 8  272 256 
 HEL  HZ I        1722 38.12         9.4 0.36            111            272 256 
 URE  HZ EP   3   1722  1.26                             114   -0.93 2  284 292 
 URE  HZ I        1722 43.74        18.5 0.26            109            284 292 
 GUY2CHZ EP   9   1722  5.97                             112    1.17 0  302 235 
 GUY2CHN ES       1722 40.66                             112    0.62 7  302 235 
 GUY2CHZ I        1722 46.67        15.0 0.36                           302 235 
 VIL  EZ EP   2   1722  4.22                             112   -0.41 4  304 192 
 VIL  EE ES   2   1722 37.84                             112   -0.73 4  304 192 
 VIL  EZ I        1722 41.38        23.1 0.34            109            304 192 
 PTGC HZ EP   9   1722  3.89                             111   -1.16 0  309 159 
 PTGC HN ES       1722 37.48                             111   -0.67 7  309 159 
 PTGC HZ I        1722 42.13        27.1 0.32            109            309 159 
 LL6C HZ EP   4   1722  5.21                             110   -1.53 0  324 358 
 CBOC HZ EP   9   1722  9.14                             110    1.05 0  334 252 
 CBOC HN ES       1722 45.75                             110   -0.03 7  334 252 
 CBOC HZ I        1722 50.87         3.9 0.70            106            334 252 
 DBB  EZ EP   2   1722  8.91                             109    0.29 3  340 274 
 DBB  EN ES   3   1722 43.52                             109   -2.15 2  340 274 
 DBB  EZ I        1722 45.86         5.9 0.14            106            340 274 
 PRA  HZ EP   2   1722 14.64                             106   -0.09 3  393 210 
 PRA  HN ES   2   1722 56.83                             106    0.28 3  393 210 
 PRA  HZ I        1723  2.42         9.2 0.18            104            393 210 
 ORTC HZ EP   2   1722 15.74                             106    0.61 3  396 216 
 ORTC HN ES   3   1722 58.65                             106    1.39 1  396 216 
 ORTC HZ I        1723  1.89        10.1 0.52            103            396 216 
 PAL  HZ EP   1   1722 16.35                             106   -0.00 4  406 239 
 PAL  HE ES   2   1723  0.40                             106    0.97 3  406 239 
 PAL  HZ I        1723  2.25         5.9 0.22            103            406 239 
 SJC  HZ EP   3   1722 14.87                             106   -1.76 1  409 327 
 SJC  HN ES   4   1722 55.84                             106   -4.08 0  409 327 
 SJC  HZ I        1723  0.34         6.1 0.72            103            409 327 
                                                                                
