 2011 1130 1355 22.9 L   7.431 -73.307119.0  RSN  4 0.2 2.2LRSN                1
 GAP=128        0.60       2.7     4.4  5.8 -0.4906E+00 -0.3739E+01 -0.1266E+00E
 Epicentro: EL PLAYON - SANTANDER                                              3
 ACTION:UPD 12-07-13 16:13 OP:ep   STATUS:               ID:20111130135522 L   I
 2011-11-30-1351-22S.COL___161                                                 6
 STAT SP IPHASW D HRMM SECON CODA AMPLIT PERI AZIMU VELO AIN AR TRES W  DIS CAZ7
 BRR  HZ EP       1355 40.26                             152   -0.0710 57.3 231 
 BRR  HN ES       1355 54.19                             152    0.2410 57.3 231 
 BRR  HZ I        1355 55.07        65.7 0.12                          57.3 231 
 PAM  SZ EP       1355 42.05                             149    0.3810 67.9  99 
 PAM  SN ES   1   1355 56.31                             149   -0.03 7 67.9  99 
 OCA  SZ EP   1   1355 42.40                             141   -0.31 7 89.3 359 
 OCA  SZ ES       1355 58.12                             141   -0.0810 89.3 359 
 OCA  SZ I        1356  0.28        17.7 0.16                          89.3 359 
 BAR2 SZ EP       1355 43.20                             139    0.0210 93.8 172 
 BAR2 SZ ES       1355 58.73                             139   -0.3010 93.8 172 
 BAR2 SZ I        1356  0.25        29.8 0.25                          93.8 172 
                                                                                
