 2012 1230 1657 16.3 L   6.769 -73.164155.6  RSN  4 0.3 1.6LRSN                1
 GAP=233        0.61       6.3     5.9  6.0  0.1620E+02  0.2481E+01 -0.2623E+01E
 Epicentro: LOS SANTOS - SANTANDER                                             3
 ACTION:UPD 13-01-04 14:31 OP:ep   STATUS:               ID:20121230165716 L   I
 2012-12-30-1650-00M.COL___242                                                 6
 STAT SP IPHASW D HRMM SECON CODA AMPLIT PERI AZIMU VELO AIN AR TRES W  DIS CAZ7
 BAR2 SZ EP       1657 36.77                             172   -0.2310 19.7 186 
 BAR2 SZ ES   1   1657 52.79                             172   -0.39 7 19.7 186 
 BAR2 SZ I        1657 55.05         7.7 0.23                          19.7 186 
 BRR  HZ EP       1657 38.78                             154    0.3110 71.2 302 
 BRR  HZ I        1657 40.16         7.6 0.29                          71.2 302 
 BRR  HE ES   1   1657 55.98                             154    0.18 7 71.2 302 
 RUS  HZ EP   1   1657 40.73                             147   -0.03 7 97.3 175 
 RUS  HE ES   1   1658  0.29                             147    0.41 7 97.3 175 
 RUS  HE I        1658  2.36         4.0 0.24                          97.3 175 
 PTB  HZ EP       1657 43.69                             135   -0.12 9  145 260 
 PTB  HN ES   1   1658  5.18                             135   -0.13 7  145 260 
 PTB  HZ I        1658 10.67         5.7 0.28                           145 260 
                                                                                
