 2016  130 1828  7.8 L   6.886 -73.388122.7  RSN  5 0.3 1.4LRSN                1
 GAP=164        0.73       3.8     3.5  6.1 -0.5833E+01  0.6708E+01 -0.1792E+01E
 Epicentro: SAN VICENTE DE CHUCURI - SANTANDER                                 3
 ACTION:UPD 16-03-09 23:29 OP:cam  STATUS:               ID:20160130182807 L   I
 OLDACT:REG 16-01-30 22:46 OP:ak   STATUS:               ID:20160130182000     3
 2016-01-30-1819-59S.COL___228                                                 6
 STAT SP IPHASW D HRMM SECON CODA AMPLIT PERI AZIMU VELO AIN AR TRES W  DIS CAZ7
 BAR2 EZ EP       1828 25.51                             161    0.3010 39.6 145 
 BAR2 EZ ES       1828 38.95                             161    0.1810 39.6 145 
 PAM  EZ EP       1828 28.84                             141    0.2010 91.1  57 
 PAM  EN ES       1828 44.73                             141   -0.1410 91.1  57 
 PAM  EZ I        1828 47.34         3.9 0.40            147           91.1  57 
 RUS  HZ EP       1828 30.13                             134   -0.4710  115 163 
 RUS  HN ES       1828 48.11                             134   -0.2410  115 163 
 RUS  HZ I        1828 49.22         2.1 0.20            138            115 163 
 PTB  HZ EP       1828 30.54                             131   -0.2410  124 252 
 PTB  HN ES       1828 48.48                             131   -0.2010  124 252 
 PTB  HZ I        1828 52.55         4.6 0.38            133            124 252 
 SPBC HZ EP       1828 34.29                             125    0.34 9  156 209 
 SPBC HN ES       1828 54.61                             125    0.30 9  156 209 
 SPBC HZ I        1829  1.36         5.9 0.40            127            156 209 
                                                                                
