 2017  730 1150 23.9 L   6.777 -73.112141.8  RSN 14 0.4 1.8LRSN                1
 GAP= 97        0.87       3.3     3.0  4.4 -0.1586E+01  0.1741E+01  0.2240E+01E
 Epicentro: LOS SANTOS - SANTANDER                                             3
 ACTION:UPD 17-08-30 15:38 OP:rebc STATUS:               ID:20170730115025dL   I
 OLDACT:UP  17-07-30 22:35 OP:and  STATUS:               ID:20170730114741d    3
 OLDACT:UP  17-07-30 22:34 OP:and  STATUS:               ID:20170730114741d    3
 OLDACT:UP  17-07-30 22:33 OP:and  STATUS:               ID:20170730114741d    3
 OLDACT:UP  17-07-30 22:33 OP:and  STATUS:               ID:20170730114741d    3
 OLDACT:UP  17-07-30 22:30 OP:and  STATUS:               ID:20170730114741d    3
 OLDACT:DUP 17-07-30 22:29 OP:and  STATUS:               ID:20170730114741d    3
 OLDACT:UP  17-07-30 22:27 OP:and  STATUS:               ID:20170730114740     3
 OLDACT:UP  17-07-30 22:25 OP:and  STATUS:               ID:20170730114740     3
 OLDACT:UP  17-07-30 22:24 OP:and  STATUS:               ID:20170730114740     3
 OLDACT:UP  17-07-30 22:23 OP:and  STATUS:               ID:20170730114740     3
 OLDACT:UP  17-07-30 22:23 OP:and  STATUS:               ID:20170730114740     3
 OLDACT:REG 17-07-30 20:56 OP:and  STATUS:               ID:20170730114740     3
 2017-07-30-1148-00M.COL___380                                                 6
 STAT SP IPHASW D HRMM SECON CODA AMPLIT PERI AZIMU VELO AIN AR TRES W  DIS CAZ7
 BAR2 EZ IP     C 1150 42.82                             171   -0.1610 21.8 201 
 BAR2 EZ ES       1150 57.55                             171   -0.3510 21.8 201 
 BAR2 EZ I        1150 59.19        13.4 0.22            170           21.8 201 
 BRR  HZ IP     C 1150 44.72                             150   -0.1310 75.7 299 
 BRR  HN ES       1151  1.88                             150    0.6610 75.7 299 
 BRR  HZ I        1151  6.46        10.1 0.16            147           75.7 299 
 PAM  EZ EP       1150 45.61                             150   -0.0310 77.1  36 
 PAM  EN ES       1151  2.64                             150    0.0110 77.1  36 
 PAM  EZ I        1151  5.31        10.9 0.38            145           77.1  36 
 RUS  HZ EP       1150 46.82                             144   -0.2010 97.8 178 
 RUS  HN ES       1151  5.19                             144    0.1010 97.8 178 
 RUS  HZ I        1151  6.22         9.3 0.24            140           97.8 178 
 PTB  HZ EP   9   1150 49.62                             130   -1.18 0  151 260 
 PTB  HN ES       1151 10.46                             131   -0.17 9  151 260 
 PTB  HZ I        1151 12.51         4.5 0.06            126            151 260 
 TAM  HZ EP       1150 51.18                             130    0.35 9  151 104 
 SPBC HZ EP       1150 51.76                             128   -0.34 9  164 221 
 SPBC HN ES       1151 14.09                             128   -0.03 9  164 221 
 SPBC HZ I        1151 15.39        10.4 0.10            124            164 221 
 YPLC HZ EP   2   1150 53.77                             126    0.80 4  173 152 
 YPLC HZ I        1151 17.91         5.5 0.28            122            173 152 
 ZAR  HZ EP       1150 55.89                             121   -0.62 8  208 292 
 ZAR  HN ES       1151 21.88                             121   -0.10 8  208 292 
 ZAR  HZ I        1151 27.16         8.7 0.30            117            208 292 
 NOR  HZ EP     C 1150 59.35                             117   -0.18 8  236 235 
 NOR  HE ES       1151 27.02                             117   -0.34 8  236 235 
 NOR  HZ I        1151 30.78         5.8 0.50            114            236 235 
 HEL  HZ EP   2   1151  5.08                             114    0.87 4  275 257 
 HEL  HN ES   2   1151 36.35                             114    0.67 4  275 257 
 HEL  HZ I        1151 43.12         3.2 0.36            110            275 257 
 URE  HZ EP   3   1151  3.92                             112   -1.32 2  288 292 
 URE  HN ES   4   1151 35.23                             112   -2.28 0  288 292 
 URE  HZ I        1151 47.32         4.4 0.32            109            288 292 
 GUY2CHZ EP       1151  8.55                             111    1.08 7  303 236 
 GUY2CHN ES       1151 41.72                             111    0.24 7  303 236 
 GUY2CHZ I        1151 49.40         3.7 0.44                           303 236 
 PTGC HZ EP   2   1151  6.75                             111   -0.37 4  305 159 
                                                                                
