 2011  630 1128 51.3 L   6.766 -73.118142.0  RSN  5 0.2 1.5LRSN                1
 GAP=142        0.67       6.6     8.6  7.3  0.1364E+02 -0.2474E+02  0.8014E-01E
 Epicentro: LOS SANTOS - SANTANDER                                             3
 ACTION:UP  11-07-14 19:09 OP:ep   STATUS:               ID:20110630112851 L   I
 2011-06-30-1125-42S.COL___140                                                 6
 STAT SP IPHASW D HRMM SECON CODA AMPLIT PERI AZIMU VELO SNR AR TRES W  DIS CAZ7
 BAR2 SZ EP       1129 10.25                             171    -0.210   21 200 
 BAR2 SZ ES   1   1129 25.36                             171     0.0 7   21 200 
 BAR2 SZ I        1129 27.12         4.9 0.34                            21 200 
 BTL  SZ EP       1129 10.73                             170     0.210   24 315 
 BTL  SZ ES   2   1129 25.07                             170    -0.4 5   24 315 
 BRR  HZ EP       1129 12.04                             150    -0.310   76 300 
 BRR  HZ I        1129 28.93         9.5 0.34                            76 300 
 BRR  HN ES   1   1129 29.12                             150     0.4 7   76 300 
 PAM  SZ EP       1129 13.29                             150     0.110   78  36 
 RUS  HZ EP       1129 14.58                             144     0.110   97 178 
 RUS  HZ I        1129 35.05         4.0 0.39                            97 178 
                                                                                
