 2017  630 1231  0.8 L   6.831 -73.107139.7  RSN  9 0.3 1.9LRSN                1
 GAP=261        0.80       3.4     4.4  4.9  0.1331E+01  0.4119E+01  0.5081E+01E
 Epicentro: LOS SANTOS - SANTANDER                                             3
 ACTION:UPD 17-09-14 16:56 OP:jn   STATUS:               ID:20170630123100 L   I
 OLDACT:REG 17-06-30 20:36 OP:osc  STATUS:               ID:20170630122729     3
 2017-06-30-1228-00M.COL___356                                                 6
 STAT SP IPHASW D HRMM SECON CODA AMPLIT PERI AZIMU VELO AIN AR TRES W  DIS CAZ7
 BAR2 EZ EP       1231 19.89                             168    0.1310 27.7 197 
 BAR2 EZ ES       1231 34.34                             168   -0.2410 27.7 197 
 BAR2 EZ I        1231 35.75        13.7 0.04            165           27.7 197 
 BRR  HZ EP       1231 21.66                             151    0.2710 73.5 295 
 BRR  HE ES       1231 37.87                             151    0.3910 73.5 295 
 BRR  HZ I        1231 43.57        22.7 0.18            150           73.5 295 
 PTB  HZ EP       1231 26.88                             130   -0.81 9  153 258 
 PTB  HE ES       1231 48.23                             130   -0.47 9  153 258 
 PTB  HZ I        1231 52.92         7.6 0.16            130            153 258 
 SPBC HZ EP       1231 29.33                             127    0.01 9  169 219 
 SPBC HE ES       1231 51.82                             127    0.22 9  169 219 
 SPBC HZ I        1232  0.14        11.5 0.20            128            169 219 
 ZAR  HZ EP       1231 33.05                             121   -0.05 8  207 291 
 ZAR  HE ES       1231 58.56                             121    0.23 8  207 291 
 ZAR  HZ I        1232  4.19        12.6 0.26            123            207 291 
 NOR  HZ EP       1231 36.70                             117   -0.04 8  240 234 
 NOR  HE ES       1232  4.59                             117   -0.21 8  240 234 
 NOR  HZ I        1232  6.57         7.6 0.16            118            240 234 
 CHI  HZ EP       1231 38.60                             115   -0.02 8  253 196 
 CHI  HE ES       1232  8.02                             115   -0.13 8  253 196 
 CHI  HZ I        1232 13.12         3.0 0.22            118            253 196 
 GUY2CHZ EP       1231 45.09                             111    0.37 7  307 235 
 GUY2CHE ES       1232 19.16                             111    0.16 7  307 235 
 GUY2CHZ I        1232 26.26         5.6 0.52                           307 235 
 ORTC HE ES       1232 38.16                             105    0.67 6  401 216 
                                                                                
