 2016  530 1124 26.2 L   6.816 -73.171143.4  RSN  4 0.2 1.3LRSN                1
 GAP=144        0.67       4.1     4.0  5.7 -0.5113E+01  0.6282E+01 -0.2146E+01E
 Epicentro: LOS SANTOS - SANTANDER                                             3
 ACTION:UPD 16-08-18 17:50 OP:cam  STATUS:               ID:20160530112426 L   I
 OLDACT:REG 16-05-30 19:58 OP:cara STATUS:               ID:20160530111745     3
 2016-05-30-1117-45M.COL___304                                                 6
 STAT SP IPHASW D HRMM SECON CODA AMPLIT PERI AZIMU VELO AIN AR TRES W  DIS CAZ7
 BAR2 EZ IP       1124 45.73                             170    0.1810 24.7 183 
 BAR2 EZ ES       1125  1.10                             170    0.4310 24.7 183 
 BAR2 EZ I        1125  1.96         6.8 0.22            171           24.7 183 
 PAM  EZ EP       1124 48.36                             150    0.1910 77.9  42 
 PAM  EE ES       1125  4.98                             150   -0.3510 77.9  42 
 PAM  EZ I        1125  7.76         3.5 0.68            153           77.9  42 
 RUS  HZ IP       1124 49.83                             143   -0.0110  103 175 
 RUS  HN ES       1125  8.02                             143   -0.2810  103 175 
 RUS  HZ I        1125  9.41         2.8 0.42            147            103 175 
 PTB  HZ EP       1124 52.65                             132   -0.08 9  145 258 
 PTB  HN ES       1125 13.33                             132   -0.11 9  145 258 
 PTB  HZ I        1125 18.96         2.7 0.16            132            145 258 
                                                                                
