 2016 1030 1817 29.3 L   6.784 -73.149143.8  RSN  7 0.5 1.6LRSN                1
 GAP=137        1.20       5.5     5.6  7.6 -0.1001E+02  0.8849E+01  0.5872E+01E
 Epicentro: LOS SANTOS - SANTANDER                                             3
 ACTION:UPD 16-11-09 19:24 OP:rebc STATUS:               ID:20161030181729 L   I
 OLDACT:UP  16-10-31 00:01 OP:dani STATUS:               ID:20161030180743d    3
 OLDACT:UP  16-10-31 00:01 OP:dani STATUS:               ID:20161030180743d    3
 OLDACT:UP  16-10-30 23:59 OP:dani STATUS:               ID:20161030180743d    3
 OLDACT:DUP 16-10-30 23:58 OP:dani STATUS:               ID:20161030180743d    3
 OLDACT:REG 16-10-30 20:30 OP:edw  STATUS:               ID:20161030180742     3
 2016-10-30-1808-00M.COL___325                                                 6
 STAT SP IPHASW D HRMM SECON CODA AMPLIT PERI AZIMU VELO AIN AR TRES W  DIS CAZ7
 BAR2 EZ EP       1817 48.62                             171   -0.0610 21.5 190 
 BAR2 EZ ES       1818  3.26                             171   -0.5210 21.5 190 
 BAR2 EZ I        1818  4.42        16.1 0.20            171           21.5 190 
 BRR  HZ EP       1817 50.56                             152    0.2710 71.8 300 
 BRR  HN ES       1818  7.29                             152    0.6510 71.8 300 
 BRR  HZ I        1818 11.38         7.6 0.12            152           71.8 300 
 PAM  EZ EP       1817 51.62                             150    0.2010 79.0  39 
 PAM  EN ES       1818  8.59                             150   -0.0710 79.0  39 
 PAM  EZ I        1818 10.81         8.8 0.44            153           79.0  39 
 RUS  HZ EP       1817 53.13                             144    0.3810 98.8 176 
 RUS  HE ES       1818 10.95                             144   -0.0810 98.8 176 
 RUS  HZ I        1818 12.75         4.1 0.30            147           98.8 176 
 PTB  HZ EP       1817 55.29                             132   -0.77 9  147 259 
 PTB  HN ES       1818 16.29                             132   -0.64 9  147 259 
 PTB  HZ I        1818 19.09         6.7 0.14            133            147 259 
 SPBC HZ EP       1817 57.76                             129    0.25 9  162 219 
 SPBC HE ES       1818 19.61                             129    0.10 9  162 219 
 SPBC HZ I        1818 23.12         6.3 0.52            131            162 219 
 NOR  HZ EP       1818  4.13                             118   -0.66 8  233 235 
 NOR  HE ES       1818 33.39                             118    0.93 8  233 235 
 NOR  HZ I        1818 34.54         2.7 0.16            120            233 235 
                                                                                
