 2011  930 1445 31.7 L   6.774 -73.211139.2  RSN  7 0.3 1.9LRSN                1
 GAP=129        0.67       4.0     4.1  7.1 -0.2808E+01  0.1606E+02 -0.3110E+01E
 Epicentro: ZAPATOCA - SANTANDER                                               3
 ACTION:UPD 12-07-13 16:01 OP:ep   STATUS:               ID:20110930144531 L   I
 2011-09-30-1444-47S.COL___167                                                 6
 STAT SP IPHASW D HRMM SECON CODA AMPLIT PERI AZIMU VELO AIN AR TRES W  DIS CAZ7
 BAR2 SZ EP   1   1445 50.64                             171    0.14 7 20.3 171 
 BAR2 SZ ES   1   1446  4.70                             171   -0.45 7 20.3 171 
 BAR2 SZ I        1446  7.64        22.8 0.34                          20.3 171 
 BRR  HZ EP   1   1445 52.63                             153    0.73 7 66.6 304 
 BRR  HZ I        1445 53.05        43.8 0.14                          66.6 304 
 PAM  SZ EP   1   1445 53.35                             147   -0.33 7 84.3  42 
 PAM  SN ES   1   1446 11.01                             147    0.20 7 84.3  42 
 PAM  SZ I        1446 12.82         4.0 0.23                          84.3  42 
 RUS  HZ EP   1   1445 54.71                             143    0.04 7 98.4 172 
 RUS  HN ES   1   1446 12.60                             143    0.03 7 98.4 172 
 RUS  HZ I        1446 14.75        11.0 0.43                          98.4 172 
 ZAR  HZ EP   1   1446  2.71                             122   -0.47 6  199 294 
 ZAR  HN ES   1   1446 27.75                             122    0.04 6  199 294 
 ZAR  HZ I        1446 36.01        15.6 0.32                           199 294 
 NOR  SZ EP   1   1446  6.06                             118   -0.20 6  227 234 
 NOR  SN ES   1   1446 33.58                             118    0.38 6  227 234 
 HEL  HN ES   1   1446 40.95                             114   -0.24 6  264 256 
                                                                                
