 2011 1130 1313 37.4 L   6.778 -73.082148.1  RSN  5 0.3 1.9LRSN                1
 GAP=146        0.64       3.9     4.5  5.3 -0.3230E+01  0.1595E+01  0.5157E+01E
 Epicentro: LOS SANTOS - SANTANDER                                             3
 ACTION:UPD 12-07-13 16:13 OP:ep   STATUS:               ID:20111130131337 L   I
 2011-11-30-1311-22S.COL___161                                                 6
 STAT SP IPHASW D HRMM SECON CODA AMPLIT PERI AZIMU VELO AIN AR TRES W  DIS CAZ7
 BAR2 SZ EP       1313 57.24                             171   -0.1010 23.3 208 
 BAR2 SZ ES   1   1314 12.66                             171   -0.21 7 23.3 208 
 BAR2 SZ I        1314 15.96        11.0 0.47                          23.3 208 
 PAM  SZ EP       1314  0.14                             152    0.3710 75.2  34 
 PAM  SE ES       1314 16.83                             152   -0.3510 75.2  34 
 BRR  HZ EP       1313 59.24                             150   -0.0210 78.6 298 
 BRR  HN ES       1314 16.49                             150    0.2110 78.6 298 
 BRR  HN I        1314 17.49        62.2 0.08                          78.6 298 
 RUS  HZ EP       1314  1.25                             145    0.0310 97.9 180 
 RUS  HN ES   1   1314 20.12                             145    0.35 7 97.9 180 
 RUS  HZ I        1314 21.77         5.9 0.47                          97.9 180 
 NOR  SZ EP   1   1314 13.29                             118   -0.47 6  239 236 
 NOR  SE ES   2   1314 41.77                             118   -0.33 4  239 236 
                                                                                
