 2015  130 1735 10.0 L   6.553 -73.513110.9  RSN 23 0.4 2.4LRSN                1
 GAP= 53        0.89       2.2     2.3  4.6 -0.1501E+01  0.4102E+01  0.2328E+00E
 Epicentro: EL CARMEN - SANTANDER                                              3
 ACTION:UPD 15-03-02 15:43 OP:nd   STATUS:               ID:20150130173510 L   I
 OLDACT:UP  15-01-31 00:59 OP:spq  STATUS:               ID:20150130172740     3
 OLDACT:UP  15-01-31 00:50 OP:spq  STATUS:               ID:20150130172740     3
 OLDACT:REG 15-01-30 21:02 OP:spq  STATUS:               ID:20150130172740     3
 2015-01-30-1727-40M.COL___280                                                 6
 STAT SP IPHASW D HRMM SECON CODA AMPLIT PERI AZIMU VELO AIN AR TRES W  DIS CAZ7
 BAR2 EZ IP     D 1735 26.03                             160    0.1210 36.9  83 
 BAR2 EZ ES   1   1735 38.53                             160    0.21 7 36.9  83 
 BAR2 EZ I        1735 40.17       256.9 0.44            161           36.9  83 
 BRR  HZ EP       1735 26.88                             147   -0.2110 65.1 340 
 BRR  HE ES       1735 40.63                             147    0.2110 65.1 340 
 BRR  HZ I        1735 46.39        46.4 0.12            149           65.1 340 
 RUS  HZ EP       1735 29.04                             139   -0.3510 87.2 147 
 RUS  HN ES       1735 44.77                             139    0.2510 87.2 147 
 RUS  HZ I        1735 46.23        38.4 0.38            137           87.2 147 
 PTB  HZ EP   4 C 1735 28.87                             133   -1.31 0  104 269 
 PTB  HE ES   4   1735 44.14                             133   -1.79 0  104 269 
 PTB  HZ I        1735 47.25        58.7 0.14            132            104 269 
 SPBC HZ EP       1735 30.96                             130   -0.5010  117 212 
 SPBC HE ES       1735 47.75                             130   -0.4610  117 212 
 SPBC HZ I        1735 53.19       103.3 0.24            128            117 212 
 PAM  SZ EP       1735 32.55                             128   -0.2010  125  46 
 PAM  SN ES       1735 50.49                             128   -0.0110  125  46 
 PAM  SZ I        1735 54.62        21.7 0.50            129            125  46 
 ZAR  HZ EP       1735 37.73                             117   -0.19 9  181 305 
 ZAR  HN ES   4   1736  1.08                             117    1.37 0  181 305 
 ZAR  HZ I        1736  2.53        63.1 0.34            116            181 305 
 NOR  HZ EP       1735 37.73                             116   -0.74 9  186 234 
 NOR  HN ES       1736  1.16                             116    0.49 9  186 234 
 NOR  HZ I        1736  3.18        45.2 0.16            115            186 234 
 OCA  HZ EP   1   1735 38.62                             116   -0.19 7  188   7 
 OCA  HN ES       1736  1.23                             116   -0.06 9  188   7 
 OCA  HZ I        1736  5.87        28.6 0.32            116            188   7 
 TAM  HZ EP       1735 38.94                             115   -0.08 9  191  94 
 TAM  HN ES   1   1736  2.10                             115    0.43 7  191  94 
 TAM  HZ I        1736  2.52        26.9 0.52            115            191  94 
 ROSC BZ EP   4   1735 42.98                             113    1.45 0  209 205 
 ROSC BN ES   4   1736  8.26                             113    2.14 0  209 205 
 ROSC BZ I        1736 15.20        16.0 0.45            112            209 205 
 CHI  HZ EP       1735 42.39                             113    0.31 8  214 187 
 CHI  HZ I        1736  9.70         7.4 0.32            111            214 187 
 HEL  HZ EP       1735 43.02                             111   -0.41 8  227 260 
 HEL  HN ES       1736  8.79                             111   -0.72 8  227 260 
 HEL  HZ I        1736 14.26        23.4 0.22            110            227 260 
 GUY2CHZ EP       1735 46.82                             109    0.30 8  252 234 
 GUY2CHN ES   4   1736 17.26                             109    2.26 0  252 234 
 GUY2CHZ I        1736 24.33        19.0 0.38                           252 234 
 SML  HZ EP   1   1735 46.16                             108   -0.21 6  256 346 
 SML  HE ES   1   1736 15.80                             108    1.06 6  256 346 
 SML  HZ I        1736 19.28        37.3 0.10            108            256 346 
 URE  HZ EP   4   1735 45.34                             108   -1.44 0  259 301 
 URE  HN ES   4   1736 13.49                             108   -1.98 0  259 301 
 URE  HZ I        1736 17.54        27.8 0.34            107            259 301 
 RREF HZ EP   1   1735 49.47                             107    0.32 6  273 228 
 RREF HN ES       1736 20.13                             107    0.44 8  273 228 
 RREF HZ I        1736 23.57        15.2 0.26            106            273 228 
 CBOC HZ EP   1   1735 50.86                             106    0.69 6  287 255 
 CBOC HN ES       1736 22.04                             106    0.53 7  287 255 
 CBOC HZ I        1736 27.59         9.0 0.30            105            287 255 
 TOL  SZ EP       1735 51.81                             105    0.40 7  296 223 
 TOL  SN ES   4   1736 25.04                             105    1.32 0  296 223 
 TOL  SZ I        1736 28.45         9.8 0.30            104            296 223 
 DBB  SZ EP       1735 51.66                             104   -0.24 7  302 280 
 DBB  SZ ES   1   1736 25.26                             104    0.67 5  302 280 
 DBB  SZ I        1736 26.56        34.4 0.40            104            302 280 
 ANIL HZ EP   4   1735 54.78                             104    1.78 0  309 223 
 ANIL HE ES   4   1736 28.91                             104    2.36 0  309 223 
 ANIL HZ I        1736 35.51         3.6 0.38            103            309 223 
 MON  HZ EP   4   1735 55.42                             102   -1.06 0  342 316 
 MON  HN ES   4   1736 31.78                             102   -0.97 0  342 316 
 MON  HZ I        1736 32.92         7.9 0.18            102            342 316 
 ORTC HZ EP       1735 57.99                             102    0.52 6  350 213 
 ORTC HN ES       1736 34.66                             102    0.15 6  350 213 
 ORTC HZ I        1736 37.32         7.7 0.18            101            350 213 
                                                                                
