 2010 1130 1152 54.1 L   6.803 -73.048140.8  RSN 10 0.4 2.0LRSN                1
 GAP=185        0.87       5.0     6.9  6.9 -0.1713E+02  0.3499E+01  0.8215E+01E
 Epicentro: LOS SANTOS - SANTANDER                                             3
 ACTION:UP  10-12-17 16:56 OP:REBC STATUS:               ID:20101130115254 L   I
 2010-11-30-1151-19S.COL___132                                                 6
 STAT SP IPHASW D HRMM SECON CODA AMPLIT PERI AZIMU VELO SNR AR TRES W  DIS CAZ7
 BTL  SZ EP   1   1153 13.25                             169     0.0 7   27 298 
 BAR2 SZ IP       1153 13.20                             169     0.010   28 213 
 BAR2 SZ ES   1   1153 27.85                             169    -0.3 7   28 213 
 BAR2 SZ I        1153 29.42        19.6 0.22                            28 213 
 BRR  HZ IP     D 1153 15.00                             148    -0.310   81 295 
 BRR  HN ES   1   1153 31.64                             148    -0.2 7   81 295 
 BRR  HZ I        1153 35.28        25.4 0.13                            81 295 
 GRA  SZ EP       1153 19.05                             136     0.410  123  13 
 GRA  SZ ES   1   1153 38.39                             136     0.6 7  123  13 
 GRA  SZ I        1153 40.78        14.5 0.42                           123  13 
 OCA  SZ EP   1   1153 21.74                             128    -0.4 7  162 349 
 OCA  SZ I        1153 47.62        15.2 0.11                           162 349 
 NOR  SZ EP   1   1153 29.94                             116    -0.6 6  244 236 
 NOR  SZ I        1154  0.91         1.7 0.30                           244 236 
 CHI  HZ EP   1   1153 31.79                             116    -0.1 6  252 198 
 CHI  HN ES   2   1154  1.57                             116     0.2 4  252 198 
 CHI  HZ I        1154  5.22         4.6 0.31                           252 198 
 HEL  HZ EP   1   1153 35.40                             113     0.2 6  283 256 
 HEL  HN ES   1   1154  7.35                             113     0.0 6  283 256 
 HEL  HZ I        1154 11.43         4.6 0.29                           283 256 
 RREF HZ EP   1   1153 41.70                             109     0.7 5  330 231 
 RREF HN ES   2   1154 18.40                             109     0.8 3  330 231 
 RREF HZ I        1154 26.72         7.2 0.41                           330 231 
 PRA  HZ EP   1   1153 47.15                             105    -0.9 4  398 211 
 PRA  HN ES   2   1154 30.43                             105     0.2 3  398 211 
 PRA  HZ I        1154 38.64        12.9 0.14                           398 211 
                                                                                
