 2011  730 1154 44.9 L   6.781 -73.155145.3  RSN  7 0.3 1.6LRSN                1
 GAP=136        0.58       3.4     5.9  5.3 -0.3085E+01  0.3148E+01  0.2530E+01E
 Epicentro: LOS SANTOS - SANTANDER                                             3
 ACTION:UPD 12-07-25 14:04 OP:epov STATUS:               ID:20110730115444 L   I
 2011-07-30-1152-49S.COL___142                                                 6
 STAT SP IPHASW D HRMM SECON CODA AMPLIT PERI AZIMU VELO AIN AR TRES W  DIS CAZ7
 BAR2 SZ EP   1   1155  4.26                             171   -0.15 7 21.1 188 
 BAR2 SZ ES   1   1155 19.48                             171   -0.17 7 21.1 188 
 BAR2 SZ I        1155 20.62        10.2 0.24                          21.1 188 
 BRR  HZ EP   1   1155  6.24                             152    0.25 7 71.3 300 
 BRR  HN ES   1   1155 22.60                             152    0.15 7 71.3 300 
 BRR  HZ I        1155 26.53        12.2 0.16                          71.3 300 
 PAM  SZ EP   1   1155  6.99                             150   -0.19 7 79.7  39 
 RUS  HZ EP   1   1155  8.67                             144    0.23 7 98.6 175 
 RUS  HN ES   1   1155 26.90                             144    0.08 7 98.6 175 
 RUS  HZ I        1155 29.14         4.8 0.27                          98.6 175 
 GRA  SZ ES   1   1155 30.12                             136    0.03 7  128  18 
 GRA  SZ I        1155 31.83         4.8 0.28                           128  18 
 NOR  SZ EP   1   1155 19.65                             119   -0.71 6  233 235 
 PRA  HZ EP   1   1155 38.78                             107    0.67 4  390 210 
                                                                                
