 2012  730 1458  9.3 L   6.883 -73.467110.0  RSN  5 0.5 2.0LRSN                1
 GAP=183        1.29      11.9     8.6 12.4  0.4948E+02  0.1995E+02  0.3271E+02E
 Epicentro: SAN VICENTE DE CHUCURI - SANTANDER                                 3
 ACTION:UP  12-08-14 11:46 OP:ep   STATUS:               ID:20120730145809 L   I
 2012-07-30-1450-00M.COL___209                                                 6
 STAT SP IPHASW D HRMM SECON CODA AMPLIT PERI AZIMU VELO AIN AR TRES W  DIS CAZ7
 BRR  HZ IP     D 1458 24.11                             160    -0.610   37 313 
 BRR  HZ I        1458 24.29       164.0 0.12            156             37 313 
 BRR  HN ES   1   1458 36.93                             160     0.2 7   37 313 
 BAR2 SZ EP       1458 25.45                             156     0.010   45 136 
 BAR2 SZ ES   2   1458 38.48                             156     0.4 5   45 136 
 BAR2 SZ I        1458 40.50        37.2 0.22            128             45 136 
 PTB  HZ EP       1458 29.91                             130    -0.510  116 251 
 PTB  HN ES   1   1458 47.10                             130     0.2 7  116 251 
 PTB  HZ I        1458 50.88        15.1 0.16            109            116 251 
 RUS  HZ EP       1458 31.39                             130     0.210  117 159 
 RUS  HZ I        1458 53.46         6.2 0.20            107            117 159 
 ZAR  HZ EP       1458 36.55                             118     0.9 9  168 294 
 ZAR  HN ES   2   1458 55.81                             118    -0.5 5  168 294 
 ZAR  HZ I        1459  3.73        12.1 0.32            105            168 294 
