 2016  930 1044 42.2 L   6.763 -73.141142.4  RSN  4 0.2 0.9LRSN                1
 GAP=235        0.52       4.7     5.9  4.2  0.1811E+02  0.3500E+01  0.1282E+01E
 Epicentro: LOS SANTOS - SANTANDER                                             3
 ACTION:UPD 17-08-17 21:18 OP:lp   STATUS:               ID:20160930104442 L   I
 OLDACT:DUP 16-09-30 20:51 OP:dani STATUS:               ID:20160930103740d    3
 2016-09-30-1038-00M.COL___366                                                 6
 STAT SP IPHASW D HRMM SECON CODA AMPLIT PERI AZIMU VELO AIN AR TRES W  DIS CAZ7
 BAR2 EZ EP       1045  1.19                             172   -0.1210 19.4 194 
 BAR2 EZ ES       1045 15.95                             172   -0.2910 19.4 194 
 BRR  HZ EP       1045  3.29                             151    0.2010 73.7 301 
 BRR  HN ES       1045 19.56                             151    0.1510 73.7 301 
 RUS  HZ EP       1045  5.24                             144   -0.0410 96.4 176 
 RUS  HE ES       1045 23.56                             144    0.2510 96.4 176 
 RUS  HZ I        1045 25.29         1.0 0.39            142           96.4 176 
 PTB  HZ EP       1045  8.71                             131   -0.12 9  147 260 
 PTB  HN ES   2   1045 29.38                             131   -0.25 5  147 260 
 PTB  HZ I        1045 31.40         1.4 0.20            130            147 260 
                                                                                
