 2010  430 1122 26.4 L   6.754 -73.010136.6  RSN  8 0.5 2.2LRSN                1
 GAP=199        1.07       7.6    10.9  9.8 -0.4854E+02 -0.2365E+02  0.9165E+01E
 Epicentro: CEPITA - SANTANDER                                                 3
 ACTION:UPD 10-08-24 10:02 OP:vdl  STATUS:               ID:20100430112226 L   I
 2010-04-30-1118-58S.COL___105                                                 6
 STAT SP IPHASW D HRMM SECON CODA AMPLIT PERI AZIMU VELO SNR AR TRES W  DIS CAZ7
 BAR2 SZ IP       1122 44.66                             169    -0.310   26 227 
 BAR2 SZ ES   1   1122 59.54                             169     0.1 7   26 227 
 BRR  HZ IP     D 1122 47.08                             147    -0.510   87 297 
 BRR  HZ I        1122 47.48        26.5 0.10                            87 297 
 BRR  HE ES   1   1123  4.19                             147     0.1 7   87 297 
 BRI  SZ IP       1122 50.32                             140     0.910  109  12 
 GUE  SZ IP       1122 50.70                             137     0.210  119   5 
 GRA  SZ IP       1122 50.53                             135    -0.410  127  10 
 OCA  SZ ES   2   1123 16.50                             127    -0.3 5  168 348 
 OCA  SZ I        1123 19.47        25.7 0.31                           168 348 
 RREF BZ EP   2   1123 13.30                             109     0.2 3  330 232 
 RREF BN ES   1   1123 50.22                             109     0.7 5  330 232 
 PRA  HZ EP   1   1123 19.20                             105    -0.8 4  395 212 
 PRA  HN ES   2   1124  1.86                             105     0.1 3  395 212 
 PRA  HZ I        1124  5.81         3.9 0.67                           395 212 
                                                                                
