 2012  630 1659 48.9 L   6.821 -73.150143.6  RSN 14 0.4 2.5LRSN                1
 GAP= 65        0.79       3.1     3.0  5.1  0.8189E-01  0.2762E+01  0.3730E+01E
 Epicentro: LOS SANTOS - SANTANDER                                             3
 ACTION:UPD 12-08-06 17:53 OP:ep   STATUS:               ID:20120630165948 L   I
 2012-06-30-1700-00M.COL___201                                                 6
 STAT SP IPHASW D HRMM SECON CODA AMPLIT PERI AZIMU VELO AIN AR TRES W  DIS CAZ7
 BAR2 SZ IP       17 0  8.35                             169    0.0510 25.5 188 
 BAR2 SZ ES   1   17 0 22.94                             169   -0.50 7 25.5 188 
 BAR2 SZ I        17 0 25.97        50.2 0.54                          25.5 188 
 BRR  HZ IP     C 17 0 10.10                             153    0.3910 69.7 297 
 BRR  HZ I        17 0 11.55        93.5 0.12                          69.7 297 
 BRR  HE ES   1   17 0 26.83                             153    0.87 7 69.7 297 
 PAM  SZ IP     C 17 0 11.26                             151    0.4810 75.9  41 
 PAM  SN ES   1   17 0 27.53                             151   -0.33 7 75.9  41 
 PAM  SZ I        17 0 30.39        12.5 0.66                          75.9  41 
 RUS  HZ IP     C 17 0 12.42                             143   -0.1710  103 176 
 RUS  HZ I        17 0 32.78        33.3 0.26                           103 176 
 PTB  HZ EP   1   17 0 14.98                             131   -0.69 7  148 258 
 PTB  HN ES   1   17 0 36.20                             131   -0.37 7  148 258 
 TAM  HZ IP     D 17 0 16.73                             130    0.24 9  156 106 
 TAM  HN ES   2   17 0 37.75                             130   -0.27 5  156 106 
 OCA  HZ EP       17 0 16.34                             129   -0.46 9  158 353 
 OCA  HN ES   2   17 0 37.75                             129   -0.83 5  158 353 
 OCA  HZ I        17 0 43.73        89.0 0.28                           158 353 
 YOP  SN ES   2   17 0 42.61                             125    0.12 4  181 153 
 ZAR  HZ EP       17 0 20.95                             122   -0.10 9  203 292 
 ZAR  HN ES   1   17 0 46.55                             122    0.41 6  203 292 
 NOR  SZ EP       17 0 24.44                             118   -0.15 8  236 234 
 NOR  SN ES   2   17 0 52.13                             118   -0.31 4  236 234 
 CHI  HZ EP       17 0 26.84                             116    0.15 8  251 195 
 CHI  HZ I        17 0 27.43         9.4 0.50                           251 195 
 CHI  HN ES   1   17 0 56.20                             116    0.02 6  251 195 
 HEL  HZ EP   2   17 0 29.07                             114    0.08 4  272 255 
 HEL  HN ES   2   17 0 59.74                             114   -0.54 4  272 255 
 DBB  SZ EP       17 0 36.45                             109    0.26 7  339 274 
 PRA  HZ EP   2   17 0 41.86                             106   -0.67 3  394 209 
 PRA  HE ES   1   17 1 24.87                             106    0.49 4  394 209 
 PRA  HZ I        17 1 32.22        29.2 0.24                           394 209 
                                                                                
