 2012  630 1336 10.7 L   6.765 -73.146146.5  RSN  7 0.4 1.8LRSN                1
 GAP=138        0.67       5.1     4.7  6.6 -0.3180E+01  0.8126E+01  0.6615E+00E
 Epicentro: LOS SANTOS - SANTANDER                                             3
 ACTION:UPD 12-08-06 17:53 OP:ep   STATUS:               ID:20120630133610 L   I
 2012-06-30-1330-00M.COL___201                                                 6
 STAT SP IPHASW D HRMM SECON CODA AMPLIT PERI AZIMU VELO AIN AR TRES W  DIS CAZ7
 BAR2 SZ EP       1336 30.41                             172    0.0610 19.5 192 
 BAR2 SZ ES   1   1336 45.58                             172   -0.09 7 19.5 192 
 BAR2 SZ I        1336 48.15        14.3 0.28                          19.5 192 
 BRR  HZ EP       1336 32.30                             152    0.2710 73.1 301 
 BRR  HZ I        1336 33.86        23.2 0.14                          73.1 301 
 BRR  HN ES   2   1336 49.67                             152    1.00 5 73.1 301 
 PAM  SZ EP       1336 33.20                             150    0.0210 80.4  38 
 PAM  SZ I        1336 33.32        14.4 0.20                          80.4  38 
 PAM  SN ES   1   1336 50.16                             150   -0.54 7 80.4  38 
 RUS  HZ EP   1   1336 34.46                             145    0.21 7 96.7 176 
 RUS  HN ES   2   1336 52.81                             145    0.20 5 96.7 176 
 RUS  HZ I        1336 53.92         5.1 0.36                          96.7 176 
 PTB  HZ EP       1336 37.38                             132   -0.28 9  147 260 
 PTB  HN ES   2   1336 58.07                             132   -0.62 5  147 260 
 PTB  HZ I        1337  0.46         7.9 0.38                           147 260 
 ZAR  HN ES   2   1337  8.73                             122   -0.07 4  206 293 
 ZAR  HZ I        1337 15.47        14.2 0.44                           206 293 
 CHI  HN ES   3   1337 16.45                             118   -0.70 2  245 195 
 CHI  HZ I        1337 22.75         1.9 0.32                           245 195 
                                                                                
