 2014  630 1355 15.7 L   6.890 -73.088127.9  RSN 10 0.5 1.7LRSN                1
 GAP=207        1.09       3.5     5.2  7.5  0.3089E+01  0.6532E+01 -0.1634E+01E
 Epicentro: PIEDECUESTA - SANTANDER                                            3
 ACTION:UPD 14-07-01 22:58 OP:nd   STATUS:               ID:20140630135515 L   I
 OLDACT:REG 14-06-30 20:26 OP:spq  STATUS:               ID:20140630134817     3
 2014-06-30-1348-17M.COL___244                                                 6
 STAT SP IPHASW D HRMM SECON CODA AMPLIT PERI AZIMU VELO AIN AR TRES W  DIS CAZ7
 BAR2 SZ EP       1355 33.87                             164    0.3910 34.5 198 
 BAR2 SZ ES   1   1355 48.00                             164    0.64 7 34.5 198 
 BAR2 SZ I        1355 51.19         6.6 0.19            164           34.5 198 
 RUS  HZ EP       1355 38.15                             137   -0.3510  110 180 
 RUS  HN ES   1   1355 56.22                             137   -0.08 7  110 180 
 RUS  HZ I        1355 59.10         5.6 0.22            140            110 180 
 PTB  HZ EP       1355 41.17                             126   -0.90 9  156 256 
 PTB  HE ES       1356  2.18                             126   -0.48 9  156 256 
 PTB  HZ I        1356  4.88         8.4 0.20            128            156 256 
 SPBC HZ EP       1355 43.63                             123   -0.43 9  175 219 
 SPBC HN ES       1356  6.33                             123    0.13 9  175 219 
 SPBC HZ I        1356 12.83         8.1 0.20            125            175 219 
 ZAR  HZ EP       1355 47.36                             118    0.07 8  207 289 
 ZAR  HE ES       1356 12.08                             118    0.12 8  207 289 
 ZAR  HZ I        1356 14.45         4.4 0.26            121            207 289 
 SML  HZ EP       1355 51.43                             114    0.75 8  238 333 
 SML  HE ES       1356 17.44                             114   -0.54 8  238 333 
 SML  HZ I        1356 22.56         8.6 0.10            118            238 333 
 CHI  HZ EP       1355 53.28                             112   -0.44 8  260 196 
 CHI  HE ES       1356 23.12                             112   -0.27 8  260 196 
 CHI  HZ I        1356 28.00         2.2 0.24            115            260 196 
 HEL  HZ EP       1355 56.90                             110    0.86 7  281 254 
 HEL  HN ES       1356 28.13                             110    0.60 7  281 254 
 HEL  HZ I        1356 33.18         2.8 0.34            113            281 254 
 GUY2CHZ EP       1355 59.71                             108   -0.08 7  312 234 
 GUY2CHN ES       1356 34.24                             108    0.04 7  312 234 
 GUY2CHZ I        1356 42.65         2.6 0.48                           312 234 
 PRA  HZ EP       1356 10.73                             103    0.70 6  404 210 
 PRA  HN ES       1356 52.99                             103    0.56 6  404 210 
 PRA  HZ I        1356 55.29         2.1 0.32            105            404 210 
                                                                                
