 2017  130 1932 56.3 L   7.145 -73.453115.2  RSN  7 0.4 1.6LRSN                1
 GAP=151        1.01       5.0     3.5  7.5  0.1833E+01  0.3274E+01  0.3958E+01E
 Epicentro: LEBRIJA - SANTANDER                                                3
 ACTION:UPD 17-05-22 16:05 OP:jn   STATUS:               ID:20170130193256 L   I
 OLDACT:DUP 17-01-30 21:45 OP:lv   STATUS:               ID:20170130192741d    3
 2017-01-30-1928-00M.COL___355                                                 6
 STAT SP IPHASW D HRMM SECON CODA AMPLIT PERI AZIMU VELO AIN AR TRES W  DIS CAZ7
 BRR  HZ EP       1933 11.96                             165   -0.0710 29.0 262 
 BRR  HN ES       1933 24.60                             165    0.2710 29.0 262 
 BRR  HZ I        1933 25.50         7.4 0.10            162           29.0 262 
 BAR2 EZ EP       1933 14.72                             147    0.4010 68.0 154 
 BAR2 EZ ES       1933 28.76                             147    0.3410 68.0 154 
 BAR2 EZ I        1933 30.14        25.4 0.40            147           68.0 154 
 PAM  EZ EP       1933 15.90                             141   -0.0510 85.9  75 
 PAM  EN ES       1933 30.94                             141   -0.3810 85.9  75 
 PAM  EZ I        1933 33.30         4.6 0.17            143           85.9  75 
 PTB  HZ EP       1933 18.81                             128   -0.3210  130 239 
 PTB  HN ES       1933 36.88                             128   -0.0910  130 239 
 PTB  HZ I        1933 39.50         4.1 0.12            127            130 239 
 RUS  HZ EP       1933 21.92                             125    0.71 9  144 164 
 RUS  HN ES       1933 39.92                             125   -0.76 9  144 164 
 ZAR  HZ EP   4   1933 24.15                             122    2.00 0  160 284 
 ZAR  HN ES       1933 42.25                             122   -0.11 9  160 284 
 ZAR  HZ I        1933 45.76         9.5 0.11            121            160 284 
 NOR  HE ES   4   1933 58.74                             111    1.65 0  235 222 
 NOR  HN I        1934  3.48         5.6 0.10            111            235 222 
                                                                                
