 2012 1230 1306 13.0 L   6.709 -73.203146.7  RSN  4 0.1 1.4LRSN                1
 GAP=222        0.29       4.0     2.7  3.2  0.3906E+01  0.1820E+01  0.1688E+01E
 Epicentro: VILLANUEVA - SANTANDER                                             3
 ACTION:UPD 13-01-04 14:31 OP:ep   STATUS:               ID:20121230130613 L   I
 2012-12-30-1300-00M.COL___242                                                 6
 STAT SP IPHASW D HRMM SECON CODA AMPLIT PERI AZIMU VELO AIN AR TRES W  DIS CAZ7
 BAR2 SZ EP   1   13 6 32.55                             175   -0.04 7 13.2 170 
 BAR2 SZ ES   1   13 6 47.95                             175    0.08 7 13.2 170 
 BAR2 SZ I        13 6 49.43         5.6 0.31                          13.2 170 
 BRR  HZ EP     C 13 6 34.26                             153   -0.0110 71.4 308 
 BRR  HN ES       13 6 50.81                             153   -0.0410 71.4 308 
 BRR  HZ I        13 6 55.02         5.8 0.20                          71.4 308 
 PTB  HZ EP   1   13 6 39.40                             134    0.05 7  140 262 
 PTB  HE ES   1   13 6 59.83                             134   -0.06 7  140 262 
 PTB  HZ I        13 7  2.56         2.1 0.19                           140 262 
 ZAR  HN ES   1   13 7 10.64                             123    0.09 6  202 295 
 ZAR  HZ I        13 7 15.78         2.6 0.24                           202 295 
                                                                                
