 2016  730 1624 40.7 L   6.769 -73.152150.0  RSN  7 0.3 1.6LRSN                1
 GAP=234        0.72       4.0     3.9  5.5 -0.6768E+00  0.5104E+01  0.4105E+01E
 Epicentro: LOS SANTOS - SANTANDER                                             3
 ACTION:UPD 17-03-29 16:56 OP:lp   STATUS:               ID:20160730162440 L   I
 OLDACT:REG 16-07-30 20:47 OP:edw  STATUS:               ID:20160730161759     3
 2016-07-30-1617-59S.COL___346                                                 6
 STAT SP IPHASW D HRMM SECON CODA AMPLIT PERI AZIMU VELO AIN AR TRES W  DIS CAZ7
 BAR2 EZ EP       1625  0.76                             172   -0.0510 19.8 190 
 BAR2 EZ ES       1625 16.43                             172   -0.0410 19.8 190 
 BAR2 EZ I        1625 17.72         4.6 0.20            168           19.8 190 
 BRR  HZ EP       1625  2.44                             153    0.0410 72.3 301 
 BRR  HN ES       1625 19.52                             153    0.2210 72.3 301 
 BRR  HZ I        1625 24.11        13.3 0.22            150           72.3 301 
 RUS  HZ EP       1625  4.51                             146   -0.1610 97.2 175 
 RUS  HN ES       1625 23.68                             146    0.3410 97.2 175 
 RUS  HZ I        1625 24.93         4.5 0.38            147           97.2 175 
 PTB  HZ EP   2   1625  7.94                             133    0.01 5  146 260 
 PTB  HN ES       1625 28.78                             133   -0.37 9  146 260 
 PTB  HZ I        1625 36.16         3.7 0.38            132            146 260 
 SPBC HZ EP   2   1625  9.48                             131    0.21 5  160 220 
 SPBC HN ES       1625 30.87                             131   -0.66 9  160 220 
 SPBC HZ I        1625 35.29        10.3 0.14            130            160 220 
 NOR  HZ EP   2   1625 16.15                             120   -0.29 4  232 235 
 NOR  HN ES       1625 44.82                             120    0.53 8  232 235 
 NOR  HZ I        1625 52.60         3.6 0.20            120            232 235 
 GUY2CHZ EP   2   1625 24.28                             113    0.02 4  299 235 
 GUY2CHE ES       1625 58.55                             113    0.35 7  299 235 
 GUY2CHZ I        1626  9.78                                            299 235 
                                                                                
