 2016  530 1740 35.5 L   6.549 -73.564112.7  RSN  8 0.5 2.0LRSN                1
 GAP= 66        1.21       3.7     4.5  7.5 -0.3709E+01  0.3742E+01 -0.5734E+01E
 Epicentro: EL CARMEN - SANTANDER                                              3
 ACTION:UPD 16-08-18 17:50 OP:cam  STATUS:               ID:20160530174035 L   I
 OLDACT:REG 16-05-30 20:36 OP:cara STATUS:               ID:20160530173747     3
 2016-05-30-1737-47M.COL___316                                                 6
 STAT SP IPHASW D HRMM SECON CODA AMPLIT PERI AZIMU VELO AIN AR TRES W  DIS CAZ7
 BAR2 EZ EP       1740 52.26                             158    0.4110 42.4  84 
 BAR2 EZ ES       1741  4.26                             158   -0.3510 42.4  84 
 BRR  HZ EP       1740 53.03                             148    0.3410 63.8 345 
 BRR  HN ES       1741  6.83                             148    0.7310 63.8 345 
 BRR  HZ I        1741 20.16        14.6 0.38            149           63.8 345 
 RUS  HZ EP       1740 55.04                             139   -0.2410 90.0 144 
 RUS  HN ES       1741 10.60                             139   -0.1210 90.0 144 
 PTB  HZ EP       1740 54.96                             136   -0.3910 98.7 269 
 PTB  HN ES       1741  9.93                             136   -0.9010 98.7 269 
 SPBC HZ EP       1740 57.33                             131    0.5210  114 210 
 SPBC HN ES       1741 13.93                             131    0.4910  114 210 
 SPBC HZ I        1741 16.75        19.1 0.20            140            114 210 
 PAM  EZ EP       1740 58.83                             128    0.0310  129  47 
 PAM  EN ES       1741 16.46                             128   -0.5110  129  47 
 PAM  EZ I        1741 17.83        11.0 0.26            135            129  47 
 OCA  HZ EP       1741  4.16                             116   -0.37 9  189   8 
 OCA  HN ES       1741 27.60                             116    0.43 9  189   8 
 OCA  HZ I        1741 33.38        28.8 0.52            122            189   8 
 SJC  HZ EP       1741 30.14                              99   -0.22 6  411 334 
 SJC  HN ES   4   1742 11.38                              99   -1.77 0  411 334 
 SJC  HZ I        1742 13.51         2.2 0.22            104            411 334 
                                                                                
