 2014  130 1131 16.7 L   6.743 -73.220144.2  RSN  4 0.1 1.5LRSN                1
 GAP=265        0.33       3.9     2.5  3.1  0.4290E+01  0.1209E+01 -0.1761E+01E
 Epicentro: VILLANUEVA - SANTANDER                                             3
 ACTION:UPD 14-03-13 09:59 OP:ep   STATUS:               ID:20140130113116 L   I
 OLDACT:REG 14-01-30 15:07 OP:nd   STATUS:               ID:20140130113000     3
 2014-01-30-1130-00M.COL___288                                                 6
 STAT SP IPHASW D HRMM SECON CODA AMPLIT PERI AZIMU VELO AIN AR TRES W  DIS CAZ7
 BAR2 SZ EP       1131 35.93                             173   -0.0610 17.2 166 
 BAR2 SZ ES       1131 51.10                             173    0.0310 17.2 166 
 BAR2 SZ I        1131 52.12        10.5 0.20            147           17.2 166 
 RUS  HZ EP       1131 39.83                             145   -0.0510 95.3 171 
 RUS  HN ES       1131 58.01                             145    0.0210 95.3 171 
 RUS  HZ I        1132  3.29         1.4 0.38            129           95.3 171 
 PTB  HZ EP       1131 42.79                             134    0.12 9  139 261 
 PTB  HN ES       1132  2.90                             134   -0.07 9  139 261 
 PTB  HZ I        1132  9.68         4.2 0.66            124            139 261 
 SML  HZ EP   4   1131 55.77                             117    2.31 0  246 338 
 SML  HN ES   4   1132  6.87                             117   -15.3 0  246 338 
 SML  HZ I        1132  7.43         8.9 0.08            122            246 338 
                                                                                
