 2017  430 1408 44.0 L   6.822 -73.140148.7  RSN 10 0.5 2.0LRSN                1
 GAP=112        0.87       3.1     3.3  5.5  0.1610E+01  0.2736E+01  0.4463E+01E
 Epicentro: LOS SANTOS - SANTANDER                                             3
 ACTION:UPD 17-05-30 21:17 OP:jn   STATUS:               ID:20170430140844 L   I
 OLDACT:UP  17-04-30 22:50 OP:and  STATUS:               ID:20170430140742     3
 OLDACT:UP  17-04-30 22:49 OP:and  STATUS:               ID:20170430140742     3
 OLDACT:UP  17-04-30 22:48 OP:and  STATUS:               ID:20170430140742     3
 OLDACT:UP  17-04-30 22:48 OP:and  STATUS:               ID:20170430140742     3
 OLDACT:REG 17-04-30 20:44 OP:and  STATUS:               ID:20170430140742     3
 2017-04-30-1408-00M.COL___376                                                 6
 STAT SP IPHASW D HRMM SECON CODA AMPLIT PERI AZIMU VELO AIN AR TRES W  DIS CAZ7
 BRR  HZ EP       14 9  5.27                             153   -0.1110 70.6 297 
 BRR  HN ES       14 9 22.45                             153    0.3510 70.6 297 
 BRR  HZ I        14 9 23.54        16.2 0.18            151           70.6 297 
 PAM  EZ IP     C 14 9  6.50                             152    0.1610 75.1  40 
 PAM  EN ES       14 9 23.58                             152   -0.2310 75.1  40 
 PAM  EZ I        14 9 25.71        15.9 0.42            155           75.1  40 
 RUS  HZ EP       14 9  7.73                             144   -0.4310  103 177 
 RUS  HN ES       14 9 26.88                             144   -0.1710  103 177 
 RUS  HZ I        14 9 27.44        12.6 0.28            144            103 177 
 PTB  HZ EP   9   14 9 10.14                             132   -1.12 0  149 258 
 PTB  HN ES       14 9 31.13                             133   -0.31 9  149 258 
 PTB  HZ I        14 9 38.07        11.2 0.49            132            149 258 
 YPLC HZ EP       14 9 13.98                             127   -0.16 9  179 152 
 YPLC HE ES       14 9 38.47                             127    0.78 9  179 152 
 YPLC HZ I        14 9 38.95        10.5 0.28            129            179 152 
 ZAR  HZ EP       14 9 17.17                             123    0.61 9  204 291 
 ZAR  HN ES       14 9 41.63                             123   -0.36 9  204 291 
 ZAR  HZ I        14 9 47.80         9.5 0.16            123            204 291 
 NOR  HZ EP       14 9 20.22                             119    0.16 8  237 234 
 NOR  HN ES       14 9 48.01                             119   -0.22 8  237 234 
 NOR  HZ I        14 9 52.29         6.5 0.16            119            237 234 
 CHI  HZ EP       14 9 21.69                             117   -0.40 8  251 195 
 CHI  HE ES       14 9 51.47                             117   -0.37 8  251 195 
 CHI  HZ I        14 9 55.13         5.5 0.70            118            251 195 
 ROSC BZ EP   3   14 9 24.21                             117    1.71 2  255 211 
 ROSC BN ES   2   14 9 53.29                             117    0.73 4  255 211 
 ROSC BZ I        14 9 55.49         9.5 0.35            117            255 211 
 HEL  HZ EP   3   14 9 25.88                             115    1.43 2  273 255 
 HEL  HN ES   2   14 9 56.37                             115    0.33 4  273 255 
                                                                                
