 2017  430 1828 56.2 L   6.809 -73.120152.3  RSN  8 0.4 1.8LRSN                1
 GAP=139        1.05       4.2     5.0  7.5 -0.5099E+01  0.6734E+01  0.4572E+01E
 Epicentro: LOS SANTOS - SANTANDER                                             3
 ACTION:UPD 17-05-30 21:17 OP:jn   STATUS:               ID:20170430182856 L   I
 OLDACT:DUP 17-04-30 22:38 OP:ar   STATUS:               ID:20170430182740d    3
 2017-04-30-1828-00M.COL___373                                                 6
 STAT SP IPHASW D HRMM SECON CODA AMPLIT PERI AZIMU VELO AIN AR TRES W  DIS CAZ7
 BRR  HZ IP     D 1829 18.41                             153    0.2210 73.3 297 
 BRR  HN ES       1829 35.81                             153    0.4810 73.3 297 
 BRR  HZ I        1829 40.62         9.5 0.28            151           73.3 297 
 PAM  EZ EP       1829 19.27                             153    0.2810 74.8  38 
 PAM  EN ES       1829 36.60                             153   -0.1510 74.8  38 
 PAM  EZ I        1829 38.48         8.5 0.46            158           74.8  38 
 RUS  HZ EP     D 1829 20.43                             145   -0.2510  101 178 
 RUS  HE ES       1829 39.47                             145   -0.2810  101 178 
 RUS  HZ I        1829 40.73         3.8 0.36            147            101 178 
 PTB  HZ EP       1829 23.41                             133   -0.59 9  151 259 
 PTB  HN ES       1829 44.69                             133   -0.97 9  151 259 
 PTB  HZ I        1829 51.72        14.7 0.42            133            151 259 
 SPBC HZ EP       1829 25.57                             130    0.10 9  166 220 
 SPBC HN ES       1829 48.89                             130    0.61 9  166 220 
 SPBC HZ I        1829 52.40        11.5 0.28            131            166 220 
 ZAR  HZ EP       1829 29.47                             123    0.14 8  206 292 
 ZAR  HN ES   4   1829 58.09                             123    2.93 0  206 292 
 ZAR  HZ I        1830  2.74         7.4 0.24            124            206 292 
 NOR  HE ES       1830  1.51                             119    0.45 8  238 235 
 NOR  HZ I        1830  4.12         6.5 0.30            121            238 235 
 CHI  HZ EP   2   1829 34.52                             118    0.05 4  250 196 
 CHI  HN ES       1830  4.39                             118    0.08 8  250 196 
 CHI  HZ I        1830 13.65         1.8 0.22            120            250 196 
                                                                                
