 2016  730 1012 24.9 L   6.793 -73.130145.4  RSN  7 0.2 1.5LRSN                1
 GAP=139        0.48       2.0     2.1  3.1 -0.1269E+00  0.1623E+01  0.7756E-01E
 Epicentro: LOS SANTOS - SANTANDER                                             3
 ACTION:UPD 17-03-29 16:56 OP:lp   STATUS:               ID:20160730101224 L   I
 OLDACT:DUP 16-07-30 21:08 OP:edw  STATUS:               ID:20160730100760d    3
 2016-07-30-1007-59S.COL___337                                                 6
 STAT SP IPHASW D HRMM SECON CODA AMPLIT PERI AZIMU VELO AIN AR TRES W  DIS CAZ7
 BAR2 EZ EP       1012 44.38                             171   -0.1410 22.9 195 
 BAR2 EZ ES       1012 59.63                             171   -0.1610 22.9 195 
 BRR  HZ EP       1012 46.19                             152    0.0310 73.1 298 
 BRR  HN ES       1013  3.08                             152    0.3710 73.1 298 
 PAM  EZ EP       1012 47.17                             151    0.0810 76.9  38 
 PAM  EN ES       1013  4.31                             151   -0.0610 76.9  38 
 PAM  EZ I        1013  6.57         8.0 0.48            152           76.9  38 
 RUS  HZ EP       1012 48.68                             144    0.0910 99.6 177 
 RUS  HN ES       1013  6.95                             144   -0.0910 99.6 177 
 RUS  HZ I        1013  7.95         2.3 0.36            146           99.6 177 
 PTB  HZ EP       1012 51.85                             132   -0.17 9  149 259 
 PTB  HE ES       1013 12.94                             132   -0.20 9  149 259 
 PTB  HZ I        1013 14.20         3.8 0.12            132            149 259 
 SPBC HZ EP       1012 53.46                             129    0.01 9  164 220 
 SPBC HN ES       1013 15.99                             129    0.29 9  164 220 
 SPBC HZ I        1013 18.47         4.7 0.22            130            164 220 
 ZAR  HZ EP       1012 57.68                             122    0.12 8  206 292 
 ZAR  HN ES       1013 22.82                             122   -0.19 8  206 292 
 ZAR  HZ I        1013 29.28         5.3 0.33            122            206 292 
 SJC  HZ EP   4   1013 19.07                             106   -1.61 0  411 327 
 SJC  HE ES   4   1014  0.58                             106   -3.58 0  411 327 
                                                                                
