 2010  730 1100 42.7 L   6.759 -73.150143.9  RSN  4 0.2 1.6LRSN                1
 GAP=234        0.50       7.7    13.2  6.8  0.6808E+02  0.2054E+02  0.1551E+02E
 Epicentro: LOS SANTOS - SANTANDER                                             3
 ACTION:UPD 10-12-01 15:21 OP:pat  STATUS:               ID:20100730110042 L   I
 2010-07-30-1056-14S.COL___123                                                 6
 STAT SP IPHASW D HRMM SECON CODA AMPLIT PERI AZIMU VELO AIN AR TRES W  DIS CAZ7
 BAR2 SZ EP   1   11 1  1.82                             172    -0.2 7   19 191 
 BAR2 SZ ES   2   11 1 16.64                             172    -0.4 5   19 191 
 BAR2 SZ I        11 1 17.88         8.4 0.24                            19 191 
 BRR  HZ EP   1   11 1  3.80                             151     0.1 7   73 302 
 BRR  HE ES   2   11 1 20.33                             151     0.2 5   73 302 
 RUS  HZ EP   1   11 1  6.15                             145     0.2 7   96 176 
 RUS  HN ES   2   11 1 24.26                             145     0.2 5   96 176 
 RUS  HZ I        11 1 26.32         4.6 0.28                            96 176 
 PRA  HZ EP   1   11 1 35.31                             106    -0.3 4  388 210 
 PRA  HZ I        11 2 22.49         2.4 0.60                           388 210 
                                                                                
