 2017  530 1839  5.3 L   6.852 -73.100138.5  RSN 10 0.6 2.1LRSN                1
 GAP=221        1.00       5.2     5.5  9.0  0.1559E+02  0.9084E+01 -0.2626E+01E
 Epicentro: LOS SANTOS - SANTANDER                                             3
 ACTION:UPD 17-06-16 13:40 OP:jn   STATUS:               ID:20170530183905 L   I
 OLDACT:UP  17-05-31 00:39 OP:dani STATUS:               ID:20170530183732     3
 OLDACT:UP  17-05-31 00:39 OP:dani STATUS:               ID:20170530183732     3
 OLDACT:UP  17-05-31 00:39 OP:dani STATUS:               ID:20170530183732     3
 OLDACT:UP  17-05-31 00:37 OP:dani STATUS:               ID:20170530183732     3
 OLDACT:REG 17-05-30 21:43 OP:ar   STATUS:               ID:20170530183732     3
 2017-05-30-1838-00M.COL___353                                                 6
 STAT SP IPHASW D HRMM SECON CODA AMPLIT PERI AZIMU VELO AIN AR TRES W  DIS CAZ7
 BRR  HZ EP     C 1839 26.19                             150    0.4110 73.3 293 
 BRR  HN ES   3   1839 43.28                             150    1.51 2 73.3 293 
 BRR  HZ I        1839 49.27        29.1 0.14            148           73.3 293 
 RUS  HZ EP       1839 28.41                             141   -0.3410  106 179 
 RUS  HN ES       1839 46.42                             141   -0.6310  106 179 
 RUS  HZ I        1839 47.81        10.8 0.22            144            106 179 
 PTB  HZ EP   3   1839 31.29                             129   -0.96 2  154 257 
 PTB  HN ES   3   1839 51.70                             129   -1.58 2  154 257 
 PTB  HZ I        1839 59.22        14.7 0.54            130            154 257 
 YPLC HZ EP       1839 34.69                             124   -0.15 9  180 154 
 YPLC HN ES       1839 58.56                             124    0.67 9  180 154 
 YPLC HZ I        1839 59.63        11.5 0.37            131            180 154 
 ZAR  HZ EP       1839 37.33                             120   -0.22 8  207 290 
 ZAR  HN ES       1840  3.15                             120    0.43 8  207 290 
 ZAR  HZ I        1840  9.07        29.9 0.40            123            207 290 
 NOR  HZ EP       1839 40.83                             116   -0.59 8  242 234 
 NOR  HE ES       1840  9.46                             116   -0.14 8  242 234 
 NOR  HZ I        1840  9.88        13.6 0.68            119            242 234 
 CHI  HZ EP       1839 43.05                             115   -0.30 8  255 196 
 CHI  HN ES       1840 13.76                             115    0.72 8  255 196 
 CHI  HZ I        1840 19.59         6.9 0.36            119            255 196 
 HEL  HZ EP   3   1839 47.21                             113    1.36 2  278 255 
 HEL  HN ES   4   1840 20.67                             113    3.18 0  278 255 
 HEL  HZ I        1840 23.75        10.0 0.31            115            278 255 
 CBOC HZ EP       1839 52.47                             108   -0.21 7  340 251 
 CBOC HN ES   3   1840 28.92                             108   -0.72 2  340 251 
 CBOC HZ I        1840 41.31         2.5 0.52            111            340 251 
 ORTC HZ EP       1840  0.69                             105    0.83 6  403 216 
 ORTC HN ES   3   1840 44.02                             105    1.59 1  403 216 
 ORTC HZ I        1840 47.60         3.2 0.35            108            403 216 
                                                                                
