 2011 1030 1357  0.5 L   6.807 -73.108149.3  RSN  4 0.2 1.7LRSN                1
 GAP=141        0.42       4.2     6.0  7.2 -0.6375E+00 -0.2355E+01  0.4543E+01E
 Epicentro: LOS SANTOS - SANTANDER                                             3
 ACTION:UPD 12-07-13 16:07 OP:ep   STATUS:               ID:20111030135700 L   I
 2011-10-30-1353-22S.COL___157                                                 6
 STAT SP IPHASW D HRMM SECON CODA AMPLIT PERI AZIMU VELO AIN AR TRES W  DIS CAZ7
 BAR2 SZ EP   1   1357 20.40                             170   -0.20 7 25.2 199 
 BAR2 SZ I        1357 36.52         8.3 0.37                          25.2 199 
 PAM  SZ EP   1   1357 23.20                             152    0.29 7 74.1  37 
 PAM  SN ES   2   1357 40.09                             152   -0.30 5 74.1  37 
 BRR  HZ EP   1   1357 22.13                             152   -0.10 7 74.6 296 
 BRR  HN ES   2   1357 39.38                             152    0.21 5 74.6 296 
 BRR  HZ I        1357 41.01        12.5 0.26                          74.6 296 
 RUS  HZ EP   1   1357 24.62                             144   -0.03 7  101 178 
 RUS  HN ES   2   1357 43.64                             144    0.16 5  101 178 
 RUS  HZ I        1357 45.02         6.0 0.17                           101 178 
                                                                                
