 2010  530 1313  5.8 L   6.810 -73.211137.0  RSN  7 0.5 1.7LRSN                1
 GAP=152        1.11       5.3    11.3 10.4 -0.3692E+02  0.3646E+02 -0.2430E+01E
 Epicentro: ZAPATOCA - SANTANDER                                               3
 ACTION:UP  10-08-24 10:07 OP:vdl  STATUS:               ID:20100530131305 L   I
 2010-05-30-1309-26S.COL___109                                                 6
 STAT SP IPHASW D HRMM SECON CODA AMPLIT PERI AZIMU VELO SNR AR TRES W  DIS CAZ7
 BAR2 SZ EP       1313 24.16                             169    -0.210   24 173 
 BAR2 SZ ES   1   1313 38.35                             169    -0.5 7   24 173 
 GUE  SZ EP       1313 29.33                             137    -0.410  117  16 
 GUE  SZ ES   1   1313 48.24                             137    -0.2 7  117  16 
 GRA  SZ EP       1313 30.80                             135     0.510  127  21 
 GRA  SZ ES       1313 50.33                             135     0.810  127  21 
 OCA  SZ EP       1313 32.81                             128    -0.4 9  158 356 
 OCA  SZ ES   1   1313 54.28                             128    -0.4 7  158 356 
 CHI  HZ EP   1   1313 42.56                             115    -0.3 6  248 193 
 CHI  HN ES   1   1314 12.44                             115     0.6 6  248 193 
 CHI  HZ I        1314 18.58         2.3 1.07                           248 193 
 HEL  HN ES   2   1314 15.68                             114     0.5 4  265 255 
 HEL  HZ I        1314 22.32         3.3 0.10                           265 255 
 RREF BN ES   1   1314 26.82                             109     0.5 5  317 228 
 RREF BZ I        1314 32.27         2.7 1.52                           317 228 
                                                                                
