 2017  130 1127 31.9 L   6.760 -73.146144.3  RSN  7 0.4 1.8LRSN                1
 GAP=138        1.01       5.0     4.6  7.6  0.2313E+01  0.4671E+01  0.1336E+01E
 Epicentro: LOS SANTOS - SANTANDER                                             3
 ACTION:UPD 17-05-22 16:04 OP:jn   STATUS:               ID:20170130112731 L   I
 OLDACT:REG 17-01-30 20:21 OP:dnl  STATUS:               ID:20170130111746     3
 2017-01-30-1118-00M.COL___333                                                 6
 STAT SP IPHASW D HRMM SECON CODA AMPLIT PERI AZIMU VELO AIN AR TRES W  DIS CAZ7
 BAR2 EZ IP     C 1127 51.19                             172   -0.0610 18.9 192 
 BAR2 EZ ES       1128  6.08                             172   -0.2810 18.9 192 
 BAR2 EZ I        1128  7.05        29.8 0.18            170           18.9 192 
 BRR  HZ EP       1127 53.25                             151    0.2610 73.4 302 
 BRR  HE ES       1128 10.19                             151    0.7310 73.4 302 
 BRR  HZ I        1128 12.99        18.5 0.30            150           73.4 302 
 PAM  EZ EP       1127 54.22                             149    0.0710 80.9  38 
 PAM  EN ES       1128 11.09                             149   -0.4410 80.9  38 
 PAM  EZ I        1128 13.22         9.3 0.50            151           80.9  38 
 RUS  HZ EP       1127 55.12                             145   -0.0510 96.1 176 
 RUS  HE ES       1128 13.73                             145    0.4010 96.1 176 
 RUS  HZ I        1128 14.52         6.6 0.26            144           96.1 176 
 PTB  HZ EP   2   1127 57.99                             132   -0.66 5  147 261 
 PTB  HN ES       1128 18.76                             132   -0.77 9  147 261 
 PTB  HZ I        1128 20.09         9.0 0.14            130            147 261 
 ZAR  HZ EP   4   1128  7.15                             122    2.75 0  206 293 
 ZAR  HE ES       1128 29.95                             122    0.18 8  206 293 
 ZAR  HZ I        1128 36.30         7.7 0.46            121            206 293 
 CHI  HZ EP   2   1128  9.38                             117    0.35 4  244 195 
 CHI  HE ES   4   1128 40.66                             117    2.66 0  244 195 
 CHI  HZ I        1128 45.14         3.6 0.28            116            244 195 
                                                                                
