 2014  930 1758 21.4 L   6.911 -73.441102.4  RSN  5 0.5 2.0LRSN                1
 GAP=159        1.32       6.6     6.5  9.7  0.4936E+01  0.1664E+02 -0.2489E+02E
 Epicentro: SAN VICENTE DE CHUCURI - SANTANDER                                 3
 ACTION:UPD 14-10-03 23:10 OP:nd   STATUS:               ID:20140930175821 L   I
 OLDACT:REG 14-09-30 20:45 OP:cam  STATUS:               ID:20140930175000     3
 2014-09-30-1750-00M.COL___252                                                 6
 STAT SP IPHASW D HRMM SECON CODA AMPLIT PERI AZIMU VELO AIN AR TRES W  DIS CAZ7
 BRR  HZ EP       1758 36.88                             158    0.9210 37.0 306 
 BRR  HN ES       1758 47.25                             158   -0.0910 37.0 306 
 BRR  HN I    4   1758 50.78        24.3 0.16            151           37.0 306 
 BAR2 SZ EP       1758 36.64                             154   -0.0710 45.4 141 
 BAR2 SZ ES       1758 48.63                             154   -0.0610 45.4 141 
 PTB  HZ EP       1758 41.72                             126   -0.5910  120 250 
 PTB  HN ES       1758 58.14                             126   -0.5110  120 250 
 PTB  HZ I        1759  3.34        20.4 0.32            126            120 250 
 ZAR  HZ EP       1758 48.07                             116    0.56 9  169 292 
 ZAR  HN ES       1759  8.49                             116    0.59 9  169 292 
 ZAR  HZ I        1759 15.77         9.1 0.14            115            169 292 
 SML  HZ EP       1758 53.23                             109   -0.03 8  220 342 
 SML  HN ES       1759 17.30                             109   -0.84 8  220 342 
 SML  HZ I        1759 26.56        13.7 0.34            109            220 342 
                                                                                
