 2017  730 1541 38.6 L   6.813 -73.133143.6  RSN 12 0.5 2.0LRSN                1
 GAP=102        0.92       3.4     3.1  5.2  0.1168E+01  0.2839E+01  0.1799E+01E
 Epicentro: LOS SANTOS - SANTANDER                                             3
 ACTION:UPD 17-08-30 15:38 OP:rebc STATUS:               ID:20170730154138 L   I
 OLDACT:UP  17-07-31 00:45 OP:and  STATUS:               ID:20170730153741     3
 OLDACT:UP  17-07-31 00:44 OP:and  STATUS:               ID:20170730153741     3
 OLDACT:UP  17-07-31 00:43 OP:and  STATUS:               ID:20170730153741     3
 OLDACT:UP  17-07-31 00:43 OP:and  STATUS:               ID:20170730153741     3
 OLDACT:UP  17-07-31 00:43 OP:and  STATUS:               ID:20170730153741     3
 OLDACT:REG 17-07-30 21:23 OP:and  STATUS:               ID:20170730153741     3
 2017-07-30-1538-00M.COL___392                                                 6
 STAT SP IPHASW D HRMM SECON CODA AMPLIT PERI AZIMU VELO AIN AR TRES W  DIS CAZ7
 BAR2 EZ IP     D 1541 57.85                             170   -0.1710 25.0 193 
 BAR2 EZ ES       1542 12.77                             170   -0.3910 25.0 193 
 BAR2 EZ I        1542 14.73        12.8 0.14            169           25.0 193 
 BRR  HZ EP       1541 59.84                             152    0.2810 71.8 297 
 BRR  HN ES   3   1542 17.75                             152    1.85 2 71.8 297 
 BRR  HZ I        1542 22.80        13.8 0.28            150           71.8 297 
 PAM  EN ES       1542 17.59                             151    0.0510 75.4  39 
 PAM  EZ I        1542 20.08        13.2 0.48            155           75.4  39 
 RUS  HZ EP       1542  1.75                             143   -0.5010  102 177 
 RUS  HN ES       1542 20.30                             143   -0.3910  102 177 
 RUS  HZ I        1542 23.34        12.9 0.46            146            102 177 
 PTB  HZ EP   9   1542  4.92                             131   -0.64 0  149 258 
 PTB  HN ES       1542 26.11                             132    0.17 9  149 258 
 PTB  HZ I        1542 29.27        10.4 0.08            132            149 258 
 TAM  HZ IP     C 1542  6.00                             130   -0.03 9  154 106 
 TAM  HN ES       1542 27.92                             130    0.51 9  154 106 
 SPBC HZ EP       1542  6.85                             128   -0.29 9  165 219 
 SPBC HN ES       1542 29.36                             128   -0.03 9  165 219 
 SPBC HZ I        1542 35.96        18.8 0.15            130            165 219 
 YPLC HZ IP     D 1542  8.02                             126   -0.29 9  177 152 
 YPLC HN ES       1542 32.02                             126    0.55 9  177 152 
 YPLC HZ I        1542 32.89        13.8 0.26            130            177 152 
 ZAR  HZ EP       1542 10.54                             122   -0.46 9  205 292 
 ZAR  HN ES       1542 36.74                             122    0.48 9  205 292 
 ZAR  HZ I        1542 42.35        13.0 0.30            123            205 292 
 CHI  HZ EP   2   1542 16.14                             116   -0.24 4  250 195 
 CHI  HN ES       1542 46.46                             116    0.61 8  250 195 
 HEL  HZ EP   3   1542 20.11                             114    1.20 2  274 256 
 HEL  HN ES   4   1542 54.67                             114    4.33 0  274 256 
 HEL  HZ I        1542 57.09         7.8 0.36            116            274 256 
 GUY2CHZ EP       1542 22.85                             112    0.50 7  303 235 
 GUY2CHN ES   4   1542 59.44                             112    2.98 0  303 235 
 GUY2CHZ I        1543  4.72         6.6 0.28                           303 235 
 PTGC HZ EP   4   1542 20.65                             111   -1.82 0  310 159 
 PTGC HN ES   4   1542 54.04                             111   -2.64 0  310 159 
                                                                                
