 2013  530 1633 31.5 L   6.727 -73.214144.9  RSN  5 0.4 1.8LRSN                1
 GAP=144        0.97       4.5     5.2  7.2 -0.2813E+01  0.1580E+01 -0.1945E+01E
 Epicentro: VILLANUEVA - SANTANDER                                             3
 ACTION:UPD 13-06-20 09:54 OP:ep   STATUS:               ID:20130530163331 L   I
 2013-05-30-1628-50M.COL___218                                                 6
 STAT SP IPHASW D HRMM SECON CODA AMPLIT PERI AZIMU VELO AIN AR TRES W  DIS CAZ7
 BAR2 SZ EP       1633 50.43                             174   -0.4210 15.3 167 
 BAR2 SZ ES       1634  5.22                             174   -0.7510 15.3 167 
 BAR2 SZ I        1634  6.34         9.3 0.32            172           15.3 167 
 BRR  HZ EP       1633 52.25                             153   -0.1510 69.2 307 
 BRR  HN ES       1634  9.01                             153    0.2810 69.2 307 
 BRR  HE I        1634  9.75        32.0 0.18            151           69.2 307 
 RUS  HZ EP       1633 54.81                             146    0.1910 93.4 171 
 RUS  HE ES       1634 13.20                             146    0.5210 93.4 171 
 RUS  HN I        1634 14.91         6.8 0.54            145           93.4 171 
 BRI  SZ EP       1633 56.01                             138   -0.0710  119  23 
 BRI  SZ ES       1634 15.66                             138    0.3810  119  23 
 PTB  HZ EP       1633 57.49                             134   -0.07 9  139 261 
 PTB  HN ES       1634 18.03                             134    0.11 9  139 261 
 PTB  HE I        1634 24.20         7.9 0.16            132            139 261 
                                                                                
