 2012  430 1853 27.5 L   6.812 -73.170137.6  RSN  5 0.3 1.4LRSN                1
 GAP=133        0.87       6.3     6.4  9.6 -0.1004E+02  0.2196E+02 -0.1074E+02E
 Epicentro: LOS SANTOS - SANTANDER                                             3
 ACTION:UPD 12-07-05 11:56 OP:tino STATUS:               ID:20120430185327 L   I
 2012-04-30-1850-00M.COL___189                                                 6
 STAT SP IPHASW D HRMM SECON CODA AMPLIT PERI AZIMU VELO AIN AR TRES W  DIS CAZ7
 BAR2 SZ EP   1   1853 46.25                             169     0.1 7   24 183 
 BAR2 SZ ES   1   1854  1.14                             169     0.4 7   24 183 
 BAR2 SZ I        1854  2.29         8.6 0.39                            24 183 
 BRR  HZ EP       1853 47.96                             152     0.410   68 299 
 BRR  HZ I        1854 44.36        16.1 0.43                            68 299 
 PAM  SZ EP   1   1853 49.03                             149     0.1 7   78  42 
 PAM  SE ES   1   1854  5.03                             149    -0.5 7   78  42 
 RUS  HZ EP   1   1853 50.66                             142     0.1 7  102 175 
 RUS  HN ES   1   1854  8.28                             142    -0.3 7  102 175 
 RUS  HZ I        1854 10.26         4.4 0.39                           102 175 
 PTB  HZ EP   1   1853 53.02                             130    -0.6 7  145 258 
 PTB  HN ES   1   1854 13.79                             130    -0.1 7  145 258 
 PTB  HZ I        1854 17.11         1.1 0.20                           145 258 
                                                                                
