 2011  630 1109 13.7 L   6.673 -72.979150.5  RSN  4 0.4 1.4LRSN                1
 GAP=215        1.10      27.8    31.0 15.5  0.5735E+03 -0.1357E+03 -0.1872E+03E
 Epicentro: ARATOCA - SANTANDER                                                3
 ACTION:UP  11-07-14 19:09 OP:ep   STATUS:               ID:20110630110913 L   I
 2011-06-30-1106-41S.COL___140                                                 6
 STAT SP IPHASW D HRMM SECON CODA AMPLIT PERI AZIMU VELO SNR AR TRES W  DIS CAZ7
 BAR2 SZ EP       11 9 33.64                             176    -0.210   24 248 
 BAR2 SZ ES   1   11 9 49.19                             176    -0.5 7   24 248 
 BAR2 SZ I        11 9 50.78         5.0 0.34                            24 248 
 GIR2 SZ EP       11 9 35.21                             158     0.710   51 332 
 RUS  HN ES   3   11 9 55.97                             152     0.8 2   87 188 
 RUS  HZ I        11 9 57.63         2.4 0.59                            87 188 
 BRR  HZ EP       11 9 36.48                             147    -0.210   94 301 
 BRR  HZ I        11 9 47.25         8.5 0.36                            94 301 
 BRR  HN ES   2   11 9 54.78                             147     0.1 5   94 301 
                                                                                
