 2016 1130 1120 55.5 L   6.773 -73.171141.5  RSN  7 0.3 1.8LRSN                1
 GAP=144        0.65       2.8     2.8  4.2 -0.1093E+01  0.2645E+01  0.3629E+01E
 Epicentro: LOS SANTOS - SANTANDER                                             3
 ACTION:UPD 17-10-26 21:13 OP:lp   STATUS:               ID:20161130112055 L   I
 OLDACT:REG 16-11-30 20:25 OP:lv   STATUS:               ID:20161130111740     3
 2016-11-30-1118-00M.COL___342                                                 6
 STAT SP IPHASW D HRMM SECON CODA AMPLIT PERI AZIMU VELO AIN AR TRES W  DIS CAZ7
 BAR2 EZ EP       1121 14.54                             172   -0.0510 20.0 183 
 BAR2 EZ ES       1121 29.51                             172    0.0610 20.0 183 
 BAR2 EZ I        1121 31.49        12.1 0.22            169           20.0 183 
 BRR  HZ EP       1121 16.37                             152    0.2010 70.2 302 
 BRR  HE ES       1121 32.57                             152    0.3110 70.2 302 
 PAM  EZ EP       1121 17.44                             149   -0.1110 81.5  40 
 PAM  EE ES       1121 34.58                             149   -0.1510 81.5  40 
 PAM  EZ I        1121 36.69        14.4 0.46            155           81.5  40 
 PTB  HZ EP       1121 21.25                             132   -0.60 9  144 260 
 PTB  HN ES       1121 42.13                             132   -0.25 9  144 260 
 PTB  HZ I        1121 49.29         7.8 0.32            132            144 260 
 ZAR  HZ EP       1121 27.99                             122    0.44 9  203 293 
 ZAR  HN ES       1121 52.38                             122   -0.15 9  203 293 
 ZAR  HZ I        1121 57.99         5.1 0.12            123            203 293 
 NOR  HZ EP       1121 30.73                             118    0.15 8  231 235 
 NOR  HN ES       1121 57.97                             118    0.05 8  231 235 
 NOR  HZ I        1122  3.21         5.1 0.26            119            231 235 
 CHI  HZ EP       1121 32.82                             117    0.22 8  245 195 
 CHI  HE ES       1122  1.51                             117   -0.01 8  245 195 
 CHI  HZ I        1122  7.93         3.8 0.30            118            245 195 
 ROSC BZ EP   4   1121 35.13                             116    2.15 0  249 211 
 SJC  HZ EP   4   1121 48.79                             105   -2.28 0  410 328 
 SJC  HN ES   4   1122 30.31                             105   -4.08 0  410 328 
                                                                                
