 2014  430 1206 11.6 L   6.799 -73.126150.0  RSN  7 0.4 1.8LRSN                1
 GAP=139        0.92       2.9     5.0  7.5 -0.2796E+01  0.1697E+02 -0.2485E+01E
 Epicentro: LOS SANTOS - SANTANDER                                             3
 ACTION:UPD 14-05-13 20:50 OP:nd   STATUS:               ID:20140430120612dL   I
 OLDACT:UP  14-04-30 21:59 OP:mher STATUS:               ID:20140430120000     3
 OLDACT:REG 14-04-30 20:09 OP:mh   STATUS:               ID:20140430120000     3
 2014-04-30-1200-00M.COL___270                                                 6
 STAT SP IPHASW D HRMM SECON CODA AMPLIT PERI AZIMU VELO AIN AR TRES W  DIS CAZ7
 PAM  SZ EP       12 6 34.71                             152    0.5010 76.0  38 
 PAM  SN ES       12 6 51.96                             152    0.1310 76.0  38 
 PAM  SZ I        12 6 54.19        11.4 0.37            158           76.0  38 
 RUS  HZ EP       12 6 35.31                             145   -0.4610  100 177 
 RUS  HN ES       12 6 54.16                             145   -0.4610  100 177 
 RUS  HZ I        12 6 56.02         7.0 0.29            146            100 177 
 SPBC HZ EP   1   12 6 40.33                             130   -0.24 7  165 220 
 SPBC HN ES       12 7  4.00                             130    0.84 9  165 220 
 SPBC HZ I        12 7  8.39         9.3 0.18            131            165 220 
 ZAR  HZ EP       12 6 44.71                             123    0.16 8  206 292 
 ZAR  HN ES   1   12 7  9.92                             123   -0.33 6  206 292 
 ZAR  HZ I        12 7 15.51         5.7 0.11            125            206 292 
 NOR  HZ EP       12 6 47.91                             119    0.13 8  236 235 
 NOR  HN ES       12 7 15.77                             119   -0.22 8  236 235 
 NOR  HZ I        12 7 21.15         5.6 0.24            121            236 235 
 SML  HZ EP       12 6 48.73                             118    0.14 8  245 335 
 SML  HN ES       12 7 16.98                             118   -0.45 8  245 335 
 CHI  HZ EP       12 6 49.43                             118   -0.18 8  249 196 
 CHI  HN ES       12 7 19.40                             118    0.15 8  249 196 
 CHI  HZ I        12 7 29.47         2.9 0.08            120            249 196 
 GUY2CHZ EP   4   12 6 57.06                             113    1.44 0  303 235 
 GUY2CHN ES   4   12 7 33.68                             113    3.73 0  303 235 
 SJC  HZ EP   4   12 7  6.21                             106   -1.26 0  410 327 
