 2017  730 1430  8.6 L   6.851 -73.070142.0  RSN  8 0.5 1.5LRSN                1
 GAP=144        0.98       4.5     4.3  6.5 -0.2611E+01  0.5309E+01  0.3737E+01E
 Epicentro: LOS SANTOS - SANTANDER                                             3
 ACTION:UPD 17-08-30 15:38 OP:rebc STATUS:               ID:20170730143008 L   I
 OLDACT:UP  17-07-30 23:59 OP:and  STATUS:               ID:20170730142741     3
 OLDACT:UP  17-07-30 23:57 OP:and  STATUS:               ID:20170730142741     3
 OLDACT:UP  17-07-30 23:57 OP:and  STATUS:               ID:20170730142741     3
 OLDACT:REG 17-07-30 21:12 OP:and  STATUS:               ID:20170730142741     3
 2017-07-30-1428-00M.COL___392                                                 6
 STAT SP IPHASW D HRMM SECON CODA AMPLIT PERI AZIMU VELO AIN AR TRES W  DIS CAZ7
 BAR2 EZ IP     D 1430 27.63                             167   -0.3710 31.2 203 
 BAR2 EZ ES       1430 43.28                             167    0.1810 31.2 203 
 BAR2 EZ I        1430 47.84         2.3 0.16            167           31.2 203 
 PAM  EZ IP     C 1430 30.52                             154    0.6310 67.8  37 
 PAM  EN ES       1430 46.29                             154   -0.1810 67.8  37 
 PAM  EZ I        1430 49.36        11.8 0.52            156           67.8  37 
 BRR  HZ EP       1430 29.36                             151   -0.3210 76.4 292 
 BRR  HN ES       1430 46.38                             151    0.2810 76.4 292 
 RUS  HZ EP       1430 32.15                             142   -0.2710  106 181 
 RUS  HN ES       1430 51.22                             142    0.2510  106 181 
 RUS  HZ I        1430 52.19         6.5 0.32            144            106 181 
 PTB  HZ EP   9   1430 34.41                             130   -1.75 0  157 257 
 PTB  HN ES       1430 56.43                             130    0.54 9  157 257 
 PTB  HZ I        1430 58.45         1.9 0.12            131            157 257 
 ZAR  HZ EP   3   1430 42.75                             121    1.31 2  210 290 
 ZAR  HE ES       1431  6.81                             121   -0.21 8  210 290 
 ZAR  HZ I        1431 12.05         3.8 0.28            123            210 290 
 NOR  HZ EP   2   1430 44.58                             117   -0.66 4  245 235 
 NOR  HN ES       1431 13.15                             117   -0.64 8  245 235 
 NOR  HZ I        1431 17.82         2.5 0.26            119            245 235 
 GUY2CHZ EP   3   1430 55.10                             111    1.89 2  311 235 
 GUY2CHN ES       1431 28.67                             111    0.68 7  311 235 
 GUY2CHZ I        1431 35.43         2.0 0.64                           311 235 
                                                                                
