 2012 1130 1239 45.4 L   6.800 -73.189143.1  RSN  5 0.1 1.7LRSN                1
 GAP=144        0.40       2.7     2.8  4.5 -0.2399E+01  0.3648E+01  0.2564E+01E
 Epicentro: ZAPATOCA - SANTANDER                                               3
 ACTION:UPD 12-12-05 15:37 OP:}ep  STATUS:               ID:20121130123945 L   I
 2012-11-30-1240-00M.COL___236                                                 6
 STAT SP IPHASW D HRMM SECON CODA AMPLIT PERI AZIMU VELO AIN AR TRES W  DIS CAZ7
 BAR2 SZ EP   2   1240  4.67                             170   -0.01 5 23.0 178 
 BAR2 SZ I        1240 22.76        13.2 0.36                          23.0 178 
 PAM  SZ EP       1240  7.63                             149    0.1310 80.5  42 
 PAM  SE ES       1240 24.71                             149   -0.0410 80.5  42 
 PAM  SZ I        1240 27.34        12.8 0.55                          80.5  42 
 RUS  HZ EP       1240  8.88                             143   -0.0210  101 173 
 RUS  HN ES   1   1240 27.17                             143   -0.07 7  101 173 
 RUS  HN I        1240 29.03         4.9 0.41                           101 173 
 PTB  HZ EP       1240 11.46                             132   -0.25 9  143 258 
 PTB  HN ES   1   1240 32.45                             132    0.21 7  143 258 
 PTB  HZ I        1240 38.69         8.1 0.50                           143 258 
 CHI  HZ EP   1   1240 23.02                             117    0.22 6  247 194 
                                                                                
