 2011  630 1542 10.9 L   6.779 -72.966133.8  RSN  5 0.5 1.6LRSN                1
 GAP=189        0.94       8.6    13.6 14.0 -0.5885E+02 -0.4046E+02  0.1741E+02E
 Epicentro: CEPITA - SANTANDER                                                 3
 ACTION:UP  11-07-14 19:09 OP:ep   STATUS:               ID:20110630154210 L   I
 2011-06-30-1538-38S.COL___140                                                 6
 STAT SP IPHASW D HRMM SECON CODA AMPLIT PERI AZIMU VELO SNR AR TRES W  DIS CAZ7
 BAR2 SZ EP       1542 29.16                             165    -0.110   32 229 
 BAR2 SZ ES   2   1542 44.32                             165     0.7 5   32 229 
 BAR2 SZ I        1542 47.84         7.3 0.52                            32 229 
 BRR  HZ EP       1542 32.49                             143     0.510   90 294 
 BRR  HN ES   2   1542 48.02                             143    -0.5 5   90 294 
 BRR  HZ I        1542 51.40        10.6 0.24                            90 294 
 BRI  SZ EP       1542 33.47                             139     0.010  105  10 
 GRA  SZ ES   1   1542 53.05                             134    -0.6 7  124   8 
 GRA  SZ I        1542 55.57         6.3 0.30                           124   8 
 CHI  HZ EP   3   1542 47.42                             113    -1.0 2  252 200 
 CHI  HN ES   3   1543 16.04                             113    -1.6 2  252 200 
                                                                                
