 2014  930 1108  5.3 L   6.738 -73.206150.6  RSN  6 0.4 2.0LRSN                1
 GAP=193        1.04       6.7     6.8  7.3  0.6586E+01  0.6342E+01 -0.1747E+02E
 Epicentro: VILLANUEVA - SANTANDER                                             3
 ACTION:UPD 14-10-03 23:10 OP:nd   STATUS:               ID:20140930110805 L   I
 OLDACT:UP  14-09-30 21:07 OP:cam  STATUS:               ID:20140930110000     3
 OLDACT:REG 14-09-30 20:13 OP:cam  STATUS:               ID:20140930110000     3
 2014-09-30-1100-00M.COL___252                                                 6
 STAT SP IPHASW D HRMM SECON CODA AMPLIT PERI AZIMU VELO AIN AR TRES W  DIS CAZ7
 BAR2 SZ EP       11 8 25.15                             174   -0.2410 16.3 171 
 BAR2 SZ ES       11 8 40.74                             174   -0.3210 16.3 171 
 BRR  HZ EP       11 8 27.22                             154    0.3610 69.2 306 
 BRR  HN ES       11 8 44.28                             154    0.6010 69.2 306 
 BRR  HN I        11 8 48.67        36.5 0.18            149           69.2 306 
 PTB  HZ EP       11 8 32.35                             135    0.37 9  140 261 
 PTB  HN ES       11 8 52.25                             135   -0.54 9  140 261 
 PTB  HZ I        11 8 56.65         5.9 0.28            133            140 261 
 ZAR  HZ EP       11 8 37.92                             124    0.20 9  201 295 
 ZAR  HN ES       11 9  3.15                             124    0.14 9  201 295 
 ZAR  HZ I        11 9 11.52         6.9 0.32            124            201 295 
 SML  HZ EP       11 8 42.94                             118    0.35 8  247 337 
 SML  HN ES       11 9 11.02                             118   -0.66 8  247 337 
 SML  HZ I        11 9 14.09        11.1 0.26            119            247 337 
 MON  HZ EP       11 8 53.66                             109   -0.74 6  353 310 
                                                                                
