 2010 1030 1334 49.8 L   7.130 -73.375113.4  RSN  4 0.3 1.8LRSN                1
 GAP=127        0.71       8.7    12.2 15.8  0.7755E+01 -0.1002E+03 -0.7294E+02E
 Epicentro: LEBRIJA - SANTANDER                                                3
 ACTION:UP  11-02-18 11:13 OP:tino STATUS:               ID:20101030133449 L   I
 2010-10-30-1333-07S.COL___127                                                 6
 STAT SP IPHASW D HRMM SECON CODA AMPLIT PERI AZIMU VELO SNR AR TRES W  DIS CAZ7
 BRR  HZ EP   1   1335  5.42                             160    -0.2 7   37 266 
 BRR  HZ I        1335  5.59        25.0 0.15                            37 266 
 BRR  HE ES   2   1335 18.35                             160     0.3 5   37 266 
 BAR2 SZ EP   1   1335  7.57                             149     0.2 7   63 160 
 BAR2 SZ ES   2   1335 20.73                             149    -0.3 5   63 160 
 BAR2 SZ I        1335 22.51        10.5 0.45                            63 160 
 GUE  SZ EP   1   1335  9.13                             138    -0.4 7   92  33 
 GRA  SZ EP   1   1335 10.80                             134     0.4 7  105  37 
                                                                                
