 2012 1030 1229 25.8 L   6.826 -73.144146.1  RSN 18 0.6 3.8LRSN 3.7WRSN        1
 SPEC AVERAGE  MO 14.6 ST 33.0 OM  3.4 f0 3.55 R0.4737 AL 2.92 WI 15.3 MW  3.7 3
 SPEC SD       MO  0.2 ST 23.4 OM  0.6 f0 1.02 R0.2165 AL      WI      MW  0.1 3
 GAP= 70        1.22       3.7     4.3  5.8  0.4099E+00  0.5293E+01  0.3443E+01E
 Epicentro: LOS SANTOS - SANTANDER                                             3
 SPEC PRA HH N MO 14.6 ST 39.2 OM  2.6 f0 4.08 R0.3603 AL 2.94 WI 14.5 MW  3.7 3
 SPEC PRA HH N T123059 K 0.000 GD  421 VS 4.20 DE 3.20 Q0230.0 QA 0.60 VS 4.20 3
 SPEC OCA HH N MO 14.9 ST 81.7 OM  3.2 f0 4.12 R0.3568 AL 2.43 WI 19.5 MW  3.9 3
 SPEC OCA HH N T123013 K 0.000 GD  214 VS 4.20 DE 3.20 Q0230.0 QA 0.60 VS 4.20 3
 SPEC RUS HH N MO 14.4 ST 19.0 OM  2.8 f0 3.66 R0.4016 AL 2.81 WI 14.0 MW  3.6 3
 SPEC RUS HH N T1230 7 K 0.000 GD  178 VS 4.20 DE 3.20 Q0230.0 QA 0.60 VS 4.20 3
 SPEC PAM SH N MO 14.5 ST  1.5 OM  2.9 f0 1.51 R0.9735 AL 1.95 WI 19.1 MW  3.6 3
 SPEC PAM SH N T1230 3 K 0.000 GD  164 VS 4.20 DE 3.20 Q0230.0 QA 0.60 VS 4.20 3
 SPEC HEL HH N MO 14.6 ST 36.2 OM  2.7 f0 4.08 R0.3603 AL 3.71 WI 19.4 MW  3.7 3
 SPEC HEL HH N T123035 K 0.000 GD  309 VS 4.20 DE 3.20 Q0230.0 QA 0.60 VS 4.20 3
 SPEC CHI HH N MO 14.9 ST 18.6 OM  3.0 f0 2.65 R0.5547 AL 2.88 WI 15.3 MW  3.9 3
 SPEC CHI HH N T123032 K 0.000 GD  290 VS 4.20 DE 3.20 Q0230.0 QA 0.60 VS 4.20 3
 SPEC BAR2SH Z MO 14.4 ST 34.7 OM  2.8 f0 4.76 R0.3088 AL 3.74 WI  5.4 MW  3.5 3
 SPEC BAR2SH Z T122959 K 0.000 GD  148 VS 4.20 DE 3.20 Q0230.0 QA 0.60 VS 4.20 3
 ACTION:UPD 12-11-22 17:06 OP:ep   STATUS:               ID:20121030122925 L   I
 2012-10-30-1226-48M.COL___195                                                 6
 STAT SP IPHASW D HRMM SECON CODA AMPLIT PERI AZIMU VELO AIN AR TRES W  DIS CAZ7
 BAR2 SZ IP     D 1229 45.55                             169    0.0410 26.2 189 
 BAR2 SZ ES       1230  0.03                             169   -0.8810 26.2 189 
 BAR2 SZ I        1230  1.74      1089.0 0.26                          26.2 189 
 GIR2 SZ IP     C 1229 45.59                             168    0.1710 28.5 349 
 BRR  HZ IP     C 1229 47.31                             153    0.4110 70.0 296 
 BRR  HN ES       1230  4.34                             153    0.9710 70.0 296 
 BRR  HN I        1230  5.07      1985.0 0.22                          70.0 296 
 PAM  SZ IP     D 1229 48.31                             152    0.4110 75.1  41 
 RUS  HZ EP       1229 49.54                             143   -0.2310  103 176 
 RUS  HN ES       1230  8.39                             143   -0.1010  103 176 
 RUS  HN I        1230  9.75       760.3 0.38                           103 176 
 TAM  HZ IP     D 1229 53.89                             130    0.34 9  156 106 
 TAM  HE ES   1   1230 15.14                             130   -0.06 7  156 106 
 TAM  HN I        1230 16.32       457.1 0.40                           156 106 
 OCA  HZ EP       1229 53.54                             130   -0.31 9  157 353 
 OCA  HN ES   1   1230 15.46                             130   -0.29 7  157 353 
 OCA  HN I        1230 24.27      1096.8 0.20                           157 353 
 ZAR  HZ EP       1229 57.77                             122   -0.38 9  203 291 
 ZAR  HN ES       1230 23.02                             122   -0.38 9  203 291 
 ZAR  HN I        1230 28.77       557.4 0.16                           203 291 
 CHI  HZ EP       1230  3.49                             117   -0.31 8  251 195 
 CHI  HE ES       1230 33.00                             117   -0.46 8  251 195 
 CHI  HN I        1230 35.44       495.1 0.52                           251 195 
 ROSC BZ IP     D 1230  5.35                             116    1.15 8  255 211 
 ROSC BZ EP       1230  5.35                             116    1.15 8  255 211 
 ROSC BZ I        1230 40.06       429.5 0.40                           255 211 
 HEL  HZ EP       1230  6.14                             115    0.04 8  273 255 
 HEL  HN ES   2   1230 36.83                             115   -0.73 4  273 255 
 HEL  HN I        1230 42.90       181.9 0.44                           273 255 
 GUY  SZ EP       1230  9.58                             112   -0.29 7  305 235 
 RREF HZ EP       1230 11.55                             111   -0.61 7  324 229 
 RREF HZ I        1230 57.58       250.7 0.40                           324 229 
 DBB  SZ EP       1230 12.76                             109   -0.50 7  339 274 
 DBB  SZ I        1230 50.97       163.9 0.30                           339 274 
 SDV  BZ EP       1230 14.82                             108   -0.79 6  358  51 
 ANIL HZ EP       1230 16.79                             108    0.94 6  359 224 
 ANIL HZ I        1231  5.38       440.0 0.34                           359 224 
 PRA  HZ EP       1230 18.93                             106   -0.68 6  395 209 
 PRA  HE ES       1231  1.47                             106   -0.13 6  395 209 
 PRA  HN I        1231  7.33       172.5 0.32                           395 209 
 PAL  HZ EP       1230 20.93                             106   -0.21 6  407 239 
                                                                                
