 2011 1030 1539 26.5 L   6.699 -73.500113.1  RSN  9 0.3 1.9LRSN                1
 GAP= 73        0.54       2.9     3.1  5.7 -0.6823E+00  0.7121E+01 -0.1590E+01E
 Epicentro: EL CARMEN DE CHUCURI - SANTANDER                                   3
 ACTION:UPD 12-07-13 16:07 OP:ep   STATUS:               ID:20111030153926 L   I
 2011-10-30-1535-33S.COL___157                                                 6
 STAT SP IPHASW D HRMM SECON CODA AMPLIT PERI AZIMU VELO AIN AR TRES W  DIS CAZ7
 BAR2 SZ IP       1539 42.93                             161    0.2610 37.1 109 
 BAR2 SZ ES   1   1539 55.47                             161    0.18 7 37.1 109 
 BAR2 SZ I        1539 57.04        56.3 0.13                          37.1 109 
 BRR  HZ EP       1539 42.70                             154   -0.2610 50.8 333 
 BRR  HZ I        1539 43.15        25.3 0.15                          50.8 333 
 BRR  HN ES   2   1539 55.55                             154   -0.26 5 50.8 333 
 RUS  HZ EP   1   1539 47.51                             136    0.32 7  100 153 
 RUS  HN ES   2   1540  3.13                             136   -0.19 5  100 153 
 RUS  HZ I        1540  4.94        18.5 0.24                           100 153 
 PAM  SZ EP   1   1539 47.86                             132   -0.45 7  113  51 
 PAM  SN ES   2   1540  5.09                             132   -0.24 5  113  51 
 OCA  SZ EP   2   1539 53.58                             119   -0.09 4  171   7 
 OCA  SZ ES   2   1540 15.35                             119    0.48 4  171   7 
 OCA  SZ I        1540 20.69        10.3 0.64                           171   7 
 ZAR  HZ EP   1   1539 54.03                             119    0.30 7  174 300 
 ZAR  HN ES   2   1540 15.19                             119    0.22 4  174 300 
 ZAR  HZ I        1540 17.45        10.7 0.31                           174 300 
 NOR  SN ES   2   1540 19.03                             115   -0.52 4  197 230 
 HEL  HN ES   2   1540 27.28                             111    0.12 4  231 256 
 HEL  HZ I        1540 32.69         3.3 0.49                           231 256 
 RREF HN ES   2   1540 38.55                             106   -0.30 4  285 226 
 RREF HZ I        1540 43.99         2.3 0.30                           285 226 
                                                                                
