 2012  430 1342 47.6 L   6.744 -73.192148.0  RSN  6 0.4 1.9LRSN                1
 GAP=228        0.98      11.4    12.7 11.7  0.1091E+03  0.3217E+02  0.3346E+02E
 Epicentro: VILLANUEVA - SANTANDER                                             3
 ACTION:UPD 12-07-05 11:56 OP:tino STATUS:               ID:20120430134247 L   I
 2012-04-30-1340-00M.COL___189                                                 6
 STAT SP IPHASW D HRMM SECON CODA AMPLIT PERI AZIMU VELO AIN AR TRES W  DIS CAZ7
 BAR2 SZ EP       1343  7.02                             173    -0.410   17 176 
 BAR2 SZ I        1343 24.42        11.7 0.26                            17 176 
 BRR  HZ EP   1   1343  9.12                             153     0.2 7   70 305 
 BRR  HE ES   1   1343 26.15                             153     0.6 7   70 305 
 BRR  HZ I        1343 29.28        15.5 0.09                            70 305 
 RUS  HZ EP       1343 11.36                             146     0.210   95 173 
 RUS  HN ES   1   1343 29.40                             146    -0.2 7   95 173 
 RUS  HZ I        1343 30.83         8.4 0.42                            95 173 
 PTB  HZ EP   1   1343 13.80                             134    -0.4 7  142 261 
 PTB  HZ I        1343 41.96         9.1 0.41                           142 261 
 ZAR  HN ES   1   1343 44.86                             123    -0.3 6  202 294 
 ZAR  HZ I        1343 50.59        14.3 0.32                           202 294 
 PRA  HZ EP   1   1343 41.11                             107     0.8 4  384 209 
                                                                                
