 2016  130 1436  5.8 L   6.817 -73.135147.1  RSN 13 0.4 2.3LRSN                1
 GAP=120        0.89       3.0     3.4  5.2 -0.2798E+01  0.4974E+01 -0.2619E+01E
 Epicentro: LOS SANTOS - SANTANDER                                             3
 ACTION:UPD 16-03-09 23:29 OP:cam  STATUS:               ID:20160130143605 L   I
 OLDACT:DUP 16-01-30 23:50 OP:ak   STATUS:               ID:20160130143201d    3
 2016-01-30-1431-59S.COL___229                                                 6
 STAT SP IPHASW D HRMM SECON CODA AMPLIT PERI AZIMU VELO AIN AR TRES W  DIS CAZ7
 BAR2 EZ EP   1   1436 25.43                             170   -0.21 7 25.4 192 
 BAR2 EZ ES       1436 40.77                             170   -0.3510 25.4 192 
 BAR2 EZ I        1436 42.02        31.3 0.18            158           25.4 192 
 PAM  EZ EP       1436 28.69                             152    0.6510 75.2  40 
 PAM  EN ES       1436 45.88                             152    0.5010 75.2  40 
 PAM  EZ I        1436 47.71        29.7 0.46            143           75.2  40 
 RUS  HZ EP       1436 29.74                             144   -0.0810  102 177 
 RUS  HN ES       1436 48.36                             144   -0.2010  102 177 
 RUS  HZ I        1436 49.48        20.7 0.36            127            102 177 
 PTB  HZ EP       1436 32.70                             132   -0.32 9  149 258 
 PTB  HE ES       1436 53.98                             132   -0.27 9  149 258 
 PTB  HZ I        1436 55.91                             119            149 258 
 SPBC HZ EP       1436 34.86                             129    0.24 9  165 219 
 SPBC HN ES       1436 57.44                             129    0.35 9  165 219 
 SPBC HZ I        1437  2.74        28.3 0.22            115            165 219 
 ZAR  HZ EP   2   1436 38.84                             123    0.46 4  204 292 
 ZAR  HN ES       1437  3.65                             123   -0.13 9  204 292 
 ZAR  HZ I        1437 10.37        20.0 0.32            112            204 292 
 NOR  HZ EP       1436 42.21                             119    0.38 8  237 234 
 NOR  HE ES       1437  9.55                             119   -0.38 8  237 234 
 NOR  HZ I        1437 16.49        15.1 0.18            108            237 234 
 SML  HZ EP       1436 42.09                             118   -0.28 8  242 335 
 SML  HE ES       1437 10.96                             118    0.07 8  242 335 
 SML  HZ I        1437 14.12        25.8 0.10            109            242 335 
 SOCV BZ EP       1436 47.69                             112   -1.00 7  299  57 
 SOCV BN ES   4   1437 19.50                             112   -2.63 0  299  57 
 GUY2CHZ EP   4   1436 51.32                             112    1.61 0  303 235 
 GUY2CHN ES       1437 23.97                             112    0.02 7  303 235 
 GUY2CHZ I        1437 28.98         7.0 0.38                           303 235 
 ELA  HZ EP   2   1436 53.33                             110    0.37 3  331 229 
 ELA  HZ I        1437 38.34         5.2 0.21            102            331 229 
 MON  HZ EP   2   1436 54.79                             109   -0.04 3  353 308 
 MON  HN ES   4   1437 29.58                             109   -3.48 0  353 308 
 MON  HZ I        1437 34.04         5.1 0.64            102            353 308 
 ANIL HZ EP   1   1436 56.90                             108    0.99 5  360 224 
 ANIL HZ I        1437 40.68        12.1 0.26            101            360 224 
                                                                                
