 2017  830 1027 58.1 L   6.854 -73.084147.6  RSN 13 0.7 2.0LRSN                1
 GAP=188        1.25       4.4     5.6  6.6  0.8146E+01  0.9418E+01  0.2742E+01E
 Epicentro: LOS SANTOS - SANTANDER                                             3
 ACTION:UPD 17-09-04 20:26 OP:rebc STATUS:               ID:20170830102758 L   I
 OLDACT:REG 17-08-30 20:18 OP:dhb  STATUS:               ID:20170830102743     3
 2017-08-30-1028-00M.COL___389                                                 6
 STAT SP IPHASW D HRMM SECON CODA AMPLIT PERI AZIMU VELO AIN AR TRES W  DIS CAZ7
 BAR2 EZ IP     D 1028 18.24                             168    0.1310 30.9 201 
 BAR2 EZ ES       1028 33.43                             168   -0.3010 30.9 201 
 BAR2 EZ I        1028 34.30        20.1 0.36            165           30.9 201 
 BRR  HZ IP     C 1028 20.04                             152    0.4010 74.8 292 
 BRR  HN ES       1028 37.34                             152    0.8910 74.8 292 
 BRR  HZ I        1028 40.80         9.4 0.20            149           74.8 292 
 RUS  HZ EP       1028 22.55                             143    0.1110  106 180 
 RUS  HN ES       1028 40.85                             143   -0.5810  106 180 
 RUS  HZ I        1028 42.34        12.6 0.36            143            106 180 
 YPLC HZ IP     D 1028 28.72                             127    0.49 9  179 154 
 YPLC HE ES   2   1028 52.79                             127    1.05 4  179 154 
 YPLC HZ I        1028 53.84        10.8 0.44            128            179 154 
 ZAR  HZ EP       1028 30.70                             122   -0.39 8  208 290 
 ZAR  HE ES       1028 56.24                             122   -0.59 8  208 290 
 ZAR  HZ I        1029  2.01         7.5 0.13            122            208 290 
 NOR  HZ EP       1028 34.35                             118   -0.54 8  244 234 
 NOR  HE ES       1029  2.74                             118   -0.86 8  244 234 
 NOR  HZ I        1029  7.23         6.5 0.39            118            244 234 
 CHI  HZ EP       1028 36.60                             117   -0.11 8  256 196 
 CHI  HN ES       1029  6.38                             117   -0.46 8  256 196 
 CHI  HZ I        1029 12.10         5.0 0.31            117            256 196 
 HEL  HZ EP   2   1028 40.18                             115    0.89 4  280 255 
 HEL  HN ES       1029 12.64                             115    1.21 7  280 255 
 HEL  HZ I        1029 17.22         6.5 0.35            114            280 255 
 URE  HZ EP       1028 39.84                             114    0.12 7  288 290 
 URE  HN ES   2   1029 13.72                             114    1.53 4  288 290 
 GUY2CHZ EP       1028 43.35                             112    0.55 7  310 235 
 GUY2CHN ES   3   1029 19.86                             112    2.19 2  310 235 
 GUY2CHZ I        1029 26.61         5.3 0.59                           310 235 
 ELA  HE ES       1029 22.69                             110   -0.78 7  338 229 
 ELA  HZ I        1029 28.24         4.1 0.39            110            338 229 
 PRA  HZ EP       1028 52.29                             106   -0.38 6  401 210 
 PRA  HE ES       1029 35.81                             106    0.56 6  401 210 
 PRA  HZ I        1029 40.07         3.8 0.51            107            401 210 
 SJC  HZ IP     D 1028 52.99                             106   -0.58 6  408 326 
 SJC  HE ES       1029 36.05                             106   -0.80 6  408 326 
 SJC  HZ I        1029 40.34         1.8 0.26            107            408 326 
                                                                                
