 2016  530 1404 42.0 L   6.769 -73.135142.2  RSN  5 0.3 1.7LRSN                1
 GAP=139        0.80       4.2     4.3  6.5 -0.1600E+01 -0.2704E+00  0.1041E+01E
 Epicentro: LOS SANTOS - SANTANDER                                             3
 ACTION:UPD 16-08-18 17:50 OP:cam  STATUS:               ID:20160530140442 L   I
 OLDACT:REG 16-05-30 20:17 OP:cara STATUS:               ID:20160530135747     3
 2016-05-30-1357-47M.COL___304                                                 6
 STAT SP IPHASW D HRMM SECON CODA AMPLIT PERI AZIMU VELO AIN AR TRES W  DIS CAZ7
 BAR2 EZ EP       14 5  1.47                             171    0.3310 20.3 195 
 BAR2 EZ ES       14 5 16.43                             171    0.3610 20.3 195 
 BAR2 EZ I        14 5 16.63        12.1 0.26            172           20.3 195 
 BRR  HZ EP       14 5  3.02                             151    0.1010 73.9 300 
 BRR  HN ES       14 5 19.52                             151    0.2810 73.9 300 
 BRR  HZ I        14 5 23.64        14.4 0.14            150           73.9 300 
 PAM  EZ EP       14 5  3.89                             150   -0.0610 79.3  37 
 PAM  EZ ES       14 5 20.66                             150   -0.4210 79.3  37 
 PAM  EZ I        14 5 22.31         6.0 0.38            152           79.3  37 
 RUS  HZ EP       14 5  5.22                             144    0.0710 97.1 177 
 RUS  HN ES       14 5 22.95                             144   -0.2510 97.1 177 
 RUS  HZ I        14 5 24.86         4.2 0.28            147           97.1 177 
 PTB  HN ES       14 5 29.10                             131   -0.48 9  148 260 
 PTB  HZ I        14 5 31.51         8.1 0.10            132            148 260 
                                                                                
