 2017  530 1827 29.8 L   6.836 -73.133139.4  RSN  5 0.3 1.7LRSN                1
 GAP=221        0.79       6.0     5.4  8.5  0.2464E+02 -0.1278E+02 -0.1892E+02E
 Epicentro: LOS SANTOS - SANTANDER                                             3
 ACTION:UPD 17-06-16 13:40 OP:jn   STATUS:               ID:20170530182729 L   I
 OLDACT:DUP 17-05-31 00:17 OP:dani STATUS:               ID:20170530181702d    3
 OLDACT:UP  17-05-31 00:17 OP:dani STATUS:               ID:20170530181701     3
 OLDACT:UP  17-05-31 00:16 OP:dani STATUS:               ID:20170530181701     3
 OLDACT:UP  17-05-31 00:16 OP:dani STATUS:               ID:20170530181701     3
 OLDACT:UP  17-05-31 00:15 OP:dani STATUS:               ID:20170530181701     3
 OLDACT:REG 17-05-30 21:43 OP:ar   STATUS:               ID:20170530181701     3
 2017-05-30-1818-00M.COL___353                                                 6
 STAT SP IPHASW D HRMM SECON CODA AMPLIT PERI AZIMU VELO AIN AR TRES W  DIS CAZ7
 RUS  HZ EP       1827 52.97                             141   -0.2410  105 177 
 RUS  HN ES       1828 11.36                             141   -0.1210  105 177 
 RUS  HZ I        1828 12.81         7.0 0.27            135            105 177 
 PTB  HZ EP       1827 55.83                             130   -0.62 9  150 257 
 PTB  HN ES       1828 17.18                             130   -0.06 9  150 257 
 YPLC HZ EP       1827 59.34                             125   -0.07 9  180 152 
 YPLC HN ES       1828 22.91                             125    0.39 9  180 152 
 YPLC HZ I        1828 26.01         8.3 0.23            122            180 152 
 ZAR  HZ EP       1828  1.87                             121    0.06 9  204 291 
 ZAR  HN ES       1828 27.29                             121    0.51 9  204 291 
 ZAR  HZ I        1828 33.43         6.3 0.18            118            204 291 
 CHI  HZ EP       1828  8.05                             115    0.44 8  253 195 
 CHI  HN ES       1828 37.12                             115    0.01 8  253 195 
 CHI  HZ I        1828 47.27         2.0 0.33            112            253 195 
                                                                                
