 2013  730 1255 21.9 L   6.800 -73.132143.1  RSN 12 0.5 2.4LRSN                1
 GAP=138        0.99       3.1     4.1  5.4 -0.1446E+01  0.5564E+01  0.5321E+00E
 Epicentro: LOS SANTOS - SANTANDER                                             3
 ACTION:UPD 13-08-12 10:41 OP:ep   STATUS:               ID:20130730125521 L   I
 OLDACT:UP  13-07-30 16:31 OP:cam  STATUS:               ID:20130730124959     3
 OLDACT:REG 13-07-30 14:47 OP:cam  STATUS:               ID:20130730124959     3
 2013-07-30-1249-59M.COL___268                                                 6
 STAT SP IPHASW D HRMM SECON CODA AMPLIT PERI AZIMU VELO AIN AR TRES W  DIS CAZ7
 BAR2 SZ EP     C 1255 41.03                             170   -0.1410 23.6 194 
 BAR2 SZ ES       1255 55.98                             170   -0.2610 23.6 194 
 BAR2 SZ I        1255 57.26        47.7 0.12            169           23.6 194 
 GIR2 SZ EP       1255 41.09                             167   -0.1310 31.6 348 
 GIR2 SZ ES   1   1255 56.07                             167   -0.25 7 31.6 348 
 GIR2 SZ I        1255 57.97        47.6 0.36            164           31.6 348 
 BRR  HZ EP       1255 43.00                             152    0.2110 72.6 298 
 BRR  HE ES       1256  0.02                             152    0.8910 72.6 298 
 BRR  HZ I        1256  3.10        47.2 0.32            148           72.6 298 
 PAM  SZ EP     C 1255 43.99                             151    0.2610 76.4  39 
 PAM  SN ES       1256  1.08                             151    0.2910 76.4  39 
 PAM  SZ I        1256  2.85        47.0 0.50            153           76.4  39 
 RUS  HZ EP       1255 45.08                             144   -0.2510  100 177 
 RUS  HN ES       1256  3.69                             144    0.0410  100 177 
 RUS  HZ I        1256  4.73        20.9 0.30            145            100 177 
 PTB  HZ EP   1   1255 48.13                             131   -0.61 7  149 259 
 PTB  HN ES       1256  8.94                             131   -0.78 9  149 259 
 PTB  HZ I        1256 11.01        26.4 0.46            129            149 259 
 OCA  HZ EP   1   1255 50.43                             129    0.45 7  160 353 
 OCA  HE ES   1   1256 11.66                             129   -0.25 7  160 353 
 OCA  HZ I        1256 15.78        19.5 0.28            129            160 353 
 SPBC HZ EP       1255 50.02                             128   -0.22 9  164 219 
 SPBC HE ES   1   1256 12.68                             128    0.30 7  164 219 
 SPBC HZ I        1256 19.20        19.7 0.20            128            164 219 
 ZAR  HZ EP   1   1255 55.04                             122    0.76 6  206 292 
 ZAR  HE ES       1256 19.89                             122    0.32 8  206 292 
 ZAR  HZ I        1256 25.67        45.6 0.32            121            206 292 
 NOR  HZ EP   1   1255 57.69                             118    0.13 6  236 235 
 NOR  HE ES   1   1256 25.49                             118    0.07 6  236 235 
 NOR  HZ I        1256 31.16        10.1 0.16            118            236 235 
 SML  HZ EP   1   1255 57.48                             117   -0.92 6  244 335 
 SML  HN ES   1   1256 26.03                             117   -0.88 6  244 335 
 SML  HZ I        1256 35.00        36.3 0.22            117            244 335 
 PRA  HZ EP   1   1256 15.64                             106    0.27 4  393 210 
 PRA  HN ES   1   1256 57.78                             106    0.67 4  393 210 
 PRA  HZ I        1257  4.87         6.6 0.64            106            393 210 
                                                                                
