 2017  330 1758 26.3 L   6.826 -73.131148.1  RSN 17 0.7 2.6LRSN                1
 GAP=137        1.45       4.6     5.3  6.9  0.3720E-01  0.1223E+02  0.6547E+01E
 Epicentro: LOS SANTOS - SANTANDER                                             3
 ACTION:UPD 17-05-25 18:47 OP:jn   STATUS:               ID:20170330175826 L   I
 OLDACT:UP  17-03-30 22:35 OP:dnl  STATUS:               ID:20170330175742     3
 OLDACT:UP  17-03-30 22:35 OP:dnl  STATUS:               ID:20170330175742     3
 OLDACT:REG 17-03-30 21:02 OP:dnl  STATUS:               ID:20170330175742     3
 2017-03-30-1758-00M.COL___365                                                 6
 STAT SP IPHASW D HRMM SECON CODA AMPLIT PERI AZIMU VELO AIN AR TRES W  DIS CAZ7
 BAR2 EZ IP     C 1758 45.99                             169   -0.2510 26.5 192 
 BAR2 EZ ES       1759  1.68                             169   -0.1410 26.5 192 
 BAR2 EZ I        1759  4.76        98.7 0.28            164           26.5 192 
 BRR  HZ EP       1758 47.90                             153    0.2310 71.4 296 
 BRR  HE ES       1759  5.02                             153    0.6510 71.4 296 
 BRR  HZ I        1759  5.73        51.7 0.12            150           71.4 296 
 PAM  EZ IP     D 1758 48.82                             152    0.2910 74.1  40 
 PAM  EN ES       1759  5.96                             152    0.0510 74.1  40 
 PAM  EZ I        1759  6.54        37.8 0.36            160           74.1  40 
 RUS  HZ IP     C 1758 49.88                             143   -0.5610  103 177 
 RUS  HN ES       1759  8.60                             143   -0.7010  103 177 
 RUS  HZ I        1759  8.99        21.8 0.24            143            103 177 
 PTB  HZ EP   9   1758 52.55                             132   -1.07 0  150 258 
 PTB  HE ES       1759 14.07                             131    0.18 9  150 258 
 PTB  HZ I        1759 20.13        33.6 0.14            130            150 258 
 SPBC HZ EP       1758 54.89                             129   -0.36 9  166 219 
 SPBC HN ES       1759 17.93                             129    0.07 9  166 219 
 SPBC HZ I        1759 21.58        69.0 0.40            127            166 219 
 ZAR  HZ EP       1758 59.81                             123    0.90 9  205 291 
 ZAR  HE ES       1759 24.70                             123    0.33 9  205 291 
 ZAR  HZ I        1759 29.96        62.0 0.58            123            205 291 
 NOR  HZ IP     D 1759  1.95                             119   -0.50 8  238 234 
 NOR  HE ES       1759 30.89                             119    0.21 8  238 234 
 NOR  HZ I        1759 36.34        45.3 0.20            118            238 234 
 CHI  HZ EP       1759  4.12                             117   -0.32 8  252 195 
 CHI  HE ES       1759 34.90                             117    0.68 8  252 195 
 CHI  HZ I        1759 39.36        20.4 0.24            117            252 195 
 ROSC BZ EP       1759  6.03                             117    1.16 8  256 211 
 ROSC BN ES   4   1759 37.91                             117    2.93 0  256 211 
 ROSC BZ I        1759 41.82        40.4 0.35            117            256 211 
 HEL  HZ EP       1759  7.82                             115    0.97 8  274 255 
 HEL  HN ES   4   1759 41.54                             115    3.03 0  274 255 
 HEL  HZ I        1759 47.41        17.8 0.42            115            274 255 
 URE  HZ EP       1759  7.09                             114   -0.41 7  284 291 
 URE  HE ES       1759 37.29                             114   -2.37 7  284 291 
 URE  HZ I        1759 39.99        28.4 0.12            114            284 291 
 ELA  HZ EP   4   1759 15.37                             110    1.80 0  332 229 
 ELA  HN ES   4   1759 53.90                             110    3.43 0  332 229 
 ELA  HZ I        1759 58.53        15.1 0.60            111            332 229 
 CBOC HZ EP   2   1759 14.35                             110    0.80 3  336 252 
 CBOC HN ES       1759 50.57                             110    0.13 7  336 252 
 CBOC HZ I        18 0  3.11        11.7 0.42            110            336 252 
 ANIL HZ EP   4   1759 18.15                             109    1.62 0  361 224 
 ANIL HN ES   4   1759 59.24                             109    3.51 0  361 224 
 PRA  HZ EP       1759 19.60                             107   -0.65 6  395 210 
 PRA  HN ES       18 0  3.04                             107    0.68 6  395 210 
 PRA  HZ I        18 0  8.50        23.1 0.42            107            395 210 
 ORTC HZ EP       1759 20.64                             107   -0.01 6  399 216 
 ORTC HE ES   4   18 0  5.43                             107    2.36 0  399 216 
 ORTC HZ I        18 0 10.19        15.4 0.44            107            399 216 
 PAL  HZ EP       1759 22.02                             106    0.18 6  409 239 
 PAL  HE ES       18 0  4.45                             106   -0.74 6  409 239 
 PAL  HZ I        18 0  8.97        10.7 0.22            106            409 239 
                                                                                
