 2016  530 1351 42.0 L   6.557 -73.561107.2  RSN  7 0.3 1.7LRSN                1
 GAP= 76        0.93       3.3     3.1  6.3 -0.3266E+01  0.3314E+01  0.2420E+01E
 Epicentro: EL CARMEN - SANTANDER                                              3
 ACTION:UPD 16-08-18 17:50 OP:cam  STATUS:               ID:20160530135142 L   I
 OLDACT:REG 16-05-30 20:16 OP:cara STATUS:               ID:20160530134745     3
 2016-05-30-1347-45M.COL___304                                                 6
 STAT SP IPHASW D HRMM SECON CODA AMPLIT PERI AZIMU VELO AIN AR TRES W  DIS CAZ7
 BAR2 EZ IP       1351 58.06                             157    0.3810 42.1  85 
 BAR2 EZ ES       1352 10.05                             157    0.1110 42.1  85 
 BRR  HZ EP       1351 58.90                             147    0.3610 63.1 345 
 BRR  HE ES       1352 11.76                             147    0.2910 63.1 345 
 BRR  HZ I        1352 18.46        10.4 0.42            151           63.1 345 
 RUS  HZ EP       1352  1.01                             137   -0.2810 90.5 144 
 RUS  HN ES       1352 15.99                             137   -0.3810 90.5 144 
 RUS  HZ I        1352 17.89         9.6 0.42            144           90.5 144 
 PTB  HZ EP     D 1352  0.77                             134   -0.6010 99.0 269 
 PTB  HN ES       1352 16.07                             134   -0.4310 99.0 269 
 PTB  HZ I        1352 19.93        11.2 0.14            137           99.0 269 
 SPBC HZ EP       1352  3.29                             129    0.3710  115 210 
 SPBC HN ES       1352 19.73                             129    0.4610  115 210 
 SPBC HZ I        1352 26.55        10.2 0.18            134            115 210 
 PAM  EZ EP       1352  4.76                             126   -0.0210  129  48 
 PAM  EN ES       1352 22.29                             126   -0.3010  129  48 
 PAM  EZ I        1352 23.64         8.0 0.46            134            129  48 
 NOR  HZ EP       1352 10.04                             115    0.25 9  182 233 
 NOR  HN ES       1352 31.32                             115   -0.18 9  182 233 
 NOR  HZ I        1352 35.47         7.9 0.20            120            182 233 
                                                                                
