 2016  630 1036 19.5 L   6.333 -73.733 99.8  RSN  5 0.4 1.5LRSN                1
 GAP=109        1.00       4.7     3.8  9.8  0.2540E+01  0.1091E+02 -0.1639E+02E
 Epicentro: SANTA HELENA DEL OPON - SANTANDER                                  3
 ACTION:UPD 16-07-21 22:24 OP:rebc STATUS:               ID:20160630103619 L   I
 OLDACT:UP  16-06-30 22:52 OP:ak   STATUS:               ID:20160630102740     3
 OLDACT:REG 16-06-30 21:30 OP:ak   STATUS:               ID:20160630102740     3
 2016-06-30-1027-40M.COL___334                                                 6
 STAT SP IPHASW D HRMM SECON CODA AMPLIT PERI AZIMU VELO AIN AR TRES W  DIS CAZ7
 BAR2 EZ EP       1036 35.85                             144   -0.0910 67.3  65 
 BAR2 EZ ES       1036 48.80                             144    0.0210 67.3  65 
 BAR2 EZ I        1036 49.86        15.1 0.32                          67.3  65 
 PTB  HZ IP     C 1036 36.54                             137   -0.3410 83.3 286 
 PTB  HN ES       1036 49.85                             137   -0.6110 83.3 286 
 SPBC HZ EP   1   1036 36.84                             137   -0.22 7 84.1 207 
 SPBC HN ES       1036 51.27                             137    0.4910 84.1 207 
 SPBC HZ I        1036 54.42         6.4 0.32                          84.1 207 
 RUS  HE ES       1036 52.23                             136    0.0710 86.8 124 
 ZAR  HZ EP       1036 46.48                             115   -0.05 9  179 316 
 ZAR  HN ES       1037  8.42                             115    0.79 9  179 316 
                                                                                
