 2015  730 1323 52.0 L   6.810 -73.120144.5  RSN  9 0.4 2.1LRSN                1
 GAP=139        1.01       3.4     4.2  6.0 -0.2883E+01  0.9996E+01  0.4244E+00E
 Epicentro: LOS SANTOS - SANTANDER                                             3
 ACTION:UPD 15-09-08 21:51 OP:cam  STATUS:               ID:20150730132352 L   I
 OLDACT:DUP 15-07-30 22:59 OP:drio STATUS:               ID:20150730131751d    3
 OLDACT:REG 15-07-30 20:12 OP:drio STATUS:               ID:20150730131749     3
 2015-07-30-1317-49M.COL___346                                                 6
 STAT SP IPHASW D HRMM SECON CODA AMPLIT PERI AZIMU VELO AIN AR TRES W  DIS CAZ7
 BAR2 EZ EP     D 1324 11.38                             170   -0.1710 25.1 196 
 BAR2 EZ ES       1324 26.12                             170   -0.6510 25.1 196 
 BAR2 EZ I        1324 27.23        26.1 0.40            170           25.1 196 
 BRR  HZ EP       1324 13.43                             152    0.2710 73.2 297 
 BRR  HN ES       1324 30.14                             152    0.5010 73.2 297 
 BRR  HZ I        1324 31.39        12.7 0.14            148           73.2 297 
 PAM  EZ EP       1324 14.41                             151    0.4510 74.7  38 
 PAM  EN ES       1324 31.47                             151    0.4210 74.7  38 
 PAM  EZ I        1324 33.04        35.6 0.56            153           74.7  38 
 RUS  HZ EP       1324 15.89                             143    0.1610  102 178 
 RUS  HN ES       1324 34.22                             143    0.0110  102 178 
 RUS  HZ I        1324 34.82        13.9 0.30            146            102 178 
 OCA  HZ EP       1324 19.65                             129   -0.53 9  160 352 
 OCA  HN ES       1324 41.46                             129   -0.67 9  160 352 
 OCA  HZ I        1324 46.19        41.0 0.30            129            160 352 
 ZAR  HZ EP       1324 24.86                             122    0.23 8  206 292 
 ZAR  HE ES       1324 50.28                             122    0.23 8  206 292 
 ZAR  HZ I        1324 57.83        12.3 0.24            121            206 292 
 NOR  HZ EP       1324 27.41                             118   -0.60 8  238 235 
 NOR  HN ES       1324 55.74                             118   -0.33 8  238 235 
 NOR  HZ I        1324 57.47        11.3 0.16            118            238 235 
 HEL  HE ES       1325  3.97                             114   -0.13 8  275 256 
 HEL  HZ I        1325 10.61         5.6 0.22            115            275 256 
 GUY2CHZ EP       1324 36.30                             112    0.37 7  304 235 
 GUY2CHN ES       1325 10.50                             112    0.34 7  304 235 
 GUY2CHZ I        1325 18.84         5.8 0.60                           304 235 
                                                                                
