 2017  930 1658 14.4 L   6.893 -73.314125.8  RSN 15 0.7 2.2LRSN                1
 GAP= 86        1.29       3.8     3.7  7.3  0.2262E+01  0.1130E+02  0.2517E+01E
 Epicentro: BETULIA - SANTANDER                                                3
 ACTION:UPD 17-10-05 19:18 OP:rebc STATUS:               ID:20170930165814 L   I
 OLDACT:UP  17-10-01 00:01 OP:osc  STATUS:               ID:20170930165745     3
 OLDACT:UP  17-10-01 00:00 OP:osc  STATUS:               ID:20170930165745     3
 OLDACT:REG 17-09-30 21:00 OP:osc  STATUS:               ID:20170930165745     3
 2017-09-30-1658-00M.COL___420                                                 6
 STAT SP IPHASW D HRMM SECON CODA AMPLIT PERI AZIMU VELO AIN AR TRES W  DIS CAZ7
 BAR2 EZ EP       1658 31.89                             163   -0.0910 36.3 156 
 BAR2 EZ ES       1658 45.24                             163   -0.4810 36.3 156 
 PAM  EZ EP       1658 35.21                             144    0.2710 83.9  54 
 PAM  EE ES       1658 52.03                             144    1.0310 83.9  54 
 PAM  EZ I        1658 53.56        51.9 0.30            148           83.9  54 
 RUS  HZ EP       1658 36.90                             135   -0.3710  114 167 
 RUS  HN ES       1658 54.65                             135   -0.5010  114 167 
 TAM  HZ EP       1658 42.73                             122    0.09 9  176 107 
 TAM  HE ES   2   1659  3.49                             122   -1.21 4  176 107 
 ZAR  HZ EP       1658 43.93                             121    0.60 9  183 291 
 ZAR  HE ES       1659  6.73                             121    0.79 9  183 291 
 ZAR  HZ I        1659 11.99        30.3 0.22            121            183 291 
 YPLC HZ EP       1658 44.82                             119    0.11 9  195 148 
 YPLC HN ES       1659  8.46                             119    0.07 9  195 148 
 NOR  HZ EP       1658 47.48                             115   -0.60 8  226 230 
 NOR  HE ES       1659 14.36                             115   -0.03 8  226 230 
 NOR  HZ I        1659 17.28        10.9 0.32            116            226 230 
 CHI  HZ EP       1658 51.80                             112    0.11 8  255 190 
 CHI  HN ES       1659 21.08                             112    0.26 8  255 190 
 CHI  HZ I        1659 24.72         4.6 0.42            114            255 190 
 HEL  HZ EP   4   1658 53.07                             112    1.16 0  257 253 
 HEL  HE ES   4   1659 17.39                             112   -3.81 0  257 253 
 HEL  HZ I        1659 26.35        14.0 0.48            113            257 253 
 URE  HZ EP       1658 51.40                             111   -0.72 8  263 291 
 URE  HE ES       1659 20.49                             111   -1.08 8  263 291 
 URE  HZ I        1659 22.31        15.4 0.16            112            263 291 
 GUY2CHZ EP   9   1658 57.84                             109    1.72 0  293 231 
 GUY2CHE ES       1659 29.95                             108   -0.47 7  293 231 
 GUY2CHZ I        1659 35.85        10.5 0.30                           293 231 
 DBB  EZ EP       1658 59.30                             107    0.45 7  320 273 
 DBB  EE ES       1659 32.85                             107   -0.70 7  320 273 
 DBB  EZ I        1659 37.78         8.3 0.18            108            320 273 
 ELA  HZ EP   3   1659  2.85                             107    3.21 2  322 226 
 ELA  HE ES       1659 35.54                             107    0.58 7  322 226 
 SJC  HZ EP       1659  5.99                             103   -1.12 6  391 328 
 SJC  HE ES   4   1659 45.72                             103   -2.54 0  391 328 
 SJC  HZ I        1659 52.36         3.2 0.26            104            391 328 
 PRA  HZ EP       1659  8.02                             103    0.72 6  392 206 
 PRA  HE ES       1659 49.23                             103    0.64 6  392 206 
 PRA  HZ I        1659 53.85         5.8 0.34            104            392 206 
                                                                                
