 2016  430 1221 17.6 L   6.782 -73.134147.5  RSN  5 0.3 1.6LRSN                1
 GAP=139        0.78       3.5     4.4  6.1 -0.2342E+01  0.1111E+02 -0.2545E+01E
 Epicentro: LOS SANTOS - SANTANDER                                             3
 ACTION:UPD 16-05-05 14:25 OP:rebc STATUS:               ID:20160430122117 L   I
 OLDACT:REG 16-04-30 21:12 OP:cara STATUS:               ID:20160430121753     3
 2016-04-30-1218-00M.COL___217                                                 6
 STAT SP IPHASW D HRMM SECON CODA AMPLIT PERI AZIMU VELO AIN AR TRES W  DIS CAZ7
 BAR2 EZ IP       1221 37.44                             171    0.0410 21.6 194 
 BAR2 HE ES       1221 52.76                             171   -0.0910 21.6 194 
 BAR2 EZ I        1221 55.07         8.3 0.52            169           21.6 194 
 PAM  EZ IP       1221 40.37                             151    0.3310 78.2  38 
 PAM  EN ES       1221 57.65                             151    0.1010 78.2  38 
 PAM  EZ I        1221 59.64         4.3 0.32            156           78.2  38 
 RUS  HZ EP       1221 40.83                             145   -0.5310 98.5 177 
 RUS  HN ES       1221 59.69                             145   -0.2210 98.5 177 
 RUS  HZ I        1222  1.28         3.0 0.40            147           98.5 177 
 SPBC HZ EP       1221 46.49                             130    0.34 9  162 220 
 SPBC HN ES       1222  8.90                             130    0.47 9  162 220 
 SPBC HZ I        1222 16.17         7.6 0.32            131            162 220 
 ZAR  HZ EP       1221 50.11                             122   -0.24 8  206 293 
 ZAR  HN ES       1222 15.73                             122   -0.17 8  206 293 
 ZAR  HZ I        1222 21.51         4.4 0.34            123            206 293 
                                                                                
