 2014  130 1602 32.8 L   6.818 -73.172143.9  RSN 18 0.5 2.5LRSN                1
 GAP=132        1.08       2.4     3.7  5.0 -0.2102E+01  0.5028E+01 -0.1899E+00E
 Epicentro: LOS SANTOS - SANTANDER                                             3
 ACTION:UPD 14-03-13 09:59 OP:ep   STATUS:               ID:20140130160232 L   I
 OLDACT:REG 14-01-30 15:29 OP:nd   STATUS:               ID:20140130160000     3
 2014-01-30-1600-00M.COL___288                                                 6
 STAT SP IPHASW D HRMM SECON CODA AMPLIT PERI AZIMU VELO AIN AR TRES W  DIS CAZ7
 BAR2 SZ EP       16 2 52.43                             170    0.2310 25.0 183 
 BAR2 SZ ES       16 3  7.00                             170   -0.3610 25.0 183 
 BAR2 SZ I        16 3  8.72       221.6 0.36            170           25.0 183 
 BRR  HZ IP     D 16 2 54.15                             153    0.6410 67.7 298 
 BRR  HN ES       16 3 10.49                             153    0.7910 67.7 298 
 BRR  HZ I        16 3 15.12        79.8 0.46            149           67.7 298 
 PAM  SZ EP       16 2 55.15                             150    0.3410 77.8  42 
 PAM  SN ES       16 3 12.12                             150    0.1210 77.8  42 
 PAM  SZ I        16 3 14.49        68.1 0.56            153           77.8  42 
 RUS  HZ EP     C 16 2 56.27                             143   -0.2210  103 174 
 RUS  HN ES       16 3 14.73                             143   -0.2710  103 174 
 RUS  HZ I        16 3 15.99        29.6 0.30            147            103 174 
 PTB  HZ EP       16 2 59.17                             132   -0.18 9  145 258 
 PTB  HN ES       16 3 19.60                             132   -0.49 9  145 258 
 PTB  HZ I        16 3 25.77        42.2 0.52            131            145 258 
 OCA  HZ EP       16 3  0.17                             130   -0.55 9  158 354 
 OCA  HN ES       16 3 22.48                             130   -0.04 9  158 354 
 OCA  HZ I        16 3 28.95        39.7 0.26            130            158 354 
 SPBC HZ EP       16 3  1.14                             129    0.05 9  163 218 
 SPBC HN ES       16 3 22.94                             129   -0.25 9  163 218 
 SPBC HZ I        16 3 28.22        53.5 0.32            129            163 218 
 ZAR  HZ EP       16 3  4.51                             122   -0.22 9  201 292 
 ZAR  HN ES       16 3 29.23                             122   -0.43 9  201 292 
 ZAR  HZ I        16 3 37.06        46.7 0.36            122            201 292 
 NOR  HZ EP       16 3  8.50                             118    0.25 8  233 234 
 NOR  HN ES       16 3 35.90                             118   -0.03 8  233 234 
 NOR  HZ I        16 3 41.91        19.9 0.20            119            233 234 
 SML  HZ EP       16 3  8.67                             117   -0.29 8  241 336 
 SML  HN ES       16 3 37.22                             117    0.03 8  241 336 
 SML  HZ I        16 3 41.07        59.6 0.10            118            241 336 
 CHI  HZ EP       16 3 10.58                             117    0.09 8  250 194 
 CHI  HN ES       16 3 39.71                             117   -0.19 8  250 194 
 CHI  HZ I        16 3 43.42        21.4 0.62            119            250 194 
 HEL  HZ EP       16 3 14.18                             115    1.56 8  270 255 
 HEL  HN ES       16 3 43.70                             115   -0.00 8  270 255 
 HEL  HZ I        16 3 51.56        13.5 0.24            115            270 255 
 URE  HZ EP   4   16 3 12.86                             113   -0.50 0  280 292 
 URE  HN ES   4   16 3 45.01                             113   -0.00 0  280 292 
 URE  HZ I        16 3 50.05        22.6 0.14            113            280 292 
 GUY2CHZ EP       16 3 16.95                             112    0.80 7  300 234 
 GUY2CHN ES       16 3 49.57                             112   -0.41 7  300 234 
 GUY2CHZ I        16 3 56.60        12.4 0.32                           300 234 
 CBOC HZ EP   4   16 3 20.55                             110    1.20 0  331 252 
 CBOC HN ES   4   16 3 54.82                             110   -0.86 0  331 252 
 CBOC HZ I        16 4  2.52         3.6 0.10            110            331 252 
 COD  HZ EP       16 3 19.81                             109   -1.00 6  346 355 
 COD  HN ES       16 3 58.33                             109    0.04 6  346 355 
 COD  HZ I        16 4  8.96         7.6 0.24            110            346 355 
 PRA  HZ EP       16 3 25.96                             106   -0.29 6  392 209 
 PRA  HN ES       16 4  7.84                             106   -0.13 6  392 209 
 PRA  HZ I        16 4 12.67        16.9 0.38            107            392 209 
 SJC  HZ EP   4   16 3 26.46                             105   -1.43 0  406 327 
 SJC  HN ES   4   16 4  7.08                             105   -3.80 0  406 327 
 SJC  HZ I        16 4 22.09         9.7 0.74            106            406 327 
                                                                                
