 2010  330 1458  0.5 L   6.806 -72.930143.7  RSN  5 0.5 2.1LRSN                1
 GAP=281        0.79      10.7    10.3 10.7 -0.8286E+01  0.2887E+02  0.5172E+02E
 Epicentro: CEPITA - SANTANDER                                                 3
 ACTION:UP  10-08-24 09:56 OP:vdl  STATUS:               ID:20100330145800 L   I
 2010-03-30-1455-11S.COL___098                                                 6
 STAT SP IPHASW D HRMM SECON CODA AMPLIT PERI AZIMU VELO SNR AR TRES W  DIS CAZ7
 BAR2 SZ IP       1458 20.71                             166     0.410   37 230 
 BAR2 SZ ES   2   1458 35.29                             166    -0.4 5   37 230 
 BRR  HZ EP   1   1458 22.73                             146    -0.1 7   93 291 
 BRR  HE ES   2   1458 39.76                             146    -0.4 5   93 291 
 BRR  HZ I        1458 44.20        24.2 0.14                            93 291 
 HEL  HZ EP   1   1458 42.51                             113    -0.8 5  295 257 
 HEL  HE ES   2   1459 17.34                             113     0.8 4  295 257 
 HEL  HZ I        1459 19.27         6.6 0.38                           295 257 
 RREF BZ EP   1   1458 48.77                             109     0.0 5  341 232 
 RREF BE ES   2   1459 26.76                             109     0.4 3  341 232 
 RREF BZ I        1459 29.72         4.9 0.21                           341 232 
 PRA  HZ EP   1   1458 55.14                             106    -0.4 4  405 212 
 PRA  HN ES   2   1459 37.73                             106    -0.6 3  405 212 
 PRA  HZ I        1459 41.86         3.0 0.64                           405 212 
                                                                                
