 2011  430 1239 16.9 L   6.356 -73.570115.9  RSN  5 0.2 1.6LRSN                1
 GAP=111        0.57       3.8     3.5  6.5  0.1171E+01  0.8238E+01  0.7250E+01E
 Epicentro: SANTA HELENA DEL OPON - SANTANDER                                  3
 ACTION:UP  11-06-22 15:34 OP:REBC STATUS:               ID:20110430123916 L   I
 2011-04-30-1235-39S.COL___130                                                 6
 STAT SP IPHASW D HRMM SECON CODA AMPLIT PERI AZIMU VELO SNR AR TRES W  DIS CAZ7
 BAR2 SZ EP   1   1239 34.33                             155     0.3 7   50  59 
 BAR2 SZ I        1239 34.64        18.1 0.32                            50  59 
 BAR2 SZ ES   1   1239 47.35                             155     0.0 7   50  59 
 RUS  HZ EP   1   1239 35.67                             145    -0.2 7   74 134 
 RUS  HN ES   1   1239 50.46                             145    -0.1 7   74 134 
 RUS  HZ I        1239 51.53         5.3 0.19                            74 134 
 BRR  HZ EP   1   1239 35.44                             141    -0.4 7   85 349 
 BRR  HZ I        1239 39.21        16.1 0.13                            85 349 
 BRR  HN ES   2   1239 51.01                             141     0.3 5   85 349 
 NOR  SZ EP   1   1239 43.79                             120     0.0 7  168 239 
 NOR  SN ES   1   1240  4.83                             120     0.1 7  168 239 
 NOR  SZ I        1240  9.21         1.2 0.14                           168 239 
 YOP  SZ EP   1   1239 44.20                             120     0.3 7  169 131 
 YOP  SE ES   2   1240  4.84                             120    -0.1 5  169 131 
 YOP  SZ I        1240  7.87        11.6 0.44                           169 131 
                                                                                
