 2012  730 1903 27.2 L   6.760 -73.171153.8  RSN  6 0.5 1.8LRSN                1
 GAP=231        1.07       8.0     7.6 10.4  0.1902E+02  0.1173E+02 -0.4167E+01E
 Epicentro: LOS SANTOS - SANTANDER                                             3
 ACTION:UPD 12-08-14 11:46 OP:ep   STATUS:               ID:20120730190327 L   I
 2012-07-30-1900-00M.COL___209                                                 6
 STAT SP IPHASW D HRMM SECON CODA AMPLIT PERI AZIMU VELO AIN AR TRES W  DIS CAZ7
 BAR2 SZ EP       19 3 47.65                             173    -0.110   19 184 
 BAR2 SZ ES   2   19 4  3.45                             173    -0.3 5   19 184 
 BAR2 SZ I        19 4  4.75        13.0 0.48            171             19 184 
 BRR  HZ EP       19 3 49.62                             154     0.410   71 303 
 BRR  HZ I        19 3 49.83        14.9 0.14            151             71 303 
 BRR  HE ES   1   19 4  7.04                             154     0.7 7   71 303 
 RUS  HZ EP   1   19 3 51.77                             147     0.3 7   96 174 
 RUS  HE ES   1   19 4  9.81                             147    -0.6 7   96 174 
 RUS  HZ I        19 4 11.14         6.6 0.25            150             96 174 
 PTB  HZ EP       19 3 54.25                             135    -0.3 9  144 260 
 PTB  HN ES   1   19 4 15.47                             135    -0.4 7  144 260 
 PTB  HZ I        19 4 20.39         5.6 0.16            134            144 260 
 ZAR  HZ EP   1   19 3 59.56                             124    -0.5 6  203 294 
 ZAR  HN ES   1   19 4 25.13                             124    -0.6 6  203 294 
 ZAR  HZ I        19 4 32.77        10.6 0.37            124            203 294 
 NOR  SZ EP   2   19 4  3.28                             121     0.4 4  230 235 
 NOR  SN ES   1   19 4 31.54                             121     0.8 6  230 235 
