 2013  430 2040  9.4 L   6.825 -73.205130.7  RSN  5 0.4 1.6LRSN                1
 GAP=128        0.89       5.4     5.0  7.3 -0.5408E+01  0.4988E+01  0.1277E+02E
 Epicentro: ZAPATOCA - SANTANDER                                               3
 ACTION:UPD 13-05-22 14:41 OP:EP   STATUS:               ID:20130430204009 L   I
 2013-04-30-2040-00M.COL___253                                                 6
 STAT SP IPHASW D HRMM SECON CODA AMPLIT PERI AZIMU VELO AIN AR TRES W  DIS CAZ7
 GIR2 SZ EP       2040 26.99                             167   -0.1710 28.1   3 
 GIR2 SZ ES       2040 40.53                             167   -0.5110 28.1   3 
 GIR2 SZ I        2040 44.15         8.1 0.38            167           28.1   3 
 BRR  HZ EP       2040 28.98                             152    0.5010 64.1 299 
 BRR  HN ES   1   2040 43.43                             152    0.03 7 64.1 299 
 BRR  HZ I        2040 49.97        13.8 0.14            151           64.1 299 
 PAM  SZ IP     C 2040 30.18                             147    0.0310 79.7  44 
 PAM  SN ES       2040 46.67                             147    0.3010 79.7  44 
 PAM  SZ I        2040 49.17         6.9 0.42            154           79.7  44 
 RUS  HZ EP       2040 31.99                             139    0.0610  104 173 
 RUS  HN ES   1   2040 49.58                             139    0.05 7  104 173 
 RUS  HZ I        2040 51.38         4.5 0.36            145            104 173 
 PTB  HZ EP       2040 34.00                             129   -0.59 9  142 257 
 PTB  HN ES   1   2040 54.79                             129    0.52 7  142 257 
 PTB  HZ I        2041  1.10         6.7 0.22            131            142 257 
                                                                                
