 2012 1130 2050 45.5 L   7.430 -73.194131.8  RSN  8 0.4 2.2LRSN                1
 GAP=133        0.83       3.8     4.6  7.2  0.2192E+01  0.1491E+02 -0.1133E+01E
 Epicentro: EL PLAYON - SANTANDER                                              3
 ACTION:UPD 12-12-05 15:37 OP:}ep  STATUS:               ID:20121130205045 L   I
 2012-11-30-2050-00M.COL___236                                                 6
 STAT SP IPHASW D HRMM SECON CODA AMPLIT PERI AZIMU VELO AIN AR TRES W  DIS CAZ7
 GIR2 SZ EP     C 2051  3.97                             163    0.1810 38.9 180 
 GIR2 SZ ES   1   2051 17.72                             163   -0.31 7 38.9 180 
 GIR2 SZ I        2051 18.57        33.0 0.26                          38.9 180 
 PAM  SZ EP   1   2051  5.58                             156    0.56 7 55.5 100 
 PAM  SN ES   1   2051 20.59                             156    0.37 7 55.5 100 
 PAM  SZ I        2051 21.83        19.9 0.16                          55.5 100 
 BAR2 SZ EP   1   2051  7.01                             143    0.04 7 92.7 179 
 BAR2 SZ ES   1   2051 23.71                             143    0.01 7 92.7 179 
 BAR2 SZ I        2051 24.72       106.0 0.12                          92.7 179 
 RUS  HZ EP   1   2051 13.35                             125   -0.90 7  170 176 
 RUS  HN ES   1   2051 36.24                             125   -0.41 7  170 176 
 RUS  HZ I        2051 39.82         7.1 0.38                           170 176 
 PTB  HZ EP   1   2051 13.88                             124    0.23 7  171 235 
 PTB  HE ES   1   2051 35.12                             124   -0.46 7  171 235 
 PTB  HZ I        2051 39.52        21.1 0.20                           171 235 
 SML  HZ EP   1   2051 14.39                             123   -0.15 7  180 328 
 SML  HN ES   1   2051 36.41                             123   -0.76 7  180 328 
 ZAR  HZ EP   1   2051 15.09                             122    0.12 7  184 272 
 ZAR  HN ES   1   2051 38.60                             122    0.67 7  184 272 
 NOR  HZ EP   1   2051 25.64                             111    0.37 6  277 222 
 NOR  HE ES   1   2051 56.56                             111    0.30 6  277 222 
 NOR  HZ I        2052  2.51        13.3 0.20                           277 222 
                                                                                
