 2012 1030 2127 37.6 L   6.798 -73.150139.3  RSN  8 0.2 2.4LRSN                1
 GAP=136        0.47       2.2     3.3  4.0 -0.6137E+00  0.6917E+01  0.1942E+01E
 Epicentro: LOS SANTOS - SANTANDER                                             3
 ACTION:UPD 12-11-22 17:06 OP:ep   STATUS:               ID:20121030212737 L   I
 2012-10-30-2120-00M.COL___231                                                 6
 STAT SP IPHASW D HRMM SECON CODA AMPLIT PERI AZIMU VELO AIN AR TRES W  DIS CAZ7
 BAR2 SZ EP   1   2127 56.39                             170   -0.06 7 23.1 189 
 BAR2 SZ ES   1   2128 11.26                             170    0.11 7 23.1 189 
 BAR2 SZ I        2128 12.93        71.2 0.16                          23.1 189 
 PAM  SZ EP       2127 59.17                             149    0.0010 77.8  40 
 PAM  SN ES       2128 16.07                             149    0.0910 77.8  40 
 PAM  SZ I        2128 18.31        33.6 0.44                          77.8  40 
 RUS  HZ EP       2128  0.53                             142   -0.1910  100 176 
 RUS  HZ I        2128  1.67        28.0 0.17                           100 176 
 RUS  HE ES   1   2128 18.65                             142   -0.09 7  100 176 
 ZAR  HZ EP   1   2128  9.54                             121   -0.05 6  204 292 
 ZAR  HE ES   1   2128 34.25                             121   -0.29 6  204 292 
 ZAR  HZ I        2128 39.96        30.8 0.37                           204 292 
 CHI  HZ EP   1   2128 14.59                             116   -0.33 6  248 195 
 CHI  HN ES   1   2128 44.20                             116    0.17 6  248 195 
 CHI  HZ I        2128 51.98         9.7 0.48                           248 195 
 ROSC BZ EP   1   2128 15.88                             115    0.55 6  252 211 
 ROSC BZ I        2128 51.50        22.5 0.48                           252 211 
 HEL  HZ EP   1   2128 17.98                             113    0.55 6  272 256 
 HEL  HZ I        2128 54.73        10.9 0.44                           272 256 
 PRA  HZ EP   1   2128 30.63                             105   -0.23 4  392 210 
 PRA  HE ES   1   2129 12.40                             105    0.00 4  392 210 
 PRA  HZ I        2129 17.24         9.9 0.31                           392 210 
                                                                                
