 2011 1230 2206 16.2 L   6.759 -73.105142.2  RSN  4 0.1 1.5LRSN                1
 GAP=144        0.32       2.1     3.3  4.0 -0.7558E+00 -0.8399E-01  0.2381E+01E
 Epicentro: LOS SANTOS - SANTANDER                                             3
 ACTION:UPD 12-07-13 16:19 OP:ep   STATUS:               ID:20111230220616 L   I
 2011-12-30-2200-00M.COL___186                                                 6
 STAT SP IPHASW D HRMM SECON CODA AMPLIT PERI AZIMU VELO AIN AR TRES W  DIS CAZ7
 BRR  HZ EP   1   22 6 37.17                             150   -0.14 7 77.3 300 
 BRR  HZ I        22 6 37.53        11.4 0.14                          77.3 300 
 BRR  HE ES   1   22 6 53.86                             150    0.07 7 77.3 300 
 PAM  SZ EP   1   22 6 38.17                             150    0.10 7 78.3  35 
 PAM  SN ES   1   22 6 55.04                             150   -0.10 7 78.3  35 
 RUS  HZ EP   1   22 6 39.24                             144    0.00 7 95.8 179 
 RUS  HE ES   1   22 6 57.31                             144    0.09 7 95.8 179 
 RUS  HZ I        22 6 59.70         3.4 0.39                          95.8 179 
 CHI  HZ EP   2   22 6 53.51                             117    0.17 4  245 196 
 CHI  HN ES   2   22 7 22.04                             117   -0.28 4  245 196 
 CHI  HZ I        22 7 28.81         2.0 0.48                           245 196 
                                                                                
