 2016  730 2053 10.4 L   6.129 -73.594123.4  RSN  4 0.3 1.5LRSN                1
 GAP=229        0.71       7.8     4.0  5.9 -0.1346E+02  0.6589E+01  0.4382E+01E
 Epicentro: LA PAZ - SANTANDER                                                 3
 ACTION:UPD 17-03-29 16:57 OP:lp   STATUS:               ID:20160730205310 L   I
 OLDACT:REG 16-07-31 02:29 OP:lv   STATUS:               ID:20160730204759     3
 2016-07-30-2047-59S.COL___346                                                 6
 STAT SP IPHASW D HRMM SECON CODA AMPLIT PERI AZIMU VELO AIN AR TRES W  DIS CAZ7
 RUS  HZ EP       2053 29.56                             152    0.1910 62.2 115 
 RUS  HN ES       2053 44.09                             152   -0.0610 62.2 115 
 RUS  HZ I        2053 45.76         3.4 0.22            148           62.2 115 
 SPBC HZ EP       2053 29.81                             147    0.2410 74.7 225 
 SPBC HE ES       2053 44.21                             147   -0.3010 74.7 225 
 SPBC HZ I        2053 48.30         5.7 0.09            141           74.7 225 
 NOR  HZ EP       2053 36.32                             125   -0.07 9  154 246 
 NOR  HE ES       2053 56.77                             125    0.13 9  154 246 
 NOR  HZ I        2054  0.21         5.0 0.18            124            154 246 
 PRA  HZ EP       2053 52.09                             107   -0.69 7  303 208 
 PRA  HN ES       2054 26.24                             107    0.43 7  303 208 
 PRA  HZ I        2054 33.86         2.7 0.53            107            303 208 
                                                                                
