 2016  430 2130 43.7 L   6.810 -73.186144.8  RSN  5 0.1 1.6LRSN                1
 GAP=145        0.44       2.5     2.5  3.4 -0.2818E+01  0.2503E+01 -0.5051E+00E
 Epicentro: ZAPATOCA - SANTANDER                                               3
 ACTION:UPD 16-05-05 14:25 OP:rebc STATUS:               ID:20160430213043 L   I
 OLDACT:REG 16-05-01 00:49 OP:drio STATUS:               ID:20160430212747     3
 2016-04-30-2127-47M.COL___301                                                 6
 STAT SP IPHASW D HRMM SECON CODA AMPLIT PERI AZIMU VELO AIN AR TRES W  DIS CAZ7
 BAR2 EZ EP       2131  2.95                             170   -0.2510 24.1 179 
 BAR2 EZ ES       2131 18.28                             170   -0.1510 24.1 179 
 BAR2 EZ I        2131 19.66        11.0 0.20            170           24.1 179 
 PAM  EZ EP       2131  6.05                             150    0.1410 79.5  43 
 PAM  EN ES       2131 23.33                             150    0.0810 79.5  43 
 PAM  EZ I        2131 25.60         4.9 0.58            155           79.5  43 
 RUS  HZ EP       2131  7.39                             143   -0.0510  102 174 
 RUS  HN ES       2131 26.11                             143    0.1310  102 174 
 RUS  HZ I        2131 27.41         4.4 0.22            147            102 174 
 PTB  HZ EP       2131 10.00                             133   -0.18 9  144 258 
 PTB  HN ES       2131 31.01                             133    0.15 9  144 258 
 PTB  HZ I        2131 38.29         4.7 0.44            132            144 258 
 SPBC HZ EP       2131 12.10                             129    0.18 9  161 217 
 SPBC HN ES       2131 33.92                             129   -0.03 9  161 217 
 SPBC HZ I        2131 40.95         6.8 0.30            130            161 217 
                                                                                
