 2014 1030 2213 57.9 L   6.799 -73.176142.0  RSN 10 0.5 2.5LRSN                1
 GAP= 64        1.16       3.7     4.2  6.5 -0.8247E-01 -0.9789E+00  0.4254E+01E
 Epicentro: LOS SANTOS - SANTANDER                                             3
 ACTION:UPD 14-11-29 23:58 OP:nd   STATUS:               ID:20141030221357 L   I
 OLDACT:UP  14-11-25 15:30 OP:cam  STATUS:               ID:20141030220816     3
 OLDACT:UP  14-11-25 15:30 OP:cam  STATUS:               ID:20141030220816     3
 OLDACT:REG 14-11-25 15:08 OP:cam  STATUS:               ID:20141030220816     3
 2014-10-30-2208-16M.COL___274                                                 6
 STAT SP IPHASW D HRMM SECON CODA AMPLIT PERI AZIMU VELO AIN AR TRES W  DIS CAZ7
 BAR2 SZ IP     D 2214 17.27                             170    0.1710 22.9 182 
 BAR2 SZ ES       2214 31.48                             170   -0.5710 22.9 182 
 BAR2 SZ I        2214 33.65        80.8 0.20            170           22.9 182 
 BRR  HZ IP     C 2214 19.12                             153    0.6110 68.3 300 
 BRR  HE ES       2214 34.93                             153    0.3710 68.3 300 
 BRR  HZ I        2214 40.02        56.8 0.12            153           68.3 300 
 PAM  SZ EP     C 2214 20.06                             149    0.1710 79.6  41 
 PAM  SN ES       2214 37.21                             149    0.2010 79.6  41 
 PAM  SZ I        2214 39.46        76.8 0.62            152           79.6  41 
 RUS  HZ EP       2214 21.24                             143   -0.0910  101 174 
 RUS  HN ES       2214 39.22                             143   -0.3610  101 174 
 RUS  HZ I        2214 40.59        29.3 0.26            144            101 174 
 PTB  HZ EP       2214 24.27                             132   -0.02 9  144 259 
 PTB  HN ES       2214 44.66                             132   -0.19 9  144 259 
 PTB  HZ I        2214 47.18        54.3 0.44            133            144 259 
 TAM  HZ EP       2214 25.63                             129    0.01 9  158 105 
 TAM  HE ES       2214 47.62                             129    0.40 9  158 105 
 TAM  HE I        2214 48.37        57.4 0.38            132            158 105 
 OCA  HZ EP       2214 26.21                             129    0.28 9  160 354 
 OCA  HE ES       2214 46.91                             129   -0.85 9  160 354 
 OCA  HZ I        2214 50.91       106.3 0.10            131            160 354 
 CHI  HZ EP       2214 35.19                             116   -0.13 8  248 194 
 CHI  HN ES       2215  5.31                             116    0.83 8  248 194 
 CHI  HZ I        2215 11.71         9.7 0.30            118            248 194 
 URE  HZ EP   4   2214 40.59                             113    2.12 0  281 292 
 PTGC HZ EP       2214 40.53                             111   -1.23 7  310 158 
 RREF HZ EP   4   2214 40.60                             110   -3.02 0  319 229 
 MON  HZ EP   4   2214 44.78                             108   -1.71 0  351 309 
 MON  HN ES   4   2215 23.21                             108   -1.15 0  351 309 
 MON  HZ I        2215 23.91         8.4 0.22            109            351 309 
 PRA  HZ EP   4   2214 52.00                             106    0.88 0  390 209 
                                                                                
