 2016  930 2006 43.4 L   6.751 -73.156143.1  RSN  7 0.5 1.8LRSN                1
 GAP=137        1.24       5.3     5.2  8.3 -0.1230E+01  0.1121E+02 -0.3513E+01E
 Epicentro: LOS SANTOS - SANTANDER                                             3
 ACTION:UPD 17-08-17 21:18 OP:lp   STATUS:               ID:20160930200643 L   I
 OLDACT:UP  16-10-01 07:25 OP:ar   STATUS:               ID:20160930195745d    3
 OLDACT:DUP 16-10-01 04:49 OP:ar   STATUS:               ID:20160930195745d    3
 2016-09-30-1958-00M.COL___369                                                 6
 STAT SP IPHASW D HRMM SECON CODA AMPLIT PERI AZIMU VELO AIN AR TRES W  DIS CAZ7
 BAR2 EZ EP       20 7  2.47                             172   -0.1510 17.8 189 
 BAR2 EZ ES       20 7 17.08                             172   -0.5210 17.8 189 
 BAR2 EZ I        20 7 19.03        15.5 0.26            170           17.8 189 
 BRR  HZ EP       20 7  4.55                             151    0.1810 73.0 303 
 BRR  HE ES       20 7 21.52                             151    0.8010 73.0 303 
 BRR  HZ I        20 7 25.73        10.4 0.32            150           73.0 303 
 PAM  EZ EP       20 7  5.47                             149   -0.1710 82.3  38 
 PAM  EE ES       20 7 22.61                             149   -0.3710 82.3  38 
 PAM  EZ I        20 7 24.68        11.3 0.52            155           82.3  38 
 RUS  HZ EP       20 7  6.53                             145    0.0110 95.3 175 
 RUS  HN ES       20 7 25.40                             145    0.8610 95.3 175 
 RUS  HZ I        20 7 26.80         5.3 0.46            147           95.3 175 
 PTB  HZ EP       20 7  9.62                             132   -0.35 9  146 261 
 PTB  HN ES       20 7 30.43                             132   -0.26 9  146 261 
 PTB  HZ I        20 7 36.57         5.4 0.30            132            146 261 
 SPBC HN ES       20 7 32.43                             129   -0.52 9  158 220 
 SPBC HZ I        20 7 40.68        14.7 0.22            130            158 220 
 ZAR  HZ EP       20 7 16.55                             122    0.76 9  205 294 
 ZAR  HN ES       20 7 40.76                             122   -0.29 9  205 294 
 ZAR  HZ I        20 7 45.72         5.8 0.38            123            205 294 
                                                                                
