 2011  930 2303 45.8 L   6.774 -73.117151.6  RSN  6 0.4 2.1LRSN                1
 GAP=141        0.76       4.7     4.7  6.9 -0.1123E+01  0.8173E+01 -0.2554E+01E
 Epicentro: LOS SANTOS - SANTANDER                                             3
 ACTION:UPD 12-07-13 16:01 OP:ep   STATUS:               ID:20110930230346 L   I
 2011-09-30-2300-56S.COL___168                                                 6
 STAT SP IPHASW D HRMM SECON CODA AMPLIT PERI AZIMU VELO AIN AR TRES W  DIS CAZ7
 BAR2 SZ EP   1   23 4  5.34                             172   -0.73 7 21.3 200 
 BAR2 SZ ES   1   23 4 21.85                             172   -0.05 7 21.3 200 
 BRR  HZ EP       23 4  7.94                             152    0.1610 75.3 299 
 BRR  HZ I        23 4  8.26        40.3 0.16                          75.3 299 
 BRR  HE ES   1   23 4 25.40                             152    0.45 7 75.3 299 
 PAM  SZ EP       23 4  8.93                             152    0.3010 77.7  36 
 PAM  SN ES   1   23 4 26.32                             152   -0.14 7 77.7  36 
 RUS  HZ EP   1   23 4 10.18                             146    0.29 7 97.5 178 
 RUS  HN ES   1   23 4 28.41                             146   -0.29 7 97.5 178 
 RUS  HZ I        23 4 29.95         7.9 0.40                          97.5 178 
 ZAR  HZ EP   1   23 4 18.76                             123   -0.25 6  208 293 
 ZAR  HE ES   1   23 4 44.36                             123   -0.58 6  208 293 
 ZAR  HZ I        23 4 51.21        10.5 0.27                           208 293 
 NOR  SE ES   1   23 4 50.52                             120    0.37 6  236 235 
                                                                                
