 2013  630 2213 38.2 L   6.794 -73.157149.2  RSN  8 0.4 1.6LRSN                1
 GAP=135        0.83       4.7     4.8  6.4 -0.1817E+01  0.4296E+01  0.5354E+01E
 Epicentro: LOS SANTOS - SANTANDER                                             3
 ACTION:UPD 14-01-08 09:58 OP:ep   STATUS:               ID:20130630221338 L   I
 OLDACT:REG 13-07-01 03:07 OP:cam  STATUS:               ID:20130630220959     3
 2013-06-30-2209-59M.COL___267                                                 6
 STAT SP IPHASW D HRMM SECON CODA AMPLIT PERI AZIMU VELO AIN AR TRES W  DIS CAZ7
 BAR2 SZ EP   1   2213 57.85                             171   -0.41 7 22.5 187 
 BAR2 SZ ES   1   2214 13.78                             171   -0.10 7 22.5 187 
 BAR2 SZ I        2214 14.25        14.2 0.23            171           22.5 187 
 BRR  HZ IP     C 2213 59.94                             153    0.2310 70.4 299 
 BRR  HE ES       2214 17.05                             153    0.5910 70.4 299 
 BRR  HZ I        2214 20.10        13.1 0.36            152           70.4 299 
 PAM  SZ EP       2214  1.20                             151    0.3110 78.7  40 
 PAM  SN ES       2214 18.22                             151   -0.3510 78.7  40 
 PAM  SZ I        2214 20.69         7.1 0.48            154           78.7  40 
 RUS  HZ EP   1   2214  2.23                             145   -0.05 7  100 175 
 RUS  HZ I        2214  3.34         2.9 0.12            147            100 175 
 RUS  HN ES   1   2214 21.04                             145   -0.00 7  100 175 
 PTB  HZ EP       2214  5.00                             133   -0.36 9  146 259 
 PTB  HN ES   1   2214 25.96                             133   -0.55 7  146 259 
 PTB  HZ I        2214 31.42         6.3 0.18            133            146 259 
 ZAR  HE ES   3   2214 36.28                             123    0.07 2  203 292 
 SML  HN ES   2   2214 43.06                             118   -0.72 4  244 336 
 CHI  HZ EP   1   2214 16.64                             118    0.62 6  248 195 
                                                                                
