 2011 1030 2127 23.8 L   6.764 -73.065143.5  RSN  7 0.4 1.8LRSN                1
 GAP=191        0.66       4.6     7.8  6.0  0.8214E+01  0.6537E+00 -0.2921E+01E
 Epicentro: LOS SANTOS - SANTANDER                                             3
 ACTION:UPD 12-07-13 16:07 OP:ep   STATUS:               ID:20111030212723 L   I
 2011-10-30-2125-47S.COL___157                                                 6
 STAT SP IPHASW D HRMM SECON CODA AMPLIT PERI AZIMU VELO AIN AR TRES W  DIS CAZ7
 BAR2 SZ EP       2127 43.37                             171    0.1810 23.0 214 
 BAR2 SZ ES   1   2127 58.35                             171    0.07 7 23.0 214 
 BAR2 SZ I        2127 59.85        21.4 0.17                          23.0 214 
 BRR  HZ EP       2127 45.20                             149   -0.1310 80.9 298 
 BRR  HE ES   1   2128  2.42                             149    0.33 7 80.9 298 
 BRR  HZ I        2128  5.53        13.4 0.14                          80.9 298 
 RUS  HZ EP   1   2127 46.80                             145   -0.27 7 96.4 181 
 RUS  HN ES   1   2128  5.15                             145   -0.03 7 96.4 181 
 RUS  HZ I        2128  7.11         8.2 0.17                          96.4 181 
 OCA  SZ EP   1   2127 52.15                             128   -0.32 7  165 350 
 OCA  SZ I        2128 20.58         5.0 0.24                           165 350 
 NOR  SE ES   2   2128 27.13                             118   -1.05 4  240 236 
 RREF HZ EP   2   2128 11.56                             110    1.19 3  326 231 
 PRA  HZ EP   1   2128 17.73                             106    0.32 4  393 211 
                                                                                
