 2013  330 2055 19.3 L   6.750 -73.170141.7  RSN  4 0.3 1.6LRSN                1
 GAP=231        0.66       7.2     8.4  6.4  0.5086E+02 -0.9913E+00 -0.3554E+01E
 Epicentro: VILLANUEVA - SANTANDER                                             3
 ACTION:UPD 13-04-09 14:05 OP:ep   STATUS:               ID:20130330205518 L   I
 2013-03-30-2050-00M.COL___245                                                 6
 STAT SP IPHASW D HRMM SECON CODA AMPLIT PERI AZIMU VELO AIN AR TRES W  DIS CAZ7
 BAR2 SZ EP       2055 38.37                             173    0.0810 17.5 184 
 BAR2 SZ ES   1   2055 52.52                             173   -0.61 7 17.5 184 
 BAR2 SZ I        2055 54.08         8.2 0.18            173           17.5 184 
 BRR  HZ EP       2055 40.02                             152    0.0310 71.7 303 
 BRR  HN ES       2055 56.49                             152    0.3210 71.7 303 
 BRR  HN I        2056  1.85         9.6 0.16            151           71.7 303 
 RUS  HZ EP       2055 42.14                             145   -0.0910 95.3 174 
 RUS  HN ES       2056  0.31                             145    0.1710 95.3 174 
 RUS  HN I        2056  1.75         3.8 0.18            148           95.3 174 
 ZAR  HN ES       2056 16.25                             122   -0.22 9  204 294 
 ZAR  HN I        2056 18.85         5.6 0.12            124            204 294 
                                                                                
