 2012  530 2204 19.8 L   6.812 -73.214138.0  RSN  6 0.4 1.9LRSN                1
 GAP=128        0.81       4.4     5.4  9.1 -0.8013E+01  0.1749E+02 -0.3119E+01E
 Epicentro: ZAPATOCA - SANTANDER                                               3
 ACTION:UP  12-07-05 12:09 OP:pat  STATUS:               ID:20120530220419 L   I
 2012-05-30-2200-00M.COL___201                                                 6
 STAT SP IPHASW D HRMM SECON CODA AMPLIT PERI AZIMU VELO AIN AR TRES W  DIS CAZ7
 BAR2 SZ EP   1   22 4 38.81                             169     0.3 7   25 172 
 BAR2 SZ ES   1   22 4 53.36                             169     0.2 7   25 172 
 BAR2 SZ I        22 4 54.97        34.7 0.34                            25 172 
 PAM  SZ EP   1   22 4 41.66                             148     0.2 7   81  44 
 PAM  SN ES   1   22 4 58.51                             148     0.2 7   81  44 
 RUS  HZ EP   1   22 4 42.87                             141    -0.1 7  103 172 
 RUS  HN ES   1   22 5  0.50                             141    -0.5 7  103 172 
 RUS  HZ I        22 5  2.32        13.2 0.41                           103 172 
 PTB  HZ EP   1   22 4 45.06                             132    -0.4 7  141 258 
 PTB  HN ES   1   22 5  5.23                             132    -0.3 7  141 258 
 PTB  HZ I        22 5  9.75         5.8 0.23                           141 258 
 OCA  HN ES   1   22 5  8.58                             128    -0.2 7  158 356 
 NOR  SE ES   1   22 5 22.41                             117     0.8 6  229 233 
                                                                                
