 2013  530 2107 45.8 L   6.780 -73.142148.1  RSN  9 0.4 2.3LRSN                1
 GAP=138        1.03       3.8     4.7  5.5 -0.3189E+01  0.8123E+01  0.9721E-01E
 Epicentro: LOS SANTOS - SANTANDER                                             3
 ACTION:UPD 13-06-20 09:55 OP:ep   STATUS:               ID:20130530210745 L   I
 2013-05-30-2105-50M.COL___221                                                 6
 STAT SP IPHASW D HRMM SECON CODA AMPLIT PERI AZIMU VELO AIN AR TRES W  DIS CAZ7
 BAR2 SZ EP       21 8  5.75                             171    0.0510 21.3 192 
 BAR2 SZ ES       21 8 20.54                             171   -0.6610 21.3 192 
 BAR2 SZ I        21 8 23.67        41.0 0.34            171           21.3 192 
 GIR2 SZ EP       21 8  5.83                             167   -0.0110 33.5 350 
 GIR2 SZ ES       21 8 21.43                             167   -0.0210 33.5 350 
 BRR  HZ EP       21 8  7.56                             152    0.2510 72.7 300 
 BRR  HN ES       21 8 25.02                             152    0.9510 72.7 300 
 BRR  HZ I        21 8 27.49        31.4 0.16            153           72.7 300 
 PAM  SZ EP       21 8  8.59                             151    0.2110 78.8  38 
 PAM  SN ES       21 8 25.85                             151   -0.1210 78.8  38 
 PAM  SZ I        21 8 27.94        23.8 0.54            154           78.8  38 
 RUS  HZ EP       21 8  9.77                             145    0.1210 98.4 176 
 RUS  HN ES       21 8 28.36                             145    0.1210 98.4 176 
 RUS  HZ I        21 8 30.03        30.8 0.36            146           98.4 176 
 PTB  HZ EP       21 8 12.72                             132   -0.27 9  148 260 
 PTB  HN ES       21 8 33.77                             132   -0.41 9  148 260 
 PTB  HZ I        21 8 35.79        32.7 0.38            133            148 260 
 NOR  HZ EP       21 8 21.21                             119   -0.39 8  234 235 
 NOR  HE ES       21 8 49.42                             119   -0.08 8  234 235 
 NOR  HZ I        21 8 53.99        27.3 0.18            120            234 235 
 SML  HZ EP       21 8 22.31                             118   -0.51 8  246 335 
 SML  HE ES       21 8 51.48                             118   -0.20 8  246 335 
 GUY2CHZ EP       21 8 30.34                             113    0.89 7  300 235 
 GUY2CHZ I        21 9 11.56        14.4 0.50                           300 235 
                                                                                
