 2013  730 2041  2.2 L   6.808 -73.196145.1  RSN  9 0.4 2.2LRSN                1
 GAP=133        0.78       4.2     4.6  5.9 -0.8580E+01  0.7517E+01  0.1954E+01E
 Epicentro: ZAPATOCA - SANTANDER                                               3
 ACTION:UPD 13-08-12 10:41 OP:ep   STATUS:               ID:20130730204102 L   I
 OLDACT:UP  13-07-30 23:24 OP:mh   STATUS:               ID:20130730203959     3
 OLDACT:REG 13-07-30 23:09 OP:mh   STATUS:               ID:20130730203959     3
 2013-07-30-2039-59M.COL___267                                                 6
 STAT SP IPHASW D HRMM SECON CODA AMPLIT PERI AZIMU VELO AIN AR TRES W  DIS CAZ7
 BAR2 SZ EP       2041 21.86                             170    0.0610 23.9 176 
 BAR2 SZ ES   1   2041 37.07                             170    0.01 7 23.9 176 
 BAR2 SZ I        2041 38.15        15.9 0.26            171           23.9 176 
 BRR  HZ EP   1   2041 23.31                             154    0.29 7 65.9 300 
 BRR  HN ES   1   2041 40.12                             154    0.89 7 65.9 300 
 BRR  HN I        2041 41.27        32.4 0.26            149           65.9 300 
 PAM  SZ EP   1   2041 24.83                             150    0.27 7 80.3  43 
 PAM  SN ES       2041 41.57                             150   -0.4010 80.3  43 
 PAM  SN I        2041 42.83        17.6 0.42            152           80.3  43 
 PTB  HZ EP   1   2041 28.70                             133    0.03 7  143 258 
 PTB  HN ES       2041 48.99                             133   -0.31 9  143 258 
 PTB  HN I        2041 54.64        21.4 0.42            130            143 258 
 SPBC HE ES   2   2041 52.26                             129   -0.15 5  160 217 
 NOR  HZ EP   1   2041 36.81                             119   -0.69 6  231 233 
 NOR  HN ES   1   2042  4.75                             119   -0.26 6  231 233 
 NOR  HN I        2042 10.00        13.6 0.16            118            231 233 
 SML  HZ EP   1   2041 38.85                             118    0.37 6  241 336 
 SML  HN ES   1   2042  6.32                             118   -0.44 6  241 336 
 SML  HN I        2042 14.06        21.3 0.28            117            241 336 
 GUY2CHZ EP       2041 45.44                             112    0.08 7  297 234 
 GUY2CHN ES   4   2042 22.36                             112    3.36 0  297 234 
 PRA  HN ES   1   2042 37.77                             106    0.71 4  390 209 
 PRA  HN I        2042 43.56         4.6 0.38            106            390 209 
                                                                                
