 2012  930 2241 13.8 L   6.784 -73.157145.3  RSN  8 0.4 2.1LRSN                1
 GAP=136        0.72       4.5     4.5  7.0  0.2618E+01  0.1641E+01  0.3847E+01E
 Epicentro: LOS SANTOS - SANTANDER                                             3
 ACTION:UPD 12-10-22 14:21 OP:ep   STATUS:               ID:20120930224113 L   I
 2012-09-30-2240-37M.COL___208                                                 6
 STAT SP IPHASW D HRMM SECON CODA AMPLIT PERI AZIMU VELO AIN AR TRES W  DIS CAZ7
 BAR2 SZ EP   1   2241 33.36                             171   -0.02 7 21.4 188 
 BAR2 SZ ES   1   2241 48.17                             171   -0.44 7 21.4 188 
 BAR2 SZ I        2241 49.35        32.0 0.32                          21.4 188 
 GIR2 SZ EP   1   2241 33.38                             167   -0.12 7 32.8 353 
 GIR2 SZ ES   1   2241 48.98                             167    0.15 7 32.8 353 
 BRR  HN ES   1   2241 52.19                             152    0.82 7 71.0 300 
 BRR  HN I        2241 52.90        42.9 0.26                          71.0 300 
 PAM  SZ EP   1   2241 36.23                             150    0.10 7 79.5  39 
 PAM  SE ES   2   2241 53.12                             150   -0.40 5 79.5  39 
 PAM  SE I        2241 55.24        14.1 0.24                          79.5  39 
 RUS  HZ EP   1   2241 37.48                             144    0.05 7 99.0 175 
 RUS  HE ES   1   2241 55.78                             144   -0.05 7 99.0 175 
 RUS  HZ I        2241 57.92         9.2 0.30                          99.0 175 
 PTB  HN ES   1   2242  1.09                             132   -0.43 7  146 259 
 PTB  HN I        2242  4.27        11.6 0.19                           146 259 
 ZAR  HE ES   1   2242 11.18                             122   -0.27 6  204 293 
 ZAR  HE I        2242 12.18        19.5 0.22                           204 293 
 CHI  HN ES   2   2242 21.44                             117    0.93 4  247 195 
 CHI  HN I        2242 23.92         8.7 0.64                           247 195 
                                                                                
