 2014  430 2120 14.2 L   6.764 -73.149147.0  RSN  6 0.4 1.9LRSN                1
 GAP=138        1.10       4.6     4.8  8.1 -0.1026E+01  0.8115E+01  0.1946E+01E
 Epicentro: LOS SANTOS - SANTANDER                                             3
 ACTION:UPD 14-05-13 20:50 OP:nd   STATUS:               ID:20140430212014 L   I
 OLDACT:REG 14-05-01 02:30 OP:nd   STATUS:               ID:20140430212000     3
 2014-04-30-2120-00M.COL___273                                                 6
 STAT SP IPHASW D HRMM SECON CODA AMPLIT PERI AZIMU VELO AIN AR TRES W  DIS CAZ7
 BRR  HZ EP       2120 35.57                             152    0.0110 72.8 301 
 BRR  HN ES       2120 52.86                             152    0.6210 72.8 301 
 BRR  HZ I        2120 56.84        19.5 0.26            151           72.8 301 
 PAM  SZ EP       2120 36.71                             150   -0.0310 80.7  38 
 PAM  SN ES       2120 53.88                             150   -0.4510 80.7  38 
 RUS  HZ EP       2120 37.69                             145   -0.0910 96.6 176 
 RUS  HN ES       2120 56.49                             145    0.3010 96.6 176 
 RUS  HZ I        2120 57.39         9.0 0.26            148           96.6 176 
 PTB  HZ EP       2120 40.71                             132   -0.45 9  147 260 
 PTB  HN ES       2121  1.86                             132   -0.33 9  147 260 
 PTB  HZ I        2121  3.47        10.9 0.42            133            147 260 
 SPBC HZ EP       2120 42.40                             130   -0.07 9  160 220 
 SPBC HN ES       2121  4.45                             130   -0.08 9  160 220 
 SPBC HZ I        2121  7.57         9.3 0.24            132            160 220 
 ZAR  HZ EP       2120 47.92                             122    1.09 9  205 293 
 ZAR  HN ES       2121 11.81                             122   -0.49 9  205 293 
 ZAR  HZ I        2121 17.42        10.7 0.30            124            205 293 
