 2012  730 2317 45.0 L   6.779 -73.118149.3  RSN 11 0.5 2.4LRSN                1
 GAP= 73        0.98       4.2     4.3  6.9 -0.1612E+01  0.8590E+01  0.3447E+01E
 Epicentro: LOS SANTOS - SANTANDER                                             3
 ACTION:UPD 12-08-14 11:46 OP:ep   STATUS:               ID:20120730231745 L   I
 2012-07-30-2310-00M.COL___209                                                 6
 STAT SP IPHASW D HRMM SECON CODA AMPLIT PERI AZIMU VELO AIN AR TRES W  DIS CAZ7
 BAR2 SZ EP       2318  4.91                             171    -0.110   22 199 
 BAR2 SZ ES   1   2318 20.44                             171    -0.2 7   22 199 
 BAR2 SZ I        2318 23.17        40.0 0.41            169             22 199 
 BRR  HZ EP       2318  7.09                             152     0.310   75 299 
 BRR  HZ I        2318  8.68        61.3 0.20            149             75 299 
 BRR  HN ES   1   2318 24.69                             152     0.9 7   75 299 
 PAM  SZ EP       2318  7.98                             151     0.410   77  37 
 PAM  SN ES   1   2318 25.21                             151     0.0 7   77  37 
 RUS  HZ EP       2318  8.99                             145     0.010   98 178 
 RUS  HN ES   1   2318 27.14                             145    -0.5 7   98 178 
 RUS  HZ I        2318 30.02        14.5 0.23            149             98 178 
 PTB  HZ EP       2318 12.04                             132    -0.5 9  150 260 
 PTB  HN ES   2   2318 33.51                             132    -0.5 5  150 260 
 PTB  HZ I        2318 40.83        20.3 0.25            132            150 260 
 TAM  HZ EP   2   2318 13.16                             132     0.5 5  151 104 
 TAM  HN ES   2   2318 33.88                             132    -0.3 5  151 104 
 OCA  HZ EP   1   2318 13.48                             130    -0.4 7  163 352 
 OCA  HN ES   1   2318 36.11                             130    -0.3 7  163 352 
 OCA  HZ I        2318 41.13        56.7 0.32            132            163 352 
 ZAR  HZ EP   1   2318 17.82                             123    -0.3 6  208 292 
 ZAR  HE ES   1   2318 43.08                             123    -0.8 6  208 292 
 ZAR  HZ I        2318 49.64        36.3 0.28            123            208 292 
 NOR  SZ EP   1   2318 21.12                             119     0.0 6  236 235 
 NOR  SN ES   1   2318 50.11                             119     0.9 6  236 235 
 HEL  HZ EP   1   2318 26.48                             115     0.8 6  275 256 
 HEL  HE ES   1   2318 57.34                             115    -0.1 6  275 256 
 HEL  HZ I        2319  4.87        12.6 0.28            116            275 256 
 PRA  HZ EP   1   2318 38.61                             107     0.0 4  391 210 
 PRA  HN ES   1   2319 20.16                             107    -0.2 4  391 210 
