 2011 1130 2137 46.7 L   6.759 -73.123149.4  RSN  8 0.3 2.0LRSN                1
 GAP=141        0.61       3.1     4.0  5.0 -0.3933E+01  0.6936E+01 -0.2033E+01E
 Epicentro: LOS SANTOS - SANTANDER                                             3
 ACTION:UPD 12-07-13 16:13 OP:ep   STATUS:               ID:20111130213746 L   I
 2011-11-30-2134-31S.COL___162                                                 6
 STAT SP IPHASW D HRMM SECON CODA AMPLIT PERI AZIMU VELO AIN AR TRES W  DIS CAZ7
 BAR2 SZ EP   1   2138  6.68                             172    0.02 7 19.6 199 
 BAR2 SZ ES       2138 22.00                             172   -0.2510 19.6 199 
 BAR2 SZ I        2138 22.84        25.8 0.21                          19.6 199 
 BRR  HZ EP       2138  8.71                             152    0.2610 75.6 301 
 BRR  HE ES   1   2138 26.04                             152    0.60 7 75.6 301 
 BRR  HZ I        2138 27.90        33.8 0.18                          75.6 301 
 PAM  SZ EP   1   2138  9.75                             151    0.37 7 79.4  36 
 PAM  SZ I        2138 10.02        15.9 0.18                          79.4  36 
 PAM  SN ES   1   2138 26.94                             151   -0.16 7 79.4  36 
 RUS  HZ EP   1   2138 10.45                             146    0.01 7 96.0 177 
 RUS  HN ES   1   2138 29.03                             146    0.03 7 96.0 177 
 RUS  HZ I        2138 30.69        12.5 0.31                          96.0 177 
 OCA  SZ EP   1   2138 15.27                             129   -0.43 7  165 352 
 OCA  SZ ES   1   2138 38.00                             129   -0.35 7  165 352 
 OCA  SZ I        2138 42.91         8.2 0.19                           165 352 
 NOR  SN ES   1   2138 50.18                             119   -0.35 6  234 236 
 HEL  HZ EP   2   2138 27.50                             115    0.29 4  273 257 
 HEL  HN ES   1   2138 58.58                             115   -0.25 6  273 257 
 HEL  HZ I        2139  6.93         6.1 0.38                           273 257 
 RREF HN ES   2   2139  9.06                             111    0.19 3  321 230 
 RREF HZ I        2139 17.77         4.6 0.37                           321 230 
                                                                                
