 2014  830 2110 37.1 L   6.787 -73.160148.2  RSN  4 0.5 1.4LRSN                1
 GAP=235        1.30       9.6    10.1 14.0  0.3962E+02  0.1898E+01  0.1726E+02E
 Epicentro: LOS SANTOS - SANTANDER                                             3
 ACTION:UPD 14-09-15 21:54 OP:nd   STATUS:               ID:20140830211037 L   I
 OLDACT:UP  14-08-31 03:00 OP:cam  STATUS:               ID:20140830211001d    3
 OLDACT:DUP 14-08-31 02:58 OP:cam  STATUS:               ID:20140830211001d    3
 2014-08-30-2110-00M.COL___282                                                 6
 STAT SP IPHASW D HRMM SECON CODA AMPLIT PERI AZIMU VELO AIN AR TRES W  DIS CAZ7
 BRR  HN ES       2111 15.54                             153    0.4210 70.5 300 
 BRR  HN I        2111 19.30         9.5 0.18            151           70.5 300 
 RUS  HZ EP       2111  0.91                             145   -0.0610 99.3 175 
 RUS  HE ES       2111 19.25                             145   -0.3610 99.3 175 
 RUS  HZ I        2111 20.10         1.8 0.24            148           99.3 175 
 PTB  HZ EP       2111  4.18                             133    0.11 9  146 259 
 PTB  HN ES       2111 24.26                             133   -0.87 9  146 259 
 PTB  HZ I        2111 31.59         2.6 0.28            133            146 259 
 SPBC HZ ES       2111 28.59                             130    0.81 9  161 219 
                                                                                
