 2017  730 2108 24.5 L   7.365 -73.212116.4  RSN  4 0.3 1.2LRSN                1
 GAP=260        0.75       9.5     8.7  7.4  0.7208E+02 -0.2786E+02 -0.3481E+02E
 Epicentro: EL PLAYON - SANTANDER                                              3
 ACTION:UPD 17-08-30 15:38 OP:rebc STATUS:               ID:20170730210824 L   I
 OLDACT:REG 17-07-31 03:03 OP:dhb  STATUS:               ID:20170730205743     3
 2017-07-30-2058-00M.COL___392                                                 6
 STAT SP IPHASW D HRMM SECON CODA AMPLIT PERI AZIMU VELO AIN AR TRES W  DIS CAZ7
 BRR  HZ EP       21 8 41.38                             150   -0.5910 62.1 243 
 BRR  HE ES       21 8 55.88                             150    0.2810 62.1 243 
 BRR  HZ I        21 8 56.91         8.7 0.13            134           62.1 243 
 BAR2 EZ EP       21 8 44.24                             141    0.3110 85.5 178 
 BAR2 EZ ES       21 8 58.98                             141   -0.1110 85.5 178 
 BAR2 EZ I        21 9  2.92         3.5 0.19            129           85.5 178 
 RUS  HZ EP       21 8 51.59                             122    0.11 9  163 175 
 RUS  HE ES       21 9 12.42                             122   -0.10 9  163 175 
 RUS  HZ I        21 9 17.22         0.8 0.16            114            163 175 
 ZAR  HZ EP       21 8 53.05                             118    0.22 9  182 275 
 ZAR  HE ES       21 9 14.85                             118   -0.09 9  182 275 
 ZAR  HZ I        21 9 19.23         3.2 0.11            112            182 275 
                                                                                
