 2013  630 2238 44.0 L   6.744 -73.194150.7  RSN  4 0.2 1.4LRSN                1
 GAP=227        0.50       5.2     5.4  5.0  0.1609E+02  0.7218E+01  0.6036E+01E
 Epicentro: VILLANUEVA - SANTANDER                                             3
 ACTION:UPD 14-01-08 09:58 OP:ep   STATUS:               ID:20130630223844 L   I
 OLDACT:DUP 13-07-01 03:34 OP:cam  STATUS:               ID:20130630222960d    3
 2013-06-30-2229-59M.COL___267                                                 6
 STAT SP IPHASW D HRMM SECON CODA AMPLIT PERI AZIMU VELO AIN AR TRES W  DIS CAZ7
 BAR2 SZ ES   1   2239 19.38                             173   -0.41 7 16.8 176 
 BRR  HZ EP   1   2239  5.74                             154    0.13 7 69.9 305 
 BRR  HZ I        2239 21.61         6.6 0.46            143           69.9 305 
 BRR  HN ES       2239 22.61                             154    0.1410 69.9 305 
 RUS  HZ EP   1   2239  7.76                             146   -0.08 7 94.9 173 
 RUS  HN ES   1   2239 26.76                             146    0.32 7 94.9 173 
 RUS  HZ I        2239 28.33         2.4 0.34            144           94.9 173 
 PTB  HZ EP       2239 10.73                             134   -0.08 9  141 261 
 PTB  HN ES   1   2239 31.64                             134   -0.08 7  141 261 
 PTB  HZ I        2239 37.21         2.9 0.72            127            141 261 
                                                                                
