 2012  930 2156 59.0 L   6.771 -73.160148.5  RSN  7 0.2 1.8LRSN                1
 GAP=136        0.55       4.2     3.3  5.3  0.5464E+01 -0.1642E+01 -0.5192E+01E
 Epicentro: LOS SANTOS - SANTANDER                                             3
 ACTION:UPD 12-10-22 14:21 OP:ep   STATUS:               ID:20120930215659 L   I
 2012-09-30-2150-37M.COL___208                                                 6
 STAT SP IPHASW D HRMM SECON CODA AMPLIT PERI AZIMU VELO AIN AR TRES W  DIS CAZ7
 BAR2 SZ EP   1   2157 18.75                             172   -0.10 7 19.9 187 
 BAR2 SZ ES       2157 34.02                             172   -0.3510 19.9 187 
 BAR2 SZ I        2157 36.56        19.4 0.30                          19.9 187 
 GIR2 SZ EP   1   2157 18.89                             166   -0.15 7 34.3 354 
 BRR  HZ EP   1   2157 20.64                             153    0.22 7 71.4 301 
 BRR  HN ES       2157 37.49                             153    0.3410 71.4 301 
 BRR  HZ I        2157 40.00        10.9 0.17                          71.4 301 
 PAM  SZ EP   1   2157 21.75                             150    0.08 7 80.9  39 
 PAM  SZ I        2157 22.06        25.5 0.15                          80.9  39 
 RUS  HZ EP   1   2157 22.77                             145    0.01 7 97.5 175 
 RUS  HN ES   1   2157 41.61                             145    0.28 7 97.5 175 
 RUS  HZ I        2157 43.05         3.7 0.35                          97.5 175 
 PTB  HN ES       2157 46.99                             133   -0.02 9  146 260 
 ZAR  HN ES       2157 56.77                             123   -0.22 9  204 293 
                                                                                
