 2010  730 2232 44.6 L   6.797 -73.070136.6  RSN 11 0.4 2.4LRSN                1
 GAP=167        0.89       3.5     6.3  6.2 -0.7731E+01  0.1021E+02  0.1809E+01E
 Epicentro: LOS SANTOS - SANTANDER                                             3
 ACTION:UPD 10-12-01 15:21 OP:pat  STATUS:               ID:20100730223244 L   I
 2010-07-30-2229-48S.COL___123                                                 6
 STAT SP IPHASW D HRMM SECON CODA AMPLIT PERI AZIMU VELO AIN AR TRES W  DIS CAZ7
 BAR2 SZ IP       2233  3.21                             169     0.010   26 209 
 BAR2 SZ ES   1   2233 17.43                             169    -0.3 7   26 209 
 BAR2 SZ I        2233 19.20        60.1 0.09                            26 209 
 GIR2 SZ EP   2   2233  3.28                             165     0.0 5   34 336 
 GIR2 SZ ES   2   2233 18.26                             165     0.4 5   34 336 
 BRR  HZ IP     C 2233  5.11                             148    -0.210   79 296 
 BRR  HE ES   1   2233 21.58                             148     0.2 7   79 296 
 BRR  HZ I        2233 23.04        87.2 0.16                            79 296 
 RUS  HZ EP   1   2233  7.29                             142    -0.2 7  100 181 
 RUS  HE ES   1   2233 25.16                             142    -0.1 7  100 181 
 RUS  HZ I        2233 27.24        13.1 0.27                           100 181 
 GRA  SZ IP       2233  9.19                             135     0.310  124  14 
 GRA  SZ I        2233 10.45        38.8 0.25                           124  14 
 GRA  SZ ES   1   2233 28.68                             135     0.8 7  124  14 
 OCA  SZ EP   1   2233 11.63                             127    -0.8 7  162 350 
 OCA  SZ ES   1   2233 33.34                             127    -0.7 7  162 350 
 OCA  SZ I        2233 37.87        55.5 0.47                           162 350 
 CHI  HZ EP   2   2233 21.87                             115    -0.2 4  251 197 
 CHI  HE ES   2   2233 50.95                             115    -0.3 4  251 197 
 CHI  HZ I        2233 56.60         6.1 0.23                           251 197 
 HEL  HZ IP     C 2233 25.59                             112     0.3 7  280 256 
 HEL  HE ES   2   2233 56.49                             112    -0.5 4  280 256 
 HEL  HZ I        2234  5.98        11.9 0.33                           280 256 
 GUY  SZ EP   2   2233 29.31                             110     0.7 4  308 236 
 GUY  SN ES   2   2234  2.58                             110    -0.3 4  308 236 
 GUY  SZ I        2234  8.08        42.1 0.50                           308 236 
 RREF HZ EP   1   2233 31.80                             109     0.7 5  328 230 
 RREF HE ES   1   2234  7.77                             109     0.4 5  328 230 
 RREF HZ I        2234 15.23        12.8 0.30                           328 230 
 PRA  HZ EP   1   2233 37.69                             105    -0.6 4  396 211 
 PRA  HE ES   1   2234 20.68                             105     0.5 4  396 211 
 PRA  HZ I        2234 24.32         8.5 0.18                           396 211 
                                                                                
