 2010 1230 2020 11.7 L   6.807 -73.339108.7  RSN  9 0.3 2.0LRSN                1
 GAP=111        0.52       5.4     5.5  7.9 -0.1508E+02  0.2488E+02 -0.4760E+01E
 Epicentro: ZAPATOCA - SANTANDER                                               3
 ACTION:UP  11-01-14 15:28 OP:pat  STATUS:               ID:20101230202011 L   I
 2010-12-30-2018-45S.COL___135                                                 6
 STAT SP IPHASW D HRMM SECON CODA AMPLIT PERI AZIMU VELO SNR AR TRES W  DIS CAZ7
 BTL  SZ EP       2020 26.62                             172     0.010   15  33 
 BAR2 SZ EP       2020 27.09                             164     0.110   29 144 
 BAR2 SZ ES   2   2020 38.94                             164    -0.1 5   29 144 
 GIR2 SZ EP   2   2020 26.84                             161    -0.2 5   34  28 
 RUS  HZ EP   2   2020 32.16                             133    -0.2 5  105 164 
 RUS  HZ I        2020 50.43         9.8 0.16                           105 164 
 OCA  SZ EP   2   2020 37.68                             120     0.5 5  158   1 
 OCA  SZ I        2021  1.65        19.5 0.25                           158   1 
 NOR  SZ EP   2   2020 43.16                             111    -0.5 4  218 231 
 NOR  SE ES   1   2021  8.92                             111     0.3 6  218 231 
 CHI  HZ EP   2   2020 47.62                             109     0.5 4  245 190 
 CHI  HZ I        2021 20.56         4.7 0.45                           245 190 
 HEL  HZ EP   2   2020 47.21                             108    -0.7 4  252 254 
 HEL  HE ES   2   2021 16.23                             108     0.1 4  252 254 
 HEL  HZ I        2021 21.88        11.3 0.41                           252 254 
 GUY  SZ EP   2   2020 51.69                             105    -0.2 4  285 232 
 GUY  SZ I        2021 33.57        10.4 0.53                           285 232 
                                                                                
