 2010  830 2225 44.5 L   6.788 -73.072144.0  RSN  5 0.2 1.7LRSN                1
 GAP=167        0.50       2.7     6.4  8.0 -0.2821E+01 -0.2944E+02  0.4457E+01E
 Epicentro: LOS SANTOS - SANTANDER                                             3
 ACTION:UP  10-09-07 10:59 OP:vdl  STATUS:               ID:20100830222543 L   I
 2010-08-30-2222-57S.COL___120                                                 6
 STAT SP IPHASW D HRMM SECON CODA AMPLIT PERI AZIMU VELO SNR AR TRES W  DIS CAZ7
 BAR2 SZ EP   2   2226  3.34                                    -0.6 5   25 210 
 BAR2 SZ I        2226 21.03         9.5 0.31                            25 210 
 BRR  HN ES       2226 22.66                             152     0.010   79 297 
 RUS  HZ EP   1   2226  8.10                                     0.1 7   99 181 
 RUS  HN ES   1   2226 26.26                             146     0.0 7   99 181 
 RUS  HZ I        2226 27.71         7.9 0.33                            99 181 
 GRA  SZ EP   1   2226  9.49                                     0.0 7  125  14 
 GRA  SZ ES   1   2226 29.15                             140     0.1 7  125  14 
 CHI  HE ES   2   2226 51.95                             119     0.3 4  250 197 
 CHI  HZ I        2226 54.87         3.7 0.08                           250 197 
                                                                                
