 2012  630 2002 41.7 L   6.800 -73.155144.9  RSN  6 0.4 1.4LRSN                1
 GAP=135        0.72       5.1     4.6  7.4 -0.3620E+01  0.5647E+01 -0.2843E+01E
 Epicentro: LOS SANTOS - SANTANDER                                             3
 ACTION:UPD 12-08-06 17:53 OP:ep   STATUS:               ID:20120630200241 L   I
 2012-06-30-2000-00M.COL___201                                                 6
 STAT SP IPHASW D HRMM SECON CODA AMPLIT PERI AZIMU VELO AIN AR TRES W  DIS CAZ7
 BAR2 SZ ES   1   20 3 16.70                             170    0.26 7 23.1 187 
 BAR2 SZ I        20 3 17.61         9.3 0.19                          23.1 187 
 BRR  HN ES   2   20 3 19.73                             153    0.66 5 70.3 299 
 PAM  SZ EP       20 3  4.17                             150    0.3110 78.1  40 
 PAM  SN ES   1   20 3 20.52                             150   -0.62 7 78.1  40 
 RUS  HZ EP   1   20 3  5.56                             143    0.20 7  101 175 
 RUS  HN ES   1   20 3 23.63                             143   -0.19 7  101 175 
 RUS  HZ I        20 3 25.20         3.3 0.47                           101 175 
 PTB  HZ EP   1   20 3  8.04                             132   -0.46 7  147 259 
 PTB  HE ES   1   20 3 29.29                             132   -0.11 7  147 259 
 PTB  HZ I        20 3 37.00         3.2 0.24                           147 259 
 ZAR  HN ES   2   20 3 39.16                             122    0.00 4  203 292 
                                                                                
