 2011  130 2212 19.9 L   6.775 -73.120142.5  RSN 14 0.5 2.5LRSN                1
 GAP=104        1.11       3.6     5.8  7.8 -0.7242E+01  0.1444E+02 -0.2769E+01E
 Epicentro: LOS SANTOS - SANTANDER                                             3
 ACTION:UP  11-02-08 08:43 OP:pat  STATUS:               ID:20110130221219 L   I
 2011-01-30-2210-45S.COL___135                                                 6
 STAT SP IPHASW D HRMM SECON CODA AMPLIT PERI AZIMU VELO SNR AR TRES W  DIS CAZ7
 BAR2 SZ EP       2212 39.08                             171     0.010   21 199 
 BAR2 SZ ES   1   2212 53.66                             171    -0.4 7   21 199 
 BAR2 SZ I        2212 56.27       105.5 0.23                            21 199 
 RUS  HZ EP       2212 43.09                             144     0.010   98 178 
 RUS  HE ES   1   2213  1.05                             144    -0.1 7   98 178 
 RUS  HZ I        2213  2.61        37.3 0.25                            98 178 
 GRA  SZ IP       2212 45.90                             136     0.910  128  16 
 GRA  SZ ES   1   2213  5.09                             136     0.5 7  128  16 
 GRA  SZ I        2213  6.38        57.2 0.32                           128  16 
 OCA  SZ EP       2212 47.52                             128    -0.7 9  163 352 
 OCA  SZ ES   1   2213 10.27                             128    -0.1 7  163 352 
 OCA  SZ I        2213 12.74        49.2 0.21                           163 352 
 YOP  SZ EP   1   2212 49.85                             126     0.5 7  175 154 
 YOP  SE ES   1   2213 11.76                             126    -0.5 7  175 154 
 YOP  SZ I        2213 16.75        29.2 0.39                           175 154 
 NOR  SZ EP   1   2212 55.18                             118    -0.3 6  236 236 
 NOR  SN ES   1   2213 23.03                             118    -0.3 6  236 236 
 CHI  HZ EP   1   2212 57.49                             117     0.3 6  247 196 
 CHI  HE ES   1   2213 26.43                             117     0.2 6  247 196 
 CHI  HZ I        2213 33.73         9.9 0.47                           247 196 
 ROSC BN ES   1   2213 27.38                             116     0.2 6  252 212 
 ROSC BZ I        2213 35.85        19.9 0.28                           252 212 
 HEL  HZ EP   1   2213  0.71                             114     0.6 6  274 257 
 HEL  HZ I        2213 37.72        18.3 0.32                           274 257 
 GUY  SZ EP   1   2213  3.20                             112    -0.2 5  302 236 
 GUY  SN ES   1   2213 37.25                             112    -0.1 5  302 236 
 GUY  SZ I        2213 49.23        13.7 0.44                           302 236 
 RREF HZ EP   1   2213  6.04                             110     0.1 5  322 230 
 RREF HN ES   1   2213 41.90                             110     0.1 5  322 230 
 RREF HZ I        2213 48.36        16.4 0.20                           322 230 
 DBB  SZ EP       2213  7.24                             109    -0.3 7  342 275 
 SDV  BZ EP       2213  8.69                             108    -1.0 6  360  50 
 SDV  BZ I        2213 50.75         4.9 0.42                           360  50 
 SJA  SZ EP   2   2213 14.91                             106     0.9 3  398 193 
 SJA  SZ I        2214  7.50        15.6 0.29                           398 193 
                                                                                
