 2016  430 2333 17.0 L   6.826 -73.169136.9  RSN  9 0.5 1.9LRSN                1
 GAP=132        1.16       4.1     5.0  7.8 -0.4735E+01  0.1582E+02 -0.2101E+01E
 Epicentro: LOS SANTOS - SANTANDER                                             3
 ACTION:UPD 16-05-05 14:25 OP:rebc STATUS:               ID:20160430233317 L   I
 OLDACT:UP  16-05-01 01:50 OP:drio STATUS:               ID:20160430232751d    3
 OLDACT:UP  16-05-01 01:50 OP:drio STATUS:               ID:20160430232751d    3
 OLDACT:UP  16-05-01 01:50 OP:drio STATUS:               ID:20160430232751d    3
 OLDACT:DUP 16-05-01 01:42 OP:drio STATUS:               ID:20160430232751d    3
 2016-04-30-2327-50M.COL___298                                                 6
 STAT SP IPHASW D HRMM SECON CODA AMPLIT PERI AZIMU VELO AIN AR TRES W  DIS CAZ7
 BAR2 EZ ES       2333 50.38                             169    0.2210 25.9 183 
 PAM  EZ EP       2333 38.45                             149    0.2010 76.9  42 
 PAM  EN ES       2333 55.21                             149    0.3810 76.9  42 
 PAM  EZ I        2333 57.28        31.1 0.48            153           76.9  42 
 RUS  HZ EP       2333 40.13                             141   -0.0010  104 175 
 RUS  HE ES       2333 57.93                             141   -0.2410  104 175 
 RUS  HZ I        2333 59.77         6.3 0.26            145            104 175 
 PTB  HZ EP       2333 42.70                             130   -0.39 9  146 258 
 PTB  HN ES       2334  2.57                             130   -0.86 9  146 258 
 PTB  HZ I        2334  6.48         8.3 0.46            131            146 258 
 OCA  HZ EP       2333 43.74                             128   -0.60 9  157 354 
 OCA  HE ES       2334  5.39                             128   -0.26 9  157 354 
 OCA  HZ I        2334 11.68        19.7 0.44            130            157 354 
 ZAR  HZ EP   4   2333 50.17                             121    1.64 0  201 292 
 ZAR  HN ES       2334 13.94                             121    0.83 9  201 292 
 ZAR  HZ I        2334 19.05        13.5 0.54            122            201 292 
 NOR  HZ EP       2333 52.24                             117    0.04 8  234 234 
 NOR  HE ES       2334 19.89                             117    0.24 8  234 234 
 NOR  HZ I        2334 28.28         5.0 0.18            118            234 234 
 URE  HZ EP   4   2334  0.04                             112    2.77 0  280 292 
 URE  HN ES   4   2334 25.94                             112   -2.73 0  280 292 
 GUY2CHZ EP       2334  1.07                             111    0.89 7  301 234 
 GUY2CHE ES   4   2334 35.22                             111    1.37 0  301 234 
 GUY2CHZ I        2334 44.06         3.4 0.24                           301 234 
 SJC  HZ EP   4   2334  9.99                             104   -1.85 0  405 327 
 SJC  HN ES   4   2334 51.34                             104   -3.26 0  405 327 
 SJC  HZ I        2334 55.39         2.3 0.62            106            405 327 
                                                                                
