 2013 1230 2320 39.8 L   6.797 -73.090147.8  RSN  5 0.5 1.7LRSN                1
 GAP=205        1.11       5.5    17.2  9.7  0.6366E+02 -0.4433E+02 -0.1261E+02E
 Epicentro: LOS SANTOS - SANTANDER                                             3
 ACTION:UPD 14-01-13 10:22 OP:ep   STATUS:               ID:20131230232039 L   I
 OLDACT:REG 13-12-30 21:11 OP:nd   STATUS:               ID:20131230232000     3
 2013-12-30-2320-00M.COL___285                                                 6
 STAT SP IPHASW D HRMM SECON CODA AMPLIT PERI AZIMU VELO AIN AR TRES W  DIS CAZ7
 BRR  HZ EP       2321  1.86                             151    0.3910 76.8 297 
 BRR  HN ES       2321 18.88                             151    0.4910 76.8 297 
 BRR  HZ I        2321 22.32         7.6 0.34            118           76.8 297 
 RUS  HZ EP       2321  3.89                             144    0.2010100.0 180 
 RUS  HN ES       2321 21.93                             144   -0.4110100.0 180 
 RUS  HZ I        2321 24.36         4.2 0.22            119          100.0 180 
 PTB  HZ EP   4   2320 44.73                             131   -22.7 0  154 259 
 PTB  HZ I        2321 23.93         7.0 0.52            107            154 259 
 PTB  HN ES   4   2321 24.27                             131   -4.77 0  154 259 
 SML  HZ EP       2321 16.88                             117    0.04 8  247 334 
 SML  HN ES       2321 44.83                             117   -0.92 8  247 334 
 SML  HZ I        2321 48.09         8.5 0.26            104            247 334 
 CHI  HZ EP       2321 18.12                             117    0.38 8  250 197 
 CHI  HN ES       2321 46.77                             117   -0.57 8  250 197 
 CHI  HZ I        2321 55.65         2.5 0.62            103            250 197 
                                                                                
