 2017  330 2012 46.3 L   6.745 -73.159154.3  RSN  4 0.3 1.3LRSN                1
 GAP=137        0.77       5.2     5.1  7.7  0.6227E+01 -0.9260E+01 -0.7641E+01E
 Epicentro: LOS SANTOS - SANTANDER                                             3
 ACTION:UPD 17-05-25 18:47 OP:jn   STATUS:               ID:20170330201246 L   I
 OLDACT:REG 17-03-31 02:59 OP:dani STATUS:               ID:20170330200745     3
 2017-03-30-2008-00M.COL___365                                                 6
 STAT SP IPHASW D HRMM SECON CODA AMPLIT PERI AZIMU VELO AIN AR TRES W  DIS CAZ7
 BRR  HZ EP       2013  8.73                             153    0.3010 73.1 303 
 BRR  HE ES       2013 25.87                             153    0.1410 73.1 303 
 PAM  EZ EP       2013  9.38                             151   -0.3310 83.0  38 
 PAM  EZ I        2013 28.67         3.4 0.54            138           83.0  38 
 RUS  HZ EP       2013 10.90                             147    0.4510 94.7 175 
 RUS  HE ES       2013 29.14                             147   -0.1910 94.7 175 
 PTB  HZ EP       2013 13.38                             134   -0.33 9  145 261 
 PTB  HE ES       2013 35.06                             134   -0.07 9  145 261 
 PTB  HZ I        2013 41.85         2.8 0.24            134            145 261 
                                                                                
