 2014  730 2141 31.1 L   6.796 -73.171140.0  RSN  4 0.3 1.3LRSN                1
 GAP=133        0.69       3.9     4.1  9.1 -0.2275E+01  0.1280E+02 -0.3755E+01E
 Epicentro: LOS SANTOS - SANTANDER                                             3
 ACTION:UPD 15-03-16 20:48 OP:nd   STATUS:               ID:20140730214131 L   I
 OLDACT:REG 14-07-31 02:57 OP:fm   STATUS:               ID:20140730213818     3
 2014-07-30-2138-18M.COL___260                                                 6
 STAT SP IPHASW D HRMM SECON CODA AMPLIT PERI AZIMU VELO AIN AR TRES W  DIS CAZ7
 PAM  SZ EP       2141 52.94                             149    0.0910 79.5  41 
 PAM  SN ES       2142  9.67                             149   -0.1410 79.5  41 
 PAM  SZ I        2142 11.82         4.6 0.48            153           79.5  41 
 RUS  HZ EP   1   2141 54.18                             142   -0.10 7  100 174 
 RUS  HE ES       2142 12.57                             142    0.2110  100 174 
 RUS  HZ I        2142 14.71         1.9 0.24            146            100 174 
 PTB  HZ EP   2   2141 56.86                             131   -0.48 5  145 259 
 PTB  HN ES   1   2142 17.27                             131   -0.54 7  145 259 
 PTB  HZ I        2142 20.81         2.7 0.18            133            145 259 
 ZAR  HN ES   1   2142 28.37                             121    0.63 6  202 293 
 ZAR  HZ I        2142 30.99         2.4 0.30            124            202 293 
                                                                                
