 2015  730 2007 25.9 L   6.818 -73.067145.1  RSN  7 0.4 1.9LRSN                1
 GAP=146        1.00       4.5     5.1  6.8  0.2408E+00  0.1509E+02  0.7002E+01E
 Epicentro: LOS SANTOS - SANTANDER                                             3
 ACTION:UPD 15-09-08 21:51 OP:cam  STATUS:               ID:20150730200725 L   I
 OLDACT:REG 15-07-31 03:21 OP:ak   STATUS:               ID:20150730195749     3
 2015-07-30-1957-49M.COL___352                                                 6
 STAT SP IPHASW D HRMM SECON CODA AMPLIT PERI AZIMU VELO AIN AR TRES W  DIS CAZ7
 BAR2 EZ EP       20 7 45.64                             169    0.1210 28.1 207 
 BAR2 EZ ES       20 8  0.13                             169   -0.7210 28.1 207 
 BAR2 EZ I        20 8  2.27        10.7 0.12            166           28.1 207 
 PAM  EZ EP   1   20 7 47.23                             153   -0.39 7 70.5  35 
 PAM  EN ES       20 8  4.98                             153    0.4010 70.5  35 
 BRR  HZ EP       20 7 47.54                             150    0.1910 78.0 294 
 BRR  HN ES       20 8  4.45                             150    0.3510 78.0 294 
 BRR  HZ I        20 8  7.76        17.1 0.38            148           78.0 294 
 RUS  HZ EP       20 7 49.40                             143   -0.2910  102 181 
 RUS  HE ES       20 8  8.50                             143    0.2410  102 181 
 ZAR  HZ EP   1   20 7 58.47                             121   -0.56 6  211 291 
 ZAR  HN ES       20 8 24.46                             121   -0.43 8  211 291 
 ZAR  HZ I        20 8 29.19         6.7 0.31            121            211 291 
 GUY2CHZ EP       20 8 11.16                             112    0.78 7  309 235 
 GUY2CHN ES       20 8 45.68                             112    0.58 7  309 235 
 GUY2CHZ I        20 8 53.58         3.6 0.64                           309 235 
 TOL  SZ EP   1   20 8 14.95                             109   -0.02 5  351 225 
 TOL  SN ES       20 8 52.77                             109   -0.50 6  351 225 
 TOL  SZ I        20 9  0.02         3.0 0.40            109            351 225 
                                                                                
