 2016  430 2334 47.9 L   6.122 -73.690111.1  RSN  5 0.2 1.3LRSN                1
 GAP=172        0.45       2.8     1.7  3.6 -0.7949E-01  0.1866E+01  0.7488E-01E
 Epicentro: CHIPATA - SANTANDER                                                3
 ACTION:UPD 16-05-05 14:25 OP:rebc STATUS:               ID:20160430233447 L   I
 OLDACT:DUP 16-05-01 01:50 OP:drio STATUS:               ID:20160430232753d    3
 2016-04-30-2327-50M.COL___298                                                 6
 STAT SP IPHASW D HRMM SECON CODA AMPLIT PERI AZIMU VELO AIN AR TRES W  DIS CAZ7
 SPBC HZ EP       2335  5.19                             147   -0.0510 67.0 219 
 SPBC HE ES       2335 18.92                             147    0.1310 67.0 219 
 SPBC HZ I        2335 20.23         6.4 0.24            149           67.0 219 
 RUS  HZ EP       2335  6.33                             145    0.1910 71.9 111 
 RUS  HE ES       2335 20.22                             145   -0.1710 71.9 111 
 RUS  HZ I        2335 22.31         2.8 0.28            149           71.9 111 
 PTB  HZ EP       2335  7.62                             136    0.2310 96.5 299 
 PTB  HE ES       2335 22.48                             136   -0.1410 96.5 299 
 PTB  HZ I        2335 25.09         4.7 0.30            138           96.5 299 
 NOR  HZ EP       2335 11.92                             123   -0.05 9  144 245 
 NOR  HN ES       2335 30.81                             123    0.04 9  144 245 
 NOR  HZ I        2335 34.10         5.1 0.16            126            144 245 
 GUY2CHZ EP       2335 19.37                             113   -0.26 8  210 242 
 GUY2CHE ES       2335 44.44                             113    0.03 8  210 242 
 GUY2CHZ I        2335 46.55         1.9 0.34                           210 242 
                                                                                
