 2010 1130 2142 47.0 L   6.783 -73.096140.0  RSN  6 0.3 1.7LRSN                1
 GAP=164        0.59       4.1     9.3  7.5  0.1364E+02 -0.2064E+02 -0.3653E+01E
 Epicentro: LOS SANTOS - SANTANDER                                             3
 ACTION:UP  10-12-17 16:56 OP:REBC STATUS:               ID:20101130214247 L   I
 2010-11-30-2139-18S.COL___135                                                 6
 STAT SP IPHASW D HRMM SECON CODA AMPLIT PERI AZIMU VELO SNR AR TRES W  DIS CAZ7
 BRR  HZ EP   1   2143  7.85                             150     0.0 7   77 298 
 BRR  HE ES   1   2143 24.17                             150     0.0 7   77 298 
 BRR  HZ I        2143 28.70        12.2 0.10                            77 298 
 RUS  HZ EP   1   2143 10.06                             143     0.1 7   99 179 
 RUS  HN ES   1   2143 28.08                             143     0.1 7   99 179 
 RUS  HZ I        2143 30.10         7.0 0.36                            99 179 
 GRA  SZ EP   2   2143 11.90                             136     0.2 5  126  15 
 GRA  SZ I        2143 32.56         8.4 0.45                           126  15 
 OCA  SZ EP   2   2143 14.52                             128    -0.6 5  163 351 
 OCA  SZ I        2143 28.49         5.6 0.15                           163 351 
 CHI  HZ EP   2   2143 24.40                             116     0.1 4  248 197 
 CHI  HZ I        2143 28.85         2.2 0.52                           248 197 
 CHI  HE ES   2   2143 52.67                             116    -0.8 4  248 197 
 RREF HZ EP   2   2143 33.87                             110     0.7 3  325 230 
 RREF HZ I        2144 15.30         1.8 0.27                           325 230 
                                                                                
