 2013  530 2217 45.6 L   6.791 -73.151145.6  RSN 12 0.4 2.3LRSN                1
 GAP=136        0.96       3.4     4.2  5.6 -0.1668E+01  0.8745E+01  0.1229E+01E
 Epicentro: LOS SANTOS - SANTANDER                                             3
 ACTION:UPD 13-06-20 09:55 OP:ep   STATUS:               ID:20130530221745 L   I
 2013-05-30-2215-51M.COL___221                                                 6
 STAT SP IPHASW D HRMM SECON CODA AMPLIT PERI AZIMU VELO AIN AR TRES W  DIS CAZ7
 BAR2 SZ EP       2218  5.13                             171   -0.0410 22.3 189 
 BAR2 SZ ES       2218 20.61                             171    0.1610 22.3 189 
 BAR2 SZ I        2218 23.16        32.1 0.32            166           22.3 189 
 GIR2 SZ EP       2218  5.38                             167    0.1210 32.1 352 
 GIR2 SZ ES       2218 20.69                             167    0.0810 32.1 352 
 BRR  HZ EP       2218  7.08                             153    0.3710 71.1 299 
 BRR  HN ES   1   2218 24.03                             153    0.84 7 71.1 299 
 BRR  HZ I        2218 28.79        25.6 0.24            144           71.1 299 
 PAM  SZ EP       2218  8.11                             150    0.2610 78.5  39 
 PAM  SE ES       2218 25.21                             150   -0.0110 78.5  39 
 PAM  SZ I        2218 27.39        16.8 0.48            151           78.5  39 
 RUS  HZ EP       2218  9.07                             144   -0.1810 99.7 176 
 RUS  HN ES       2218 27.26                             144   -0.4610 99.7 176 
 RUS  HZ I        2218 29.73        13.6 0.28            140           99.7 176 
 PTB  HZ EP       2218 11.94                             132   -0.52 9  147 259 
 PTB  HN ES       2218 33.00                             132   -0.43 9  147 259 
 PTB  HZ I        2218 40.50        38.9 0.18            125            147 259 
 OCA  HN ES   1   2218 35.74                             129   -0.36 7  161 353 
 ZAR  HE ES   1   2218 43.58                             122    0.31 6  204 292 
 ZAR  HZ I        2218 49.63        24.6 0.26            116            204 292 
 NOR  HZ EP       2218 21.13                             119   -0.06 8  234 235 
 NOR  HN ES       2218 49.06                             119    0.10 8  234 235 
 NOR  HZ I        2218 52.89        23.8 0.22            113            234 235 
 SML  HN ES       2218 50.07                             117   -0.80 8  244 336 
 HEL  HZ EP   1   2218 26.67                             115    0.98 6  271 256 
 HEL  HZ I        2219  4.40        15.3 0.26            110            271 256 
 GUY2CHZ EP   1   2218 29.92                             112    0.86 5  300 235 
                                                                                
