 2013 1130 2134 18.9 L   6.813 -73.131148.2  RSN 18 0.5 2.3LRSN                1
 GAP=138        1.18       2.9     4.9  5.7 -0.3441E+01  0.6070E+01 -0.7262E+00E
 Epicentro: LOS SANTOS - SANTANDER                                             3
 ACTION:UPD 14-01-09 16:32 OP:ep   STATUS:               ID:20131130213418 L   I
 OLDACT:REG 13-12-01 01:16 OP:nd   STATUS:               ID:20131130213000     3
 2013-11-30-2130-00M.COL___282                                                 6
 STAT SP IPHASW D HRMM SECON CODA AMPLIT PERI AZIMU VELO AIN AR TRES W  DIS CAZ7
 BAR2 SZ IP     C 2134 39.20                             170    0.3110 25.1 193 
 BAR2 SZ ES       2134 54.09                             170   -0.3710 25.1 193 
 BAR2 SZ I        2134 55.93        48.6 0.20            169           25.1 193 
 BRR  HZ IP     D 2134 41.07                             153    0.6810 71.9 297 
 BRR  HN ES       2134 57.91                             153    0.7910 71.9 297 
 BRR  HZ I        2135  1.48        30.5 0.32            150           71.9 297 
 PAM  SZ EP       2134 42.00                             152    0.7210 75.3  39 
 PAM  SN ES       2134 58.82                             152    0.1010 75.3  39 
 PAM  SZ I        2135  1.36        60.9 0.56            155           75.3  39 
 RUS  HZ IP     D 2134 43.07                             144    0.0510  102 177 
 RUS  HN ES       2135  1.65                             144   -0.1610  102 177 
 RUS  HZ I        2135  3.53        16.7 0.22            145            102 177 
 PTB  HZ EP       2134 46.07                             132   -0.20 9  150 258 
 PTB  HN ES       2135  6.91                             132   -0.67 9  150 258 
 PTB  HZ I        2135 10.45        15.8 0.34            131            150 258 
 OCA  HZ EP       2134 47.55                             130    0.23 9  159 353 
 OCA  HN ES       2135  8.69                             130   -0.77 9  159 353 
 OCA  HZ I        2135 14.90        26.0 0.20            131            159 353 
 SPBC HZ EP       2134 48.24                             129    0.42 9  165 219 
 SPBC HN ES       2135 10.02                             129   -0.33 9  165 219 
 SPBC HZ I        2135 16.08        39.8 0.26            129            165 219 
 ZAR  HZ EP   4   2134 52.45                             123    0.81 0  205 292 
 ZAR  HN ES   4   2135 17.28                             123    0.14 0  205 292 
 ZAR  HZ I        2135 17.36         9.9 0.10            122            205 292 
 NOR  HZ EP       2134 54.98                             119   -0.05 8  237 234 
 NOR  HN ES   2   2135 23.12                             119   -0.07 4  237 234 
 NOR  HZ I        2135 26.88        10.9 0.18            119            237 234 
 SML  HZ EP       2134 54.87                             118   -0.76 8  243 335 
 SML  HN ES       2135 23.67                             118   -0.58 8  243 335 
 SML  HZ I        2135 27.42        44.6 0.10            118            243 335 
 CHI  HZ EP       2134 56.11                             117   -0.86 8  250 195 
 CHI  HN ES       2135 26.07                             117   -0.56 8  250 195 
 CHI  HZ I        2135 29.66         6.9 0.28            118            250 195 
 HEL  HZ EP   2   2134 59.72                             115    0.24 4  274 256 
 HEL  HN ES       2135 32.05                             115    0.94 8  274 256 
 HEL  HZ I        2135 37.00         7.2 0.46            115            274 256 
 GUY2CHZ EP   4   2135  4.14                             113    1.24 0  303 235 
 GUY2CHN ES   4   2135 38.21                             113    1.03 0  303 235 
 GUY2CHZ I        2135 47.20        11.8 0.40                           303 235 
 CBOC HZ EP   4   2135  7.56                             110    1.38 0  336 252 
 CBOC HN ES   4   2135 42.14                             110   -0.88 0  336 252 
 CBOC HZ I        2135 49.36         3.9 0.54            110            336 252 
 COD  HZ EP       2135  6.83                             109   -0.43 6  347 354 
 COD  HN ES       2135 45.09                             109    0.14 6  347 354 
 COD  HZ I        2135 52.08         4.0 0.24            110            347 354 
 PRA  HZ EP       2135 13.61                             107    0.83 6  394 210 
 PRA  HN ES   2   2135 54.86                             107    0.08 3  394 210 
 PRA  HZ I        2136  1.80         7.0 0.26            107            394 210 
 ORTC HZ EP   2   2135 13.46                             107    0.27 3  398 216 
 ORTC HN ES   2   2135 55.56                             107    0.06 3  398 216 
 ORTC HZ I        2136  3.90         6.5 0.24            107            398 216 
 SJC  HZ EP   4   2135 13.50                             106   -1.04 0  409 327 
 SJC  HN ES   4   2135 52.25                             106   -5.66 0  409 327 
 SJC  HZ I        2135 58.65         5.1 0.34            107            409 327 
                                                                                
