 2016 1230 2032 34.0 L   6.793 -73.140149.9  RSN  8 0.5 1.9LRSN                1
 GAP=138        1.09       4.3     5.5  6.8  0.2840E+01  0.1008E+02  0.4419E+01E
 Epicentro: LOS SANTOS - SANTANDER                                             3
 ACTION:UPD 17-01-11 20:20 OP:rebc STATUS:               ID:20161230203234 L   I
 OLDACT:UP  16-12-31 03:08 OP:dani STATUS:               ID:20161230202747     3
 OLDACT:UP  16-12-31 03:08 OP:dani STATUS:               ID:20161230202747     3
 OLDACT:REG 16-12-31 02:34 OP:dani STATUS:               ID:20161230202747     3
 2016-12-30-2028-00M.COL___375                                                 6
 STAT SP IPHASW D HRMM SECON CODA AMPLIT PERI AZIMU VELO AIN AR TRES W  DIS CAZ7
 BAR2 EZ ES       2033  9.36                             171   -0.4510 22.7 192 
 BAR2 EZ I        2033 11.86        24.9 0.31            166           22.7 192 
 BRR  HZ EP       2032 56.05                             153    0.4010 72.1 299 
 BRR  HN ES       2033 13.18                             153    0.6410 72.1 299 
 BRR  HZ I        2033 19.29        16.4 0.33            150           72.1 299 
 PAM  EZ IP     C 2032 56.87                             151    0.1910 77.6  39 
 PAM  EN ES       2033 14.30                             151   -0.0510 77.6  39 
 PAM  EZ I        2033 16.54        10.6 0.60            159           77.6  39 
 RUS  HZ EP       2032 57.92                             145   -0.1910 99.8 176 
 RUS  HE ES       2033 16.67                             145   -0.2410 99.8 176 
 RUS  HZ I        2033 19.59         9.9 0.40            146           99.8 176 
 PTB  HZ EP       2033  0.60                             133   -0.76 9  148 259 
 PTB  HN ES   3   2033 21.76                             133   -0.93 2  148 259 
 PTB  HZ I        2033 29.49        14.6 0.52            132            148 259 
 ZAR  HZ EP       2033  6.24                             123   -0.57 9  205 292 
 ZAR  HE ES       2033 32.51                             123    0.11 9  205 292 
 ZAR  HZ I        2033 39.25         9.4 0.30            124            205 292 
 CHI  HZ EP       2033 12.34                             118    0.46 8  248 195 
 CHI  HN ES       2033 42.13                             118    0.72 8  248 195 
 CHI  HZ I        2033 51.26         3.2 0.12            120            248 195 
 GUY2CHZ EP   9   2033 19.20                             113    1.38 0  301 235 
 GUY2CHN ES       2033 53.81                             113    0.44 7  301 235 
 GUY2CHZ I        2034  1.04         4.3 0.32                           301 235 
                                                                                
