 2012  530 2317  3.6 L   6.741 -73.172146.1  RSN  4 0.4 1.3LRSN                1
 GAP=137        0.90       7.4     7.1 10.1 -0.1596E+02  0.1854E+02 -0.7830E+01E
 Epicentro: VILLANUEVA - SANTANDER                                             3
 ACTION:UP  12-07-05 12:09 OP:pat  STATUS:               ID:20120530231703 L   I
 2012-05-30-2310-00M.COL___201                                                 6
 STAT SP IPHASW D HRMM SECON CODA AMPLIT PERI AZIMU VELO AIN AR TRES W  DIS CAZ7
 BAR2 SZ EP   1   2317 23.26                             173     0.1 7   16 184 
 BAR2 SZ I        2317 23.37         4.3 0.20                            16 184 
 BAR2 SZ ES   1   2317 39.15                             173     0.8 7   16 184 
 PAM  SZ EP   1   2317 26.46                             149     0.2 7   84  38 
 PAM  SE ES   1   2317 43.44                             149    -0.5 7   84  38 
 RUS  HZ EP   1   2317 26.93                             146     0.0 7   94 174 
 RUS  HN ES   1   2317 44.71                             146    -0.4 7   94 174 
 RUS  HZ I        2317 46.20         3.8 0.34                            94 174 
 PTB  HZ EP   1   2317 30.34                             133     0.1 7  144 261 
 PTB  HN ES   1   2317 50.68                             133    -0.3 7  144 261 
 PTB  HZ I        2317 52.45         1.8 0.24                           144 261 
                                                                                
