 2017  430 2214 27.2 L   6.793 -73.121152.0  RSN  6 0.1 1.9LRSN                1
 GAP=240        0.45       2.2     3.3  3.9  0.3068E+01 -0.2698E+01 -0.5153E-01E
 Epicentro: LOS SANTOS - SANTANDER                                             3
 ACTION:UPD 17-05-30 21:17 OP:jn   STATUS:               ID:20170430221427 L   I
 OLDACT:UP  17-05-01 03:13 OP:cog  STATUS:               ID:20170430220742     3
 OLDACT:REG 17-05-01 02:56 OP:cog  STATUS:               ID:20170430220742     3
 2017-04-30-2208-00M.COL___374                                                 6
 STAT SP IPHASW D HRMM SECON CODA AMPLIT PERI AZIMU VELO AIN AR TRES W  DIS CAZ7
 BRR  HZ EP       2214 49.20                             153    0.0110 73.9 298 
 BRR  HE ES       2215  6.49                             153    0.1610 73.9 298 
 BRR  HZ I        2215 10.68        12.5 0.36            150           73.9 298 
 RUS  HZ EP       2214 51.40                             145   -0.1210 99.6 178 
 RUS  HN ES       2215 10.38                             145   -0.0910 99.6 178 
 RUS  HZ I        2215 11.13         7.3 0.22            147           99.6 178 
 PTB  HZ EP   9   2214 54.28                             133   -0.64 0  150 259 
 PTB  HN ES       2215 15.57                             133   -0.32 9  150 259 
 PTB  HZ I        2215 22.67         7.7 0.44            132            150 259 
 SPBC HZ EP       2214 56.44                             130    0.13 9  164 220 
 SPBC HN ES       2215 19.08                             130    0.09 9  164 220 
 SPBC HZ I        2215 21.05        15.9 0.20            131            164 220 
 ZAR  HN ES       2215 26.01                             123   -0.20 8  207 292 
 CHI  HZ EP   4   2215  7.04                             118    1.77 0  249 196 
 CHI  HN ES       2215 34.96                             118    0.02 8  249 196 
                                                                                
