 2017  830 2259 28.2 L   6.838 -72.997141.5  RSN  5 0.2 1.3LRSN                1
 GAP=254        0.42       3.2     4.0  3.8  0.6622E+01  0.7507E+00  0.2650E+00E
 Epicentro: CEPITA - SANTANDER                                                 3
 ACTION:UPD 17-09-04 20:26 OP:rebc STATUS:               ID:20170830225928 L   I
 OLDACT:UP  17-08-31 10:44 OP:mg   STATUS:               ID:20170830225729     3
 OLDACT:UP  17-08-31 10:44 OP:mg   STATUS:               ID:20170830225729     3
 OLDACT:REG 17-08-31 08:40 OP:mg   STATUS:               ID:20170830225729     3
 2017-08-30-2258-00M.COL___402                                                 6
 STAT SP IPHASW D HRMM SECON CODA AMPLIT PERI AZIMU VELO AIN AR TRES W  DIS CAZ7
 BAR2 EZ EP   1   2259 47.63                             166    0.01 7 34.0 217 
 BAR2 EZ ES       23 0  2.75                             166    0.0110 34.0 217 
 BAR2 EZ I        23 0  3.74         7.3 0.29            164           34.0 217 
 BRR  HZ IP     C 2259 49.51                             147   -0.2310 84.4 291 
 BRR  HN ES       23 0  6.58                             147    0.0710 84.4 291 
 BRR  HZ I        23 0  7.54         4.1 0.26            146           84.4 291 
 RUS  HZ EP       2259 52.11                             142    0.2210  105 185 
 RUS  HN ES       23 0 10.26                             142   -0.0910  105 185 
 RUS  HZ I        23 0 11.68         3.3 0.24            142            105 185 
 ZAR  HN ES   2   23 0 28.41                             120    0.33 4  218 290 
 ZAR  HZ I        23 0 32.06         2.0 0.11            119            218 290 
 NOR  HZ EP   4   23 0  4.15                             116   -1.29 0  251 236 
 NOR  HN ES   1   23 0 34.36                             116   -0.11 6  251 236 
 NOR  HZ I        23 0 34.77         0.7 0.10            116            251 236 
                                                                                
