 2015  630 2102 13.1 L   6.759 -73.119137.5  RSN  5 0.3 2.0LRSN                1
 GAP=203        0.78       3.5     5.4  6.2  0.4405E+01  0.1447E+02 -0.4695E+01E
 Epicentro: LOS SANTOS - SANTANDER                                             3
 ACTION:UPD 15-09-10 22:16 OP:cam  STATUS:               ID:20150630210213 L   I
 OLDACT:REG 15-07-01 03:16 OP:drio STATUS:               ID:20150630205748     3
 2015-06-30-2057-48M.COL___325                                                 6
 STAT SP IPHASW D HRMM SECON CODA AMPLIT PERI AZIMU VELO AIN AR TRES W  DIS CAZ7
 BAR2 EZ EP       21 2 32.19                             172    0.4810 19.7 201 
 BAR2 EZ ES       21 2 46.37                             172    0.1810 19.7 201 
 BAR2 EZ I        21 2 48.38        20.8 0.18            172           19.7 201 
 RUS  HZ EP       21 2 35.88                             143    0.1410 95.8 178 
 RUS  HN ES       21 2 52.83                             143   -0.5310 95.8 178 
 ZAR  HZ EP       21 2 45.25                             120   -0.29 8  209 293 
 ZAR  HN ES       21 3 11.02                             120    0.22 8  209 293 
 ZAR  HZ I        21 3 16.88         8.6 0.10            121            209 293 
 SML  HZ EP       21 2 49.61                             115   -0.31 8  249 335 
 SML  HE ES       21 3 18.41                             115   -0.19 8  249 335 
 SML  HZ I        21 3 24.05        16.1 0.16            116            249 335 
 GUY2CHZ EP       21 2 56.69                             111    0.33 7  301 236 
 GUY2CHE ES       21 3 29.91                             111   -0.16 7  301 236 
 GUY2CHZ I        21 3 37.36         3.2 0.28                           301 236 
                                                                                
