 2016 1030 2341  9.5 L   6.770 -73.136128.4  RSN  6 0.6 1.2LRSN                1
 GAP=139        1.53       6.9     7.4 11.8 -0.1411E+02  0.5264E+01  0.1847E+02E
 Epicentro: LOS SANTOS - SANTANDER                                             3
 ACTION:UPD 16-11-09 19:24 OP:rebc STATUS:               ID:20161030234109 L   I
 OLDACT:REG 16-10-31 07:11 OP:and  STATUS:               ID:20161030233743     3
 2016-10-30-2338-00M.COL___325                                                 6
 STAT SP IPHASW D HRMM SECON CODA AMPLIT PERI AZIMU VELO AIN AR TRES W  DIS CAZ7
 BAR2 EZ ES       2341 40.16                             171   -0.4810 20.3 195 
 BAR2 EZ I        2341 45.23         4.8 0.11            170           20.3 195 
 BRR  HZ EP   2   2341 28.50                             148   -0.49 5 73.8 300 
 BRR  HN ES       2341 44.82                             148    0.6510 73.8 300 
 PAM  EZ EP       2341 29.76                             147   -0.2910 79.3  37 
 PAM  EN ES       2341 46.35                             147    0.2910 79.3  37 
 PAM  EZ I        2341 48.01         2.8 0.18            150           79.3  37 
 RUS  HZ EP       2341 30.61                             141   -0.7410 97.2 177 
 RUS  HE ES       2341 48.72                             141    0.3510 97.2 177 
 RUS  HZ I        2341 50.16         2.9 0.30            143           97.2 177 
 PTB  HZ EP   4   2341 33.68                             128   -1.50 0  148 260 
 PTB  HN ES       2341 54.38                             128   -0.81 9  148 260 
 PTB  HZ I        2341 56.43         2.7 0.16            131            148 260 
 SPBC HZ EP       2341 37.77                             125    1.20 9  161 220 
 SPBC HN ES       2341 57.72                             125    0.06 9  161 220 
 SPBC HZ I        2341 59.53         3.1 0.13            128            161 220 
                                                                                
