 2014  930 2226 19.0 L   6.768 -73.131148.0  RSN 11 0.4 1.8LRSN                1
 GAP=140        0.84       3.1     3.9  5.4 -0.8081E+00  0.2810E+01  0.1452E+01E
 Epicentro: LOS SANTOS - SANTANDER                                             3
 ACTION:UPD 14-10-03 23:10 OP:nd   STATUS:               ID:20140930222619 L   I
 OLDACT:REG 14-10-01 04:05 OP:spq  STATUS:               ID:20140930221818     3
 2014-09-30-2218-18M.COL___291                                                 6
 STAT SP IPHASW D HRMM SECON CODA AMPLIT PERI AZIMU VELO AIN AR TRES W  DIS CAZ7
 BAR2 SZ EP       2226 38.92                             172    0.0310 20.2 196 
 BAR2 SZ ES   1   2226 54.07                             172   -0.29 7 20.2 196 
 BAR2 SZ I        2226 56.77         6.4 0.29            168           20.2 196 
 BRR  HZ EP       2226 40.85                             152    0.2310 74.4 300 
 BRR  HE ES       2226 57.99                             152    0.5510 74.4 300 
 BRR  HZ I        2227  1.68        11.3 0.40            149           74.4 300 
 PAM  SZ EP       2226 41.92                             151    0.3210 79.1  37 
 PAM  SE ES       2226 58.94                             151   -0.2610 79.1  37 
 PAM  SZ I        2227  1.10         6.4 0.54            156           79.1  37 
 RUS  HZ EP       2226 43.05                             145    0.2910 96.9 177 
 RUS  HN ES   1   2227  0.72                             145   -0.54 7 96.9 177 
 PTB  HZ EP       2226 46.02                             132   -0.26 9  149 260 
 PTB  HN ES       2227  7.02                             132   -0.51 9  149 260 
 PTB  HZ I        2227 14.35         7.7 0.32            131            149 260 
 SPBC HZ EP       2226 47.71                             130    0.15 9  162 220 
 SPBC HE ES   1   2227 10.45                             130    0.65 7  162 220 
 SPBC HZ I        2227 12.90         7.6 0.30            129            162 220 
 ZAR  HE ES   1   2227 17.43                             122   -0.15 6  207 293 
 ZAR  HZ I        2227 25.08         6.7 0.09            122            207 293 
 CHI  HZ EP   1   2226 56.23                             118   -0.32 6  246 196 
 CHI  HN ES   1   2227 25.79                             118   -0.01 6  246 196 
 CHI  HZ I        2227 32.14         1.6 0.42            119            246 196 
 SML  HZ EP       2226 55.66                             117   -0.56 8  248 335 
 SML  HN ES   1   2227 25.38                             117    0.17 6  248 335 
 SML  HZ I        2227 27.55         6.4 0.10            119            248 335 
 GUY2CHE ES   4   2227 39.19                             113    2.47 0  301 236 
 GUY2CHZ I        2227 45.81         4.6 0.80                           301 236 
 TOL  SN ES   4   2227 47.75                             110    2.92 0  342 225 
 TOL  SZ I        2227 53.13         5.4 0.36            110            342 225 
                                                                                
