 2011 1230 2212 18.7 L   6.802 -73.127137.7  RSN  5 0.4 1.6LRSN                1
 GAP=139        0.62       5.6     5.7  7.4 -0.2961E+01  0.1068E+01  0.1435E+01E
 Epicentro: LOS SANTOS - SANTANDER                                             3
 ACTION:UPD 12-07-13 16:19 OP:ep   STATUS:               ID:20111230221218 L   I
 2011-12-30-2210-00M.COL___186                                                 6
 STAT SP IPHASW D HRMM SECON CODA AMPLIT PERI AZIMU VELO AIN AR TRES W  DIS CAZ7
 BRR  HZ EP   1   2212 38.72                             151   -0.38 7 72.9 298 
 BRR  HN ES   1   2212 55.07                             151    0.07 7 72.9 298 
 BRR  HZ I        2212 59.61        16.7 0.11                          72.9 298 
 PAM  SZ EP       2212 39.87                             150   -0.1210 75.9  38 
 PAM  SN ES   1   2212 56.61                             150    0.03 7 75.9  38 
 RUS  HZ EP   2   2212 41.43                             142   -0.26 5  101 177 
 RUS  HN ES   2   2213  0.10                             142    0.49 5  101 177 
 RUS  HZ I        2213  1.26         2.0 0.26                           101 177 
 OCA  SZ EP   2   2212 47.41                             128    0.99 5  160 352 
 OCA  SZ I        2213 11.65         5.5 0.37                           160 352 
 ZAR  HZ EP   2   2212 50.92                             120    0.08 4  206 292 
 ZAR  HZ I        2213 19.71         5.0 0.25                           206 292 
                                                                                
