 2016  530 2128 35.9 L   6.775 -73.152143.2  RSN  5 0.4 1.4LRSN                1
 GAP=137        0.88       5.1     4.8  9.6 -0.4657E+01  0.2128E-01  0.2365E+01E
 Epicentro: LOS SANTOS - SANTANDER                                             3
 ACTION:UPD 16-08-18 17:50 OP:cam  STATUS:               ID:20160530212835 L   I
 OLDACT:DUP 16-05-31 04:28 OP:dnl  STATUS:               ID:20160530211746d    3
 2016-05-30-2117-45M.COL___316                                                 6
 STAT SP IPHASW D HRMM SECON CODA AMPLIT PERI AZIMU VELO AIN AR TRES W  DIS CAZ7
 BAR2 EZ EP   2   2128 55.55                             172    0.42 5 20.4 189 
 BAR2 EZ ES   2   2129  9.90                             172   -0.26 5 20.4 189 
 BAR2 EZ I        2129 11.29         5.7 0.11            173           20.4 189 
 BRR  HN ES       2129 13.76                             152    0.6610 72.0 301 
 BRR  HZ I        2129 18.18         7.6 0.12            151           72.0 301 
 PAM  EZ EP       2128 57.93                             150   -0.0410 80.0  39 
 PAM  EN ES       2129 14.88                             150   -0.3310 80.0  39 
 PAM  EZ I        2129 16.87         6.2 0.62            152           80.0  39 
 RUS  HZ EP   2   2128 59.51                             144    0.34 5 97.8 176 
 RUS  HN ES       2129 17.46                             144    0.1210 97.8 176 
 RUS  HZ I        2129 18.42         3.0 0.38            148           97.8 176 
 PTB  HZ EP   2   2129  2.43                             132   -0.08 5  147 260 
 PTB  HN ES       2129 22.71                             132   -0.59 9  147 260 
 PTB  HZ I        2129 26.05         2.7 0.19            133            147 260 
                                                                                
