 2013 1030 2131 56.2 L   6.774 -73.129142.0  RSN  8 0.4 2.3LRSN                1
 GAP=140        0.87       3.5     3.7  6.0 -0.1688E+01  0.5580E+01  0.2577E+01E
 Epicentro: LOS SANTOS - SANTANDER                                             3
 ACTION:UPD 13-11-25 09:24 OP:ep   STATUS:               ID:20131030213156 L   I
 OLDACT:UP  13-10-30 22:17 OP:cam  STATUS:               ID:20131030212841     3
 OLDACT:UP  13-10-30 22:17 OP:cam  STATUS:               ID:20131030212841     3
 OLDACT:REG 13-10-30 21:54 OP:cam  STATUS:               ID:20131030212841     3
 2013-10-30-2128-41M.COL___216                                                 6
 STAT SP IPHASW D HRMM SECON CODA AMPLIT PERI AZIMU VELO AIN AR TRES W  DIS CAZ7
 BRR  HZ EP       2132 17.11                             151   -0.0210 74.2 300 
 BRR  HN ES       2132 33.79                             151    0.3410 74.2 300 
 BRR  HZ I        2132 38.13        35.7 0.12            150           74.2 300 
 PAM  SZ EP       2132 18.20                             150    0.1010 78.5  37 
 PAM  SN ES       2132 35.04                             150   -0.1210 78.5  37 
 PAM  SZ I        2132 37.01        51.2 0.52            154           78.5  37 
 RUS  HZ EP       2132 19.27                             144   -0.1110 97.6 177 
 RUS  HN ES       2132 37.59                             144    0.1310 97.6 177 
 RUS  HZ I        2132 39.16        18.2 0.28            148           97.6 177 
 PTB  HZ EP       2132 22.50                             131   -0.50 9  149 260 
 PTB  HE ES       2132 43.70                             131   -0.19 9  149 260 
 PTB  HZ I        2132 46.20        23.2 0.14            133            149 260 
 SPBC HZ EP       2132 24.38                             129    0.05 9  162 220 
 SPBC HN ES       2132 46.62                             129    0.36 9  162 220 
 SPBC HZ I        2132 51.65        25.0 0.26            131            162 220 
 ZAR  HZ EP       2132 28.24                             122   -0.47 8  207 293 
 ZAR  HN ES       2132 54.50                             122    0.45 8  207 293 
 ZAR  HZ I        2133  1.76        18.0 0.54            123            207 293 
 NOR  HZ EP       2132 31.79                             118    0.07 8  235 235 
 NOR  HN ES       2132 58.88                             118   -0.53 8  235 235 
 NOR  HZ I        2133  1.08        13.1 0.14            120            235 235 
 GUY2CHZ EP   2   2132 41.63                             112    1.99 4  301 235 
                                                                                
