 2011  630 2030  2.1 L   6.769 -73.097144.1  RSN  5 0.1 1.6LRSN                1
 GAP=162        0.37       3.6     6.5  6.1  0.8892E+01 -0.2454E+02 -0.8384E+01E
 Epicentro: LOS SANTOS - SANTANDER                                             3
 ACTION:UP  11-07-14 19:09 OP:ep   STATUS:               ID:20110630203002 L   I
 2011-06-30-2024-33S.COL___140                                                 6
 STAT SP IPHASW D HRMM SECON CODA AMPLIT PERI AZIMU VELO SNR AR TRES W  DIS CAZ7
 BAR2 SZ ES   2   2030 36.43                             171    -0.2 5   22 206 
 BAR2 SZ I        2030 39.28        10.5 0.39                            22 206 
 BRR  HZ EP   1   2030 23.35                             150    -0.1 7   78 299 
 BRR  HZ I        2030 23.46        12.8 0.33                            78 299 
 BRR  HN ES   1   2030 40.16                             150     0.1 7   78 299 
 RUS  HZ EP   1   2030 25.44                             145     0.0 7   97 179 
 RUS  HN ES   2   2030 43.71                             145     0.1 5   97 179 
 RUS  HZ I        2030 44.73         3.2 0.36                            97 179 
 BRI  SZ EP   1   2030 26.11                             141     0.2 7  110  18 
 GRA  SZ EP   2   2030 27.14                             136    -0.2 5  128  15 
 GRA  SZ I        2030 28.60         5.9 0.49                           128  15 
                                                                                
