 2014  430 2050 14.6 L   6.803 -73.138149.8  RSN 10 0.4 2.3LRSN                1
 GAP=137        1.03       3.6     4.3  6.4 -0.2604E+01  0.6954E+01  0.2256E+00E
 Epicentro: LOS SANTOS - SANTANDER                                             3
 ACTION:UPD 14-05-13 20:50 OP:nd   STATUS:               ID:20140430205014 L   I
 OLDACT:REG 14-05-01 02:28 OP:nd   STATUS:               ID:20140430205000     3
 2014-04-30-2050-00M.COL___273                                                 6
 STAT SP IPHASW D HRMM SECON CODA AMPLIT PERI AZIMU VELO AIN AR TRES W  DIS CAZ7
 BRR  HZ EP       2050 36.66                             153    0.4610 71.8 298 
 BRR  HN ES       2050 53.78                             153    0.7210 71.8 298 
 BRR  HZ I        2050 54.83        24.0 0.16            152           71.8 298 
 PAM  SZ IP     C 2050 37.29                             152    0.1110 76.6  39 
 PAM  SN ES       2050 54.47                             152   -0.3410 76.6  39 
 PAM  SZ I        2050 56.56        38.5 0.66            156           76.6  39 
 RUS  HZ EP       2050 38.64                             145   -0.1110  101 177 
 RUS  HN ES       2050 57.48                             145   -0.1210  101 177 
 RUS  HZ I        2050 58.76        23.7 0.24            146            101 177 
 PTB  HZ EP       2050 41.46                             133   -0.50 9  149 259 
 PTB  HN ES       2051  2.61                             133   -0.71 9  149 259 
 PTB  HZ I        2051  5.44        30.0 0.66            133            149 259 
 SPBC HZ EP       2050 43.58                             130    0.11 9  164 219 
 SPBC HN ES       2051  6.04                             130    0.05 9  164 219 
 SPBC HZ I        2051 12.52        33.7 0.24            131            164 219 
 ZAR  HZ EP       2050 47.52                             123    0.16 9  205 292 
 ZAR  HN ES       2051 13.19                             123    0.26 9  205 292 
 ZAR  HZ I        2051 19.30        20.8 0.40            124            205 292 
 NOR  HZ EP       2050 50.71                             119    0.07 8  236 235 
 NOR  HN ES       2051 18.86                             119    0.09 8  236 235 
 NOR  HZ I        2051 24.63        14.3 0.36            120            236 235 
 SML  HZ EP       2050 51.05                             118   -0.39 8  244 335 
 SML  HN ES   1   2051 19.59                             118   -0.60 6  244 335 
 GUY2CHZ EP       2050 59.45                             113    0.97 7  302 235 
 GUY2CHE ES   1   2051 31.83                             113   -0.89 5  302 235 
 GUY2CHZ I        2051 39.22        13.1 0.82                           302 235 
 SJC  HZ EP   4   2051  8.34                             106   -1.96 0  409 327 
 SJC  HN ES   4   2051 50.53                             106   -3.23 0  409 327 
 SJC  HZ I        2051 55.20         4.1 0.30            108            409 327 
