 2013  430 2008 26.0 L   6.791 -73.162142.9  RSN  8 0.4 1.7LRSN                1
 GAP=135        0.91       4.0     4.8  5.4 -0.2279E+01  0.5962E+01 -0.4282E+00E
 Epicentro: LOS SANTOS - SANTANDER                                             3
 ACTION:UPD 13-05-22 14:41 OP:EP   STATUS:               ID:20130430200826 L   I
 2013-04-30-2000-00M.COL___253                                                 6
 STAT SP IPHASW D HRMM SECON CODA AMPLIT PERI AZIMU VELO AIN AR TRES W  DIS CAZ7
 BAR2 SZ EP       20 8 45.32                             171    0.0610 22.0 186 
 BAR2 SZ ES       20 8 59.87                             171   -0.4110 22.0 186 
 BAR2 SZ I        20 9  1.81        17.5 0.18            170           22.0 186 
 GIR2 SZ EP       20 8 45.39                             167    0.0410 32.1 354 
 GIR2 SZ ES   1   20 9  0.02                             167   -0.43 7 32.1 354 
 GIR2 SZ I        20 9  3.78         8.4 0.26            167           32.1 354 
 BRR  HZ EP       20 8 47.52                             152    0.7410 70.1 300 
 BRR  HN ES       20 9  3.53                             152    0.5510 70.1 300 
 BRR  HZ I        20 9  7.02        10.2 0.30            152           70.1 300 
 PAM  SZ IP     C 20 8 48.27                             150    0.2410 79.4  40 
 PAM  SN ES   1   20 9  5.26                             150    0.05 7 79.4  40 
 PAM  SZ I        20 9  7.02         5.8 0.26            154           79.4  40 
 RUS  HZ EP       20 8 49.30                             143   -0.1010 99.7 175 
 RUS  HN ES   1   20 9  7.64                             143   -0.02 7 99.7 175 
 RUS  HZ I        20 9  9.11         6.9 0.32            146           99.7 175 
 PTB  HZ EP       20 8 52.14                             132   -0.41 9  146 259 
 PTB  HN ES   1   20 9 13.30                             132    0.04 7  146 259 
 PTB  HZ I        20 9 14.97         9.4 0.14            133            146 259 
 NOR  HZ EP       20 9  1.45                             118    0.11 8  233 234 
 NOR  HN ES   1   20 9 28.67                             118   -0.23 6  233 234 
 NOR  HZ I        20 9 35.50         9.2 0.18            120            233 234 
 SML  HZ EP       20 9  2.12                             117   -0.37 8  244 336 
 SML  HN ES   1   20 9 30.05                             117   -0.89 6  244 336 
                                                                                
