 2011  730 2345 59.9 L   6.758 -73.076141.1  RSN 13 0.3 2.5LRSN                1
 GAP=132        0.54       2.2     3.7  3.6 -0.3359E+01  0.1981E+01  0.1537E+01E
 Epicentro: LOS SANTOS - SANTANDER                                             3
 ACTION:UPD 12-07-25 14:04 OP:epov STATUS:               ID:20110730234559 L   I
 2011-07-30-2343-01S.COL___142                                                 6
 STAT SP IPHASW D HRMM SECON CODA AMPLIT PERI AZIMU VELO AIN AR TRES W  DIS CAZ7
 BAR2 SZ IP       2346 18.98                             171    0.0810 21.8 213 
 BAR2 SZ ES   1   2346 33.63                             171   -0.11 7 21.8 213 
 BAR2 SZ I        2346 35.31        52.1 0.16                          21.8 213 
 PAM  SZ EP   1   2346 21.87                             150    0.34 7 76.6  33 
 PAM  SE ES   1   2346 38.63                             150    0.20 7 76.6  33 
 BRR  HZ EP   1   2346 20.81                             149   -0.24 7 80.2 299 
 BRR  HE ES   1   2346 37.75                             149    0.17 7 80.2 299 
 BRR  HZ I        2346 41.50        96.4 0.13                          80.2 299 
 RUS  HZ EP   1   2346 23.04                             144    0.24 7 95.7 180 
 RUS  HN ES   1   2346 40.64                             144   -0.05 7 95.7 180 
 RUS  HZ I        2346 43.05        26.3 0.25                          95.7 180 
 BRI  SZ EP   1   2346 23.54                             140    0.08 7  110  16 
 BRI  SZ ES   1   2346 41.62                             140   -0.25 7  110  16 
 BRI  SZ I        2346 46.87        36.0 0.44                           110  16 
 OCA  SZ EP   1   2346 28.33                             127   -0.03 7  166 351 
 OCA  SZ ES   1   2346 50.41                             127   -0.18 7  166 351 
 OCA  SZ I        2346 53.19        47.6 0.18                           166 351 
 NOR  SZ EP   1   2346 35.50                             117   -0.23 6  238 236 
 NOR  SN ES   1   2347  3.52                             117   -0.18 6  238 236 
 CHI  HZ EP   1   2346 37.31                             116    0.26 6  246 197 
 CHI  HZ I        2347 13.95        19.2 0.42                           246 197 
 VIL  SN ES   1   2347 15.66                             111   -0.52 5  300 193 
 VIL  SZ I        2347 21.89        14.2 0.31                           300 193 
 GUY  SZ EP   1   2346 43.94                             111   -0.01 5  307 237 
 GUY  SZ I        2347 24.71        14.8 0.28                           307 237 
 RREF HZ EP   1   2346 47.06                             110    0.92 5  325 231 
 SDV  BZ EP   1   2346 48.59                             108   -0.80 5  358  49 
 PRA  HZ EP   1   2346 53.37                             106    0.16 4  392 211 
 PRA  HN ES   1   2347 34.44                             106   -0.38 4  392 211 
                                                                                
