 2016  530 2158 47.9 L   6.804 -73.147148.8  RSN 14 0.5 2.4LRSN                1
 GAP=119        1.04       3.2     4.3  5.6 -0.4385E+01  0.4863E+01  0.3209E+01E
 Epicentro: LOS SANTOS - SANTANDER                                             3
 ACTION:UPD 16-08-18 17:50 OP:cam  STATUS:               ID:20160530215847 L   I
 OLDACT:UP  16-06-01 05:08 OP:dnl  STATUS:               ID:20160530215847 L   3
 OLDACT:UP  16-05-31 03:48 OP:mh   STATUS:               ID:20160530215745     3
 OLDACT:UP  16-05-31 03:46 OP:mh   STATUS:               ID:20160530215745     3
 OLDACT:UP  16-05-31 03:46 OP:mh   STATUS:               ID:20160530215745     3
 OLDACT:UP  16-05-31 03:46 OP:mh   STATUS:               ID:20160530215745     3
 OLDACT:UP  16-05-31 03:46 OP:mh   STATUS:               ID:20160530215745     3
 OLDACT:UP  16-05-31 03:45 OP:mh   STATUS:               ID:20160530215745     3
 OLDACT:UP  16-05-31 03:45 OP:mh   STATUS:               ID:20160530215745     3
 OLDACT:REG 16-05-31 02:35 OP:mh   STATUS:               ID:20160530215745     3
 2016-05-30-2157-45M.COL___316                                                 6
 STAT SP IPHASW D HRMM SECON CODA AMPLIT PERI AZIMU VELO AIN AR TRES W  DIS CAZ7
 BAR2 EZ EP       2159  8.16                             171    0.2510 23.7 189 
 BAR2 EZ ES       2159 23.03                             171   -0.4810 23.7 189 
 BAR2 EZ I        2159 24.65        30.1 0.26            169           23.7 189 
 BRR  HZ EP       2159  9.59                             153    0.2310 70.9 298 
 BRR  HN ES       2159 26.69                             153    0.5910 70.9 298 
 BRR  HZ I        2159 28.73        22.4 0.57            150           70.9 298 
 PAM  EZ EP       2159 11.03                             151    0.6010 77.2  40 
 PAM  EN ES       2159 28.17                             151    0.1710 77.2  40 
 PAM  EZ I        2159 30.82        12.1 0.24            155           77.2  40 
 RUS  HZ EP       2159 11.57                             144   -0.4110  101 176 
 RUS  HE ES   1   2159 30.56                             144   -0.20 7  101 176 
 RUS  HZ I        2159 31.90        11.6 0.38            146            101 176 
 PTB  HZ EP       2159 14.60                             133   -0.51 9  148 259 
 PTB  HN ES       2159 35.84                             133   -0.49 9  148 259 
 PTB  HZ I        2159 42.81        12.5 0.22            131            148 259 
 OCA  HZ EP       2159 15.61                             130   -0.80 9  160 353 
 OCA  HN ES       2159 38.61                             130   -0.04 9  160 353 
 OCA  HZ I        2159 42.17        38.3 0.08            131            160 353 
 SPBC HZ EP       2159 17.16                             130    0.50 9  163 219 
 SPBC HN ES       2159 38.68                             130   -0.40 9  163 219 
 SPBC HZ I        2159 46.72        22.3 0.26            129            163 219 
 NOR  HZ EP   1   2159 24.48                             119    0.66 6  235 234 
 NOR  HE ES       2159 51.98                             119    0.14 8  235 234 
 NOR  HZ I        2159 55.03         7.4 0.16            119            235 234 
 CHI  HZ EP       2159 25.78                             118   -0.03 8  249 195 
 CHI  HN ES       2159 55.77                             118    0.40 8  249 195 
 CHI  HZ I        2159 58.94         7.7 0.52            119            249 195 
 ROSC BZ EP   2   2159 26.91                             117    0.69 4  253 211 
 ROSC BN ES   4   2159 57.66                             117    1.56 0  253 211 
 ROSC BZ I        22 0  2.69        17.8 0.45            118            253 211 
 HEL  HZ EP       2159 27.58                             115   -0.69 8  272 256 
 HEL  HN ES       22 0  0.36                             115    0.61 8  272 256 
 HEL  HZ I        22 0  6.65     20355.1 2.27            115            272 256 
 PTGC HZ EP   9   2159 30.40                             112   -1.55 0  309 159 
 PTGC HN ES       22 0  4.63                             112   -0.12 7  309 159 
 ANIL HN ES   4   22 0 18.48                             109    1.68 0  358 224 
 ORTC HZ EP       2159 41.97                             107    0.01 6  396 216 
 ORTC HN ES       22 0 24.23                             107    0.12 6  396 216 
 ORTC HZ I        22 0 29.34         3.8 0.24            107            396 216 
 SJC  HZ EP   4   2159 42.08                             106   -1.44 0  409 327 
 SJC  HN ES   4   22 0 23.18                             106   -3.72 0  409 327 
 SJC  HZ I        22 0 37.98         3.0 0.70            107            409 327 
                                                                                
