 2013  530 2355 56.5 L   6.832 -73.081140.0  RSN  5 0.3 1.4LRSN                1
 GAP=205        0.66       5.6     7.8  5.5  0.2528E+02 -0.2060E+00  0.9071E+00E
 Epicentro: LOS SANTOS - SANTANDER                                             3
 ACTION:UPD 13-06-20 09:55 OP:ep   STATUS:               ID:20130530235556 L   I
 2013-05-30-2350-00M.COL___261                                                 6
 STAT SP IPHASW D HRMM SECON CODA AMPLIT PERI AZIMU VELO AIN AR TRES W  DIS CAZ7
 BAR2 SZ EP   1   2356 15.65                             168    0.10 7 28.8 203 
 BAR2 SZ ES       2356 30.59                             168    0.1710 28.8 203 
 BAR2 SZ I        2356 31.38         4.7 0.28            163           28.8 203 
 GIR2 SZ EP       2356 15.45                             167    0.0210 29.9 336 
 GIR2 SZ ES       2356 29.79                             167   -0.4310 29.9 336 
 GIR2 SZ I        2356 31.25         8.7 0.44            166           29.9 336 
 BRR  HZ EP       2356 17.38                             150    0.0810 76.0 294 
 BRR  HN ES       2356 33.88                             150    0.3410 76.0 294 
 BRR  HZ I        2356 38.16         8.6 0.24            147           76.0 294 
 RUS  HZ EP   1   2356 20.01                             141    0.09 7  104 180 
 RUS  HN ES   1   2356 37.93                             141   -0.27 7  104 180 
 RUS  HZ I        2356 40.15         2.1 0.34            141            104 180 
 ZAR  HN ES   2   2356 53.79                             120   -0.78 4  209 291 
                                                                                
