 2014 1030 2016 31.1 L   6.816 -73.156146.5  RSN  5 0.4 1.7LRSN                1
 GAP=143        0.95       5.6     5.8  7.7 -0.1612E+02  0.6785E+01  0.1834E+01E
 Epicentro: LOS SANTOS - SANTANDER                                             3
 ACTION:UPD 14-11-29 23:58 OP:nd   STATUS:               ID:20141030201631 L   I
 OLDACT:REG 14-11-25 15:03 OP:cam  STATUS:               ID:20141030200814     3
 2014-10-30-2008-14M.COL___274                                                 6
 STAT SP IPHASW D HRMM SECON CODA AMPLIT PERI AZIMU VELO AIN AR TRES W  DIS CAZ7
 BAR2 SZ EP       2016 51.08                             170    0.1810 24.9 187 
 BAR2 SZ ES       2017  6.76                             170    0.4610 24.9 187 
 BAR2 SZ I        2017  7.87        13.6 0.14            169           24.9 187 
 PAM  SZ EP       2016 53.79                             151    0.3910 76.7  41 
 PAM  SN ES       2017 10.28                             151   -0.4810 76.7  41 
 PAM  SN I        2017 11.66         6.2 0.22            154           76.7  41 
 RUS  HZ EP       2016 54.52                             143   -0.5810  102 176 
 RUS  HE ES       2017 13.83                             143    0.0510  102 176 
 RUS  HZ I        2017 15.28         5.8 0.28            145            102 176 
 PTB  HN ES       2017 18.97                             132   -0.16 9  147 258 
 PTB  HZ I        2017 21.88         7.7 0.42            133            147 258 
 SPBC HZ EP       2017  0.11                             129    0.35 9  164 218 
 SPBC HE ES       2017 21.88                             129   -0.21 9  164 218 
 SPBC HZ I        2017 25.24         8.7 0.24            130            164 218 
                                                                                
