 2012  730 2028 23.5 L   6.755 -73.175138.4  RSN  6 0.5 1.4LRSN                1
 GAP=135        0.95       7.6     7.1 11.6  0.1328E+02  0.1849E+02 -0.3535E+01E
 Epicentro: VILLANUEVA - SANTANDER                                             3
 ACTION:UPD 12-08-14 11:46 OP:ep   STATUS:               ID:20120730202823 L   I
 2012-07-30-2020-00M.COL___209                                                 6
 STAT SP IPHASW D HRMM SECON CODA AMPLIT PERI AZIMU VELO AIN AR TRES W  DIS CAZ7
 BAR2 SZ EP       2028 41.84                             172    -0.310   18 183 
 BAR2 SZ ES   2   2028 55.68                             172    -1.0 5   18 183 
 BAR2 SZ I        2028 59.43         7.1 0.22            171             18 183 
 BRR  HZ EP       2028 44.18                             151     0.410   71 303 
 BRR  HN ES   2   2029  0.36                             151     0.7 5   71 303 
 PAM  SN ES   2   2029  2.09                             147    -0.2 5   83  39 
 RUS  HZ EP   1   2028 46.25                             144     0.1 7   96 174 
 RUS  HN ES   1   2029  4.34                             144     0.5 7   96 174 
 RUS  HZ I        2029  5.54         3.4 0.21            146             96 174 
 PTB  HZ EP   1   2028 48.91                             131    -0.5 7  144 261 
 PTB  HN ES   1   2029  9.39                             131    -0.3 7  144 261 
 PTB  HZ I        2029 12.39         3.1 0.20            134            144 261 
 ZAR  HN ES   2   2029 20.60                             121     0.4 4  203 294 
