 2012  630 2138 50.7 L   6.826 -73.145143.9  RSN  5 0.4 1.6LRSN                1
 GAP=135        0.70       5.3     5.1  8.2 -0.5316E+01  0.8442E+01  0.1699E+01E
 Epicentro: LOS SANTOS - SANTANDER                                             3
 ACTION:UPD 12-08-06 17:53 OP:ep   STATUS:               ID:20120630213850 L   I
 2012-06-30-2130-00M.COL___201                                                 6
 STAT SP IPHASW D HRMM SECON CODA AMPLIT PERI AZIMU VELO AIN AR TRES W  DIS CAZ7
 BAR2 SZ ES   2   2139 25.23                             169   -0.16 5 26.2 189 
 BAR2 SZ I        2139 27.01        15.8 0.21                          26.2 189 
 BRR  HZ EP   2   2139 12.42                             153    0.80 5 69.9 296 
 BRR  HN ES   2   2139 28.62                             153    0.72 5 69.9 296 
 PAM  SZ EP   1   2139 12.76                             151    0.13 7 75.1  41 
 PAM  SE ES   1   2139 29.32                             151   -0.37 7 75.1  41 
 RUS  HZ EP   1   2139 14.72                             143    0.20 7  103 176 
 RUS  HN ES   1   2139 33.12                             143    0.05 7  103 176 
 RUS  HZ I        2139 34.63         3.1 0.23                           103 176 
 PTB  HZ EP   1   2139 17.07                             131   -0.55 7  148 258 
 PTB  HN ES   1   2139 38.42                             131   -0.16 7  148 258 
                                                                                
