 2014  330 2041  1.1 L   6.829 -73.161147.1  RSN 14 0.4 2.2LRSN                1
 GAP=133        0.93       2.6     3.7  5.2 -0.1584E+01  0.4254E+01  0.8289E+00E
 Epicentro: LOS SANTOS - SANTANDER                                             3
 OLDACT:REG 14-03-30 23:45 OP:fm   STATUS:               ID:20140330203806     3
 ACTION:UPD 14-04-09 23:21 OP:nd   STATUS:               ID:20140330204101 L   I
 OLDACT:UP  14-03-31 00:18 OP:fm   STATUS:               ID:20140330203806     3
 OLDACT:UP  14-03-31 00:17 OP:fm   STATUS:               ID:20140330203806     3
 OLDACT:UP  14-03-31 00:17 OP:fm   STATUS:               ID:20140330203806     3
 2014-03-30-2038-06M.COL___255                                                 6
 STAT SP IPHASW D HRMM SECON CODA AMPLIT PERI AZIMU VELO AIN AR TRES W  DIS CAZ7
 BAR2 SZ ES   1   2041 36.10                             169   -0.29 7 26.3 185 
 BAR2 SZ I        2041 38.26        45.1 0.24            165           26.3 185 
 BRR  HZ EP     C 2041 22.71                             154    0.5310 68.2 297 
 BRR  HN ES       2041 39.49                             154    0.8310 68.2 297 
 BRR  HZ I        2041 45.60        17.9 0.16            150           68.2 297 
 PAM  SZ EP       2041 23.64                             151    0.3110 76.0  42 
 PAM  SN ES       2041 40.57                             151   -0.1410 76.0  42 
 RUS  HZ EP   1   2041 24.90                             143   -0.28 7  104 175 
 RUS  HN ES   1   2041 43.74                             143   -0.26 7  104 175 
 RUS  HZ I        2041 44.83        14.4 0.44            144            104 175 
 PTB  HZ EP       2041 27.83                             133   -0.21 9  147 257 
 PTB  HN ES       2041 48.62                             133   -0.47 9  147 257 
 PTB  HZ I        2041 50.84        15.8 0.48            131            147 257 
 OCA  HZ EP   1   2041 28.54                             131   -0.61 7  157 354 
 OCA  HN ES   1   2041 51.02                             131   -0.05 7  157 354 
 OCA  HZ I        2041 53.74        20.3 0.24            133            157 354 
 SPBC HZ EP       2041 29.96                             129    0.16 9  165 218 
 SPBC HN ES       2041 51.58                             129   -0.64 9  165 218 
 SPBC HZ I        2041 59.47        14.5 0.34            128            165 218 
 ZAR  HZ EP       2041 33.51                             123    0.20 9  201 291 
 ZAR  HN ES       2041 58.81                             123    0.35 9  201 291 
 ZAR  HZ I        2042  6.84        14.0 0.22            123            201 291 
 NOR  HZ EP       2041 37.08                             119    0.16 8  235 234 
 NOR  HN ES       2042  5.05                             119    0.16 8  235 234 
 NOR  HZ I        2042 14.16         8.6 0.20            119            235 234 
 SML  HZ EP       2041 37.24                             118   -0.12 8  240 335 
 SML  HN ES       2042  4.98                             118   -0.70 8  240 335 
 SML  HZ I        2042  8.88        24.7 0.08            120            240 335 
 CHI  HZ EP       2041 39.32                             117    0.20 8  251 195 
 CHI  HN ES       2042  9.14                             117    0.33 8  251 195 
 CHI  HZ I        2042 19.79         8.5 3.38            118            251 195 
 HEL  HZ EP   1   2041 41.16                             115   -0.09 6  271 255 
 HEL  HN ES   1   2042 12.19                             115   -0.41 6  271 255 
 HEL  HZ I        2042 19.80        10.0 0.48            115            271 255 
 URE  HN ES   4   2042 11.41                             114   -2.32 0  281 291 
 GUY2CHZ EP   4   2041 45.93                             113    1.15 0  302 234 
 GUY2CHN ES   4   2042 20.15                             113    1.26 0  302 234 
 GUY2CHZ I        2042 25.17         7.7 1.04                           302 234 
 VIL  SN ES   4   2042 12.69                             112   -6.33 0  306 191 
 RREF HZ EP   4   2041 49.28                             111    1.93 0  323 229 
 RREF HN ES   4   2042 27.39                             111    3.93 0  323 229 
 RREF HZ I        2042 34.58         6.2 0.78            111            323 229 
 SJC  HZ EP   4   2041 53.98                             106   -2.26 0  406 327 
 SJC  HN ES   4   2042 34.36                             106   -4.92 0  406 327 
                                                                                
