 2012 1130 2326 46.6 L   6.794 -73.169146.4  RSN 11 0.5 2.5LRSN                1
 GAP=134        0.82       3.1     4.2  6.0 -0.1229E+01  0.1063E+02  0.9030E+00E
 Epicentro: LOS SANTOS - SANTANDER                                             3
 ACTION:UPD 12-12-05 15:37 OP:}ep  STATUS:               ID:20121130232646 L   I
 2012-11-30-2320-00M.COL___233                                                 6
 STAT SP IPHASW D HRMM SECON CODA AMPLIT PERI AZIMU VELO AIN AR TRES W  DIS CAZ7
 BAR2 SZ EP   1   2327  6.33                             171    0.03 7 22.3 184 
 BAR2 SZ ES   1   2327 21.43                             171   -0.22 7 22.3 184 
 BAR2 SZ I        2327 22.79       164.5 0.22                          22.3 184 
 GIR2 SZ EP   1   2327  6.48                             167    0.11 7 31.6 355 
 GIR2 SZ ES   1   2327 22.00                             167    0.22 7 31.6 355 
 GIR2 SZ I        2327 23.84        50.7 0.42                          31.6 355 
 PAM  SZ EP   1   2327  9.23                             150    0.21 7 79.5  41 
 PAM  SN ES   1   2327 26.45                             150   -0.05 7 79.5  41 
 PAM  SZ I        2327 28.71        62.5 0.52                          79.5  41 
 RUS  HZ EP   1   2327 10.26                             144   -0.13 7  100 175 
 RUS  HN ES   1   2327 29.17                             144    0.23 7  100 175 
 RUS  HZ I        2327 31.62        38.8 0.46                           100 175 
 PTB  HZ EP   1   2327 13.11                             133   -0.28 7  145 259 
 PTB  HN ES   1   2327 34.41                             133    0.13 7  145 259 
 PTB  HZ I        2327 36.27        43.9 0.34                           145 259 
 OCA  HN ES   1   2327 36.54                             130   -0.61 7  161 354 
 OCA  HZ I        2327 41.29        45.3 0.52                           161 354 
 ZAR  HZ EP   1   2327 18.92                             123    0.04 6  202 293 
 ZAR  HE ES   1   2327 44.52                             123    0.47 6  202 293 
 ZAR  HZ I        2327 51.12        27.0 0.34                           202 293 
 NOR  HZ EP   1   2327 21.59                             119   -0.52 6  232 234 
 NOR  HE ES   1   2327 50.10                             119    0.29 6  232 234 
 NOR  HZ I        2327 57.82        33.4 0.20                           232 234 
 SML  HZ EP   1   2327 22.74                             118   -0.49 6  243 336 
 SML  HE ES   1   2327 52.16                             118    0.38 6  243 336 
 CHI  HZ EP   1   2327 24.41                             117    0.21 6  247 195 
 CHI  HN ES   1   2327 53.19                             117   -0.33 6  247 195 
 CHI  HZ I        2327 57.10        13.9 0.52                           247 195 
 HEL  HZ EP   1   2327 28.01                             115    1.44 6  269 256 
 HEL  HE ES   1   2327 56.59                             115   -1.14 6  269 256 
                                                                                
