 2012 1130 2025 41.7 L   6.781 -73.136141.5  RSN  4 0.4 1.4LRSN                1
 GAP=139        0.74       5.2     4.8 10.9 -0.7510E+00  0.1851E+02 -0.1117E+01E
 Epicentro: LOS SANTOS - SANTANDER                                             3
 ACTION:UPD 12-12-05 15:37 OP:}ep  STATUS:               ID:20121130202541 L   I
 2012-11-30-2020-00M.COL___236                                                 6
 STAT SP IPHASW D HRMM SECON CODA AMPLIT PERI AZIMU VELO AIN AR TRES W  DIS CAZ7
 PAM  SZ EP   1   2026  3.79                             150    0.23 7 78.4  38 
 PAM  SN ES   1   2026 20.39                             150   -0.20 7 78.4  38 
 PAM  SZ I        2026 22.65         8.5 0.48                          78.4  38 
 RUS  HZ EP   1   2026  5.33                             143    0.42 7 98.4 177 
 RUS  HN ES   1   2026 22.91                             143   -0.08 7 98.4 177 
 RUS  HZ I        2026 25.07         2.3 0.28                          98.4 177 
 PTB  HZ EP   1   2026  7.61                             131   -0.81 7  148 260 
 PTB  HE ES   1   2026 29.33                             131    0.10 7  148 260 
 PTB  HZ I        2026 30.84         2.8 0.34                           148 260 
 ZAR  HN ES   1   2026 39.66                             121    0.33 6  206 293 
                                                                                
