 2016  330 2320 41.0 L   6.771 -73.149144.8  RSN  8 0.3 1.7LRSN                1
 GAP=138        0.62       4.0     2.9  6.9 -0.6183E+00  0.5469E+01  0.9589E+01E
 Epicentro: LOS SANTOS - SANTANDER                                             3
 ACTION:UPD 16-05-13 21:29 OP:cam  STATUS:               ID:20160330232041 L   I
 OLDACT:REG 16-03-31 02:36 OP:dnl  STATUS:               ID:20160330231742     3
 2016-03-30-2317-42M.COL___297                                                 6
 STAT SP IPHASW D HRMM SECON CODA AMPLIT PERI AZIMU VELO AIN AR TRES W  DIS CAZ7
 BAR2 EZ EP       2321  0.41                             172   -0.0210 20.1 191 
 BAR2 EZ I        2321 17.18        10.2 0.14            168           20.1 191 
 PAM  EZ EP       2321  3.30                             150    0.0410 80.1  38 
 PAM  EN ES       2321 20.58                             150   -0.0510 80.1  38 
 PAM  EZ I        2321 22.59        14.5 0.56            149           80.1  38 
 RUS  HZ EP       2321  4.40                             144   -0.0010 97.4 176 
 RUS  HN ES   2   2321 23.22                             144    0.55 5 97.4 176 
 RUS  HZ I        2321 24.12         3.0 0.21            141           97.4 176 
 PTB  HZ EP       2321  7.35                             132   -0.43 9  147 260 
 PTB  HN ES       2321 28.42                             132   -0.27 9  147 260 
 PTB  HZ I        2321 29.72         9.0 0.18            131            147 260 
 ZAR  HZ EP   2   2321 13.34                             122   -0.12 4  205 293 
 ZAR  HE ES       2321 39.27                             122    0.48 9  205 293 
 ZAR  HZ I        2321 45.03         7.4 0.44            121            205 293 
 CHI  HZ EP   2   2321 18.77                             117    0.50 4  245 195 
 CHI  HN ES   4   2321 46.08                             117   -1.28 0  245 195 
 CHI  HZ I        2321 55.87         1.9 0.54            115            245 195 
 GUY2CHZ EP   2   2321 24.96                             112    0.66 4  299 235 
 GUY2CHN ES   2   2321 58.30                             112    0.21 4  299 235 
 GUY2CHZ I        2322  7.80         3.9 0.34                           299 235 
 MON  HZ EP   4   2321 34.27                             108    4.12 0  355 309 
 MON  HE ES   4   2322  3.69                             108   -4.81 0  355 309 
 MON  HZ I        2322 10.20         1.2 0.13            107            355 309 
                                                                                
