 2012 1230 2002 12.8 L   6.799 -73.126144.4  RSN  9 0.4 2.5LRSN                1
 GAP=127        0.98       3.1     4.3  5.7  0.4339E+00 -0.4355E+00 -0.9267E+00E
 Epicentro: LOS SANTOS - SANTANDER                                             3
 ACTION:UPD 13-01-04 14:31 OP:ep   STATUS:               ID:20121230200212 L   I
 2012-12-30-2000-00M.COL___239                                                 6
 STAT SP IPHASW D HRMM SECON CODA AMPLIT PERI AZIMU VELO AIN AR TRES W  DIS CAZ7
 BAR2 SZ EP       20 2 32.25                             170   -0.0110 23.7 195 
 BAR2 SZ ES       20 2 47.19                             170   -0.2610 23.7 195 
 BAR2 SZ I        20 2 48.80        54.8 0.20                          23.7 195 
 BRR  HZ EP       20 2 34.30                             152    0.3910 73.2 298 
 BRR  HN ES       20 2 51.22                             152    0.8510 73.2 298 
 BRR  HN I        20 2 51.75        67.7 0.34                          73.2 298 
 RUS  HZ EP       20 2 36.55                             144    0.1610  100 177 
 RUS  HN ES       20 2 54.74                             144   -0.0510  100 177 
 RUS  HN I        20 2 56.77        30.8 0.36                           100 177 
 PTB  HZ EP       20 2 39.59                             131   -0.25 9  150 259 
 PTB  HN ES       20 3  0.13                             131   -0.81 9  150 259 
 PTB  HN I        20 3  2.57        29.4 0.34                           150 259 
 OCA  HZ EP       20 2 41.10                             129    0.06 9  161 352 
 OCA  HN ES       20 3  2.61                             129   -0.45 9  161 352 
 OCA  HN I        20 3  5.21        75.4 0.22                           161 352 
 ZAR  HZ EP       20 2 45.74                             122    0.38 8  206 292 
 ZAR  HN ES       20 3 10.70                             122   -0.07 8  206 292 
 ZAR  HN I        20 3 16.46        28.4 0.18                           206 292 
 NOR  HN ES       20 3 16.52                             118   -0.05 8  236 235 
 NOR  HN I        20 3 17.71        29.3 0.18                           236 235 
 CHI  HZ EP       20 2 50.84                             117    0.38 8  249 196 
 CHI  HN ES       20 3 19.68                             117   -0.16 8  249 196 
 CHI  HN I        20 3 25.89        14.0 0.42                           249 196 
 SDV  BZ EP       20 3  2.18                             108   -0.42 6  359  50 
                                                                                
