 2012  430 2136 58.6 L   6.712 -73.103142.5  RSN  7 0.4 1.8LRSN                1
 GAP=146        1.00       6.0     5.1  9.0 -0.1373E+01  0.1365E+02  0.7540E+01E
 Epicentro: JORDAN - SANTANDER                                                 3
 ACTION:UPD 12-07-05 11:57 OP:tino STATUS:               ID:20120430213658 L   I
 2012-04-30-2130-00M.COL___189                                                 6
 STAT SP IPHASW D HRMM SECON CODA AMPLIT PERI AZIMU VELO AIN AR TRES W  DIS CAZ7
 BAR2 SZ EP   1   2137 17.66                             173     0.0 7   16 213 
 BAR2 SZ I        2137 18.18        11.7 0.22                            16 213 
 BAR2 SZ ES   1   2137 32.46                             173    -0.2 7   16 213 
 BRR  HZ EP   1   2137 19.70                             149    -0.2 7   80 303 
 BRR  HZ I        2137 20.25        17.1 0.07                            80 303 
 BRR  HN ES       2137 36.88                             149     0.310   80 303 
 PAM  SZ EP   1   2137 20.83                             149     0.0 7   83  33 
 PAM  SZ I        2137 21.07        11.5 0.12                            83  33 
 PAM  SN ES       2137 37.94                             149    -0.210   83  33 
 RUS  HZ EP   1   2137 21.85                             146     0.5 7   91 179 
 RUS  HE ES   1   2137 39.30                             146     0.2 7   91 179 
 PTB  HZ EP   1   2137 24.92                             131    -0.7 7  151 263 
 PTB  HN ES   1   2137 45.74                             131    -0.9 7  151 263 
 PTB  HZ I        2137 52.00         6.6 0.30                           151 263 
 ZAR  HN ES   1   2137 58.24                             121     0.8 6  212 294 
 HEL  HN ES   1   2138 10.73                             114     0.4 6  274 258 
                                                                                
