 2013  330 2351 29.1 L   6.795 -73.144143.4  RSN  4 0.4 1.6LRSN                1
 GAP=237        0.86      10.7    13.9 11.6  0.1264E+03 -0.5797E+02 -0.4512E+02E
 Epicentro: LOS SANTOS - SANTANDER                                             3
 ACTION:UPD 13-04-09 14:05 OP:ep   STATUS:               ID:20130330235129 L   I
 2013-03-30-2350-00M.COL___245                                                 6
 STAT SP IPHASW D HRMM SECON CODA AMPLIT PERI AZIMU VELO AIN AR TRES W  DIS CAZ7
 BAR2 SZ EP       2351 47.83                             170   -0.6010 22.8 191 
 BRR  HZ EP       2351 50.39                             151    0.3710 71.6 299 
 BRR  HN ES       2352  6.40                             151    0.0710 71.6 299 
 BRR  HN I        2352 11.52         7.6 0.18            149           71.6 299 
 RUS  HZ EP   1   2351 52.99                             143    0.41 7  100 176 
 RUS  HN ES       2352 10.92                             143    0.0310  100 176 
 RUS  HN I        2352 12.18         4.9 0.18            146            100 176 
 ZAR  HN ES   1   2352 26.39                             121   -0.26 6  204 292 
 ZAR  HN I        2352 31.20         4.0 0.16            122            204 292 
                                                                                
