 2011  330 2256 52.2 L   5.972 -74.016 84.6  RSN  7 0.3 1.7LRSN                1
 GAP=115        0.78       5.1     4.8 12.4 -0.1743E+02 -0.3984E+01  0.1738E+02E
 Epicentro: LA BELLEZA - SANTANDER                                             3
 ACTION:UP  11-06-16 14:36 OP:jfem STATUS:               ID:20110330225652 L   I
 2011-03-30-2253-09S.COL___138                                                 6
 STAT SP IPHASW D HRMM SECON CODA AMPLIT PERI AZIMU VELO SNR AR TRES W  DIS CAZ7
 NOR  SZ EP   1   2257  9.76                             124    -0.7 7  105 245 
 NOR  SN ES   1   2257 24.62                             124    -0.1 7  105 245 
 BAR2 SZ EP   1   2257 11.68                             122     0.0 7  115  53 
 BAR2 SZ ES   1   2257 27.14                             122     0.2 7  115  53 
 BAR2 SZ I        2257 28.54        43.3 0.28                           115  53 
 BRR  HZ EP   1   2257 12.53                             118    -0.5 7  130  15 
 BRR  HZ I        2257 15.07        18.1 0.51                           130  15 
 BRR  HN ES   1   2257 29.48                             118     0.2 7  130  15 
 CHI  HZ EP   1   2257 16.00                             114     0.0 7  152 168 
 CHI  HZ I        2257 38.40         2.9 0.39                           152 168 
 HEL  HZ EP   1   2257 18.27                             112     0.4 7  169 278 
 HEL  HZ I        2257 41.94         4.8 0.07                           169 278 
 GUY  SZ EP   1   2257 18.49                             111     0.3 7  171 241 
 GUY  SZ I        2257 43.38         7.0 0.32                           171 241 
 RREF HZ EP   1   2257 20.71                             109     0.2 7  189 231 
 RREF HN ES   1   2257 42.90                             109     0.2 7  189 231 
 RREF HZ I        2257 47.85         4.9 0.26                           189 231 
                                                                                
