 2015  930 2148 15.3 L   6.620 -73.079171.5  RSN  5 0.4 2.0LRSN                1
 GAP=152        1.08       6.5     6.7  8.6 -0.3428E+01 -0.3437E+01 -0.3559E+00E
 Epicentro: CURITI - SANTANDER                                                 3
 ACTION:UPD 15-10-28 16:29 OP:cam  STATUS:               ID:20150930214815 L   I
 OLDACT:UP  15-10-01 11:08 OP:mh   STATUS:               ID:20150930214448d    3
 OLDACT:DUP 15-10-01 11:04 OP:mh   STATUS:               ID:20150930214448d    3
 2015-09-30-2144-47M.COL___337                                                 6
 STAT SP IPHASW D HRMM SECON CODA AMPLIT PERI AZIMU VELO AIN AR TRES W  DIS CAZ7
 BAR2 EZ EP       2148 37.70                             176   -0.1510 11.8 255 
 BAR2 EZ ES       2148 55.18                             176   -0.2810 11.8 255 
 BAR2 EZ I        2148 57.01        15.9 0.17            175           11.8 255 
 RUS  HZ EP       2148 40.42                             154   -0.0210 80.5 180 
 RUS  HN ES       2149  0.43                             154    0.3510 80.5 180 
 BRR  HZ EP       2148 40.58                             151    0.4210 88.2 308 
 BRR  HN ES       2149  0.30                             151    0.7210 88.2 308 
 BRR  HZ I        2149  2.96        20.3 0.16            151           88.2 308 
 PAM  EZ EP       2148 40.87                             151   -0.1010 89.9  28 
 PAM  EN ES       2149  0.68                             151   -0.3310 89.9  28 
 PTB  HN ES       2149  7.19                             136   -0.72 9  153 267 
 PTB  HZ I        2149  8.59        10.5 0.28            137            153 267 
                                                                                
