 2017  830 2333  6.5 L   6.819 -73.091139.8  RSN  5 0.1 1.4LRSN                1
 GAP=116        0.30       1.9     3.0  2.6  0.1619E+01 -0.2685E+00  0.7283E+00E
 Epicentro: LOS SANTOS - SANTANDER                                             3
 ACTION:UPD 17-09-04 20:26 OP:rebc STATUS:               ID:20170830233306 L   I
 OLDACT:UP  17-08-31 10:56 OP:mg   STATUS:               ID:20170830232732     3
 OLDACT:UP  17-08-31 10:55 OP:mg   STATUS:               ID:20170830232732     3
 OLDACT:REG 17-08-31 08:44 OP:mg   STATUS:               ID:20170830232732     3
 2017-08-30-2328-00M.COL___402                                                 6
 STAT SP IPHASW D HRMM SECON CODA AMPLIT PERI AZIMU VELO AIN AR TRES W  DIS CAZ7
 BAR2 EZ EP   1   2333 25.37                             168   -0.10 7 27.1 202 
 BAR2 EZ ES       2333 40.20                             168   -0.0910 27.1 202 
 BAR2 EZ I        2333 41.49         5.5 0.25            168           27.1 202 
 PAM  EN ES   1   2333 44.31                             152   -0.00 7 72.0  37 
 PAM  EZ I        2333 45.72         3.9 0.27            154           72.0  37 
 BRR  HZ EP       2333 27.26                             150    0.0210 75.6 295 
 BRR  HN ES   1   2333 43.54                             150    0.10 7 75.6 295 
 BRR  HZ I        2333 48.02         5.0 0.23            151           75.6 295 
 RUS  HZ EP     D 2333 29.82                             142    0.0410  102 180 
 RUS  HN ES       2333 47.98                             142    0.0210  102 180 
 RUS  HZ I        2333 49.43         4.7 0.36            143            102 180 
 YPLC HZ EP   1   2333 35.71                             125   -0.04 7  176 153 
 YPLC HN ES   3   2333 59.24                             125    0.66 2  176 153 
 YPLC HZ I        2334  2.22         4.2 0.36            127            176 153 
                                                                                
