 2011 1030 2111 51.5 L   6.777 -73.113140.7  RSN  4 0.1 1.6LRSN                1
 GAP=142        0.39       3.0     4.0  4.8 -0.5683E+00 -0.5157E+00 -0.2279E+01E
 Epicentro: LOS SANTOS - SANTANDER                                             3
 ACTION:UPD 12-07-13 16:07 OP:ep   STATUS:               ID:20111030211151 L   I
 2011-10-30-2108-36S.COL___157                                                 6
 STAT SP IPHASW D HRMM SECON CODA AMPLIT PERI AZIMU VELO AIN AR TRES W  DIS CAZ7
 BAR2 SZ EP   1   2112 10.37                             171   -0.12 7 21.8 201 
 BAR2 SZ ES   1   2112 25.10                             171   -0.20 7 21.8 201 
 BAR2 SZ I        2112 26.42        12.9 0.26                          21.8 201 
 BRR  HZ EP   1   2112 12.22                             150   -0.14 7 75.6 299 
 BRR  HN ES   1   2112 28.81                             150    0.17 7 75.6 299 
 BRR  HZ I        2112 31.61        10.0 0.17                          75.6 299 
 PAM  SZ EP   1   2112 13.32                             150    0.15 7 77.2  36 
 PAM  SE ES   1   2112 30.06                             150   -0.01 7 77.2  36 
 RUS  HE ES   1   2112 32.69                             144    0.15 7 97.8 178 
 RUS  HZ I        2112 33.83         3.9 0.19                          97.8 178 
                                                                                
