 2010  530 2012 37.9 L   6.773 -72.977139.7  RSN  4 0.3 2.0LRSN                1
 GAP=213        0.49       3.7    11.1  6.9 -0.1844E+02  0.1960E+02  0.1372E+01E
 Epicentro: CEPITA - SANTANDER                                                 3
 ACTION:UP  10-08-24 10:07 OP:vdl  STATUS:               ID:20100530201237 L   I
 2010-05-30-2009-18S.COL___109                                                 6
 STAT SP IPHASW D HRMM SECON CODA AMPLIT PERI AZIMU VELO SNR AR TRES W  DIS CAZ7
 BAR2 SZ EP   1   2012 57.07                             167     0.1 7   30 229 
 BAR2 SZ ES   2   2013 11.44                             167    -0.4 5   30 229 
 OCA  SZ EP   1   2013  6.25                             127    -0.1 7  166 347 
 OCA  SZ ES   2   2013 28.75                             127     0.3 5  166 347 
 OCA  SZ I        2013 32.38        11.0 0.53                           166 347 
 CHI  HZ EP   1   2013 15.37                             116    -0.1 6  251 199 
 CHI  HE ES   2   2013 45.50                             116     0.6 4  251 199 
 CHI  HZ I        2013 52.90         3.7 0.54                           251 199 
 RREF BZ EP   1   2013 24.86                             109    -0.3 5  334 232 
 RREF BN ES   2   2014  2.23                             109     0.1 3  334 232 
 RREF BZ I        2014  9.05         5.6 0.26                           334 232 
                                                                                
