 2011  830 2206 45.4 L   6.795 -73.118143.0  RSN 15 0.5 3.0LRSN                1
 GAP=140        0.92       3.3     5.2  5.6 -0.5232E+01  0.1005E+02  0.2596E+01E
 Epicentro: LOS SANTOS - SANTANDER                                             3
 ACTION:UPD 12-07-13 15:54 OP:ep   STATUS:               ID:20110830220645 L   I
 2011-08-30-2204-53S.COL___164                                                 6
 STAT SP IPHASW D HRMM SECON CODA AMPLIT PERI AZIMU VELO AIN AR TRES W  DIS CAZ7
 BAR2 SZ IP       22 7  4.76                             170    0.0510 23.5 197 
 BAR2 SZ ES   1   22 7 19.24                             170   -0.52 7 23.5 197 
 BAR2 SZ I        22 7 21.00       310.6 0.17                          23.5 197 
 BRR  HZ IP       22 7  6.68                             151    0.2510 74.1 298 
 BRR  HN ES   1   22 7 23.61                             151    0.79 7 74.1 298 
 BRR  HZ I        22 7 25.15       180.5 0.11                          74.1 298 
 PAM  SZ EP       22 7  7.65                             151    0.4110 75.9  38 
 PAM  SZ I        22 7  8.01        97.5 0.17                          75.9  38 
 PAM  SN ES   1   22 7 24.46                             151    0.19 7 75.9  38 
 RUS  HZ EP   1   22 7  8.57                             143   -0.27 7 99.9 178 
 RUS  HZ I        22 7  9.61        66.8 0.09                          99.9 178 
 RUS  HN ES   1   22 7 26.62                             143   -0.49 7 99.9 178 
 OCA  SZ EP       22 7 13.29                             129   -0.31 9  161 352 
 OCA  SZ ES   1   22 7 35.14                             129   -0.44 7  161 352 
 OCA  SZ I        22 7 40.28       126.3 0.25                           161 352 
 NOR  SZ EP       22 7 20.74                             118   -0.47 8  237 235 
 NOR  SN ES   1   22 7 48.43                             118   -0.70 6  237 235 
 CHI  HZ EP   1   22 7 22.76                             116   -0.23 6  249 196 
 CHI  HN ES   1   22 7 52.63                             116    0.34 6  249 196 
 CHI  HZ I        22 7 58.85        45.4 0.30                           249 196 
 ROSC BZ EP       22 7 24.36                             116    0.86 8  254 212 
 ROSC BZ I        22 8  0.59        97.4 0.30                           254 212 
 HEL  HZ EP   1   22 7 25.53                             114   -0.26 6  275 256 
 HEL  HE ES   1   22 7 56.57                             114   -0.72 6  275 256 
 HEL  HZ I        22 8  3.18        62.0 0.72                           275 256 
 VIL  SZ EP   1   22 7 28.55                             111   -0.16 5  303 192 
 VIL  SZ I        22 8  8.19        38.5 0.33                           303 192 
 RREF HZ EP   1   22 7 31.85                             110    0.19 5  324 230 
 RREF HN ES   1   22 8  8.47                             110    0.75 5  324 230 
 RREF HZ I        22 8 13.46        61.4 0.36                           324 230 
 DBB  SZ EP       22 7 33.45                             109    0.32 7  343 274 
 TOL  SZ EP       22 7 34.30                             109    0.54 7  345 225 
 COD  HZ EP   1   22 7 33.10                             108   -0.68 5  349 354 
 COD  HZ I        22 8 13.59        26.6 0.37                           349 354 
 PRA  HZ EP       22 7 38.20                             106   -0.76 6  393 210 
 PRA  HN ES   1   22 8 21.16                             106    0.44 4  393 210 
 PRA  HZ I        22 8 27.29       188.8 0.24                           393 210 
                                                                                
