 2012  830 2027 41.9 L   6.693 -73.145147.0  RSN  4 0.3 1.7LRSN                1
 GAP=229        0.71       7.4     7.2  7.6  0.2623E+02  0.6038E+01  0.9796E+00E
 Epicentro: VILLANUEVA - SANTANDER                                             3
 ACTION:UPD 12-09-10 11:59 OP:ep   STATUS:               ID:20120830202741 L   I
 2012-08-30-2020-00M.COL___218                                                 6
 STAT SP IPHASW D HRMM SECON CODA AMPLIT PERI AZIMU VELO AIN AR TRES W  DIS CAZ7
 BAR2 SZ EP   1   2028  1.51                             175    0.04 7 11.9 200 
 BAR2 SZ ES   1   2028 16.12                             175   -0.65 7 11.9 200 
 BAR2 SZ I        2028 19.56        10.5 0.14                          11.9 200 
 BRR  HZ EP   1   2028  3.65                             151    0.13 7 77.6 306 
 BRR  HZ I        2028 20.44        10.3 0.23                          77.6 306 
 BRR  HE ES   1   2028 20.83                             151    0.42 7 77.6 306 
 RUS  HZ EP   1   2028  5.06                             147    0.13 7 88.8 176 
 RUS  HE ES   1   2028 23.24                             147    0.32 7 88.8 176 
 PTB  HZ EP   1   2028  8.30                             133   -0.47 7  146 263 
 PTB  HN ES   1   2028 29.78                             133    0.01 7  146 263 
                                                                                
