 2014  130 2357 43.9 L   6.807 -73.175139.5  RSN 17 0.4 2.5LRSN                1
 GAP= 69        0.92       2.4     2.5  5.4 -0.2620E+00  0.3886E+01 -0.1354E+00E
 Epicentro: LOS SANTOS - SANTANDER                                             3
 ACTION:UPD 14-03-13 09:59 OP:ep   STATUS:               ID:20140130235743 L   I
 OLDACT:UP  14-01-30 23:45 OP:cam  STATUS:               ID:20140130235000     3
 OLDACT:UP  14-01-30 23:44 OP:cam  STATUS:               ID:20140130235000     3
 OLDACT:REG 14-01-30 23:13 OP:cam  STATUS:               ID:20140130235000     3
 2014-01-30-2350-00M.COL___288                                                 6
 STAT SP IPHASW D HRMM SECON CODA AMPLIT PERI AZIMU VELO AIN AR TRES W  DIS CAZ7
 BAR2 SZ EP       2358  2.89                             170    0.1310 23.8 182 
 BAR2 SZ ES       2358 17.51                             170    0.0210 23.8 182 
 BAR2 SZ I        2358 18.67       158.4 0.20            171           23.8 182 
 BRR  HZ IP     C 2358  4.81                             152    0.6510 68.0 299 
 BRR  HN ES   4   2358 21.66                             152    1.67 0 68.0 299 
 BRR  HZ I        2358 32.35        37.8 0.14            152           68.0 299 
 PAM  SZ EP       2358  5.92                             149    0.4110 78.9  42 
 PAM  SN ES       2358 22.56                             149    0.1610 78.9  42 
 PAM  SZ I        2358 25.06        72.2 0.48            154           78.9  42 
 RUS  HZ EP       2358  6.87                             142   -0.2210  102 174 
 RUS  HN ES       2358 24.78                             142   -0.4310  102 174 
 RUS  HZ I        2358 26.15        33.8 0.24            147            102 174 
 PTB  HZ EP       2358  9.52                             131   -0.54 9  145 258 
 PTB  HN ES       2358 30.26                             131   -0.22 9  145 258 
 PTB  HZ I        2358 32.90        68.2 0.16            133            145 258 
 TAM  HZ EP     D 2358 11.34                             128   -0.03 9  158 105 
 TAM  HE ES       2358 33.01                             128    0.18 9  158 105 
 TAM  HZ I        2358 33.27        24.7 0.22            135            158 105 
 OCA  HZ EP   1   2358 11.19                             128   -0.40 7  159 354 
 OCA  HN ES       2358 32.80                             128   -0.41 9  159 354 
 OCA  HZ I        2358 36.39        47.7 0.42            132            159 354 
 SPBC HZ EP       2358 12.07                             128    0.31 9  162 218 
 SPBC HN ES       2358 33.45                             128   -0.07 9  162 218 
 SPBC HZ I        2358 35.82        31.5 0.16            131            162 218 
 ZAR  HZ EP   4   2358 16.68                             121    1.11 0  201 292 
 ZAR  HN ES       2358 41.09                             121    0.79 9  201 292 
 ZAR  HZ I        2358 50.66        36.0 0.26            124            201 292 
 NOR  HZ EP     C 2358 19.05                             117    0.04 8  233 234 
 NOR  HE ES       2358 46.71                             117    0.29 8  233 234 
 NOR  HZ I        2358 48.82        29.8 0.16            121            233 234 
 SML  HZ EP   1   2358 19.85                             116   -0.07 6  242 336 
 SML  HN ES       2358 47.48                             116   -0.56 8  242 336 
 SML  HZ I        2358 50.94        33.6 0.30            120            242 336 
 CHI  HZ EP   1   2358 21.43                             116    0.21 6  249 194 
 CHI  HN ES       2358 49.89                             116   -0.47 8  249 194 
 CHI  HZ I        2358 57.78         7.9 0.56            120            249 194 
 HEL  HZ EP   4   2358 24.95                             114    1.51 0  269 255 
 HEL  HN ES       2358 54.77                             114    0.46 8  269 255 
 HEL  HZ I        2359  1.94        21.8 0.26            117            269 255 
 URE  HN ES       2358 55.23                             113   -0.55 7  281 292 
 URE  HZ I        2358 57.02        28.1 0.14            115            281 292 
 GUY2CHZ EP   4   2358 28.09                             111    1.14 0  299 234 
 GUY2CHN ES   4   2359  2.56                             111    2.01 0  299 234 
 GUY2CHZ I        2359  8.34        18.9 0.26                           299 234 
 CBOC HZ EP   4   2358 31.54                             109    1.34 0  331 252 
 CBOC HN ES   4   2359  7.60                             109    1.25 0  331 252 
 CBOC HZ I        2359 10.69         8.5 0.30            112            331 252 
 PRA  HZ EP   4   2358 37.89                             105    0.81 0  391 209 
 SJC  HZ EP   4   2358 37.79                             105   -1.15 0  407 327 
 SJC  HN ES   4   2359 18.58                             105   -3.32 0  407 327 
 SJC  HZ I        2359 22.20         6.9 0.52            108            407 327 
                                                                                
