 2012  830 2107 56.0 L   6.776 -73.172139.0  RSN  8 0.3 2.3LRSN                1
 GAP=134        0.64       3.1     3.5  5.2  0.9071E+00  0.4203E+01  0.2153E+01E
 Epicentro: LOS SANTOS - SANTANDER                                             3
 ACTION:UPD 12-09-10 11:59 OP:ep   STATUS:               ID:20120830210756 L   I
 2012-08-30-2100-00M.COL___218                                                 6
 STAT SP IPHASW D HRMM SECON CODA AMPLIT PERI AZIMU VELO AIN AR TRES W  DIS CAZ7
 BAR2 SZ EP       21 8 14.93                             171    0.1710 20.3 183 
 BAR2 SZ I        21 8 15.24        72.6 0.10                          20.3 183 
 BAR2 SZ ES   1   21 8 28.83                             171   -0.56 7 20.3 183 
 GIR2 SZ EP       21 8 15.05                             166    0.1110 33.6 356 
 BRR  HZ EP       21 8 16.80                             152    0.4510 70.0 302 
 BRR  HZ I        21 8 17.29        71.3 0.10                          70.0 302 
 BRR  HE ES   1   21 8 32.61                             152    0.39 7 70.0 302 
 PAM  SZ EP   1   21 8 17.42                             148   -0.33 7 81.3  40 
 PAM  SZ I        21 8 18.25        23.3 0.30                          81.3  40 
 PAM  SN ES   1   21 8 34.73                             148    0.02 7 81.3  40 
 RUS  HZ EP   1   21 8 18.67                             143   -0.25 7 98.2 174 
 RUS  HE ES   1   21 8 36.86                             143    0.08 7 98.2 174 
 PTB  HZ EP   1   21 8 21.73                             131   -0.38 7  144 260 
 PTB  HN ES   1   21 8 42.35                             131   -0.13 7  144 260 
 PTB  HZ I        21 8 48.77        15.4 0.53                           144 260 
 ZAR  HZ EP   1   21 8 27.62                             121   -0.22 6  202 293 
 ZAR  HE ES   1   21 8 52.39                             121   -0.28 6  202 293 
 ZAR  HZ I        21 8 59.93        28.0 0.35                           202 293 
 CHI  HZ EP   1   21 8 32.91                             116   -0.06 6  245 195 
 CHI  HN ES   1   21 9  2.15                             116    0.35 6  245 195 
 CHI  HZ I        21 9 11.95         6.5 0.42                           245 195 
                                                                                
