 2015  930 2314 38.0 L   6.390 -73.648110.4  RSN 11 0.4 1.6LRSN                1
 GAP= 72        1.04       2.6     3.2  5.8  0.2544E+00  0.6193E+01  0.1145E+00E
 Epicentro: SANTA HELENA DEL OPON - SANTANDER                                  3
 ACTION:UPD 15-10-28 16:29 OP:cam  STATUS:               ID:20150930231438 L   I
 OLDACT:UP  15-10-01 10:56 OP:mh   STATUS:               ID:20150930230743d    3
 OLDACT:UP  15-10-01 10:46 OP:mh   STATUS:               ID:20150930230743d    3
 OLDACT:UP  15-10-01 10:43 OP:mh   STATUS:               ID:20150930230743d    3
 OLDACT:DUP 15-10-01 10:33 OP:mh   STATUS:               ID:20150930230743d    3
 OLDACT:UP  15-10-01 10:26 OP:mh   STATUS:               ID:20150930230742     3
 OLDACT:REG 15-10-01 06:56 OP:mh   STATUS:               ID:20150930230742     3
 2015-09-30-2307-42M.COL___358                                                 6
 STAT SP IPHASW D HRMM SECON CODA AMPLIT PERI AZIMU VELO AIN AR TRES W  DIS CAZ7
 BAR2 EZ EP       2314 54.71                             151   -0.1310 56.2  66 
 BAR2 EZ ES       2315  7.99                             151    0.0310 56.2  66 
 BAR2 EZ I        2315  8.87        19.2 0.46            150           56.2  66 
 BRR  HZ EP       2314 56.46                             141    0.3710 79.6 355 
 BRR  HZ I        2315  9.06         9.7 0.44            140           79.6 355 
 BRR  HN ES       2315 10.28                             141    0.0910 79.6 355 
 RUS  HZ EP       2314 57.10                             141    0.0410 83.3 131 
 RUS  HE ES       2315 11.74                             141   -0.1710 83.3 131 
 RUS  HZ I        2315 14.84         2.5 0.46            138           83.3 131 
 PTB  HZ EP   1   2314 56.37                             137   -0.64 7 90.9 281 
 PTB  HN ES       2315 11.95                             137    0.1210 90.9 281 
 PTB  HZ I        2315 13.11        13.8 0.12            136           90.9 281 
 SPBC HZ EP       2314 57.38                             136   -0.0010 94.1 210 
 SPBC HN ES       2315 12.28                             136   -0.2110 94.1 210 
 SPBC HZ I        2315 14.63        14.4 0.03            135           94.1 210 
 NOR  HZ EP   1   2315  5.02                             120    1.00 7  163 236 
 NOR  HN ES       2315 24.51                             120    0.20 9  163 236 
 NOR  HZ I        2315 26.43         5.9 0.36            118            163 236 
 ZAR  HZ EP       2315  5.46                             117   -0.42 9  181 312 
 ZAR  HN ES       2315 27.77                             117    0.16 9  181 312 
 ZAR  HZ I        2315 32.63         8.9 0.20            115            181 312 
 CHI  HZ EP       2315  7.12                             115   -0.81 9  195 183 
 CHI  HN ES       2315 31.83                             115    0.57 9  195 183 
 CHI  HZ I        2315 42.09         2.1 0.80            113            195 183 
 HEL  HZ EP       2315  9.46                             113   -0.02 8  209 264 
 HEL  HN ES       2315 33.24                             113   -0.78 8  209 264 
 HEL  HZ I        2315 37.56         3.8 0.28            112            209 264 
 GUY2CHZ EP       2315 12.78                             111    0.85 8  230 236 
 GUY2CHN ES   4   2315 39.97                             111    1.59 0  230 236 
 GUY2CHZ I        2315 45.41         1.8 0.40                           230 236 
 SML  HZ EP       2315 15.60                             107   -0.46 8  271 350 
 SML  HN ES       2315 46.16                             107    0.41 8  271 350 
                                                                                
