 2012 1030 2252 34.1 L   6.793 -73.156138.7  RSN  8 0.3 2.3LRSN                1
 GAP=136        0.55       2.2     3.9  4.3 -0.2001E+00  0.6918E+01  0.3771E+00E
 Epicentro: LOS SANTOS - SANTANDER                                             3
 ACTION:UPD 12-11-22 17:06 OP:ep   STATUS:               ID:20121030225234 L   I
 2012-10-30-2250-00M.COL___231                                                 6
 STAT SP IPHASW D HRMM SECON CODA AMPLIT PERI AZIMU VELO AIN AR TRES W  DIS CAZ7
 BAR2 SZ EP       2252 52.72                             170   -0.1310 22.4 187 
 BAR2 SZ ES       2253  7.63                             170    0.1410 22.4 187 
 BAR2 SZ I        2253  9.01        70.5 0.38                          22.4 187 
 GIR2 SZ EP       2252 52.92                             166   -0.0210 31.9 353 
 PAM  SZ EP       2252 55.82                             149    0.1810 78.7  40 
 PAM  SZ I        2252 56.02        31.9 0.25                          78.7  40 
 PAM  SN ES       2253 12.63                             149    0.1810 78.7  40 
 RUS  HZ EP       2252 57.18                             142    0.0810 99.9 175 
 RUS  HE ES       2253 14.76                             142   -0.2910 99.9 175 
 RUS  HZ I        2253 17.00        20.4 0.33                          99.9 175 
 OCA  HN ES   1   2253 22.94                             128   -0.69 7  161 354 
 ZAR  HZ EP   1   2253  6.24                             121    0.24 6  203 292 
 ZAR  HN ES   1   2253 31.06                             121    0.17 6  203 292 
 ZAR  HZ I        2253 36.75        17.8 0.22                           203 292 
 CHI  HZ EP   1   2253 11.28                             116   -0.01 6  248 195 
 CHI  HE ES   2   2253 40.71                             116    0.40 4  248 195 
 PRA  HZ EP   1   2253 27.01                             105   -0.22 4  391 209 
                                                                                
