 2011  530 2347 24.9 L   6.830 -73.056154.2  RSN  5 0.3 1.4LRSN                1
 GAP=195        0.63       7.3     9.4  8.3 -0.3242E+02  0.3369E+01 -0.4636E+01E
 Epicentro: LOS SANTOS - SANTANDER                                             3
 ACTION:UP  11-06-29 08:57 OP:tino STATUS:               ID:20110530234724 L   I
 2011-05-30-2344-02S.COL___114                                                 6
 STAT SP IPHASW D HRMM SECON CODA AMPLIT PERI AZIMU VELO SNR AR TRES W  DIS CAZ7
 BTL  SZ EP   1   2347 45.95                             170     0.3 7   25 293 
 BAR2 SZ EP       2347 45.53                             169    -0.210   30 208 
 BAR2 SZ I        2347 51.26         4.2 0.48                            30 208 
 BAR2 SZ ES   1   2348  1.98                             169     0.0 7   30 208 
 BRR  HZ EP   1   2347 47.74                             151     0.3 7   79 293 
 BRR  HN ES   2   2348  4.61                             151    -0.4 5   79 293 
 BRR  HZ I        2348 12.21         5.8 0.37                            79 293 
 GRA  SZ EP   2   2347 49.89                             140    -0.6 5  120  13 
 GRA  SZ ES   2   2348 10.71                             140     0.3 5  120  13 
 GRA  SZ I        2348 12.70         3.4 0.50                           120  13 
 NOR  SN ES   2   2348 31.28                             119     0.0 4  245 235 
                                                                                
