 2014  830 2347 38.0 L   6.742 -73.147144.0  RSN  4 0.5 1.8LRSN                1
 GAP=233        1.37      10.7    10.4 11.0  0.5558E+02  0.1149E+02  0.2134E+01E
 Epicentro: LOS SANTOS - SANTANDER                                             3
 ACTION:UPD 14-09-15 21:54 OP:nd   STATUS:               ID:20140830234738 L   I
 OLDACT:UP  14-08-31 03:28 OP:cam  STATUS:               ID:20140830234000     3
 OLDACT:REG 14-08-31 02:37 OP:cam  STATUS:               ID:20140830234000     3
 2014-08-30-2340-00M.COL___282                                                 6
 STAT SP IPHASW D HRMM SECON CODA AMPLIT PERI AZIMU VELO AIN AR TRES W  DIS CAZ7
 BAR2 SZ EP       2347 56.77                             173   -0.5010 17.0 193 
 BAR2 SZ ES       2348 11.53                             173   -0.8010 17.0 193 
 BAR2 SZ I        2348 13.84        17.0 0.44            173           17.0 193 
 BRR  HZ EP       2347 59.22                             151    0.1210 74.3 303 
 BRR  HN ES       2348 16.39                             151    0.8010 74.3 303 
 BRR  HZ I        2348 20.29        14.1 0.24            151           74.3 303 
 RUS  HZ EP       2348  1.63                             145    0.5410 94.2 176 
 RUS  HE ES       2348 19.52                             145    0.4010 94.2 176 
 RUS  HZ I        2348 20.71         6.5 0.22            149           94.2 176 
 PTB  HZ EP     D 2348  4.25                             132   -0.42 9  146 261 
 PTB  HN ES       2348 25.29                             132   -0.21 9  146 261 
 PTB  HZ I        2348 28.28         7.3 0.20            133            146 261 
                                                                                
