 2017  831 0828  3.9 L   6.800 -73.115143.7  RSN  6 0.3 1.4LRSN                1
 GAP=140        0.92       4.6     4.8  6.4  0.3698E+01  0.5430E+01 -0.2861E+01E
 Epicentro: LOS SANTOS - SANTANDER                                             3
 ACTION:UPD 17-09-04 20:26 OP:rebc STATUS:               ID:20170831082803 L   I
 OLDACT:DUP 17-08-31 18:37 OP:dhb  STATUS:               ID:20170831081742d    3
 2017-08-31-0818-00M.COL___386                                                 6
 STAT SP IPHASW D HRMM SECON CODA AMPLIT PERI AZIMU VELO AIN AR TRES W  DIS CAZ7
 BAR2 EZ EP        828 22.89                             170   -0.3610 24.1 198 
 BAR2 EZ ES        828 37.77                             170   -0.6210 24.1 198 
 BAR2 EZ I         828 40.27         6.2 0.21            171           24.1 198 
 BRR  HZ EP        828 24.98                             151    0.0310 74.2 297 
 BRR  HN ES        828 41.69                             151    0.2810 74.2 297 
 BRR  HZ I         828 42.57         4.7 0.15            150           74.2 297 
 PAM  EZ IP     D  828 26.02                             151    0.2910 75.3  38 
 PAM  EN ES        828 42.96                             151    0.1710 75.3  38 
 PAM  EZ I         828 46.05         2.4 0.33            153           75.3  38 
 RUS  HZ EP        828 27.14                             144   -0.2510  100 178 
 RUS  HN ES        828 46.25                             144    0.5010  100 178 
 RUS  HZ I         828 47.78         6.0 0.41            146            100 178 
 ZAR  HZ EP        828 36.50                             122    0.01 8  207 292 
 ZAR  HN ES        829  1.88                             122   -0.07 8  207 292 
 ZAR  HZ I         829  8.44         3.1 0.36            122            207 292 
 GUY2CHZ EP   9    828 49.58                             112    1.90 0  304 235 
 GUY2CHN ES        829 24.45                                    0.69 7  304 235 
 GUY2CHZ I         829 32.29         1.3 0.61                           304 235 
                                                                                
