 2012  831 0518  1.3 L   6.782 -73.118144.9  RSN 12 0.5 2.6LRSN                1
 GAP=141        0.99       4.9     5.8  6.5  0.4139E+01  0.1867E+02  0.9636E+01E
 Epicentro: LOS SANTOS - SANTANDER                                             3
 ACTION:UPD 12-09-10 11:59 OP:ep   STATUS:               ID:20120831051801 L   I
 2012-08-31-0510-00M.COL___218                                                 6
 STAT SP IPHASW D HRMM SECON CODA AMPLIT PERI AZIMU VELO AIN AR TRES W  DIS CAZ7
 BAR2 SZ EP        518 20.86                             171    0.0610 22.1 199 
 BAR2 SZ ES   1    518 35.86                             171   -0.16 7 22.1 199 
 BAR2 SZ I         518 37.55       144.3 0.34                          22.1 199 
 GIR2 SZ EP        518 20.92                             166   -0.0210 33.9 346 
 GIR2 SZ ES   1    518 35.87                             166   -0.40 7 33.9 346 
 BRR  HZ EP        518 22.75                             151    0.1910 74.8 299 
 BRR  HZ I         518 23.09       131.3 0.14                          74.8 299 
 BRR  HN ES   1    518 40.05                             151    0.90 7 74.8 299 
 PAM  SZ EP        518 23.66                             150    0.2510 77.1  37 
 PAM  SN ES   1    518 40.79                             150    0.14 7 77.1  37 
 PAM  SZ I         518 43.05        74.2 0.56                          77.1  37 
 RUS  HZ EP        518 24.72                             144   -0.0910 98.4 178 
 RUS  HN ES   1    518 42.67                             144   -0.47 7 98.4 178 
 RUS  HZ I         518 44.25        35.0 0.40                          98.4 178 
 PTB  HZ EP        518 27.77                             131   -0.66 9  150 260 
 PTB  HZ I         518 54.76        28.7 0.32                           150 260 
 ZAR  HZ EP        518 33.56                             121   -0.50 8  208 292 
 ZAR  HE ES   1    518 59.14                             121   -0.47 6  208 292 
 NOR  SZ EP        518 37.17                             118    0.05 8  236 235 
 NOR  SZ I         519 10.16        30.8 0.22                           236 235 
 CHI  HZ EP        518 38.85                             117    0.03 8  247 196 
 CHI  HZ I         518 41.44        12.4 0.40                           247 196 
 CHI  HN ES   2    519  7.98                             117   -0.11 4  247 196 
 HEL  HZ EP        518 42.88                             114    1.14 8  275 256 
 HEL  HZ I         519 20.01        27.1 0.34                           275 256 
 DBB  SZ EP        518 48.56                             109   -0.54 7  343 275 
 DBB  SZ I         519 29.08        14.5 0.46                           343 275 
 ANIL HZ EP   1    518 52.24                             108    1.09 5  358 225 
 ANIL HE ES   3    519 31.23                             108    1.20 2  358 225 
 ANIL HZ I         519 37.58        65.2 0.38                           358 225 
                                                                                
