 2012 1031 0340  6.5 L   6.763 -73.138159.3  RSN  4 0.2 1.6LRSN                1
 GAP=235        0.44       7.2    10.8  6.2  0.6889E+02 -0.3371E+02 -0.1939E+02E
 Epicentro: LOS SANTOS - SANTANDER                                             3
 ACTION:UPD 12-11-22 17:06 OP:ep   STATUS:               ID:20121031034006 L   I
 2012-10-31-0340-00M.COL___231                                                 6
 STAT SP IPHASW D HRMM SECON CODA AMPLIT PERI AZIMU VELO AIN AR TRES W  DIS CAZ7
 BAR2 SZ EP   1    340 27.31                             172   -0.36 7 19.5 195 
 BRR  HZ EP   1    340 29.42                             154    0.17 7 74.0 301 
 BRR  HN ES        340 47.05                             154    0.0310 74.0 301 
 BRR  HZ I         340 49.64         6.1 0.44                          74.0 301 
 RUS  HZ EP        340 31.41                             147    0.1110 96.4 176 
 RUS  HE ES        340 50.67                             147    0.0010 96.4 176 
 RUS  HN I         340 52.47         2.1 0.36                          96.4 176 
 ZAR  HE ES   2    341  6.11                             125   -0.17 4  206 293 
 ZAR  HN I         341 13.71         8.0 0.32                           206 293 
                                                                                
