 2011  331 0153 59.1 L   6.986 -73.436 23.1  RSN  4 0.4 0.9LRSN                1
 GAP=147        1.11       9.3     5.8 22.0  0.2890E+02 -0.2076E+01  0.9746E+02E
 Epicentro: SAN VICENTE DE CHUCURI - SANTANDER                                 3
 ACTION:UP  11-06-16 14:36 OP:jfem STATUS:               ID:20110331015359 L   I
 2011-03-31-0140-00M.COL___140                                                 6
 STAT SP IPHASW D HRMM SECON CODA AMPLIT PERI AZIMU VELO SNR AR TRES W  DIS CAZ7
 BTL  SZ IP        154  4.95                             140     0.610   20 112 
 GIR2 SZ IP        154  4.70                             129    -0.510   29  69 
 BRR  HZ IP        154  5.51                             123    -0.110   33 294 
 BRR  HZ I         154  5.66        12.3 0.10                            33 294 
 BRR  HN ES   1    154 10.57                             123    -0.1 7   33 294 
 BAR2 SZ EP        154  8.48                             108     0.210   52 147 
 BAR2 SZ ES   2    154 14.66                             108    -0.9 5   52 147 
 BAR2 SZ I         154 16.05         5.5 0.29                            52 147 
                                                                                
