 2010  731 0607 29.5 L   6.748 -73.149154.6  RSN  4 0.1 1.3LRSN                1
 GAP=159        0.36       5.0     9.4  6.9  0.3633E+02 -0.4191E+02 -0.2059E+02E
 Epicentro: LOS SANTOS - SANTANDER                                             3
 ACTION:UPD 10-12-01 15:21 OP:pat  STATUS:               ID:20100731060729 L   I
 2010-07-31-0604-22S.COL___123                                                 6
 STAT SP IPHASW D HRMM SECON CODA AMPLIT PERI AZIMU VELO AIN AR TRES W  DIS CAZ7
 BAR2 SZ EP        6 7 50.03                             173    -0.110   18 192 
 BAR2 SZ I         6 8  6.50         6.2 0.35                            18 192 
 BRR  HZ EP        6 7 51.87                             153     0.110   74 303 
 BRR  HN ES   1    6 8  9.08                             153    -0.1 7   74 303 
 BRR  HZ I         6 8 12.38         5.8 0.13                            74 303 
 RUS  HZ EP   1    6 7 53.72                             147    -0.1 7   95 176 
 RUS  HE ES   1    6 8 12.78                             147     0.1 7   95 176 
 RUS  HZ I         6 8 13.85         2.4 0.31                            95 176 
 GRA  SZ EP   2    6 7 56.13                             138     0.1 5  131  17 
 GRA  SZ I         6 8 18.75         1.9 0.32                           131  17 
                                                                                
