 2016  531 0109  0.0 L   6.542 -73.828 17.6  RSN  6 0.4 1.4LRSN                1
 GAP=102        1.10       2.5     2.3  5.9 -0.1668E+00 -0.3764E+01 -0.2805E+01E
 Epicentro: PUERTO PARRA - SANTANDER                                           3
 ACTION:UPD 16-08-18 17:50 OP:cam  STATUS:               ID:20160531010900 L   I
 OLDACT:REG 16-05-31 12:26 OP:edw  STATUS:               ID:20160531010746     3
 2016-05-31-0107-46M.COL___316                                                 6
 STAT SP IPHASW D HRMM SECON CODA AMPLIT PERI AZIMU VELO AIN AR TRES W  DIS CAZ7
 BRR  HZ EP        1 9 10.58                             103    0.0510 63.8  12 
 BRR  HN ES        1 9 18.95                             103    0.2310 63.8  12 
 BRR  HZ I         1 9 20.72        11.7 0.16            101           63.8  12 
 PTB  HZ EP        1 9 10.97                             102   -0.4110 69.4 270 
 PTB  HN ES        1 9 20.02                             102   -0.2110 69.4 270 
 PTB  HZ I         1 9 21.62        33.6 0.10            100           69.4 270 
 BAR2 EZ EP        1 9 12.17                             102    0.2310 71.7  86 
 BAR2 EZ ES        1 9 20.80                             102   -0.4310 71.7  86 
 BAR2 EZ I         1 9 21.67        14.3 0.46            100           71.7  86 
 SPBC HN ES        1 9 29.25                              98    0.2210  102 195 
 RUS  HZ EP        1 9 18.25                              98    0.4110  109 131 
 RUS  HE ES        1 9 31.43                              98   -0.3010  109 131 
 RUS  HZ I         1 9 32.89         3.9 0.22             97            109 131 
 PAM  EZ EP        1 9 24.71                              56    0.90 9  153  55 
 PAM  EE ES        1 9 41.71                              56   -0.65 9  153  55 
 PAM  EZ I         1 9 44.70         7.9 0.14             56            153  55 
                                                                                
