 2013  331 0246 19.6 L   6.736 -73.201154.1  RSN  5 0.2 1.2LRSN                1
 GAP=195        0.40       3.9     4.0  5.2  0.6711E+01 -0.2887E+01 -0.9202E+01E
 Epicentro: VILLANUEVA - SANTANDER                                             3
 ACTION:UPD 13-04-09 14:06 OP:ep   STATUS:               ID:20130331024619 L   I
 2013-03-31-0240-00M.COL___245                                                 6
 STAT SP IPHASW D HRMM SECON CODA AMPLIT PERI AZIMU VELO AIN AR TRES W  DIS CAZ7
 BRR  HZ IP     D  246 41.75                             154    0.1310 69.8 306 
 BRR  HN ES   1    246 58.78                             154    0.02 7 69.8 306 
 BRR  HZ I         247  2.28         4.3 0.32            155           69.8 306 
 RUS  HE ES   1    247  2.54                             147   -0.07 7 94.1 172 
 RUS  HZ I         247  3.49         1.9 0.24            151           94.1 172 
 PTB  HZ EP   1    246 46.82                             135    0.15 7  140 261 
 PTB  HN ES   1    247  7.54                             135   -0.20 7  140 261 
 PTB  HZ I         247 10.95         1.5 0.34            138            140 261 
 ZAR  HN ES   1    247 17.96                             124    0.08 6  201 295 
 SML  HZ EP   1    246 56.86                             119   -0.32 6  248 337 
                                                                                
