 2011  731 0520  9.4 L   6.781 -73.033152.1  RSN 12 0.4 1.9LRSN                1
 GAP=152        0.77       3.6     5.9  6.0 -0.9457E+01  0.8551E+01  0.2666E+01E
 Epicentro: CEPITA - SANTANDER                                                 3
 ACTION:UPD 12-07-25 14:04 OP:epov STATUS:               ID:20110731052009 L   I
 2011-07-31-0520-00M.COL___141                                                 6
 STAT SP IPHASW D HRMM SECON CODA AMPLIT PERI AZIMU VELO AIN AR TRES W  DIS CAZ7
 BAR2 SZ EP        520 30.16                             169    0.2810 26.7 218 
 BAR2 SZ ES   1    520 45.45                             169   -0.39 7 26.7 218 
 BAR2 SZ I         520 48.03        22.2 0.32                          26.7 218 
 PAM  SZ EP   1    520 32.66                             154    0.66 7 71.8  31 
 PAM  SN ES   2    520 49.81                             154    0.19 5 71.8  31 
 BRR  HZ EP   1    520 32.16                             150    0.20 7 83.3 296 
 BRR  HN ES   2    520 49.80                             150    0.27 5 83.3 296 
 RUS  HZ EP   1    520 34.12                             146    0.47 7 98.4 183 
 RUS  HN ES   2    520 52.60                             146    0.05 5 98.4 183 
 RUS  HZ I         520 54.10         8.8 0.27                          98.4 183 
 BRI  SZ EP   2    520 33.73                             143   -0.06 5  107  14 
 BRI  SZ ES   2    520 53.00                             143    0.21 5  107  14 
 GRA  SZ IP        520 34.26                             139   -0.8810  125  12 
 GRA  SZ ES   2    520 54.46                             139   -0.74 5  125  12 
 GRA  SZ I         520 55.02         8.1 0.21                           125  12 
 OCA  SZ EP   1    520 38.63                             130    0.03 7  164 349 
 OCA  SZ ES   1    521  1.73                             130    0.37 7  164 349 
 OCA  SZ I         521  8.85         7.9 0.29                           164 349 
 NOR  SZ EP   1    520 46.01                             119   -0.49 6  244 237 
 NOR  SN ES   2    521 15.25                             119   -0.17 4  244 237 
 CHI  HZ EP   1    520 47.65                             118    0.00 6  250 198 
 CHI  HN ES   2    521 16.95                             118   -0.52 4  250 198 
 CHI  HZ I         521 22.55         4.4 0.52                           250 198 
 HEL  HZ EP   1    520 50.88                             115   -0.37 6  284 257 
 HEL  HN ES   2    521 24.20                             115    0.33 4  284 257 
 GUY  SZ EP   1    520 55.17                             113    0.55 5  313 237 
 GUY  SN ES   2    521 29.65                             113   -0.23 3  313 237 
 GUY  SZ I         521 41.06         9.2 0.61                           313 237 
 PRA  HZ EP   1    521  4.16                             107    0.46 4  397 211 
 PRA  HN ES   2    521 45.77                             107   -0.26 3  397 211 
                                                                                
