 2011  831 0523 20.5 L   6.744 -73.133144.0  RSN 10 0.3 2.0LRSN                1
 GAP=184        0.46       2.1     3.1  3.8 -0.3712E+00  0.2214E+01  0.1589E+01E
 Epicentro: JORDAN - SANTANDER                                                 3
 ACTION:UPD 12-07-13 15:54 OP:ep   STATUS:               ID:20110831052320 L   I
 2011-08-31-0520-00M.COL___166                                                 6
 STAT SP IPHASW D HRMM SECON CODA AMPLIT PERI AZIMU VELO AIN AR TRES W  DIS CAZ7
 BAR2 SZ EP        523 39.79                             173    0.0210 17.7 198 
 BAR2 SZ ES   1    523 54.64                             173   -0.20 7 17.7 198 
 BAR2 SZ I         523 56.20        22.9 0.32                          17.7 198 
 GIR2 SZ EP   2    523 40.07                             165   -0.04 5 37.6 350 
 BRR  HZ EP        523 41.75                             151    0.0810 75.5 302 
 BRR  HE ES   1    523 58.65                             151    0.44 7 75.5 302 
 BRR  HZ I         524  1.56        27.5 0.08                          75.5 302 
 RUS  HZ EP   1    523 43.63                             145    0.04 7 94.3 177 
 RUS  HN ES   2    524  1.70                             145    0.07 5 94.3 177 
 RUS  HZ I         524  5.42         9.7 0.25                          94.3 177 
 OCA  SZ EP   1    523 48.96                             128   -0.27 7  167 353 
 OCA  SZ ES   1    524 11.56                             128   -0.11 7  167 353 
 OCA  SZ I         524 15.63        23.8 0.26                           167 353 
 ZAR  HE ES   2    524 18.14                             121   -0.55 4  208 294 
 NOR  SZ EP   1    523 55.85                             118    0.02 6  232 236 
 NOR  SN ES   1    524 23.54                             118    0.12 6  232 236 
 CHI  HZ EP   1    523 57.80                             117    0.35 6  243 196 
 CHI  HE ES   1    524 25.82                             117   -0.49 6  243 196 
 CHI  HZ I         524 30.82         6.1 0.50                           243 196 
 HEL  HZ EP   2    524  0.95                             114    0.38 4  272 257 
 HEL  HN ES   1    524 31.59                             114   -0.27 6  272 257 
 PRA  HZ EP   1    524 13.54                             106    0.17 4  387 210 
                                                                                
