 2011  131 0205 32.8 L   6.782 -73.080172.3  RSN  8 0.7 1.8LRSN                1
 GAP=166        1.43       5.8     9.5 11.7 -0.8492E+01  0.4891E+02  0.3256E+01E
 Epicentro: LOS SANTOS - SANTANDER                                             3
 ACTION:UP  11-02-08 08:44 OP:pat  STATUS:               ID:20110131020533 L   I
 2011-01-31-0203-45S.COL___135                                                 6
 STAT SP IPHASW D HRMM SECON CODA AMPLIT PERI AZIMU VELO SNR AR TRES W  DIS CAZ7
 BAR2 SZ EP        2 5 55.43                             171    -0.210   24 209 
 BAR2 SZ ES   1    2 6 13.32                             171    -0.1 7   24 209 
 BAR2 SZ I         2 6 14.99        14.6 0.36                            24 209 
 RUS  HZ EP        2 5 59.18                             148     0.110   98 180 
 RUS  HN ES   1    2 6 19.39                                    -0.2 7   98 180 
 RUS  HZ I         2 6 21.17         9.8 0.29                            98 180 
 GRA  SZ IP     C  2 6  0.32                             142    -0.210  126  14 
 GRA  SZ I         2 6  2.29         9.5 0.32                           126  14 
 GRA  SZ ES        2 6 22.11                             142     0.010  126  14 
 OCA  SZ EP   2    2 6  3.08                             134    -0.4 5  163 351 
 OCA  SZ ES   1    2 6 28.36                             134     0.8 7  163 351 
 OCA  SZ I         2 6 32.64         7.7 0.28                           163 351 
 NOR  SZ EP   1    2 6 11.32                             123     0.6 6  240 236 
 CHI  HZ EP        2 6 12.60                             122     0.5 8  249 197 
 CHI  HE ES   2    2 6 41.29                             122    -1.5 4  249 197 
 CHI  HZ I         2 6 48.91         1.4 0.34                           249 197 
 HEL  HZ EP        2 6 16.18                             119     1.0 7  279 257 
 HEL  HE ES        2 6 48.34                             119     0.1 7  279 257 
 HEL  HZ I         2 6 58.64         3.3 0.39                           279 257 
 MON  HZ EP        2 6 22.01                             112    -1.7 6  360 308 
 MON  HE ES   1    2 7  2.69                             112    -0.7 5  360 308 
 MON  HZ I         2 7  7.79         2.2 0.62                           360 308 
                                                                                
