 2017  831 0759 11.8 L   6.800 -73.117141.0  RSN 16 0.6 2.2LRSN                1
 GAP=115        1.20       3.6     4.0  6.1  0.2973E+00  0.8795E+01  0.6439E+01E
 Epicentro: LOS SANTOS - SANTANDER                                             3
 ACTION:UPD 17-09-04 20:26 OP:rebc STATUS:               ID:20170831075911 L   I
 OLDACT:REG 17-08-31 12:53 OP:dhb  STATUS:               ID:20170831075738     3
 2017-08-31-0758-00M.COL___386                                                 6
 STAT SP IPHASW D HRMM SECON CODA AMPLIT PERI AZIMU VELO AIN AR TRES W  DIS CAZ7
 BAR2 EZ IP     C  759 30.80                             170   -0.1010 24.1 197 
 BAR2 EZ ES        759 45.19                             170   -0.5910 24.1 197 
 BAR2 EZ I         759 46.88        30.2 0.44            167           24.1 197 
 BRR  HZ IP     C  759 32.61                             151   -0.0210 74.0 297 
 BRR  HN ES        759 49.57                             151    0.7210 74.0 297 
 BRR  HZ I         759 52.91        15.3 0.12            150           74.0 297 
 PAM  EZ IP     D  759 33.80                             151    0.3810 75.4  38 
 PAM  EN ES        759 50.37                             151    0.1010 75.4  38 
 PAM  EZ I         759 52.76        89.1 0.95            156           75.4  38 
 RUS  HZ EP        759 34.85                             143   -0.2510  100 178 
 RUS  HN ES        759 53.28                             143    0.0210  100 178 
 RUS  HZ I         759 55.48        23.1 0.44            144            100 178 
 SPBC HZ EP        759 39.72                             128   -0.44 9  165 220 
 SPBC HN ES        8 0  2.41                             128    0.16 9  165 220 
 SPBC HZ I         8 0  5.04        12.4 0.09            128            165 220 
 YPLC HZ IP     C  759 41.29                             126    0.16 9  175 152 
 YPLC HN ES        8 0  4.33                             126    0.34 9  175 152 
 YPLC HZ I         8 0  8.05         6.3 0.29            128            175 152 
 ZAR  HZ EP        759 43.43                             121   -0.84 8  207 292 
 ZAR  HE ES        8 0  9.05                             121   -0.53 8  207 292 
 ZAR  HZ I         8 0 15.05        11.6 0.19            122            207 292 
 NOR  HZ IP     C  759 47.21                             117   -0.35 8  237 235 
 NOR  HN ES        8 0 15.20                             117   -0.23 8  237 235 
 NOR  HZ I         8 0 21.51         7.4 0.20            118            237 235 
 CHI  HZ EP        759 48.95                             116   -0.41 8  249 196 
 CHI  HN ES        8 0 18.25                             116   -0.38 8  249 196 
 ROSC BN ES        8 0 18.93                             116   -0.61 8  254 212 
 ROSC BN I         8 0 25.05        23.9 0.27            117            254 212 
 HEL  HZ EP        759 52.82                             114    0.68 8  275 256 
 HEL  HE ES        8 0 24.49                             114    0.90 8  275 256 
 HEL  HZ I         8 0 28.97         6.3 0.35            115            275 256 
 GUY2CHZ EP        759 55.78                             111    0.27 7  304 235 
 GUY2CHE ES        8 0 30.57                             111    0.99 7  304 235 
 ELA  HZ EP        759 59.16                             109    0.41 7  331 230 
 ELA  HE ES   4    8 0 37.96                             109    2.60 0  331 230 
 ELA  HZ I         8 0 43.05                             110            331 230 
 PRA  HZ EP        8 0  5.41                             106    0.04 6  394 210 
 PRA  HE ES        8 0 48.13                             106    1.00 6  394 210 
 PRA  HZ I         8 0 52.96         9.6 0.05            107            394 210 
 ORTC HZ EP   2    8 0  7.63                             105    1.83 3  397 217 
 ORTC HN ES        8 0 48.79                             105    0.88 6  397 217 
 ORTC HZ I         8 0 56.55         3.5 0.64            107            397 217 
 PAL  HZ EP        8 0  6.56                             105   -0.59 6  408 239 
 PAL  HN ES        8 0 48.69                             105   -1.61 6  408 239 
                                                                                
