 2012  131 0241  5.1 L   6.374 -73.103  2.8  RSN  4 0.3 0.8LRSN                1
 GAP=155        0.81       2.5     4.5  8.1 -0.1896E+01 -0.8027E+01  0.4127E+01E
 Epicentro: OCAMONTE - SANTANDER                                               3
 ACTION:UP  12-02-03 08:22 OP:REBC STATUS:               ID:20120131024105 L   I
 2012-01-31-0240-00M.COL___188                                                 6
 STAT SP IPHASW D HRMM SECON CODA AMPLIT PERI AZIMU VELO SNR AR TRES W  DIS CAZ7
 BAR2 SZ IP     D  241  9.58                              47    -0.410   26 340 
 BAR2 SZ I         241 13.29        16.3 0.10                            26 340 
 RUS  HZ EP   1    241 14.40                              47    -0.1 7   53 178 
 RUS  HN ES   1    241 21.71                              47     0.0 7   53 178 
 RUS  HZ I         241 22.66         5.8 0.27                            53 178 
 PAM  SZ EP   1    241 24.47                              47     0.6 7  116  23 
 PAM  SZ I         241 25.07         1.7 0.19                           116  23 
 PAM  SN ES   1    241 38.54                              47     0.0 7  116  23 
 PTB  HZ EP   1    241 29.05                              47     0.3 7  151 277 
 PTB  HN ES   2    241 47.31                              47     0.1 5  151 277 
 PTB  HZ I         241 48.40                                            151 277 
                                                                                
