 2015  831 0228 51.7 L   6.816 -73.165140.9  RSN 10 0.5 1.9LRSN                1
 GAP= 80        1.20       3.2     6.0  6.6 -0.1371E+01  0.2057E+01  0.2505E+00E
 Epicentro: LOS SANTOS - SANTANDER                                             3
 ACTION:UPD 15-09-15 23:06 OP:cam  STATUS:               ID:20150831022851 L   I
 OLDACT:REG 15-08-31 13:47 OP:stll STATUS:               ID:20150831021748     3
 2015-08-31-0217-48M.COL___358                                                 6
 STAT SP IPHASW D HRMM SECON CODA AMPLIT PERI AZIMU VELO AIN AR TRES W  DIS CAZ7
 BAR2 EZ EP        229 11.07                             170    0.2710 24.8 185 
 BAR2 EZ ES        229 25.13                             170   -0.5510 24.8 185 
 BAR2 EZ I         229 26.79        22.4 0.30            168           24.8 185 
 BRR  HZ IP     D  229 12.73                             153    0.5310 68.5 298 
 BRR  HZ I         229 12.85        15.0 0.20            151           68.5 298 
 BRR  HN ES        229 29.01                             153    0.8510 68.5 298 
 PAM  EZ EP        229 13.86                             150    0.4310 77.4  42 
 PAM  EN ES        229 30.42                             150    0.0710 77.4  42 
 PAM  EZ I         229 32.81        16.0 0.50            152           77.4  42 
 RUS  HZ EP        229 15.50                             142    0.3610  102 175 
 RUS  HZ I         229 16.16         6.4 0.10            142            102 175 
 RUS  HN ES        229 32.67                             142   -0.7310  102 175 
 TAM  HZ IP     C  229 19.45                             129    0.19 9  158 105 
 OCA  HZ EP        229 19.11                             129   -0.36 9  158 354 
 OCA  HN ES        229 41.02                             129   -0.10 9  158 354 
 OCA  HZ I         229 43.88        23.1 0.20            130            158 354 
 SPBC HZ EP        229 20.21                             128    0.35 9  163 218 
 SPBC HN ES        229 41.63                             128   -0.17 9  163 218 
 SPBC HZ I         229 45.80         8.4 0.36            127            163 218 
 SML  HZ EP        229 27.19                             117   -0.62 8  241 336 
 SML  HN ES        229 55.12                             117   -0.84 8  241 336 
 SML  HZ I         229 59.18        10.7 0.28            117            241 336 
 CHI  HZ EP        229 28.89                             116   -0.39 8  250 195 
 CHI  HN ES        229 58.62                             116    0.05 8  250 195 
 CHI  HZ I         230 10.05         1.6 0.18            116            250 195 
 DABV BZ E         231  4.99                                            533  31 
                                                                                
