 2015 1231 0956 58.2 L   6.829 -73.140144.3  RSN 17 0.5 2.1LRSN                1
 GAP=119        1.09       2.8     3.5  5.1 -0.2477E+01  0.4962E+01 -0.3756E+00E
 Epicentro: LOS SANTOS - SANTANDER                                             3
 ACTION:UPD 16-02-04 15:09 OP:cam  STATUS:               ID:20151231095658 L   I
 OLDACT:REG 15-12-31 13:11 OP:ak   STATUS:               ID:20151231094747     3
 2015-12-31-0947-47M.COL___319                                                 6
 STAT SP IPHASW D HRMM SECON CODA AMPLIT PERI AZIMU VELO AIN AR TRES W  DIS CAZ7
 BAR2 EZ EP        957 18.09                             169    0.3810 26.6 190 
 BAR2 EZ ES        957 32.43                             169   -0.5010 26.6 190 
 BAR2 EZ I         957 34.06        34.4 0.38            169           26.6 190 
 BRR  HZ EP        957 19.39                             153    0.2710 70.3 296 
 BRR  HN ES        957 35.98                             153    0.5310 70.3 296 
 BRR  HZ I         957 41.61        13.9 0.16            151           70.3 296 
 PAM  EZ EP        957 21.05                             151    0.9810 74.5  41 
 PAM  EE ES        957 37.67                             151    0.5310 74.5  41 
 PAM  EZ I         957 40.05        25.4 0.48            155           74.5  41 
 RUS  HZ EP        957 22.12                             142    0.1010  104 177 
 RUS  HN ES        957 40.25                             142   -0.3710  104 177 
 RUS  HZ I         957 41.61        12.5 0.34            146            104 177 
 PTB  HZ EP        957 24.98                             131   -0.17 9  149 258 
 PTB  HN ES        957 45.70                             131   -0.48 9  149 258 
 PTB  HZ I         957 48.01        11.3 0.09            132            149 258 
 OCA  HZ EP        957 25.86                             130   -0.22 9  157 353 
 OCA  HN ES        957 47.54                             130   -0.30 9  157 353 
 OCA  HZ I         957 51.53        32.7 0.26            131            157 353 
 SPBC HZ EP        957 27.28                             128    0.43 9  166 218 
 SPBC HN ES        957 48.52                             128   -0.69 9  166 218 
 SPBC HZ I         957 51.66        24.1 0.20            130            166 218 
 ZAR  HZ EP        957 30.94                             122    0.47 9  203 291 
 ZAR  HN ES        957 55.64                             122   -0.02 9  203 291 
 ZAR  HZ I         958  5.23        10.1 0.26            123            203 291 
 NOR  HZ EP        957 34.50                             118    0.41 8  237 234 
 NOR  HN ES        958  1.96                             118   -0.14 8  237 234 
 NOR  HZ I         958  8.24        10.7 0.16            119            237 234 
 SML  HZ EP        957 34.09                             117   -0.35 8  241 335 
 SML  HN ES        958  1.90                             117   -0.81 8  241 335 
 HEL  HZ EP   2    957 39.13                             114    0.65 4  274 255 
 HEL  HN ES        958 10.07                             114    0.16 8  274 255 
 HEL  HZ I         958 16.87         6.1 0.50            116            274 255 
 URE  HZ EP        957 38.42                             113   -0.70 7  283 291 
 URE  HN ES   4    958  7.36                             113   -3.68 0  283 291 
 SOCV BZ EP        957 39.86                             112   -1.04 7  299  57 
 SOCV BN ES   4    958 11.21                             112   -3.01 0  299  57 
 GUY2CHZ EP   2    957 42.01                             112    0.01 4  304 234 
 GUY2CHE ES        958 16.42                             112    0.25 7  304 234 
 GUY2CHZ I         958 24.36         6.5 0.60                           304 234 
 DBB  SZ EP   2    957 46.57                             109    0.92 3  340 274 
 DBB  SZ ES        958 23.02                             109    0.35 7  340 274 
 DBB  SZ I         958 23.92        10.6 0.27            110            340 274 
 PRA  HZ EP        957 51.98                             106   -0.04 6  395 209 
 PRA  HN ES        958 33.93                             106   -0.09 6  395 209 
 PRA  HZ I         958 40.16                             108            395 209 
 PAL  HZ EP        957 53.89                             105    0.33 6  408 239 
 PAL  HN ES        958 36.21                             105   -0.54 6  408 239 
 PAL  HZ I         958 42.53         2.1 0.72            107            408 239 
                                                                                
