 2013  331 0216 25.0 L   6.798 -73.134146.7  RSN  8 0.4 1.8LRSN                1
 GAP=184        0.87       3.8     5.6  7.9  0.4732E+01  0.7171E+01 -0.3265E+01E
 Epicentro: LOS SANTOS - SANTANDER                                             3
 ACTION:UPD 13-04-09 14:06 OP:ep   STATUS:               ID:20130331021625 L   I
 2013-03-31-0210-00M.COL___245                                                 6
 STAT SP IPHASW D HRMM SECON CODA AMPLIT PERI AZIMU VELO AIN AR TRES W  DIS CAZ7
 BAR2 SZ EP        216 44.93                             170    0.2010 23.4 193 
 BAR2 SZ ES   1    217  0.00                             170   -0.13 7 23.4 193 
 BAR2 SZ I         217  0.75        28.8 0.36            171           23.4 193 
 BRR  HZ IP     C  216 46.88                             152    0.5710 72.4 298 
 BRR  HN ES   1    217  3.40                             152    0.47 7 72.4 298 
 BRR  HZ I         217  6.68         6.5 0.30            150           72.4 298 
 RUS  HZ EP        216 48.91                             144    0.1010  100 177 
 RUS  HN ES   1    217  7.04                             144   -0.35 7  100 177 
 RUS  HZ I         217  8.34         5.4 0.24            148            100 177 
 PTB  HZ EP   1    216 51.78                             132   -0.36 7  149 259 
 PTB  HN ES   1    217 12.62                             132   -0.70 7  149 259 
 PTB  HZ I         217 14.76         5.8 0.26            132            149 259 
 OCA  HN ES   1    217 14.99                             130   -0.58 7  161 353 
 OCA  HZ I         217 21.10         7.6 0.30            130            161 353 
 ZAR  HZ EP   1    216 57.15                             122   -0.47 6  205 292 
 ZAR  HN ES   1    217 23.69                             122    0.61 6  205 292 
 ZAR  HZ I         217 29.22         6.1 0.16            123            205 292 
 NOR  HE ES   1    217 28.92                             118    0.06 6  236 235 
 NOR  HZ I         217 32.93         4.9 0.40            120            236 235 
 SML  HN ES        217 30.18                             117   -0.23 8  244 335 
 SML  HN IS        217 30.18                                            244 335 
                                                                                
