 2012 1031 0903 53.3 L   6.821 -73.131143.7  RSN 13 0.4 2.6LRSN                1
 GAP= 71        0.82       3.0     3.3  4.9 -0.9842E-01  0.5250E+01  0.4716E+01E
 Epicentro: LOS SANTOS - SANTANDER                                             3
 ACTION:UPD 12-11-22 17:06 OP:ep   STATUS:               ID:20121031090353 L   I
 2012-10-31-0900-00M.COL___231                                                 6
 STAT SP IPHASW D HRMM SECON CODA AMPLIT PERI AZIMU VELO AIN AR TRES W  DIS CAZ7
 BAR2 SZ EP   1    9 4 12.58                             169   -0.16 7 25.9 193 
 BAR2 SZ ES   1    9 4 27.43                             169   -0.47 7 25.9 193 
 BAR2 SZ I         9 4 29.27        68.1 0.14                          25.9 193 
 GIR2 SZ EP   1    9 4 12.63                             168   -0.05 7 29.3 346 
 GIR2 SZ ES   1    9 4 27.85                             168    0.06 7 29.3 346 
 BRR  HZ EP        9 4 14.39                             152    0.1410 71.6 296 
 BRR  HN ES   1    9 4 31.14                             152    0.55 7 71.6 296 
 BRR  HZ I         9 4 32.14        82.9 0.16                          71.6 296 
 PAM  SZ EP        9 4 15.48                             151    0.3510 74.6  40 
 PAM  SN ES        9 4 32.19                             151    0.0310 74.6  40 
 PAM  SZ I         9 4 34.33        65.1 0.42                          74.6  40 
 RUS  HZ EP   1    9 4 16.81                             143   -0.20 7  103 177 
 RUS  HN ES   1    9 4 35.44                             143   -0.07 7  103 177 
 RUS  HN I         9 4 36.90        47.4 0.42                           103 177 
 TAM  HZ EP   1    9 4 21.01                             130    0.28 7  154 106 
 TAM  HN ES   1    9 4 42.36                             130    0.24 7  154 106 
 TAM  HZ I         9 4 43.03        30.8 0.26                           154 106 
 OCA  HZ EP   1    9 4 20.98                             129   -0.27 7  158 352 
 OCA  HN ES   1    9 4 42.19                             129   -0.87 7  158 352 
 ZAR  HZ EP        9 4 25.32                             122   -0.36 9  205 291 
 ZAR  HN ES   1    9 4 51.31                             122    0.38 6  205 291 
 CHI  HZ EP        9 4 30.97                             116   -0.21 8  251 195 
 CHI  HN ES   1    9 4 59.87                             116   -0.85 6  251 195 
 CHI  HZ I         9 5  3.63        15.0 0.28                           251 195 
 ROSC BZ EP        9 4 32.41                             116    0.79 8  256 211 
 ROSC BZ I         9 5 10.15        36.2 0.30                           256 211 
 HEL  HZ EP   1    9 4 33.51                             114   -0.14 6  274 255 
 HEL  HN ES   1    9 5  4.95                             114   -0.17 6  274 255 
 HEL  HZ I         9 5 11.22        29.9 0.42                           274 255 
 RREF HZ EP   1    9 4 39.95                             110    0.28 5  324 229 
 RREF HN ES   1    9 5 16.82                             110    0.99 5  324 229 
 PRA  HZ EP   1    9 4 46.31                             106   -0.77 4  395 210 
 PRA  HE ES   1    9 5 28.59                             106   -0.44 4  395 210 
 PRA  HZ I         9 5 33.53        13.5 0.31                           395 210 
                                                                                
