 2010 1031 0243 51.1 L   6.782 -73.082145.8  RSN  6 0.4 1.6LRSN                1
 GAP=166        0.71       5.1     7.8  8.3 -0.4743E+01 -0.4605E+01  0.1959E+01E
 Epicentro: LOS SANTOS - SANTANDER                                             3
 ACTION:UP  11-02-18 11:13 OP:tino STATUS:               ID:20101031024351 L   I
 2010-10-31-0239-41S.COL___125                                                 6
 STAT SP IPHASW D HRMM SECON CODA AMPLIT PERI AZIMU VELO SNR AR TRES W  DIS CAZ7
 BAR2 SZ EP   2    244 10.05                             170    -0.7 5   24 208 
 BAR2 SZ ES   2    244 25.63                             170    -0.5 5   24 208 
 BAR2 SZ I         244 27.00         9.4 0.28                            24 208 
 BRR  HZ EP        244 12.72                             150     0.010   78 297 
 BRR  HZ I         244 16.95         9.0 0.26                            78 297 
 BRR  HE ES   1    244 29.88                             150     0.4 7   78 297 
 RUS  HZ EP   1    244 15.01                             144     0.3 7   98 180 
 RUS  HN ES   2    244 33.38                             144     0.3 5   98 180 
 RUS  HZ I         244 34.77         3.3 0.32                            98 180 
 GRA  SZ EP   2    244 16.57                             137     0.2 5  126  14 
 GRA  SZ ES   2    244 35.46                             137    -0.6 5  126  14 
 GRA  SZ I         244 38.74         4.9 0.27                           126  14 
 OCA  SZ EP   2    244 19.94                             129     0.2 5  163 351 
 OCA  SZ I         244 25.12         8.9 0.45                           163 351 
 NOR  SZ EP   2    244 26.98                             118    -0.4 4  239 236 
 NOR  SN ES   2    244 55.05                             118    -0.6 4  239 236 
                                                                                
