 2011 1231 0900 41.4 L   6.684 -73.180143.3  RSN  4 0.3 1.0LRSN                1
 GAP=224        0.61       6.6     7.3  9.2  0.2708E+02  0.1325E+02 -0.6640E+01E
 Epicentro: VILLANUEVA - SANTANDER                                             3
 ACTION:UPD 12-07-13 16:19 OP:ep   STATUS:               ID:20111231090041 L   I
 2011-12-31-0900-00M.COL___185                                                 6
 STAT SP IPHASW D HRMM SECON CODA AMPLIT PERI AZIMU VELO AIN AR TRES W  DIS CAZ7
 BRR  HZ EP   1    9 1  2.39                             151   -0.08 7 75.1 309 
 BRR  HE ES   1    9 1 19.20                             151    0.26 7 75.1 309 
 BRR  HZ I         9 1 23.66         3.5 0.14                          75.1 309 
 RUS  HN ES   1    9 1 21.45                             147   -0.22 7 88.2 173 
 RUS  HZ I         9 1 24.56         0.9 0.27                          88.2 173 
 PTB  HZ EP   1    9 1  7.98                             133    0.37 7  142 264 
 PTB  HN ES   1    9 1 28.23                             133    0.15 7  142 264 
 ZAR  HE ES   1    9 1 38.58                             122   -0.57 6  206 296 
                                                                                
