 2017  331 0146 21.3 L   6.818 -73.154142.9  RSN 22 0.6 2.5LRSN                1
 GAP=118        1.34       3.9     4.6  6.3  0.7764E-01  0.1008E+02  0.6250E+01E
 Epicentro: LOS SANTOS - SANTANDER                                             3
 ACTION:UPD 17-05-25 18:47 OP:jn   STATUS:               ID:20170331014621 L   I
 OLDACT:UP  17-03-31 14:20 OP:ar   STATUS:               ID:20170331013729d    3
 OLDACT:UP  17-03-31 13:55 OP:ar   STATUS:               ID:20170331013729d    3
 OLDACT:DUP 17-03-31 13:43 OP:ar   STATUS:               ID:20170331013729d    3
 2017-03-31-0138-00M.COL___344                                                 6
 STAT SP IPHASW D HRMM SECON CODA AMPLIT PERI AZIMU VELO AIN AR TRES W  DIS CAZ7
 BAR2 EZ IP     D  146 40.40                             170   -0.2310 25.2 187 
 BAR2 EZ ES        146 55.68                             170   -0.0210 25.2 187 
 BAR2 EZ I         146 56.65        93.4 0.26            167           25.2 187 
 BRR  HZ IP     C  146 42.24                             153    0.1910 69.4 297 
 BRR  HN ES        146 59.21                             153    0.9910 69.4 297 
 BRR  HZ I         146 59.98        43.5 0.10            150           69.4 297 
 PAM  EZ EP        146 43.36                             150    0.2010 76.5  41 
 PAM  EE ES        147  0.51                             150    0.3010 76.5  41 
 PAM  EZ I         147  2.46       108.9 0.52            155           76.5  41 
 RUS  HZ EP        146 44.33                             143   -0.6010  103 176 
 RUS  HE ES        147  3.20                             143   -0.1510  103 176 
 RUS  HZ I         147  3.96        33.8 0.26            143            103 176 
 PTB  HZ EP        146 47.55                             131   -0.45 9  147 258 
 PTB  HN ES        147  8.18                             131   -0.63 9  147 258 
 PTB  HZ I         147  9.89        15.8 0.14            130            147 258 
 SPBC HZ EP        146 49.46                             128   -0.22 9  164 218 
 SPBC HN ES        147 11.45                             128   -0.36 9  164 218 
 SPBC HZ I         147 16.13        54.0 0.24            128            164 218 
 ZAR  HZ EP        146 53.16                             122   -0.24 9  202 292 
 ZAR  HE ES        147 17.97                             122   -0.46 9  202 292 
 ZAR  HZ I         147 24.95        38.6 0.36            122            202 292 
 TABC EZ EP        146 58.08                             118    1.06 8  231 210 
 TABC EZ ES   4    147 26.89                             118    2.01 0  231 210 
 TABC EZ I         147 29.61        30.6 0.44            119            231 210 
 NOR  HZ EP        146 56.60                             118   -0.32 8  235 234 
 NOR  HN ES        147 24.80                             118    0.11 8  235 234 
 NOR  HZ I         147 26.78        15.3 0.22            118            235 234 
 CHI  HZ EP        146 58.60                             116   -0.43 8  250 195 
 CHI  HN ES        147 27.78                             116   -0.68 8  250 195 
 CHI  HZ I         147 31.25        25.3 0.50            117            250 195 
 ROSC BZ EP        147  0.51                             116    1.10 8  254 211 
 ROSC BN ES   4    147 30.82                             116    1.70 0  254 211 
 ROSC BZ I         147 34.09        40.4 0.45            116            254 211 
 HEL  HZ EP   4    147  4.71                             114    3.38 0  272 255 
 HEL  HN ES        147 32.56                             114    0.01 8  272 255 
 HEL  HZ I         147 38.29        12.4 0.24            114            272 255 
 URE  HZ EP        147  1.03                             113   -1.03 7  282 292 
 URE  HE ES   4    147 31.66                             113   -2.19 0  282 292 
 URE  HZ I         147 44.12        17.8 0.22            113            282 292 
 VIL  EZ EP   4    147  6.77                             111    1.97 0  305 191 
 VIL  EN ES        147 38.56                             111   -0.16 7  305 191 
 VIL  EZ I         147 41.07        34.2 0.38            112            305 191 
 PTGC HZ EP   9    147  3.59                             111   -1.70 0  311 159 
 PTGC HN ES        147 37.62                             110   -0.27 7  311 159 
 PTGC HZ I         147 41.84        24.9 0.30            112            311 159 
 ELA  HZ EP        147  9.38                             110    1.27 7  330 229 
 ELA  HN ES   4    147 48.47                             110    3.86 0  330 229 
 ELA  HZ I         147 52.69        20.4 0.84            110            330 229 
 CBOC HZ EP        147  9.12                             109    1.04 7  333 252 
 CBOC HN ES        147 45.10                             109    0.55 7  333 252 
 CBOC HZ I         147 49.96         4.2 0.52            110            333 252 
 DBB  EZ EP        147  8.63                             109    0.08 7  338 274 
 DBB  EN ES   4    147 43.64                             109   -1.75 0  338 274 
 DBB  EZ I         147 44.93         7.4 0.30            109            338 274 
 PRA  HZ EP        147 14.13                             106   -0.75 6  393 209 
 PRA  HN ES        147 56.88                             106    0.21 6  393 209 
 PRA  HZ I         148  2.16        15.9 0.26            106            393 209 
 ORTC HZ EP        147 14.77                             106   -0.49 6  396 216 
 ORTC HN ES        147 58.30                             106    0.97 6  396 216 
 ORTC HZ I         148  1.63        11.6 0.48            106            396 216 
 PAL  HZ EP   4    147 18.29                             105    1.89 0  406 239 
 PAL  HN ES        147 59.49                             105    0.12 6  406 239 
 PAL  HZ I         148  1.99         5.1 0.24            106            406 239 
 SJC  HZ EP   9    147 14.57                             105   -1.95 0  407 327 
 SJC  HN ES        147 55.76                             106   -1.87 6  407 327 
 SJC  HZ I         148  0.11         6.0 0.62            106            407 327 
                                                                                
