 2016  731 0529 45.9 L   6.761 -73.115145.7  RSN  7 0.3 1.5LRSN                1
 GAP=142        0.66       3.0     4.0  4.3 -0.2997E+01  0.4736E+01  0.1224E+00E
 Epicentro: LOS SANTOS - SANTANDER                                             3
 ACTION:UPD 17-03-29 16:57 OP:lp   STATUS:               ID:20160731052945 L   I
 OLDACT:REG 16-07-31 12:51 OP:edw  STATUS:               ID:20160731052734     3
 2016-07-31-0528-00M.COL___347                                                 6
 STAT SP IPHASW D HRMM SECON CODA AMPLIT PERI AZIMU VELO AIN AR TRES W  DIS CAZ7
 BAR2 EZ EP        530  5.28                             172   -0.2110 20.0 202 
 BAR2 EZ ES        530 20.70                             172   -0.0510 20.0 202 
 BRR  HZ IP     C  530  6.98                             151   -0.3910 76.3 300 
 BRR  HE ES        530 24.32                             151    0.2310 76.3 300 
 BRR  HZ I         530 28.50         5.5 0.26            149           76.3 300 
 PAM  EZ EP        530  8.20                             150   -0.0210 78.8  36 
 PAM  EE ES        530 25.59                             150   -0.0210 78.8  36 
 PAM  EZ I         530 27.69         6.2 0.66            153           78.8  36 
 RUS  HZ EP        530  9.54                             145    0.1910 96.1 178 
 RUS  HN ES        530 27.92                             145    0.2910 96.1 178 
 RUS  HZ I         530 29.32         2.9 0.18            149           96.1 178 
 SPBC HZ EP        530 14.24                             129   -0.07 9  162 221 
 SPBC HN ES        530 36.02                             129   -0.43 9  162 221 
 SPBC HZ I         530 39.15         4.9 0.32            131            162 221 
 ZAR  HZ EP        530 19.23                             122    0.37 8  209 293 
 ZAR  HE ES   4    530 43.20                             122   -1.35 0  209 293 
 ZAR  HZ I         530 49.26         3.4 0.50            122            209 293 
 GUY2CHZ EP   2    530 30.16                             112    0.59 4  301 236 
 GUY2CHN ES   2    531  4.17                             112    0.57 4  301 236 
 GUY2CHZ I         531 13.72         1.0 0.40                           301 236 
                                                                                
