 2013 1031 0915  6.9 L   6.828 -73.149145.5  RSN 17 0.5 2.5LRSN                1
 GAP=118        1.13       3.2     4.3  5.5 -0.2899E+01  0.6612E+01 -0.3508E+00E
 Epicentro: LOS SANTOS - SANTANDER                                             3
 ACTION:UPD 13-11-25 09:24 OP:ep   STATUS:               ID:20131031091506 L   I
 OLDACT:REG 13-10-31 06:03 OP:jn   STATUS:               ID:20131031091000     3
 2013-10-31-0910-00M.COL___273                                                 6
 STAT SP IPHASW D HRMM SECON CODA AMPLIT PERI AZIMU VELO AIN AR TRES W  DIS CAZ7
 BAR2 SZ EP        915 26.80                             169    0.2210 26.3 188 
 BAR2 SZ ES        915 41.93                             169    0.0110 26.3 188 
 BAR2 SZ I         915 44.41        47.9 0.16            164           26.3 188 
 BRR  HZ EP        915 28.47                             153    0.5310 69.5 296 
 BRR  HN ES        915 45.03                             153    0.6910 69.5 296 
 BRR  HZ I         915 49.15        71.7 0.14            147           69.5 296 
 PAM  SZ EP        915 29.59                             151    0.6110 75.2  41 
 PAM  SN ES   1    915 46.51                             151    0.32 7 75.2  41 
 PAM  SZ I         915 48.60        81.2 0.50            152           75.2  41 
 RUS  HZ EP        915 30.85                             143   -0.0210  104 176 
 RUS  HN ES        915 48.72                             143   -0.8310  104 176 
 RUS  HZ I         915 50.90        23.9 0.24            137            104 176 
 PTB  HZ EP        915 33.24                             132   -0.65 9  148 258 
 PTB  HN ES        915 54.36                             132   -0.57 9  148 258 
 PTB  HZ I         916  1.38        26.1 0.18            125            148 258 
 OCA  HZ EP        915 34.54                             130   -0.37 9  157 353 
 OCA  HN ES   1    915 56.37                             130   -0.39 7  157 353 
 OCA  HZ I         915 59.76        41.0 0.24            127            157 353 
 SPBC HZ EP        915 35.84                             129    0.24 9  165 218 
 SPBC HE ES        915 57.96                             129   -0.02 9  165 218 
 SPBC HZ I         916  5.44        42.1 0.30            122            165 218 
 ZAR  HZ EP        915 39.20                             122    0.01 9  203 291 
 ZAR  HN ES   1    916  4.05                             122   -0.32 6  203 291 
 ZAR  HZ I         916 10.99        51.6 0.42            117            203 291 
 NOR  HZ EP        915 43.15                             118    0.36 8  236 234 
 NOR  HN ES        916 10.79                             118    0.01 8  236 234 
 NOR  HZ I         916 17.07        21.5 0.18            113            236 234 
 SML  HZ EP        915 42.96                             118   -0.25 8  241 335 
 SML  HN ES        916 10.99                             118   -0.53 8  241 335 
 HEL  HZ EP        915 46.39                             115   -0.77 8  273 255 
 HEL  HZ IP        915 46.39                             115            273 255 
 HEL  HN ES   1    916 18.82                             115    0.26 6  273 255 
 HEL  HZ I         916 25.71        14.4 0.30            110            273 255 
 GUY2CHZ EP        915 51.05                             112    0.37 7  303 234 
 GUY2CHN ES        916 25.44                             112    0.62 7  303 234 
 GUY2CHZ I         916 33.82        17.6 0.78                           303 234 
 PTGC HZ EP   1    915 50.08                             111   -1.02 5  312 159 
 PTGC HN ES   4    916 23.37                             111   -2.19 0  312 159 
 RREF HZ EP   1    915 53.04                             111   -0.21 5  324 229 
 RREF HN ES   1    916 28.88                             111   -0.51 5  324 229 
 RREF HZ I         916 39.75        20.1 0.36            106            324 229 
 CBOC HZ EP        915 54.59                             110    0.70 7  334 252 
 CBOC HZ I         916 40.36         4.3 0.48            106            334 252 
 TOL  SZ EP   1    915 56.94                             109    1.55 5  345 224 
 MACC HZ EP   4    916 14.12                             101   -1.86 0  524 189 
 MACC HZ I         917 16.34         4.0 0.50             98            524 189 
                                                                                
