 2015  731 0246 52.5 L   6.859 -73.640 98.0  RSN  6 0.4 1.9LRSN                1
 GAP=136        1.10       5.2     4.6  8.6  0.1138E+02  0.2354E+02  0.2024E+02E
 Epicentro: EL CARMEN - SANTANDER                                              3
 ACTION:UPD 15-09-08 21:51 OP:cam  STATUS:               ID:20150731024652 L   I
 OLDACT:REG 15-07-31 12:18 OP:drio STATUS:               ID:20150731023740     3
 2015-07-31-0237-40M.COL___346                                                 6
 STAT SP IPHASW D HRMM SECON CODA AMPLIT PERI AZIMU VELO AIN AR TRES W  DIS CAZ7
 BRR  HZ EP        247  5.71                             163   -0.5810 28.6 344 
 BRR  HE ES        247 17.41                             163    0.4010 28.6 344 
 BRR  HZ I         247 18.29        31.1 0.14            166           28.6 344 
 BAR2 EZ EP        247  8.05                             147   -0.1810 58.6 120 
 BAR2 EZ ES        247 20.47                             147    0.0110 58.6 120 
 BAR2 EZ I         247 22.01        54.5 0.40            150           58.6 120 
 RUS  HZ EP        247 14.13                             125   -0.0710  123 150 
 RUS  HE ES        247 31.38                             125    0.3010  123 150 
 RUS  HZ I         247 32.95        11.2 0.36            127            123 150 
 ZAR  HZ EP        247 16.35                             119   -0.18 9  152 298 
 ZAR  HN ES        247 35.14                             119   -0.10 9  152 298 
 ZAR  HZ I         247 37.15        18.4 0.56            121            152 298 
 NOR  HZ EP        247 22.07                             112    0.36 9  198 224 
 NOR  HN ES        247 43.47                             112   -0.99 9  198 224 
 NOR  HZ I         247 49.30         6.8 0.24            113            198 224 
 HEL  HZ EP        247 25.58                             110    0.70 8  222 251 
 HEL  HN ES        247 50.63                             110    0.53 8  222 251 
 HEL  HZ I         247 52.28         2.9 0.46            110            222 251 
                                                                                
