 2015  831 0845 35.3 L   6.815 -73.183149.4  RSN  7 0.3 1.9LRSN                1
 GAP=179        0.83       2.5     7.5  5.4 -0.8996E+00 -0.3440E+01  0.6857E+00E
 Epicentro: ZAPATOCA - SANTANDER                                               3
 ACTION:UPD 15-09-15 23:06 OP:cam  STATUS:               ID:20150831084535 L   I
 OLDACT:UP  15-09-01 11:28 OP:ar   STATUS:               ID:20150831084535 L   3
 OLDACT:UP  15-08-31 17:45 OP:stll STATUS:               ID:20150831083749     3
 OLDACT:UP  15-08-31 17:44 OP:stll STATUS:               ID:20150831083749     3
 OLDACT:REG 15-08-31 14:04 OP:stll STATUS:               ID:20150831083749     3
 2015-08-31-0837-49M.COL___352                                                 6
 STAT SP IPHASW D HRMM SECON CODA AMPLIT PERI AZIMU VELO AIN AR TRES W  DIS CAZ7
 BAR2 EZ EP        845 55.32                             170   -0.0210 24.6 180 
 BAR2 EZ ES        846 10.56                             170   -0.4510 24.6 180 
 BAR2 EZ I         846 11.86        20.2 0.18            175           24.6 180 
 BRR  HN ES        846 13.53                             154    0.3610 66.8 299 
 RUS  HZ EP        845 59.46                             144   -0.0410  103 174 
 RUS  HN ES   4    846 16.23                             144   -2.19 0  103 174 
 RUS  HZ I         846 19.14         7.6 0.20            149            103 174 
 OCA  HZ EP        846  3.64                             131   -0.01 9  158 355 
 OCA  HN ES        846 26.30                             131    0.50 9  158 355 
 OCA  HZ I         846 41.10        21.2 0.56            129            158 355 
 SPBC HZ EP        846  4.04                             130    0.13 9  162 217 
 SPBC HE ES        846 25.88                             130   -0.39 9  162 217 
 SPBC HZ I         846 28.94        10.8 0.32            132            162 217 
 SML  HZ EP        846 11.38                             118   -0.36 8  240 336 
 SML  HN ES        846 39.90                             118   -0.30 8  240 336 
 SML  HZ I         846 47.43         6.2 0.10            118            240 336 
 CHI  HZ EP        846 13.17                             118   -0.05 8  249 194 
 CHI  HZ I         846 14.13         2.4 0.34            120            249 194 
 CHI  HN ES        846 43.50                             118    0.68 8  249 194 
                                                                                
