 2012  831 0104 10.7 L   6.784 -73.119138.1  RSN  7 0.5 1.8LRSN                1
 GAP=141        0.94       5.0     9.3  8.2  0.8829E+01 -0.1453E+02 -0.2144E+01E
 Epicentro: LOS SANTOS - SANTANDER                                             3
 ACTION:UPD 12-09-10 11:59 OP:ep   STATUS:               ID:20120831010410 L   I
 2012-08-31-0100-00M.COL___218                                                 6
 STAT SP IPHASW D HRMM SECON CODA AMPLIT PERI AZIMU VELO AIN AR TRES W  DIS CAZ7
 BAR2 SZ EP        1 4 29.53                             170    0.1010 22.3 198 
 BAR2 SZ ES   1    1 4 44.15                             170    0.14 7 22.3 198 
 BAR2 SZ I         1 4 45.58        20.5 0.26                          22.3 198 
 GIR2 SZ EP        1 4 29.58                             165    0.0010 33.6 346 
 GIR2 SZ ES   1    1 4 43.68                             165   -0.58 7 33.6 346 
 BRR  HZ EP        1 4 31.43                             149    0.1510 74.7 299 
 BRR  HN ES   1    1 4 48.22                             149    0.93 7 74.7 299 
 BRR  HZ I         1 4 52.73        27.2 0.16                          74.7 299 
 PAM  SZ EP        1 4 32.54                             150    0.4210 76.9  37 
 RUS  HZ EP        1 4 33.32                             143   -0.2910 98.6 178 
 RUS  HN ES   1    1 4 51.16                             143   -0.28 7 98.6 178 
 RUS  HZ I         1 4 52.53         5.3 0.44                          98.6 178 
 PTB  HZ EP   2    1 4 37.13                             129   -0.21 5  150 260 
 PTB  HN ES   3    1 4 57.02                             129   -1.06 2  150 260 
 OCA  HN ES   1    1 4 59.62                             127   -0.85 7  162 352 
                                                                                
