 2017  131 0419 18.1 L   6.818 -73.152146.9  RSN 13 0.5 2.1LRSN                1
 GAP=103        1.18       4.4     3.5  6.3 -0.3912E+00  0.4798E+01  0.3417E+01E
 Epicentro: LOS SANTOS - SANTANDER                                             3
 ACTION:UPD 17-05-22 16:05 OP:jn   STATUS:               ID:20170131041918 L   I
 OLDACT:UP  17-01-31 15:50 OP:dnl  STATUS:               ID:20170131041741     3
 OLDACT:REG 17-01-31 14:13 OP:dnl  STATUS:               ID:20170131041741     3
 2017-01-31-0418-00M.COL___343                                                 6
 STAT SP IPHASW D HRMM SECON CODA AMPLIT PERI AZIMU VELO AIN AR TRES W  DIS CAZ7
 BAR2 EZ EP        419 37.75                             170   -0.1710 25.2 188 
 BAR2 EZ ES        419 52.33                             170   -1.0310 25.2 188 
 BAR2 EZ I         419 53.96        40.3 0.24            170           25.2 188 
 BRR  HZ EP        419 39.55                             153    0.2510 69.6 297 
 BRR  HE ES        419 56.79                             153    0.9710 69.6 297 
 BRR  HZ I         420  1.50        20.7 0.16            152           69.6 297 
 PAM  EZ EP        419 40.69                             151    0.3010 76.3  41 
 PAM  EN ES        419 57.86                             151    0.1010 76.3  41 
 PAM  EZ I         419 59.87        36.7 0.50            147           76.3  41 
 RUS  HZ EP   2    419 41.86                             144   -0.26 5  103 176 
 RUS  HE ES        420  1.06                             144    0.2210  103 176 
 RUS  HZ I         420  1.52        19.5 0.24            141            103 176 
 PTB  HZ EP        419 44.42                             132   -0.72 9  147 258 
 PTB  HE ES        420  6.06                             132   -0.16 9  147 258 
 PTB  HZ I         420  7.62        14.9 0.15            130            147 258 
 TAM  HZ IP     C  419 46.14                             131    0.15 9  156 106 
 TAM  HZ I         420  6.48         3.8 0.46            126            156 106 
 TAM  HN ES        420  7.92                             131    0.19 9  156 106 
 ZAR  HZ EP   2    419 50.40                             123   -0.09 4  203 292 
 ZAR  HN ES        420 15.32                             123   -0.42 9  203 292 
 ZAR  HZ I         420 22.80        12.6 0.28            120            203 292 
 NOR  HZ EP        419 54.27                             119    0.30 8  235 234 
 NOR  HE ES        420 22.35                             119    0.42 8  235 234 
 NOR  HZ I         420 26.43        11.9 0.20            116            235 234 
 CHI  HZ EP        419 55.96                             117   -0.10 8  250 195 
 CHI  HN ES        420 25.36                             117   -0.29 8  250 195 
 CHI  HZ I         420 28.78         9.5 0.44            114            250 195 
 ROSC BZ EP   9    419 58.16                             117    1.72 0  254 211 
 ROSC BN ES        420 28.75                             116    0.70 8  254 211 
 ROSC BZ I         420 32.23        13.3 0.45            114            254 211 
 URE  HZ EP        419 58.30                             114   -0.78 7  282 292 
 URE  HN ES   4    420 28.65                             114   -2.39 0  282 292 
 URE  HZ I         420 31.59         8.4 0.12            111            282 292 
 LL6C HZ EP   4    419 43.65                             111   -20.0 0  323 358 
 LL6C HE ES   4    420 18.35                             111   -20.8 0  323 358 
 CBOC HZ EP   2    420  5.87                             110    0.80 3  334 252 
 CBOC HN ES        420 42.43                             110    0.74 7  334 252 
 CBOC HZ I         420 42.85         2.9 0.26            108            334 252 
 SJC  HZ EP   4    420 11.90                             106   -1.57 0  407 327 
 SJC  HN ES   4    420 52.50                             106   -4.15 0  407 327 
 SJC  HZ I         421  0.53         2.6 0.50            103            407 327 
                                                                                
