 2012  831 0323  7.2 L   6.770 -73.420 28.8  RSN  5 0.3 1.0LRSN                1
 GAP= 99        0.76       4.3     3.5  6.1  0.9496E+01  0.1462E+02  0.2185E+02E
 Epicentro: EL CARMEN DE CHUCURI - SANTANDER                                   3
 ACTION:UPD 12-09-10 11:59 OP:ep   STATUS:               ID:20120831032307 L   I
 2012-08-31-0320-00M.COL___218                                                 6
 STAT SP IPHASW D HRMM SECON CODA AMPLIT PERI AZIMU VELO AIN AR TRES W  DIS CAZ7
 BAR2 SZ EP   1    323 14.45                             127    0.04 7 32.8 127 
 BAR2 SZ ES   2    323 19.79                             127   -0.22 5 32.8 127 
 BAR2 SZ I         323 20.84         8.3 0.50                          32.8 127 
 GIR2 SZ EP        323 15.72                             118    0.2910 42.3  36 
 GIR2 SZ ES   1    323 21.39                             118   -0.45 7 42.3  36 
 BRR  HZ EP        323 15.93                             112   -0.2310 49.3 319 
 BRR  HZ I         323 16.21        11.7 0.50                          49.3 319 
 BRR  HE ES   1    323 23.24                             112    0.10 7 49.3 319 
 RUS  HZ EP        323 24.49                              61    0.4910  104 159 
 RUS  HZ I         323 24.61         3.2 0.18                           104 159 
 RUS  HE ES   1    323 36.50                              61   -0.59 7  104 159 
 PTB  HZ EP        323 25.27                              61    0.1610  117 258 
 PTB  HN ES   1    323 38.81                              61   -0.25 7  117 258 
 PTB  HZ I         323 39.48         3.7 0.16                           117 258 
                                                                                
