 2016  131 0855 52.8 L   6.836 -73.088148.0  RSN  6 0.5 1.4LRSN                1
 GAP=206        1.17       5.3     7.3  9.5  0.7471E+01  0.1286E+02 -0.2026E+02E
 Epicentro: LOS SANTOS - SANTANDER                                             3
 ACTION:UPD 16-03-09 23:30 OP:cam  STATUS:               ID:20160131085552 L   I
 OLDACT:UP  16-01-31 18:19 OP:ak   STATUS:               ID:20160131084600     3
 OLDACT:REG 16-01-31 14:38 OP:ak   STATUS:               ID:20160131084600     3
 2016-01-31-0845-59S.COL___226                                                 6
 STAT SP IPHASW D HRMM SECON CODA AMPLIT PERI AZIMU VELO AIN AR TRES W  DIS CAZ7
 BAR2 EZ EP        856 12.14                             169   -0.7110 28.9 201 
 BAR2 EZ ES        856 28.97                             169    0.5010 28.9 201 
 BAR2 EZ I         856 30.49         3.3 0.34            167           28.9 201 
 RUS  HZ EP   2    856 17.52                             143    0.45 5  104 180 
 RUS  HN ES        856 36.00                             143    0.0210  104 180 
 RUS  HZ I         856 38.76         2.0 0.50            146            104 180 
 PTB  HZ EP        856 20.12                             131   -0.50 9  155 258 
 PTB  HN ES        856 41.56                             131   -0.73 9  155 258 
 PTB  HZ I         856 46.15         2.8 0.41            131            155 258 
 SPBC HZ EP        856 22.36                             128    0.19 9  170 220 
 SPBC HN ES        856 45.24                             128    0.18 9  170 220 
 SPBC HZ I         856 51.31         2.8 0.10            130            170 220 
 ZAR  HZ EP        856 26.56                             122    0.68 8  209 290 
 ZAR  HN ES        856 52.30                             122    0.64 8  209 290 
 ZAR  HZ I         856 57.63         3.2 0.34            123            209 290 
 SML  HZ EP        856 29.70                             118    0.21 8  243 334 
 SML  HN ES        856 57.69                             118   -0.40 8  243 334 
 SML  HZ I         857  3.58         2.6 0.05            120            243 334 
                                                                                
