 2016  531 0815  2.5 L   6.286 -73.647114.9  RSN  5 0.3 1.1LRSN                1
 GAP= 89        0.70       3.2     3.0  6.8  0.6990E+00  0.2130E+01  0.2750E+00E
 Epicentro: SANTA HELENA DEL OPON - SANTANDER                                  3
 ACTION:UPD 16-08-18 17:51 OP:cam  STATUS:               ID:20160531081502 L   I
 OLDACT:REG 16-05-31 14:53 OP:edw  STATUS:               ID:20160531080742     3
 2016-05-31-0807-42M.COL___310                                                 6
 STAT SP IPHASW D HRMM SECON CODA AMPLIT PERI AZIMU VELO AIN AR TRES W  DIS CAZ7
 BAR2 EZ IP        815 20.31                             150    0.1510 61.6  57 
 BAR2 EZ ES        815 33.75                             150   -0.1610 61.6  57 
 BAR2 EZ I         815 35.25         5.8 0.32            155           61.6  57 
 RUS  HZ EP        815 21.47                             144   -0.0110 76.1 125 
 RUS  HE ES        815 36.05                             144   -0.2110 76.1 125 
 RUS  HZ I         815 37.84         1.8 0.20            146           76.1 125 
 SPBC HN ES        815 36.72                             141    0.3810 84.4 214 
 SPBC HZ I         815 41.91         5.5 0.10            141           84.4 214 
 BRR  HN ES        815 37.42                             139    0.3610 91.1 355 
 PTB  HZ EP        815 22.01                             138   -0.1610 93.8 287 
 PTB  HN ES        815 37.14                             138   -0.3510 93.8 287 
 PTB  HZ I         815 37.54         2.1 0.24            141           93.8 287 
                                                                                
