 2011  331 0246 16.2 L   6.783 -73.037147.7  RSN  4 0.3 1.4LRSN                1
 GAP=206        0.75      13.2    34.9 12.3 -0.3950E+03 -0.2415E+03  0.7191E+02E
 Epicentro: CEPITA - SANTANDER                                                 3
 ACTION:UP  11-06-16 14:36 OP:jfem STATUS:               ID:20110331024617dL   I
 2011-03-31-0242-31S.COL___138                                                 6
 STAT SP IPHASW D HRMM SECON CODA AMPLIT PERI AZIMU VELO SNR AR TRES W  DIS CAZ7
 BAR2 SZ EP        246 35.77                             167    -0.410   27 217 
 BAR2 SZ ES   2    246 51.75                             167     0.1 5   27 217 
 BAR2 SZ I         246 54.16         3.9 0.43                            27 217 
 BTL  SZ EP        246 36.65                             164     0.510   30 300 
 BTL  SZ ES   2    246 51.52                             164    -0.3 5   30 300 
 BRR  HZ EP   3    246 37.73                             146    -0.5 2   83 296 
 BRR  HZ I         246 39.58         4.9 0.25                            83 296 
 GRA  SZ EP        246 41.54                             137     0.010  124  12 
 GRA  SZ ES   1    247  1.14                             137    -0.1 7  124  12 
 GRA  SZ I         247  2.86         3.7 0.23                           124  12 
                                                                                
