 2011  131 0317 50.8 L   5.828 -73.885102.0  RSN  5 0.3 1.5LRSN                1
 GAP=120        0.66       3.0     2.7  8.8 -0.1152E+01  0.7595E+01 -0.1196E+01E
 Epicentro: ALBANIA - SANTANDER                                                3
 ACTION:UP  11-02-08 08:44 OP:pat  STATUS:               ID:20110131031751 L   I
 2011-01-31-0314-22S.COL___135                                                 6
 STAT SP IPHASW D HRMM SECON CODA AMPLIT PERI AZIMU VELO SNR AR TRES W  DIS CAZ7
 RUS  HZ EP        318  9.39                             135    -0.110   89  85 
 RUS  HN ES   1    318 24.09                             135    -0.1 7   89  85 
 RUS  HZ I         318 27.17         6.3 1.04                            89  85 
 NOR  SZ EP   1    318 10.76                             127    -0.3 7  113 255 
 NOR  SE ES   1    318 26.77                             127    -0.2 7  113 255 
 BAR2 SZ EP   1    318 11.16                             127    -0.3 7  115  43 
 BAR2 SZ ES   1    318 28.05                             127     0.4 7  115  43 
 BAR2 SZ I         318 28.41        23.1 0.37                           115  43 
 CHI  HZ EP        318 13.63                             122     0.010  134 173 
 CHI  HN ES        318 31.63                             122     0.210  134 173 
 CHI  HZ I         318 34.39         4.4 0.29                           134 173 
 HEL  HZ EP   1    318 19.79                             114     0.5 7  186 283 
 HEL  HN ES   1    318 41.58                             114     0.1 7  186 283 
 HEL  HZ I         318 42.28         2.6 0.64                           186 283 
                                                                                
