 2016  331 0501 39.5 L   7.433 -73.200135.0  RSN  8 0.3 1.3LRSN                1
 GAP= 79        0.79       2.8     2.6  5.5  0.1070E+00  0.1744E+01  0.3688E+01E
 Epicentro: EL PLAYON - SANTANDER                                              3
 ACTION:UPD 16-05-13 21:29 OP:cam  STATUS:               ID:20160331050139 L   I
 OLDACT:UP  16-03-31 15:02 OP:drio STATUS:               ID:20160331045744     3
 OLDACT:UP  16-03-31 15:02 OP:drio STATUS:               ID:20160331045744     3
 OLDACT:REG 16-03-31 12:21 OP:drio STATUS:               ID:20160331045744     3
 2016-03-31-0457-44M.COL___287                                                 6
 STAT SP IPHASW D HRMM SECON CODA AMPLIT PERI AZIMU VELO AIN AR TRES W  DIS CAZ7
 PAM  EZ EP        5 1 59.58                             156    0.1410 56.2 101 
 PAM  EN ES        5 2 14.78                             156   -0.1710 56.2 101 
 PAM  EZ I         5 2 15.51         3.5 0.18            159           56.2 101 
 OCA  HZ EP        5 2  1.11                             144    0.1010 90.0 352 
 OCA  HE ES        5 2 17.75                             144    0.0110 90.0 352 
 OCA  HZ I         5 2 19.90        10.0 0.24            148           90.0 352 
 PTB  HZ EP        5 2  7.84                             125   -0.02 9  170 235 
 PTB  HE ES        5 2 29.55                             125   -0.39 9  170 235 
 PTB  HZ I         5 2 32.83         2.1 0.40            126            170 235 
 RUS  HZ EP        5 2  8.23                             125   -0.31 9  171 176 
 RUS  HE ES        5 2 30.67                             125   -0.48 9  171 176 
 RUS  HZ I         5 2 33.11         0.9 0.24            126            171 176 
 ZAR  HZ EP        5 2  9.18                             123    0.04 9  183 272 
 ZAR  HE ES        5 2 32.43                             123    0.22 9  183 272 
 ZAR  HZ I         5 2 33.68         2.5 0.18            124            183 272 
 TAM  HZ EP        5 2  9.98                             122    0.00 9  191 125 
 TAM  HE ES        5 2 34.18                             122    0.47 9  191 125 
 TAM  HZ I         5 2 34.71         2.6 0.22            124            191 125 
 SPBC HZ EP        5 2 12.76                             118   -0.29 8  219 206 
 SPBC HE ES        5 2 40.05                             118    0.87 8  219 206 
 SPBC HZ I         5 2 46.85         2.9 0.20            119            219 206 
 SDV  BZ EP        5 2 24.94                             108   -0.17 7  325  60 
 SDV  BE ES   4    5 2 58.12                             108   -2.53 0  325  60 
                                                                                
