 2011  731 0609 46.1 L   6.734 -73.099151.8  RSN  9 0.3 1.7LRSN                1
 GAP=146        0.62       3.5     5.0  6.1 -0.4312E+01 -0.1658E+01 -0.4622E+01E
 Epicentro: JORDAN - SANTANDER                                                 3
 ACTION:UPD 12-07-25 14:04 OP:epov STATUS:               ID:20110731060946 L   I
 2011-07-31-0609-20S.COL___142                                                 6
 STAT SP IPHASW D HRMM SECON CODA AMPLIT PERI AZIMU VELO AIN AR TRES W  DIS CAZ7
 BAR2 SZ EP   1    610  6.23                             173   -0.18 8 18.2 210 
 BAR2 SZ ES   2    610 21.98                             173   -0.25 5 18.2 210 
 BAR2 SZ I         610 22.37        10.1 0.38                          18.2 210 
 BRR  HZ EP   1    610  7.98                             151   -0.43 8 79.3 301 
 BRR  HZ I         610  8.21        23.0 0.16                          79.3 301 
 BRR  HN ES   1    610 26.12                             151    0.34 8 79.3 301 
 PAM  SZ EP   1    610  8.90                             151   -0.27 8 80.2  33 
 PAM  SN ES   2    610 26.75                             151   -0.38 5 80.2  33 
 RUS  HZ EP   1    610 10.21                             147    0.22 8 93.1 179 
 RUS  HN ES   1    610 28.79                             147    0.21 8 93.1 179 
 RUS  HZ I         610 29.87         4.3 0.26                          93.1 179 
 BRI  SZ EP   1    610 10.65                             141   -0.36 8  114  17 
 GRA  SZ EP        610 12.93                             137    0.5410  131  14 
 GRA  SZ ES   2    610 32.75                             137   -0.11 5  131  14 
 GRA  SZ I         610 33.47         5.5 0.32                           131  14 
 OCA  SZ EP   1    610 15.65                             130   -0.01 7  168 352 
 OCA  SZ I         610 34.30         6.5 0.43                           168 352 
 OCA  SZ ES   2    610 38.76                             130    0.07 5  168 352 
 NOR  SE ES   2    610 49.82                             120   -0.59 4  235 237 
 HEL  HN ES   2    610 59.14                             116    0.21 4  275 258 
                                                                                
