 2017  131 0911 53.2 L   6.777 -73.120141.0  RSN 18 0.4 2.4LRSN                1
 GAP= 97        0.86       3.0     2.6  4.1  0.6398E+00  0.2917E+01  0.2981E+01E
 Epicentro: LOS SANTOS - SANTANDER                                             3
 ACTION:UPD 17-05-22 16:05 OP:jn   STATUS:               ID:20170131091153 L   I
 OLDACT:UP  17-01-31 16:48 OP:and  STATUS:               ID:20170131090642     3
 OLDACT:UP  17-01-31 16:48 OP:and  STATUS:               ID:20170131090642     3
 OLDACT:UP  17-01-31 16:47 OP:and  STATUS:               ID:20170131090642     3
 OLDACT:UP  17-01-31 16:46 OP:and  STATUS:               ID:20170131090642     3
 OLDACT:UP  17-01-31 16:45 OP:and  STATUS:               ID:20170131090642     3
 OLDACT:UP  17-01-31 16:44 OP:and  STATUS:               ID:20170131090642     3
 OLDACT:UP  17-01-31 16:44 OP:and  STATUS:               ID:20170131090642     3
 OLDACT:UP  17-01-31 16:42 OP:and  STATUS:               ID:20170131090642     3
 OLDACT:UP  17-01-31 16:41 OP:and  STATUS:               ID:20170131090642     3
 OLDACT:UP  17-01-31 16:40 OP:and  STATUS:               ID:20170131090642     3
 OLDACT:UP  17-01-31 16:40 OP:and  STATUS:               ID:20170131090642     3
 OLDACT:UP  17-01-31 16:37 OP:and  STATUS:               ID:20170131090642     3
 OLDACT:UP  17-01-31 16:36 OP:and  STATUS:               ID:20170131090642     3
 OLDACT:REG 17-01-31 14:20 OP:dnl  STATUS:               ID:20170131090642     3
 2017-01-31-0908-00M.COL___325                                                 6
 STAT SP IPHASW D HRMM SECON CODA AMPLIT PERI AZIMU VELO AIN AR TRES W  DIS CAZ7
 BAR2 EZ IP     C  912 12.05                             171   -0.1910 21.5 199 
 BAR2 EZ ES        912 27.22                             171    0.1410 21.5 199 
 BAR2 EZ I         912 27.69        76.4 0.28            168           21.5 199 
 BRR  HZ IP     C  912 13.96                             150   -0.1210 74.9 299 
 BRR  HN ES        912 30.86                             150    0.5210 74.9 299 
 BRR  HZ I         912 32.53        63.4 0.12            150           74.9 299 
 PAM  EZ IP     C  912 14.95                             150    0.0010 77.7  37 
 PAM  EN ES        912 31.67                             150   -0.2210 77.7  37 
 PAM  EZ I         912 34.10        39.2 0.19            153           77.7  37 
 RUS  HZ IP     C  912 16.00                             144   -0.3110 97.8 178 
 RUS  HN ES        912 33.92                             144   -0.3910 97.8 178 
 PTB  HZ EP   9    912 18.66                             130   -1.36 0  150 260 
 PTB  HN ES        912 39.51                             132   -0.05 9  150 260 
 PTB  HZ I         912 42.04        55.7 0.18            129            150 260 
 TAM  HZ IP     C  912 20.42                             130    0.21 9  152 104 
 TAM  HN ES        912 41.70                             130    0.45 9  152 104 
 TAM  HZ I         912 42.49        43.6 0.24            131            152 104 
 ZAR  HZ EP        912 25.10                             121   -0.64 8  208 293 
 ZAR  HN ES        912 50.98                             121   -0.12 8  208 293 
 ZAR  HZ I         912 59.09        45.0 0.26            121            208 293 
 CHI  HZ EP        912 30.34                             116   -0.13 8  247 196 
 CHI  HN ES        912 59.10                             116   -0.42 8  247 196 
 CHI  HZ I         913  2.72         9.8 0.22            116            247 196 
 ROSC BZ EP        912 31.86                             116    0.85 8  252 212 
 ROSC BN ES   4    913  3.02                             116    2.54 0  252 212 
 ROSC BZ I         913  6.94        20.5 0.30            115            252 212 
 URE  HZ EP   9    912 32.47                             112   -2.00 0  287 292 
 URE  HN ES        913  4.34                             113   -0.30 7  287 292 
 URE  HZ I         913  7.28        29.8 0.14            112            287 292 
 PTGC HZ IP   9    912 35.37                             111   -1.11 0  305 159 
 PTGC HN ES        913  8.52                             111   -0.59 7  305 159 
 PTGC HZ I         913 14.65        20.6 0.34            111            305 159 
 LL6C HZ EP   9    912 21.46                             109   -17.6 0  328 357 
 LL6C HE ES   4    912 55.78                                   -1.41 0  328 357 
 CBOC HZ EP        912 40.24                             109    0.07 7  336 253 
 CBOC HN ES        913 17.26                             109    0.48 7  336 253 
 CBOC HZ I         913 20.55         5.7 0.20            109            336 253 
 DBB  EZ EP        912 40.29                             108   -0.57 7  343 275 
 DBB  EN ES   4    913 16.25                             108   -1.77 0  343 275 
 DBB  EZ I         913 19.72        10.7 0.20            108            343 275 
 ORTC HZ EP        912 47.32                             105    0.38 6  395 217 
 ORTC HN ES   4    913 30.78                             105    1.95 0  395 217 
 ORTC HZ I         913 36.72         9.3 0.36            105            395 217 
 PAL  HZ EP        912 48.26                             105   -0.10 6  407 240 
 PAL  HN ES        913 31.99                             105    0.62 6  407 240 
 PAL  HZ I         913 36.17         5.7 0.20            105            407 240 
 SJC  HZ EP   4    912 47.01                             105   -2.06 0  413 327 
 SJC  HN ES   4    913 28.08                             105   -4.55 0  413 327 
 SJC  HZ I         913 32.33         5.6 0.28            105            413 327 
 YOT  HZ EP        912 56.54                             102    0.35 5  472 229 
 MACC HZ EP   4    912 59.30                             101   -2.27 0  518 189 
 MACC HN ES   4    913 51.75                             101   -3.12 0  518 189 
 MACC HZ I         914  3.66         1.7 0.38            101            518 189 
                                                                                
