 2012  831 0906 12.4 L   6.818 -73.158144.9  RSN  9 0.4 2.3LRSN                1
 GAP=182        0.96       4.8     6.8  7.4  0.3057E+01 -0.1771E+01  0.4886E+01E
 Epicentro: LOS SANTOS - SANTANDER                                             3
 ACTION:UPD 12-09-10 11:59 OP:ep   STATUS:               ID:20120831090612 L   I
 2012-08-31-0900-00M.COL___218                                                 6
 STAT SP IPHASW D HRMM SECON CODA AMPLIT PERI AZIMU VELO AIN AR TRES W  DIS CAZ7
 BAR2 SZ IP        9 6 32.05                             170    0.1210 25.1 186 
 BAR2 SZ ES   1    9 6 46.50                             170   -0.70 7 25.1 186 
 BAR2 SZ I         9 6 48.71        66.6 0.56                          25.1 186 
 GIR2 SZ EP        9 6 31.92                             168    0.0410 29.1 352 
 BRR  HZ IP        9 6 33.69                             153    0.3810 69.1 298 
 BRR  HZ I         9 6 36.08        47.1 0.12                          69.1 298 
 BRR  HN ES   1    9 6 50.61                             153    0.97 7 69.1 298 
 RUS  HZ EP        9 6 35.95                             143   -0.2410  103 175 
 RUS  HN ES   2    9 6 54.98                             143    0.21 5  103 175 
 RUS  HZ I         9 6 56.66        20.5 0.32                           103 175 
 PTB  HZ EP        9 6 38.58                             132   -0.60 9  147 258 
 PTB  HN ES   1    9 6 59.62                             132   -0.48 7  147 258 
 OCA  HZ EP        9 6 40.15                             130   -0.26 9  158 354 
 ZAR  HE ES   2    9 7  9.67                             122    0.02 4  202 292 
 CHI  HZ EP        9 6 50.73                             117    0.54 8  250 195 
 CHI  HN ES   1    9 7 19.81                             117    0.12 6  250 195 
 CHI  HZ I         9 7 27.55         8.3 0.26                           250 195 
 PRA  HZ EP        9 7  6.25                             106    0.27 6  393 209 
                                                                                
