 2012  831 0108 55.7 L   6.815 -73.183143.8  RSN  5 0.3 1.6LRSN                1
 GAP=176        0.80       6.6     6.5  7.6  0.1442E+02  0.5376E+00 -0.3036E+01E
 Epicentro: ZAPATOCA - SANTANDER                                               3
 ACTION:UPD 12-09-10 11:59 OP:ep   STATUS:               ID:20120831010855 L   I
 2012-08-31-0100-00M.COL___218                                                 6
 STAT SP IPHASW D HRMM SECON CODA AMPLIT PERI AZIMU VELO AIN AR TRES W  DIS CAZ7
 BAR2 SZ EP        1 9 14.87                             170   -0.2210 24.7 180 
 BAR2 SZ ES   1    1 9 30.56                             170    0.32 7 24.7 180 
 BAR2 SZ I         1 9 32.45        10.4 0.28                          24.7 180 
 GIR2 SZ EP        1 9 15.13                             168    0.0810 29.2 358 
 BRR  HZ EP        1 9 16.91                             154    0.5510 66.7 299 
 BRR  HZ I         1 9 18.37        16.2 0.12                          66.7 299 
 BRR  HE ES   1    1 9 31.84                             154   -0.66 7 66.7 299 
 RUS  HZ EP        1 9 19.21                             143   -0.1710  103 174 
 RUS  HN ES   1    1 9 37.94                             143    0.07 7  103 174 
 RUS  HZ I         1 9 39.20         3.5 0.38                           103 174 
 PTB  HZ EP        1 9 21.89                             132   -0.25 9  144 258 
 PTB  HN ES   1    1 9 43.04                             132    0.26 7  144 258 
 PTB  HZ I         1 9 44.92         3.4 0.16                           144 258 
                                                                                
