 2011  131 0028 41.2 L   6.775 -72.909152.3  RSN  4 0.2 1.3LRSN                1
 GAP=186        0.41       3.3     9.8  7.2 -0.2407E+02  0.1291E+02  0.5364E+00E
 Epicentro: CEPITA - SANTANDER                                                 3
 ACTION:UP  11-02-08 08:43 OP:pat  STATUS:               ID:20110131002841 L   I
 2011-01-31-0026-38S.COL___135                                                 6
 STAT SP IPHASW D HRMM SECON CODA AMPLIT PERI AZIMU VELO SNR AR TRES W  DIS CAZ7
 RUS  HZ EP   1    029  5.61                             145     0.1 8  100 191 
 RUS  HZ I         029  6.57         1.5 0.43                           100 191 
 RUS  HN ES   2    029 24.43                             145     0.0 5  100 191 
 GRA  SZ EP        029  6.91                             139     0.110  123   5 
 GRA  SZ I         029  8.21         3.7 0.33                           123   5 
 GRA  SZ ES   1    029 26.61                             139    -0.2 7  123   5 
 CHI  HZ EP   2    029 19.36                             118    -0.5 4  254 201 
 CHI  HE ES   1    029 49.98                             118     0.0 6  254 201 
 RREF HN ES   2    030  7.68                             110     0.1 3  340 233 
 RREF HZ I         030 10.57         1.0 0.22                           340 233 
                                                                                
