 2014  731 0128 23.6 L   6.813 -73.127149.8  RSN 17 0.4 2.2LRSN                1
 GAP=138        0.97       2.6     4.2  5.9 -0.1722E+01  0.6644E+01  0.1109E+01E
 Epicentro: LOS SANTOS - SANTANDER                                             3
 ACTION:UPD 15-03-16 20:48 OP:nd   STATUS:               ID:20140731012823 L   I
 OLDACT:UP  14-07-31 15:10 OP:mh   STATUS:               ID:20140731012816     3
 OLDACT:REG 14-07-31 12:52 OP:mh   STATUS:               ID:20140731012816     3
 2014-07-31-0128-16M.COL___257                                                 6
 STAT SP IPHASW D HRMM SECON CODA AMPLIT PERI AZIMU VELO AIN AR TRES W  DIS CAZ7
 BAR2 SZ EP        128 43.95                             170    0.2010 25.2 194 
 BRR  HZ IP     C  128 45.66                             153    0.4110 72.4 297 
 BRR  HN ES        129  2.47                             153    0.3310 72.4 297 
 BRR  HZ I         129  5.64        39.9 0.36            150           72.4 297 
 PAM  SZ EP        128 46.66                             152    0.5510 75.0  39 
 PAM  SN ES        129  3.60                             152   -0.0610 75.0  39 
 PAM  SZ I         129  5.90        30.2 0.34            158           75.0  39 
 RUS  HZ EP   1    128 47.97                             144    0.13 7  102 177 
 RUS  HN ES        129  6.23                             144   -0.5210  102 177 
 PTB  HZ EP   1    128 50.60                             132   -0.51 7  150 258 
 PTB  HN ES   4    129 10.00                             132   -2.56 0  150 258 
 PTB  HZ I         129 16.90        19.9 0.30            131            150 258 
 OCA  HZ EP        128 51.27                             131   -0.85 9  159 352 
 OCA  HN ES        129 14.78                             131    0.42 9  159 352 
 OCA  HZ I         129 18.48        30.7 0.20            133            159 352 
 SPBC HZ EP   1    128 52.88                             129    0.24 7  166 219 
 SPBC HN ES        129 14.70                             129   -0.59 9  166 219 
 SPBC HZ I         129 21.70        14.5 0.18            130            166 219 
 ZAR  HZ EP        128 56.60                             123    0.15 8  205 292 
 ZAR  HN ES        129 21.69                             123   -0.39 8  205 292 
 ZAR  HZ I         129 30.40        17.3 0.21            123            205 292 
 NOR  HZ EP   1    129  0.15                             119    0.31 6  237 234 
 NOR  HN ES        129 28.43                             119    0.33 8  237 234 
 NOR  HZ I         129 31.47         8.8 0.15            120            237 234 
 SML  HZ EP        129  0.14                             118   -0.27 8  243 335 
 SML  HN ES   1    129 28.21                             118   -0.91 6  243 335 
 CHI  HZ EP        129  1.72                             118   -0.01 8  251 196 
 CHI  HN ES        129 31.65                             118    0.18 8  251 196 
 CHI  HZ I         129 35.66         7.1 0.45            119            251 196 
 HEL  HZ EP   1    129  4.94                             115    0.66 6  274 256 
 HEL  HN ES   1    129 36.39                             115    0.38 6  274 256 
 HEL  HZ I         129 43.13         8.5 0.33            116            274 256 
 GUY2CHZ EP   4    129  9.73                             113    2.05 0  304 235 
 GUY2CHN ES   4    129 44.58                             113    2.52 0  304 235 
 GUY2CHZ I         129 52.09         6.9 0.17                           304 235 
 RREF HZ EP   4    129 11.69                             111    1.49 0  324 229 
 RREF HN ES   4    129 49.58                             111    3.02 0  324 229 
 RREF HZ I         129 53.46         6.0 0.30            112            324 229 
 TOL  SZ EP   4    129 13.83                             110    1.53 0  346 225 
 TOL  SN ES   4    129 52.13                             110    1.84 0  346 225 
 TOL  SZ I         130  0.37        12.7 0.21            111            346 225 
 PRA  HZ EP   1    129 16.83                             107   -0.70 4  394 210 
 PRA  HN ES   1    129 59.76                             107    0.17 4  394 210 
 PRA  HZ I         130  5.54         8.4 0.65            108            394 210 
 SJC  HZ EP   4    129 18.17                             106   -1.12 0  409 327 
 SJC  HN ES   4    129 58.97                             106   -3.76 0  409 327 
 SJC  HZ I         130  3.62         3.4 0.24            108            409 327 
                                                                                
