 2013  831 0212 42.9 L   6.813 -73.162149.1  RSN 10 0.5 2.0LRSN                1
 GAP=134        0.89       3.6     4.6  7.9 -0.4954E+01  0.9100E+01  0.4933E+00E
 Epicentro: LOS SANTOS - SANTANDER                                             3
 ACTION:UPD 14-01-14 09:08 OP:ep   STATUS:               ID:20130831021242 L   I
 OLDACT:UP  13-08-31 10:55 OP:mh   STATUS:               ID:20130831020960d    3
 OLDACT:DUP 13-08-31 10:55 OP:mh   STATUS:               ID:20130831020960d    3
 2013-08-31-0209-59M.COL___269                                                 6
 STAT SP IPHASW D HRMM SECON CODA AMPLIT PERI AZIMU VELO AIN AR TRES W  DIS CAZ7
 BAR2 SZ EP        213  2.88                             170   -0.0810 24.5 185 
 BAR2 SZ I         213 20.57         8.6 0.22            168           24.5 185 
 BRR  HZ EP        213  4.62                             154    0.3310 68.9 298 
 BRR  HN ES   1    213 21.79                             154    0.82 7 68.9 298 
 BRR  HN I         213 22.50        16.2 0.44            152           68.9 298 
 PAM  SZ EP        213  5.61                             151    0.1410 77.4  41 
 PAM  SN ES        213 23.22                             151    0.1410 77.4  41 
 RUS  HZ EP   1    213  7.50                             144    0.40 7  102 175 
 RUS  HN ES   1    213 25.25                             144   -0.72 7  102 175 
 RUS  HN I         213 27.14        10.2 0.24            143            102 175 
 PTB  HZ EP   1    213  9.88                             133   -0.13 7  146 258 
 PTB  HN ES   2    213 30.37                             133   -0.79 5  146 258 
 PTB  HZ I         213 37.91         5.6 0.56            131            146 258 
 OCA  HN ES   1    213 32.49                             131   -0.99 7  159 354 
 OCA  HN I         213 36.25        31.7 0.14            131            159 354 
 SPBC HZ EP   1    213 11.82                             130    0.16 7  163 218 
 SPBC HN ES        213 34.01                             130   -0.08 9  163 218 
 SPBC HN I         213 41.10        21.0 0.12            128            163 218 
 ZAR  HN ES   1    213 40.93                             123    0.29 6  202 292 
 ZAR  HN I         213 47.49         7.2 0.32            122            202 292 
 NOR  HN ES        213 46.66                             119   -0.08 8  234 234 
 NOR  HN I         213 50.36        13.8 0.20            118            234 234 
 SML  HZ EP   1    213 19.31                             118   -0.18 6  242 336 
 SML  HN ES   2    213 47.26                             118   -0.77 4  242 336 
 GUY2CHZ EP   4    213 28.71                             113    2.11 0  301 234 
 GUY2CHN ES   4    214  1.93                             113    1.25 0  301 234 
                                                                                
