 2013  531 0957 44.7 L   6.792 -73.148136.0  RSN 10 0.4 2.0LRSN                1
 GAP=185        1.00       4.4     4.7  5.6  0.5057E+01  0.1225E+02  0.8553E+01E
 Epicentro: LOS SANTOS - SANTANDER                                             3
 ACTION:UPD 13-06-20 09:55 OP:ep   STATUS:               ID:20130531095744 L   I
 2013-05-31-0950-00M.COL___261                                                 6
 STAT SP IPHASW D HRMM SECON CODA AMPLIT PERI AZIMU VELO AIN AR TRES W  DIS CAZ7
 BAR2 SZ EP        958  2.85                             170   -0.2410 22.4 190 
 BAR2 SZ ES        958 17.20                             170   -0.2710 22.4 190 
 BAR2 SZ I         958 20.19        18.8 0.20            170           22.4 190 
 GIR2 SZ EP   2    958  2.86                             166   -0.33 5 32.1 351 
 GIR2 SZ ES        958 17.86                             166    0.2110 32.1 351 
 GIR2 SZ I         958 21.76         8.5 0.54            166           32.1 351 
 BRR  HZ IP     C  958  4.69                             151   -0.0810 71.4 299 
 BRR  HN ES        958 20.78                             151    0.3310 71.4 299 
 BRR  HZ I         958 26.12        13.3 0.12            150           71.4 299 
 RUS  HZ IP     C  958  7.64                             142    0.2510 99.7 176 
 RUS  HN ES        958 25.24                             142    0.1210 99.7 176 
 RUS  HZ I         958 27.55        10.8 0.32            145           99.7 176 
 PTB  HZ EP        958  9.58                             130   -1.22 9  147 259 
 PTB  HN ES        958 31.25                             130    0.06 9  147 259 
 PTB  HZ I         958 33.25        20.7 0.28            131            147 259 
 ZAR  HZ EP        958 16.99                             120    0.50 9  204 292 
 ZAR  HN ES        958 41.13                             120   -0.19 9  204 292 
 ZAR  HZ I         958 47.79        14.1 0.32            122            204 292 
 NOR  HZ EP        958 19.50                             116   -0.25 8  234 235 
 NOR  HE ES        958 47.30                             116    0.17 8  234 235 
 HEL  HZ EP        958 24.96                             113    0.63 8  272 256 
 HEL  HN ES        958 55.02                             113   -0.26 8  272 256 
 HEL  HZ I         959  1.44         9.3 0.66            115            272 256 
 GUY2CHZ EP        958 28.64                             110    0.90 7  300 235 
 GUY2CHN ES   2    959  1.68                             110    0.33 4  300 235 
 GUY2CHZ I         959 11.08         7.0 0.42                           300 235 
 PRA  HZ EP        958 37.55                             105   -0.19 6  391 210 
 PRA  HN ES        959 19.02                             105   -0.13 6  391 210 
 PRA  HZ I         959 23.94         4.3 0.70            107            391 210 
                                                                                
