 2010 1231 0213 57.9 L   6.790 -73.124140.0  RSN  7 0.4 1.6LRSN                1
 GAP=161        0.78       5.1     8.7  8.3 -0.2146E+02  0.3249E+02 -0.1650E+02E
 Epicentro: LOS SANTOS - SANTANDER                                             3
 ACTION:UP  11-01-14 15:28 OP:pat  STATUS:               ID:20101231021357 L   I
 2010-12-31-0210-23S.COL___136                                                 6
 STAT SP IPHASW D HRMM SECON CODA AMPLIT PERI AZIMU VELO SNR AR TRES W  DIS CAZ7
 BAR2 SZ EP   1    214 16.29                             170    -0.6 7   23 197 
 BAR2 SZ ES   1    214 31.81                             170     0.2 7   23 197 
 RUS  HZ EP   1    214 20.74                             143    -0.3 7   99 177 
 RUS  HN ES   1    214 39.32                             143     0.3 7   99 177 
 RUS  HZ I         214 40.30         7.9 0.21                            99 177 
 GRA  SZ EP   1    214 22.63                             136    -0.1 7  126  16 
 GRA  SZ I         214 44.10         6.5 0.54                           126  16 
 OCA  SZ EP   1    214 26.28                             128     0.4 7  162 352 
 OCA  SZ I         214 54.17         6.0 0.27                           162 352 
 NOR  SZ EP   1    214 33.02                             117    -0.5 6  236 235 
 NOR  SN ES   1    215  1.08                             117    -0.1 6  236 235 
 CHI  HZ EP   2    214 35.62                             116     0.4 4  248 196 
 CHI  HN ES   1    215  4.54                             116     0.2 6  248 196 
 CHI  HZ I         215  7.21         2.4 0.34                           248 196 
 HEL  HZ EP   2    214 39.07                             114     1.0 4  274 256 
 HEL  HZ I         215 16.67         2.8 0.29                           274 256 
                                                                                
