 2012  731 0132 57.2 L   6.750 -73.451117.4  RSN  5 0.4 1.5LRSN                1
 GAP=157        0.85       7.2     6.4 10.6  0.2739E+02  0.1048E+02  0.1417E+02E
 Epicentro: EL CARMEN DE CHUCURI - SANTANDER                                   3
 ACTION:UPD 12-08-14 11:46 OP:ep   STATUS:               ID:20120731013257 L   I
 2012-07-31-0130-00M.COL___209                                                 6
 STAT SP IPHASW D HRMM SECON CODA AMPLIT PERI AZIMU VELO AIN AR TRES W  DIS CAZ7
 BAR2 SZ EP   1    133 13.88                             163     0.1 8   34 120 
 BAR2 SZ I         133 14.01        18.2 0.11            165             34 120 
 BRR  HZ EP   1    133 13.74                             156    -0.3 8   49 324 
 BRR  HZ I         133 14.05        12.1 0.15            157             49 324 
 BRR  HE ES   1    133 26.99                             156    -0.2 8   49 324 
 RUS  HZ EP   1    133 18.51                             136     0.0 8  103 157 
 RUS  HE ES   1    133 35.42                             136     0.3 8  103 157 
 PTB  HZ EP        133 18.42                             133    -0.310  114 258 
 PTB  HN ES   1    133 35.37                             133    -0.2 7  114 258 
 PTB  HZ I         133 39.40         2.3 0.14            132            114 258 
 ZAR  HN ES   1    133 47.35                             120     0.9 7  176 298 
