 2010  731 0451 41.1 L   6.820 -73.060142.0  RSN  7 0.2 1.7LRSN                1
 GAP=168        0.52       3.5     6.1  7.0  0.2696E+01 -0.1576E+02 -0.7704E+01E
 Epicentro: LOS SANTOS - SANTANDER                                             3
 ACTION:UPD 10-12-01 15:21 OP:pat  STATUS:               ID:20100731045141 L   I
 2010-07-31-0448-53S.COL___123                                                 6
 STAT SP IPHASW D HRMM SECON CODA AMPLIT PERI AZIMU VELO AIN AR TRES W  DIS CAZ7
 BAR2 SZ IP        452  0.44                             168     0.010   29 208 
 BAR2 SZ I         452 17.39        11.4 0.69                            29 208 
 BRR  HZ IP     C  452  2.06                             149    -0.310   79 294 
 BRR  HE ES   1    452 18.97                             149     0.1 7   79 294 
 BRR  HZ I         452 19.98        14.0 0.10                            79 294 
 RUS  HZ EP   1    452  4.67                             143     0.0 7  103 181 
 RUS  HN ES   1    452 23.05                             143     0.0 7  103 181 
 RUS  HZ I         452 24.64         4.7 0.35                           103 181 
 GUE  SZ EP   1    452  5.09                             140    -0.1 7  113   8 
 GRA  SZ EP        452  5.82                             137     0.210  121  13 
 GRA  SZ I         452 27.60         3.8 0.37                           121  13 
 HEL  HZ EP   2    452 22.86                             113     0.6 4  282 256 
 HEL  HZ I         452 59.98         3.7 0.44                           282 256 
 PRA  HZ EP   2    452 35.01                             106    -0.3 3  399 211 
 PRA  HZ I         453 26.25         2.8 0.82                           399 211 
                                                                                
