 2012  831 0134 51.0 L   6.774 -73.490124.0  RSN  5 0.2 1.5LRSN                1
 GAP=101        0.42       5.9     3.7  6.8 -0.5112E+01 -0.7720E+01  0.1601E+02E
 Epicentro: EL CARMEN DE CHUCURI - SANTANDER                                   3
 ACTION:UPD 12-09-10 11:59 OP:ep   STATUS:               ID:20120831013453 L   I
 2012-08-31-0130-00M.COL___218                                                 6
 STAT SP IPHASW D HRMM SECON CODA AMPLIT PERI AZIMU VELO AIN AR TRES W  DIS CAZ7
 BAR2 SZ EP        135  8.69                             161    0.1610 39.5 121 
 BAR2 SZ I         135  8.80         8.9 0.16                          39.5 121 
 BRR  HZ EP        135  8.32                             160   -0.0610 44.3 326 
 BRR  HE ES   1    135 21.99                             160    0.06 7 44.3 326 
 BRR  HZ I         135 28.52         6.6 0.34                          44.3 326 
 GIR2 SZ EP   2    135  8.19                             158   -0.52 5 47.0  44 
 RUS  HN ES   3    135 30.43                             136   -0.15 2  107 155 
 PTB  HZ EP   1    135 12.92                             136    0.12 7  110 256 
 PTB  HN ES   1    135 29.68                             136   -0.12 7  110 256 
                                                                                
