 2010  831 0909  2.4 L   6.801 -73.151141.8  RSN  8 0.4 1.6LRSN                1
 GAP=158        0.69       3.8     8.9  8.0 -0.1097E+02 -0.3010E+01 -0.9959E+00E
 Epicentro: LOS SANTOS - SANTANDER                                             3
 ACTION:UP  10-09-07 10:59 OP:vdl  STATUS:               ID:20100831090902 L   I
 2010-08-31-0906-56S.COL___120                                                 6
 STAT SP IPHASW D HRMM SECON CODA AMPLIT PERI AZIMU VELO SNR AR TRES W  DIS CAZ7
 BAR2 SZ EP        9 9 21.61                             170     0.110   23 189 
 BAR2 SZ ES   2    9 9 36.59                             170     0.1 5   23 189 
 BAR2 SZ I         9 9 37.63        10.2 0.35                            23 189 
 BRR  HZ EP        9 9 23.35                             151     0.310   71 299 
 BRR  HE ES   2    9 9 39.16                             151     0.0 5   71 299 
 BRR  HZ I         9 9 42.20        12.0 0.09                            71 299 
 RUS  HZ EP   2    9 9 26.04                             143     0.3 5  101 176 
 RUS  HE ES   2    9 9 43.52                             143    -0.5 5  101 176 
 RUS  HZ I         9 9 46.48         5.1 0.41                           101 176 
 GUE  SZ EP   2    9 9 26.04                             138    -0.7 5  116  12 
 GUE  SZ I         9 9 49.14         1.9 0.09                           116  12 
 GRA  SZ EP        9 9 27.31                             136     0.010  126  18 
 GRA  SZ ES   1    9 9 46.75                             136     0.1 7  126  18 
 GRA  SZ I         9 9 47.91         5.4 0.05                           126  18 
 OCA  SZ EP   2    9 9 30.54                             128     0.2 5  160 353 
 OCA  SZ ES   2    9 9 51.33                                    -0.9 5  160 353 
 OCA  SZ I         9 9 57.87         5.3 0.13                           160 353 
 CHI  HE ES   2    910  8.64                             116    -0.5 4  249 195 
 CHI  HZ I         910 13.90         2.4 0.39                           249 195 
 PRA  HZ EP   2    9 9 55.20                             106    -0.5 3  392 209 
 PRA  HZ I         910 44.41         2.4 0.29                           392 209 
                                                                                
