 2010 1231 0828 52.6 L   6.799 -73.116137.1  RSN  7 0.2 1.6LRSN                1
 GAP=162        0.40       2.5     6.4  8.5 -0.2656E+01  0.1307E+02 -0.1022E+02E
 Epicentro: LOS SANTOS - SANTANDER                                             3
 ACTION:UP  11-01-14 15:28 OP:pat  STATUS:               ID:20101231082852 L   I
 2010-12-31-0826-27S.COL___135                                                 6
 STAT SP IPHASW D HRMM SECON CODA AMPLIT PERI AZIMU VELO SNR AR TRES W  DIS CAZ7
 BTL  SZ EP        829 11.32                             171     0.210   21 308 
 BAR2 SZ EP        829 11.28                             169     0.110   24 198 
 BAR2 SZ I         829 27.67        11.5 0.16                            24 198 
 GIR2 SZ EP   2    829 11.42                             166     0.1 5   32 345 
 RUS  HZ EP   2    829 15.15                             142    -0.4 5  100 178 
 RUS  HE ES   1    829 33.27                             142    -0.1 7  100 178 
 RUS  HZ I         829 34.54         4.9 0.30                           100 178 
 GRA  SZ EP   2    829 17.17                             135     0.1 5  125  16 
 GRA  SZ I         829 37.93         4.8 0.44                           125  16 
 OCA  SZ EP   1    829 20.23                             127    -0.1 7  161 352 
 OCA  SZ ES   1    829 41.74                             127    -0.2 7  161 352 
 OCA  SZ I         829 47.78         5.0 0.09                           161 352 
 NOR  SE ES   2    829 55.87                             116     0.0 4  237 235 
                                                                                
