 2014  831 0554 37.3 L   6.769 -73.135154.4  RSN 10 0.5 1.6LRSN                1
 GAP=184        1.22       4.5     7.0  9.3  0.1184E+01 -0.3877E+01  0.4028E+01E
 Epicentro: LOS SANTOS - SANTANDER                                             3
 ACTION:UPD 14-09-15 21:54 OP:nd   STATUS:               ID:20140831055437 L   I
 OLDACT:REG 14-08-31 13:09 OP:fm   STATUS:               ID:20140831054808     3
 2014-08-31-0548-08M.COL___263                                                 6
 STAT SP IPHASW D HRMM SECON CODA AMPLIT PERI AZIMU VELO AIN AR TRES W  DIS CAZ7
 BAR2 SZ EP        554 57.73                             172   -0.1510 20.2 195 
 BAR2 SZ ES   1    555 13.44                             172   -0.52 7 20.2 195 
 BAR2 SZ I         555 15.95         6.7 0.34            170           20.2 195 
 BRR  HZ EP        554 59.80                             153    0.3010 73.9 300 
 BRR  HN ES        555 17.48                             153    0.6310 73.9 300 
 BRR  HZ I         555 21.61         4.8 0.30            152           73.9 300 
 RUS  HZ EP   1    555  1.02                             146   -0.61 7 97.1 177 
 RUS  HN ES   1    555 20.20                             146   -0.44 7 97.1 177 
 RUS  HZ I         555 21.77         2.4 0.54            147           97.1 177 
 PTB  HZ EP   1    555  4.18                             134   -0.82 7  148 260 
 PTB  HN ES        555 26.13                             134   -0.50 9  148 260 
 PTB  HZ I         555 27.91         6.7 0.38            133            148 260 
 SPBC HZ EP        555  6.71                             131    0.45 9  161 220 
 SPBC HE ES        555 29.92                             131    1.03 9  161 220 
 SPBC HZ I         555 36.12         5.7 0.30            131            161 220 
 OCA  HZ EP   1    555  7.06                             131    0.48 7  164 353 
 OCA  HN ES        555 29.51                             131    0.06 9  164 353 
 OCA  HZ I         555 32.78         4.9 0.34            133            164 353 
 ZAR  HE ES        555 35.79                             124   -0.69 8  206 293 
 ZAR  HZ I         555 42.72         5.9 0.44            124            206 293 
 CHI  HZ EP   1    555 15.19                             119    0.06 6  246 196 
 CHI  HN ES   1    555 44.40                             119   -0.27 6  246 196 
 CHI  HZ I         555 53.01         1.5 0.22            120            246 196 
 GUY2CHN ES   4    555 58.57                             114    3.14 0  300 235 
 GUY2CHZ I         556  0.98         3.8 0.20                           300 235 
 MON  HZ EP   4    555 24.57                             110   -2.39 0  357 309 
 MON  HN ES   4    556  3.69                             110   -2.04 0  357 309 
 MON  HZ I         556  6.25         0.6 0.66            111            357 309 
 SJC  HZ EP   4    555 31.08                             107   -2.45 0  413 327 
                                                                                
