 2012  731 0736  8.1 L   6.690 -73.207153.3  RSN  4 0.1 1.2LRSN                1
 GAP=217        0.29       3.8     3.1  3.5  0.3140E+01  0.2161E+01 -0.5408E-01E
 Epicentro: VILLANUEVA - SANTANDER                                             3
 ACTION:UPD 12-08-14 11:46 OP:ep   STATUS:               ID:20120731073608 L   I
 2012-07-31-0730-00M.COL___209                                                 6
 STAT SP IPHASW D HRMM SECON CODA AMPLIT PERI AZIMU VELO AIN AR TRES W  DIS CAZ7
 BAR2 SZ EP   1    736 28.43                             176    -0.1 7   11 166 
 BAR2 SZ ES   1    736 44.36                             176     0.0 7   11 166 
 BAR2 SZ I         736 46.26         3.7 0.34            173             11 166 
 BRR  HZ EP   1    736 30.26                             153     0.1 7   72 310 
 BRR  HN ES   1    736 47.33                             153     0.0 7   72 310 
 RUS  HN ES   2    736 50.46                             148     0.1 5   89 171 
 PTB  HZ EP   1    736 34.94                             135     0.0 7  139 263 
 PTB  HN ES   1    736 55.92                             135     0.0 7  139 263 
 PTB  HZ I         736 58.52         1.8 0.14            136            139 263 
