 2017  831 0252 53.1 L   6.815 -73.154148.2  RSN  8 0.4 1.5LRSN                1
 GAP=238        1.08       4.8     6.0  7.5  0.5869E+01  0.9547E+01  0.6777E+01E
 Epicentro: LOS SANTOS - SANTANDER                                             3
 ACTION:UPD 17-09-04 20:26 OP:rebc STATUS:               ID:20170831025253 L   I
 OLDACT:UP  17-08-31 15:02 OP:dhb  STATUS:               ID:20170831024731     3
 OLDACT:REG 17-08-31 12:15 OP:dhb  STATUS:               ID:20170831024731     3
 2017-08-31-0248-00M.COL___402                                                 6
 STAT SP IPHASW D HRMM SECON CODA AMPLIT PERI AZIMU VELO AIN AR TRES W  DIS CAZ7
 BAR2 EZ EP        253 12.64                             170   -0.4010 24.9 187 
 BAR2 EZ ES        253 27.90                             170   -0.7010 24.9 187 
 BRR  HZ EP        253 14.80                             153    0.3910 69.6 298 
 BRR  HN ES        253 31.85                             153    0.8110 69.6 298 
 BRR  HZ I         253 32.90        10.3 0.16            151           69.6 298 
 RUS  HZ EP        253 17.36                             144    0.1610  102 176 
 RUS  HN ES        253 36.17                             144    0.1610  102 176 
 RUS  HZ I         253 36.63         8.0 0.80            143            102 176 
 SPBC HZ EP        253 22.13                             129    0.29 9  164 218 
 SPBC HN ES        253 44.35                             129    0.08 9  164 218 
 SPBC HZ I         253 50.93         3.9 0.16            128            164 218 
 ZAR  HN ES        253 50.08                             123   -0.77 9  203 292 
 ZAR  HZ I         253 55.25         2.1 0.16            122            203 292 
 NOR  HZ EP        253 28.85                             119   -0.14 8  235 234 
 NOR  HE ES        253 57.08                             119    0.09 8  235 234 
 NOR  HZ I         253 58.67         1.3 0.15            118            235 234 
 CHI  HN ES        254  0.51                             117   -0.19 8  250 195 
 CHI  HZ I         254  4.77         2.0 0.31            117            250 195 
 GUY2CHZ EP   9    253 38.48                             113    1.64 0  301 234 
 GUY2CHE ES        254 12.61                                    0.01 7  301 234 
                                                                                
