 2015 1031 0812 43.0 L   6.790 -73.139145.2  RSN  5 0.3 1.5LRSN                1
 GAP=253        0.50       5.0     6.5  7.8  0.5696E+01  0.3124E+01  0.1325E+02E
 Epicentro: LOS SANTOS - SANTANDER                                             3
 ACTION:UPD 15-12-22 20:44 OP:cam  STATUS:               ID:20151031081243 L   I
 OLDACT:REG 15-10-31 13:31 OP:ar   STATUS:               ID:20151031080746     3
 2015-10-31-0807-46M.COL___319                                                 6
 STAT SP IPHASW D HRMM SECON CODA AMPLIT PERI AZIMU VELO AIN AR TRES W  DIS CAZ7
 BAR2 EZ EP        813  2.34                             171   -0.1510 22.4 192 
 BAR2 EZ ES   2    813 17.63                             171   -0.11 5 22.4 192 
 BAR2 EZ I         813 18.32         7.6 0.36            165           22.4 192 
 BRR  HZ EP   2    813  4.16                             152    0.05 5 72.4 299 
 BRR  HN ES   2    813 21.26                             152    0.65 5 72.4 299 
 BRR  HZ I         813 31.36         7.8 0.46            146           72.4 299 
 SPBC HZ EP   2    813 11.56                             129    0.19 5  163 219 
 SPBC HN ES   2    813 33.17                             129   -0.36 5  163 219 
 SPBC HZ I         813 37.54         4.2 0.64            130            163 219 
 ZAR  HZ EP   4    813 17.83                             122    2.35 0  205 292 
 ZAR  HN ES   2    813 40.45                             122   -0.40 4  205 292 
 ZAR  HZ I         813 45.35         3.5 0.38            123            205 292 
 CHI  HZ EP   2    813 21.10                             117    0.58 4  248 195 
 CHI  HN ES   2    813 49.98                             117    0.16 4  248 195 
 CHI  HZ I         813 53.06         1.6 0.66            121            248 195 
                                                                                
