 2012  731 0813 18.3 L   6.680 -73.219151.3  RSN  5 0.4 0.9LRSN                1
 GAP=206        0.73      10.5     7.8 10.2  0.3293E+02  0.5967E+01  0.3785E+02E
 Epicentro: BARICHARA - SANTANDER                                              3
 ACTION:UPD 12-08-14 11:46 OP:ep   STATUS:               ID:20120731081318 L   I
 2012-07-31-0810-00M.COL___209                                                 6
 STAT SP IPHASW D HRMM SECON CODA AMPLIT PERI AZIMU VELO AIN AR TRES W  DIS CAZ7
 BAR2 SZ ES   2    813 53.40                             176    -0.6 5   11 157 
 BAR2 SZ I         813 54.18         1.6 0.11            170             11 157 
 BRR  HZ EP   1    813 39.91                             153    -0.1 7   72 311 
 BRR  HZ I         813 40.36         3.1 0.19            152             72 311 
 BRR  HN ES   1    813 57.47                             153     0.4 7   72 311 
 RUS  HZ EP   1    813 41.85                             148     0.1 7   88 170 
 RUS  HZ I         813 42.70         0.7 0.36            145             88 170 
 PTB  HZ EP   1    813 44.90                             135     0.1 7  138 264 
 PTB  HN ES   1    814  5.51                             135     0.0 7  138 264 
 PTB  HZ I         814  9.21         0.6 0.17            132            138 264 
 ZAR  HN ES   2    814 15.62                             124    -0.7 4  202 296 
