 2016 1231 0651  5.0 L   6.792 -73.125142.0  RSN  9 0.3 1.7LRSN                1
 GAP= 99        0.71       3.1     3.2  4.3 -0.1349E+01 -0.1128E+00  0.3961E+01E
 Epicentro: LOS SANTOS - SANTANDER                                             3
 ACTION:UPD 17-01-11 20:20 OP:rebc STATUS:               ID:20161231065105 L   I
 OLDACT:UP  16-12-31 14:47 OP:dnl  STATUS:               ID:20161231064736     3
 OLDACT:REG 16-12-31 12:34 OP:dnl  STATUS:               ID:20161231064736     3
 2016-12-31-0648-00M.COL___362                                                 6
 STAT SP IPHASW D HRMM SECON CODA AMPLIT PERI AZIMU VELO AIN AR TRES W  DIS CAZ7
 BAR2 EZ IP     C  651 24.01                             170   -0.1210 22.9 196 
 BAR2 EZ ES        651 39.06                             170   -0.0210 22.9 196 
 BAR2 EZ I         651 40.53        11.9 0.20            168           22.9 196 
 BRR  HZ EP        651 25.76                             151   -0.0810 73.7 298 
 BRR  HN ES        651 42.45                             151    0.3210 73.7 298 
 BRR  HZ I         651 45.99        10.6 0.22            152           73.7 298 
 PAM  EZ EP        651 26.74                             150    0.0110 76.7  38 
 PAM  EN ES        651 43.74                             150    0.0310 76.7  38 
 PAM  EZ I         651 46.13         8.1 0.26            154           76.7  38 
 RUS  HZ EP        651 28.11                             143   -0.1510 99.5 177 
 RUS  HE ES        651 46.26                             143   -0.1810 99.5 177 
 RUS  HZ I         651 48.15         2.6 0.34            143           99.5 177 
 PTB  HZ EP        651 31.03                             131   -0.78 9  150 259 
 PTB  HN ES        651 52.99                             131    0.23 9  150 259 
 PTB  HZ I         651 53.78         7.6 0.42            131            150 259 
 TAM  HZ EP        651 32.39                             130    0.28 9  153 105 
 CHI  HZ EP        651 42.50                             116    0.08 8  248 196 
 CHI  HN ES        652 11.91                             116    0.28 8  248 196 
 CHI  HZ I         652 18.92         3.2 0.48            117            248 196 
 GUY2CHZ EP   2    651 49.44                             111    0.90 4  303 235 
 GUY2CHE ES   4    652 25.58                             111    3.04 0  303 235 
 GUY2CHZ I         652 34.78         5.0 0.46                           303 235 
 ORTC HZ EP        651 59.07                             106    0.25 6  396 217 
 ORTC HN ES   4    652 42.86                             106    2.03 0  396 217 
 ORTC HZ I         652 49.27         2.0 0.34            106            396 217 
                                                                                
