 2011  731 0611  6.4 L   7.016 -73.096140.3  RSN  6 0.3 1.0LRSN                1
 GAP=129        0.63       4.2     7.7  6.6 -0.1375E+02 -0.4505E+01 -0.3961E-01E
 Epicentro: FLORIDABLANCA - SANTANDER                                          3
 ACTION:UPD 12-07-25 14:04 OP:epov STATUS:               ID:20110731061106 L   I
 2011-07-31-0609-20S.COL___142                                                 6
 STAT SP IPHASW D HRMM SECON CODA AMPLIT PERI AZIMU VELO AIN AR TRES W  DIS CAZ7
 BAR2 SZ EP   1    611 25.70                             160   -0.46 7 47.9 191 
 BAR2 SZ ES   1    611 41.43                             160   -0.13 7 47.9 191 
 BAR2 SZ I         611 42.73         3.6 0.26                          47.9 191 
 PAM  SZ EP        611 26.79                             157   -0.1310 56.5  51 
 PAM  SN ES   2    611 42.52                             157   -0.38 5 56.5  51 
 BRR  HZ EP   1    611 26.62                             152   -0.22 7 68.7 278 
 BRR  HN ES   2    611 43.10                             152    0.34 5 68.7 278 
 BRR  HZ I         611 43.56         3.1 0.56                          68.7 278 
 BRI  SZ EP   1    611 27.86                             147   -0.18 7 84.2  23 
 GRA  SZ EP   1    611 29.42                             142    0.20 7  101  19 
 GRA  SZ ES   1    611 47.47                             142    0.47 7  101  19 
 RUS  HZ EP   1    611 32.00                             136    0.48 7  124 179 
 RUS  HN ES   2    611 51.40                             136    0.31 5  124 179 
 RUS  HZ I         611 53.12         0.6 0.16                           124 179 
                                                                                
