 2016 1031 0426 46.6 L   6.832 -73.093142.3  RSN  4 0.3 0.7LRSN                1
 GAP=142        0.75       5.0     6.8  7.9  0.1193E+02 -0.1113E+02 -0.6363E+01E
 Epicentro: LOS SANTOS - SANTANDER                                             3
 ACTION:UPD 16-11-09 19:24 OP:rebc STATUS:               ID:20161031042646 L   I
 OLDACT:UP  16-11-01 16:48 OP:nlst STATUS:               ID:20161031042646 L   3
 OLDACT:ARG 16-10-31 12:39 OP:dani STATUS:               ID:20161031041800     3
 2016-10-31-0418-00M.COL___316                                                 6
 STAT SP IPHASW D HRMM SECON CODA AMPLIT PERI AZIMU VELO AIN AR TRES W  DIS CAZ7
 PAM  EZ EP        427  8.11                             152    0.0910 70.9  38 
 BRR  HZ EP        427  7.02                             151   -0.5310 74.9 294 
 BRR  HN ES        427 24.13                             151    0.2110 74.9 294 
 BRR  HZ I         427 25.40         1.7 0.18             47           74.9 294 
 RUS  HZ EP        427 10.50                             142    0.2910  104 179 
 RUS  HE ES        427 28.49                             142   -0.1810  104 179 
 RUS  HZ I         427 28.96         0.8 0.30             47            104 179 
 PTB  HZ EP        427 13.98                             130    0.14 9  154 258 
 PTB  HZ I         427 39.56         0.4 0.15             47            154 258 
                                                                                
