 2012  731 0435 49.0 L   6.770 -73.171148.2  RSN  6 0.4 1.3LRSN                1
 GAP=180        0.87       5.4     7.0  9.5  0.1143E+02  0.1288E+02 -0.2243E+01E
 Epicentro: LOS SANTOS - SANTANDER                                             3
 ACTION:UPD 12-08-14 11:46 OP:ep   STATUS:               ID:20120731043549 L   I
 2012-07-31-0430-00M.COL___209                                                 6
 STAT SP IPHASW D HRMM SECON CODA AMPLIT PERI AZIMU VELO AIN AR TRES W  DIS CAZ7
 BAR2 SZ ES   1    436 24.02                             172    -0.3 7   20 184 
 BRR  HZ EP   1    436 10.64                             153     0.3 7   70 302 
 BRR  HN ES   1    436 27.84                             153     0.8 7   70 302 
 BRR  HZ I         436 30.13         5.2 0.16            154             70 302 
 RUS  HZ EP   1    436 12.97                             145     0.2 7   98 174 
 RUS  HN ES   1    436 31.24                             145    -0.1 7   98 174 
 RUS  HZ I         436 32.91         3.3 0.32            147             98 174 
 PTB  HZ EP   1    436 15.82                             133     0.0 7  144 260 
 PTB  HN ES   1    436 36.36                             133    -0.5 7  144 260 
 PTB  HZ I         436 38.59         1.7 0.22            135            144 260 
 OCA  HN ES   1    436 39.76                             130    -0.5 7  163 354 
 ZAR  HN ES   1    436 46.73                             123    -0.1 6  203 293 
