 2015  331 0158 54.4 L   6.818 -73.183137.1  RSN  7 0.5 1.8LRSN                1
 GAP=131        1.09       3.9     5.4  8.4 -0.1233E+01  0.1718E+01 -0.4171E+01E
 Epicentro: ZAPATOCA - SANTANDER                                               3
 ACTION:UPD 15-04-30 16:30 OP:nd   STATUS:               ID:20150331015854 L   I
 OLDACT:UP  15-03-31 14:54 OP:mh   STATUS:               ID:20150331015748     3
 OLDACT:REG 15-03-31 12:22 OP:mh   STATUS:               ID:20150331015748     3
 2015-03-31-0157-48M.COL___281                                                 6
 STAT SP IPHASW D HRMM SECON CODA AMPLIT PERI AZIMU VELO AIN AR TRES W  DIS CAZ7
 BAR2 EZ EP   1    159 13.06                             169    0.03 7 24.9 180 
 BAR2 EZ I         159 29.42        20.2 0.22            170           24.9 180 
 BRR  HZ EP        159 15.09                             152    0.7410 66.6 299 
 BRR  HN ES        159 29.51                             152   -0.4110 66.6 299 
 BRR  HZ I         159 36.19        18.3 0.28            154           66.6 299 
 PAM  SZ EP        159 15.97                             149    0.1910 78.6  43 
 PAM  SN ES   1    159 32.17                             149   -0.29 7 78.6  43 
 PAM  SZ I         159 35.30         7.3 0.58            150           78.6  43 
 RUS  HZ EP        159 16.97                             141   -0.5210  103 174 
 RUS  HN ES        159 35.79                             141    0.2910  103 174 
 RUS  HZ I         159 37.16         8.1 0.28            143            103 174 
 PTB  HZ EP   1    159 19.25                             131   -1.08 7  144 258 
 PTB  HN ES        159 40.86                             131    0.30 9  144 258 
 PTB  HZ I         159 43.29         7.8 0.20            133            144 258 
 SPBC HZ EP        159 21.87                             127   -0.28 9  162 217 
 SPBC HN ES        159 44.00                             127    0.21 9  162 217 
 SPBC HZ I         159 49.85        11.8 0.09            129            162 217 
 SML  HZ EP        159 30.70                             116    0.53 8  240 336 
 SML  HN ES        159 57.82                             116   -0.25 8  240 336 
 SML  HZ I         2 0  2.56         6.3 0.10            118            240 336 
                                                                                
