 2015  731 0606 23.1 L   7.542 -72.976152.0  RSN  4 0.1 1.6LRSN                1
 GAP=210        0.37       1.7     5.7  4.1  0.2081E+01 -0.1278E+02  0.1084E-01E
 Epicentro: SURATA - SANTANDER                                                 3
 ACTION:UPD 15-09-08 21:51 OP:cam  STATUS:               ID:20150731060623 L   I
 OLDACT:REG 15-07-31 12:28 OP:drio STATUS:               ID:20150731055735     3
 2015-07-31-0557-35M.COL___343                                                 6
 STAT SP IPHASW D HRMM SECON CODA AMPLIT PERI AZIMU VELO AIN AR TRES W  DIS CAZ7
 OCA  HZ EP        6 6 45.94                             149   -0.0310 85.9 334 
 OCA  HN ES        6 7  3.83                             149   -0.0110 85.9 334 
 OCA  HZ I         6 7  6.46         9.4 0.12            156           85.9 334 
 BRR  HZ EP        6 6 46.16                             146   -0.1410 94.4 239 
 BRR  HN ES        6 7  4.50                             146    0.0710 94.4 239 
 BRR  HZ I         6 7  7.17         7.8 0.22            154           94.4 239 
 BAR2 EZ EP        6 6 47.65                             143    0.0910  107 192 
 BAR2 EZ ES        6 7  6.73                             143    0.0610  107 192 
 BAR2 EZ I         6 7 13.91         3.0 0.40            147            107 192 
 RUS  HZ EP        6 6 54.59                             127    0.15 9  183 184 
 RUS  HN ES        6 7 18.71                             127   -0.21 9  183 184 
                                                                                
