 2010  131 0303 44.5 L   6.723 -73.155131.8  RSN  4 0.2 1.5LRSN                1
 GAP=181        0.47       9.4    95.7  4.4  0.8679E+03 -0.1031E+03 -0.1204E+02E
 Epicentro: VILLANUEVA - SANTANDER                                             3
 ACTION:UP  10-08-24 09:46 OP:vdl  STATUS:               ID:20100131030344 L   I
 2010-01-31-0257-59S.COL___094                                                 6
 STAT SP IPHASW D HRMM SECON CODA AMPLIT PERI AZIMU VELO SNR AR TRES W  DIS CAZ7
 BAR2 SZ EP        3 4  2.33                             173     0.010   15 192 
 BAR2 SZ ES   1    3 4 16.21                             173     0.0 7   15 192 
 GIR2 SZ EP        3 4  3.01                             162     0.210   40 354 
 GIR2 SZ ES   1    3 4 17.16                             162     0.1 7   40 354 
 RUS  BZ EP        3 4  6.24                             143     0.010   92 175 
 RUS  BN ES   1    3 4 23.00                             143    -0.3 7   92 175 
 RUS  BZ I         3 4 24.53         5.7 0.31                            92 175 
 OCA  SZ EP        3 4 12.59                             125     0.0 9  169 354 
 OCA  SZ ES   1    3 4 34.10                             125    -0.4 7  169 354 
                                                                                
