 2015  831 0359 30.9 L   6.812 -73.185135.0  RSN 21 0.4 2.2LRSN                1
 GAP=131        0.97       2.4     3.3  4.5 -0.1641E+01  0.5003E+01  0.1995E+01E
 Epicentro: ZAPATOCA - SANTANDER                                               3
 ACTION:UPD 15-09-15 23:06 OP:cam  STATUS:               ID:20150831035930 L   I
 OLDACT:UP  15-09-01 11:28 OP:ar   STATUS:               ID:20150831035930 L   3
 OLDACT:REG 15-08-31 13:51 OP:stll STATUS:               ID:20150831035748     3
 2015-08-31-0357-48M.COL___358                                                 6
 STAT SP IPHASW D HRMM SECON CODA AMPLIT PERI AZIMU VELO AIN AR TRES W  DIS CAZ7
 BAR2 EZ EP        359 49.23                             169    0.0010 24.3 179 
 BAR2 EZ ES        4 0  3.32                             169   -0.2310 24.3 179 
 BAR2 EZ I         4 0  5.11        37.5 0.18            167           24.3 179 
 BRR  HZ IP     C  359 51.08                             152    0.4810 66.7 299 
 BRR  HE ES        4 0  6.81                             152    0.8210 66.7 299 
 BRR  HZ I         4 0  8.80        30.9 0.28            146           66.7 299 
 PAM  EZ EP        359 52.05                             148   -0.0210 79.2  43 
 PAM  EZ I         359 52.35        86.8 0.20            150           79.2  43 
 PAM  EN ES        4 0  8.96                             148    0.3610 79.2  43 
 RUS  HZ EP        359 53.40                             141   -0.3110  102 174 
 RUS  HN ES        4 0 11.45                             141   -0.0710  102 174 
 RUS  HZ I         4 0 13.44        18.0 0.38            140            102 174 
 CPBEREZ EP        359 56.14                             130   -0.47 9  144 258 
 CPBEREN ES        4 0 16.34                             130   -0.34 9  144 258 
 OCA  HZ EP        359 57.41                             128   -0.78 9  158 355 
 OCA  HN ES        4 0 18.84                             128   -0.66 9  158 355 
 OCA  HZ I         4 0 20.87        32.6 0.34            125            158 355 
 SPBC HZ EP        359 58.15                             127   -0.25 9  162 217 
 SPBC HN ES        4 0 19.60                             127   -0.28 9  162 217 
 SPBC HZ I         4 0 24.91        20.6 0.48            123            162 217 
 ZAR  HZ EP        4 0  2.06                             121   -0.09 9  199 292 
 ZAR  HN ES        4 0 26.88                             121    0.32 9  199 292 
 ZAR  HZ I         4 0 35.06        19.6 0.40            117            199 292 
 NOR  HZ EP     C  4 0  5.76                             116    0.07 8  232 234 
 NOR  HE ES        4 0 32.94                             116    0.08 8  232 234 
 NOR  HZ I         4 0 36.26        11.6 0.18            114            232 234 
 SML  HZ EP   4    4 0  7.40                             116    0.82 0  241 336 
 SML  HE ES   4    4 0 33.04                             116   -1.39 0  241 336 
 SML  HZ I         4 0 38.15        12.9 0.10            113            241 336 
 CHI  HZ EP        4 0  8.73                             115    0.72 8  249 194 
 CHI  HN ES        4 0 36.97                             115   -0.02 8  249 194 
 CHI  HZ I         4 0 40.14         4.0 0.34            113            249 194 
 ROSC BN ES        4 0 37.91                             115    0.41 8  252 210 
 ROSC BZ I         4 0 45.77        14.5 0.55            112            252 210 
 HEL  HZ EP        4 0 10.77                             113    0.66 8  268 255 
 HEL  HN ES        4 0 40.52                             113   -0.21 8  268 255 
 HEL  HZ I         4 0 47.97         7.0 0.30            110            268 255 
 URE  HZ EP   4    4 0  9.73                             112   -1.19 0  279 292 
 URE  HE ES   4    4 0 40.44                             112   -1.72 0  279 292 
 URE  HZ I         4 0 44.02        11.5 0.12            109            279 292 
 GUY2CHZ EP        4 0 14.27                             110    0.59 7  298 234 
 GUY2CHE ES        4 0 47.12                             110    0.04 7  298 234 
 GUY2CHZ I         4 0 54.60         7.8 0.30                           298 234 
 SOCV BZ EP   4    4 0 11.02                             110   -2.76 0  304  58 
 SOCV BN ES   4    4 0 42.47                             110   -4.78 0  304  58 
 CBOC HZ EP        4 0 17.50                             108    0.58 7  330 252 
 CBOC HZ I         4 0 19.43         3.6 0.14            106            330 252 
 CBOC HE ES   4    4 0 52.24                             108   -0.61 0  330 252 
 DBB  SZ EP        4 0 17.13                             108   -0.28 7  335 274 
 DBB  SZ I         4 0 57.50        22.2 0.48            106            335 274 
 TOL  SZ EP        4 0 18.43                             107   -0.04 7  341 224 
 TOL  SE ES        4 0 54.87                             107   -0.73 7  341 224 
 TOL  SZ I         4 1  4.53         2.7 0.18            105            341 224 
 PRA  HZ EP        4 0 24.00                             105    0.08 6  391 209 
 PRA  HN ES        4 1  4.63                             105   -0.67 6  391 209 
 PRA  HZ I         4 1 10.94         5.6 0.24            103            391 209 
 ORTC HZ EP        4 0 24.65                             105    0.39 6  394 216 
 ORTC HN ES        4 1  6.08                             105    0.17 6  394 216 
 ORTC HZ I         4 1 14.35         3.2 0.26            103            394 216 
 SJC  HZ EP   4    4 0 23.93                             104   -1.75 0  406 327 
 SJC  HN ES   4    4 1  4.87                             104   -3.56 0  406 327 
 SJC  HZ I         4 1  8.45         2.4 0.48            102            406 327 
                                                                                
