 2015  531 0716  1.0 L   6.870 -73.357  6.0  RSN 22 0.7 2.6LRSN                1
 GAP= 53        1.72       2.6     3.6  6.6  0.1751E+00  0.1256E+02 -0.8700E-01E
 Epicentro: SAN VICENTE DE CHUCURI - SANTANDER                                 3
 ACTION:UPD 15-09-10 22:08 OP:cam  STATUS:               ID:20150531071601 L   I
 OLDACT:DUP 15-05-31 17:44 OP:stll STATUS:               ID:20150531070750d    3
 2015-05-31-0707-48M.COL___313                                                 6
 STAT SP IPHASW D HRMM SECON CODA AMPLIT PERI AZIMU VELO AIN AR TRES W  DIS CAZ7
 BAR2 EZ IP     D  716  7.48                              95    0.1010 36.3 148 
 BAR2 EZ ES        716 12.33                              95   -0.0110 36.3 148 
 BAR2 EZ I         716 14.27       821.2 0.34             47           36.3 148 
 BRR  HZ IP     D  716  8.72                              94   -0.0610 47.2 304 
 BRR  HN ES        716 14.65                              94   -0.1710 47.2 304 
 BRR  HZ I         716 16.27       284.0 0.42             47           47.2 304 
 PAM  SZ IP     D  716 16.00                              92    0.3310 89.3  54 
 PAM  SE ES        716 26.52                              92   -0.5610 89.3  54 
 PAM  SZ I         716 28.28       435.9 0.14             47           89.3  54 
 RUS  HZ EP     C  716 19.34                              91    0.1910  112 164 
 RUS  HN ES        716 31.88                              91   -1.4010  112 164 
 RUS  HZ I         716 38.84        58.0 0.52             47            112 164 
 OCA  HZ EP   4 D  716 25.54                              91    0.81 0  151   2 
 OCA  HE ES        716 43.45                              91    0.23 9  151   2 
 SPBC HZ EP        716 25.99                              91    0.60 9  156 210 
 SPBC HE ES        716 44.57                              91    0.18 9  156 210 
 SPBC HZ I         716 48.56       127.6 0.32             47            156 210 
 ZAR  HZ EP     D  716 28.44                              56   -0.12 9  179 293 
 ZAR  HN ES        716 48.68                              56   -1.36 9  179 293 
 ZAR  HZ I         716 50.20       144.5 0.44             47            179 293 
 TAM  HZ IP   9 C  716 31.77                              56    3.14 0  180 105 
 TAM  HN ES        716 52.10                                   -1.20 9  180 105 
 TAM  HZ I         716 58.55        98.5 0.54             37            180 105 
 NOR  HZ EP        716 33.97                              56    0.15 8  221 229 
 NOR  HN ES        716 59.45                              56    0.06 8  221 229 
 NOR  HZ I         717  2.45        27.9 0.38             37            221 229 
 SML  HZ EP   1    716 34.95                              56    0.39 6  228 340 
 SML  HE ES        717  0.09                              56   -0.63 8  228 340 
 SML  HZ I         717  3.09       106.5 0.22             37            228 340 
 ROSC BZ EP   4    716 39.78                              56    2.12 0  249 205 
 ROSC BN ES   4    717 12.92                              56    6.70 0  249 205 
 ROSC BZ I         717 19.58        44.5 0.50             37            249 205 
 CHI  HZ EP   4    716 41.38                              56    3.36 0  251 190 
 CHI  HN ES   4    717 12.82                              56    5.95 0  251 190 
 CHI  HZ I         717 20.11        24.8 0.46             37            251 190 
 HEL  HZ EP     D  716 38.00                              56   -0.02 8  252 253 
 HEL  HE ES        717  6.40                              56   -0.47 8  252 253 
 HEL  HZ I         717 10.69        22.7 0.36             37            252 253 
 GUY2CHZ EP     D  716 43.82                              56    1.22 7  287 231 
 GUY2CHE ES        717 15.06                              56    0.04 7  287 231 
 GUY2CHZ I         717 21.56        17.7 0.60                           287 231 
 RREF HZ IP   4 D  716 47.03                              55    1.45 0  310 225 
 RREF HN ES        717 20.24                              55   -0.09 7  310 225 
 RREF HZ I         717 38.08         6.5 0.70             36            310 225 
 CBOC HZ EP   4    716 47.39                              55    1.84 0  314 249 
 CBOC HZ I         716 52.19        10.5 0.34             36            314 249 
 CBOC HN ES   4    717 25.33                              55    5.06 0  314 249 
 SOCV BZ EP        716 48.18                              55    2.42 7  317  60 
 MON  HZ EP   9    716 49.08                              55    1.70 0  331 310 
 MON  HZ I         716 49.69        11.7 0.26             36            331 310 
 MON  HN ES        717 26.04                                    0.81 7  331 310 
 TOL  SZ EP   4    716 49.50                              55    1.38 0  333 221 
 TOL  SE ES        717 25.95                              55    1.10 7  333 221 
 TOL  SZ I         717 43.50        16.1 0.60             36            333 221 
 ANIL HZ EP   4    716 52.06                              55    2.27 0  347 221 
 ANIL HZ I         717 43.61        37.5 0.56             36            347 221 
 SDV  BZ EP   4    716 55.55                              55    2.57 0  374  53 
 SDV  BZ I         717 48.20        42.0 0.40             36            374  53 
 ORTC HZ EP   4    716 56.90                              55    2.31 0  389 213 
 ORTC HN ES   4    717 39.99                              55    3.63 0  389 213 
 ORTC HZ I         717 56.54        16.3 0.54             36            389 213 
                                                                                
