 2016  531 0036 22.1 L   6.793 -73.151147.8  RSN  5 0.4 1.6LRSN                1
 GAP=136        1.08       5.8     5.6  7.9 -0.3122E+01  0.5263E+01  0.2053E+01E
 Epicentro: LOS SANTOS - SANTANDER                                             3
 ACTION:UPD 16-08-18 17:50 OP:cam  STATUS:               ID:20160531003622 L   I
 OLDACT:UP  16-05-31 15:54 OP:edw  STATUS:               ID:20160531002740     3
 OLDACT:REG 16-05-31 12:14 OP:edw  STATUS:               ID:20160531002740     3
 2016-05-31-0027-40M.COL___316                                                 6
 STAT SP IPHASW D HRMM SECON CODA AMPLIT PERI AZIMU VELO AIN AR TRES W  DIS CAZ7
 BAR2 EZ EP        036 41.94                             171    0.0110 22.5 189 
 BAR2 EZ ES        036 57.14                             171   -0.2810 22.5 189 
 BAR2 EZ I         036 58.23         9.1 0.40            172           22.5 189 
 BRR  HZ EP        036 43.76                             153    0.3210 71.1 299 
 BRR  HN ES        037  0.90                             153    0.8010 71.1 299 
 BRR  HZ I         037  5.52         8.0 0.28            153           71.1 299 
 PAM  EZ EP        036 44.60                             151    0.0410 78.3  39 
 PAM  EN ES        037  1.62                             151   -0.4810 78.3  39 
 PAM  EZ I         037  3.79        11.4 0.48            153           78.3  39 
 RUS  HZ EP        036 46.32                             144    0.3510 99.8 176 
 RUS  HE ES        037  4.73                             144    0.1210 99.8 176 
 RUS  HZ I         037  6.40         3.1 0.30            148           99.8 176 
 PTB  HZ EP        036 48.68                             133   -0.47 9  147 259 
 PTB  HN ES        037  9.74                             133   -0.52 9  147 259 
                                                                                
