 2015 1031 0421 39.8 L   6.785 -73.128150.6  RSN 11 0.4 1.7LRSN                1
 GAP=140        0.80       2.8     6.0  5.8 -0.1027E+01  0.5752E+01 -0.3353E-02E
 Epicentro: LOS SANTOS - SANTANDER                                             3
 ACTION:UPD 15-12-22 20:44 OP:cam  STATUS:               ID:20151031042139 L   I
 OLDACT:REG 15-10-31 12:55 OP:ar   STATUS:               ID:20151031041748     3
 2015-10-31-0417-48M.COL___322                                                 6
 STAT SP IPHASW D HRMM SECON CODA AMPLIT PERI AZIMU VELO AIN AR TRES W  DIS CAZ7
 BAR2 EZ EP        421 59.71                             171   -0.2510 22.1 196 
 BAR2 EZ ES        422 14.97                             171   -0.7310 22.1 196 
 BAR2 EZ I         422 17.83         6.6 0.22            169           22.1 196 
 BRR  HZ EP   2    422  1.67                             152    0.08 5 73.7 299 
 BRR  HN ES        422 19.18                             152    0.5810 73.7 299 
 BRR  HZ I         422 26.89         7.9 0.30            150           73.7 299 
 PAM  EZ EP   2    422  2.82                             152    0.31 5 77.5  38 
 PAM  EN ES   2    422 20.48                             152    0.24 5 77.5  38 
 PAM  EZ I         422 22.27         7.3 0.62            157           77.5  38 
 RUS  HZ EP   2    422  4.37                             145    0.50 5 98.8 177 
 RUS  HN ES   2    422 23.16                             145    0.49 5 98.8 177 
 RUS  HZ I         422 25.25         4.6 0.36            148           98.8 177 
 OCA  HZ EP   2    422  9.35                             130    0.71 5  162 353 
 OCA  HE ES        422 31.26                             130    0.10 9  162 353 
 OCA  HZ I         422 35.45        10.9 0.26            133            162 353 
 SPBC HZ EP        422  8.86                             130    0.22 9  163 220 
 SPBC HN ES        422 31.31                             130    0.16 9  163 220 
 SPBC HZ I         422 34.78         8.9 0.38            131            163 220 
 ZAR  HZ EP   2    422 12.03                             123   -0.76 4  207 292 
 ZAR  HN ES   2    422 37.94                             123   -0.60 4  207 292 
 ZAR  HZ I         422 44.76         4.1 0.46            124            207 292 
 SML  HZ EP   2    422 16.17                             118   -0.76 4  246 335 
 SML  HN ES        422 45.63                             118   -0.28 8  246 335 
 SML  HZ I         422 48.42         7.9 0.10            120            246 335 
 CHI  HZ EP   2    422 17.88                             118    0.26 4  248 196 
 CHI  HN ES   2    422 46.81                             118   -0.33 4  248 196 
 CHI  HZ I         422 52.62         1.6 0.36            121            248 196 
 GUY2CHZ EP   2    422 23.70                             113    0.02 4  302 235 
 GUY2CHE ES   4    423  0.22                             113    2.29 0  302 235 
 GUY2CHZ I         423  4.89         2.2 0.50                           302 235 
 MON  HZ EP   4    422 23.69                             109   -5.57 0  356 308 
 MON  HN ES   4    423  5.61                             109   -2.26 0  356 308 
 MON  HZ I         423 10.12         0.8 0.40            111            356 308 
                                                                                
