 2017  731 0004  4.4 L   6.831 -73.471113.3  RSN  4 0.2 1.1LRSN                1
 GAP=170        0.63       4.3     3.5  5.3  0.7130E+01  0.4212E+01  0.6499E+01E
 Epicentro: SAN VICENTE DE CHUCURI - SANTANDER                                 3
 ACTION:UPD 17-08-30 15:38 OP:rebc STATUS:               ID:20170731000404 L   I
 OLDACT:UP  17-07-31 13:39 OP:osc  STATUS:               ID:20170730235958     3
 OLDACT:REG 17-07-31 13:33 OP:osc  STATUS:               ID:20170730235958     3
 2017-07-31-0000-15M.COL___377                                                 6
 STAT SP IPHASW D HRMM SECON CODA AMPLIT PERI AZIMU VELO AIN AR TRES W  DIS CAZ7
 BRR  HZ EP        0 4 20.05                             159   -0.3010 40.5 319 
 BRR  HE ES        0 4 33.04                             159    0.2210 40.5 319 
 BAR2 EZ IP     D  0 4 20.85                             159    0.1110 41.4 129 
 BAR2 EZ ES        0 4 33.37                             159   -0.1410 41.4 129 
 RUS  HZ EP        0 4 26.49                             132    0.3910  112 157 
 RUS  HE ES        0 4 42.90                             132   -0.1610  112 157 
 RUS  HZ I         0 4 46.36         1.5 0.32            131            112 157 
 PTB  HZ EP        0 4 25.35                             131   -0.2210  114 254 
 PTB  HE ES        0 4 42.22                             131    0.1010  114 254 
 PTB  HZ I         0 4 42.89         3.4 0.44            132            114 254 
 YPLC HN ES   4    0 5  0.18                             115    2.21 0  199 143 
                                                                                
