 2013  331 0556 48.7 L   6.856 -73.097151.6  RSN  5 0.4 1.2LRSN                1
 GAP=247        0.85       7.5     7.2 12.9  0.1289E+01 -0.2088E+02  0.3425E+02E
 Epicentro: LOS SANTOS - SANTANDER                                             3
 ACTION:UPD 13-04-09 14:06 OP:ep   STATUS:               ID:20130331055648 L   I
 2013-03-31-0550-00M.COL___245                                                 6
 STAT SP IPHASW D HRMM SECON CODA AMPLIT PERI AZIMU VELO AIN AR TRES W  DIS CAZ7
 BRR  HZ EP   1    557 10.62                             153    0.03 8 73.4 292 
 BRR  HN ES   1    557 28.17                             153    0.49 8 73.4 292 
 BRR  HZ I         557 35.97         2.2 0.12            176           73.4 292 
 RUS  HZ EP   1    557 13.06                             143   -0.38 8  107 179 
 RUS  HZ I         557 33.77         1.1 0.30            138            107 179 
 PTB  HZ EP        557 17.04                             132    0.3110  154 257 
 PTB  HE ES        557 38.04                             132   -0.5610  154 257 
 PTB  HZ I         557 39.64         4.4 0.18            148            154 257 
 ZAR  HN ES        557 47.45                             123   -0.19 9  207 290 
 NOR  HN ES        557 54.84                             119    0.42 9  243 234 
                                                                                
