 2016 1031 0819  8.1 L   6.495 -73.541116.9  RSN  4 0.1 0.9LRSN                1
 GAP=130        0.42       2.6     2.2  3.8  0.2566E+01  0.2457E+01  0.2271E+01E
 Epicentro: SANTA HELENA DEL OPON - SANTANDER                                  3
 ACTION:UPD 16-11-09 19:24 OP:rebc STATUS:               ID:20161031081907 L   I
 OLDACT:UP  16-11-01 16:48 OP:nlst STATUS:               ID:20161031081907 L   3
 OLDACT:ARG 16-10-31 12:40 OP:dani STATUS:               ID:20161031081800     3
 2016-10-31-0818-00M.COL___316                                                 6
 STAT SP IPHASW D HRMM SECON CODA AMPLIT PERI AZIMU VELO AIN AR TRES W  DIS CAZ7
 BAR2 EZ EP        819 24.72                             159   -0.1310 41.1  75 
 BAR2 EZ ES        819 37.77                             159   -0.1710 41.1  75 
 BAR2 EZ I         819 39.27         5.6 0.40            153           41.1  75 
 BRR  HZ EP        819 26.09                             147   -0.0310 70.2 344 
 BRR  HZ I         819 40.23         1.6 0.20            137           70.2 344 
 BRR  HE ES        819 40.40                             147    0.2010 70.2 344 
 RUS  HZ EP        819 27.97                             142    0.2010 83.7 143 
 RUS  HN ES        819 43.18                             142    0.0410 83.7 143 
 RUS  HZ I         819 45.99         0.8 0.44            139           83.7 143 
 PTB  HZ EP        819 28.42                             136   -0.1010  101 273 
 PTB  HN ES        819 44.44                             136   -0.0210  101 273 
 PTB  HZ I         819 48.99         1.6 0.18            130            101 273 
                                                                                
