 2013  331 0655  7.4 L   6.781 -73.170145.9  RSN  6 0.4 1.5LRSN                1
 GAP=233        0.78       5.3     5.0  7.4  0.5473E+01  0.8891E+01 -0.1913E+01E
 Epicentro: LOS SANTOS - SANTANDER                                             3
 ACTION:UPD 13-04-09 14:06 OP:ep   STATUS:               ID:20130331065507 L   I
 2013-03-31-0650-00M.COL___245                                                 6
 STAT SP IPHASW D HRMM SECON CODA AMPLIT PERI AZIMU VELO AIN AR TRES W  DIS CAZ7
 BAR2 SZ EP        655 26.73                             171   -0.2910 20.9 184 
 BAR2 SZ ES   1    655 42.31                             171    0.00 7 20.9 184 
 BAR2 SZ I         655 42.93        16.1 0.22            172           20.9 184 
 BRR  HZ IP     D  655 28.47                             153   -0.0510 70.0 301 
 BRR  HN ES   1    655 45.49                             153    0.52 7 70.0 301 
 BRR  HZ I         655 45.94         7.0 0.12            150           70.0 301 
 RUS  HZ EP   1    655 31.20                             144    0.15 7 98.7 174 
 RUS  HN ES   1    655 49.57                             144    0.09 7 98.7 174 
 RUS  HZ I         655 50.38         3.3 0.28            147           98.7 174 
 PTB  HZ EP   1    655 33.59                             133   -0.54 7  145 259 
 PTB  HN ES   1    655 54.40                             133   -0.56 7  145 259 
 PTB  HZ I         655 56.98         3.2 0.46            132            145 259 
 ZAR  HZ EP   1    655 40.47                             123    0.76 6  202 293 
 ZAR  HN ES   1    656  4.69                             123   -0.20 6  202 293 
 ZAR  HZ I         656 12.60         3.6 0.40            122            202 293 
 NOR  HE ES        656 10.73                             119    0.34 8  231 235 
                                                                                
