 2011  831 0204 32.9 L   6.790 -73.115146.6  RSN  8 0.3 2.1LRSN                1
 GAP=186        0.52       2.1     3.6  3.4 -0.6505E+00  0.2602E+01  0.8810E+00E
 Epicentro: LOS SANTOS - SANTANDER                                             3
 ACTION:UPD 12-07-13 15:54 OP:ep   STATUS:               ID:20110831020432 L   I
 2011-08-31-0203-32S.COL___165                                                 6
 STAT SP IPHASW D HRMM SECON CODA AMPLIT PERI AZIMU VELO AIN AR TRES W  DIS CAZ7
 BAR2 SZ EP   1    2 4 52.36                             171   -0.24 7 23.0 199 
 BAR2 SZ ES        2 5  7.98                             171    0.0010 23.0 199 
 BAR2 SZ I         2 5  8.65        26.2 0.35                          23.0 199 
 BRR  HZ EP        2 4 54.50                             151    0.1910 74.7 298 
 BRR  HN ES        2 5 10.88                             151   -0.1510 74.7 298 
 BRR  HZ I         2 5 16.93        34.3 0.10                          74.7 298 
 RUS  HZ EP   1    2 4 56.88                             144    0.27 7 99.2 178 
 RUS  HE ES   1    2 5 15.26                             144    0.13 7 99.2 178 
 RUS  HZ I         2 5 16.87        10.4 0.21                          99.2 178 
 OCA  SZ EP        2 5  1.14                             129   -0.26 9  162 352 
 OCA  SZ ES   1    2 5 23.88                             129    0.23 7  162 352 
 OCA  SZ I         2 5 27.17        46.5 0.10                           162 352 
 NOR  SZ EP   1    2 5  8.72                             118   -0.16 6  237 235 
 NOR  SE ES   1    2 5 36.53                             118   -0.42 6  237 235 
 CHI  HZ EP   1    2 5 10.75                             117    0.15 6  248 196 
 CHI  HZ I         2 5 13.00         5.6 0.21                           248 196 
 CHI  HE ES   1    2 5 39.82                             117   -0.20 6  248 196 
 HEL  HZ EP   1    2 5 13.99                             115    0.53 6  275 256 
 HEL  HN ES   1    2 5 45.44                             115    0.32 6  275 256 
 HEL  HZ I         2 5 51.99         8.8 0.50                           275 256 
 PRA  HZ EP   1    2 5 25.95                             107   -0.56 4  393 210 
 PRA  HN ES   1    2 6  8.59                             107    0.26 4  393 210 
                                                                                
