 2010 1031 0421 13.0 L   6.169 -73.650109.9  RSN 12 0.4 2.4LRSN                1
 GAP= 85        0.90       3.8     3.8  7.9 -0.4348E+01  0.1197E+02 -0.1268E+01E
 Epicentro: LA PAZ - SANTANDER                                                 3
 ACTION:UP  11-02-18 11:13 OP:tino STATUS:               ID:20101031042113 L   I
 2010-10-31-0418-22S.COL___125                                                 6
 STAT SP IPHASW D HRMM SECON CODA AMPLIT PERI AZIMU VELO SNR AR TRES W  DIS CAZ7
 BAR2 SZ IP        421 30.89                             145     0.210   70  48 
 BAR2 SZ I         421 31.10       117.9 0.19                            70  48 
 BAR2 SZ ES   1    421 44.61                             145     0.2 7   70  48 
 RUS  HZ IP     C  421 30.95                             146    -0.110   70 116 
 RUS  HZ I         421 31.31        43.8 0.24                            70 116 
 RUS  HE ES   1    421 44.88                             146    -0.2 7   70 116 
 BRR  HZ EP        421 32.99                             133    -0.110  104 356 
 BRR  HE ES   1    421 48.94                             133     0.2 7  104 356 
 BRR  HZ I         421 51.04        50.6 0.11                           104 356 
 NOR  SZ EP   1    421 36.89                             122    -0.8 7  151 244 
 NOR  SE ES   1    421 56.41                             122    -0.6 7  151 244 
 YOP  SZ EP   2    421 38.61                             119    -0.5 5  163 123 
 YOP  SE ES   2    421 59.80                             119     0.4 5  163 123 
 ROSC BZ EP   2    421 40.52                             119     0.9 5  165 207 
 ROSC BZ I         422  9.15        55.2 0.05                           165 207 
 GUE  SZ EP   1    421 43.04                             114    -0.4 6  200  24 
 HEL  HZ EP   1    421 44.52                             113     0.2 6  208 271 
 HEL  HE ES   2    422  8.26                             113    -0.5 4  208 271 
 HEL  HZ I         422 14.63        13.6 0.67                           208 271 
 GRA  SZ EP   1    421 44.21                             112    -0.2 6  212  26 
 GRA  SZ I         422 13.67        13.9 0.31                           212  26 
 GUY  SZ EP   1    421 46.18                             112     0.7 6  217 241 
 GUY  SN ES   1    422 11.49                             112     0.7 6  217 241 
 GUY  SZ I         422 17.03        26.8 0.59                           217 241 
 OCA  SZ EP   2    421 46.72                             110     0.0 4  232   9 
 OCA  SZ ES   2    422 13.59                             110     0.5 4  232   9 
 OCA  SZ I         422 21.33        16.8 0.31                           232   9 
 PRA  HN ES   2    422 28.11                             104     0.3 4  304 207 
 PRA  HZ I         422 33.74        33.6 0.25                           304 207 
                                                                                
