 2011  831 0640 35.8 L   6.745 -73.126142.1  RSN  4 0.1 1.5LRSN                1
 GAP=207        0.32       3.9     5.6  4.1  0.9453E+01 -0.1097E+02 -0.7355E+01E
 Epicentro: JORDAN - SANTANDER                                                 3
 ACTION:UPD 12-07-13 15:54 OP:ep   STATUS:               ID:20110831064035 L   I
 2011-08-31-0637-34S.COL___165                                                 6
 STAT SP IPHASW D HRMM SECON CODA AMPLIT PERI AZIMU VELO AIN AR TRES W  DIS CAZ7
 BAR2 SZ EP   1    640 55.02                             172    0.15 7 18.0 200 
 BAR2 SZ ES   1    641  9.67                             172   -0.09 7 18.0 200 
 BAR2 SZ I         641 11.31         7.6 0.33                          18.0 200 
 GIR2 SZ EP   2    640 55.24                             164    0.03 5 37.6 349 
 BRR  HZ EP        640 56.83                             150    0.0110 76.1 302 
 BRR  HZ I         640 57.37         5.5 0.17                          76.1 302 
 BRR  HN ES        641 13.23                             150    0.0010 76.1 302 
 OCA  SZ EP   1    641  4.26                             128   -0.15 7  167 353 
 OCA  SZ ES   2    641 26.88                             128    0.14 5  167 353 
 OCA  SZ I         641 30.07         3.3 0.21                           167 353 
                                                                                
