 2012  831 0452 32.3 L   6.728 -73.150144.0  RSN  6 0.3 1.6LRSN                1
 GAP=139        0.58       5.2     4.1  6.2 -0.2756E+01 -0.4583E+01  0.7777E+01E
 Epicentro: JORDAN - SANTANDER                                                 3
 ACTION:UPD 12-09-10 11:59 OP:ep   STATUS:               ID:20120831045232 L   I
 2012-08-31-0450-00M.COL___218                                                 6
 STAT SP IPHASW D HRMM SECON CODA AMPLIT PERI AZIMU VELO AIN AR TRES W  DIS CAZ7
 BAR2 SZ EP   2    452 51.69                             174    0.06 5 15.4 194 
 BAR2 SZ ES   2    453  6.47                             174   -0.20 5 15.4 194 
 BAR2 SZ I         453  7.73        10.5 0.18                          15.4 194 
 GIR2 SZ EP        452 51.85                             164   -0.2010 39.1 353 
 GIR2 SZ ES   2    453  6.93                             164   -0.48 5 39.1 353 
 BRR  HZ EP        452 53.71                             151    0.1910 75.0 304 
 BRR  HN ES   1    453 10.61                             151    0.57 7 75.0 304 
 BRR  HZ I         453 13.00         8.4 0.18                          75.0 304 
 PAM  SZ EP        452 54.72                             148   -0.0610 84.0  36 
 PAM  SZ I         452 54.95         9.5 0.24                          84.0  36 
 RUS  HZ EP        452 55.59                             146    0.2310 92.7 175 
 RUS  HE ES   3    453 13.16                             146   -0.16 2 92.7 175 
 PTB  HZ EP        452 58.80                             132   -0.21 9  146 262 
 PTB  HN ES   1    453 19.55                             132   -0.25 7  146 262 
 PTB  HZ I         453 21.60         2.5 0.42                           146 262 
                                                                                
