 2011 1231 0325 54.5 L   6.815 -73.136148.0  RSN 17 0.4 3.1LRSN                1
 GAP=114        0.67       2.9     3.5  4.5  0.3065E+00  0.5846E+01  0.4731E+01E
 Epicentro: LOS SANTOS - SANTANDER                                             3
 ACTION:UPD 12-07-13 16:19 OP:ep   STATUS:               ID:20111231032554 L   I
 2011-12-31-0320-00M.COL___186                                                 6
 STAT SP IPHASW D HRMM SECON CODA AMPLIT PERI AZIMU VELO AIN AR TRES W  DIS CAZ7
 BAR2 SZ IP        326 14.40                             170   -0.0710 25.1 192 
 BAR2 SZ I         326 14.86       206.1 0.31                          25.1 192 
 BAR2 SZ ES   1    326 29.65                             170   -0.37 7 25.1 192 
 BRR  HZ EP        326 16.13                             153    0.2010 71.4 297 
 BRR  HE ES   1    326 33.17                             153    0.54 7 71.4 297 
 BRR  HZ I         326 35.05       223.0 0.15                          71.4 297 
 PAM  SZ EP   1    326 17.27                             152    0.40 7 75.5  40 
 PAM  SE ES   1    326 34.16                             152   -0.14 7 75.5  40 
 PAM  SZ I         326 36.15       211.7 0.46                          75.5  40 
 RUS  HZ EP   1    326 18.44                             144   -0.17 7  102 177 
 RUS  HN ES   1    326 37.19                             144   -0.21 7  102 177 
 RUS  HZ I         326 38.98       119.2 0.36                           102 177 
 PTB  HZ EP   1    326 20.95                             132   -0.85 7  149 258 
 YOP  SZ EP   1    326 25.35                             126    0.52 7  180 154 
 YOP  SZ I         326 52.70        60.4 0.31                           180 154 
 ZAR  HZ EP   1    326 27.12                             123   -0.04 6  204 292 
 ZAR  HN ES   1    326 52.35                             123   -0.27 6  204 292 
 ZAR  HZ I         326 59.08       186.4 0.28                           204 292 
 NOR  SZ EP   1    326 30.86                             119    0.28 6  237 234 
 NOR  SN ES   1    326 58.80                             119    0.09 6  237 234 
 CHI  HZ EP   1    326 32.81                             117    0.26 6  250 195 
 CHI  HN ES   1    327  2.10                             117   -0.11 6  250 195 
 CHI  HZ I         327  6.64        83.6 0.66                           250 195 
 HEL  HZ EP   1    326 34.37                             115   -0.65 6  274 256 
 HEL  HZ I         327 13.85       114.4 0.46                           274 256 
 VIL  SZ EP   1    326 37.76                             112   -0.49 5  305 192 
 VIL  SN ES   1    327 12.54                             112    0.18 5  305 192 
 VIL  SZ I         327 22.23        73.0 0.42                           305 192 
 GUY  SZ EP   1    326 39.40                             112    0.69 5  305 235 
 GUY  SZ I         327 24.63        90.8 0.48                           305 235 
 RREF HZ EP   1    326 41.03                             111    0.05 5  324 229 
 RREF HN ES   1    327 17.34                             111    0.13 5  324 229 
 TOL  SZ EP   1    326 43.23                             109    0.14 5  345 225 
 TOL  SZ ES   1    327 21.60                             109    0.62 5  345 225 
 PRA  HZ EP   1    326 47.78                             107   -0.57 4  394 210 
 PAL  HZ EP   1    326 50.15                             106    0.18 4  407 239 
 YOT  HZ EP   1    326 57.24                             103   -0.62 4  474 229 
 YOT  HZ I         327  1.99        10.1 0.34                           474 229 
                                                                                
