 2011  331 0714 15.7 L   6.742 -73.146141.2  RSN  5 0.2 1.2LRSN                1
 GAP=178        0.34       7.2     7.3  6.2 -0.3301E+02 -0.2044E+02  0.1441E+02E
 Epicentro: JORDAN - SANTANDER                                                 3
 ACTION:UP  11-06-16 14:36 OP:jfem STATUS:               ID:20110331071415 L   I
 2011-03-31-0700-00M.COL___140                                                 6
 STAT SP IPHASW D HRMM SECON CODA AMPLIT PERI AZIMU VELO SNR AR TRES W  DIS CAZ7
 BAR2 SZ ES   3    714 49.02                             173    -0.4 2   17 194 
 BTL  SZ ES   3    714 49.87                             170     0.2 2   24 325 
 BRR  HZ EP        714 36.50                             151     0.010   75 303 
 BRR  HN ES   1    714 52.81                             151     0.0 7   75 303 
 BRR  HZ I         714 54.85         2.4 0.12                            75 303 
 GRA  SZ EP   2    714 41.09                             134     0.1 5  132  17 
 GRA  SZ ES   2    715  0.86                             134     0.1 5  132  17 
 GRA  SZ I         715  1.88         2.2 0.55                           132  17 
 OCA  SZ ES   3    715  5.93                             127    -0.6 2  167 353 
 OCA  SZ I         715 10.20         2.2 0.24                           167 353 
                                                                                
