 2010  831 0825 41.1 L   6.768 -73.045147.0  RSN  9 0.3 1.8LRSN                1
 GAP=170        0.61       3.2     6.8  5.4 -0.3209E+01 -0.6566E+01 -0.2267E+01E
 Epicentro: LOS SANTOS - SANTANDER                                             3
 ACTION:UP  10-09-07 10:59 OP:vdl  STATUS:               ID:20100831082541 L   I
 2010-08-31-0823-24S.COL___120                                                 6
 STAT SP IPHASW D HRMM SECON CODA AMPLIT PERI AZIMU VELO SNR AR TRES W  DIS CAZ7
 BAR2 SZ EP        826  0.85                             171     0.010   25 218 
 BAR2 SZ ES   1    826 16.20                                    -0.1 7   25 218 
 BAR2 SZ I         826 17.72        18.9 0.17                            25 218 
 BRR  HZ EP   1    826  2.90                             149    -0.1 7   83 297 
 BRR  HN ES   1    826 20.27                             149     0.1 7   83 297 
 BRR  HZ I         826 21.83        22.0 0.17                            83 297 
 RUS  HZ EP   1    826  4.66                             146     0.0 7   97 183 
 RUS  HN ES   1    826 23.21                             146     0.1 7   97 183 
 RUS  HZ I         826 24.85        10.1 0.25                            97 183 
 GUE  SZ EP   1    826  5.80                             139    -0.2 7  118   6 
 GRA  SZ EP        826  6.92                             137     0.410  126  12 
 GRA  SZ ES   2    826 25.61                                    -0.7 5  126  12 
 GRA  SZ I         826 27.86         3.3 0.39                           126  12 
 OCA  SZ EP   2    826  9.85                             129    -0.1 5  165 349 
 OCA  SZ I         826 38.38         5.9 0.44                           165 349 
 CHI  HZ EP   2    826 18.87                             118     0.1 4  248 198 
 CHI  HE ES   2    826 48.19                             118    -0.1 4  248 198 
 CHI  HZ I         826 51.15         3.1 0.35                           248 198 
 HEL  HZ EP   2    826 22.72                             114     0.3 4  282 257 
 HEL  HZ I         827  0.21         4.6 0.58                           282 257 
 PRA  HZ EP   2    826 34.24                             107    -0.7 3  395 211 
 PRA  HZ I         827 20.17         2.3 0.43                           395 211 
                                                                                
