 2013 1231 0654 38.1 L   6.832 -73.196140.4  RSN 12 0.6 1.9LRSN                1
 GAP=111        1.36       3.6     5.0  7.0 -0.2254E+01  0.3939E+01  0.3790E+00E
 Epicentro: ZAPATOCA - SANTANDER                                               3
 ACTION:UPD 14-01-13 10:22 OP:ep   STATUS:               ID:20131231065438 L   I
 OLDACT:REG 13-12-31 08:48 OP:stll STATUS:               ID:20131231064817     3
 2013-12-31-0648-17M.COL___237                                                 6
 STAT SP IPHASW D HRMM SECON CODA AMPLIT PERI AZIMU VELO AIN AR TRES W  DIS CAZ7
 BAR2 SZ EP        654 57.44                             169    0.2410 26.5 177 
 BAR2 SZ ES        655 11.90                             169   -0.1610 26.5 177 
 BAR2 SZ I         655 13.07        25.4 0.32            170           26.5 177 
 BRR  HZ IP     C  654 59.06                             154    0.7110 64.6 298 
 BRR  HZ I         654 59.24        16.0 0.28            151           64.6 298 
 BRR  HN ES        655 15.14                             154    1.0410 64.6 298 
 RUS  HZ EP        655  1.98                             142    0.3010  105 173 
 RUS  HN ES        655 19.82                             142   -0.2110  105 173 
 RUS  HZ I         655 21.27         2.8 0.22            144            105 173 
 PTB  HZ EP        655  3.96                             132   -0.29 9  143 257 
 PTB  HN ES        655 24.41                             132   -0.19 9  143 257 
 PTB  HZ I         655 27.49        14.1 0.38            131            143 257 
 OCA  HZ EP        655  5.48                             129   -0.18 9  156 355 
 OCA  HN ES        655 26.45                             129   -0.66 9  156 355 
 OCA  HZ I         655 30.23        12.9 0.40            130            156 355 
 TAM  HZ EP        655  5.69                             128   -0.32 9  161 106 
 SPBC HZ EP        655  6.34                             128    0.16 9  163 217 
 SPBC HN ES        655 28.31                             128    0.27 9  163 217 
 SPBC HZ I         655 35.25        11.6 0.28            129            163 217 
 NOR  HZ EP        655 13.46                             118    0.15 8  232 233 
 NOR  HN ES        655 40.40                             118   -0.33 8  232 233 
 NOR  HZ I         655 42.85         5.2 0.36            118            232 233 
 SML  HZ EP        655 13.77                             117   -0.11 8  238 336 
 SML  HN ES        655 41.02                             117   -0.72 8  238 336 
 SML  HZ I         655 48.80        13.8 0.10            117            238 336 
 CHI  HZ EP        655 16.10                             116    0.32 8  251 194 
 CHI  HN ES        655 43.84                             116   -1.28 8  251 194 
 HEL  HZ EP        655 18.73                             114    1.14 8  268 255 
 HEL  HN ES        655 47.45                             114   -0.90 8  268 255 
 HEL  HZ I         655 55.33         6.2 0.38            114            268 255 
 GUY2CHZ EP        655 22.08                             111    0.85 7  299 234 
 GUY2CHN ES        655 54.42                             111   -0.42 7  299 234 
 GUY2CHZ I         656  3.58         4.5 0.34                           299 234 
                                                                                
