 2013  731 0116  7.3 L   6.812 -73.193157.0  RSN  6 0.3 1.3LRSN                1
 GAP=197        0.67       3.4     6.0  9.0  0.4510E+01 -0.8301E+01 -0.7529E+01E
 Epicentro: ZAPATOCA - SANTANDER                                               3
 ACTION:UPD 13-08-12 10:41 OP:ep   STATUS:               ID:20130731011607 L   I
 OLDACT:REG 13-07-31 10:03 OP:carl STATUS:               ID:20130731010959     3
 2013-07-31-0109-59M.COL___267                                                 6
 STAT SP IPHASW D HRMM SECON CODA AMPLIT PERI AZIMU VELO AIN AR TRES W  DIS CAZ7
 BAR2 SZ EP   1    116 28.16                             171   -0.15 8 24.3 177 
 BRR  HN ES   1    116 47.13                             156    0.48 8 66.0 300 
 RUS  HZ EP   1    116 32.66                             145    0.36 8  102 173 
 RUS  HN ES   1    116 51.35                             145   -0.45 8  102 173 
 RUS  HZ I         116 52.69         2.2 0.36            146            102 173 
 PTB  HZ EP   1    116 34.82                             135    0.02 8  143 258 
 PTB  HN ES   1    116 55.81                             135   -0.42 8  143 258 
 PTB  HZ I         116 58.40         2.8 0.22            135            143 258 
 SPBC HN ES        116 59.45                             132    0.1910  161 217 
 SML  HN ES        117 12.88                             120   -0.15 9  240 336 
                                                                                
