 2010 1031 0815 17.4 L   6.799 -73.070143.4  RSN  6 0.2 1.7LRSN                1
 GAP=167        0.53       2.9     6.0  4.9 -0.1840E+01 -0.1791E+01 -0.3903E+00E
 Epicentro: LOS SANTOS - SANTANDER                                             3
 ACTION:UP  11-02-18 11:13 OP:tino STATUS:               ID:20101031081517 L   I
 2010-10-31-0810-03S.COL___125                                                 6
 STAT SP IPHASW D HRMM SECON CODA AMPLIT PERI AZIMU VELO SNR AR TRES W  DIS CAZ7
 BAR2 SZ IP        815 36.67                             169    -0.110   26 209 
 BAR2 SZ ES   1    815 51.86                             169     0.0 7   26 209 
 BAR2 SZ I         815 53.30        17.8 0.16                            26 209 
 BRR  HZ IP     C  815 38.54                             150    -0.210   79 296 
 BRR  HE ES   1    815 55.43                             150     0.1 7   79 296 
 BRR  HZ I         815 57.89        11.5 0.15                            79 296 
 RUS  HZ EP   1    815 40.57                             143    -0.3 7  100 181 
 RUS  HN ES   1    815 59.35                             143     0.2 7  100 181 
 RUS  HZ I         816  0.60         7.0 0.23                           100 181 
 GRA  SZ EP   1    815 42.35                             137     0.1 7  124  14 
 GRA  SZ ES   1    816  1.75                             137     0.1 7  124  14 
 GRA  SZ I         816  3.09         4.5 0.41                           124  14 
 OCA  SZ EP   2    815 45.51                             129    -0.1 5  162 350 
 OCA  SZ I         816 11.76         6.1 0.38                           162 350 
 ROSC BZ EP   1    815 56.36                             116     0.5 6  257 213 
                                                                                
