 2012  131 0921 41.5 L   6.760 -73.159143.6  RSN 11 0.5 2.2LRSN                1
 GAP=137        1.01       3.9     4.8  7.1 -0.1636E+01  0.7672E+01  0.4001E+01E
 Epicentro: LOS SANTOS - SANTANDER                                             3
 ACTION:UP  12-02-03 08:22 OP:REBC STATUS:               ID:20120131092141 L   I
 2012-01-31-0920-00M.COL___187                                                 6
 STAT SP IPHASW D HRMM SECON CODA AMPLIT PERI AZIMU VELO SNR AR TRES W  DIS CAZ7
 BAR2 SZ EP   1    922  0.93                             172     0.1 8   19 188 
 BAR2 SZ ES   1    922 15.47                             172    -0.4 8   19 188 
 BAR2 SZ I         922 17.18        28.0 0.45                            19 188 
 GIR2 SZ EP   1    922  1.09                             165     0.0 8   35 354 
 BRR  HZ EP   1    922  2.86                             152     0.4 8   72 302 
 BRR  HZ I         922  3.15        65.9 0.15                            72 302 
 BRR  HN ES   1    922 19.81                             152     1.0 8   72 302 
 PAM  SZ EP   1    922  3.67                             149    -0.1 8   82  38 
 PAM  SN ES   1    922 20.53                             149    -0.6 8   82  38 
 PAM  SZ I         922 23.10        21.2 0.41                            82  38 
 RUS  HZ EP   1    922  4.72                             145     0.0 8   96 175 
 RUS  HZ I         922  6.11         8.4 0.19                            96 175 
 RUS  HN ES   1    922 23.30                             145     0.4 8   96 175 
 PTB  HZ EP   1    922  7.77                             132    -0.3 7  146 260 
 PTB  HN ES        922 28.44                             132    -0.410  146 260 
 OCA  SZ EP   1    922  9.77                             128    -0.3 7  165 354 
 OCA  SZ ES   1    922 32.75                             128     0.4 7  165 354 
 OCA  SZ I         922 36.15        25.9 0.24                           165 354 
 ZAR  HZ EP   1    922 13.40                             122    -0.5 7  204 293 
 ZAR  HE ES   1    922 38.94                             122    -0.1 7  204 293 
 ZAR  HZ I         922 44.76        17.4 0.14                           204 293 
 CHI  HZ EP   1    922 18.87                             117     0.3 6  244 195 
 CHI  HN ES   1    922 46.89                             117    -0.6 6  244 195 
 CHI  HZ I         922 56.11         5.8 0.28                           244 195 
 HEL  HZ EP   1    922 22.14                             115     0.8 6  270 257 
 HEL  HN ES   1    922 51.99                             115    -0.4 6  270 257 
 HEL  HZ I         922 59.63        10.4 0.27                           270 257 
 PRA  HZ EP   1    922 34.48                             106     0.1 5  387 210 
 PRA  HN ES   1    923 16.51                             106     0.8 5  387 210 
 PRA  HZ I         923 19.77        15.6 0.24                           387 210 
                                                                                
