 2010  531 0541 11.5 L   6.933 -73.203152.0  RSN  4 0.3 1.6LRSN                1
 GAP=232        0.47       6.8     8.0 14.3 -0.3344E+02 -0.1066E+02  0.5994E+02E
 Epicentro: BETULIA - SANTANDER                                                3
 ACTION:UP  10-08-24 10:07 OP:vdl  STATUS:               ID:20100531054111 L   I
 2010-05-31-0538-38S.COL___109                                                 6
 STAT SP IPHASW D HRMM SECON CODA AMPLIT PERI AZIMU VELO SNR AR TRES W  DIS CAZ7
 OCA  SZ EP   1    541 38.77                             134    -0.1 7  145 355 
 OCA  SZ ES   1    542  0.42                             134     0.1 7  145 355 
 OCA  SZ I         542  6.68         4.1 0.32                           145 355 
 HEL  HZ EP   2    541 51.47                             116    -0.3 4  270 252 
 HEL  HN ES   2    542 22.82                             116    -0.4 4  270 252 
 HEL  HZ I         542 27.54         2.1 0.32                           270 252 
 RREF BZ EP   2    541 58.86                             112     0.4 3  327 227 
 RREF BN ES   2    542 35.60                             112     0.5 3  327 227 
 RREF BZ I         542 41.06         2.3 0.27                           327 227 
 MON  HN ES   2    542 36.49                             111     0.3 3  339 307 
 MON  HZ I         542 50.92         1.4 0.43                           339 307 
                                                                                
