 2017  731 0750 37.2 L   6.641 -72.941  4.0  RSN 15 0.7 2.1LRSN                1
 GAP= 81        1.71       3.5     3.0  6.0  0.4200E+00  0.2384E+01  0.4902E+01E
 Epicentro: ARATOCA - SANTANDER                                                3
 ACTION:UPD 17-08-30 15:38 OP:rebc STATUS:               ID:20170731075037 L   I
 OLDACT:UP  17-07-31 17:27 OP:osc  STATUS:               ID:20170731074739     3
 OLDACT:UP  17-07-31 17:25 OP:osc  STATUS:               ID:20170731074739     3
 OLDACT:REG 17-07-31 13:18 OP:osc  STATUS:               ID:20170731074739     3
 2017-07-31-0748-00M.COL___377                                                 6
 STAT SP IPHASW D HRMM SECON CODA AMPLIT PERI AZIMU VELO AIN AR TRES W  DIS CAZ7
 BAR2 EZ IP     D  750 41.40                              47   -0.7610 27.2 259 
 BAR2 EZ ES        750 44.91                              47   -1.1210 27.2 259 
 BAR2 EZ I         750 45.87       561.8 0.26             47           27.2 259 
 PAM  EZ EP        750 49.93                              47   -0.7310 81.7  19 
 PAM  EE ES        751  0.30                              47   -0.8810 81.7  19 
 PAM  EZ I         751  0.75        34.9 0.18             47           81.7  19 
 RUS  HZ IP   9 C  750 49.49                              47   -1.57 0 84.3 191 
 RUS  HE ES        750 59.57                              47   -0.7410 84.3 191 
 RUS  HZ I         751  0.25        57.3 0.18             47           84.3 191 
 BRR  HZ IP     D  750 53.94                              47    1.0710 99.6 301 
 BRR  HE ES        751  5.84                              47    0.7410 99.6 301 
 BRR  HZ I         751  7.95        82.0 0.18             47           99.6 301 
 TAM  HZ EP        750 58.15                              47    0.7610  129 100 
 TAM  HE ES        751 13.70                              47    0.5410  129 100 
 TAM  HZ I         751 18.56        23.7 0.16             47            129 100 
 YPLC HZ EP   4    751  2.72                              47    1.99 0  151 156 
 YPLC HE ES        751 19.29                              47    0.19 9  151 156 
 YPLC HZ I         751 24.09        26.3 0.32             47            151 156 
 SPBC HZ EP        751  2.92                              47   -0.15 9  166 229 
 SPBC HE ES        751 23.20                              47   -0.05 9  166 229 
 SPBC HZ I         751 29.30        52.1 0.20             47            166 229 
 PTB  HZ EP        751  3.89                              47    0.64 9  168 266 
 PTB  HE ES   4    751 24.77                              47    1.19 0  168 266 
 PTB  HZ I         751 26.92        22.9 0.16             47            168 266 
 ZAR  HZ EP   9    751 12.89                              37    1.46 0  232 294 
 ZAR  HE ES        751 39.83                              37    0.23 8  232 294 
 ZAR  HZ I         751 41.69        28.3 0.32             37            232 294 
 CHI  HZ EP   4    751 15.57                              37    2.74 0  239 202 
 CHI  HN ES   4    751 44.82                              37    4.19 0  239 202 
 CHI  HZ I         751 47.53         7.8 0.50             37            239 202 
 NOR  HZ EP   9    751 14.74                              37    1.67 0  244 241 
 NOR  HE ES        751 42.52                              37   -0.21 8  244 241 
 NOR  HZ I         751 46.55         7.0 0.17             37            244 241 
 PTGC HZ EP        751 17.69                              37   -0.32 7  284 162 
 PTGC HE ES        751 49.23                              37   -0.62 7  284 162 
 PTGC HZ I         751 59.12        12.2 0.46             37            284 162 
 HEL  HZ EP   4    751 20.58                              37    1.37 0  291 260 
 HEL  HN ES        751 52.89                              37    0.89 7  291 260 
 HEL  HZ I         751 54.72         5.9 0.16             37            291 260 
 GUY2CHZ EP   9    751 23.68                              36    1.84 0  311 240 
 GUY2CHE ES        751 59.24                                    0.73 7  311 240 
 GUY2CHZ I         752  4.19         8.9 0.36                           311 240 
 CBOC HZ EP   4    751 29.97                              36    3.59 0  351 256 
 CBOC HN ES   4    752 10.25                              36    5.49 0  351 256 
 CBOC HZ I         752 21.42         1.9 0.54             36            351 256 
                                                                                
