 2013 1031 0237 43.5 L   6.753 -73.160143.4  RSN  6 0.4 1.5LRSN                1
 GAP=137        0.83       5.6     6.3  6.8  0.1325E+02  0.7032E+01  0.4926E+01E
 Epicentro: LOS SANTOS - SANTANDER                                             3
 ACTION:UPD 13-11-25 09:24 OP:ep   STATUS:               ID:20131031023743 L   I
 OLDACT:REG 13-10-31 05:53 OP:jn   STATUS:               ID:20131031023000     3
 2013-10-31-0230-00M.COL___273                                                 6
 STAT SP IPHASW D HRMM SECON CODA AMPLIT PERI AZIMU VELO AIN AR TRES W  DIS CAZ7
 BAR2 SZ EP        238  2.82                             173    0.0310 18.0 188 
 BAR2 SZ ES        238 17.35                             173   -0.4510 18.0 188 
 BAR2 SZ I         238 18.54        15.0 0.34            167           18.0 188 
 BRR  HZ EP        238  4.42                             152   -0.0910 72.5 303 
 BRR  HN ES        238 21.48                             152    0.6210 72.5 303 
 BRR  HZ I         238 22.20         5.6 0.44            150           72.5 303 
 PAM  SN ES   2    238 22.70                             149   -0.49 5 82.4  38 
 RUS  HZ EP        238  6.93                             145    0.2310 95.5 175 
 RUS  HN ES        238 24.95                             145    0.1910 95.5 175 
 RUS  HZ I         238 27.15         2.7 0.18            143           95.5 175 
 PTB  HZ EP   1    238  9.75                             132   -0.34 7  145 261 
 PTB  HN ES   1    238 30.30                             132   -0.50 7  145 261 
 PTB  HZ I         238 35.11         3.7 0.14            130            145 261 
 SPBC HZ EP   2    238 11.50                             129    0.11 5  158 220 
                                                                                
