 2016 1231 0734  5.5 L   6.769 -73.165148.3  RSN  6 0.5 1.5LRSN                1
 GAP=233        1.25       6.7     8.1  8.3  0.2984E+02  0.1481E+02  0.9246E+01E
 Epicentro: LOS SANTOS - SANTANDER                                             3
 ACTION:UPD 17-01-11 20:20 OP:rebc STATUS:               ID:20161231073405 L   I
 OLDACT:REG 16-12-31 12:36 OP:dnl  STATUS:               ID:20161231072742     3
 2016-12-31-0728-00M.COL___362                                                 6
 STAT SP IPHASW D HRMM SECON CODA AMPLIT PERI AZIMU VELO AIN AR TRES W  DIS CAZ7
 BAR2 EZ EP        734 25.41                             172   -0.0010 19.7 186 
 BAR2 EZ ES        734 40.30                             172   -0.6110 19.7 186 
 BAR2 EZ I         734 41.71         9.1 0.26            168           19.7 186 
 BRR  HZ IP     C  734 27.30                             153    0.3410 71.1 302 
 BRR  HE ES        734 44.38                             153    0.7110 71.1 302 
 BRR  HZ I         734 47.59         5.7 0.22            149           71.1 302 
 RUS  HZ EP        734 29.45                             145    0.1310 97.3 175 
 RUS  HN ES        734 47.79                             145   -0.0710 97.3 175 
 RUS  HZ I         734 49.58         2.2 0.26            145           97.3 175 
 PTB  HZ EP        734 32.07                             133   -0.41 9  145 260 
 PTB  HN ES        734 52.85                             133   -0.64 9  145 260 
 PTB  HZ I         734 54.31         4.2 0.28            130            145 260 
 ZAR  HZ EP        734 38.15                             123    0.06 9  203 293 
 ZAR  HE ES        735  3.67                             123    0.19 9  203 293 
 ZAR  HZ I         735 13.66         3.0 0.16            122            203 293 
 CHI  HZ EP        734 42.24                             118   -0.73 8  245 195 
 CHI  HN ES        735 13.24                             118    1.08 8  245 195 
 CHI  HZ I         735 19.12         1.7 0.32            118            245 195 
                                                                                
