 2010 1031 0847 47.7 L   6.396 -73.879 80.0  RSN  4 0.4 1.3LRSN                1
 GAP=251        0.71       8.9    14.4 16.9  0.1021E+03  0.1726E+03  0.1049E+03E
 Epicentro: CIMITARRA - SANTANDER                                              3
 ACTION:UP  11-02-18 11:13 OP:tino STATUS:               ID:20101031084747 L   I
 2010-10-31-0846-46S.COL___125                                                 6
 STAT SP IPHASW D HRMM SECON CODA AMPLIT PERI AZIMU VELO SNR AR TRES W  DIS CAZ7
 BAR2 SZ EP   2    848  3.01                             132    -0.4 5   80  74 
 BAR2 SZ ES   1    848 15.46                             132    -0.2 7   80  74 
 BAR2 SZ I         848 16.57        16.8 0.52                            80  74 
 BRR  HZ EP   1    848  2.85                             131    -0.4 7   81  13 
 BRR  HZ I         848  3.39         5.2 0.32                            81  13 
 BRR  HE ES   1    848 15.61                             131     0.3 7   81  13 
 RUS  HZ EP   1    848  6.26                             124     0.1 7  104 122 
 RUS  HE ES   2    848 21.00                             124     0.4 5  104 122 
 RUS  HZ I         848 23.47         2.8 0.19                           104 122 
 GRA  SZ EP   2    848 17.54                             106     0.6 4  203  36 
                                                                                
