 2014  831 0907 36.3 L   6.817 -73.131150.0  RSN 14 0.4 2.0LRSN                1
 GAP=200        0.87       2.9     5.0  5.8 -0.2225E+01  0.8752E-01  0.2825E+01E
 Epicentro: LOS SANTOS - SANTANDER                                             3
 ACTION:UPD 14-09-15 21:54 OP:nd   STATUS:               ID:20140831090736 L   I
 OLDACT:REG 14-08-31 13:20 OP:fm   STATUS:               ID:20140831085818     3
 2014-08-31-0858-18M.COL___263                                                 6
 STAT SP IPHASW D HRMM SECON CODA AMPLIT PERI AZIMU VELO AIN AR TRES W  DIS CAZ7
 BAR2 SZ EP        9 7 56.69                             170    0.2010 25.5 193 
 BAR2 SZ ES   1    9 8 11.96                             170   -0.27 7 25.5 193 
 BAR2 SZ I         9 8 13.20        21.5 0.28            166           25.5 193 
 BRR  HZ EP   1    9 7 57.58                             153   -0.36 7 71.8 297 
 BRR  HN ES        9 8 15.35                             153    0.5310 71.8 297 
 BRR  HZ I         9 8 18.13        13.5 0.30            150           71.8 297 
 PTB  HZ EP   1    9 8  2.99                             133   -0.81 7  150 258 
 PTB  HN ES        9 8 24.48                             133   -0.77 9  150 258 
 PTB  HZ I         9 8 27.07         7.6 0.14            130            150 258 
 OCA  HZ EP   1    9 8  4.36                             131   -0.43 7  159 352 
 OCA  HN ES        9 8 27.30                             131    0.29 9  159 352 
 OCA  HZ I         9 8 32.16         6.9 0.26            132            159 352 
 SPBC HZ EP        9 8  5.61                             130    0.24 9  166 219 
 SPBC HN ES        9 8 27.91                             130   -0.13 9  166 219 
 SPBC HZ I         9 8 33.85        13.0 0.26            128            166 219 
 ZAR  HZ EP   1    9 8  9.25                             123    0.14 6  205 291 
 ZAR  HN ES        9 8 35.03                             123    0.33 9  205 291 
 ZAR  HZ I         9 8 39.83         7.2 0.36            122            205 291 
 SML  HZ EP   1    9 8 13.08                             118    0.02 6  243 335 
 SML  HN ES   1    9 8 41.03                             118   -0.70 6  243 335 
 SML  HZ I         9 8 43.80        14.8 0.10            119            243 335 
 CHI  HZ EP   1    9 8 14.36                             118   -0.13 6  251 195 
 CHI  HN ES   1    9 8 44.24                             118   -0.03 6  251 195 
 CHI  HZ I         9 8 49.55         4.0 0.34            117            251 195 
 HEL  HZ EP   1    9 8 17.24                             115    0.28 6  274 255 
 HEL  HN ES   1    9 8 49.13                             115    0.45 6  274 255 
 HEL  HZ I         9 8 56.97         3.5 0.36            115            274 255 
 GUY2CHN ES   4    9 8 56.39                             113    1.62 0  304 235 
 GUY2CHZ I         9 9  4.35         6.1 0.62                           304 235 
 TOL  SZ EP   1    9 8 25.61                             110    0.59 5  346 225 
 TOL  SE ES   4    9 9  5.74                             110    2.72 0  346 225 
 TOL  SZ I         9 9 13.04         7.7 0.42            110            346 225 
 PRA  HZ EP   4    9 8 29.21                             107   -1.05 0  394 210 
 PRA  HN ES   1    9 9 12.39                             107    0.04 4  394 210 
 PRA  HZ I         9 9 16.83         4.5 0.30            107            394 210 
 ORTC HN ES   1    9 9 14.00                             107    0.93 4  398 216 
 ORTC HZ I         9 9 17.90         1.9 0.20            107            398 216 
 SJC  HZ EP   4    9 8 30.91                             106   -1.02 0  409 327 
 SJC  HN ES   4    9 9  8.18                             106   -7.13 0  409 327 
 SJC  HZ I         9 9 13.01         2.4 0.76            107            409 327 
                                                                                
