 2012 1031 0802 12.8 L   7.377 -73.976 84.0  RSN  4 0.2 1.3LRSN                1
 GAP=142        0.50       5.7     2.6  7.7 -0.5787E+00  0.3143E+01 -0.3579E+02E
 Epicentro: PUERTO WILCHES - SANTANDER                                         3
 ACTION:UPD 12-11-22 17:06 OP:ep   STATUS:               ID:20121031080212 L   I
 2012-10-31-0800-00M.COL___231                                                 6
 STAT SP IPHASW D HRMM SECON CODA AMPLIT PERI AZIMU VELO AIN AR TRES W  DIS CAZ7
 BRR  HZ IP     C  8 2 25.73                             152    0.1210 41.7 136 
 BRR  HN ES        8 2 35.53                             152   -0.0510 41.7 136 
 BRR  HZ I         8 2 40.89         3.6 0.40                          41.7 136 
 ZAR  HZ EP        8 2 30.01                             127   -0.3010 98.2 278 
 ZAR  HE ES   1    8 2 44.25                             127    0.30 7 98.2 278 
 ZAR  HN I         8 2 45.71        10.6 0.10                          98.2 278 
 OCA  HZ EP        8 2 32.78                             121    0.0610  120  37 
 OCA  HN ES   3    8 2 47.65                             121   -0.59 2  120  37 
 SML  HZ EP        8 2 36.80                             113    0.06 9  158 356 
                                                                                
