 2011 1231 0151  3.0 L   6.793 -73.136152.5  RSN 21 0.4 4.0LRSN                1
 GAP=104        0.68       2.2     2.9  3.9  0.3143E+00  0.3233E+01  0.1797E+01E
 Epicentro: LOS SANTOS - SANTANDER                                             3
 ACTION:UPD 12-07-13 16:19 OP:ep   STATUS:               ID:20111231015103 L   I
 2011-12-31-0150-00M.COL___186                                                 6
 STAT SP IPHASW D HRMM SECON CODA AMPLIT PERI AZIMU VELO AIN AR TRES W  DIS CAZ7
 BAR2 SZ IP        151 23.36                             171   -0.0810 22.7 193 
 BAR2 SZ ES   1    151 38.88                             171   -0.50 7 22.7 193 
 BAR2 SZ I         151 40.51      2518.6 0.35                          22.7 193 
 BRR  HZ IP     C  151 25.31                             153    0.3410 72.5 299 
 BRR  HE ES   1    151 42.74                             153    0.65 7 72.5 299 
 BRR  HZ I         151 45.43      1488.9 0.29                          72.5 299 
 PAM  SZ EP        151 26.14                             152    0.1910 77.4  39 
 PAM  SN ES   1    151 43.51                             152   -0.33 7 77.4  39 
 PAM  SZ I         151 45.54       926.4 0.57                          77.4  39 
 RUS  HZ IP     D  151 27.15                             145   -0.2210 99.7 177 
 RUS  HN ES   1    151 46.16                             145   -0.21 7 99.7 177 
 RUS  HZ I         151 47.80      1424.9 0.49                          99.7 177 
 PTB  HZ EP   1    151 30.15                             133   -0.46 7  149 259 
 OCA  SZ EP   1    151 32.00                             131    0.06 7  161 353 
 OCA  SZ ES   1    151 54.94                             131    0.44 7  161 353 
 YOP  SZ EP        151 33.81                             128    0.37 9  178 153 
 YOP  SE ES   1    151 57.60                             128    0.43 7  178 153 
 YOP  SZ I         151 58.62       529.7 0.29                           178 153 
 ZAR  HZ EP   1    151 36.07                             124    0.04 6  205 292 
 ZAR  HN ES   1    152  1.29                             124   -0.50 6  205 292 
 ZAR  HZ I         152  7.12      1437.8 0.36                           205 292 
 NOR  SZ EP   1    151 38.68                             120   -0.50 6  235 235 
 NOR  SE ES   1    152  6.93                             120   -0.46 6  235 235 
 CHI  HZ EP        151 41.12                             118    0.08 8  248 195 
 CHI  HN ES   1    152 10.59                             118   -0.11 6  248 195 
 CHI  HZ I         152 16.71       586.0 0.42                           248 195 
 HEL  HZ EP   1    151 44.36                             116    0.69 6  273 256 
 HEL  HZ I         152 22.45       665.4 0.47                           273 256 
 VIL  SZ EP   1    151 46.40                             113   -0.28 5  303 192 
 VIL  SN ES   1    152 20.75                             113    0.01 5  303 192 
 VIL  SZ I         152 27.73       340.4 0.44                           303 192 
 GUY  SZ EP   1    151 47.49                             113    0.25 5  304 235 
 GUY  SZ I         152 28.60       867.6 0.35                           304 235 
 RREF HZ EP   1    151 50.16                             112    0.68 5  322 230 
 RREF HZ I         152 34.66       591.4 0.41                           322 230 
 DBB  SZ EP   1    151 50.63                             110   -0.26 5  341 274 
 DBB  SZ ES   1    152 28.28                             110    0.04 5  341 274 
 TOL  SZ EP   1    151 51.68                             110    0.12 5  344 225 
 COD  HZ EP   1    151 51.10                             110   -0.67 5  349 354 
 COD  HZ I         152 36.40       343.8 0.37                           349 354 
 SDV  BZ EP   1    151 52.62                             109   -0.67 5  360  50 
 SDV  BZ I         152 31.95       234.6 0.35                           360  50 
 PRA  HZ EP   1    151 56.50                             108   -0.25 4  392 210 
 PRA  HN ES   1    152 38.76                             108    0.09 4  392 210 
 PAL  HZ EP   1    151 58.78                             107    0.32 4  406 239 
 YOT  HZ EP   1    152  5.75                             104   -0.53 4  472 229 
 YOT  HZ I         152  9.18        92.9 0.65                           472 229 
                                                                                
