 2015  531 0813 48.6 L   6.828 -73.124144.6  RSN 26 0.6 2.8LRSN                1
 GAP= 53        1.43       3.0     3.8  6.0 -0.1821E+01  0.3180E+01  0.6307E+00E
 Epicentro: LOS SANTOS - SANTANDER                                             3
 ACTION:UPD 15-09-10 22:08 OP:cam  STATUS:               ID:20150531081348 L   I
 OLDACT:UP  15-05-31 18:27 OP:nlst STATUS:               ID:20150531081348 L   3
 OLDACT:REG 15-05-31 13:20 OP:ar   STATUS:               ID:20150531080749     3
 2015-05-31-0807-49M.COL___313                                                 6
 STAT SP IPHASW D HRMM SECON CODA AMPLIT PERI AZIMU VELO AIN AR TRES W  DIS CAZ7
 BAR2 EZ IP     C  814  8.49                             169    0.3010 26.9 194 
 BAR2 EZ ES        814 23.46                             169    0.0110 26.9 194 
 BAR2 EZ I         814 24.81       150.8 0.18            165           26.9 194 
 BRR  HZ IP     C  814 10.31                             152    0.6310 71.9 295 
 BRR  HN ES        814 26.86                             152    0.7510 71.9 295 
 BRR  HZ I         814 30.30        88.4 0.40            144           71.9 295 
 RUS  HZ EP     C  814 12.39                             143   -0.0810  104 177 
 RUS  HZ I         814 13.67        52.3 0.14            139            104 177 
 RUS  HN ES        814 31.02                             143   -0.0610  104 177 
 TAM  HZ IP     C  814 16.89                             130    0.82 9  154 106 
 TAM  HE ES        814 37.26                             130   -0.22 9  154 106 
 TAM  HZ I         814 39.06        48.2 0.30            129            154 106 
 OCA  HZ EP        814 16.16                             130   -0.42 9  157 352 
 OCA  HE ES        814 38.42                             130    0.04 9  157 352 
 OCA  HZ I         814 41.59       151.8 0.24            125            157 352 
 SPBC HZ EP        814 17.37                             128   -0.03 9  167 219 
 SPBC HE ES        814 39.50                             128   -0.35 9  167 219 
 SPBC HZ I         814 44.30       101.0 0.40            122            167 219 
 ZAR  HZ EP        814 20.78                             122   -0.32 9  205 291 
 ZAR  HN ES        814 46.30                             122   -0.13 9  205 291 
 ZAR  HZ I         814 52.51        66.7 0.20            116            205 291 
 NOR  HZ EP        814 24.52                             118   -0.16 8  238 234 
 NOR  HE ES        814 52.34                             118   -0.47 8  238 234 
 NOR  HZ I         814 57.51        62.2 0.18            113            238 234 
 SML  HZ EP        814 24.82                             117   -0.16 8  242 334 
 SML  HN ES        814 52.91                             117   -0.44 8  242 334 
 SML  HZ I         814 58.44        57.9 0.28            113            242 334 
 CHI  HZ EP        814 26.62                             116   -0.03 8  252 196 
 CHI  HN ES        814 55.95                             116   -0.36 8  252 196 
 CHI  HZ I         814 59.89        23.0 0.38            112            252 196 
 ROSC BZ EP     C  814 28.27                             116    1.17 8  257 211 
 ROSC BE ES        814 55.21                             116   -1.90 8  257 211 
 ROSC BZ I         815  4.90        57.9 0.35            112            257 211 
 HEL  HZ EP        814 28.57                             114   -0.54 8  275 255 
 HEL  HN ES        815  1.13                             114    0.44 8  275 255 
 HEL  HZ I         815  6.78        32.9 0.32            109            275 255 
 URE  HZ EP   4    814 28.58                             113   -1.17 0  285 291 
 URE  HZ I         815 12.83        34.3 0.22            109            285 291 
 SOCV BZ IP     D  814 31.22                             112    0.02 7  298  57 
 GUY2CHZ EP        814 32.70                             112    0.11 7  305 235 
 GUY2CHE ES        815  6.95                             112    0.06 7  305 235 
 GUY2CHZ I         815 17.45        30.6 0.48                           305 235 
 VIL  SZ EP        814 31.96                             111   -0.42 7  307 192 
 VIL  SE ES        815  6.20                             111   -0.32 7  307 192 
 VIL  SZ I         815 16.93        39.9 0.36            108            307 192 
 PTGC HZ EP   9 C  814 31.63                             111   -1.03 0  311 159 
 PTGC HZ I         814 32.83        43.3 0.22            108            311 159 
 PTGC HN ES        815  4.49                                   -1.49 7  311 159 
 RREF HZ EP     D  814 36.85                             110    1.70 7  326 229 
 RREF HN ES        815 10.84                             110   -0.60 7  326 229 
 RREF HZ I         815 20.03        13.2 0.28            106            326 229 
 CBOC HZ EP        814 36.34                             109    0.49 7  337 252 
 CBOC HZ I         815 21.81        12.5 0.28            105            337 252 
 TOL  SZ EP        814 38.14                             109    0.87 6  347 225 
 TOL  SE ES        815 15.67                             109    0.45 6  347 225 
 TOL  SZ I         815 22.76        40.6 0.54            105            347 225 
 MON  HZ EP   9    814 35.81                             108   -1.76 0  354 308 
 MON  HN ES        815 12.45                                   -1.54 6  354 308 
 MON  HZ I         815 16.54        12.4 0.64            104            354 308 
 SDV  BZ EP     D  814 37.90                             108   -0.28 6  357  50 
 SDV  BZ I         814 38.90        18.4 0.35            105            357  50 
 ANIL HZ EP        814 39.75                             108    0.92 6  361 224 
 ANIL HE ES        815 17.92                             108   -0.07 6  361 224 
 ANIL HZ I         815 22.82        74.5 0.28            104            361 224 
 ORTC HZ EP        814 42.93                             106   -0.03 6  399 216 
 ORTC HN ES        815 25.41                             106    0.07 6  399 216 
 ORTC HZ I         815 32.72        22.9 0.26            103            399 216 
 SJC  HZ EP        814 42.67                             105   -1.32 6  408 326 
 SJC  HE ES   4    815 23.41                             105   -3.77 0  408 326 
 SJC  HE E         815 23.41                                            408 326 
 SJC  HZ I         815 27.89         9.5 0.58            102            408 326 
 CRJC HZ EP        814 48.91                             103   -1.79 5  464   3 
 CRJC HN ES   4    815 34.85                             103   -4.27 0  464   3 
 CRJC HZ I         815 41.44        10.4 0.46            100            464   3 
                                                                                
