 2016  831 0328 31.1 L   6.752 -73.154141.3  RSN  6 0.5 1.8LRSN                1
 GAP=233        1.18       6.2     6.9  8.0  0.1735E+02  0.1075E+02 -0.8567E+00E
 Epicentro: LOS SANTOS - SANTANDER                                             3
 ACTION:UPD 16-10-29 15:40 OP:rebc STATUS:               ID:20160831032831 L   I
 OLDACT:DUP 16-08-31 15:44 OP:drio STATUS:               ID:20160831032740d    3
 2016-08-31-0328-00M.COL___347                                                 6
 STAT SP IPHASW D HRMM SECON CODA AMPLIT PERI AZIMU VELO AIN AR TRES W  DIS CAZ7
 BAR2 EZ EP        328 49.68                             172   -0.4210 18.0 190 
 BAR2 EZ ES        329  4.11                             172   -0.8010 18.0 190 
 BAR2 EZ I         329  5.79        19.0 0.30                          18.0 190 
 BRR  HZ EP        328 52.12                             151    0.2410 73.1 303 
 BRR  HN ES        329  8.92                             151    0.8410 73.1 303 
 BRR  HZ I         329 13.09        15.5 0.12                          73.1 303 
 RUS  HZ EP        328 54.42                             144    0.3810 95.4 175 
 RUS  HE ES        329 12.26                             144    0.3310 95.4 175 
 RUS  HZ I         329 13.47         7.6 0.38                          95.4 175 
 PTB  HZ EP        328 57.28                             131   -0.26 9  146 261 
 PTB  HN ES        329 17.67                             131   -0.49 9  146 261 
 PTB  HZ I         329 21.33         6.6 0.26                           146 261 
 SPBC HZ EP        328 59.04                             129    0.22 9  159 220 
 SPBC HN ES        329 20.55                             129    0.12 9  159 220 
 SPBC HZ I         329 25.54         9.3 0.22                           159 220 
 ZAR  HZ EP        329  2.95                             121   -0.44 8  205 294 
 ZAR  HN ES        329 28.76                             121    0.19 8  205 294 
 ZAR  HZ I         329 35.08         9.9 0.76                           205 294 
                                                                                
