 2011 1231 0846 57.0 L   6.756 -73.206149.4  RSN  4 0.4 1.3LRSN                1
 GAP=227        0.73       7.8     7.3  7.8  0.2759E+02  0.5582E+01  0.1971E+01E
 Epicentro: VILLANUEVA - SANTANDER                                             3
 ACTION:UPD 12-07-13 16:19 OP:ep   STATUS:               ID:20111231084657 L   I
 2011-12-31-0840-00M.COL___185                                                 6
 STAT SP IPHASW D HRMM SECON CODA AMPLIT PERI AZIMU VELO AIN AR TRES W  DIS CAZ7
 BAR2 SZ EP   1    847 16.81                             173   -0.13 7 18.3 172 
 BAR2 SZ ES   1    847 31.97                             173   -0.55 7 18.3 172 
 BAR2 SZ I         847 33.00         5.2 0.18                          18.3 172 
 BRR  HZ EP   1    847 18.23                             154   -0.10 7 68.1 305 
 BRR  HN ES   1    847 35.55                             154    0.54 7 68.1 305 
 BRR  HZ I         847 40.04         3.2 0.18                          68.1 305 
 RUS  HZ EP   1    847 20.69                             146   -0.09 7 96.4 172 
 RUS  HN ES   1    847 39.81                             146    0.45 7 96.4 172 
 PTB  HZ EP   1    847 23.80                             134    0.23 7  140 260 
 PTB  HN ES   1    847 43.95                             134   -0.37 7  140 260 
                                                                                
