 2012 1031 0238  9.1 L   7.211 -73.095159.6  RSN  7 0.4 2.4LRSN                1
 GAP=108        0.96       4.7     6.6  6.9 -0.1099E+01  0.1117E+02  0.6176E+01E
 Epicentro: BUCARAMANGA - SANTANDER                                            3
 ACTION:UPD 12-11-22 17:06 OP:ep   STATUS:               ID:20121031023809 L   I
 2012-10-31-0236-51M.COL___199                                                 6
 STAT SP IPHASW D HRMM SECON CODA AMPLIT PERI AZIMU VELO AIN AR TRES W  DIS CAZ7
 GIR2 SZ EP        238 30.36                             173    0.1510 18.2 217 
 GIR2 SZ ES   1    238 46.38                             173   -0.26 7 18.2 217 
 PAM  SZ EP        238 31.36                             164   -0.0610 45.9  72 
 PAM  SN ES        238 48.26                             164   -0.5410 45.9  72 
 PAM  SN I         238 49.22        48.8 0.18                          45.9  72 
 BRR  HZ EP        238 32.14                             155    0.4410 69.1 260 
 BRR  HE ES   1    238 50.22                             155    0.93 7 69.1 260 
 BRR  HN I         238 51.97        46.3 0.18                          69.1 260 
 BAR2 SZ EP        238 32.26                             155    0.2110 69.1 188 
 BAR2 SZ ES        238 49.57                             155   -0.3410 69.1 188 
 BAR2 SZ I         238 53.54        82.3 0.40                          69.1 188 
 OCA  HE ES        238 54.94                             142   -0.1010  116 348 
 RUS  HZ EP        238 38.02                             135    0.26 9  146 179 
 RUS  HN ES   1    239  0.20                             135    0.13 7  146 179 
 RUS  HN I         239  3.75        19.3 0.34                           146 179 
 HEL  HZ EP   1    238 51.52                             115   -0.73 5  292 247 
 HEL  HN ES   1    239 25.10                             115   -0.77 5  292 247 
 HEL  HN I         239 34.61        14.2 0.30                           292 247 
                                                                                
