 2017  531 0846 18.2 L   6.804 -73.157148.3  RSN 16 0.6 2.0LRSN                1
 GAP=212        1.27       4.5     4.6  7.8  0.7917E+01  0.4465E+01  0.3496E+01E
 Epicentro: LOS SANTOS - SANTANDER                                             3
 ACTION:UPD 17-06-16 13:40 OP:jn   STATUS:               ID:20170531084618 L   I
 OLDACT:UP  17-05-31 15:01 OP:ar   STATUS:               ID:20170531083736     3
 OLDACT:UP  17-05-31 15:00 OP:ar   STATUS:               ID:20170531083736     3
 OLDACT:UP  17-05-31 15:00 OP:ar   STATUS:               ID:20170531083736     3
 OLDACT:UP  17-05-31 14:40 OP:ar   STATUS:               ID:20170531083736     3
 OLDACT:REG 17-05-31 13:32 OP:osc  STATUS:               ID:20170531083736     3
 2017-05-31-0838-00M.COL___341                                                 6
 STAT SP IPHASW D HRMM SECON CODA AMPLIT PERI AZIMU VELO AIN AR TRES W  DIS CAZ7
 BRR  HZ EP        846 39.56                             153   -0.0210 69.9 299 
 BRR  HE ES        846 56.99                             153    0.7610 69.9 299 
 BRR  HZ I         846 57.82        10.5 0.25            152           69.9 299 
 RUS  HZ EP        846 41.85                             144   -0.4110  101 175 
 RUS  HE ES        847  0.82                             144   -0.1910  101 175 
 RUS  HZ I         847  1.15        13.5 0.26            143            101 175 
 PTB  HZ EP        846 44.34                             133   -0.96 9  147 259 
 PTB  HN ES        847  5.71                             133   -0.71 9  147 259 
 PTB  HZ I         847 12.54        12.8 0.34            131            147 259 
 SPBC HZ EP        846 46.52                             130   -0.36 9  163 219 
 SPBC HN ES        847  9.07                             130   -0.16 9  163 219 
 SPBC HZ I         847 14.65        18.9 0.10            129            163 219 
 YPLC HZ EP        846 48.26                             127   -0.04 9  178 151 
 YPLC HN ES        847 12.38                             127    0.62 9  178 151 
 YPLC HZ I         847 14.92         9.5 0.22            128            178 151 
 ZAR  HZ EP        846 51.93                             123    1.23 9  203 292 
 ZAR  HN ES        847 15.94                             123   -0.10 9  203 292 
 ZAR  HZ I         847 20.80         9.5 0.42            123            203 292 
 NOR  HZ EP        846 54.03                             119    0.01 8  234 234 
 NOR  HN ES        847 22.12                             119    0.18 8  234 234 
 NOR  HZ I         847 26.02         6.6 0.22            119            234 234 
 CHI  HZ EP        846 56.00                             118   -0.08 8  249 195 
 CHI  HE ES        847 25.67                             118    0.07 8  249 195 
 CHI  HZ I         847 29.24         7.1 0.66            118            249 195 
 ROSC BZ EP   9    846 58.47                             117    2.01 0  252 211 
 ROSC BN ES        847 27.98                             116   -0.31 8  252 211 
 ROSC BZ I         847 32.45        15.6 0.40            117            252 211 
 HEL  HZ EP   4    847  0.71                             115    2.26 0  271 256 
 HEL  HN ES        847 29.83                             115    0.01 8  271 256 
 HEL  HZ I         847 35.69         6.2 0.28            115            271 256 
 VIL  EN ES        847 35.25                             112   -0.50 7  304 191 
 ELA  HN ES   4    847 43.70                             111    2.02 0  328 229 
 CBOC HZ EP   4    847  6.23                             110    1.10 0  333 252 
 CBOC HE ES        847 41.84                             110    0.13 7  333 252 
 CBOC HZ I         847 47.35         1.8 0.42            111            333 252 
 ORTC HZ EP   4    847 14.55                             107    2.36 0  395 216 
 ORTC HE ES        847 55.78                             107    1.50 6  395 216 
 ORTC HZ I         847 58.97         3.7 0.16            107            395 216 
 APAC HN ES        847 53.63                             107   -0.94 6  397 288 
 PAL  HZ EP        847 13.43                             106    0.06 6  405 239 
 PAL  HN ES        847 57.40                             106    1.01 6  405 239 
 PAL  HZ I         848  1.52         1.9 0.34            107            405 239 
 SJC  HZ EP   4    847 11.86                             106   -1.89 0  408 327 
 SJC  HE ES   4    847 53.00                             106   -4.06 0  408 327 
 SJC  HZ I         847 57.64         1.8 0.32            107            408 327 
                                                                                
