 2012 1231 0701 39.4 L   6.787 -73.108146.8  RSN  6 0.4 1.4LRSN                1
 GAP=187        0.86       5.0     6.2  8.0  0.7622E+01  0.2726E+01 -0.8388E+01E
 Epicentro: LOS SANTOS - SANTANDER                                             3
 ACTION:UPD 13-01-04 14:31 OP:ep   STATUS:               ID:20121231070139 L   I
 2012-12-31-0700-00M.COL___239                                                 6
 STAT SP IPHASW D HRMM SECON CODA AMPLIT PERI AZIMU VELO AIN AR TRES W  DIS CAZ7
 BAR2 SZ EP        7 1 59.19                             171    0.0810 23.0 201 
 BAR2 SZ ES   1    7 2 14.66                             171    0.15 7 23.0 201 
 BAR2 SZ I         7 2 15.12         7.0 0.26                          23.0 201 
 BRR  HE ES   1    7 2 18.29                             151    0.65 7 75.5 298 
 BRR  HZ I         7 2 22.50         5.9 0.10                          75.5 298 
 RUS  HZ EP   1    7 2  3.29                             144    0.19 7 98.9 178 
 RUS  HN ES   1    7 2 21.37                             144   -0.24 7 98.9 178 
 RUS  HZ I         7 2 22.58         2.4 0.32                          98.9 178 
 PTB  HZ EP   1    7 2  6.59                             132   -0.17 7  152 260 
 PTB  HN ES   1    7 2 27.28                             132   -0.84 7  152 260 
 PTB  HZ I         7 2 34.24         2.0 0.28                           152 260 
 OCA  HZ EP   1    7 2  7.57                             129   -0.37 7  162 352 
 OCA  HN ES   1    7 2 29.74                             129   -0.48 7  162 352 
 ZAR  HZ EP   1    7 2 13.11                             122    0.79 6  208 292 
 ZAR  HN ES   1    7 2 38.20                             122    0.17 6  208 292 
 ZAR  HZ I         7 2 44.01         4.5 0.32                           208 292 
                                                                                
