 2011  731 0338 59.9 L   6.766 -73.068152.2  RSN  6 0.3 1.7LRSN                1
 GAP=165        0.55       3.3     6.6  6.1 -0.3399E+01  0.5102E+00 -0.2195E+01E
 Epicentro: LOS SANTOS - SANTANDER                                             3
 ACTION:UPD 12-07-25 14:04 OP:epov STATUS:               ID:20110731033860 L   I
 2011-07-31-0336-15S.COL___141                                                 6
 STAT SP IPHASW D HRMM SECON CODA AMPLIT PERI AZIMU VELO AIN AR TRES W  DIS CAZ7
 BAR2 SZ EP   1    339 20.35                             171    0.02 7 23.0 213 
 BAR2 SZ I         339 20.67         8.2 0.34                          23.0 213 
 BAR2 SZ ES   1    339 36.20                             171   -0.04 7 23.0 213 
 BRR  HZ IP     C  339 22.15                             151   -0.1610 80.6 298 
 BRR  HZ I         339 22.47        16.8 0.15                          80.6 298 
 BRR  HE ES   2    339 39.55                             151   -0.22 5 80.6 298 
 RUS  HZ EP   1    339 23.85                             146   -0.19 7 96.6 181 
 RUS  HE ES   2    339 43.28                             146    0.42 5 96.6 181 
 RUS  HZ I         339 44.15         3.7 0.32                          96.6 181 
 BRI  SZ EP   1    339 24.91                             142    0.41 7  109  16 
 BRI  SZ ES   2    339 43.20                             142   -0.46 5  109  16 
 OCA  SZ EP   2    339 28.63                             130   -0.57 5  165 350 
 OCA  SZ ES   1    339 52.43                             130    0.39 7  165 350 
 OCA  SZ I         339 52.52         6.6 0.84                           165 350 
 NOR  SN ES   2    340  5.49                             119    0.34 4  240 236 
                                                                                
