 2012 1231 0500 39.3 L   6.815 -73.146143.4  RSN  9 0.5 2.0LRSN                1
 GAP=183        0.92       4.0     5.5  6.8  0.5764E+01  0.9639E+01  0.6008E+01E
 Epicentro: LOS SANTOS - SANTANDER                                             3
 ACTION:UPD 13-01-04 14:31 OP:ep   STATUS:               ID:20121231050039 L   I
 2012-12-31-0500-00M.COL___239                                                 6
 STAT SP IPHASW D HRMM SECON CODA AMPLIT PERI AZIMU VELO AIN AR TRES W  DIS CAZ7
 BAR2 SZ EP        5 0 58.91                             170    0.2110 25.0 189 
 BAR2 SZ ES   1    5 1 13.10                             170   -0.72 7 25.0 189 
 BAR2 SZ I         5 1 13.92       170.1 0.76                          25.0 189 
 BRR  HZ EP   1    5 1  0.81                             152    0.64 7 70.4 297 
 BRR  HN ES   1    5 1 17.36                             152    0.93 7 70.4 297 
 BRR  HZ I         5 1 20.90        14.9 0.32                          70.4 297 
 RUS  HZ EP        5 1  2.84                             143   -0.1310  102 176 
 RUS  HN ES   1    5 1 21.28                             143   -0.13 7  102 176 
 RUS  HZ I         5 1 22.82        11.7 0.32                           102 176 
 PTB  HZ EP        5 1  5.56                             131   -0.56 9  148 258 
 PTB  HN ES   1    5 1 26.55                             131   -0.48 7  148 258 
 PTB  HZ I         5 1 29.10         9.7 0.24                           148 258 
 OCA  HN ES   1    5 1 28.96                             129   -0.15 7  159 353 
 OCA  HZ I         5 1 33.53         8.4 0.32                           159 353 
 ZAR  HZ EP        5 1 11.42                             122   -0.12 9  203 292 
 ZAR  HN ES   1    5 1 36.84                             122    0.16 6  203 292 
 ZAR  HZ I         5 1 41.81         5.8 0.22                           203 292 
 CHI  HZ EP        5 1 17.13                             116    0.06 8  250 195 
 CHI  HN ES   1    5 1 46.50                             116    0.00 6  250 195 
 CHI  HZ I         5 1 52.05         3.8 0.50                           250 195 
 ROSC BZ EP   1    5 1 17.78                             116    0.31 6  254 211 
 ROSC BN ES   1    5 1 48.19                             116    0.97 6  254 211 
 ROSC BZ I         5 1 53.34        10.1 0.50                           254 211 
 HEL  HZ EP   1    5 1 19.39                             114   -0.07 6  272 255 
 HEL  HN ES   1    5 1 50.38                             114   -0.38 6  272 255 
 HEL  HZ I         5 1 57.83         5.5 0.36                           272 255 
 MON  HZ EP   4    5 1 26.59                             108   -1.52 0  353 308 
 MON  HE ES   4    5 2  4.65                             108   -1.51 0  353 308 
                                                                                
