 2017  831 0100 11.1 L   6.870 -73.117145.6  RSN 23 0.7 2.2LRSN                1
 GAP= 66        1.39       3.4     3.4  6.1  0.6662E+00  0.5771E+01  0.3372E+01E
 Epicentro: LOS SANTOS - SANTANDER                                             3
 ACTION:UPD 17-09-04 20:26 OP:rebc STATUS:               ID:20170831010011 L   I
 OLDACT:UP  17-08-31 13:38 OP:dhb  STATUS:               ID:20170831005739     3
 OLDACT:REG 17-08-31 13:23 OP:dhb  STATUS:               ID:20170831005739     3
 2017-08-31-0058-00M.COL___402                                                 6
 STAT SP IPHASW D HRMM SECON CODA AMPLIT PERI AZIMU VELO AIN AR TRES W  DIS CAZ7
 BAR2 EZ IP     D  1 0 30.83                             168   -0.0810 31.6 193 
 BAR2 EZ ES        1 0 46.29                             168   -0.0710 31.6 193 
 BAR2 EZ I         1 0 46.96        27.5 0.28            166           31.6 193 
 PAM  EZ EP        1 0 33.38                             153    0.5310 69.4  42 
 PAM  EE ES        1 0 49.86                             153    0.0510 69.4  42 
 PAM  EZ I         1 0 52.94        23.5 0.37            151           69.4  42 
 BRR  HZ IP     D  1 0 32.38                             153    0.1710 70.8 292 
 BRR  HN ES        1 0 49.50                             153    0.8210 70.8 292 
 BRR  HZ I         1 0 52.67        34.7 0.17            146           70.8 292 
 RUS  HZ IP     D  1 0 35.40                             142   -0.0010  108 178 
 RUS  HN ES        1 0 53.71                             142   -0.6410  108 178 
 RUS  HZ I         1 0 55.35         9.1 0.43            139            108 178 
 TAM  HZ EP        1 0 39.17                             131    0.48 9  154 108 
 TAM  HN ES        1 1  0.96                             131    0.75 9  154 108 
 SPBC HZ EP   1    1 0 39.63                             128   -0.73 7  171 218 
 SPBC HN ES        1 1  1.97                             128   -1.21 9  171 218 
 SPBC HZ I         1 1  6.70        11.7 0.16            123            171 218 
 YPLC HZ IP     C  1 0 41.58                             126    0.16 9  182 153 
 YPLC HE ES        1 1  5.27                             126    0.20 9  182 153 
 YPLC HZ I         1 1  7.78        10.9 0.14            123            182 153 
 ZAR  HZ EP        1 0 43.61                             122    0.05 9  204 290 
 ZAR  HE ES        1 1  9.10                             122    0.23 9  204 290 
 ZAR  HZ I         1 1 15.39        19.1 0.29            117            204 290 
 NOR  HZ EP        1 0 47.48                             118   -0.11 8  242 233 
 NOR  HE ES        1 1 15.98                             118   -0.07 8  242 233 
 NOR  HZ I         1 1 21.68        11.4 0.17            114            242 233 
 CHI  HZ EP        1 0 49.48                             116   -0.22 8  257 195 
 CHI  HE ES        1 1 19.95                             116    0.14 8  257 195 
 CHI  HZ I         1 1 30.79         5.8 0.30            113            257 195 
 ROSC BZ EP   4    1 0 49.02                             116   -1.10 0  261 211 
 ROSC BE ES        1 1 20.53                             116   -0.03 8  261 211 
 ROSC BZ I         1 1 28.36        12.6 0.42            112            261 211 
 HEL  HZ EP        1 0 52.35                             114    0.48 7  277 254 
 HEL  HE ES        1 1 23.77                             114    0.10 7  277 254 
 HEL  HZ I         1 1 30.42         8.1 0.33            110            277 254 
 URE  HZ EP   1    1 0 52.24                             113    0.06 6  284 290 
 URE  HE ES        1 1 22.44                             113   -1.79 7  284 290 
 URE  HZ I         1 1 31.92        15.2 0.37            109            284 290 
 GUY2CHZ EP        1 0 56.28                             112    0.77 7  308 234 
 GUY2CHN ES        1 1 30.36                             112    0.21 7  308 234 
 GUY2CHZ I         1 1 39.23         6.4 0.52                           308 234 
 PTGC HZ EP        1 0 54.41                             111   -1.24 7  315 160 
 PTGC HE ES        1 1 28.40                             111   -2.00 7  315 160 
 PTGC HZ I         1 1 35.11        10.5 0.45            108            315 160 
 LL6C HZ EP        1 0 55.60                             111   -0.33 7  317 357 
 LL6C HE ES   1    1 1 29.71                             111   -1.18 5  317 357 
 LL6C HZ I         1 1 54.26         9.3 0.53            107            317 357 
 ELA  HE ES        1 1 36.48                             110    0.47 7  337 229 
 ELA  HZ I         1 1 48.62         4.3 0.21            106            337 229 
 DBB  EZ EP        1 0 59.32                             109    0.44 7  342 273 
 DBB  EN ES   4    1 1 33.67                             109   -2.48 0  342 273 
 DBB  EZ I         1 1 41.87         3.4 0.17            106            342 273 
 ANIL HZ EP        1 1  2.83                             108    1.03 6  365 224 
 ANIL HE ES        1 1 42.49                             108    1.14 6  365 224 
 ANIL HZ I         1 1 51.91        14.1 0.23            105            365 224 
 PRA  HZ EP        1 1  5.51                             106   -0.09 6  400 209 
 PRA  HE ES        1 1 48.41                             106    0.31 6  400 209 
 PRA  HZ I         1 1 53.77         4.2 0.24            103            400 209 
 ORTC HN ES   3    1 1 50.85                             106    2.08 1  404 216 
 SJC  HZ EP   9    1 1  4.28                             106   -1.83 0  404 326 
 SJC  HE ES        1 1 46.83                                   -0.35 6  404 326 
 SJC  HZ I         1 1 50.33         4.0 0.23            103            404 326 
 PAL  HZ EP        1 1  7.10                             106    0.05 6  412 238 
 PAL  HZ I         1 1 57.53         3.6 0.12            103            412 238 
                                                                                
