 2015  131 0436 50.4 L   6.779 -73.134143.3  RSN  7 0.4 1.3LRSN                1
 GAP=184        1.04       4.0     5.6  7.6  0.3988E+01  0.6915E+01  0.9329E+00E
 Epicentro: LOS SANTOS - SANTANDER                                             3
 ACTION:UPD 15-03-02 15:44 OP:nd   STATUS:               ID:20150131043650 L   I
 OLDACT:UP  15-01-31 15:00 OP:cam  STATUS:               ID:20150131042812     3
 OLDACT:REG 15-01-31 13:08 OP:cam  STATUS:               ID:20150131042812     3
 2015-01-31-0428-12M.COL___271                                                 6
 STAT SP IPHASW D HRMM SECON CODA AMPLIT PERI AZIMU VELO AIN AR TRES W  DIS CAZ7
 BAR2 EZ EP        437  9.81                             171    0.1010 21.4 194 
 BAR2 EZ ES        437 24.74                             171   -0.0310 21.4 194 
 BAR2 EZ I         437 26.17         8.2 0.24            169           21.4 194 
 BRR  HZ EP        437 11.82                             151    0.3910 73.4 300 
 BRR  HE ES        437 28.57                             151    0.7510 73.4 300 
 BRR  HZ I         437 32.48         3.7 0.14            150           73.4 300 
 RUS  HZ EP        437 13.93                             144    0.1710 98.2 177 
 RUS  HN ES        437 31.70                             144   -0.2610 98.2 177 
 RUS  HZ I         437 33.28         1.6 0.26            146           98.2 177 
 PTB  HZ EP        437 17.02                             131   -0.24 9  149 260 
 PTB  HN ES        437 37.61                             131   -0.58 9  149 260 
 PTB  HZ I         437 43.48         2.7 0.56            132            149 260 
 SPBC HZ EP        437 18.90                             129    0.27 9  162 220 
 SPBC HE ES        437 40.39                             129   -0.26 9  162 220 
 SPBC HZ I         437 43.87         3.1 0.32            130            162 220 
 OCA  HE ES        437 40.15                             129   -0.73 9  163 353 
 ZAR  HE ES        437 48.50                             122    0.24 8  206 293 
                                                                                
