 2010  831 0539 16.3 L   6.732 -73.036148.7  RSN  5 0.4 1.3LRSN                1
 GAP=172        1.04      14.0    17.1 20.2  0.2489E+02 -0.1284E+03 -0.1899E+03E
 Epicentro: ARATOCA - SANTANDER                                                3
 ACTION:UP  10-09-07 10:59 OP:vdl  STATUS:               ID:20100831053915 L   I
 2010-08-31-0536-25S.COL___120                                                 6
 STAT SP IPHASW D HRMM SECON CODA AMPLIT PERI AZIMU VELO SNR AR TRES W  DIS CAZ7
 BAR2 SZ EP   2    539 36.44                             172     0.2 5   22 227 
 BAR2 SZ ES   2    539 51.99                             172     0.2 5   22 227 
 BAR2 SZ I         539 53.27         9.7 0.21                            22 227 
 BRR  HZ IP     C  539 38.66                             147     0.110   86 299 
 BRR  HZ I         539 38.87        10.5 0.06                            86 299 
 BRR  HN ES   2    539 55.88                             147    -0.1 5   86 299 
 RUS  HN ES   2    539 57.87                             149    -0.3 5   93 183 
 RUS  HZ I         540  0.71         2.1 0.33                            93 183 
 GUE  SZ EP   1    539 40.82                             137    -0.9 7  122   6 
 GUE  SZ I         539 41.83         1.4 0.06                           122   6 
 GRA  SZ EP        539 42.59                                     0.410  130  11 
 GRA  SZ I         540  3.29         2.1 0.35                           130  11 
                                                                                
