 2014  131 0353 50.6 L   6.876 -72.903128.0  RSN  4 0.2 1.3LRSN                1
 GAP=222        0.67       6.6    14.1  8.7  0.8233E+02 -0.9174E+02 -0.4611E+02E
 Epicentro: GUACA - SANTANDER                                                  3
 ACTION:UPD 14-03-13 09:59 OP:ep   STATUS:               ID:20140131035350 L   I
 OLDACT:REG 14-01-31 07:26 OP:nd   STATUS:               ID:20140131035000     3
 2014-01-31-0350-00M.COL___288                                                 6
 STAT SP IPHASW D HRMM SECON CODA AMPLIT PERI AZIMU VELO AIN AR TRES W  DIS CAZ7
 BAR2 SZ EP        354  9.27                             160    0.5310 44.0 225 
 BAR2 SZ ES        354 22.73                             160   -0.1910 44.0 225 
 BAR2 SZ I         354 25.73         9.5 0.20            170           44.0 225 
 BRR  HZ EP        354 11.13                             142   -0.2110 93.0 286 
 BRR  HN ES        354 27.76                             142    0.2110 93.0 286 
 BRR  HZ I         354 28.82         3.2 0.14            148           93.0 286 
 RUS  HZ EP        354 13.44                             137    0.0110  111 190 
 RUS  HN ES        354 31.06                             137   -0.1910  111 190 
 RUS  HZ I         354 33.14         1.3 0.22            144            111 190 
 SML  HZ EP        354 26.73                             113   -0.11 8  249 329 
 SML  HN ES        354 55.00                             113   -0.14 8  249 329 
 SML  HZ I         355  0.15         2.5 0.09            116            249 329 
                                                                                
