 2012  731 0949  1.9 L   6.616 -73.259139.4  RSN  4 0.3 1.1LRSN                1
 GAP=150        0.78      11.8     9.4  9.9  0.5570E+02  0.2869E+02  0.5293E+02E
 Epicentro: CABRERA - SANTANDER                                                3
 ACTION:UPD 12-08-14 11:46 OP:ep   STATUS:               ID:20120731094901 L   I
 2012-07-31-0947-00S.COL___209                                                 6
 STAT SP IPHASW D HRMM SECON CODA AMPLIT PERI AZIMU VELO AIN AR TRES W  DIS CAZ7
 BAR2 SZ EP   1    949 20.55                             176     0.0 7    9 107 
 BAR2 SZ ES   1    949 34.79                             176    -0.3 7    9 107 
 BAR2 SZ I         949 36.21         3.3 0.26            141              9 107 
 BRR  HZ EP   1    949 22.03                             151    -0.5 7   74 317 
 BRR  HZ I         949 22.41         6.3 0.12            152             74 317 
 BRR  HN ES   1    949 39.05                             151     0.5 7   74 317 
 RUS  HZ EP   1    949 24.07                             148     0.3 7   82 166 
 RUS  HZ I         949 43.95         1.0 0.20            118             82 166 
 PTB  HZ EP   1    949 27.00                             134     0.0 7  133 266 
 PTB  HE ES   2    949 46.31                             134    -0.2 5  133 266 
 PTB  HZ I         949 50.73         1.0 0.15            118            133 266 
