 2010 1031 0754 14.7 L   6.778 -73.089147.3  RSN  7 0.2 2.3LRSN                1
 GAP=165        0.55       2.5     5.6  4.7 -0.9114E+00 -0.1302E+01 -0.1218E+01E
 Epicentro: LOS SANTOS - SANTANDER                                             3
 ACTION:UP  11-02-18 11:13 OP:tino STATUS:               ID:20101031075414 L   I
 2010-10-31-0748-18S.COL___125                                                 6
 STAT SP IPHASW D HRMM SECON CODA AMPLIT PERI AZIMU VELO SNR AR TRES W  DIS CAZ7
 BAR2 SZ IP        754 34.52                             171     0.010   23 207 
 BAR2 SZ ES   1    754 49.99                             171     0.0 7   23 207 
 BAR2 SZ I         754 51.06        61.3 0.21                            23 207 
 BRR  HZ IP     C  754 36.40                             151     0.010   78 298 
 BRR  HZ I         754 36.62        74.3 0.16                            78 298 
 BRR  HN ES   1    754 53.50                             151     0.2 7   78 298 
 RUS  HZ EP        754 38.46                             145     0.110   98 180 
 RUS  HN ES   1    754 56.67                             145    -0.2 7   98 180 
 RUS  HZ I         754 58.42        26.5 0.40                            98 180 
 GRA  SZ IP        754 40.40                             137     0.310  126  14 
 GRA  SZ ES   1    754 59.94                             137     0.0 7  126  14 
 GRA  SZ I         755  1.26        11.0 0.31                           126  14 
 OCA  SZ EP   1    754 43.15                             129    -0.3 7  164 351 
 OCA  SZ ES   1    755  5.52                             129    -0.3 7  164 351 
 OCA  SZ I         755 11.68        14.3 0.30                           164 351 
 NOR  SZ EP   2    754 50.30                             118    -0.6 4  239 236 
 HEL  HZ EP   2    754 56.15                             114     0.6 4  278 257 
                                                                                
