 2017  831 0628 26.7 L   6.772 -73.110140.6  RSN  6 0.4 1.5LRSN                1
 GAP=142        1.09       4.5     5.4  7.3 -0.1683E+00  0.1117E+02  0.6080E+00E
 Epicentro: LOS SANTOS - SANTANDER                                             3
 ACTION:UPD 17-09-04 20:26 OP:rebc STATUS:               ID:20170831062826 L   I
 OLDACT:REG 17-08-31 12:34 OP:dhb  STATUS:               ID:20170831061731     3
 2017-08-31-0618-00M.COL___390                                                 6
 STAT SP IPHASW D HRMM SECON CODA AMPLIT PERI AZIMU VELO AIN AR TRES W  DIS CAZ7
 BAR2 EZ IP     C  628 45.15                             171   -0.5310 21.4 202 
 BAR2 EZ ES        629  0.56                             171    0.0810 21.4 202 
 BAR2 EZ I         629  1.11        10.2 0.22            171           21.4 202 
 BRR  HZ IP     C  628 47.15                             150   -0.4510 76.1 299 
 BRR  HN ES        629  4.23                             150    0.3410 76.1 299 
 BRR  HZ I         629  8.74         8.5 0.09            148           76.1 299 
 PAM  EZ IP     D  628 48.26                             150   -0.1210 77.4  36 
 PAM  EN ES        629  5.37                             150    0.0810 77.4  36 
 PAM  EZ I         629  9.43         2.5 0.61            152           77.4  36 
 RUS  HZ EP        628 50.69                             144    0.9710 97.3 178 
 RUS  HN ES        629  7.34                             144   -0.3210 97.3 178 
 RUS  HZ I         629  8.68         6.1 0.40            148           97.3 178 
 SPBC HZ EP        628 54.48                             128   -0.35 9  163 221 
 SPBC HN ES        629 16.84                             128    0.07 9  163 221 
 SPBC HZ I         629 19.16         3.5 0.16            130            163 221 
 ZAR  HZ EP        628 59.79                             121    0.46 8  209 293 
 ZAR  HN ES        629 24.57                             121   -0.20 8  209 293 
 ZAR  HZ I         629 30.89         5.7 0.28            122            209 293 
                                                                                
