 2010  831 0852 14.2 L   6.789 -73.073143.6  RSN  9 0.4 1.8LRSN                1
 GAP=167        0.86       4.0     7.1  6.8 -0.9908E+01  0.2674E+01  0.2073E+01E
 Epicentro: LOS SANTOS - SANTANDER                                             3
 ACTION:UP  10-09-07 10:59 OP:vdl  STATUS:               ID:20100831085213 L   I
 2010-08-31-0850-49S.COL___120                                                 6
 STAT SP IPHASW D HRMM SECON CODA AMPLIT PERI AZIMU VELO SNR AR TRES W  DIS CAZ7
 BAR2 SZ EP        852 33.47                             170    -0.110   25 209 
 BAR2 SZ ES   1    852 48.15                             170    -0.6 7   25 209 
 BAR2 SZ I         852 50.26        16.8 0.26                            25 209 
 BRR  HZ IP     C  852 35.30                             151    -0.310   79 297 
 BRR  HZ I         852 35.62        38.3 0.15                            79 297 
 BRR  HN ES   1    852 52.87                             151     0.6 7   79 297 
 RUS  HZ EP   1    852 37.81                             145     0.2 7   99 181 
 RUS  HN ES   1    852 56.27                             145     0.4 7   99 181 
 RUS  HZ I         852 57.29         6.6 0.18                            99 181 
 GUE  SZ EP   1    852 38.50                             140    -0.2 7  116   8 
 GUE  SZ I         852 40.05         4.5 0.06                           116   8 
 GRA  SZ IP        852 39.24                             138     0.110  125  14 
 GRA  SZ ES   1    852 58.83                             138     0.2 7  125  14 
 GRA  SZ I         853  1.40        10.1 0.51                           125  14 
 CHI  HZ EP   1    852 51.68                             117    -0.2 6  250 197 
 CHI  HZ I         852 54.18         3.4 0.39                           250 197 
 CHI  HE ES   2    853 20.90                             117    -0.4 4  250 197 
 HEL  HN ES   2    853 26.06                             115    -1.0 4  280 256 
 HEL  HZ I         853 31.75         5.3 0.33                           280 256 
 RREF HZ EP   1    853  1.58                                     0.7 5  327 230 
 RREF HN ES   2    853 37.11                             111    -0.1 3  327 230 
 PRA  HZ EP   2    853  7.85                             107    -0.1 3  395 211 
 PRA  HE ES   2    853 50.93                                     1.0 3  395 211 
 PRA  HZ I         853 54.49         1.9 0.42                           395 211 
                                                                                
