 2011  131 0104 26.9 L   6.757 -72.854152.8  RSN  4 0.4 1.3LRSN                1
 GAP=192        0.84       5.6    17.9 11.6 -0.6415E+02  0.4487E+02  0.1160E+02E
 Epicentro: SAN ANDRES - SANTANDER                                             3
 ACTION:UP  11-02-08 08:44 OP:pat  STATUS:               ID:20110131010426 L   I
 2011-01-31-0101-19S.COL___135                                                 6
 STAT SP IPHASW D HRMM SECON CODA AMPLIT PERI AZIMU VELO SNR AR TRES W  DIS CAZ7
 RUS  HZ EP   1    1 4 51.76                             146     0.5 8   99 195 
 RUS  HE ES   1    1 5 10.43                             146     0.2 8   99 195 
 RUS  HZ I         1 5 11.50         2.3 0.68                            99 195 
 GRA  SZ EP   2    1 4 52.70                             139     0.0 5  125   3 
 GRA  SZ ES        1 5 12.73                             139    -0.110  125   3 
 GRA  SZ I         1 5 15.84         2.9 0.48                           125   3 
 CHI  HZ EP        1 5  5.62                             118     0.0 8  255 203 
 CHI  HE ES   1    1 5 34.97                             118    -0.9 6  255 203 
 CHI  HZ I         1 5 39.28         1.2 0.90                           255 203 
 GUY  SE ES   2    1 5 50.53                             112     0.5 4  326 239 
                                                                                
