 2010  531 0311 14.7 L   6.766 -73.155146.0  RSN  7 0.4 2.0LRSN                1
 GAP=177        0.84       5.7    10.5  8.3 -0.3216E+02  0.3556E+02 -0.7654E+01E
 Epicentro: LOS SANTOS - SANTANDER                                             3
 ACTION:UP  10-08-24 10:07 OP:vdl  STATUS:               ID:20100531031114 L   I
 2010-05-31-0308-57S.COL___109                                                 6
 STAT SP IPHASW D HRMM SECON CODA AMPLIT PERI AZIMU VELO SNR AR TRES W  DIS CAZ7
 BAR2 SZ IP        311 34.21                             172    -0.110   20 189 
 BAR2 SZ ES   1    311 49.50                             172    -0.1 7   20 189 
 GIR2 SZ EP   2    311 34.31                             166    -0.2 5   35 353 
 GIR2 SZ ES   2    311 49.89                             166    -0.1 5   35 353 
 GUE  SZ EP   1    311 40.29                             139     0.5 7  120  12 
 GUE  SZ ES   1    312  0.05                             139     0.7 7  120  12 
 OCA  SZ IP        311 42.73                             129    -0.7 9  164 354 
 OCA  SZ ES   1    312  5.65                             129    -0.1 7  164 354 
 OCA  SZ I         312 10.51        14.9 0.29                           164 354 
 ROSC BZ EP   2    311 52.94                             117     0.5 4  249 211 
 ROSC BZ I         312 31.89         5.2 0.52                           249 211 
 HEL  HZ EP   2    311 55.56                             115     0.8 4  270 257 
 HEL  HE ES   2    312 26.21                             115     0.2 4  270 257 
 HEL  HZ I         312 32.85         5.1 0.37                           270 257 
 RREF BZ EP   2    312  0.92                             111     0.4 3  319 230 
 RREF BE ES   2    312 36.08                             111    -0.2 3  319 230 
                                                                                
