 2015  331 0351 11.4 L   6.846 -73.167131.0  RSN  9 0.4 1.8LRSN                1
 GAP=132        1.03       3.6     4.3  6.7 -0.1594E+01  0.6921E+01 -0.4059E+00E
 Epicentro: ZAPATOCA - SANTANDER                                               3
 ACTION:UPD 15-04-30 16:30 OP:nd   STATUS:               ID:20150331035111 L   I
 OLDACT:UP  15-03-31 13:56 OP:mh   STATUS:               ID:20150331034739     3
 OLDACT:REG 15-03-31 12:29 OP:mh   STATUS:               ID:20150331034739     3
 2015-03-31-0347-39M.COL___283                                                 6
 STAT SP IPHASW D HRMM SECON CODA AMPLIT PERI AZIMU VELO AIN AR TRES W  DIS CAZ7
 BRR  HZ EP        351 31.60                             151    0.8910 66.7 296 
 BRR  HN ES        351 45.29                             151   -0.4810 66.7 296 
 PAM  SZ EP        351 32.57                             149    0.6410 75.2  43 
 PAM  SN ES        351 47.83                             149   -0.1110 75.2  43 
 PAM  SZ I         351 52.02        16.5 0.46             92           75.2  43 
 RUS  HZ EP   1    351 33.85                             139   -0.30 7  106 175 
 RUS  HE ES        351 51.89                             139    0.0110  106 175 
 RUS  HZ I         351 53.92         4.6 0.18             92            106 175 
 PTB  HZ EP        351 36.83                             129   -0.26 9  146 257 
 PTB  HN ES        351 57.21                             129    0.09 9  146 257 
 PTB  HZ I         352  0.30        10.1 0.14             91            146 257 
 OCA  HZ EP        351 37.95                             127   -0.14 9  155 354 
 OCA  HN ES        351 58.69                             127   -0.22 9  155 354 
 OCA  HZ I         352  2.84        19.0 0.26             91            155 354 
 SPBC HZ EP        351 38.65                             125   -0.42 9  166 217 
 ZAR  HZ EP        351 42.67                             119    0.17 9  200 291 
 ZAR  HN ES        352  7.13                             119    0.38 9  200 291 
 ZAR  HZ I         354 32.02         1.9 0.13             91            200 291 
 SML  HZ EP        351 45.98                             115   -0.65 8  238 335 
 SML  HZ I         352 29.96        14.7 0.10             91            238 335 
 GUY2CHZ EP   1    351 54.60                             109    0.11 5  302 234 
                                                                                
