 2017  831 0157 33.9 L   6.787 -73.095148.1  RSN  7 0.4 1.4LRSN                1
 GAP=242        0.98       4.9     6.0  7.0  0.7969E+01  0.1230E+02  0.3296E+00E
 Epicentro: LOS SANTOS - SANTANDER                                             3
 ACTION:UPD 17-09-04 20:26 OP:rebc STATUS:               ID:20170831015733 L   I
 OLDACT:REG 17-08-31 12:07 OP:dhb  STATUS:               ID:20170831014726     3
 2017-08-31-0148-00M.COL___402                                                 6
 STAT SP IPHASW D HRMM SECON CODA AMPLIT PERI AZIMU VELO AIN AR TRES W  DIS CAZ7
 BAR2 EZ EP        157 53.73                             170   -0.0410 23.6 204 
 BAR2 EZ ES        158  8.72                             170   -0.5910 23.6 204 
 BAR2 EZ I         158 11.76         4.9 0.25            171           23.6 204 
 BRR  HZ EP        157 55.68                             151    0.1010 76.9 297 
 BRR  HN ES        158 12.91                             151    0.3810 76.9 297 
 BRR  HZ I         158 13.20         3.0 0.21            152           76.9 297 
 RUS  HZ EP        157 58.13                             145    0.4210 98.9 179 
 RUS  HN ES        158 16.27                             145   -0.0610 98.9 179 
 RUS  HZ I         158 17.22         4.1 0.35            146           98.9 179 
 SPBC HZ I         158 24.72         6.1 0.12            131            166 221 
 SPBC HN ES        158 25.88                             129    0.56 9  166 221 
 ZAR  HZ EP        158  6.48                             122   -0.57 8  210 292 
 ZAR  HE ES        158 33.14                             122    0.20 8  210 292 
 ZAR  HN I         158 33.85         4.0 0.18            123            210 292 
 NOR  HZ EP        158 10.11                             118   -0.01 8  238 236 
 NOR  HN ES        158 37.78                             118   -0.63 8  238 236 
 NOR  HZ I         158 39.28         1.1 0.16            120            238 236 
 GUY2CHZ EP   4    158 20.05                             112    2.05 0  305 236 
 GUY2CHE ES   4    158 57.56                             112    5.13 0  305 236 
 GUY2CHZ I         159  0.53         1.5 0.64                           305 236 
                                                                                
