 2011 1231 0633 50.1 L   6.740 -73.227156.1  RSN  5 0.3 1.3LRSN                1
 GAP=216        0.67       7.2     6.6  8.8  0.3014E+02 -0.5539E+01 -0.6407E+01E
 Epicentro: VILLANUEVA - SANTANDER                                             3
 ACTION:UPD 12-07-13 16:19 OP:ep   STATUS:               ID:20111231063350 L   I
 2011-12-31-0630-00M.COL___185                                                 6
 STAT SP IPHASW D HRMM SECON CODA AMPLIT PERI AZIMU VELO AIN AR TRES W  DIS CAZ7
 BAR2 SZ EP   1    634 10.55                             173   -0.34 7 17.1 163 
 BAR2 SZ I         634 27.33         3.2 0.40                          17.1 163 
 BRR  HZ EP   1    634 12.29                             155    0.10 7 67.3 307 
 BRR  HN ES   1    634 29.37                             155   -0.04 7 67.3 307 
 BRR  HZ I         634 31.30         4.4 0.18                          67.3 307 
 RUS  HZ EP   1    634 15.11                             147    0.59 7 95.0 170 
 RUS  HN ES   1    634 33.48                             147   -0.08 7 95.0 170 
 RUS  HZ I         634 35.13         2.2 0.23                          95.0 170 
 PTB  HZ EP   1    634 16.54                             136   -0.55 7  138 261 
 PTB  HE ES   1    634 38.17                             136    0.04 7  138 261 
 ZAR  HN ES   1    634 48.42                             125    0.30 6  199 295 
 ZAR  HZ I         634 55.16         2.6 0.25                           199 295 
                                                                                
