 2011 1231 0226 29.4 L   6.734 -73.201150.1  RSN  5 0.3 1.6LRSN                1
 GAP=226        0.57       7.7     8.4  6.3  0.5145E+02  0.1546E+02  0.8591E+01E
 Epicentro: VILLANUEVA - SANTANDER                                             3
 ACTION:UPD 12-07-13 16:19 OP:ep   STATUS:               ID:20111231022629 L   I
 2011-12-31-0220-00M.COL___186                                                 6
 STAT SP IPHASW D HRMM SECON CODA AMPLIT PERI AZIMU VELO AIN AR TRES W  DIS CAZ7
 BAR2 SZ EP   1    226 49.08                             174   -0.38 7 15.8 173 
 BAR2 SZ ES   1    227  4.93                             174   -0.15 7 15.8 173 
 BAR2 SZ I         227  5.33         9.4 0.23                          15.8 173 
 BRR  HZ EP   1    226 51.02                             154    0.03 7 69.9 306 
 BRR  HE ES   1    227  8.07                             154    0.27 7 69.9 306 
 BRR  HZ I         227  9.45        11.3 0.25                          69.9 306 
 RUS  HZ EP   1    226 53.66                             147    0.50 7 94.0 172 
 RUS  HN ES   1    227 11.61                             147   -0.05 7 94.0 172 
 RUS  HZ I         227 13.19         2.9 0.28                          94.0 172 
 PTB  HZ EP   1    226 55.89                             134   -0.23 7  141 261 
 ZAR  HE ES   1    227 27.19                             124   -0.02 6  201 295 
 ZAR  HZ I         227 33.31         4.6 0.31                           201 295 
                                                                                
