 2015  731 0644  9.2 L   6.751 -73.122143.8  RSN  4 0.4 1.2LRSN                1
 GAP=236        1.06      11.6    13.5  9.5  0.1303E+03  0.6523E-01 -0.8879E+01E
 Epicentro: LOS SANTOS - SANTANDER                                             3
 ACTION:UPD 15-09-08 21:51 OP:cam  STATUS:               ID:20150731064409 L   I
 OLDACT:DUP 15-07-31 16:51 OP:drio STATUS:               ID:20150731063755d    3
 2015-07-31-0637-49M.COL___343                                                 6
 STAT SP IPHASW D HRMM SECON CODA AMPLIT PERI AZIMU VELO AIN AR TRES W  DIS CAZ7
 BAR2 EZ EP        644 28.23                             172   -0.2510 18.7 201 
 BAR2 EZ ES        644 43.16                             172   -0.3810 18.7 201 
 BAR2 EZ I         644 45.14         3.2 0.34            170           18.7 201 
 BRR  HZ EP        644 30.14                             150   -0.2610 76.2 301 
 BRR  HE ES        644 47.65                             150    0.6910 76.2 301 
 BRR  HZ I         644 51.19         5.3 0.52            151           76.2 301 
 RUS  HZ EP        644 32.88                             145    0.5510 95.0 177 
 RUS  HE ES        644 50.30                             145   -0.0910 95.0 177 
 RUS  HZ I         644 53.40         1.9 0.48            146           95.0 177 
 ZAR  HE ES        645  7.19                             121   -0.35 8  209 293 
                                                                                
