 2013 1031 0403  4.2 L   7.086 -73.362122.6  RSN  6 0.4 1.4LRSN                1
 GAP=158        0.88       4.0     5.6  7.1  0.3989E+01  0.2889E+01  0.4185E+01E
 Epicentro: LEBRIJA - SANTANDER                                                3
 ACTION:UPD 13-11-25 09:24 OP:ep   STATUS:               ID:20131031040304 L   I
 OLDACT:UP  13-10-31 06:34 OP:jn   STATUS:               ID:20131031040000     3
 OLDACT:REG 13-10-31 05:55 OP:jn   STATUS:               ID:20131031040000     3
 2013-10-31-0400-00M.COL___273                                                 6
 STAT SP IPHASW D HRMM SECON CODA AMPLIT PERI AZIMU VELO AIN AR TRES W  DIS CAZ7
 BRR  HZ EP        4 3 21.45                             161    0.2910 38.7 273 
 BRR  HN ES        4 3 34.79                             161    0.3910 38.7 273 
 BRR  HZ I         4 3 35.51         5.4 0.10            154           38.7 273 
 BAR2 SZ EP        4 3 22.91                             153    0.4910 58.1 160 
 BAR2 SZ ES        4 3 36.43                             153   -0.2310 58.1 160 
 OCA  HE ES   1    4 3 45.12                             131   -0.78 7  128   2 
 OCA  HZ I         4 3 46.38         9.7 0.22            132            128   2 
 PTB  HZ EP        4 3 27.99                             129   -0.15 9  135 244 
 PTB  HE ES   1    4 3 46.64                             129   -0.20 7  135 244 
 PTB  HZ I         4 3 52.30         3.1 0.14            125            135 244 
 RUS  HZ EP        4 3 28.97                             129    0.16 9  136 167 
 RUS  HN ES        4 3 47.78                             129   -0.25 9  136 167 
 RUS  HZ I         4 3 50.39         1.7 0.36            128            136 167 
 SPBC HN ES   1    4 3 53.98                             121   -0.49 7  177 206 
 SPBC HZ I         4 4  1.03         3.2 0.18            118            177 206 
                                                                                
