 2015 1231 0952 14.0 L   6.823 -72.981186.0  RSN  5 0.3 1.4LRSN                1
 GAP=290        0.65       5.4     5.2  7.3  0.5053E+01  0.3799E+01  0.2787E+01E
 Epicentro: CEPITA - SANTANDER                                                 3
 ACTION:UPD 16-02-04 15:09 OP:cam  STATUS:               ID:20151231095214 L   I
 OLDACT:UP  15-12-31 17:15 OP:ak   STATUS:               ID:20151231094748d    3
 OLDACT:UP  15-12-31 17:14 OP:ak   STATUS:               ID:20151231094748d    3
 OLDACT:DUP 15-12-31 17:10 OP:ak   STATUS:               ID:20151231094748d    3
 OLDACT:REG 15-12-31 13:11 OP:ak   STATUS:               ID:20151231094747     3
 2015-12-31-0947-47M.COL___319                                                 6
 STAT SP IPHASW D HRMM SECON CODA AMPLIT PERI AZIMU VELO AIN AR TRES W  DIS CAZ7
 BAR2 EZ EP        952 38.55                             169   -0.1410 33.9 221 
 BAR2 EZ ES        952 57.93                             169   -0.0110 33.9 221 
 BAR2 EZ I         953  0.75         3.1 0.26            169           33.9 221 
 BRR  HZ EP   2    952 40.15                             154   -0.23 5 86.7 291 
 BRR  HN ES        953  1.14                             154    0.1810 86.7 291 
 BRR  HZ I         953  2.83         7.6 0.37            156           86.7 291 
 PTB  HZ EP   4    952 43.30                             136   -2.70 0  166 259 
 PTB  HN ES        953 10.43                             136   -0.53 9  166 259 
 PTB  HZ I         953 12.08         1.4 0.14            138            166 259 
 SPBC HZ EP   2    952 47.50                             135    0.47 4  177 223 
 SPBC HN ES        953 13.06                             135    0.26 9  177 223 
 SPBC HZ I         953 14.88         2.6 0.10            136            177 223 
 ZAR  HN ES        953 19.89                             128    0.23 8  220 290 
                                                                                
