 2014  731 0827 53.5 L   6.730 -73.180141.2  RSN  6 0.4 1.2LRSN                1
 GAP=197        1.00       4.1     6.6  7.4  0.2540E+01  0.4771E+00 -0.6104E+01E
 Epicentro: VILLANUEVA - SANTANDER                                             3
 ACTION:UPD 15-03-16 20:48 OP:nd   STATUS:               ID:20140731082753 L   I
 OLDACT:UP  14-07-31 15:33 OP:spq  STATUS:               ID:20140731081812     3
 OLDACT:REG 14-07-31 13:06 OP:mh   STATUS:               ID:20140731081812     3
 2014-07-31-0818-12M.COL___254                                                 6
 STAT SP IPHASW D HRMM SECON CODA AMPLIT PERI AZIMU VELO AIN AR TRES W  DIS CAZ7
 BAR2 SZ EP        828 12.60                             174    0.1810 15.3 181 
 BAR2 SZ ES   1    828 26.89                             174   -0.31 7 15.3 181 
 BAR2 SZ I         828 28.85         3.5 0.16            172           15.3 181 
 BRR  HZ EP        828 14.74                             151    0.5510 72.1 305 
 BRR  HE ES        828 30.88                             151    0.5410 72.1 305 
 BRR  HZ I         828 33.91         5.7 0.40            150           72.1 305 
 RUS  HZ EP   1    828 16.03                             145   -0.23 7 93.3 173 
 RUS  HN ES   1    828 33.58                             145   -0.45 7 93.3 173 
 RUS  HZ I         828 36.60         1.1 0.16            148           93.3 173 
 PTB  HZ EP        828 19.57                             132   -0.05 9  143 262 
 PTB  HE ES        828 39.59                             132   -0.41 9  143 262 
 PTB  HZ I         828 46.37         1.5 0.10            132            143 262 
 SPBC HZ EP        828 21.40                             130    0.56 9  155 220 
 SPBC HN ES        828 41.98                             130   -0.19 9  155 220 
 SPBC HZ I         828 45.70         2.7 0.20            131            155 220 
 SML  HZ EP        828 29.76                             116   -0.70 8  249 337 
 SML  HE ES        828 58.99                             116   -0.31 8  249 337 
 SML  HZ I         829  1.83         2.0 0.13            118            249 337 
                                                                                
