 2016  731 0113 57.1 L   6.805 -73.122149.8  RSN 19 0.4 2.5LRSN                1
 GAP= 72        0.96       3.4     2.7  4.6 -0.1300E+01  0.3064E+01  0.3129E+01E
 Epicentro: LOS SANTOS - SANTANDER                                             3
 ACTION:UPD 17-03-29 16:57 OP:lp   STATUS:               ID:20160731011357 L   I
 OLDACT:UP  16-07-31 13:50 OP:edw  STATUS:               ID:20160731010738d    3
 OLDACT:UP  16-07-31 13:48 OP:edw  STATUS:               ID:20160731010738d    3
 OLDACT:UP  16-07-31 13:43 OP:edw  STATUS:               ID:20160731010738d    3
 OLDACT:DUP 16-07-31 13:37 OP:edw  STATUS:               ID:20160731010738d    3
 OLDACT:REG 16-07-31 12:22 OP:edw  STATUS:               ID:20160731010737     3
 2016-07-31-0108-00M.COL___353                                                 6
 STAT SP IPHASW D HRMM SECON CODA AMPLIT PERI AZIMU VELO AIN AR TRES W  DIS CAZ7
 BAR2 EZ IP     C  114 16.86                             170   -0.3610 24.5 196 
 BAR2 EZ ES        114 33.10                             170    0.1810 24.5 196 
 BRR  HZ IP     C  114 18.71                             152   -0.0710 73.3 297 
 BRR  HN ES        114 36.33                             152    0.6310 73.3 297 
 BRR  HZ I         114 38.69        37.5 0.16            149           73.3 297 
 PAM  EZ EP        114 19.59                             152   -0.0110 75.3  38 
 PAM  EN ES        114 37.04                             152   -0.1310 75.3  38 
 PAM  EZ I         114 38.88        28.5 0.46            148           75.3  38 
 RUS  HZ EP        114 20.72                             144   -0.5410  101 178 
 RUS  HN ES        114 39.77                             144   -0.3510  101 178 
 RUS  HZ I         114 40.51        27.2 0.26            141            101 178 
 PTB  HZ EP   9    114 23.72                             132   -0.90 0  150 259 
 PTB  HN ES        114 44.92                             133   -0.28 9  150 259 
 TAM  HZ EP        114 25.09                             132    0.23 9  153 105 
 TAM  HZ I         114 45.89        23.4 0.32            127            153 105 
 TAM  HN ES        114 46.90                             132    0.37 9  153 105 
 SPBC HZ EP        114 25.77                             129   -0.32 9  165 220 
 SPBC HN ES        114 48.12                             129   -0.59 9  165 220 
 SPBC HZ I         114 51.14        43.9 0.22            125            165 220 
 ZAR  HZ EP        114 29.64                             123   -0.38 8  206 292 
 ZAR  HE ES        114 55.28                             123   -0.43 8  206 292 
 ZAR  HZ I         115  1.77        56.5 0.36            118            206 292 
 NOR  HZ EP        114 32.83                             119   -0.48 8  237 235 
 NOR  HN ES        115  1.95                             119    0.38 8  237 235 
 NOR  HZ I         115  5.15        30.5 0.20            115            237 235 
 ROSC BZ EP        114 36.42                             117    0.79 8  255 211 
 ROSC BN ES        115  6.41                             117    0.72 8  255 211 
 ROSC BZ I         115 14.26        32.9 0.50            113            255 211 
 HEL  HZ EP        114 38.81                             115    1.01 8  275 256 
 HEL  HN ES        115  9.85                             115    0.29 8  275 256 
 HEL  HZ I         115 16.13        16.1 0.24            111            275 256 
 URE  HZ EP   4    114 36.67                             114   -1.93 0  286 292 
 URE  HE ES   4    115  8.52                             114   -2.46 0  286 292 
 URE  HZ I         115 21.95        30.2 0.18            110            286 292 
 SOCV BZ EP   4    114 39.71                             113   -0.32 0  299  57 
 SOCV BN ES   4    115 11.78                             113   -1.75 0  299  57 
 GUY2CHZ EP   2    114 40.96                             113   -0.20 4  304 235 
 GUY2CHN ES   2    115 15.74                             113    0.20 4  304 235 
 GUY2CHZ I         115 22.52        13.0 0.32                           304 235 
 LL6C HZ EP   4    114 42.32                             111   -0.58 0  324 357 
 LL6C HE ES   4    115 19.66                             111    1.02 0  324 357 
 ELA  HZ EP   4    114 47.37                             111    2.99 0  332 230 
 ELA  HN ES   4    115 24.10                             111    2.83 0  332 230 
 ELA  HZ I         115 29.33        13.7 0.46            107            332 230 
 CBOC HZ EP   2    114 44.40                             110   -0.07 3  336 252 
 CBOC HN ES        115 21.36                             110   -0.08 7  336 252 
 CBOC HZ I         115 24.79         4.1 0.54            107            336 252 
 ANIL HZ EP   4    114 47.76                             109    0.46 0  360 225 
 ANIL HN ES   4    115 27.91                             109    1.43 0  360 225 
 ANIL HZ I         115 35.92        32.6 0.34            106            360 225 
 PRA  HZ EP        114 51.10                             107    0.15 6  394 210 
 PRA  HN ES        115 32.62                             107   -0.35 6  394 210 
 PRA  HZ I         115 36.23        14.1 0.56            104            394 210 
 PAL  HZ EP        114 52.65                             106   -0.03 6  408 239 
 PAL  HN ES   4    115 33.52                             106   -2.52 0  408 239 
 SJC  HZ EP   4    114 50.94                             106   -1.95 0  410 327 
 SJC  HN ES   4    115 33.46                             106   -2.96 0  410 327 
 CRJC HZ EP   9    114 57.02                             104   -2.59 0  467   3 
 CRJC HE ES        115 46.23                             104    0.44 5  467   3 
 CRJC HZ I         115 51.10        12.0 0.38            101            467   3 
 SMAR HZ EP   4    115  1.95                             103   -1.12 0  497 346 
 SMAR HN ES   4    115 52.67                             103   -1.87 0  497 346 
                                                                                
