 2011  731 0003 44.9 L   6.360 -73.731105.1  RSN  5 0.3 1.6LRSN                1
 GAP=236        0.52       4.0     8.1  6.8  0.1371E+02  0.2866E+02  0.2270E+01E
 Epicentro: SANTA HELENA DEL OPON - SANTANDER                                  3
 ACTION:UPD 12-07-25 14:04 OP:epov STATUS:               ID:20110731000344 L   I
 2011-07-31-0000-37S.COL___142                                                 6
 STAT SP IPHASW D HRMM SECON CODA AMPLIT PERI AZIMU VELO AIN AR TRES W  DIS CAZ7
 BAR2 SZ EP        0 4  1.60                             146   -0.1910 65.9  67 
 BAR2 SZ ES        0 4 14.71                             146   -0.2610 65.9  67 
 BAR2 SZ I         0 4 15.82        34.7 0.15                          65.9  67 
 BRR  HZ EP   1    0 4  2.82                             139    0.11 7 82.6   1 
 BRR  HZ I         0 4  3.01         9.2 0.36                          82.6   1 
 BRR  HN ES   2    0 4 16.87                             139    0.27 5 82.6   1 
 RUS  HZ EP   1    0 4  3.79                             137   -0.08 7 88.4 126 
 RUS  HZ I         0 4  4.01         4.7 0.18                          88.4 126 
 RUS  HN ES   1    0 4 19.10                             137    0.43 7 88.4 126 
 BRI  SZ EP   2    0 4 12.83                             115    0.02 4  182  34 
 GRA  SZ EP   2    0 4 14.63                             113    0.15 4  197  31 
 GRA  SZ ES   2    0 4 38.04                             113    0.48 4  197  31 
 GRA  SZ I         0 4 40.02         3.4 0.38                           197  31 
                                                                                
