 2017  831 0354  3.4 L   6.792 -73.098145.7  RSN 18 0.5 2.0LRSN                1
 GAP=117        1.05       3.2     3.6  5.3  0.9936E+00  0.3859E+01  0.5633E+01E
 Epicentro: LOS SANTOS - SANTANDER                                             3
 ACTION:UPD 17-09-04 20:26 OP:rebc STATUS:               ID:20170831035403 L   I
 OLDACT:REG 17-08-31 12:20 OP:dhb  STATUS:               ID:20170831034736     3
 2017-08-31-0348-00M.COL___402                                                 6
 STAT SP IPHASW D HRMM SECON CODA AMPLIT PERI AZIMU VELO AIN AR TRES W  DIS CAZ7
 BAR2 EZ IP     C  354 22.91                             170   -0.1210 24.0 203 
 BAR2 EZ ES        354 38.30                             170   -0.0410 24.0 203 
 BAR2 EZ I         354 40.87        21.3 0.24            169           24.0 203 
 PAM  HZ IP     D  354 25.84                             151    0.3910 74.8  36 
 PAM  EN ES        354 42.62                             151   -0.0310 74.8  36 
 PAM  HZ I         354 45.47        10.9 0.38            152           74.8  36 
 BRR  HZ IP     C  354 24.82                             151   -0.0110 76.3 297 
 BRR  HN ES        354 41.78                             151    0.2410 76.3 297 
 BRR  HZ I         354 43.04        13.9 0.21            149           76.3 297 
 RUS  HZ EP        354 27.21                             144    0.1510 99.5 179 
 RUS  HN ES        354 45.36                             144   -0.1610 99.5 179 
 RUS  HZ I         354 47.14        10.7 0.21            144           99.5 179 
 SPBC HZ EP        354 31.85                             128   -0.30 9  166 221 
 SPBC HE ES        354 54.75                             128    0.18 9  166 221 
 SPBC HZ I         354 58.11        13.6 0.26            128            166 221 
 YPLC HZ IP     C  354 33.36                             127    0.49 9  174 153 
 YPLC HE ES        354 56.10                             127    0.24 9  174 153 
 YPLC HZ I         355  4.23         4.5 0.37            127            174 153 
 ZAR  HZ EP        354 36.17                             122   -0.20 8  209 292 
 ZAR  HN ES   2    355  0.91                             122   -1.19 4  209 292 
 ZAR  HZ I         355  6.11        11.3 0.26            121            209 292 
 NOR  HZ IP        354 39.20                             118   -0.33 8  239 235 
 NOR  HN ES        355  6.64                             118   -1.08 8  239 235 
 NOR  HZ I         355 12.31         4.5 0.48            117            239 235 
 CHI  HZ EP        354 40.52                             117   -0.64 8  249 196 
 CHI  HN ES        355 10.68                             117    0.07 8  249 196 
 CHI  HZ I         355 14.37         5.4 0.17            116            249 196 
 ROSC BZ EP   4    354 39.49                             116   -2.25 0  255 212 
 ROSC BE ES   4    355 12.99                             116    1.35 0  255 212 
 ROSC BZ I         355 17.83        13.9 0.39            116            255 212 
 HEL  HZ EP   1    354 44.99                             114    0.84 6  277 256 
 HEL  HN ES        355 16.51                             114    0.57 7  277 256 
 HEL  HZ I         355 21.38         3.7 0.57            114            277 256 
 VIL  EE ES        355 21.64                             112    0.91 7  304 193 
 VIL  EZ I         355 26.49        10.5 0.24            111            304 193 
 GUY2CHZ EP     D  354 48.25                             112    0.81 7  305 235 
 GUY2CHE ES   4    355 24.14                             112    2.35 0  305 235 
 GUY2CHZ I         355 29.63         4.6 0.63                           305 235 
 PTGC HZ IP     D  354 46.16                             112   -0.79 7  306 160 
 PTGC HN ES        355 20.09                             112   -0.83 7  306 160 
 PTGC HZ I         355 22.42        11.6 0.83            111            306 160 
 LL6C HZ EP   9    354 47.58                             110   -1.64 0  326 357 
 LL6C HE ES        355 22.54                                   -0.78 7  326 357 
 LL6C HZ I         355 38.12         5.2 0.50            110            326 357 
 ELA  HZ EP   9    354 53.20                             110    2.56 0  333 230 
 ELA  HN ES        355 29.60                                   -0.45 7  333 230 
 ELA  HZ I         355 35.84         4.2 0.41            109            333 230 
 PRA  HZ EP        354 56.97                             106   -0.17 6  394 210 
 PRA  HE ES        355 39.47                             106    0.41 6  394 210 
 PRA  HZ I         355 45.49         4.7 0.48            106            394 210 
 SJC  HZ EP   9    354 57.07                             105   -2.31 0  413 326 
 SJC  HN ES        355 40.93                                    0.20 6  413 326 
 SJC  HZ I         355 44.60         1.0 0.19            105            413 326 
                                                                                
