 2014  531 0713 30.2 L   6.814 -73.151142.9  RSN 19 0.5 2.5LRSN                1
 GAP= 70        1.07       2.4     2.8  5.0 -0.1145E+01  0.3754E+01  0.1540E+01E
 Epicentro: LOS SANTOS - SANTANDER                                             3
 ACTION:UPD 15-03-16 17:02 OP:nd   STATUS:               ID:20140531071330 L   I
 OLDACT:REG 14-05-31 13:55 OP:stll STATUS:               ID:20140531070805     3
 2014-05-31-0708-05M.COL___247                                                 6
 STAT SP IPHASW D HRMM SECON CODA AMPLIT PERI AZIMU VELO AIN AR TRES W  DIS CAZ7
 BAR2 SZ IP     C  713 49.75                             170    0.2610 24.7 188 
 BAR2 SZ ES        714  4.73                             170    0.1710 24.7 188 
 BAR2 SZ I         714  6.56        39.3 0.46            169           24.7 188 
 PAM  SZ EP     D  713 52.59                             150    0.5510 76.6  41 
 PAM  SN ES        714  9.46                             150    0.3610 76.6  41 
 PAM  SZ I         714 11.89        70.2 0.56            155           76.6  41 
 RUS  HZ EP        713 53.57                             143   -0.1910  102 176 
 RUS  HN ES        714 11.91                             143   -0.2510  102 176 
 RUS  HZ I         714 15.03        29.4 0.46            145            102 176 
 PTB  HZ EP        713 56.33                             131   -0.55 9  147 258 
 PTB  HE ES        714 17.25                             131   -0.47 9  147 258 
 PTB  HZ I         714 25.26        31.5 0.44            132            147 258 
 TAM  HZ EP     D  713 57.89                             130    0.17 9  156 105 
 TAM  HZ I         713 58.16        68.2 0.34            135            156 105 
 TAM  HN ES        714 19.36                             130    0.15 9  156 105 
 OCA  HZ EP        713 58.02                             129   -0.09 9  159 353 
 OCA  HE ES        714 19.67                             129   -0.24 9  159 353 
 OCA  HZ I         714 25.37        30.9 0.20            132            159 353 
 SPBC HZ EP        713 58.73                             128    0.20 9  164 218 
 SPBC HE ES        714 20.84                             128    0.19 9  164 218 
 SPBC HZ I         714 25.79        53.6 0.20            130            164 218 
 ZAR  HZ EP        714  2.60                             122    0.28 9  203 292 
 ZAR  HE ES        714 27.33                             122   -0.06 9  203 292 
 ZAR  HZ I         714 34.69        24.3 0.26            123            203 292 
 NOR  HZ EP        714  5.53                             118   -0.25 8  235 234 
 NOR  HE ES        714 32.94                             118   -0.61 8  235 234 
 NOR  HZ I         714 37.99        21.8 0.20            119            235 234 
 SML  HZ EP        714  5.98                             117   -0.48 8  242 335 
 SML  HN ES        714 34.36                             117   -0.41 8  242 335 
 CHI  HZ EP        714  7.86                             116    0.00 8  250 195 
 CHI  HN ES        714 37.10                             116   -0.15 8  250 195 
 CHI  HZ I         714 43.41        12.6 0.64            119            250 195 
 HEL  HZ EP        714 11.45                             114    1.23 8  272 255 
 HEL  HN ES        714 41.17                             114   -0.28 8  272 255 
 HEL  HZ I         714 48.00        15.2 0.30            116            272 255 
 GUY2CHZ EP        714 14.10                             112    0.41 7  302 234 
 GUY2CHE ES        714 47.18                             112   -0.46 7  302 234 
 GUY2CHZ I         714 56.34        16.5 0.72                           302 234 
 VIL  SZ EP        714 13.58                             111   -0.04 7  305 191 
 VIL  SE ES        714 46.99                             111   -0.51 7  305 191 
 RREF HZ EP        714 17.07                             110    0.82 7  322 229 
 RREF HN ES        714 52.73                             110    0.54 7  322 229 
 RREF HZ I         715  0.53        20.7 0.26            112            322 229 
 TOL  SZ EP        714 19.63                             109    1.24 7  344 224 
 TOL  SN ES        714 56.82                             109    0.82 7  344 224 
 TOL  SZ I         715  1.95        29.4 0.38            111            344 224 
 PRA  HZ EP        714 23.28                             106   -0.43 6  393 209 
 PRA  HE ES        715  4.91                             106   -0.57 6  393 209 
 PRA  HZ I         715 11.03        11.9 0.26            108            393 209 
 ORTC HZ EP        714 24.05                             106   -0.05 6  396 216 
 ORTC HN ES        715  5.70                             106   -0.46 6  396 216 
 ORTC HZ I         715 13.49         7.8 0.38            108            396 216 
 ELOV BZ EP        714 23.53                             105   -1.64 6  406  87 
                                                                                
