 2017  531 0254 55.4 L   6.873 -73.114144.1  RSN  4 0.1 1.4LRSN                1
 GAP=249        0.34       3.2     2.9  4.8  0.6337E+01 -0.5223E+01 -0.9300E+01E
 Epicentro: LOS SANTOS - SANTANDER                                             3
 ACTION:UPD 17-06-16 13:40 OP:jn   STATUS:               ID:20170531025455 L   I
 OLDACT:REG 17-05-31 12:45 OP:osc  STATUS:               ID:20170531024730     3
 2017-05-31-0248-00M.COL___347                                                 6
 STAT SP IPHASW D HRMM SECON CODA AMPLIT PERI AZIMU VELO AIN AR TRES W  DIS CAZ7
 RUS  HZ EP        255 19.63                             141    0.0410  108 178 
 RUS  HN ES        255 38.43                             141   -0.0210  108 178 
 RUS  HZ I         255 41.48         1.0 0.16            139            108 178 
 PTB  HZ EP        255 22.69                             131   -0.04 9  153 256 
 PTB  HN ES        255 43.92                             131   -0.11 9  153 256 
 PTB  HZ I         255 51.09         5.8 0.40            128            153 256 
 SPBC HZ EP        255 24.71                             127    0.10 9  172 218 
 SPBC HN ES        255 47.39                             127    0.02 9  172 218 
 SPBC HZ I         255 53.81         4.9 0.22            125            172 218 
 ZAR  HZ EP        255 27.64                             122   -0.16 9  204 290 
 ZAR  HN ES        255 53.22                             122    0.17 9  204 290 
                                                                                
