 2012  831 0342 56.2 L   6.779 -73.155142.7  RSN  6 0.5 1.8LRSN                1
 GAP=182        1.05       7.5     8.8  9.9  0.2318E+02  0.8667E+01  0.2538E+01E
 Epicentro: LOS SANTOS - SANTANDER                                             3
 ACTION:UPD 12-09-10 11:59 OP:ep   STATUS:               ID:20120831034256 L   I
 2012-08-31-0340-00M.COL___218                                                 6
 STAT SP IPHASW D HRMM SECON CODA AMPLIT PERI AZIMU VELO AIN AR TRES W  DIS CAZ7
 BAR2 SZ EP        343 15.38                             172   -0.0110 20.9 188 
 BAR2 SZ ES   1    343 29.36                             172   -1.01 7 20.9 188 
 BAR2 SZ I         343 31.31        20.4 0.24                          20.9 188 
 GIR2 SZ ES   3    343 30.64                             166   -0.01 2 33.4 353 
 BRR  HZ EP        343 17.27                             152    0.2610 71.5 301 
 BRR  HZ I         343 19.48        14.3 0.12                          71.5 301 
 BRR  HN ES   1    343 34.24                             152    0.98 7 71.5 301 
 RUS  HZ EP        343 19.66                             144    0.2010 98.3 175 
 RUS  HN ES   1    343 37.96                             144    0.34 7 98.3 175 
 RUS  HZ I         343 39.41         5.1 0.48                          98.3 175 
 PTB  HZ EP        343 22.44                             132   -0.33 9  146 260 
 PTB  HN ES   1    343 43.04                             132   -0.46 7  146 260 
 OCA  HN ES   2    343 45.98                             128   -0.54 5  162 354 
                                                                                
