 2013  531 0508 54.8 L   6.816 -73.128142.0  RSN 12 0.4 2.0LRSN                1
 GAP=185        1.00       3.1     5.1  6.5  0.4659E+00  0.4485E+01  0.7872E+00E
 Epicentro: LOS SANTOS - SANTANDER                                             3
 ACTION:UPD 13-06-20 09:55 OP:ep   STATUS:               ID:20130531050854 L   I
 2013-05-31-0507-51M.COL___218                                                 6
 STAT SP IPHASW D HRMM SECON CODA AMPLIT PERI AZIMU VELO AIN AR TRES W  DIS CAZ7
 BAR2 SZ EP        5 9 14.00                             169   -0.0510 25.5 194 
 BAR2 SZ I         5 9 32.06        19.2 0.34            170           25.5 194 
 BRR  HZ IP     D  5 9 16.15                             152    0.5310 72.1 297 
 BRR  HN ES        5 9 32.15                             152    0.3110 72.1 297 
 BRR  HZ I         5 9 35.59        11.0 0.46            152           72.1 297 
 RUS  HZ IP     C  5 9 18.54                             143    0.2110  102 177 
 RUS  HN ES        5 9 36.25                             143   -0.4210  102 177 
 RUS  HZ I         5 9 37.85         7.6 0.34            144            102 177 
 PTB  HZ EP        5 9 20.98                             131   -0.72 9  150 258 
 PTB  HN ES   1    5 9 42.36                             131   -0.30 7  150 258 
 PTB  HZ I         5 9 45.30        12.1 0.36            131            150 258 
 OCA  HZ EP        5 9 22.28                             129   -0.42 9  159 352 
 OCA  HN ES        5 9 45.07                             129    0.63 9  159 352 
 OCA  HZ I         5 9 49.11        14.5 0.16            130            159 352 
 ZAR  HZ EP   1    5 9 26.86                             121   -0.29 6  205 291 
 ZAR  HN ES        5 9 52.32                             121   -0.04 8  205 291 
 ZAR  HZ I         5 9 59.07         7.8 0.20            122            205 291 
 NOR  HZ EP        5 9 30.34                             117   -0.29 8  237 234 
 NOR  HN ES        5 9 58.61                             117    0.06 8  237 234 
 NOR  HZ I         510  1.79        11.9 0.22            118            237 234 
 SML  HZ EP        5 9 30.82                             117   -0.33 8  243 335 
 SML  HN ES        5 9 58.88                             117   -0.61 8  243 335 
 SML  HZ I         510  7.91        13.9 0.10            118            243 335 
 HEL  HZ EP        5 9 35.76                             114    0.65 8  274 256 
 HEL  HN ES   4    510  9.15                             114    2.61 0  274 256 
 HEL  HZ I         510 13.31         4.7 0.26            115            274 256 
 GUY2CHZ EP        5 9 39.31                             111    0.75 7  304 235 
 GUY2CHN ES   4    510 14.27                             111    1.59 0  304 235 
 GUY2CHZ I         510 19.06         6.6 0.32                           304 235 
 RREF HZ EP   4    5 9 42.05                             110    0.94 0  324 229 
 RREF HN ES   4    510 19.43                             110    2.21 0  324 229 
 RREF HZ I         510 25.02         8.5 0.24            111            324 229 
 PRA  HZ EP        5 9 48.96                             106    0.44 6  395 210 
 PRA  HN ES   2    510 30.56                             106    0.16 3  395 210 
 PRA  HZ I         510 35.94         4.0 0.32            107            395 210 
                                                                                
