 2017  531 0233 17.3 L   6.737 -73.170143.3  RSN 10 0.5 1.7LRSN                1
 GAP=205        1.08       4.9     4.4  6.7  0.1018E+02 -0.8905E+00 -0.1233E+01E
 Epicentro: VILLANUEVA - SANTANDER                                             3
 ACTION:UPD 17-06-16 13:40 OP:jn   STATUS:               ID:20170531023317 L   I
 OLDACT:DUP 17-05-31 15:05 OP:osc  STATUS:               ID:20170531022730d    3
 2017-05-31-0228-00M.COL___347                                                 6
 STAT SP IPHASW D HRMM SECON CODA AMPLIT PERI AZIMU VELO AIN AR TRES W  DIS CAZ7
 BRR  HZ EP        233 37.85                             152   -0.3810 72.6 304 
 BRR  HN ES        233 54.99                             152    0.4010 72.6 304 
 BRR  HZ I         233 57.70        17.3 0.14            151           72.6 304 
 RUS  HZ EP        233 39.70                             145   -0.6010 93.8 174 
 RUS  HN ES        233 58.28                             145    0.0210 93.8 174 
 RUS  HZ I         233 59.67         7.0 0.30            145           93.8 174 
 PTB  HZ EP        233 43.05                             132   -0.64 9  144 261 
 PTB  HN ES        234  3.68                             132   -0.61 9  144 261 
 PTB  HZ I         234  7.39         7.8 0.16            131            144 261 
 SPBC HZ EP   9    233 43.75                             130   -1.16 0  156 220 
 SPBC HN ES        234  5.84                                    0.53 9  156 220 
 SPBC HZ I         234  9.45         5.1 0.07            129            156 220 
 YPLC HZ EP        233 46.02                             127   -0.40 9  172 149 
 YPLC HE ES        234  9.77                             127    0.62 9  172 149 
 YPLC HZ I         234 12.07         3.9 0.24            128            172 149 
 ZAR  HZ EP        233 50.36                             122    0.78 9  204 294 
 ZAR  HE ES        234 15.11                             122    0.32 9  204 294 
 ZAR  HZ I         234 22.32         5.6 0.12            122            204 294 
 NOR  HZ EP        233 52.35                             119    0.16 8  228 235 
 NOR  HE ES        234 19.52                             119    0.10 8  228 235 
 NOR  HZ I         234 26.20         7.4 0.20            119            228 235 
 CHI  HZ EP        233 54.54                             118    0.52 8  241 195 
 CHI  HN ES   2    234 22.99                             118    0.31 4  241 195 
 CHI  HZ I         234 26.97         1.3 0.08            118            241 195 
 HEL  HZ EP        233 57.17                             115    0.29 8  268 257 
 HEL  HE ES        234 27.73                             115   -0.05 8  268 257 
 HEL  HZ I         234 34.04         3.5 0.48            115            268 257 
 CBOC HZ EP   9    234  2.45                             110   -1.09 0  329 253 
 CBOC HN ES        234 38.49                                   -0.06 7  329 253 
                                                                                
