 2012 1031 0208 30.7 L   6.760 -73.133146.7  RSN  5 0.1 2.1LRSN                1
 GAP=140        0.30       2.7     4.9  5.7  0.5731E+01 -0.1740E+02 -0.6573E+01E
 Epicentro: LOS SANTOS - SANTANDER                                             3
 ACTION:UPD 12-11-22 17:06 OP:ep   STATUS:               ID:20121031020830 L   I
 2012-10-31-0200-00M.COL___231                                                 6
 STAT SP IPHASW D HRMM SECON CODA AMPLIT PERI AZIMU VELO AIN AR TRES W  DIS CAZ7
 BAR2 SZ EP        2 8 50.38                             172   -0.0410 19.4 196 
 GIR2 SZ EP   1    2 8 50.52                             166   -0.14 7 35.8 349 
 BRR  HZ EP   1    2 8 52.22                             152    0.03 7 74.6 301 
 BRR  HE ES   1    2 9  8.95                             152    0.03 7 74.6 301 
 BRR  HN I         2 9  9.53        37.2 0.24                          74.6 301 
 PAM  SZ EP        2 8 53.28                             150    0.0610 80.0  37 
 PAM  SZ IP        2 8 53.28                             150           80.0  37 
 PAM  SN I         2 9 11.08        24.7 0.48                          80.0  37 
 RUS  HZ EP   1    2 8 54.33                             145    0.05 7 96.1 177 
 RUS  HN ES   1    2 9 12.63                             145    0.00 7 96.1 177 
 RUS  HN I         2 9 13.83        12.9 0.18                          96.1 177 
                                                                                
