 2016  731 0603 10.6 L   6.789 -73.044141.4  RSN  8 0.3 1.2LRSN                1
 GAP=151        0.77       3.2     3.7  5.0 -0.1399E+01  0.6239E+01  0.2371E+01E
 Epicentro: LOS SANTOS - SANTANDER                                             3
 ACTION:UPD 17-03-29 16:57 OP:lp   STATUS:               ID:20160731060310 L   I
 OLDACT:REG 16-07-31 12:54 OP:edw  STATUS:               ID:20160731055735     3
 2016-07-31-0558-00M.COL___344                                                 6
 STAT SP IPHASW D HRMM SECON CODA AMPLIT PERI AZIMU VELO AIN AR TRES W  DIS CAZ7
 BAR2 HZ EP        6 3 29.73                             169   -0.0910 26.6 215 
 BAR2 HZ ES        6 3 44.94                             169    0.1610 26.6 215 
 BAR2 HZ I         6 3 45.69         4.7 0.14            168           26.6 215 
 PAM  EZ EP        6 3 32.23                             152    0.1610 71.8  32 
 PAM  EN ES        6 3 49.03                             152    0.2510 71.8  32 
 PAM  EZ I         6 3 50.51         2.5 0.17            155           71.8  32 
 BRR  HZ EP        6 3 31.69                             148   -0.2810 81.8 296 
 BRR  HN ES        6 3 48.51                             148   -0.1010 81.8 296 
 BRR  HZ I         6 3 52.27         2.2 0.14            149           81.8 296 
 RUS  HZ EP        6 3 33.75                             143   -0.1210 99.2 183 
 RUS  HN ES        6 3 51.78                             143   -0.2010 99.2 183 
 RUS  HZ I         6 3 54.26         1.2 0.38            145           99.2 183 
 PTB  HZ EP        6 3 38.62                             129    0.35 9  159 260 
 PTB  HN ES   4    6 3 56.19                             129   -3.64 0  159 260 
 SPBC HZ EP        6 3 38.85                             127   -0.58 9  170 222 
 SPBC HN ES        6 4  1.93                             127    0.05 9  170 222 
 SPBC HZ I         6 4  6.42         2.4 0.10            128            170 222 
 ZAR  HN ES        6 4  9.61                             120   -0.33 8  215 291 
 GUY2CHZ EP        6 3 55.48                             111    0.45 7  310 236 
 GUY2CHN ES        6 4 30.39                             111    0.74 7  310 236 
 GUY2CHZ I         6 4 38.22         0.9 0.70                           310 236 
                                                                                
