 2014  731 0240 35.8 L   6.819 -73.176144.2  RSN  8 0.5 1.7LRSN                1
 GAP=132        1.12       4.2     5.0  7.2 -0.1706E+01  0.7089E+01 -0.4037E+01E
 Epicentro: ZAPATOCA - SANTANDER                                               3
 ACTION:UPD 15-03-16 20:48 OP:nd   STATUS:               ID:20140731024035 L   I
 OLDACT:UP  14-07-31 15:27 OP:mh   STATUS:               ID:20140731023817     3
 OLDACT:REG 14-07-31 12:55 OP:mh   STATUS:               ID:20140731023817     3
 2014-07-31-0238-17M.COL___254                                                 6
 STAT SP IPHASW D HRMM SECON CODA AMPLIT PERI AZIMU VELO AIN AR TRES W  DIS CAZ7
 BAR2 SZ EP        240 55.24                             170   -0.0510 25.0 182 
 BAR2 SZ ES        241  9.83                             170   -0.6510 25.0 182 
 BAR2 SZ I         241 11.33        11.0 0.17            171           25.0 182 
 BRR  HZ EP        240 57.00                             154    0.4310 67.2 298 
 BRR  HN ES        241 13.85                             154    1.0910 67.2 298 
 BRR  HZ I         241 16.99        10.8 0.26            150           67.2 298 
 PAM  SZ EP        240 58.21                             150    0.3110 78.0  42 
 PAM  SN ES        241 15.06                             150   -0.0710 78.0  42 
 PAM  SZ I         241 17.30         8.5 0.52            153           78.0  42 
 RUS  HZ EP        240 59.45                             143   -0.1310  103 174 
 RUS  HN ES        241 18.10                             143   -0.0210  103 174 
 PTB  HZ EP        241  2.10                             132   -0.28 9  145 258 
 PTB  HN ES        241 22.66                             132   -0.46 9  145 258 
 PTB  HZ I         241 28.35         5.7 0.32            131            145 258 
 SPBC HZ EP   1    241  4.29                             129    0.15 7  163 218 
 SPBC HN ES        241 26.33                             129    0.09 9  163 218 
 SPBC HZ I         241 33.21         3.1 0.32            130            163 218 
 ZAR  HN ES   1    241 32.49                             123   -0.17 6  200 292 
 SML  HZ EP        241 12.02                             117    0.03 8  240 336 
 SML  HN ES   1    241 39.21                             117   -1.00 6  240 336 
 SML  HZ I         241 49.04         6.6 0.15            118            240 336 
                                                                                
