 2014 1231 0009 16.3 L   6.766 -73.135154.9  RSN  5 0.4 1.6LRSN                1
 GAP=236        1.12       6.9     7.4  8.2  0.1043E+02  0.5730E+01  0.3598E+01E
 Epicentro: LOS SANTOS - SANTANDER                                             3
 ACTION:UPD 15-02-10 17:08 OP:nd   STATUS:               ID:20141231000916 L   I
 OLDACT:REG 14-12-31 13:37 OP:stll STATUS:               ID:20141231000007     3
 2014-12-31-0000-07M.COL___271                                                 6
 STAT SP IPHASW D HRMM SECON CODA AMPLIT PERI AZIMU VELO AIN AR TRES W  DIS CAZ7
 BAR2 EZ EP        0 9 36.80                             172   -0.2010 19.9 195 
 BAR2 EZ I         0 9 37.02         7.6 0.52            164           19.9 195 
 BAR2 EZ ES        0 9 52.62                             172   -0.5110 19.9 195 
 BRR  HZ EP        0 9 38.73                             153    0.1010 74.1 301 
 BRR  HN ES        0 9 56.78                             153    0.7510 74.1 301 
 RUS  HZ EP        0 9 40.76                             147    0.0310 96.8 177 
 RUS  HZ I         0 9 41.62         2.8 0.42            143           96.8 177 
 RUS  HN ES        0 9 59.83                             147    0.0710 96.8 177 
 PTB  HZ EP        0 9 43.99                             134   -0.11 9  148 260 
 PTB  HN ES        010  4.95                             134   -0.82 9  148 260 
 PTB  HZ I         010 12.07         5.3 0.48            129            148 260 
 SPBC HZ EP        0 9 45.46                             131    0.11 9  161 220 
 SPBC HN ES        010  8.57                             131    0.58 9  161 220 
 SPBC HZ I         010 15.30         7.0 0.26            127            161 220 
                                                                                
