 2015  331 0610 39.0 L   6.816 -73.157139.7  RSN 12 0.5 1.8LRSN                1
 GAP=134        1.11       3.4     4.1  6.0 -0.2828E+01  0.9659E+01 -0.2244E+01E
 Epicentro: LOS SANTOS - SANTANDER                                             3
 ACTION:UPD 15-04-30 16:30 OP:nd   STATUS:               ID:20150331061039 L   I
 OLDACT:UP  15-03-31 15:56 OP:mh   STATUS:               ID:20150331060743     3
 OLDACT:REG 15-03-31 12:33 OP:mh   STATUS:               ID:20150331060743     3
 2015-03-31-0607-43M.COL___283                                                 6
 STAT SP IPHASW D HRMM SECON CODA AMPLIT PERI AZIMU VELO AIN AR TRES W  DIS CAZ7
 BAR2 EZ EP        610 57.90                             169    0.0010 24.9 186 
 BAR2 EZ ES        611 12.09                             169   -0.5810 24.9 186 
 BAR2 EZ I         611 14.74        11.8 0.11            171           24.9 186 
 BRR  HZ EP        610 59.46                             152    0.1210 69.2 298 
 BRR  HN ES        611 16.10                             152    0.8610 69.2 298 
 BRR  HZ I         611 21.58         6.8 0.12            150           69.2 298 
 PAM  SZ EP        611  0.77                             150    0.2710 76.9  41 
 PAM  SN ES        611 17.63                             150    0.3310 76.9  41 
 PAM  SZ I         611 19.83        12.1 0.56            154           76.9  41 
 RUS  HZ EP   1    611  1.75                             142   -0.51 7  102 175 
 RUS  HN ES        611 20.65                             142    0.2210  102 175 
 RUS  HZ I         611 23.04         5.7 0.40            148            102 175 
 PTB  HZ EP        611  4.58                             131   -0.77 9  147 258 
 PTB  HN ES        611 25.33                             131   -0.61 9  147 258 
 PTB  HZ I         611 31.31         9.7 0.56            132            147 258 
 OCA  HZ EP        611  6.52                             128   -0.10 9  158 354 
 OCA  HN ES   1    611 27.92                             128   -0.28 7  158 354 
 OCA  HZ I         611 39.55         9.1 0.36            131            158 354 
 SPBC HZ EP   1    611  6.79                             127   -0.27 7  164 218 
 SPBC HN ES        611 28.73                             127   -0.24 9  164 218 
 SPBC HZ I         611 33.53        14.0 0.18            131            164 218 
 ZAR  HZ EP   1    611 10.32                             121   -0.50 6  202 292 
 ZAR  HN ES        611 35.51                             121   -0.16 9  202 292 
 ZAR  HZ I         611 42.04         8.2 0.46            123            202 292 
 SML  HZ EP   1    611 14.91                             116   -0.11 6  242 335 
 SML  HN ES        611 42.79                             116   -0.35 8  242 335 
 SML  HZ I         611 45.48        11.5 0.30            119            242 335 
 HEL  HZ EP        611 19.73                             114    0.95 8  271 255 
 HEL  HN ES        611 50.40                             114    0.56 8  271 255 
 HEL  HZ I         611 55.83         3.4 0.48            116            271 255 
 GUY2CHZ EP        611 23.16                             111    0.87 7  301 234 
 GUY2CHN ES   4    612  0.80                             111    4.71 0  301 234 
 GUY2CHZ I         612  4.14         4.3 0.36                           301 234 
 CBOC HZ EP        611 25.55                             109   -0.00 7  333 252 
 CBOC HN ES        612  2.11                             109    0.22 7  333 252 
 CBOC HZ I         612  8.31         1.1 0.42            111            333 252 
 SJC  HZ EP   4    611 30.62                             105   -3.45 0  407 327 
 SJC  HN ES   4    612 10.09                             105   -6.96 0  407 327 
                                                                                
