 2011 1031 0522 45.6 L   6.801 -73.073142.4  RSN  4 0.3 1.4LRSN                1
 GAP=245        0.58       7.9    11.4  7.1  0.7434E+02 -0.9781E+01 -0.1584E+02E
 Epicentro: LOS SANTOS - SANTANDER                                             3
 ACTION:UPD 12-07-13 16:07 OP:ep   STATUS:               ID:20111031052245 L   I
 2011-10-31-0520-30S.COL___157                                                 6
 STAT SP IPHASW D HRMM SECON CODA AMPLIT PERI AZIMU VELO AIN AR TRES W  DIS CAZ7
 BAR2 SZ EP   1    523  4.92                             169    0.06 8 26.1 208 
 BAR2 SZ ES   1    523 19.57                             169   -0.34 8 26.1 208 
 BAR2 SZ I         523 20.98         3.4 0.10                          26.1 208 
 BRR  HZ EP   1    523  6.78                             149    0.00 8 78.3 296 
 BRR  HE ES   1    523 23.58                             149    0.26 8 78.3 296 
 BRR  HZ I         523 25.14         5.5 0.15                          78.3 296 
 RUS  HZ EP   2    523  8.48                             143   -0.51 5  101 181 
 RUS  HN ES        523 27.41                             143    0.1510  101 181 
 ZAR  HZ EP   2    523 19.17                             120    0.59 4  211 291 
 ZAR  HN ES   2    523 43.66                             120   -0.65 4  211 291 
 ZAR  HZ I         523 50.01         2.3 0.32                           211 291 
                                                                                
