 2016 1031 0401 50.3 L   6.799 -73.135141.6  RSN 16 0.5 2.1LRSN                1
 GAP=101        1.06       4.1     3.4  5.9 -0.2548E+01  0.5302E+01  0.5738E+01E
 Epicentro: LOS SANTOS - SANTANDER                                             3
 ACTION:UPD 16-11-09 19:24 OP:rebc STATUS:               ID:20161031040150 L   I
 OLDACT:UP  16-10-31 14:04 OP:dnl  STATUS:               ID:20161031035800     3
 OLDACT:ARG 16-10-31 12:39 OP:dani STATUS:               ID:20161031035800     3
 2016-10-31-0358-00M.COL___316                                                 6
 STAT SP IPHASW D HRMM SECON CODA AMPLIT PERI AZIMU VELO AIN AR TRES W  DIS CAZ7
 BAR2 EZ EP        4 2  9.26                             170   -0.1910 23.5 193 
 BAR2 EZ ES        4 2 23.93                             170   -0.4410 23.5 193 
 BAR2 EZ I         4 2 28.06        21.1 0.28            164           23.5 193 
 BRR  HZ IP     C  4 2 11.05                             151   -0.0310 72.3 298 
 BRR  HN ES        4 2 27.98                             151    0.7010 72.3 298 
 BRR  HZ I         4 2 30.48        31.3 0.16            153           72.3 298 
 PAM  EZ EP        4 2 11.94                             150   -0.1110 76.7  39 
 PAM  EN ES        4 2 29.05                             150    0.0510 76.7  39 
 PAM  EZ I         4 2 30.87        19.2 0.18            161           76.7  39 
 RUS  HZ EP        4 2 13.30                             143   -0.3510  100 177 
 RUS  HN ES        4 2 31.95                             143    0.1010  100 177 
 RUS  HZ I         4 2 32.77        11.5 0.20            142            100 177 
 PTB  HZ EP        4 2 16.11                             131   -0.95 9  149 259 
 PTB  HE ES        4 2 37.91                             131   -0.00 9  149 259 
 PTB  HZ I         4 2 42.24        20.3 0.36            132            149 259 
 TAM  HZ EP   2    4 2 17.74                             130    0.18 5  154 105 
 TAM  HN ES        4 2 39.33                             130    0.52 9  154 105 
 TAM  HZ I         4 2 39.92        16.7 0.26            136            154 105 
 SPBC HZ EP        4 2 18.44                             128   -0.13 9  164 219 
 SPBC HN ES        4 2 40.26                             128   -0.34 9  164 219 
 SPBC HZ I         4 2 47.38        18.8 0.36            129            164 219 
 NOR  HZ EP   2    4 2 25.21                             118   -0.70 4  236 235 
 NOR  HE ES        4 2 53.30                             118   -0.37 8  236 235 
 NOR  HZ I         4 2 55.74        13.0 0.32            119            236 235 
 CHI  HZ EP   2    4 2 27.51                             116   -0.31 4  249 195 
 CHI  HE ES        4 2 57.41                             116    0.34 8  249 195 
 CHI  HZ I         4 3  0.78         4.7 0.34            118            249 195 
 HEL  HZ EP        4 2 30.11                             114   -0.34 8  273 256 
 HEL  HE ES        4 3  2.69                             114    0.93 8  273 256 
 HEL  HZ I         4 3  7.67         7.5 0.36            116            273 256 
 GUY2CHZ EP        4 2 34.86                             111    1.01 7  302 235 
 GUY2CHN ES   4    4 3  9.06                             111    1.26 0  302 235 
 GUY2CHZ I         4 3 19.77         7.2 0.56                           302 235 
 LL6C HZ EP   4    4 2 14.61                             110   -21.3 0  325 357 
 LL6C HE ES   4    4 2 50.35                             110   -21.0 0  325 357 
 LL6C HZ I         4 2 52.13         5.7 0.72            115            325 357 
 CBOC HZ EP   2    4 2 37.33                             109    0.13 3  335 252 
 CBOC HN ES   4    4 3 12.48                             109   -1.28 0  335 252 
 CBOC HZ I         4 3 30.23         2.7 0.70            111            335 252 
 PRA  HZ EP   2    4 2 43.52                             106   -0.25 3  393 210 
 PRA  HN ES   4    4 3 23.79                             106   -1.66 0  393 210 
 PRA  HZ I         4 3 28.73         4.9 0.20            108            393 210 
 ORTC HZ EP   2    4 2 45.14                             106    0.96 3  396 216 
 ORTC HN ES        4 3 27.08                             106    0.89 6  396 216 
 ORTC HZ I         4 3 33.73         4.3 0.70            108            396 216 
 SJC  HZ EP   4    4 2 43.15                             105   -2.69 0  410 327 
 SJC  HE ES   4    4 3 24.13                             105   -5.00 0  410 327 
 SJC  HZ I         4 3 33.12         2.6 0.28            109            410 327 
                                                                                
