 2010  131 0137 11.7 L   6.787 -72.959145.8  RSN  6 0.6 1.7LRSN                1
 GAP=202        1.04       5.2    12.2  9.7 -0.1513E+02  0.3903E+02  0.4952E+00E
 Epicentro: CEPITA - SANTANDER                                                 3
 ACTION:UP  10-08-24 09:46 OP:vdl  STATUS:               ID:20100131013711 L   I
 2010-01-31-0134-19S.COL___094                                                 6
 STAT SP IPHASW D HRMM SECON CODA AMPLIT PERI AZIMU VELO SNR AR TRES W  DIS CAZ7
 BAR2 SZ EP   1    137 31.49                             167     0.0 7   33 229 
 BAR2 SZ ES   1    137 46.68                             167    -0.3 7   33 229 
 RUS  BZ EP        137 35.78                             144     0.410  100 188 
 RUS  BE ES   1    137 54.21                             144     0.4 7  100 188 
 RUS  BZ I         137 55.38         5.6 0.20                           100 188 
 OCA  SZ EP   1    137 40.74                             129     0.3 7  165 346 
 OCA  SZ ES   1    138  2.51                             129    -0.4 7  165 346 
 CHI  HZ EP   1    137 49.01                             116    -0.9 6  253 200 
 CHI  HN ES   2    138 18.50                             116    -1.2 4  253 200 
 CHI  HZ I         138 24.81         3.2 0.16                           253 200 
 RREF BZ EP   1    138  0.38                             110     0.9 5  337 232 
 RREF BN ES        138 36.97                             110     0.1 7  337 232 
 RREF BZ I         138 40.95         3.3 0.31                           337 232 
 PRA  HZ EP   1    138  5.29                             106    -1.0 4  401 212 
                                                                                
