 2013 1031 0019 16.1 L   6.791 -73.163139.6  RSN 13 0.4 2.4LRSN 2.8WRSN        1
 SPEC AVERAGE  MO 13.2 ST  7.7 OM  1.7 f0 6.08 R0.3352 AL 0.00 WI 20.0 MW  2.8 3
 SPEC SD       MO  0.2 ST 10.9 OM  0.2 f0 3.23 R0.1756 AL      WI      MW  0.1 3
 GAP= 70        0.99       3.0     2.8  5.5 -0.5403E+00  0.4274E+01  0.9356E+00E
 Epicentro: LOS SANTOS - SANTANDER                                             3
 SPEC BAR2SH Z MO 13.3 ST  2.6 OM  1.8 f0 4.64 R0.3349 AL-0.00 WI 20.0 MW  2.8 3
 SPEC BAR2SH Z T 01948 K 0.000 GD  141 VS 4.20 DE 3.20 Q0300.0 QA 0.60 VS 4.20 3
 SPEC BRR HH Z MO 13.1 ST  5.2 OM  1.5 f0 7.14 R0.2176 AL-0.00 WI 20.0 MW  2.7 3
 SPEC BRR HH Z T 01952 K 0.000 GD  156 VS 4.20 DE 3.20 Q0300.0 QA 0.60 VS 4.20 3
 SPEC PAM SH Z MO 13.1 ST0.415 OM  1.5 f0 3.04 R0.5112 AL-0.00 WI 20.0 MW  2.7 3
 SPEC PAM SH Z T 01953 K 0.000 GD  160 VS 4.20 DE 3.20 Q0300.0 QA 0.60 VS 4.20 3
 SPEC RUS HH Z MO 12.8 ST0.843 OM  1.2 f0 4.74 R0.3278 AL-0.00 WI 20.0 MW  2.5 3
 SPEC RUS HH Z T 01955 K 0.000 GD  171 VS 4.20 DE 3.20 Q0300.0 QA 0.60 VS 4.20 3
 SPEC PTB HH Z MO 13.1 ST 38.0 OM  1.4 f0 13.7 R0.1134 AL-0.00 WI 20.0 MW  2.7 3
 SPEC PTB HH Z T 020 0 K 0.000 GD  202 VS 4.20 DE 3.20 Q0300.0 QA 0.60 VS 4.20 3
 SPEC SPBCHH Z MO 13.2 ST 13.1 OM  1.5 f0 8.74 R0.1778 AL-0.00 WI 20.0 MW  2.8 3
 SPEC SPBCHH Z T 020 4 K 0.000 GD  213 VS 4.20 DE 3.20 Q0300.0 QA 0.60 VS 4.20 3
 SPEC ZAR HH Z MO 13.4 ST 10.0 OM  1.6 f0 7.05 R0.2204 AL-0.00 WI 20.0 MW  2.9 3
 SPEC ZAR HH Z T 02012 K 0.000 GD  246 VS 4.20 DE 3.20 Q0300.0 QA 0.60 VS 4.20 3
 SPEC NOR HH Z MO 13.2 ST  5.4 OM  1.4 f0 6.48 R0.2398 AL-0.00 WI 20.0 MW  2.8 3
 SPEC NOR HH Z T 02017 K 0.000 GD  270 VS 4.20 DE 3.20 Q0300.0 QA 0.60 VS 4.20 3
 SPEC HEL HH Z MO 13.4 ST0.842 OM  1.5 f0 3.11 R0.4997 AL-0.00 WI 20.0 MW  2.9 3
 SPEC HEL HH Z T 02025 K 0.000 GD  303 VS 4.20 DE 3.20 Q0300.0 QA 0.60 VS 4.20 3
 SPEC RREFHH Z MO 13.5 ST0.425 OM  1.6 f0 2.19 R0.7096 AL-0.00 WI 20.0 MW  3.0 3
 SPEC RREFHH Z T 02036 K 0.000 GD  349 VS 4.20 DE 3.20 Q0300.0 QA 0.60 VS 4.20 3
 OLDACT:DUP 13-10-31 06:09 OP:jn   STATUS:               ID:20131031001744d    3
 ACTION:UPD 13-11-25 09:24 OP:ep   STATUS:               ID:20131031001916 L   I
 OLDACT:UP  13-10-31 06:11 OP:jn   STATUS:               ID:20131031001744d    3
 2013-10-31-0017-43M.COL___216                                                 6
 STAT SP IPHASW D HRMM SECON CODA AMPLIT PERI AZIMU VELO AIN AR TRES W  DIS CAZ7
 BAR2 SZ IP     D  019 35.12                             171    0.1410 22.0 185 
 BAR2 SZ ES        019 49.82                             171    0.1310 22.0 185 
 BAR2 SZ I         019 51.27        67.2 0.32            166           22.0 185 
 BRR  HZ EP     C  019 37.02                             152    0.4910 70.0 300 
 BRR  HN ES   1    019 53.53                             152    1.08 7 70.0 300 
 BRR  SZ I         019 57.98        36.4 0.14            148           70.0 300 
 PAM  SZ EP        019 37.97                             149    0.1610 79.4  40 
 PAM  SN ES        019 54.68                             149   -0.0410 79.4  40 
 PAM  SZ I         019 56.46        36.4 0.20            146           79.4  40 
 RUS  HZ EP        019 39.09                             143   -0.1110 99.7 175 
 RUS  HN ES        019 56.85                             143   -0.3510 99.7 175 
 RUS  SZ I         019 58.55        21.5 0.28            136           99.7 175 
 PTB  HZ EP        019 41.87                             131   -0.52 9  146 259 
 PTB  HN ES        020  2.23                             131   -0.65 9  146 259 
 PTB  SZ I         020  5.32        34.8 0.16            125            146 259 
 TAM  HZ EP        019 43.43                             129   -0.04 9  157 104 
 TAM  HN ES        020  4.98                             129    0.18 9  157 104 
 TAM  SZ I         020 14.30        19.7 0.64            123            157 104 
 OCA  HN ES        020  4.90                             128   -0.91 9  161 354 
 SPBC HZ EP        019 44.07                             128    0.12 9  161 219 
 SPBC HN ES        020  5.51                             128   -0.15 9  161 219 
 SPBC SZ I         020  9.48        37.3 0.24            121            161 219 
 ZAR  HZ EP        019 47.92                             121   -0.10 9  203 293 
 ZAR  HN ES        020 13.59                             121    0.69 9  203 293 
 ZAR  SZ I         020 19.97        41.5 0.34            116            203 293 
 NOR  HZ EP        019 51.66                             117    0.40 8  232 234 
 NOR  HE ES        020 18.56                             117   -0.10 8  232 234 
 NOR  SZ I         020 25.73        19.0 0.18            112            232 234 
 SML  HE ES   1    020 20.48                             116   -0.25 6  244 336 
 HEL  HZ EP        019 55.85                             114    0.07 8  270 256 
 HEL  HN ES   1    020 26.71                             114   -0.01 6  270 256 
 HEL  SZ I         020 34.27        18.5 0.46            109            270 256 
 RREF HZ EP   1    020  2.10                             110    0.35 5  320 229 
 RREF SZ I         020 46.11        11.8 0.24            105            320 229 
                                                                                
