 2010  131 0647 34.8 L   6.492 -73.086184.4  RSN 13 0.7 2.9LRSN                1
 GAP=134        1.43       5.3     9.3  8.6 -0.1039E+02  0.3014E+02 -0.3384E+01E
 Epicentro: VALLE DE SAN JOSE - SANTANDER                                      3
 ACTION:UP  10-08-24 09:46 OP:vdl  STATUS:               ID:20100131064734 L   I
 2010-01-31-0645-59S.COL___094                                                 6
 STAT SP IPHASW D HRMM SECON CODA AMPLIT PERI AZIMU VELO SNR AR TRES W  DIS CAZ7
 BAR2 SZ IP        647 59.03                             175     0.010   15 316 
 BAR2 SZ ES   1    648 17.65                             175    -0.2 7   15 316 
 RUS  BZ IP        648  0.92                             160     0.210   66 180 
 RUS  BN ES        648 21.15                             160     0.210   66 180 
 RUS  BZ I         648 22.31       418.3 0.29                            66 180 
 GIR2 SZ EP        648  0.42                             159     0.210   66 350 
 GIR2 SZ ES   1    648 19.39                             159    -0.6 7   66 350 
 OCA  SZ EP        648  9.58                             131     0.2 9  195 352 
 OCA  SZ ES   1    648 37.26                             131     0.9 6  195 352 
 CHI  HZ EP        648 11.66                             128    -0.2 8  218 199 
 CHI  HN ES        648 40.35                             128    -0.5 8  218 199 
 CHI  HZ I         648 43.89        31.1 0.71                           218 199 
 ROSC BZ EP   1    648 13.98                             127     1.1 6  228 217 
 ROSC BZ I         648 47.23        23.7 0.35                           228 217 
 HEL  HZ EP        648 18.30                             122     1.0 8  272 263 
 HEL  HE ES   1    648 49.82                             122    -0.6 6  272 263 
 HEL  HZ I         648 53.71        36.8 0.09                           272 263 
 RREF BZ EP   1    648 21.10                             119    -0.1 5  306 235 
 RREF BZ I         649  3.04        30.5 0.39                           306 235 
 TOL  SZ EP        648 23.40                             117     0.6 7  325 230 
 DBB  SZ EP        648 25.81                             115     0.5 6  350 280 
 PRA  HZ EP        648 26.79                             114    -0.2 6  366 213 
 PRA  HN ES   1    649  6.50                             114    -1.2 5  366 213 
 SDV  BZ IP        648 27.44                             113    -1.1 6  378  46 
 SDV  BZ I         648 28.33        17.8 0.04                           378  46 
 MON  HZ EP        648 26.78                             113    -1.7 6  380 312 
 MON  HN ES   1    649 10.03                             113    -0.4 5  380 312 
 MON  HZ I         649 11.35        22.3 0.37                           380 312 
                                                                                
