 2011  331 0520 44.3 L   6.741 -73.126150.2  RSN  5 0.2 1.4LRSN                1
 GAP=185        0.49       5.0     8.1  7.9 -0.1611E+02 -0.3411E+01  0.2315E+01E
 Epicentro: JORDAN - SANTANDER                                                 3
 ACTION:UP  11-06-16 14:36 OP:jfem STATUS:               ID:20110331052044 L   I
 2011-03-31-0519-04S.COL___138                                                 6
 STAT SP IPHASW D HRMM SECON CODA AMPLIT PERI AZIMU VELO SNR AR TRES W  DIS CAZ7
 BAR2 SZ EP        521  4.30                             173    -0.110   18 201 
 BAR2 SZ I         521 20.73         5.6 0.35                            18 201 
 BTL  SZ EP        521  4.68                             170     0.110   25 321 
 BRR  HZ EP        521  6.24                             152     0.010   76 302 
 BRR  HN ES   2    521 23.48                             152     0.1 5   76 302 
 BRR  HZ I         521 27.31         5.7 0.14                            76 302 
 GRA  SZ EP   2    521 10.99                             137     0.5 5  131  16 
 GRA  SZ ES   1    521 30.72                             137    -0.1 7  131  16 
 GRA  SZ I         521 31.79         3.1 0.63                           131  16 
 OCA  SZ EP        521 13.47                             130    -0.2 9  167 353 
                                                                                
