 2011 1031 0845 49.7 L   6.839 -72.954138.9  RSN  5 0.3 1.3LRSN                1
 GAP=202        0.53       4.0    10.1  6.4  0.1508E+02  0.8755E+01 -0.4351E+01E
 Epicentro: CEPITA - SANTANDER                                                 3
 ACTION:UPD 12-07-13 16:07 OP:ep   STATUS:               ID:20111031084549 L   I
 2011-10-31-0844-37S.COL___157                                                 6
 STAT SP IPHASW D HRMM SECON CODA AMPLIT PERI AZIMU VELO AIN AR TRES W  DIS CAZ7
 BAR2 SZ EP   1    846  9.14                             164    0.24 7 37.2 223 
 BAR2 SZ I         846  9.68         3.7 0.13                          37.2 223 
 BAR2 SZ ES   1    846 24.15                             164    0.29 7 37.2 223 
 BRR  HZ EP   1    846 10.97                             145   -0.29 7 88.8 290 
 BRR  HZ I         846 11.36         7.4 0.11                          88.8 290 
 BRR  HN ES   2    846 27.94                             145   -0.12 5 88.8 290 
 RUS  HZ EP   2    846 13.23                             141    0.05 5  106 188 
 RUS  HN ES   2    846 30.88                             141   -0.61 5  106 188 
 RUS  HZ I         846 32.91         1.8 0.25                           106 188 
 OCA  SZ ES   1    846 38.98                             128   -0.14 7  160 345 
 OCA  SZ I         846 40.97         2.2 0.18                           160 345 
 ZAR  HZ EP   1    846 23.93                             118    0.26 6  222 289 
 ZAR  HZ I         846 53.33         2.4 0.34                           222 289 
                                                                                
