 2013 1231 0407 30.1 L   6.764 -73.200146.9  RSN  6 0.7 1.4LRSN                1
 GAP=229        1.71       9.0    10.8 11.3  0.5366E+02  0.2933E+02  0.1904E+02E
 Epicentro: VILLANUEVA - SANTANDER                                             3
 ACTION:UPD 14-01-13 10:22 OP:ep   STATUS:               ID:20131231040730 L   I
 OLDACT:REG 13-12-31 08:42 OP:stll STATUS:               ID:20131231035817     3
 2013-12-31-0358-17M.COL___237                                                 6
 STAT SP IPHASW D HRMM SECON CODA AMPLIT PERI AZIMU VELO AIN AR TRES W  DIS CAZ7
 BAR2 SZ EP        4 7 49.36                             172   -0.4110 19.1 174 
 BAR2 SZ ES        4 8  4.91                             172   -0.2110 19.1 174 
 BAR2 SZ I         4 8  6.14         6.6 0.28            165           19.1 174 
 BRR  HZ EP        4 7 51.55                             154    0.3610 68.1 304 
 BRR  HN ES        4 8  9.07                             154    1.4310 68.1 304 
 BRR  HZ I         4 8 10.82         5.1 0.48            150           68.1 304 
 RUS  HZ EP        4 7 53.72                             145    0.0110 97.2 172 
 RUS  HE ES        4 8 11.29                             145   -0.8410 97.2 172 
 RUS  HZ I         4 8 14.93         1.6 0.42            144           97.2 172 
 PTB  HZ EP        4 7 56.45                             134   -0.10 9  141 260 
 PTB  HN ES        4 8 16.70                             134   -0.50 9  141 260 
 PTB  HZ I         4 8 23.40         3.9 0.38            131            141 260 
 ZAR  HZ EP        4 8  2.30                             123    0.10 9  200 294 
 ZAR  HN ES        4 8 26.29                             123   -0.95 9  200 294 
 ZAR  HZ I         4 8 33.96         3.4 0.42            123            200 294 
 CHI  HZ EP        4 8  7.37                             118    0.10 8  243 194 
 CHI  HN ES        4 8 37.47                             118    1.20 8  243 194 
 CHI  HZ I         4 8 42.52         1.1 0.46            118            243 194 
                                                                                
