 2012  731 0039 56.6 L   6.750 -73.182147.1  RSN  6 0.4 1.7LRSN                1
 GAP=134        0.94       7.8     6.8  9.7  0.1993E+02 -0.1193E+01 -0.1616E+02E
 Epicentro: VILLANUEVA - SANTANDER                                             3
 ACTION:UPD 12-08-14 11:46 OP:ep   STATUS:               ID:20120731003956 L   I
 2012-07-31-0040-00M.COL___208                                                 6
 STAT SP IPHASW D HRMM SECON CODA AMPLIT PERI AZIMU VELO AIN AR TRES W  DIS CAZ7
 BAR2 SZ ES   1    040 30.91                             173    -0.7 7   17 180 
 BAR2 SZ I         040 32.54        12.6 0.18            173             17 180 
 BRR  HZ EP        040 18.03                             153     0.210   71 304 
 BRR  HN ES   1    040 35.06                             153     0.6 7   71 304 
 BRR  HZ I         040 36.84        13.7 0.18            153             71 304 
 PAM  SZ EP   1    040 19.25                             149    -0.1 7   84  39 
 RUS  HZ EP   1    040 20.39                             146     0.3 7   95 173 
 RUS  HN ES   1    040 38.80                             146     0.3 7   95 173 
 RUS  HZ I         040 40.02         6.4 0.26            147             95 173 
 PTB  HZ EP   1    040 22.77                             133    -0.5 7  143 261 
 PTB  HN ES   1    040 43.93                             133    -0.1 7  143 261 
 PTB  HZ I         040 45.92         4.4 0.12            134            143 261 
 ZAR  HN ES   1    040 54.15                             123    -0.1 6  203 294 
