 2015  531 0040 45.0 L   6.416 -73.653109.2  RSN  8 0.3 1.6LRSN                1
 GAP= 76        0.83       2.5     2.9  6.7 -0.1272E+01  0.6354E+01 -0.4943E+01E
 Epicentro: SANTA HELENA DEL OPON - SANTANDER                                  3
 ACTION:UPD 15-09-10 22:08 OP:cam  STATUS:               ID:20150531004045 L   I
 OLDACT:UP  15-05-31 14:34 OP:ar   STATUS:               ID:20150531003748     3
 OLDACT:REG 15-05-31 12:18 OP:ar   STATUS:               ID:20150531003748     3
 2015-05-31-0037-48M.COL___312                                                 6
 STAT SP IPHASW D HRMM SECON CODA AMPLIT PERI AZIMU VELO AIN AR TRES W  DIS CAZ7
 BAR2 EZ EP        041  1.84                             151    0.1610 55.6  69 
 BAR2 EZ I         041 15.48        20.5 0.14            152           55.6  69 
 BRR  HZ EP        041  2.80                             142    0.0410 76.7 355 
 BRR  HN ES        041 16.70                             142    0.1110 76.7 355 
 BRR  HZ I         041 20.84         6.6 0.44            144           76.7 355 
 RUS  HZ EP        041  4.00                             139   -0.1410 85.6 133 
 RUS  HN ES        041 19.32                             139    0.2710 85.6 133 
 RUS  HZ I         041 20.01         5.4 0.30            141           85.6 133 
 SPBC HZ EP        041  4.38                             135   -0.0910 96.4 209 
 SPBC HN ES        041 19.18                             135   -0.4710 96.4 209 
 SPBC HZ I         041 25.91         9.1 0.10            139           96.4 209 
 NOR  HZ EP   4    041  2.50                             119   -8.58 0  164 235 
 NOR  HE ES        041 31.78                             119    0.37 9  164 235 
 NOR  HZ I         041 33.91         6.2 0.38            122            164 235 
 ZAR  HZ EP        041 13.21                             117    0.65 9  179 312 
 ZAR  HE ES        041 34.09                             117    0.05 9  179 312 
 ZAR  HZ I         041 36.10         6.2 0.30            119            179 312 
 OCA  HZ EP        041 15.15                             113   -0.51 9  205  10 
 OCA  HN ES        041 39.28                             113   -0.28 9  205  10 
 OCA  HZ I         041 44.92        12.0 0.46            115            205  10 
 HEL  HZ EP        041 16.68                             113    0.28 8  209 263 
 HEL  HE ES        041 40.37                             113   -0.51 8  209 263 
 HEL  HZ I         041 43.84         3.5 0.36            116            209 263 
                                                                                
