 2016 1031 0531 37.4 L   6.767 -73.160148.0  RSN  4 0.3 1.0LRSN                1
 GAP=136        0.71       4.2     4.0  7.8 -0.2807E+01  0.1061E+00 -0.1107E+01E
 Epicentro: LOS SANTOS - SANTANDER                                             3
 ACTION:UPD 16-11-09 19:24 OP:rebc STATUS:               ID:20161031053137 L   I
 OLDACT:UP  16-11-01 16:48 OP:nlst STATUS:               ID:20161031053137 L   3
 OLDACT:UP  16-10-31 15:19 OP:dnl  STATUS:               ID:20161031052800     3
 OLDACT:UP  16-10-31 15:19 OP:dnl  STATUS:               ID:20161031052800     3
 OLDACT:ARG 16-10-31 12:39 OP:dani STATUS:               ID:20161031052800     3
 2016-10-31-0528-00M.COL___316                                                 6
 STAT SP IPHASW D HRMM SECON CODA AMPLIT PERI AZIMU VELO AIN AR TRES W  DIS CAZ7
 BRR  HZ EP        531 59.02                             153    0.1710 71.7 302 
 BRR  HN ES        532 15.97                             153    0.4210 71.7 302 
 BRR  HZ I         532 18.60         2.6 0.28            153           71.7 302 
 PAM  EZ EP        532  0.09                             150   -0.0210 81.1  39 
 PAM  EE ES        532 17.52                             150   -0.2810 81.1  39 
 PAM  EZ I         532 19.28         1.4 0.48            153           81.1  39 
 RUS  HZ EP   2    532  1.22                             145    0.06 5 97.1 175 
 RUS  HN ES        532 19.76                             145    0.1010 97.1 175 
 RUS  HZ I         532 20.80         1.1 0.26            148           97.1 175 
 PTB  HZ EP   4    532  2.72                             133   -1.67 0  146 260 
 PTB  HE ES        532 24.96                             133   -0.45 9  146 260 
 PTB  HZ I         532 28.41         1.3 0.18            134            146 260 
                                                                                
