 2015  331 0357 26.5 L   6.793 -73.132132.7  RSN  4 0.4 1.2LRSN                1
 GAP=245        1.04       9.5     9.5 16.1  0.5940E+02 -0.6026E+02 -0.9264E+02E
 Epicentro: LOS SANTOS - SANTANDER                                             3
 ACTION:UPD 15-04-30 16:30 OP:nd   STATUS:               ID:20150331035726 L   I
 OLDACT:UP  15-03-31 14:41 OP:mh   STATUS:               ID:20150331034742d    3
 OLDACT:DUP 15-03-31 14:12 OP:mh   STATUS:               ID:20150331034742d    3
 OLDACT:UP  15-03-31 14:12 OP:mh   STATUS:               ID:20150331034741d    3
 OLDACT:DUP 15-03-31 14:05 OP:mh   STATUS:               ID:20150331034741d    3
 2015-03-31-0347-39M.COL___283                                                 6
 STAT SP IPHASW D HRMM SECON CODA AMPLIT PERI AZIMU VELO AIN AR TRES W  DIS CAZ7
 RUS  HZ EP   1    357 49.02                             141    0.10 8 99.7 177 
 RUS  HN ES   1    358  6.38                             141   -0.03 8 99.7 177 
 RUS  HZ I         358  8.85         1.3 0.26            146           99.7 177 
 PTB  HZ EP        357 52.24                             128   -0.3210  149 259 
 PTB  HN ES        358 12.13                             128   -0.7610  149 259 
 PTB  HZ I         358 15.72                             131            149 259 
 SPBC HZ EP        357 54.19                             126    0.1310  164 220 
 SPBC HN ES        358 16.02                             126    0.4610  164 220 
 SPBC HZ I         358 22.29         1.9 0.13            129            164 220 
 ZAR  HZ EP        357 58.10                             119   -0.21 9  206 292 
 ZAR  HN ES        358 23.89                             119    0.78 9  206 292 
 ZAR  HZ I         358 31.24         2.7 0.60            122            206 292 
                                                                                
