 2016  331 0644  9.9 L   6.874 -73.397112.0  RSN  7 0.4 1.5LRSN                1
 GAP=139        0.92       3.2     5.3  8.2  0.3456E+01  0.2312E+02  0.5822E+00E
 Epicentro: SAN VICENTE DE CHUCURI - SANTANDER                                 3
 ACTION:UPD 16-05-13 21:29 OP:cam  STATUS:               ID:20160331064409 L   I
 OLDACT:UP  16-03-31 15:24 OP:drio STATUS:               ID:20160331063748     3
 OLDACT:REG 16-03-31 12:24 OP:drio STATUS:               ID:20160331063748     3
 2016-03-31-0637-48M.COL___286                                                 6
 STAT SP IPHASW D HRMM SECON CODA AMPLIT PERI AZIMU VELO AIN AR TRES W  DIS CAZ7
 BAR2 EZ EP        644 26.05                             160    0.0310 39.1 143 
 BAR2 EZ ES        644 38.88                             160    0.2810 39.1 143 
 BAR2 EZ I         644 39.87        15.5 0.30            167           39.1 143 
 RUS  HZ EP        644 31.24                             131   -0.4310  114 162 
 RUS  HN ES        644 48.22                             131   -0.4510  114 162 
 RUS  HZ I         644 51.92         2.4 0.38            138            114 162 
 PTB  HZ EP   4    644 30.62                             129   -1.24 0  123 253 
 PTB  HN ES   4    644 47.01                             129   -1.99 0  123 253 
 PTB  HZ I         644 51.53         5.5 0.28            130            123 253 
 OCA  HZ EP   4    644 37.45                             122    2.58 0  151   3 
 OCA  HN ES        644 54.58                             122    0.21 9  151   3 
 OCA  HZ I         645  1.77         9.5 0.16            126            151   3 
 SPBC HZ EP        644 35.83                             122    0.72 9  154 209 
 SPBC HE ES        644 54.95                             122    0.16 9  154 209 
 SPBC HZ I         645  1.91         4.1 0.40            126            154 209 
 ZAR  HZ EP        644 36.88                             118   -0.34 9  175 293 
 ZAR  HN ES        644 58.21                             118   -0.33 9  175 293 
 ZAR  HZ I         645  7.41         3.1 0.10            120            175 293 
 GUY2CHZ EP        644 50.40                             106    0.25 7  284 230 
 GUY2CHN ES   4    645 22.41                             106    0.84 0  284 230 
 GUY2CHZ I         645 29.28         1.3 0.72                           284 230 
                                                                                
