 2011 1231 0439 46.7 L   6.785 -73.111149.8  RSN 10 0.4 2.6LRSN                1
 GAP=142        0.69       3.8     4.5  5.3  0.1190E+01  0.8890E+01  0.5146E+01E
 Epicentro: LOS SANTOS - SANTANDER                                             3
 ACTION:UPD 12-07-13 16:19 OP:ep   STATUS:               ID:20111231043946 L   I
 2011-12-31-0438-00S.COL___179                                                 6
 STAT SP IPHASW D HRMM SECON CODA AMPLIT PERI AZIMU VELO AIN AR TRES W  DIS CAZ7
 BAR2 SZ IP        440  6.83                             171    0.0110 22.8 200 
 BAR2 SZ ES   1    440 22.30                             171   -0.20 7 22.8 200 
 BAR2 SZ I         440 23.56        80.9 0.38                          22.8 200 
 BRR  HZ EP   1    440  8.71                             152    0.17 7 75.4 298 
 BRR  HE ES   1    440 25.95                             152    0.39 7 75.4 298 
 BRR  HZ I         440 29.83        85.7 0.15                          75.4 298 
 PAM  SZ EP        440  9.56                             152    0.2610 76.3  37 
 PAM  SN ES   1    440 26.60                             152   -0.31 7 76.3  37 
 PAM  SZ I         440 28.85        47.0 0.48                          76.3  37 
 RUS  HZ EP   1    440 10.74                             145    0.00 7 98.8 178 
 RUS  HN ES   1    440 29.47                             145   -0.01 7 98.8 178 
 PTB  HZ EP   1    440 13.43                             132   -0.90 7  151 260 
 ZAR  HZ EP   1    440 19.71                             123   -0.15 6  208 292 
 ZAR  HN ES   1    440 45.60                             123   -0.11 6  208 292 
 ZAR  HZ I         440 50.78        57.2 0.46                           208 292 
 CHI  HZ EP   1    440 24.89                             118    0.30 6  248 196 
 CHI  HZ I         441  4.05        20.1 0.39                           248 196 
 HEL  HZ EP   1    440 27.98                             115    0.47 6  275 256 
 HEL  HZ I         441  6.69        19.7 0.41                           275 256 
 RREF HZ EP   1    440 33.72                             111    0.46 5  324 230 
 RREF HZ I         441 16.81        23.9 0.51                           324 230 
 PRA  HZ EP   1    440 39.52                             107   -0.92 4  393 210 
 PRA  HN ES   1    441 22.61                             107    0.26 4  393 210 
                                                                                
