 2015  131 0019 17.0 L   6.796 -73.144144.5  RSN 10 0.4 1.9LRSN                1
 GAP=137        0.90       3.0     3.6  5.0 -0.1217E+01  0.3818E+01  0.1828E+01E
 Epicentro: LOS SANTOS - SANTANDER                                             3
 ACTION:UPD 15-03-02 15:43 OP:nd   STATUS:               ID:20150131001917 L   I
 OLDACT:UP  15-01-31 13:38 OP:cam  STATUS:               ID:20150131001815     3
 OLDACT:REG 15-01-31 12:59 OP:cam  STATUS:               ID:20150131001815     3
 2015-01-31-0018-15M.COL___280                                                 6
 STAT SP IPHASW D HRMM SECON CODA AMPLIT PERI AZIMU VELO AIN AR TRES W  DIS CAZ7
 BAR2 EZ EP        019 36.46                             171   -0.0510 22.9 191 
 BAR2 EZ ES        019 51.45                             171   -0.2410 22.9 191 
 BAR2 EZ I         019 54.10         9.5 0.40            170           22.9 191 
 BRR  HZ IP     C  019 38.21                             152    0.1410 71.6 299 
 BRR  HN ES        019 54.93                             152    0.4510 71.6 299 
 BRR  HZ I         020  0.40        10.3 0.14            151           71.6 299 
 PAM  SZ EP        019 39.23                             150    0.0910 77.7  39 
 PAM  SE ES        019 56.08                             150   -0.2910 77.7  39 
 PAM  SE I         019 58.90        17.5 0.60            154           77.7  39 
 RUS  HZ EP        019 40.64                             144    0.0110  100 176 
 RUS  HN ES        019 59.39                             144    0.3610  100 176 
 RUS  HZ I         020  0.53         8.9 0.26            146            100 176 
 PTB  HZ EP        019 43.23                             132   -0.68 9  148 259 
 PTB  HN ES        020  4.47                             132   -0.40 9  148 259 
 PTB  HZ I         020  6.72        11.3 0.28            132            148 259 
 SPBC HZ EP        019 45.95                             129    0.53 9  163 219 
 SPBC HN ES        020  7.55                             129    0.00 9  163 219 
 SPBC HZ I         020 11.10        15.7 0.26            130            163 219 
 ZAR  HZ EP   4    019 50.49                             122    1.05 0  204 292 
 ZAR  HN ES        020 15.13                             122    0.42 9  204 292 
 ZAR  HZ I         020 20.28        12.0 0.42            123            204 292 
 NOR  HZ EP        019 52.63                             118   -0.05 8  235 235 
 NOR  HN ES        020 20.40                             118   -0.08 8  235 235 
 NOR  HZ I         020 24.86         5.0 0.32            120            235 235 
 SML  HZ EP        019 53.33                             117   -0.32 8  244 335 
 SML  HN ES   4    020 19.92                             117   -2.28 0  244 335 
 SML  HZ I         020 24.38        11.4 0.10            119            244 335 
 CHI  HZ EP        019 55.22                             117    0.60 8  248 195 
 CHI  HE ES        020 23.35                             117   -0.59 8  248 195 
 CHI  HZ I         020 29.66         3.6 0.36            119            248 195 
 GUY2CHZ EP   4    020  2.84                             112    2.27 0  301 235 
                                                                                
