 2015  731 0744 22.6 L   6.780 -73.180145.3  RSN 12 0.4 2.3LRSN                1
 GAP=179        0.83       2.9     3.4  4.8  0.3870E+00  0.7584E+01 -0.5807E+00E
 Epicentro: LOS SANTOS - SANTANDER                                             3
 ACTION:UPD 15-09-08 21:51 OP:cam  STATUS:               ID:20150731074422 L   I
 OLDACT:REG 15-07-31 12:32 OP:drio STATUS:               ID:20150731073741     3
 2015-07-31-0737-41M.COL___337                                                 6
 STAT SP IPHASW D HRMM SECON CODA AMPLIT PERI AZIMU VELO AIN AR TRES W  DIS CAZ7
 BAR2 EZ EP     D  744 41.81                             171   -0.2910 20.7 181 
 BAR2 EZ ES        744 57.18                             171   -0.1510 20.7 181 
 BAR2 EZ I         744 57.92        35.0 0.18            169           20.7 181 
 BRR  HZ EP     D  744 43.84                             153    0.2810 69.1 302 
 BRR  HN ES        745  0.28                             153    0.3610 69.1 302 
 BRR  HZ I         745  2.05        36.8 0.24            148           69.1 302 
 RUS  HZ EP        744 46.65                             144    0.5010 98.7 174 
 RUS  HE ES        745  4.41                             144   -0.1210 98.7 174 
 RUS  HZ I         745  5.33        22.0 0.32            146           98.7 174 
 OCA  HZ EP        744 50.72                             129   -0.31 9  162 355 
 OCA  HN ES        745 12.92                             129   -0.30 9  162 355 
 OCA  HZ I         745 19.82        50.1 0.28            129            162 355 
 ZAR  HZ EP        744 54.83                             123    0.10 9  201 293 
 ZAR  HN ES        745 20.25                             123    0.45 9  201 293 
 ZAR  HZ I         745 26.16        30.3 0.34            121            201 293 
 NOR  HZ EP     D  744 58.02                             119    0.21 8  230 234 
 NOR  HE ES        745 24.80                             119   -0.50 8  230 234 
 NOR  HZ I         745 31.01        14.7 0.22            118            230 234 
 HEL  HZ EP        745  2.59                             115    0.28 8  268 256 
 HEL  HN ES        745 32.76                             115   -0.53 8  268 256 
 HEL  HZ I         745 46.03         5.2 0.44            114            268 256 
 URE  HZ EP        745  2.69                             114   -0.64 7  281 293 
 URE  HZ ES        745 35.40                             114    0.28 7  281 293 
 URE  HZ I         745 48.57        13.6 0.22            113            281 293 
 GUY2CHZ EP   4    745  7.17                             113    1.50 0  297 235 
 GUY2CHN ES   4    745 38.15                             113   -1.14 0  297 235 
 GUY2CHZ I         745 47.47         8.3 0.26                           297 235 
 PTGC HZ EP   4    745  4.65                             111   -1.68 0  308 158 
 PTGC HN ES   4    745 37.77                             111   -2.69 0  308 158 
 PTGC HZ I         745 40.87         6.4 0.62            113            308 158 
 CBOC HZ EP        745  9.62                             110    0.63 7  329 252 
 CBOC HN ES        745 45.18                             110   -0.00 7  329 252 
 CBOC HZ I         745 57.24         3.0 0.68            110            329 252 
 DBB  SZ EP        745  9.39                             110   -0.24 7  336 275 
 DBB  SZ ES        745 46.05                             110   -0.27 7  336 275 
 DBB  SZ I         745 49.90        21.4 0.44            109            336 275 
                                                                                
