 2017  531 0818 33.6 L   6.402 -73.648110.7  RSN  5 0.4 0.9LRSN                1
 GAP=137        0.95       4.8     5.0  9.7  0.6029E+01  0.3529E+01 -0.1717E+02E
 Epicentro: SANTA HELENA DEL OPON - SANTANDER                                  3
 ACTION:UPD 17-06-16 13:40 OP:jn   STATUS:               ID:20170531081833 L   I
 OLDACT:UP  17-06-06 20:30 OP:nlst STATUS:               ID:20170531081833 L   3
 OLDACT:DUP 17-05-31 14:18 OP:ar   STATUS:               ID:20170531080738d    3
 2017-05-31-0808-00M.COL___341                                                 6
 STAT SP IPHASW D HRMM SECON CODA AMPLIT PERI AZIMU VELO AIN AR TRES W  DIS CAZ7
 BRR  HZ EP        818 51.83                             142    0.2610 78.3 355 
 BRR  HN ES   1    819  5.81                             142    0.19 7 78.3 355 
 RUS  HZ EP        818 52.79                             140    0.0910 84.1 132 
 RUS  HN ES        819  7.34                             140   -0.2910 84.1 132 
 RUS  HZ I         819  8.57         1.2 0.28            144           84.1 132 
 PTB  HZ EP        818 51.88                             138   -0.6910 90.7 280 
 PTB  HN ES   1    819  7.08                             138   -0.32 7 90.7 280 
 PTB  HZ I         819  8.64         1.2 0.22            138           90.7 280 
 SPBC HN ES        819  8.73                             136    0.4810 95.3 210 
 ZAR  HZ EP        819  1.65                             117    0.30 9  180 312 
 ZAR  HN ES   4    819 24.75                             117    1.72 0  180 312 
 ZAR  HZ I         819 26.55         2.1 0.09            118            180 312 
                                                                                
