 2016 1231 0608 41.4 L   5.739 -73.871118.7  RSN 10 0.4 1.7LRSN                1
 GAP= 73        1.10       2.6     3.9  8.4 -0.1277E+01  0.1093E+02 -0.1323E+01E
 Epicentro: ALBANIA - SANTANDER                                                3
 ACTION:UPD 17-01-11 20:20 OP:rebc STATUS:               ID:20161231060841 L   I
 OLDACT:REG 16-12-31 12:32 OP:dnl  STATUS:               ID:20161231055746     3
 2016-12-31-0558-00M.COL___362                                                 6
 STAT SP IPHASW D HRMM SECON CODA AMPLIT PERI AZIMU VELO AIN AR TRES W  DIS CAZ7
 RUS  HZ EP        6 9  1.76                             141    0.1410 88.9  79 
 RUS  HN ES        6 9 17.28                             141   -0.1510 88.9  79 
 RUS  HZ I         6 9 18.64         4.7 0.22            145           88.9  79 
 PTB  HZ IP     C  6 9  1.58                             134   -1.0910  110 324 
 PTB  HN ES   4    6 9 17.17                             134   -2.13 0  110 324 
 PTB  HZ I         6 9 20.39        11.0 0.20            137            110 324 
 ROSC BZ EP        6 9  3.97                             134    0.6510  111 207 
 ROSC BE ES        6 9 20.91                             134    0.4610  111 207 
 ROSC BZ I         6 9 23.64        11.4 0.35            136            111 207 
 BAR2 EZ IP     C  6 9  4.55                             131    0.5310  121  39 
 BAR2 EZ ES        6 9 21.51                             131   -0.1910  121  39 
 BAR2 EZ I         6 9 22.79        10.7 0.28            135            121  39 
 CHI  HZ EP        6 9  4.38                             131   -0.0910  124 173 
 CHI  HE ES        6 9 22.06                             131   -0.4410  124 173 
 CHI  HZ I         6 9 26.52         6.8 0.28            133            124 173 
 BRR  HZ IP     C  6 9  6.94                             124    0.24 9  152   7 
 BRR  HE ES        6 9 26.99                             124    0.52 9  152   7 
 BRR  HZ I         6 9 29.64        15.1 0.14            127            152   7 
 GUY2CHZ EP        6 9  9.97                             120    0.30 9  175 251 
 GUY2CHN ES   4    6 9 32.73                             120    0.98 0  175 251 
 GUY2CHZ I         6 9 33.22         3.2 0.34                           175 251 
 ZAR  HZ EP        6 9 13.93                             113   -0.31 8  222 331 
 ZAR  HN ES        6 9 39.62                             113   -0.27 8  222 331 
 ZAR  HZ I         6 9 42.82         8.0 0.30            116            222 331 
 ORTC HZ EP   2    6 9 17.83                             110    0.06 4  253 217 
 ORTC HN ES        6 9 45.89                             110   -0.29 8  253 217 
 ORTC HZ I         6 9 52.37         2.7 0.20            112            253 217 
 PTGC HZ EP        6 9 18.28                             110    0.12 8  257 131 
 PTGC HN ES        6 9 46.46                             110   -0.41 8  257 131 
 PTGC HZ I         6 9 48.82         8.1 0.36            113            257 131 
                                                                                
