 2012 1031 0831 44.7 L   6.440 -73.589100.5  RSN  5 0.5 1.6LRSN                1
 GAP=172        1.01       5.6     7.7 11.4  0.2066E+02  0.4348E+02  0.7439E+01E
 Epicentro: SANTA HELENA DEL OPON - SANTANDER                                  3
 ACTION:UPD 12-11-22 17:06 OP:ep   STATUS:               ID:20121031083144 L   I
 2012-10-31-0830-00M.COL___231                                                 6
 STAT SP IPHASW D HRMM SECON CODA AMPLIT PERI AZIMU VELO AIN AR TRES W  DIS CAZ7
 BAR2 SZ EP        831 59.66                             152   -0.2910 48.0  69 
 BAR2 SZ ES   1    832 12.04                             152    0.16 7 48.0  69 
 BRR  HZ EP   1    832  0.49                             140   -0.95 7 75.0 350 
 BRR  HN ES   1    832 14.23                             140   -0.31 7 75.0 350 
 BRR  HN I         832 19.69        15.7 0.16                          75.0 350 
 RUS  HZ EP        832  3.05                             138    0.3210 82.4 137 
 RUS  HE ES   2    832 17.17                             138    0.35 5 82.4 137 
 RUS  HN I         832 20.84         3.8 0.16                          82.4 137 
 ZAR  HZ EP        832 11.92                             113   -0.24 9  182 310 
 ZAR  HN ES   1    832 34.46                             113    0.85 7  182 310 
 ZAR  HN I         832 36.94        10.4 0.30                           182 310 
 OCA  HN ES        832 38.16                             111    0.42 9  201   8 
                                                                                
