 2011 1031 0233 58.8 L   6.775 -73.156143.4  RSN  5 0.2 1.3LRSN                1
 GAP=182        0.44       4.1     9.7  6.4  0.1118E+02  0.3084E+02 -0.6015E+01E
 Epicentro: LOS SANTOS - SANTANDER                                             3
 ACTION:UPD 12-07-13 16:07 OP:ep   STATUS:               ID:20111031023358 L   I
 2011-10-31-0232-22S.COL___157                                                 6
 STAT SP IPHASW D HRMM SECON CODA AMPLIT PERI AZIMU VELO AIN AR TRES W  DIS CAZ7
 BAR2 SZ EP   1    234 17.83                             172   -0.29 7 20.4 188 
 BAR2 SZ ES   1    234 33.18                             172    0.02 7 20.4 188 
 BAR2 SZ I         234 36.33         4.5 0.48                          20.4 188 
 BRR  HZ EP   1    234 19.67                             152   -0.08 7 71.6 301 
 RUS  HZ EP   2    234 22.66                             144    0.51 5 97.9 175 
 RUS  HZ I         234 39.04         3.5 0.61                          97.9 175 
 RUS  HN ES   2    234 40.36                             144    0.02 5 97.9 175 
 OCA  SZ EP   2    234 27.02                             129   -0.19 5  163 354 
 OCA  SZ ES   2    234 49.68                             129    0.33 5  163 354 
 OCA  SZ I         234 52.58         2.3 0.56                           163 354 
 ZAR  HZ EP   1    234 31.22                             122    0.09 6  204 293 
 ZAR  HZ I         235  2.91         2.3 0.36                           204 293 
                                                                                
