 2010  831 0512 46.4 L   6.777 -73.073148.4  RSN  4 0.2 1.2LRSN                1
 GAP=167        0.44       6.4    10.1 12.9  0.2636E+02 -0.8190E+02 -0.5565E+02E
 Epicentro: LOS SANTOS - SANTANDER                                             3
 ACTION:UP  10-09-07 10:59 OP:vdl  STATUS:               ID:20100831051246 L   I
 2010-08-31-0511-31S.COL___120                                                 6
 STAT SP IPHASW D HRMM SECON CODA AMPLIT PERI AZIMU VELO SNR AR TRES W  DIS CAZ7
 BRR  HZ EP   1    513  8.20                             151    -0.2 7   80 297 
 BRR  HZ I         513 15.54         4.3 0.26                            80 297 
 BRR  HN ES   2    513 25.61                             151     0.2 5   80 297 
 RUS  HZ EP   3    513 10.95                             146     0.7 2   98 181 
 RUS  HE ES   2    513 28.70                             146    -0.1 5   98 181 
 RUS  HZ I         513 30.25         1.7 0.37                            98 181 
 GUE  SZ EP   2    513 11.38                             140    -0.1 5  118   8 
 GRA  SZ EP   1    513 12.09                             138     0.1 7  126  14 
 GRA  SZ I         513 13.57         2.4 0.25                           126  14 
                                                                                
