 2010 1031 0333 57.2 L   6.776 -73.082143.1  RSN  4 0.2 1.4LRSN                1
 GAP=166        0.54       3.6     6.9  6.9  0.4009E+01 -0.1819E+02 -0.7762E+01E
 Epicentro: LOS SANTOS - SANTANDER                                             3
 ACTION:UP  11-02-18 11:13 OP:tino STATUS:               ID:20101031033357 L   I
 2010-10-31-0329-28S.COL___125                                                 6
 STAT SP IPHASW D HRMM SECON CODA AMPLIT PERI AZIMU VELO SNR AR TRES W  DIS CAZ7
 BAR2 SZ EP   1    334 16.28                             171    -0.2 7   23 209 
 BAR2 SZ ES   2    334 31.18                             171    -0.4 5   23 209 
 BAR2 SZ I         334 32.34         6.2 0.15                            23 209 
 BRR  HZ IP     C  334 18.32                             150    -0.210   79 298 
 BRR  HN ES   1    334 35.28                             150     0.2 7   79 298 
 BRR  HZ I         334 36.48         7.4 0.15                            79 298 
 RUS  HZ EP   1    334 20.35                             144    -0.1 7   98 180 
 RUS  HE ES   1    334 38.84                             144     0.2 7   98 180 
 RUS  HZ I         334 40.48         2.6 0.49                            98 180 
 GRA  SZ IP        334 22.44                             136     0.210  126  14 
 GRA  SZ ES   2    334 41.59                             136    -0.2 5  126  14 
 GRA  SZ I         334 42.99         2.6 0.30                           126  14 
                                                                                
