 2013  131 0433 11.3 L   6.760 -73.122144.0  RSN  6 0.4 1.4LRSN                1
 GAP=141        0.74       4.6     7.2  6.6  0.1173E+02 -0.8739E+01 -0.2065E+01E
 Epicentro: LOS SANTOS - SANTANDER                                             3
 ACTION:UPD 13-02-15 09:18 OP:ep   STATUS:               ID:20130131043311 L   I
 2013-01-31-0430-00M.COL___241                                                 6
 STAT SP IPHASW D HRMM SECON CODA AMPLIT PERI AZIMU VELO AIN AR TRES W  DIS CAZ7
 BAR2 SZ ES   2    433 45.23                             172   -0.48 5 19.7 200 
 BAR2 SZ I         433 46.84         6.6 0.28            149           19.7 200 
 BRR  HZ EP        433 32.50                             151    0.0210 75.6 301 
 BRR  HZ I         433 33.88         4.0 0.67            129           75.6 301 
 BRR  HN ES        433 49.32                             151    0.2910 75.6 301 
 PAM  SZ EP        433 33.35                             150   -0.0610 79.3  36 
 PAM  SZ I         433 33.67         3.7 0.22            151           79.3  36 
 RUS  HZ EP        433 34.61                             145    0.0910 96.0 177 
 RUS  HE ES        433 52.60                             145   -0.0510 96.0 177 
 RUS  HE I         433 54.43         3.9 0.21            129           96.0 177 
 PTB  HZ EP   1    433 37.47                             131   -0.78 7  150 261 
 PTB  HZ I         433 59.84         4.1 0.68            113            150 261 
 CHI  HZ EP   1    433 49.07                             117    0.59 6  245 196 
                                                                                
