 2011 1231 0840 16.5 L   6.697 -73.221153.8  RSN  4 0.3 1.0LRSN                1
 GAP=210        0.63      10.6     7.1 12.5  0.2689E+01 -0.2923E+02  0.7222E+02E
 Epicentro: VILLANUEVA - SANTANDER                                             3
 ACTION:UPD 12-07-13 16:19 OP:ep   STATUS:               ID:20111231084016 L   I
 2011-12-31-0840-00M.COL___185                                                 6
 STAT SP IPHASW D HRMM SECON CODA AMPLIT PERI AZIMU VELO AIN AR TRES W  DIS CAZ7
 BAR2 SZ EP   1    840 36.36                             175   -0.55 7 12.4 160 
 BRR  HZ EP   1    840 38.50                             154    0.03 7 70.7 310 
 BRR  HE ES   1    840 55.85                             154    0.22 7 70.7 310 
 BRR  HZ I         840 59.45         2.8 0.32                          70.7 310 
 RUS  HZ EP   1    840 40.69                             148    0.35 7 90.3 170 
 RUS  HZ I         841  0.49         1.0 0.42                          90.3 170 
 PTB  HZ EP   1    840 43.37                             136    0.13 7  138 263 
 PTB  HN ES   1    841  3.93                             136   -0.19 7  138 263 
                                                                                
