 2015  131 0606 44.5 L   5.898 -73.777111.1  RSN 11 0.4 1.5LRSN                1
 GAP= 88        0.96       2.7     2.7  5.7 -0.8506E+00  0.4456E+01 -0.1529E+01E
 Epicentro: JESUS MARIA - SANTANDER                                            3
 ACTION:UPD 15-03-02 15:44 OP:nd   STATUS:               ID:20150131060644 L   I
 OLDACT:UP  15-01-31 15:33 OP:cam  STATUS:               ID:20150131055813d    3
 OLDACT:DUP 15-01-31 15:30 OP:cam  STATUS:               ID:20150131055813d    3
 2015-01-31-0558-12M.COL___271                                                 6
 STAT SP IPHASW D HRMM SECON CODA AMPLIT PERI AZIMU VELO AIN AR TRES W  DIS CAZ7
 SPBC HZ EP     D  6 7  0.53                             158    0.0710 42.6 230 
 SPBC HN ES        6 7 12.81                             158   -0.1110 42.6 230 
 SPBC HZ I         6 7 14.82        14.0 0.10            157           42.6 230 
 RUS  HZ EP     D  6 7  3.30                             143    0.1910 76.8  90 
 RUS  HE ES        6 7 17.55                             143   -0.0910 76.8  90 
 RUS  HZ I         6 7 18.79         5.7 0.70            147           76.8  90 
 BAR2 EZ EP        6 7  4.91                             135    0.2010  101  41 
 BAR2 EZ ES        6 7 20.90                             135    0.4110  101  41 
 PTB  HZ EP        6 7  4.23                             134   -0.3810  103 313 
 PTB  HN ES        6 7 20.38                             134    0.0710  103 313 
 PTB  HZ I         6 7 22.58         6.6 0.10            135            103 313 
 NOR  HZ EP        6 7  6.62                             127   -0.1910  127 253 
 NOR  HN ES        6 7 24.81                             127    0.5910  127 253 
 NOR  HZ I         6 7 27.32         9.9 0.24            128            127 253 
 BRR  HZ EP        6 7  7.19                             126   -0.2710  134   3 
 BRR  HN ES   4    6 7 27.43                             126    2.05 0  134   3 
 BRR  HZ I         6 7 28.76         9.9 0.16            128            134   3 
 CHI  HZ EP        6 7  8.66                             125    0.01 9  140 178 
 CHI  HN ES        6 7 26.74                             125   -0.76 9  140 178 
 CHI  HZ I         6 7 33.34         2.6 0.40            127            140 178 
 GUY2CHZ EP        6 7 14.39                             116    0.29 9  191 247 
 GUY2CHN ES   4    6 7 38.38                             116    1.18 0  191 247 
 GUY2CHZ I         6 7 43.70         2.3 0.26                           191 247 
 HEL  HZ EP        6 7 14.97                             115    0.40 9  197 280 
 HEL  HN ES        6 7 37.29                             115   -0.76 9  197 280 
 HEL  HZ I         6 7 42.24         4.9 0.32            116            197 280 
 ZAR  HZ EP        6 7 15.90                             112   -0.04 8  213 326 
 ZAR  HN ES        6 7 40.19                             112   -0.29 8  213 326 
 ZAR  HZ I         6 7 46.90         4.3 0.24            114            213 326 
 TOL  SZ EP   4    6 7 18.72                             111    1.07 0  224 230 
 TOL  SE ES        6 7 44.19                             111    0.68 8  224 230 
 TOL  SZ I         6 7 47.75         2.3 0.14            113            224 230 
                                                                                
