 2013  331 0343 25.0 L   7.220 -73.089153.3  RSN 11 0.4 2.2LRSN                1
 GAP=107        0.80       2.9     4.3  5.5  0.1929E+00  0.6649E+01  0.1084E+01E
 Epicentro: RIONEGRO - SANTANDER                                               3
 ACTION:UPD 13-04-09 14:06 OP:ep   STATUS:               ID:20130331034325 L   I
 2013-03-31-0339-52M.COL___206                                                 6
 STAT SP IPHASW D HRMM SECON CODA AMPLIT PERI AZIMU VELO AIN AR TRES W  DIS CAZ7
 PAM  SZ EP   1    343 46.60                             163    0.11 7 45.0  73 
 PAM  SN ES   1    344  3.26                             163   -0.01 7 45.0  73 
 PAM  SZ I         344  5.97        24.4 0.32            168           45.0  73 
 BRR  HZ IP     D  343 47.20                             154    0.3110 69.9 260 
 BRR  HE ES   1    344  4.63                             154    0.66 7 69.9 260 
 BRR  HZ I         344  7.73        31.2 0.14            152           69.9 260 
 BAR2 SZ EP        343 47.22                             154   -0.0310 70.2 188 
 BAR2 SZ ES   1    344  4.65                             154    0.04 7 70.2 188 
 BAR2 SZ I         344  6.00        68.0 0.60            155           70.2 188 
 OCA  HZ EP   1    343 50.42                             141    0.32 7  116 347 
 OCA  HN ES   1    344  9.56                             141   -0.13 7  116 347 
 OCA  HZ I         344 11.69        33.6 0.18            142            116 347 
 RUS  HZ EP   1    343 53.15                             134    0.01 7  147 180 
 RUS  HN ES   1    344 14.55                             134   -0.56 7  147 180 
 RUS  HZ I         344 15.98         5.9 0.62            136            147 180 
 PTB  HZ IP     D  343 54.27                             130   -0.23 9  169 244 
 PTB  HN ES   1    344 17.13                             130   -0.39 7  169 244 
 PTB  HZ I         344 18.41        28.2 0.34            130            169 244 
 ZAR  HZ EP   1    343 57.62                             125    0.33 6  198 279 
 ZAR  HN ES   1    344 23.09                             125    0.61 6  198 279 
 ZAR  HZ I         344 23.92        12.9 0.24            125            198 279 
 SML  HZ IP     C  343 57.82                             124   -0.26 8  206 328 
 SML  HN ES   1    344 22.87                             124   -1.02 6  206 328 
 SML  HZ I         344 31.04        16.8 0.10            125            206 328 
 NOR  HZ EP   1    344  5.34                             116    0.49 6  269 227 
 NOR  HE ES   1    344 34.89                             116   -1.05 6  269 227 
 NOR  HZ I         344 42.39         9.2 0.28            117            269 227 
 HEL  HZ EP   1    344  8.12                             114    0.24 5  293 247 
 HEL  HN ES   2    344 41.61                             114    0.28 4  293 247 
 HEL  HZ I         344 49.52        11.8 0.30            115            293 247 
 CHI  HZ EP   1    344  8.41                             114    0.21 5  295 194 
 CHI  HN ES   1    344 42.01                             114    0.10 5  295 194 
 CHI  HZ I         344 47.38         6.5 0.84            116            295 194 
                                                                                
