 2017  731 0426 47.7 L   6.805 -73.156147.8  RSN  9 0.4 1.5LRSN                1
 GAP=135        0.98       3.6     4.0  6.2 -0.1026E+01  0.7116E+01  0.2419E+01E
 Epicentro: LOS SANTOS - SANTANDER                                             3
 ACTION:UPD 17-08-30 15:38 OP:rebc STATUS:               ID:20170731042647 L   I
 OLDACT:REG 17-07-31 12:57 OP:osc  STATUS:               ID:20170731041746     3
 2017-07-31-0418-00M.COL___377                                                 6
 STAT SP IPHASW D HRMM SECON CODA AMPLIT PERI AZIMU VELO AIN AR TRES W  DIS CAZ7
 BAR2 EZ EP        427  7.33                             170   -0.2410 23.7 187 
 BAR2 EZ ES        427 22.98                             170   -0.1010 23.7 187 
 BAR2 EZ I         427 23.97        10.8 0.14            171           23.7 187 
 BRR  HZ EP     C  427  9.10                             153    0.1110 70.0 299 
 BRR  HE ES        427 26.40                             153    0.7910 70.0 299 
 BRR  HZ I         427 30.14         5.7 0.42            151           70.0 299 
 PAM  EZ EP        427 10.28                             151    0.1410 77.7  40 
 PAM  EE ES        427 27.58                             151   -0.0710 77.7  40 
 PAM  EZ I         427 29.51         9.4 0.52            155           77.7  40 
 RUS  HZ EP        427 11.76                             144    0.0710  101 175 
 RUS  HN ES        427 30.14                             144   -0.2610  101 175 
 RUS  HZ I         427 31.07         1.9 0.30            148            101 175 
 PTB  HZ EP        427 14.43                             133   -0.31 9  147 259 
 PTB  HE ES        427 34.94                             133   -0.89 9  147 259 
 PTB  HZ I         427 40.78         1.2 0.20            133            147 259 
 SPBC HZ EP        427 16.53                             130    0.21 9  163 219 
 SPBC HE ES        427 39.16                             130    0.51 9  163 219 
 SPBC HZ I         427 43.10         5.3 0.24            131            163 219 
 ZAR  HZ EP        427 20.14                             123   -0.01 9  203 292 
 ZAR  HN ES        427 45.20                             123   -0.26 9  203 292 
 ZAR  HZ I         427 52.09         4.7 0.38            124            203 292 
 CHI  HN ES        427 54.92                             118   -0.12 8  249 195 
 GUY2CHZ EP   4    427 33.05                             113    1.72 0  301 235 
 GUY2CHE ES        428  5.92                             113    0.56 7  301 235 
 GUY2CHZ I         428 14.54         0.9 0.30                           301 235 
                                                                                
