 2011 1231 0502 42.6 L   6.702 -73.235153.6  RSN  5 0.3 1.4LRSN                1
 GAP=204        0.62       8.6     6.0  7.8  0.2854E+02  0.3615E+01  0.1142E+02E
 Epicentro: VILLANUEVA - SANTANDER                                             3
 ACTION:UPD 12-07-13 16:19 OP:ep   STATUS:               ID:20111231050242 L   I
 2011-12-31-0500-00M.COL___186                                                 6
 STAT SP IPHASW D HRMM SECON CODA AMPLIT PERI AZIMU VELO AIN AR TRES W  DIS CAZ7
 BAR2 SZ EP   1    5 3  2.63                             175   -0.44 7 13.4 155 
 BAR2 SZ ES   1    5 3 18.78                             175   -0.22 7 13.4 155 
 BAR2 SZ I         5 3 19.46         5.0 0.21                          13.4 155 
 BRR  HZ EP   1    5 3  4.57                             154    0.03 7 69.2 310 
 BRR  HZ I         5 3  4.82         4.9 0.14                          69.2 310 
 BRR  HE ES   1    5 3 22.03                             154    0.41 7 69.2 310 
 RUS  HZ EP   1    5 3  6.95                             148    0.41 7 91.1 169 
 PTB  HN ES   1    5 3 29.96                             136   -0.08 7  136 262 
 ZAR  HE ES   1    5 3 40.36                             125   -0.15 6  199 296 
                                                                                
