 2015  831 0721 59.9 L   6.764 -73.170147.2  RSN  5 0.6 1.6LRSN                1
 GAP=127        1.49       6.8     9.9 10.8  0.8018E+01 -0.2178E+02 -0.1209E+02E
 Epicentro: LOS SANTOS - SANTANDER                                             3
 ACTION:UPD 15-09-15 23:06 OP:cam  STATUS:               ID:20150831072159 L   I
 OLDACT:REG 15-08-31 14:00 OP:stll STATUS:               ID:20150831071748     3
 2015-08-31-0717-48M.COL___352                                                 6
 STAT SP IPHASW D HRMM SECON CODA AMPLIT PERI AZIMU VELO AIN AR TRES W  DIS CAZ7
 BAR2 EZ EP        722 19.36                             172   -0.3010 19.0 184 
 BAR2 EZ ES        722 34.51                             172   -0.5410 19.0 184 
 BAR2 EZ I         722 36.11         7.2 0.26            170           19.0 184 
 BRR  HZ EP        722 21.71                             153    0.4910 70.9 302 
 BRR  HZ I         722 21.96         5.6 0.18            150           70.9 302 
 BRR  HN ES        722 38.75                             153    0.9210 70.9 302 
 TAM  HZ EP        722 28.10                             131    0.22 9  157 103 
 TAM  HZ I         722 28.17         8.8 0.38            132            157 103 
 SPBC HZ EP        722 28.83                             130    0.74 9  158 219 
 SPBC HN ES        722 49.35                             130   -0.70 9  158 219 
 SPBC HZ I         722 56.27         3.2 0.14            128            158 219 
 SML  HZ EP        722 36.29                             117   -0.63 8  246 336 
 SML  HN ES        723  5.14                             117   -0.63 8  246 336 
 SML  HZ I         723 10.70         3.2 0.10            117            246 336 
                                                                                
