 2017  831 0120 35.5 L   6.642 -72.961156.6  RSN  4 0.4 1.4LRSN                1
 GAP=247        0.93       6.0     9.7  7.7  0.1321E+02  0.5246E+01  0.4511E+01E
 Epicentro: ARATOCA - SANTANDER                                                3
 ACTION:UPD 17-09-04 20:26 OP:rebc STATUS:               ID:20170831012035 L   I
 OLDACT:REG 17-08-31 12:03 OP:dhb  STATUS:               ID:20170831011740     3
 2017-08-31-0118-00M.COL___402                                                 6
 STAT SP IPHASW D HRMM SECON CODA AMPLIT PERI AZIMU VELO AIN AR TRES W  DIS CAZ7
 BAR2 EZ ES        121 12.47                             171   -0.3310 25.0 257 
 BAR2 EZ I         121 12.74         3.1 0.11            160           25.0 257 
 RUS  HZ EP        120 59.26                             151    0.0210 83.9 189 
 RUS  HE ES        121 18.04                             151    0.2610 83.9 189 
 RUS  HZ I         121 19.82         1.7 0.28            155           83.9 189 
 BRR  HZ EP        120 58.97                             146   -0.4410 97.6 302 
 BRR  HN ES        121 18.53                             146    0.4610 97.6 302 
 BRR  HN IS        121 19.20                                           97.6 302 
 BRR  HZ I         121 32.74         7.7 0.13            139           97.6 302 
 SPBC HZ EP        121  5.40                             131    0.44 9  165 228 
 SPBC HN ES        121 27.57                             131   -0.39 9  165 228 
 SPBC HZ I         121 29.86         3.9 0.08            131            165 228 
                                                                                
