 2011 1031 0135  9.4 L   6.797 -73.054138.8  RSN  4 0.3 1.5LRSN                1
 GAP=179        0.59       5.1     7.3  7.4  0.3787E+00 -0.5762E+01 -0.1020E+02E
 Epicentro: LOS SANTOS - SANTANDER                                             3
 ACTION:UPD 12-07-13 16:07 OP:ep   STATUS:               ID:20111031013509 L   I
 2011-10-31-0132-11S.COL___157                                                 6
 STAT SP IPHASW D HRMM SECON CODA AMPLIT PERI AZIMU VELO AIN AR TRES W  DIS CAZ7
 BAR2 SZ EP   1    135 28.35                             168    0.05 7 26.8 212 
 BAR2 SZ ES   1    135 42.62                             168   -0.40 7 26.8 212 
 BAR2 SZ I         135 45.36         6.0 0.29                          26.8 212 
 PAM  SZ EP   2    135 30.86                             151    0.30 5 71.6  33 
 PAM  SN ES   2    135 47.49                             151    0.45 5 71.6  33 
 BRR  HZ EP   1    135 30.29                             148   -0.10 7 80.3 295 
 BRR  HZ I         135 30.74         8.2 0.10                          80.3 295 
 BRR  HE ES   1    135 47.14                             148    0.39 7 80.3 295 
 OCA  SZ EP   2    135 37.53                             128    0.15 5  162 350 
 OCA  SZ ES   1    135 58.79                             128   -0.39 7  162 350 
 OCA  SZ I         136  0.08         3.8 0.33                           162 350 
                                                                                
