 2011 1031 0123 27.0 L   6.737 -73.103148.3  RSN  7 0.4 2.0LRSN                1
 GAP=175        0.61       4.7     5.9  5.6 -0.3528E+01  0.7141E+01 -0.1134E+01E
 Epicentro: JORDAN - SANTANDER                                                 3
 ACTION:UPD 12-07-13 16:07 OP:ep   STATUS:               ID:20111031012327 L   I
 2011-10-31-0121-33S.COL___157                                                 6
 STAT SP IPHASW D HRMM SECON CODA AMPLIT PERI AZIMU VELO AIN AR TRES W  DIS CAZ7
 BAR2 SZ EP        123 47.04                             173    0.1710 18.3 209 
 BAR2 SZ ES   1    124  1.88                             173   -0.46 7 18.3 209 
 BAR2 SZ I         124  3.76        16.7 0.27                          18.3 209 
 BRR  HZ EP   1    123 48.93                             150    0.05 7 78.8 301 
 BRR  HE ES   1    124  6.24                             150    0.31 7 78.8 301 
 BRR  HZ I         124  9.23        22.2 0.24                          78.8 301 
 PAM  SZ EP   1    123 49.88                             150    0.21 7 80.1  34 
 PAM  SN ES   1    124  7.28                             150   -0.05 7 80.1  34 
 OCA  SZ EP   1    123 56.00                             129   -0.24 7  168 352 
 OCA  SZ ES   1    124 19.19                             129    0.17 7  168 352 
 OCA  SZ I         124 28.19         5.7 0.21                           168 352 
 ZAR  HZ EP   1    123 59.70                             122   -0.66 6  211 293 
 ZAR  HZ I         124 32.11        12.6 0.29                           211 293 
 HEL  HZ EP   3    124  8.84                             115    1.14 2  275 257 
 HEL  HZ I         124 45.49         5.0 0.54                           275 257 
 PRA  HZ EP   2    124 20.80                             107    0.59 3  388 211 
                                                                                
