 2011  831 0345 17.2 L   6.921 -73.009132.0  RSN  4 0.3 1.6LRSN                1
 GAP=221        0.63       4.9     9.2  8.5  0.1440E+02 -0.4213E+02 -0.1686E+02E
 Epicentro: PIEDECUESTA - SANTANDER                                            3
 ACTION:UPD 12-07-13 15:54 OP:ep   STATUS:               ID:20110831034517 L   I
 2011-08-31-0341-05S.COL___165                                                 6
 STAT SP IPHASW D HRMM SECON CODA AMPLIT PERI AZIMU VELO AIN AR TRES W  DIS CAZ7
 GIR2 SZ EP   1    345 35.66                             168    0.50 7 26.8 311 
 BAR2 SZ EP        345 35.54                             162   -0.2210 41.0 208 
 BAR2 SZ ES   1    345 50.20                             162    0.00 7 41.0 208 
 BAR2 SZ I         345 51.44         6.7 0.27                          41.0 208 
 BRR  HZ EP        345 37.34                             147   -0.1710 80.3 285 
 BRR  HZ I         345 37.79        13.4 0.11                          80.3 285 
 BRR  HN ES        345 53.42                             147    0.1110 80.3 285 
 OCA  SZ EP   1    345 43.85                             128    0.35 7  150 347 
 OCA  SZ ES   1    346  3.63                             128   -0.35 7  150 347 
 OCA  SZ I         346  9.42         5.2 0.08                           150 347 
                                                                                
