 2010  831 0247 33.1 L   6.766 -73.124138.5  RSN  8 0.4 2.0LRSN                1
 GAP=161        0.78       3.8     7.9  6.8 -0.4488E+01 -0.5266E+01  0.1963E+01E
 Epicentro: LOS SANTOS - SANTANDER                                             3
 ACTION:UP  10-09-07 10:59 OP:vdl  STATUS:               ID:20100831024733 L   I
 2010-08-31-0246-28S.COL___120                                                 6
 STAT SP IPHASW D HRMM SECON CODA AMPLIT PERI AZIMU VELO SNR AR TRES W  DIS CAZ7
 BAR2 SZ IP        247 51.73                             171    -0.110   20 199 
 BAR2 SZ ES   1    248  6.11                             171    -0.3 7   20 199 
 BRR  HZ IP     C  247 53.53                             150    -0.210   75 300 
 BRR  HN ES   1    248 10.09                             150     0.3 7   75 300 
 BRR  HZ I         248 12.94        19.5 0.11                            75 300 
 RUS  HZ EP        247 55.80                             143    -0.110   97 177 
 RUS  HZ I         247 56.98        13.1 0.11                            97 177 
 RUS  HN ES   2    248 14.24                             143     0.6 5   97 177 
 GRA  SZ EP        247 58.54                             134     0.510  129  16 
 GRA  SZ ES   1    248 17.25                             134    -0.1 7  129  16 
 GRA  SZ I         248 19.03        11.6 0.36                           129  16 
 OCA  SZ EP   2    248  0.38                             127    -0.9 5  164 352 
 OCA  SZ ES   2    248 23.03                             127    -0.2 5  164 352 
 OCA  SZ I         248 26.68        15.7 0.05                           164 352 
 CHI  HZ EP   2    248 10.25                             116     0.1 4  246 196 
 CHI  HZ I         248 12.70         3.4 0.27                           246 196 
 CHI  HE ES   3    248 38.92                             116     0.0 2  246 196 
 HEL  HZ EP   2    248 13.88                             113     0.7 4  274 257 
 HEL  HZ I         248 50.01         7.9 0.59                           274 257 
 PRA  HZ EP   2    248 25.57                             105    -0.6 3  390 210 
 PRA  HE ES   3    249  7.94                             105     0.4 1  390 210 
 PRA  HZ I         249 14.55         6.6 0.28                           390 210 
                                                                                
