 2015 1031 0225 44.6 L   6.821 -73.092145.2  RSN  7 0.4 1.8LRSN                1
 GAP=164        0.65       3.8     5.6  5.8  0.2064E+01  0.5257E+01  0.2306E+01E
 Epicentro: LOS SANTOS - SANTANDER                                             3
 ACTION:UPD 15-12-22 20:44 OP:cam  STATUS:               ID:20151031022544 L   I
 OLDACT:REG 15-10-31 12:48 OP:ar   STATUS:               ID:20151031021748     3
 2015-10-31-0217-48M.COL___322                                                 6
 STAT SP IPHASW D HRMM SECON CODA AMPLIT PERI AZIMU VELO AIN AR TRES W  DIS CAZ7
 BAR2 EZ EP        226  4.06                             169   -0.1810 27.1 202 
 BAR2 EZ ES   2    226 19.23                             169   -0.33 5 27.1 202 
 BAR2 EZ I         226 20.94         8.0 0.22            166           27.1 202 
 PAM  EZ EP   2    226  6.81                             153    0.38 5 71.9  37 
 PAM  EN ES   2    226 23.72                             153    0.25 5 71.9  37 
 PAM  EZ I         226 25.69        14.3 0.50            158           71.9  37 
 BRR  HZ EP        226  5.89                             151   -0.0410 75.5 295 
 BRR  HE ES        226 22.82                             151    0.2510 75.5 295 
 BRR  HZ I         226 25.72         9.7 0.34            149           75.5 295 
 SPBC HZ EP   2    226 13.13                             128   -0.44 5  169 220 
 SPBC HN ES   2    226 35.94                             128   -0.24 5  169 220 
 SPBC HZ I         226 43.18         7.1 0.28            128            169 220 
 ZAR  HZ EP   2    226 18.25                             122    0.77 4  209 291 
 ZAR  HN ES   2    226 42.38                             122   -0.76 4  209 291 
 ZAR  HZ I         226 47.75         9.0 0.20            122            209 291 
 SML  HZ EP   2    226 20.25                             117   -0.99 4  244 334 
 SML  HE ES        226 49.73                             117   -0.09 8  244 334 
 SML  HZ I         226 54.35         8.9 0.10            119            244 334 
 URE  HN ES   4    226 56.76                             113   -1.81 0  288 291 
 GUY2CHZ EP        226 29.34                             112    0.47 7  307 235 
 GUY2CHN ES   4    227  6.84                             112    3.44 0  307 235 
 GUY2CHZ I         227 16.81         2.9 0.80                           307 235 
                                                                                
