 2013  131 0552 31.2 L   6.778 -73.141150.1  RSN  9 0.3 2.2LRSN                1
 GAP= 72        0.71       3.0     3.2  4.4 -0.4206E+00 -0.2496E+00  0.2943E+01E
 Epicentro: LOS SANTOS - SANTANDER                                             3
 ACTION:UPD 13-02-15 09:18 OP:ep   STATUS:               ID:20130131055231 L   I
 2013-01-31-0550-00M.COL___241                                                 6
 STAT SP IPHASW D HRMM SECON CODA AMPLIT PERI AZIMU VELO AIN AR TRES W  DIS CAZ7
 BAR2 SZ EP        552 51.30                             172   -0.0610 21.1 192 
 BAR2 SZ ES        553  6.92                             172   -0.1310 21.1 192 
 BAR2 SZ I         553  8.91        36.9 0.23            175           21.1 192 
 BRR  HZ EP        552 53.28                             153    0.3210 72.8 300 
 BRR  HE ES        553 10.44                             153    0.5510 72.8 300 
 BRR  HE I         553 11.38        58.8 0.35            141           72.8 300 
 PAM  SZ EP        552 54.16                             151    0.1410 78.9  38 
 PAM  SE ES        553 11.42                             151   -0.3610 78.9  38 
 PAM  SZ I         553 13.87        35.2 0.53            141           78.9  38 
 RUS  HZ EP        552 55.16                             145   -0.1010 98.2 176 
 RUS  HN ES   1    553 13.97                             145   -0.02 7 98.2 176 
 RUS  HN I         553 15.65        20.7 0.36            144           98.2 176 
 PTB  HZ EP        552 58.15                             133   -0.43 9  148 260 
 PTB  HE ES   1    553 19.63                             133   -0.26 7  148 260 
 PTB  HZ I         553 22.27        14.1 0.14            125            148 260 
 TAM  HZ EP        552 59.43                             132    0.25 9  154 104 
 OCA  HZ EP   1    552 59.80                             130   -0.33 7  163 353 
 OCA  HZ I         553 26.45        17.7 0.35            119            163 353 
 ZAR  HE ES   1    553 29.61                             123   -0.15 6  205 293 
 ZAR  HZ I         553 40.16        12.1 0.30            114            205 293 
 CHI  HZ EP        553  9.29                             118    0.33 8  246 195 
 CHI  HN ES        553 38.26                             118   -0.11 8  246 195 
 CHI  HZ I         553 43.31         4.2 0.35            113            246 195 
                                                                                
