 2013 1231 0008 25.6 L   6.764 -73.135137.0  RSN 10 0.6 1.8LRSN                1
 GAP= 96        1.40       5.5     5.5  7.7 -0.7791E+01  0.3465E+01  0.1196E+02E
 Epicentro: LOS SANTOS - SANTANDER                                             3
 ACTION:UPD 14-01-13 10:22 OP:ep   STATUS:               ID:20131231000825 L   I
 OLDACT:REG 13-12-31 08:57 OP:stll STATUS:               ID:20131231000546     3
 2013-12-31-0005-46M.COL___240                                                 6
 STAT SP IPHASW D HRMM SECON CODA AMPLIT PERI AZIMU VELO AIN AR TRES W  DIS CAZ7
 BAR2 SZ ES        0 8 58.25                             171   -0.2810 19.7 195 
 BAR2 SZ I         0 8 59.96        35.2 0.18            171           19.7 195 
 BRR  HZ EP        0 8 46.27                             150    0.2810 74.2 301 
 BRR  HN ES        0 9  2.48                             150    0.5910 74.2 301 
 BRR  HZ I         0 9  7.75         8.6 0.30            151           74.2 301 
 PAM  SZ IP     C  0 8 47.33                             148    0.2910 79.7  37 
 PAM  SZ I         0 8 47.49        18.1 0.22            152           79.7  37 
 PAM  SE ES        0 9  3.37                             148   -0.3910 79.7  37 
 RUS  HZ EP        0 8 48.24                             143    0.0410 96.6 177 
 RUS  HN ES        0 9  6.50                             143    0.6810 96.6 177 
 RUS  HZ I         0 9  8.27         9.6 0.40            145           96.6 177 
 PTB  HZ EP        0 8 51.05                             130   -0.86 9  148 260 
 PTB  HN ES        0 9 11.50                             130   -0.93 9  148 260 
 TAM  HZ EP        0 8 52.61                             129    0.22 9  153 104 
 SPBC HZ EP        0 8 53.18                             127   -0.04 9  161 220 
 SPBC HN ES        0 9 14.67                             127   -0.09 9  161 220 
 SPBC HZ I         0 9 17.64         8.6 0.20            129            161 220 
 NOR  HZ EP        0 9  0.68                             117   -0.01 8  233 235 
 CHI  HZ EP        0 9  2.05                             116   -0.39 8  245 196 
 CHI  HN ES        0 9 30.34                             116   -0.84 8  245 196 
 CHI  HZ I         0 9 34.92         2.5 0.56            118            245 196 
 GUY2CHZ EP        0 9  9.18                             111    0.51 7  300 236 
 GUY2CHN ES        0 9 43.79                             111    1.53 7  300 236 
                                                                                
