 2011  131 0953 51.5 L   6.829 -73.204135.9  RSN  8 0.5 1.9LRSN                1
 GAP=152        1.06       3.7     6.1  9.2 -0.7837E+01  0.2923E+02 -0.4511E+01E
 Epicentro: ZAPATOCA - SANTANDER                                               3
 ACTION:UP  11-02-08 08:44 OP:pat  STATUS:               ID:20110131095351 L   I
 2011-01-31-0951-54S.COL___135                                                 6
 STAT SP IPHASW D HRMM SECON CODA AMPLIT PERI AZIMU VELO SNR AR TRES W  DIS CAZ7
 BAR2 SZ EP        954  9.88                             168    -0.210   26 175 
 BAR2 SZ ES   1    954 24.45                             168     0.0 7   26 175 
 BAR2 SZ I         954 25.59        34.3 0.26                            26 175 
 RUS  HZ EP   1    954 14.42                             140    -0.2 7  104 173 
 RUS  HE ES   2    954 32.53                                    -0.1 5  104 173 
 RUS  HZ I         954 33.30         5.8 0.37                           104 173 
 GRA  SZ EP        954 15.95                             134     0.110  125  21 
 GRA  SZ ES        954 34.91                             134     0.110  125  21 
 GRA  SZ I         954 36.37        23.9 0.32                           125  21 
 OCA  SZ EP        954 18.95                             127     0.2 9  156 355 
 OCA  SZ ES   1    954 39.93                             127     0.0 7  156 355 
 OCA  SZ I         954 43.60        25.4 0.42                           156 355 
 NOR  SZ EP   1    954 26.38                             116     0.0 6  232 233 
 NOR  SN ES        954 53.61                             116     0.1 8  232 233 
 CHI  HZ EP   1    954 29.74                             114     0.9 6  250 194 
 CHI  HN ES   1    954 57.37                             114    -0.6 6  250 194 
 CHI  HZ I         955  3.62         2.1 0.83                           250 194 
 HEL  HZ EP        954 31.26                             112     0.6 8  267 255 
 HEL  HN ES   1    955  1.42                             112     0.2 6  267 255 
 HEL  HZ I         955  8.90         4.4 0.31                           267 255 
 MON  HZ IP     D  954 37.83                                    -1.5 6  346 309 
 MON  HN ES        955 16.62                                     0.0 6  346 309 
 MON  HZ I         955 20.38         2.3 1.01                           346 309 
                                                                                
