 2017  831 0906 48.3 L   6.713 -73.111138.0  RSN  4 0.4 1.2LRSN                1
 GAP=267        0.91       5.5     7.4  7.2  0.9555E+01  0.1580E+02  0.3048E+01E
 Epicentro: JORDAN - SANTANDER                                                 3
 ACTION:UPD 17-09-04 20:26 OP:rebc STATUS:               ID:20170831090648 L   I
 OLDACT:REG 17-08-31 12:59 OP:dhb  STATUS:               ID:20170831085728     3
 2017-08-31-0858-00M.COL___386                                                 6
 STAT SP IPHASW D HRMM SECON CODA AMPLIT PERI AZIMU VELO AIN AR TRES W  DIS CAZ7
 BAR2 EZ IP     C  9 7  6.63                             173   -0.2510 15.5 211 
 BAR2 EZ ES        9 7 21.56                             173    0.2110 15.5 211 
 BAR2 EZ I         9 7 23.74         1.7 0.28            168           15.5 211 
 BRR  HZ EP        9 7  8.67                             148   -0.4710 79.5 303 
 BRR  HN ES        9 7 25.60                             148    0.2210 79.5 303 
 BRR  HZ I         9 7 29.71         3.5 0.24            145           79.5 303 
 SPBC HZ EP        9 7 15.87                             128    0.10 9  158 222 
 SPBC HN ES        9 7 37.11                             128   -0.07 9  158 222 
 SPBC HZ I         9 7 39.73         1.4 0.21            129            158 222 
 ZAR  HZ EP        9 7 21.82                             120    0.78 8  211 294 
 ZAR  HE ES        9 7 46.18                             120   -0.39 8  211 294 
 ZAR  HZ I         9 7 54.03         3.2 0.33            120            211 294 
                                                                                
