 2013  331 0339 55.9 L   6.904 -73.166148.0  RSN 11 0.5 2.0LRSN                1
 GAP=128        0.94       3.4     4.7  6.8  0.1798E+01  0.8724E+01  0.3109E+01E
 Epicentro: BETULIA - SANTANDER                                                3
 ACTION:UPD 13-04-09 14:06 OP:ep   STATUS:               ID:20130331033955 L   I
 2013-03-31-0339-52M.COL___206                                                 6
 STAT SP IPHASW D HRMM SECON CODA AMPLIT PERI AZIMU VELO AIN AR TRES W  DIS CAZ7
 BAR2 SZ EP   1    340 16.01                             166   -0.08 7 34.5 183 
 BAR2 SZ ES   1    340 31.53                             166   -0.29 7 34.5 183 
 BAR2 SZ I         340 33.03        22.1 0.40            165           34.5 183 
 BRR  HZ IP     C  340 17.22                             155    0.2810 64.4 290 
 BRR  HN ES   1    340 34.45                             155    1.11 7 64.4 290 
 BRR  HZ I         340 36.67        11.2 0.12            151           64.4 290 
 PAM  SZ EP   1    340 18.10                             154    0.12 7 70.6  47 
 PAM  SN ES   1    340 35.39                             154    0.20 7 70.6  47 
 PAM  SZ I         340 36.21        19.7 0.24            157           70.6  47 
 RUS  HZ EP        340 20.42                             141   -0.3210  112 175 
 RUS  HN ES   1    340 40.05                             141   -0.06 7  112 175 
 PTB  HZ IP     C  340 22.41                             133   -0.70 9  148 254 
 PTB  HN ES   1    340 43.79                             133   -0.53 7  148 254 
 PTB  HZ I         340 45.33        12.0 0.54            131            148 254 
 OCA  HE ES   1    340 44.71                             133   -0.01 7  149 353 
 ZAR  HN ES        340 52.88                             124    0.07 9  198 289 
 ZAR  HZ I         340 58.38        12.6 0.38            123            198 289 
 SML  HZ EP   1    340 32.21                             119    0.76 6  232 335 
 SML  HE ES        340 58.41                             119   -0.76 8  232 335 
 SML  HZ I         341  6.56         6.2 0.10            119            232 335 
 NOR  HZ EP   1    340 32.43                             119    0.11 6  240 232 
 NOR  HN ES   2    341  1.05                             119    0.34 4  240 232 
 NOR  HZ I         341  5.48         7.2 0.18            118            240 232 
 CHI  HZ EP   1    340 34.87                             117   -0.01 6  259 194 
 CHI  HN ES   1    341  5.64                             117    0.37 6  259 194 
 CHI  HZ I         341 11.38         4.1 0.46            117            259 194 
 HEL  HZ EP   1    340 37.02                             115    0.68 6  273 253 
 HEL  HN ES   2    341  8.35                             115    0.48 4  273 253 
 HEL  HZ I         341 15.55         4.5 0.38            115            273 253 
                                                                                
