 2013 1031 0124 23.4 L   6.422 -73.574106.7  RSN  4 0.4 1.2LRSN                1
 GAP=187        0.77       6.2     4.6 10.4  0.1451E+02  0.1308E+02  0.2952E+01E
 Epicentro: SANTA HELENA DEL OPON - SANTANDER                                  3
 ACTION:UPD 13-11-25 09:24 OP:ep   STATUS:               ID:20131031012423 L   I
 OLDACT:REG 13-10-31 05:51 OP:jn   STATUS:               ID:20131031012000     3
 2013-10-31-0120-00M.COL___273                                                 6
 STAT SP IPHASW D HRMM SECON CODA AMPLIT PERI AZIMU VELO AIN AR TRES W  DIS CAZ7
 RUS  HZ EP        124 41.89                             141    0.0110 79.9 137 
 RUS  HN ES   1    124 56.45                             141    0.19 7 79.9 137 
 RUS  HZ I         124 57.36         2.2 0.18            148           79.9 137 
 PTB  HZ EP        124 42.39                             134   -0.3710 98.4 278 
 PTB  HN ES   1    124 57.45                             134   -0.38 7 98.4 278 
 PTB  HZ I         125  0.62         5.0 0.18            137           98.4 278 
 NOR  HZ EP        124 50.12                             117   -0.06 9  172 237 
 NOR  HE ES   1    125 11.50                             117    0.46 7  172 237 
 NOR  HZ I         125 11.67         2.0 0.18            122            172 237 
 ZAR  HN ES   1    125 14.15                             115    0.71 7  185 310 
 ZAR  HZ I         125 17.03         4.1 0.12            118            185 310 
                                                                                
