 2010  331 0147 23.9 L   6.872 -72.951140.5  RSN  5 0.4 1.8LRSN                1
 GAP=203        0.65       7.2    10.9  7.4  0.3856E+02  0.7020E+01  0.1074E+02E
 Epicentro: GUACA - SANTANDER                                                  3
 ACTION:UP  10-08-24 09:56 OP:vdl  STATUS:               ID:20100331014723 L   I
 2010-03-31-0145-57S.COL___098                                                 6
 STAT SP IPHASW D HRMM SECON CODA AMPLIT PERI AZIMU VELO SNR AR TRES W  DIS CAZ7
 BAR2 SZ IP        147 43.66                             165     0.310   40 220 
 BAR2 SZ ES   2    147 57.88                             165    -0.7 5   40 220 
 BRR  HZ EP        147 45.68                             146     0.110   88 287 
 BRR  HZ I         147 49.31        13.8 0.10                            88 287 
 BRR  HN ES   1    148  2.44                             146     0.0 7   88 287 
 RUS  HZ EP   2    147 47.88                             141     0.1 5  109 188 
 RUS  HN ES   2    148  6.18                             141    -0.3 5  109 188 
 RUS  HZ I         148  7.85         8.3 0.35                           109 188 
 OCA  SZ ES   3    148 11.79                             128    -1.2 2  157 345 
 RREF BZ EP        148 11.98                             108    -0.3 7  343 231 
                                                                                
