 2014  531 0314  1.1 L   6.803 -73.159140.3  RSN 14 0.4 1.9LRSN                1
 GAP= 70        1.00       2.6     2.7  4.9 -0.7157E+00  0.3517E+01  0.1505E+01E
 Epicentro: LOS SANTOS - SANTANDER                                             3
 ACTION:UPD 15-03-16 17:02 OP:nd   STATUS:               ID:20140531031401 L   I
 OLDACT:REG 14-05-31 13:37 OP:stll STATUS:               ID:20140531030812     3
 2014-05-31-0308-12M.COL___256                                                 6
 STAT SP IPHASW D HRMM SECON CODA AMPLIT PERI AZIMU VELO AIN AR TRES W  DIS CAZ7
 BAR2 SZ IP     D  314 20.32                             170    0.2510 23.4 186 
 BAR2 SZ ES        314 35.33                             170    0.4610 23.4 186 
 BAR2 SZ I         314 36.73        19.0 0.20            170           23.4 186 
 BRR  HZ IP     C  314 22.11                             152    0.5410 69.7 299 
 BRR  HZ I         314 22.36        15.9 0.28            150           69.7 299 
 BRR  HN ES        314 37.59                             152    0.0510 69.7 299 
 PAM  SZ EP        314 23.17                             150    0.4010 78.1  41 
 PAM  SN ES        314 39.78                             150    0.0910 78.1  41 
 PAM  SZ I         314 40.90        12.6 0.18            151           78.1  41 
 RUS  HZ EP        314 24.30                             143   -0.0410  101 175 
 RUS  HZ I         314 24.97         7.1 0.16            144            101 175 
 RUS  HE ES        314 42.22                             143   -0.2610  101 175 
 PTB  HZ EP        314 26.95                             131   -0.54 9  146 259 
 PTB  HN ES        314 47.52                             131   -0.56 9  146 259 
 PTB  HZ I         314 49.80         9.3 0.30            130            146 259 
 TAM  HZ EP        314 28.73                             129    0.24 9  157 105 
 TAM  HZ I         314 29.31        10.1 0.34            131            157 105 
 TAM  HN ES        314 49.38                             129   -0.47 9  157 105 
 OCA  HN ES        314 50.63                             128   -0.03 9  160 354 
 OCA  HZ I         314 53.52         8.2 0.22            128            160 354 
 SPBC HZ EP        314 29.24                             128    0.13 9  162 219 
 SPBC HZ I         314 29.63        13.5 0.12            128            162 219 
 SPBC HN ES        314 50.30                             128   -0.67 9  162 219 
 ZAR  HZ EP   2    314 33.23                             121    0.20 4  203 292 
 ZAR  HN ES        314 58.38                             121    0.43 9  203 292 
 ZAR  HZ I         315  4.32         8.2 0.28            121            203 292 
 NOR  HZ EP        314 36.12                             117   -0.28 8  234 234 
 NOR  HE ES        315  4.13                             117    0.19 8  234 234 
 NOR  HZ I         315  9.36         7.7 0.20            117            234 234 
 SML  HZ EP        314 36.49                             116   -0.83 8  243 336 
 SML  HN ES        315  4.79                             116   -0.79 8  243 336 
 SML  HZ I         315  7.97         7.7 0.26            116            243 336 
 HEL  HZ EP        314 41.56                             114    0.68 8  271 256 
 HEL  HE ES        315 12.43                             114    0.51 8  271 256 
 HEL  HZ I         315 20.96         3.7 0.24            114            271 256 
 GUY2CHZ EP        314 44.76                             111    0.42 7  300 235 
 GUY2CHN ES        315 18.00                             111   -0.07 7  300 235 
 GUY2CHZ I         315 29.16         4.4 0.46                           300 235 
 PRA  HZ EP        314 54.40                             106    0.03 6  392 209 
 PRA  HN ES        315 35.94                             106    0.00 6  392 209 
 PRA  HZ I         315 40.85         3.6 0.32            106            392 209 
                                                                                
