 2016  531 0859  6.5 L   6.803 -73.154147.6  RSN  7 0.3 1.9LRSN                1
 GAP=135        0.72       2.6     3.6  4.5 -0.2424E+01  0.2111E+01 -0.3842E+00E
 Epicentro: LOS SANTOS - SANTANDER                                             3
 ACTION:UPD 16-08-18 17:51 OP:cam  STATUS:               ID:20160531085906 L   I
 OLDACT:REG 16-05-31 15:20 OP:edw  STATUS:               ID:20160531084744     3
 2016-05-31-0847-44M.COL___310                                                 6
 STAT SP IPHASW D HRMM SECON CODA AMPLIT PERI AZIMU VELO AIN AR TRES W  DIS CAZ7
 BAR2 EZ IP        859 26.28                             171   -0.0710 23.6 188 
 BAR2 EZ ES        859 42.13                             171    0.2910 23.6 188 
 BAR2 EZ I         859 43.05         6.8 0.26            170           23.6 188 
 BRR  HZ EP        859 28.09                             153    0.3010 70.2 299 
 BRR  HN ES        859 44.67                             153    0.2710 70.2 299 
 BRR  HZ I         859 49.61        11.4 0.12            150           70.2 299 
 PAM  EZ EP        859 29.22                             151    0.2910 77.7  40 
 PAM  EN ES        859 46.27                             151   -0.1510 77.7  40 
 PAM  EZ I         859 48.60        19.1 0.66            155           77.7  40 
 RUS  HZ EP        859 30.29                             144   -0.1710  101 176 
 RUS  HN ES        859 48.79                             144   -0.3710  101 176 
 RUS  HZ I         859 49.51         8.2 0.30            148            101 176 
 PTB  HZ EP        859 33.22                             133   -0.31 9  147 259 
 PTB  HN ES        859 54.29                             133   -0.34 9  147 259 
 PTB  HZ I         9 0  0.93         8.5 0.34            132            147 259 
 OCA  HZ EP        859 35.00                             130    0.10 9  160 353 
 OCA  HN ES        859 56.69                             130   -0.37 9  160 353 
 OCA  HZ I         9 0  1.92        22.6 0.38            131            160 353 
 SPBC HZ EP        859 35.38                             129    0.27 9  163 219 
 SPBC HE ES        859 57.63                             129    0.21 9  163 219 
 SPBC HZ I         9 0  3.13        19.2 0.42            131            163 219 
                                                                                
