 2011  731 0415 37.3 L   6.767 -73.103147.6  RSN 11 0.3 2.0LRSN                1
 GAP=144        0.45       2.0     3.1  3.3 -0.1659E+01  0.2365E+01  0.7546E+00E
 Epicentro: LOS SANTOS - SANTANDER                                             3
 ACTION:UPD 12-07-25 14:04 OP:epov STATUS:               ID:20110731041537 L   I
 2011-07-31-0414-21S.COL___141                                                 6
 STAT SP IPHASW D HRMM SECON CODA AMPLIT PERI AZIMU VELO AIN AR TRES W  DIS CAZ7
 BAR2 SZ IP        415 57.05                             171   -0.0910 21.2 204 
 BAR2 SZ ES   1    416 12.25                             171   -0.34 7 21.2 204 
 BAR2 SZ I         416 13.58        33.4 0.17                          21.2 204 
 BRR  HZ IP     D  415 58.92                             151   -0.1010 77.1 299 
 BRR  HN ES   1    416 16.01                             151    0.08 7 77.1 299 
 BRR  HZ I         416 18.75        15.7 0.40                          77.1 299 
 PAM  SZ EP   1    415 59.88                             151    0.13 7 77.4  35 
 PAM  SN ES   2    416 16.96                             151   -0.27 5 77.4  35 
 RUS  HZ EP        416  0.95                             145   -0.0410 96.7 179 
 RUS  HN ES   1    416 19.85                             145    0.41 7 96.7 179 
 RUS  HZ I         416 21.41        11.4 0.47                          96.7 179 
 BRI  SZ EP   1    416  1.62                             141    0.08 7  110  18 
 BRI  SZ ES   2    416 20.53                             141    0.10 5  110  18 
 OCA  SZ EP   1    416  6.09                             129   -0.10 7  165 352 
 OCA  SZ ES   2    416 29.19                             129    0.50 5  165 352 
 OCA  SZ I         416 32.31        11.3 0.22                           165 352 
 NOR  SZ EP   1    416 12.86                             119   -0.50 6  236 236 
 NOR  SN ES   2    416 41.36                             119   -0.09 4  236 236 
 CHI  HZ EP   1    416 14.84                             118   -0.05 6  246 196 
 CHI  HE ES   2    416 44.60                             118    0.42 4  246 196 
 CHI  HZ I         416 52.64         4.6 0.40                           246 196 
 HEL  HZ EP   1    416 18.65                             115    0.60 6  276 257 
 HEL  HN ES   2    416 49.93                             115    0.13 4  276 257 
 GUY  SZ EP   2    416 21.36                             112   -0.13 4  305 236 
 GUY  SN ES   2    416 55.79                             112   -0.15 4  305 236 
 GUY  SZ I         417  4.40        10.4 0.51                           305 236 
 PRA  HZ EP   1    416 30.82                             107    0.00 4  391 210 
 PRA  HN ES   2    417 12.44                             107   -0.10 3  391 210 
                                                                                
