 2013  131 0404 13.6 L   6.743 -73.118148.9  RSN  5 0.2 1.2LRSN                1
 GAP=236        0.48       4.4     6.8  5.3  0.1991E+02 -0.9088E+01 -0.2388E+01E
 Epicentro: JORDAN - SANTANDER                                                 3
 ACTION:UPD 13-02-15 09:18 OP:ep   STATUS:               ID:20130131040413 L   I
 2013-01-31-0400-00M.COL___241                                                 6
 STAT SP IPHASW D HRMM SECON CODA AMPLIT PERI AZIMU VELO AIN AR TRES W  DIS CAZ7
 BAR2 SZ EP        4 4 33.41                             173   -0.1010 18.1 203 
 BRR  HZ EP        4 4 35.28                             151   -0.1410 77.0 302 
 BRR  HN ES        4 4 52.63                             151    0.1910 77.0 302 
 BRR  HN I         4 4 52.96         7.0 0.38            150           77.0 302 
 RUS  HZ EP   1    4 4 37.26                             146    0.06 7 94.1 178 
 RUS  HN ES        4 4 55.57                             146   -0.0510 94.1 178 
 RUS  HN I         4 4 57.58         2.6 0.51            143           94.1 178 
 PTB  HE ES   2    4 5  1.97                             132   -0.40 5  150 261 
 PTB  HZ I         4 5  3.53         1.9 0.32            130            150 261 
 CHI  HZ EP   1    4 4 51.33                             118    0.43 6  243 196 
 CHI  HZ I         4 4 53.84         0.6 0.34            117            243 196 
                                                                                
