 2016  131 0411  8.7 L   6.858 -73.137147.1  RSN 27 0.5 2.5LRSN                1
 GAP= 72        1.10       2.3     2.8  4.7 -0.2085E+01  0.2789E+01 -0.8626E+00E
 Epicentro: LOS SANTOS - SANTANDER                                             3
 ACTION:UPD 16-03-09 23:29 OP:cam  STATUS:               ID:20160131041108 L   I
 OLDACT:REG 16-01-31 14:16 OP:ak   STATUS:               ID:20160131040000     3
 2016-01-31-0359-59S.COL___226                                                 6
 STAT SP IPHASW D HRMM SECON CODA AMPLIT PERI AZIMU VELO AIN AR TRES W  DIS CAZ7
 BAR2 EZ EP        411 28.79                             168    0.1810 29.8 190 
 BAR2 EZ ES        411 44.02                             168   -0.1410 29.8 190 
 BAR2 EZ I         411 45.17        63.5 0.56            167           29.8 190 
 PAM  EZ EP        411 31.57                             153    0.8610 71.9  42 
 PAM  EN ES        411 48.56                             153    0.6510 71.9  42 
 PAM  EZ I         411 50.21        44.1 0.18            154           71.9  42 
 RUS  HZ EP        411 33.01                             142   -0.0110  107 177 
 RUS  HN ES        411 51.89                             142   -0.1210  107 177 
 RUS  HZ I         411 53.37        34.6 0.32            142            107 177 
 PTB  HZ EP        411 35.38                             132   -0.58 9  150 257 
 PTB  HN ES        411 56.65                             132   -0.59 9  150 257 
 PTB  HZ I         411 59.33        32.0 0.09            128            150 257 
 OCA  HZ EP        411 36.64                             131    0.13 9  154 352 
 OCA  HN ES        411 58.30                             131    0.08 9  154 352 
 OCA  HZ I         412  3.52        76.6 0.22            128            154 352 
 SPBC HZ EP        411 37.90                             128    0.09 9  169 218 
 SPBC HN ES        412  0.25                             128   -0.28 9  169 218 
 SPBC HZ I         412  6.12        41.5 0.24            126            169 218 
 ZAR  HZ EP        411 41.50                             123    0.44 9  203 290 
 ZAR  HN ES        412  6.86                             123    0.54 9  203 290 
 ZAR  HZ I         412 12.44        37.1 0.17            119            203 290 
 SML  HZ EP        411 44.70                             118   -0.09 8  238 334 
 SML  HN ES        412 13.26                             118    0.29 8  238 334 
 SML  HZ I         412 19.32        41.2 0.07            116            238 334 
 NOR  HZ EP        411 45.38                             118    0.41 8  239 233 
 NOR  HN ES        412 12.86                             118   -0.42 8  239 233 
 NOR  HZ I         412 19.66        28.1 0.54            116            239 233 
 CHI  HZ EP        411 47.14                             117   -0.00 8  255 195 
 CHI  HN ES        412 16.57                             117   -0.58 8  255 195 
 CHI  HZ I         412 23.96         9.4 0.46            115            255 195 
 ROSC BZ EP   2    411 48.47                             116    0.95 4  259 210 
 ROSC BN ES   4    412 19.53                             116    1.71 0  259 210 
 ROSC BZ I         412 24.29        28.3 0.35            114            259 210 
 HEL  HZ EP   4    411 50.90                             115    1.66 0  275 255 
 HEL  HN ES        412 20.51                             115   -0.37 8  275 255 
 HEL  HZ I         412 26.30        13.3 0.34            112            275 255 
 URE  HZ EP        411 49.40                             114   -0.25 7  282 291 
 URE  HN ES   4    412 19.39                             114   -2.22 0  282 291 
 URE  HZ IPn       412 27.46                                            282 291 
 URE  HZ I         412 32.72        32.0 0.18            111            282 291 
 SOCV BZ EP        411 50.54                             113   -0.76 7  297  58 
 SOCV BN ES   4    412 21.90                             113   -2.65 0  297  58 
 GUY2CHZ EP        411 54.07                             112    1.22 7  306 234 
 GUY2CHN ES        412 27.90                             112    0.59 7  306 234 
 GUY2CHZ I         412 35.17        15.3 0.42                           306 234 
 PTGC HZ EP   9    411 51.83                             111   -1.40 0  314 159 
 PTGC HN ES        412 26.08                                   -0.50 7  314 159 
 LL6C HZ EP        411 53.26                             111   -0.44 7  319 357 
 LL6C HE ES        412 27.85                             111   -0.98 7  319 357 
 ELA  HZ EP   4    411 57.99                             110    1.85 0  334 229 
 ELA  HN ES        412 32.66                             110   -0.51 7  334 229 
 ELA  HZ I         412 43.36        12.0 0.48            108            334 229 
 CBOC HZ EP        411 56.88                             110    0.90 7  337 251 
 CBOC HN ES        412 33.21                             110    0.33 7  337 251 
 CBOC HZ I         412 38.73         4.8 0.26            108            337 251 
 DBB  EZ E         4 7 15.62                                            340 273 
 DBB  EZ EP        411 55.29                             110   -0.98 7  340 273 
 DBB  EZ ES        412 32.66                             110   -0.73 7  340 273 
 DBB  EZ I         412 36.77        11.5 0.44            108            340 273 
 MON  HZ EP   2    411 56.23                             109   -1.13 3  351 307 
 MON  HN ES        412 34.96                             109   -0.37 6  351 307 
 MON  HZ I         412 49.57         6.0 0.26            107            351 307 
 SDV  BZ EP        411 58.18                             109   -0.02 6  356  51 
 SDV  B1 ES        412 36.25                             109   -0.59 6  356  51 
 SDV  BZ I         412 37.36         5.5 0.45            108            356  51 
 ANIL HZ EP        412  0.13                             108    0.99 6  363 224 
 ANIL HN ES   4    412 41.36                             108    2.86 0  363 224 
 ANIL HZ I         412 47.24        30.0 0.28            107            363 224 
 PRA  HZ EP        412  3.33                             106    0.38 6  398 209 
 PRA  HN ES        412 44.39                             106   -0.89 6  398 209 
 PRA  HZ I         412 53.82        10.8 0.28            105            398 209 
 ORTC HZ EP   1    412  3.94                             106    0.63 4  401 216 
 ORTC HN ES        412 46.32                             106    0.39 6  401 216 
 ORTC HZ I         412 52.30         7.1 0.38            105            401 216 
 ELOV BZ EP        412  3.16                             106   -0.43 6  404  88 
 ELOV BE ES   4    412 43.90                             106   -2.52 0  404  88 
 PAL  HZ EP        412  4.60                             106    0.24 6  410 238 
 PAL  HN ES        412 47.69                             106   -0.11 6  410 238 
 PAL  HZ I         412 52.79         4.8 0.22            104            410 238 
                                                                                
