 2016 1031 0523 48.9 L   6.737 -73.226155.8  RSN  4 0.3 1.1LRSN                1
 GAP=223        0.83       5.2     6.7  8.5  0.8507E+01  0.3581E+01 -0.2306E+01E
 Epicentro: VILLANUEVA - SANTANDER                                             3
 ACTION:UPD 16-11-09 19:24 OP:rebc STATUS:               ID:20161031052348 L   I
 OLDACT:ARG 16-10-31 12:39 OP:dani STATUS:               ID:20161031051800     3
 2016-10-31-0518-00M.COL___316                                                 6
 STAT SP IPHASW D HRMM SECON CODA AMPLIT PERI AZIMU VELO AIN AR TRES W  DIS CAZ7
 BRR  HZ EP        524 10.93                             155    0.0110 67.5 307 
 BRR  HE ES        524 28.44                             155    0.3210 67.5 307 
 BRR  HZ I         524 30.78         2.3 0.32            152           67.5 307 
 RUS  HZ EP   2    524 13.25                             147    0.02 5 94.7 170 
 RUS  HN ES        524 31.92                             147   -0.3110 94.7 170 
 RUS  HZ I         524 33.22         0.9 0.42            148           94.7 170 
 PTB  HZ EP        524 15.73                             136   -0.09 9  138 261 
 PTB  HN ES        524 36.31                             136   -0.54 9  138 261 
 PTB  HZ I         524 44.20         1.6 0.32            134            138 261 
 SPBC HZ EP   2    524 17.41                             133    0.24 5  152 218 
 SPBC HN ES        524 39.82                             133    0.57 9  152 218 
 SPBC HZ I         524 43.27         2.2 0.18            132            152 218 
                                                                                
