 2012 1231 0050 43.8 L   6.795 -73.159148.8  RSN  7 0.3 1.5LRSN                1
 GAP=181        0.67       3.5     5.2  7.0  0.5281E+01  0.5902E+01  0.2377E+01E
 Epicentro: LOS SANTOS - SANTANDER                                             3
 ACTION:UPD 13-01-04 14:31 OP:ep   STATUS:               ID:20121231005043 L   I
 2012-12-31-0050-00M.COL___239                                                 6
 STAT SP IPHASW D HRMM SECON CODA AMPLIT PERI AZIMU VELO AIN AR TRES W  DIS CAZ7
 BAR2 SZ EP   1    051  3.70                             171   -0.06 7 22.5 187 
 BAR2 SZ ES   1    051 19.52                             171    0.17 7 22.5 187 
 BAR2 SZ I         051 20.06        11.9 0.42                          22.5 187 
 BRR  HZ EP   1    051  5.45                             153    0.24 7 70.2 300 
 BRR  HN ES   1    051 22.44                             153    0.52 7 70.2 300 
 BRR  HZ I         051 24.89         3.7 0.24                          70.2 300 
 RUS  HZ EP   1    051  7.87                             145    0.07 7  100 175 
 RUS  HN ES   1    051 26.11                             145   -0.42 7  100 175 
 RUS  HZ I         051 27.67         4.6 0.26                           100 175 
 PTB  HZ EP   1    051 10.81                             133   -0.05 7  146 259 
 PTB  HN ES   1    051 31.35                             133   -0.63 7  146 259 
 PTB  HZ I         051 33.79         2.7 0.66                           146 259 
 OCA  HN ES   1    051 34.30                             130   -0.37 7  161 354 
 ZAR  HE ES   1    051 41.84                             123    0.16 6  203 292 
 CHI  HN ES   1    051 51.42                             118    0.42 6  248 195 
                                                                                
