 2011  731 0636  6.8 L   6.762 -73.126149.2  RSN  5 0.3 1.2LRSN                1
 GAP=158        0.45       3.7     7.6  5.6  0.3590E+00 -0.8240E+01 -0.3322E+01E
 Epicentro: LOS SANTOS - SANTANDER                                             3
 ACTION:UPD 12-07-25 14:04 OP:epov STATUS:               ID:20110731063606 L   I
 2011-07-31-0620-00M.COL___141                                                 6
 STAT SP IPHASW D HRMM SECON CODA AMPLIT PERI AZIMU VELO AIN AR TRES W  DIS CAZ7
 BAR2 SZ EP   1    636 26.65                             172   -0.10 7 19.8 198 
 BAR2 SZ I         636 26.70         3.7 0.20                          19.8 198 
 BAR2 SZ ES   1    636 42.28                             172   -0.05 7 19.8 198 
 BRR  HZ EP   1    636 28.59                             152    0.08 7 75.1 301 
 BRR  HZ I         636 28.83         4.7 0.30                          75.1 301 
 BRR  HN ES   2    636 45.44                             152   -0.03 5 75.1 301 
 RUS  HZ EP   1    636 30.43                             146   -0.13 7 96.3 177 
 RUS  HN ES   2    636 49.46                             146    0.34 5 96.3 177 
 RUS  HZ I         636 52.46         1.3 0.66                          96.3 177 
 BRI  SZ EP   2    636 30.81                             141   -0.42 5  112  19 
 GRA  SZ EP   2    636 33.27                             137    0.67 5  129  16 
 GRA  SZ ES   2    636 52.69                             137   -0.06 5  129  16 
 GRA  SZ I         636 54.17         2.8 0.47                           129  16 
                                                                                
