 2017  131 0631 27.5 L   6.667 -73.185139.4  RSN  5 0.3 1.2LRSN                1
 GAP=223        0.77       5.7     5.4  6.4  0.1681E+02  0.9473E+01 -0.1830E+01E
 Epicentro: VILLANUEVA - SANTANDER                                             3
 ACTION:UPD 17-05-22 16:05 OP:jn   STATUS:               ID:20170131063127 L   I
 OLDACT:UP  17-01-31 16:11 OP:dnl  STATUS:               ID:20170131062746     3
 OLDACT:REG 17-01-31 14:15 OP:dnl  STATUS:               ID:20170131062746     3
 2017-01-31-0628-00M.COL___337                                                 6
 STAT SP IPHASW D HRMM SECON CODA AMPLIT PERI AZIMU VELO AIN AR TRES W  DIS CAZ7
 BAR2 EZ EP        631 46.43                             177    0.2510 8.30 178 
 BAR2 EZ ES        632  0.38                             177   -0.3510 8.30 178 
 BAR2 EZ I         632  2.00         4.9 0.36            174           8.30 178 
 BRR  HZ EP     C  631 48.26                             150   -0.0210 75.9 310 
 BRR  HN ES        632  4.88                             150    0.4210 75.9 310 
 BRR  HZ I         632  9.03         4.6 0.30            150           75.9 310 
 RUS  HZ EP   2    631 50.15                             147    0.49 5 86.4 172 
 RUS  HN ES        632  6.70                             147   -0.2210 86.4 172 
 RUS  HZ I         632 11.11         0.9 0.34            149           86.4 172 
 PTB  HZ EP        631 53.44                             132    0.04 9  141 264 
 PTB  HE ES        632 13.81                             132    0.24 9  141 264 
 PTB  HZ I         632 16.72         2.1 0.22            132            141 264 
 ZAR  HZ EP   2    631 58.95                             121   -0.84 4  206 296 
 ZAR  HN ES        632 24.51                             121   -0.44 8  206 296 
 ZAR  HZ I         632 30.34         2.5 0.30            122            206 296 
                                                                                
