 2016 1231 0924 25.0 L   6.809 -73.127141.2  RSN 15 0.4 2.0LRSN                1
 GAP= 72        1.22       4.7     3.7  6.3  0.1376E+01  0.3917E+01  0.6761E+01E
 Epicentro: LOS SANTOS - SANTANDER                                             3
 ACTION:UPD 17-01-11 20:20 OP:rebc STATUS:               ID:20161231092425 L   I
 OLDACT:UP  16-12-31 15:27 OP:edw  STATUS:               ID:20161231091741     3
 OLDACT:REG 16-12-31 12:41 OP:dnl  STATUS:               ID:20161231091741     3
 2016-12-31-0918-00M.COL___356                                                 6
 STAT SP IPHASW D HRMM SECON CODA AMPLIT PERI AZIMU VELO AIN AR TRES W  DIS CAZ7
 BAR2 EZ EP     C  924 43.78                             170   -0.3110 24.8 194 
 BAR2 EZ ES        924 59.01                             170    0.0110 24.8 194 
 BAR2 EZ I         924 59.50        23.3 0.20            168           24.8 194 
 BRR  HZ EP        924 45.54                             151   -0.1810 72.6 297 
 BRR  HN ES        925  2.56                             151    0.6710 72.6 297 
 BRR  HZ I         925  7.55        19.2 0.24            150           72.6 297 
 PAM  EZ IP     C  924 46.76                             151    0.1810 75.3  39 
 PAM  EN ES        925  3.46                             151    0.0210 75.3  39 
 PAM  EZ I         925  5.62        14.9 0.56            154           75.3  39 
 RUS  HZ EP        924 47.89                             143   -0.4610  102 177 
 RUS  HE ES        925  6.21                             143   -0.3710  102 177 
 RUS  HZ I         925  7.11        20.5 0.19            143            102 177 
 PTB  HZ EP   9    924 50.77                             130   -1.02 0  150 259 
 PTB  HN ES        925 10.26                             131   -1.42 9  150 259 
 PTB  HZ I         925 14.62        14.0 0.22            130            150 259 
 TAM  HZ IP     C  924 52.11                             130   -0.03 9  153 106 
 TAM  HN ES        925 13.28                             130   -0.04 9  153 106 
 ZAR  HZ EP     C  924 56.89                             121   -0.40 8  206 292 
 ZAR  HN ES        925 22.72                             121    0.22 8  206 292 
 ZAR  HZ I         925 28.79        13.5 0.29            121            206 292 
 CHI  HZ EP        925  2.79                             116    0.19 8  250 196 
 CHI  HN ES   4    925 30.76                             116   -1.18 0  250 196 
 CHI  HZ I         925 34.52         4.1 0.28            116            250 196 
 ROSC BZ EP   2    925  4.44                             115    1.37 4  255 211 
 ROSC BN ES        925 33.13                             115    0.35 8  255 211 
 ROSC BZ I         925 40.64         8.5 0.35            116            255 211 
 URE  HZ EP   9    925  4.20                             112   -1.81 0  285 292 
 URE  HN ES        925 36.16                             113   -0.04 7  285 292 
 URE  HZ I         925 37.14        11.4 0.12            113            285 292 
 GUY2CHZ EP   4    925  9.61                             111    0.97 0  303 235 
 GUY2CHN ES   4    925 46.83                             111    4.13 0  303 235 
 GUY2CHZ I         925 48.18         4.6 0.28                           303 235 
 PTGC HZ EP   4 C  925  7.04                             111   -1.62 0  309 159 
 PTGC HN ES   4    925 40.22                             111   -2.51 0  309 159 
 PTGC HZ I         925 42.59         4.6 0.34            111            309 159 
 CBOC HZ EP        925 12.31                             109    0.34 7  336 252 
 CBOC HN ES        925 48.33                             109   -0.30 7  336 252 
 CBOC HZ I         925 52.37         2.1 0.09            109            336 252 
 ORTC HZ EP        925 19.24                             105    0.25 6  398 216 
 ORTC HN ES   4    926  2.99                             105    1.87 0  398 216 
 ORTC HZ I         926  6.89         3.5 0.40            106            398 216 
 SJC  HZ EP   9    925 18.18                             105   -2.25 0  409 327 
 SJC  HN ES        925 59.80                             106   -1.63 6  409 327 
 SJC  HZ I         926  4.09         3.9 0.29            105            409 327 
                                                                                
