 2017  331 1132 29.2 L   6.779 -73.125144.0  RSN 10 0.4 2.2LRSN                1
 GAP=140        0.90       3.4     3.7  5.3 -0.1572E+01  0.6064E+01  0.2052E+01E
 Epicentro: LOS SANTOS - SANTANDER                                             3
 ACTION:UPD 17-05-25 18:47 OP:jn   STATUS:               ID:20170331113229 L   I
 OLDACT:REG 17-03-31 21:10 OP:dnl  STATUS:               ID:20170331112743     3
 2017-03-31-1128-00M.COL___344                                                 6
 STAT SP IPHASW D HRMM SECON CODA AMPLIT PERI AZIMU VELO AIN AR TRES W  DIS CAZ7
 BAR2 EZ IP     C 1132 48.62                             171    0.0110 21.6 197 
 BAR2 EZ ES       1133  3.46                             171   -0.2710 21.6 197 
 BAR2 EZ I        1133  5.75        18.8 0.24            168           21.6 197 
 BRR  HZ IP     C 1132 50.47                             151    0.1010 74.3 299 
 BRR  HE ES       1133  7.23                             151    0.3710 74.3 299 
 BRR  HZ I        1133 11.41        25.3 0.12            149           74.3 299 
 PAM  EZ EP       1132 51.54                             150    0.2610 77.8  37 
 PAM  EN ES       1133  8.20                             150   -0.2810 77.8  37 
 PAM  EZ I        1133  8.91        29.8 0.30            156           77.8  37 
 RUS  HZ EP       1132 52.64                             144    0.0210 98.1 177 
 RUS  HE ES       1133 11.11                             144    0.2410 98.1 177 
 RUS  HZ I        1133 12.28        12.8 0.36            145           98.1 177 
 PTB  HZ EP       1132 55.54                             131   -0.68 9  150 260 
 PTB  HE ES       1133 16.57                             131   -0.70 9  150 260 
 PTB  HZ I        1133 21.58        20.4 0.30            131            150 260 
 SPBC HZ EP       1132 57.70                             129    0.15 9  163 220 
 SPBC HE ES       1133 19.70                             129    0.05 9  163 220 
 SPBC HZ I        1133 25.03        28.8 0.26            129            163 220 
 ZAR  HZ EP       1133  1.91                             121    0.04 8  207 293 
 ZAR  HE ES       1133 27.73                             121    0.40 8  207 293 
 ZAR  HZ I        1133 32.96        24.8 0.36            122            207 293 
 NOR  HZ EP       1133  5.17                             118    0.26 8  235 235 
 NOR  HN ES       1133 33.35                             118    0.61 8  235 235 
 NOR  HZ I        1133 38.07        12.9 0.58            119            235 235 
 URE  HZ EP   2   1133  9.54                             113   -1.01 4  287 292 
 URE  HN ES   4   1133 40.51                             113   -2.27 0  287 292 
 URE  HZ I        1133 45.94         8.7 0.14            114            287 292 
 PRA  HZ EP   2   1133 23.44                             106    0.86 3  391 210 
 PRA  HN ES       1134  3.46                             106   -0.73 6  391 210 
 PRA  HZ I        1134 11.15         4.5 0.24            108            391 210 
                                                                                
