 2016  331 1701 32.7 L   6.805 -73.195134.0  RSN  8 0.4 2.1LRSN                1
 GAP=134        0.85       4.5     4.9  6.6 -0.9201E+01  0.1757E+02  0.2083E+01E
 Epicentro: ZAPATOCA - SANTANDER                                               3
 ACTION:UPD 16-05-13 21:29 OP:cam  STATUS:               ID:20160331170132 L   I
 OLDACT:REG 16-03-31 21:18 OP:ak   STATUS:               ID:20160331165750     3
 2016-03-31-1657-50M.COL___314                                                 6
 STAT SP IPHASW D HRMM SECON CODA AMPLIT PERI AZIMU VELO AIN AR TRES W  DIS CAZ7
 BAR2 EZ IP     C 17 1 50.76                             170   -0.1310 23.5 176 
 BAR2 EZ ES       17 2  5.32                             170    0.2210 23.5 176 
 BAR2 EZ I        17 2  6.50        32.2 0.14            168           23.5 176 
 PAM  EZ IP     D 17 1 53.76                             148   -0.1010 80.6  43 
 PAM  EN ES       17 2 10.40                             148    0.0210 80.6  43 
 PAM  EZ I        17 2 12.62        41.2 0.50            143           80.6  43 
 NOR  HZ EP       17 2  7.25                             116   -0.04 8  231 234 
 NOR  HE ES       17 2 34.15                             116   -0.15 8  231 234 
 NOR  HZ I        17 2 42.00        10.5 0.16            110            231 234 
 CHI  HZ EP       17 2  9.05                             115   -0.60 8  248 194 
 CHI  HE ES       17 2 38.53                             115    0.04 8  248 194 
 CHI  HZ I        17 2 41.62         4.7 0.52            111            248 194 
 HEL  HZ EP   2   17 2 12.51                             113    0.78 4  267 255 
 HEL  HZ I        17 2 47.83         5.3 0.38            107            267 255 
 GUY2CHZ EP       17 2 15.75                             110    0.47 7  297 234 
 GUY2CHN ES       17 2 48.90                             110    0.38 7  297 234 
 GUY2CHZ I        17 2 57.37         4.3 0.36                           297 234 
 ELA  HZ EP   2   17 2 17.91                             108   -0.70 3  325 229 
 ELA  HN ES   4   17 2 57.28                             108    2.84 0  325 229 
 ELA  HZ I        17 3  3.98         4.4 0.42            104            325 229 
 DBB  SZ EP       17 2 19.94                             108    0.89 7  334 274 
 DBB  SZ ES       17 2 54.34                             108   -0.89 7  334 274 
 DBB  SZ I        17 3  3.05        14.1 0.48            102            334 274 
                                                                                
