 2010  531 1747  8.5 L   7.099 -73.472104.0  RSN  5 0.9 2.0LRSN                1
 GAP=147        1.92      11.2    24.4 31.0 -0.1828E+03  0.5387E+03 -0.1665E+03E
 Epicentro: SAN VICENTE DE CHUCURI - SANTANDER                                 3
 ACTION:UP  10-08-24 10:07 OP:vdl  STATUS:               ID:20100531174708 L   I
 2010-05-31-1742-01S.COL___109                                                 6
 STAT SP IPHASW D HRMM SECON CODA AMPLIT PERI AZIMU VELO SNR AR TRES W  DIS CAZ7
 BAR2 SZ EP   2   1747 23.60                             146    -1.5 5   64 150 
 BAR2 SZ ES   1   1747 38.49                             146     0.3 8   64 150 
 GUE  SZ EP       1747 28.09                             133    -0.110  101  37 
 GRA  SZ EP   1   1747 29.32                             129     0.1 7  114  40 
 OCA  SZ EP       1747 31.58                             125     1.110  127   8 
 OCA  SZ ES   1   1747 46.46                             125    -1.2 7  127   8 
 OCA  SZ I        1747 58.11        14.8 0.58                           127   8 
 RREF BZ EP   1   1747 51.14                             102    -1.8 5  320 221 
 RREF BN ES       1748 28.09                             102     0.5 7  320 221 
 RREF BZ I        1748 34.29         6.2 1.23                           320 221 
                                                                                
