 2012  831 1637 10.5 L   6.708 -73.178151.6  RSN  6 0.5 1.8LRSN                1
 GAP=136        1.05       9.0     7.6 10.8  0.2665E+02 -0.3536E+01 -0.1883E+02E
 Epicentro: VILLANUEVA - SANTANDER                                             3
 ACTION:UPD 12-09-10 11:59 OP:ep   STATUS:               ID:20120831163710 L   I
 2012-08-31-1630-00M.COL___218                                                 6
 STAT SP IPHASW D HRMM SECON CODA AMPLIT PERI AZIMU VELO AIN AR TRES W  DIS CAZ7
 BAR2 SZ EP   1   1637 30.60                             175   -0.06 7 12.8 182 
 BAR2 SZ ES   1   1637 45.77                             175   -0.63 7 12.8 182 
 BAR2 SZ I        1637 48.49        19.3 0.34                          12.8 182 
 BRR  HZ EP   1   1637 32.73                             153    0.32 7 73.7 307 
 BRR  HE ES   1   1637 50.28                             153    0.77 7 73.7 307 
 PAM  SZ EP   1   1637 33.34                             149   -0.61 7 87.6  37 
 RUS  HZ EP   1   1637 34.50                             148    0.34 7 90.8 173 
 RUS  HN ES   1   1637 53.09                             148    0.48 7 90.8 173 
 RUS  HZ I        1637 54.43         5.2 0.36                          90.8 173 
 PTB  HZ EP   1   1637 37.46                             134   -0.03 7  143 263 
 PTB  HN ES   1   1637 57.58                             134   -0.97 7  143 263 
 PTB  HZ I        1638  1.84         7.0 0.38                           143 263 
 ZAR  HN ES   1   1638  9.46                             123    0.37 6  205 295 
 ZAR  HZ I        1638 16.36         6.9 0.23                           205 295 
                                                                                
