 2011  731 1559 39.3 L   6.819 -73.102138.8  RSN  4 0.3 1.4LRSN                1
 GAP=163        0.59       5.3    10.0  8.0  0.2799E+02 -0.4329E+02 -0.2013E+02E
 Epicentro: LOS SANTOS - SANTANDER                                             3
 ACTION:UPD 12-07-25 14:04 OP:epov STATUS:               ID:20110731155939 L   I
 2011-07-31-1557-20S.COL___142                                                 6
 STAT SP IPHASW D HRMM SECON CODA AMPLIT PERI AZIMU VELO AIN AR TRES W  DIS CAZ7
 BAR2 SZ EP   1   1559 58.09                             169   -0.09 7 26.5 199 
 BAR2 SZ ES   1   16 0 12.54                             169   -0.36 7 26.5 199 
 BAR2 SZ I        16 0 14.95         5.2 0.30                          26.5 199 
 BRR  HZ EP   1   1559 59.52                             150   -0.40 7 74.6 295 
 BRR  HZ I        16 0  9.14        12.1 0.38                          74.6 295 
 BRR  HN ES   1   16 0 16.33                             150    0.34 7 74.6 295 
 RUS  HZ EP   1   16 0  2.59                             142    0.06 7  102 179 
 RUS  HN ES   1   16 0 20.89                             142    0.26 7  102 179 
 RUS  HZ I        16 0 22.49         2.5 0.15                           102 179 
 GRA  SZ EP   1   16 0  3.88                             136    0.22 7  122  16 
                                                                                
