 2011 1031 1842 13.9 L   6.794 -73.117153.0  RSN 28 0.5 4.6LRSN                1
 GAP= 74        0.84       2.9     4.2  4.5  0.9876E-01  0.7392E+01  0.3221E+01E
 Epicentro: LOS SANTOS - SANTANDER                                             3
 2011-10-31-1840-41S.COL___175                                                 6
 Evento Sentido                                                                2
 Reportado como Sentido en:                                                    3
 VELEZ, BUCARAMANGA (SANTANDER)                                                3
 ACTION:UPD 12-07-13 16:07 OP:ep   STATUS:               ID:20111031184213 L   I
 STAT SP IPHASW D HRMM SECON CODA AMPLIT PERI AZIMU VELO AIN AR TRES W  DIS CAZ7
 SAN  SZ IP       1842 34.84                             178    0.7310 5.81 124 
 BTL  SZ IP       1842 34.49                             172    0.1410 21.6 310 
 BTL  SZ ES   2   1842 49.72                             172   -0.59 5 21.6 310 
 BAR2 SZ IP       1842 34.33                             171   -0.0510 23.5 198 
 BAR2 SZ ES   1   1842 49.88                             171   -0.49 7 23.5 198 
 BAR2 SZ I        1842 50.67      5550.6 0.36                          23.5 198 
 GIR2 SZ IP     D 1842 34.39                             167   -0.0510 32.6 345 
 BRR  HZ IP     C 1842 36.24                             153    0.2610 74.3 298 
 BRR  HZ I        1842 36.54     10536.7 0.17                          74.3 298 
 BRR  HN ES   1   1842 53.71                             153    0.49 7 74.3 298 
 PAM  SZ IP       1842 37.08                             152    0.3010 75.9  37 
 PAM  SN ES   1   1842 54.54                             152   -0.11 7 75.9  37 
 RUS  HZ IP     D 1842 38.13                             145   -0.1610 99.8 178 
 RUS  HN ES   1   1842 56.85                             145   -0.48 7 99.8 178 
 OCA  SZ IP       1842 42.65                             131   -0.20 9  161 352 
 OCA  SZ ES   1   1843  5.13                             131   -0.33 7  161 352 
 OCA  SZ I        1843 10.97      5598.2 0.27                           161 352 
 YOP  SZ IP       1842 44.76                             128    0.50 9  177 154 
 YOP  SN ES   1   1843  7.84                             128   -0.12 7  177 154 
 ZAR  HZ EP   1   1842 46.70                             123   -0.42 6  207 292 
 ZAR  HE ES   3   1843 12.28                             123   -0.78 2  207 292 
 ZAR  HZ I        1843 19.48      3053.5 0.36                           207 292 
 CTAB SZ EP   2   1842 51.44                             121    1.26 4  231 211 
 NOR  SZ EP       1842 50.02                             120   -0.25 8  237 235 
 ROSC BZ EP   3   1842 53.71                             118    1.19 2  254 212 
 ROSC BZ I        1843 32.12      1167.0 0.35                           254 212 
 HEL  HZ EP       1842 54.18                             116   -0.60 8  275 256 
 HEL  HZ I        1843 33.07      1929.6 0.32                           275 256 
 VIL  SZ EP       1842 57.12                             113   -0.51 7  303 192 
 VIL  SE ES   2   1843 31.65                             113   -0.11 4  303 192 
 GUY  SZ EP       1842 58.95                             113    0.61 7  306 236 
 GUY  SZ I        1843 38.66      2020.9 0.44                           306 236 
 RREF HZ EP       1843  0.07                             112   -0.49 7  324 230 
 RREF HZ I        1843 44.18      1389.2 0.26                           324 230 
 DBB  SZ EP       1843  2.61                             110    0.59 7  343 274 
 TOL  SZ EP       1843  2.80                             110    0.17 7  345 225 
 MON  HZ EP   3   1843  1.31                             110   -2.19 2  357 308 
 SDV  BZ IP     D 1843  3.47                             109   -0.50 6  358  50 
 ANIL HZ EP       1843  4.36                             109    0.19 6  359 225 
 ANIL HZ I        1843 52.24      1745.5 0.26                           359 225 
 PRA  HZ EP       1843  7.17                             108   -0.60 6  393 210 
 PAL  HZ EP       1843  9.91                             107    0.35 6  408 239 
 SJC  HZ EP   2   1843  8.54                             107   -1.41 3  411 327 
 SJC  HZ I        1843 54.26       639.4 0.46                           411 327 
 SOL  SZ EP   2   1843 18.29                             104    0.52 2  479 263 
 BET  SZ EP   2   1843 22.08                             102   -0.99 2  523 210 
 HORQ SZ EP   2   1843 24.64                             102   -0.07 2  534 227 
                                                                                
