 2011  831 1322 40.4 L   6.785 -73.152141.4  RSN 10 0.4 2.3LRSN                1
 GAP=182        0.68       2.7     4.8  4.8  0.9338E+00  0.7983E+01  0.2872E+01E
 Epicentro: LOS SANTOS - SANTANDER                                             3
 ACTION:UPD 12-07-13 15:54 OP:ep   STATUS:               ID:20110831132240 L   I
 2011-08-31-1320-55S.COL___165                                                 6
 STAT SP IPHASW D HRMM SECON CODA AMPLIT PERI AZIMU VELO AIN AR TRES W  DIS CAZ7
 BAR2 SZ EP   1   1322 59.38                             171   -0.13 7 21.5 189 
 BAR2 SZ ES   1   1323 13.88                             171   -0.51 7 21.5 189 
 BAR2 SZ I        1323 15.48        49.3 0.25                          21.5 189 
 GIR2 SZ EP   1   1322 59.44                             166   -0.20 7 32.8 352 
 GIR2 SZ ES   1   1323 14.89                             166    0.27 7 32.8 352 
 BRR  HZ EP   1   1323  1.23                             152    0.09 7 71.4 300 
 BRR  HE ES   1   1323 17.73                             152    0.45 7 71.4 300 
 BRR  HZ I        1323 19.13        74.6 0.12                          71.4 300 
 RUS  HZ EP   1   1323  3.59                             143   -0.06 7 98.9 176 
 RUS  HN ES   1   1323 21.66                             143   -0.09 7 98.9 176 
 RUS  HZ I        1323 23.98        19.6 0.21                          98.9 176 
 OCA  SZ EP   1   1323  8.38                             128   -0.19 7  162 353 
 OCA  SZ ES   1   1323 31.01                             128    0.50 7  162 353 
 OCA  SZ I        1323 32.83        23.2 0.22                           162 353 
 ZAR  HZ EP   1   1323 12.30                             121   -0.31 6  204 293 
 ZAR  HN ES   1   1323 36.91                             121   -0.79 6  204 293 
 ZAR  HZ I        1323 44.64        27.0 0.16                           204 293 
 NOR  SZ EP   1   1323 15.61                             118   -0.14 6  233 235 
 NOR  SN ES   1   1323 43.30                             118    0.00 6  233 235 
 CHI  HZ EP   1   1323 17.73                             116    0.03 6  247 195 
 CHI  HE ES   1   1323 47.12                             116    0.35 6  247 195 
 CHI  HZ I        1323 50.55        10.9 0.59                           247 195 
 HEL  HZ EP   1   1323 21.21                             114    0.89 6  271 256 
 HEL  HZ I        1323 57.72        11.6 0.32                           271 256 
 PRA  HZ EP   1   1323 33.33                             106   -0.27 4  390 210 
 PRA  HN ES   1   1324 15.51                             106    0.44 4  390 210 
                                                                                
