 2016 1031 1114 28.3 L   6.822 -73.134134.5  RSN  4 0.4 1.0LRSN                1
 GAP=241        0.88       7.8     9.6  7.1  0.5023E+02  0.8919E+01  0.3828E+01E
 Epicentro: LOS SANTOS - SANTANDER                                             3
 ACTION:UPD 16-11-09 19:24 OP:rebc STATUS:               ID:20161031111428 L   I
 OLDACT:REG 16-10-31 20:13 OP:cog  STATUS:               ID:20161031110745     3
 2016-10-31-1108-00M.COL___322                                                 6
 STAT SP IPHASW D HRMM SECON CODA AMPLIT PERI AZIMU VELO AIN AR TRES W  DIS CAZ7
 BAR2 EZ EP       1114 46.75                             169    0.0810 26.0 192 
 BAR2 EZ ES       1115  0.61                             169   -0.3610 26.0 192 
 BRR  HZ EP       1114 48.74                             151    0.4710 71.2 296 
 BRR  HE ES       1115  3.89                             151    0.0710 71.2 296 
 RUS  HZ EP       1114 51.20                             141    0.0310  103 177 
 RUS  HN ES       1115  9.14                             141    0.1510  103 177 
 RUS  HZ I        1115 10.28         1.6 0.38            136            103 177 
 PTB  HZ EP       1114 53.90                             129   -0.66 9  149 258 
 PTB  HN ES   2   1115 15.66                             129    0.63 5  149 258 
 PTB  HZ I        1115 20.17         1.5 0.14            123            149 258 
                                                                                
