 2015  331 1619  2.1 L   6.817 -73.168138.2  RSN  9 0.5 1.8LRSN                1
 GAP=133        1.25       4.5     4.9  8.7 -0.1686E+01  0.1479E+02  0.2267E+00E
 Epicentro: LOS SANTOS - SANTANDER                                             3
 ACTION:UPD 15-04-30 16:31 OP:nd   STATUS:               ID:20150331161902 L   I
 OLDACT:REG 15-03-31 22:17 OP:fm   STATUS:               ID:20150331161749     3
 2015-03-31-1617-49M.COL___277                                                 6
 STAT SP IPHASW D HRMM SECON CODA AMPLIT PERI AZIMU VELO AIN AR TRES W  DIS CAZ7
 BAR2 EZ EP       1619 21.10                             169    0.2710 24.9 184 
 BAR2 EZ ES       1619 35.88                             169    0.4210 24.9 184 
 BAR2 EZ I        1619 38.56        14.5 0.48            172           24.9 184 
 BRR  HZ EP       1619 22.87                             152    0.6310 68.2 298 
 BRR  HN ES       1619 38.19                             152    0.2210 68.2 298 
 BRR  HZ I        1619 42.64        15.1 0.48            150           68.2 298 
 PAM  SZ EP       1619 24.02                             149    0.5210 77.6  42 
 PAM  SN ES       1619 39.65                             149   -0.5710 77.6  42 
 PAM  SZ I        1619 42.84        11.0 0.50            152           77.6  42 
 RUS  HZ EP       1619 25.12                             142   -0.1210  103 175 
 RUS  HE ES       1619 42.91                             142   -0.4010  103 175 
 PTB  HZ EP       1619 27.95                             131   -0.30 9  146 258 
 PTB  HE ES       1619 48.39                             131   -0.28 9  146 258 
 PTB  HZ I        1619 52.12         6.1 0.42            131            146 258 
 ZAR  HN ES       1619 58.93                             121    0.50 9  201 292 
 ZAR  HZ I        1620  5.41         6.9 0.36            122            201 292 
 NOR  HE ES       1620  3.93                             117   -0.81 8  234 234 
 NOR  HZ I        1620  8.93         4.5 0.34            119            234 234 
 SML  HE ES       1620  5.07                             116   -0.94 8  241 336 
 SML  HZ I        1620 11.56        10.9 0.22            117            241 336 
 GUY2CHE ES       1620 19.52                             111    0.61 7  300 234 
 GUY2CHZ I        1620 27.55         2.6 0.32                           300 234 
                                                                                
