 2012 1231 1205 59.6 L   6.772 -73.341119.6  RSN  7 0.5 2.0LRSN                1
 GAP=138        1.10       4.4     4.5  7.1  0.3548E+01  0.8602E+01 -0.4099E+01E
 Epicentro: ZAPATOCA - SANTANDER                                               3
 ACTION:UPD 13-01-04 14:31 OP:ep   STATUS:               ID:20121231120559 L   I
 2012-12-31-1200-00M.COL___239                                                 6
 STAT SP IPHASW D HRMM SECON CODA AMPLIT PERI AZIMU VELO AIN AR TRES W  DIS CAZ7
 BAR2 SZ EP       12 6 15.91                             167   -0.2310 26.5 139 
 BAR2 SZ ES       12 6 29.02                             167   -0.0510 26.5 139 
 BAR2 SZ I        12 6 30.19        45.6 0.26                          26.5 139 
 BRR  HZ IP     C 12 6 16.67                             153   -0.3110 55.3 312 
 BRR  HZ I        12 6 16.92        27.5 0.12                          55.3 312 
 BRR  HE ES       12 6 31.15                             153    0.5810 55.3 312 
 RUS  HZ EP       12 6 20.76                             138   -0.1410  101 164 
 RUS  HN ES       12 6 37.55                             138    0.0010  101 164 
 RUS  HN I        12 6 38.90         8.8 0.26                           101 164 
 PTB  HN ES       12 6 40.30                             130    0.0310  126 258 
 PTB  HN I        12 6 43.11        26.5 0.36                           126 258 
 OCA  HZ EP       12 6 26.97                             123    0.79 9  162   1 
 OCA  HE ES   1   12 6 45.91                             123   -1.03 7  162   1 
 OCA  HN I        12 6 49.70        26.5 0.48                           162   1 
 ZAR  HZ EP       12 6 28.26                             119   -0.18 9  186 296 
 ZAR  HE ES       12 6 51.04                             119    0.08 9  186 296 
 ZAR  HN I        12 6 54.64        18.1 0.18                           186 296 
 HEL  HZ EP       12 6 36.81                             111    0.72 8  250 255 
 HEL  HN ES       12 7  3.90                             111   -0.69 8  250 255 
 HEL  HN I        12 7 12.14         3.2 0.44                           250 255 
                                                                                
