 2016  331 1953 27.8 L   6.838 -73.129151.9  RSN  8 0.6 2.0LRSN                1
 GAP=120        1.43       6.3     5.2  8.9 -0.1342E+02  0.8114E+01 -0.1140E+02E
 Epicentro: LOS SANTOS - SANTANDER                                             3
 ACTION:UPD 16-05-13 21:29 OP:cam  STATUS:               ID:20160331195327 L   I
 OLDACT:REG 16-03-31 21:53 OP:ak   STATUS:               ID:20160331194743     3
 2016-03-31-1947-43M.COL___313                                                 6
 STAT SP IPHASW D HRMM SECON CODA AMPLIT PERI AZIMU VELO AIN AR TRES W  DIS CAZ7
 BAR2 EZ EP       1953 48.52                             169    0.2410 27.8 192 
 BAR2 EZ ES       1954  4.12                             169   -0.1110 27.8 192 
 BAR2 EZ I        1954  5.18        16.4 0.20            171           27.8 192 
 PAM  EZ EP       1953 51.41                             153    0.9710 73.0  41 
 PAM  EN ES       1954  8.45                             153    0.3610 73.0  41 
 PAM  EZ I        1954 10.81        20.4 0.50            154           73.0  41 
 RUS  HZ EP       1953 52.93                             144    0.4710  105 177 
 RUS  HN ES       1954 11.46                             144   -0.2310  105 177 
 RUS  HZ I        1954 12.47        13.8 0.34            148            105 177 
 PTB  HZ EP       1953 54.69                             133   -0.84 9  150 257 
 PTB  HN ES       1954 16.51                             133   -0.63 9  150 257 
 PTB  HZ I        1954 20.03         7.0 0.10            133            150 257 
 SPBC HZ IP       1953 57.60                             130    0.40 9  168 219 
 SPBC HE ES       1954 19.43                             130   -0.69 9  168 219 
 SPBC HZ I        1954 22.17        20.5 0.36            131            168 219 
 ZAR  HZ EP       1954  1.18                             124    0.49 9  204 291 
 ZAR  HN ES       1954 26.40                             124    0.08 9  204 291 
 ZAR  HZ I        1954 32.33         8.8 0.24            124            204 291 
 SOCV BZ EP       1954  9.84                             113   -0.89 7  298  57 
 SOCV BN ES       1954 43.23                             113   -0.97 7  298  57 
 GUY2CHZ EP   4   1954 13.89                             113    1.74 0  305 234 
 GUY2CHE ES       1954 47.44                             113    0.71 7  305 234 
 GUY2CHZ I        1954 54.76         4.6 0.28                           305 234 
                                                                                
