 2015  831 1500 44.3 L   6.808 -73.090146.2  RSN  9 0.4 2.0LRSN                1
 GAP=206        1.00       3.1     5.9  5.7  0.4251E+01  0.7517E+01  0.1197E+01E
 Epicentro: LOS SANTOS - SANTANDER                                             3
 ACTION:UPD 15-09-15 23:06 OP:cam  STATUS:               ID:20150831150044 L   I
 OLDACT:REG 15-08-31 21:48 OP:ak   STATUS:               ID:20150831145747     3
 2015-08-31-1457-47M.COL___358                                                 6
 STAT SP IPHASW D HRMM SECON CODA AMPLIT PERI AZIMU VELO AIN AR TRES W  DIS CAZ7
 BAR2 EZ EP     C 15 1  4.58                             169    0.5010 26.0 203 
 BAR2 EZ ES       15 1 19.47                             169   -0.0010 26.0 203 
 BAR2 EZ I        15 1 20.82        27.6 0.12            165           26.0 203 
 BRR  HZ EP       15 1  5.69                             151   -0.1410 76.3 296 
 BRR  HN ES       15 1 23.18                             151    0.5910 76.3 296 
 RUS  HZ EP       15 1  7.51                             144   -0.6710  101 180 
 RUS  HN ES       15 1 26.54                             144   -0.2410  101 180 
 RUS  HZ I        15 1 28.12        10.9 0.20            143            101 180 
 SPBC HZ EP       15 1 13.67                             128    0.36 9  168 220 
 SPBC HN ES       15 1 36.01                             128    0.10 9  168 220 
 SPBC HZ I        15 1 39.64        17.5 0.10            127            168 220 
 ZAR  HZ EP       15 1 18.10                             122    0.73 8  209 291 
 ZAR  HN ES       15 1 42.75                             122   -0.38 8  209 291 
 ZAR  HZ I        15 1 49.75        10.0 0.32            121            209 291 
 SML  HZ EP       15 1 21.15                             117   -0.04 8  246 334 
 SML  HN ES       15 1 49.11                             117   -0.82 8  246 334 
 SML  HZ I        15 1 53.59         7.9 0.10            117            246 334 
 CHI  HZ EP       15 1 22.29                             117   -0.05 8  251 196 
 CHI  HN ES       15 1 51.96                             117   -0.02 8  251 196 
 CHI  HZ I        15 1 59.00         2.9 0.24            117            251 196 
 GUY2CHZ EP   1   15 1 28.61                             112    0.01 5  307 235 
 GUY2CHN ES       15 2  2.72                             112   -0.40 7  307 235 
 GUY2CHZ I        15 2 11.11         5.4 0.36                           307 235 
 PRA  HZ EP       15 1 38.99                             106    0.66 6  396 210 
 PRA  HN ES       15 2 20.14                             106   -0.30 6  396 210 
 PRA  HZ I        15 2 26.93         4.3 0.28            106            396 210 
                                                                                
