 2011  731 1324 25.4 L   6.790 -73.101144.6  RSN  4 0.3 1.6LRSN                1
 GAP=161        0.59       6.7    12.0  7.9  0.5364E+02 -0.4572E+02 -0.2204E+02E
 Epicentro: LOS SANTOS - SANTANDER                                             3
 ACTION:UPD 12-07-25 14:04 OP:epov STATUS:               ID:20110731132425 L   I
 2011-07-31-1322-01S.COL___142                                                 6
 STAT SP IPHASW D HRMM SECON CODA AMPLIT PERI AZIMU VELO AIN AR TRES W  DIS CAZ7
 BAR2 SZ EP   1   1324 44.95                             170    0.02 7 23.6 203 
 BAR2 SZ ES   1   1324 59.71                             170   -0.43 7 23.6 203 
 BAR2 SZ I        1325  1.47        10.5 0.27                          23.6 203 
 BRR  HZ EP   1   1324 46.59                             150   -0.15 7 76.1 298 
 BRR  HN ES   1   1325  3.58                             150    0.21 7 76.1 298 
 BRR  HZ I        1325  5.39         8.6 0.38                          76.1 298 
 RUS  HZ EP   1   1324 48.76                             144   -0.21 7 99.2 179 
 RUS  HN ES   1   1325  7.72                             144    0.39 7 99.2 179 
 RUS  HZ I        1325  8.88         4.3 0.13                          99.2 179 
 BRI  SZ EP   2   1324 49.58                             141    0.41 5  108  18 
                                                                                
