 2013  531 1249  3.1 L   6.828 -73.148148.9  RSN  9 0.5 2.5LRSN                1
 GAP=135        1.34       5.4     6.5  7.6 -0.7725E+01  0.3545E+01  0.2639E+01E
 Epicentro: LOS SANTOS - SANTANDER                                             3
 ACTION:UPD 13-06-20 09:55 OP:ep   STATUS:               ID:20130531124903 L   I
 2013-05-31-1238-51M.COL___215                                                 6
 STAT SP IPHASW D HRMM SECON CODA AMPLIT PERI AZIMU VELO AIN AR TRES W  DIS CAZ7
 BAR2 SZ EP       1249 23.33                             169    0.2010 26.4 188 
 BAR2 SZ ES       1249 37.98                             169   -0.8110 26.4 188 
 BAR2 SZ I        1249 39.78        32.1 0.44            169           26.4 188 
 GIR2 SZ EP       1249 23.30                             169    0.2710 28.2 350 
 GIR2 SZ ES       1249 38.84                             169    0.2310 28.2 350 
 BRR  HZ EP       1249 25.07                             154    0.6110 69.6 296 
 BRR  HN ES       1249 41.70                             154    0.5410 69.6 296 
 BRR  HE I        1249 42.80        93.5 0.20            153           69.6 296 
 PAM  SZ EP       1249 26.23                             152    0.7510 75.2  41 
 PAM  SN ES       1249 43.22                             152    0.2510 75.2  41 
 PAM  SE I        1249 45.15        64.2 0.58            155           75.2  41 
 RUS  HZ EP       1249 27.31                             144   -0.0310  104 176 
 RUS  HE ES       1249 46.25                             144   -0.0410  104 176 
 RUS  HN I        1249 47.74        48.5 0.34            145            104 176 
 CAPV BZ EP       1249 29.42                             133   -1.08 9  147  39 
 PTB  HZ EP       1249 30.16                             133   -0.16 9  148 258 
 PTB  HN ES       1249 51.10                             133   -0.49 9  148 258 
 PTB  HE I        1249 56.43        32.8 0.26            133            148 258 
 OCA  HN ES       1249 52.75                             131   -0.63 9  157 353 
 NOR  HZ EP       1249 39.24                             119    0.09 8  236 234 
                                                                                
