 2013  531 1706 19.5 L   6.760 -73.167144.0  RSN 11 0.5 2.3LRSN                1
 GAP=136        1.16       3.7     4.6  6.0 -0.7518E+01  0.3398E+01  0.4682E+01E
 Epicentro: LOS SANTOS - SANTANDER                                             3
 ACTION:UPD 13-06-20 09:55 OP:ep   STATUS:               ID:20130531170619 L   I
 2013-05-31-1658-50M.COL___217                                                 6
 STAT SP IPHASW D HRMM SECON CODA AMPLIT PERI AZIMU VELO AIN AR TRES W  DIS CAZ7
 BAR2 SZ IP     C 17 6 38.75                             172   -0.0910 18.7 185 
 BAR2 SZ ES       17 6 53.55                             172   -0.3710 18.7 185 
 BAR2 SZ I        17 6 54.79        29.5 0.22            170           18.7 185 
 GIR2 SZ EP       17 6 39.22                             166    0.1310 35.4 355 
 GIR2 SZ ES       17 6 54.40                             166    0.0410 35.4 355 
 BRR  HZ EP       17 6 40.88                             152    0.4010 71.4 303 
 BRR  HN ES       17 6 58.01                             152    1.1710 71.4 303 
 BRR  HE I        17 6 58.49        63.0 0.20            151           71.4 303 
 PAM  SZ IP     D 17 6 42.04                             149    0.2010 82.3  39 
 PAM  SZ I        17 6 42.13        21.5 0.16            153           82.3  39 
 PAM  SN ES       17 6 59.04                             149   -0.2210 82.3  39 
 RUS  HZ EP       17 6 42.52                             145   -0.2710 96.4 174 
 RUS  HZ I        17 6 43.62        16.3 0.18            144           96.4 174 
 RUS  HE ES       17 7  1.18                             145    0.2410 96.4 174 
 PTB  HZ EP       17 6 45.50                             132   -0.56 9  145 260 
 PTB  HN ES       17 7  6.13                             132   -0.63 9  145 260 
 PTB  HE I        17 7 12.46        30.6 0.24            131            145 260 
 CAPV BZ EP       17 6 47.07                             131   -0.15 9  154  38 
 CAPV BZ ES       17 7  9.02                             131    0.20 9  154  38 
 OCA  HN ES       17 7  9.63                             129   -0.73 9  164 354 
 NOR  HZ EP       17 6 54.55                             119   -0.11 8  230 235 
 NOR  HN ES       17 7 22.21                             119    0.13 8  230 235 
 NOR  HE I        17 7 30.16        45.1 0.18            118            230 235 
 CHI  HZ EP       17 6 56.75                             117    0.16 8  244 195 
 CHI  HN ES       17 7 25.30                             117   -0.20 8  244 195 
 CHI  HE I        17 7 32.42        10.6 0.46            117            244 195 
 GUY2CHZ EP       17 7  3.67                             112    1.13 7  297 235 
 GUY2CHN ES       17 7 35.74                             112   -0.36 7  297 235 
 GUY2CHE I        17 7 44.16        17.5 0.36                           297 235 
                                                                                
