 2012  731 1134  6.1 L   6.744 -73.216149.1  RSN  4 0.2 1.3LRSN                1
 GAP=221        0.49       7.9     6.7 12.8  0.2237E+02 -0.1721E+02 -0.4991E+02E
 Epicentro: VILLANUEVA - SANTANDER                                             3
 ACTION:UPD 12-08-14 11:46 OP:ep   STATUS:               ID:20120731113406 L   I
 2012-07-31-1130-00M.COL___209                                                 6
 STAT SP IPHASW D HRMM SECON CODA AMPLIT PERI AZIMU VELO AIN AR TRES W  DIS CAZ7
 BAR2 SZ EP       1134 25.84                             173    -0.210   17 168 
 BAR2 SZ I        1134 26.16         4.1 0.32            169             17 168 
 BRR  HZ EP       1134 27.62                             154     0.210   68 306 
 BRR  HZ I        1134 42.12         9.6 0.26            135             68 306 
 BRR  HN ES   3   1134 44.14                             154     0.0 2   68 306 
 RUS  HZ EP   2   1134 29.84                             146     0.0 5   95 171 
 RUS  HZ I        1134 30.64         1.5 0.13            151             95 171 
 RUS  HN ES   2   1134 48.62                             146     0.3 5   95 171 
 PTB  HZ EP   2   1134 32.78                             134     0.2 5  139 261 
 PTB  HN ES   2   1134 52.98                             134    -0.3 5  139 261 
 PTB  HZ I        1134 55.94         1.7 0.36            124            139 261 
