 2010  131 1142 41.8 L   6.632 -74.184 16.3  RSN  6 0.5 1.4LRSN                1
 GAP=154        0.81       7.2     4.1  7.8 -0.6883E+01  0.1563E+02  0.1207E+02E
 Epicentro: PUERTO PARRA - SANTANDER                                           3
 ACTION:UP  10-08-24 09:46 OP:vdl  STATUS:               ID:20100131114241 L   I
 2010-01-31-1139-51S.COL___086                                                 6
 STAT SP IPHASW D HRMM SECON CODA AMPLIT PERI AZIMU VELO SNR AR TRES W  DIS CAZ7
 BAR2 SZ IP       1142 59.45                              97     0.010  111  92 
 BAR2 SZ ES   2   1143 13.10                              97    -0.2 5  111  92 
 GIR2 SZ EP   2   1143  0.89                              96     0.1 5  120  66 
 RUS  HZ EP   1   1143  5.08                              56     0.2 7  147 124 
 RUS  HE ES   2   1143 22.29                              56    -0.6 5  147 124 
 RUS  HZ I        1143 23.71         6.3 0.28                           147 124 
 HEL  HZ EP   1   1143  6.01                              56     0.0 7  157 252 
 HEL  HN ES   2   1143 23.87                              56    -1.0 5  157 252 
 HEL  HZ I        1143 24.94         7.3 0.28                           157 252 
 GUE  SZ ES   2   1143 33.03                              56     0.4 4  192  46 
 RREF HE ES   2   1143 43.15                              56     1.2 4  231 214 
 RREF HZ I        1143 48.21         2.1 0.51                           231 214 
                                                                                
