 2010  731 1735  1.3 L   6.792 -73.162143.6  RSN  7 0.5 1.9LRSN                1
 GAP=157        0.89       5.2    12.7  9.9 -0.1320E+02  0.3504E+01  0.8013E+00E
 Epicentro: LOS SANTOS - SANTANDER                                             3
 ACTION:UPD 10-12-01 15:21 OP:pat  STATUS:               ID:20100731173501 L   I
 2010-07-31-1731-01S.COL___123                                                 6
 STAT SP IPHASW D HRMM SECON CODA AMPLIT PERI AZIMU VELO AIN AR TRES W  DIS CAZ7
 BAR2 SZ EP   1   1735 20.39                             171    -0.2 7   22 186 
 BAR2 SZ ES   2   1735 35.04                             171    -0.7 5   22 186 
 BAR2 SZ I        1735 36.62        17.2 0.38                            22 186 
 GIR2 SZ EP   1   1735 20.58                             167    -0.1 7   32 354 
 BRR  HZ EP   1   1735 22.14                             153     0.0 7   70 300 
 BRR  HN ES   2   1735 38.81                             153     0.4 5   70 300 
 BRR  HZ I        1735 39.78        23.4 0.18                            70 300 
 RUS  HZ EP   1   1735 24.45                             144    -0.3 7  100 175 
 RUS  HZ I        1735 25.61         6.3 0.15                           100 175 
 RUS  HE ES   2   1735 43.75                             144     0.7 5  100 175 
 GRA  SZ EP   1   1735 27.16                             136     0.7 7  127  18 
 GRA  SZ ES   2   1735 46.61                             136     0.5 5  127  18 
 OCA  SZ EP   1   1735 28.82                             129    -0.7 7  161 354 
 OCA  SZ ES   2   1735 51.42                             129    -0.1 5  161 354 
 OCA  SZ I        1735 55.18        10.4 0.33                           161 354 
 PRA  HZ EP   1   1735 54.67                             106     0.1 4  390 209 
 PRA  HN ES   2   1736 37.12                             106     1.1 3  390 209 
 PRA  HZ I        1736 43.70         3.3 0.34                           390 209 
                                                                                
