 2015  831 1942 53.1 L   6.495 -73.511114.9  RSN  5 0.3 1.5LRSN                1
 GAP=140        0.65       4.3     4.6  7.6 -0.8524E+01  0.1949E+02 -0.4638E+01E
 Epicentro: SIMACOTA - SANTANDER                                               3
 ACTION:UPD 15-09-15 23:06 OP:cam  STATUS:               ID:20150831194253 L   I
 OLDACT:REG 15-08-31 22:13 OP:ak   STATUS:               ID:20150831193750     3
 2015-08-31-1937-50M.COL___343                                                 6
 STAT SP IPHASW D HRMM SECON CODA AMPLIT PERI AZIMU VELO AIN AR TRES W  DIS CAZ7
 BAR2 EZ EP       1943  9.52                             160   -0.0110 37.9  74 
 BAR2 EZ ES   1   1943 22.38                             160    0.04 7 37.9  74 
 BAR2 EZ I        1943 23.13         9.6 0.44            166           37.9  74 
 SPBC HE ES       1943 31.16                             132    0.1110  112 214 
 SPBC HZ I        1943 33.34        10.1 0.10            135            112 214 
 NOR  HZ EP       1943 21.47                             118    0.05 9  182 236 
 NOR  HE ES       1943 42.98                             118   -0.53 9  182 236 
 NOR  HZ I        1943 45.55         4.1 0.16            120            182 236 
 ZAR  HE ES   1   1943 44.02                             117    0.05 7  185 307 
 ZAR  HZ I        1943 47.88         4.7 0.12            119            185 307 
 GUY2CHZ EP   1   1943 29.31                             110   -0.09 6  249 236 
 GUY2CHE ES   1   1943 58.45                             110    0.75 6  249 236 
 GUY2CHZ I        1944  4.45         1.4 0.36                           249 236 
                                                                                
