 2014  131 1759 30.4 L   6.829 -73.158143.7  RSN  6 0.6 2.0LRSN                1
 GAP=134        1.54       6.3     7.7 10.2  0.1384E+01  0.1400E+02 -0.1302E+02E
 Epicentro: LOS SANTOS - SANTANDER                                             3
 ACTION:UPD 14-03-13 10:00 OP:ep   STATUS:               ID:20140131175930 L   I
 OLDACT:DUP 14-01-31 20:16 OP:stll STATUS:               ID:20140131175814d    3
 2014-01-31-1758-13M.COL___243                                                 6
 STAT SP IPHASW D HRMM SECON CODA AMPLIT PERI AZIMU VELO AIN AR TRES W  DIS CAZ7
 BAR2 SZ EP       1759 49.93                             169    0.0710 26.3 186 
 BAR2 SZ ES       18 0  4.64                             169   -0.3910 26.3 186 
 BAR2 SZ I        18 0  7.19        29.4 0.20            171           26.3 186 
 BRR  HZ EP       1759 51.83                             153    0.6410 68.5 297 
 BRR  HN ES       18 0  8.17                             153    0.7710 68.5 297 
 BRR  HZ I        18 0 12.57        16.9 0.12            153           68.5 297 
 PAM  SZ EP       1759 52.57                             151    0.2410 75.9  42 
 PAM  SZ I        1759 52.97        25.7 0.22            153           75.9  42 
 PAM  SN ES       18 0  9.70                             151    0.2910 75.9  42 
 RUS  HZ EP       1759 54.08                             142   -0.1310  104 175 
 RUS  HN ES       18 0 11.93                             142   -0.8310  104 175 
 RUS  HZ I        18 0 13.49         8.8 0.32            146            104 175 
 PTB  HZ EP       1759 58.00                             132    0.85 9  147 258 
 PTB  HN ES       18 0 17.58                             132   -0.43 9  147 258 
 PTB  HZ I        18 0 19.89        13.4 0.46            133            147 258 
 SML  HZ EP       18 0  6.30                             117   -0.25 8  240 335 
 SML  HN ES       18 0 33.39                             117   -1.35 8  240 335 
                                                                                
