 2016  331 1722 19.7 L   6.807 -73.183144.0  RSN  7 0.3 1.9LRSN                1
 GAP=132        0.83       3.7     3.5  6.3 -0.2885E+01  0.7879E+01 -0.8139E+00E
 Epicentro: ZAPATOCA - SANTANDER                                               3
 ACTION:UPD 16-05-13 21:29 OP:cam  STATUS:               ID:20160331172219 L   I
 OLDACT:DUP 16-04-01 00:03 OP:ak   STATUS:               ID:20160331171743d    3
 2016-03-31-1717-42M.COL___322                                                 6
 STAT SP IPHASW D HRMM SECON CODA AMPLIT PERI AZIMU VELO AIN AR TRES W  DIS CAZ7
 BAR2 EZ EP       1722 39.30                             170    0.1610 23.8 180 
 BAR2 EZ ES       1722 54.43                             170    0.1410 23.8 180 
 BAR2 EZ I        1722 55.82        20.0 0.14            171           23.8 180 
 PAM  EZ EP       1722 42.22                             150    0.3510 79.4  42 
 PAM  EN ES       1722 58.75                             150   -0.4010 79.4  42 
 PAM  EZ I        1723  1.37        17.7 0.50            154           79.4  42 
 RUS  HZ EP       1722 42.92                             143   -0.4610  102 174 
 RUS  HN ES       1723  2.16                             143    0.3310  102 174 
 RUS  HZ I        1723  3.15        11.2 0.32            146            102 174 
 PTB  HZ EP       1722 45.66                             132   -0.53 9  144 258 
 PTB  HN ES       1723  6.64                             132   -0.20 9  144 258 
 PTB  HZ I        1723  9.63         6.2 0.20            133            144 258 
 SPBC HZ EP       1722 48.25                             129    0.35 9  161 218 
 SPBC HE ES       1723  9.80                             129   -0.08 9  161 218 
 SPBC HZ I        1723 17.31        12.5 0.38            131            161 218 
 ZAR  HZ EP   2   1722 52.00                             123    0.38 4  200 292 
 ZAR  HN ES       1723 16.91                             123    0.40 9  200 292 
 ZAR  HZ I        1723 22.97         6.5 0.19            124            200 292 
 NOR  HN ES       1723 22.46                             118   -0.12 8  232 234 
                                                                                
