 2011  131 1123 25.7 L   6.824 -73.173134.0  RSN 13 0.4 3.4LRSN                1
 GAP=134        0.92       2.9     5.1  6.8 -0.2106E+01  0.1456E+02  0.1328E+01E
 Epicentro: LOS SANTOS - SANTANDER                                             3
 ACTION:UP  11-02-08 08:44 OP:pat  STATUS:               ID:20110131112325 L   I
 2011-01-31-1121-16S.COL___135                                                 6
 STAT SP IPHASW D HRMM SECON CODA AMPLIT PERI AZIMU VELO SNR AR TRES W  DIS CAZ7
 BAR2 SZ IP       1123 44.41                             169     0.410   26 183 
 BAR2 SZ ES   1   1123 57.38                             169    -0.9 7   26 183 
 BAR2 SZ I        1124  3.00       438.7 0.82                            26 183 
 RUS  HZ EP       1123 48.31                             140    -0.210  103 174 
 RUS  HE ES   1   1124  6.85                             140     0.5 7  103 174 
 RUS  HZ I        1124  8.96       402.2 0.33                           103 174 
 GRA  SZ IP       1123 50.15                             134     0.310  124  19 
 GRA  SZ ES   1   1124  8.92                             134     0.3 7  124  19 
 GRA  SZ I        1124 12.48       467.6 0.40                           124  19 
 OCA  SZ EP       1123 52.66                             127    -0.2 9  157 354 
 OCA  SZ ES   1   1124 13.67                             127    -0.4 7  157 354 
 OCA  SZ I        1124 22.73       232.2 0.29                           157 354 
 YOP  SZ EP       1123 55.19                             123    -0.1 9  183 153 
 YOP  SE ES   1   1124 18.79                             123     0.4 7  183 153 
 YOP  SZ I        1124 23.02       143.9 0.50                           183 153 
 NOR  SZ EP       1124  0.55                             116    -0.2 8  234 234 
 NOR  SE ES   1   1124 28.16                             116     0.2 6  234 234 
 CHI  HZ EP       1124  2.57                             114    -0.4 8  250 194 
 CHI  HN ES   2   1124 31.48                             114    -0.6 4  250 194 
 CHI  HZ I        1124 36.74       125.3 0.82                           250 194 
 ROSC BZ EP   1   1124  4.28                             114     1.0 6  253 210 
 ROSC BN ES   2   1124 33.32                             114     0.7 4  253 210 
 ROSC BZ I        1124 39.44       354.1 0.47                           253 210 
 HEL  HZ EP   1   1124  5.03                             112    -0.1 6  270 255 
 HEL  HE ES   2   1124 36.16                             112     0.3 4  270 255 
 HEL  HZ I        1124 43.56       204.9 0.42                           270 255 
 VIL  SZ EP   2   1124  8.10                             110    -0.6 4  304 189 
 VIL  SN ES   2   1124 41.51                             110    -0.7 4  304 189 
 VIL  SZ I        1124 48.24       119.3 0.58                           304 189 
 RREF HZ EP       1124 11.21                             108    -0.1 7  321 229 
 RREF HE ES   2   1124 47.35                             108     0.5 3  321 229 
 RREF HZ I        1124 52.88       120.8 0.62                           321 229 
 DBB  SZ EP       1124 12.23                             107    -0.1 7  336 274 
 TOL  SZ EP   2   1124 13.16                             107    -0.3 3  343 224 
                                                                                
