 2013  131 1021 48.9 L   6.693 -73.193141.8  RSN  5 0.4 1.4LRSN                1
 GAP=224        0.74       8.4     7.5  8.0  0.2347E+02  0.1783E+02 -0.1013E+02E
 Epicentro: VILLANUEVA - SANTANDER                                             3
 ACTION:UPD 13-02-15 09:18 OP:ep   STATUS:               ID:20130131102148 L   I
 2013-01-31-1018-51M.COL___185                                                 6
 STAT SP IPHASW D HRMM SECON CODA AMPLIT PERI AZIMU VELO AIN AR TRES W  DIS CAZ7
 BAR2 SZ EP   3   1022  7.73                             175   -0.17 2 11.2 174 
 BAR2 SZ ES   1   1022 22.55                             175   -0.15 7 11.2 174 
 BAR2 SZ I        1022 24.12         6.4 0.29            174           11.2 174 
 BRR  HZ EP       1022  9.60                             151   -0.1810 73.4 309 
 BRR  HZ I        1022  9.69         7.7 0.42            152           73.4 309 
 BRR  HN ES   1   1022 26.32                             151    0.27 7 73.4 309 
 RUS  HN ES   2   1022 29.41                             146    0.30 5 89.4 172 
 PTB  HZ EP   1   1022 14.42                             133   -0.52 7  141 263 
 PTB  HN ES   1   1022 35.44                             133    0.21 7  141 263 
 PTB  HZ I        1022 36.78         2.2 0.40            133            141 263 
 ZAR  HZ EP   1   1022 22.02                             121    0.89 6  204 296 
 ZAR  HN ES   1   1022 45.85                             121   -0.39 6  204 296 
                                                                                
