 2011  531 1048 51.2 L   6.765 -73.156148.5  RSN  6 0.3 1.8LRSN                1
 GAP=168        0.68       4.9     7.0  6.3 -0.2114E+02  0.3249E+00  0.6944E+00E
 Epicentro: LOS SANTOS - SANTANDER                                             3
 ACTION:UP  11-06-29 08:57 OP:tino STATUS:               ID:20110531104851 L   I
 2011-05-31-1046-49S.COL___113                                                 6
 STAT SP IPHASW D HRMM SECON CODA AMPLIT PERI AZIMU VELO SNR AR TRES W  DIS CAZ7
 BAR2 SZ EP   1   1049 11.08                             172    -0.1 7   19 189 
 BAR2 SZ ES   1   1049 26.65                             172     0.0 7   19 189 
 BAR2 SZ I        1049 28.46        28.0 0.28                            19 189 
 BRR  HZ EP   1   1049 13.11                             152     0.4 7   72 302 
 BRR  HZ I        1049 16.37        12.9 0.09                            72 302 
 BRR  HN ES   1   1049 29.83                             152     0.3 7   72 302 
 BRI  SZ EP   1   1049 15.78                             141     0.1 7  112  21 
 BRI  SZ I        1049 35.89         8.1 0.25                           112  21 
 GRA  SZ EP   1   1049 17.15                             137     0.1 7  130  17 
 GRA  SZ ES   1   1049 36.75                             137    -0.5 7  130  17 
 GRA  SZ I        1049 37.77         8.7 0.32                           130  17 
 OCA  SZ EP   1   1049 20.05                             129    -0.1 7  164 354 
 OCA  SZ ES   1   1049 42.56                             129    -0.1 7  164 354 
 OCA  SZ I        1049 46.59         9.5 0.30                           164 354 
 NOR  SZ EP   1   1049 27.05                             119     0.3 6  231 235 
 NOR  SN ES   1   1049 53.89                             119    -0.6 6  231 235 
 NOR  SZ I        1050  2.02         1.1 0.17                           231 235 
                                                                                
