 2010 1231 1525 56.3 L   6.799 -73.133141.9  RSN  5 0.5 1.7LRSN                1
 GAP=160        0.77       6.4    11.9 11.3 -0.4527E+02  0.5717E+02 -0.1688E+02E
 Epicentro: LOS SANTOS - SANTANDER                                             3
 ACTION:UP  11-01-14 15:28 OP:pat  STATUS:               ID:20101231152556 L   I
 2010-12-31-1520-00M.COL___132                                                 6
 STAT SP IPHASW D HRMM SECON CODA AMPLIT PERI AZIMU VELO SNR AR TRES W  DIS CAZ7
 BAR2 SZ EP   1   1526 15.64                             170     0.2 7   24 194 
 BAR2 SZ I        1526 15.98        17.9 0.38                            24 194 
 BAR2 SZ ES   2   1526 30.57                             170     0.2 5   24 194 
 RUS  HZ EP   1   1526 19.62                             143     0.0 7  100 177 
 RUS  HZ I        1526 20.46         4.5 0.30                           100 177 
 RUS  HE ES   2   1526 37.98                             143     0.1 5  100 177 
 GRA  SZ EP   1   1526 21.60                             136     0.5 7  125  17 
 GRA  SZ ES   2   1526 39.53                             136    -1.0 5  125  17 
 GRA  SZ I        1526 45.29         7.9 0.30                           125  17 
 NOR  SZ EP   1   1526 31.67                             117    -0.2 6  236 235 
 NOR  SN ES   2   1526 59.99                             117     0.3 4  236 235 
 CHI  HE ES   2   1527  2.20                             116    -0.9 4  249 195 
                                                                                
