 2015 1231 1844  5.1 L   6.789 -73.151144.3  RSN 16 0.6 2.3LRSN                1
 GAP=136        1.04       3.1     4.5  5.8 -0.2167E+01  0.8638E+01  0.1418E+01E
 Epicentro: LOS SANTOS - SANTANDER                                             3
 ACTION:UPD 16-02-04 15:09 OP:cam  STATUS:               ID:20151231184405 L   I
 OLDACT:REG 15-12-31 20:52 OP:dnl  STATUS:               ID:20151231183747     3
 2015-12-31-1837-47M.COL___328                                                 6
 STAT SP IPHASW D HRMM SECON CODA AMPLIT PERI AZIMU VELO AIN AR TRES W  DIS CAZ7
 BAR2 EZ EP     D 1844 24.66                             171    0.1310 22.1 189 
 BAR2 EZ ES       1844 39.46                             171   -0.2210 22.1 189 
 BAR2 EZ I        1844 40.75        31.0 0.09            168           22.1 189 
 BRR  HZ IP     D 1844 26.63                             152    0.5410 71.2 300 
 BRR  HE ES       1844 43.39                             152    0.9310 71.2 300 
 BRR  HZ I        1844 46.78        32.0 0.27            147           71.2 300 
 PAM  EZ EP   2   1844 27.53                             150    0.29 5 78.7  39 
 PAM  EN ES       1844 44.48                             150   -0.0210 78.7  39 
 PAM  EZ I        1844 46.70        51.6 0.60            154           78.7  39 
 RUS  HZ EP       1844 28.60                             144   -0.0210 99.4 176 
 RUS  HE ES       1844 46.81                             144   -0.1610 99.4 176 
 RUS  HZ I        1844 48.44        22.5 0.28            145           99.4 176 
 PTB  HZ EP       1844 31.86                             132   -0.01 9  147 259 
 PTB  HN ES       1844 52.56                             132   -0.19 9  147 259 
 PTB  HZ I        1844 56.15        22.4 0.12            129            147 259 
 OCA  HZ EP       1844 32.93                             129   -0.47 9  161 353 
 OCA  HN ES       1844 54.57                             129   -0.90 9  161 353 
 OCA  HZ I        1844 59.19        41.3 0.19            129            161 353 
 SPBC HZ EP       1844 33.92                             129    0.56 9  162 219 
 SPBC HN ES   2   1844 54.28                             129   -1.12 5  162 219 
 SPBC HZ I        1844 58.92        27.5 0.11            128            162 219 
 ZAR  HZ EP       1844 37.55                             122    0.11 9  204 293 
 ZAR  HE ES   1   1845  3.05                             122    0.39 6  204 293 
 ZAR  HZ I        1845  9.79        37.5 0.34            120            204 293 
 NOR  HZ EP   2   1844 41.30                             118    0.68 4  234 235 
 NOR  HE ES   1   1845  8.31                             118   -0.01 6  234 235 
 NOR  HZ I        1845 12.46        18.0 0.22            117            234 235 
 SML  HZ EP   2   1844 41.05                             117   -0.68 4  245 336 
 SML  HE ES   4   1845  8.46                             117   -1.85 0  245 336 
 SML  HZ I        1845 15.43        25.3 0.06            117            245 336 
 CHI  HZ EP   2   1844 42.97                             117    0.40 4  247 195 
 CHI  HN ES       1845 11.71                             117   -0.09 8  247 195 
 CHI  HZ I        1845 18.14         6.5 0.25            117            247 195 
 HEL  HZ EP   2   1844 46.67                             115    1.53 4  271 256 
 HEL  HE ES   4   1845 14.40                             115   -1.97 0  271 256 
 HEL  HZ I        1845 24.37         7.0 0.36            114            271 256 
 URE  HZ EP   2   1844 45.19                             113   -0.89 4  284 292 
 URE  HN ES   4   1845 14.81                             113   -3.24 0  284 292 
 URE  HZ I        1845 29.86        15.6 0.22            112            284 292 
 GUY2CHZ EP   4   1844 50.17                             112    1.66 0  300 235 
 GUY2CHN ES       1845 21.37                             112   -0.99 7  300 235 
 GUY2CHZ I        1845 29.89        13.5 0.31                           300 235 
 SOCV BZ EP   4   1844 46.52                             112   -1.69 0  302  57 
 SOCV BE ES   4   1845 17.84                             112   -4.00 0  302  57 
 PRA  HZ EP   2   1844 58.73                             106    0.32 3  391 210 
 PRA  HN ES   2   1845 39.14                             106   -0.86 3  391 210 
 PRA  HZ I        1845 47.11         6.7 0.35            106            391 210 
 ORTC HZ EP   2   1844 59.27                             106    0.46 3  394 216 
 ORTC HE ES   2   1845 40.78                             106    0.07 3  394 216 
 ORTC HZ I        1845 47.35         4.5 0.19            106            394 216 
                                                                                
