 2013 1031 1010 39.3 L   6.799 -73.125148.5  RSN 13 0.5 2.1LRSN                1
 GAP=139        1.13       3.1     4.2  5.7 -0.3557E+01  0.8061E+01 -0.4657E+00E
 Epicentro: LOS SANTOS - SANTANDER                                             3
 ACTION:UPD 13-11-25 09:24 OP:ep   STATUS:               ID:20131031101039 L   I
 OLDACT:REG 13-10-31 16:13 OP:carl STATUS:               ID:20131031100837     3
 2013-10-31-1008-37M.COL___209                                                 6
 STAT SP IPHASW D HRMM SECON CODA AMPLIT PERI AZIMU VELO AIN AR TRES W  DIS CAZ7
 BAR2 SZ EP       1010 59.26                             171   -0.0010 23.7 195 
 BAR2 SZ ES       1011 14.38                             171   -0.4510 23.7 195 
 BAR2 SZ I        1011 15.41        32.2 0.38            168           23.7 195 
 BRR  HZ EP       1011  1.21                             152    0.3510 73.2 298 
 BRR  HN ES       1011 18.47                             152    0.8010 73.2 298 
 BRR  HZ I        1011 21.22        16.0 0.52            148           73.2 298 
 PAM  SZ EP       1011  2.03                             152    0.3010 76.0  38 
 PAM  SN ES       1011 19.81                             152    0.5910 76.0  38 
 PAM  SZ I        1011 21.45        17.9 0.46            156           76.0  38 
 RUS  HZ EP       1011  3.15                             144   -0.1510  100 177 
 RUS  HN ES       1011 21.65                             144   -0.3710  100 177 
 RUS  HZ I        1011 23.28         8.7 0.42            147            100 177 
 PTB  HZ EP       1011  5.87                             132   -0.82 9  150 259 
 PTB  HN ES       1011 27.22                             132   -0.83 9  150 259 
 PTB  HZ I        1011 34.62        21.2 0.52            131            150 259 
 OCA  HZ EP       1011  7.55                             130   -0.31 9  161 352 
 OCA  HN ES       1011 29.89                             130   -0.24 9  161 352 
 OCA  HZ I        1011 34.60        12.7 0.16            131            161 352 
 SPBC HZ EP       1011  8.18                             129    0.05 9  165 220 
 SPBC HN ES       1011 30.57                             129   -0.05 9  165 220 
 SPBC HZ I        1011 35.23        21.9 0.16            130            165 220 
 ZAR  HZ EP       1011 11.84                             123   -0.30 8  206 292 
 ZAR  HE ES       1011 37.72                             123   -0.04 8  206 292 
 ZAR  HZ I        1011 48.13        13.7 0.32            123            206 292 
 NOR  HZ EP       1011 15.61                             119    0.23 8  236 235 
 NOR  HN ES       1011 43.35                             119   -0.17 8  236 235 
 NOR  HZ I        1011 47.00         9.6 0.30            120            236 235 
 SML  HZ EP       1011 15.59                             118   -0.60 8  245 335 
 SML  HN ES       1011 44.99                             118    0.02 8  245 335 
 HEL  HZ EP   1   1011 19.60                             115   -0.29 6  274 256 
 HEL  HE ES       1011 52.00                             115    0.45 8  274 256 
 HEL  HZ I        1012  1.36         4.3 0.22            116            274 256 
 GUY2CHZ EP       1011 24.14                             113    0.90 7  303 235 
 GUY2CHN ES       1011 58.38                             113    0.87 7  303 235 
 GUY2CHZ I        1012  6.10         9.5 0.76                           303 235 
 RREF HZ EP       1011 26.41                             111    0.66 7  323 230 
 RREF HN ES       1012  2.01                             111    0.03 7  323 230 
 RREF HZ I        1012 11.85         7.8 0.40            112            323 230 
                                                                                
