 2016  831 1009 50.5 L   6.602 -73.656 82.1  RSN  7 0.2 1.0LRSN                1
 GAP= 97        0.65       2.1     2.4  4.9  0.1207E+01  0.5093E+01  0.2619E+01E
 Epicentro: EL CARMEN - SANTANDER                                              3
 ACTION:UPD 16-10-29 15:40 OP:rebc STATUS:               ID:20160831100950 L   I
 OLDACT:UP  16-08-31 21:22 OP:edw  STATUS:               ID:20160831100736     3
 OLDACT:UP  16-08-31 21:20 OP:edw  STATUS:               ID:20160831100736     3
 OLDACT:REG 16-08-31 19:30 OP:edw  STATUS:               ID:20160831100736     3
 2016-08-31-1008-00M.COL___355                                                 6
 STAT SP IPHASW D HRMM SECON CODA AMPLIT PERI AZIMU VELO AIN AR TRES W  DIS CAZ7
 BAR2 EZ EP       1010  3.99                             145   -0.1410 52.4  91 
 BAR2 EZ ES       1010 15.15                             145    0.3910 52.4  91 
 BAR2 EZ I        1010 18.15         4.4 0.18                          52.4  91 
 BRR  HZ EP       1010  3.55                             142   -0.5310 56.2 354 
 BRR  HN ES       1010 14.54                             142   -0.1210 56.2 354 
 PTB  HZ EP   9   1010  4.14                             128   -2.79 0 88.8 266 
 PTB  HN ES       1010 16.84                             127   -0.1110 88.8 266 
 PTB  HZ I        1010 19.54         2.9 0.09                          88.8 266 
 RUS  HZ EP       1010  8.77                             125    0.0110  101 141 
 RUS  HN ES       1010 23.04                             125    0.0510  101 141 
 RUS  HZ I        1010 24.94         2.3 0.22                           101 141 
 SPBC HZ EP       1010  9.62                             121   -0.0510  115 204 
 SPBC HE ES       1010 24.48                             121   -0.1310  115 204 
 ZAR  HZ EP       1010 15.60                             111    0.40 9  165 307 
 ZAR  HN ES       1010 34.64                             111    0.18 9  165 307 
 ZAR  HZ I        1010 35.84         1.9 0.08                           165 307 
 GUY2CHZ EP   4   1010 23.82                             104   -1.12 0  243 231 
 GUY2CHN ES       1010 51.85                             104    0.05 8  243 231 
 GUY2CHZ I        1010 54.33         1.1 0.26                           243 231 
                                                                                
