 2012 1231 1257 23.6 L   6.725 -73.197139.1  RSN  4 0.3 1.7LRSN                1
 GAP=226        0.82       6.2     5.9  6.6  0.1844E+02  0.5677E+01  0.2489E+01E
 Epicentro: VILLANUEVA - SANTANDER                                             3
 ACTION:UPD 13-01-04 14:31 OP:ep   STATUS:               ID:20121231125723 L   I
 2012-12-31-1250-00M.COL___239                                                 6
 STAT SP IPHASW D HRMM SECON CODA AMPLIT PERI AZIMU VELO AIN AR TRES W  DIS CAZ7
 BAR2 SZ EP       1257 41.99                             174   -0.3110 14.8 174 
 BAR2 SZ ES       1257 56.44                             174   -0.4210 14.8 174 
 BAR2 SZ I        1257 57.54         9.6 0.38                          14.8 174 
 BRR  HZ EP       1257 44.03                             151    0.0010 70.9 307 
 BRR  HN ES       1258  0.42                             151    0.4710 70.9 307 
 BRR  HN I        1258  5.27         9.7 0.16                          70.9 307 
 RUS  HZ EP       1257 46.55                             145    0.3910 92.9 172 
 RUS  HN ES       1258  3.92                             145    0.1710 92.9 172 
 PTB  HZ EP       1257 49.18                             132   -0.23 9  141 262 
 PTB  HN ES       1258  9.41                             132   -0.11 9  141 262 
 PTB  HN I        1258 14.89         7.2 0.38                           141 262 
                                                                                
