 2013  331 1655 30.6 L   6.767 -73.181151.2  RSN  4 0.4 1.9LRSN                1
 GAP=231        0.93       9.0     7.7  8.2  0.3160E+02  0.9976E+01  0.2835E+01E
 Epicentro: LOS SANTOS - SANTANDER                                             3
 ACTION:UPD 13-04-09 14:06 OP:ep   STATUS:               ID:20130331165530 L   I
 2013-03-31-1650-00M.COL___245                                                 6
 STAT SP IPHASW D HRMM SECON CODA AMPLIT PERI AZIMU VELO AIN AR TRES W  DIS CAZ7
 BAR2 SZ ES       1656  5.97                             172   -0.6210 19.3 180 
 BAR2 SZ I        1656  6.99        15.3 0.34            166           19.3 180 
 BRR  HZ EP       1655 52.31                             154    0.0510 69.7 303 
 BRR  HN ES   1   1656  9.84                             154    0.68 7 69.7 303 
 BRR  HN I        1656 10.20        18.8 0.28            151           69.7 303 
 RUS  HZ EP       1655 54.83                             146    0.1710 97.3 174 
 RUS  HN ES   1   1656 13.92                             146    0.49 7 97.3 174 
 RUS  HN I        1656 14.67         7.0 0.44            144           97.3 174 
 PTB  HZ EP       1655 57.37                             134   -0.25 9  143 260 
 PTB  HN ES       1656 18.64                             134   -0.05 9  143 260 
 PTB  HN I        1656 24.05        16.1 0.26            131            143 260 
                                                                                
