 2014  331 1053 33.3 L   6.788 -73.154135.8  RSN  5 0.3 1.4LRSN                1
 GAP=136        0.64       4.5     3.6  8.5 -0.5651E+01  0.1181E+02 -0.1276E+02E
 Epicentro: LOS SANTOS - SANTANDER                                             3
 ACTION:UPD 14-04-09 23:22 OP:nd   STATUS:               ID:20140331105333 L   I
 OLDACT:REG 14-03-31 16:00 OP:cam  STATUS:               ID:20140331104814     3
 2014-03-31-1048-14M.COL___237                                                 6
 STAT SP IPHASW D HRMM SECON CODA AMPLIT PERI AZIMU VELO AIN AR TRES W  DIS CAZ7
 BAR2 SZ EP   2   1053 51.56                             170   -0.11 5 21.9 188 
 BAR2 SZ ES   1   1054  5.94                             170   -0.08 7 21.9 188 
 BAR2 SZ I        1054  7.15         9.4 0.38            173           21.9 188 
 PAM  SZ EP       1053 54.43                             148   -0.1010 79.0  39 
 PAM  SE ES       1054 11.12                             148    0.0010 79.0  39 
 PAM  SZ I        1054 13.30         4.7 0.46            148           79.0  39 
 RUS  HN ES   1   1054 14.01                             142    0.36 7 99.3 175 
 PTB  HZ EP   4   1053 58.51                             130   -0.82 0  147 259 
 PTB  HN ES       1054 19.32                             130   -0.34 9  147 259 
 PTB  HZ I        1054 22.22         1.8 0.24            130            147 259 
 ZAR  HZ EP   4   1054  7.27                             120    2.22 0  204 293 
 ZAR  HN ES   1   1054 30.48                             120    0.65 6  204 293 
 ZAR  HZ I        1054 36.24         2.8 0.30            120            204 293 
                                                                                
