 2011 1231 1012 26.0 L   6.706 -73.193143.5  RSN  4 0.3 1.3LRSN                1
 GAP=227        0.56       9.6     6.6  6.8  0.3290E+02  0.1136E+02  0.1038E+02E
 Epicentro: VILLANUEVA - SANTANDER                                             3
 ACTION:UPD 12-07-13 16:19 OP:ep   STATUS:               ID:20111231101226 L   I
 2011-12-31-1010-00M.COL___185                                                 6
 STAT SP IPHASW D HRMM SECON CODA AMPLIT PERI AZIMU VELO AIN AR TRES W  DIS CAZ7
 BAR2 SZ EP   1   1012 45.44                             175    0.24 7 12.7 175 
 BAR2 SZ ES   2   1013  0.29                             175    0.12 5 12.7 175 
 BAR2 SZ I        1013  1.49         4.0 0.18                          12.7 175 
 BRR  HZ EP   1   1012 46.42                             152   -0.57 7 72.4 308 
 BRR  HN ES   1   1013  3.38                             152    0.03 7 72.4 308 
 BRR  HZ I        1013  7.53         4.1 0.12                          72.4 308 
 PTB  HZ EP   1   1012 52.09                             133   -0.08 7  141 263 
 PTB  HN ES   2   1013 12.42                             133   -0.16 5  141 263 
 ZAR  HZ EP   1   1012 58.64                             122    0.40 6  203 295 
 ZAR  HE ES   1   1013 23.49                             122    0.11 6  203 295 
 ZAR  HZ I        1013 29.80         1.6 0.15                           203 295 
                                                                                
