 2013  331 1311  0.4 L   6.683 -73.198152.0  RSN  5 0.3 2.0LRSN                1
 GAP=221        0.66       5.4     5.0  5.6  0.1410E+02  0.6716E+01 -0.6050E+00E
 Epicentro: VILLANUEVA - SANTANDER                                             3
 ACTION:UPD 13-04-09 14:06 OP:ep   STATUS:               ID:20130331131100 L   I
 2013-03-31-1310-00M.COL___245                                                 6
 STAT SP IPHASW D HRMM SECON CODA AMPLIT PERI AZIMU VELO AIN AR TRES W  DIS CAZ7
 BAR2 SZ EP       1311 20.31                             176   -0.2710 10.2 170 
 BAR2 SZ ES       1311 36.12                             176   -0.2110 10.2 170 
 BAR2 SZ I        1311 36.34        14.1 0.18            178           10.2 170 
 BRR  HZ EP   1   1311 22.58                             153    0.24 7 73.7 310 
 BRR  HN ES       1311 39.60                             153    0.1310 73.7 310 
 BRR  HN I        1311 43.22        14.9 0.18            152           73.7 310 
 RUS  HZ EP   2   1311 24.26                             149    0.33 5 88.3 172 
 RUS  HN ES       1311 42.63                             149    0.3310 88.3 172 
 RUS  HN I        1311 43.99        16.0 0.28            151           88.3 172 
 PTB  HZ EP       1311 26.83                             135   -0.36 9  140 264 
 PTB  HN ES       1311 47.95                             135   -0.15 9  140 264 
 PTB  HN I        1311 48.32        14.2 0.84            136            140 264 
 ZAR  HZ EP   2   1311 33.55                             124    0.31 4  204 296 
 ZAR  HE ES   1   1311 59.36                             124    0.49 6  204 296 
 ZAR  HE I        1312  1.33        16.5 0.16            125            204 296 
                                                                                
