 2013  831 1755 58.4 L   6.754 -73.171139.4  RSN  9 0.5 2.1LRSN                1
 GAP=231        1.28       5.4     6.7  7.7  0.1345E+02  0.1661E+02  0.1274E+02E
 Epicentro: VILLANUEVA - SANTANDER                                             3
 ACTION:UPD 14-01-14 09:08 OP:ep   STATUS:               ID:20130831175558 L   I
 OLDACT:DUP 13-08-31 18:39 OP:nd   STATUS:               ID:20130831174960d    3
 2013-08-31-1749-59M.COL___269                                                 6
 STAT SP IPHASW D HRMM SECON CODA AMPLIT PERI AZIMU VELO AIN AR TRES W  DIS CAZ7
 BAR2 SZ EP     D 1756 17.04                             172   -0.1110 17.9 184 
 BAR2 SZ ES       1756 31.23                             172   -0.5610 17.9 184 
 BAR2 SZ I        1756 33.10        21.2 0.30            167           17.9 184 
 BRR  HZ IP     C 1756 18.86                             151   -0.0110 71.4 303 
 BRR  HN ES       1756 35.71                             151    0.8710 71.4 303 
 BRR  HZ I        1756 39.11        20.9 0.36            149           71.4 303 
 RUS  HZ EP       1756 21.05                             144   -0.1110 95.7 174 
 RUS  HN ES       1756 39.48                             144    0.5510 95.7 174 
 RUS  HZ I        1756 41.51        13.8 0.30            144           95.7 174 
 PTB  HZ EP       1756 23.87                             131   -0.64 9  144 261 
 PTB  HN ES       1756 44.09                             131   -0.80 9  144 261 
 PTB  HZ I        1756 48.55        13.4 0.14            130            144 261 
 ZAR  HZ EP       1756 31.27                             121    0.90 9  204 294 
 ZAR  HN ES       1756 54.87                             121   -0.45 9  204 294 
 ZAR  HZ I        1757  1.22        14.5 0.34            122            204 294 
 NOR  HZ EP       1756 33.13                             118   -0.06 8  230 235 
 NOR  HN ES       1757  1.12                             118    0.78 8  230 235 
 NOR  HZ I        1757  6.15         9.8 0.16            118            230 235 
 CHI  HZ EP       1756 34.86                             116   -0.26 8  243 195 
 CHI  HN ES       1757  3.60                             116   -0.18 8  243 195 
 CHI  HZ I        1757  8.50         4.6 0.34            117            243 195 
 GUY2CHZ EP   4   1756 41.43                             111    0.31 0  296 235 
 GUY2CHN ES   4   1757 16.85                             111    2.40 0  296 235 
 GUY2CHZ I        1757 23.60         6.1 0.68                           296 235 
 PRA  HZ EP       1756 51.08                             106    0.07 6  386 210 
 PRA  HN ES       1757 32.35                             106    0.29 6  386 210 
 PRA  HZ I        1757 39.22         7.8 0.28            107            386 210 
                                                                                
