 2010  831 1043 39.5 L   6.857 -73.006149.2  RSN  4 0.2 1.7LRSN                1
 GAP=255        0.38       5.5     8.3  5.4  0.1322E+02  0.1498E+01  0.9630E+01E
 Epicentro: CEPITA - SANTANDER                                                 3
 ACTION:UP  10-09-07 10:59 OP:vdl  STATUS:               ID:20100831104339 L   I
 2010-08-31-1039-58S.COL___120                                                 6
 STAT SP IPHASW D HRMM SECON CODA AMPLIT PERI AZIMU VELO SNR AR TRES W  DIS CAZ7
 BAR2 SZ EP   1   1044  0.06                             166     0.2 7   35 214 
 BAR2 SZ ES   1   1044 15.56                             166    -0.2 7   35 214 
 BAR2 SZ I        1044 16.77         9.4 0.30                            35 214 
 BRR  HN ES   2   1044 19.03                             149     0.0 5   83 290 
 RUS  HZ EP   2   1044  3.93                             143    -0.1 5  107 185 
 RUS  HN ES   2   1044 23.30                             143     0.1 5  107 185 
 PRA  HZ EP   2   1044 34.33                             106    -0.4 3  405 211 
 PRA  HN ES   2   1045 17.88                             106     0.1 3  405 211 
 PRA  HZ I        1045 20.41         1.3 0.60                           405 211 
                                                                                
