 2012  531 1038 29.1 L   6.812 -73.183140.0  RSN  6 0.2 1.9LRSN                1
 GAP=131        0.52       2.4     2.6  4.1 -0.2811E+00  0.4093E+01 -0.1327E+01E
 Epicentro: ZAPATOCA - SANTANDER                                               3
 ACTION:UP  12-07-05 12:09 OP:pat  STATUS:               ID:20120531103827 L   I
 2012-05-31-1030-00M.COL___200                                                 6
 STAT SP IPHASW D HRMM SECON CODA AMPLIT PERI AZIMU VELO AIN AR TRES W  DIS CAZ7
 BAR2 SZ EP       1038 48.04                             170     0.010   24 180 
 BAR2 SZ ES       1039  2.89                             170     0.110   24 180 
 BAR2 SZ I        1039  3.81        20.3 0.30                            24 180 
 PAM  SZ EP       1038 50.98                             149     0.210   79  42 
 PAM  SN ES       1039  7.73                             149     0.010   79  42 
 RUS  HZ EP       1038 52.36                             142     0.010  102 174 
 RUS  HE ES   1   1039 10.44                             142    -0.1 7  102 174 
 RUS  HZ I        1039 11.57         5.9 0.33                           102 174 
 PTB  HZ EP       1038 54.98                             131    -0.2 9  144 258 
 PTB  HE ES   1   1039 15.55                             131    -0.1 7  144 258 
 PTB  HZ I        1039 19.31         5.3 0.20                           144 258 
 OCA  HZ EP   1   1038 56.76                             129     0.0 7  158 355 
 OCA  HN ES   1   1039 17.88                             129    -0.5 7  158 355 
 OCA  HZ I        1039 21.52        23.9 0.42                           158 355 
 ZAR  HZ EP       1039  0.83                             122     0.1 9  200 292 
 ZAR  HN ES       1039 25.58                             122     0.2 9  200 292 
 ZAR  HZ I        1039 32.29         9.9 0.40                           200 292 
                                                                                
