 2010  831 1455  1.0 L   6.902 -73.413113.1  RSN  4 0.5 1.2LRSN                1
 GAP=143        1.39      12.4    20.6 16.3  0.9549E+02 -0.1618E+03 -0.6601E+02E
 Epicentro: SAN VICENTE DE CHUCURI - SANTANDER                                 3
 ACTION:UP  10-09-07 10:59 OP:vdl  STATUS:               ID:20100831145501 L   I
 2010-08-31-1451-34S.COL___120                                                 6
 STAT SP IPHASW D HRMM SECON CODA AMPLIT PERI AZIMU VELO SNR AR TRES W  DIS CAZ7
 BRR  HZ EP   1   1455 18.00                             159     1.0 8   40 305 
 BRR  HZ I        1455 23.19         5.8 0.36                            40 305 
 BRR  HN ES   1   1455 28.78                             159    -0.6 8   40 305 
 BAR2 SZ EP   1   1455 17.45                             158     0.0 8   43 144 
 BAR2 SZ ES   1   1455 30.64                             158     0.4 8   43 144 
 BAR2 SZ I        1455 31.95        13.9 0.31                            43 144 
 GUE  SZ IP       1455 22.74                             131    -0.110  116  28 
 GUE  SZ I        1455 23.08         2.5 0.05                           116  28 
 RUS  HZ EP   1   1455 22.71                             131    -0.5 7  117 162 
 RUS  HZ I        1455 22.87         1.2 0.40                           117 162 
                                                                                
