 2011  831 1245  1.5 L   6.868 -73.276120.7  RSN 10 0.2 2.5LRSN                1
 GAP=140        0.45       2.0     2.9  3.3  0.1083E+01  0.3177E+01  0.1744E+01E
 Epicentro: BETULIA - SANTANDER                                                3
 ACTION:UPD 12-07-13 15:54 OP:ep   STATUS:               ID:20110831124501 L   I
 2011-08-31-1242-23S.COL___164                                                 6
 STAT SP IPHASW D HRMM SECON CODA AMPLIT PERI AZIMU VELO AIN AR TRES W  DIS CAZ7
 GIR2 SZ EP       1245 18.13                             168    0.1410 25.0  21 
 GIR2 SZ ES   1   1245 30.54                             168   -0.34 7 25.0  21 
 BAR2 SZ EP       1245 18.52                             164    0.1710 32.3 161 
 BAR2 SZ I        1245 18.79       201.7 0.14                          32.3 161 
 BAR2 SZ ES   1   1245 31.53                             164    0.01 7 32.3 161 
 BRR  HZ EP       1245 18.90                             154   -0.1010 54.9 299 
 BRR  HN ES   1   1245 33.08                             154    0.42 7 54.9 299 
 BRR  HZ I        1245 33.77        62.0 0.12                          54.9 299 
 RUS  HZ EP   1   1245 23.54                             135   -0.10 7  110 169 
 RUS  HE ES   1   1245 40.90                             135   -0.03 7  110 169 
 RUS  HZ I        1245 43.11        26.1 0.32                           110 169 
 OCA  SZ EP   2   1245 27.29                             125    0.20 5  152 358 
 OCA  SZ ES   1   1245 46.73                             125   -0.34 7  152 358 
 OCA  SZ I        1245 48.29        97.9 0.33                           152 358 
 ZAR  HZ EP   2   1245 30.96                             119    0.29 4  188 292 
 ZAR  HE ES   1   1245 53.34                             119   -0.10 7  188 292 
 ZAR  HZ I        1245 58.60        28.6 0.34                           188 292 
 NOR  SZ EP   1   1245 35.22                             113    0.11 6  228 231 
 NOR  SN ES   1   1246  1.04                             113   -0.31 6  228 231 
 CHI  HZ EP   1   1245 38.57                             111    0.20 6  253 192 
 CHI  HZ I        1245 39.09        10.8 0.19                           253 192 
 PRA  HZ EP   2   1245 53.55                             102   -0.67 3  392 207 
 SJA  SZ EP   1   1245 55.77                             101   -0.06 4  405 191 
 SJA  SZ I        1246 47.35        14.5 0.46                           405 191 
                                                                                
