 2013  731 1140 35.8 L   6.038 -73.678115.5  RSN  8 0.2 2.0LRSN                1
 GAP=122        0.58       2.4     2.1  4.5 -0.9076E+00  0.1522E+01 -0.1549E+01E
 Epicentro: VELEZ - SANTANDER                                                  3
 ACTION:UPD 13-08-12 10:41 OP:ep   STATUS:               ID:20130731114035 L   I
 OLDACT:UP  13-07-31 16:20 OP:cam  STATUS:               ID:20130731113959     3
 OLDACT:REG 13-07-31 14:52 OP:cam  STATUS:               ID:20130731113959     3
 2013-07-31-1139-59M.COL___266                                                 6
 STAT SP IPHASW D HRMM SECON CODA AMPLIT PERI AZIMU VELO AIN AR TRES W  DIS CAZ7
 SPBC HZ EP       1140 53.04                             150   -0.1910 61.1 226 
 SPBC HN ES       1141  6.86                             150    0.0210 61.1 226 
 RUS  HZ EP       1140 54.27                             148    0.0410 67.8 104 
 RUS  HN ES   1   1141  8.44                             148   -0.18 7 67.8 104 
 RUS  HZ I        1141 10.18        11.8 0.28            133           67.8 104 
 BAR2 SZ EP       1140 55.08                             142    0.2010 82.2  42 
 BAR2 SZ ES       1141  9.78                             142    0.0110 82.2  42 
 BAR2 SZ I        1141 11.17        55.5 0.20            127           82.2  42 
 PTB  HN ES       1141 11.90                             135   -0.2210  102 303 
 PTB  HZ I        1141 12.43        15.4 0.10            124            102 303 
 BRR  HN ES   1   1141 15.11                             131    0.52 7  118 358 
 GIR2 SZ EP   1   1140 58.21                             129   -0.38 7  127  25 
 GIR2 SZ I        1141 17.25        11.9 0.24            115            127  25 
 NOR  HZ EP       1140 59.92                             125   -0.02 9  142 248 
 NOR  HN ES       1141 19.07                             125    0.29 9  142 248 
 NOR  HZ I        1141 20.47        21.5 0.18            115            142 248 
 ZAR  HZ EP   1   1141  7.11                             114    0.32 6  207 321 
 ZAR  HE ES       1141 30.67                             114   -0.30 8  207 321 
 ZAR  HZ I        1141 35.06        14.3 0.36            106            207 321 
                                                                                
