 2012  731 1234 53.1 L   6.799 -73.127154.2  RSN  5 0.3 1.3LRSN                1
 GAP=139        0.50       7.8     9.4 11.0  0.3738E+02 -0.8515E+01  0.2722E+02E
 Epicentro: LOS SANTOS - SANTANDER                                             3
 ACTION:UPD 12-08-14 11:46 OP:ep   STATUS:               ID:20120731123453 L   I
 2012-07-31-1230-00M.COL___209                                                 6
 STAT SP IPHASW D HRMM SECON CODA AMPLIT PERI AZIMU VELO AIN AR TRES W  DIS CAZ7
 BAR2 SZ EP       1235 13.58                             171    -0.210   24 195 
 BAR2 SZ I        1235 13.83         4.2 0.52            161             24 195 
 BRR  HZ EP       1235 15.34                             153     0.110   73 298 
 BRR  HZ I        1235 15.75         7.1 0.34            148             73 298 
 BRR  HN ES   2   1235 32.87                             153     0.3 5   73 298 
 PAM  SN ES   3   1235 33.79                             153    -0.3 2   76  38 
 RUS  HZ EP       1235 17.79                             145     0.110  100 177 
 RUS  HZ I        1235 18.86         1.8 0.48            141            100 177 
 RUS  HE ES   3   1235 37.01                             145     0.2 2  100 177 
 PTB  HZ EP   3   1235 20.93                             133     0.0 2  150 259 
 PTB  HN ES   3   1235 41.53                             133    -1.1 2  150 259 
 PTB  HZ I        1235 47.46         2.8 0.26            128            150 259 
