 2011  831 1512 45.3 L   6.758 -73.094144.4  RSN  4 0.2 1.7LRSN                1
 GAP=196        0.50       5.9    11.1  5.6  0.4536E+02  0.1096E+01  0.4632E+01E
 Epicentro: LOS SANTOS - SANTANDER                                             3
 ACTION:UPD 12-07-13 15:54 OP:ep   STATUS:               ID:20110831151245 L   I
 2011-08-31-1509-06S.COL___165                                                 6
 STAT SP IPHASW D HRMM SECON CODA AMPLIT PERI AZIMU VELO AIN AR TRES W  DIS CAZ7
 BAR2 SZ EP   1   1513  4.67                             171   -0.08 7 20.8 208 
 BAR2 SZ ES   1   1513 19.59                             171   -0.30 7 20.8 208 
 BAR2 SZ I        1513 21.09        12.0 0.20                          20.8 208 
 GIR2 SZ ES   1   1513 20.54                             165    0.18 7 37.1 343 
 BRR  HZ EP   1   1513  6.45                             150   -0.31 7 78.4 300 
 BRR  HE ES   1   1513 23.66                             150    0.20 7 78.4 300 
 BRR  HZ I        1513 25.42        17.6 0.48                          78.4 300 
 RUS  HZ EP   1   1513  8.90                             145    0.30 7 95.7 179 
 RUS  HN ES   1   1513 26.75                             145    0.00 7 95.7 179 
 RUS  HZ I        1513 28.60         5.8 0.31                          95.7 179 
                                                                                
