 2015  731 1113 52.7 L   6.497 -73.359129.7  RSN  4 0.1 1.9LRSN                1
 GAP=212        0.37      11.9     5.5  6.0  0.6024E+02  0.1994E+02  0.5146E+02E
 Epicentro: SIMACOTA - SANTANDER                                               3
 ACTION:UPD 15-09-08 21:51 OP:cam  STATUS:               ID:20150731111352 L   I
 OLDACT:REG 15-07-31 20:19 OP:stll STATUS:               ID:20150731110746     3
 2015-07-31-1107-46M.COL___340                                                 6
 STAT SP IPHASW D HRMM SECON CODA AMPLIT PERI AZIMU VELO AIN AR TRES W  DIS CAZ7
 BAR2 EZ EP       1114 10.34                             170   -0.0010 22.2  62 
 BAR2 EZ I        1114 26.72         7.8 0.14             56           22.2  62 
 BRR  HZ IP     C 1114 12.41                             147   -0.1310 78.0 330 
 BRR  HZ I        1114 12.56        41.6 0.14             91           78.0 330 
 BRR  HN ES       1114 28.11                             147    0.0710 78.0 330 
 TAM  HZ EP       1114 20.96                             123   -0.00 9  174  92 
 TAM  HZ I        1114 21.33        19.1 0.46             56            174  92 
 ZAR  HZ EP       1114 23.75                             119    0.18 9  199 304 
 ZAR  HE ES       1114 47.57                             119   -0.10 9  199 304 
 ZAR  HZ I        1114 53.20         6.3 0.34             56            199 304 
                                                                                
