 2013 1231 1748 43.9 L   6.807 -73.149145.9  RSN 14 0.4 2.5LRSN                1
 GAP= 71        0.80       2.1     2.7  4.1 -0.2746E+00  0.3518E+01  0.2487E+00E
 Epicentro: LOS SANTOS - SANTANDER                                             3
 ACTION:UPD 14-01-13 10:22 OP:ep   STATUS:               ID:20131231174843 L   I
 OLDACT:REG 13-12-31 19:05 OP:mh   STATUS:               ID:20131231174738     3
 2013-12-31-1747-38M.COL___240                                                 6
 STAT SP IPHASW D HRMM SECON CODA AMPLIT PERI AZIMU VELO AIN AR TRES W  DIS CAZ7
 BAR2 SZ IP     C 1749  3.62                             170    0.0910 24.0 189 
 BAR2 SZ ES       1749 18.81                             170   -0.0510 24.0 189 
 BAR2 SZ I        1749 20.17       111.6 0.28            168           24.0 189 
 BRR  HZ IP     D 1749  5.48                             153    0.4910 70.5 298 
 BRR  HN ES       1749 21.89                             153    0.4210 70.5 298 
 BRR  HZ I        1749 26.72        42.1 0.37            148           70.5 298 
 PAM  SZ IP     C 1749  6.50                             151    0.4210 77.0  40 
 PAM  SN ES       1749 23.48                             151    0.0810 77.0  40 
 PAM  SZ I        1749 25.82       114.3 0.47            148           77.0  40 
 RUS  HZ IP     D 1749  7.46                             144   -0.2310  101 176 
 RUS  HN ES       1749 26.14                             144   -0.1310  101 176 
 RUS  HZ I        1749 27.90        30.3 0.43            139            101 176 
 PTB  HZ EP       1749 10.29                             132   -0.53 9  148 259 
 PTB  HZ I        1749 39.29        38.3 0.16            127            148 259 
 TAM  HZ EP   1   1749 11.81                             130    0.20 7  156 105 
 TAM  HZ I        1749 32.64        19.4 0.38            126            156 105 
 TAM  HN ES       1749 33.23                             130   -0.02 9  156 105 
 OCA  HZ EP       1749 11.89                             130   -0.22 9  159 353 
 OCA  HN ES       1749 33.70                             130   -0.44 9  159 353 
 OCA  HZ I        1749 39.60        39.4 0.25            125            159 353 
 SPBC HZ EP       1749 12.53                             129    0.12 9  164 219 
 SPBC HN ES       1749 34.32                             129   -0.35 9  164 219 
 SPBC HZ I        1749 40.69        62.1 0.24            124            164 219 
 ZAR  HZ EP       1749 16.19                             122   -0.06 9  203 292 
 ZAR  HN ES   2   1749 41.76                             122    0.24 4  203 292 
 ZAR  HZ I        1749 48.26        34.0 0.21            118            203 292 
 NOR  HZ EP       1749 19.64                             118    0.02 8  235 234 
 NOR  HN ES   2   1749 47.34                             118   -0.16 4  235 234 
 NOR  HZ I        1749 54.49        30.1 0.19            114            235 234 
 SML  HZ EP       1749 20.50                             118    0.09 8  243 335 
 SML  HN ES       1749 48.28                             118   -0.63 8  243 335 
 SML  HZ I        1749 51.81        58.8 0.09            113            243 335 
 CHI  HZ EP       1749 21.45                             117   -0.19 8  249 195 
 CHI  HN ES       1749 50.91                             117   -0.19 8  249 195 
 CHI  HZ I        1749 55.14        13.9 0.32            113            249 195 
 ROSC BZ EP   4   1749 23.43                             117    1.39 0  253 211 
 ROSC BN ES   4   1749 54.32                             117    2.50 0  253 211 
 HEL  HZ EP   1   1749 25.36                             115    1.30 6  272 256 
 HEL  HN ES       1749 55.71                             115    0.29 8  272 256 
 HEL  HZ I        1750  2.49        20.6 0.29            111            272 256 
 GUY2CHZ EP   1   1749 27.65                             112    0.16 5  301 235 
 GUY2CHN ES   4   1750  4.43                             112    2.91 0  301 235 
 SDV  BZ EP   4   1749 32.94                             108   -0.95 0  360  50 
 SDV  BN ES   4   1750  9.60                             108   -3.31 0  360  50 
                                                                                
