 2012 1231 1902 34.7 L   6.796 -73.126142.8  RSN  8 0.5 2.9LRSN                1
 GAP=185        1.31       5.5     7.2  7.8  0.2582E+01  0.8891E+01  0.2824E+01E
 Epicentro: LOS SANTOS - SANTANDER                                             3
 ACTION:UPD 13-01-04 14:31 OP:ep   STATUS:               ID:20121231190234 L   I
 2012-12-31-1900-00M.COL___239                                                 6
 STAT SP IPHASW D HRMM SECON CODA AMPLIT PERI AZIMU VELO AIN AR TRES W  DIS CAZ7
 BAR2 SZ IP       19 2 54.13                             170    0.1410 23.4 195 
 BAR2 SZ ES       19 3  8.94                             170   -0.0910 23.4 195 
 BAR2 SZ I        19 3 10.39       201.0 0.24                          23.4 195 
 BRR  HZ IP       19 2 55.98                             151    0.3110 73.3 298 
 BRR  HN ES       19 3 12.82                             151    0.8110 73.3 298 
 BRR  HN I        19 3 13.28       173.1 0.16                          73.3 298 
 RUS  HZ EP       19 2 58.06                             143   -0.0810  100 177 
 RUS  HN ES       19 3 16.33                             143   -0.0710  100 177 
 PTB  HZ EP       19 3  0.88                             131   -0.76 9  150 259 
 PTB  HN ES       19 3 21.58                             131   -1.05 9  150 259 
 OCA  HZ EP       19 3  2.36                             129   -0.51 9  161 352 
 OCA  HN I        19 3 29.04       260.6 0.24                           161 352 
 NOR  HZ EP       19 3 10.46                             118    0.01 8  236 235 
 NOR  HN ES       19 3 38.64                             118    0.33 8  236 235 
 NOR  HN I        19 3 45.61        77.5 0.18                           236 235 
 CHI  HZ EP       19 3 12.47                             117    0.20 8  249 196 
 CHI  HN ES       19 3 41.52                             117   -0.04 8  249 196 
 CHI  HN I        19 3 47.81        33.9 0.40                           249 196 
 HEL  HZ EP       19 3 16.17                             114    1.16 8  274 256 
 HEL  HN I        19 3 53.46        13.3 0.28                           274 256 
                                                                                
