 2012 1231 1345 45.8 L   6.796 -73.145151.6  RSN  6 0.5 2.3LRSN                1
 GAP=183        1.28       5.0     8.7  9.1  0.7792E+01  0.5233E+01  0.9025E+01E
 Epicentro: LOS SANTOS - SANTANDER                                             3
 ACTION:UPD 13-01-04 14:31 OP:ep   STATUS:               ID:20121231134545 L   I
 2012-12-31-1340-00M.COL___239                                                 6
 STAT SP IPHASW D HRMM SECON CODA AMPLIT PERI AZIMU VELO AIN AR TRES W  DIS CAZ7
 BAR2 SZ EP       1346  6.14                             171    0.0310 22.9 190 
 BAR2 SZ ES       1346 22.22                             171    0.2510 22.9 190 
 BAR2 SZ I        1346 22.89        20.0 0.62                          22.9 190 
 BRR  HZ EP       1346  8.01                             153    0.4310 71.5 299 
 BRR  HN ES       1346 25.50                             153    0.9110 71.5 299 
 BRR  HN I        1346 26.09        47.1 0.18                          71.5 299 
 RUS  HZ EP       1346 10.15                             145    0.0710  100 176 
 RUS  HN ES       1346 28.35                             145   -0.6910  100 176 
 PTB  HZ EP       1346 12.95                             133   -0.28 9  148 259 
 PTB  HN ES       1346 34.03                             133   -0.61 9  148 259 
 PTB  HN I        1346 39.73        41.2 0.30                           148 259 
 OCA  HN ES       1346 36.38                             131   -0.70 9  161 353 
 CHI  HZ EP       1346 24.29                             118    0.52 8  248 195 
 CHI  HN ES       1346 53.44                             118    0.05 8  248 195 
 CHI  HN I        1347  0.24         8.5 0.48                           248 195 
                                                                                
