 2013  731 1307 49.7 L   6.805 -73.136151.1  RSN  9 0.3 2.3LRSN                1
 GAP=137        0.68       2.4     3.4  4.1 -0.1138E+01  0.1718E+01  0.4463E+00E
 Epicentro: LOS SANTOS - SANTANDER                                             3
 ACTION:UPD 13-08-12 10:41 OP:ep   STATUS:               ID:20130731130749 L   I
 OLDACT:UP  13-07-31 17:03 OP:cam  STATUS:               ID:20130731125959     3
 OLDACT:REG 13-07-31 14:56 OP:cam  STATUS:               ID:20130731125959     3
 2013-07-31-1259-59M.COL___267                                                 6
 STAT SP IPHASW D HRMM SECON CODA AMPLIT PERI AZIMU VELO AIN AR TRES W  DIS CAZ7
 BAR2 SZ EP       13 8  9.84                             171   -0.1310 24.1 192 
 BAR2 SZ I        13 8 26.57        35.7 0.18            169           24.1 192 
 GIR2 SZ EP       13 8  9.99                             168    0.0110 30.9 348 
 GIR2 SZ ES       13 8 25.76                             168   -0.0510 30.9 348 
 GIR2 SZ I        13 8 27.21        38.0 0.35            168           30.9 348 
 BRR  HZ EP       13 8 11.59                             153    0.1410 71.8 298 
 BRR  HN ES       13 8 28.82                             153    0.4010 71.8 298 
 BRR  HZ I        13 8 29.34        36.4 0.10            155           71.8 298 
 PAM  SZ EP       13 8 12.99                             152    0.5910 76.3  39 
 PAM  SN ES   1   13 8 29.84                             152   -0.28 7 76.3  39 
 PAM  SZ I        13 8 32.01        45.5 0.48            149           76.3  39 
 RUS  HZ EP       13 8 13.92                             145   -0.0810  101 177 
 RUS  HE ES       13 8 32.74                             145   -0.2210  101 177 
 RUS  HZ I        13 8 33.77        17.8 0.32            142            101 177 
 PTB  HZ EP       13 8 17.27                             133    0.08 9  149 259 
 PTB  HN ES       13 8 38.69                             133    0.04 9  149 259 
 PTB  HZ I        13 8 38.94        12.9 0.18            133            149 259 
 SPBC HN ES       13 8 41.15                             130   -0.18 9  164 219 
 SML  HZ EP       13 8 26.23                             119   -0.38 8  244 335 
 SML  HE ES       13 8 54.92                             119   -0.48 8  244 335 
 SML  HZ I        13 8 58.20        29.7 0.10            117            244 335 
 PRA  HZ EP       13 8 43.85                             107    0.34 6  393 210 
 PRA  HN ES       13 9 25.36                             107   -0.13 6  393 210 
 PRA  HZ I        13 9 31.82         5.8 0.32            106            393 210 
                                                                                
