 2016  831 1852 54.6 L   6.895 -73.307121.7  RSN 14 0.4 2.5LRSN                1
 GAP=158        0.97       2.7     3.6  5.0 -0.5015E+00  0.5483E+01 -0.3633E+00E
 Epicentro: BETULIA - SANTANDER                                                3
 ACTION:UPD 16-10-29 15:41 OP:rebc STATUS:               ID:20160831185254 L   I
 OLDACT:UP  16-09-01 00:30 OP:dani STATUS:               ID:20160831184657     3
 OLDACT:UP  16-09-01 00:30 OP:dani STATUS:               ID:20160831184657     3
 OLDACT:REG 16-08-31 20:36 OP:edw  STATUS:               ID:20160831184657     3
 2016-08-31-1848-00M.COL___352                                                 6
 STAT SP IPHASW D HRMM SECON CODA AMPLIT PERI AZIMU VELO AIN AR TRES W  DIS CAZ7
 BAR2 EZ EP       1853 12.09                             162    0.3610 36.2 158 
 BAR2 EZ ES       1853 24.73                             162   -0.3710 36.2 158 
 BAR2 EZ I        1853 25.90       289.3 0.36                          36.2 158 
 BRR  HZ EP     C 1853 12.04                             156    0.0410 50.5 298 
 BRR  HE ES       1853 25.53                             156   -0.0410 50.5 298 
 BRR  HZ I        1853 39.56        34.1 0.14                          50.5 298 
 RUS  HZ EP       1853 17.20                             134    0.0410  114 167 
 RUS  HN ES       1853 34.45                             134   -0.3110  114 167 
 RUS  HZ I        1853 35.35        23.6 0.16                           114 167 
 PTB  HZ IP   4 C 1853 16.65                             129   -1.64 0  133 253 
 PTB  HE ES       1853 37.08                             129    0.3210  133 253 
 PTB  HZ I        1853 37.99        57.7 0.18                           133 253 
 OCA  HZ EP       1853 20.44                             126    0.46 9  149 359 
 OCA  HE ES       1853 40.22                             126    0.44 9  149 359 
 OCA  HZ I        1853 47.82        80.2 0.16                           149 359 
 SPBC HE ES       1853 41.97                             123    0.04 9  161 212 
 ZAR  HZ EP       1853 23.16                             119   -0.23 9  184 291 
 ZAR  HN ES       1853 45.69                             119   -0.16 9  184 291 
 ZAR  HZ I        1853 49.45        48.9 0.58                           184 291 
 NOR  HZ EP       1853 27.76                             114   -0.44 8  227 230 
 NOR  HE ES       1853 53.98                             114   -0.43 8  227 230 
 NOR  HZ I        1853 56.91        36.4 0.44                           227 230 
 CHI  HZ EP       1853 32.28                             111    0.49 8  255 191 
 CHI  HE ES   4   1853 58.74                             111   -2.07 0  255 191 
 CHI  HZ I        1854  5.60         6.8 0.68                           255 191 
 HEL  HZ EP       1853 32.59                             111    0.53 8  258 253 
 HEL  HE ES       1854  1.56                             111    0.27 8  258 253 
 HEL  HZ I        1854  7.09        29.4 0.54                           258 253 
 URE  HZ EP       1853 31.18                             110   -1.07 8  263 291 
 URE  HN ES   4   1854  0.07                             110   -1.56 0  263 291 
 URE  HZ I        1854  8.77        38.5 0.16                           263 291 
 GUY2CHZ EP       1853 36.39                             108    0.10 7  293 231 
 GUY2CHN ES       1854  9.21                             108    0.40 7  293 231 
 GUY2CHZ I        1854 13.58        16.4 0.60                           293 231 
 ELA  HZ EP   4   1853 41.22                             106    1.40 0  323 226 
 ELA  HZ I        1854 19.65        12.1 0.60                           323 226 
 SJC  HZ EP       1853 46.20                             102   -1.06 6  391 328 
 SJC  HN ES   4   1854 25.91                             102   -2.43 0  391 328 
 SJC  HZ I        1854 41.56         4.5 0.26                           391 328 
                                                                                
