 2010  831 1417 40.3 L   6.916 -72.908137.5  RSN  4 0.2 1.4LRSN                1
 GAP=266        0.45       9.3    18.2 10.9  0.1534E+03 -0.1530E+03 -0.7118E+02E
 Epicentro: GUACA - SANTANDER                                                  3
 ACTION:UP  10-09-07 10:59 OP:vdl  STATUS:               ID:20100831141740 L   I
 2010-08-31-1413-34S.COL___120                                                 6
 STAT SP IPHASW D HRMM SECON CODA AMPLIT PERI AZIMU VELO SNR AR TRES W  DIS CAZ7
 BAR2 SZ EP   2   1418  0.11                             160     0.4 5   47 220 
 BAR2 SZ I        1418 16.99         6.0 0.28                            47 220 
 BRR  HZ EP       1418  1.84                             144    -0.110   91 283 
 BRR  HN ES   1   1418 18.74                             144     0.0 7   91 283 
 BRR  HZ I        1418 19.66         7.0 0.37                            91 283 
 RUS  HZ EP   1   1418  4.22                             138    -0.2 7  115 190 
 RUS  HE ES   1   1418 23.12                             138     0.0 7  115 190 
 RUS  HZ I        1418 25.22         1.7 0.47                           115 190 
 CHI  HZ EP   2   1418 20.10                             113     0.3 4  269 200 
 CHI  HZ I        1418 27.40         3.2 0.36                           269 200 
                                                                                
