 2014 1031 1625 25.0 L   6.786 -73.173137.2  RSN  4 0.3 1.7LRSN                1
 GAP=142        0.72       4.8     5.6  6.8 -0.1270E+02  0.1028E+02  0.1441E+01E
 Epicentro: LOS SANTOS - SANTANDER                                             3
 ACTION:UPD 14-11-29 23:58 OP:nd   STATUS:               ID:20141031162525 L   I
 OLDACT:DUP 14-11-01 10:11 OP:mh   STATUS:               ID:20141031161747d    3
 2014-10-31-1617-46M.COL___274                                                 6
 STAT SP IPHASW D HRMM SECON CODA AMPLIT PERI AZIMU VELO AIN AR TRES W  DIS CAZ7
 BAR2 SZ EP   1   1625 43.74                             171    0.19 7 21.4 183 
 BAR2 SZ ES       1625 57.69                             171   -0.3410 21.4 183 
 BAR2 SZ I        1626  0.63        17.0 0.86            173           21.4 183 
 PAM  SZ EP       1625 46.46                             148   -0.0410 80.5  40 
 PAM  SN ES   1   1626  3.70                             148    0.41 7 80.5  40 
 PAM  SZ I        1626  5.97         8.9 0.52            151           80.5  40 
 PTB  HZ EP       1625 50.61                             131   -0.36 9  144 259 
 PTB  HN ES   1   1626 11.69                             131    0.46 7  144 259 
 PTB  HZ I        1626 14.08         7.1 0.28            133            144 259 
 CHI  HN ES       1626 31.04                             115    0.22 8  246 195 
                                                                                
