 2011  531 1849 10.3 L   7.192 -73.996108.6  RSN  5 0.7 1.7LRSN                1
 GAP=183        1.38      21.6    15.6 16.0 -0.2906E+03  0.6371E+02 -0.8932E+02E
 Epicentro: PUERTO WILCHES - SANTANDER                                         3
 ACTION:UP  11-06-29 08:57 OP:tino STATUS:               ID:20110531184910 L   I
 2011-05-31-1844-45S.COL___115                                                 6
 STAT SP IPHASW D HRMM SECON CODA AMPLIT PERI AZIMU VELO SNR AR TRES W  DIS CAZ7
 BRR  HZ EP   1   1849 24.45                             162    -1.0 8   33 107 
 BRR  HN ES   1   1849 37.06                             162    -0.2 8   33 107 
 BAR2 SZ EP   1   1849 31.73                             131     0.5 8  112 126 
 BRI  SZ EP   1   1849 33.58                             123    -0.8 8  145  66 
 GRA  SZ EP   1   1849 34.86                             121    -0.3 7  152  60 
 GRA  SZ ES       1849 55.35                             121     0.810  152  60 
 GRA  SZ I        1849 56.92         7.6 0.33                           152  60 
 HEL  HE ES   1   1850  5.46                             113     0.7 7  202 237 
                                                                                
