 2013  531 1337  6.2 L   6.793 -73.139142.9  RSN 18 0.5 2.6LRSN                1
 GAP= 49        1.27       3.3     3.2  5.1 -0.6427E+00  0.2037E+01  0.1814E+01E
 Epicentro: LOS SANTOS - SANTANDER                                             3
 ACTION:UPD 13-06-20 09:55 OP:ep   STATUS:               ID:20130531133706 L   I
 2013-05-31-1328-49M.COL___217                                                 6
 STAT SP IPHASW D HRMM SECON CODA AMPLIT PERI AZIMU VELO AIN AR TRES W  DIS CAZ7
 BAR2 SZ IP     D 1337 25.44                             171    0.0110 22.7 192 
 BAR2 SZ ES       1337 40.34                             171   -0.1310 22.7 192 
 BAR2 SZ I        1337 41.78        47.8 0.20            169           22.7 192 
 GIR2 SZ EP       1337 25.57                             167    0.0610 32.2 349 
 GIR2 SZ ES       1337 39.93                             167   -0.6810 32.2 349 
 BRR  HZ IP     C 1337 27.36                             152    0.3110 72.2 299 
 BRR  HE ES       1337 44.46                             152    1.1010 72.2 299 
 BRR  HN I        1337 48.48        92.4 0.16            151           72.2 299 
 PAM  SZ EP       1337 28.29                             150    0.2210 77.5  39 
 PAM  SN ES       1337 45.19                             150    0.0210 77.5  39 
 PAM  SE I        1337 47.02        61.7 0.56            153           77.5  39 
 RUS  HZ EP       1337 29.40                             143   -0.1710 99.8 176 
 RUS  HN ES       1337 47.94                             143    0.1110 99.8 176 
 RUS  HE I        1337 49.72        44.5 0.28            144           99.8 176 
 PTB  HZ EP       1337 32.25                             131   -0.69 9  148 259 
 PTB  HN ES       1337 53.14                             131   -0.70 9  148 259 
 PTB  HE I        1337 58.40        46.0 0.36            131            148 259 
 TAM  HZ IP     C 1337 33.70                             130    0.18 9  154 105 
 TAM  HN ES       1337 55.00                             130    0.13 9  154 105 
 OCA  HZ EP       1337 34.76                             129    0.44 9  161 353 
 YOP  SZ EP       1337 36.28                             126    0.39 9  178 153 
 ZAR  HZ EP       1337 38.79                             122    0.27 9  205 292 
 ZAR  HE ES       1338  4.42                             122    0.66 9  205 292 
 NOR  HZ EP       1337 41.86                             118    0.12 8  235 235 
 NOR  HN ES       1338  9.59                             118    0.10 8  235 235 
 NOR  HE I        1338 17.52        46.8 0.18            118            235 235 
 SML  HZ EP       1337 42.80                             117    0.07 8  245 335 
 SML  HE ES       1338 10.70                             117   -0.56 8  245 335 
 SML  HN I        1338 18.19        47.4 0.10            118            245 335 
 CHI  HZ EP       1337 43.95                             117    0.31 8  248 195 
 CHI  HN ES       1338 12.45                             117   -0.42 8  248 195 
 CHI  HE I        1338 17.82        19.3 0.46            118            248 195 
 HEL  HZ EP       1337 47.08                             114    0.80 8  273 256 
 HEL  HN ES       1338 16.12                             114   -1.46 8  273 256 
 SOCV BZ EP       1337 47.91                             112   -1.14 7  301  57 
 GUY2CHZ EP       1337 50.05                             112    0.40 7  301 235 
 SDV  BZ EP       1337 55.09                             108   -0.98 6  360  50 
 PRA  HZ EP       1337 59.95                             106    0.41 6  392 210 
 PRA  HE ES       1338 41.16                             106   -0.03 6  392 210 
 PRA  HN I        1338 47.09        10.7 0.32            107            392 210 
                                                                                
