 2011 1031 1023 12.2 L   6.596 -73.241137.2  RSN  5 0.3 1.6LRSN                1
 GAP=132        0.64       5.4     7.3  6.5  0.2670E+02  0.7252E+01 -0.4648E+00E
 Epicentro: CABRERA - SANTANDER                                                3
 ACTION:UPD 12-07-13 16:07 OP:ep   STATUS:               ID:20111031102312 L   I
 2011-10-31-1020-15S.COL___176                                                 6
 STAT SP IPHASW D HRMM SECON CODA AMPLIT PERI AZIMU VELO AIN AR TRES W  DIS CAZ7
 BAR2 SZ EP       1023 30.59                             177    0.0310 6.45  94 
 BAR2 SZ ES   1   1023 44.58                             177   -0.30 7 6.45  94 
 BAR2 SZ I        1023 45.85         8.8 0.18                          6.45  94 
 BRR  HZ EP       1023 32.79                             149    0.0310 76.9 317 
 BRR  HN ES   1   1023 49.49                             149    0.67 7 76.9 317 
 BRR  HZ I        1023 50.90         8.7 0.14                          76.9 317 
 RUS  HZ EP       1023 33.79                             148    0.1410 79.7 167 
 RUS  HN ES   1   1023 50.17                             148   -0.22 7 79.7 167 
 RUS  HZ I        1023 52.57         3.5 0.26                          79.7 167 
 OCA  SZ EP   3   1023 42.06                             124    0.07 2  182 357 
 OCA  SZ ES   2   1024  4.75                             124   -0.49 4  182 357 
 OCA  SZ I        1024  8.42         9.0 0.50                           182 357 
 ZAR  HZ EP   2   1023 44.22                             120    0.10 4  204 299 
 ZAR  HE ES   1   1024  8.51                             120   -0.52 6  204 299 
 ZAR  HZ I        1024 13.02         4.2 0.28                           204 299 
                                                                                
