 2011  331 1055 20.4 L   6.846 -73.056142.8  RSN  9 0.4 2.4LRSN                1
 GAP=143        1.06       5.7    11.5  6.4 -0.3138E+02  0.4632E+01  0.4383E+01E
 Epicentro: LOS SANTOS - SANTANDER                                             3
 ACTION:UP  11-06-16 14:36 OP:jfem STATUS:               ID:20110331105520 L   I
 2011-03-31-1052-00S.COL___138                                                 6
 STAT SP IPHASW D HRMM SECON CODA AMPLIT PERI AZIMU VELO SNR AR TRES W  DIS CAZ7
 BTL  SZ EP       1055 40.08                             169     0.310   25 289 
 BTL  SZ ES       1055 55.21                             169     0.410   25 289 
 GIR2 SZ EP       1055 39.90                             168     0.210   30 329 
 GIR2 SZ ES   2   1055 55.41                             168     0.6 5   30 329 
 BAR2 SZ IP       1055 39.77                             167    -0.110   31 207 
 BAR2 SZ ES       1055 54.69                             167    -0.410   31 207 
 BAR2 SZ I        1055 56.81        68.3 0.39                            31 207 
 GRA  SZ IP       1055 44.17                             138    -0.610  118  14 
 GRA  SZ ES       1056  3.50                             138    -0.310  118  14 
 GRA  SZ I        1056  5.63        44.0 0.29                           118  14 
 OCA  SZ EP   1   1055 48.85                             130     0.7 7  157 349 
 OCA  SZ I        1056 15.44        42.4 0.33                           157 349 
 YOP  SZ EP   1   1055 51.01                             126     0.7 7  179 157 
 YOP  SZ I        1055 53.34        23.2 0.20                           179 157 
 NOR  SZ EP       1055 56.87                             117    -0.3 8  246 235 
 CHI  HZ EP   1   1055 58.73                             116    -0.1 6  256 197 
 CHI  HN ES   2   1056 28.34                             116    -0.4 4  256 197 
 CHI  HZ I        1056 30.72         9.3 0.35                           256 197 
 DBB  SZ EP   1   1056  8.97                             108     0.1 5  349 273 
                                                                                
