 2016  831 1309 28.3 L   6.810 -73.162147.0  RSN 12 0.4 2.0LRSN                1
 GAP=134        0.87       2.6     3.4  4.4 -0.1641E+01  0.3397E+01 -0.7712E-01E
 Epicentro: LOS SANTOS - SANTANDER                                             3
 ACTION:UPD 16-10-29 15:40 OP:rebc STATUS:               ID:20160831130928 L   I
 OLDACT:UP  16-08-31 23:27 OP:edw  STATUS:               ID:20160831130740     3
 OLDACT:UP  16-08-31 23:24 OP:edw  STATUS:               ID:20160831130740     3
 OLDACT:REG 16-08-31 19:57 OP:edw  STATUS:               ID:20160831130740     3
 2016-08-31-1308-00M.COL___355                                                 6
 STAT SP IPHASW D HRMM SECON CODA AMPLIT PERI AZIMU VELO AIN AR TRES W  DIS CAZ7
 BAR2 EZ EP       13 9 48.18                             170    0.0510 24.2 185 
 BAR2 EZ ES       1310  3.60                             170    0.0310 24.2 185 
 BAR2 EZ I        1310  6.01        41.7 0.30                          24.2 185 
 BRR  HZ IP     C 13 9 49.83                             154    0.3310 69.1 298 
 BRR  HN ES       1310  6.78                             154    0.7710 69.1 298 
 PAM  EZ EP       13 9 51.04                             151    0.3410 77.7  41 
 PAM  EN ES       1310  8.12                             151   -0.0210 77.7  41 
 PAM  EZ I        1310 10.59         8.7 0.18                          77.7  41 
 RUS  HZ EP       13 9 52.01                             144   -0.2910  102 175 
 RUS  HN ES       1310 10.56                             144   -0.4310  102 175 
 RUS  HZ I        1310 12.11        13.3 0.26                           102 175 
 PTB  HZ EP       13 9 55.17                             133   -0.09 9  146 258 
 PTB  HN ES       1310 15.52                             133   -0.75 9  146 258 
 PTB  HZ I        1310 22.52         8.1 0.09                           146 258 
 SPBC HZ EP       13 9 57.17                             129    0.27 9  163 218 
 SPBC HN ES       1310 19.37                             129    0.18 9  163 218 
 SPBC HZ I        1310 23.98        17.7 0.08                           163 218 
 ZAR  HZ EP       1310  0.56                             123   -0.08 9  202 292 
 ZAR  HN ES       1310 25.65                             123   -0.19 9  202 292 
 ZAR  HZ I        1310 31.31        11.0 0.25                           202 292 
 NOR  HZ EP       1310  3.89                             119   -0.16 8  234 234 
 NOR  HN ES       1310 31.66                             119   -0.24 8  234 234 
 NOR  HZ I        1310 39.85         9.4 0.14                           234 234 
 CHI  HZ EP       1310  6.44                             117    0.27 8  249 195 
 CHI  HN ES       1310 35.54                             117   -0.14 8  249 195 
 CHI  HZ I        1310 41.86         5.6 0.33                           249 195 
 GUY2CHZ EP       1310 12.36                             113    0.46 7  300 234 
 GUY2CHN ES   2   1310 46.72                             113    0.83 4  300 234 
 GUY2CHZ I        1310 54.27         5.8 0.34                           300 234 
 LL6C HZ EP       1310 13.61                             111   -0.33 7  324 358 
 LL6C HN ES       1310 49.01                             111   -0.51 7  324 358 
 SJC  HZ EP   4   1310 22.25                             106   -1.45 0  407 327 
 SJC  HN ES   4   1311  3.64                             106   -3.25 0  407 327 
 SJC  HZ I        1311 11.35         1.5 0.13                           407 327 
                                                                                
