 2015  531 1410 12.5 L   6.835 -73.112149.8  RSN  6 0.4 1.7LRSN                1
 GAP=157        0.84       4.8     5.2  8.0 -0.1821E+01  0.5782E+01  0.5879E+01E
 Epicentro: LOS SANTOS - SANTANDER                                             3
 ACTION:UPD 15-09-10 22:08 OP:cam  STATUS:               ID:20150531141012 L   I
 OLDACT:REG 15-05-31 20:21 OP:spq  STATUS:               ID:20150531140749     3
 2015-05-31-1407-49M.COL___309                                                 6
 STAT SP IPHASW D HRMM SECON CODA AMPLIT PERI AZIMU VELO AIN AR TRES W  DIS CAZ7
 BAR2 EZ EP       1410 32.68                             169   -0.0610 28.0 196 
 BAR2 EZ ES   1   1410 47.97                             169   -0.53 7 28.0 196 
 BAR2 EZ I        1410 48.62         6.3 0.24            170           28.0 196 
 PAM  SZ EP   1   1410 35.50                             153    0.64 7 72.0  39 
 PAM  SE ES   1   1410 52.18                             153   -0.11 7 72.0  39 
 PAM  SZ I        1410 54.04         9.2 0.20            153           72.0  39 
 BRR  HZ EP     C 1410 34.36                             153    0.1610 72.8 294 
 BRR  HN ES       1410 51.57                             153    0.4710 72.8 294 
 BRR  HZ I        1410 55.14         7.7 0.08            148           72.8 294 
 OCA  HE ES   1   1411  2.34                             131   -0.58 7  157 352 
 OCA  HZ I        1411  8.96         9.2 0.32            129            157 352 
 SPBC HZ EP   1   1410 41.37                             129   -0.47 7  169 219 
 SPBC HN ES   1   1411  4.84                             129    0.14 7  169 219 
 SPBC HZ I        1411  7.09         6.7 0.22            130            169 219 
 ZAR  HN ES       1411 10.91                             123   -0.21 8  206 291 
 ZAR  HZ I        1411 16.96         6.4 0.58            122            206 291 
                                                                                
