 2012  131 1835 25.1 L   6.777 -73.161144.8  RSN  5 0.2 1.7LRSN                1
 GAP=136        0.63       3.8     4.1  6.2 -0.1020E+01  0.2274E+01 -0.2587E+01E
 Epicentro: LOS SANTOS - SANTANDER                                             3
 ACTION:UP  12-02-03 08:22 OP:REBC STATUS:               ID:20120131183525 L   I
 2012-01-31-1830-00M.COL___188                                                 6
 STAT SP IPHASW D HRMM SECON CODA AMPLIT PERI AZIMU VELO SNR AR TRES W  DIS CAZ7
 BAR2 SZ EP       1835 44.30                             172    -0.310   21 187 
 BAR2 SZ ES   2   1835 59.24                             172    -0.5 5   21 187 
 BAR2 SZ I        1836  2.38        13.4 0.32                            21 187 
 BRR  HZ EP       1835 46.39                             152     0.310   71 301 
 BRR  HE ES   1   1836  2.91                             152     0.4 7   71 301 
 BRR  HZ I        1836  9.18        15.1 0.28                            71 301 
 PAM  SZ EP       1835 47.44                             150     0.010   80  39 
 PAM  SN ES   1   1836  4.64                             150    -0.2 7   80  39 
 RUS  HZ EP   1   1835 48.69                             144     0.1 7   98 175 
 RUS  HE ES       1836  7.08                             144     0.210   98 175 
 RUS  HZ I        1836  8.40         5.6 0.31                            98 175 
 PTB  HZ EP   1   1835 51.60                             132    -0.2 7  146 260 
 PTB  HN ES   1   1836 12.34                             132    -0.3 7  146 260 
                                                                                
