 2014  131 1345 46.4 L   6.336 -73.641104.8  RSN  6 0.3 1.6LRSN                1
 GAP=101        0.84       3.0     3.5  6.3  0.1732E+01  0.3643E+01  0.5644E+01E
 Epicentro: SANTA HELENA DEL OPON - SANTANDER                                  3
 ACTION:UPD 14-03-13 10:00 OP:ep   STATUS:               ID:20140131134546 L   I
 OLDACT:DUP 14-01-31 18:24 OP:stll STATUS:               ID:20140131133819d    3
 2014-01-31-1338-18M.COL___236                                                 6
 STAT SP IPHASW D HRMM SECON CODA AMPLIT PERI AZIMU VELO AIN AR TRES W  DIS CAZ7
 BAR2 SZ EP       1346  3.17                             149    0.4010 58.1  61 
 BAR2 SZ ES       1346 16.06                             149    0.5410 58.1  61 
 BAR2 SZ I        1346 17.66        61.8 0.32            148           58.1  61 
 RUS  HZ EP       1346  4.39                             141   -0.2010 78.8 128 
 RUS  HZ I        1346  4.83         4.0 0.26            141           78.8 128 
 RUS  HN ES       1346 18.46                             141   -0.3110 78.8 128 
 BRR  HZ EP       1346  4.45                             137   -0.0010 85.6 355 
 BRR  HZ I        1346 13.63         8.6 0.36            134           85.6 355 
 BRR  HN ES       1346 18.16                             137   -0.3610 85.6 355 
 PTB  HZ EP       1346  5.30                             135    0.2110 92.9 284 
 PTB  HN ES       1346 19.59                             135   -0.0710 92.9 284 
 PTB  HZ I        1346 22.91         9.2 0.14            132           92.9 284 
 PAM  SZ EP       1346 11.09                             120   -0.39 9  152  43 
 PAM  SZ I        1346 12.67         5.5 0.16            118            152  43 
 CHI  HZ EP       1346 15.78                             114    0.39 9  189 183 
 CHI  HN ES       1346 37.77                             114   -0.22 9  189 183 
 CHI  HZ I        1346 40.97         2.7 0.22            113            189 183 
                                                                                
