 2016 1231 1035 11.4 L   6.788 -73.154136.5  RSN  4 0.5 1.1LRSN                1
 GAP=236        1.26       9.6     9.3 10.1  0.4608E+02  0.1019E+02  0.3340E+01E
 Epicentro: LOS SANTOS - SANTANDER                                             3
 ACTION:UPD 17-01-11 20:21 OP:rebc STATUS:               ID:20161231103511 L   I
 OLDACT:REG 16-12-31 20:09 OP:lv   STATUS:               ID:20161231102744     3
 2016-12-31-1028-00M.COL___362                                                 6
 STAT SP IPHASW D HRMM SECON CODA AMPLIT PERI AZIMU VELO AIN AR TRES W  DIS CAZ7
 BAR2 EZ EP       1035 29.73                             170   -0.1610 21.9 188 
 BAR2 EZ ES       1035 45.16                             170    0.8510 21.9 188 
 BAR2 EZ I        1035 45.87         4.9 0.23            169           21.9 188 
 BRR  HZ EP       1035 31.64                             151    0.0910 71.0 300 
 BRR  HE ES       1035 46.62                             151   -0.6410 71.0 300 
 RUS  HZ EP       1035 33.78                             142   -0.3810 99.3 175 
 RUS  HN ES       1035 51.63                             142   -0.2910 99.3 175 
 RUS  HZ I        1035 53.84         1.7 0.38            142           99.3 175 
 PTB  HZ EP       1035 38.23                             130    0.71 9  147 259 
 PTB  HN ES       1035 57.81                             130   -0.09 9  147 259 
                                                                                
