 2016 1231 1422 59.0 L   6.758 -73.208146.1  RSN  4 0.4 1.2LRSN                1
 GAP=226        1.00      11.0    12.3  7.9  0.1147E+03  0.1522E+02  0.1197E+01E
 Epicentro: ZAPATOCA - SANTANDER                                               3
 ACTION:UPD 17-01-11 20:21 OP:rebc STATUS:               ID:20161231142259 L   I
 OLDACT:REG 16-12-31 20:25 OP:lv   STATUS:               ID:20161231141744     3
 2016-12-31-1418-00M.COL___363                                                 6
 STAT SP IPHASW D HRMM SECON CODA AMPLIT PERI AZIMU VELO AIN AR TRES W  DIS CAZ7
 BAR2 EZ EP       1423 18.22                             172   -0.4110 18.6 171 
 BAR2 EZ ES       1423 33.56                             172   -0.3410 18.6 171 
 BAR2 EZ I        1423 34.23         3.9 0.42            167           18.6 171 
 BRR  HZ EP       1423 19.90                             154   -0.1410 67.7 305 
 BRR  HN ES       1423 37.07                             154    0.6610 67.7 305 
 BRR  HZ I        1423 38.29         2.8 0.15            150           67.7 305 
 RUS  HZ EP       1423 23.02                             145    0.4710 96.7 172 
 RUS  HE ES       1423 40.86                             145   -0.0310 96.7 172 
 RUS  HZ I        1423 41.86         2.4 0.22            143           96.7 172 
 ZAR  HZ EP       1423 31.22                             123    0.18 9  200 294 
 ZAR  HN ES       1423 55.54                             123   -0.46 9  200 294 
 ZAR  HZ I        1424  0.67         1.4 0.32            122            200 294 
                                                                                
