 2016  131 1323 37.4 L   6.784 -73.130148.8  RSN  7 0.3 1.4LRSN                1
 GAP=139        0.66       3.1     3.3  6.0  0.6659E+00  0.9362E+01  0.4258E+01E
 Epicentro: LOS SANTOS - SANTANDER                                             3
 ACTION:UPD 16-03-09 23:30 OP:cam  STATUS:               ID:20160131132337 L   I
 OLDACT:UP  16-02-01 00:24 OP:cara STATUS:               ID:20160131131760d    3
 OLDACT:UP  16-02-01 00:13 OP:cara STATUS:               ID:20160131131760d    3
 OLDACT:DUP 16-02-01 00:07 OP:cara STATUS:               ID:20160131131760d    3
 2016-01-31-1317-59S.COL___229                                                 6
 STAT SP IPHASW D HRMM SECON CODA AMPLIT PERI AZIMU VELO AIN AR TRES W  DIS CAZ7
 BAR2 EZ IP       1323 57.67                             171    0.3410 21.9 195 
 BAR2 EZ ES       1324 12.74                             171   -0.1710 21.9 195 
 BAR2 EZ I        1324 15.47         4.5 0.28            168           21.9 195 
 PAM  EN ES       1324 17.63                             151    0.1110 77.8  38 
 PAM  EZ I        1324 18.23         3.6 0.28            154           77.8  38 
 RUS  HZ EP       1324  0.80                             145   -0.4710 98.7 177 
 RUS  HN ES       1324 19.98                             145    0.0510 98.7 177 
 PTB  HZ EP       1324  4.54                             132   -0.15 9  149 260 
 PTB  HN ES       1324 25.84                             132   -0.18 9  149 260 
 ZAR  HN ES       1324 36.06                             123    0.18 8  206 292 
 NOR  HN ES       1324 41.39                             119    0.06 8  235 235 
 CHI  HE ES       1324 44.92                             118    0.41 8  247 196 
 CHI  HZ I        1324 53.09         2.7 0.62            117            247 196 
                                                                                
