 2011  531 1150 32.0 L   6.747 -73.091150.4  RSN 11 0.3 2.6LRSN                1
 GAP=177        0.60       4.1     4.6  4.4 -0.1259E+02  0.3659E+01  0.3112E+01E
 Epicentro: LOS SANTOS - SANTANDER                                             3
 ACTION:UP  11-06-29 08:57 OP:tino STATUS:               ID:20110531115032 L   I
 2011-05-31-1148-51S.COL___113                                                 6
 STAT SP IPHASW D HRMM SECON CODA AMPLIT PERI AZIMU VELO SNR AR TRES W  DIS CAZ7
 BAR2 SZ EP   1   1150 52.27                             172     0.1 7   20 211 
 BAR2 SZ ES   1   1151  7.90                             172     0.0 7   20 211 
 BAR2 SZ I        1151 10.30        95.7 0.39                            20 211 
 PAM  SZ EP   1   1150 55.03                             151     0.2 7   79  33 
 PAM  SN ES   1   1151 12.53                             151    -0.1 7   79  33 
 PAM  SZ I        1151 14.41        22.5 0.21                            79  33 
 BRR  HZ EP   1   1150 54.19                             151     0.0 7   79 300 
 BRR  HN ES   1   1151 11.83                             151     0.4 7   79 300 
 BRR  HZ I        1151 13.93        99.5 0.15                            79 300 
 BRI  SZ EP   1   1150 56.78                             141     0.1 7  112  17 
 BRI  SZ ES   1   1151 15.55                             141    -0.3 7  112  17 
 BRI  SZ I        1151 17.57        52.2 0.25                           112  17 
 GRA  SZ EP   1   1150 58.05                             137     0.0 7  130  14 
 GRA  SZ ES   1   1151 17.97                             137    -0.3 7  130  14 
 GRA  SZ I        1151 18.87        63.5 0.35                           130  14 
 OCA  SZ EP   1   1151  1.24                             129    -0.1 7  167 351 
 NOR  SZ EP   1   1151  8.13                             119    -0.1 6  236 236 
 NOR  SN ES   1   1151 36.12                             119    -0.3 6  236 236 
 NOR  SZ I        1151 40.12         9.0 0.26                           236 236 
 HEL  HZ EP   1   1151 13.18                             115     0.2 6  277 257 
 HEL  HN ES   1   1151 44.88                             115     0.0 6  277 257 
 HEL  HZ I        1151 49.59        22.0 0.23                           277 257 
 GUY  SZ EP   1   1151 16.96                             113     0.6 5  305 237 
 GUY  SZ I        1151 58.80        56.3 0.39                           305 237 
 DBB  SZ EP   1   1151 19.91                             110    -0.5 5  346 275 
 PRA  HZ EP   1   1151 25.70                             107     0.2 4  390 211 
 PRA  HN ES   1   1152  6.54                             107    -0.6 4  390 211 
 PRA  HZ I        1152 17.92        50.7 0.21                           390 211 
                                                                                
