 2010 1231 1918 29.3 L   6.819 -73.131133.9  RSN  4 0.1 1.9LRSN                1
 GAP=160        0.33       2.8     6.1  5.2 -0.8225E+01  0.1655E+02 -0.5139E+01E
 Epicentro: LOS SANTOS - SANTANDER                                             3
 ACTION:UP  11-01-14 15:28 OP:pat  STATUS:               ID:20101231191829 L   I
 2010-12-31-1914-29S.COL___135                                                 6
 STAT SP IPHASW D HRMM SECON CODA AMPLIT PERI AZIMU VELO SNR AR TRES W  DIS CAZ7
 BAR2 SZ EP   1   1918 47.43                             168    -0.1 7   26 193 
 BAR2 SZ ES   2   1919  1.79                             168     0.0 5   26 193 
 BAR2 SZ I        1919  3.12        33.5 0.27                            26 193 
 RUS  HZ EP   1   1918 52.16                             141     0.1 7  103 177 
 RUS  HN ES   2   1919  9.87                             141     0.0 5  103 177 
 RUS  HZ I        1919 12.32         5.8 0.37                           103 177 
 GRA  SZ EP   1   1918 53.27                             135     0.0 7  123  17 
 GRA  SZ ES   2   1919 12.16                             135     0.1 5  123  17 
 GRA  SZ I        1919 13.67        20.6 0.50                           123  17 
 HEL  HZ EP   1   1919  9.24                             112     0.1 6  274 255 
 HEL  HZ I        1919 45.71         5.8 0.34                           274 255 
                                                                                
