 2012  131 1942 22.0 L   6.757 -73.163142.8  RSN 11 0.3 2.4LRSN                1
 GAP=136        0.77       3.2     3.8  4.8 -0.2753E+01  0.6105E+01  0.1008E+01E
 Epicentro: LOS SANTOS - SANTANDER                                             3
 ACTION:UP  12-02-03 08:22 OP:REBC STATUS:               ID:20120131194222 L   I
 2012-01-31-1940-00M.COL___188                                                 6
 STAT SP IPHASW D HRMM SECON CODA AMPLIT PERI AZIMU VELO SNR AR TRES W  DIS CAZ7
 BAR2 SZ EP       1942 41.05                             172    -0.110   18 187 
 BAR2 SZ ES       1942 56.01                             172    -0.110   18 187 
 BAR2 SZ I        1942 57.68        67.1 0.19                            18 187 
 GIR2 SZ EP       1942 41.41                             165     0.010   36 355 
 GIR2 SZ ES   1   1942 56.39                             165    -0.2 7   36 355 
 BRR  HZ IP     C 1942 43.21                             152     0.410   72 303 
 BRR  HZ I        1942 43.67        78.5 0.13                            72 303 
 BRR  HE ES   1   1943  0.05                             152     0.9 7   72 303 
 PAM  SZ EP       1942 44.15                             149     0.010   82  38 
 PAM  SE ES       1943  1.13                             149    -0.410   82  38 
 RUS  HZ EP   1   1942 45.28                             144     0.2 7   96 175 
 RUS  HE ES   1   1943  3.45                             144     0.3 7   96 175 
 PTB  HZ EP       1942 48.40                             132    -0.1 9  145 261 
 PTB  HN ES   1   1943  8.55                             132    -0.6 7  145 261 
 OCA  SZ EP   1   1942 50.98                             128     0.5 7  165 354 
 OCA  SZ ES   1   1943 12.51                             128    -0.2 7  165 354 
 OCA  SZ I        1943 18.66        26.6 0.12                           165 354 
 ZAR  HZ EP   1   1942 53.94                             122    -0.3 6  204 294 
 ZAR  HE ES   1   1943 19.44                             122     0.0 6  204 294 
 ZAR  HZ I        1943 26.34        27.9 0.22                           204 294 
 NOR  SZ EP   1   1942 57.59                             118     0.5 6  230 235 
 NOR  SN ES   1   1943 24.34                             118    -0.1 6  230 235 
 HEL  HZ EP   2   1943  1.39                             114    -0.3 4  269 257 
 HEL  HZ I        1943 41.70         8.5 0.28                           269 257 
 PRA  HZ EP   1   1943 14.54                             106    -0.3 4  387 210 
 PRA  HN ES   1   1943 55.83                             106    -0.2 4  387 210 
                                                                                
