 2016  731 1750 55.9 L   6.753 -73.092141.9  RSN  4 0.3 1.6LRSN                1
 GAP=146        0.80       4.2     6.3  6.5 -0.5290E+00 -0.2862E+01  0.7347E+00E
 Epicentro: LOS SANTOS - SANTANDER                                             3
 ACTION:UPD 17-03-29 16:57 OP:lp   STATUS:               ID:20160731175055 L   I
 OLDACT:REG 16-07-31 21:29 OP:ar   STATUS:               ID:20160731174733     3
 2016-07-31-1748-00M.COL___353                                                 6
 STAT SP IPHASW D HRMM SECON CODA AMPLIT PERI AZIMU VELO AIN AR TRES W  DIS CAZ7
 BAR2 EZ EP       1751 14.78                             171   -0.2310 20.3 209 
 BAR2 EZ ES       1751 29.73                             171   -0.1810 20.3 209 
 BAR2 EZ I        1751 30.79         9.1 0.20            166           20.3 209 
 PAM  EZ EP       1751 17.77                             150    0.0110 78.1  34 
 PAM  EE ES       1751 34.87                             150    0.0810 78.1  34 
 PAM  EZ I        1751 36.91         7.6 0.60            153           78.1  34 
 BRR  HZ EP       1751 16.67                             149   -0.4310 78.9 300 
 BRR  HE ES       1751 33.98                             149    0.3510 78.9 300 
 BRR  HZ I        1751 44.12        11.1 0.34            144           78.9 300 
 RUS  HZ EP       1751 19.41                             145    0.5210 95.1 179 
 RUS  HE ES       1751 36.69                             145   -0.1210 95.1 179 
 RUS  HZ I        1751 38.40         5.1 0.28            149           95.1 179 
                                                                                
