 2012 1231 1314 45.9 L   6.776 -73.144139.2  RSN  6 0.5 2.0LRSN                1
 GAP=183        1.26       5.3     6.7  8.7  0.8200E+01  0.5302E+01 -0.1068E+02E
 Epicentro: LOS SANTOS - SANTANDER                                             3
 ACTION:UPD 13-01-04 14:31 OP:ep   STATUS:               ID:20121231131445 L   I
 2012-12-31-1310-00M.COL___239                                                 6
 STAT SP IPHASW D HRMM SECON CODA AMPLIT PERI AZIMU VELO AIN AR TRES W  DIS CAZ7
 BAR2 SZ EP       1315  4.57                             171   -0.1610 20.7 192 
 BAR2 SZ ES       1315 19.41                             171    0.0310 20.7 192 
 BAR2 SZ I        1315 20.66        17.7 0.26                          20.7 192 
 BRR  HZ EP       1315  6.80                             151    0.3310 72.7 300 
 BRR  HN ES       1315 23.38                             151    0.9010 72.7 300 
 BRR  HN I        1315 27.88        21.6 0.18                          72.7 300 
 RUS  HZ EP       1315  9.06                             143    0.2110 97.9 176 
 RUS  HN ES       1315 26.36                             143   -0.3610 97.9 176 
 RUS  HN I        1315 27.69         7.9 0.26                          97.9 176 
 PTB  HZ EP       1315 12.18                             131   -0.17 9  147 260 
 PTB  HN ES       1315 32.53                             131   -0.42 9  147 260 
 PTB  HN I        1315 35.50         9.2 0.38                           147 260 
 OCA  HZ EP       1315 14.71                             128    0.70 9  163 353 
 OCA  HN ES       1315 34.83                             128   -1.07 9  163 353 
 OCA  HN I        1315 38.48        45.6 0.42                           163 353 
 ZAR  HZ EP       1315 17.97                             121   -0.12 8  205 293 
 ZAR  HN ES       1315 43.11                             121   -0.06 8  205 293 
 ZAR  HN I        1315 46.29        10.5 0.14                           205 293 
                                                                                
