 2017  731 1138 26.6 L   6.768 -73.178140.3  RSN  4 0.4 1.6LRSN                1
 GAP=231        0.98       7.5     7.2  7.8  0.2724E+02  0.6432E+01  0.2393E+01E
 Epicentro: LOS SANTOS - SANTANDER                                             3
 ACTION:UPD 17-08-30 15:38 OP:rebc STATUS:               ID:20170731113826 L   I
 OLDACT:DUP 17-07-31 23:20 OP:dani STATUS:               ID:20170731113749d    3
 OLDACT:DUP 17-07-31 23:17 OP:dani STATUS:               ID:20170731113747d    3
 OLDACT:REG 17-07-31 20:31 OP:dani STATUS:               ID:20170731113746     3
 2017-07-31-1138-00M.COL___380                                                 6
 STAT SP IPHASW D HRMM SECON CODA AMPLIT PERI AZIMU VELO AIN AR TRES W  DIS CAZ7
 BAR2 EZ EP       1138 45.23                             172   -0.2310 19.4 182 
 BAR2 EZ ES       1138 59.58                             172   -0.6210 19.4 182 
 BRR  HZ EP       1138 47.25                             152    0.2010 70.0 302 
 BRR  HN ES       1139  3.52                             152    0.4810 70.0 302 
 BRR  HZ I        1139 13.63        22.0 0.45            150           70.0 302 
 RUS  HZ EP     C 1138 49.81                             144    0.2710 97.3 174 
 RUS  HN ES       1139  7.81                             144    0.3410 97.3 174 
 RUS  HZ I        1139  9.15         2.8 0.24            152           97.3 174 
 PTB  HZ EP       1138 52.28                             132   -0.43 9  144 260 
 PTB  HN ES       1139 13.04                             132   -0.07 9  144 260 
 PTB  HZ I        1139 18.14                             134            144 260 
                                                                                
