 2013  131 1417 54.0 L   5.989 -73.833104.3  RSN  4 0.1 1.8LRSN                1
 GAP=151        0.33       2.5     1.9  4.9 -0.2262E+01  0.3603E+01 -0.1733E+01E
 Epicentro: EL PEON - SANTANDER                                                3
 ACTION:UPD 13-02-15 09:18 OP:ep   STATUS:               ID:20130131141754 L   I
 2013-01-31-1408-50M.COL___201                                                 6
 STAT SP IPHASW D HRMM SECON CODA AMPLIT PERI AZIMU VELO AIN AR TRES W  DIS CAZ7
 RUS  HZ EP       1418 12.45                             138   -0.0110 83.7  97 
 RUS  HN ES   1   1418 26.81                             138   -0.09 7 83.7  97 
 BAR2 SZ EP       1418 13.45                             133    0.1110 98.2  47 
 BAR2 SZ ES   1   1418 28.52                             133    0.05 7 98.2  47 
 BAR2 SZ I        1418 30.35        13.1 0.34             47           98.2  47 
 NOR  HZ EP       1418 15.59                             126    0.0610  124 248 
 NOR  HN ES   1   1418 32.33                             126   -0.03 7  124 248 
 NOR  HZ I        1418 33.66        14.6 0.28             47            124 248 
 BRR  HZ EP   1   1418 15.25                             126   -0.25 7  124   6 
 BRR  HN ES   2   1418 32.36                             126    0.06 5  124   6 
 BRR  HN I        1418 34.55        11.4 0.28             47            124   6 
                                                                                
