 2013  331 1611 13.3 L   6.757 -73.141146.8  RSN  4 0.1 1.7LRSN                1
 GAP=235        0.40       4.5     5.6  4.6  0.1660E+02 -0.6029E+01 -0.4137E+01E
 Epicentro: LOS SANTOS - SANTANDER                                             3
 ACTION:UPD 13-04-09 14:06 OP:ep   STATUS:               ID:20130331161113 L   I
 2013-03-31-1610-00M.COL___245                                                 6
 STAT SP IPHASW D HRMM SECON CODA AMPLIT PERI AZIMU VELO AIN AR TRES W  DIS CAZ7
 BAR2 SZ EP       1611 32.79                             172   -0.1610 18.8 194 
 BAR2 SZ ES   1   1611 48.12                             172   -0.17 7 18.8 194 
 BAR2 SZ I        1611 48.45         8.4 0.46            171           18.8 194 
 BRR  HZ EP       1611 34.77                             152    0.0710 74.0 302 
 BRR  HN ES       1611 51.49                             152    0.0910 74.0 302 
 BRR  HN I        1611 51.74        19.3 0.24            152           74.0 302 
 RUS  HZ EP   2   1611 36.86                             145    0.07 5 95.8 176 
 RUS  HE ES   1   1611 55.35                             145    0.22 7 95.8 176 
 RUS  HE I        1611 56.12         5.0 0.52            145           95.8 176 
 PTB  HE ES   2   1612  1.18                             132   -0.19 5  147 261 
                                                                                
