 2016  831 1430 13.0 L   6.788 -73.112145.3  RSN 13 0.3 2.1LRSN                1
 GAP=122        0.82       2.8     2.9  4.1 -0.2661E+01 -0.1885E+00  0.3098E+00E
 Epicentro: LOS SANTOS - SANTANDER                                             3
 ACTION:UPD 16-10-29 15:41 OP:rebc STATUS:               ID:20160831143013 L   I
 OLDACT:UP  16-09-01 00:22 OP:edw  STATUS:               ID:20160831142734     3
 OLDACT:UP  16-09-01 00:20 OP:edw  STATUS:               ID:20160831142734     3
 OLDACT:UP  16-09-01 00:17 OP:edw  STATUS:               ID:20160831142734     3
 OLDACT:REG 16-08-31 20:16 OP:edw  STATUS:               ID:20160831142734     3
 2016-08-31-1428-00M.COL___358                                                 6
 STAT SP IPHASW D HRMM SECON CODA AMPLIT PERI AZIMU VELO AIN AR TRES W  DIS CAZ7
 BAR2 EZ EP       1430 32.61                             171    0.0610 23.0 200 
 BAR2 EZ ES       1430 48.19                             171    0.3810 23.0 200 
 BAR2 EZ I        1430 50.37        45.3 0.32                          23.0 200 
 BRR  HZ EP       1430 34.36                             151    0.0510 75.1 298 
 BRR  HN ES       1430 51.23                             151    0.3010 75.1 298 
 BRR  HZ I        1430 55.42        31.3 0.28                          75.1 298 
 PAM  EZ EP       1430 35.52                             151    0.4510 76.1  37 
 RUS  HZ EP       1430 36.55                             144   -0.0310 99.1 178 
 RUS  HN ES       1430 54.72                             144   -0.2610 99.1 178 
 RUS  HZ I        1430 56.62        17.6 0.28                          99.1 178 
 PTB  HZ EP   9   1430 39.53                             131   -0.69 0  151 260 
 PTB  HN ES       1431  0.06                             131   -0.71 9  151 260 
 PTB  HZ I        1431  6.03         8.2 0.15                           151 260 
 SPBC HZ EP       1430 41.51                             129   -0.07 9  165 220 
 SPBC HN ES       1431  3.76                             129   -0.11 9  165 220 
 SPBC HZ I        1431  8.40        21.0 0.20                           165 220 
 ZAR  HZ EP       1430 45.82                             122    0.01 8  208 292 
 ZAR  HN ES       1431 11.02                             122   -0.39 8  208 292 
 ZAR  HZ I        1431 16.14        15.1 0.41                           208 292 
 NOR  HZ EP       1430 48.62                             118   -0.31 8  237 235 
 NOR  HN ES       1431 16.25                             118   -0.72 8  237 235 
 NOR  HZ I        1431 24.37         9.2 0.14                           237 235 
 CHI  HZ EP       1430 50.80                             117    0.17 8  248 196 
 CHI  HN ES       1431 20.03                             117    0.04 8  248 196 
 CHI  HZ I        1431 23.66         4.8 0.35                           248 196 
 SOCV BZ EP       1430 55.49                             112   -0.25 7  299  56 
 SOCV BE ES       1431 28.42                             112   -0.67 7  299  56 
 GUY2CHZ EP       1430 57.34                             112    0.51 7  303 235 
 GUY2CHN ES       1431 31.02                             112   -0.01 7  303 235 
 GUY2CHZ I        1431 38.79         6.1 0.34                           303 235 
 ELA  HZ EP       1431  0.41                             110    0.37 7  331 230 
 ELA  HN ES       1431 36.88                             110    0.13 7  331 230 
 ELA  HZ I        1431 45.23         5.0 0.56                           331 230 
 ANIL HN ES   4   1431 44.00                             108    2.05 0  359 225 
 SJC  HZ EP   4   1431  6.40                             105   -2.50 0  412 327 
 SJC  HN ES   4   1431 51.05                             105   -1.47 0  412 327 
 SJC  HZ I        1431 55.70         2.9 0.38                           412 327 
                                                                                
