 2012 1231 1456  6.4 L   6.799 -73.179145.8  RSN  6 0.4 2.1LRSN                1
 GAP=234        0.92       4.9     5.4  6.7  0.5869E+01  0.6309E+01  0.9798E+01E
 Epicentro: LOS SANTOS - SANTANDER                                             3
 ACTION:UPD 13-01-04 14:31 OP:ep   STATUS:               ID:20121231145606 L   I
 2012-12-31-1450-00M.COL___239                                                 6
 STAT SP IPHASW D HRMM SECON CODA AMPLIT PERI AZIMU VELO AIN AR TRES W  DIS CAZ7
 BAR2 SZ EP       1456 25.94                             171   -0.1110 22.9 181 
 BAR2 SZ I        1456 26.26        38.3 0.36                          22.9 181 
 BAR2 SZ ES       1456 40.85                             171   -0.5010 22.9 181 
 BRR  HZ IP     C 1456 27.64                             154    0.2410 68.0 300 
 BRR  HZ I        1456 27.79        16.9 0.16                          68.0 300 
 BRR  HN ES       1456 44.41                             154    0.6510 68.0 300 
 RUS  HZ EP       1456 30.12                             144   -0.0710  101 174 
 RUS  HN ES       1456 48.89                             144    0.1610  101 174 
 RUS  HN I        1456 49.75         8.6 0.14                           101 174 
 PTB  HZ EP       1456 32.53                             133   -0.54 9  144 259 
 PTB  HN ES       1456 53.46                             133   -0.39 9  144 259 
 PTB  HN I        1456 58.86        35.3 0.48                           144 259 
 NOR  HN ES       1457  9.65                             119    0.20 8  232 234 
 CHI  HZ EP       1456 44.36                             117    0.35 8  248 194 
 CHI  HN ES       1457 13.48                             117    0.15 8  248 194 
 CHI  HN I        1457 18.90         9.5 0.34                           248 194 
                                                                                
