 2013  131 1832 26.9 L   6.791 -73.162149.9  RSN  5 0.5 1.8LRSN                1
 GAP=135        1.13       6.4     6.2  9.9 -0.2125E+01  0.7652E+01  0.1435E+02E
 Epicentro: LOS SANTOS - SANTANDER                                             3
 ACTION:UPD 13-02-15 09:18 OP:ep   STATUS:               ID:20130131183226 L   I
 2013-01-31-1828-50M.COL___195                                                 6
 STAT SP IPHASW D HRMM SECON CODA AMPLIT PERI AZIMU VELO AIN AR TRES W  DIS CAZ7
 BRR  HZ IP     D 1832 48.65                             153    0.2310 70.1 300 
 BRR  HZ I        1832 48.82        11.6 0.20            153           70.1 300 
 BRR  HE ES       1833  5.83                             153    0.6110 70.1 300 
 PAM  SZ EP   1   1832 50.36                             151    0.71 7 79.3  40 
 PAM  SN ES       1833  6.63                             151   -0.7810 79.3  40 
 RUS  HZ EP       1832 51.02                             145    0.0410 99.7 175 
 RUS  HE ES       1833  9.96                             145    0.1910 99.7 175 
 PTB  HZ EP       1832 53.77                             133   -0.24 9  146 259 
 PTB  HN ES       1833 14.68                             133   -0.50 9  146 259 
 CHI  HZ EP   2   1833  4.44                             118   -0.22 4  247 195 
                                                                                
