 2010  831 1234 56.1 L   6.785 -73.048140.0  RSN  5 0.3 1.5LRSN                1
 GAP=176        0.63       6.9    10.8  8.7  0.3467E+02 -0.4635E+02 -0.3380E+02E
 Epicentro: LOS SANTOS - SANTANDER                                             3
 ACTION:UP  10-09-07 10:59 OP:vdl  STATUS:               ID:20100831123456 L   I
 2010-08-31-1230-55S.COL___120                                                 6
 STAT SP IPHASW D HRMM SECON CODA AMPLIT PERI AZIMU VELO SNR AR TRES W  DIS CAZ7
 BAR2 SZ EP   2   1235 15.06                             169     0.0 5   26 215 
 BAR2 SZ ES   1   1235 29.95                             169     0.1 7   26 215 
 BAR2 SZ I        1235 31.00         9.1 0.22                            26 215 
 BRR  HZ EP       1235 17.02                                    -0.210   82 296 
 BRR  HZ I        1235 18.93        13.7 0.46                            82 296 
 BRR  HE ES   1   1235 33.84                             148     0.1 7   82 296 
 RUS  HZ EP   2   1235 19.23                             143     0.1 5   99 182 
 RUS  HE ES   2   1235 37.13                             143     0.0 5   99 182 
 RUS  HZ I        1235 38.84         2.8 0.44                            99 182 
 GUE  SZ EP   1   1235 20.00                             138    -0.2 7  116   7 
 GUE  SZ I        1235 20.81         2.0 0.12                           116   7 
 OCA  SZ EP   2   1235 25.12                             128     0.9 5  164 349 
 OCA  SZ I        1235 50.10        11.2 0.24                           164 349 
                                                                                
