 2017  831 1036 51.7 L   6.773 -73.134144.0  RSN  5 0.5 1.5LRSN                1
 GAP=158        1.00       9.1     6.9  7.4  0.2427E+02  0.5935E+01  0.1906E+01E
 Epicentro: LOS SANTOS - SANTANDER                                             3
 ACTION:UPD 17-09-04 20:26 OP:rebc STATUS:               ID:20170831103651 L   I
 OLDACT:UP  17-08-31 21:13 OP:dani STATUS:               ID:20170831102735     3
 OLDACT:UP  17-08-31 21:13 OP:dani STATUS:               ID:20170831102735     3
 OLDACT:REG 17-08-31 19:49 OP:dani STATUS:               ID:20170831102735     3
 2017-08-31-1028-00M.COL___392                                                 6
 STAT SP IPHASW D HRMM SECON CODA AMPLIT PERI AZIMU VELO AIN AR TRES W  DIS CAZ7
 BAR2 EZ EP       1037 10.72                             171   -0.3410 20.7 195 
 BAR2 EZ ES       1037 26.39                             171    0.2310 20.7 195 
 BAR2 EZ I        1037 28.46         6.6 0.24            171           20.7 195 
 BRR  HZ EP       1037 12.49                             151   -0.3110 73.8 300 
 BRR  HN ES       1037 29.57                             151    0.3110 73.8 300 
 BRR  HZ I        1037 32.44         5.8 0.22            147           73.8 300 
 PAM  EZ EP     D 1037 13.65                             150   -0.1610 78.9  37 
 PAM  EZ I        1037 32.83         4.6 0.46            135           78.9  37 
 ZAR  HZ EP       1037 25.15                             122    0.89 8  206 293 
 ZAR  HN ES       1037 49.07                             122   -0.60 8  206 293 
 ZAR  HZ I        1037 57.61         2.8 0.09            116            206 293 
 PRA  HZ EP       1037 45.17                             106    0.25 6  390 210 
 PRA  HN ES   3   1038 25.42                             106   -1.03 1  390 210 
 PRA  HZ I        1038 33.02         1.3 0.55            102            390 210 
                                                                                
