 2014  831 1832 42.5 L   7.218 -73.815 93.6  RSN  8 0.4 1.8LRSN                1
 GAP= 66        1.08       3.2     3.6  7.4  0.7289E+00  0.6876E+00 -0.6719E+01E
 Epicentro: PUERTO WILCHES - SANTANDER                                         3
 ACTION:UPD 14-09-15 21:54 OP:nd   STATUS:               ID:20140831183242 L   I
 OLDACT:REG 14-08-31 21:39 OP:stll STATUS:               ID:20140831182817     3
 2014-08-31-1828-17M.COL___269                                                 6
 STAT SP IPHASW D HRMM SECON CODA AMPLIT PERI AZIMU VELO AIN AR TRES W  DIS CAZ7
 BRR  HZ IP     D 1832 55.75                             169    0.3810 16.7 137 
 BRR  HZ I        1832 55.81        43.8 0.14            157           16.7 137 
 BRR  HN ES       1833  5.62                             169    0.2110 16.7 137 
 BAR2 SZ EP       1833  1.26                             130    0.2110 98.4 135 
 BAR2 SZ ES       1833 15.54                             130    0.0210 98.4 135 
 BAR2 SZ I        1833 18.58        15.7 0.40            117           98.4 135 
 PTB  HZ EP       1833  1.05                             129   -0.1710  103 223 
 PTB  HN ES       1833 14.95                             129   -0.8610  103 223 
 PTB  HZ I        1833 16.93         8.5 0.30            120            103 223 
 ZAR  HZ EP       1833  3.51                             124    0.7310  119 285 
 ZAR  HN ES       1833 18.97                             124    0.3810  119 285 
 ZAR  HZ I        1833 21.45        10.2 0.26            117            119 285 
 PAM  SZ EP       1833  4.10                             123    0.1910  124  84 
 PAM  SZ I        1833 25.42         8.6 0.20            111            124  84 
 OCA  HZ EP   1   1833  3.50                             123   -0.13 7  125  26 
 OCA  HN ES   2   1833 19.08                             123   -1.02 5  125  26 
 SPBC HN ES       1833 29.31                             114   -0.37 9  176 189 
 SPBC HZ I        1833 34.62         7.1 0.36            105            176 189 
 SML  HZ EP       1833  9.04                             113   -0.05 9  177 351 
 SML  HZ I        1833  9.24        16.4 0.18            105            177 351 
 SML  HE ES       1833 29.34                             113   -0.49 9  177 351 
                                                                                
