 2013  331 1713 60.0 L   6.745 -73.184156.7  RSN  5 0.3 1.9LRSN                1
 GAP=175        0.61       5.3     4.7  5.8  0.7886E+01 -0.2857E+01 -0.1540E+01E
 Epicentro: VILLANUEVA - SANTANDER                                             3
 ACTION:UPD 13-04-09 14:06 OP:ep   STATUS:               ID:20130331171360 L   I
 2013-03-31-1710-00M.COL___245                                                 6
 STAT SP IPHASW D HRMM SECON CODA AMPLIT PERI AZIMU VELO AIN AR TRES W  DIS CAZ7
 BAR2 SZ EP       1714 20.48                             174   -0.3310 16.9 180 
 BAR2 SZ ES   1   1714 36.72                             174   -0.35 7 16.9 180 
 BAR2 SZ I        1714 38.67        14.8 0.37            171           16.9 180 
 GIR2 SZ EP   1   1714 20.99                             166   -0.10 7 36.9 358 
 BRR  HZ EP       1714 22.41                             154    0.1310 70.8 304 
 BRR  HN ES       1714 39.98                             154    0.2810 70.8 304 
 BRR  HN I        1714 42.20        16.8 0.18            153           70.8 304 
 RUS  HZ EP   1   1714 24.75                             148    0.32 7 94.9 173 
 RUS  HN ES   1   1714 43.79                             148    0.28 7 94.9 173 
 RUS  HN I        1714 44.68         6.1 0.34            148           94.9 173 
 PTB  HZ EP   1   1714 27.43                             136    0.04 7  143 261 
 PTB  HN ES       1714 48.58                             136   -0.21 9  143 261 
 PTB  HN I        1714 53.70        19.6 0.52            135            143 261 
                                                                                
