 2016  331 1338 27.6 L   6.789 -73.154143.4  RSN  7 0.4 1.7LRSN                1
 GAP=136        0.93       3.9     4.3  6.9 -0.3713E+00  0.1204E+02 -0.2500E-01E
 Epicentro: LOS SANTOS - SANTANDER                                             3
 ACTION:UPD 16-05-13 21:29 OP:cam  STATUS:               ID:20160331133827 L   I
 OLDACT:REG 16-03-31 20:52 OP:ak   STATUS:               ID:20160331132740     3
 2016-03-31-1327-40M.COL___298                                                 6
 STAT SP IPHASW D HRMM SECON CODA AMPLIT PERI AZIMU VELO AIN AR TRES W  DIS CAZ7
 BAR2 EZ EP       1338 46.83                             171   -0.0610 22.0 188 
 BAR2 EZ ES       1339  1.85                             171   -0.1110 22.0 188 
 BAR2 EZ I        1339  2.75        13.0 0.21            173           22.0 188 
 PAM  EZ EP       1338 49.70                             150    0.0710 78.9  39 
 PAM  EN ES       1339  6.99                             150    0.1510 78.9  39 
 PAM  EZ I        1339  9.08         7.9 0.38            151           78.9  39 
 RUS  HZ EP       1338 50.90                             144   -0.1110 99.4 175 
 RUS  HE ES       1339  9.22                             144   -0.0710 99.4 175 
 RUS  HZ I        1339 10.16         4.6 0.26            147           99.4 175 
 PTB  HZ EP       1338 53.77                             132   -0.48 9  147 259 
 PTB  HN ES       1339 14.62                             132   -0.43 9  147 259 
 PTB  HZ I        1339 16.89         8.2 0.14            132            147 259 
 ZAR  HZ EP       1338 59.52                             122   -0.31 9  204 293 
 ZAR  HN ES       1339 25.88                             122    0.89 9  204 293 
 ZAR  HZ I        1339 31.25         8.1 0.36            122            204 293 
 CHI  HE ES       1339 35.00                             117    0.83 8  247 195 
 GUY2CHZ EP   2   1339 11.10                             112    0.19 4  300 235 
 GUY2CHN ES   2   1339 44.37                             112   -0.34 4  300 235 
 GUY2CHZ I        1339 51.47         1.9 0.34                           300 235 
                                                                                
