 2014  531 1405 22.7 L   6.835 -73.148143.3  RSN  9 0.4 2.0LRSN                1
 GAP=135        0.85       3.3     3.7  5.6 -0.1539E+01  0.8800E+01 -0.2227E+01E
 Epicentro: LOS SANTOS - SANTANDER                                             3
 ACTION:UPD 15-03-16 17:02 OP:nd   STATUS:               ID:20140531140522 L   I
 OLDACT:UP  14-05-31 23:30 OP:cam  STATUS:               ID:20140531140000     3
 OLDACT:REG 14-05-31 22:50 OP:cam  STATUS:               ID:20140531140000     3
 2014-05-31-1400-00M.COL___276                                                 6
 STAT SP IPHASW D HRMM SECON CODA AMPLIT PERI AZIMU VELO AIN AR TRES W  DIS CAZ7
 BAR2 SZ EP       14 5 42.06                             169   -0.0710 27.2 188 
 BAR2 SZ ES       14 5 57.06                             169   -0.2210 27.2 188 
 BAR2 SZ I        14 5 59.79        17.3 0.24            167           27.2 188 
 PAM  SZ EP       14 5 44.74                             151    0.2410 74.5  42 
 PAM  SN ES       14 6  1.56                             151    0.0710 74.5  42 
 PAM  SZ I        14 6  3.43        11.6 0.18            157           74.5  42 
 RUS  HZ EP       14 5 46.47                             142   -0.0410  105 176 
 RUS  HE ES   1   14 6  5.27                             142    0.20 7  105 176 
 RUS  HZ I        14 6  8.30         6.9 0.32            144            105 176 
 PTB  HZ EP       14 5 49.23                             131   -0.31 9  148 257 
 PTB  HN ES       14 6 10.79                             131    0.33 9  148 257 
 PTB  HZ I        14 6 12.54        16.4 0.40            132            148 257 
 ZAR  HZ EP       14 5 54.82                             122   -0.01 9  202 291 
 ZAR  HN ES       14 6 20.39                             122    0.51 9  202 291 
 ZAR  HZ I        14 6 26.54         7.3 0.16            123            202 291 
 NOR  HZ EP   1   14 5 58.13                             118   -0.40 6  237 234 
 NOR  HE ES       14 6 25.90                             118   -0.57 8  237 234 
 NOR  HZ I        14 6 36.93         8.5 0.12            119            237 234 
 SML  HZ EP       14 5 58.31                             117   -0.50 8  240 335 
 SML  HE ES       14 6 26.79                             117   -0.17 8  240 335 
 SML  HZ I        14 6 30.28        16.1 0.24            120            240 335 
 GUY2CHZ EP   1   14 6  7.85                             112    1.41 5  303 234 
 RREF HZ EP   1   14 6  9.25                             110    0.23 5  324 229 
                                                                                
