 2010  131 1712 14.1 L   6.909 -73.254123.4  RSN  9 0.6 1.9LRSN                1
 GAP=148        0.89       5.1     9.1  9.5  0.8273E+01  0.5543E+02 -0.4849E+00E
 Epicentro: BETULIA - SANTANDER                                                3
 ACTION:UP  10-08-24 09:46 OP:vdl  STATUS:               ID:20100131171214 L   I
 2010-01-31-1708-55S.COL___094                                                 6
 STAT SP IPHASW D HRMM SECON CODA AMPLIT PERI AZIMU VELO SNR AR TRES W  DIS CAZ7
 GIR2 SZ EP   1   1712 31.22                             169     0.4 8   20  20 
 GIR2 SZ ES   2   1712 44.42                             169     0.6 5   20  20 
 BAR2 SZ EP   1   1712 31.62                             163     0.2 8   36 167 
 BAR2 SZ ES   1   1712 44.47                             163    -0.4 8   36 167 
 RUS  BZ EP   2   1712 36.68                             135    -0.1 5  114 170 
 RUS  BN ES       1712 54.10                             135    -0.410  114 170 
 OCA  SZ EP   2   1712 40.29                             126     0.8 5  147 357 
 CHI  HZ EP   1   1712 51.65                             111     0.0 6  258 192 
 CHI  HE ES   2   1713 21.45                             111     0.5 4  258 192 
 CHI  HZ I        1713 23.72         3.6 0.87                           258 192 
 HEL  HZ EP   2   1712 52.97                             110     0.7 4  264 253 
 HEL  HN ES   2   1713 23.00                             110     0.9 4  264 253 
 HEL  HZ I        1713 26.88         4.9 0.40                           264 253 
 RREF BN ES   2   1713 34.41                             106    -0.1 3  321 226 
 RREF BZ I        1713 39.83         4.8 0.36                           321 226 
 DBB  SZ EP   1   1712 59.18                             105    -0.1 5  327 272 
 MON  HZ EP   2   1712 58.85                             105    -1.4 3  336 308 
 MON  HE ES   2   1713 35.26                             105    -1.1 3  336 308 
 MON  HZ I        1713 55.16         3.0 1.07                           336 308 
                                                                                
