 2017  531 1947 53.9 L   6.766 -73.200144.7  RSN  4 0.3 1.4LRSN                1
 GAP=229        0.77       6.2     6.2  7.7  0.2589E+02 -0.3257E+00 -0.2299E+01E
 Epicentro: ZAPATOCA - SANTANDER                                               3
 ACTION:UPD 17-06-16 13:40 OP:jn   STATUS:               ID:20170531194753 L   I
 OLDACT:UP  17-06-01 00:44 OP:dani STATUS:               ID:20170531193741     3
 OLDACT:REG 17-05-31 20:56 OP:dani STATUS:               ID:20170531193741     3
 2017-05-31-1938-00M.COL___353                                                 6
 STAT SP IPHASW D HRMM SECON CODA AMPLIT PERI AZIMU VELO AIN AR TRES W  DIS CAZ7
 BRR  HZ EP       1948 14.85                             153    0.1510 68.0 304 
 BRR  HN ES       1948 30.66                             153   -0.3110 68.0 304 
 BRR  HZ I        1948 32.69         9.9 0.34            151           68.0 304 
 RUS  HZ EP       1948 17.22                             144   -0.0510 97.4 172 
 RUS  HN ES       1948 35.79                             144    0.2510 97.4 172 
 RUS  HZ I        1948 36.45         2.6 0.17            143           97.4 172 
 PTB  HZ EP       1948 19.76                             133   -0.37 9  141 260 
 PTB  HN ES       1948 40.49                             133   -0.14 9  141 260 
 PTB  HZ I        1948 46.52         3.7 0.34            131            141 260 
 ZAR  HZ EP   4   1948 27.74                             123    1.94 0  200 294 
 ZAR  HN ES       1948 51.29                             123    0.56 9  200 294 
                                                                                
