 2017  531 1650 41.7 L   6.841 -73.279122.0  RSN  5 0.3 1.6LRSN                1
 GAP=227        0.51       4.6     6.4  5.1  0.2325E+02  0.1797E+02  0.1022E+02E
 Epicentro: ZAPATOCA - SANTANDER                                               3
 ACTION:UPD 17-06-16 13:40 OP:jn   STATUS:               ID:20170531165041 L   I
 OLDACT:UP  17-06-01 00:02 OP:and  STATUS:               ID:20170531164738     3
 OLDACT:UP  17-06-01 00:01 OP:and  STATUS:               ID:20170531164738     3
 OLDACT:UP  17-06-01 00:01 OP:and  STATUS:               ID:20170531164738     3
 OLDACT:UP  17-06-01 00:00 OP:and  STATUS:               ID:20170531164738     3
 OLDACT:UP  17-06-01 00:00 OP:and  STATUS:               ID:20170531164738     3
 OLDACT:UP  17-05-31 23:59 OP:and  STATUS:               ID:20170531164738     3
 OLDACT:UP  17-05-31 23:59 OP:and  STATUS:               ID:20170531164738     3
 OLDACT:UP  17-05-31 23:58 OP:and  STATUS:               ID:20170531164738     3
 OLDACT:REG 17-05-31 20:21 OP:dani STATUS:               ID:20170531164738     3
 2017-05-31-1648-00M.COL___350                                                 6
 STAT SP IPHASW D HRMM SECON CODA AMPLIT PERI AZIMU VELO AIN AR TRES W  DIS CAZ7
 BRR  HZ EP   2   1650 58.91                             154   -0.53 5 56.1 302 
 BRR  HN ES       1651 13.38                             154    0.1110 56.1 302 
 RUS  HZ EP   3   1651  5.17                             136    1.43 2  107 168 
 RUS  HN ES       1651 20.92                             136   -0.0110  107 168 
 RUS  HZ I        1651 21.93         4.6 0.24            136            107 168 
 PTB  HZ EP       1651  5.31                             129   -0.2410  134 256 
 PTB  HN ES   4   1651 21.71                             129   -2.43 0  134 256 
 PTB  HZ I        1651 25.78         9.3 0.34            126            134 256 
 ZAR  HZ IP     D 1651 11.14                             119    0.08 9  189 293 
 ZAR  HN ES       1651 33.99                             119    0.03 9  189 293 
 ZAR  HZ I        1651 38.78         7.7 0.32            118            189 293 
 NOR  HZ EP       1651 15.24                             114    0.08 8  226 231 
 NOR  HN ES   2   1651 41.36                             114    0.10 4  226 231 
 NOR  HZ I        1651 45.36         3.1 0.42            113            226 231 
                                                                                
