 2016  531 1033 51.9 L   6.807 -73.145146.2  RSN 20 0.5 2.4LRSN                1
 GAP=136        1.02       2.7     3.6  4.6 -0.2937E+01  0.5153E+01  0.4237E+00E
 Epicentro: LOS SANTOS - SANTANDER                                             3
 ACTION:UPD 16-08-18 17:51 OP:cam  STATUS:               ID:20160531103351 L   I
 OLDACT:REG 16-05-31 20:11 OP:ar   STATUS:               ID:20160531102743     3
 2016-05-31-1027-43M.COL___310                                                 6
 STAT SP IPHASW D HRMM SECON CODA AMPLIT PERI AZIMU VELO AIN AR TRES W  DIS CAZ7
 BAR2 EZ IP     C 1034 11.56                             170   -0.0210 24.1 190 
 BAR2 EZ ES       1034 26.87                             170   -0.0710 24.1 190 
 BAR2 EZ I        1034 27.99        80.9 0.16            167           24.1 190 
 BRR  HZ IP     C 1034 13.47                             153    0.4110 70.9 298 
 BRR  HN ES       1034 30.31                             153    0.7310 70.9 298 
 BRR  HZ I        1034 34.53        27.0 0.16            150           70.9 298 
 PAM  EZ EP       1034 14.47                             151    0.3710 76.8  40 
 PAM  EN ES       1034 31.54                             151    0.1110 76.8  40 
 PAM  EZ I        1034 33.66        26.5 0.30            157           76.8  40 
 RUS  HZ EP       1034 15.52                             144   -0.2110  101 176 
 RUS  HN ES       1034 33.87                             144   -0.4510  101 176 
 RUS  HZ I        1034 35.26        13.2 0.22            145            101 176 
 PTB  HZ EP       1034 18.21                             132   -0.70 9  148 259 
 PTB  HN ES       1034 39.43                             132   -0.55 9  148 259 
 PTB  HZ I        1034 45.24        31.6 0.28            131            148 259 
 OCA  HZ EP       1034 20.51                             130    0.35 9  160 353 
 OCA  HN ES       1034 41.86                             130   -0.35 9  160 353 
 OCA  HZ I        1034 45.01        47.9 0.40            132            160 353 
 SPBC HZ EP       1034 20.47                             129   -0.00 9  164 219 
 SPBC HN ES       1034 42.33                             129   -0.44 9  164 219 
 SPBC HZ I        1034 48.58        38.7 0.18            129            164 219 
 NOR  HZ EP       1034 27.32                             119   -0.37 8  235 234 
 NOR  HN ES       1034 56.39                             119    0.77 8  235 234 
 NOR  HZ I        1035  3.53        22.1 0.14            119            235 234 
 CHI  HZ EP       1034 29.66                             117   -0.02 8  249 195 
 CHI  HN ES       1034 59.34                             117    0.18 8  249 195 
 CHI  HZ I        1035  4.59        11.3 0.46            118            249 195 
 ROSC BZ EP   9   1034 31.61                             117    1.51 0  253 211 
 ROSC BN ES       1035  1.92                                    0.50 8  253 211 
 ROSC BZ I        1035  9.36        42.5 0.35            117            253 211 
 HEL  HZ EP   2   1034 32.25                             115    0.10 4  272 256 
 HEL  HN ES       1035  4.14                             115    0.59 8  272 256 
 HEL  HZ I        1035 10.12        15.1 0.34            115            272 256 
 URE  HZ EP       1034 32.34                             114   -0.61 7  284 292 
 URE  HN ES   4   1035  2.78                             114   -2.21 0  284 292 
 URE  HZ I        1035 12.24        17.4 0.16            114            284 292 
 LL5C HZ EP       1034 38.30                             110   -0.05 7  332 349 
 CBOC HZ EP       1034 39.60                             110    0.75 7  334 252 
 CBOC HN ES       1035 14.85                             110   -0.63 7  334 252 
 CBOC HZ I        1035 28.22         3.4 0.15            111            334 252 
 DBB  SZ EP       1034 39.31                             110   -0.07 7  340 274 
 DBB  SZ ES       1035 15.83                             110   -0.60 7  340 274 
 DBB  SZ I        1035 18.26        31.5 0.58            110            340 274 
 ANIL HZ EP   9   1034 43.85                             108    2.08 0  358 224 
 ANIL HN ES       1035 22.65                                   -0.11 6  358 224 
 ANIL HZ I        1035 25.85        29.7 0.50            109            358 224 
 PRA  HZ EP       1034 45.01                             107   -0.49 6  393 210 
 PRA  HN ES       1035 26.88                             107   -0.43 6  393 210 
 PRA  HZ I        1035 34.01        13.9 0.26            108            393 210 
 ORTC HZ EP       1034 46.51                             106    0.62 6  396 216 
 ORTC HN ES       1035 28.98                             106    0.96 6  396 216 
 ORTC HZ I        1035 35.68        10.5 0.36            107            396 216 
 PAL  HZ EP       1034 47.04                             106   -0.07 6  406 239 
 PAL  HN ES       1035 31.03                             106    0.84 6  406 239 
 PAL  HZ I        1035 32.79         3.8 0.28            107            406 239 
 SJC  HZ EP   4   1034 45.61                             106   -1.78 0  409 327 
 SJC  HN ES   4   1035 27.00                             106   -3.69 0  409 327 
 SJC  HZ I        1035 31.82         3.3 0.34            107            409 327 
                                                                                
