 2010  731 1519 21.0 L   6.974 -73.250119.8  RSN  5 0.2 1.2LRSN                1
 GAP=142        0.45       3.1     6.7  6.6 -0.2373E+00 -0.1144E+02  0.2667E-01E
 Epicentro: BETULIA - SANTANDER                                                3
 ACTION:UPD 10-12-01 15:21 OP:pat  STATUS:               ID:20100731151921 L   I
 2010-07-31-1515-40S.COL___123                                                 6
 STAT SP IPHASW D HRMM SECON CODA AMPLIT PERI AZIMU VELO AIN AR TRES W  DIS CAZ7
 GIR2 SZ EP   1   1519 37.54                             173     0.4 7   13  28 
 BAR2 SZ EP   1   1519 38.12                             159     0.0 7   43 170 
 BAR2 SZ ES   2   1519 51.39                             159    -0.2 5   43 170 
 BAR2 SZ I        1519 52.23         5.3 0.38                            43 170 
 BRR  HZ EP   1   1519 38.22                             154    -0.1 7   53 286 
 BRR  HE ES   2   1519 51.79                             154     0.0 5   53 286 
 BRR  HZ I        1519 59.44        10.3 0.43                            53 286 
 GUE  SZ EP   1   1519 41.85                             137    -0.2 7  101  21 
 GUE  SZ ES   2   1519 58.57                             137     0.0 5  101  21 
 GUE  SZ I        1519 59.85         3.1 0.15                           101  21 
 RUS  HZ EP   1   1519 44.04                             132     0.0 7  121 171 
 RUS  HE ES   2   1520  1.93                             132    -0.1 5  121 171 
 RUS  HZ I        1520  4.24         1.4 0.65                           121 171 
                                                                                
