 2015 1031 1718 42.9 L   6.820 -73.099141.1  RSN  5 0.4 1.6LRSN                1
 GAP=244        1.07       6.1     7.9  7.7  0.2406E+02  0.1144E+02  0.1471E+00E
 Epicentro: LOS SANTOS - SANTANDER                                             3
 ACTION:UPD 15-12-22 20:44 OP:cam  STATUS:               ID:20151031171842 L   I
 OLDACT:UP  15-10-31 23:32 OP:mh   STATUS:               ID:20151031170751d    3
 OLDACT:DUP 15-10-31 23:25 OP:mh   STATUS:               ID:20151031170751d    3
 2015-10-31-1707-49M.COL___322                                                 6
 STAT SP IPHASW D HRMM SECON CODA AMPLIT PERI AZIMU VELO AIN AR TRES W  DIS CAZ7
 BAR2 EZ EP       1719  1.95                             169   -0.0510 26.8 200 
 BAR2 EZ ES       1719 16.72                             169   -0.2110 26.8 200 
 BAR2 EZ I        1719 17.94        14.4 0.36            166           26.8 200 
 BRR  HZ EP       1719  3.97                             150    0.2610 74.8 295 
 BRR  HE ES       1719 20.49                             150    0.5210 74.8 295 
 BRR  HZ I        1719 22.80         7.7 0.34            148           74.8 295 
 RUS  HZ EP       1719  6.48                             142    0.1810  103 179 
 RUS  HN ES       1719 24.13                             142   -0.4510  103 179 
 RUS  HZ I        1719 25.34         4.5 0.22            143            103 179 
 SPBC HZ EP       1719 12.16                             127    0.68 9  168 220 
 SPBC HN ES       1719 33.76                             127   -0.05 9  168 220 
 SPBC HZ I        1719 36.34         5.5 0.18            127            168 220 
 ZAR  HZ EP       1719 14.53                             121   -0.88 8  208 291 
 ZAR  HN ES       1719 40.60                             121   -0.20 8  208 291 
 ZAR  HZ I        1719 45.61         4.3 0.11            121            208 291 
                                                                                
