 2011  731 1852  7.0 L   6.743 -73.091146.3  RSN 12 0.5 2.4LRSN                1
 GAP=131        1.03       3.6     5.7  7.4 -0.7447E+01  0.8930E+01  0.2336E+01E
 Epicentro: JORDAN - SANTANDER                                                 3
 ACTION:UPD 12-07-25 14:04 OP:epov STATUS:               ID:20110731185207 L   I
 2011-07-31-1849-21S.COL___142                                                 6
 STAT SP IPHASW D HRMM SECON CODA AMPLIT PERI AZIMU VELO AIN AR TRES W  DIS CAZ7
 BAR2 SZ EP       1852 26.74                             172    0.1610 19.5 211 
 BAR2 SZ I        1852 44.44        81.2 0.28                          19.5 211 
 PAM  SZ EP       1852 29.63                             150    0.3110 78.9  33 
 PAM  SN ES   1   1852 46.54                             150   -0.22 7 78.9  33 
 BRR  HZ EP       1852 28.58                             150   -0.0810 79.6 300 
 BRR  HN ES   1   1852 45.45                             150   -0.13 7 79.6 300 
 BRR  HZ I        1852 48.32        70.4 0.12                          79.6 300 
 RUS  HZ EP       1852 30.60                             146    0.3010 94.0 179 
 RUS  HN ES       1852 49.08                             146    0.5710 94.0 179 
 RUS  HZ I        1852 50.40        25.1 0.19                          94.0 179 
 BRI  SZ EP       1852 31.32                             140    0.1110  112  17 
 BRI  SZ ES   1   1852 49.18                             140   -0.95 7  112  17 
 BRI  SZ I        1852 57.03        14.1 0.39                           112  17 
 OCA  SZ EP   1   1852 35.50                             128   -0.48 7  167 351 
 OCA  SZ ES   1   1852 59.32                             128    0.70 7  167 351 
 OCA  SZ I        1853  0.64        39.4 0.28                           167 351 
 NOR  SZ EP   1   1852 42.85                             118   -0.02 6  236 237 
 NOR  SN ES   1   1853 10.30                             118   -0.58 6  236 237 
 CHI  HZ EP   1   1852 44.47                             118    0.26 6  244 197 
 CHI  HN ES       1853 12.10                             118   -1.16 8  244 197 
 CHI  HZ I        1853 19.69        12.3 0.19                           244 197 
 HEL  HZ EP   1   1852 48.21                             114    0.52 6  276 257 
 HEL  HN ES   1   1853 19.19                             114   -0.27 6  276 257 
 HEL  HZ I        1853 25.68        34.4 0.25                           276 257 
 RREF HZ EP   1   1852 53.83                             111    0.64 5  322 231 
 RREF HZ I        1853 35.76        13.8 0.19                           322 231 
 SDV  BZ EP   1   1852 56.04                             108   -0.92 5  360  49 
 PRA  HZ EP   1   1853  0.54                             107    0.33 4  390 211 
                                                                                
