 2015 1031 1716 56.0 L   6.798 -73.107140.9  RSN  6 0.4 1.8LRSN                1
 GAP=241        0.97       5.3     6.3  7.3  0.8785E+01  0.1635E+02  0.1001E+02E
 Epicentro: LOS SANTOS - SANTANDER                                             3
 ACTION:UPD 15-12-22 20:44 OP:cam  STATUS:               ID:20151031171656 L   I
 OLDACT:UP  15-11-01 03:33 OP:DRIO STATUS:               ID:20151031171656 L   3
 OLDACT:UP  15-10-31 23:26 OP:mh   STATUS:               ID:20151031170750d    3
 OLDACT:UP  15-10-31 23:25 OP:mh   STATUS:               ID:20151031170750d    3
 OLDACT:DUP 15-10-31 22:48 OP:mh   STATUS:               ID:20151031170750d    3
 2015-10-31-1707-49M.COL___322                                                 6
 STAT SP IPHASW D HRMM SECON CODA AMPLIT PERI AZIMU VELO AIN AR TRES W  DIS CAZ7
 BAR2 EZ EP       1717 15.10                             170    0.0110 24.2 200 
 BAR2 EZ ES       1717 29.64                             170   -0.3210 24.2 200 
 BAR2 EZ I        1717 31.77         9.1 0.42            171           24.2 200 
 BRR  HZ EP       1717 16.97                             150    0.0910 75.0 297 
 BRR  HN ES       1717 33.83                             150    0.6910 75.0 297 
 BRR  HZ I        1717 41.66        10.9 0.34            149           75.0 297 
 RUS  HZ EP   1   1717 19.07                             143   -0.20 7  100 178 
 RUS  HN ES   1   1717 37.59                             143    0.19 7  100 178 
 RUS  HZ I        1717 38.44         6.6 0.32            149            100 178 
 SPBC HZ EP       1717 24.18                             127   -0.22 9  166 220 
 SPBC HN ES       1717 46.24                             127   -0.29 9  166 220 
 SPBC HZ I        1717 47.92         8.5 0.46            131            166 220 
 ZAR  HN ES       1717 53.21                             121   -0.75 8  208 292 
 ZAR  HZ I        1717 58.46        12.8 0.32            123            208 292 
 GUY2CHZ EP       1717 40.42                             111    0.63 7  305 235 
 GUY2CHE ES       1718 14.29                             111    0.36 7  305 235 
 GUY2CHZ I        1718 23.35         3.3 0.58                           305 235 
                                                                                
