 2017  531 1605 29.4 L   6.801 -73.126146.9  RSN  7 0.3 1.8LRSN                1
 GAP=240        0.60       2.8     4.0  4.3  0.4603E+01 -0.1412E+01 -0.2512E+00E
 Epicentro: LOS SANTOS - SANTANDER                                             3
 ACTION:UPD 17-06-16 13:40 OP:jn   STATUS:               ID:20170531160529 L   I
 OLDACT:UP  17-05-31 23:51 OP:and  STATUS:               ID:20170531155737d    3
 OLDACT:UP  17-05-31 23:50 OP:and  STATUS:               ID:20170531155737d    3
 OLDACT:UP  17-05-31 23:50 OP:and  STATUS:               ID:20170531155737d    3
 OLDACT:UP  17-05-31 23:50 OP:and  STATUS:               ID:20170531155737d    3
 OLDACT:UP  17-05-31 23:47 OP:and  STATUS:               ID:20170531155737d    3
 OLDACT:DUP 17-05-31 23:45 OP:and  STATUS:               ID:20170531155737d    3
 2017-05-31-1558-00M.COL___353                                                 6
 STAT SP IPHASW D HRMM SECON CODA AMPLIT PERI AZIMU VELO AIN AR TRES W  DIS CAZ7
 BRR  HZ EP       16 5 50.94                             152    0.2010 73.1 298 
 BRR  HN ES       16 6  7.73                             152    0.3210 73.1 298 
 RUS  HZ EP       16 5 53.22                             144    0.0010  101 177 
 RUS  HN ES       16 6 11.57                             144   -0.2610  101 177 
 RUS  HZ I        16 6 12.83        14.6 0.36            138            101 177 
 PTB  HZ EP   9   16 5 55.63                             132   -0.98 0  150 259 
 PTB  HN ES       16 6 16.73                             133   -0.16 9  150 259 
 PTB  HZ I        16 6 18.78         4.4 0.44            126            150 259 
 SPBC HZ EP       16 5 58.17                             129    0.09 9  165 220 
 SPBC HN ES       16 6 20.19                             129   -0.29 9  165 220 
 SPBC HZ I        16 6 22.70        11.3 0.32            123            165 220 
 ZAR  HZ EP       16 6  1.89                             122   -0.19 8  206 292 
 ZAR  HE ES       16 6 27.21                             122   -0.40 8  206 292 
 ZAR  HZ I        16 6 32.42         5.7 0.35            119            206 292 
 NOR  HZ EP       16 6  5.46                             119    0.11 8  236 235 
 NOR  HN ES   2   16 6 34.19                             119    0.77 4  236 235 
 NOR  HZ I        16 6 40.75         3.6 0.20            114            236 235 
 CHI  HZ EP   2   16 6  7.52                             117    0.33 4  249 196 
 CHI  HN ES       16 6 36.83                             117    0.13 8  249 196 
 CHI  HZ I        16 6 46.35         2.5 0.34            114            249 196 
                                                                                
