 2015 1231 1013 39.3 L   6.851 -73.153148.1  RSN  5 0.6 1.6LRSN                1
 GAP=212        1.05       9.5     9.3  9.7  0.7527E+01  0.2643E+02 -0.1267E+02E
 Epicentro: LOS SANTOS - SANTANDER                                             3
 ACTION:UPD 16-02-04 15:09 OP:cam  STATUS:               ID:20151231101339 L   I
 OLDACT:REG 15-12-31 20:29 OP:dnl  STATUS:               ID:20151231100750     3
 2015-12-31-1007-50M.COL___320                                                 6
 STAT SP IPHASW D HRMM SECON CODA AMPLIT PERI AZIMU VELO AIN AR TRES W  DIS CAZ7
 BAR2 EZ EP   2   1013 59.49                             169    0.16 5 28.8 187 
 BAR2 EZ ES       1014 14.34                             169   -0.6110 28.8 187 
 BAR2 EZ I        1014 16.23         5.5 0.20            166           28.8 187 
 BRR  HZ EP   2   1014  1.38                             153    0.86 5 68.0 295 
 BRR  HE ES   2   1014 17.08                             153    0.00 5 68.0 295 
 BRR  HN ES       1014 17.83                             153    0.7510 68.0 295 
 BRR  HZ I        1014 21.55         7.7 0.26            146           68.0 295 
 PTB  HZ EP       1014  6.61                             132    0.11 9  148 257 
 PTB  HN ES       1014 27.46                             132   -0.25 9  148 257 
 PTB  HZ I        1014 34.48         7.9 0.04            130            148 257 
 ZAR  HZ EP   4   1014 14.84                             123    3.23 0  201 291 
 ZAR  HN ES   2   1014 36.09                             123   -0.73 4  201 291 
 ZAR  HZ I        1014 43.85         2.3 0.22            121            201 291 
 SML  HZ EP   2   1014 15.74                             118    0.27 4  238 335 
 SML  HN ES   2   1014 42.53                             118   -1.15 4  238 335 
 SML  HZ I        1014 47.64         3.9 0.11            118            238 335 
                                                                                
