 2014 1231 1302 10.9 L   6.820 -73.089141.9  RSN  7 0.3 1.8LRSN                1
 GAP=206        0.68       2.5     3.9  6.4  0.2967E+01 -0.3329E+01 -0.4720E+01E
 Epicentro: LOS SANTOS - SANTANDER                                             3
 ACTION:UPD 15-02-10 17:08 OP:nd   STATUS:               ID:20141231130210 L   I
 OLDACT:UP  14-12-31 22:18 OP:cam  STATUS:               ID:20141231125815     3
 OLDACT:REG 14-12-31 19:58 OP:cam  STATUS:               ID:20141231125815     3
 2014-12-31-1258-15M.COL___268                                                 6
 STAT SP IPHASW D HRMM SECON CODA AMPLIT PERI AZIMU VELO AIN AR TRES W  DIS CAZ7
 RUS  HZ EP       13 2 34.02                             142   -0.3710  103 180 
 RUS  HE ES       13 2 52.85                             142    0.1210  103 180 
 RUS  HZ I        13 2 56.35         4.9 0.38            147            103 180 
 PTB  HZ EP       13 2 37.86                             130   -0.28 9  154 259 
 PTB  HN ES       13 2 59.22                             130   -0.18 9  154 259 
 PTB  HZ I        13 3  6.39         9.4 0.46            133            154 259 
 SPBC HZ EP       13 2 39.95                             127    0.32 9  169 220 
 SPBC HN ES       13 3  2.08                             127    0.03 9  169 220 
 SPBC HZ I        13 3  8.96        11.3 0.42            131            169 220 
 ZAR  HE ES       13 3  8.85                             121   -0.27 8  209 291 
 NOR  HZ EP       13 2 47.01                             117   -0.06 8  241 235 
 NOR  HE ES       13 3 15.66                             117    0.36 8  241 235 
 NOR  HZ I        13 3 17.16         5.0 0.26            121            241 235 
 SML  HZ EP       13 2 47.77                             116    0.40 8  244 334 
 SML  HE ES       13 3 16.06                             116    0.23 8  244 334 
 SML  HZ I        13 3 20.34         9.9 0.10            121            244 334 
 CHI  HZ EP       13 2 48.39                             116   -0.39 8  252 196 
 CHI  HN ES       13 3 18.67                             116    0.33 8  252 196 
 CHI  HZ I        13 3 24.12         3.4 0.24            120            252 196 
                                                                                
