 2011  331 1708 26.5 L   6.808 -73.136146.5  RSN 12 0.4 2.6LRSN                1
 GAP=114        0.81       3.8     5.9  7.5 -0.4802E+01  0.1171E+02  0.8476E+01E
 Epicentro: LOS SANTOS - SANTANDER                                             3
 ACTION:UP  11-06-16 14:37 OP:jfem STATUS:               ID:20110331170826 L   I
 2011-03-31-1706-53S.COL___138                                                 6
 STAT SP IPHASW D HRMM SECON CODA AMPLIT PERI AZIMU VELO SNR AR TRES W  DIS CAZ7
 BTL  SZ EP       17 8 46.27                             172     0.210   19 310 
 BAR2 SZ EP   1   17 8 46.13                             170    -0.1 7   24 192 
 BAR2 SZ ES   2   17 9  1.39                             170    -0.2 5   24 192 
 BAR2 SZ I        17 9  2.75        81.0 0.18                            24 192 
 BRR  HZ IP     C 17 8 47.91                             152     0.210   72 298 
 BRR  HZ I        17 8 48.20       110.0 0.14                            72 298 
 BRR  HN ES   2   17 9  4.46                             152     0.1 5   72 298 
 PAM  SZ EP   1   17 8 49.07                             152     0.4 7   76  39 
 PAM  SE ES   2   17 9  6.19                             152     0.2 5   76  39 
 GRA  SZ EP       17 8 50.78                             138    -0.910  125  17 
 GRA  SZ ES   1   17 9 11.36                             138     0.0 7  125  17 
 GRA  SZ I        17 9 17.94        34.3 0.36                           125  17 
 OCA  SZ EP   1   17 8 54.66                             130    -0.1 7  160 353 
 OCA  SZ ES   2   17 9 17.29                             130     0.4 5  160 353 
 YOP  SZ EP   1   17 8 56.98                             127     0.4 7  179 154 
 YOP  SN ES   2   17 9 20.23                             127     0.1 4  179 154 
 NOR  SZ EP   1   17 9  2.33                             119    -0.1 6  236 235 
 NOR  SN ES   2   17 9 30.20                             119    -0.2 4  236 235 
 CHI  HZ EP   1   17 9  4.51                             117     0.2 6  250 195 
 CHI  HE ES   2   17 9 33.53                             117    -0.3 4  250 195 
 CHI  HZ I        17 9 39.99        24.2 0.30                           250 195 
 HEL  HZ EP   1   17 9  7.85                             115     1.0 6  273 256 
 HEL  HZ I        17 9 46.36        28.1 0.35                           273 256 
 DBB  SZ EP   1   17 9 13.84                             110    -0.3 5  340 274 
 PRA  HZ EP   1   17 9 20.14                             107     0.0 4  393 210 
 PRA  HN ES   2   1710  1.23                             107    -0.8 3  393 210 
                                                                                
