 2014  831 1005 10.1 L   6.761 -73.098144.8  RSN  4 0.5 1.4LRSN                1
 GAP=267        1.11       8.7    12.7 10.9 -0.2216E+02  0.4933E+02 -0.4781E+00E
 Epicentro: LOS SANTOS - SANTANDER                                             3
 ACTION:UPD 14-09-15 21:54 OP:nd   STATUS:               ID:20140831100511 L   I
 OLDACT:UP  14-09-01 08:14 OP:CAM  STATUS:               ID:20140831100511 L   3
 OLDACT:REG 14-08-31 21:06 OP:stll STATUS:               ID:20140831095818     3
 2014-08-31-0958-18M.COL___269                                                 6
 STAT SP IPHASW D HRMM SECON CODA AMPLIT PERI AZIMU VELO AIN AR TRES W  DIS CAZ7
 BAR2 SZ ES       10 5 44.38                             171   -0.4110 20.9 207 
 BAR2 SZ I        10 5 45.85         6.0 0.18            172           20.9 207 
 BRR  HZ EP       10 5 31.92                             150    0.3410 77.9 299 
 BRR  HN ES       10 5 48.68                             150    0.3810 77.9 299 
 PTB  HZ EP       10 5 36.98                             131   -0.46 9  152 261 
 PTB  HN ES   1   10 5 57.98                             131   -0.75 7  152 261 
 SPBC HN ES       10 6  1.29                             129    0.54 9  163 221 
                                                                                
