 2015  531 1635 15.3 L   6.798 -73.121147.3  RSN  9 0.3 1.8LRSN                1
 GAP=185        0.81       2.8     4.6  6.0 -0.1407E+01  0.3907E+01 -0.4169E+01E
 Epicentro: LOS SANTOS - SANTANDER                                             3
 ACTION:UPD 15-09-10 22:08 OP:cam  STATUS:               ID:20150531163515 L   I
 OLDACT:REG 15-05-31 20:29 OP:spq  STATUS:               ID:20150531162747     3
 2015-05-31-1627-47M.COL___306                                                 6
 STAT SP IPHASW D HRMM SECON CODA AMPLIT PERI AZIMU VELO AIN AR TRES W  DIS CAZ7
 BAR2 EZ EP       1635 35.02                             170   -0.1410 23.8 196 
 BAR2 EZ ES   1   1635 50.60                             170   -0.02 7 23.8 196 
 BAR2 EZ I        1635 51.26        13.7 0.16            170           23.8 196 
 BRR  HZ EP       1635 36.93                             152    0.1410 73.6 298 
 BRR  HN ES       1635 54.18                             152    0.6610 73.6 298 
 BRR  HZ I        1635 55.09         9.8 0.14            149           73.6 298 
 RUS  HZ EP   1   1635 39.37                             144    0.15 7  100 178 
 RUS  HE ES   1   1635 57.76                             144   -0.08 7  100 178 
 RUS  HZ I        1635 59.16         6.1 0.32            146            100 178 
 OCA  HZ EP       1635 43.63                             130   -0.19 9  161 352 
 OCA  HE ES       1636  5.62                             130   -0.41 9  161 352 
 OCA  HZ I        1636 10.88        16.4 0.50            130            161 352 
 SPBC HE ES       1636  6.13                             129   -0.41 9  165 220 
 SPBC HZ I        1636  8.70        10.9 0.42            130            165 220 
 ZAR  HZ EP       1635 48.71                             122    0.56 8  207 292 
 ZAR  HE ES       1636 13.21                             122   -0.52 8  207 292 
 ZAR  HZ I        1636 19.14         6.9 0.40            122            207 292 
 NOR  HN ES   1   1636 19.29                             119   -0.20 6  237 235 
 NOR  HZ I        1636 23.57         4.1 0.12            119            237 235 
 SML  HZ EP       1635 52.40                             118    0.21 8  245 335 
 SML  HN ES   1   1636 20.90                             118   -0.03 6  245 335 
 SML  HZ I        1636 24.53         6.8 0.08            118            245 335 
 GUY2CHZ EP   4   1636  1.38                             112    2.13 0  303 235 
 GUY2CHE ES   1   1636 33.76                             112    0.25 5  303 235 
 GUY2CHZ I        1636 39.15         2.4 0.26                           303 235 
                                                                                
