 2017  831 1241 51.4 L   6.822 -73.115145.5  RSN 14 0.6 2.2LRSN                1
 GAP=114        1.38       4.4     4.6  7.3  0.3721E+01  0.7000E+01  0.1126E+02E
 Epicentro: LOS SANTOS - SANTANDER                                             3
 ACTION:UPD 17-09-04 20:26 OP:rebc STATUS:               ID:20170831124151 L   I
 OLDACT:UP  17-08-31 21:57 OP:dani STATUS:               ID:20170831123728     3
 OLDACT:UP  17-08-31 21:57 OP:dani STATUS:               ID:20170831123728     3
 OLDACT:REG 17-08-31 19:55 OP:dani STATUS:               ID:20170831123728     3
 2017-08-31-1238-00M.COL___404                                                 6
 STAT SP IPHASW D HRMM SECON CODA AMPLIT PERI AZIMU VELO AIN AR TRES W  DIS CAZ7
 BAR2 EZ EP     C 1242 10.76                             169   -0.3110 26.4 196 
 BAR2 EZ ES       1242 26.02                             169   -0.3810 26.4 196 
 BAR2 EZ I        1242 27.17        38.7 0.40            166           26.4 196 
 BRR  HZ EP       1242 12.74                             152    0.1110 73.1 296 
 BRR  HN ES       1242 29.40                             152    0.2210 73.1 296 
 BRR  HZ I        1242 33.07        27.2 0.46            151           73.1 296 
 PAM  EZ EP       1242 13.69                             152    0.3410 73.4  39 
 PAM  EN ES       1242 30.62                             152    0.1410 73.4  39 
 PAM  EZ I        1242 32.61        31.2 0.46            157           73.4  39 
 RUS  HZ EP       1242 15.27                             143   -0.0210  103 178 
 RUS  HN ES       1242 33.79                             143   -0.1310  103 178 
 SPBC HZ EP       1242 19.75                             128   -0.51 9  167 219 
 SPBC HN ES       1242 42.75                             128   -0.02 9  167 219 
 SPBC HZ I        1242 48.92        15.9 0.42            128            167 219 
 YPLC HZ EP     C 1242 21.39                             126    0.16 9  177 153 
 YPLC HN ES       1242 45.77                             126    1.28 9  177 153 
 YPLC HZ I        1242 47.89        13.1 0.34            128            177 153 
 ZAR  HZ EP       1242 24.27                             122    0.21 8  206 291 
 ZAR  HN ES       1242 49.04                             122   -0.49 8  206 291 
 ZAR  HZ I        1242 55.07        18.7 0.44            123            206 291 
 NOR  HZ EP     C 1242 27.55                             118   -0.01 8  239 234 
 NOR  HN ES       1242 55.62                             118   -0.14 8  239 234 
 NOR  HZ I        1243  4.91         5.7 0.38            119            239 234 
 CHI  HZ EP       1242 30.63                             117    1.20 8  252 196 
 CHI  HN ES       1242 59.02                             117   -0.08 8  252 196 
 CHI  HZ I        1243  1.56         4.1 0.31            118            252 196 
 HEL  HN ES       1243  3.91                             114    0.20 7  276 255 
 GUY2CHZ EP   3   1242 37.48                             112    2.02 2  305 235 
 GUY2CHN ES   4   1243 14.64                             112    4.81 0  305 235 
 GUY2CHZ I        1243 18.74         4.3 0.66                           305 235 
 PTGC HZ EP       1242 34.16                             111   -1.20 7  310 159 
 PTGC HE ES       1243  7.81                             111   -1.84 7  310 159 
 PTGC HZ I        1243 10.67        11.4 0.44            113            310 159 
 PRA  HZ EP       1242 45.21                             106   -0.14 6  396 210 
 PRA  HN ES       1243 28.33                             106    0.90 6  396 210 
 PRA  HZ I        1243 34.53         5.9 0.41            107            396 210 
 SJC  HZ EP   9   1242 45.06                             106   -1.87 0  409 326 
 SJC  HN ES       1243 27.13                             106   -1.24 6  409 326 
 SJC  HZ I        1243 30.20         4.5 0.50            107            409 326 
                                                                                
