 2011 1031 1154 35.3 L   6.800 -73.118150.7  RSN 13 0.4 2.7LRSN                1
 GAP=116        0.78       3.3     4.3  5.1  0.1421E+00  0.7624E+01  0.3564E+01E
 Epicentro: LOS SANTOS - SANTANDER                                             3
 ACTION:UPD 12-07-13 16:07 OP:ep   STATUS:               ID:20111031115435 L   I
 2011-10-31-1152-57S.COL___176                                                 6
 STAT SP IPHASW D HRMM SECON CODA AMPLIT PERI AZIMU VELO AIN AR TRES W  DIS CAZ7
 BTL  SZ EP       1154 55.83                             172    0.3810 21.1 308 
 BAR2 SZ EP       1154 55.49                             170   -0.0110 24.1 197 
 BAR2 SZ ES   1   1155 11.09                             170   -0.20 7 24.1 197 
 BAR2 SZ I        1155 11.75        69.2 0.36                          24.1 197 
 BRR  HZ IP     C 1154 57.36                             152    0.2610 73.9 297 
 BRR  HZ I        1154 57.53       193.6 0.16                          73.9 297 
 BRR  HN ES   1   1155 14.76                             152    0.63 7 73.9 297 
 PAM  SZ EP       1154 58.20                             152    0.3110 75.4  38 
 PAM  SN ES   1   1155 15.42                             152   -0.13 7 75.4  38 
 RUS  HZ EP       1154 59.28                             145   -0.2110  100 178 
 RUS  HN ES   1   1155 17.96                             145   -0.43 7  100 178 
 RUS  HZ I        1155 19.20        29.3 0.22                           100 178 
 OCA  SZ EP       1155  3.64                             131   -0.35 9  161 352 
 OCA  SZ ES   2   1155 26.11                             131   -0.30 5  161 352 
 OCA  SZ I        1155 30.69        56.0 0.33                           161 352 
 YOP  SZ EP       1155  5.45                             128   -0.09 9  178 154 
 ZAR  HZ EP       1155  7.79                             123   -0.53 8  207 292 
 ZAR  HE ES   2   1155 33.41                             123   -0.70 4  207 292 
 ZAR  HZ I        1155 39.09        42.5 0.32                           207 292 
 NOR  SZ EP       1155 11.34                             119   -0.21 8  237 235 
 NOR  SE ES   3   1155 39.38                             119   -0.48 2  237 235 
 HEL  HZ EP       1155 16.35                             115    0.29 8  275 256 
 HEL  HN ES   2   1155 47.23                             115   -0.65 4  275 256 
 HEL  HZ I        1155 54.16        28.3 0.32                           275 256 
 RREF HZ EP       1155 22.74                             112    0.85 7  324 230 
 RREF HZ I        1156  7.52        22.4 0.26                           324 230 
 MON  HZ EP   3   1155 22.55                             109   -2.18 2  356 308 
 PRA  HZ EP       1155 29.08                             107   -0.06 6  394 210 
 PRA  HE ES   1   1156 11.44                             107    0.28 4  394 210 
                                                                                
