 2012 1231 1145 28.7 L   6.819 -73.109149.3  RSN  8 0.5 2.3LRSN                1
 GAP=184        1.16       3.6     6.6  6.9  0.3780E+01  0.3969E+00 -0.3911E+01E
 Epicentro: LOS SANTOS - SANTANDER                                             3
 ACTION:UPD 13-01-04 14:31 OP:ep   STATUS:               ID:20121231114528 L   I
 2012-12-31-1140-00M.COL___239                                                 6
 STAT SP IPHASW D HRMM SECON CODA AMPLIT PERI AZIMU VELO AIN AR TRES W  DIS CAZ7
 BAR2 SZ EP       1145 48.81                             170    0.0310 26.3 198 
 BAR2 SZ I        1145 48.98        31.2 0.20                          26.3 198 
 BAR2 SZ ES       1146  4.11                             170   -0.3610 26.3 198 
 BRR  HZ EP       1145 50.69                             152    0.3510 73.8 296 
 BRR  HZ I        1145 50.99        31.0 0.24                          73.8 296 
 BRR  HN ES       1146  8.14                             152    0.8910 73.8 296 
 RUS  HZ EP       1145 52.82                             144   -0.0810  102 178 
 RUS  HN ES       1146 11.65                             144   -0.1510  102 178 
 RUS  HN I        1146 13.31        25.4 0.24                           102 178 
 PTB  HZ EP       1145 55.49                             132   -0.83 9  152 258 
 PTB  HN ES   1   1146 16.72                             132   -1.16 7  152 258 
 PTB  HN I        1146 21.84        23.4 0.34                           152 258 
 OCA  HZ EP       1145 57.40                             131    0.29 9  159 352 
 OCA  HN ES       1146 18.85                             131   -0.44 9  159 352 
 OCA  HN I        1146 22.35        65.3 0.32                           159 352 
 ZAR  HZ EP       1146  1.77                             123    0.12 8  207 291 
 ZAR  HN ES       1146 27.61                             123    0.24 8  207 291 
 ZAR  HN I        1146 33.32        18.6 0.44                           207 291 
 CHI  HZ EP       1146  7.02                             117    0.13 8  252 196 
 CHI  HZ I        1146  8.91         4.9 0.16                           252 196 
 CHI  HE ES       1146 37.42                             117    0.71 8  252 196 
 COD  HZ EP       1146 16.82                             110   -0.17 6  347 354 
 COD  HN ES       1146 54.75                             110    0.07 6  347 354 
                                                                                
