 2017  331 1855 53.0 L   6.749 -73.157149.7  RSN  6 0.3 2.0LRSN                1
 GAP=137        0.90       4.6     4.0  6.1  0.1945E+01  0.5925E+01 -0.1359E+01E
 Epicentro: LOS SANTOS - SANTANDER                                             3
 ACTION:UPD 17-05-25 18:47 OP:jn   STATUS:               ID:20170331185553 L   I
 OLDACT:DUP 17-03-31 23:38 OP:dnl  STATUS:               ID:20170331184744d    3
 2017-03-31-1848-00M.COL___350                                                 6
 STAT SP IPHASW D HRMM SECON CODA AMPLIT PERI AZIMU VELO AIN AR TRES W  DIS CAZ7
 BAR2 EZ EP       1856 13.18                             173    0.1310 17.5 189 
 BAR2 EZ ES       1856 28.34                             173   -0.3110 17.5 189 
 BAR2 EZ I        1856 29.14        16.9 0.28            173           17.5 189 
 BRR  HZ EP       1856 14.96                             153    0.2410 73.0 303 
 BRR  HE ES       1856 32.35                             153    0.7210 73.0 303 
 BRR  HZ I        1856 35.65        22.7 0.44            150           73.0 303 
 PAM  EZ EP       1856 15.94                             150   -0.0510 82.6  38 
 PAM  EN ES       1856 33.50                             150   -0.3910 82.6  38 
 PAM  EZ I        1856 35.27        31.7 0.90            152           82.6  38 
 RUS  HZ EP       1856 16.96                             146    0.1610 95.0 175 
 RUS  HN ES       1856 35.52                             146    0.2010 95.0 175 
 RUS  HZ I        1856 36.39         6.5 0.54            149           95.0 175 
 PTB  HZ EP       1856 19.70                             133   -0.44 9  146 261 
 PTB  HE ES       1856 40.80                             133   -0.47 9  146 261 
 PTB  HZ I        1856 45.70         8.0 0.24            133            146 261 
 ZAR  HZ EP       1856 26.05                             123    0.19 9  205 294 
 ZAR  HN ES       1856 51.37                             123   -0.08 9  205 294 
 ZAR  HZ I        1856 57.34        11.0 0.28            123            205 294 
                                                                                
