 2017  831 1523 42.4 L   7.413 -73.461102.4  RSN  6 0.5 1.7LRSN                1
 GAP=248        0.70       5.0     4.8  6.2  0.1630E+02  0.3445E+01  0.6204E+00E
 Epicentro: SABANA DE TORRES - SANTANDER                                       3
 ACTION:UPD 17-09-04 20:27 OP:rebc STATUS:               ID:20170831152342 L   I
 OLDACT:UP  17-08-31 23:01 OP:dani STATUS:               ID:20170831151725     3
 OLDACT:UP  17-08-31 23:00 OP:dani STATUS:               ID:20170831151725     3
 OLDACT:REG 17-08-31 20:08 OP:dani STATUS:               ID:20170831151725     3
 2017-08-31-1518-00M.COL___405                                                 6
 STAT SP IPHASW D HRMM SECON CODA AMPLIT PERI AZIMU VELO AIN AR TRES W  DIS CAZ7
 BRR  HZ EP       1523 57.21                             155   -0.1510 43.7 219 
 BRR  HE ES       1524  9.06                             155    0.0610 43.7 219 
 BRR  HZ I        1524 10.20        27.9 0.09            147           43.7 219 
 BAR2 EZ EP       1524  1.48                             134    0.0110 95.8 161 
 BAR2 EZ ES       1524 16.26                             134   -0.0510 95.8 161 
 BAR2 EZ I        1524 17.59        11.9 0.42            129           95.8 161 
 ZAR  HZ EP       1524  6.60                             119   -0.38 9  154 273 
 ZAR  HN ES       1524 26.51                             119    0.38 9  154 273 
 ZAR  HZ I        1524 28.43         8.0 0.14            117            154 273 
 RUS  HZ EP   3   1524 11.66                             116    2.01 2  173 166 
 RUS  HN ES       1524 30.96                             116    0.09 9  173 166 
 RUS  HZ I        1524 39.63         4.8 0.31            114            173 166 
 SPBC HN ES       1524 36.57                             111    0.04 8  206 199 
 NOR  HN ES   3   1524 44.93                             106   -2.04 2  257 217 
                                                                                
