 2011 1231 1912 15.5 L   6.791 -73.151141.2  RSN 15 0.4 2.6LRSN                1
 GAP=114        0.71       3.1     3.6  5.2  0.9805E+00  0.5253E+01  0.4440E+01E
 Epicentro: LOS SANTOS - SANTANDER                                             3
 ACTION:UPD 12-07-13 16:19 OP:ep   STATUS:               ID:20111231191215 L   I
 2011-12-31-1910-00M.COL___187                                                 6
 STAT SP IPHASW D HRMM SECON CODA AMPLIT PERI AZIMU VELO AIN AR TRES W  DIS CAZ7
 BAR2 SZ EP       1912 34.50                             171   -0.0610 22.3 189 
 BAR2 SZ ES   2   1912 49.15                             171   -0.28 5 22.3 189 
 BAR2 SZ I        1912 50.90       103.5 0.18                          22.3 189 
 BRR  HZ IP     C 1912 36.28                             152    0.1310 71.1 299 
 BRR  HZ I        1912 37.93       131.0 0.15                          71.1 299 
 BRR  HN ES   1   1912 52.92                             152    0.66 7 71.1 299 
 PAM  SZ EP       1912 37.33                             150    0.0310 78.5  39 
 PAM  SN ES   2   1912 53.56                             150   -0.74 5 78.5  39 
 RUS  HZ EP   1   1912 38.65                             143   -0.08 7 99.7 176 
 RUS  HN ES   2   1912 56.92                             143    0.06 5 99.7 176 
 RUS  HZ I        1912 59.12       125.2 0.28                          99.7 176 
 PTB  HZ EP   1   1912 41.48                             131   -0.54 7  147 259 
 PTB  HN ES   2   1913  2.17                             131   -0.55 5  147 259 
 PTB  HZ I        1913  5.09         0.7 0.12                           147 259 
 OCA  SZ EP   1   1912 43.60                             128    0.06 7  161 353 
 OCA  SZ ES   2   1913  6.16                             128    0.75 5  161 353 
 OCA  SZ I        1913  9.45        84.0 0.20                           161 353 
 YOP  SZ EP   1   1912 45.04                             125   -0.12 7  178 153 
 YOP  SN ES   2   1913  8.55                             125    0.26 4  178 153 
 ZAR  HZ EP       1912 47.02                             121   -0.61 9  204 292 
 ZAR  HN ES   2   1913 11.79                             121   -0.90 4  204 292 
 ZAR  HZ I        1913 18.77        51.1 0.13                           204 292 
 NOR  SZ EP       1912 50.93                             118    0.08 8  234 235 
 NOR  SN ES   2   1913 18.71                             118    0.28 4  234 235 
 CHI  HZ EP   1   1912 53.15                             116    0.32 6  248 195 
 CHI  HZ I        1912 54.46        26.4 0.29                           248 195 
 CHI  HN ES   2   1913 22.28                             116    0.33 4  248 195 
 HEL  HZ EP   1   1912 56.31                             114    0.92 6  271 256 
 HEL  HN ES   2   1913 26.06                             114   -0.45 4  271 256 
 HEL  HZ I        1913 34.41        51.8 0.32                           271 256 
 VIL  SZ EP   1   1912 58.30                             111   -0.29 5  302 191 
 RREF HZ EP   1   1913  1.80                             110    0.48 5  321 229 
 DBB  SZ EP       1913  3.09                             109    0.36 7  339 274 
 PRA  HZ EP   1   1913  8.19                             106   -0.54 4  391 210 
 PRA  HN ES   2   1913 50.48                             106    0.23 3  391 210 
 PRA  HZ I        1913 58.02        80.5 0.21                           391 210 
                                                                                
