 2015  131 1421  1.2 L   6.879 -73.302123.9  RSN 11 0.4 1.9LRSN                1
 GAP=105        0.98       3.0     3.9  6.2 -0.3390E+01  0.5178E+01  0.6420E+00E
 Epicentro: BETULIA - SANTANDER                                                3
 ACTION:UPD 15-03-02 15:44 OP:nd   STATUS:               ID:20150131142101 L   I
 OLDACT:UP  15-02-01 00:19 OP:spq  STATUS:               ID:20150131141748     3
 OLDACT:REG 15-01-31 21:38 OP:spq  STATUS:               ID:20150131141748     3
 2015-01-31-1417-48M.COL___268                                                 6
 STAT SP IPHASW D HRMM SECON CODA AMPLIT PERI AZIMU VELO AIN AR TRES W  DIS CAZ7
 BAR2 EZ EP       1421 18.26                             164   -0.2610 34.3 157 
 BAR2 EZ ES   1   1421 31.47                             164   -0.57 7 34.3 157 
 BAR2 EZ I        1421 32.58        50.0 0.22            166           34.3 157 
 BRR  HZ EP       1421 18.79                             156   -0.1210 51.9 299 
 BRR  HE ES       1421 32.69                             156   -0.0510 51.9 299 
 BRR  HZ I        1421 33.11        29.0 0.12            152           51.9 299 
 PAM  SZ EP       1421 21.74                             144    0.1610 83.8  53 
 PAM  SE ES       1421 38.25                             144    0.7610 83.8  53 
 PAM  SZ I        1421 39.95        15.6 0.30            144           83.8  53 
 PTB  HZ EP   4   1421 23.64                             130   -1.41 0  133 254 
 PTB  HN ES   1   1421 43.68                             130    0.01 7  133 254 
 PTB  HZ I        1421 45.91        10.3 0.40            128            133 254 
 OCA  HZ EP       1421 26.40                             126   -0.52 9  150 359 
 OCA  HN ES       1421 46.44                             126   -0.55 9  150 359 
 OCA  HZ I        1421 53.49        13.3 0.22            124            150 359 
 SPBC HE ES       1421 48.74                             124    0.17 9  160 212 
 SPBC HZ I        1421 49.40        11.4 0.22            124            160 212 
 ZAR  HZ EP   1   1421 30.35                             120    0.10 7  185 292 
 ZAR  HE ES       1421 53.66                             120    0.75 9  185 292 
 ZAR  HZ I        1422  0.32        10.6 0.22            118            185 292 
 NOR  HZ EP       1421 35.07                             114    0.25 8  226 230 
 NOR  HN ES       1422  0.45                             114   -0.60 8  226 230 
 NOR  HZ I        1422  1.82         5.0 0.26            114            226 230 
 SML  HZ EP   1   1421 34.63                             114   -0.40 6  229 338 
 SML  HE ES   1   1422  1.78                             114    0.35 6  229 338 
 SML  HZ I        1422  5.31        19.3 0.23            113            229 338 
 CHI  HZ EP   1   1421 38.63                             112    0.34 6  253 191 
 CHI  HE ES   1   1422  7.55                             112    0.32 6  253 191 
 CHI  HZ I        1422 12.24         2.7 0.38            112            253 191 
 HEL  HZ EP   4   1421 40.28                             111    1.53 0  258 253 
 HEL  HN ES   4   1422  6.63                             111   -1.42 0  258 253 
 HEL  HZ I        1422 11.64         4.1 0.30            110            258 253 
                                                                                
