 2013  531 1529  6.7 L   7.447 -72.856  4.0  RSN  7 0.5 1.7LRSN                1
 GAP=164        1.28       3.9     2.7  6.8 -0.4211E+01 -0.7366E+00  0.3740E+01E
 Epicentro: CALIFORNIA - SANTANDER                                             3
 ACTION:UPD 13-06-20 09:55 OP:ep   STATUS:               ID:20130531152906 L   I
 OLDACT:UP  13-05-31 22:30 OP:Juan STATUS:               ID:20130531152906 L   3
 2013-05-31-1518-50M.COL___217                                                 6
 STAT SP IPHASW D HRMM SECON CODA AMPLIT PERI AZIMU VELO AIN AR TRES W  DIS CAZ7
 PAM  SZ EP       1529 10.66                              47   -0.3210 20.9 125 
 PAM  SN ES       1529 14.25                              47   -0.0610 20.9 125 
 PAM  SE I        1529 14.93       333.6 0.20             99           20.9 125 
 GIR2 SZ EP       1529 15.06                              47   -0.7510 55.2 223 
 GIR2 SZ ES       1529 22.10                              47   -0.8110 55.2 223 
 CAPV BZ ES       1529 28.54                              47   -0.0110 75.5  52 
 BAR2 SZ EP       1529 23.03                              47    0.1610  101 201 
 BAR2 SZ ES       1529 35.49                              47    0.0110  101 201 
 BAR2 SZ I        1529 38.01        10.6 0.16             47            101 201 
 BRR  HZ EP       1529 23.21                              47    0.5010  102 248 
 BRR  HE ES       1529 35.08                              47   -0.1110  102 248 
 BRR  HN I        1529 35.80        16.6 0.34             47            102 248 
 RUS  HZ EP   4   1529 35.22                              47    1.09 0  174 188 
 RUS  HN ES       1529 56.39                              47    0.87 9  174 188 
 RUS  HE I        1530  0.31         8.1 0.28             47            174 188 
 PTB  HZ EP       1529 38.23                              37    0.83 9  203 241 
 PTB  HN ES       1530  1.46                              37    0.12 9  203 241 
 PTB  HE I        1530  2.72         9.1 0.18             37            203 241 
                                                                                
