 2016  331 1905 22.2 L   6.767 -73.177144.0  RSN  9 0.4 1.9LRSN                1
 GAP=134        1.01       3.8     3.9  7.1 -0.5603E-01  0.1136E+02  0.3674E+01E
 Epicentro: LOS SANTOS - SANTANDER                                             3
 ACTION:UPD 16-05-13 21:29 OP:cam  STATUS:               ID:20160331190522 L   I
 OLDACT:REG 16-03-31 21:51 OP:ak   STATUS:               ID:20160331185743     3
 2016-03-31-1857-43M.COL___316                                                 6
 STAT SP IPHASW D HRMM SECON CODA AMPLIT PERI AZIMU VELO AIN AR TRES W  DIS CAZ7
 BAR2 EZ EP       19 5 40.64                             172   -0.9410 19.3 182 
 BAR2 EZ ES       19 5 56.74                             172    0.0810 19.3 182 
 BAR2 EZ I        19 5 57.87        25.8 0.32            172           19.3 182 
 PAM  EZ EP       19 5 44.99                             149    0.4210 82.4  40 
 PAM  EN ES       19 6  2.17                             149    0.1810 82.4  40 
 PAM  EZ I        19 6  4.40        20.6 0.46            151           82.4  40 
 RUS  HZ EP       19 5 45.46                             144   -0.1110 97.3 174 
 RUS  HN ES       19 6  4.04                             144    0.2610 97.3 174 
 RUS  HZ I        19 6  5.54         9.2 0.34            146           97.3 174 
 PTB  HZ EP       19 5 48.30                             133   -0.38 9  144 260 
 PTB  HN ES       19 6  8.79                             133   -0.52 9  144 260 
 PTB  HZ I        19 6 13.61        11.6 0.22            131            144 260 
 ZAR  HZ EP   2   19 5 55.04                             122    0.67 4  202 293 
 ZAR  HN ES       19 6 19.97                             122    0.52 9  202 293 
 ZAR  HZ I        19 6 22.67        12.2 0.12            122            202 293 
 NOR  HN ES       19 6 25.02                             119    0.32 8  230 235 
 CHI  HZ EP       19 5 59.43                             117    0.08 8  244 195 
 CHI  HN ES       19 6 28.26                             117   -0.05 8  244 195 
 CHI  HZ I        19 6 36.34         3.1 0.60            118            244 195 
 URE  HZ EP   4   19 6  1.31                             113   -1.70 0  282 293 
 URE  HN ES       19 6 34.52                             113   -0.29 7  282 293 
 URE  HZ I        19 6 46.68         6.5 0.20            113            282 293 
 GUY2CHZ EP   2   19 6  5.03                             112   -0.17 4  296 235 
 GUY2CHN ES       19 6 39.39                             112    0.68 7  296 235 
 GUY2CHZ I        19 6 46.95         3.8 0.28                           296 235 
 SOCV BZ EP   4   19 6  3.70                             111   -2.06 0  306  57 
 SOCV BN ES   4   19 6 31.81                             111   -7.90 0  306  57 
                                                                                
