 2014  531 1034  0.6 L   6.815 -73.146142.7  RSN 11 0.4 2.2LRSN                1
 GAP=201        0.78       2.6     4.0  5.2  0.1312E+01  0.4980E+01 -0.2245E+01E
 Epicentro: LOS SANTOS - SANTANDER                                             3
 ACTION:UPD 15-03-16 17:02 OP:nd   STATUS:               ID:20140531103400 L   I
 OLDACT:REG 14-05-31 22:40 OP:cam  STATUS:               ID:20140531103000     3
 2014-05-31-1030-00M.COL___276                                                 6
 STAT SP IPHASW D HRMM SECON CODA AMPLIT PERI AZIMU VELO AIN AR TRES W  DIS CAZ7
 BAR2 SZ EP       1034 20.09                             170    0.1510 24.9 189 
 BAR2 SZ ES       1034 35.31                             170    0.3210 24.9 189 
 BAR2 SZ I        1034 36.98        21.4 0.24            160           24.9 189 
 RUS  HZ EP   1   1034 24.30                             143    0.09 7  102 176 
 RUS  HN ES       1034 42.25                             143   -0.3510  102 176 
 RUS  HZ I        1034 43.42        13.8 0.38            127            102 176 
 PTB  HZ EP       1034 26.83                             131   -0.55 9  148 258 
 PTB  HN ES       1034 47.76                             131   -0.48 9  148 258 
 PTB  HZ I        1034 55.33        20.9 0.40            117            148 258 
 SPBC HZ EP       1034 29.07                             128    0.05 9  164 219 
 SPBC HN ES       1034 50.99                             128   -0.17 9  164 219 
 SPBC HZ I        1034 54.04        63.5 0.86            114            164 219 
 ZAR  HZ EP       1034 32.74                             122   -0.08 9  203 292 
 ZAR  HN ES       1034 58.36                             122    0.45 9  203 292 
 ZAR  HZ I        1035  5.09        16.4 0.36            110            203 292 
 NOR  HN ES       1035  4.28                             118    0.18 8  236 234 
 NOR  HZ I        1035  9.34        10.3 0.24            107            236 234 
 SML  HZ EP       1034 36.82                             117   -0.11 8  242 335 
 SML  HN ES       1035  5.34                             117    0.10 8  242 335 
 SML  HZ I        1035  9.83        24.7 0.10            107            242 335 
 CHI  HZ EP   1   1034 38.22                             116   -0.12 6  250 195 
 CHI  HN ES       1035  8.20                             116    0.45 8  250 195 
 CHI  HZ I        1035 17.36         3.9 0.38            106            250 195 
 HEL  HZ EP   4   1034 41.96                             114    1.22 0  272 255 
 HEL  HZ I        1035 18.34         8.8 0.34            104            272 255 
 URE  HZ EP   4   1034 44.24                             113    2.75 0  283 292 
 GUY2CHZ EP   1   1034 45.20                             112    0.99 5  302 235 
 GUY2CHE ES   1   1035 18.34                             112    0.15 5  302 235 
 GUY2CHZ I        1035 27.41         7.3 0.42                           302 235 
 PRA  HZ EP   1   1034 53.57                             106   -0.65 4  393 209 
 PRA  HZ I        1035 41.11         3.1 0.30             99            393 209 
                                                                                
