 2010  131 1717 34.6 L   6.620 -73.411119.7  RSN 12 0.6 2.8LRSN                1
 GAP= 59        1.06       5.2     8.0  8.4 -0.3405E+00  0.4169E+02 -0.3474E+01E
 Epicentro: EL CARMEN DE CHUCURI - SANTANDER                                   3
 ACTION:UP  10-08-24 09:46 OP:vdl  STATUS:               ID:20100131171734 L   I
 2010-01-31-1715-51S.COL___094                                                 6
 STAT SP IPHASW D HRMM SECON CODA AMPLIT PERI AZIMU VELO SNR AR TRES W  DIS CAZ7
 BAR2 SZ IP       1717 51.29                             167     0.110   25  97 
 BAR2 SZ ES       1718  3.80                             167    -0.310   25  97 
 GIR2 SZ EP       1717 52.62                             153     0.310   56  25 
 GIR2 SZ ES   2   1718  6.76                             153     0.7 5   56  25 
 RUS  BZ IP       1717 54.55                             141    -0.410   88 156 
 RUS  BE ES   1   1718 10.76                             141     0.0 7   88 156 
 RUS  BZ I        1718 11.71       188.8 0.30                            88 156 
 OCA  SZ EP   1   1718  3.80                             120     0.8 7  179   3 
 CHI  HZ EP   1   1718  7.85                             114    -0.2 6  223 189 
 CHI  HZ I        1718  9.03        31.9 0.28                           223 189 
 CHI  HE ES   2   1718 34.45                             114     0.2 4  223 189 
 HEL  HZ EP   1   1718  9.77                             112    -0.1 6  239 259 
 HEL  HN ES   2   1718 37.69                             112     0.4 4  239 259 
 HEL  HZ I        1718 41.25        55.9 0.49                           239 259 
 RREF BZ EP   2   1718 16.26                             108     0.6 4  287 229 
 RREF BZ I        1718 55.13        66.5 0.50                           287 229 
 TOL  SZ EP   2   1718 19.56                             106     1.7 4  309 223 
 DBB  SZ EP   2   1718 17.92                             106     0.0 3  312 278 
 MON  HZ IP       1718 20.24                             104    -1.4 7  344 314 
 MON  HE ES   2   1718 57.90                                    -0.4 3  344 314 
 MON  HZ I        1718 58.09        14.0 0.91                           344 314 
 PRA  HZ EP   2   1718 23.10                             103    -0.5 3  361 207 
 PRA  HZ I        1719  8.24        42.7 0.49                           361 207 
 SDV  BZ EP   1   1718 27.89                             101    -0.1 4  396  51 
                                                                                
