 2010  831 1029 38.3 L   6.784 -73.081147.7  RSN 13 0.3 2.6LRSN                1
 GAP=166        0.66       2.4     4.5  4.3 -0.4780E+01  0.1335E+01  0.1477E+01E
 Epicentro: LOS SANTOS - SANTANDER                                             3
 ACTION:UP  10-09-07 10:59 OP:vdl  STATUS:               ID:20100831102938 L   I
 2010-08-31-1026-04S.COL___120                                                 6
 STAT SP IPHASW D HRMM SECON CODA AMPLIT PERI AZIMU VELO SNR AR TRES W  DIS CAZ7
 BAR2 SZ EP       1029 58.14                             170    -0.110   24 208 
 BAR2 SZ ES   1   1030 13.47                             170    -0.2 7   24 208 
 BAR2 SZ I        1030 14.91        84.9 0.38                            24 208 
 BRR  HZ IP     C 1030  0.05                             151     0.010   78 297 
 BRR  HZ I        1030  0.33       129.9 0.15                            78 297 
 BRR  HE ES       1030 17.22                             151     0.110   78 297 
 RUS  HZ EP   1   1030  2.02                             145    -0.1 7   99 180 
 RUS  HE ES   1   1030 21.04                             145     0.4 7   99 180 
 RUS  HZ I        1030 22.54        32.9 0.44                            99 180 
 GUE  SZ EP       1030  3.19                             140    -0.110  117   8 
 GRA  SZ EP       1030  4.10                             138     0.410  125  14 
 GRA  SZ ES   1   1030 23.43                             138    -0.1 7  125  14 
 GRA  SZ I        1030 25.89        29.9 0.25                           125  14 
 OCA  SZ EP       1030  6.64                             130    -0.4 9  163 351 
 OCA  SZ ES   1   1030 29.54                             130     0.1 7  163 351 
 OCA  SZ I        1030 34.43        55.6 0.30                           163 351 
 CHI  HZ EP   1   1030 16.09                             117    -0.1 6  249 197 
 CHI  HE ES   1   1030 45.30                             117    -0.4 6  249 197 
 CHI  HZ I        1030 51.42        14.3 0.37                           249 197 
 ROSC BZ EP   2   1030 17.29                             117     0.5 4  255 213 
 ROSC BZ I        1030 51.86        25.9 0.22                           255 213 
 HEL  HZ EP   1   1030 19.54                             115     0.2 6  279 257 
 HEL  HZ I        1030 57.15        18.7 0.43                           279 257 
 GUY  SZ EP   2   1030 22.22                             112    -0.4 4  306 236 
 GUY  SN ES   1   1030 56.43                             112    -0.7 5  306 236 
 GUY  SZ I        1031  3.29        46.6 0.40                           306 236 
 RREF HZ EP   1   1030 25.49                             111     0.4 5  326 230 
 RREF HE ES   1   1031  1.76                             111     0.3 5  326 230 
 RREF HZ I        1031  7.52        18.3 0.40                           326 230 
 ANIL HN ES   2   1031  8.41                             109     0.5 3  361 226 
 ANIL HZ I        1031 14.75        39.5 0.43                           361 226 
 PRA  HZ EP   1   1030 31.83                             107    -0.3 4  394 211 
 PRA  HE ES   1   1031 14.50                             107     0.4 4  394 211 
 PRA  HZ I        1031 17.90        13.3 0.42                           394 211 
                                                                                
