 2014  131 1052 23.5 L   6.784 -73.180141.5  RSN  5 0.1 1.0LRSN                1
 GAP=142        0.36       2.1     2.3  2.9 -0.2339E+00  0.1228E+01 -0.1099E+00E
 Epicentro: LOS SANTOS - SANTANDER                                             3
 ACTION:UPD 14-03-13 10:00 OP:ep   STATUS:               ID:20140131105223 L   I
 OLDACT:REG 14-01-31 15:48 OP:stll STATUS:               ID:20140131104817     3
 2014-01-31-1048-17M.COL___217                                                 6
 STAT SP IPHASW D HRMM SECON CODA AMPLIT PERI AZIMU VELO AIN AR TRES W  DIS CAZ7
 BAR2 SZ ES       1052 57.57                             171    0.1610 21.2 181 
 PAM  SZ EP       1052 45.42                             149   -0.0410 81.2  41 
 PAM  SZ I        1052 45.59         2.6 0.20            151           81.2  41 
 RUS  HN ES       1053  4.65                             143   -0.1610 99.2 174 
 RUS  HZ I        1053  6.46         1.2 0.34            144           99.2 174 
 PTB  HZ EP       1052 49.74                             132    0.03 9  144 259 
 PTB  HE ES       1053 10.11                             132   -0.07 9  144 259 
 PTB  HZ I        1053 13.45         0.9 0.50            131            144 259 
 CHI  HZ EP       1053  0.67                             116    0.04 8  246 194 
 CHI  HZ I        1053  1.50         0.7 0.22            117            246 194 
 CHI  HN ES       1053 29.71                             116    0.08 8  246 194 
                                                                                
