 2014  831 1012 26.5 L   6.813 -73.139148.1  RSN  7 0.4 1.7LRSN                1
 GAP=137        1.10       4.2     5.7  7.6 -0.6152E+01  0.7480E+01  0.1707E+01E
 Epicentro: LOS SANTOS - SANTANDER                                             3
 ACTION:UPD 14-09-15 21:54 OP:nd   STATUS:               ID:20140831101226 L   I
 OLDACT:REG 14-08-31 21:08 OP:stll STATUS:               ID:20140831100818     3
 2014-08-31-1008-18M.COL___269                                                 6
 STAT SP IPHASW D HRMM SECON CODA AMPLIT PERI AZIMU VELO AIN AR TRES W  DIS CAZ7
 BAR2 SZ EP       1012 46.54                             170    0.1010 24.9 191 
 BAR2 SZ ES       1013  1.74                             170   -0.2510 24.9 191 
 BAR2 SZ I        1013  4.97        11.2 0.26            168           24.9 191 
 BRR  HZ EP       1012 48.52                             153    0.6310 71.1 297 
 BRR  HN ES       1013  5.45                             153    0.8710 71.1 297 
 BRR  HZ I        1013 13.79         5.7 0.34            148           71.1 297 
 PAM  SZ EP       1012 48.89                             152    0.0210 75.8  40 
 PAM  SZ I        1012 49.60        13.3 0.24            156           75.8  40 
 PAM  SN ES       1013  6.07                             152   -0.2510 75.8  40 
 RUS  HZ EP   1   1012 50.77                             144    0.19 7  102 176 
 RUS  HN ES       1013  9.27                             144   -0.1010  102 176 
 RUS  HZ I        1013 10.11         4.2 0.36            149            102 176 
 PTB  HZ EP       1012 53.12                             132   -0.62 9  149 258 
 PTB  HN ES       1013 14.35                             132   -0.64 9  149 258 
 PTB  HZ I        1013 21.72         9.3 0.34            132            149 258 
 OCA  HN ES       1013 16.62                             130   -0.36 9  159 353 
 OCA  HZ I        1013 23.55         4.2 0.20            132            159 353 
 SPBC HZ EP       1012 55.52                             129    0.20 9  165 219 
 SPBC HN ES       1013 17.94                             129    0.13 9  165 219 
 SPBC HZ I        1013 25.55         8.8 0.32            131            165 219 
                                                                                
