 2017  131 1734 58.7 L   6.821 -73.149152.9  RSN 14 0.5 2.5LRSN                1
 GAP= 74        1.06       4.0     3.7  5.7 -0.1342E+00  0.4476E+01  0.2831E+01E
 Epicentro: LOS SANTOS - SANTANDER                                             3
 ACTION:UPD 17-05-22 16:05 OP:jn   STATUS:               ID:20170131173458 L   I
 OLDACT:UP  17-02-01 01:41 OP:ar   STATUS:               ID:20170131172742     3
 OLDACT:UP  17-02-01 01:40 OP:ar   STATUS:               ID:20170131172742     3
 OLDACT:UP  17-02-01 01:37 OP:ar   STATUS:               ID:20170131172742     3
 OLDACT:REG 17-01-31 21:25 OP:ar   STATUS:               ID:20170131172742     3
 2017-01-31-1728-00M.COL___328                                                 6
 STAT SP IPHASW D HRMM SECON CODA AMPLIT PERI AZIMU VELO AIN AR TRES W  DIS CAZ7
 BAR2 EZ EP       1735 18.99                             170   -0.2310 25.5 188 
 BAR2 EZ ES       1735 34.92                             170   -0.3210 25.5 188 
 BAR2 EZ I        1735 36.89       104.1 0.40            168           25.5 188 
 BRR  HZ EP       1735 20.85                             154    0.3110 69.8 297 
 BRR  HN ES       1735 38.15                             154    0.5710 69.8 297 
 BRR  HZ I        1735 42.51        48.3 0.30            153           69.8 297 
 PAM  EZ IP     C 1735 21.74                             152    0.1610 75.8  41 
 PAM  EN ES       1735 39.68                             152    0.2510 75.8  41 
 PAM  EZ I        1735 41.32        61.8 0.56            157           75.8  41 
 RUS  HZ EP       1735 22.93                             145   -0.3810  103 176 
 RUS  HN ES       1735 42.05                             145   -0.4610  103 176 
 RUS  HZ I        1735 44.33        50.1 0.40            144            103 176 
 PTB  HZ EP       1735 25.63                             134   -0.63 9  148 258 
 PTB  HN ES       1735 47.23                             134   -0.53 9  148 258 
 PTB  HZ I        1735 49.27        50.3 0.12            133            148 258 
 TAM  HZ IP     C 1735 27.17                             132    0.15 9  156 106 
 ZAR  HZ EP       1735 31.74                             124    0.25 9  203 292 
 ZAR  HN ES       1735 57.26                             124    0.19 9  203 292 
 ZAR  HZ I        1736  4.26        35.1 0.15            124            203 292 
 NOR  HZ EP       1735 34.92                             120   -0.03 8  236 234 
 NOR  HE ES       1736  3.11                             120   -0.13 8  236 234 
 NOR  HZ I        1736  6.76        33.0 0.24            120            236 234 
 CHI  HZ EP       1735 37.22                             118    0.20 8  251 195 
 CHI  HN ES       1736  8.25                             118    1.33 8  251 195 
 CHI  HZ I        1736 16.04        15.0 0.34            119            251 195 
 ROSC BZ EP   4   1735 38.96                             118    1.56 0  255 211 
 ROSC BE ES   4   1736 10.52                             118    2.93 0  255 211 
 ROSC BZ I        1736 14.88        34.5 0.45            118            255 211 
 URE  HZ EP       1735 39.77                             115   -0.21 7  283 292 
 URE  HN ES   4   1736 10.40                             115   -1.80 0  283 292 
 URE  HZ I        1736 13.79        21.8 0.12            116            283 292 
 CBOC HZ EP   4   1735 47.83                             111    1.88 0  334 252 
 CBOC HN ES       1736 22.89                             111    0.07 7  334 252 
 CBOC HZ I        1736 30.22         7.1 0.64            111            334 252 
 SJC  HZ EP   2   1735 52.86                             107   -1.38 3  407 327 
 SJC  HN ES   4   1736 34.23                             107   -3.35 0  407 327 
 SJC  HZ I        1736 37.95         6.7 0.26            108            407 327 
 CRJC HZ EP   4   1735 59.21                             104   -1.91 0  465   4 
 CRJC HN ES   4   1736 46.44                             104   -3.38 0  465   4 
 CRJC HZ I        1736 52.89         7.3 0.16            106            465   4 
                                                                                
