 2015  131 1714 13.7 L   6.799 -73.119149.4  RSN 10 0.4 1.7LRSN                1
 GAP=140        0.86       3.3     4.2  6.0 -0.7084E-01  0.7912E+01  0.5447E+01E
 Epicentro: LOS SANTOS - SANTANDER                                             3
 ACTION:UPD 15-03-02 15:44 OP:nd   STATUS:               ID:20150131171413 L   I
 OLDACT:REG 15-01-31 22:11 OP:spq  STATUS:               ID:20150131170750     3
 2015-01-31-1707-50M.COL___262                                                 6
 STAT SP IPHASW D HRMM SECON CODA AMPLIT PERI AZIMU VELO AIN AR TRES W  DIS CAZ7
 BAR2 EZ EP       1714 33.68                             170   -0.0810 23.9 197 
 BAR2 EZ ES   1   1714 48.86                             170   -0.56 7 23.9 197 
 BAR2 EZ I        1714 50.36         6.7 0.24            168           23.9 197 
 BRR  HZ EP       1714 35.67                             152    0.3010 73.9 298 
 BRR  HN ES       1714 53.06                             152    0.7610 73.9 298 
 BRR  HZ I        1714 57.41         8.8 0.26            149           73.9 298 
 PAM  SN ES       1714 53.70                             152   -0.0410 75.7  38 
 PAM  SZ I        1714 55.85         8.1 0.44            156           75.7  38 
 RUS  HZ EP   1   1714 37.64                             145   -0.13 7  100 178 
 RUS  HE ES   1   1714 56.41                             145   -0.15 7  100 178 
 PTB  HZ EP       1714 40.67                             132   -0.53 9  151 259 
 PTB  HN ES   1   1715  2.01                             132   -0.66 7  151 259 
 PTB  HZ I        1715  7.64         6.9 0.56            131            151 259 
 SPBC HZ EP       1714 42.69                             130    0.07 9  165 220 
 SPBC HN ES       1715  5.20                             130   -0.00 9  165 220 
 SPBC HZ I        1715 10.53        10.1 0.14            130            165 220 
 ZAR  HE ES       1715 12.02                             123   -0.35 8  207 292 
 ZAR  HZ I        1715 18.09         6.2 0.22            123            207 292 
 NOR  HZ EP       1714 50.34                             119    0.47 8  237 235 
 NOR  HE ES       1715 18.30                             119    0.20 8  237 235 
 NOR  HZ I        1715 24.84         3.1 0.28            120            237 235 
 SML  HE ES   1   1715 19.34                             118   -0.17 6  245 335 
 SML  HZ I        1715 24.23         7.0 0.10            119            245 335 
 CHI  HZ EP   1   1714 51.72                             118    0.07 6  249 196 
 CHI  HN ES   1   1715 21.57                             118    0.30 6  249 196 
 CHI  HZ I        1715 25.38         1.4 0.14            120            249 196 
                                                                                
