 2016 1031 1308  5.2 L   6.789 -73.078139.7  RSN 14 0.5 2.5LRSN                1
 GAP=125        0.88       3.4     3.8  5.0 -0.2928E+01  0.3278E+01  0.7450E+01E
 Epicentro: LOS SANTOS - SANTANDER                                             3
 ACTION:UPD 16-11-09 19:24 OP:rebc STATUS:               ID:20161031130805 L   I
 OLDACT:REG 16-10-31 20:45 OP:cog  STATUS:               ID:20161031130746     3
 2016-10-31-1308-00M.COL___325                                                 6
 STAT SP IPHASW D HRMM SECON CODA AMPLIT PERI AZIMU VELO AIN AR TRES W  DIS CAZ7
 BAR2 EZ EP       13 8 24.44                             170    0.3210 24.6 208 
 BAR2 EZ ES       13 8 38.87                             170   -0.0110 24.6 208 
 BAR2 EZ I        13 8 40.70        63.3 0.18            166           24.6 208 
 PAM  EZ EP       13 8 27.24                             151    0.6910 73.9  34 
 PAM  EN ES       13 8 42.38                             151   -0.8310 73.9  34 
 PAM  EZ I        13 8 45.23        33.6 0.20            156           73.9  34 
 BRR  HZ EP       13 8 26.26                             149    0.1410 78.4 297 
 BRR  HN ES       13 8 43.05                             149    0.6010 78.4 297 
 BRR  HZ I        13 8 47.09        48.8 0.14            147           78.4 297 
 RUS  HZ EP       13 8 28.15                             143   -0.0910 99.1 180 
 RUS  HN ES       13 8 46.21                             143   -0.0110 99.1 180 
 RUS  HZ I        13 8 48.72        32.8 0.40            144           99.1 180 
 PTB  HZ EP   3   13 8 30.98                             129   -1.35 2  155 260 
 PTB  HE ES       13 8 52.95                             129   -0.56 9  155 260 
 PTB  HZ I        13 8 58.59        32.4 0.18            129            155 260 
 NOR  HZ EP       13 8 40.56                             116   -0.60 8  240 236 
 NOR  HN ES       13 9  9.06                             116   -0.16 8  240 236 
 NOR  HZ I        13 9 13.13        20.9 0.24            117            240 236 
 CHI  HZ EP       13 8 42.61                             116   -0.04 8  250 197 
 CHI  HN ES       13 9 11.89                             116    0.01 8  250 197 
 CHI  HZ I        13 9 17.08        23.0 0.34            117            250 197 
 ROSC BZ EP   2   13 8 44.09                             115    0.79 4  256 213 
 ROSC BE ES   2   13 9 14.05                             115    1.02 4  256 213 
 HEL  HZ EP   2   13 8 45.75                             113   -0.13 4  279 256 
 HEL  HN ES   3   13 9 16.48                             113   -1.14 2  279 256 
 HEL  HZ I        13 9 22.50        21.6 0.26            114            279 256 
 PTGC HZ EP   2   13 8 48.06                             111   -0.29 4  305 160 
 PTGC HE ES   2   13 9 21.68                             111   -0.33 4  305 160 
 GUY2CHZ EP   4   13 8 49.04                             111   -0.10 0  307 236 
 ELA  HZ EP   3   13 8 51.56                             109   -0.80 2  334 230 
 ELA  HN ES   3   13 9 29.72                             109    0.57 2  334 230 
 ELA  HZ I        13 9 36.23        11.2 0.38            110            334 230 
 ANIL HZ EP       13 8 55.49                             107    0.21 6  362 226 
 ANIL HN ES       13 9 34.53                             107    0.18 6  362 226 
 PRA  HZ EP       13 8 58.99                             105    0.17 6  395 211 
 PRA  HN ES       13 9 40.41                             105   -0.24 6  395 211 
 PRA  HZ I        13 9 44.67        17.2 0.58            107            395 211 
 ORTC HZ EP       13 8 58.79                             105   -0.52 6  399 217 
 ORTC HN ES       13 9 41.96                             105    0.43 6  399 217 
 ORTC HZ I        13 9 45.81        11.0 0.24            106            399 217 
                                                                                
