 2014 1031 1129  8.0 L   6.784 -73.139146.6  RSN 10 0.5 2.5LRSN                1
 GAP=138        1.35       4.7     6.5  7.8 -0.1106E+02  0.8162E+01  0.9342E+00E
 Epicentro: LOS SANTOS - SANTANDER                                             3
 ACTION:UPD 14-11-29 23:58 OP:nd   STATUS:               ID:20141031112908 L   I
 OLDACT:DUP 14-11-01 11:33 OP:mh   STATUS:               ID:20141031111748d    3
 OLDACT:REG 14-10-31 20:33 OP:spq  STATUS:               ID:20141031111747     3
 2014-10-31-1117-47M.COL___263                                                 6
 STAT SP IPHASW D HRMM SECON CODA AMPLIT PERI AZIMU VELO AIN AR TRES W  DIS CAZ7
 BAR2 SZ EP       1129 27.83                             171    0.0810 21.7 193 
 BAR2 SZ ES       1129 43.01                             171   -0.1110 21.7 193 
 BAR2 SZ I        1129 44.19       119.7 0.18            171           21.7 193 
 BRR  HZ EP       1129 29.58                             152    0.2110 72.7 299 
 BRR  HN ES       1129 46.73                             152    0.7210 72.7 299 
 BRR  HZ I        1129 49.32        51.5 0.31            151           72.7 299 
 PAM  SZ EP       1129 30.68                             151    0.2710 78.3  38 
 PAM  SN ES       1129 47.55                             151   -0.3010 78.3  38 
 PAM  SZ I        1129 50.57        20.5 0.31            153           78.3  38 
 RUS  HZ EP       1129 31.74                             145   -0.0110 98.8 176 
 RUS  HN ES       1129 50.28                             145    0.0410 98.8 176 
 RUS  HZ I        1129 51.67        29.6 0.26            147           98.8 176 
 PTB  HZ EP       1129 34.44                             132   -0.68 9  148 260 
 PTB  HN ES       1129 55.23                             132   -1.01 9  148 260 
 PTB  HZ I        1129 58.93        28.4 0.06            133            148 260 
 SPBC HZ EP       1129 36.49                             130   -0.03 9  162 220 
 SPBC HN ES       1129 58.65                             130   -0.09 9  162 220 
 SPBC HZ I        1130  3.71        38.8 0.36            131            162 220 
 OCA  HZ EP       1129 35.98                             130   -0.62 9  162 353 
 OCA  HN ES       1129 59.55                             130    0.68 9  162 353 
 OCA  HZ I        1130  2.05        22.3 0.02            131            162 353 
 RREF HZ EP   9   1129 51.27                             111   -2.89 0  321 230 
 RREF HN ES       1130 28.69                                    1.45 7  321 230 
 RREF HZ I        1130 30.88        15.9 0.30            112            321 230 
 TOL  SZ EP       1129 56.77                             110    0.52 7  343 225 
 TOL  SN ES       1130 34.75                             110    0.90 7  343 225 
 TOL  SZ I        1130 39.01        30.7 0.48            111            343 225 
 PRA  HZ EP   9   1130  1.34                             107   -0.12 0  391 210 
 PRA  HN ES   1   1130 44.19                             107    1.19 4  391 210 
                                                                                
