 2012  831 1056 28.0 L   6.860 -73.403123.6  RSN  4 0.2 1.8LRSN                1
 GAP=192        0.58       6.9     4.2  6.6  0.1166E+02  0.6340E+01  0.1520E+01E
 Epicentro: SAN VICENTE DE CHUCURI - SANTANDER                                 3
 ACTION:UPD 12-09-10 11:59 OP:ep   STATUS:               ID:20120831105628 L   I
 2012-08-31-1050-00M.COL___218                                                 6
 STAT SP IPHASW D HRMM SECON CODA AMPLIT PERI AZIMU VELO AIN AR TRES W  DIS CAZ7
 BAR2 SZ EP       1056 45.82                             162    0.3410 38.3 141 
 BAR2 SZ ES   1   1056 59.01                             162   -0.07 7 38.3 141 
 BAR2 SZ I        1057  0.61        27.9 0.19                          38.3 141 
 BRR  HZ EP       1056 45.05                             159   -0.3010 43.8 309 
 BRR  HZ I        1056 45.27        27.3 0.14                          43.8 309 
 BRR  HE ES   1   1056 58.84                             159   -0.01 7 43.8 309 
 PTB  HZ EP   1   1056 50.65                             132   -0.20 7  122 253 
 PTB  HE ES   1   1057  8.58                             132   -0.05 7  122 253 
 PTB  HZ I        1057 10.24         3.5 0.30                           122 253 
 ZAR  HN ES   1   1057 18.29                             121    0.33 7  175 294 
 ZAR  HZ I        1057 21.87         5.8 0.40                           175 294 
                                                                                
