 2016 1231 1428 51.7 L   6.793 -73.222147.1  RSN  5 0.4 1.2LRSN                1
 GAP=226        1.04       8.1     7.2  8.3  0.3612E+02  0.8145E+01  0.1317E+01E
 Epicentro: ZAPATOCA - SANTANDER                                               3
 ACTION:UPD 17-01-11 20:21 OP:rebc STATUS:               ID:20161231142851 L   I
 OLDACT:DUP 16-12-31 22:54 OP:lv   STATUS:               ID:20161231141746d    3
 2016-12-31-1418-00M.COL___363                                                 6
 STAT SP IPHASW D HRMM SECON CODA AMPLIT PERI AZIMU VELO AIN AR TRES W  DIS CAZ7
 BAR2 EZ EP       1429 11.25                             171   -0.1810 22.6 169 
 BAR2 EZ ES       1429 26.10                             171   -0.7510 22.6 169 
 BAR2 EZ I        1429 27.12         3.4 0.25            170           22.6 169 
 BRR  HZ EP       1429 12.53                             155   -0.0510 64.4 303 
 BRR  HE ES       1429 29.58                             155    0.6810 64.4 303 
 RUS  HZ EP       1429 15.81                             144    0.2710  101 171 
 RUS  HN ES       1429 34.58                             144    0.4010  101 171 
 RUS  HZ I        1429 35.49         1.2 0.26            144            101 171 
 PTB  HZ EP       1429 17.77                             134   -0.21 9  139 258 
 PTB  HN ES       1429 38.31                             134   -0.20 9  139 258 
 PTB  HZ I        1429 40.60         2.9 0.11            132            139 258 
 ZAR  HZ EP   4   1429 25.05                             124    1.63 0  197 293 
 ZAR  HN ES       1429 48.19                             124   -0.01 9  197 293 
 ZAR  HZ I        1429 54.63         2.9 0.21            123            197 293 
                                                                                
