 2010 1031 1131 16.7 L   6.815 -73.069143.3  RSN  5 0.3 1.6LRSN                1
 GAP=173        0.52       5.0    11.1  8.8  0.2415E+02 -0.5055E+02 -0.2474E+02E
 Epicentro: LOS SANTOS - SANTANDER                                             3
 ACTION:UP  11-02-18 11:13 OP:tino STATUS:               ID:20101031113116 L   I
 2010-10-31-1127-09S.COL___125                                                 6
 STAT SP IPHASW D HRMM SECON CODA AMPLIT PERI AZIMU VELO SNR AR TRES W  DIS CAZ7
 BAR2 SZ EP   1   1131 36.05                             169    -0.1 7   28 207 
 BAR2 SZ ES   2   1131 50.85                             169    -0.4 5   28 207 
 BAR2 SZ I        1131 52.12        13.7 0.65                            28 207 
 BRR  HZ EP   1   1131 37.83                             150    -0.1 7   78 295 
 BRR  HE ES   2   1131 54.77                             150     0.2 5   78 295 
 BRR  HZ I        1131 55.45        13.5 0.08                            78 295 
 RUS  HZ EP   1   1131 40.14                             143    -0.2 7  102 181 
 RUS  HZ I        1131 41.22         2.9 0.13                           102 181 
 RUS  HE ES   2   1131 59.28                             143     0.6 5  102 181 
 GUE  SZ EP   1   1131 41.05                             140     0.1 7  113   8 
 OCA  SZ EP   1   1131 44.89                             129     0.1 7  160 350 
                                                                                
