 2014  831 1442 35.2 L   6.755 -73.138147.9  RSN  4 0.5 1.6LRSN                1
 GAP=254        1.18       8.9     9.3 10.9 -0.1320E+02  0.7025E+00  0.2494E+02E
 Epicentro: LOS SANTOS - SANTANDER                                             3
 ACTION:UPD 14-09-15 21:54 OP:nd   STATUS:               ID:20140831144235 L   I
 OLDACT:REG 14-08-31 21:30 OP:stll STATUS:               ID:20140831143816     3
 2014-08-31-1438-16M.COL___266                                                 6
 STAT SP IPHASW D HRMM SECON CODA AMPLIT PERI AZIMU VELO AIN AR TRES W  DIS CAZ7
 BAR2 SZ EP       1442 54.53                             172   -0.5110 18.7 195 
 BAR2 SZ ES       1443 10.38                             172   -0.1110 18.7 195 
 BAR2 SZ I        1443 11.62         5.9 0.20            167           18.7 195 
 BRR  HZ EP       1442 56.73                             152   -0.0710 74.4 302 
 BRR  HN ES       1443 14.24                             152    0.6210 74.4 302 
 PTB  HE ES       1443 22.84                             132   -0.70 9  148 261 
 SPBC HZ EP       1443  4.21                             130    0.62 9  160 220 
 SPBC HE ES       1443 25.90                             130    0.19 9  160 220 
 SPBC HZ I        1443 30.47         6.0 0.16            129            160 220 
                                                                                
