 2013  331 1155 53.2 L   6.772 -73.139143.6  RSN  7 0.4 2.4LRSN                1
 GAP=139        1.00       5.0     4.9  7.0 -0.6462E+00  0.5022E+01  0.2438E+01E
 Epicentro: LOS SANTOS - SANTANDER                                             3
 ACTION:UPD 13-04-09 14:06 OP:ep   STATUS:               ID:20130331115553 L   I
 2013-03-31-1150-00M.COL___245                                                 6
 STAT SP IPHASW D HRMM SECON CODA AMPLIT PERI AZIMU VELO AIN AR TRES W  DIS CAZ7
 BAR2 SZ IP       1156 12.44                             171   -0.0910 20.4 194 
 BAR2 SZ ES       1156 27.35                             171   -0.2510 20.4 194 
 BAR2 SZ I        1156 28.29        38.8 0.20            171           20.4 194 
 BRR  HZ EP       1156 14.36                             152    0.1010 73.4 300 
 BRR  HE ES       1156 31.37                             152    0.7010 73.4 300 
 BRR  HE I        1156 32.10        69.6 0.18            152           73.4 300 
 PAM  SZ EP       1156 15.44                             150    0.1210 79.4  38 
 PAM  SN ES       1156 32.22                             150   -0.3510 79.4  38 
 PAM  SN I        1156 33.11        47.2 0.24            151           79.4  38 
 RUS  HZ EP       1156 16.45                             144   -0.0810 97.4 176 
 RUS  HN ES       1156 35.19                             144    0.4810 97.4 176 
 RUS  HN I        1156 36.29        30.0 0.32            145           97.4 176 
 PTB  HZ EP   1   1156 19.30                             132   -0.72 7  148 260 
 PTB  HN ES       1156 40.26                             132   -0.67 9  148 260 
 PTB  HN I        1156 42.04        36.1 0.26            132            148 260 
 ZAR  HZ EP   2   1156 26.30                             122    0.58 4  206 293 
 ZAR  HE ES   2   1156 51.51                             122    0.44 4  206 293 
 PRA  HZ EP   1   1156 46.99                             106    0.61 4  390 210 
                                                                                
