 2012  731 1713 24.8 L   6.749 -73.124140.9  RSN  5 0.3 1.7LRSN                1
 GAP=142        0.64       6.6     7.2  7.1  0.1218E+02  0.2394E+01  0.1479E+02E
 Epicentro: LOS SANTOS - SANTANDER                                             3
 ACTION:UPD 12-08-14 11:46 OP:ep   STATUS:               ID:20120731171324 L   I
 2012-07-31-1710-00M.COL___212                                                 6
 STAT SP IPHASW D HRMM SECON CODA AMPLIT PERI AZIMU VELO AIN AR TRES W  DIS CAZ7
 BAR2 SZ EP       1713 43.80                             172     0.110   19 201 
 BAR2 SZ I        1713 44.34        14.7 0.16            155             19 201 
 BAR2 SZ ES   1   1713 58.29                             172    -0.2 7   19 201 
 BRR  HZ EP       1713 45.72                             150     0.010   76 301 
 BRR  HZ I        1713 46.02        23.2 0.26            125             76 301 
 BRR  HN ES   1   1714  2.27                             150     0.3 7   76 301 
 PAM  SZ EP   2   1713 46.82                             149     0.1 5   80  36 
 PAM  SN ES   2   1714  3.45                             149    -0.3 5   80  36 
 PAM  SZ I        1714  4.17         5.0 0.36            136             80  36 
 RUS  HZ EP       1713 47.77                             144     0.110   95 177 
 RUS  HZ I        1713 48.54         3.8 0.12            132             95 177 
 PTB  HZ EP   2   1713 50.67                             130    -0.8 5  149 261 
 PTB  HZ I        1714 13.75         7.2 0.18            112            149 261 
