 2014  831 1059 17.5 L   7.462 -73.214137.8  RSN  6 0.5 1.6LRSN                1
 GAP=186        1.23       5.5     8.2 10.1 -0.1901E+01  0.2017E+00  0.5031E+01E
 Epicentro: EL PLAYON - SANTANDER                                              3
 ACTION:UPD 14-09-15 21:54 OP:nd   STATUS:               ID:20140831105917 L   I
 OLDACT:REG 14-08-31 21:11 OP:stll STATUS:               ID:20140831105817     3
 2014-08-31-1058-17M.COL___269                                                 6
 STAT SP IPHASW D HRMM SECON CODA AMPLIT PERI AZIMU VELO AIN AR TRES W  DIS CAZ7
 BRR  HZ EP       1059 37.65                             152    0.1010 67.6 235 
 BRR  HN ES       1059 52.77                             152   -0.4510 67.6 235 
 OCA  HZ EP       1059 39.25                             146    0.2710 86.7 352 
 OCA  HN ES       1059 56.38                             146    0.6310 86.7 352 
 OCA  HZ I        1059 58.30         4.8 0.18            146           86.7 352 
 BAR2 SZ EP       1059 39.59                             143   -0.1810 96.2 178 
 PTB  HZ EP   1   1059 45.62                             126   -0.42 7  171 233 
 PTB  HZ I        1059 54.70         7.1 0.10            123            171 233 
 SML  HZ EP       1059 46.33                             125   -0.15 9  176 328 
 SML  HN ES       11 0  8.05                             125   -1.06 9  176 328 
 SML  HZ I        11 0  9.82         5.6 0.10            123            176 328 
 ZAR  HZ EP       1059 47.46                             124    0.38 9  182 271 
 ZAR  HN ES       11 0 10.81                             124    0.63 9  182 271 
 ZAR  HZ I        11 0 13.54         3.7 0.24            122            182 271 
                                                                                
