 2015  331 1808 31.5 L   6.826 -73.169144.9  RSN  7 0.5 1.7LRSN                1
 GAP=132        1.09       3.9     5.4  7.7  0.1365E+01  0.7820E+01 -0.2965E+01E
 Epicentro: LOS SANTOS - SANTANDER                                             3
 ACTION:UPD 15-04-30 16:31 OP:nd   STATUS:               ID:20150331180831 L   I
 OLDACT:REG 15-03-31 22:25 OP:fm   STATUS:               ID:20150331175749     3
 2015-03-31-1757-49M.COL___280                                                 6
 STAT SP IPHASW D HRMM SECON CODA AMPLIT PERI AZIMU VELO AIN AR TRES W  DIS CAZ7
 BAR2 EZ EP       18 8 51.19                             170    0.1110 25.9 183 
 BAR2 EZ ES       18 9  6.99                             170    0.6410 25.9 183 
 BAR2 EZ I        18 9  7.66         7.8 0.34            168           25.9 183 
 BRR  HN ES       18 9  8.86                             154    0.2410 67.6 297 
 PAM  SZ EP       18 8 54.07                             151    0.4710 76.9  42 
 PAM  SN ES       18 9 10.47                             151   -0.3610 76.9  42 
 PAM  SZ I        18 9 13.29         9.7 0.50            154           76.9  42 
 RUS  HZ EP       18 8 55.13                             143   -0.2710  104 175 
 RUS  HN ES       18 9 13.41                             143   -0.6210  104 175 
 RUS  HZ I        18 9 15.42         3.0 0.46            144            104 175 
 SPBC HZ EP   1   18 9  0.98                             129    0.98 7  164 218 
 SPBC HN ES       18 9 21.84                             129   -0.38 9  164 218 
 SPBC HZ I        18 9 30.68         6.1 0.24            128            164 218 
 ZAR  HE ES       18 9 28.45                             123   -0.07 9  201 292 
 ZAR  HZ I        18 9 34.38         4.2 0.24            121            201 292 
 SML  HZ EP   1   18 9  7.42                             118   -0.26 6  240 336 
 SML  HN ES       18 9 35.55                             118   -0.35 8  240 336 
 SML  HZ I        18 9 42.81         9.5 0.16            117            240 336 
                                                                                
