 2015  831 1123  9.0 L   6.766 -73.077143.3  RSN  5 0.2 1.5LRSN                1
 GAP=237        0.56       3.8     4.9  5.9  0.4697E+01  0.1787E+00 -0.6923E+01E
 Epicentro: LOS SANTOS - SANTANDER                                             3
 ACTION:UPD 15-09-15 23:06 OP:cam  STATUS:               ID:20150831112309 L   I
 OLDACT:DUP 15-09-01 02:44 OP:spq  STATUS:               ID:20150831111751d    3
 2015-08-31-1117-50M.COL___355                                                 6
 STAT SP IPHASW D HRMM SECON CODA AMPLIT PERI AZIMU VELO AIN AR TRES W  DIS CAZ7
 BAR2 EZ EP       1123 28.52                             171    0.1810 22.5 211 
 BAR2 EZ ES   1   1123 42.94                             171   -0.46 7 22.5 211 
 BAR2 EZ I        1123 44.17         4.9 0.44            164           22.5 211 
 BRR  HZ EP   1   1123 30.48                             149    0.07 7 79.7 298 
 BRR  HN ES       1123 47.36                             149    0.2610 79.7 298 
 BRR  HZ I        1123 50.45         6.1 0.52            143           79.7 298 
 SPBC HE ES   1   1123 59.80                             128    0.04 7  165 222 
 SPBC HZ I        1124  2.69         3.6 0.42            126            165 222 
 ZAR  HN ES       1124  7.84                             121   -0.22 8  213 292 
 ZAR  HZ I        1124 16.42         1.9 0.56            118            213 292 
 SML  HZ EP   1   1123 45.93                             116   -0.31 6  250 334 
 SML  HN ES   1   1124 15.34                             116    0.07 6  250 334 
 SML  HZ I        1124 18.30         3.7 0.10            115            250 334 
                                                                                
