 2010 1031 1931  3.6 L   6.790 -73.085141.6  RSN 15 0.4 3.0LRSN                1
 GAP=138        0.68       2.6     4.5  5.9 -0.2552E+01  0.4676E+01  0.3316E+01E
 Epicentro: LOS SANTOS - SANTANDER                                             3
 ACTION:UP  11-02-18 11:13 OP:tino STATUS:               ID:20101031193103 L   I
 2010-10-31-1929-29S.COL___125                                                 6
 STAT SP IPHASW D HRMM SECON CODA AMPLIT PERI AZIMU VELO SNR AR TRES W  DIS CAZ7
 BAR2 SZ EP   1   1931 22.69                             170    -0.1 7   24 207 
 BAR2 SZ ES   2   1931 37.61                             170    -0.1 5   24 207 
 BAR2 SZ I        1931 38.77       478.7 0.21                            24 207 
 BRR  HZ IP     D 1931 24.56                             150    -0.110   78 297 
 BRR  HZ I        1931 24.77       272.1 0.08                            78 297 
 BRR  HE ES   2   1931 41.66                             150     0.5 5   78 297 
 RUS  HZ EP   1   1931 26.71                             143    -0.1 7   99 180 
 RUS  HE ES   2   1931 44.63                             143    -0.4 5   99 180 
 RUS  HZ I        1931 46.23       135.1 0.17                            99 180 
 BRI  SZ EP   1   1931 27.33                             141     0.3 7  107  17 
 GUE  SZ EP   1   1931 27.80                             138    -0.1 7  116   9 
 GRA  SZ IP     D 1931 28.62                             136     0.210  125  14 
 GRA  SZ ES   2   1931 47.57                             136    -0.2 5  125  14 
 OCA  SZ EP   1   1931 31.25                             128    -0.6 7  162 351 
 OCA  SZ ES   2   1931 53.98                             128     0.2 5  162 351 
 OCA  SZ I        1931 56.42       135.1 0.27                           162 351 
 YOP  SZ IP     C 1931 33.43                             126     0.5 9  175 155 
 YOP  SZ ES   2   1931 55.55                             126    -0.3 4  175 155 
 NOR  SZ EP   1   1931 38.73                             117    -0.9 6  240 236 
 ROSC BZ EP   1   1931 41.80                             115     0.0 6  255 212 
 ROSC BE ES   2   1932 11.52                             115    -0.1 4  255 212 
 ROSC BZ I        1932 17.07        37.6 0.45                           255 212 
 HEL  HZ EP   1   1931 44.33                             113     0.0 6  278 256 
 HEL  HZ I        1932 22.87        43.5 0.30                           278 256 
 VIL  SZ EP   1   1931 46.62                             111     0.0 5  302 191 
 VIL  SE ES   2   1932 20.76                             111     0.5 4  302 191 
 VIL  SZ I        1932 26.16        28.0 0.09                           302 191 
 GUY  SZ EP   1   1931 48.00                             111     0.4 5  306 236 
 GUY  SE ES   2   1932 22.46                             111     0.5 4  306 236 
 GUY  SZ I        1932 30.09        57.9 0.43                           306 236 
 RREF HZ EP   1   1931 50.32                             110     0.2 5  326 230 
 RREF HN ES   2   1932 26.68                             110     0.3 3  326 230 
 RREF HZ I        1932 36.72        44.5 0.29                           326 230 
 PRA  HZ EP   1   1931 56.76                             106    -0.5 4  394 211 
 PRA  HN ES   2   1932 39.99                             106     0.9 3  394 211 
                                                                                
