 2013  331 1020 20.5 L   6.807 -73.182137.9  RSN  8 0.4 2.1LRSN                1
 GAP=179        0.76       3.5     5.4  6.8  0.4223E+01  0.1570E+02 -0.3891E+01E
 Epicentro: LOS SANTOS - SANTANDER                                             3
 ACTION:UPD 13-04-09 14:06 OP:ep   STATUS:               ID:20130331102020 L   I
 2013-03-31-1020-00M.COL___245                                                 6
 STAT SP IPHASW D HRMM SECON CODA AMPLIT PERI AZIMU VELO AIN AR TRES W  DIS CAZ7
 BAR2 SZ EP       1020 39.15                             170   -0.0910 23.8 180 
 BAR2 SZ ES       1020 53.92                             170    0.1010 23.8 180 
 BAR2 SZ I        1020 54.97        19.5 0.18            171           23.8 180 
 BRR  HZ EP   1   1020 41.43                             152    0.81 7 67.3 300 
 BRR  HN I        1021  2.17        28.2 0.16            147           67.3 300 
 RUS  HZ EP       1020 43.33                             142   -0.2910  102 174 
 RUS  HN ES       1021  1.58                             142   -0.0310  102 174 
 RUS  HN I        1021  2.95        21.9 0.28            141            102 174 
 PTB  HZ EP   1   1020 46.33                             131   -0.20 7  144 258 
 PTB  HN ES   1   1021  6.78                             131   -0.02 7  144 258 
 PTB  HN I        1021 13.78        17.2 0.26            127            144 258 
 OCA  HN ES       1021  9.47                             128   -0.19 9  159 355 
 ZAR  HZ EP       1020 52.41                             121    0.34 9  200 292 
 HEL  HZ EP   2   1021  0.58                             113    0.63 4  268 255 
 URE  HE ES   1   1021 31.42                             112   -0.75 6  280 292 
                                                                                
