 2013  131 1300 17.1 L   6.768 -73.124146.4  RSN  7 0.4 1.8LRSN                1
 GAP=141        0.88       6.5     4.4  8.3 -0.1856E+01  0.1583E-01  0.3061E+02E
 Epicentro: LOS SANTOS - SANTANDER                                             3
 ACTION:UPD 13-02-15 09:18 OP:ep   STATUS:               ID:20130131130016 L   I
 2013-01-31-1258-50M.COL___195                                                 6
 STAT SP IPHASW D HRMM SECON CODA AMPLIT PERI AZIMU VELO AIN AR TRES W  DIS CAZ7
 BAR2 SZ IP       13 0 36.59                             172   -0.1610 20.4 198 
 BAR2 SZ ES   1   13 0 51.91                             172   -0.17 7 20.4 198 
 BAR2 SZ I        13 0 52.96        22.0 0.26            167           20.4 198 
 BRR  HZ EP   1   13 0 38.65                             151    0.12 7 75.0 300 
 BRR  HZ I        13 0 42.97        14.2 0.36            152           75.0 300 
 BRR  HN ES       13 0 56.03                             151    0.7810 75.0 300 
 PAM  SZ EP   1   13 0 39.39                             150   -0.07 7 78.7  37 
 PAM  SZ I        13 0 39.44         9.5 0.42            154           78.7  37 
 PAM  SN ES       13 0 56.63                             150   -0.2710 78.7  37 
 RUS  HZ EP       13 0 40.78                             145    0.1310 96.9 177 
 RUS  HZ I        13 0 40.88         4.1 0.16            141           96.9 177 
 PTB  HZ EP   2   13 0 44.07                             132   -0.20 5  149 260 
 PTB  HN ES       13 1  4.88                             132   -0.58 9  149 260 
 PTB  HZ I        13 1  7.26        12.0 0.14            130            149 260 
 ZAR  HN ES   1   13 1 15.39                             122   -0.18 6  208 293 
 CHI  HZ EP       13 0 54.87                             118    0.34 8  246 196 
 CHI  HN ES   4   13 1 26.42                             118    2.70 0  246 196 
 CHI  HZ I        13 1 31.69         2.6 0.32            116            246 196 
                                                                                
