 2010 1231 1426 49.8 L   6.810 -73.159143.9  RSN  5 0.3 1.6LRSN                1
 GAP=157        0.60       5.1     9.0  7.9 -0.2518E+02  0.2707E+02 -0.4517E+01E
 Epicentro: LOS SANTOS - SANTANDER                                             3
 ACTION:UP  11-01-14 15:28 OP:pat  STATUS:               ID:20101231142650dL   I
 2010-12-31-1424-54S.COL___131                                                 6
 STAT SP IPHASW D HRMM SECON CODA AMPLIT PERI AZIMU VELO SNR AR TRES W  DIS CAZ7
 BAR2 SZ IP       1427  9.35                             170     0.110   24 186 
 BAR2 SZ ES   2   1427 24.08                             170    -0.3 5   24 186 
 BAR2 SZ I        1427 25.54        19.5 0.25                            24 186 
 RUS  HZ EP   1   1427 13.34                             143    -0.1 7  102 175 
 RUS  HZ I        1427 14.20         5.4 0.11                           102 175 
 RUS  HE ES   2   1427 32.08                             143     0.2 5  102 175 
 GRA  SZ EP   1   1427 15.19                             136     0.4 7  125  18 
 GRA  SZ ES   2   1427 33.82                             136    -0.5 5  125  18 
 GRA  SZ I        1427 35.79         8.6 0.37                           125  18 
 NOR  SZ EP   1   1427 24.95                             118    -0.4 6  234 234 
 NOR  SE ES   2   1427 53.45                             118     0.3 4  234 234 
 NOR  SZ I        1427 57.18         0.9 0.59                           234 234 
 CHI  HZ EP   1   1427 27.34                             116    -0.1 6  249 195 
                                                                                
