 2011  731 1338  4.9 L   6.802 -73.084140.5  RSN  8 0.3 1.9LRSN                1
 GAP=130        0.52       2.4     4.8  4.2 -0.1370E+01 -0.2609E+01 -0.4730E+00E
 Epicentro: LOS SANTOS - SANTANDER                                             3
 ACTION:UPD 12-07-25 14:04 OP:epov STATUS:               ID:20110731133804 L   I
 2011-07-31-1335-24S.COL___141                                                 6
 STAT SP IPHASW D HRMM SECON CODA AMPLIT PERI AZIMU VELO AIN AR TRES W  DIS CAZ7
 BAR2 SZ EP       1338 23.94                             169    0.0310 25.6 205 
 BAR2 SZ ES   1   1338 38.88                             169    0.12 7 25.6 205 
 BAR2 SZ I        1338 40.01        28.1 0.34                          25.6 205 
 BRR  HZ EP       1338 26.04                             149    0.2410 77.1 296 
 BRR  HE ES   1   1338 41.97                             149   -0.16 7 77.1 296 
 BRR  HZ I        1338 47.21        26.8 0.17                          77.1 296 
 RUS  HZ EP   1   1338 27.94                             143   -0.16 7  101 180 
 RUS  HN ES   1   1338 46.10                             143   -0.12 7  101 180 
 RUS  HZ I        1338 48.14         5.6 0.23                           101 180 
 BRI  SZ EP   1   1338 28.63                             141    0.57 7  106  17 
 BRI  SZ ES   1   1338 45.93                             141   -0.23 7  106  17 
 BRI  SZ I        1338 48.78        11.6 0.39                           106  17 
 OCA  SZ EP   1   1338 32.72                             128   -0.12 7  161 351 
 OCA  SZ ES   1   1338 54.45                             128   -0.21 7  161 351 
 OCA  SZ I        1338 59.79        12.5 0.25                           161 351 
 NOR  SZ EP   2   1338 40.35                             117   -0.56 4  240 235 
 SDV  BZ EP   1   1338 53.78                             107   -0.30 5  355  50 
 PRA  HZ EP   1   1338 58.77                             105    0.14 4  396 210 
                                                                                
