 2015  531 1542 27.1 L   6.490 -73.556115.1  RSN  4 0.2 1.5LRSN                1
 GAP=160        0.51       3.2     4.2  5.3 -0.2444E+01  0.7921E+01 -0.1521E+01E
 Epicentro: SANTA HELENA DEL OPON - SANTANDER                                  3
 ACTION:UPD 15-09-10 22:08 OP:cam  STATUS:               ID:20150531154227 L   I
 OLDACT:REG 15-05-31 20:26 OP:spq  STATUS:               ID:20150531153748     3
 2015-05-31-1537-48M.COL___306                                                 6
 STAT SP IPHASW D HRMM SECON CODA AMPLIT PERI AZIMU VELO AIN AR TRES W  DIS CAZ7
 BAR2 EZ EP       1542 44.05                             158    0.2810 42.8  75 
 BAR2 EZ ES   1   1542 56.38                             158   -0.38 7 42.8  75 
 BAR2 EZ I        1542 57.95        19.2 0.50            161           42.8  75 
 BRR  HZ EP   1   1542 44.98                             146   -0.02 7 70.4 346 
 BRR  HE ES       1542 59.05                             146    0.1110 70.4 346 
 BRR  HZ I        1543  0.76         3.8 0.10            145           70.4 346 
 NOR  HN ES   1   1543 16.63                             118   -0.09 7  178 235 
 NOR  HZ I        1543 19.07         2.0 0.30            118            178 235 
 SML  HZ EP   1   1543  4.01                             108   -0.30 6  262 347 
 SML  HE ES   1   1543 33.26                             108   -0.06 6  262 347 
 SML  HZ I        1543 37.07         3.7 0.10            109            262 347 
                                                                                
