 2010  731 1639 32.5 L   6.846 -72.999143.7  RSN  4 0.1 1.3LRSN                1
 GAP=181        0.38       4.0     8.1  7.0  0.1264E+02 -0.2958E+02 -0.1197E+02E
 Epicentro: CEPITA - SANTANDER                                                 3
 ACTION:UPD 10-12-01 15:21 OP:pat  STATUS:               ID:20100731163932 L   I
 2010-07-31-1639-01S.COL___123                                                 6
 STAT SP IPHASW D HRMM SECON CODA AMPLIT PERI AZIMU VELO AIN AR TRES W  DIS CAZ7
 BAR2 SZ EP   1   1639 52.35                             166     0.2 7   35 216 
 BAR2 SZ ES   2   1640  7.29                             166    -0.2 5   35 216 
 BAR2 SZ I        1640  9.66         7.5 0.20                            35 216 
 BRR  HZ EP   1   1639 54.08                             148    -0.1 7   84 290 
 BRR  HN ES   2   1640 11.28                             148     0.1 5   84 290 
 RUS  HZ EP   1   1639 56.35                             142    -0.1 7  106 185 
 RUS  HE ES   2   1640 15.25                             142     0.1 5  106 185 
 RUS  HZ I        1640 17.24         3.4 0.25                           106 185 
 GUE  SZ EP   1   1639 56.48                             141     0.0 7  109   4 
 GUE  SZ I        1640  5.70         1.6 0.15                           109   4 
                                                                                
