 2016  731 1737 46.5 L   6.808 -73.146147.0  RSN 15 0.4 2.3LRSN                1
 GAP=102        1.00       3.7     3.0  5.0  0.1597E-01  0.5451E+01  0.3491E+01E
 Epicentro: LOS SANTOS - SANTANDER                                             3
 ACTION:UPD 17-03-29 16:57 OP:lp   STATUS:               ID:20160731173746 L   I
 OLDACT:UP  16-08-01 00:46 OP:ar   STATUS:               ID:20160731172737d    3
 OLDACT:UP  16-08-01 00:45 OP:ar   STATUS:               ID:20160731172737d    3
 OLDACT:UP  16-08-01 00:39 OP:ar   STATUS:               ID:20160731172737d    3
 OLDACT:DUP 16-08-01 00:34 OP:ar   STATUS:               ID:20160731172737d    3
 2016-07-31-1728-00M.COL___353                                                 6
 STAT SP IPHASW D HRMM SECON CODA AMPLIT PERI AZIMU VELO AIN AR TRES W  DIS CAZ7
 BAR2 EZ IP     D 1738  6.02                             170   -0.3010 24.2 190 
 BAR2 EZ ES       1738 21.35                             170   -0.4110 24.2 190 
 BAR2 EZ I        1738 23.84        43.8 0.42            167           24.2 190 
 BRR  HZ EP       1738  7.90                             153    0.1210 70.7 298 
 BRR  HN ES       1738 24.78                             153    0.4210 70.7 298 
 BRR  HZ I        1738 28.04        32.2 0.26            150           70.7 298 
 PAM  EZ EP       1738  8.95                             151    0.1210 76.7  40 
 PAM  EE ES       1738 26.18                             151   -0.0510 76.7  40 
 PAM  EZ I        1738 28.38        19.1 0.29            156           76.7  40 
 RUS  HZ EP       1738 10.15                             144   -0.3110  101 176 
 RUS  HN ES       1738 28.76                             144   -0.3710  101 176 
 RUS  HZ I        1738 29.87        17.7 0.36            144            101 176 
 TAM  HZ IP     C 1738 14.46                             131    0.14 9  155 105 
 TAM  HE ES       1738 36.42                             131    0.41 9  155 105 
 TAM  HZ I        1738 37.83        15.7 0.42            135            155 105 
 SPBC HZ EP       1738 14.94                             129   -0.24 9  164 219 
 SPBC HE ES       1738 37.85                             129    0.32 9  164 219 
 SPBC HZ I        1738 43.19        38.6 0.24            129            164 219 
 ZAR  HZ EP       1738 18.75                             123   -0.26 9  204 292 
 ZAR  HN ES       1738 44.60                             123    0.25 9  204 292 
 ZAR  HZ I        1738 52.97        16.9 0.21            123            204 292 
 NOR  HZ EP       1738 22.11                             119   -0.27 8  235 234 
 NOR  HE ES   4   1738 49.30                             119   -1.04 0  235 234 
 NOR  HZ I        1738 55.52        15.6 0.20            119            235 234 
 ROSC BZ EP       1738 25.71                             117    0.92 8  253 211 
 ROSC BN ES   4   1738 58.12                             117    3.48 0  253 211 
 ROSC BZ I        1739  0.61        19.2 0.40            117            253 211 
 HEL  HZ EP       1738 27.53                             115    0.71 8  272 256 
 HEL  HN ES       1738 58.48                             115    0.23 8  272 256 
 HEL  HZ I        1739  6.05        12.3 0.38            115            272 256 
 URE  HZ EP       1738 26.53                             114   -1.08 7  283 292 
 URE  HE ES   4   1738 56.83                             114   -2.83 0  283 292 
 URE  HZ I        1739  8.19         9.1 0.20            114            283 292 
 SOCV BZ EP   4   1738 28.92                             112   -0.66 0  301  57 
 GUY2CHZ EP       1738 31.07                             112    0.83 7  302 235 
 GUY2CHE ES   4   1739  8.21                             112    3.87 0  302 235 
 GUY2CHZ I        1739 11.15        10.6 0.54                           302 235 
 PTGC HZ EP   4   1738 29.20                             112   -1.33 0  310 159 
 PTGC HN ES   4   1739  2.69                             112   -2.16 0  310 159 
 PTGC HZ I        1739  9.43        22.2 0.54            113            310 159 
 CBOC HZ EP       1738 33.06                             110   -0.46 7  334 252 
 CBOC HN ES       1739  9.90                             110   -0.27 7  334 252 
 CBOC HZ I        1739 25.67         3.7 0.44            110            334 252 
 PRA  HZ EP       1738 39.66                             107   -0.51 6  393 209 
 PRA  HN ES       1739 22.01                             107   -0.01 6  393 209 
 PRA  HZ I        1739 28.26         9.1 0.48            107            393 209 
                                                                                
