 2010  731 1717  2.9 L   6.781 -73.079146.8  RSN 11 0.5 2.5LRSN                1
 GAP=166        1.13       5.7    11.7  9.6 -0.2519E+02  0.2301E+02  0.9107E+01E
 Epicentro: LOS SANTOS - SANTANDER                                             3
 ACTION:UPD 10-12-01 15:21 OP:pat  STATUS:               ID:20100731171702 L   I
 2010-07-31-1713-01S.COL___123                                                 6
 STAT SP IPHASW D HRMM SECON CODA AMPLIT PERI AZIMU VELO AIN AR TRES W  DIS CAZ7
 BAR2 SZ IP     C 1717 22.31                             170    -0.310   24 209 
 BAR2 SZ ES   2   1717 37.40                             170    -0.6 5   24 209 
 BAR2 SZ I        1717 40.07        52.1 0.27                            24 209 
 GIR2 SZ EP   1   1717 22.30                             166    -0.5 7   35 339 
 GIR2 SZ ES   2   1717 39.13                             166     0.8 5   35 339 
 BRR  HZ EP   1   1717 24.10                             150    -0.5 7   79 297 
 BRR  HE ES   2   1717 41.65                             150     0.2 5   79 297 
 BRR  HZ I        1717 44.44        49.3 0.11                            79 297 
 RUS  HZ EP   1   1717 26.29                             144    -0.2 7   98 180 
 RUS  HN ES   2   1717 45.40                             144     0.4 5   98 180 
 RUS  HZ I        1717 46.67        29.3 0.31                            98 180 
 GRA  SZ IP     D 1717 29.00                             137     0.810  126  14 
 GRA  SZ ES   2   1717 48.36                             137     0.4 5  126  14 
 GRA  SZ I        1717 49.68        40.1 0.34                           126  14 
 OCA  SZ EP   1   1717 30.72                             129    -0.8 7  163 351 
 OCA  SZ ES   2   1717 53.34                             129    -0.6 5  163 351 
 OCA  SZ I        1717 58.19        43.7 0.24                           163 351 
 CHI  HZ EP   1   1717 40.54                             117    -0.1 6  249 197 
 CHI  HZ I        1717 42.23        14.6 0.63                           249 197 
 CHI  HE ES   2   1718  9.75                             117    -0.3 4  249 197 
 ROSC BZ EP   1   1717 42.22                             116     1.0 6  255 213 
 ROSC BZ I        1718 14.74        17.1 0.13                           255 213 
 HEL  HZ EP   1   1717 44.21                             114     0.4 6  279 257 
 HEL  HZ I        1718 20.77        14.2 0.31                           279 257 
 RREF HZ EP   1   1717 50.13                             111     0.6 5  326 231 
 RREF HN ES   2   1718 26.15                             111     0.2 3  326 231 
 RREF HZ I        1718 33.92        16.8 0.27                           326 231 
 PRA  HZ EP   1   1717 55.97                             106    -0.7 4  394 211 
 PRA  HZ I        1717 57.75        12.0 0.65                           394 211 
 PRA  HN ES   2   1718 38.36                             106    -0.2 3  394 211 
                                                                                
