 2017  531 1650 41.9 L   6.844 -73.290121.8  RSN  5 0.4 1.6LRSN                1
 GAP=226        0.72       6.3     8.4  7.0  0.4171E+02  0.3168E+02  0.1930E+02E
 Epicentro: ZAPATOCA - SANTANDER                                               3
 ACTION:UPD 17-06-16 13:40 OP:jn   STATUS:               ID:20170531165042dL   I
 OLDACT:UP  17-06-01 00:00 OP:and  STATUS:               ID:20170531164738     3
 OLDACT:UP  17-05-31 23:59 OP:and  STATUS:               ID:20170531164738     3
 OLDACT:UP  17-05-31 23:59 OP:and  STATUS:               ID:20170531164738     3
 OLDACT:UP  17-05-31 23:58 OP:and  STATUS:               ID:20170531164738     3
 OLDACT:REG 17-05-31 20:21 OP:dani STATUS:               ID:20170531164738     3
 2017-05-31-1648-00M.COL___350                                                 6
 STAT SP IPHASW D HRMM SECON CODA AMPLIT PERI AZIMU VELO AIN AR TRES W  DIS CAZ7
 BRR  HZ EP   2   1650 58.91                             154   -0.59 5 54.9 302 
 BRR  HN ES       1651 13.38                             154    0.1210 54.9 302 
 RUS  HZ EP   2   1651  5.17                             136    1.24 5  108 168 
 RUS  HN ES       1651 20.92                             136   -0.2210  108 168 
 RUS  HZ I        1651 21.93         4.6 0.24            136            108 168 
 PTB  HZ EP       1651  5.31                             129   -0.2710  133 255 
 PTB  HN ES   4   1651 21.71                             129   -2.38 0  133 255 
 PTB  HZ I        1651 25.78         9.3 0.34            126            133 255 
 ZAR  HZ IP     D 1651 11.14                             119    0.07 9  187 293 
 ZAR  HN ES       1651 33.99                             119    0.14 9  187 293 
 ZAR  HZ I        1651 38.78         7.7 0.32            118            187 293 
 NOR  HZ EP       1651 15.24                             114    0.01 8  225 231 
 NOR  HN ES   2   1651 41.36                             114    0.10 4  225 231 
 NOR  HZ I        1651 45.36         3.1 0.42            113            225 231 
                                                                                
