 2015 1031 1945 35.1 L   6.777 -73.132141.1  RSN  9 0.3 2.2LRSN                1
 GAP=139        0.84       2.5     4.3  4.9 -0.8369E+00  0.6561E+01 -0.1427E+01E
 Epicentro: LOS SANTOS - SANTANDER                                             3
 ACTION:UPD 15-12-22 20:44 OP:cam  STATUS:               ID:20151031194535 L   I
 OLDACT:UP  15-10-31 23:56 OP:mh   STATUS:               ID:20151031193750     3
 OLDACT:UP  15-10-31 23:56 OP:mh   STATUS:               ID:20151031193750     3
 OLDACT:REG 15-10-31 20:59 OP:mh   STATUS:               ID:20151031193750     3
 2015-10-31-1937-50M.COL___316                                                 6
 STAT SP IPHASW D HRMM SECON CODA AMPLIT PERI AZIMU VELO AIN AR TRES W  DIS CAZ7
 BAR2 EZ EP       1945 54.17                             171    0.0210 21.2 195 
 BAR2 EZ ES       1946  8.58                             171   -0.4110 21.2 195 
 BAR2 EZ I        1946 10.09        33.0 0.18            170           21.2 195 
 BRR  HZ EP       1945 55.92                             151    0.0010 73.8 300 
 BRR  HN ES       1946 12.60                             151    0.4610 73.8 300 
 BRR  HZ I        1946 13.89        42.2 0.20            148           73.8 300 
 PAM  EZ EP       1945 57.06                             150    0.1610 78.4  37 
 PAM  EN ES       1946 13.97                             150    0.0810 78.4  37 
 PAM  EZ I        1946 16.10        26.3 0.50            152           78.4  37 
 RUS  HZ EP       1945 57.95                             144   -0.2710 98.0 177 
 RUS  HN ES       1946 16.60                             144    0.3510 98.0 177 
 RUS  HZ I        1946 17.50        17.7 0.32            146           98.0 177 
 SPBC HZ EP       1946  2.85                             128   -0.32 9  162 220 
 SPBC HN ES       1946 25.08                             128    0.03 9  162 220 
 SPBC HZ I        1946 30.84        23.5 0.28            129            162 220 
 OCA  HZ EP       1946  3.65                             128    0.33 9  163 353 
 OCA  HN ES       1946 24.56                             128   -0.77 9  163 353 
 OCA  HZ I        1946 28.81        25.7 0.20            129            163 353 
 ZAR  HZ EP       1946  7.30                             121   -0.21 8  206 293 
 ZAR  HN ES   1   1946 32.45                             121   -0.33 6  206 293 
 ZAR  HZ I        1946 39.09        18.1 0.42            121            206 293 
 SML  HZ EP   1   1946 11.81                             116    0.01 6  247 335 
 SML  HN ES       1946 40.97                             116    0.55 8  247 335 
 SML  HZ I        1946 47.67        16.5 0.10            117            247 335 
 GUY2CHZ EP       1946 18.78                             111    0.28 7  301 235 
 GUY2CHN ES   4   1946 52.73                             111    0.40 0  301 235 
 GUY2CHZ I        1947  1.63         6.8 0.66                           301 235 
                                                                                
