 2015 1031 1834 10.6 L   6.797 -73.121147.9  RSN 10 0.4 2.1LRSN                1
 GAP=140        1.02       3.4     5.1  6.0 -0.3031E+01  0.1188E+02  0.9654E-01E
 Epicentro: LOS SANTOS - SANTANDER                                             3
 ACTION:UPD 15-12-22 20:44 OP:cam  STATUS:               ID:20151031183410 L   I
 OLDACT:UP  15-10-31 23:44 OP:mh   STATUS:               ID:20151031182750     3
 OLDACT:REG 15-10-31 20:55 OP:mh   STATUS:               ID:20151031182750     3
 2015-10-31-1827-50M.COL___316                                                 6
 STAT SP IPHASW D HRMM SECON CODA AMPLIT PERI AZIMU VELO AIN AR TRES W  DIS CAZ7
 BAR2 EZ EP       1834 30.48                             171    0.0010 23.7 197 
 BAR2 EZ ES       1834 45.73                             171   -0.2610 23.7 197 
 BAR2 EZ I        1834 48.02        22.1 0.30            168           23.7 197 
 BRR  HZ EP   1   1834 32.45                             152    0.34 7 73.7 298 
 BRR  HN ES       1834 49.82                             152    0.9310 73.7 298 
 BRR  HZ I        1834 50.85        14.2 0.28            148           73.7 298 
 PAM  EZ EP     C 1834 33.24                             152    0.3010 75.9  38 
 PAM  EN ES       1834 50.55                             152    0.1710 75.9  38 
 PAM  EZ I        1834 52.47        19.7 0.48            156           75.9  38 
 RUS  HZ EP   1   1834 34.39                             145   -0.13 7  100 178 
 RUS  HE ES       1834 52.49                             145   -0.6910  100 178 
 RUS  HZ I        1834 54.04         6.5 0.42            146            100 178 
 SPBC HZ EP       1834 39.38                             129   -0.01 9  165 220 
 SPBC HN ES       1835  2.28                             129    0.43 9  165 220 
 SPBC HZ I        1835  8.37        26.1 0.44            129            165 220 
 ZAR  HZ EP       1834 43.15                             123   -0.29 8  207 292 
 ZAR  HN ES   1   1835  8.62                             123   -0.44 6  207 292 
 ZAR  HZ I        1835 14.92        13.8 0.20            122            207 292 
 NOR  HZ EP       1834 46.70                             119    0.04 8  237 235 
 NOR  HN ES       1835 14.26                             119   -0.53 8  237 235 
 NOR  HZ I        1835 21.57         8.6 0.30            119            237 235 
 SML  HZ EP   1   1834 47.40                             118   -0.08 6  245 335 
 SML  HN ES       1835 15.46                             118   -0.80 8  245 335 
 SML  HZ I        1835 22.65        17.1 0.10            118            245 335 
 GUY2CHZ EP   2   1834 54.97                             113    0.45 4  303 235 
 GUY2CHN ES   4   1835 33.36                             113    4.57 0  303 235 
 GUY2CHZ I        1835 37.28        10.9 0.74                           303 235 
 ORTC HZ EP       1835  4.96                             107    0.22 6  397 217 
 ORTC HN ES       1835 47.56                             107    0.58 6  397 217 
 ORTC HZ I        1835 54.75         4.9 0.20            107            397 217 
                                                                                
