 2013 1231 1134 13.6 L   6.806 -73.166146.0  RSN  4 0.4 1.4LRSN                1
 GAP=199        0.65       6.7     6.4 11.8  0.2278E+02 -0.1571E+02 -0.5516E+02E
 Epicentro: LOS SANTOS - SANTANDER                                             3
 ACTION:UPD 14-01-13 10:22 OP:ep   STATUS:               ID:20131231113413 L   I
 OLDACT:UP  13-12-31 18:32 OP:mh   STATUS:               ID:20131231113001d    3
 OLDACT:DUP 13-12-31 18:28 OP:mh   STATUS:               ID:20131231113001d    3
 2013-12-31-1130-00M.COL___285                                                 6
 STAT SP IPHASW D HRMM SECON CODA AMPLIT PERI AZIMU VELO AIN AR TRES W  DIS CAZ7
 RUS  HZ EP   1   1134 37.15                             143   -0.26 7  101 175 
 RUS  HN ES       1134 56.14                             143    0.1410  101 175 
 RUS  HZ I        1134 58.53         2.5 0.63            152            101 175 
 PTB  HZ EP       1134 40.65                             132    0.27 9  146 258 
 PTB  HN ES   1   1135  0.74                             132   -0.54 7  146 258 
 PTB  HZ I        1135  4.49         2.8 0.10            138            146 258 
 ZAR  HN ES   2   1135 11.64                             123    0.71 4  202 292 
 SML  HZ EP   1   1134 49.88                             117   -0.18 6  242 336 
 SML  HN ES   2   1135 18.33                             117   -0.18 4  242 336 
 SML  HZ I        1135 22.41         3.9 0.08            122            242 336 
                                                                                
