 2014  531 1904 59.9 L   6.806 -73.084149.7  RSN  5 0.3 2.0LRSN                1
 GAP=144        0.78       4.3     4.4  5.8  0.3641E+01  0.6332E+01 -0.2611E+01E
 Epicentro: LOS SANTOS - SANTANDER                                             3
 ACTION:UPD 15-03-16 17:02 OP:nd   STATUS:               ID:20140531190459 L   I
 OLDACT:REG 14-05-31 23:01 OP:cam  STATUS:               ID:20140531190000     3
 2014-05-31-1900-00M.COL___276                                                 6
 STAT SP IPHASW D HRMM SECON CODA AMPLIT PERI AZIMU VELO AIN AR TRES W  DIS CAZ7
 BAR2 SZ EP       19 5 20.14                             170    0.0510 26.0 205 
 BAR2 SZ ES       19 5 35.73                             170   -0.0910 26.0 205 
 BAR2 SZ I        19 5 40.77        15.9 0.24            169           26.0 205 
 PAM  SZ IP     C 19 5 22.92                             153    0.6210 72.7  36 
 PAM  SN ES       19 5 39.44                             153   -0.3110 72.7  36 
 PAM  SZ I        19 5 41.71        17.2 0.44            157           72.7  36 
 BRR  HZ EP       19 5 21.78                             151   -0.0610 76.9 296 
 BRR  HN ES       19 5 38.88                             151   -0.0410 76.9 296 
 BRR  HZ I        19 5 42.54        21.3 0.12            151           76.9 296 
 RUS  HZ EP   1   19 5 23.59                             144   -0.52 7  101 180 
 RUS  HE ES       19 5 43.16                             144    0.2010  101 180 
 RUS  HZ I        19 5 44.89         5.3 0.38            148            101 180 
 ZAR  HZ EP       19 5 32.90                             122   -0.36 8  210 291 
 ZAR  HN ES       19 5 59.51                             122    0.26 8  210 291 
 ZAR  HZ I        19 6  4.33        20.1 0.50            125            210 291 
                                                                                
