 2014  531 2038 45.9 L   6.826 -73.179135.7  RSN 19 0.4 2.2LRSN                1
 GAP=131        0.96       2.3     3.3  4.5 -0.1321E+01  0.5001E+01  0.2035E+01E
 Epicentro: ZAPATOCA - SANTANDER                                               3
 ACTION:UPD 15-03-16 17:02 OP:nd   STATUS:               ID:20140531203845 L   I
 OLDACT:UP  14-06-01 07:48 OP:spq  STATUS:               ID:20140531203819     3
 OLDACT:REG 14-06-01 06:12 OP:spq  STATUS:               ID:20140531203819     3
 2014-05-31-2038-19M.COL___259                                                 6
 STAT SP IPHASW D HRMM SECON CODA AMPLIT PERI AZIMU VELO AIN AR TRES W  DIS CAZ7
 BAR2 SZ EP       2039  4.37                             169   -0.0410 25.9 181 
 BAR2 SZ ES       2039 18.56                             169   -0.2610 25.9 181 
 BAR2 SZ I        2039 24.77        22.5 0.24            168           25.9 181 
 BRR  HZ IP     C 2039  6.26                             152    0.5310 66.6 298 
 BRR  HE ES       2039 21.99                             152    0.8210 66.6 298 
 BRR  HZ I        2039 26.31        28.3 0.34            151           66.6 298 
 PAM  SZ EP       2039  7.14                             149    0.0510 77.6  43 
 PAM  SN ES       2039 23.94                             149    0.3310 77.6  43 
 PAM  SZ I        2039 24.87        24.5 0.16            154           77.6  43 
 RUS  HZ EP       2039  8.38                             141   -0.5710  104 174 
 RUS  HE ES       2039 26.77                             141   -0.1310  104 174 
 RUS  HZ I        2039 28.91        20.9 0.32            144            104 174 
 PTB  HZ EP       2039 10.84                             130   -0.97 9  145 257 
 PTB  HN ES       2039 31.89                             130   -0.11 9  145 257 
 PTB  HZ I        2039 35.72        23.3 0.31            131            145 257 
 OCA  HN ES       2039 33.71                             128   -0.68 9  157 354 
 OCA  HZ I        2039 38.99        14.9 0.27            131            157 354 
 SPBC HZ EP       2039 13.51                             127   -0.16 9  163 217 
 SPBC HE ES       2039 35.28                             127   -0.04 9  163 217 
 SPBC HZ I        2039 38.10        27.2 0.20            128            163 217 
 ZAR  HZ EP       2039 17.09                             121   -0.17 9  200 292 
 ZAR  HN ES       2039 41.50                             121   -0.21 9  200 292 
 ZAR  HZ I        2039 47.92        29.1 0.16            122            200 292 
 NOR  HZ EP       2039 20.53                             116   -0.42 8  233 233 
 NOR  HN ES       2039 48.23                             116   -0.05 8  233 233 
 NOR  HZ I        2039 51.47        15.0 0.22            118            233 233 
 SML  HZ EP       2039 22.27                             116    0.72 8  240 336 
 SML  HE ES   1   2039 48.84                             116   -0.49 6  240 336 
 SML  HZ I        2039 55.53        18.6 0.10            118            240 336 
 CHI  HZ EP   1   2039 23.34                             115    0.05 6  251 194 
 CHI  HN ES       2039 52.61                             115    0.17 8  251 194 
 CHI  HZ I        2039 57.40         7.6 0.38            117            251 194 
 ROSC BZ EP       2039 24.49                             114    0.90 8  253 210 
 ROSC BN ES       2039 52.83                             114   -0.13 8  253 210 
 ROSC BZ I        2039 58.37        14.9 0.40            117            253 210 
 HEL  HZ EP       2039 25.44                             113    0.11 8  269 255 
 HEL  HN ES       2039 56.10                             113    0.04 8  269 255 
 HEL  HZ I        2040  2.15         9.6 0.54            115            269 255 
 GUY2CHZ EP       2039 29.11                             110    0.17 7  300 234 
 GUY2CHE ES       2040  2.86                             110    0.37 7  300 234 
 GUY2CHZ I        2040 10.83         7.4 0.42                           300 234 
 RREF HZ EP       2039 31.65                             109    0.10 7  321 229 
 RREF HE ES   1   2040  7.07                             109   -0.07 5  321 229 
 RREF HZ I        2040 16.81        10.4 0.26            111            321 229 
 TOL  SZ EP   1   2039 34.23                             107    0.49 5  343 224 
 TOL  SN ES       2040 11.07                             107    0.03 7  343 224 
 TOL  SZ I        2040 18.95        18.5 0.28            109            343 224 
 PRA  HZ EP       2039 39.18                             105   -0.02 6  393 209 
 PRA  HE ES       2040 20.57                             105   -0.19 6  393 209 
 PRA  HZ I        2040 27.07        10.9 0.30            107            393 209 
 ORTC HZ EP       2039 40.32                             105    0.78 6  396 215 
 ORTC HN ES   1   2040 21.20                             105   -0.17 4  396 215 
 ORTC HZ I        2040 27.72         5.4 0.58            107            396 215 
 SJC  HZ EP   4   2039 39.69                             104   -0.96 0  405 327 
 SJC  HN ES   4   2040 15.93                             104   -7.40 0  405 327 
 SJC  HZ I        2040 24.26         2.2 0.54            106            405 327 
                                                                                
