 2015 1231 2242 41.4 L   6.801 -73.087148.0  RSN  6 0.3 1.9LRSN                1
 GAP=189        0.78       3.7     6.5  6.3  0.1200E+02 -0.1657E+01 -0.7917E+01E
 Epicentro: LOS SANTOS - SANTANDER                                             3
 ACTION:UPD 16-02-04 15:09 OP:cam  STATUS:               ID:20151231224241 L   I
 OLDACT:REG 16-01-01 02:24 OP:cara STATUS:               ID:20151231223748     3
 2015-12-31-2237-48M.COL___328                                                 6
 STAT SP IPHASW D HRMM SECON CODA AMPLIT PERI AZIMU VELO AIN AR TRES W  DIS CAZ7
 BAR2 EZ ES       2243 16.47                             170   -0.4010 25.4 205 
 BAR2 EZ I        2243 17.76        11.6 0.16            171           25.4 205 
 BRR  HZ IP       2243  3.44                             151    0.3510 76.9 296 
 BRR  HN ES       2243 20.15                             151    0.1110 76.9 296 
 BRR  HZ I        2243 24.25         8.3 0.32            149           76.9 296 
 RUS  HZ EP       2243  5.48                             144    0.1510  100 180 
 RUS  HN ES       2243 23.97                             144   -0.0510  100 180 
 OCA  HE ES       2243 32.65                             130    0.44 9  161 351 
 OCA  HZ I        2243 38.61        12.1 0.22            130            161 351 
 ZAR  HN ES       2243 40.53                             122    0.04 8  210 291 
 ZAR  HZ I        2243 46.37         5.2 0.48            122            210 291 
 SML  HZ EP       2243 17.95                             117   -0.46 8  246 334 
 SML  HN ES       2243 46.87                             117   -0.44 8  246 334 
 SML  HZ I        2243 49.28         7.4 0.22            118            246 334 
                                                                                
