 2013  731 2204 38.2 L   6.746 -73.118140.8  RSN  6 0.3 1.7LRSN                1
 GAP=142        0.71       4.3     3.9  6.4  0.2331E+00  0.5554E+01  0.2831E+01E
 Epicentro: JORDAN - SANTANDER                                                 3
 ACTION:UPD 13-08-12 10:41 OP:ep   STATUS:               ID:20130731220438 L   I
 OLDACT:REG 13-07-31 21:33 OP:mh   STATUS:               ID:20130731215959     3
 2013-07-31-2159-59M.COL___268                                                 6
 STAT SP IPHASW D HRMM SECON CODA AMPLIT PERI AZIMU VELO AIN AR TRES W  DIS CAZ7
 BAR2 SZ EP   1   22 4 57.44                             172    0.30 7 18.4 203 
 BAR2 SZ ES   1   22 5 11.80                             172   -0.12 7 18.4 203 
 BAR2 SZ I        22 5 13.54        12.5 0.20            171           18.4 203 
 BRR  HZ EP       22 4 58.95                             150   -0.2010 76.8 301 
 BRR  HN ES       22 5 15.94                             150    0.4510 76.8 301 
 BRR  HN I        22 5 19.89        21.6 0.16            151           76.8 301 
 PAM  SZ EP   1   22 5  0.47                             149    0.40 7 80.3  35 
 PAM  SN ES       22 5 16.77                             149   -0.3610 80.3  35 
 PAM  SN I        22 5 18.13        11.9 0.28            153           80.3  35 
 RUS  HZ EP   1   22 5  1.42                             144    0.40 7 94.4 178 
 RUS  HE ES   1   22 5 18.64                             144   -0.18 7 94.4 178 
 RUS  HN I        22 5 20.93         3.0 0.22            147           94.4 178 
 PTB  HZ EP   1   22 5  4.54                             130   -0.41 7  150 261 
 PTB  HN ES   1   22 5 25.63                             130   -0.18 7  150 261 
 PTB  HN I        22 5 27.65         8.2 0.36            133            150 261 
 ZAR  HN ES   1   22 5 36.24                             120   -0.10 6  209 293 
 ZAR  HN I        22 5 36.98         5.4 0.12            123            209 293 
                                                                                
