 2015 1231 2203 15.5 L   6.624 -73.375 66.3  RSN  5 0.3 1.1LRSN                1
 GAP=134        0.84       4.4     4.7  8.1  0.1310E+02  0.2320E+02  0.1703E+02E
 Epicentro: GALAN - SANTANDER                                                  3
 ACTION:UPD 16-02-04 15:09 OP:cam  STATUS:               ID:20151231220315 L   I
 OLDACT:DUP 16-01-01 03:56 OP:cara STATUS:               ID:20151231215749d    3
 OLDACT:REG 16-01-01 02:21 OP:cara STATUS:               ID:20151231215748     3
 2015-12-31-2157-48M.COL___328                                                 6
 STAT SP IPHASW D HRMM SECON CODA AMPLIT PERI AZIMU VELO AIN AR TRES W  DIS CAZ7
 BAR2 EZ IP       22 3 25.21                             160   -0.4010 21.6  99 
 BAR2 EZ ES       22 3 33.89                             160    0.3910 21.6  99 
 BAR2 EZ I        22 3 36.40         6.5 0.12            168           21.6  99 
 BRR  HZ IP       22 3 28.22                             130   -0.1810 65.1 325 
 BRR  HN ES       22 3 38.40                             130   -0.0710 65.1 325 
 BRR  HZ I        22 3 41.75         4.7 0.16            140           65.1 325 
 RUS  HZ IP       22 3 31.64                             122    0.4010 87.1 158 
 RUS  HN ES       22 3 43.15                             122   -0.3810 87.1 158 
 RUS  HZ I        22 3 48.01         1.8 0.26            129           87.1 158 
 PTB  HZ EP       22 3 34.62                             112    0.3610  120 266 
 PTB  HE ES       22 3 48.80                             112   -0.1110  120 266 
 PTB  HZ I        22 3 53.84         4.1 0.28            119            120 266 
 ZAR  HN ES   4   22 3 58.33                             102   -5.29 0  190 300 
 ZAR  HZ I        22 4  3.04         4.3 0.28            109            190 300 
                                                                                
