 2012  831 2321  2.6 L   6.783 -73.142150.0  RSN 10 0.3 2.5LRSN                1
 GAP= 72        0.63       3.0     2.7  4.3 -0.4042E+00  0.1575E+01 -0.1199E+00E
 Epicentro: LOS SANTOS - SANTANDER                                             3
 ACTION:UPD 12-09-10 11:59 OP:ep   STATUS:               ID:20120831232102 L   I
 2012-08-31-2320-00M.COL___218                                                 6
 STAT SP IPHASW D HRMM SECON CODA AMPLIT PERI AZIMU VELO AIN AR TRES W  DIS CAZ7
 BAR2 SZ EP       2321 22.70                             171   -0.0110 21.6 192 
 BAR2 SZ ES   1   2321 38.29                             171   -0.10 7 21.6 192 
 BAR2 SZ I        2321 39.50       104.6 0.42                          21.6 192 
 GIR2 SZ EP   1   2321 22.71                             167   -0.12 7 33.1 350 
 BRR  HZ EP       2321 24.59                             153    0.3110 72.4 300 
 BRR  HZ I        2321 24.91       120.8 0.20                          72.4 300 
 BRR  HE ES   1   2321 41.88                             153    0.70 7 72.4 300 
 PAM  SZ EP   1   2321 25.52                             151    0.18 7 78.6  38 
 PAM  SE ES       2321 42.84                             151   -0.2310 78.6  38 
 PAM  SZ I        2321 45.27        67.8 0.58                          78.6  38 
 RUS  HZ EP       2321 26.51                             145   -0.1310 98.7 176 
 RUS  HN ES       2321 45.31                             145   -0.0810 98.7 176 
 RUS  HZ I        2321 47.00        20.8 0.22                          98.7 176 
 PTB  HZ EP   1   2321 29.60                             133   -0.32 7  148 260 
 PTB  HN ES   1   2321 50.79                             133   -0.44 7  148 260 
 TAM  HZ EP       2321 30.86                             132    0.32 9  154 104 
 OCA  HZ EP   1   2321 30.93                             130   -0.49 7  162 353 
 ZAR  HZ EP   1   2321 35.43                             123    0.00 6  205 293 
 ZAR  HE ES   1   2322  0.96                             123   -0.08 6  205 293 
 ZAR  HZ I        2322  6.53        27.5 0.25                           205 293 
 NOR  SZ EP   1   2321 38.65                             119    0.15 6  234 235 
 NOR  SN ES   1   2322  6.72                             119    0.22 6  234 235 
 NOR  SZ I        2322 12.59        13.1 0.07                           234 235 
                                                                                
