 2016  331 2342  8.0 L   6.379 -73.590107.5  RSN 17 0.4 2.3LRSN                1
 GAP= 71        1.05       2.5     2.7  5.4 -0.9906E+00  0.5930E+01 -0.4092E+00E
 Epicentro: SANTA HELENA DEL OPON - SANTANDER                                  3
 ACTION:UPD 16-05-13 21:29 OP:cam  STATUS:               ID:20160331234208 L   I
 OLDACT:UP  16-04-01 09:18 OP:ar   STATUS:               ID:20160331233745     3
 OLDACT:REG 16-04-01 06:16 OP:ar   STATUS:               ID:20160331233745     3
 2016-03-31-2337-45M.COL___314                                                 6
 STAT SP IPHASW D HRMM SECON CODA AMPLIT PERI AZIMU VELO AIN AR TRES W  DIS CAZ7
 BAR2 EZ EP       2342 24.48                             153    0.2810 50.9  62 
 BAR2 EZ ES       2342 37.34                             153    0.5010 50.9  62 
 BAR2 EZ I        2342 38.30       179.1 0.24            155           50.9  62 
 RUS  HZ EP       2342 26.21                             141   -0.1210 77.7 134 
 RUS  HN ES       2342 40.54                             141   -0.0910 77.7 134 
 RUS  HZ I        2342 43.95        22.4 0.28            146           77.7 134 
 SPBC HZ EP       2342 26.63                             135   -0.6710 96.5 214 
 SPBC HE ES       2342 41.86                             135   -0.5110 96.5 214 
 SPBC HZ I        2342 47.54        42.0 0.10            136           96.5 214 
 PTB  HZ IP   9 D 2342 25.68                             134   -1.61 0 97.5 281 
 PTB  HN ES       2342 40.29                             134   -0.4510 97.5 281 
 PTB  HZ I        2342 43.20        50.3 0.14            134           97.5 281 
 PAM  EZ EP       2342 32.51                             122    0.05 9  145  43 
 PAM  EN ES       2342 51.71                             122    0.16 9  145  43 
 PAM  EZ I        2342 56.96        14.8 0.44            124            145  43 
 NOR  HZ EP       2342 33.66                             118   -0.67 9  168 238 
 NOR  HE ES       2342 54.88                             118   -0.00 9  168 238 
 NOR  HZ I        2342 56.28        17.7 0.18            119            168 238 
 ZAR  HZ EP       2342 35.56                             115   -0.76 9  187 311 
 ZAR  HN ES       2342 58.90                             115    0.49 9  187 311 
 ZAR  HZ I        2343  2.80        49.3 0.40            115            187 311 
 ROSC BN ES   4   2343  1.71                             115    2.07 0  188 205 
 CHI  HZ EP       2342 37.43                             114   -0.23 9  194 185 
 CHI  HN ES       2343  0.60                             114   -0.21 9  194 185 
 CHI  HZ I        2343  4.34        13.0 0.44            116            194 185 
 OCA  HZ EP       2342 38.68                             112   -0.20 8  208   8 
 OCA  HN ES   4   2343  5.45                             112    2.47 0  208   8 
 OCA  HZ I        2343  8.51        70.1 0.32            113            208   8 
 HEL  HZ EP       2342 39.99                             111   -0.04 8  216 265 
 HEL  HN ES       2343  5.49                             111    0.47 8  216 265 
 HEL  HZ I        2343  7.07        12.1 0.52            112            216 265 
 GUY2CHZ EP       2342 42.07                             109   -0.25 8  234 237 
 GUY2CHN ES   4   2343 12.12                             109    3.02 0  234 237 
 GUY2CHZ I        2343 16.94        10.9 0.24                           234 237 
 VIL  SZ EP       2342 43.84                             107    0.04 8  251 183 
 VIL  SN ES       2343 12.66                             107    0.93 8  251 183 
 URE  HZ EP   4   2342 43.41                             106   -1.64 0  263 305 
 URE  HE ES   4   2343  9.82                             106   -4.14 0  263 305 
 URE  HZ I        2343 20.25        21.9 0.34            107            263 305 
 CBOC HZ EP       2342 46.93                             105    0.37 8  274 258 
 CBOC HN ES       2343 16.86                             105    0.21 8  274 258 
 ANIL HZ EP   4   2342 49.99                             104    1.44 0  290 224 
 ANIL HN ES   4   2343 23.04                             104    2.85 0  290 224 
 ANIL HZ I        2343 25.34        30.0 0.26            106            290 224 
 DBB  SZ EP       2342 48.99                             104   -0.30 7  298 284 
 DBB  SZ ES       2343 21.56                             104    0.06 7  298 284 
 DBB  SZ I        2343 35.41        31.8 0.44            105            298 284 
 ORTC HZ EP       2342 54.00                             102    1.09 7  329 214 
 ORTC HN ES       2343 28.42                             102    0.47 7  329 214 
 ORTC HZ I        2343 35.98         5.4 0.14            103            329 214 
                                                                                
