 2013  731 2109 32.7 L   6.757 -73.140144.0  RSN 11 0.5 2.4LRSN                1
 GAP=139        1.03       4.2     4.8  6.7 -0.2536E+01  0.6354E+01  0.4347E+01E
 Epicentro: LOS SANTOS - SANTANDER                                             3
 ACTION:UPD 13-08-12 10:41 OP:ep   STATUS:               ID:20130731210932 L   I
 OLDACT:UP  13-08-01 00:11 OP:mh   STATUS:               ID:20130731210849     3
 OLDACT:UP  13-08-01 00:09 OP:mh   STATUS:               ID:20130731210849     3
 OLDACT:REG 13-07-31 23:50 OP:mh   STATUS:               ID:20130731210849     3
 2013-07-31-2108-49M.COL___244                                                 6
 STAT SP IPHASW D HRMM SECON CODA AMPLIT PERI AZIMU VELO AIN AR TRES W  DIS CAZ7
 BAR2 SZ EP   1   21 9 51.87                             172   -0.18 7 18.8 194 
 BAR2 SZ ES   1   2110  7.15                             172    0.02 7 18.8 194 
 BAR2 SZ I        2110  9.74        22.1 0.44            168           18.8 194 
 BRR  HZ EP   1   21 9 53.71                             151   -0.13 7 74.1 302 
 BRR  HN ES       2110 11.21                             151    0.9010 74.1 302 
 BRR  HN I        2110 11.39        83.6 0.28            150           74.1 302 
 PAM  SZ EP       21 9 54.72                             150   -0.2210 80.7  37 
 PAM  SN ES   1   2110 11.84                             150   -0.44 7 80.7  37 
 PAM  SN I        2110 12.99        28.2 0.46            155           80.7  37 
 RUS  HZ EP   1   21 9 55.81                             145   -0.14 7 95.8 176 
 RUS  HN ES       2110 14.38                             145    0.3010 95.8 176 
 PTB  HZ EP   1   21 9 58.78                             132   -0.73 7  148 261 
 PTB  HN ES       2110 19.58                             132   -0.84 9  148 261 
 PTB  HN I        2110 25.49        55.4 0.20            131            148 261 
 SPBC HZ EP     C 2110  0.88                             129    0.11 9  160 220 
 SPBC HN ES       2110 22.50                             129   -0.15 9  160 220 
 SPBC HZ I        2110 29.06        17.9 0.20            129            160 220 
 ZAR  HZ EP   1   2110  6.23                             122    0.94 6  206 293 
 ZAR  HN ES   1   2110 30.68                             122   -0.02 6  206 293 
 ZAR  HN I        2110 35.50        29.3 0.40            122            206 293 
 NOR  HZ EP   1   2110  7.71                             118   -0.39 6  232 235 
 NOR  HN ES   1   2110 35.67                             118   -0.03 6  232 235 
 NOR  HN I        2110 40.56        28.1 0.24            119            232 235 
 CHI  HN ES   2   2110 38.40                             117   -0.39 4  244 196 
 CHI  HN I        2110 41.57        14.0 0.20            118            244 196 
 RREF HZ EP   1   2110 19.33                             111    0.85 5  319 230 
 RREF HN ES   4   2110 56.87                             111    2.69 0  319 230 
 PRA  HZ EP   1   2110 26.33                             106    0.60 4  388 210 
 PRA  HN ES   1   2111  7.79                             106    0.71 4  388 210 
 PRA  HN I        2111 14.30         5.3 0.60            107            388 210 
                                                                                
