 2011  731 2036 18.0 L   6.782 -73.101146.5  RSN  5 0.3 1.6LRSN                1
 GAP=143        0.61       3.6     6.2  6.0 -0.5577E+01 -0.3175E+01  0.4061E+00E
 Epicentro: LOS SANTOS - SANTANDER                                             3
 ACTION:UPD 12-07-25 14:04 OP:epov STATUS:               ID:20110731203618 L   I
 2011-07-31-2033-13S.COL___142                                                 6
 STAT SP IPHASW D HRMM SECON CODA AMPLIT PERI AZIMU VELO AIN AR TRES W  DIS CAZ7
 BAR2 SZ EP   1   2036 37.47                             171   -0.25 7 22.8 203 
 BAR2 SZ ES   1   2036 52.91                             171   -0.19 7 22.8 203 
 BAR2 SZ I        2036 53.69        11.0 0.28                          22.8 203 
 PAM  SZ EP   1   2036 40.44                             151    0.22 7 75.9  36 
 PAM  SE ES   1   2036 57.10                             151   -0.45 7 75.9  36 
 BRR  HZ EP   1   2036 39.13                             151   -0.42 7 76.5 298 
 BRR  HN ES   1   2036 56.61                             151    0.27 7 76.5 298 
 BRR  HZ I        2036 59.75        12.9 0.13                          76.5 298 
 RUS  HZ EP   1   2036 41.86                             145    0.18 7 98.4 179 
 RUS  HE ES   1   2037  0.35                             145    0.21 7 98.4 179 
 RUS  HZ I        2037  2.35         4.6 0.38                          98.4 179 
 BRI  SZ EP   1   2036 42.02                             141    0.03 7  109  18 
 BRI  SZ ES   1   2037  1.11                             141    0.41 7  109  18 
 BRI  SZ I        2037  8.21         3.4 0.38                           109  18 
                                                                                
