 2011 1031 2249 54.9 L   6.778 -73.076149.1  RSN  4 0.3 1.6LRSN                1
 GAP=147        0.51       5.4     5.3  8.3  0.3751E+01  0.8000E+01 -0.2063E+01E
 Epicentro: LOS SANTOS - SANTANDER                                             3
 ACTION:UPD 12-07-13 16:07 OP:ep   STATUS:               ID:20111031224954 L   I
 2011-10-31-2244-26S.COL___175                                                 6
 STAT SP IPHASW D HRMM SECON CODA AMPLIT PERI AZIMU VELO AIN AR TRES W  DIS CAZ7
 PAM  SZ EP   1   2250 17.54                             152    0.24 7 74.8  34 
 PAM  SN ES   2   2250 34.35                             152   -0.44 5 74.8  34 
 BRR  HZ EP   1   2250 16.74                             150   -0.11 7 79.1 297 
 BRR  HZ I        2250 20.78        12.6 0.21                          79.1 297 
 BRR  HN ES   2   2250 34.59                             150    0.61 5 79.1 297 
 RUS  HZ EP   2   2250 18.98                             145    0.21 5 97.9 180 
 RUS  HN ES   2   2250 37.13                             145   -0.27 5 97.9 180 
 RUS  HZ I        2250 39.14         2.4 0.45                          97.9 180 
 ZAR  HZ EP   2   2250 28.15                             122   -0.22 4  212 292 
 ZAR  HE ES   2   2250 54.14                             122   -0.35 4  212 292 
 ZAR  HZ I        2250 59.11         4.6 0.57                           212 292 
                                                                                
