 2016  131 2114 25.8 L   6.796 -73.159142.7  RSN 12 0.5 2.2LRSN                1
 GAP=135        1.05       2.6     4.2  5.8 -0.1723E+01  0.8880E+01 -0.3344E+00E
 Epicentro: LOS SANTOS - SANTANDER                                             3
 ACTION:UPD 16-03-09 23:30 OP:cam  STATUS:               ID:20160131211425 L   I
 OLDACT:UP  16-02-23 20:57 OP:AR   STATUS:               ID:20160131211425 L   3
 OLDACT:UP  16-02-01 05:45 OP:mh   STATUS:               ID:20160131210410     3
 OLDACT:REG 16-02-01 04:53 OP:mh   STATUS:               ID:20160131210410     3
 2016-1-31-218_210800_840.mseed                                                6
 STAT SP IPHASW D HRMM SECON CODA AMPLIT PERI AZIMU VELO AIN AR TRES W  DIS CAZ7
 BAR2 EZ EP       2114 45.12                             171    0.0310 22.7 187 
 BAR2 EZ ES       2114 59.50                             171   -0.6110 22.7 187 
 BAR2 EZ I        2115  2.37        16.4 0.19            169           22.7 187 
 PAM  EZ IP     D 2114 48.16                             150    0.3510 78.6  40 
 PAM  EN ES       2115  5.25                             150    0.3110 78.6  40 
 PAM  EZ I        2115  6.96        16.2 0.44            153           78.6  40 
 RUS  HZ EP       2114 49.12                             143   -0.1510  100 175 
 RUS  HN ES       2115  7.78                             143    0.2310  100 175 
 RUS  HZ I        2115  8.68         9.5 0.26            145            100 175 
 PTB  HZ EP       2114 52.07                             132   -0.35 9  146 259 
 PTB  HN ES       2115 13.24                             132    0.09 9  146 259 
 PTB  HZ I        2115 14.44        14.2 0.16            130            146 259 
 OCA  HZ EP       2114 54.66                             129    0.72 9  161 354 
 OCA  HN ES       2115 15.70                             129   -0.15 9  161 354 
 OCA  HZ I        2115 20.81        42.2 0.26            130            161 354 
 SPBC HZ EP       2114 53.92                             128   -0.07 9  162 219 
 SPBC HN ES       2115 15.94                             128   -0.00 9  162 219 
 SPBC HZ I        2115 18.93        33.7 0.22            129            162 219 
 ZAR  HZ EP       2114 58.00                             122    0.04 9  203 292 
 ZAR  HN ES       2115 23.78                             122    0.76 9  203 292 
 ZAR  HZ I        2115 30.03        20.8 0.28            121            203 292 
 NOR  HZ EP       2115  0.82                             118   -0.42 8  233 234 
 NOR  HN ES       2115 29.18                             118    0.33 8  233 234 
 NOR  HZ I        2115 36.76        12.0 0.32            118            233 234 
 SML  HZ EP   1   2115  1.30                             117   -0.97 6  243 336 
 SML  HN ES       2115 29.55                             117   -1.13 8  243 336 
 SML  HZ I        2115 36.89        19.4 0.26            117            243 336 
 CHI  HZ EP       2115  3.38                             116    0.09 8  248 195 
 CHI  HN ES       2115 32.40                             116   -0.09 8  248 195 
 CHI  HZ I        2115 42.05         4.6 0.42            118            248 195 
 URE  HZ EP       2115  7.15                             113    0.52 7  283 292 
 URE  HN ES   4   2115 40.60                             113    2.16 0  283 292 
 URE  HZ I        2115 49.05        11.3 0.22            113            283 292 
 PRA  HZ EP       2115 19.49                             106    0.36 6  391 209 
 PRA  HN ES       2116  0.02                             106   -0.67 6  391 209 
 PRA  HZ I        2116  4.50         5.8 0.38            107            391 209 
                                                                                
