 2014  331 2039 47.7 L   6.818 -73.139144.6  RSN 13 0.4 2.3LRSN                1
 GAP=136        0.88       2.5     3.8  6.5 -0.1749E+01  0.5827E+01  0.4433E+00E
 Epicentro: LOS SANTOS - SANTANDER                                             3
 ACTION:UPD 14-04-09 23:22 OP:nd   STATUS:               ID:20140331203947 L   I
 OLDACT:UP  14-04-01 04:14 OP:mh   STATUS:               ID:20140331203817     3
 OLDACT:UP  14-04-01 04:14 OP:mh   STATUS:               ID:20140331203817     3
 OLDACT:REG 14-04-01 03:11 OP:mher STATUS:               ID:20140331203817     3
 2014-03-31-2038-17M.COL___243                                                 6
 STAT SP IPHASW D HRMM SECON CODA AMPLIT PERI AZIMU VELO AIN AR TRES W  DIS CAZ7
 PAM  SZ EP     D 2040 10.31                             151    0.6210 75.4  40 
 PAM  SN ES   1   2040 27.08                             151    0.25 7 75.4  40 
 PAM  SZ I        2040 29.48        60.4 0.58            154           75.4  40 
 RUS  HZ EP       2040 11.49                             143   -0.0110  103 177 
 RUS  HN ES       2040 30.08                             143    0.0410  103 177 
 RUS  HZ I        2040 31.36        29.1 0.29            146            103 177 
 PTB  HZ EP       2040 14.22                             132   -0.48 9  149 258 
 PTB  HN ES       2040 35.19                             132   -0.55 9  149 258 
 PTB  HZ I        2040 37.58        18.9 0.10            131            149 258 
 OCA  HZ EP       2040 15.74                             130   -0.02 9  158 353 
 OCA  HN ES   1   2040 37.29                             130   -0.34 7  158 353 
 OCA  HZ I        2040 44.36        18.2 0.32            130            158 353 
 SPBC HZ EP   1   2040 16.33                             128    0.01 7  165 219 
 SPBC HN ES   1   2040 38.68                             128    0.05 7  165 219 
 SPBC HZ I        2040 41.11        26.3 0.17            129            165 219 
 ZAR  HZ EP   1   2040 21.00                             122    0.91 6  204 292 
 ZAR  HN ES   1   2040 45.87                             122    0.54 6  204 292 
 ZAR  HZ I        2040 52.34        36.0 0.20            122            204 292 
 NOR  HZ EP       2040 23.95                             118    0.38 8  236 234 
 NOR  HN ES   1   2040 51.45                             118   -0.09 6  236 234 
 NOR  HZ I        2040 53.53        13.9 0.12            119            236 234 
 SML  HZ EP   1   2040 24.02                             117   -0.10 6  242 335 
 SML  HN ES   1   2040 51.55                             117   -0.96 6  242 335 
 SML  HZ I        2040 59.30        32.1 0.06            118            242 335 
 CHI  HZ EP       2040 25.10                             117   -0.49 8  251 195 
 CHI  HN ES       2040 54.74                             117   -0.38 8  251 195 
 CHI  HZ I        2040 58.42         6.6 0.29            119            251 195 
 ROSC BN ES   2   2040 56.59                             116    0.72 4  255 211 
 HEL  HE ES   1   2041  0.13                             114    0.70 6  273 255 
 HEL  HZ I        2041  7.50         7.6 0.31            115            273 255 
 RREF HZ EP   4   2040 35.16                             110    1.13 0  324 229 
 RREF HN ES   2   2041 10.61                             110    0.47 3  324 229 
 RREF HZ I        2041 19.47        11.5 0.33            112            324 229 
 PRA  HZ EP       2040 41.27                             106   -0.18 6  394 210 
 PRA  HN ES       2041 23.44                             106    0.08 6  394 210 
 PRA  HZ I        2041 30.08         7.4 0.40            108            394 210 
                                                                                
