 2012  831 2248 46.4 L   6.816 -73.029151.0  RSN  5 0.1 1.9LRSN                1
 GAP=195        0.36       2.7     6.0  4.4  0.9003E+01 -0.1222E+02 -0.3579E+01E
 Epicentro: CEPITA - SANTANDER                                                 3
 ACTION:UPD 12-09-10 11:59 OP:ep   STATUS:               ID:20120831224846 L   I
 2012-08-31-2244-37M.COL___214                                                 6
 STAT SP IPHASW D HRMM SECON CODA AMPLIT PERI AZIMU VELO AIN AR TRES W  DIS CAZ7
 BAR2 SZ EP       2249  6.88                             168    0.0710 30.0 214 
 BAR2 SZ I        2249  7.06        21.5 0.18                          30.0 214 
 BAR2 SZ ES   1   2249 22.90                             168    0.17 7 30.0 214 
 GIR2 SZ EP   1   2249  6.89                             167    0.11 7 34.2 328 
 BRR  HZ EP       2249  8.70                             150   -0.0510 82.0 293 
 BRR  HZ I        2249  9.05        25.6 0.15                          82.0 293 
 BRR  HN ES       2249 26.19                             150    0.0110 82.0 293 
 RUS  HZ EP   1   2249 10.86                             144    0.06 7  102 183 
 RUS  HN ES   1   2249 29.56                             144   -0.26 7  102 183 
 RUS  HZ I        2249 30.75         6.7 0.36                           102 183 
 OCA  HE ES   1   2249 37.43                             131   -0.15 7  161 349 
                                                                                
