 2015  531 2346 23.2 L   6.790 -73.145152.2  RSN  8 0.3 1.9LRSN                1
 GAP=137        0.84       2.7     4.2  5.5 -0.2642E+00  0.3981E+01 -0.2250E+01E
 Epicentro: LOS SANTOS - SANTANDER                                             3
 ACTION:UPD 15-09-10 22:08 OP:cam  STATUS:               ID:20150531234623 L   I
 OLDACT:UP  15-06-01 05:21 OP:mh   STATUS:               ID:20150531233747     3
 OLDACT:UP  15-06-01 05:21 OP:mh   STATUS:               ID:20150531233747     3
 OLDACT:REG 15-06-01 04:56 OP:mh   STATUS:               ID:20150531233747     3
 2015-05-31-2337-47M.COL___303                                                 6
 STAT SP IPHASW D HRMM SECON CODA AMPLIT PERI AZIMU VELO AIN AR TRES W  DIS CAZ7
 BAR2 EZ ES   1   2346 59.09                             171   -0.36 7 22.3 191 
 BAR2 EZ I        2346 59.89        33.6 0.16            155           22.3 191 
 BRR  HZ EP   1   2346 45.48                             153    0.43 7 71.8 299 
 BRR  HN ES       2347  2.66                             153    0.5410 71.8 299 
 BRR  HZ I        2347  6.00        10.4 0.52            144           71.8 299 
 PAM  SZ EP       2346 46.40                             152    0.2810 78.1  39 
 PAM  SN ES       2347  3.91                             152   -0.1010 78.1  39 
 PAM  SZ I        2347  6.35         5.4 0.42            129           78.1  39 
 RUS  HZ EP       2346 47.69                             145    0.2110 99.5 176 
 RUS  HN ES       2347  6.22                             145   -0.2210 99.5 176 
 RUS  HZ I        2347  7.52         8.6 0.20            151           99.5 176 
 OCA  HZ EP       2346 51.69                             131   -0.40 9  161 353 
 OCA  HN ES       2347 14.72                             131    0.08 9  161 353 
 OCA  HZ I        2347 16.84        11.1 0.26            119            161 353 
 SPBC HZ EP       2346 52.55                             131    0.45 9  162 219 
 SPBC HN ES       2347 14.21                             131   -0.45 9  162 219 
 SPBC HZ I        2347 22.61        10.6 0.24            148            162 219 
 ZAR  HN ES       2347 21.69                             124   -0.09 9  205 292 
 ZAR  HZ I        2347 27.85         6.6 0.26            123            205 292 
 SML  HZ EP       2346 59.83                             119   -0.45 8  245 335 
 SML  HN ES       2347 28.99                             119   -0.23 8  245 335 
 SML  HZ I        2347 35.65         8.8 0.24            113            245 335 
                                                                                
