 2014  131 2021  1.4 L   7.544 -73.141141.2  RSN  7 0.4 1.9LRSN                1
 GAP=151        0.67       5.6     8.0 10.4  0.2479E+02  0.5783E+02  0.1781E+02E
 Epicentro: EL PLAYON - SANTANDER                                              3
 ACTION:UPD 14-03-13 10:00 OP:ep   STATUS:               ID:20140131202101 L   I
 OLDACT:UP  14-01-31 22:33 OP:cam  STATUS:               ID:20140131202000     3
 OLDACT:REG 14-01-31 22:12 OP:cam  STATUS:               ID:20140131202000     3
 2014-01-31-2020-00M.COL___288                                                 6
 STAT SP IPHASW D HRMM SECON CODA AMPLIT PERI AZIMU VELO AIN AR TRES W  DIS CAZ7
 PAM  SZ EP       2021 22.23                             157    0.4010 53.7 115 
 PAM  SN ES       2021 37.59                             157   -0.2110 53.7 115 
 PAM  SZ I        2021 38.76        10.0 0.24            166           53.7 115 
 BRR  HZ EP   2   2021 22.31                             149   -0.20 5 79.3 233 
 SML  HN ES   1   2021 52.84                             125   -0.07 7  173 324 
 SML  HZ I        2022  0.21        13.2 0.10            126            173 324 
 RUS  HZ EP   2   2021 30.97                             124   -0.99 4  183 178 
 ZAR  HZ EP   2   2021 32.65                             123    0.63 4  190 268 
 SPBC HN ES   2   2022  4.38                             117    0.11 4  233 206 
 SJC  HZ EP   2   2021 49.17                             108    0.07 3  344 319 
 SJC  HN ES   2   2022 25.71                             108   -0.62 3  344 319 
                                                                                
