 2017  331 2243 10.9 L   6.833 -73.153136.8  RSN 18 0.6 2.7LRSN                1
 GAP=134        1.15       3.6     4.7  5.9 -0.1552E+01  0.1082E+02  0.3858E+01E
 Epicentro: LOS SANTOS - SANTANDER                                             3
 ACTION:UPD 17-05-25 18:47 OP:jn   STATUS:               ID:20170331224310 L   I
 OLDACT:UP  17-04-01 05:32 OP:cog  STATUS:               ID:20170331223744     3
 OLDACT:UP  17-04-01 05:31 OP:cog  STATUS:               ID:20170331223744     3
 OLDACT:REG 17-04-01 04:52 OP:cog  STATUS:               ID:20170331223744     3
 2017-03-31-2238-00M.COL___368                                                 6
 STAT SP IPHASW D HRMM SECON CODA AMPLIT PERI AZIMU VELO AIN AR TRES W  DIS CAZ7
 BAR2 HZ EP       2243 29.46                             168   -0.1210 26.8 187 
 BAR2 HZ ES       2243 44.22                             168    0.1010 26.8 187 
 BAR2 HZ I        2243 45.65       177.3 0.18            165           26.8 187 
 BRR  HZ EP       2243 31.29                             151    0.3010 68.8 296 
 BRR  HE ES   3   2243 48.53                             151    1.90 2 68.8 296 
 BRR  HZ I        2243 50.68        48.5 0.14            149           68.8 296 
 PAM  EZ EP       2243 32.31                             150    0.2410 75.1  42 
 PAM  EN ES       2243 48.36                             150   -0.2010 75.1  42 
 PAM  EZ I        2243 51.80        37.2 0.60            157           75.1  42 
 RUS  HZ EP       2243 33.42                             141   -0.6910  104 176 
 RUS  HN ES       2243 51.77                             141   -0.4110  104 176 
 RUS  HZ I        2243 52.80        51.2 0.52            142            104 176 
 PTB  HZ EP   9   2243 36.39                             130   -0.80 0  148 257 
 PTB  HN ES       2243 57.04                             130    0.17 9  148 257 
 PTB  HZ I        2244  0.14        44.4 0.28            129            148 257 
 SPBC HZ EP       2243 38.44                             126   -0.56 9  166 218 
 SPBC HN ES       2244  0.49                             126   -0.40 9  166 218 
 SPBC HZ I        2244  2.55        78.9 0.22            126            166 218 
 ZAR  HZ EP       2243 42.60                             120   -0.00 9  202 291 
 ZAR  HE ES       2244  7.72                             120    0.43 9  202 291 
 ZAR  HZ I        2244 13.98        66.5 0.36            121            202 291 
 TABC EZ EP       2243 47.21                             117    0.73 8  233 210 
 TABC EZ ES   4   2244 17.98                             117    3.79 0  233 210 
 TABC EZ I        2244 21.09        49.8 0.52            118            233 210 
 NOR  HZ EP       2243 45.99                             116   -0.34 8  236 234 
 NOR  HN ES   3   2244 12.27                             116   -1.67 2  236 234 
 NOR  HZ I        2244 17.54        20.5 0.16            117            236 234 
 CHI  HZ EP       2243 48.11                             115   -0.42 8  252 195 
 CHI  HE ES       2244 18.56                             115    0.71 8  252 195 
 CHI  HZ I        2244 22.67        22.3 0.22            116            252 195 
 ROSC BZ EP       2243 49.66                             114    0.77 8  256 210 
 ROSC BE ES       2244 18.40                             114   -0.10 8  256 210 
 ROSC BZ I        2244 27.02        31.8 0.45            115            256 210 
 HEL  HZ EP       2243 51.53                             113    0.80 8  272 255 
 HEL  HE ES       2244 21.02                             113   -0.75 8  272 255 
 HEL  HZ I        2244 27.78        17.0 0.32            113            272 255 
 VIL  EZ EP   4   2243 50.77                             110   -3.59 0  307 191 
 VIL  HE ES       2244 29.75                             110    1.52 7  307 191 
 VIL  EZ I        2244 35.02        27.8 0.38            111            307 191 
 ELA  HZ EP   4   2243 58.63                             108    0.99 0  331 229 
 ELA  HE ES   4   2244 30.11                             108   -3.95 0  331 229 
 CBOC HZ EP       2243 57.52                             108   -0.03 7  334 251 
 CBOC HE ES   4   2244 30.93                             108   -2.97 0  334 251 
 CBOC HZ I        2244 43.16         9.3 0.16            109            334 251 
 DBB  EN ES   4   2244 24.70                             108    -9.9 0  338 274 
 ANIL HZ EP       2244  0.94                             107    0.28 6  359 224 
 ANIL HE ES   4   2244 42.24                             107    2.80 0  359 224 
 ANIL HZ I        2244 46.25        44.6 0.46            108            359 224 
 PRA  HZ EP       2244  3.99                             105   -0.51 6  395 209 
 PRA  HE ES       2244 46.18                             105   -0.09 6  395 209 
 PRA  HZ I        2244 50.50        30.1 0.24            106            395 209 
 ORTC HZ EP       2244  4.45                             105   -0.41 6  398 216 
 ORTC HN ES   4   2244 47.93                             105    1.01 0  398 216 
 ORTC HZ I        2244 53.54        18.6 0.62            106            398 216 
 PAL  HZ EP       2244  5.35                             104   -0.61 6  407 239 
 PAL  HE ES   4   2244 46.53                             104   -2.35 0  407 239 
                                                                                
