 2015 1231 2234 47.7 L   6.787 -73.137146.4  RSN  7 0.3 1.7LRSN                1
 GAP=201        0.73       3.0     4.3  5.5  0.3193E+01  0.1934E+00 -0.3236E+01E
 Epicentro: LOS SANTOS - SANTANDER                                             3
 ACTION:UPD 16-02-04 15:09 OP:cam  STATUS:               ID:20151231223447 L   I
 OLDACT:REG 16-01-01 02:23 OP:cara STATUS:               ID:20151231222748     3
 2015-12-31-2227-48M.COL___328                                                 6
 STAT SP IPHASW D HRMM SECON CODA AMPLIT PERI AZIMU VELO AIN AR TRES W  DIS CAZ7
 BRR  HZ EP       2235  9.27                             152    0.2310 72.7 299 
 BRR  HN ES       2235 25.91                             152    0.2610 72.7 299 
 BRR  HZ I        2235 30.34         6.8 0.12            150           72.7 299 
 RUS  HZ EP       2235 11.36                             144   -0.0810 99.1 177 
 RUS  HE ES       2235 29.85                             144   -0.0810 99.1 177 
 RUS  HZ I        2235 31.30         5.1 0.38            148           99.1 177 
 PTB  HZ IP       2235 14.76                             132   -0.05 9  148 259 
 PTB  HE ES       2235 35.76                             132   -0.17 9  148 259 
 PTB  HZ I        2235 38.02         5.7 0.12            132            148 259 
 OCA  HN ES   4   2235 37.43                             129   -1.04 0  162 353 
 OCA  HZ I        2235 41.44        11.8 0.56            131            162 353 
 ZAR  HZ IP       2235 20.78                             122    0.41 8  205 292 
 ZAR  HN ES       2235 46.02                             122    0.20 8  205 292 
 ZAR  HZ I        2235 55.03         5.6 0.10            123            205 292 
 NOR  HZ IP       2235 23.90                             119    0.41 8  235 235 
 NOR  HE ES       2235 50.88                             119   -0.50 8  235 235 
 NOR  HZ I        2235 58.43         3.9 0.14            120            235 235 
 SML  HZ EP       2235 24.30                             117   -0.28 8  245 335 
 SML  HE ES       2235 52.76                             117   -0.56 8  245 335 
 SML  HZ I        2235 57.97         6.4 0.10            119            245 335 
                                                                                
