 2011 1231 2003 21.8 L   6.732 -73.162145.5  RSN  5 0.5 1.4LRSN                1
 GAP=137        0.98       7.2     6.5 10.6 -0.8982E+01  0.9288E+01 -0.5913E+01E
 Epicentro: VILLANUEVA - SANTANDER                                             3
 ACTION:UPD 12-07-13 16:19 OP:ep   STATUS:               ID:20111231200321 L   I
 2011-12-31-2000-00M.COL___187                                                 6
 STAT SP IPHASW D HRMM SECON CODA AMPLIT PERI AZIMU VELO AIN AR TRES W  DIS CAZ7
 BRR  HZ EP       20 3 43.24                             152    0.2210 73.6 304 
 BRR  HE ES   1   20 4  0.44                             152    0.84 7 73.6 304 
 BRR  HZ I        20 4  2.37         7.0 0.15                          73.6 304 
 PAM  SZ EP       20 3 44.25                             149   -0.1410 84.4  37 
 PAM  SZ I        20 3 44.41         3.7 0.17                          84.4  37 
 PAM  SE ES   1   20 4  1.49                             149   -0.54 7 84.4  37 
 RUS  HZ EP   2   20 3 45.27                             146    0.30 5 93.2 175 
 RUS  HN ES   1   20 4  3.23                             146    0.16 7 93.2 175 
 PTB  HZ EP   1   20 3 48.46                             133    0.03 7  145 262 
 PTB  HN ES   1   20 4  8.22                             133   -1.01 7  145 262 
 ZAR  HZ EP   2   20 3 54.67                             122    0.34 4  205 294 
 ZAR  HZ I        20 4 30.15         2.0 0.49                           205 294 
                                                                                
