 2014  731 2047 15.3 L   6.767 -73.133146.1  RSN 13 0.5 2.2LRSN                1
 GAP=140        1.11       3.9     4.6  7.3 -0.2130E+01  0.9019E+01 -0.3680E+01E
 Epicentro: LOS SANTOS - SANTANDER                                             3
 ACTION:UPD 15-03-16 20:48 OP:nd   STATUS:               ID:20140731204715 L   I
 OLDACT:REG 14-08-01 04:45 OP:fm   STATUS:               ID:20140731203816     3
 2014-07-31-2038-16M.COL___260                                                 6
 STAT SP IPHASW D HRMM SECON CODA AMPLIT PERI AZIMU VELO AIN AR TRES W  DIS CAZ7
 BAR2 SZ EP   1   2047 34.77                             172   -0.15 7 20.0 196 
 BAR2 SZ ES   1   2047 49.95                             172   -0.26 7 20.0 196 
 BAR2 SZ I        2047 50.95        43.6 0.36            163           20.0 196 
 BRR  HZ EP       2047 36.90                             152    0.2410 74.2 301 
 BRR  HN ES       2047 53.85                             152    0.5310 74.2 301 
 BRR  HZ I        2047 56.79        21.6 0.32            145           74.2 301 
 PAM  SZ EP       2047 38.04                             150    0.3610 79.4  37 
 PAM  SN ES       2047 54.76                             150   -0.3810 79.4  37 
 PAM  SZ I        2047 57.01        36.8 0.60            146           79.4  37 
 RUS  HZ EP       2047 38.98                             145    0.1610 96.8 177 
 RUS  HN ES       2047 57.16                             145   -0.0110 96.8 177 
 RUS  HZ I        2048  0.97        18.1 0.46            133           96.8 177 
 PTB  HZ EP       2047 41.79                             132   -0.57 9  148 260 
 PTB  HE ES       2048  3.05                             132   -0.41 9  148 260 
 PTB  HZ I        2048  4.39        19.9 0.38            122            148 260 
 OCA  HZ EP   1   2047 43.22                             129   -0.79 7  164 353 
 OCA  HN ES       2048  6.85                             129    0.46 9  164 353 
 OCA  HZ I        2048  9.09        16.4 0.28            122            164 353 
 ZAR  HZ EP       2047 49.02                             122    0.97 8  207 293 
 ZAR  HN ES       2048 13.64                             122    0.05 8  207 293 
 ZAR  HZ I        2048 19.92        17.9 0.30            113            207 293 
 NOR  HE ES       2048 18.76                             119    0.01 8  234 235 
 NOR  HZ I        2048 24.08         7.5 0.50            109            234 235 
 CHI  HZ EP   4   2047 49.12                             117   -3.56 0  245 196 
 CHI  HN ES   4   2048 20.94                             117   -0.88 0  245 196 
 CHI  HZ I        2048 26.43         3.9 0.66            108            245 196 
 SML  HZ EP   1   2047 51.98                             117   -0.40 6  248 335 
 SML  HN ES   1   2048 20.07                             117   -1.22 6  248 335 
 SML  HZ I        2048 23.78        24.8 0.26            110            248 335 
 GUY2CHZ EP   4   2047 55.53                             112   -3.29 0  300 235 
 GUY2CHN ES   4   2048 37.30                             112    4.54 0  300 235 
 GUY2CHZ I        2048 41.42         4.9 0.38                           300 235 
 RREF HZ EP   4   2047 52.27                             111   -9.04 0  320 230 
 RREF HN ES   4   2048 40.93                             111    3.74 0  320 230 
 RREF HZ I        2048 46.88         4.7 0.32            103            320 230 
 TOL  SZ EP   4   2047 49.43                             109   -14.0 0  342 225 
 TOL  SZ I        2048 48.30         8.3 0.42            102            342 225 
 SJC  HZ EP   4   2048  9.76                             106   -1.57 0  413 327 
                                                                                
