 2010 1231 2313  0.9 L   6.782 -73.117150.7  RSN  9 0.3 2.1LRSN                1
 GAP=162        0.69       3.2     8.4  6.6 -0.8300E+01  0.1566E+02 -0.1598E+00E
 Epicentro: LOS SANTOS - SANTANDER                                             3
 ACTION:UP  11-01-14 15:28 OP:pat  STATUS:               ID:20101231231300 L   I
 2010-12-31-2300-00M.COL___137                                                 6
 STAT SP IPHASW D HRMM SECON CODA AMPLIT PERI AZIMU VELO SNR AR TRES W  DIS CAZ7
 BAR2 SZ EP   1   2313 20.78                             171    -0.3 7   22 199 
 BAR2 SZ ES   2   2313 36.88                             171     0.0 5   22 199 
 BAR2 SZ I        2313 37.47        47.8 0.20                            22 199 
 BTL  SZ EP       2313 21.68                             171     0.610   22 312 
 BTL  SZ ES   2   2313 37.24                             171     0.4 5   22 312 
 RUS  HZ EP       2313 24.78                             145    -0.210   98 178 
 RUS  HE ES   1   2313 43.67                             145    -0.1 7   98 178 
 RUS  HZ I        2313 45.29        18.3 0.34                            98 178 
 GRA  SZ EP   1   2313 26.72                             138     0.1 7  127  16 
 GRA  SZ ES   2   2313 46.51                             138    -0.2 5  127  16 
 GRA  SZ I        2313 51.01         9.0 0.31                           127  16 
 OCA  SZ EP   1   2313 29.40                             130    -0.4 7  163 352 
 OCA  SZ ES   1   2313 52.12                             130    -0.2 7  163 352 
 OCA  SZ I        2313 55.83        13.1 0.21                           163 352 
 NOR  SZ EP   2   2313 36.70                             119    -0.4 4  236 235 
 NOR  SN ES   2   2314  4.82                             119    -0.5 4  236 235 
 CHI  HZ EP   1   2313 38.94                             118     0.2 6  248 196 
 CHI  HE ES   2   2314  8.19                             118    -0.1 4  248 196 
 CHI  HZ I        2314 18.15         6.7 0.57                           248 196 
 HEL  HZ EP   2   2313 42.31                             116     0.7 4  275 256 
 HEL  HZ I        2314 20.63         7.5 0.35                           275 256 
 PRA  HZ EP   2   2313 55.16                             107     0.6 3  392 210 
 PRA  HE ES   2   2314 36.19                             107    -0.2 3  392 210 
                                                                                
