 2013 1031 2102 29.3 L   6.723 -73.221149.3  RSN  4 0.2 1.6LRSN                1
 GAP=215        0.65       5.2     5.1  6.7  0.1278E+02 -0.2481E+01 -0.3049E+01E
 Epicentro: VILLANUEVA - SANTANDER                                             3
 ACTION:UPD 13-11-25 09:24 OP:ep   STATUS:               ID:20131031210229 L   I
 OLDACT:REG 13-10-31 22:00 OP:cam  STATUS:               ID:20131031205840     3
 2013-10-31-2058-40M.COL___216                                                 6
 STAT SP IPHASW D HRMM SECON CODA AMPLIT PERI AZIMU VELO AIN AR TRES W  DIS CAZ7
 BAR2 SZ EP       21 2 48.76                             174   -0.4410 15.0 163 
 BRR  HZ EP       21 2 50.70                             154    0.0210 68.9 308 
 BRR  HN ES       21 3  7.57                             154    0.1810 68.9 308 
 RUS  HZ EP   1   21 2 53.15                             147    0.29 7 93.1 171 
 RUS  HN ES       21 3 11.32                             147    0.0710 93.1 171 
 RUS  HZ I        21 3 12.91         6.4 0.30            145           93.1 171 
 PTB  HZ EP       21 2 55.92                             135    0.24 9  138 262 
 PTB  HN ES       21 3 16.05                             135   -0.23 9  138 262 
 PTB  HZ I        21 3 19.48         5.6 0.40            133            138 262 
                                                                                
