 2016  131 2147 35.4 L   6.807 -73.140144.6  RSN 15 0.4 2.7LRSN                1
 GAP=137        0.85       2.4     3.6  4.9 -0.1842E+01  0.6225E+01  0.1773E+00E
 Epicentro: LOS SANTOS - SANTANDER                                             3
 ACTION:UPD 16-03-09 23:30 OP:cam  STATUS:               ID:20160131214735 L   I
 OLDACT:UP  16-02-01 07:17 OP:mh   STATUS:               ID:20160131212813d    3
 OLDACT:UP  16-02-01 07:17 OP:mh   STATUS:               ID:20160131212813d    3
 OLDACT:UP  16-02-01 07:16 OP:mh   STATUS:               ID:20160131212813d    3
 OLDACT:UP  16-02-01 07:16 OP:mh   STATUS:               ID:20160131212813d    3
 OLDACT:UP  16-02-01 07:15 OP:mh   STATUS:               ID:20160131212813d    3
 OLDACT:UP  16-02-01 07:13 OP:mh   STATUS:               ID:20160131212813d    3
 OLDACT:DUP 16-02-01 06:53 OP:mh   STATUS:               ID:20160131212813d    3
 2016-1-31-2138_213800_840.mseed                                               6
 STAT SP IPHASW D HRMM SECON CODA AMPLIT PERI AZIMU VELO AIN AR TRES W  DIS CAZ7
 BAR2 EZ EP       2147 54.97                             170    0.0910 24.2 191 
 BAR2 EZ ES       2148  9.88                             170   -0.2210 24.2 191 
 BAR2 EZ I        2148 11.41       202.4 0.11            169           24.2 191 
 PAM  EZ EP   1   2147 57.63                             151    0.23 7 76.4  40 
 PAM  EN ES   1   2148 14.95                             151    0.36 7 76.4  40 
 PAM  EZ I        2148 17.35        72.0 0.60            155           76.4  40 
 RUS  HZ EP   1   2147 58.51                             143   -0.55 7  101 176 
 RUS  HN ES   1   2148 17.69                             143    0.16 7  101 176 
 RUS  HZ I        2148 18.66        68.0 0.24            146            101 176 
 PTB  HZ EP       2148  1.68                             132   -0.64 9  149 259 
 PTB  HN ES       2148 23.49                             132    0.16 9  149 259 
 PTB  HZ I        2148 25.34        55.7 0.16            131            149 259 
 OCA  BZ EP       2148  3.53                             129    0.00 9  160 353 
 OCA  HN ES       2148 25.95                             129    0.46 9  160 353 
 OCA  BZ I        2148 29.78       115.1 0.30            131            160 353 
 SPBC HZ EP   1   2148  3.86                             129   -0.01 7  164 219 
 SPBC HN ES   1   2148 25.64                             129   -0.47 7  164 219 
 SPBC HZ I        2148 28.57       117.7 0.24            130            164 219 
 ZAR  HZ EP       2148  7.49                             122   -0.28 9  204 292 
 ZAR  HN ES   1   2148 33.12                             122    0.07 6  204 292 
 ZAR  HZ I        2148 43.47        38.8 0.32            123            204 292 
 NOR  HZ EP   1   2148 10.76                             118   -0.38 6  236 234 
 NOR  HN ES       2148 39.44                             118    0.41 8  236 234 
 NOR  HZ I        2148 42.30        51.0 0.16            119            236 234 
 SML  HZ EP   1   2148 11.35                             117   -0.54 6  243 335 
 SML  HN ES       2148 39.88                             117   -0.49 8  243 335 
 SML  HZ I        2148 44.11        36.3 0.10            119            243 335 
 CHI  HZ EP       2148 12.89                             117   -0.21 8  250 195 
 CHI  HN ES       2148 42.29                             117   -0.24 8  250 195 
 CHI  HZ I        2148 50.85        16.6 0.17            119            250 195 
 ROSC BZ EP   1   2148 14.31                             116    0.78 6  254 211 
 ROSC BN ES   4   2148 47.23                             116    3.93 0  254 211 
 ROSC BZ I        2148 50.41        47.9 0.45            118            254 211 
 HEL  HZ EP       2148 16.42                             114    0.81 8  273 256 
 HEL  HN ES       2148 46.90                             114   -0.11 8  273 256 
 HEL  HZ I        2148 53.91        23.6 0.26            115            273 256 
 SOCV BZ EP   4   2148 16.58                             112   -1.67 0  300  57 
 SOCV BN ES   4   2148 48.56                             112   -3.14 0  300  57 
 GUY2CHZ EP       2148 18.90                             112   -0.13 7  302 235 
 GUY2CHN ES   4   2148 55.44                             112    2.35 0  302 235 
 GUY2CHZ I        2149  5.11        26.7 0.58                           302 235 
 ELA  HZ EP       2148 23.13                             110    0.85 7  330 229 
 ELA  HN ES       2148 59.15                             110    0.27 7  330 229 
 CRJC HZ EP   4   2148 35.29                             103   -2.45 0  467   3 
 CRJC HN ES   4   2149 22.71                             103   -3.69 0  467   3 
 CRJC HZ I        2149 28.01         9.6 0.17            105            467   3 
                                                                                
