 2011  131 2103 14.5 L   6.843 -72.447110.6  RSN  4 0.1 1.4LRSN                1
 GAP=233        0.31       4.5    26.9 26.4  0.7829E+02 -0.6830E+03 -0.7126E+02E
 Epicentro: CERRITO - SANTANDER                                                3
 *RUS                                                                          3
 ACTION:UP  11-02-08 08:44 OP:pat  STATUS:               ID:20110131210314 L   I
 2011-01-31-2058-54S.COL___138                                                 6
 STAT SP IPHASW D HRMM SECON CODA AMPLIT PERI AZIMU VELO SNR AR TRES W  DIS CAZ7
 BAR2 SZ EP   2   21 3 33.32                             139    -0.1 5   86 251 
 BAR2 SZ I        21 3 33.83         8.4 0.27                            86 251 
 BTL  SZ EP       21 3 33.85                             137     0.010   91 275 
 BTL  SZ ES   2   21 3 48.99                             137     0.1 5   91 275 
 GRA  SZ EP   3   21 3 36.50                             128     0.0 2  122 341 
 GRA  SZ I        21 3 39.17         5.7 0.22                           122 341 
 RUS  HZ EP       21 3 37.42                             127     0.010  126 214 
 RUS  HN ES   2   21 3 55.16                             127    -0.1 5  126 214 
 RUS  HZ I        21 3 57.27         2.6 0.35                           126 214 
                                                                                
