 2010 1231 2226  2.9 L   6.779 -73.208  7.8  RSN  5 0.3 1.7LRSN                1
 GAP=165        0.62       2.0     9.1 21.6  0.1166E+02 -0.1267E+03 -0.2125E+02E
 Epicentro: ZAPATOCA - SANTANDER                                               3
 ACTION:UP  11-01-14 15:28 OP:pat  STATUS:               ID:20101231222602 L   I
 2010-12-31-2220-00M.COL___137                                                 6
 STAT SP IPHASW D HRMM SECON CODA AMPLIT PERI AZIMU VELO SNR AR TRES W  DIS CAZ7
 BTL  SZ IP       2226  6.50                             102     0.110   17 337 
 BTL  SZ ES   2   2226  8.63                             102    -0.5 5   17 337 
 BAR2 SZ EP   1   2226  7.11                              99     0.1 7   21 172 
 BAR2 SZ ES   1   2226 10.27                              99     0.1 7   21 172 
 BAR2 SZ I        2226 11.00       100.0 0.12                            21 172 
 RUS  HZ EP   1   2226 19.08                              92     0.0 7   99 172 
 RUS  HN ES   2   2226 30.87                              92    -0.7 5   99 172 
 GRA  SZ EP   2   2226 23.12                              91    -0.3 5  130  20 
 GRA  SZ ES   2   2226 39.43                              91     0.0 5  130  20 
 GRA  SZ I        2226 47.19        12.7 0.39                           130  20 
 OCA  SZ EP       2226 28.54                              91     0.3 9  162 356 
 OCA  SZ ES   2   2226 47.43                              91    -0.5 5  162 356 
 OCA  SZ I        2226 51.48         8.9 0.42                           162 356 
                                                                                
