 2016 1231 2314 55.8 L   6.814 -73.129146.6  RSN  6 0.3 1.5LRSN                1
 GAP=240        0.86       5.0     4.9  6.2  0.9507E+01  0.6642E+01 -0.1257E+01E
 Epicentro: LOS SANTOS - SANTANDER                                             3
 ACTION:UPD 17-01-11 20:21 OP:rebc STATUS:               ID:20161231231455 L   I
 OLDACT:REG 17-01-01 02:53 OP:dani STATUS:               ID:20161231230744     3
 2016-12-31-2308-00M.COL___381                                                 6
 STAT SP IPHASW D HRMM SECON CODA AMPLIT PERI AZIMU VELO AIN AR TRES W  DIS CAZ7
 BAR2 EZ EP       2315 15.64                             170    0.0310 25.2 194 
 BAR2 EZ ES       2315 30.90                             170   -0.1310 25.2 194 
 BAR2 EZ I        2315 31.95         9.8 0.72            172           25.2 194 
 BRR  HZ EP       2315 17.53                             152    0.4010 72.2 297 
 BRR  HN ES       2315 34.02                             152    0.2810 72.2 297 
 BRR  HZ I        2315 38.19         4.8 0.22            152           72.2 297 
 RUS  HZ EP       2315 19.85                             144    0.0810  102 177 
 RUS  HN ES       2315 38.35                             144   -0.0910  102 177 
 RUS  HE I        2315 40.30         6.2 0.31            148            102 177 
 PTB  HZ EP       2315 22.60                             132   -0.47 9  150 258 
 PTB  HN ES       2315 43.72                             132   -0.59 9  150 258 
 PTB  HZ I        2315 44.93         2.1 0.10            133            150 258 
 ZAR  HZ EP       2315 28.26                             122   -0.20 8  205 292 
 ZAR  HN ES       2315 53.99                             122    0.08 8  205 292 
 ZAR  HZ I        2315 59.34         3.7 0.22            124            205 292 
 NOR  HN ES       2316  0.66                             118    0.68 8  237 234 
                                                                                
