 2015  831 2145 56.3 L   6.808 -73.105148.3  RSN  8 0.4 1.8LRSN                1
 GAP=204        0.76       3.3     5.1  5.5  0.4211E+01  0.4352E+01 -0.3117E+01E
 Epicentro: LOS SANTOS - SANTANDER                                             3
 ACTION:UPD 15-09-15 23:06 OP:cam  STATUS:               ID:20150831214556 L   I
 OLDACT:DUP 15-09-01 08:55 OP:spq  STATUS:               ID:20150831213748d    3
 2015-08-31-2137-47M.COL___361                                                 6
 STAT SP IPHASW D HRMM SECON CODA AMPLIT PERI AZIMU VELO AIN AR TRES W  DIS CAZ7
 BAR2 EZ EP       2146 16.10                             170   -0.1510 25.3 200 
 BAR2 EZ ES   1   2146 31.94                             170    0.11 7 25.3 200 
 BAR2 EZ I        2146 33.79         8.7 0.27            171           25.3 200 
 BRR  HZ EP   1   2146 18.01                             152    0.11 7 74.7 296 
 BRR  HN ES       2146 35.36                             152    0.5910 74.7 296 
 BRR  HZ I        2146 39.04        16.4 0.30            151           74.7 296 
 RUS  HZ EP   1   2146 20.65                             145    0.32 7  101 179 
 RUS  HE ES       2146 38.94                             145   -0.1410  101 179 
 RUS  HZ I        2146 39.65         6.0 0.26            149            101 179 
 SPBC HE ES       2146 47.49                             129   -0.45 9  167 220 
 SPBC HZ I        2146 48.50        12.3 0.12            132            167 220 
 ZAR  HZ EP   1   2146 29.20                             123   -0.08 6  208 291 
 ZAR  HE ES       2146 55.14                             123    0.12 8  208 291 
 ZAR  HZ I        2147  0.13         9.2 0.30            124            208 291 
 SML  HZ EP       2146 32.79                             118   -0.38 8  245 334 
 SML  HE ES   1   2147  1.31                             118   -0.63 6  245 334 
 SML  HZ I        2147  4.90         6.2 0.12            119            245 334 
 GUY2CHZ EP   1   2146 41.14                             113    0.67 5  305 235 
 GUY2CHE ES   1   2147 14.64                             113   -0.30 5  305 235 
 GUY2CHZ I        2147 22.68         2.5 0.50                           305 235 
 PRA  HZ EP   1   2146 50.66                             107    0.42 4  395 210 
                                                                                
