 2014  131 2313  0.7 L   6.813 -73.160146.5  RSN  8 0.4 1.8LRSN                1
 GAP=134        0.94       4.2     4.9  6.3 -0.8788E-01  0.4613E+01  0.4874E+01E
 Epicentro: LOS SANTOS - SANTANDER                                             3
 ACTION:UPD 14-03-13 10:00 OP:ep   STATUS:               ID:20140131231300 L   I
 OLDACT:UP  14-01-31 23:15 OP:cam  STATUS:               ID:20140131231000     3
 OLDACT:REG 14-01-31 22:19 OP:cam  STATUS:               ID:20140131231000     3
 2014-01-31-2310-00M.COL___288                                                 6
 STAT SP IPHASW D HRMM SECON CODA AMPLIT PERI AZIMU VELO AIN AR TRES W  DIS CAZ7
 BAR2 SZ EP   1   2313 20.31                             170   -0.13 7 24.5 186 
 BAR2 SZ ES       2313 35.57                             170   -0.2810 24.5 186 
 BAR2 SZ I        2313 38.94        14.5 0.50            168           24.5 186 
 BRR  HZ EP       2313 22.12                             153    0.3110 69.1 298 
 BRR  HN ES       2313 39.06                             153    0.7810 69.1 298 
 BRR  HN I        2313 42.82        32.1 0.16            154           69.1 298 
 PAM  SZ EP       2313 23.15                             151    0.1610 77.3  41 
 PAM  SN ES       2313 40.07                             151   -0.3110 77.3  41 
 PAM  SZ I        2313 42.41         5.3 0.54            156           77.3  41 
 RUS  HZ EP   1   2313 24.99                             143    0.36 7  102 175 
 PTB  HZ EP   1   2313 27.41                             132   -0.20 7  146 258 
 PTB  HE ES   1   2313 47.79                             132   -0.81 7  146 258 
 PTB  HZ I        2313 51.99         4.2 0.10            133            146 258 
 ZAR  HN ES   1   2313 58.26                             123    0.09 6  202 292 
 SML  HZ EP   1   2313 36.84                             118   -0.31 6  242 335 
 SML  HE ES   1   2314  4.90                             118   -0.69 6  242 335 
 SML  HZ I        2314  8.46         9.0 0.10            120            242 335 
 CHI  HZ EP       2313 38.84                             117    0.30 8  250 195 
 CHI  HE ES   1   2314  7.63                             117   -0.43 6  250 195 
 CHI  HZ I        2314 15.79         1.7 0.58            118            250 195 
                                                                                
