 2016  731 2049 36.9 L   6.805 -73.158138.6  RSN  7 0.2 1.3LRSN                1
 GAP=135        0.59       3.0     2.8  4.0 -0.1727E+01  0.2856E+01  0.1801E+01E
 Epicentro: LOS SANTOS - SANTANDER                                             3
 ACTION:UPD 17-03-29 16:57 OP:lp   STATUS:               ID:20160731204936 L   I
 OLDACT:REG 16-08-01 02:37 OP:lv   STATUS:               ID:20160731204759     3
 2016-07-31-2047-59S.COL___340                                                 6
 STAT SP IPHASW D HRMM SECON CODA AMPLIT PERI AZIMU VELO AIN AR TRES W  DIS CAZ7
 BAR2 EZ EP       2049 55.43                             170   -0.2710 23.7 186 
 BAR2 EZ ES       2050 10.31                             170   -0.0410 23.7 186 
 BAR2 EZ I        2050 11.78         4.2 0.09            172           23.7 186 
 BRR  HZ EP       2049 57.51                             152    0.2910 69.7 299 
 BRR  HN ES       2050 13.31                             152    0.2710 69.7 299 
 BRR  HZ I        2050 18.29         3.9 0.13            151           69.7 299 
 PAM  EZ EP       2049 58.25                             149   -0.1610 77.9  41 
 PAM  EN ES       2050 15.17                             149   -0.0010 77.9  41 
 PAM  EZ I        2050 17.83         2.7 0.27            151           77.9  41 
 RUS  HZ EP       2050  0.20                             142    0.1810  101 175 
 RUS  HE ES       2050 18.08                             142    0.0410  101 175 
 RUS  HZ I        2050 19.07         2.9 0.34            146            101 175 
 PTB  HZ EP       2050  2.89                             131   -0.31 9  147 259 
 PTB  HN ES       2050 23.39                             131   -0.30 9  147 259 
 PTB  HZ I        2050 26.32         4.6 0.16            132            147 259 
 TAM  HE E        2048 31.60                                            157 105 
 GUY2CHZ EP       2050 20.48                             111    0.37 7  300 235 
 GUY2CHE ES       2050 53.89                             111    0.09 7  300 235 
 GUY2CHZ I        2051  1.79         1.5 0.25                           300 235 
                                                                                
