 2011  331 2340 44.3 L   6.783 -73.141147.2  RSN  6 0.3 1.8LRSN                1
 GAP=199        0.65       3.7     7.4  7.1 -0.5863E+01  0.7656E+00  0.8300E+01E
 Epicentro: LOS SANTOS - SANTANDER                                             3
 ACTION:UP  11-06-16 14:37 OP:jfem STATUS:               ID:20110331234044 L   I
 2011-03-31-2340-00M.COL___139                                                 6
 STAT SP IPHASW D HRMM SECON CODA AMPLIT PERI AZIMU VELO SNR AR TRES W  DIS CAZ7
 BTL  SZ EP   1   2341  4.19                             172     0.2 7   20 317 
 BAR2 SZ EP   1   2341  4.13                             171     0.1 7   22 192 
 BAR2 SZ ES   1   2341 19.15                             171    -0.3 7   22 192 
 BAR2 SZ I        2341 20.65        15.5 0.13                            22 192 
 BRR  HZ EP       2341  5.83                             152     0.210   73 300 
 BRR  HZ I        2341  9.80         9.5 0.11                            73 300 
 BRR  HN ES   1   2341 22.49                             152     0.2 7   73 300 
 OCA  SZ ES   1   2341 35.01                             129    -0.2 7  162 353 
 OCA  SZ I        2341 38.85        12.6 0.09                           162 353 
 NOR  SN ES   1   2341 47.60                             119    -0.3 6  234 235 
 CHI  HZ EP   1   2341 21.39                             117    -0.5 6  247 195 
 CHI  HE ES   1   2341 51.68                             117     0.5 6  247 195 
 CHI  HZ I        2341 57.11         2.6 0.11                           247 195 
                                                                                
