 2011  531 2151  3.0 L   6.732 -73.105149.9  RSN 11 0.3 2.1LRSN                1
 GAP=145        0.61       4.1     5.9  6.4 -0.8258E+01 -0.5037E+01 -0.1244E+01E
 Epicentro: JORDAN - SANTANDER                                                 3
 ACTION:UP  11-06-29 08:57 OP:tino STATUS:               ID:20110531215103 L   I
 2011-05-31-2147-29S.COL___115                                                 6
 STAT SP IPHASW D HRMM SECON CODA AMPLIT PERI AZIMU VELO SNR AR TRES W  DIS CAZ7
 BAR2 SZ EP   1   2151 23.13                             173     0.1 7   18 209 
 BAR2 SZ ES   2   2151 38.10                             173    -0.5 5   18 209 
 BAR2 SZ I        2151 40.06        27.3 0.27                            18 209 
 BTL  SZ EP       2151 23.43                             169     0.310   27 319 
 GIR2 SZ EP   2   2151 23.27                             164    -0.1 5   40 346 
 BRR  HZ EP   1   2151 24.88                             151    -0.1 7   79 302 
 BRR  HZ I        2151 25.37        44.3 0.10                            79 302 
 BRR  HE ES   1   2151 42.31                             151     0.1 7   79 302 
 PAM  SZ EP   2   2151 25.74                             150    -0.1 5   81  34 
 RUS  HZ EP   2   2151 27.14                             147     0.6 5   93 178 
 RUS  HN ES   2   2151 44.92                             147    -0.1 5   93 178 
 RUS  HZ I        2151 47.11        10.8 0.26                            93 178 
 BRI  SZ EP       2151 27.73                             141     0.110  114  17 
 GRA  SZ EP   1   2151 28.87                             136    -0.2 7  132  15 
 GRA  SZ I        2151 30.18        18.1 0.28                           132  15 
 GRA  SZ ES   2   2151 48.87                             136    -0.6 5  132  15 
 OCA  SZ EP   2   2151 31.87                             129    -0.5 5  168 352 
 OCA  SZ ES   2   2151 55.91                             129     0.6 5  168 352 
 OCA  SZ I        2151 59.92        16.7 0.30                           168 352 
 NOR  SZ EP   2   2151 38.05                             119    -0.8 4  234 237 
 NOR  SN ES   2   2152  6.68                             119    -0.2 4  234 237 
 HEL  HZ EP   2   2151 43.85                             115     0.2 4  275 258 
 HEL  HZ I        2152 21.89         6.3 0.22                           275 258 
                                                                                
