 2010  131 2339 25.7 L   6.806 -73.088140.8  RSN  8 0.3 1.9LRSN                1
 GAP=130        0.55       2.6     5.8  3.9 -0.6347E+01  0.3202E+01 -0.2823E+00E
 Epicentro: LOS SANTOS - SANTANDER                                             3
 ACTION:UP  10-08-24 09:46 OP:vdl  STATUS:               ID:20100131233925 L   I
 2010-01-31-2337-35S.COL___094                                                 6
 STAT SP IPHASW D HRMM SECON CODA AMPLIT PERI AZIMU VELO SNR AR TRES W  DIS CAZ7
 BAR2 SZ EP       2339 44.94                             169     0.210   26 204 
 BAR2 SZ ES   1   2339 59.61                             169     0.0 7   26 204 
 GIR2 SZ EP       2339 45.01                             166     0.210   32 339 
 GIR2 SZ ES   2   2339 59.73                             166     0.0 5   32 339 
 RUS  BZ EP       2339 48.98                             143     0.010  101 180 
 RUS  BZ I        2339 50.12         9.3 0.18                           101 180 
 RUS  BE ES   1   2340  7.08                             143    -0.1 7  101 180 
 OCA  SZ EP       2339 53.51                             128    -0.1 9  160 351 
 OCA  SZ ES   2   2340 14.70                             128    -0.7 5  160 351 
 OCA  SZ I        2340 18.35        20.6 0.23                           160 351 
 CHI  HZ EP       2340  3.35                             116     0.0 8  251 197 
 CHI  HE ES   1   2340 32.20                             116    -0.6 6  251 197 
 CHI  HZ I        2340 39.97         3.1 0.59                           251 197 
 RREF BZ EP       2340 12.51                             110     0.3 7  327 230 
 RREF BN ES   2   2340 48.90                             110     0.4 3  327 230 
 RREF BZ I        2340 55.49         4.1 0.62                           327 230 
 SDV  BZ EP       2340 14.86                             108     0.0 6  355  50 
 PRA  HZ EP       2340 19.20                             105    -0.3 6  396 210 
 PRA  HN ES   2   2341  0.93                             105    -0.5 3  396 210 
 PRA  HZ I        2341  6.47         3.5 0.36                           396 210 
                                                                                
