 2013 1231 2218 21.7 L   6.759 -73.163145.0  RSN  8 0.5 1.7LRSN                1
 GAP=136        1.33       5.8     6.0  8.0 -0.1017E+02  0.7319E+01  0.1059E+02E
 Epicentro: LOS SANTOS - SANTANDER                                             3
 ACTION:UPD 14-01-13 10:22 OP:ep   STATUS:               ID:20131231221821 L   I
 OLDACT:REG 13-12-31 23:06 OP:nd   STATUS:               ID:20131231221000     3
 2013-12-31-2210-00M.COL___285                                                 6
 STAT SP IPHASW D HRMM SECON CODA AMPLIT PERI AZIMU VELO AIN AR TRES W  DIS CAZ7
 BAR2 SZ EP       2218 40.80                             172   -0.3610 18.5 187 
 BAR2 SZ ES       2218 56.93                             172    0.6010 18.5 187 
 BAR2 SZ I        2218 58.07        21.2 0.28            168           18.5 187 
 BRR  HZ EP       2218 43.45                             152    0.6310 71.9 302 
 BRR  HN ES       2218 59.84                             152    0.5610 71.9 302 
 BRR  HZ I        2219  5.72         7.2 0.12            151           71.9 302 
 PAM  SZ EP       2218 44.49                             149    0.3510 82.1  39 
 PAM  SN ES       2219  0.66                             149   -0.9610 82.1  39 
 PAM  SZ I        2219  4.23         5.0 0.62            150           82.1  39 
 RUS  HZ EP       2218 45.04                             145   -0.0310 96.2 175 
 RUS  HN ES       2219  3.05                             145   -0.2510 96.2 175 
 RUS  HZ I        2219  5.13         7.1 0.34            141           96.2 175 
 PTB  HZ EP       2218 48.04                             132   -0.33 9  145 260 
 PTB  HN ES       2219  8.15                             132   -1.02 9  145 260 
 PTB  HZ I        2219 13.17         7.5 0.18            129            145 260 
 SPBC HZ EP       2218 50.07                             130    0.37 9  158 219 
 SPBC HN ES       2219 12.08                             130    0.54 9  158 219 
 SPBC HZ I        2219 19.74         6.9 0.24            126            158 219 
 NOR  HZ EP       2218 56.84                             119   -0.11 8  231 235 
 NOR  HN ES       2219 24.30                             119   -0.13 8  231 235 
 NOR  HZ I        2219 30.37         5.8 0.44            116            231 235 
 CHI  HZ EP       2218 59.08                             117    0.24 8  244 195 
 CHI  HZ I        2219 21.85         1.0 0.52            115            244 195 
 CHI  HN ES   2   2219 27.05                             117   -0.74 4  244 195 
 SML  HZ EP   4   2219  1.67                             117    3.01 0  247 336 
 SML  HN ES   4   2219 26.44                             117   -1.04 0  247 336 
                                                                                
