 2010  731 2342 56.7 L   6.755 -73.120147.2  RSN  7 0.4 1.9LRSN                1
 GAP=162        0.84       4.5     8.5  7.2 -0.4768E+01  0.7443E+01  0.3308E+01E
 Epicentro: LOS SANTOS - SANTANDER                                             3
 ACTION:UPD 10-12-01 15:21 OP:pat  STATUS:               ID:20100731234256 L   I
 2010-07-31-2339-33S.COL___122                                                 6
 STAT SP IPHASW D HRMM SECON CODA AMPLIT PERI AZIMU VELO AIN AR TRES W  DIS CAZ7
 BAR2 SZ EP   1   2343 15.97                             172    -0.5 7   19 201 
 BAR2 SZ ES   1   2343 31.52                             172    -0.3 7   19 201 
 BAR2 SZ I        2343 32.73        19.7 0.12                            19 201 
 BRR  HZ IP     C 2343 18.20                             151    -0.110   76 301 
 BRR  HZ I        2343 19.63        15.8 0.11                            76 301 
 BRR  HE ES   1   2343 35.43                             151     0.3 7   76 301 
 RUS  HZ EP       2343 20.08                             146    -0.210   95 178 
 RUS  HN ES   1   2343 39.27                             146     0.6 7   95 178 
 RUS  HZ I        2343 40.56         8.1 0.39                            95 178 
 GRA  SZ EP   1   2343 22.94                             136     0.5 7  130  16 
 GRA  SZ ES   1   2343 42.49                             136     0.0 7  130  16 
 GRA  SZ I        2343 43.87         8.6 0.28                           130  16 
 HEL  HZ EP   2   2343 36.92                             115    -0.3 4  274 257 
 HEL  HZ I        2344 12.35         3.0 0.51                           274 257 
 GUY  SZ EP   2   2343 40.99                             113     0.6 4  301 236 
 GUY  SZ I        2344 23.60        12.8 0.34                           301 236 
 PRA  HZ EP   1   2343 50.01                             107     0.0 4  389 210 
 PRA  HE ES   2   2344 31.62                             107     0.1 3  389 210 
 PRA  HZ I        2344 37.94         3.1 0.18                           389 210 
                                                                                
