 2014  831 2344 24.3 L   6.811 -73.140147.4  RSN  9 0.5 1.8LRSN                1
 GAP=137        1.18       4.4     5.7  7.5  0.4959E+01 -0.8598E+00 -0.6462E+01E
 Epicentro: LOS SANTOS - SANTANDER                                             3
 ACTION:UPD 14-09-15 21:55 OP:nd   STATUS:               ID:20140831234424 L   I
 OLDACT:REG 14-09-01 02:31 OP:cam  STATUS:               ID:20140831234000     3
 2014-08-31-2340-00M.COL___282                                                 6
 STAT SP IPHASW D HRMM SECON CODA AMPLIT PERI AZIMU VELO AIN AR TRES W  DIS CAZ7
 BAR2 SZ EP       2344 44.10                             170   -0.0010 24.6 191 
 BAR2 SZ ES       2344 59.14                             170   -0.4410 24.6 191 
 BAR2 SZ I        2345  0.83         8.9 0.16            168           24.6 191 
 BRR  HZ EP     D 2344 46.03                             153    0.4610 71.2 297 
 BRR  HN ES       2345  3.22                             153    1.0210 71.2 297 
 BRR  HN I        2345  3.61        23.3 0.32            151           71.2 297 
 PAM  SZ EP       2344 46.53                             151   -0.0310 76.0  40 
 RUS  HZ EP       2344 48.58                             144    0.3410  102 176 
 RUS  HE ES       2345  6.64                             144   -0.3210  102 176 
 PTB  HZ EP     D 2344 51.07                             132   -0.36 9  149 258 
 PTB  HN ES       2345 12.09                             132   -0.54 9  149 258 
 PTB  HZ I        2345 14.89         3.7 0.34            131            149 258 
 SPBC HZ EP       2344 52.99                             129   -0.01 9  165 219 
 SPBC HN ES       2345 15.28                             129   -0.14 9  165 219 
 SPBC HZ I        2345 21.97         5.6 0.22            128            165 219 
 ZAR  HE ES       2345 22.41                             123    0.19 9  204 292 
 SML  HZ EP       2345  0.33                             118   -0.55 8  243 335 
 SML  HE ES       2345 28.97                             118   -0.48 8  243 335 
 SML  HZ I        2345 31.97         5.0 0.10            118            243 335 
 CHI  HZ EP   1   2345  3.31                             117    1.13 6  250 195 
                                                                                
