 2014  131 2230 15.6 L   6.794 -73.146150.9  RSN  8 0.4 1.7LRSN                1
 GAP=137        0.97       4.1     5.0  6.8  0.1012E+01  0.4953E+01 -0.4339E+01E
 Epicentro: LOS SANTOS - SANTANDER                                             3
 ACTION:UPD 14-03-13 10:00 OP:ep   STATUS:               ID:20140131223015 L   I
 OLDACT:REG 14-01-31 22:18 OP:cam  STATUS:               ID:20140131223000     3
 2014-01-31-2230-00M.COL___288                                                 6
 STAT SP IPHASW D HRMM SECON CODA AMPLIT PERI AZIMU VELO AIN AR TRES W  DIS CAZ7
 BAR2 SZ ES       2230 51.32                             171   -0.3210 22.6 190 
 BRR  HZ EP     C 2230 37.54                             153    0.1910 71.5 299 
 BRR  HZ I        2230 37.76        18.6 0.28            149           71.5 299 
 BRR  HN ES       2230 54.94                             153    0.6510 71.5 299 
 PAM  SZ EP     C 2230 38.50                             151    0.0810 78.0  39 
 PAM  SN ES       2230 56.49                             151    0.2810 78.0  39 
 RUS  HZ EP   1   2230 40.19                             145    0.36 7 99.9 176 
 RUS  HN ES       2230 58.00                             145   -0.7210 99.9 176 
 RUS  HZ I        2230 59.54         5.9 0.40            147           99.9 176 
 PTB  HZ EP   2   2230 42.34                             133   -0.66 5  148 259 
 PTB  HE ES       2231  4.53                             133    0.18 9  148 259 
 PTB  HZ I        2231  8.98         3.7 0.28            131            148 259 
 ZAR  HN ES   2   2231 13.64                             123   -0.38 4  204 292 
 SML  HZ EP   1   2230 52.28                             118   -0.33 6  244 335 
 SML  HN ES       2231 20.93                             118   -0.53 8  244 335 
 SML  HZ I        2231 29.94         5.6 0.10            117            244 335 
 CHI  HZ EP   1   2230 53.93                             118    0.39 6  248 195 
                                                                                
