 2011  831 2220 31.8 L   6.740 -73.113143.8  RSN  5 0.3 1.9LRSN                1
 GAP=143        0.62       4.2     4.7  6.4  0.4173E+01  0.4355E+01 -0.1287E+01E
 Epicentro: JORDAN - SANTANDER                                                 3
 ACTION:UPD 12-07-13 15:54 OP:ep   STATUS:               ID:20110831222031 L   I
 2011-08-31-2218-40S.COL___167                                                 6
 STAT SP IPHASW D HRMM SECON CODA AMPLIT PERI AZIMU VELO AIN AR TRES W  DIS CAZ7
 BAR2 SZ EP   1   2220 51.39                             172    0.29 7 18.0 205 
 BAR2 SZ I        2220 51.69        16.6 0.11                          18.0 205 
 BAR2 SZ ES   1   2221  5.99                             172   -0.16 7 18.0 205 
 BRR  HZ EP       2220 53.45                             150    0.3310 77.6 302 
 BRR  HZ I        2220 53.92        31.6 0.10                          77.6 302 
 BRR  HN ES   1   2221  9.83                             150    0.09 7 77.6 302 
 PAM  SZ EP   1   2220 53.98                             149   -0.02 7 80.5  35 
 PAM  SZ I        2220 54.66         5.5 0.17                          80.5  35 
 PAM  SN ES   1   2221 11.14                             149   -0.17 7 80.5  35 
 RUS  HZ EP   1   2220 54.34                             145   -0.54 7 93.8 178 
 RUS  HN ES   1   2221 13.07                             145    0.19 7 93.8 178 
 RUS  HZ I        2221 15.06        11.9 0.39                          93.8 178 
 ZAR  HN ES   1   2221 30.04                             121   -0.37 6  210 293 
                                                                                
