 2012  731 2224 51.5 L   6.755 -73.170150.0  RSN  7 0.5 2.1LRSN                1
 GAP=135        1.10       7.1     6.3  9.9  0.7047E+00  0.1595E+02  0.2857E+01E
 Epicentro: VILLANUEVA - SANTANDER                                             3
 ACTION:UPD 12-08-14 11:46 OP:ep   STATUS:               ID:20120731222451 L   I
 2012-07-31-2220-00M.COL___215                                                 6
 STAT SP IPHASW D HRMM SECON CODA AMPLIT PERI AZIMU VELO AIN AR TRES W  DIS CAZ7
 BAR2 SZ EP   1   2225 11.65                             173     0.1 7   18 184 
 BAR2 SZ ES   1   2225 26.60                             173    -0.5 7   18 184 
 BAR2 SZ I        2225 28.75        26.9 0.49            172             18 184 
 BRR  HZ EP   1   2225 13.47                             153     0.4 7   71 303 
 BRR  HZ I        2225 13.82        48.6 0.23            151             71 303 
 BRR  HE ES   1   2225 31.09                             153     1.1 7   71 303 
 PAM  SZ EP   1   2225 14.23                             150    -0.2 7   83  39 
 PAM  SN ES   1   2225 31.92                             150    -0.5 7   83  39 
 RUS  HZ EP   1   2225 15.61                             146     0.3 7   96 174 
 RUS  HN ES   1   2225 34.12                             146     0.2 7   96 174 
 RUS  HZ I        2225 35.95        11.5 0.39            148             96 174 
 PTB  HZ EP   1   2225 18.21                             134    -0.3 7  144 261 
 PTB  HN ES   1   2225 39.47                             134    -0.1 7  144 261 
 PTB  HZ I        2225 41.90         8.8 0.17            133            144 261 
 ZAR  HZ EP   2   2225 24.67                             123     0.5 4  203 294 
 ZAR  HN ES   1   2225 48.80                             123    -0.8 6  203 294 
 ZAR  HZ I        2225 55.80        14.8 0.21            124            203 294 
 NOR  SZ EP   2   2225 26.83                             120    -0.1 4  230 235 
 NOR  SN ES   2   2225 53.80                             120    -0.7 4  230 235 
