 2010  831 2022 44.7 L   6.831 -73.025142.6  RSN  4 0.3 1.8LRSN                1
 GAP=252        0.55       4.5     9.5  6.6  0.2314E+02 -0.1314E+02  0.8702E+00E
 Epicentro: CEPITA - SANTANDER                                                 3
 ACTION:UP  10-09-07 10:59 OP:vdl  STATUS:               ID:20100831202244 L   I
 2010-08-31-2017-44S.COL___120                                                 6
 STAT SP IPHASW D HRMM SECON CODA AMPLIT PERI AZIMU VELO SNR AR TRES W  DIS CAZ7
 BAR2 SZ EP   1   2023  4.29                                     0.1 7   32 214 
 BAR2 SZ ES   2   2023 18.93                             168    -0.4 5   32 214 
 BAR2 SZ I        2023 21.85        13.6 0.28                            32 214 
 BRR  HZ EP       2023  6.04                             150    -0.110   82 292 
 BRR  HZ I        2023  9.31        16.6 0.35                            82 292 
 BRR  HN ES   1   2023 22.98                             150     0.1 7   82 292 
 RUS  HZ EP       2023  8.55                             143     0.210  104 184 
 RUS  HN ES   1   2023 26.80                             143    -0.1 7  104 184 
 RUS  HZ I        2023 27.88         5.7 0.39                           104 184 
 CHI  HZ EP   2   2023 22.25                             117    -0.7 4  256 198 
 CHI  HN ES   1   2023 53.02                             117     0.2 6  256 198 
 CHI  HZ I        2023 55.05         3.8 0.48                           256 198 
                                                                                
