 2014  131 2338 23.4 L   6.805 -73.149142.2  RSN 10 0.5 2.1LRSN                1
 GAP= 71        1.20       3.5     3.9  6.7  0.2047E+01  0.2628E+01 -0.7820E+00E
 Epicentro: LOS SANTOS - SANTANDER                                             3
 ACTION:UPD 14-03-13 10:00 OP:ep   STATUS:               ID:20140131233823 L   I
 OLDACT:REG 14-01-31 22:20 OP:cam  STATUS:               ID:20140131233000     3
 2014-01-31-2330-00M.COL___288                                                 6
 STAT SP IPHASW D HRMM SECON CODA AMPLIT PERI AZIMU VELO AIN AR TRES W  DIS CAZ7
 BAR2 SZ EP       2338 42.60                             170   -0.0510 23.8 189 
 BAR2 SZ ES       2338 57.49                             170   -0.1510 23.8 189 
 BAR2 SZ I        2338 58.15        42.8 0.28            172           23.8 189 
 BRR  HZ EP     C 2338 44.52                             152    0.3510 70.5 298 
 BRR  HN ES       2339  1.24                             152    0.9110 70.5 298 
 BRR  HZ I        2339  5.53        25.9 0.12            152           70.5 298 
 PAM  SZ EP     C 2338 45.49                             150    0.2210 77.2  40 
 PAM  SN ES       2339  2.48                             150    0.1910 77.2  40 
 PAM  SZ I        2339  4.48        24.3 0.50            152           77.2  40 
 RUS  HZ EP       2338 47.05                             143    0.1610  101 176 
 RUS  HN ES       2339  4.81                             143   -0.3610  101 176 
 RUS  HZ I        2339  6.71         6.7 0.20            146            101 176 
 PTB  HZ EP       2338 50.22                             131    0.13 9  147 259 
 PTB  HN ES       2339  9.70                             131   -1.18 9  147 259 
 PTB  HZ I        2339 13.44        16.0 0.16            133            147 259 
 TAM  HZ EP     D 2338 51.02                             130    0.13 9  156 105 
 TAM  HN ES       2339 12.32                             130    0.02 9  156 105 
 TAM  HZ I        2339 13.06        10.5 0.54            133            156 105 
 OCA  HZ EP   1   2338 50.87                             129   -0.55 7  160 353 
 OCA  HN ES       2339 12.69                             129   -0.54 9  160 353 
 OCA  HZ I        2339 16.76        27.1 0.16            130            160 353 
 ZAR  HZ EP   1   2338 56.15                             122    0.56 6  203 292 
 ZAR  HN ES       2339 21.33                             122    0.66 9  203 292 
 ZAR  HZ I        2339 25.77        16.9 0.28            123            203 292 
 SML  HZ EP       2338 58.96                             117   -0.83 8  243 335 
 SML  HN ES       2339 28.04                             117   -0.10 8  243 335 
 SML  HZ I        2339 31.65        24.3 0.10            118            243 335 
 CHI  HZ EP   1   2339  1.52                             116    0.53 6  249 195 
 CHI  HN ES       2339 30.14                             116   -0.14 8  249 195 
 GUY2CHZ EP   4   2339  8.64                             112    1.76 0  301 235 
                                                                                
