 2013  131 2134 36.2 L   6.803 -73.170139.4  RSN  5 0.2 1.2LRSN                1
 GAP=143        0.41       2.9     3.0  5.2 -0.2530E+01  0.3843E+01  0.2777E+01E
 Epicentro: LOS SANTOS - SANTANDER                                             3
 ACTION:UPD 13-02-15 09:18 OP:ep   STATUS:               ID:20130131213436 L   I
 2013-01-31-2130-00M.COL___241                                                 6
 STAT SP IPHASW D HRMM SECON CODA AMPLIT PERI AZIMU VELO AIN AR TRES W  DIS CAZ7
 PAM  SZ EP   1   2134 57.87                             149   -0.01 7 78.9  41 
 PAM  SN ES   1   2135 14.70                             149   -0.06 7 78.9  41 
 PAM  SZ I        2135 17.78         2.4 0.30            152           78.9  41 
 RUS  HZ EP   1   2134 59.31                             142   -0.10 7  101 175 
 RUS  HN ES   1   2135 17.67                             142    0.19 7  101 175 
 RUS  HZ I        2135 19.24         2.8 0.44            144            101 175 
 PTB  HZ EP   1   2135  2.66                             131    0.21 7  145 259 
 PTB  HN ES   1   2135 22.72                             131   -0.18 7  145 259 
 PTB  HZ I        2135 25.31         3.3 0.20            134            145 259 
 NOR  HN ES   2   2135 39.07                             117    0.27 4  233 234 
 CHI  HZ EP   1   2135 13.64                             116    0.09 6  248 195 
 CHI  HN ES   2   2135 41.99                             116   -0.66 4  248 195 
 CHI  HZ I        2135 46.58         1.3 0.44            118            248 195 
                                                                                
