 2017  131 2103  0.8 L   6.780 -73.144146.1  RSN  7 0.4 1.7LRSN                1
 GAP=138        0.90       3.6     3.8  7.8 -0.5087E+00  0.6308E+01  0.6759E+01E
 Epicentro: LOS SANTOS - SANTANDER                                             3
 ACTION:UPD 17-05-22 16:05 OP:jn   STATUS:               ID:20170131210300 L   I
 OLDACT:UP  17-02-01 03:34 OP:dani STATUS:               ID:20170131205745     3
 OLDACT:REG 17-02-01 03:09 OP:dani STATUS:               ID:20170131205745     3
 2017-01-31-2058-00M.COL___325                                                 6
 STAT SP IPHASW D HRMM SECON CODA AMPLIT PERI AZIMU VELO AIN AR TRES W  DIS CAZ7
 BRR  HZ EP       21 3 22.22                             152    0.1510 72.4 300 
 BRR  HN ES       21 3 39.03                             152    0.3810 72.4 300 
 BRR  HZ I        21 3 40.87        13.2 0.16            154           72.4 300 
 PAM  EZ EP       21 3 23.15                             150   -0.0110 79.0  38 
 PAM  EE ES       21 3 40.19                             150   -0.4010 79.0  38 
 PAM  EZ I        21 3 44.74         8.7 0.62            153           79.0  38 
 RUS  HZ EP       21 3 24.82                             144    0.3810 98.4 176 
 RUS  HN ES       21 3 42.99                             144    0.1210 98.4 176 
 RUS  HZ I        21 3 44.67         4.7 0.29            148           98.4 176 
 PTB  HZ EP       21 3 27.29                             132   -0.49 9  148 260 
 PTB  HN ES       21 3 48.22                             132   -0.60 9  148 260 
 PTB  HZ I        21 3 51.96         6.8 0.20            135            148 260 
 ZAR  HE ES       21 3 59.28                             122    0.49 9  205 293 
 NOR  HN ES       21 4  4.20                             119   -0.03 8  234 235 
 CHI  HE ES       21 4  7.52                             117   -0.02 8  247 195 
                                                                                
