 2013  731 2127  3.9 L   6.790 -73.130150.8  RSN  8 0.5 2.1LRSN                1
 GAP=189        0.88       4.7     6.5  9.2  0.8479E+01 -0.6743E+01 -0.1306E+02E
 Epicentro: LOS SANTOS - SANTANDER                                             3
 ACTION:UPD 13-08-12 10:41 OP:ep   STATUS:               ID:20130731212703 L   I
 OLDACT:DUP 13-07-31 22:43 OP:mh   STATUS:               ID:20130731211960d    3
 2013-07-31-2119-59M.COL___268                                                 6
 STAT SP IPHASW D HRMM SECON CODA AMPLIT PERI AZIMU VELO AIN AR TRES W  DIS CAZ7
 BAR2 SZ EP   1   2127 24.00                             171   -0.10 7 22.6 195 
 GIR2 SZ EP   1   2127 24.14                             167   -0.05 7 32.7 348 
 BRR  HZ EP       2127 26.15                             153    0.4610 73.3 299 
 BRR  HN ES   1   2127 43.10                             153    0.40 7 73.3 299 
 BRR  HN I        2127 47.14        21.2 0.16            151           73.3 299 
 RUS  HZ EP   1   2127 28.09                             145    0.05 7 99.3 177 
 RUS  HN ES   1   2127 46.50                             145   -0.39 7 99.3 177 
 RUS  HN I        2127 49.60         8.1 0.74            149           99.3 177 
 PTB  HZ EP   1   2127 30.60                             133   -0.80 7  149 259 
 PTB  HE ES   1   2127 52.74                             133   -0.12 7  149 259 
 PTB  HE I        2127 57.84        12.3 0.42            134            149 259 
 SPBC HZ EP   1   2127 33.27                             130    0.48 7  163 220 
 SPBC HN ES   1   2127 55.31                             130   -0.03 7  163 220 
 SPBC HN I        2127 59.43        19.4 0.16            133            163 220 
 ZAR  HZ EP   1   2127 37.74                             123    0.87 6  206 292 
 ZAR  HN ES   1   2128  2.11                             123   -0.48 6  206 292 
 ZAR  HN I        2128  8.47        15.1 0.38            125            206 292 
 SML  HZ EP   1   2127 40.23                             118   -0.75 6  245 335 
 SML  HN ES   1   2128  9.74                             118   -0.18 6  245 335 
 SML  HN I        2128 13.29        15.0 0.10            121            245 335 
                                                                                
