 2010  731 2349 51.0 L   6.789 -73.131144.7  RSN  8 0.5 2.0LRSN                1
 GAP=160        1.23       5.7    11.7 11.5 -0.2559E+02 -0.5752E+01  0.1077E+02E
 Epicentro: LOS SANTOS - SANTANDER                                             3
 ACTION:UPD 10-12-01 15:21 OP:pat  STATUS:               ID:20100731234951 L   I
 2010-07-31-2345-33S.COL___122                                                 6
 STAT SP IPHASW D HRMM SECON CODA AMPLIT PERI AZIMU VELO AIN AR TRES W  DIS CAZ7
 BRR  HZ IP     C 2350 11.99                             151    -0.210   73 299 
 BRR  HE ES   1   2350 28.90                             151     0.2 7   73 299 
 BRR  HZ I        2350 33.66        26.1 0.14                            73 299 
 RUS  HZ EP   1   2350 14.17                             144    -0.4 7   99 177 
 RUS  HN ES   1   2350 32.47                             144    -0.5 7   99 177 
 RUS  HZ I        2350 33.76         9.4 0.25                            99 177 
 GUE  SZ EP   1   2350 15.02                             139    -0.7 7  117  11 
 GUE  SZ I        2350 35.20         5.2 0.14                           117  11 
 GRA  SZ IP       2350 17.00                             136     0.810  126  17 
 GRA  SZ ES   1   2350 36.47                             136     0.6 7  126  17 
 GRA  SZ I        2350 37.93        13.5 0.30                           126  17 
 OCA  SZ EP   1   2350 18.71                             129    -0.7 7  162 353 
 OCA  SZ ES   2   2350 40.97                             129    -0.5 5  162 353 
 OCA  SZ I        2350 45.35        12.6 0.27                           162 353 
 CHI  HZ EP   2   2350 29.10                             117     0.5 4  248 196 
 CHI  HZ I        2351  4.46         5.4 0.38                           248 196 
 RREF HN ES   2   2351 13.05                             110    -0.1 3  322 230 
 RREF HZ I        2351 22.14         6.2 0.31                           322 230 
 PRA  HZ IP     C 2350 44.69                             106     0.2 6  392 210 
 PRA  HE ES   1   2351 26.79                             106     0.6 4  392 210 
 PRA  HZ I        2351 33.49         4.8 0.72                           392 210 
                                                                                
