 2011  731 2311 17.3 L   6.782 -73.104144.9  RSN  5 0.3 2.2LRSN                1
 GAP=143        0.70       4.6     6.9  6.8 -0.1748E+01 -0.2842E+01 -0.4486E+01E
 Epicentro: LOS SANTOS - SANTANDER                                             3
 ACTION:UPD 12-07-25 14:04 OP:epov STATUS:               ID:20110731231117 L   I
 2011-07-31-2309-09S.COL___142                                                 6
 STAT SP IPHASW D HRMM SECON CODA AMPLIT PERI AZIMU VELO AIN AR TRES W  DIS CAZ7
 BAR2 SZ EP   1   2311 36.77                             171   -0.09 7 22.7 202 
 BAR2 SZ ES   1   2311 51.46                             171   -0.62 7 22.7 202 
 BAR2 SZ I        2311 53.43        39.1 0.19                          22.7 202 
 PAM  SZ EP   1   2311 39.71                             151    0.31 7 76.2  36 
 PAM  SE ES   1   2311 56.60                             151    0.00 7 76.2  36 
 BRR  HZ IP     C 2311 38.45                             151   -0.2410 76.2 298 
 BRR  HZ I        2311 38.78        31.8 0.13                          76.2 298 
 BRR  HE ES   1   2311 55.77                             151    0.43 7 76.2 298 
 RUS  HZ EP   1   2311 40.72                             144   -0.13 7 98.3 179 
 RUS  HN ES   1   2311 59.66                             144    0.47 7 98.3 179 
 RUS  HZ I        2312  1.09        19.3 0.42                          98.3 179 
 GRA  SZ EP   1   2311 42.62                             137    0.05 7  126  15 
                                                                                
