 2013  731 2037 53.7 L   6.795 -73.196137.4  RSN  5 0.4 2.0LRSN                1
 GAP=131        0.90       5.3     5.6  8.6  0.9817E+01  0.1274E+02 -0.4600E+01E
 Epicentro: ZAPATOCA - SANTANDER                                               3
 ACTION:UPD 13-08-12 10:41 OP:ep   STATUS:               ID:20130731203753 L   I
 OLDACT:REG 13-07-31 21:26 OP:mh   STATUS:               ID:20130731202959     3
 2013-07-31-2029-59M.COL___270                                                 6
 STAT SP IPHASW D HRMM SECON CODA AMPLIT PERI AZIMU VELO AIN AR TRES W  DIS CAZ7
 BAR2 SZ EP   1   2038 12.15                             170   -0.14 8 22.5 176 
 BAR2 SZ ES   1   2038 26.52                             170   -0.28 8 22.5 176 
 BAR2 SZ I        2038 28.43        12.1 0.58            170           22.5 176 
 BRR  HZ EP   1   2038 13.95                             153    0.28 8 66.6 301 
 BRR  HN ES   1   2038 30.04                             153    0.78 8 66.6 301 
 BRR  HN I        2038 31.29        43.1 0.32            150           66.6 301 
 PAM  SZ EP   1   2038 15.04                             148   -0.23 8 81.4  42 
 PAM  SN ES   1   2038 32.03                             148   -0.08 8 81.4  42 
 PAM  SN I        2038 33.13        22.2 0.42            152           81.4  42 
 RUS  HZ EP   1   2038 16.69                             142    0.07 7  101 173 
 RUS  HN ES       2038 34.49                             142   -0.0210  101 173 
 RUS  HN I        2038 36.59        15.3 0.38            144            101 173 
 ZAR  HZ EP   1   2038 25.85                             121    0.77 6  199 293 
 ZAR  HN ES       2038 48.86                             121   -0.71 9  199 293 
 ZAR  HN I        2038 56.36        14.9 0.12            121            199 293 
                                                                                
