 2013  313 1212  9.6 L   6.821 -73.153148.7  RSN 29 0.5 4.5LRSN 4.6WRSN        1
 SPEC AVERAGE  MO 15.9 ST 15.0 OM  4.3 f0 1.02 R1.5313 AL 2.72 WI 33.4 MW  4.6 3
 SPEC SD       MO  0.3 ST 11.7 OM  0.3 f00.217 R0.4014 AL      WI      MW  0.2 3
 GAP= 70        1.07       2.8     3.1  4.7 -0.2968E+00  0.4362E+01  0.2156E+01E
 Epicentro: LOS SANTOS - SANTANDER                                             3
 Evento sentido                                                                2
 Reportado como sentido en: FLORIDABLANCA, BUCARAMANGA (SANTANDER), TUNJA      3
 (BOYACA)                                                                      3
 SPEC RREFHH Z MO 16.1 ST 27.2 OM  4.2 f0 1.12 R1.3125 AL 2.20 WI 61.4 MW  4.7 3
 SPEC RREFHH Z T121332 K 0.000 GD  355 VS 4.20 DE 3.20 Q0300.0 QA 0.60 VS 4.20 3
 SPEC VIL SH Z MO 16.2 ST  8.3 OM  4.3 f00.708 R2.0763 AL 4.50 WI 24.1 MW  4.8 3
 SPEC VIL SH Z T121324 K 0.000 GD  339 VS 4.20 DE 3.20 Q0300.0 QA 0.60 VS 4.20 3
 SPEC MARAHH Z MO 15.9 ST  2.9 OM  3.8 f00.624 R2.3558 AL 1.99 WI 48.7 MW  4.6 3
 SPEC MARAHH Z T1214 5 K 0.000 GD  559 VS 4.20 DE 3.20 Q0300.0 QA 0.60 VS 4.20 3
 SPEC ROSCBH Z MO 16.1 ST 29.1 OM  4.2 f0 1.22 R1.2049 AL 2.45 WI 26.3 MW  4.7 3
 SPEC ROSCBH Z T121315 K 0.000 GD  294 VS 4.20 DE 3.20 Q0300.0 QA 0.60 VS 4.20 3
 SPEC TAM HH Z MO 16.1 ST  6.8 OM  4.4 f00.716 R2.0531 AL 2.63 WI 39.4 MW  4.7 3
 SPEC TAM HH Z T121256 K 0.000 GD  215 VS 4.20 DE 3.20 Q0300.0 QA 0.60 VS 4.20 3
 SPEC RUS HH Z MO 15.5 ST  3.7 OM  3.8 f00.981 R1.4985 AL 1.80 WI 11.8 MW  4.2 3
 SPEC RUS HH Z T121252 K 0.000 GD  180 VS 4.20 DE 3.20 Q0300.0 QA 0.60 VS 4.20 3
 SPEC PRA HH Z MO 16.2 ST 40.7 OM  4.2 f0 1.21 R1.2149 AL 2.60 WI 30.7 MW  4.8 3
 SPEC PRA HH Z T121342 K 0.000 GD  421 VS 4.20 DE 3.20 Q0300.0 QA 0.60 VS 4.20 3
 SPEC HEL HH Z MO 15.6 ST  9.9 OM  3.7 f0 1.23 R1.1951 AL 3.58 WI 37.7 MW  4.3 3
 SPEC HEL HH Z T121320 K 0.000 GD  309 VS 4.20 DE 3.20 Q0300.0 QA 0.60 VS 4.20 3
 SPEC PAM SH Z MO 15.5 ST  6.1 OM  3.9 f0 1.10 R1.3364 AL 2.05 WI 43.8 MW  4.3 3
 SPEC PAM SH Z T121249 K 0.000 GD  167 VS 4.20 DE 3.20 Q0300.0 QA 0.60 VS 4.20 3
 SPEC DBB SH Z MO 16.0 ST 16.0 OM  4.0 f0 1.08 R1.3611 AL 3.42 WI 29.8 MW  4.6 3
 SPEC DBB SH Z T121332 K 0.000 GD  370 VS 4.20 DE 3.20 Q0300.0 QA 0.60 VS 4.20 3
 SPEC BAR2SH Z MO 15.8 ST 13.9 OM  4.2 f0 1.19 R1.2353 AL 2.73 WI 13.7 MW  4.5 3
 SPEC BAR2SH Z T121243 K 0.000 GD  150 VS 4.20 DE 3.20 Q0300.0 QA 0.60 VS 4.20 3
 ACTION:UPD 13-04-09 14:02 OP:ep   STATUS:               ID:20130313121209 L   I
 2013-03-13-1210-00M.COL___231                                                 6
 STAT SP IPHASW D HRMM SECON CODA AMPLIT PERI AZIMU VELO AIN AR TRES W  DIS CAZ7
 BAR2 SZ IP       1212 29.90                             170    0.2210 25.5 187 
 BAR2 SZ ES       1212 44.89                             170   -0.4110 25.5 187 
 BAR2 SZ I        1212 46.88      6287.2 0.20            166           25.5 187 
 BRR  HZ IP     C 1212 31.75                             154    0.7310 69.4 297 
 BRR  HN ES       1212 48.40                             154    0.7110 69.4 297 
 BRR  HN I        1212 53.04     11153.4 0.20            146           69.4 297 
 PAM  SZ IP     C 1212 32.74                             152    0.6310 76.2  41 
 PAM  SN ES       1212 49.44                             152   -0.1910 76.2  41 
 PAM  SN I        1212 51.96      5149.5 0.46            148           76.2  41 
 RUS  HZ IP     D 1212 33.81                             144   -0.0510  103 176 
 RUS  HE ES   1   1212 52.32                             144   -0.42 7  103 176 
 RUS  HN I        1212 55.71      4603.3 0.68            137            103 176 
 PTB  HZ EP     C 1212 36.55                             133   -0.28 9  147 258 
 PTB  HN ES   1   1212 57.37                             133   -0.66 7  147 258 
 PTB  HN I        1213  2.59      4369.9 0.34            124            147 258 
 TAM  HZ IP     C 1212 38.35                             131    0.66 9  156 106 
 TAM  HE ES       1212 58.91                             131   -0.64 9  156 106 
 OCA  HZ EP       1212 37.96                             131   -0.01 9  158 353 
 OCA  HN ES       1212 59.52                             131   -0.54 9  158 353 
 OCA  HZ I        1213  3.99      1985.9 0.21            124            158 353 
 ZAR  HZ EP       1212 42.33                             123    0.20 9  202 292 
 ZAR  HN ES       1213  7.54                             123    0.08 9  202 292 
 ZAR  HN I        1213 15.35      3564.7 0.18            116            202 292 
 CTAU SZ EP   4   1212 44.80                             123    1.82 0  204 209 
 CTAU SZ ES   1   1213  9.37                             123    0.40 6  204 209 
 CTAB SZ EP   4   1212 47.28                             120    1.54 0  231 210 
 SML  HZ EP       1212 45.98                             118   -0.20 8  241 335 
 SML  HN ES   2   1213 14.39                             118   -0.29 4  241 335 
 SML  HN I        1213 22.30      3170.7 0.28            112            241 335 
 ROSC BZ IP     D 1212 49.61                             117    1.51 8  254 211 
 ROSC BN ES   4   1213 19.54                             117    1.45 0  254 211 
 ROSC BZ I        1213 24.62      5257.6 0.42            111            254 211 
 HEL  HZ EP       1212 50.06                             115    0.07 8  272 255 
 HEL  HN ES       1213 21.70                             115    0.24 8  272 255 
 HEL  HN I        1213 28.24      1434.6 0.40            109            272 255 
 URE  HZ EP       1212 49.81                             114   -0.88 7  282 292 
 URE  HE ES   4   1213 21.48                             114   -1.22 0  282 292 
 URE  HZ I        1213 31.62      1145.7 0.13            108            282 292 
 VIL  SZ EP     C 1212 53.19                             112   -0.24 7  305 191 
 VIL  SE ES   1   1213 26.71                             112   -0.88 5  305 191 
 VIL  SZ I        1213 37.79      3297.9 0.50            107            305 191 
 RREF HZ EP       1212 56.03                             111    0.01 7  323 229 
 RREF HN ES   1   1213 32.47                             111    0.28 5  323 229 
 RREF HZ I        1213 42.14      1590.4 0.58            105            323 229 
 DBB  SZ IP     C 1212 57.27                             110    0.13 7  339 274 
 DBB  SZ ES   1   1213 33.62                             110   -0.56 5  339 274 
 DBB  SZ I        1213 42.46      1049.5 0.46            104            339 274 
 COD  HZ EP       1212 57.19                             109   -0.68 6  346 355 
 COD  HN ES   4   1213 33.87                             109   -1.62 0  346 355 
 COD  HZ I        1213 47.00       993.7 0.81            104            346 355 
 ANIL HN EP   1   1213  0.34                             109    0.65 5  358 224 
 ANIL HE ES   1   1213 38.54                             109   -0.18 5  358 224 
 PRA  HZ EP       1213  3.15                             107   -0.31 6  394 209 
 PRA  HE ES       1213 44.93                             107   -0.50 6  394 209 
 PRA  HZ I        1213 50.66      2450.5 0.61            102            394 209 
 SJC  HN EP   4   1213  3.78                             106   -1.25 0  407 327 
 SJC  HE ES   4   1213 44.37                             106   -3.87 0  407 327 
 YOT  HZ IP     C 1213 12.00                             104   -0.88 5  473 229 
 YOT  HZ I        1214 16.42       428.8 0.92             99            473 229 
 GUA  SZ EP   4   1213 11.81                             103   -1.35 0  476 173 
 GUA  SE ES   4   1214  0.73                             103   -1.97 0  476 173 
 GUA  SZ I        1214  5.66       683.7 0.36             99            476 173 
 SMAR HZ EP   1   1213 14.63                             103   -0.68 3  495 346 
 SMAR HE ES   4   1214  2.03                             103   -4.50 0  495 346 
 SMAR HZ I        1214  7.69       364.6 0.23             98            495 346 
 BET  SZ EP   4   1213 17.29                             102   -1.52 0  523 209 
 MARA HZ EP       1213 20.40                             101   -0.51 4  539 215 
 MARA HZ I        1214 21.69       242.4 0.58             97            539 215 
 URI  HZ EP   4   1213 20.25                             101   -2.22 0  555  13 
 URI  HZ I        1214 21.71       138.3 0.69             97            555  13 
 MAL  SZ IP   4 C 1213 24.07                             101    1.22 0  558 236 
 MAL  SZ I        1213 26.54       390.4 0.66             97            558 236 
 PCON HZ EP   1   1213 30.56                             100    0.32 2  613 216 
 PCON HZ I        1215 10.57       189.5 0.33             96            613 216 
 POP2 HZ IP     C 1213 29.32                             100   -0.55 3  614 220 
 FLO2 HZ EP       1213 32.28                              99   -0.75 2  642 206 
 FLO2 HE ES   4   1214 35.34                              99   -2.73 0  642 206 
 FLO2 HZ I        1214 42.57       175.9 0.64             95            642 206 
 SOTA HZ EP     C 1213 34.47                              99    0.58 2  644 217 
                                                                                
