 2011  222 2049 51.3 L   6.804 -73.156151.5  RSN 14 0.4 4.2LRSN                1
 GAP=103        0.84       2.7     5.2  5.2 -0.2191E+01  0.5826E+01  0.3195E+01E
 Epicentro: LOS SANTOS - SANTANDER                                             3
 ACTION:UP  11-03-28 15:10 OP:jfem STATUS:               ID:20110222204951 L   I
 2011-02-22-2046-40S.COL___136                                                 6
 STAT SP IPHASW D HRMM SECON CODA AMPLIT PERI AZIMU VELO SNR AR TRES W  DIS CAZ7
 BTL  SZ IP       2050 11.89                             173     0.410   18 316 
 BAR2 SZ IP       2050 11.58                             171     0.010   24 187 
 BAR2 SZ I        2050 12.21      3334.1 0.34                            24 187 
 BAR2 SZ ES   1   2050 27.42                             171     0.0 7   24 187 
 GIR2 SZ IP       2050 11.64                             168     0.010   31 352 
 GIR2 SZ ES   1   2050 26.92                             168    -0.5 7   31 352 
 GUE  SZ EP       2050 16.26                             141    -0.210  116  13 
 GRA  SZ EP       2050 17.28                             138     0.310  126  18 
 GRA  SZ ES   1   2050 36.99                             138    -0.1 7  126  18 
 GRA  SZ I        2050 38.51      3097.2 0.43                           126  18 
 OCA  SZ EP       2050 19.94                             131     0.0 9  160 354 
 OCA  SZ ES   1   2050 42.43                             131     0.1 7  160 354 
 OCA  SZ I        2050 46.86      2994.0 0.30                           160 354 
 YOP  SZ IP       2050 22.03                             127     0.2 9  180 153 
 YOP  SN ES   1   2050 46.36                             127     0.7 7  180 153 
 CHI  HZ IP       2050 29.33                             118     0.0 8  249 195 
 CHI  HE ES   1   2050 58.26                             118    -0.7 6  249 195 
 CHI  HZ I        2051  2.28       656.8 0.56                           249 195 
 HEL  HZ EP       2050 32.07                             116     0.4 8  271 256 
 HEL  HZ I        2051  9.91       645.0 0.31                           271 256 
 VIL  SZ EP       2050 34.60                             113    -0.2 7  302 190 
 VIL  SN ES   1   2051  8.59                             113    -0.1 5  302 190 
 VIL  SZ I        2051 14.92       516.5 0.33                           302 190 
 RREF HZ EP       2050 37.45                             112    -0.1 7  321 229 
 RREF HE ES   2   2051 12.77                             112    -0.9 3  321 229 
 RREF HZ I        2051 23.29      1386.9 0.29                           321 229 
 DBB  SZ EP       2050 39.11                             111     0.3 7  338 274 
 SDV  BZ IP     D 2050 40.77                             109    -0.8 6  361  50 
 GUA  SZ EP       2050 53.90                             104    -0.7 5  475 173 
                                                                                
