 2012 12 1 0227 26.4 L   6.798 -73.159140.3  RSN 11 0.4 2.5LRSN                1
 GAP= 70        0.88       2.6     2.8  5.3 -0.3461E+00  0.3383E+01  0.3264E+01E
 Epicentro: LOS SANTOS - SANTANDER                                             3
 ACTION:UPD 13-01-04 14:24 OP:ep   STATUS:               ID:20121201022726 L   I
 2012-12-01-0225-50M.COL___190                                                 6
 STAT SP IPHASW D HRMM SECON CODA AMPLIT PERI AZIMU VELO AIN AR TRES W  DIS CAZ7
 BAR2 SZ IP        227 45.57                             170    0.1810 22.9 187 
 BAR2 SZ I         228  1.54        83.2 0.26                          22.9 187 
 GIR2 SZ EP        227 45.60                             167    0.1610 31.2 353 
 GIR2 SZ ES        227 59.97                             167   -0.3110 31.2 353 
 GIR2 SZ I         228  2.59        43.0 0.52                          31.2 353 
 PAM  SZ EP        227 48.48                             149    0.3610 78.4  40 
 PAM  SN ES        228  5.28                             149    0.2310 78.4  40 
 PAM  SN I         228  6.89        58.0 0.28                          78.4  40 
 RUS  HZ EP        227 49.58                             143   -0.0510  101 175 
 RUS  HN ES        228  7.76                             143    0.0210  101 175 
 RUS  HN I         228 10.05        20.3 0.56                           101 175 
 PTB  HZ EP        227 52.13                             131   -0.69 9  146 259 
 PTB  HN ES        228 12.99                             131   -0.41 9  146 259 
 PTB  HN I         228 18.74        64.8 0.62                           146 259 
 TAM  HZ EP        227 53.99                             129    0.19 9  156 105 
 TAM  HE ES        228 14.93                             129   -0.22 9  156 105 
 TAM  HN I         228 20.59        11.0 0.34                           156 105 
 OCA  HZ EP        227 53.60                             128   -0.72 9  160 354 
 OCA  HN ES        228 16.14                             128    0.07 9  160 354 
 OCA  HN I         228 20.44        99.5 0.20                           160 354 
 ZAR  HZ EP        227 58.88                             121    0.49 9  203 292 
 ZAR  HN ES        228 23.59                             121    0.27 9  203 292 
 ZAR  HN I         228 28.66        51.6 0.58                           203 292 
 NOR  HN ES        228 29.93                             117    0.71 8  233 234 
 NOR  HN I         228 37.77        33.0 0.16                           233 234 
 CHI  HZ EP        228  3.89                             116    0.12 8  248 195 
 CHI  HN ES        228 32.94                             116    0.05 8  248 195 
 CHI  HN I         228 35.95        34.8 0.58                           248 195 
 PRA  HZ EP        228 19.55                             106   -0.11 6  391 209 
 PRA  HN ES        229  0.71                             106   -0.47 6  391 209 
 PRA  HN I         229  5.98         9.3 0.56                           391 209 
                                                                                
