 2016  1 1 0125 35.1 L   6.731 -73.203148.3  RSN  5 0.3 1.5LRSN                1
 GAP=225        0.77       5.8     5.3  5.6  0.1925E+02  0.4445E+01 -0.2123E+01E
 Epicentro: VILLANUEVA - SANTANDER                                             3
 ACTION:UPD 16-03-09 23:21 OP:cam  STATUS:               ID:20160101012535 L   I
 OLDACT:REG 16-01-01 13:39 OP:drio STATUS:               ID:20160101011747     3
 2016-01-01-0117-47M.COL___320                                                 6
 STAT SP IPHASW D HRMM SECON CODA AMPLIT PERI AZIMU VELO AIN AR TRES W  DIS CAZ7
 BAR2 EZ EP        125 54.43                             174   -0.4310 15.5 171 
 BAR2 EZ ES        126 10.05                             174   -0.2610 15.5 171 
 BAR2 EZ I         126 11.91         5.6 0.12            170           15.5 171 
 BRR  HZ IP     C  125 56.53                             153    0.1210 70.0 307 
 BRR  HN ES        126 13.45                             153    0.3810 70.0 307 
 BRR  HZ I         126 14.17         7.1 0.14            152           70.0 307 
 RUS  HZ EP        125 58.78                             146    0.2110 93.6 172 
 RUS  HE ES        126 17.07                             146    0.1510 93.6 172 
 RUS  HZ I         126 19.68         2.6 0.36            146           93.6 172 
 PTB  HZ EP        126  1.29                             134   -0.27 9  140 261 
 PTB  HN ES        126 22.27                             134    0.04 9  140 261 
 PTB  HZ I         126 25.56         4.6 0.24            133            140 261 
 ZAR  HZ EP        126  7.81                             123    0.43 9  201 295 
 ZAR  HN ES        126 32.22                             123   -0.38 9  201 295 
 ZAR  HZ I         126 38.51         6.4 0.42            123            201 295 
                                                                                
