 2010 12 1 0821 42.9 L   6.770 -73.075148.0  RSN 10 0.4 2.5LRSN                1
 GAP=167        0.83       3.2     6.1  5.8 -0.7217E+01  0.7133E+01  0.1181E+00E
 Epicentro: LOS SANTOS - SANTANDER                                             3
 ACTION:UP  11-01-14 15:22 OP:pat  STATUS:               ID:20101201082142 L   I
 2010-12-01-0820-15S.COL___132                                                 6
 STAT SP IPHASW D HRMM SECON CODA AMPLIT PERI AZIMU VELO SNR AR TRES W  DIS CAZ7
 BAR2 SZ EP        822  2.70                             171     0.010   23 211 
 BAR2 SZ ES   1    822 17.99                             171    -0.3 7   23 211 
 BAR2 SZ I         822 18.90        57.8 0.49                            23 211 
 BRR  HZ EP        822  4.67                             150    -0.110   80 298 
 BRR  HN ES   1    822 21.98                             150     0.2 7   80 298 
 BRR  HZ I         822 24.68        60.6 0.25                            80 298 
 RUS  HZ EP        822  6.62                             145     0.010   97 181 
 RUS  HN ES   1    822 25.22                             145     0.1 7   97 181 
 RUS  HZ I         822 26.84        34.2 0.47                            97 181 
 GUE  SZ EP        822  8.16                             139     0.210  118   8 
 GRA  SZ EP        822  8.65                             137     0.310  127  14 
 GRA  SZ ES   1    822 28.42                             137     0.1 7  127  14 
 GRA  SZ I         822 31.46        39.5 0.17                           127  14 
 OCA  SZ EP        822 11.29                             129    -0.5 9  165 351 
 OCA  SZ ES   2    822 34.12                             129    -0.2 5  165 351 
 OCA  SZ I         822 36.66        46.4 0.22                           165 351 
 NOR  SZ EP        822 18.62                             118    -0.6 8  239 236 
 CHI  HZ EP        822 20.63                             118     0.1 8  248 197 
 CHI  HZ I         822 22.77        11.6 0.31                           248 197 
 CHI  HE ES   1    822 49.68                             118    -0.3 6  248 197 
 HEL  HZ EP        822 23.87                             115    -0.1 7  279 257 
 HEL  HZ I         823  2.10        13.3 0.44                           279 257 
 GUY  SZ EP   2    822 28.23                             112     1.1 4  306 236 
 GUY  SE ES   1    823  2.52                             112     0.9 5  306 236 
 GUY  SZ I         823  8.93        27.6 0.41                           306 236 
                                                                                
