 2012  1 1 0800 39.6 L   6.773 -73.180142.7  RSN  7 0.4 1.9LRSN                1
 GAP=133        0.91       5.6     5.2  8.7 -0.4084E+01  0.1917E+02 -0.4706E+01E
 Epicentro: LOS SANTOS - SANTANDER                                             3
 ACTION:UP  12-02-03 08:12 OP:REBC STATUS:               ID:20120101080039 L   I
 2012-01-01-0800-00M.COL___186                                                 6
 STAT SP IPHASW D HRMM SECON CODA AMPLIT PERI AZIMU VELO SNR AR TRES W  DIS CAZ7
 BAR2 SZ EP        8 0 58.72                             172    -0.110   20 181 
 BAR2 SZ ES   1    8 1 13.82                             172     0.1 7   20 181 
 BAR2 SZ I         8 1 16.43        26.7 0.40                            20 181 
 BRR  HZ EP   1    8 1  0.59                             153     0.3 7   69 302 
 BRR  HZ I         8 1  1.01        18.5 0.11                            69 302 
 PAM  SZ EP   1    8 1  1.49                             149    -0.3 7   82  40 
 PAM  SZ I         8 1  1.86        14.3 0.19                            82  40 
 PAM  SN ES   1    8 1 18.82                             149    -0.2 7   82  40 
 RUS  HZ EP   1    8 1  2.67                             144    -0.2 7   98 174 
 RUS  HN ES   1    8 1 21.55                             144     0.6 7   98 174 
 RUS  HZ I         8 1 24.26         6.7 0.32                            98 174 
 PTB  HZ EP   1    8 1  5.31                             132    -0.6 7  143 260 
 PTB  HN ES   1    8 1 26.12                             132    -0.3 7  143 260 
 ZAR  HZ EP   1    8 1 12.19                             122     0.6 6  202 293 
 ZAR  HN ES   1    8 1 36.94                             122     0.4 6  202 293 
 ZAR  HZ I         8 1 43.91         7.9 0.31                           202 293 
 NOR  SZ EP   1    8 1 15.13                             118     0.5 6  230 235 
 NOR  SN ES   1    8 1 41.28                             118    -0.7 6  230 235 
                                                                                
