 2016  5 1 1520 33.0 L   6.795 -73.173148.6  RSN  6 0.3 1.5LRSN                1
 GAP=142        0.79       4.5     4.6  6.1 -0.9187E+01  0.7647E+01 -0.1605E+01E
 Epicentro: LOS SANTOS - SANTANDER                                             3
 ACTION:UPD 16-08-18 17:40 OP:cam  STATUS:               ID:20160501152033 L   I
 OLDACT:UP  16-05-02 00:13 OP:ak   STATUS:               ID:20160501151750d    3
 OLDACT:DUP 16-05-02 00:09 OP:ak   STATUS:               ID:20160501151750d    3
 2016-05-01-1517-49M.COL___298                                                 6
 STAT SP IPHASW D HRMM SECON CODA AMPLIT PERI AZIMU VELO AIN AR TRES W  DIS CAZ7
 BAR2 EZ EP       1520 53.11                             171    0.1410 22.5 183 
 BAR2 EZ ES       1521  8.81                             171    0.2810 22.5 183 
 BAR2 EZ I        1521 10.84         8.1 0.44            171           22.5 183 
 PAM  EZ EP       1520 55.79                             151    0.1210 79.7  41 
 PAM  EN ES       1521 13.29                             151   -0.0510 79.7  41 
 PAM  EZ I        1521 15.04         2.3 0.22            155           79.7  41 
 RUS  HZ EP       1520 56.91                             144   -0.1210  100 174 
 RUS  HN ES       1521 15.28                             144   -0.4810  100 174 
 RUS  HZ I        1521 16.89         4.3 0.34            148            100 174 
 PTB  HZ EP       1520 59.49                             133   -0.46 9  145 259 
 PTB  HN ES       1521 20.78                             133   -0.17 9  145 259 
 PTB  HZ I        1521 26.97         3.3 0.36            133            145 259 
 SPBC HZ EP       1521  1.92                             130    0.40 9  161 218 
 SPBC HN ES       1521 24.16                             130    0.40 9  161 218 
 SPBC HZ I        1521 28.11         8.3 0.24            132            161 218 
 GUY2CHZ EP   4   1521 14.15                             113   -2.30 0  298 235 
 GUY2CHN ES   4   1521 52.69                             113    2.36 0  298 235 
 GUY2CHZ I        1522  1.02         2.2 0.66                           298 235 
                                                                                
