 2013  4 1 1436 48.1 L   6.807 -73.145144.0  RSN  9 0.5 2.0LRSN                1
 GAP=136        0.92       4.1     5.0  7.5 -0.2195E+01  0.1613E+02  0.6754E+01E
 Epicentro: LOS SANTOS - SANTANDER                                             3
 ACTION:UPD 13-05-22 14:35 OP:EP   STATUS:               ID:20130401143648 L   I
 2013-04-01-1430-00M.COL___245                                                 6
 STAT SP IPHASW D HRMM SECON CODA AMPLIT PERI AZIMU VELO AIN AR TRES W  DIS CAZ7
 BAR2 SZ EP       1437  7.52                             170    0.0310 24.1 190 
 BAR2 SZ ES   1   1437 22.87                             170    0.22 7 24.1 190 
 BAR2 SZ I        1437 23.39        19.6 0.14            168           24.1 190 
 BRR  HZ EP       1437  9.53                             152    0.5310 70.9 298 
 BRR  HN ES   1   1437 26.08                             152    0.75 7 70.9 298 
 PAM  SN ES       1437 26.94                             151   -0.2510 76.7  40 
 PAM  SZ I        1437 29.40        22.0 0.58            155           76.7  40 
 RUS  HZ EP   1   1437 11.51                             143   -0.18 7  101 176 
 RUS  HN ES   1   1437 30.02                             143   -0.10 7  101 176 
 RUS  HZ I        1437 31.48        10.2 0.42            144            101 176 
 PTB  HZ EP   1   1437 14.35                             132   -0.55 7  148 259 
 PTB  HN ES   1   1437 34.80                             132   -1.04 7  148 259 
 PTB  HZ I        1437 39.15         9.4 0.12            130            148 259 
 OCA  HN ES   1   1437 37.80                             129   -0.27 7  160 353 
 ZAR  HZ EP   1   1437 19.77                             122   -0.60 6  204 292 
 ZAR  HN ES   1   1437 46.00                             122    0.43 6  204 292 
 ZAR  HZ I        1437 53.83         7.8 0.24            121            204 292 
 NOR  HZ EP   1   1437 24.24                             118    0.50 6  235 234 
 NOR  HN ES       1437 51.47                             118   -0.10 8  235 234 
 NOR  HZ I        1437 57.26         6.4 0.18            118            235 234 
 PRA  HZ EP   1   1437 42.08                             106    0.48 4  393 210 
 PRA  HN ES   1   1438 23.72                             106    0.35 4  393 210 
 PRA  HZ I        1438 30.82         3.7 0.30            107            393 210 
                                                                                
