 2016 12 1 1743 10.6 L   7.344 -73.163126.5  RSN  4 0.2 1.3LRSN                1
 GAP=175        0.55       4.2     2.8  5.6 -0.2182E+01  0.9338E+01 -0.6498E+01E
 Epicentro: RIONEGRO - SANTANDER                                               3
 ACTION:UPD 17-01-11 20:11 OP:rebc STATUS:               ID:20161201174310 L   I
 OLDACT:REG 16-12-01 21:10 OP:lv   STATUS:               ID:20161201173745     3
 2016-12-01-1738-00M.COL___336                                                 6
 STAT SP IPHASW D HRMM SECON CODA AMPLIT PERI AZIMU VELO AIN AR TRES W  DIS CAZ7
 PAM  EZ EP       1743 29.14                             157   -0.1210 51.2  91 
 PAM  EN ES       1743 43.81                             157   -0.0310 51.2  91 
 PAM  EZ I        1743 46.40         3.7 0.22            160           51.2  91 
 BAR2 EZ EP       1743 30.66                             145   -0.1610 83.2 181 
 BAR2 EZ ES       1743 46.87                             145    0.2710 83.2 181 
 BAR2 EZ I        1743 49.81        11.2 0.46            146           83.2 181 
 PTB  HZ EP       1743 38.08                             123   -0.02 9  168 238 
 PTB  HN ES       1743 59.31                             123   -0.25 9  168 238 
 PTB  HZ I        1744  3.08         1.7 0.18            126            168 238 
 ZAR  HZ EP       1743 40.50                             120    0.39 9  188 275 
 ZAR  HE ES       1744  3.10                             120   -0.05 9  188 275 
                                                                                
