 2012  8 1 1453  3.4 L   6.765 -73.135149.3  RSN  5 0.3 1.6LRSN                1
 GAP=139        0.75       5.1     5.4  7.9 -0.1773E+01  0.5822E+01  0.5335E+01E
 Epicentro: LOS SANTOS - SANTANDER                                             3
 ACTION:UPD 12-09-10 11:53 OP:ep   STATUS:               ID:20120801145303 L   I
 2012-08-01-1450-00M.COL___215                                                 6
 STAT SP IPHASW D HRMM SECON CODA AMPLIT PERI AZIMU VELO AIN AR TRES W  DIS CAZ7
 BAR2 SZ EP       1453 23.34                             172   -0.0610 19.8 195 
 BAR2 SZ I        1453 41.37        10.5 0.30                          19.8 195 
 BRR  HZ EP       1453 25.45                             152    0.3510 74.1 301 
 BRR  HZ I        1453 26.60        13.0 0.50                          74.1 301 
 BRR  HE ES   1   1453 42.49                             152    0.47 7 74.1 301 
 PAM  SZ EP       1453 26.24                             151    0.1110 79.7  37 
 PAM  SN ES   1   1453 43.31                             151   -0.55 7 79.7  37 
 PAM  SZ I        1453 45.56         4.6 0.44                          79.7  37 
 RUS  HZ EP       1453 27.29                             146    0.0610 96.6 177 
 RUS  HN ES   1   1453 45.90                             146    0.09 7 96.6 177 
 RUS  HZ I        1453 47.41         4.8 0.40                          96.6 177 
 PTB  HZ EP       1453 30.37                             133   -0.33 9  148 260 
 PTB  HN ES   2   1453 51.20                             133   -0.80 5  148 260 
 PTB  HZ I        1453 59.00         6.4 0.38                           148 260 
                                                                                
