 2011 11 1 1346 32.3 L   6.793 -73.136144.5  RSN  5 0.2 1.6LRSN                1
 GAP=138        0.55       3.7     4.4  5.0  0.7594E+01 -0.1488E+01 -0.3414E+01E
 Epicentro: LOS SANTOS - SANTANDER                                             3
 ACTION:UPD 12-07-13 16:07 OP:ep   STATUS:               ID:20111101134632 L   I
 2011-11-01-1344-34S.COL___175                                                 6
 STAT SP IPHASW D HRMM SECON CODA AMPLIT PERI AZIMU VELO AIN AR TRES W  DIS CAZ7
 BAR2 SZ EP       1346 51.71                             171   -0.0310 22.8 193 
 BAR2 SZ ES       1347  6.62                             171   -0.3010 22.8 193 
 BAR2 SZ I        1347  8.55        12.8 0.31                          22.8 193 
 BRR  HZ EP       1346 53.47                             152    0.1110 72.5 299 
 BRR  HZ I        1346 53.96        10.1 0.11                          72.5 299 
 BRR  HN ES       1347 10.13                             152    0.3210 72.5 299 
 PAM  SZ EP   1   1346 54.40                             151    0.05 7 77.3  39 
 PAM  SE ES   2   1347 11.41                             151   -0.16 5 77.3  39 
 PAM  SZ I        1347 13.99         2.4 0.43                          77.3  39 
 RUS  HZ EP   1   1346 55.77                             144   -0.06 7 99.7 177 
 RUS  HE ES       1347 14.35                             144    0.1310 99.7 177 
 RUS  HZ I        1347 15.45         5.6 0.19                          99.7 177 
 ZAR  HN ES   1   1347 29.65                             122   -0.46 6  205 292 
 ZAR  HZ I        1347 35.31         3.9 0.36                           205 292 
                                                                                
