 2014 10 1 1002 21.7 L   6.793 -73.119159.4  RSN  5 0.5 1.5LRSN                1
 GAP=223        1.14       7.9     8.3 10.2  0.1534E+02  0.1041E+02 -0.1591E+02E
 Epicentro: LOS SANTOS - SANTANDER                                             3
 ACTION:UPD 14-11-29 23:45 OP:nd   STATUS:               ID:20141001100221 L   I
 OLDACT:DUP 14-10-01 22:56 OP:cam  STATUS:               ID:20141001100001d    3
 OLDACT:UP  14-10-01 22:56 OP:cam  STATUS:               ID:20141001100000     3
 OLDACT:REG 14-10-01 22:10 OP:cam  STATUS:               ID:20141001100000     3
 2014-10-01-1000-00M.COL___252                                                 6
 STAT SP IPHASW D HRMM SECON CODA AMPLIT PERI AZIMU VELO AIN AR TRES W  DIS CAZ7
 BAR2 SZ EP       10 2 43.41                             171    0.4210 23.3 198 
 BAR2 SZ ES       10 2 59.18                             171   -0.4010 23.3 198 
 BAR2 SZ I        10 3  0.03         3.7 0.20            168           23.3 198 
 BRR  HZ EP       10 2 43.96                             154   -0.5510 74.2 298 
 BRR  HN ES       10 3  2.98                             154    0.6910 74.2 298 
 BRR  HN I        10 3  6.75         9.2 0.20            150           74.2 298 
 PTB  HZ EP       10 2 50.45                             134    0.38 9  151 259 
 PTB  HN ES       10 3 11.72                             134   -0.46 9  151 259 
 PTB  HZ I        10 3 17.15         2.0 0.32            133            151 259 
 ZAR  HE ES       10 3 21.77                             125    0.12 8  207 292 
 ZAR  HE I        10 3 27.15         5.9 0.26            124            207 292 
 SML  HE ES       10 3 28.41                             120   -0.28 8  246 335 
                                                                                
