 2015 10 1 1055 38.5 L   6.821 -73.203148.0  RSN  5 0.2 1.4LRSN                1
 GAP=131        0.44       2.3     4.0  5.3 -0.2078E+01  0.9108E+01 -0.4684E+01E
 Epicentro: ZAPATOCA - SANTANDER                                               3
 ACTION:UPD 15-12-22 20:36 OP:cam  STATUS:               ID:20151001105539dL   I
 OLDACT:REG 15-10-01 20:44 OP:ar   STATUS:               ID:20151001104749     3
 2015-10-01-1047-49M.COL___361                                                 6
 STAT SP IPHASW D HRMM SECON CODA AMPLIT PERI AZIMU VELO AIN AR TRES W  DIS CAZ7
 BAR2 EZ EP       1055 58.30                             170   -0.1310 25.4 175 
 BAR2 EZ ES       1056 14.16                             170    0.1810 25.4 175 
 BAR2 EZ I        1056 15.30         2.4 0.40            170           25.4 175 
 PAM  EZ EP   2   1056  1.31                             151    0.22 5 79.9  44 
 PAM  EN ES   2   1056 18.22                             151   -0.50 5 79.9  44 
 PAM  EZ I        1056 20.42         3.2 0.40            155           79.9  44 
 SPBC HZ EP   2   1056  7.10                             130    0.14 5  161 217 
 SPBC HE ES       1056 29.15                             130   -0.02 9  161 217 
 SPBC HZ I        1056 33.25         4.2 0.10            131            161 217 
 ZAR  HN ES   2   1056 34.83                             124   -0.44 4  197 292 
 ZAR  HZ I        1056 42.20         3.1 0.26            124            197 292 
 SML  HZ EP   2   1056 14.65                             119   -0.08 4  239 336 
 SML  HN ES       1056 43.16                             119    0.16 8  239 336 
 SML  HZ I        1056 46.19         2.3 0.10            120            239 336 
                                                                                
