 2011 10 1 2052 28.1 L   6.779 -73.126143.9  RSN 11 0.3 2.2LRSN                1
 GAP=140        0.66       3.1     3.9  4.8 -0.2696E+01  0.7276E+01 -0.6491E+00E
 Epicentro: LOS SANTOS - SANTANDER                                             3
 ACTION:UPD 12-07-13 16:01 OP:ep   STATUS:               ID:20111001205228 L   I
 2011-10-01-2050-20S.COL___168                                                 6
 STAT SP IPHASW D HRMM SECON CODA AMPLIT PERI AZIMU VELO AIN AR TRES W  DIS CAZ7
 BAR2 SZ IP       2052 47.45                             171   -0.0310 21.6 197 
 BAR2 SZ I        2052 47.75        39.5 0.34                          21.6 197 
 BAR2 SZ ES   1   2053  2.15                             171   -0.43 7 21.6 197 
 BTL  SZ EP       2052 47.84                             171    0.3510 21.9 315 
 BRR  HZ IP     D 2052 49.25                             151    0.0210 74.1 299 
 BRR  HZ I        2052 49.26        44.2 0.18                          74.1 299 
 BRR  HN ES   1   2053  6.07                             151    0.38 7 74.1 299 
 PAM  SZ EP       2052 50.29                             150    0.1410 77.8  37 
 PAM  SZ I        2052 50.50        18.9 0.16                          77.8  37 
 PAM  SN ES   1   2053  7.23                             150   -0.11 7 77.8  37 
 RUS  HZ EP       2052 51.45                             144   -0.0510 98.2 177 
 RUS  HN ES   1   2053  9.72                             144   -0.03 7 98.2 177 
 RUS  HZ I        2053 11.50        13.1 0.28                          98.2 177 
 OCA  SZ EP       2052 56.16                             129   -0.35 9  163 352 
 OCA  SZ I        2053 22.45        14.7 0.50                           163 352 
 ZAR  HZ EP       2053  1.21                             122    0.48 8  207 293 
 ZAR  HE ES   2   2053 25.51                             122   -0.65 4  207 293 
 ZAR  HZ I        2053 31.20        20.8 0.32                           207 293 
 NOR  SZ EP       2053  3.09                             118   -0.69 8  235 235 
 NOR  SE ES   1   2053 31.97                             118    0.38 6  235 235 
 CHI  HZ EP   3   2053  5.31                             117   -0.22 2  247 196 
 CHI  HN ES   2   2053 35.22                             117    0.51 4  247 196 
 HEL  HZ EP   1   2053  8.52                             114    0.12 6  274 256 
 HEL  HN ES   3   2053 39.50                             114   -0.32 2  274 256 
 HEL  HZ I        2053 45.78         8.5 0.42                           274 256 
 RREF HZ EP   1   2053 14.15                             110   -0.04 5  322 230 
 RREF HN ES   2   2053 49.78                             110   -0.35 3  322 230 
 RREF HZ I        2053 59.37         5.1 0.26                           322 230 
                                                                                
