 2011 12 2 0414 56.7 L   6.774 -73.134138.0  RSN  4 0.3 1.3LRSN                1
 GAP=139        0.48       3.8     5.0  5.3  0.2785E+01  0.2958E+01  0.5906E+01E
 Epicentro: LOS SANTOS - SANTANDER                                             3
 ACTION:UPD 12-07-13 16:13 OP:ep   STATUS:               ID:20111202041456 L   I
 2011-12-02-0410-00M.COL___170                                                 6
 STAT SP IPHASW D HRMM SECON CODA AMPLIT PERI AZIMU VELO AIN AR TRES W  DIS CAZ7
 BAR2 SZ EP   1    415 15.28                             171   -0.07 7 20.8 195 
 BAR2 SZ ES   1    415 30.04                             171    0.15 7 20.8 195 
 BAR2 SZ I         415 31.72         5.5 0.25                          20.8 195 
 BRR  HZ EP        415 17.02                             150   -0.1510 73.8 300 
 BRR  HE ES   1    415 33.19                             150    0.06 7 73.8 300 
 BRR  HZ I         415 35.14         7.1 0.28                          73.8 300 
 PAM  SZ EP   3    415 17.36                             149   -0.82 2 78.8  37 
 PAM  SE ES   1    415 34.96                             149    0.02 7 78.8  37 
 RUS  HZ EP        415 19.71                             143    0.2310 97.7 177 
 RUS  HZ I         415 20.56         1.5 0.20                          97.7 177 
 RUS  HN ES   2    415 36.74                             143   -0.50 5 97.7 177 
                                                                                
