 2016  7 2 0046 41.1 L   6.531 -73.531112.2  RSN 16 0.4 1.7LRSN                1
 GAP= 65        0.89       2.1     2.3  4.5 -0.4446E-01  0.4184E+01  0.1683E+01E
 Epicentro: EL CARMEN - SANTANDER                                              3
 ACTION:UPD 17-03-29 16:45 OP:lp   STATUS:               ID:20160702004641 L   I
 OLDACT:UP  16-07-02 14:19 OP:edw  STATUS:               ID:20160702003742     3
 OLDACT:UP  16-07-02 14:01 OP:edw  STATUS:               ID:20160702003742     3
 OLDACT:REG 16-07-02 12:27 OP:edw  STATUS:               ID:20160702003742     3
 2016-07-02-0037-42M.COL___331                                                 6
 STAT SP IPHASW D HRMM SECON CODA AMPLIT PERI AZIMU VELO AIN AR TRES W  DIS CAZ7
 BAR2 EZ IP     D  046 57.50                             159    0.2210 39.2  80 
 BAR2 EZ ES        047  9.92                             159    0.0310 39.2  80 
 BRR  HZ EP        046 58.42                             147   -0.0310 66.7 343 
 BRR  HN ES        047 12.41                             147    0.4310 66.7 343 
 RUS  HZ EP        047  0.98                             140    0.4010 86.3 145 
 RUS  HN ES        047 15.56                             140   -0.1910 86.3 145 
 RUS  HZ I         047 16.42        10.1 0.26            140           86.3 145 
 PTB  HZ EP   4    047  0.32                             134   -0.92 0  102 271 
 PTB  HN ES   4    047 15.25                             134   -1.69 0  102 271 
 PTB  HZ I         047 17.24         8.1 0.11            133            102 271 
 SPBC HN ES        047 18.84                             131   -0.1810  114 212 
 PAM  EZ EP        047  4.52                             128    0.2510  128  46 
 PAM  EN ES        047 22.14                             128   -0.1810  128  46 
 PAM  EZ I         047 23.65         8.4 0.24            127            128  46 
 ZAR  HZ EP        047  9.11                             117    0.02 9  181 306 
 ZAR  HE ES        047 31.04                             117    0.13 9  181 306 
 ZAR  HZ I         047 33.86         9.6 0.32            116            181 306 
 NOR  HZ EP        047  9.09                             117   -0.24 9  183 234 
 NOR  HN ES        047 30.59                             117   -0.75 9  183 234 
 NOR  HZ I         047 32.57         5.3 0.16            116            183 234 
 HEL  HZ EP        047 14.75                             112    0.40 8  224 260 
 HEL  HN ES        047 40.19                             112   -0.08 8  224 260 
 GUY2CHZ EP        047 17.49                             109    0.14 8  249 235 
 GUY2CHN ES        047 45.31                             109   -0.30 8  249 235 
 GUY2CHZ I         047 49.97         3.7 0.36                           249 235 
 URE  HZ EP   4    047 17.42                             108   -0.48 0  259 302 
 URE  HE ES        047 46.62                             108    0.04 8  259 302 
 URE  HZ I         047 54.15         5.4 0.16            107            259 302 
 CBOC HE ES        047 52.12                             106   -0.07 7  284 255 
 PTGC HZ EP        047 22.01                             105   -0.77 7  301 149 
 PTGC HN ES        047 54.98                             105   -0.30 7  301 149 
 PRA  HZ EP        047 28.67                             102    0.50 6  346 206 
 PRA  HE ES        048  5.22                             102    0.35 6  346 206 
 PRA  HZ I         048  9.78         1.9 0.42            102            346 206 
 ORTC HZ EP        047 29.33                             102    1.06 6  347 213 
 ORTC HE ES        048  5.13                             102    0.09 6  347 213 
 ORTC HZ I         048  9.58         1.5 0.28            102            347 213 
 SJC  HZ EP        047 36.06                              99   -0.31 6  414 334 
 SJC  HN ES        048 18.15                              99   -1.32 6  414 334 
                                                                                
