 2016  8 2 0738 44.4 L   6.724 -73.031144.7  RSN  4 0.2 1.3LRSN                1
 GAP=244        0.59       3.6     5.1  5.4  0.9894E+01  0.1622E+00 -0.2664E+01E
 Epicentro: ARATOCA - SANTANDER                                                3
 ACTION:UPD 16-10-29 15:31 OP:rebc STATUS:               ID:20160802072744dL   I
 OLDACT:UP  16-08-02 18:07 OP:edw  STATUS:               ID:20160802072744dL   3
 OLDACT:UP  16-08-02 18:06 OP:edw  STATUS:               ID:20160802072744dL   3
 OLDACT:DUP 16-08-02 18:02 OP:edw  STATUS:               ID:20160802072744dL   3
 OLDACT:UP  16-08-02 17:52 OP:edw  STATUS:               ID:20160802072741 L   3
 OLDACT:UP  16-08-02 17:50 OP:edw  STATUS:               ID:20160802072741 L   3
 OLDACT:UPD 16-08-02 15:21 OP:CARA STATUS:               ID:20160802072741 L   3
 2016-08-02-0728-00M.COL___341                                                 6
 STAT SP IPHASW D HRMM SECON CODA AMPLIT PERI AZIMU VELO AIN AR TRES W  DIS CAZ7
 BRR  HZ EP        739  6.58                             147    0.2110 86.4 299 
 BRR  HN ES        739 23.69                             147    0.1910 86.4 299 
 RUS  HZ EP        739  7.26                             146   -0.2010 92.1 184 
 RUS  HE ES        739 25.27                             146   -0.1710 92.1 184 
 RUS  HZ I         739 27.87         2.7 0.36                          92.1 184 
 SPBC HZ EP        739 13.23                             128    0.19 9  165 224 
 SPBC HN ES        739 35.51                             128    0.15 9  165 224 
 SPBC HZ I         739 39.71         3.2 0.14                           165 224 
 ZAR  HZ EP        739 18.38                             120    0.03 8  219 293 
 ZAR  HE ES        739 44.36                             120   -0.46 8  219 293 
 ZAR  HZ I         739 50.92         1.8 0.30                           219 293 
                                                                                
