 2016  2 2 0944 11.5 L   6.803 -73.163137.7  RSN 11 0.4 1.7LRSN                1
 GAP=192        0.75       2.6     4.8  6.7 -0.3951E+01 -0.3638E+01  0.2301E+01E
 Epicentro: LOS SANTOS - SANTANDER                                             3
 ACTION:UPD 16-03-04 21:22 OP:rebc STATUS:               ID:20160202094411 L   I
 OLDACT:DUP 16-02-02 20:18 OP:dnl  STATUS:               ID:20160202092702d    3
 2016-02-02-0934-00M.COL___406                                                 6
 STAT SP IPHASW D HRMM SECON CODA AMPLIT PERI AZIMU VELO AIN AR TRES W  DIS CAZ7
 BAR2 EZ EP   2    944 30.23                             170    0.09 5 23.4 185 
 BAR2 EZ ES   2    944 44.11                             170   -0.59 5 23.4 185 
 BAR2 EZ I         944 46.98         6.8 0.21            169           23.4 185 
 PTB  HZ EP        944 37.16                             130   -0.4810  146 259 
 PTB  HE ES        944 58.38                             130    0.3410  146 259 
 PTB  HZ I         945  1.31         4.4 0.16            130            146 259 
 OCA  HZ EP        944 39.58                             128    0.4610  160 354 
 OCA  HN ES        945  0.80                             128    0.1210  160 354 
 OCA  HZ I         945  6.31        11.6 0.20            130            160 354 
 SPBC HZ EP   2    944 39.38                             127    0.09 5  162 218 
 SPBC HN ES        945  1.05                             127    0.0810  162 218 
 SPBC HZ I         945  8.31         9.5 0.20            129            162 218 
 ZAR  HZ EP   2    944 42.93                             121   -0.29 5  202 292 
 ZAR  HN ES        945  8.12                             121    0.15 9  202 292 
 ZAR  HZ I         945 15.09         5.2 0.08            122            202 292 
 NOR  HZ EP   2    944 46.13                             117   -0.48 4  233 234 
 NOR  HE ES   2    945 13.19                             117   -0.82 4  233 234 
 NOR  HZ I         945 20.08         3.5 0.22            118            233 234 
 SML  HZ EP   2    944 47.06                             116   -0.49 4  243 336 
 SML  HN ES        945 15.13                             116   -0.55 9  243 336 
 SML  HZ I         945 22.52         7.9 0.07            118            243 336 
 CHI  HE EP   2    944 48.32                             115   -0.41 4  248 195 
 CHI  HN ES   2    945 18.12                             115    0.34 4  248 195 
 CHI  HE I         945 21.47         3.8 0.38            118            248 195 
 HEL  HZ EP   2    944 51.20                             113    0.10 4  270 256 
 HEL  HE ES   2    945 21.86                             113   -0.14 4  270 256 
 HEL  HZ I         945 28.98         2.1 0.36            114            270 256 
 GUY2CHZ EP        944 55.52                             111    0.94 8  300 235 
 GUY2CHN ES   2    945 27.66                             111   -0.53 4  300 235 
 GUY2CHZ I         945 35.13         1.8 0.28                           300 235 
 PRA  HZ EP        945  4.40                             105   -0.26 6  391 209 
 PRA  HN ES   2    945 45.50                             105   -0.64 3  391 209 
 PRA  HZ I         945 50.85         1.9 0.29            107            391 209 
                                                                                
