 2011  8 2 0300 33.9 L   6.743 -73.163129.0  RSN 11 0.3 1.7LRSN                1
 GAP=137        0.40       2.0     3.1  3.3 -0.2076E+01  0.3709E+01  0.9450E+00E
 Epicentro: VILLANUEVA - SANTANDER                                             3
 ACTION:UPD 12-07-25 14:05 OP:epov STATUS:               ID:20110802030033 L   I
 2011-08-02-0300-00M.COL___140                                                 6
 STAT SP IPHASW D HRMM SECON CODA AMPLIT PERI AZIMU VELO AIN AR TRES W  DIS CAZ7
 BAR2 SZ ES   1    3 1  4.75                             172   -0.27 7 16.8 187 
 BRR  HZ EP   1    3 0 53.29                             149   -0.07 7 72.8 304 
 BRR  HE ES   2    3 1  8.24                             149   -0.30 5 72.8 304 
 BRR  HZ I         3 1 12.47        12.3 0.16                          72.8 304 
 PAM  SN ES   2    3 1 11.26                             145    0.22 5 83.5  38 
 RUS  HZ EP   1    3 0 55.79                             142    0.23 7 94.4 175 
 RUS  HZ I         3 0 56.76         4.0 0.10                          94.4 175 
 RUS  HN ES   2    3 1 12.73                             142    0.27 5 94.4 175 
 BRI  SZ EP   1    3 0 56.57                             136   -0.21 7  115  21 
 BRI  SZ ES   2    3 1 15.25                             136    0.62 5  115  21 
 OCA  SZ EP   2    3 1  1.46                             124   -0.10 5  166 354 
 OCA  SZ ES   2    3 1 23.15                             124    0.01 5  166 354 
 OCA  SZ I         3 1 26.73        11.0 0.67                           166 354 
 NOR  SZ EP   2    3 1  7.97                             115   -0.16 4  230 235 
 NOR  SN ES   2    3 1 35.01                             115    0.17 4  230 235 
 CHI  HZ EP   1    3 1  9.62                             114   -0.36 6  242 195 
 CHI  HE ES   2    3 1 37.99                             114   -0.14 4  242 195 
 CHI  HZ I         3 1 47.07         3.5 0.40                           242 195 
 HEL  HZ EP   1    3 1 12.94                             111    0.01 6  269 257 
 HEL  HN ES   2    3 1 43.82                             111    0.44 4  269 257 
 RREF HZ EP   1    3 1 18.77                             108    0.05 5  316 230 
 RREF HN ES   2    3 1 54.04                             108    0.35 3  316 230 
 RREF HZ I         3 2  4.29         3.6 0.44                           316 230 
 PRA  HZ EP   1    3 1 26.17                             104    0.05 4  386 210 
 PRA  HN ES   2    3 2  7.00                             104    0.14 3  386 210 
                                                                                
