 2017  3 2 0022 18.6 L   5.960 -73.757113.1  RSN 20 0.5 2.2LRSN                1
 GAP= 42        1.07       2.5     2.4  6.5 -0.8999E+00  0.1455E+01  0.5620E+01E
 Epicentro: BOLIVAR - SANTANDER                                                3
 ACTION:UPD 17-05-25 18:34 OP:jn   STATUS:               ID:20170302002218 L   I
 OLDACT:UP  17-03-02 13:18 OP:and  STATUS:               ID:20170302001742     3
 OLDACT:UP  17-03-02 13:18 OP:and  STATUS:               ID:20170302001742     3
 OLDACT:UP  17-03-02 13:16 OP:and  STATUS:               ID:20170302001742     3
 OLDACT:UP  17-03-02 13:15 OP:and  STATUS:               ID:20170302001742     3
 OLDACT:UP  17-03-02 13:15 OP:and  STATUS:               ID:20170302001742     3
 OLDACT:UP  17-03-02 13:14 OP:and  STATUS:               ID:20170302001742     3
 OLDACT:UP  17-03-02 13:12 OP:and  STATUS:               ID:20170302001742     3
 OLDACT:UP  17-03-02 13:12 OP:and  STATUS:               ID:20170302001742     3
 OLDACT:REG 17-03-02 12:26 OP:and  STATUS:               ID:20170302001742     3
 2017-03-02-0018-00M.COL___390                                                 6
 STAT SP IPHASW D HRMM SECON CODA AMPLIT PERI AZIMU VELO AIN AR TRES W  DIS CAZ7
 RUS  HZ IP     D  022 37.34                             144    0.0210 74.9  96 
 RUS  HN ES        022 51.47                             144   -0.4310 74.9  96 
 RUS  HZ I         022 53.31        26.9 0.22            145           74.9  96 
 BAR2 EZ IP   2 D  022 38.85                             137    0.38 5 94.5  42 
 BAR2 EZ ES        022 54.29                             137    0.3410 94.5  42 
 BAR2 EZ I         022 56.11        91.6 0.50            139           94.5  42 
 PTB  HZ IP     D  022 37.31                             135   -1.3610  101 310 
 PTB  HN ES        022 54.15                             135   -0.1610  101 310 
 PTB  HZ I         022 55.62        28.4 0.16            137            101 310 
 BRR  HZ EP     D  022 41.04                             128   -0.0310  127   2 
 BRR  HN ES        022 58.76                             128    0.1910  127   2 
 BRR  HZ I         023  2.36        42.8 0.12            130            127   2 
 NOR  HZ EP        022 41.13                             127   -0.3810  131 250 
 NOR  HN ES        022 59.41                             127    0.0610  131 250 
 NOR  HZ I         023  0.91        52.3 0.16            128            131 250 
 ROSC BZ EP   2    022 43.41                             126    0.68 5  139 207 
 ROSC BN ES   2    023  2.49                             126    0.95 5  139 207 
 ROSC BZ I         023  6.51        15.5 0.40            126            139 207 
 CHI  HZ IP     C  022 43.13                             124   -0.48 9  147 179 
 CHI  HN ES   3    023  2.41                             124   -0.68 2  147 179 
 CHI  HZ I         023  4.65        11.4 0.20            124            147 179 
 PAM  EZ EP        022 48.77                             116    0.29 9  192  37 
 PAM  EN ES        023 12.43                             116    0.66 9  192  37 
 PAM  EZ I         023 16.43         7.7 0.14            118            192  37 
 HEL  HZ EP        022 49.38                             115    0.43 9  198 278 
 HEL  HN ES        023 13.18                             115    0.58 9  198 278 
 HEL  HZ I         023 16.12        16.5 0.42            116            198 278 
 ZAR  HZ EP        022 48.97                             114   -0.72 8  209 324 
 ZAR  HE ES        023 14.15                             114    0.22 8  209 324 
 ZAR  HZ I         023 16.12        20.8 0.30            115            209 324 
 ELA  HN ES   3    023 15.75                             113   -1.41 2  219 236 
 ELA  HZ I         023 25.27         6.7 0.36            113            219 236 
 TAM  HZ EP   2    022 51.95                             112    0.51 4  224  76 
 TAM  HN ES        023 17.17                             112    0.14 8  224  76 
 TAM  HZ I         023 23.43         9.5 0.44            113            224  76 
 ANIL HN ES        023 21.95                             110    0.19 8  244 228 
 ANIL HZ I         023 25.11        28.0 0.32            110            244 228 
 CBOC HZ EP   2    022 54.63                             109    0.04 4  250 268 
 CBOC HN ES   4    023 19.69                             109   -2.96 0  250 268 
 CBOC HZ I         023 26.98        28.9 0.05            110            250 268 
 PTGC HZ IP     C  022 55.59                             108   -0.54 8  265 137 
 PTGC HN ES        023 25.37                             108   -0.02 8  265 137 
 PRA  HZ EP        022 57.85                             107    0.15 7  278 207 
 PRA  HN ES        023 29.00                             107    0.82 7  278 207 
 PRA  HZ I         023 33.56        12.4 0.26            107            278 207 
 URE  HZ EP   4    022 56.31                             107   -1.44 0  279 315 
 URE  HN ES   4    023 25.36                             107   -2.92 0  279 315 
 URE  HZ I         023 26.37        11.5 0.18            108            279 315 
 ORTC HZ EP        022 58.17                             107    0.20 7  281 216 
 ORTC HN ES        023 28.73                             107    0.06 7  281 216 
 ORTC HZ I         023 32.94         7.9 0.28            107            281 216 
 MACC HZ EP   4    023 13.02                              99   -1.76 0  422 181 
 MACC HN ES   4    023 55.19                              99   -3.39 0  422 181 
 MACC HZ I         024 11.00         2.8 0.36            100            422 181 
 SJC  HZ EP   9    023 16.02                              98   -3.75 0  463 340 
 SJC  HN ES   2    024  3.97                              98    0.26 2  463 340 
                                                                                
