 2017  5 2 1323 28.5 L   6.783 -73.130151.8  RSN  8 0.4 1.9LRSN                1
 GAP=114        1.08       4.0     4.1  7.5  0.1353E+01  0.7876E+01  0.3598E+01E
 Epicentro: LOS SANTOS - SANTANDER                                             3
 ACTION:UPD 17-06-16 13:32 OP:jn   STATUS:               ID:20170502132328 L   I
 OLDACT:UP  17-05-02 21:44 OP:ar   STATUS:               ID:20170502131739     3
 OLDACT:REG 17-05-02 20:37 OP:ar   STATUS:               ID:20170502131739     3
 2017-05-02-1318-00M.COL___371                                                 6
 STAT SP IPHASW D HRMM SECON CODA AMPLIT PERI AZIMU VELO AIN AR TRES W  DIS CAZ7
 BRR  HZ EP       1323 50.69                             153    0.2710 73.6 299 
 BRR  HN ES       1324  8.34                             153    0.8110 73.6 299 
 PAM  EZ EP       1323 51.50                             152    0.1310 77.7  38 
 PAM  EN ES       1324  8.92                             152   -0.2910 77.7  38 
 PAM  EZ I        1324 10.67         7.8 0.64            155           77.7  38 
 RUS  HZ EP       1323 52.62                             146   -0.0810 98.6 177 
 RUS  HN ES       1324 11.51                             146   -0.0710 98.6 177 
 RUS  HZ I        1324 12.70         7.5 0.22            148           98.6 177 
 PTB  HZ EP       1323 55.52                             133   -0.55 9  149 260 
 PTB  HN ES       1324 16.76                             133   -0.83 9  149 260 
 PTB  HZ I        1324 23.72        12.3 0.36            133            149 260 
 SPBC HZ EP       1323 57.61                             130    0.19 9  163 220 
 SPBC HN ES       1324 19.71                             130   -0.28 9  163 220 
 SPBC HZ I        1324 23.55        16.0 0.22            132            163 220 
 YPLC HN ES       1324 21.88                             128   -0.01 9  174 152 
 YPLC HZ I        1324 24.03         7.9 0.36            132            174 152 
 ZAR  HZ EP       1324  1.31                             123   -0.26 8  206 292 
 ZAR  HE ES       1324 27.23                             123   -0.14 8  206 292 
 ZAR  HZ I        1324 37.03         6.1 0.56            124            206 292 
 NOR  HZ EP       1324  5.15                             120    0.54 8  235 235 
 NOR  HN ES       1324 33.47                             120    0.68 8  235 235 
 NOR  HZ I        1324 34.07         6.6 0.20            121            235 235 
                                                                                
