 2011  9 2 1151 51.1 L   6.488 -74.193  9.2  RSN  7 0.3 2.0LRSN                1
 GAP=129        0.62       2.5     1.8  6.8 -0.1833E+01  0.1739E+01 -0.6779E+01E
 Epicentro: PUERTO PARRA - SANTANDER                                           3
 ACTION:UPD 12-07-13 15:55 OP:ep   STATUS:               ID:20110902115151 L   I
 2011-09-02-1148-27S.COL___171                                                 6
 STAT SP IPHASW D HRMM SECON CODA AMPLIT PERI AZIMU VELO AIN AR TRES W  DIS CAZ7
 BRR  HZ EP   1   1152  4.80                              94   -0.09 7 86.6  38 
 BRR  HE ES   1   1152 15.33                              94   -0.28 7 86.6  38 
 BRR  HZ I        1152 15.59        47.2 0.11                          86.6  38 
 BAR2 SZ EP   1   1152  9.06                              93    0.04 7  112  84 
 BAR2 SZ ES   1   1152 23.35                              93    0.39 7  112  84 
 BAR2 SZ I        1152 27.18        22.9 0.15                           112  84 
 NOR  SE ES   1   1152 26.54                              92    0.03 7  127 216 
 GIR2 SZ EP   1   1152 11.51                              92    0.17 7  128  59 
 RUS  HZ EP   1   1152 13.82                              92    0.45 7  139 118 
 RUS  HN ES   1   1152 30.04                              92   -0.67 7  139 118 
 RUS  HZ I        1152 30.96        26.2 0.65                           139 118 
 HEL  HZ EP   1   1152 15.29                              92    0.21 7  151 258 
 HEL  HN ES   1   1152 33.51                              92   -0.23 7  151 258 
 HEL  HZ I        1152 35.30        11.2 0.20                           151 258 
 OCA  SZ ES   1   1152 48.12                              56   -0.03 6  216  26 
 OCA  SZ I        1152 53.36        16.9 0.30                           216  26 
                                                                                
