 2014  4 2 1907  8.9 L   5.977 -73.630121.1  RSN 10 0.5 2.0LRSN                1
 GAP= 86        1.25       3.7     3.8  7.5 -0.2719E+01  0.6290E+01 -0.3228E+01E
 Epicentro: BARBOSA - SANTANDER                                                3
 ACTION:UPD 14-05-13 23:05 OP:nd   STATUS:               ID:20140402190708 L   I
 OLDACT:REG 14-04-02 21:22 OP:carl STATUS:               ID:20140402185811     3
 2014-04-02-1858-11M.COL___249                                                 6
 STAT SP IPHASW D HRMM SECON CODA AMPLIT PERI AZIMU VELO AIN AR TRES W  DIS CAZ7
 SPBC HZ EP       19 7 26.94                             152   -0.0210 60.7 234 
 SPBC HN ES       19 7 41.71                             152    0.6910 60.7 234 
 SPBC HZ I        19 7 43.16        23.2 0.22            153           60.7 234 
 RUS  HZ EP       19 7 27.85                             152    0.2810 61.3  99 
 RUS  HN ES       19 7 42.55                             152    0.4410 61.3  99 
 RUS  HZ I        19 7 44.84        14.9 0.28            154           61.3  99 
 PTB  HZ EP   4   19 7 29.21                             135   -1.33 0  111 304 
 PTB  HE ES       19 7 46.95                             135   -0.4310  111 304 
 PTB  HZ I        19 7 49.56        15.5 0.36            136            111 304 
 NOR  HZ EP       19 7 33.51                             126   -0.25 9  145 252 
 NOR  HN ES       19 7 53.03                             126   -0.09 9  145 252 
 NOR  HZ I        19 7 56.05        23.8 0.18            128            145 252 
 CHI  HZ EP       19 7 34.59                             126   -0.12 9  149 184 
 CHI  HN ES       19 7 53.81                             126   -1.00 9  149 184 
 CHI  HZ I        19 7 56.68         5.3 0.24            128            149 184 
 PAM  SZ EP       19 7 39.20                             120    1.00 9  182  34 
 PAM  SE ES       19 7 59.96                             120   -1.06 9  182  34 
 PAM  SZ I        19 8  4.86         5.6 0.60            121            182  34 
 GUY2CHZ EP       19 7 41.24                             116    0.14 8  209 247 
 GUY2CHE ES       19 8  6.48                             116    0.30 8  209 247 
 GUY2CHZ I        19 8  9.95         8.8 0.28                           209 247 
 ZAR  HZ EP       19 7 41.20                             115    0.02 8  216 321 
 ZAR  HN ES       19 8  6.05                             115   -0.27 8  216 321 
 ZAR  HZ I        19 8 12.43        57.7 1.00            116            216 321 
 CBOC HZ EP       19 7 47.30                             110    0.45 8  264 267 
 CBOC HN ES       19 8 16.47                             110    0.05 8  264 267 
 PRA  HZ EP   4   19 7 47.61                             108   -1.66 0  286 209 
 PRA  HN ES       19 8 20.51                             108   -0.22 7  286 209 
 PRA  HZ I        19 8 25.46         9.4 0.32            110            286 209 
                                                                                
