 2012  3 2 1330 18.7 L   6.752 -73.144132.7  RSN  6 0.3 1.9LRSN                1
 GAP=139        0.77       4.8     4.4  7.3  0.2496E+01  0.6727E+01 -0.2805E+01E
 ACTION:UP  12-03-31 23:16 OP:EP   STATUS:               ID:20120302133018 L   I
 2012-03-02-1330-00M.COL___190                                                 6
 STAT SP IPHASW D HRMM SECON CODA AMPLIT PERI AZIMU VELO SNR AR TRES W  DIS CAZ7
 BAR2 SZ EP       1330 36.48                             172    -0.210   18 193 
 BAR2 SZ I        1330 36.85        16.2 0.09                            18 193 
 BAR2 SZ ES   1   1330 50.54                             172    -0.1 7   18 193 
 BRR  HZ EP   1   1330 38.54                             149    -0.1 7   74 302 
 BRR  HZ I        1330 38.84        28.6 0.10                            74 302 
 BRR  HE ES   1   1330 54.60                             149     0.4 7   74 302 
 PAM  SZ EP   1   1330 39.51                             147    -0.3 7   81  37 
 PAM  SN ES   1   1330 56.23                             147     0.0 7   81  37 
 RUS  HZ EP   1   1330 40.77                             143     0.0 7   95 176 
 RUS  HN ES   1   1330 58.41                             143     0.4 7   95 176 
 RUS  HZ I        1331  0.13         8.8 0.36                            95 176 
 PTB  HN ES   1   1331  4.05                             129    -0.7 7  147 261 
 ZAR  HZ EP   1   1330 51.21                             119     0.7 6  206 293 
 ZAR  HN ES   1   1331 15.44                             119     0.0 6  206 293 
                                                                                
