 2011  4 2 1038 19.6 L   7.467 -73.096138.2  RSN  6 0.5 1.7LRSN                1
 GAP=104        1.17       9.5    12.3 16.3 -0.2250E+02 -0.2761E+02 -0.4848E+02E
 Epicentro: EL PLAYON - SANTANDER                                              3
 ACTION:UP  11-06-22 15:28 OP:REBC STATUS:               ID:20110402103819 L   I
 2011-04-02-1020-00M.COL___139                                                 6
 STAT SP IPHASW D HRMM SECON CODA AMPLIT PERI AZIMU VELO SNR AR TRES W  DIS CAZ7
 PAM  SZ EP   1   1038 38.71                             161    -0.6 7   46 108 
 PAM  SE ES   2   1038 55.09                             161     0.3 5   46 108 
 GRA  SZ IP       1038 39.02                             157    -0.310   56  35 
 GRA  SZ I        1038 57.50         7.2 0.27                            56  35 
 BTL  SZ EP   1   1038 40.75                             154     0.9 7   64 197 
 BRR  HZ EP   1   1038 39.88                             148    -0.5 7   79 240 
 BRR  HZ I        1038 40.10        17.6 0.08                            79 240 
 BRR  HE ES   1   1038 56.26                             148    -0.3 7   79 240 
 OCA  SZ IP       1038 41.66                             145     0.410   89 344 
 OCA  SZ I        1038 51.11        11.9 0.44                            89 344 
 OCA  SZ ES   2   1038 58.19                             145     0.0 5   89 344 
 BAR2 SZ ES   2   1038 59.73                             143     0.3 5   97 186 
 BAR2 SZ I        1039  1.22         7.9 0.28                            97 186 
                                                                                
