 2013  5 2 1023 39.7 L   6.836 -73.516125.1  RSN  8 0.4 2.3LRSN                1
 GAP=101        0.81       7.0     6.6 10.8 -0.1688E+02 -0.3504E+01  0.3204E+02E
 Epicentro: SAN VICENTE DE CHUCURI - SANTANDER                                 3
 ACTION:UPD 13-06-20 09:47 OP:ep   STATUS:               ID:20130502102339 L   I
 2013-05-02-1020-00M.COL___253                                                 6
 STAT SP IPHASW D HRMM SECON CODA AMPLIT PERI AZIMU VELO AIN AR TRES W  DIS CAZ7
 BRR  HZ IP       1023 57.44                             162    0.4810 37.0 324 
 BRR  HN ES   1   1024 10.56                             162    0.18 7 37.0 324 
 BRR  HN I        1024 10.57       187.0 0.16            150           37.0 324 
 GIR2 SZ EP     C 1023 57.66                             159    0.1910 44.6  53 
 GIR2 SZ I        1024 10.57        45.5 0.18            150           44.6  53 
 BAR2 SZ IP     D 1023 57.41                             159   -0.2510 45.6 126 
 BAR2 SZ I        1023 57.46        50.7 0.18            157           45.6 126 
 PAM  SZ EP   1   1024  2.35                             138    0.39 7  106  58 
 PAM  SN ES   2   1024 18.50                             138   -0.79 5  106  58 
 PAM  SN I        1024 21.42        32.9 0.22            127            106  58 
 PTB  HZ EP     D 1024  1.17                             136   -0.3910  109 253 
 PTB  HN ES   4   1024 16.32                             136   -2.26 0  109 253 
 PTB  HN I        1024 17.39        41.5 0.22            127            109 253 
 OCA  HN ES   1   1024 26.42                             125   -0.38 7  157   8 
 OCA  HN I        1024 29.64        28.5 0.28            115            157   8 
 NOR  HZ EP   2   1024 11.26                             117    0.11 4  205 227 
 NOR  HN ES   4   1024 34.49                             117   -1.15 0  205 227 
 NOR  HN I        1024 39.86        15.3 0.16            111            205 227 
 HEL  HN ES   4   1024 42.42                             114    0.52 0  234 252 
 URE  HZ EP   4   1024 16.77                             113    1.34 0  245 295 
 URE  HN ES   4   1024 43.53                             113    0.26 0  245 295 
 URE  HN I        1024 52.79        11.2 0.28            106            245 295 
                                                                                
