 2013  1 2 2052 20.9 L   6.773 -73.165145.3  RSN  5 0.2 1.6LRSN                1
 GAP=233        0.47       5.0     4.8  5.1  0.1589E+02  0.5519E+01  0.1638E+01E
 Epicentro: LOS SANTOS - SANTANDER                                             3
 ACTION:UPD 13-02-15 09:11 OP:ep   STATUS:               ID:20130102205220 L   I
 2013-01-02-2050-00M.COL___242                                                 6
 STAT SP IPHASW D HRMM SECON CODA AMPLIT PERI AZIMU VELO AIN AR TRES W  DIS CAZ7
 BAR2 SZ ES   1   2052 55.58                             172   -0.02 7 20.1 186 
 BRR  HZ EP   1   2052 42.11                             153    0.17 7 70.9 301 
 BRR  HN ES   1   2052 58.28                             153   -0.11 7 70.9 301 
 BRR  HZ I        2053  2.71         8.0 0.10            150           70.9 301 
 RUS  HZ EP   1   2052 44.59                             144    0.22 7 97.8 175 
 RUS  HN ES   1   2053  2.61                             144   -0.09 7 97.8 175 
 RUS  HZ I        2053  4.65         5.2 0.34            149           97.8 175 
 PTB  HZ EP   1   2052 47.09                             132   -0.46 7  145 260 
 PTB  HE ES   1   2053  8.58                             132    0.20 7  145 260 
 PTB  HZ I        2053 10.51         6.5 0.26            133            145 260 
 ZAR  HN ES   1   2053 18.48                             122    0.06 6  203 293 
 ZAR  HZ I        2053 25.18         3.2 0.12            123            203 293 
                                                                                
