 2015  6 2 2114 35.0 L   6.795 -73.124140.0  RSN 10 0.3 2.0LRSN                1
 GAP=185        0.73       2.8     4.4  5.4 -0.1943E+00  0.8163E+01  0.2638E+01E
 Epicentro: LOS SANTOS - SANTANDER                                             3
 ACTION:UPD 15-09-10 22:09 OP:cam  STATUS:               ID:20150602211435 L   I
 OLDACT:REG 15-06-03 03:05 OP:spq  STATUS:               ID:20150602210748     3
 2015-06-02-2107-48M.COL___288                                                 6
 STAT SP IPHASW D HRMM SECON CODA AMPLIT PERI AZIMU VELO AIN AR TRES W  DIS CAZ7
 BAR2 EZ EP       2114 53.80                             170   -0.1610 23.3 196 
 BAR2 EZ ES   1   2115  8.56                             170   -0.17 7 23.3 196 
 BAR2 EZ I        2115 10.28        13.8 0.22            166           23.3 196 
 BRR  HZ EP       2114 55.63                             151   -0.0610 73.5 298 
 BRR  HE ES       2115 12.30                             151    0.5010 73.5 298 
 BRR  HZ I        2115 16.89        15.5 0.17            148           73.5 298 
 RUS  HZ EP   1   2114 58.03                             143   -0.13 7 99.9 177 
 RUS  HN ES   1   2115 16.44                             143    0.23 7 99.9 177 
 RUS  HZ I        2115 17.82         8.5 0.30            144           99.9 177 
 OCA  HE ES       2115 24.68                             128   -0.08 9  161 352 
 OCA  HZ I        2115 27.75        23.2 0.18            131            161 352 
 SPBC HN ES   1   2115 24.68                             128   -0.48 7  164 220 
 SPBC HZ I        2115 30.25        18.0 0.22            128            164 220 
 ZAR  HZ EP   1   2115  7.80                             121    0.45 6  206 292 
 ZAR  HN ES       2115 32.13                             121   -0.43 8  206 292 
 ZAR  HZ I        2115 36.62        10.8 0.24            121            206 292 
 NOR  HN ES       2115 38.14                             117   -0.21 8  236 235 
 NOR  HZ I        2115 43.25         6.3 0.29            118            236 235 
 HEL  HZ EP   1   2115 15.64                             113    0.45 6  274 256 
 GUY2CHZ EP       2115 18.15                             111   -0.40 7  303 235 
 GUY2CHN ES   4   2115 54.70                             111    2.19 0  303 235 
 GUY2CHZ I        2116  0.17         5.9 0.64                           303 235 
 PTGC HZ EP   4   2115 17.05                             111   -1.42 0  307 159 
 TOL  SZ EP   1   2115 23.71                             108    0.51 5  345 225 
 TOL  SN ES       2116  1.35                             108    0.57 7  345 225 
 TOL  SZ I        2116 10.35         4.6 0.52            109            345 225 
                                                                                
