 2015  2 3 0123 26.1 L   6.804 -73.171155.4  RSN  5 0.5 1.5LRSN                1
 GAP=242        1.18       6.0    12.2 12.5 -0.1242E+02 -0.4581E+02 -0.1446E+02E
 Epicentro: LOS SANTOS - SANTANDER                                             3
 ACTION:UPD 15-04-30 21:21 OP:nd   STATUS:               ID:20150203012326 L   I
 OLDACT:REG 15-02-03 13:26 OP:stll STATUS:               ID:20150203011748     3
 2015-02-03-0117-48M.COL___259                                                 6
 STAT SP IPHASW D HRMM SECON CODA AMPLIT PERI AZIMU VELO AIN AR TRES W  DIS CAZ7
 BRR  HZ EP        123 48.66                             155    0.5110 68.5 299 
 BRR  HN ES        124  5.51                             155    0.1510 68.5 299 
 PTB  HZ EP        123 53.36                             135   -0.27 9  145 258 
 PTB  HN ES        124 14.59                             135   -0.52 9  145 258 
 PTB  HZ I         124 17.74         2.7 0.14            125            145 258 
 SPBC HN ES        124 17.81                             132   -0.13 9  162 218 
 SPBC HZ I         124 22.44         2.9 0.22            124            162 218 
 ZAR  HE ES        124 25.30                             125    0.80 9  201 292 
 ZAR  HZ I         124 34.53         2.7 0.12            118            201 292 
 SML  HZ EP        124  3.31                             120    0.20 8  242 336 
 SML  HN ES        124 31.08                             120   -0.90 8  242 336 
 SML  HZ I         124 34.61         4.2 0.10            115            242 336 
                                                                                
