 2011  7 3 0848 24.7 L   6.776 -73.081140.0  RSN  7 0.3 1.4LRSN                1
 GAP=166        0.46       2.6     6.1  5.9  0.1976E+00 -0.1203E+02 -0.3098E+01E
 Epicentro: LOS SANTOS - SANTANDER                                             3
 ACTION:UPD 12-07-25 13:57 OP:epov STATUS:               ID:20110703084824 L   I
 2011-07-03-0844-23S.COL___140                                                 6
 STAT SP IPHASW D HRMM SECON CODA AMPLIT PERI AZIMU VELO AIN AR TRES W  DIS CAZ7
 BAR2 SZ EP        848 43.49                             170   -0.1310 23.2 209 
 BAR2 SZ ES   2    848 57.86                             170   -0.53 5 23.2 209 
 BAR2 SZ I         848 59.59         7.8 0.03                          23.2 209 
 BTL  SZ EP        848 43.82                             169    0.1410 26.0 307 
 GIR2 SZ EP   2    848 43.84                             165    0.03 5 35.7 340 
 BRR  HZ EP   2    848 45.68                             149    0.01 5 78.8 298 
 BRR  HE ES   1    849  2.24                             149    0.20 7 78.8 298 
 BRR  HZ I         849  5.20         5.6 0.17                          78.8 298 
 RUS  HZ EP   2    848 47.51                             143   -0.15 5 97.7 180 
 RUS  HN ES   1    849  5.71                             143    0.13 7 97.7 180 
 RUS  HZ I         849  7.13         3.3 0.31                          97.7 180 
 GRA  SZ EP   1    848 49.58                             136    0.11 7  126  14 
 GRA  SZ ES   1    849  9.02                             136    0.21 7  126  14 
 GRA  SZ I         849 10.96         2.4 0.22                           126  14 
 OCA  SZ EP   2    848 52.66                             128   -0.24 5  164 351 
 OCA  SZ ES   2    849 14.21                             128   -0.70 5  164 351 
 OCA  SZ I         849 19.17         3.1 0.52                           164 351 
                                                                                
