 2017 11 3 0616  4.9 L   6.779 -73.159142.0  RSN  5 0.4 1.2LRSN                1
 GAP=136        0.86       4.7     4.7  7.4  0.3852E+01  0.5445E+01 -0.4778E+01E
 Epicentro: LOS SANTOS - SANTANDER                                             3
 ACTION:UPD 17-12-12 19:51 OP:rebc STATUS:               ID:20171103061604 L   I
 OLDACT:REG 17-11-03 13:25 OP:dnl  STATUS:               ID:20171103060738     3
 2017-11-03-0608-00M.COL___429                                                 6
 STAT SP IPHASW D HRMM SECON CODA AMPLIT PERI AZIMU VELO AIN AR TRES W  DIS CAZ7
 BAR2 EZ EP        616 24.12                             171    0.0510 20.8 187 
 BAR2 EZ ES        616 38.71                             171   -0.2810 20.8 187 
 BAR2 EZ I         616 40.03         5.7 0.38            172           20.8 187 
 BRR  HZ EP   2    616 26.04                             152    0.36 5 71.1 301 
 BRR  HN ES        616 42.56                             152    0.7110 71.1 301 
 PAM  EZ EP        616 26.97                             149    0.0410 80.1  39 
 PAM  EN ES        616 43.89                             149   -0.1810 80.1  39 
 PAM  EZ I         616 46.63         2.3 0.58            150           80.1  39 
 RUS  HZ EP   2    616 28.10                             144   -0.07 5 98.4 175 
 RUS  HN ES        616 46.30                             144    0.0210 98.4 175 
 RUS  HZ I         616 48.15         1.8 0.24            145           98.4 175 
 ZAR  HZ EP   2    616 37.44                             122    0.34 4  204 293 
 ZAR  HE ES        617  1.51                             122   -0.67 9  204 293 
 ZAR  HZ I         617  7.98         2.4 0.44            121            204 293 
                                                                                
