 2016 11 3 0619 15.0 L   6.806 -73.158153.0  RSN  4 0.2 0.9LRSN                1
 GAP=237        0.54       4.6     4.6  5.4  0.1430E+02 -0.1618E+01 -0.2299E+01E
 Epicentro: LOS SANTOS - SANTANDER                                             3
 ACTION:UPD 17-10-26 21:04 OP:lp   STATUS:               ID:20161103061915 L   I
 OLDACT:UP  16-11-03 15:48 OP:dani STATUS:               ID:20161103061745     3
 OLDACT:REG 16-11-03 12:33 OP:dani STATUS:               ID:20161103061745     3
 2016-11-03-0618-00M.COL___337                                                 6
 STAT SP IPHASW D HRMM SECON CODA AMPLIT PERI AZIMU VELO AIN AR TRES W  DIS CAZ7
 BRR  HZ EP     D  619 36.89                             154   -0.0110 69.7 299 
 BRR  HN ES        619 54.01                             154    0.0610 69.7 299 
 BRR  HZ I         619 56.29         1.5 0.31            154           69.7 299 
 RUS  HZ EP        619 39.84                             145    0.2810  101 175 
 RUS  HN ES        619 58.47                             145   -0.2210  101 175 
 RUS  HZ I         620  0.11         0.7 0.41            147            101 175 
 PTB  HZ EP        619 42.28                             134   -0.23 9  147 258 
 PTB  HN ES        620  4.16                             134    0.23 9  147 258 
 ZAR  HZ EP   4    619 49.79                             124    1.97 0  203 292 
 ZAR  HN ES        620 13.24                             124   -0.15 9  203 292 
 ZAR  HZ I         620 18.23         1.1 0.36            125            203 292 
                                                                                
