 2015 10 3 0341 18.3 L   6.703 -73.199155.0  RSN  5 0.5 1.2LRSN                1
 GAP=223        1.18       7.0     7.5  8.6  0.9493E+01  0.7906E+01  0.4868E+01E
 Epicentro: VILLANUEVA - SANTANDER                                             3
 ACTION:UPD 15-12-22 20:37 OP:cam  STATUS:               ID:20151003034118 L   I
 OLDACT:REG 15-10-03 13:23 OP:stll STATUS:               ID:20151003033739     3
 2015-10-03-0337-39M.COL___349                                                 6
 STAT SP IPHASW D HRMM SECON CODA AMPLIT PERI AZIMU VELO AIN AR TRES W  DIS CAZ7
 BAR2 EZ EP        341 38.78                             175   -0.0810 12.4 172 
 BAR2 EZ ES        341 54.64                             175   -0.2710 12.4 172 
 BRR  HZ EP        341 40.60                             154    0.1210 72.2 308 
 BRR  HN ES        341 57.95                             154    0.1410 72.2 308 
 RUS  HZ EP        341 43.12                             148    0.8410 90.6 172 
 RUS  HN ES        342  0.75                             148   -0.2610 90.6 172 
 RUS  HZ I         342  2.17         1.6 0.40            146           90.6 172 
 PTB  HZ EP        341 45.33                             136   -0.03 9  140 263 
 PTB  HZ I         341 47.81         1.9 0.20            133            140 263 
 PTB  HN ES        342  6.44                             136   -0.05 9  140 263 
 SPBC HZ EP        341 45.43                             133   -0.99 9  151 220 
 SPBC HN ES        342  8.87                             133    0.50 9  151 220 
 SPBC HZ I         342 13.56         3.2 0.22            130            151 220 
                                                                                
