 2010  8 3 0845 36.2 L   6.781 -73.068139.5  RSN 16 0.4 3.1LRSN                1
 GAP=168        0.77       3.0     6.3  5.4 -0.7034E+01  0.4763E+01  0.1130E+01E
 Epicentro: LOS SANTOS - SANTANDER                                             3
 ACTION:UP  10-09-07 10:51 OP:vdl  STATUS:               ID:20100803084536 L   I
 2010-08-03-0841-11S.COL___123                                                 6
 STAT SP IPHASW D HRMM SECON CODA AMPLIT PERI AZIMU VELO SNR AR TRES W  DIS CAZ7
 BAR2 SZ IP        845 55.19                             169     0.110   25 212 
 BAR2 SZ ES   2    846  9.43                             169    -0.4 5   25 212 
 GIR2 SZ IP        845 55.31                             165     0.110   36 337 
 GIR2 SZ ES   2    846 10.60                             165     0.5 5   36 337 
 BRR  HZ IP     D  845 57.14                             148     0.010   80 297 
 BRR  HZ I         845 57.49       366.6 0.11                            80 297 
 BRR  HE ES   1    846 13.81                             148     0.2 7   80 297 
 RUS  HZ EP   1    845 59.16                             143     0.0 7   98 181 
 RUS  HN ES   1    846 16.98                             143    -0.1 7   98 181 
 RUS  HZ I         846 18.28       163.6 0.29                            98 181 
 GUE  SZ EP        846  0.31                             138    -0.110  117   8 
 GRA  SZ IP        846  1.22                             136     0.410  125  13 
 GRA  SZ ES   2    846 19.72                             136    -0.4 5  125  13 
 GRA  SZ I         846 21.91       126.6 0.32                           125  13 
 OCA  SZ EP        846  3.90                             127    -0.4 9  164 350 
 OCA  SZ ES   2    846 25.75                             127    -0.5 5  164 350 
 OCA  SZ I         846 29.95       153.6 0.18                           164 350 
 CHI  HZ EP   1    846 13.47                             116    -0.1 6  249 197 
 CHI  HE ES   1    846 42.27                             116    -0.5 6  249 197 
 CHI  HZ I         846 46.67        32.5 0.34                           249 197 
 ROSC BZ EP   2    846 15.30                             115     1.0 4  256 213 
 ROSC BN ES   2    846 44.30                             115     0.3 4  256 213 
 ROSC BZ I         846 51.58        61.7 0.58                           256 213 
 CVER SZ EP   2    846 17.02                             113     0.6 4  274 204 
 CVER SZ I         846 54.90        45.3 0.30                           274 204 
 HEL  HZ EP   2    846 17.31                             113     0.3 4  280 257 
 HEL  HZ I         846 55.88        50.8 0.29                           280 257 
 GUY  SZ EP   2    846 20.39                             111     0.2 4  307 236 
 GUY  SZ I         847  3.80       116.7 0.70                           307 236 
 RREF HZ EP   2    846 23.55                             109     0.9 3  327 231 
 RREF HE ES   3    846 57.89                             109    -1.0 2  327 231 
 RREF HZ I         847  4.41        44.4 0.19                           327 231 
 DBB  SZ EP   1    846 23.94                             108    -0.5 5  348 274 
 ANIL HZ EP   1    846 27.11                                     0.8 5  362 226 
 ANIL HE ES   2    847  5.20                                    -0.2 3  362 226 
 ANIL HZ I         847 11.10        96.1 0.36                           362 226 
 PRA  HZ EP   1    846 28.75                             105    -1.0 4  395 211 
 PRA  HN ES   2    847 10.79                             105    -0.8 3  395 211 
 PRA  HZ I         847 18.16        39.4 0.31                           395 211 
                                                                                
