 2011 10 3 0840 44.2 L   7.259 -73.811 22.3  RSN  5 0.4 1.2LRSN                1
 GAP=131        0.86       3.7     5.5  3.8  0.5086E+01  0.2058E+01 -0.6706E+01E
 Epicentro: PUERTO WILCHES - SANTANDER                                         3
 ACTION:UPD 12-07-13 16:01 OP:ep   STATUS:               ID:20111003084044 L   I
 2011-10-03-0836-45S.COL___168                                                 6
 STAT SP IPHASW D HRMM SECON CODA AMPLIT PERI AZIMU VELO AIN AR TRES W  DIS CAZ7
 BRR  HZ EP        840 49.24                             136    0.2010 20.0 147 
 BRR  HE ES   1    840 53.07                             136    0.25 7 20.0 147 
 BRR  HZ I         840 54.34        39.2 0.10                          20.0 147 
 BAR2 SZ EP   1    841  0.09                             101   -0.55 7  101 137 
 BAR2 SZ ES   1    841 12.75                             101   -0.72 7  101 137 
 BAR2 SZ I         841 13.90         4.1 0.18                           101 137 
 ZAR  HN ES   2    841 16.54                              56   -0.58 5  118 283 
 ZAR  HZ I         841 17.65         9.9 0.24                           118 283 
 OCA  SZ EP   1    841  3.56                              56    0.36 7  121  27 
 OCA  SZ ES   1    841 17.83                              56   -0.21 7  121  27 
 OCA  SZ I         841 21.64         4.0 0.27                           121  27 
 RUS  HZ EP   1    841 10.35                              56    0.49 7  171 152 
 RUS  HN ES   1    841 30.33                              56    0.44 7  171 152 
 RUS  HZ I         841 33.15         2.4 0.32                           171 152 
                                                                                
