 2017  1 3 1959 29.1 L   6.769 -73.135144.5  RSN  5 0.4 1.3LRSN                1
 GAP=139        0.98       5.0     4.5  8.7  0.1478E+01  0.7078E+01  0.4152E+01E
 Epicentro: LOS SANTOS - SANTANDER                                             3
 ACTION:UPD 17-05-22 15:55 OP:jn   STATUS:               ID:20170103195929 L   I
 OLDACT:REG 17-01-04 02:29 OP:cog  STATUS:               ID:20170103195742     3
 2017-01-03-1958-00M.COL___369                                                 6
 STAT SP IPHASW D HRMM SECON CODA AMPLIT PERI AZIMU VELO AIN AR TRES W  DIS CAZ7
 BRR  HZ EP       1959 50.67                             151    0.3810 73.9 300 
 BRR  HN ES       20 0  6.36                             151   -0.4410 73.9 300 
 BRR  HZ I        20 0 15.03         6.5 0.56            153           73.9 300 
 PAM  EZ EP       1959 51.37                             150    0.0510 79.3  37 
 PAM  EE ES       20 0  8.59                             150   -0.0410 79.3  37 
 RUS  HZ EP       1959 52.48                             144   -0.0310 97.1 177 
 RUS  HN ES       20 0 11.03                             144    0.2910 97.1 177 
 RUS  HZ I        20 0 13.08         2.2 0.36            150           97.1 177 
 PTB  HZ EP       1959 55.31                             132   -0.73 9  148 260 
 PTB  HE ES       20 0 16.97                             132   -0.06 9  148 260 
 PTB  HZ I        20 0 19.68         2.4 0.13            136            148 260 
 ZAR  HN ES       20 0 27.84                             122    0.67 8  206 293 
                                                                                
