 2010  3 3 1930  6.1 L   6.799 -73.049143.6  RSN  6 0.2 2.2LRSN                1
 GAP=193        0.55       2.7     6.0  4.5  0.3648E+01 -0.3201E+01 -0.1264E+01E
 Epicentro: LOS SANTOS - SANTANDER                                             3
 ACTION:UP  10-08-24 09:51 OP:vdl  STATUS:               ID:20100303193006 L   I
 2010-03-03-1927-10S.COL___096                                                 6
 STAT SP IPHASW D HRMM SECON CODA AMPLIT PERI AZIMU VELO SNR AR TRES W  DIS CAZ7
 BAR2 SZ ES   1   1930 40.29                             168    -0.4 7   27 213 
 BRR  HZ IP       1930 27.63                             149     0.010   81 295 
 BRR  HZ I        1930 27.99        64.3 0.06                            81 295 
 BRR  HN ES       1930 44.55                             149     0.210   81 295 
 RUS  BZ EP       1930 29.71                             143     0.110  100 182 
 RUS  BN ES   1   1930 48.23                             143     0.3 7  100 182 
 RUS  BZ I        1930 49.07        11.4 0.41                           100 182 
 OCA  SZ EP       1930 34.34                             129    -0.1 9  162 349 
 OCA  SZ ES   1   1930 56.27                             129    -0.2 7  162 349 
 DBB  SZ EP   1   1930 54.71                             108     0.0 5  350 274 
 PRA  HN ES   1   1931 41.89                             106    -0.4 4  397 211 
                                                                                
