 2011  1 3 2241 58.7 L   6.795 -73.192139.4  RSN  8 0.2 2.2LRSN                1
 GAP=154        0.57       2.8     5.4  3.9 -0.7558E+01  0.6310E+01 -0.1489E+01E
 Epicentro: ZAPATOCA - SANTANDER                                               3
 ACTION:UP  11-02-08 08:38 OP:pat  STATUS:               ID:20110103224158 L   I
 2011-01-03-2240-00M.COL___137                                                 6
 STAT SP IPHASW D HRMM SECON CODA AMPLIT PERI AZIMU VELO SNR AR TRES W  DIS CAZ7
 BTL  SZ ES   1   2242 32.37                             173     0.3 7   16 329 
 BAR2 SZ IP       2242 17.70                             170     0.110   23 178 
 BAR2 SZ I        2242 18.01        54.9 0.05                            23 178 
 BAR2 SZ ES   1   2242 32.31                             170     0.1 7   23 178 
 GIR2 SZ EP       2242 17.81                             167     0.210   31 360 
 GIR2 SZ ES   1   2242 32.34                             167     0.0 7   31 360 
 RUS  HZ EP       2242 21.77                             143    -0.110  101 173 
 RUS  HN ES   1   2242 39.51                             143    -0.4 7  101 173 
 GRA  SZ IP       2242 23.70                             135     0.110  128  20 
 GRA  SZ ES   1   2242 42.75                             135    -0.2 7  128  20 
 GRA  SZ I        2242 44.36        19.3 0.25                           128  20 
 OCA  SZ EP       2242 26.20                             128    -0.3 9  160 355 
 OCA  SZ I        2242 52.81        22.7 0.67                           160 355 
 NOR  SZ EP       2242 33.80                             118     0.2 8  230 234 
 NOR  SN ES   1   2243  0.51                             118    -0.3 6  230 234 
 CHI  HZ EP   2   2242 36.10                             116     0.2 4  247 194 
 CHI  HZ I        2243  9.01         7.3 0.95                           247 194 
                                                                                
