 2012 12 4 0832  0.3 L   6.807 -73.197134.0  RSN  9 0.5 1.6LRSN                1
 GAP=130        0.91       4.6     4.9  7.6 -0.4741E+01  0.1849E+02 -0.9452E+01E
 Epicentro: ZAPATOCA - SANTANDER                                               3
 ACTION:UPD 13-01-04 14:25 OP:ep   STATUS:               ID:20121204083200 L   I
 2012-12-04-0830-00M.COL___236                                                 6
 STAT SP IPHASW D HRMM SECON CODA AMPLIT PERI AZIMU VELO AIN AR TRES W  DIS CAZ7
 BAR2 SZ EP   1    832 18.34                             169   -0.18 7 23.8 176 
 BAR2 SZ ES   1    832 32.72                             169   -0.02 7 23.8 176 
 BAR2 SZ I         832 34.08        25.6 0.20                          23.8 176 
 GIR2 SZ ES   1    832 32.99                             167    0.23 7 30.0   1 
 GIR2 SZ I         832 36.18         7.4 0.30                          30.0   1 
 PAM  SZ EP        832 21.34                             148   -0.1310 80.5  43 
 PAM  SN ES   1    832 38.16                             148    0.17 7 80.5  43 
 PAM  SZ I         832 40.28         7.5 0.44                          80.5  43 
 RUS  HN ES   1    832 41.02                             141    0.30 7  102 173 
 RUS  HZ I         832 42.23         5.4 0.34                           102 173 
 PTB  HZ EP   1    832 24.98                             130   -0.84 7  142 258 
 PTB  HN ES   1    832 45.01                             130   -0.72 7  142 258 
 PTB  HZ I         832 49.08         4.7 0.12                           142 258 
 OCA  HE ES   2    832 48.73                             127   -0.14 5  159 355 
 ZAR  HZ EP   1    832 31.29                             121   -0.12 6  199 293 
 ZAR  HN ES   1    832 55.99                             121    0.30 6  199 293 
 ZAR  HZ I         832 59.60         4.7 0.48                           199 293 
 SML  HZ EP   1    832 35.40                             115   -0.55 6  241 336 
 SML  HE ES   1    833  4.23                             115    0.47 6  241 336 
 SML  HZ I         833  7.15         4.6 0.28                           241 336 
 HEL  HZ EP   1    832 40.68                             113    1.34 6  267 255 
 HEL  HN ES   1    833 10.31                             113    0.52 6  267 255 
 HEL  HZ I         833 17.65         2.4 0.28                           267 255 
                                                                                
