 2013  1 4 0545 48.7 L   6.851 -73.089141.7  RSN  5 0.5 1.7LRSN                1
 GAP=189        1.27       5.8     8.7 10.3  0.1092E+02  0.3908E+01 -0.1979E+01E
 Epicentro: LOS SANTOS - SANTANDER                                             3
 ACTION:UPD 13-02-15 09:12 OP:ep   STATUS:               ID:20130104054548 L   I
 2013-01-04-0539-37M.COL___196                                                 6
 STAT SP IPHASW D HRMM SECON CODA AMPLIT PERI AZIMU VELO AIN AR TRES W  DIS CAZ7
 BAR2 SZ EP        546  8.17                             167    0.1310 30.4 200 
 BAR2 SZ ES        546 23.35                             167    0.2610 30.4 200 
 BAR2 SZ I         546 25.33         7.6 0.26            170           30.4 200 
 BRR  HZ EP        546 10.18                             151    0.5610 74.4 292 
 BRR  HN ES        546 26.56                             151    0.6410 74.4 292 
 BRR  HN I         546 27.27        10.4 0.22            152           74.4 292 
 RUS  HZ EP        546 12.59                             141    0.1010  106 180 
 RUS  HN ES        546 30.42                             141   -0.5910  106 180 
 RUS  HN I         546 32.07         4.6 0.28            144            106 180 
 PTB  HZ EP        546 16.19                             130    0.15 9  155 257 
 PTB  HN ES        546 36.67                             130   -0.67 9  155 257 
 PTB  HN I         546 38.23         5.2 0.22            132            155 257 
 OCA  HN ES        546 36.98                             130   -0.78 9  156 351 
 OCA  HN I         546 41.67        23.8 0.30            130            156 351 
                                                                                
