 2016  8 4 0401  8.3 L   6.767 -73.068145.2  RSN 13 0.4 1.8LRSN                1
 GAP=105        0.95       3.5     3.9  5.6 -0.2951E-01 -0.4915E+00 -0.8391E+00E
 Epicentro: LOS SANTOS - SANTANDER                                             3
 ACTION:UPD 16-10-29 15:31 OP:rebc STATUS:               ID:20160804040108 L   I
 OLDACT:UP  16-08-04 15:09 OP:dani STATUS:               ID:20160804035732     3
 OLDACT:UP  16-08-04 15:08 OP:dani STATUS:               ID:20160804035732     3
 OLDACT:UP  16-08-04 15:07 OP:dani STATUS:               ID:20160804035732     3
 OLDACT:UP  16-08-04 15:02 OP:dani STATUS:               ID:20160804035732     3
 OLDACT:UP  16-08-04 15:02 OP:dani STATUS:               ID:20160804035732     3
 OLDACT:UP  16-08-04 15:02 OP:dani STATUS:               ID:20160804035732     3
 OLDACT:REG 16-08-04 12:22 OP:dani STATUS:               ID:20160804035732     3
 2016-08-04-0358-00M.COL___323                                                 6
 STAT SP IPHASW D HRMM SECON CODA AMPLIT PERI AZIMU VELO AIN AR TRES W  DIS CAZ7
 BAR2 EZ EP        4 1 28.29                             171    0.4410 23.1 213 
 BAR2 EZ I         4 1 44.57        12.3 0.16                          23.1 213 
 BRR  HZ EP        4 1 29.83                             149   -0.1110 80.5 298 
 BRR  HN ES        4 1 46.73                             149   -0.0910 80.5 298 
 BRR  HZ I         4 1 49.39        14.3 0.33                          80.5 298 
 RUS  HZ EP        4 1 32.03                             145    0.3210 96.7 181 
 RUS  HN ES        4 1 50.24                             145    0.2610 96.7 181 
 RUS  HZ I         4 1 52.05         5.1 0.18                          96.7 181 
 SPBC HZ EP        4 1 37.04                             128    0.02 9  166 222 
 SPBC HN ES        4 1 58.81                             128   -0.61 9  166 222 
 SPBC HZ I         4 2  5.18        10.7 0.24                           166 222 
 ZAR  HZ EP        4 1 42.02                             121    0.34 8  213 292 
 ZAR  HZ I         4 2 13.21         6.4 0.28                           213 292 
 NOR  HZ EP        4 1 44.74                             118    0.21 8  240 236 
 NOR  HE ES        4 2 12.41                             118   -0.38 8  240 236 
 NOR  HZ I         4 2 17.54         5.8 0.16                           240 236 
 HEL  HZ EP        4 1 49.55                             114    0.24 7  280 257 
 HEL  HZ I         4 2 26.73         4.2 0.44                           280 257 
 SOCV BZ EP        4 1 50.74                             112    0.01 7  296  55 
 PTGC HZ EP        4 1 51.14                             112   -0.25 7  302 160 
 PTGC HN ES        4 2 24.35                             112   -0.65 7  302 160 
 PTGC HZ I         4 2 29.43         6.0 0.20                           302 160 
 GUY2CHZ EP        4 1 53.36                             112    0.92 7  306 236 
 GUY2CHN ES   4    4 2 29.16                             112    2.28 0  306 236 
 GUY2CHZ I         4 2 36.29         3.2 0.44                           306 236 
 LL6C HZ EP        4 1 53.27                             110   -1.17 7  329 356 
 CBOC HZ EP        4 1 56.38                             109    0.38 7  341 253 
 CBOC HN ES        4 2 32.72                             109   -0.50 7  341 253 
 CBOC HZ I         4 2 45.55         1.2 0.22                           341 253 
 PRA  HZ EP        4 2  1.85                             106   -0.08 6  393 211 
 PRA  HN ES        4 2 43.77                             106    0.00 6  393 211 
 PRA  HZ I         4 2 48.16         2.9 0.34                           393 211 
                                                                                
