 2012  3 4 0642 31.0 L   7.310 -73.514114.4  RSN  4 0.2 1.5LRSN                1
 GAP=237        0.44       6.4     4.0  5.4  0.2151E+01 -0.2216E+00 -0.1053E+01E
 ACTION:UP  12-03-31 23:16 OP:EP   STATUS:               ID:20120304064231 L   I
 2012-03-04-0640-00M.COL___191                                                 6
 STAT SP IPHASW D HRMM SECON CODA AMPLIT PERI AZIMU VELO SNR AR TRES W  DIS CAZ7
 BRR  HZ EP   1    642 46.72                             164    -0.1 7   31 224 
 BRR  HE ES   1    642 59.05                             164     0.0 7   31 224 
 BRR  HZ I         643  0.49        16.1 0.08                            31 224 
 BAR2 SZ EP   1    642 50.57                             140     0.1 7   87 155 
 BAR2 SZ I         643  7.02         4.5 0.22                            87 155 
 PTB  HZ EP   1    642 54.03                             127    -0.3 7  135 231 
 PTB  HN ES   1    643 12.61                             127     0.1 7  135 231 
 ZAR  HZ EP   2    642 56.16                             123     0.3 5  150 278 
 ZAR  HN ES   2    643 15.20                             123     0.0 5  150 278 
 ZAR  HZ I         643 18.31         3.6 0.07                           150 278 
                                                                                
