 2014 12 4 0921 58.6 L   6.883 -73.380122.5  RSN  6 0.6 1.5LRSN                1
 GAP=143        1.37       5.9     7.0 10.0 -0.3637E+01  0.2008E+02 -0.2058E+02E
 Epicentro: SAN VICENTE DE CHUCURI - SANTANDER                                 3
 ACTION:UPD 15-02-10 17:00 OP:nd   STATUS:               ID:20141204092158 L   I
 OLDACT:REG 14-12-04 13:01 OP:carl STATUS:               ID:20141204091747     3
 2014-12-04-0917-47M.COL___300                                                 6
 STAT SP IPHASW D HRMM SECON CODA AMPLIT PERI AZIMU VELO AIN AR TRES W  DIS CAZ7
 BAR2 SZ EP        922 16.33                             161    0.3810 38.9 146 
 BAR2 SZ ES        922 29.28                             161   -0.2010 38.9 146 
 BAR2 SZ I         922 30.70         7.6 0.32            168           38.9 146 
 BRR  HZ EP        922 16.13                             159    0.3110 44.2 304 
 BRR  HN ES        922 29.64                             159    0.4010 44.2 304 
 PTB  HZ EP        922 21.03                             131   -0.5910  125 252 
 PTB  HN ES        922 38.74                             131   -0.8210  125 252 
 PTB  HZ I         922 42.15         5.3 0.26            132            125 252 
 OCA  HN ES        922 43.97                             126   -0.20 9  150   3 
 ZAR  HZ EP        922 27.62                             121    0.90 9  177 293 
 ZAR  HN ES        922 49.36                             121    0.72 9  177 293 
 ZAR  HZ I         922 52.90         4.2 0.32            121            177 293 
 SML  HZ EP        922 31.67                             114   -0.32 8  225 340 
 SML  HN ES        922 57.30                             114   -0.72 8  225 340 
 SML  HZ I         923  6.51         3.9 0.10            114            225 340 
                                                                                
