 2012  5 4 1129 13.4 L   6.802 -73.132148.1  RSN 19 0.5 3.0LRSN                1
 GAP=138        1.02       3.8     4.8  6.3 -0.3852E+01  0.1120E+02  0.1403E+00E
 Epicentro: LOS SANTOS - SANTANDER                                             3
 ACTION:UP  12-07-05 12:02 OP:pat  STATUS:               ID:20120504112913 L   I
 2012-05-04-1127-36M.COL___185                                                 6
 STAT SP IPHASW D HRMM SECON CODA AMPLIT PERI AZIMU VELO SNR AR TRES W  DIS CAZ7
 OCA2 HZ EP   1   1129 41.69                             130                    
 OCA2 HN ES   1   1130  4.43                             130                    
 OCA2 HZ I        1130  8.26       252.0 0.26                                   
 BAR2 SZ EP       1129 33.43                             171     0.110   24 194 
 BAR2 SZ ES   1   1129 48.56                             171    -0.3 7   24 194 
 BAR2 SZ I        1129 57.52       133.5 0.52                            24 194 
 BRR  HZ EP       1129 35.30                             153     0.410   72 298 
 BRR  HN ES   1   1129 52.39                             153     0.7 7   72 298 
 BRR  HZ I        1129 54.74       215.2 0.17                            72 298 
 PAM  SZ EP       1129 36.23                             151     0.410   76  39 
 PAM  SN ES   1   1129 53.32                             151     0.0 7   76  39 
 RUS  HZ EP       1129 37.29                             144    -0.110  101 177 
 RUS  HN ES   1   1129 55.95                             144    -0.2 7  101 177 
 RUS  HZ I        1129 58.93        68.9 0.32                           101 177 
 PTB  HZ EP       1129 39.90                             133    -0.8 9  149 259 
 PTB  HN ES   1   1130  1.17                             133    -0.8 7  149 259 
 PTB  HZ I        1130  8.93       144.6 0.39                           149 259 
 ZAR  HZ EP       1129 46.03                             123    -0.1 8  205 292 
 ZAR  HZ I        1130 17.59       130.4 0.33                           205 292 
 NOR  SZ EP       1129 49.36                             119    -0.1 8  236 235 
 NOR  SN ES   1   1130 17.30                             119    -0.2 6  236 235 
 CHI  HZ EP   1   1129 51.42                             118     0.1 6  249 195 
 CHI  HN ES   1   1130 20.79                             118    -0.1 6  249 195 
 CHI  HZ I        1130 30.73        39.3 0.43                           249 195 
 ROSC BE ES   2   1130 21.69                                     0.0 4  254 211 
 HEL  HZ EP   1   1129 54.59                             115     0.7 6  274 256 
 HEL  HN ES   1   1130 26.10                             115     0.6 6  274 256 
 HEL  HZ I        1130 32.44        83.6 0.45                           274 256 
 URE  HZ EP   1   1129 53.36                             114    -1.4 6  285 292 
 URE  HZ I        1130 37.80        65.0 0.21                           285 292 
 GUY  SZ EP   1   1129 58.11                                     0.6 5  305 235 
 RREF HN ES   1   1130 36.40                             111     0.4 5  323 230 
 RREF HZ I        1130 45.77        52.3 0.30                           323 230 
 DBB  SZ EP   1   1130  1.91                                     0.7 5  341 274 
 DBB  SZ ES   1   1130 38.84                                     0.4 5  341 274 
 TOL  SZ EP   1   1130  2.41                             110     0.5 5  345 225 
 COD  HZ EP   1   1130  1.86                             109     0.0 5  348 354 
 COD  HN ES   1   1130 39.19                             109    -0.5 5  348 354 
 PRA  HZ EP   1   1130  6.82                             107    -0.3 4  393 210 
 PRA  HN ES   1   1130 48.74                             107    -0.3 4  393 210 
 YOT  HZ EP   2   1130 16.68                             104     0.0 2  473 229 
                                                                                
