 2010  7 4 1725  3.4 L   6.819 -73.080138.0  RSN 12 0.5 2.4LRSN                1
 GAP=163        0.94       4.1     7.7  8.8 -0.1379E+02  0.9200E+01 -0.1087E-01E
 Epicentro: LOS SANTOS - SANTANDER                                             3
 ACTION:UPD 10-12-01 15:15 OP:pat  STATUS:               ID:20100704172503 L   I
 2010-07-04-1723-09S.COL___118                                                 6
 STAT SP IPHASW D HRMM SECON CODA AMPLIT PERI AZIMU VELO AIN AR TRES W  DIS CAZ7
 BAR2 SZ IP       1725 22.25                             168     0.010   28 204 
 BAR2 SZ ES   2   1725 36.66                             168    -0.2 5   28 204 
 BRR  HZ IP     D 1725 24.02                             149    -0.110   77 295 
 BRR  HN ES   2   1725 40.93                             149     0.7 5   77 295 
 BRR  HZ I        1725 43.30        61.1 0.19                            77 295 
 RUS  HZ EP       1725 26.22                             142    -0.310  102 180 
 RUS  HN ES   2   1725 44.17                             142    -0.4 5  102 180 
 RUS  HZ I        1725 46.81        19.4 0.19                           102 180 
 BRI  SZ EP       1725 26.69                             141     0.410  104  17 
 BRI  SZ ES   2   1725 44.63                             141     0.6 5  104  17 
 BRI  SZ I        1725 47.11        29.6 0.48                           104  17 
 GUE  SZ EP       1725 27.01                             138    -0.110  113   9 
 GRA  SZ IP       1725 27.97                             136     0.310  122  15 
 GRA  SZ ES   2   1725 46.46                             136    -0.1 5  122  15 
 OCA  SZ EP       1725 30.41                             128    -0.6 9  159 350 
 OCA  SZ ES   2   1725 51.67                             128    -0.9 5  159 350 
 OCA  SZ I        1725 56.06        23.4 0.25                           159 350 
 CHI  HZ EP   3   1725 40.62                             115    -0.5 2  253 197 
 CHI  HN ES   2   1726 10.21                             115    -0.4 4  253 197 
 CHI  HZ I        1726 13.11        13.0 0.30                           253 197 
 ROSC BZ EP   1   1725 42.64                             114     0.9 6  258 212 
 ROSC BE ES   2   1726 12.47                             114     0.8 4  258 212 
 ROSC BZ I        1726 17.67        28.2 0.34                           258 212 
 HEL  HZ EP   1   1725 44.40                             112     0.3 6  280 256 
 HEL  HE ES   2   1726 15.31                             112    -0.5 4  280 256 
 HEL  HZ I        1726 20.08        10.8 0.50                           280 256 
 RREF HN ES   3   1726 25.86                             109    -0.5 2  329 230 
 RREF HZ I        1726 33.86        17.4 0.27                           329 230 
 PRA  HZ EP   2   1725 56.99                             105    -0.3 3  397 210 
 PRA  HZ I        1726 47.10        12.8 0.45                           397 210 
                                                                                
