 2017  1 4 1547 48.2 L   6.796 -73.144139.0  RSN  9 0.6 2.2LRSN                1
 GAP=137        1.33       4.9     5.6  7.8  0.2124E+01  0.1389E+02  0.9796E+01E
 Epicentro: LOS SANTOS - SANTANDER                                             3
 ACTION:UPD 17-05-22 15:55 OP:jn   STATUS:               ID:20170104154748 L   I
 OLDACT:UP  17-01-04 23:05 OP:dnl  STATUS:               ID:20170104153748     3
 OLDACT:REG 17-01-04 20:55 OP:dnl  STATUS:               ID:20170104153748     3
 2017-01-04-1538-00M.COL___366                                                 6
 STAT SP IPHASW D HRMM SECON CODA AMPLIT PERI AZIMU VELO AIN AR TRES W  DIS CAZ7
 BAR2 EZ EP       1548  6.86                             170   -0.1610 23.0 191 
 BAR2 EZ ES       1548 21.44                             170   -0.2510 23.0 191 
 BAR2 EZ I        1548 22.74        30.3 0.32            168           23.0 191 
 BRR  HZ EP       1548  8.66                             151    0.0110 71.6 299 
 BRR  HN ES       1548 25.50                             151    0.9010 71.6 299 
 BRR  HZ I        1548 29.92        23.9 0.22            149           71.6 299 
 PAM  EZ EP       1548  9.68                             149   -0.0410 77.6  39 
 PAM  EN ES       1548 26.46                             149   -0.0410 77.6  39 
 PAM  EZ I        1548 28.62        42.0 0.54            154           77.6  39 
 RUS  HZ EP       1548 10.97                             142   -0.3010  100 176 
 RUS  HN ES       1548 29.42                             142    0.1610  100 176 
 RUS  HZ I        1548 31.45        19.1 0.18            144            100 176 
 PTB  HZ EP       1548 13.54                             130   -1.11 9  148 259 
 PTB  HN ES       1548 34.64                             130   -0.63 9  148 259 
 PTB  HZ I        1548 36.99        29.2 0.12            130            148 259 
 ZAR  HZ EP       1548 21.50                             121    1.24 9  204 292 
 ZAR  HE ES       1548 44.82                             121   -0.44 9  204 292 
 ZAR  HZ I        1548 53.86        14.6 0.20            121            204 292 
 CHI  HZ EP       1548 25.52                             116    0.01 8  248 195 
 CHI  HN ES       1548 55.01                             116    0.41 8  248 195 
 CHI  HZ I        1548 59.85         6.9 0.40            117            248 195 
 GUY2CHZ EP       1548 31.81                             111    0.30 7  301 235 
 GUY2CHE ES   4   1549  8.17                             111    2.89 0  301 235 
 GUY2CHZ  IAML    1549 12.90         7.4 0.26                           301 235 
 ORTC HZ EP   2   1548 41.45                             105   -0.44 3  395 216 
 ORTC HE ES       1549 24.55                             105    0.80 6  395 216 
 ORTC HZ I        1549 31.35         4.8 0.24            106            395 216 
                                                                                
