 2016  9 4 1555 14.2 L   6.885 -73.315124.0  RSN 11 0.5 2.0LRSN                1
 GAP=102        1.10       3.1     4.3  8.0 -0.2019E+01  0.7645E+01  0.4921E+01E
 Epicentro: BETULIA - SANTANDER                                                3
 ACTION:UPD 17-08-17 21:06 OP:lp   STATUS:               ID:20160904155514 L   I
 OLDACT:REG 16-09-04 21:14 OP:dnl  STATUS:               ID:20160904154735     3
 2016-09-04-1548-00M.COL___352                                                 6
 STAT SP IPHASW D HRMM SECON CODA AMPLIT PERI AZIMU VELO AIN AR TRES W  DIS CAZ7
 BAR2 EZ EP       1555 31.57                             163    0.0010 35.5 156 
 BRR  HZ EP       1555 31.92                             157    0.0810 50.3 299 
 BRR  HN ES       1555 46.13                             157    0.5210 50.3 299 
 BRR  HZ I        1555 46.93        27.8 0.12            156           50.3 299 
 PAM  EZ EP       1555 34.81                             144    0.1710 84.6  53 
 PAM  EN ES       1555 50.84                             144    0.2510 84.6  53 
 PAM  EZ I        1555 53.80        24.2 0.30            148           84.6  53 
 RUS  HZ EP       1555 36.60                             136   -0.2710  113 167 
 RUS  HN ES       1555 54.24                             136   -0.3210  113 167 
 RUS  HZ I        1555 56.05        14.5 0.32            137            113 167 
 PTB  HZ EP       1555 36.84                             130   -1.1110  132 253 
 PTB  HN ES   4   1555 54.10                             130   -2.38 0  132 253 
 PTB  HZ I        1555 58.10        11.5 0.14            131            132 253 
 OCA  HZ EP       1555 39.84                             127   -0.01 9  150 360 
 OCA  HN ES       1555 59.27                             127   -0.60 9  150 360 
 SPBC HZ EP       1555 41.61                             125    0.82 9  160 212 
 SPBC HE ES       1556  1.34                             125   -0.20 9  160 212 
 SPBC HZ I        1556  3.98        23.8 0.10            126            160 212 
 ZAR  HZ EP   2   1555 43.96                             120    0.88 4  183 292 
 ZAR  HE ES       1556  5.83                             120    0.21 9  183 292 
 ZAR  HZ I        1556  9.97        20.5 0.28            122            183 292 
 NOR  HE ES       1556 14.04                             115    0.12 8  226 230 
 NOR  HZ I        1556 19.88         9.1 0.14            116            226 230 
 CHI  HZ EP   2   1555 51.48                             112    0.14 4  254 191 
 CHI  HE ES       1556 20.65                             112    0.34 8  254 191 
 CHI  HZ I        1556 23.71         5.1 0.44            113            254 191 
 GUY2CHZ EP   2   1555 56.38                             109    0.58 4  292 231 
 GUY2CHE ES   2   1556 27.01                             109   -1.25 4  292 231 
 GUY2CHZ I        1556 35.35         4.4 0.40                           292 231 
                                                                                
