 2017  7 4 2144 54.0 L   6.851 -73.120145.5  RSN 20 0.6 2.7LRSN                1
 GAP= 74        1.21       3.6     2.9  5.6  0.1076E+01  0.4526E+01  0.4871E+01E
 Epicentro: LOS SANTOS - SANTANDER                                             3
 ACTION:UPD 17-08-30 15:29 OP:rebc STATUS:               ID:20170704214454 L   I
 OLDACT:UP  17-07-05 04:45 OP:nlst STATUS:               ID:20170704214454 L   3
 OLDACT:REG 17-07-05 02:49 OP:dhb  STATUS:               ID:20170704213737     3
 2017-07-04-2138-00M.COL___377                                                 6
 STAT SP IPHASW D HRMM SECON CODA AMPLIT PERI AZIMU VELO AIN AR TRES W  DIS CAZ7
 BAR2 EZ EP       2145 13.69                             168   -0.0510 29.5 194 
 BAR2 HE ES       2145 28.68                             168   -0.4510 29.5 194 
 BAR2 EZ I        2145 31.09       122.2 0.41            166           29.5 194 
 PAM  EZ EP       2145 16.43                             153    0.6010 71.2  41 
 PAM  EN ES       2145 32.42                             153   -0.4310 71.2  41 
 PAM  EZ I        2145 35.91        47.5 0.25            157           71.2  41 
 BRR  HZ IP       2145 15.46                             152    0.3410 71.3 293 
 BRR  HN ES       2145 32.27                             152    0.6710 71.3 293 
 BRR  HZ I        2145 36.35       123.2 0.14            153           71.3 293 
 PTB  HZ EP       2145 21.07                             131   -0.24 9  152 257 
 PTB  HE ES       2145 42.87                             131    0.26 9  152 257 
 PTB  HZ I        2145 44.25        49.6 0.11            132            152 257 
 TAM  HZ EP       2145 22.13                             131    0.59 9  154 107 
 TAM  HE ES       2145 43.13                             131    0.11 9  154 107 
 TAM  HZ I        2145 44.88        33.6 0.21            134            154 107 
 SPBC HZ EP       2145 22.72                             128   -0.35 9  169 219 
 SPBC HN ES       2145 45.00                             128   -0.75 9  169 219 
 SPBC HZ I        2145 49.38        76.3 0.10            129            169 219 
 YPLC HZ IP     C 2145 24.25                             126    0.12 9  180 153 
 YPLC HE ES       2145 47.92                             126    0.28 9  180 153 
 YPLC HZ I        2145 50.12        41.1 0.32            128            180 153 
 ZAR  HZ EP       2145 26.55                             122    0.06 9  205 290 
 ZAR  HE ES       2145 52.54                             122    0.71 9  205 290 
 ZAR  HZ I        2145 58.20        68.7 0.16            124            205 290 
 NOR  HZ EP       2145 30.40                             118    0.08 8  240 234 
 NOR  HN ES       2145 57.78                             118   -0.87 8  240 234 
 NOR  HZ I        2146  1.85        37.5 0.19            119            240 234 
 ROSC BE ES   4   2146  5.51                             116    2.45 0  259 211 
 ROSC BZ I        2146 12.67        30.9 0.30            117            259 211 
 HEL  HZ E        2145 35.67                                            276 255 
 HEL  HZ EP       2145 35.67                             114    1.00 7  276 255 
 HEL  HN ES       2146  6.79                             114    0.40 7  276 255 
 HEL  HZ I        2146 12.56        27.3 0.46            116            276 255 
 URE  HZ EP   3   2145 34.11                             113   -1.02 2  284 291 
 URE  HE ES   2   2146  5.08                             113   -2.12 4  284 291 
 URE  HZ I        2146 14.19        38.8 0.22            115            284 291 
 GUY2CHZ EP       2145 38.40                             112    0.16 7  307 234 
 GUY2CHN ES   1   2146 12.99                             112    0.25 5  307 234 
 GUY2CHZ I        2146 19.11        17.7 0.32                           307 234 
 VIL  EZ EP       2145 38.00                             111   -0.10 7  310 192 
 VIL  EE ES       2146 12.00                             111   -0.50 7  310 192 
 VIL  EZ I        2146 21.44        26.8 0.34            113            310 192 
 PTGC HZ EP       2145 37.15                             111   -1.18 7  313 160 
 PTGC HE ES   3   2146 10.75                             111   -2.16 2  313 160 
 PTGC HZ I        2146 17.62        19.2 0.22            113            313 160 
 CBOC HZ EP   4   2145 42.30                             109    0.88 0  338 251 
 CBOC HE ES       2146 18.42                             109    0.01 7  338 251 
 CBOC HZ I        2146 22.68         7.8 0.63            111            338 251 
 DBB  EZ EP       2145 42.37                             109    0.62 7  342 273 
 DBB  EE ES       2146 18.43                             109   -0.57 7  342 273 
 DBB  EZ I        2146 21.05        16.7 0.16            111            342 273 
 ORTC HZ EP       2145 48.74                             106    0.09 6  402 216 
 ORTC HN ES       2146 32.05                             106    0.78 6  402 216 
 ORTC HZ I        2146 37.08        13.1 0.16            107            402 216 
 SJC  HZ EP       2145 48.36                             106   -0.82 6  406 326 
 SJC  HN ES       2146 30.58                             106   -1.64 6  406 326 
 SJC  HZ I        2146 33.33        16.2 0.60            107            406 326 
 PAL  HZ EP       2145 49.85                             106    0.06 6  411 239 
 PAL  HN ES       2146 33.35                             106    0.05 6  411 239 
 PAL  HZ I        2146 34.38         9.8 0.36            107            411 239 
                                                                                
