 2011 10 5 0121 44.0 L   6.788 -73.116147.9  RSN 13 0.4 2.2LRSN                1
 GAP=141        0.76       3.4     4.7  5.1 -0.1360E+01  0.7834E+01  0.3862E+01E
 Epicentro: LOS SANTOS - SANTANDER                                             3
 ACTION:UPD 12-07-13 16:02 OP:ep   STATUS:               ID:20111005012144 L   I
 2011-10-05-0120-00M.COL___172                                                 6
 STAT SP IPHASW D HRMM SECON CODA AMPLIT PERI AZIMU VELO AIN AR TRES W  DIS CAZ7
 BAR2 SZ EP        122  3.78                             171   -0.1110 22.8 199 
 BAR2 SZ ES   1    122 18.80                             171   -0.60 7 22.8 199 
 BAR2 SZ I         122 21.67        36.9 0.29                          22.8 199 
 GIR2 SZ EP   1    122  4.25                             167    0.25 7 33.3 345 
 GIR2 SZ ES   1    122 20.03                             167    0.45 7 33.3 345 
 BRR  HZ EP        122  5.75                             152    0.1510 74.8 298 
 BRR  HE ES   1    122 23.15                             152    0.72 7 74.8 298 
 BRR  HZ I         122 27.72        24.7 0.13                          74.8 298 
 PAM  SZ EP   1    122  6.59                             151    0.19 7 76.4  37 
 PAM  SN ES   1    122 23.98                             151    0.12 7 76.4  37 
 RUS  HZ EP   1    122  7.62                             145   -0.25 7 99.1 178 
 RUS  HE ES   1    122 26.40                             145   -0.07 7 99.1 178 
 OCA  SZ EP   1    122 12.32                             130   -0.34 7  162 352 
 OCA  SZ ES   1    122 34.36                             130   -0.64 7  162 352 
 OCA  SZ I         122 40.20        16.8 0.35                           162 352 
 ZAR  HN ES   1    122 42.20                             122   -0.47 6  208 292 
 ZAR  HZ I         122 47.20        16.8 0.25                           208 292 
 NOR  SZ EP   1    122 19.63                             119   -0.44 6  237 235 
 NOR  SE ES   1    122 47.74                             119   -0.46 6  237 235 
 CHI  HZ EP   1    122 21.80                             118    0.01 6  248 196 
 CHI  HZ I         122 56.87         8.2 0.31                           248 196 
 HEL  HZ EP   1    122 25.04                             115    0.38 6  275 256 
 HEL  HZ I         123  2.09         8.4 0.18                           275 256 
 GUY  SZ EP   1    122 28.76                             112    0.55 5  305 236 
 GUY  SZ I         123 10.98        12.4 0.39                           305 236 
 RREF HZ EP   1    122 31.17                             111    0.73 5  323 230 
 PRA  HZ EP   2    122 37.82                             107    0.16 3  392 210 
                                                                                
