 2017 11 5 0512 20.1 L   6.730 -73.111147.0  RSN 10 0.3 1.8LRSN                1
 GAP=125        0.77       3.5     4.2  5.0 -0.5098E+01  0.4853E+01  0.1592E+01E
 Epicentro: JORDAN - SANTANDER                                                 3
 ACTION:UPD 17-12-12 19:52 OP:rebc STATUS:               ID:20171105051220 L   I
 OLDACT:UP  17-11-05 17:48 OP:dnl  STATUS:               ID:20171105050737     3
 OLDACT:REG 17-11-05 15:52 OP:dnl  STATUS:               ID:20171105050737     3
 2017-11-05-0508-00M.COL___426                                                 6
 STAT SP IPHASW D HRMM SECON CODA AMPLIT PERI AZIMU VELO AIN AR TRES W  DIS CAZ7
 BAR2 EZ EP        512 39.83                             173    0.0510 17.1 208 
 BAR2 EZ ES        512 54.65                             173   -0.4710 17.1 208 
 BAR2 EZ I         512 56.01        17.7 0.20            171           17.1 208 
 BRR  HZ EP        512 41.93                             150    0.1210 78.5 302 
 BRR  HN ES        512 59.14                             150    0.4010 78.5 302 
 BRR  HZ I         512 59.89         9.3 0.20            153           78.5 302 
 PAM  EZ EP        512 43.02                             150    0.3310 81.3  34 
 PAM  EN ES        513  0.12                             150   -0.1910 81.3  34 
 PAM  EZ I         513  3.01        11.1 0.50            151           81.3  34 
 RUS  HZ EP        512 43.58                             146    0.1610 92.6 178 
 RUS  HN ES        513  1.73                             146    0.1210 92.6 178 
 RUS  HZ I         513  3.60         5.8 0.32            144           92.6 178 
 PTB  HZ EP        512 46.73                             132   -0.67 9  150 262 
 PTB  HN ES   4    513  6.88                             132   -1.81 0  150 262 
 PTB  HZ I         513  8.68         5.0 0.12            133            150 262 
 SPBC HZ EP        512 48.65                             130    0.28 9  160 222 
 SPBC HN ES        513 10.24                             130   -0.19 9  160 222 
 SPBC HZ I         513 12.85         7.5 0.38            130            160 222 
 NOR  HZ EP   2    512 55.79                             119    0.02 4  233 237 
 NOR  HN ES        513 23.78                             119    0.18 8  233 237 
 NOR  HZ I         513 26.73         3.8 0.28            119            233 237 
 URE  HZ EP   2    513  1.20                             113   -0.76 4  290 293 
 URE  HN ES   4    513 32.22                             113   -2.40 0  290 293 
 URE  HZ I         513 33.70         3.5 0.12            114            290 293 
 GUY2CHZ EP   4    513  5.85                             113    2.22 0  300 236 
 GUY2CHE ES   4    513 39.09                             113    1.51 0  300 236 
 GUY2CHZ I         513 46.57         1.8 0.34                           300 236 
 PTGC HZ EP   2    513  2.68                             112   -0.36 4  300 159 
 PTGC HE ES   4    513 35.32                             112   -1.20 0  300 159 
 PTGC HZ I         513 43.83         6.3 0.32            112            300 159 
                                                                                
