 2012  1 5 0718 45.4 L   6.702 -73.197148.0  RSN  4 0.3 1.3LRSN                1
 GAP=224        0.67       7.6     8.7  7.9  0.3902E+02  0.5371E+01  0.1582E+01E
 Epicentro: VILLANUEVA - SANTANDER                                             3
 ACTION:UP  12-02-03 08:14 OP:REBC STATUS:               ID:20120105071845 L   I
 2012-01-05-0710-00M.COL___189                                                 6
 STAT SP IPHASW D HRMM SECON CODA AMPLIT PERI AZIMU VELO SNR AR TRES W  DIS CAZ7
 BAR2 SZ EP   1    719  4.87                             175    -0.3 7   12 172 
 BAR2 SZ I         719 11.54         3.9 0.54                            12 172 
 BAR2 SZ ES   2    719 19.97                             175    -0.6 5   12 172 
 BRR  HZ EP   1    719  6.78                             153    -0.1 7   72 308 
 BRR  HE ES   1    719 24.13                             153     0.5 7   72 308 
 RUS  HZ EP   1    719  9.11                             147     0.4 7   90 172 
 RUS  HN ES   1    719 26.96                             147     0.1 7   90 172 
 PTB  HZ EP   1    719 11.72                             134    -0.2 7  140 263 
 PTB  HN ES   2    719 32.44                             134    -0.2 5  140 263 
                                                                                
