 2016 11 5 0943 37.2 L   6.802 -73.138149.0  RSN  6 0.4 1.6LRSN                1
 GAP=153        0.86       5.3     5.3  6.6  0.2613E+01  0.4317E+01  0.2480E+01E
 Epicentro: LOS SANTOS - SANTANDER                                             3
 ACTION:UPD 17-10-26 21:04 OP:lp   STATUS:               ID:20161105094337 L   I
 OLDACT:REG 16-11-05 14:23 OP:dani STATUS:               ID:20161105093743     3
 2016-11-05-0938-00M.COL___346                                                 6
 STAT SP IPHASW D HRMM SECON CODA AMPLIT PERI AZIMU VELO AIN AR TRES W  DIS CAZ7
 BAR2 EZ EP        943 57.18                             171   -0.0510 23.7 192 
 BAR2 EZ ES        944 12.49                             171   -0.3610 23.7 192 
 BAR2 EZ I         944 13.42         9.8 0.22            173           23.7 192 
 BRR  HZ EP        943 59.00                             153    0.2610 71.9 298 
 BRR  HE ES        944 16.04                             153    0.5110 71.9 298 
 BRR  HZ I         944 18.22         8.6 0.38            151           71.9 298 
 PAM  EZ EP   2    943 59.53                             152   -0.19 5 76.7  39 
 PAM  EE ES   4    944 14.97                             152   -2.31 0 76.7  39 
 PAM  EZ I         944 20.00         6.5 0.48            151           76.7  39 
 PTB  HZ EP        944  3.91                             133   -0.61 9  149 259 
 PTB  HE ES        944 25.68                             133   -0.14 9  149 259 
 PTB  HZ I         944 26.89         3.9 0.40            133            149 259 
 SPBC HZ EP        944  6.41                             130    0.39 9  164 219 
 SPBC HN ES        944 28.68                             130    0.18 9  164 219 
 SPBC HZ I         944 30.62         6.3 0.26            131            164 219 
 ZAR  HZ EP   2    944 10.51                             123    0.57 4  205 292 
 ZAR  HE ES        944 35.14                             123   -0.33 9  205 292 
 ZAR  HZ I         944 40.73         3.2 0.52            123            205 292 
                                                                                
