 2017  2 5 0456 57.8 L   6.789 -73.157144.0  RSN 11 0.4 1.6LRSN                1
 GAP=136        0.93       4.4     4.0  6.9 -0.1820E+01  0.7659E+01  0.1513E+01E
 Epicentro: LOS SANTOS - SANTANDER                                             3
 ACTION:UPD 17-05-24 15:32 OP:jn   STATUS:               ID:20170205045657 L   I
 OLDACT:UP  17-02-05 15:20 OP:dnl  STATUS:               ID:20170205044748d    3
 OLDACT:UP  17-02-05 15:19 OP:dnl  STATUS:               ID:20170205044748d    3
 OLDACT:DUP 17-02-05 15:16 OP:dnl  STATUS:               ID:20170205044748d    3
 OLDACT:UP  17-02-05 15:15 OP:dnl  STATUS:               ID:20170205044746d    3
 OLDACT:DUP 17-02-05 15:10 OP:dnl  STATUS:               ID:20170205044746d    3
 2017-02-05-0448-00M.COL___322                                                 6
 STAT SP IPHASW D HRMM SECON CODA AMPLIT PERI AZIMU VELO AIN AR TRES W  DIS CAZ7
 BAR2 EZ EP        457 17.10                             171   -0.0810 21.9 187 
 BAR2 EZ ES        457 32.17                             171   -0.1410 21.9 187 
 BAR2 EZ I         457 33.18        13.8 0.26            167           21.9 187 
 BRR  HZ IP     C  457 18.90                             153    0.1810 70.6 300 
 BRR  HE ES        457 35.88                             153    0.8410 70.6 300 
 BRR  HZ I         457 39.97         6.7 0.14            148           70.6 300 
 PAM  EZ EP        457 19.84                             150   -0.0910 79.1  40 
 PAM  EN ES        457 36.73                             150   -0.4610 79.1  40 
 PAM  EZ I         457 38.78         5.0 0.26            154           79.1  40 
 RUS  HZ EP   2    457 21.23                             144   -0.06 5 99.5 175 
 RUS  HN ES        457 40.02                             144    0.4010 99.5 175 
 RUS  HZ I         457 40.92         5.1 0.38            143           99.5 175 
 PTB  HZ EP   2    457 24.16                             132   -0.32 5  146 259 
 PTB  HE ES        457 45.10                             132   -0.19 9  146 259 
 PTB  HZ I         457 51.74         4.0 0.34            129            146 259 
 ZAR  HZ EP   4    457 31.09                             122    1.04 0  203 293 
 ZAR  HN ES        457 55.03                             122   -0.17 9  203 293 
 ZAR  HZ I         458  0.66         5.5 0.46            120            203 293 
 NOR  HZ EP   2    457 33.87                             119    0.64 4  233 235 
 NOR  HE ES        458  0.11                             119   -0.76 8  233 235 
 NOR  HZ I         458  5.66         3.9 0.26            117            233 235 
 CHI  HZ EP   2    457 35.45                             117    0.22 4  247 195 
 CHI  HE ES   4    458  5.62                             117    1.19 0  247 195 
 CHI  HZ I         458 11.53         1.3 0.30            116            247 195 
 URE  HZ EP   4    457 41.23                             114    2.54 0  283 292 
 URE  HE ES   4    458  9.22                             114   -1.37 0  283 292 
 URE  HZ I         458 20.40         3.6 0.20            112            283 292 
 CBOC HZ EP   2    457 45.23                             110    0.78 3  332 252 
 CBOC HN ES   4    458 19.52                             110   -1.32 0  332 252 
 CBOC HZ I         458 27.96         0.8 0.32            109            332 252 
 SJC  HZ EP   4    457 51.29                             106   -2.04 0  410 327 
 SJC  HN ES   4    458 33.27                             106   -3.38 0  410 327 
 SJC  HZ I         458 35.89         1.5 0.64            105            410 327 
                                                                                
