 2017 12 5 0800 56.1 L   6.800 -73.135144.4  RSN  6 0.3 1.5LRSN                1
 GAP=184        0.73       3.0     4.1  5.5  0.1872E+01  0.4745E+01 -0.3442E+01E
 Epicentro: LOS SANTOS - SANTANDER                                             3
 ACTION:UPD 18-01-04 13:17 OP:rebc STATUS:               ID:20171205080056 L   I
 OLDACT:UP  17-12-05 17:26 OP:dnl  STATUS:               ID:20171205075740     3
 OLDACT:REG 17-12-05 14:11 OP:y    STATUS:               ID:20171205075740     3
 2017-12-05-0758-00M.COL___479                                                 6
 STAT SP IPHASW D HRMM SECON CODA AMPLIT PERI AZIMU VELO AIN AR TRES W  DIS CAZ7
 BAR2 EZ EP        8 1 15.47                             170   -0.0710 23.6 193 
 BAR2 EZ ES        8 1 31.08                             170    0.3510 23.6 193 
 BAR2 EZ I         8 1 35.32        21.4 0.96            170           23.6 193 
 RUS  HZ EP        8 1 19.81                             144    0.1310  101 177 
 RUS  HE ES        8 1 37.88                             144   -0.2210  101 177 
 RUS  HZ I         8 1 38.73         1.9 0.40            149            101 177 
 PTB  HZ EP        8 1 22.53                             131   -0.50 9  149 259 
 PTB  HN ES        8 1 44.00                             131   -0.07 9  149 259 
 PTB  HZ I         8 1 46.12         2.9 0.28            133            149 259 
 OCA  HZ EP        8 1 24.60                             129    0.32 9  160 353 
 OCA  HN ES        8 1 45.86                             129   -0.44 9  160 353 
 OCA  HZ I         8 1 48.30         5.9 0.12            132            160 353 
 SPBC HZ EP        8 1 24.56                             129    0.03 9  164 219 
 SPBC HN ES   4    8 1 45.05                             129   -1.69 0  164 219 
 SPBC HZ I         8 1 47.96         3.0 0.26            131            164 219 
 ZAR  HZ EP        8 1 28.88                             122    0.34 9  205 292 
 ZAR  HN ES        8 1 54.05                             122    0.18 9  205 292 
 ZAR  HZ I         8 2  4.83         3.2 0.50            123            205 292 
                                                                                
