 2012  4 5 0238  5.3 L   6.751 -73.155140.8  RSN  6 0.3 1.6LRSN                1
 GAP=138        0.75       5.0     4.4  8.8  0.1785E+01  0.6429E+01  0.4349E+01E
 Epicentro: LOS SANTOS - SANTANDER                                             3
 ACTION:UPD 12-07-05 11:50 OP:tino STATUS:               ID:20120405023805 L   I
 2012-04-05-0235-59S.COL___204                                                 6
 STAT SP IPHASW D HRMM SECON CODA AMPLIT PERI AZIMU VELO AIN AR TRES W  DIS CAZ7
 BAR2 SZ EP   1    238 24.54                             172     0.3 7   18 190 
 BAR2 SZ I         238 24.89        10.5 0.11                            18 190 
 BRR  HZ EP   1    238 26.34                             151     0.3 7   73 303 
 BRR  HZ I         238 26.74        10.4 0.11                            73 303 
 BRR  HN ES   1    238 42.60                             151     0.4 7   73 303 
 PAM  SZ EP   1    238 27.44                             148     0.1 7   82  38 
 PAM  SZ I         238 27.71         7.2 0.17                            82  38 
 PAM  SN ES   1    238 43.98                             148    -0.5 7   82  38 
 RUS  HZ EP   1    238 27.91                             144    -0.3 7   95 175 
 RUS  HN ES   1    238 46.20                             144     0.2 7   95 175 
 RUS  HZ I         238 48.48         5.3 0.29                            95 175 
 PTB  HZ EP   1    238 31.61                             131    -0.1 7  146 261 
 PTB  HN ES   1    238 51.82                             131    -0.5 7  146 261 
 PTB  HZ I         238 55.43         3.6 0.25                           146 261 
 ZAR  HN ES   1    239  2.66                             121    -0.1 6  205 294 
                                                                                
