 2012  9 5 1430 48.8 L   6.233 -73.706103.7  RSN 10 0.5 2.6LRSN                1
 GAP= 67        1.00       3.8     3.5  8.2 -0.1923E+01  0.1800E+01  0.1196E+02E
 Epicentro: LANDAZURI - SANTANDER                                              3
 ACTION:UPD 12-10-22 14:17 OP:ep   STATUS:               ID:20120905143048 L   I
 2012-09-05-1430-00M.COL___218                                                 6
 STAT SP IPHASW D HRMM SECON CODA AMPLIT PERI AZIMU VELO AIN AR TRES W  DIS CAZ7
 BAR2 SZ IP     C 1431  6.11                             143    0.2310 70.2  56 
 BAR2 SZ I        1431  6.15       157.8 0.30                          70.2  56 
 BAR2 SZ ES   1   1431 19.41                             143    0.21 7 70.2  56 
 RUS  HZ EP       1431  6.69                             140   -0.1810 78.6 119 
 RUS  HN ES   1   1431 20.17                             140   -0.78 7 78.6 119 
 PTB  HN ES   1   1431 20.55                             135   -0.83 7 89.6 292 
 BRR  HZ IP     D 1431  7.78                             133    0.0810 96.6 360 
 BRR  HZ I        1431  7.99        65.7 0.12                          96.6 360 
 BRR  HE ES   1   1431 23.26                             133    0.83 7 96.6 360 
 NOR  SZ EP       1431 12.56                             120   -0.31 9  149 240 
 NOR  SN ES   1   1431 32.42                             120    0.78 7  149 240 
 PAM  SZ EP       1431 15.25                             117    0.02 9  165  42 
 PAM  SE ES   1   1431 35.49                             117   -0.35 7  165  42 
 YOP  SZ EP       1431 15.60                             116    0.09 9  172 124 
 YOP  SN ES   1   1431 36.92                             116    0.58 7  172 124 
 YOP  SZ I        1431 37.85        38.4 0.22                           172 124 
 CHI  HZ EP   1   1431 16.06                             115   -0.39 7  177 181 
 CHI  HN ES   3   1431 37.82                             115   -0.18 2  177 181 
 ANIL HZ EP   3   1431 25.99                             105   -0.85 2  269 224 
 ANIL HZ I        1432  2.16        28.3 0.28                           269 224 
 PRA  HZ EP       1431 30.67                             102   -0.44 7  308 205 
 PRA  HN ES   1   1432  5.24                             102    1.15 5  308 205 
                                                                                
