 2010 10 5 1639 52.7 L   6.792 -73.107148.8  RSN 18 0.5 3.7LRSN                1
 GAP=139        1.15       3.3     5.2  6.0 -0.5951E+01  0.5259E+01  0.4041E+01E
 Epicentro: LOS SANTOS - SANTANDER                                             3
 ACTION:UP  11-02-18 11:07 OP:tino STATUS:               ID:20101005163952 L   I
 2010-10-05-1637-07S.COL___122                                                 6
 STAT SP IPHASW D HRMM SECON CODA AMPLIT PERI AZIMU VELO SNR AR TRES W  DIS CAZ7
 BAR2 SZ EP       1640 12.54                             171    -0.210   24 201 
 BAR2 SZ ES   1   1640 28.02                             171    -0.3 7   24 201 
 BAR2 SZ I        1640 28.84      1051.2 0.22                            24 201 
 BRR  HZ IP     C 1640 14.47                             152     0.010   75 298 
 BRR  HZ I        1640 14.85      1380.4 0.52                            75 298 
 BRR  HN ES       1640 31.93                             152     0.510   75 298 
 RUS  HZ EP       1640 16.34                             145    -0.410  100 179 
 RUS  HN ES       1640 35.13                             145    -0.310  100 179 
 RUS  HZ I        1640 37.11       505.1 1.01                           100 179 
 GUE  SZ EP       1640 17.68                             140     0.010  117  10 
 GUE  SZ I        1640 39.31        92.1 0.29                           117  10 
 GRA  SZ EP       1640 18.40                             138     0.210  125  15 
 GRA  SZ ES       1640 38.13                             138     0.010  125  15 
 GRA  SZ I        1640 41.00       558.5 0.46                           125  15 
 OCA  SZ EP       1640 21.09                             130    -0.3 9  162 352 
 OCA  SZ ES   2   1640 44.01                             130     0.2 5  162 352 
 OCA  SZ I        1640 48.95       841.7 0.21                           162 352 
 YOP  SZ EP       1640 22.99                             127     0.3 9  176 154 
 NOR  SZ EP       1640 28.35                             119    -0.6 8  238 235 
 NOR  SN ES       1640 56.32                             119    -0.9 8  238 235 
 CHI  HZ EP       1640 30.34                             118    -0.3 8  249 196 
 CHI  HN ES       1641  0.79                             118     0.6 8  249 196 
 CHI  HZ I        1641  5.95       174.7 1.24                           249 196 
 ROSC BZ EP       1640 32.07                             117     0.9 8  254 212 
 ROSC BN ES       1641  1.50                             117     0.3 8  254 212 
 ROSC BZ I        1641  6.36       360.7 0.43                           254 212 
 CVER SZ EP       1640 33.77                             115     0.4 8  273 203 
 HEL  HZ EP       1640 33.09                             115    -0.4 7  276 256 
 HEL  HN ES   1   1641  6.30                             115     0.9 6  276 256 
 HEL  HZ I        1641 11.68       222.3 0.40                           276 256 
 RREF HZ EP   1   1640 39.62                             111     0.3 5  324 230 
 RREF HN ES   1   1641 14.99                             111    -0.7 5  324 230 
 RREF HZ I        1641 21.95       269.7 0.39                           324 230 
 DBB  SZ EP       1640 40.28                             110    -0.5 7  344 274 
 TOL  SZ EP       1640 41.81                             110     0.4 6  346 225 
 ANIL HZ EP       1640 43.87                             109     0.9 6  360 225 
 ANIL HN ES   2   1641 21.97                             109    -0.1 3  360 225 
 ANIL HZ I        1641 29.43       533.9 0.37                           360 225 
 PRA  HZ EP       1640 46.06                             107    -0.5 6  393 210 
 PRA  HN ES       1641 28.37                             107    -0.1 6  393 210 
 PRA  HZ I        1641 32.85       336.9 0.15                           393 210 
 GUA  SZ EP   2   1640 54.70                             104    -1.1 2  473 174 
                                                                                
