 2012  5 5 1646  7.7 L   7.316 -73.452100.9  RSN  5 0.5 1.5LRSN                1
 GAP=171        1.03      10.2     4.8 10.4 -0.7484E+01  0.9108E+01  0.5806E+01E
 Epicentro: SABANA DE TORRES - SANTANDER                                       3
 ACTION:UP  12-07-05 12:02 OP:pat  STATUS:               ID:20120505164607 L   I
 2012-05-05-1640-00M.COL___192                                                 6
 STAT SP IPHASW D HRMM SECON CODA AMPLIT PERI AZIMU VELO SNR AR TRES W  DIS CAZ7
 BRR  HZ EP       1646 21.87                             158    -0.210   37 231 
 BRR  HN ES   1   1646 33.31                             158     0.0 7   37 231 
 BRR  HZ I        1646 34.84        15.0 0.14                            37 231 
 PAM  SZ EP   1   1646 25.64                             138    -0.2 7   83  88 
 PAM  SN ES   1   1646 40.18                             138     0.2 7   83  88 
 PTB  HZ EP   1   1646 29.70                             121    -0.9 7  140 232 
 PTB  HN ES   1   1646 48.67                             121     0.1 7  140 232 
 PTB  HZ I        1646 52.47         3.7 0.32                           140 232 
 ZAR  HZ EP   1   1646 32.49                             118     0.1 7  156 277 
 ZAR  HN ES   1   1646 52.15                             118     0.5 7  156 277 
 ZAR  HZ I        1646 54.53         4.9 0.05                           156 277 
 RUS  HZ EP   1   1646 34.45                             117     0.8 7  163 165 
                                                                                
