 2016  4 5 2033 42.5 L   6.809 -73.118147.2  RSN  8 0.6 1.9LRSN                1
 GAP=121        1.29       5.1     4.7  7.8 -0.8181E+01  0.2945E+01 -0.1806E+00E
 Epicentro: LOS SANTOS - SANTANDER                                             3
 ACTION:UPD 16-05-05 14:18 OP:rebc STATUS:               ID:20160405203342 L   I
 OLDACT:DUP 16-04-06 03:54 OP:ak   STATUS:               ID:20160405202746d    3
 2016-04-05-2027-45M.COL___307                                                 6
 STAT SP IPHASW D HRMM SECON CODA AMPLIT PERI AZIMU VELO AIN AR TRES W  DIS CAZ7
 BAR2 EZ EP       2034  2.70                             170    0.4110 25.0 197 
 BAR2 EZ ES       2034 17.91                             170    0.1510 25.0 197 
 BAR2 EZ I        2034 18.90        43.3 0.20            171           25.0 197 
 PAM  EZ IP     C 2034  5.39                             152    0.7310 74.7  38 
 PAM  EN ES       2034 22.61                             152    0.6310 74.7  38 
 PAM  EZ I        2034 24.85        10.2 0.34            153           74.7  38 
 RUS  HZ EP       2034  6.52                             144    0.1210  101 178 
 RUS  HN ES       2034 24.73                             144   -0.3610  101 178 
 RUS  HZ I        2034 26.48         9.8 0.22            147            101 178 
 PTB  HZ EP       2034  9.62                             132   -0.21 9  151 259 
 PTB  HN ES       2034 30.38                             132   -0.80 9  151 259 
 PTB  HZ I        2034 36.07         8.1 0.30            132            151 259 
 ZAR  HZ EP   2   2034 15.97                             123    0.72 4  207 292 
 ZAR  HE ES       2034 40.04                             123   -0.78 8  207 292 
 ZAR  HZ I        2034 47.59         8.0 0.32            123            207 292 
 CHI  HZ EP       2034 20.46                             117    0.04 8  250 196 
 CHI  HE ES       2034 49.60                             117   -0.44 8  250 196 
 CHI  HZ I        2034 52.34         3.4 0.32            119            250 196 
 SOCV BZ EP       2034 24.70                             113   -0.51 7  298  57 
 SOCV BN ES       2034 57.67                             113   -0.89 7  298  57 
 GUY2CHZ EP   2   2034 27.41                             113    0.93 4  304 235 
 GUY2CHE ES       2035  1.77                             113    0.96 7  304 235 
 GUY2CHZ I        2035 14.81         3.6 0.54                           304 235 
                                                                                
