 2016 10 6 0139  5.1 L   6.799 -73.139142.0  RSN 12 0.6 1.8LRSN                1
 GAP=137        1.31       5.1     5.0  7.2 -0.2834E+01  0.1178E+02  0.4480E+01E
 Epicentro: LOS SANTOS - SANTANDER                                             3
 ACTION:UPD 16-11-09 19:16 OP:rebc STATUS:               ID:20161006013905 L   I
 OLDACT:DUP 16-10-06 14:38 OP:dnl  STATUS:               ID:20161006013747d    3
 OLDACT:UP  16-10-06 14:29 OP:dnl  STATUS:               ID:20161006013744     3
 OLDACT:UP  16-10-06 14:26 OP:dnl  STATUS:               ID:20161006013744     3
 OLDACT:REG 16-10-06 13:02 OP:dnl  STATUS:               ID:20161006013744     3
 2016-10-06-0138-00M.COL___360                                                 6
 STAT SP IPHASW D HRMM SECON CODA AMPLIT PERI AZIMU VELO AIN AR TRES W  DIS CAZ7
 BAR2 EZ EP        139 23.66                             170   -0.6210 23.4 192 
 BAR2 EZ ES        139 38.98                             170   -0.2610 23.4 192 
 BAR2 EZ I         139 40.42        18.4 0.34            167           23.4 192 
 BRR  HZ EP        139 26.20                             152    0.3210 71.9 298 
 BRR  HE ES        139 43.22                             152    1.1210 71.9 298 
 BRR  HZ I         139 44.42        13.5 0.16            146           71.9 298 
 PAM  EZ EP     C  139 27.12                             150    0.2310 76.9  39 
 PAM  EE ES        139 43.47                             150   -0.4110 76.9  39 
 PAM  EZ I         139 47.93         4.9 0.44            154           76.9  39 
 RUS  HZ EP        139 28.55                             143    0.0810  100 176 
 RUS  HE ES        139 46.90                             143    0.1910  100 176 
 RUS  HZ I         139 47.70         6.3 0.22            145            100 176 
 PTB  HZ EP        139 31.12                             131   -0.71 9  149 259 
 PTB  HN ES        139 52.09                             131   -0.59 9  149 259 
 PTB  HZ I         139 56.79         8.5 0.14            128            149 259 
 SPBC HZ EP        139 33.22                             128   -0.14 9  164 219 
 SPBC HE ES        139 56.01                             128    0.62 9  164 219 
 SPBC HZ I         140  0.12        10.1 0.10            127            164 219 
 ZAR  HZ EP   2    139 38.30                             122    0.92 4  205 292 
 ZAR  HN ES        140  2.87                             122    0.31 9  205 292 
 ZAR  HZ I         140  9.47         7.8 0.32            120            205 292 
 NOR  HZ EP        139 40.78                             118    0.10 8  235 235 
 NOR  HE ES        140  8.05                             118   -0.38 8  235 235 
 NOR  HZ I         140 15.85         7.5 0.22            117            235 235 
 HEL  HZ EP   4    139 47.10                             114    1.89 0  273 256 
 HEL  HN ES        140 15.77                             114   -0.72 8  273 256 
 HEL  HZ I         140 32.47         2.7 0.32            113            273 256 
 URE  HZ EP        139 45.39                             113   -0.68 7  285 292 
 URE  HN ES   4    140 16.65                             113   -1.38 0  285 292 
 URE  HZ I         140 30.53         5.5 0.14            112            285 292 
 GUY2CHZ EP        139 49.56                             112    0.95 7  302 235 
 GUY2CHE ES   4    140 25.44                             112    2.90 0  302 235 
 GUY2CHZ I         140 31.04         3.1 0.40                           302 235 
 PRA  HZ EP        139 59.04                             106    0.51 6  392 210 
 PRA  HE ES   4    140 41.96                             106    1.75 0  392 210 
 PRA  HZ I         140 47.65         3.4 0.42            106            392 210 
                                                                                
