 2015  8 6 0222 40.0 L   6.535 -73.487115.3  RSN  5 0.2 1.5LRSN                1
 GAP=259        0.45       3.7     3.4  4.1  0.2211E+01  0.2438E+01 -0.3352E+01E
 Epicentro: EL CARMEN - SANTANDER                                              3
 ACTION:UPD 15-09-15 23:00 OP:cam  STATUS:               ID:20150806022240 L   I
 OLDACT:DUP 15-08-06 15:01 OP:spq  STATUS:               ID:20150806021751d    3
 2015-08-06-0217-49M.COL___355                                                 6
 STAT SP IPHASW D HRMM SECON CODA AMPLIT PERI AZIMU VELO AIN AR TRES W  DIS CAZ7
 BAR2 EZ EP        222 56.56                             162    0.2610 34.3  79 
 BAR2 EZ ES   1    223  8.87                             162   -0.16 7 34.3  79 
 BAR2 EZ I         223 10.12        14.8 0.46            161           34.3  79 
 BRR  HZ EP        222 57.47                             147   -0.2510 68.0 339 
 BRR  HE ES        223 11.63                             147    0.0810 68.0 339 
 BRR  HZ I         223 13.09         6.2 0.38            143           68.0 339 
 PAM  EN ES        223 20.94                             130   -0.0310  124  44 
 PAM  EZ I         223 22.67         2.2 0.18            128            124  44 
 OCA  HZ EP   1    223  9.14                             117   -0.08 7  189   6 
 SML  HZ EP   1    223 16.84                             109    0.01 6  259 346 
 SML  HE ES   1    223 45.73                             109    0.16 6  259 346 
 SML  HZ I         223 51.48         5.3 0.10            108            259 346 
                                                                                
