 2016  5 6 0636 30.3 L   6.392 -73.293  4.0  RSN 13 0.4 1.8LRSN                1
 GAP= 69        1.05       1.8     2.0  4.6 -0.4819E+00  0.5289E+00 -0.3188E+00E
 Epicentro: PALMAS DEL SOCORRO - SANTANDER                                     3
 ACTION:UPD 16-08-18 17:42 OP:cam  STATUS:               ID:20160506063630 L   I
 OLDACT:DUP 16-05-06 16:54 OP:ak   STATUS:               ID:20160506062745d    3
 OLDACT:REG 16-05-06 13:43 OP:ak   STATUS:               ID:20160506062744     3
 2016-05-06-0627-44M.COL___292                                                 6
 STAT SP IPHASW D HRMM SECON CODA AMPLIT PERI AZIMU VELO AIN AR TRES W  DIS CAZ7
 BAR2 EZ I      D  628 20.32                                           25.3  29 
 BAR2 EZ IP     D  636 34.83                              47   -0.1010 25.3  29 
 BAR2 EZ ES        636 38.09                              47   -0.4910 25.3  29 
 BAR2 EZ I         636 39.39       106.4 0.12             95           25.3  29 
 RUS  HZ IP     D  636 40.13                              47   -0.3010 59.9 157 
 RUS  HN ES        636 48.03                              47   -0.3410 59.9 157 
 RUS  HZ I         636 48.09        17.0 0.11             47           59.9 157 
 BRR  HZ IP     D  636 44.94                              47    0.2110 91.6 330 
 BRR  HN ES        636 56.24                              47    0.2110 91.6 330 
 BRR  HZ I         637  2.28        26.3 0.10             47           91.6 330 
 SPBC HZ EP        636 49.04                              47    0.0910  119 227 
 SPBC HN ES        637  3.42                              47   -0.1110  119 227 
 SPBC HZ I         637 10.50        19.0 0.21             47            119 227 
 PAM  EZ EP        636 49.58                              47   -0.5110  124  32 
 PAM  EN ES   4    637  3.96                              47   -1.60 0  124  32 
 PAM  EZ I         637  4.92        43.0 0.18             47            124  32 
 PTB  HZ EP        636 50.70                              47    0.1910  130 277 
 PTB  HN ES        637  6.19                              47   -0.1210  130 277 
 PTB  HZ I         637  7.67        57.6 0.13             47            130 277 
 TAM  HN ES        637 16.91                              47    0.69 9  166  88 
 NOR  HZ EP        637  1.04                              37    0.84 9  197 242 
 NOR  HN ES        637 23.01                              37   -0.56 9  197 242 
 NOR  HZ I         637 26.22         6.5 0.15             37            197 242 
 CHI  HZ EP        637  1.99                              37    0.88 9  201 194 
 CHI  HE ES   4    637 27.94                              37    2.76 0  201 194 
 OCA  HZ EP        637  1.34                              37    0.11 9  204 359 
 OCA  HN ES        637 25.61                              37    0.22 9  204 359 
 ZAR  HZ EP   2    637  1.67                              37   -0.28 4  211 305 
 ZAR  HN ES   4    637 24.30                              37   -2.37 0  211 305 
 ZAR  HZ I         637 29.34         7.3 0.38             37            211 305 
 HEL  HZ EP        637  6.42                              37   -0.58 8  248 265 
 HEL  HN ES   4    637 34.11                              37   -1.55 0  248 265 
 HEL  HZ I         637 36.22         2.8 0.12             37            248 265 
 PRA  HZ EP   4    637 13.05                              36   -5.52 0  345 211 
 PRA  HE ES   4    638  3.03                              36    6.76 0  345 211 
 PRA  HZ I         638 16.21         1.7 0.41             36            345 211 
                                                                                
