 2015  5 6 0309 25.3 L   6.902 -72.938138.2  RSN  6 0.5 1.7LRSN                1
 GAP=204        1.13       5.0    12.2  8.6  0.3148E+02 -0.2630E+02 -0.1926E+02E
 Epicentro: GUACA - SANTANDER                                                  3
 ACTION:UPD 15-09-10 22:01 OP:cam  STATUS:               ID:20150506030925 L   I
 OLDACT:UP  15-05-11 07:44 OP:AK   STATUS:               ID:20150506030925 L   3
 OLDACT:REG 15-05-06 12:04 OP:drio STATUS:               ID:20150506030747     3
 2015-05-06-0307-47M.COL___276                                                 6
 STAT SP IPHASW D HRMM SECON CODA AMPLIT PERI AZIMU VELO AIN AR TRES W  DIS CAZ7
 BAR2 EZ EP        3 9 44.67                             162   -0.0110 43.6 218 
 BAR2 EZ ES        310  0.10                             162    0.3410 43.6 218 
 BRR  HZ EP        3 9 46.73                             146   -0.0610 88.4 285 
 BRR  HE ES        310  3.73                             146    0.2110 88.4 285 
 BRR  HZ I         310  9.15         5.9 0.14            113           88.4 285 
 RUS  HZ EP        3 9 49.47                             139    0.1610  113 188 
 RUS  HE ES        310  7.29                             139   -0.7110  113 188 
 RUS  HZ I         310  9.12         4.5 0.18            114            113 188 
 OCA  HZ EP        3 9 53.11                             129    0.65 9  154 344 
 OCA  HN ES        310 13.65                             129    0.05 9  154 344 
 OCA  HZ I         310 20.61        11.0 0.32            109            154 344 
 ZAR  HZ EP        3 9 59.72                             118    0.52 8  222 287 
 ZAR  HZ I         310 27.82         5.9 0.56            101            222 287 
 SML  HZ EP        310  1.16                             116   -0.48 8  244 329 
 SML  HN ES        310 28.97                             116   -0.97 8  244 329 
                                                                                
