 2013  3 6 0307 10.1 L   6.722 -73.207153.1  RSN  5 0.3 1.4LRSN                1
 GAP=222        0.63       5.2     5.0  5.5  0.1453E+02  0.2819E+01  0.8484E+00E
 Epicentro: VILLANUEVA - SANTANDER                                             3
 ACTION:UPD 13-04-09 14:00 OP:ep   STATUS:               ID:20130306030710 L   I
 2013-03-06-0300-00M.COL___228                                                 6
 STAT SP IPHASW D HRMM SECON CODA AMPLIT PERI AZIMU VELO AIN AR TRES W  DIS CAZ7
 BAR2 SZ EP   2    3 7 29.90                             174   -0.55 5 14.6 169 
 BAR2 SZ ES   1    3 7 45.93                             174   -0.42 7 14.6 169 
 BAR2 SZ I         3 7 46.85         7.9 0.38            178           14.6 169 
 BRR  HZ IP        3 7 31.90                             154   -0.0710 70.2 307 
 BRR  HN ES        3 7 49.36                             154    0.3110 70.2 307 
 BRR  HZ I         3 7 57.94         5.1 0.64            153           70.2 307 
 RUS  HZ EP        3 7 34.14                             148    0.1210 92.7 172 
 RUS  HN ES        3 7 52.91                             148    0.2010 92.7 172 
 RUS  HZ I         3 7 54.30         2.1 0.40            154           92.7 172 
 PTB  HZ EP        3 7 36.93                             136   -0.01 9  140 262 
 PTB  HN ES        3 7 57.60                             136   -0.30 9  140 262 
 PTB  HZ I         3 8  1.33         2.9 0.16            138            140 262 
 ZAR  HN ES   2    3 8  8.67                             124    0.47 4  201 295 
                                                                                
