 2015  4 6 0258 53.2 L   6.816 -73.168138.0  RSN  7 0.3 1.4LRSN                1
 GAP=133        0.73       2.7     3.1  4.8 -0.1725E+00  0.3009E+01 -0.1851E+01E
 Epicentro: LOS SANTOS - SANTANDER                                             3
 ACTION:UPD 15-06-03 16:52 OP:cam  STATUS:               ID:20150406025853 L   I
 OLDACT:UP  15-04-06 15:12 OP:mh   STATUS:               ID:20150406025748     3
 OLDACT:UP  15-04-06 14:15 OP:mh   STATUS:               ID:20150406025748     3
 OLDACT:REG 15-04-06 12:48 OP:mher STATUS:               ID:20150406025748     3
 2015-04-06-0257-48M.COL___261                                                 6
 STAT SP IPHASW D HRMM SECON CODA AMPLIT PERI AZIMU VELO AIN AR TRES W  DIS CAZ7
 BAR2 EZ EP   1    259 12.26                             169    0.33 7 24.8 184 
 BAR2 EZ ES        259 26.11                             169   -0.4310 24.8 184 
 BAR2 EZ I         259 28.11         6.9 0.24            172           24.8 184 
 BRR  HZ EP        259 13.21                             152   -0.1310 68.1 298 
 BRR  HN ES        259 29.19                             152    0.1510 68.1 298 
 BRR  HZ I         259 33.02         6.1 0.26            152           68.1 298 
 PAM  SZ EP        259 15.00                             149    0.3910 77.6  42 
 PAM  SN ES        259 31.48                             149    0.1710 77.6  42 
 PAM  SZ I         259 33.32         5.4 0.70            151           77.6  42 
 RUS  HZ EP        259 16.30                             142   -0.0510  103 175 
 RUS  HN ES        259 34.52                             142    0.1210  103 175 
 RUS  HZ I         259 36.35         1.8 0.18            146            103 175 
 PTB  HZ EP        259 18.84                             131   -0.51 9  146 258 
 PTB  HN ES        259 39.88                             131    0.13 9  146 258 
 PTB  HZ I         259 42.60         3.5 0.10            133            146 258 
 OCA  HZ EP        259 20.45                             128   -0.27 9  158 354 
 OCA  HN ES        259 41.90                             128   -0.28 9  158 354 
 OCA  HZ I         259 47.76         5.9 0.34            130            158 354 
 ZAR  HZ EP   1    259 25.17                             121    0.33 6  201 292 
 ZAR  HN ES        259 49.82                             121    0.31 9  201 292 
 ZAR  HZ I         259 52.91         2.9 0.15            123            201 292 
                                                                                
