 2014 10 6 0701 42.5 L   6.794 -73.156144.5  RSN 11 0.4 1.5LRSN                1
 GAP=182        0.86       3.8     5.3  7.5  0.2176E+01  0.6316E+01  0.9089E+01E
 Epicentro: LOS SANTOS - SANTANDER                                             3
 ACTION:UPD 14-11-29 23:47 OP:nd   STATUS:               ID:20141006065750 L   I
 OLDACT:UPD 14-10-06 15:05 OP:SPQ  STATUS:               ID:20141006065750 L   3
 2014-10-06-0657-50M.COL___286                                                 6
 STAT SP IPHASW D HRMM SECON CODA AMPLIT PERI AZIMU VELO AIN AR TRES W  DIS CAZ7
 BAR2 SZ EP   1    7 2  2.10                             171    0.17 7 22.4 187 
 BAR2 SZ ES   1    7 2 17.22                             171    0.11 7 22.4 187 
 BAR2 SZ I         7 2 20.17         7.4 0.28            168           22.4 187 
 BRR  HZ EP   1    7 2  4.17                             153    0.72 7 70.5 299 
 BRR  HN ES        7 2 20.27                             153    0.4610 70.5 299 
 BRR  HZ I         7 2 23.68         5.2 0.30            151           70.5 299 
 RUS  HZ EP   1    7 2  5.77                             144   -0.28 7100.0 175 
 RUS  HN ES   1    7 2 24.08                             144   -0.37 7100.0 175 
 RUS  HZ I         7 2 26.43         3.1 0.32            144          100.0 175 
 PTB  HN ES   1    7 2 29.39                             132   -0.69 7  146 259 
 PTB  HZ I         7 2 32.80         3.1 0.10            131            146 259 
 OCA  HN ES   1    7 2 32.05                             129   -0.74 7  161 354 
 OCA  HZ I         7 2 35.94         2.8 0.16            132            161 354 
 SPBC HZ EP   1    7 2 11.17                             129    0.42 7  162 219 
 SPBC HN ES   1    7 2 32.90                             129    0.09 7  162 219 
 SPBC HZ I         7 2 39.36         2.9 0.14            129            162 219 
 ZAR  HN ES   1    7 2 39.54                             122   -0.39 6  203 292 
 ZAR  HZ I         7 2 45.53         3.8 0.38            123            203 292 
 CHI  HZ EP   1    7 2 20.02                             117    0.03 6  248 195 
 CHI  HN ES   1    7 2 48.83                             117   -0.43 6  248 195 
 CHI  HZ I         7 2 55.23         2.2 0.32            118            248 195 
 ROSC BN ES   4    7 2 51.98                             117    2.01 0  252 211 
 ROSC BZ I         7 2 56.93         4.7 0.35            117            252 211 
 GUY2CHZ EP   4    7 2 27.52                             112    1.65 0  300 235 
 GUY2CHN ES        7 2 59.89                             112    0.17 7  300 235 
 GUY2CHZ I         7 3  8.81         1.8 0.60                           300 235 
 MON  HN ES   4    7 3  7.35                             108   -2.16 0  353 309 
 MON  HZ I         7 3  9.77         0.7 0.26            109            353 309 
                                                                                
