 2012  3 6 0056 44.0 L   5.805 -73.774100.1  RSN  4 0.3 1.3LRSN                1
 GAP=234        0.65       5.9     4.5  8.9  0.1259E+02  0.1684E+02  0.3007E+01E
 ACTION:UP  12-03-31 23:17 OP:EP   STATUS:               ID:20120306005644 L   I
 2012-03-06-0050-00M.COL___191                                                 6
 STAT SP IPHASW D HRMM SECON CODA AMPLIT PERI AZIMU VELO SNR AR TRES W  DIS CAZ7
 RUS  HZ EP   1    057  1.71                             140     0.2 7   77  83 
 RUS  HN ES        057 15.29                             140     0.010   77  83 
 RUS  HZ I         057 18.51         1.5 0.24                            77  83 
 BAR2 SZ EP   1    057  4.33                             129     0.3 7  109  37 
 BAR2 SZ ES   1    057 19.30                             129    -0.3 7  109  37 
 BAR2 SZ I         057 22.22         8.5 0.29                           109  37 
 PTB  HZ EP   1    057  3.44                             129    -0.5 7  111 317 
 PTB  HN ES   1    057 19.65                             129     0.2 7  111 317 
 PTB  HZ I         057 21.48         0.0 0.19                           111 317 
 BRR  HZ EP   1    057  7.23                             121     0.0 7  144   3 
 BRR  HN ES   1    057 25.59                             121     0.2 7  144   3 
 BRR  HZ I         057 27.28         8.6 0.37                           144   3 
                                                                                
