 2010  3 6 0257 17.9 L   6.835 -73.029142.7  RSN 12 0.5 2.5LRSN                1
 GAP=134        1.13       4.0     6.1  6.6 -0.6584E+01  0.3027E+01  0.3839E+01E
 Epicentro: CEPITA - SANTANDER                                                 3
 ACTION:UP  10-08-24 09:52 OP:vdl  STATUS:               ID:20100306025717 L   I
 2010-03-06-0255-00S.COL___101                                                 6
 STAT SP IPHASW D HRMM SECON CODA AMPLIT PERI AZIMU VELO SNR AR TRES W  DIS CAZ7
 BAR2 SZ EP        257 37.31                             167     0.010   32 213 
 BAR2 SZ ES   1    257 51.98                             167    -0.6 7   32 213 
 BRR  HZ IP        257 39.10                             149    -0.210   81 292 
 BRR  HE ES        257 55.96                             149    -0.110   81 292 
 BRR  HZ I         257 56.78        69.4 0.08                            81 292 
 RUS  BZ EP        257 41.34                             142    -0.310  104 183 
 RUS  BN ES        258  0.40                             142     0.310  104 183 
 RUS  BZ I         258  1.82        26.2 0.27                           104 183 
 OCA  SZ EP        257 46.09                             129     0.3 9  159 348 
 OCA  SZ ES   1    258  8.17                             129     0.6 7  159 348 
 CHI  HZ EP        257 55.81                             116    -0.4 8  256 198 
 CHI  HN ES   2    258 25.84                             116    -0.3 4  256 198 
 CHI  HZ I         258 30.31        10.9 0.39                           256 198 
 ROSC BZ EP   1    257 57.28                             115     0.3 6  263 213 
 ROSC BN ES   1    258 28.48                             115     1.1 6  263 213 
 ROSC BZ I         258 31.89        21.4 0.66                           263 213 
 HEL  HZ EP        257 58.66                             113    -0.8 7  286 256 
 HEL  HN ES   1    258 31.08                             113    -0.8 6  286 256 
 HEL  HZ I         258 36.43        16.0 0.55                           286 256 
 RREF BZ EP   1    258  4.94                             109    -0.4 5  334 230 
 RREF BN ES        258 43.16                             109     0.8 7  334 230 
 RREF BZ I         258 45.74        12.1 0.87                           334 230 
 SDV  BZ EP        258  6.89                             108     0.5 6  348  49 
 SDV  BZ I         258  7.75        16.7 0.21                           348  49 
 TOL  SZ EP   1    258  7.52                             108     0.1 5  355 226 
 TOL  SZ ES   2    258 46.26                             108     0.2 3  355 226 
 ANIL BZ EP   1    258  9.21                             107     0.3 5  369 226 
 ANIL BN ES        258 49.70                             107     0.9 6  369 226 
 ANIL BZ I         258 55.56        28.3 0.21                           369 226 
 PRA  HZ EP   1    258 11.11                             105    -1.3 4  402 211 
 PRA  HN ES        258 54.80                             105    -0.2 6  402 211 
 PRA  HZ I         258 59.83        14.9 0.08                           402 211 
                                                                                
