 2011  7 6 1611 58.7 L   6.773 -73.082145.8  RSN  8 0.3 2.0LRSN                1
 GAP=163        0.53       2.9     5.9  4.6 -0.6085E+01  0.6434E+01 -0.4809E+00E
 Epicentro: LOS SANTOS - SANTANDER                                             3
 ACTION:UPD 12-07-25 13:58 OP:epov STATUS:               ID:20110706161158 L   I
 2011-07-06-1609-20S.COL___123                                                 6
 STAT SP IPHASW D HRMM SECON CODA AMPLIT PERI AZIMU VELO AIN AR TRES W  DIS CAZ7
 BAR2 SZ EP       1612 18.09                             171   -0.2010 22.8 209 
 BAR2 SZ ES   1   1612 33.32                             171   -0.28 7 22.8 209 
 BAR2 SZ I        1612 35.97        18.0 0.32                          22.8 209 
 BRR  HZ EP   1   1612 19.95                             150   -0.31 7 78.8 298 
 BRR  HZ I        1612 30.71        21.9 0.39                          78.8 298 
 BRR  HN ES   2   1612 37.15                             150    0.04 5 78.8 298 
 RUS  HZ EP   1   1612 22.03                             145   -0.16 7 97.4 180 
 RUS  HE ES   1   1612 40.98                             145    0.44 7 97.4 180 
 RUS  HZ I        1612 42.12        12.1 0.23                          97.4 180 
 BRI  SZ EP   1   1612 22.71                             141    0.11 7  109  17 
 BRI  SZ ES   2   1612 41.67                             141    0.40 5  109  17 
 BRI  SZ I        1612 48.54         9.9 0.49                           109  17 
 GRA  SZ EP   1   1612 23.90                             137   -0.09 7  127  14 
 GRA  SZ ES   1   1612 43.91                             137    0.16 7  127  14 
 GRA  SZ I        1612 44.86        11.3 0.28                           127  14 
 CHI  HZ EP   1   1612 36.23                             117   -0.03 6  248 197 
 CHI  HZ I        1613 11.19         7.7 0.38                           248 197 
 HEL  HZ EP   1   1612 40.14                             114    0.58 6  278 257 
 HEL  HZ I        1613 16.40        11.6 0.45                           278 257 
 GUY  SZ EP   2   1612 43.05                             112    0.05 4  308 236 
 GUY  SZ I        1613 25.31         8.6 0.42                           308 236 
                                                                                
