 2017  7 6 1126 30.6 L   6.729 -73.119141.8  RSN  6 0.3 1.7LRSN                1
 GAP=170        0.76       5.1     3.9  5.3 -0.3420E+01  0.3270E+01  0.1379E+01E
 Epicentro: JORDAN - SANTANDER                                                 3
 ACTION:UPD 17-08-30 15:30 OP:rebc STATUS:               ID:20170706112630 L   I
 OLDACT:UP  17-07-07 00:27 OP:ar   STATUS:               ID:20170706111739     3
 OLDACT:REG 17-07-06 22:27 OP:ar   STATUS:               ID:20170706111739     3
 2017-07-06-1118-00M.COL___371                                                 6
 STAT SP IPHASW D HRMM SECON CODA AMPLIT PERI AZIMU VELO AIN AR TRES W  DIS CAZ7
 BAR2 EZ EP       1126 49.64                             173    0.0610 16.6 205 
 BAR2 EZ ES       1127  4.42                             173   -0.0010 16.6 205 
 BAR2 EZ I        1127  5.32        13.0 0.24            171           16.6 205 
 BRR  HZ EP       1126 51.52                             150   -0.1410 77.8 303 
 BRR  HN ES       1127  8.52                             150    0.4010 77.8 303 
 BRR  HZ I        1127 12.06        12.5 0.44            148           77.8 303 
 PAM  EZ EP       1126 52.48                             149   -0.1410 81.9  34 
 PTB  HZ EP       1126 57.31                             131   -0.03 9  149 262 
 PTB  HN ES       1127 17.48                             131   -0.76 9  149 262 
 PTB  HZ I        1127 19.35         4.4 0.18            130            149 262 
 ZAR  HZ EP       1127  3.42                             121    0.08 8  210 294 
 ZAR  HE ES       1127 29.04                             121    0.12 8  210 294 
 ZAR  HZ I        1127 33.59         4.5 0.34            121            210 294 
 NOR  HZ EP       1127  6.00                             118    0.17 8  233 236 
 NOR  HN ES       1127 33.75                             118    0.40 8  233 236 
 NOR  HZ I        1127 38.35         2.7 0.16            118            233 236 
                                                                                
