 2011  6 6 1723 56.2 L   6.766 -73.112146.7  RSN  7 0.2 1.9LRSN                1
 GAP=142        0.56       2.8     5.9  5.1 -0.8829E+00 -0.6943E+01 -0.3303E+01E
 Epicentro: LOS SANTOS - SANTANDER                                             3
 ACTION:UP  11-07-14 19:03 OP:ep   STATUS:               ID:20110606172356 L   I
 2011-06-06-1721-08S.COL___132                                                 6
 STAT SP IPHASW D HRMM SECON CODA AMPLIT PERI AZIMU VELO SNR AR TRES W  DIS CAZ7
 BAR2 SZ EP   1   1724 15.79                             172    -0.1 8   21 202 
 BAR2 SZ I        1724 16.17        20.0 0.11                            21 202 
 BAR2 SZ ES   1   1724 30.90                             172    -0.3 8   21 202 
 BRR  HZ EP   1   1724 17.70                             151     0.0 8   76 300 
 BRR  HZ I        1724 17.99        29.1 0.18                            76 300 
 BRR  HN ES   1   1724 34.55                             151     0.0 8   76 300 
 PAM  SZ EP   1   1724 18.78                             151     0.2 8   78  36 
 PAM  SN ES   2   1724 35.67                             151    -0.3 5   78  36 
 RUS  HZ EP   1   1724 19.62                             145    -0.1 8   97 178 
 RUS  HN ES   1   1724 38.56                             145     0.4 8   97 178 
 RUS  HZ I        1724 41.90         4.4 0.29                            97 178 
 BRI  SZ EP   1   1724 20.42                             141     0.1 8  111  18 
 BRI  SZ I        1724 21.17        14.7 0.46                           111  18 
 GRA  SZ IP       1724 21.66                             137    -0.110  128  15 
 GRA  SZ I        1724 22.80        12.6 0.32                           128  15 
 GRA  SZ ES   1   1724 41.75                             137     0.1 7  128  15 
 OCA  SZ EP   1   1724 24.75                             129    -0.2 7  165 352 
 OCA  SZ ES   1   1724 47.79                             129     0.4 7  165 352 
 OCA  SZ I        1724 50.44        13.8 0.20                           165 352 
                                                                                
