 2011  3 6 1818  4.9 L   6.791 -73.122142.0  RSN 14 0.4 2.5LRSN                1
 GAP=104        0.89       2.9     5.2  6.2 -0.4396E+01  0.7042E+01  0.5806E+00E
 Epicentro: LOS SANTOS - SANTANDER                                             3
 ACTION:UP  11-06-16 14:32 OP:jfem STATUS:               ID:20110306181805 L   I
 2011-03-06-1816-06S.COL___135                                                 6
 STAT SP IPHASW D HRMM SECON CODA AMPLIT PERI AZIMU VELO SNR AR TRES W  DIS CAZ7
 BAR2 SZ IP       1818 24.50                             170     0.410   23 197 
 BAR2 SZ ES   1   1818 39.12                             170     0.1 7   23 197 
 BAR2 SZ I        1818 42.52        90.6 0.31                            23 197 
 RUS  HZ EP       1818 28.33                             143     0.110   99 178 
 RUS  HN ES   1   1818 46.02                             143    -0.4 7   99 178 
 RUS  HZ I        1818 48.36        22.8 0.34                            99 178 
 GRA  SZ IP       1818 30.28                             136     0.410  126  16 
 GRA  SZ ES   1   1818 48.91                             136    -0.4 7  126  16 
 GRA  SZ I        1818 51.15        46.5 0.28                           126  16 
 OCA  SZ EP       1818 32.96                             129    -0.1 9  162 352 
 OCA  SZ ES   1   1818 55.08                             129     0.1 7  162 352 
 OCA  SZ I        1818 59.51        37.2 0.43                           162 352 
 YOP  SZ EP       1818 34.60                             126     0.1 9  177 154 
 YOP  SZ I        1818 36.22        20.8 0.74                           177 154 
 CHI  HZ EP   1   1818 42.46                             116     0.1 6  248 196 
 CHI  HE ES   1   1819 11.76                             116     0.2 6  248 196 
 CHI  HZ I        1819 15.48        15.9 0.25                           248 196 
 ROSC BZ EP   3   1818 44.01                             116     1.1 2  253 212 
 ROSC BE ES   4   1819 14.52                             116     2.0 0  253 212 
 HEL  HZ EP   1   1818 45.14                             114    -0.1 6  274 256 
 HEL  HE ES   1   1819 15.79                             114    -0.8 6  274 256 
 HEL  HZ I        1819 22.85        16.2 0.09                           274 256 
 VIL  SZ EP   2   1818 47.53                             111    -0.6 4  303 192 
 VIL  SN ES   1   1819 20.81                             111    -1.0 5  303 192 
 VIL  SZ I        1819 27.59        15.8 0.63                           303 192 
 RREF HE ES   2   1819 27.12                             110     0.1 3  323 230 
 RREF HZ I        1819 37.04        27.7 0.31                           323 230 
 DBB  SZ EP       1818 52.53                             109     0.0 7  342 274 
 TOL  SZ EP   1   1818 53.62                             109     0.5 5  345 225 
 SDV  BZ IP       1818 53.82                             108    -0.8 6  359  50 
 PRA  HZ EP   1   1818 58.15                             106    -0.2 4  392 210 
 PRA  HN ES   1   1819 40.74                             106     0.7 4  392 210 
                                                                                
