 2014  6 6 1819 42.9 L   6.775 -73.211138.2  RSN 12 0.7 1.9LRSN                1
 GAP= 68        1.49       4.3     4.9  7.4 -0.3018E+01  0.7821E+01  0.2425E+01E
 Epicentro: ZAPATOCA - SANTANDER                                               3
 ACTION:UPD 14-07-01 22:51 OP:nd   STATUS:               ID:20140606181942 L   I
 OLDACT:REG 14-06-06 20:41 OP:stll STATUS:               ID:20140606181818     3
 2014-06-06-1818-18M.COL___268                                                 6
 STAT SP IPHASW D HRMM SECON CODA AMPLIT PERI AZIMU VELO AIN AR TRES W  DIS CAZ7
 BAR2 SZ EP       1820  1.92                             171    0.3310 20.4 171 
 BAR2 SZ ES       1820 15.37                             171   -0.7810 20.4 171 
 BAR2 SZ I        1820 17.83        23.2 0.28            171           20.4 171 
 BRR  HZ EP       1820  3.58                             153    0.5910 66.5 304 
 BRR  HN ES       1820 19.57                             153    0.9310 66.5 304 
 BRR  HZ I        1820 24.07        19.0 0.12            150           66.5 304 
 PAM  SZ EP       1820  4.78                             147    0.0010 84.2  42 
 PAM  SN ES       1820 21.59                             147   -0.2310 84.2  42 
 PAM  SZ I        1820 23.70        12.5 0.56            152           84.2  42 
 RUS  HZ EP       1820  6.26                             143    0.4710 98.6 172 
 RUS  HN ES       1820 23.40                             143   -0.2310 98.6 172 
 RUS  HZ I        1820 26.44         8.5 0.18            146           98.6 172 
 PTB  HZ EP       1820  8.43                             132   -0.16 9  140 259 
 PTB  HN ES       1820 28.56                             132   -0.04 9  140 259 
 PTB  HZ I        1820 32.19         9.2 0.42            131            140 259 
 SPBC HZ EP       1820 10.94                             128    0.73 9  157 218 
 SPBC HN ES       1820 31.70                             128    0.20 9  157 218 
 SPBC HZ I        1820 41.24         8.4 0.24            129            157 218 
 TAM  HZ EP       1820 10.44                             127   -0.18 9  161 103 
 TAM  HZ I        1820 10.57        20.5 0.38            133            161 103 
 ZAR  HZ EP   1   1820 14.64                             121    0.33 6  198 294 
 ZAR  HN ES       1820 38.76                             121   -0.03 9  198 294 
 ZAR  HZ I        1820 48.12         9.9 0.12            122            198 294 
 NOR  HZ EP       1820 17.67                             118    0.25 8  227 234 
 NOR  HN ES       1820 44.47                             118    0.15 8  227 234 
 NOR  HZ I        1820 53.01         4.6 0.16            119            227 234 
 SML  HZ EP       1820 18.38                             116   -0.72 8  243 337 
 SML  HN ES       1820 46.24                             116   -1.07 8  243 337 
 SML  HZ I        1820 55.83        12.3 0.22            117            243 337 
 GUY2CHZ EP       1820 26.50                             111    1.16 7  294 234 
 GUY2CHN ES       1820 57.00                             111   -1.43 7  294 234 
 GUY2CHZ I        1821  9.92         3.2 0.68                           294 234 
 PRA  HZ EP       1820 35.39                             105   -0.11 6  386 209 
 PRA  HN ES       1821 14.74                             105   -1.76 6  386 209 
 PRA  HZ I        1821 23.18         2.7 0.32            107            386 209 
                                                                                
