 2012 10 6 1759  1.7 L   6.810 -73.318119.7  RSN  6 0.5 2.6LRSN 3.2WRSN        1
 SPEC AVERAGE  MO 13.9 ST  6.3 OM  6.4 f0 3.89 R0.3779 AL 2.79 WI 22.7 MW  3.2 3
 SPEC SD       MO  0.0 ST0.000 OM  4.0 f00.000 R0.0000 AL      WI      MW  0.0 3
 GAP=141        1.14       6.0     9.4 10.1 -0.9211E+00 -0.1393E+02 -0.8292E+01E
 Epicentro: ZAPATOCA - SANTANDER                                               3
 SPEC BRR HH N MO 13.9 ST  6.3 OM  2.4 f0 3.89 R0.3779 AL 2.79 WI 22.7 MW  3.2 3
 SPEC BRR HH N T175930 K 0.000 GD  131 VS 4.20 DE 3.00 Q0230.0 QA 0.60 VS 4.20 3
 ACTION:UPD 12-11-22 17:02 OP:ep   STATUS:               ID:20121006175901 L   I
 2012-10-06-1758-11M.COL___205                                                 6
 STAT SP IPHASW D HRMM SECON CODA AMPLIT PERI AZIMU VELO AIN AR TRES W  DIS CAZ7
 BAR2 SZ IP       1759 18.32                             166    0.0110 28.3 148 
 BAR2 SZ I        1759 18.48       214.7 0.10                          28.3 148 
 BAR2 SZ ES   1   1759 31.55                             166    0.26 7 28.3 148 
 GIR2 SZ IP       1759 17.95                             164   -0.3510 32.7  25 
 BRR  HZ EP       1759 18.72                             154   -0.3410 54.6 307 
 BRR  HN ES   1   1759 32.84                             154    0.20 7 54.6 307 
 BRR  HN I        1759 33.37       276.2 0.20                          54.6 307 
 PAM  SZ EP       1759 21.61                             141   -0.4910 89.9  49 
 PAM  SN ES   1   1759 37.69                             141   -0.35 7 89.9  49 
 PAM  SN I        1759 40.06        19.7 0.28                          89.9  49 
 RUS  HZ EP       1759 23.22                             136   -0.0810  105 166 
 RUS  HN ES   1   1759 40.48                             136    0.31 7  105 166 
 GRA  SZ EP       1759 26.39                             129    1.1210  132  25 
                                                                                
