 2015  6 6 2348  5.2 L   6.807 -73.105152.3  RSN  4 0.3 1.5LRSN                1
 GAP=141        0.66       3.4     5.8  6.6  0.1922E+01  0.8135E+01 -0.4210E+01E
 Epicentro: LOS SANTOS - SANTANDER                                             3
 ACTION:UPD 15-09-10 22:10 OP:cam  STATUS:               ID:20150606234805 L   I
 OLDACT:REG 15-06-07 03:15 OP:spq  STATUS:               ID:20150606233750     3
 2015-06-06-2337-50M.COL___309                                                 6
 STAT SP IPHASW D HRMM SECON CODA AMPLIT PERI AZIMU VELO AIN AR TRES W  DIS CAZ7
 PAM  SZ EP       2348 28.13                             153    0.2310 74.0  37 
 PAM  SE ES       2348 45.53                             153   -0.1010 74.0  37 
 PAM  SZ I        2348 47.40         3.9 0.54            157           74.0  37 
 BRR  HZ EP   1   2348 27.57                             152    0.34 7 74.8 296 
 BRR  HE ES   1   2348 44.75                             152    0.31 7 74.8 296 
 BRR  HZ I        2348 49.06         6.5 0.35            150           74.8 296 
 RUS  HZ EP   1   2348 29.85                             145    0.24 7  101 179 
 RUS  HE ES       2348 48.32                             145   -0.3510  101 179 
 RUS  HZ I        2348 50.74         2.4 0.40            148            101 179 
 SML  HZ EP   1   2348 41.89                             118   -0.41 6  245 334 
 SML  HN ES   1   2349 10.89                             118   -0.38 6  245 334 
 SML  HZ I        2349 15.03         3.8 0.10            120            245 334 
                                                                                
