 2011 12 6 2146 43.3 L   6.855 -73.380111.3  RSN  6 0.2 1.9LRSN                1
 GAP=144        0.42       2.6     3.6  3.8  0.1153E+01  0.4293E+00 -0.3300E+00E
 Epicentro: SAN VICENTE DE CHUCURI - SANTANDER                                 3
 ACTION:UPD 12-07-13 16:14 OP:ep   STATUS:               ID:20111206214643 L   I
 2011-12-06-2140-00M.COL___183                                                 6
 STAT SP IPHASW D HRMM SECON CODA AMPLIT PERI AZIMU VELO AIN AR TRES W  DIS CAZ7
 GIR2 SZ EP       2146 58.93                             163    0.0110 32.2  40 
 BAR2 SZ EP       2146 59.47                             160    0.2410 36.4 143 
 BAR2 SZ ES   1   2147 11.73                             160    0.07 7 36.4 143 
 BAR2 SZ I        2147 12.78        21.9 0.28                          36.4 143 
 BRR  HZ EP       2146 59.03                             156   -0.2810 46.0 307 
 BRR  HZ I        2146 59.23        32.8 0.14                          46.0 307 
 BRR  HN ES   1   2147 11.87                             156    0.06 7 46.0 307 
 PAM  SN ES   1   2147 18.53                             138   -0.09 7 92.3  55 
 RUS  HZ EP       2147  4.78                             132   -0.0110  111 163 
 RUS  HN ES   3   2147 21.15                             132   -0.42 2  111 163 
 OCA  SZ EP       2147  8.49                             122    0.06 9  153   3 
 OCA  SZ I        2147 33.49        13.5 0.30                           153   3 
                                                                                
