 2012  3 7 0758 38.4 L   6.729 -73.292151.4  RSN  4 0.3 1.2LRSN                1
 GAP=189        0.66       6.5     6.0 10.0  0.1606E+02 -0.2157E+02 -0.1187E+02E
 ACTION:UP  12-03-31 23:17 OP:EP   STATUS:               ID:20120307075838 L   I
 2012-03-07-0750-00M.COL___194                                                 6
 STAT SP IPHASW D HRMM SECON CODA AMPLIT PERI AZIMU VELO SNR AR TRES W  DIS CAZ7
 BAR2 SZ EP   1    758 58.13                             172    -0.5 7   19 141 
 BRR  HZ EP        758 59.88                             156     0.110   62 312 
 BRR  HZ I         759  0.35         4.4 0.08                            62 312 
 BRR  HN ES   1    759 16.48                             156     0.1 7   62 312 
 RUS  HZ EP   1    759  2.70                             146     0.3 7   95 166 
 RUS  HE ES   1    759 21.09                             146     0.0 7   95 166 
 RUS  HZ I         759 21.89         1.4 0.35                            95 166 
 PTB  HE ES        759 24.53                             137    -0.110  130 261 
                                                                                
