 2010 10 7 0127 32.4 L   6.812 -73.098143.3  RSN 14 0.5 2.4LRSN                1
 GAP=181        1.14       5.7     7.9  7.1 -0.2344E+02 -0.1312E+00  0.1215E+02E
 Epicentro: LOS SANTOS - SANTANDER                                             3
 ACTION:UP  11-02-18 11:08 OP:tino STATUS:               ID:20101007012732 L   I
 2010-10-07-0125-43S.COL___122                                                 6
 STAT SP IPHASW D HRMM SECON CODA AMPLIT PERI AZIMU VELO SNR AR TRES W  DIS CAZ7
 BTL  SZ EP        127 52.78                             171     1.010   22 302 
 BTL  SZ ES   1    128  7.11                             171     0.3 7   22 302 
 BAR2 SZ IP        127 51.48                             169    -0.410   26 201 
 BAR2 SZ ES   1    128  6.12                             169    -0.9 7   26 201 
 BAR2 SZ I         128  7.85        62.2 0.16                            26 201 
 BRR  HZ IP     C  127 53.39                             151    -0.210   75 296 
 BRR  HE ES        128 10.25                             151     0.210   75 296 
 BRR  HZ I         128 15.39        60.8 0.06                            75 296 
 GUE  SZ EP   1    127 56.57                             139    -0.2 7  114  10 
 GRA  SZ IP        127 57.44                             137     0.210  123  15 
 GRA  SZ ES   1    128 16.89                             137     0.3 7  123  15 
 GRA  SZ I         128 18.11        35.5 0.34                           123  15 
 OCA  SZ EP   1    127 59.87                             129    -0.6 7  160 351 
 OCA  SZ ES   1    128 21.83                             129    -0.6 7  160 351 
 OCA  SZ I         128 26.06        36.5 0.11                           160 351 
 NOR  SZ EP   1    128  7.96                             117    -0.6 6  240 235 
 CHI  HZ EP   1    128 10.24                             116    -0.1 6  251 196 
 CHI  HZ I         128 42.24        13.7 0.57                           251 196 
 ROSC BZ EP   2    128 11.29                             116     0.4 4  257 212 
 ROSC BZ I         128 46.26        12.9 0.44                           257 212 
 HEL  HZ EP   1    128 13.55                             114     0.4 6  278 256 
 HEL  HN ES   1    128 44.57                             114    -0.3 6  278 256 
 HEL  HZ I         128 50.99        14.7 0.56                           278 256 
 RREF HZ EP   1    128 19.80                             110     0.8 5  327 230 
 RREF HE ES   1    128 55.89                             110     0.5 5  327 230 
 RREF HZ I         128 59.70        13.6 0.59                           327 230 
 DBB  SZ EP   2    128 20.27                             109    -0.2 3  345 274 
 DBB  SZ I         129  0.34         2.3 0.23                           345 274 
 TOL  SZ EP   2    128 21.16                             108     0.0 3  348 225 
 PRA  HZ EP   1    128 25.70                             106    -0.6 4  396 210 
 PRA  HE ES   1    129  8.13                             106    -0.2 4  396 210 
                                                                                
