 2016 10 7 0916  7.3 L   6.800 -73.149147.5  RSN 16 0.3 2.2LRSN                1
 GAP=119        0.83       2.4     3.0  4.7 -0.1098E+01  0.3399E+01  0.9644E+00E
 Epicentro: LOS SANTOS - SANTANDER                                             3
 ACTION:UPD 16-11-09 19:17 OP:rebc STATUS:               ID:20161007091607 L   I
 OLDACT:UP  16-10-07 17:12 OP:dani STATUS:               ID:20161007090742     3
 OLDACT:UP  16-10-07 17:11 OP:dani STATUS:               ID:20161007090742     3
 OLDACT:UP  16-10-07 17:11 OP:dani STATUS:               ID:20161007090742     3
 OLDACT:UP  16-10-07 17:10 OP:dani STATUS:               ID:20161007090742     3
 OLDACT:REG 16-10-07 12:59 OP:dnl  STATUS:               ID:20161007090742     3
 2016-10-07-0908-00M.COL___339                                                 6
 STAT SP IPHASW D HRMM SECON CODA AMPLIT PERI AZIMU VELO AIN AR TRES W  DIS CAZ7
 BAR2 EZ EP        916 27.20                             171    0.0910 23.2 189 
 BAR2 EZ ES        916 42.38                             171   -0.2010 23.2 189 
 BAR2 EZ I         916 44.94        53.0 0.32            167           23.2 189 
 PAM  EZ EP        916 30.04                             151    0.3510 77.7  40 
 PAM  EE ES        916 47.32                             151    0.1510 77.7  40 
 RUS  HZ EP        916 31.37                             144    0.1710  101 176 
 RUS  HN ES        916 49.88                             144    0.0310  101 176 
 RUS  HZ I         916 51.16        19.3 0.36            136            101 176 
 PTB  HZ EP        916 33.91                             132   -0.44 9  147 259 
 PTB  HN ES        916 54.83                             132   -0.63 9  147 259 
 PTB  HZ I         917  0.96        13.0 0.72            125            147 259 
 OCA  HZ EP     D  916 35.27                             130   -0.45 9  160 353 
 OCA  HN ES        916 58.10                             130    0.20 9  160 353 
 OCA  HZ I         917  0.72        33.4 0.16            124            160 353 
 SPBC HZ EP        916 36.09                             129    0.21 9  163 219 
 SPBC HN ES        916 58.28                             129    0.09 9  163 219 
 SPBC HZ I         917  2.95        25.1 0.22            122            163 219 
 ZAR  HZ EP        916 39.73                             123   -0.06 9  204 292 
 ZAR  HE ES        917  5.29                             123    0.13 9  204 292 
 ZAR  HZ I         917 10.52        18.3 0.42            116            204 292 
 NOR  HZ EP        916 43.39                             119    0.32 8  234 234 
 NOR  HN ES        917 10.76                             119   -0.22 8  234 234 
 NOR  HZ I         917 18.94         9.6 0.15            112            234 234 
 CHI  HZ EP        916 45.40                             117    0.35 8  249 195 
 CHI  HE ES        917 14.73                             117    0.21 8  249 195 
 CHI  HZ I         917 18.08         7.8 0.70            111            249 195 
 ROSC BZ EP   4    916 47.32                             117    1.86 0  253 211 
 ROSC BN ES   4    917 18.48                             117    3.23 0  253 211 
 ROSC BZ I         917 21.98        25.4 0.42            110            253 211 
 HEL  HZ EP   4    916 48.68                             115    1.15 0  272 256 
 HEL  HN ES        917 19.46                             115    0.53 8  272 256 
 HEL  HZ I         917 26.25         3.5 0.18            109            272 256 
 URE  HZ EP   4    916 47.02                             114   -1.37 0  283 292 
 URE  HN ES   4    917 17.65                             114   -2.80 0  283 292 
 URE  HZ I         917 28.55         9.6 0.22            108            283 292 
 GUY2CHZ EP   4    916 52.43                             113    1.51 0  301 235 
 GUY2CHN ES   4    917 29.80                             113    4.83 0  301 235 
 GUY2CHZ I         917 33.38         6.6 0.34                           301 235 
 PTGC HZ EP        916 50.27                             112   -0.95 7  309 159 
 PTGC HZ I         917 25.08         5.3 0.44            106            309 159 
 SJC  HZ EP   4    917  0.83                             106   -2.04 0  409 327 
 SJC  HN ES   4    917 41.99                             106   -4.24 0  409 327 
 SJC  HZ I         917 56.87         3.3 0.76            101            409 327 
 CRJC HZ EP   9    917  7.51                             104   -2.32 0  468   4 
 CRJC HE ES        917 55.73                             104   -0.57 5  468   4 
 CRJC HZ I         918  2.47         6.1 0.26             99            468   4 
                                                                                
