 2017 10 7 0412 34.7 L   6.843 -73.155140.5  RSN  8 0.5 1.5LRSN                1
 GAP=221        0.94       5.0     5.1  6.5  0.9571E+01  0.7268E+01  0.7100E+01E
 Epicentro: LOS SANTOS - SANTANDER                                             3
 ACTION:UPD 17-11-07 19:29 OP:rebc STATUS:               ID:20171007041234 L   I
 OLDACT:REG 17-10-07 12:39 OP:dhb  STATUS:               ID:20171007040739     3
 2017-10-07-0408-00M.COL___438                                                 6
 STAT SP IPHASW D HRMM SECON CODA AMPLIT PERI AZIMU VELO AIN AR TRES W  DIS CAZ7
 BAR2 EZ EP        412 53.61                             169   -0.2210 27.9 186 
 BAR2 EZ ES        413  8.82                             169    0.0910 27.9 186 
 BAR2 EZ I         413 11.61         3.7 0.16            167           27.9 186 
 RUS  HZ EP        412 58.14                             142   -0.1910  105 176 
 RUS  HN ES        413 17.06                             142    0.3310  105 176 
 RUS  HZ I         413 18.43         6.6 0.36            142            105 176 
 SPBC HZ EP        413  2.68                             128   -0.45 9  166 218 
 SPBC HN ES        413 25.18                             128   -0.10 9  166 218 
 SPBC HZ I         413 27.75         3.9 0.16            128            166 218 
 YPLC HZ EP        413  4.30                             125   -0.31 9  181 152 
 YPLC HN ES        413 28.59                             125    0.67 9  181 152 
 YPLC HZ I         413 31.92         4.8 0.66            127            181 152 
 ZAR  HZ EP   4    413  9.27                             122    2.71 0  201 291 
 ZAR  HN ES        413 31.79                             122    0.41 9  201 291 
 ZAR  HZ I         413 37.32         3.6 0.52            122            201 291 
 CHI  HZ EP        413 12.67                             116    0.05 8  253 195 
 CHI  HE ES        413 41.28                             116   -0.88 8  253 195 
 CHI  HZ I         413 45.46         1.1 0.50            117            253 195 
 GUY2CHZ EP   3    413 20.73                             111    2.41 2  303 234 
 GUY2CHN ES   4    413 56.51                             111    4.19 0  303 234 
 GUY2CHZ I         414  0.45         2.1 0.10                           303 234 
 PRA  HZ EP        413 29.06                             106    0.56 6  396 209 
 PRA  HN ES        414 10.68                             106    0.24 6  396 209 
 PRA  HE ES   3    414 11.99                             106    1.55 1  396 209 
 PRA  HZ I         414 16.00         1.3 0.26            106            396 209 
                                                                                
