 2015  7 7 0833  7.2 L   6.818 -73.134146.7  RSN 20 0.4 2.3LRSN                1
 GAP=137        0.85       2.2     3.3  5.0 -0.1128E+01  0.7856E+01  0.1301E+01E
 Epicentro: LOS SANTOS - SANTANDER                                             3
 ACTION:UPD 15-09-08 21:47 OP:cam  STATUS:               ID:20150707083307 L   I
 OLDACT:REG 15-07-07 13:24 OP:spq  STATUS:               ID:20150707082736     3
 2015-07-07-0827-36M.COL___327                                                 6
 STAT SP IPHASW D HRMM SECON CODA AMPLIT PERI AZIMU VELO AIN AR TRES W  DIS CAZ7
 BAR2 EZ EP        833 26.87                             170   -0.1710 25.6 192 
 BAR2 EZ ES   1    833 42.04                             170   -0.44 7 25.6 192 
 BAR2 EZ I         833 45.33        49.4 0.26            170           25.6 192 
 PAM  EZ EP        833 29.61                             152    0.1910 75.0  40 
 PAM  EN ES        833 46.91                             152    0.1910 75.0  40 
 PAM  EZ I         833 49.29        31.2 0.58            151           75.0  40 
 RUS  HZ EP        833 30.73                             143   -0.5010  103 177 
 RUS  HN ES        833 49.86                             143   -0.0810  103 177 
 RUS  HZ I         833 52.36        23.8 0.40            143            103 177 
 OCA  HZ EP        833 35.25                             130   -0.21 9  158 353 
 OCA  HN ES        833 58.09                             130    0.63 9  158 353 
 OCA  HZ I         834  2.59        47.5 0.22            128            158 353 
 ZAR  HZ EP        833 39.56                             122   -0.24 9  205 291 
 ZAR  HN ES        834  5.12                             122   -0.07 9  205 291 
 ZAR  HZ I         834 11.99        22.8 0.32            120            205 291 
 NOR  HZ EP   1    833 43.33                             118    0.06 6  237 234 
 NOR  HE ES        834 11.77                             118    0.40 8  237 234 
 NOR  HZ I         834 14.73        21.5 0.13            117            237 234 
 SML  HZ EP        833 43.29                             118   -0.50 8  242 335 
 SML  HN ES        834 12.49                             118    0.20 8  242 335 
 SML  HZ I         834 16.61        22.1 0.07            116            242 335 
 CHI  HZ EP        833 44.94                             117   -0.31 8  251 195 
 CHI  HE ES   1    834 14.70                             117   -0.19 6  251 195 
 CHI  HZ I         834 24.02         8.7 0.30            116            251 195 
 ROSC BZ EP        833 46.24                             117    0.56 8  255 211 
 ROSC BN ES   4    834 17.90                             117    2.24 0  255 211 
 ROSC BZ I         834 22.66        17.3 0.45            115            255 211 
 HEL  HZ EP   4    833 48.96                             115    1.26 0  274 255 
 HEL  HN ES        834 19.04                             115   -0.22 8  274 255 
 HEL  HZ I         834 25.90        13.5 0.38            113            274 255 
 GUY2CHZ EP        833 51.89                             112    0.74 7  303 235 
 GUY2CHE ES        834 25.20                             112   -0.20 7  303 235 
 GUY2CHZ I         834 35.64        12.3 0.50                           303 235 
 PTGC HZ EP   4    833 49.85                             112   -1.46 0  310 159 
 PTGC HN ES   4    834 23.15                             112   -2.52 0  310 159 
 PTGC HZ I         834 26.49        12.2 0.26            111            310 159 
 CBOC HZ EP   1    833 54.62                             110    0.20 5  335 252 
 CBOC HN ES        834 30.93                             110   -0.28 7  335 252 
 CBOC HZ I         834 36.07         4.8 0.48            109            335 252 
 DBB  SZ EP        833 54.16                             110   -0.73 7  341 274 
 DBB  SZ ES   1    834 31.56                             110   -0.50 5  341 274 
 TOL  SZ EP        833 56.71                             109    0.90 6  346 225 
 TOL  SN ES        834 34.06                             109    0.36 6  346 225 
 TOL  SZ I         834 39.28         8.2 0.32            108            346 225 
 MON  HN ES   4    834 32.90                             109   -1.59 0  353 308 
 MON  HZ I         834 34.65         4.0 0.32            107            353 308 
 PRA  HZ EP        834  0.59                             107   -0.49 6  394 210 
 PRA  HE ES        834 43.44                             107    0.37 6  394 210 
 PRA  HZ I         834 49.22         5.9 0.32            106            394 210 
 ORTC HZ EP   1    834  0.95                             106   -0.53 4  398 216 
 ORTC HN ES        834 44.63                             106    0.85 6  398 216 
 ORTC HZ I         834 50.49         6.1 0.56            105            398 216 
 PAL  HZ EP        834  2.77                             106    0.08 6  408 239 
 SJC  HZ EP   4    834  1.05                             106   -1.67 0  408 327 
 SJC  HN ES   4    834 42.41                             106   -3.59 0  408 327 
 SJC  HZ I         834 45.83         3.5 0.28            105            408 327 
                                                                                
