 2017  2 7 0410 51.5 L   6.712 -73.231144.0  RSN  5 0.3 1.1LRSN                1
 GAP=209        0.84       6.0     6.0  6.1  0.1778E+02  0.7271E+01  0.9497E+01E
 Epicentro: VILLANUEVA - SANTANDER                                             3
 ACTION:UPD 17-05-24 15:33 OP:jn   STATUS:               ID:20170207041051 L   I
 OLDACT:UP  17-02-07 16:33 OP:edw  STATUS:               ID:20170207040741     3
 OLDACT:REG 17-02-07 12:36 OP:edw  STATUS:               ID:20170207040741     3
 2017-02-07-0408-00M.COL___331                                                 6
 STAT SP IPHASW D HRMM SECON CODA AMPLIT PERI AZIMU VELO AIN AR TRES W  DIS CAZ7
 BAR2 EZ IP     C  411 10.26                             174   -0.4610 14.3 158 
 BAR2 EZ ES        411 25.47                             174   -0.2710 14.3 158 
 BAR2 EZ I         411 30.73         2.0 0.12            174           14.3 158 
 BRR  HZ EP        411 12.17                             153   -0.1110 68.8 309 
 BRR  HN ES        411 28.95                             153    0.4310 68.8 309 
 RUS  HZ EP        411 14.66                             146    0.2310 92.1 170 
 RUS  HN ES        411 32.60                             146    0.2510 92.1 170 
 RUS  HZ I         411 33.84         2.8 0.34            148           92.1 170 
 PTB  HZ EP        411 17.67                             134    0.37 9  137 262 
 PTB  HN ES        411 37.09                             134   -0.37 9  137 262 
 PTB  HZ I         411 40.63         2.3 0.12            136            137 262 
 CHI  HZ EP        411 27.65                             118   -0.13 8  237 194 
 CHI  HN ES   4    411 58.98                             118    2.87 0  237 194 
                                                                                
