 2011  4 7 1432 15.7 L   6.748 -73.059147.1  RSN  8 0.2 1.8LRSN                1
 GAP=166        0.43       3.4     5.5  4.0 -0.4513E+01 -0.6467E+01  0.1068E+01E
 Epicentro: LOS SANTOS - SANTANDER                                             3
 ACTION:UP  11-06-22 15:29 OP:REBC STATUS:               ID:20110407143215 L   I
 2011-04-07-1420-00M.COL___139                                                 6
 STAT SP IPHASW D HRMM SECON CODA AMPLIT PERI AZIMU VELO SNR AR TRES W  DIS CAZ7
 BAR2 SZ EP       1432 35.60                             171     0.210   22 218 
 BAR2 SZ ES   1   1432 50.79                             171     0.0 7   22 218 
 BAR2 SZ I        1432 52.08        21.1 0.08                            22 218 
 BTL  SZ EP       1432 35.64                             168     0.110   30 309 
 BTL  SZ ES   2   1432 50.74                                    -0.4 5   30 309 
 GIR2 SZ EP       1432 35.72                             165     0.010   39 338 
 GIR2 SZ ES   2   1432 51.53                             165     0.1 5   39 338 
 PAM  SN ES   3   1432 55.04                                    -0.3 2   77  31 
 BRR  HZ EP       1432 37.48                             150    -0.110   82 299 
 BRR  HZ I        1432 44.73         8.3 0.21                            82 299 
 BRR  HN ES   1   1432 54.91                             150     0.2 7   82 299 
 GRA  SZ EP       1432 41.18                             137    -0.110  129  13 
 GRA  SZ I        1432 48.56         6.8 0.34                           129  13 
 NOR  SN ES   3   1433 19.65                             118    -0.6 2  239 237 
 CHI  HZ EP   2   1432 53.56                                     0.4 4  246 198 
 CHI  HE ES   2   1433 21.87                                    -0.5 4  246 198 
                                                                                
