 2010  8 7 1000 49.6 L   6.815 -73.070142.2  RSN 13 0.4 2.3LRSN                1
 GAP=167        0.73       3.5     6.6  6.1 -0.9394E+01  0.6576E+01  0.3560E+01E
 Epicentro: LOS SANTOS - SANTANDER                                             3
 ACTION:UP  10-09-07 10:52 OP:vdl  STATUS:               ID:20100807100049 L   I
 2010-08-07-1000-27S.COL___125                                                 6
 STAT SP IPHASW D HRMM SECON CODA AMPLIT PERI AZIMU VELO SNR AR TRES W  DIS CAZ7
 BTL  SZ EP   1   10 1  9.02                             170     0.2 7   25 298 
 BTL  SZ ES   2   10 1 23.68                             170    -0.2 5   25 298 
 BAR2 SZ EP   1   10 1  8.91                             168     0.0 7   28 207 
 BAR2 SZ ES   2   10 1 23.87                             168    -0.1 5   28 207 
 BAR2 SZ I        10 1 26.39        32.0 0.24                            28 207 
 GIR2 SZ EP   1   10 1  8.88                             167     0.0 7   32 335 
 BRR  HZ EP   1   10 1 10.72                             150    -0.1 7   78 295 
 BRR  HN ES   2   10 1 27.87                             150     0.6 5   78 295 
 BRR  HZ I        10 1 31.76        68.2 0.11                            78 295 
 RUS  HZ EP   1   10 1 12.92                             143    -0.2 7  102 181 
 RUS  HN ES   2   10 1 31.31                             143    -0.1 5  102 181 
 RUS  HZ I        10 1 33.39        17.8 0.28                           102 181 
 GUE  SZ EP   1   10 1 13.74                             139     0.0 7  113   8 
 GRA  SZ EP   1   10 1 14.64                             137     0.4 7  122  14 
 GRA  SZ ES   2   10 1 33.17                             137    -0.2 5  122  14 
 GRA  SZ I        10 1 35.22        22.1 0.32                           122  14 
 OCA  SZ EP   1   10 1 17.33                             129    -0.3 7  160 350 
 OCA  SZ ES   2   10 1 39.06                             129    -0.4 5  160 350 
 OCA  SZ I        10 1 42.29        30.5 0.21                           160 350 
 CHI  HZ EP   1   10 1 27.36                             116    -0.2 6  252 197 
 CHI  HN ES   2   10 1 56.56                             116    -0.5 4  252 197 
 CHI  HZ I        10 2  3.26         9.3 0.53                           252 197 
 ROSC BZ EP   1   10 1 29.34                             115     1.2 6  259 212 
 ROSC BE ES   2   10 1 58.40                             115     0.2 4  259 212 
 ROSC BZ I        10 2  3.38        13.7 0.51                           259 212 
 HEL  HZ EP   1   10 1 30.74                             113     0.2 6  281 256 
 HEL  HN ES   2   10 2  1.59                             113    -1.0 4  281 256 
 HEL  HZ I        10 2  8.01        15.6 0.52                           281 256 
 RREF HZ EP   1   10 1 36.09                             110    -0.4 5  329 230 
 RREF HE ES   2   10 2 13.53                             110     0.6 3  329 230 
 RREF HZ I        10 2 20.95         8.4 0.62                           329 230 
 PRA  HZ EP   1   10 1 42.80                             106    -0.9 4  398 211 
 PRA  HE ES   2   10 2 25.98                             106     0.2 3  398 211 
 PRA  HZ I        10 2 31.31        14.2 0.26                           398 211 
                                                                                
