 2017  1 7 1527  2.9 L   6.792 -73.123146.0  RSN  6 0.4 1.7LRSN                1
 GAP=140        0.77       4.7     4.6  6.1  0.8443E+01 -0.2294E+00 -0.4792E+01E
 Epicentro: LOS SANTOS - SANTANDER                                             3
 ACTION:UPD 17-05-22 15:56 OP:jn   STATUS:               ID:20170107152702 L   I
 OLDACT:DUP 17-01-07 23:02 OP:dnl  STATUS:               ID:20170107151748d    3
 2017-01-07-1518-00M.COL___372                                                 6
 STAT SP IPHASW D HRMM SECON CODA AMPLIT PERI AZIMU VELO AIN AR TRES W  DIS CAZ7
 BAR2 EZ EP       1527 22.38                             171   -0.2010 23.0 197 
 BAR2 EZ ES       1527 37.58                             171   -0.3210 23.0 197 
 BAR2 EZ I        1527 38.66        21.5 0.22            170           23.0 197 
 BRR  HZ EP       1527 24.21                             152   -0.0410 73.9 298 
 BRR  HN ES       1527 41.45                             152    0.5710 73.9 298 
 BRR  HZ I        1527 42.63        17.2 0.42            149           73.9 298 
 PAM  EZ EP       1527 25.27                             151    0.1610 76.5  38 
 PAM  EN ES   2   1527 41.97                             151   -0.45 5 76.5  38 
 PAM  EZ I        1527 44.63         3.4 0.30            153           76.5  38 
 RUS  HZ EP       1527 26.54                             144   -0.0810 99.5 177 
 RUS  HE ES       1527 45.40                             144    0.2910 99.5 177 
 RUS  HZ I        1527 46.36         6.0 0.40            146           99.5 177 
 PTB  HZ EP   2   1527 29.54                             132   -0.58 5  150 259 
 PTB  HE ES   2   1527 51.18                             132   -0.16 5  150 259 
 PTB  HZ I        1527 55.85         3.9 0.32            131            150 259 
 ZAR  HZ EP   2   1527 36.51                             122    0.85 4  207 292 
 ZAR  HN ES       1528  0.85                             122   -0.35 8  207 292 
 ZAR  HZ I        1528  6.67         5.1 0.36            122            207 292 
                                                                                
