 2016  3 7 1718 57.0 L   6.758 -73.152141.3  RSN  7 0.4 1.7LRSN                1
 GAP=138        0.88       3.9     4.0  6.3 -0.2241E+01  0.9504E+01 -0.2665E+01E
 Epicentro: LOS SANTOS - SANTANDER                                             3
 ACTION:UPD 16-05-13 21:22 OP:cam  STATUS:               ID:20160307171857 L   I
 OLDACT:REG 16-03-07 20:49 OP:ar   STATUS:               ID:20160307171750     3
 2016-03-07-1717-50M.COL___325                                                 6
 STAT SP IPHASW D HRMM SECON CODA AMPLIT PERI AZIMU VELO AIN AR TRES W  DIS CAZ7
 BAR2 EZ EP       1719 15.85                             172   -0.1410 18.6 190 
 BAR2 EZ ES       1719 30.78                             172   -0.0310 18.6 190 
 BAR2 EZ I        1719 31.99        14.5 0.18            170           18.6 190 
 PAM  EZ EP       1719 18.73                             149   -0.2510 81.5  38 
 PAM  EN ES       1719 36.29                             149    0.1510 81.5  38 
 PAM  EZ I        1719 37.23         4.3 0.40            153           81.5  38 
 RUS  HZ EP       1719 19.81                             144   -0.1510 96.0 175 
 RUS  HE ES       1719 38.15                             144    0.2610 96.0 175 
 RUS  HZ I        1719 39.74         3.3 0.30            145           96.0 175 
 PTB  HZ EP       1719 22.84                             131   -0.61 9  146 261 
 PTB  HN ES       1719 43.63                             131   -0.46 9  146 261 
 PTB  HZ I        1719 46.71         6.4 0.18            132            146 261 
 SPBC HZ EP       1719 24.79                             129    0.04 9  159 220 
 SPBC HN ES       1719 46.71                             129    0.29 9  159 220 
 SPBC HZ I        1719 53.90         7.7 0.36            129            159 220 
 ZAR  HZ EP       1719 30.12                             121    0.86 9  205 293 
 ZAR  HN ES       1719 54.63                             121    0.20 9  205 293 
 ZAR  HZ I        1719 56.15         6.0 0.22            123            205 293 
 GUY2CHZ EP   2   1719 40.36                             112    0.34 4  298 235 
 GUY2CHN ES   4   1720 15.53                             112    1.95 0  298 235 
 GUY2CHZ I        1720 22.32         3.7 0.38                           298 235 
                                                                                
