 2010 12 7 1723 53.3 L   6.747 -72.905137.7  RSN  4 0.2 1.7LRSN                1
 GAP=236        0.55       8.4    24.2  8.6 -0.1700E+03 -0.1567E+03  0.3665E+02E
 Epicentro: CEPITA - SANTANDER                                                 3
 ACTION:UP  11-01-14 15:23 OP:pat  STATUS:               ID:20101207172353 L   I
 2010-12-07-1721-40S.COL___135                                                 6
 STAT SP IPHASW D HRMM SECON CODA AMPLIT PERI AZIMU VELO SNR AR TRES W  DIS CAZ7
 BAR2 SZ EP       1724 12.32                             165     0.010   35 241 
 BAR2 SZ ES   1   1724 26.95                             165    -0.1 7   35 241 
 BAR2 SZ I        1724 28.75        16.1 0.14                            35 241 
 BTL  SZ EP       1724 12.67                             161     0.110   44 295 
 BTL  SZ ES   1   1724 27.74                             161     0.1 7   44 295 
 GUE  SZ EP       1724 17.21                             137    -0.310  120 359 
 GRA  SZ EP       1724 18.14                             135     0.310  126   5 
 GRA  SZ ES   1   1724 37.11                             135     0.0 7  126   5 
 GRA  SZ I        1724 38.77         6.5 0.31                           126   5 
                                                                                
