 2014  7 7 2212 14.3 L   6.720 -73.097131.4  RSN  7 0.5 1.4LRSN                1
 GAP=204        1.28       5.9     7.2  8.8  0.1383E+02  0.3902E+01 -0.1155E+02E
 Epicentro: JORDAN - SANTANDER                                                 3
 ACTION:UPD 15-03-16 20:42 OP:nd   STATUS:               ID:20140707221214 L   I
 OLDACT:UP  14-07-08 04:48 OP:spq  STATUS:               ID:20140707220819     3
 OLDACT:REG 14-07-08 02:50 OP:spq  STATUS:               ID:20140707220819     3
 2014-07-07-2208-19M.COL___268                                                 6
 STAT SP IPHASW D HRMM SECON CODA AMPLIT PERI AZIMU VELO AIN AR TRES W  DIS CAZ7
 BAR2 SZ EP       2212 32.20                             172    0.1010 17.0 214 
 BAR2 SZ ES   1   2212 46.20                             172    0.23 7 17.0 214 
 BAR2 SZ I        2212 49.05         4.9 0.14            168           17.0 214 
 BRR  HZ EP       2212 34.52                             147   -0.0110 80.4 302 
 BRR  HN ES       2212 50.51                             147    0.2210 80.4 302 
 BRR  HZ I        2212 54.79         8.3 0.42            147           80.4 302 
 RUS  HZ EP       2212 36.29                             143    0.2810 91.5 179 
 RUS  HN ES       2212 52.35                             143   -0.5710 91.5 179 
 RUS  HZ I        2212 56.47         1.5 0.27            145           91.5 179 
 PTB  HZ EP       2212 39.53                             128   -1.01 9  152 263 
 PTB  HN ES       2213  0.19                             128   -0.79 9  152 263 
 PTB  HZ I        2213  5.27         2.5 0.11            129            152 263 
 SPBC HZ EP       2212 41.61                             126    0.16 9  160 223 
 SPBC HN ES       2213  3.51                             126    0.91 9  160 223 
 SPBC HZ I        2213  9.51         3.6 0.12            128            160 223 
 ZAR  HZ EP       2212 47.34                             118    0.56 8  213 294 
 ZAR  HN ES       2213 12.41                             118    0.31 8  213 294 
 ZAR  HZ I        2213 16.30         3.7 0.27            120            213 294 
 SML  HZ EP       2212 51.14                             113   -0.20 8  254 335 
 SML  HN ES   4   2213 17.29                             113   -2.92 0  254 335 
 SML  HZ I        2213 21.45         3.3 0.10            117            254 335 
                                                                                
