 2015  5 7 2131 45.3 L   6.805 -73.122147.1  RSN 11 0.4 1.9LRSN                1
 GAP=139        0.98       2.7     4.5  6.0 -0.4013E+00  0.8091E+01  0.1910E+01E
 Epicentro: LOS SANTOS - SANTANDER                                             3
 ACTION:UPD 15-09-10 22:02 OP:cam  STATUS:               ID:20150507213145 L   I
 OLDACT:REG 15-05-08 04:09 OP:ak   STATUS:               ID:20150507212750     3
 2015-05-07-2127-50M.COL___286                                                 6
 STAT SP IPHASW D HRMM SECON CODA AMPLIT PERI AZIMU VELO AIN AR TRES W  DIS CAZ7
 BAR2 EZ EP   1   2132  4.71                             170   -0.36 7 24.5 196 
 BAR2 EZ ES       2132 19.75                             170   -0.7810 24.5 196 
 BAR2 EZ I        2132 22.58        11.4 0.17            168           24.5 196 
 BRR  HZ IP     C 2132  6.79                             152    0.1210 73.3 297 
 BRR  HN ES       2132 23.15                             152   -0.2210 73.3 297 
 BRR  HZ I        2132 29.50        19.2 0.29            151           73.3 297 
 PAM  SZ IP     C 2132  7.81                             152    0.3110 75.3  38 
 PAM  SN ES       2132 25.23                             152    0.3910 75.3  38 
 PAM  SZ I        2132 27.40        15.0 0.57            157           75.3  38 
 RUS  HZ EP       2132  8.85                             144   -0.3210  101 178 
 RUS  HE ES       2132 28.47                             144    0.6510  101 178 
 RUS  HZ I        2132 31.04         6.3 0.44            146            101 178 
 OCA  HN ES       2132 35.35                             130   -0.45 9  160 352 
 OCA  HZ I        2132 40.97        21.6 0.26            133            160 352 
 SPBC HZ EP       2132 13.93                             129   -0.13 9  165 220 
 SPBC HN ES       2132 36.77                             129    0.25 9  165 220 
 SPBC HZ I        2132 43.08        15.3 0.30            130            165 220 
 ZAR  HZ EP       2132 17.65                             122   -0.37 8  206 292 
 ZAR  HN ES       2132 44.07                             122    0.49 8  206 292 
 ZAR  HZ I        2132 48.82         7.8 0.30            124            206 292 
 NOR  HZ EP   2   2132 21.16                             118   -0.17 4  237 235 
 NOR  HN ES       2132 49.30                             118   -0.17 8  237 235 
 NOR  HZ I        2132 56.35         5.5 0.34            120            237 235 
 SML  HZ EP   4   2132 20.17                             118   -1.86 0  244 335 
 SML  HN ES       2132 51.23                             118    0.53 8  244 335 
 CHI  HZ EP       2132 22.95                             117   -0.21 8  250 196 
 CHI  HN ES       2132 53.03                             117    0.30 8  250 196 
 CHI  HZ I        2133  0.06         1.7 0.23            120            250 196 
 GUY2CHZ EP   4   2132 30.67                             112    1.46 0  304 235 
 GUY2CHE ES   4   2133  6.16                             112    2.67 0  304 235 
 GUY2CHZ I        2133 10.02         4.4 0.27                           304 235 
                                                                                
