 2014 12 7 2321 19.5 L   6.796 -73.123150.3  RSN 13 0.4 2.1LRSN                1
 GAP=140        1.00       3.0     4.1  5.6 -0.2127E+01  0.4513E+01 -0.9721E+00E
 Epicentro: LOS SANTOS - SANTANDER                                             3
 ACTION:UPD 15-02-10 17:01 OP:nd   STATUS:               ID:20141207232119 L   I
 OLDACT:REG 14-12-08 03:38 OP:mh   STATUS:               ID:20141207231745     3
 2014-12-07-2317-45M.COL___306                                                 6
 STAT SP IPHASW D HRMM SECON CODA AMPLIT PERI AZIMU VELO AIN AR TRES W  DIS CAZ7
 BAR2 SZ EP       2321 39.51                             171   -0.1510 23.5 196 
 BAR2 SZ ES   1   2321 54.74                             171   -0.65 7 23.5 196 
 BAR2 SZ I        2321 56.90        15.6 0.16            169           23.5 196 
 BRR  HZ EP   1   2321 41.75                             153    0.50 7 73.6 298 
 BRR  HN ES       2321 59.26                             153    1.0310 73.6 298 
 BRR  HZ I        2322  1.86        17.5 0.33            149           73.6 298 
 PAM  SZ EP       2321 41.96                             152   -0.1410 76.1  38 
 PAM  SN ES   1   2321 59.60                             152   -0.15 7 76.1  38 
 PAM  SZ I        2322  2.15        12.8 0.08            156           76.1  38 
 RUS  HZ EP       2321 43.88                             145    0.2410  100 177 
 RUS  HN ES       2322  2.57                             145    0.0910  100 177 
 PTB  HZ EP   1   2321 46.84                             133   -0.19 7  150 259 
 PTB  HN ES       2322  7.96                             133   -0.56 9  150 259 
 PTB  HZ I        2322 13.64        19.1 0.40            132            150 259 
 OCA  HZ EP       2321 48.64                             131    0.43 9  161 352 
 OCA  HN ES       2322 10.51                             131   -0.11 9  161 352 
 OCA  HZ I        2322 13.48         6.7 0.59            132            161 352 
 SPBC HZ EP       2321 48.89                             130    0.44 9  164 220 
 SPBC HN ES       2322 10.62                             130   -0.42 9  164 220 
 SPBC HZ I        2322 16.83        27.2 1.92            130            164 220 
 ZAR  HZ EP       2321 52.65                             123    0.18 8  207 292 
 ZAR  HN ES       2322 18.07                             123   -0.14 8  207 292 
 ZAR  HZ I        2322 24.38        17.1 0.56            123            207 292 
 NOR  HZ EP       2321 55.20                             119   -0.47 8  237 235 
 NOR  HN ES       2322 24.18                             119    0.29 8  237 235 
 NOR  HZ I        2322 27.48        10.9 0.20            120            237 235 
 SML  HZ EP       2321 56.44                             118   -0.07 8  245 335 
 SML  HN ES   1   2322 24.53                             118   -0.87 6  245 335 
 SML  HZ I        2322 29.64        21.1 1.74            119            245 335 
 HEL  HZ EP   1   2322  0.26                             116    0.08 6  274 256 
 HEL  HN ES   2   2322 32.45                             116    0.52 4  274 256 
 HEL  HZ I        2322 38.86         5.8 0.14            116            274 256 
 GUY2CHZ EP   4   2322  5.22                             113    1.72 0  303 235 
 GUY2CHN ES   4   2322 42.12                             113    4.28 0  303 235 
 GUY2CHZ I        2322 47.35                                            303 235 
 TOL  SZ EP       2322  7.49                             110   -0.60 7  345 225 
 TOL  SN ES   4   2322 47.42                             110    1.42 0  345 225 
 TOL  SZ I        2322 53.06        12.0 0.62            111            345 225 
                                                                                
