 2013  1 8 0552 55.6 L   6.690 -73.217137.1  RSN  5 0.3 1.7LRSN                1
 GAP=210        0.75       4.8     5.7 12.1  0.7256E+01 -0.2015E+01  0.2613E+02E
 Epicentro: VILLANUEVA - SANTANDER                                             3
 ACTION:UPD 13-02-15 09:12 OP:ep   STATUS:               ID:20130108055255 L   I
 2013-01-08-0550-00M.COL___238                                                 6
 STAT SP IPHASW D HRMM SECON CODA AMPLIT PERI AZIMU VELO AIN AR TRES W  DIS CAZ7
 BAR2 SZ EP        553 14.39                             175    0.4510 11.4 160 
 BAR2 SZ I         553 30.94         8.7 0.48            165           11.4 160 
 BRR  HZ EP   1    553 15.18                             151   -0.61 7 71.6 310 
 BRR  HN ES        553 31.42                             151   -0.1510 71.6 310 
 BRR  HN I         553 32.81        11.2 0.30            154           71.6 310 
 PTB  HN ES        553 40.80                             132    0.08 9  138 263 
 PTB  HN I         553 46.77         9.4 0.36            134            138 263 
 ZAR  HE ES        553 52.03                             121    0.12 9  202 296 
 CHI  HN ES        553 58.95                             117   -0.18 8  235 194 
                                                                                
