 2011 10 8 0650 48.2 L   6.729 -73.079145.4  RSN  3 0.2 1.2LRSN                1
 GAP=148        0.51       3.7     5.5  6.9 -0.3083E+00 -0.1919E+01  0.2443E+01E
 Epicentro: JORDAN - SANTANDER                                                 3
 ACTION:UPD 12-07-13 16:02 OP:ep   STATUS:               ID:20111008065048 L   I
 2011-10-08-0640-00M.COL___171                                                 6
 STAT SP IPHASW D HRMM SECON CODA AMPLIT PERI AZIMU VELO AIN AR TRES W  DIS CAZ7
 PAM  SZ EP   1    651 10.35                             150   -0.17 7 79.4  32 
 PAM  SE ES   1    651 28.01                             150    0.09 7 79.4  32 
 PAM  SZ I         651 32.57         2.1 0.44                          79.4  32 
 BRR  HZ EP   1    651  9.72                             149   -0.22 7 81.5 301 
 BRR  HN ES   1    651 27.01                             149    0.12 7 81.5 301 
 BRR  HZ I         651 28.89         7.0 0.21                          81.5 301 
 RUS  HZ EP   1    651 11.76                             146    0.39 7 92.5 180 
 RUS  HZ I         651 14.10         1.2 0.11                          92.5 180 
 RUS  HN ES   1    651 29.21                             146   -0.22 7 92.5 180 
                                                                                
