 2011  2 8 0158 34.9 L   6.872 -73.620103.8  RSN  5 0.2 1.3LRSN                1
 GAP=248        0.40       2.8    11.3  9.2 -0.1550E+02  0.5980E+02 -0.1022E+02E
 Epicentro: SAN VICENTE DE CHUCURI - SANTANDER                                 3
 ACTION:UP  11-03-28 15:06 OP:jfem STATUS:               ID:20110208015836 L   I
 2011-02-08-0140-00M.COL___140                                                 6
 STAT SP IPHASW D HRMM SECON CODA AMPLIT PERI AZIMU VELO SNR AR TRES W  DIS CAZ7
 BTL  SZ EP   1    158 49.97                             154    -0.1 7   39  82 
 GIR2 SZ EP   2    158 50.64                                     0.0 5   52  64 
 BAR2 SZ EP   1    158 51.04                             144     0.0 7   57 123 
 BAR2 SZ I         158 51.34         7.6 0.09                            57 123 
 BAR2 SZ ES   2    159  4.04                             144     0.3 5   57 123 
 RUS  HZ EP   1    158 57.17                             120     0.2 7  124 151 
 RUS  HN ES   1    159 14.00                             120    -0.2 7  124 151 
 RUS  HZ I         159 15.24         2.4 0.23                           124 151 
 GRA  SZ EP   2    158 58.76                             116     0.2 5  144  39 
 GRA  SZ ES   1    159 17.02                             116     0.0 7  144  39 
 GRA  SZ I         159 19.69         4.8 0.19                           144  39 
                                                                                
