 2012  8 8 0044 49.0 L   6.714 -73.195140.6  RSN  5 0.3 1.4LRSN                1
 GAP=225        0.58       5.2     5.1  5.6  0.1618E+02  0.4683E+01  0.2180E+01E
 Epicentro: VILLANUEVA - SANTANDER                                             3
 ACTION:UPD 12-09-10 11:55 OP:ep   STATUS:               ID:20120808004449 L   I
 2012-08-08-0040-00M.COL___216                                                 6
 STAT SP IPHASW D HRMM SECON CODA AMPLIT PERI AZIMU VELO AIN AR TRES W  DIS CAZ7
 BAR2 SZ EP   1    045  7.30                             174   -0.51 7 13.5 174 
 BAR2 SZ ES   1    045 22.89                             174    0.38 7 13.5 174 
 BAR2 SZ I         045 24.67         5.7 0.28                          13.5 174 
 BRR  HZ EP        045  9.73                             151    0.1410 71.8 307 
 BRR  HE ES        045 25.59                             151   -0.0910 71.8 307 
 BRR  HZ I         045 35.23         8.3 0.62                          71.8 307 
 RUS  HZ EP   1    045 11.74                             145    0.17 7 91.6 172 
 RUS  HE ES   1    045 28.94                             145   -0.26 7 91.6 172 
 PTB  HZ EP   1    045 15.13                             132    0.26 7  141 262 
 PTB  HE ES   1    045 35.13                             132    0.04 7  141 262 
 PTB  HZ I         045 41.71         2.0 0.56                           141 262 
 ZAR  HN ES   1    045 45.68                             121   -0.22 6  203 295 
 ZAR  HZ I         045 52.73         2.6 0.39                           203 295 
                                                                                
