 2012  5 8 0248  6.3 L   6.796 -73.146143.9  RSN 15 0.4 2.3LRSN                1
 GAP=137        0.81       3.8     4.4  5.4 -0.1723E+01  0.8218E+01  0.4692E+01E
 Epicentro: LOS SANTOS - SANTANDER                                             3
 ACTION:UP  12-07-05 12:03 OP:pat  STATUS:               ID:20120508024806 L   I
 2012-05-08-0240-00M.COL___192                                                 6
 STAT SP IPHASW D HRMM SECON CODA AMPLIT PERI AZIMU VELO SNR AR TRES W  DIS CAZ7
 OCA2 HZ EP   1    248 34.19                                                    
 OCA2 HN ES   1    248 55.69                                                    
 BAR2 SZ IP        248 25.79                             171     0.110   23 190 
 BAR2 SZ ES   1    248 40.58                             171    -0.3 7   23 190 
 BAR2 SZ I         248 42.08        52.8 0.60                            23 190 
 BRR  HZ EP        248 27.69                             152     0.410   71 299 
 BRR  HZ I         248 29.94        31.9 0.10                            71 299 
 BRR  HN ES   1    248 44.16                             152     0.5 7   71 299 
 PAM  SZ EP        248 28.55                             150     0.210   78  39 
 PAM  SN ES   1    248 45.31                             150    -0.2 7   78  39 
 RUS  HZ EP        248 29.69                             143    -0.210  100 176 
 RUS  HN ES   1    248 48.11                             143    -0.1 7  100 176 
 RUS  HZ I         248 49.71        23.8 0.56                           100 176 
 PTB  HZ EP        248 32.60                             132    -0.5 9  148 259 
 PTB  HN ES   2    248 52.95                             132    -1.1 5  148 259 
 PTB  HZ I         249  0.80        26.6 0.74                           148 259 
 ZAR  HZ EP   2    248 38.44                             122    -0.2 4  204 292 
 ZAR  HE ES   2    249  3.58                             122    -0.3 4  204 292 
 ZAR  HZ I         249  9.28        35.7 0.56                           204 292 
 NOR  SZ EP        248 42.04                             118     0.1 8  234 235 
 NOR  SE ES   1    249  9.94                             118     0.3 6  234 235 
 CHI  HZ EP        248 43.89                             117     0.0 8  248 195 
 CHI  HN ES   2    249 12.95                             117    -0.2 4  248 195 
 CHI  HZ I         249 16.16         7.9 0.58                           248 195 
 HEL  HZ EP        248 46.78                             114     0.4 8  272 256 
 HEL  HZ I         249 24.18        16.2 0.42                           272 256 
 URE  HZ EP   2    248 46.35                             113    -1.0 4  284 292 
 GUY  SZ EP   3    248 50.95                             112     0.9 2  303 235 
 RREF HZ EP   2    248 51.95                             110    -0.4 3  321 229 
 RREF HZ I         249 37.45        15.6 0.30                           321 229 
 COD  HZ EP   2    248 54.11                             108    -0.6 3  349 355 
 PRA  HZ EP        248 59.59                             106    -0.1 6  392 210 
 PRA  HN ES   1    249 42.21                             106     0.8 4  392 210 
                                                                                
