 2017  7 8 0403 56.4 L   6.814 -73.203140.3  RSN  8 0.4 1.4LRSN                1
 GAP=210        0.97       6.0     5.1  7.2  0.8645E+01  0.2069E+01  0.9365E+01E
 Epicentro: ZAPATOCA - SANTANDER                                               3
 ACTION:UPD 17-08-30 15:30 OP:rebc STATUS:               ID:20170708040356 L   I
 OLDACT:UP  17-07-08 14:53 OP:edw  STATUS:               ID:20170708035638d    3
 OLDACT:UP  17-07-08 14:52 OP:edw  STATUS:               ID:20170708035638d    3
 OLDACT:UP  17-07-08 14:47 OP:edw  STATUS:               ID:20170708035638d    3
 OLDACT:DUP 17-07-08 14:43 OP:edw  STATUS:               ID:20170708035638d    3
 OLDACT:UP  17-07-08 14:41 OP:edw  STATUS:               ID:20170708035637     3
 OLDACT:REG 17-07-08 13:02 OP:edw  STATUS:               ID:20170708035637     3
 2017-07-08-0358-00M.COL___374                                                 6
 STAT SP IPHASW D HRMM SECON CODA AMPLIT PERI AZIMU VELO AIN AR TRES W  DIS CAZ7
 BAR2 EZ EP        4 4 15.29                             170   -0.1310 24.6 175 
 BAR2 EZ ES        4 4 30.13                             170   -0.1010 24.6 175 
 BRR  HZ EP        4 4 17.00                             154    0.3710 65.0 300 
 BRR  HN ES        4 4 32.57                             154    0.1810 65.0 300 
 PTB  HZ EP        4 4 23.14                             132    0.74 9  142 258 
 PTB  HN ES        4 4 42.08                             132   -0.59 9  142 258 
 PTB  HZ I         4 4 46.62         1.7 0.22            124            142 258 
 SPBC HZ EP   2    4 4 23.68                             128   -0.56 5  160 217 
 SPBC HN ES        4 4 46.41                             128    0.47 9  160 217 
 SPBC HZ I         4 4 48.53         5.3 0.24            122            160 217 
 YPLC HZ EP     D  4 4 25.82                             125   -0.44 9  181 150 
 ZAR  HZ EP   4    4 4 23.48                             122   -4.36 0  198 292 
 ZAR  HN ES        4 4 51.94                             122   -0.42 9  198 292 
 ZAR  HZ I         4 4 59.12         3.6 0.40            116            198 292 
 NOR  HZ EP   2    4 4 30.97                             118   -0.41 4  230 233 
 NOR  HE ES   4    4 4 59.99                             118    1.34 0  230 233 
 NOR  HZ I         4 5  1.07         1.9 0.16            113            230 233 
 CBOC HZ EP   4    4 4 44.34                             109    1.87 0  328 251 
 CBOC HN ES   2    4 5 18.33                             109   -0.06 3  328 251 
 CBOC HZ I         4 5 31.95         0.5 0.50            105            328 251 
                                                                                
