 2016 12 8 0021  9.3 L   6.786 -73.085144.0  RSN  5 0.2 1.4LRSN                1
 GAP=145        0.56       2.5     4.3  4.1 -0.1912E+01  0.1804E+00  0.3080E+01E
 Epicentro: LOS SANTOS - SANTANDER                                             3
 ACTION:UPD 17-01-11 20:13 OP:rebc STATUS:               ID:20161208002109 L   I
 OLDACT:DUP 16-12-08 14:00 OP:ar   STATUS:               ID:20161208001743d    3
 2016-12-08-0018-00M.COL___370                                                 6
 STAT SP IPHASW D HRMM SECON CODA AMPLIT PERI AZIMU VELO AIN AR TRES W  DIS CAZ7
 BAR2 EZ ES        021 43.65                             170   -0.2710 24.0 207 
 BAR2 EZ I         021 46.25        10.9 0.32            167           24.0 207 
 PAM  EZ EP        021 31.51                             151    0.3110 74.6  35 
 PAM  EN ES        021 48.14                             151   -0.1110 74.6  35 
 PAM  EZ I         021 50.17         4.2 0.34            154           74.6  35 
 BRR  HZ EP        021 30.52                             150   -0.1710 77.9 297 
 BRR  HE ES        021 47.53                             150    0.1910 77.9 297 
 RUS  HZ EP        021 32.66                             144   -0.1210 98.8 180 
 RUS  HN ES        021 51.30                             144    0.2310 98.8 180 
 RUS  HZ I         021 52.36         4.1 0.30            142           98.8 180 
 CHI  HZ EP        021 46.80                             117   -0.17 8  249 197 
 CHI  HN ES        022 16.42                             117    0.09 8  249 197 
 CHI  HZ I         022 26.12         1.6 0.58            116            249 197 
                                                                                
