 2011  8 8 1145 20.0 L   6.850 -73.260142.5  RSN  4 0.4 1.7LRSN                1
 GAP=292        0.79       9.4    20.0  9.5 -0.4721E+02  0.9233E+02  0.5487E+01E
 Epicentro: ZAPATOCA - SANTANDER                                               3
 ACTION:UPD 12-07-25 14:07 OP:epov STATUS:               ID:20110808114520 L   I
 2011-08-08-1140-25S.COL___143                                                 6
 STAT SP IPHASW D HRMM SECON CODA AMPLIT PERI AZIMU VELO AIN AR TRES W  DIS CAZ7
 BAR2 SZ EP       1145 39.77                             168    0.3910 29.8 163 
 BAR2 SZ ES   1   1145 54.14                             168   -0.37 7 29.8 163 
 BAR2 SZ I        1145 57.17        13.0 0.24                          29.8 163 
 RUS  HZ EP       1145 44.14                             141    0.1810  108 170 
 RUS  HE ES   1   1146  2.64                             141   -0.01 7  108 170 
 RUS  HZ I        1146  4.12         7.8 0.46                           108 170 
 NOR  SN ES   3   1146 22.19                             119    0.23 2  228 231 
 CHI  HZ EP       1145 57.07                             116   -0.70 8  251 192 
 CHI  HN ES   2   1146 27.67                             116    0.42 4  251 192 
 CHI  HZ I        1146 31.25         3.7 0.56                           251 192 
                                                                                
