 2012 10 8 2124 19.9 L   6.781 -73.137156.5  RSN  6 0.3 1.9LRSN                1
 GAP=187        0.52       3.7     5.7  6.5  0.1072E+02 -0.1033E+01  0.3688E+01E
 Epicentro: LOS SANTOS - SANTANDER                                             3
 ACTION:UPD 12-11-22 17:02 OP:ep   STATUS:               ID:20121008212419 L   I
 2012-10-08-2120-00M.COL___223                                                 6
 STAT SP IPHASW D HRMM SECON CODA AMPLIT PERI AZIMU VELO AIN AR TRES W  DIS CAZ7
 BAR2 SZ EP   1   2124 40.63                             172   -0.13 7 21.5 194 
 BAR2 SZ I        2124 40.97        15.6 0.32                          21.5 194 
 GIR2 SZ EP   1   2124 40.84                             167   -0.04 7 33.5 349 
 BRR  HZ EP   1   2124 42.71                             154    0.42 7 73.1 300 
 BRR  HE ES   1   2125  0.02                             154    0.25 7 73.1 300 
 BRR  HN I        2125  2.69        31.1 0.18                          73.1 300 
 RUS  HZ EP   1   2124 44.46                             147   -0.09 7 98.4 177 
 RUS  HN ES   1   2125  3.54                             147   -0.25 7 98.4 177 
 RUS  HN I        2125  4.94         5.7 0.44                          98.4 177 
 ZAR  HE ES   1   2125 18.82                             124   -0.39 6  206 293 
 ZAR  HN I        2125 26.34        10.2 0.42                           206 293 
 CHI  HZ EP   1   2124 57.92                             119   -0.08 6  247 196 
 CHI  HN ES   1   2125 28.03                             119    0.29 6  247 196 
 CHI  HN I        2125 32.43         6.7 0.56                           247 196 
 CHI  HZ I        2125 33.97         3.2 0.52                           247 196 
                                                                                
