 2011  1 8 2204 58.6 L   6.738 -72.999132.0  RSN  4 0.2 1.6LRSN                1
 GAP=176        0.49       4.7    18.7  8.8 -0.2311E+02 -0.1017E+03 -0.7024E+01E
 Epicentro: CEPITA - SANTANDER                                                 3
 ACTION:UP  11-02-08 08:39 OP:pat  STATUS:               ID:20110108220458 L   I
 2011-01-08-2201-39S.COL___135                                                 6
 STAT SP IPHASW D HRMM SECON CODA AMPLIT PERI AZIMU VELO SNR AR TRES W  DIS CAZ7
 BAR2 SZ EP       22 5 16.77                             169     0.210   26 231 
 BAR2 SZ ES   2   22 5 30.33                             169    -0.3 5   26 231 
 BAR2 SZ I        22 5 31.53        13.7 0.22                            26 231 
 BTL  SZ EP       22 5 16.73                             164    -0.210   36 304 
 BTL  SZ ES   2   22 5 31.54                             164     0.4 5   36 304 
 RUS  HZ EP   2   22 5 20.18                             143    -0.3 5   94 186 
 RUS  HN ES   2   22 5 37.79                             143     0.2 5   94 186 
 RUS  HZ I        22 5 39.21         3.4 0.21                            94 186 
 GRA  SZ IP       22 5 22.91                             133     0.010  129  10 
 GRA  SZ I        22 5 24.04         7.7 0.32                           129  10 
 GRA  SZ ES   3   22 5 41.51                             133    -0.3 2  129  10 
                                                                                
