 2017  6 8 2129 38.1 L   6.548 -73.667 94.0  RSN  5 0.5 1.5LRSN                1
 GAP=143        0.89       4.9     5.5  9.7  0.1740E+02  0.2238E+02  0.1436E+02E
 Epicentro: EL CARMEN - SANTANDER                                              3
 ACTION:UPD 17-09-14 16:50 OP:jn   STATUS:               ID:20170608212938 L   I
 OLDACT:UP  17-06-09 08:17 OP:dani STATUS:               ID:20170608212739     3
 OLDACT:UP  17-06-09 08:17 OP:dani STATUS:               ID:20170608212739     3
 OLDACT:UP  17-06-09 08:16 OP:dani STATUS:               ID:20170608212739     3
 OLDACT:REG 17-06-09 07:51 OP:dani STATUS:               ID:20170608212739     3
 2017-06-08-2128-00M.COL___368                                                 6
 STAT SP IPHASW D HRMM SECON CODA AMPLIT PERI AZIMU VELO AIN AR TRES W  DIS CAZ7
 BRR  HZ EP       2129 52.84                             144   -0.4810 62.0 355 
 BRR  HN ES       2130  5.41                             144    0.2610 62.0 355 
 BRR  HZ I        2130  6.96        11.2 0.34            143           62.0 355 
 PTB  HZ EP   2   2129 54.51                             134   -0.89 5 87.3 269 
 PTB  HN ES   2   2130  7.88                             134   -0.98 5 87.3 269 
 PTB  HZ I        2130  8.72         6.7 0.12            134           87.3 269 
 RUS  HZ EP       2129 56.93                             131   -0.0110 97.1 138 
 RUS  HN ES       2130 11.75                             131    0.1610 97.1 138 
 RUS  HZ I        2130 13.57         8.0 0.16            132           97.1 138 
 ZAR  HZ EP       2130  3.88                             115    0.16 9  168 308 
 ZAR  HN ES       2130 23.96                             115    0.30 9  168 308 
 ZAR  HZ I        2130 28.71         7.2 0.34            115            168 308 
 NOR  HE ES   2   2130 25.36                             114    0.81 4  172 231 
                                                                                
