 2012  1 8 2021 57.8 L   7.284 -73.846 11.6  RSN  4 0.3 1.1LRSN                1
 GAP=248        0.69       6.0     3.6  4.7 -0.4916E+01  0.8151E+00  0.2333E+01E
 Epicentro: PUERTO WILCHES - SANTANDER                                         3
 ACTION:UP  12-02-03 08:15 OP:REBC STATUS:               ID:20120108202157 L   I
 2012-01-08-2020-00M.COL___186                                                 6
 STAT SP IPHASW D HRMM SECON CODA AMPLIT PERI AZIMU VELO SNR AR TRES W  DIS CAZ7
 BRR  HZ IP     C 2022  2.67                             110     0.310   25 143 
 BRR  HZ I        2022  2.88        37.7 0.15                            25 143 
 BRR  HE ES   1   2022  5.78                             110    -0.1 7   25 143 
 GIR2 SZ EP       2022  9.78                              96    -0.310   76 107 
 PTB  HZ EP   1   2022 14.77                              94     0.2 7  106 219 
 PTB  HE ES   2   2022 27.12                              94    -0.6 5  106 219 
 RUS  HZ EP   1   2022 25.26                              56     0.3 7  175 151 
 RUS  HE ES   1   2022 46.04                              56    -0.1 7  175 151 
 RUS  HZ I        2022 48.03         1.3 0.48                           175 151 
                                                                                
