 2010  9 9 0531 38.7 L   6.015 -73.862 84.0  RSN  6 0.3 1.2LRSN                1
 GAP=101        0.77       5.7     9.0 17.0  0.2007E+02  0.7801E+02  0.1503E+02E
 Epicentro: EL PEON - SANTANDER                                                3
 ACTION:UP  11-02-18 11:01 OP:tino STATUS:               ID:20100909053138 L   I
 2010-09-09-0529-05S.COL___120                                                 6
 STAT SP IPHASW D HRMM SECON CODA AMPLIT PERI AZIMU VELO SNR AR TRES W  DIS CAZ7
 RUS  HZ EP        531 56.02                             131     0.310   87  99 
 RUS  HE ES   2    532  8.51                             131    -0.6 5   87  99 
 RUS  HZ I         532 11.83         3.5 0.43                            87  99 
 BAR2 SZ EP        531 56.52                             127     0.010   98  50 
 BAR2 SZ I         532 12.92         8.5 0.29                            98  50 
 BRR  HZ EP   1    531 58.03                             120    -0.6 7  122   8 
 BRR  HN ES   1    532 14.51                             120     0.3 7  122   8 
 BRR  HZ I         532 18.79         4.9 0.12                           122   8 
 CHI  HE ES   3    532 21.39                             114     0.0 2  154 175 
 HEL  HZ EP   2    532  6.33                             110     0.1 4  186 276 
 HEL  HZ I         532 32.09         2.6 0.53                           186 276 
 GUE  SZ EP   1    532 10.92                             106     0.0 6  226  27 
 GUE  SZ I         532 11.09         1.0 0.07                           226  27 
                                                                                
