 2010 11 9 0627  6.8 L   6.758 -72.951176.0  RSN 12 0.5 2.3LRSN                1
 GAP=181        1.08       5.3     8.6  8.1 -0.1687E+02 -0.1112E+02  0.6375E+01E
 Epicentro: CEPITA - SANTANDER                                                 3
 ACTION:UP  10-12-17 16:51 OP:REBC STATUS:               ID:20101109062706 L   I
 2010-11-09-0625-36S.COL___128                                                 6
 STAT SP IPHASW D HRMM SECON CODA AMPLIT PERI AZIMU VELO SNR AR TRES W  DIS CAZ7
 BAR2 SZ EP        627 29.98                             169    -0.210   32 234 
 BAR2 SZ ES   1    627 48.34                             169    -0.1 7   32 234 
 BAR2 SZ I         627 49.74        28.0 0.45                            32 234 
 BTL  SZ EP        627 30.10                             167    -0.310   39 297 
 BRR  HZ EP        627 32.08                             151    -0.310   93 295 
 BRR  HZ I         627 32.55       104.8 0.14                            93 295 
 BRR  HN ES        627 52.84                             151     0.510   93 295 
 RUS  HZ EP        627 33.60                             150     0.210   97 189 
 RUS  HN ES   2    627 53.98                             150    -0.1 5   97 189 
 RUS  HZ I         627 56.20        28.7 0.45                            97 189 
 GUE  SZ EP        627 35.49                             145     0.910  119   1 
 GRA  SZ EP        627 34.64                             143    -0.210  126   7 
 GRA  SZ I         627 36.54        31.1 0.11                           126   7 
 OCA  SZ EP        627 37.72                             134    -0.6 9  169 346 
 OCA  SZ ES   1    628  2.86                             134     0.0 7  169 346 
 OCA  SZ I         628  6.86        15.5 0.54                           169 346 
 NOR  SN ES   2    628 16.13                             123    -0.5 4  250 238 
 ROSC BN ES   2    628 18.92                             122    -0.4 4  261 216 
 ROSC BZ I         628 26.09         5.7 0.29                           261 216 
 HEL  HZ EP   1    627 50.43                             119    -0.4 5  292 258 
 HEL  HN ES   2    628 24.67                             119    -0.5 4  292 258 
 HEL  HZ I         628 31.28         9.5 1.74                           292 258 
 RREF HZ EP   1    627 56.62                             115     0.7 5  336 232 
 RREF HN ES   2    628 35.24                             115     1.0 3  336 232 
 RREF HZ I         628 44.15         6.7 0.88                           336 232 
 PRA  HZ EP        628  2.30                             111     0.0 6  399 213 
 PRA  HE ES   2    628 45.91                             111     0.3 3  399 213 
                                                                                
