 2013 11 9 0056 53.7 L   7.405 -73.216128.0  RSN  5 0.2 1.6LRSN 2.5WRSN        1
 SPEC AVERAGE  MO 12.8 ST  5.4 OM  1.6 f0 8.75 R0.4213 AL 0.00 WI 20.0 MW  2.5 3
 SPEC SD       MO  0.1 ST  5.3 OM  0.6 f0 6.05 R0.2913 AL      WI      MW  0.1 3
 GAP=150        0.67       4.4     2.7  5.5 -0.4370E+01  0.5134E+01 -0.9071E+01E
 Epicentro: EL PLAYON - SANTANDER                                              3
 SPEC BRR HH Z MO 12.7 ST 10.7 OM  0.9 f0 14.8 R0.1300 AL-0.00 WI 20.0 MW  2.4 3
 SPEC BRR HH Z T 05726 K 0.050 GD  143 VS 5.20 DE 3.20 Q0750.0 QA 1.50 VS 5.20 3
 SPEC BAR2SH Z MO 13.0 ST0.113 OM  1.1 f0 2.70 R0.7126 AL-0.00 WI 20.0 MW  2.6 3
 SPEC BAR2SH Z T 05729 K 0.050 GD  156 VS 5.20 DE 3.20 Q0750.0 QA 1.50 VS 5.20 3
 OLDACT:REG 13-11-09 08:11 OP:stll STATUS:               ID:20131109004847     3
 ACTION:UPD 14-01-09 16:26 OP:ep   STATUS:               ID:20131109005653 L   I
 OLDACT:UP  13-11-09 09:06 OP:stll STATUS:               ID:20131109004847     3
 2013-11-09-0048-47M.COL___219                                                 6
 STAT SP IPHASW D HRMM SECON CODA AMPLIT PERI AZIMU VELO AIN AR TRES W  DIS CAZ7
 PAM  SZ EP        057 12.79                             155   -0.1010 57.5  97 
 PAM  SN ES        057 27.54                             155   -0.3110 57.5  97 
 PAM  SZ I         057 29.22         6.3 0.16            157           57.5  97 
 BRR  HZ EP        057 12.52                             152   -0.0110 63.9 239 
 BRR  HN ES        057 27.70                             152    0.4910 63.9 239 
 BRR  SZ I         057 28.64         7.9 0.12            152           63.9 239 
 BAR2 SZ EP        057 14.53                             143   -0.0610 89.9 178 
 BAR2 SZ ES        057 30.82                             143   -0.0610 89.9 178 
 BAR2 SZ I         057 33.68         9.2 0.52            144           89.9 178 
 CAPV BZ EP        057 16.61                             136    0.3010  112  63 
 CAPV BZ ES        057 33.94                             136    0.0110  112  63 
 ZAR  HZ EP        057 22.77                             121    0.09 9  182 273 
 ZAR  HN ES        057 44.87                             121   -0.41 9  182 273 
 ZAR  SZ I         057 48.78         5.1 0.58            123            182 273 
                                                                                
