 2011  4 9 0701 41.3 L   6.752 -73.095145.3  RSN 11 0.3 1.9LRSN                1
 GAP=120        0.68       4.8     5.4  5.9 -0.1157E+02  0.2615E+00  0.4365E+01E
 Epicentro: LOS SANTOS - SANTANDER                                             3
 ACTION:UP  11-06-22 15:29 OP:REBC STATUS:               ID:20110409070141 L   I
 2011-04-09-0700-05S.COL___138                                                 6
 STAT SP IPHASW D HRMM SECON CODA AMPLIT PERI AZIMU VELO SNR AR TRES W  DIS CAZ7
 BAR2 SZ EP   1    7 2  0.93                             172     0.1 7   20 209 
 BAR2 SZ ES   1    7 2 15.87                             172    -0.2 7   20 209 
 BAR2 SZ I         7 2 17.58        34.7 0.18                            20 209 
 BTL  SZ EP        7 2  0.35                             169    -0.610   27 314 
 GIR2 SZ EP   2    7 2  1.35                             165     0.2 5   38 343 
 PAM  SZ EP   1    7 2  3.72                             150     0.2 7   78  34 
 PAM  SN ES   2    7 2 21.35                             150     0.5 5   78  34 
 BRR  HZ IP     C  7 2  3.09                             150     0.210   79 300 
 BRR  HE ES   1    7 2 19.83                             150     0.2 7   79 300 
 BRR  HZ I         7 2 21.81        23.3 0.35                            79 300 
 GRA  SZ EP   1    7 2  6.96                             136     0.1 7  129  14 
 GRA  SZ ES   1    7 2 26.69                             136     0.0 7  129  14 
 GRA  SZ I         7 2 27.87         6.3 0.41                           129  14 
 OCA  SZ EP   1    7 2  9.86                             128    -0.3 7  166 351 
 OCA  SZ I         7 2 38.33         8.7 0.24                           166 351 
 YOP  SZ EP   2    7 2 11.00                             127     0.4 4  172 154 
 YOP  SZ I         7 2 40.30         5.0 0.26                           172 154 
 NOR  SZ EP   2    7 2 16.71                             118    -0.5 4  236 236 
 NOR  SE ES   2    7 2 45.27                             118     0.1 4  236 236 
 CHI  HZ EP   2    7 2 19.01                             117     0.4 4  245 197 
 CHI  HZ I         7 2 54.47         3.2 0.62                           245 197 
 HEL  HZ EP   2    7 2 22.25                             114     0.3 4  276 257 
 HEL  HN ES   2    7 2 53.90                             114     0.2 4  276 257 
 HEL  HZ I         7 3  0.13         5.1 0.27                           276 257 
                                                                                
