 2012  7 9 0601  4.9 L   6.724 -73.161145.1  RSN  4 0.4 1.4LRSN                1
 GAP=230        0.82       8.6     8.6 10.1  0.3765E+02 -0.4016E+01 -0.2545E+01E
 Epicentro: VILLANUEVA - SANTANDER                                             3
 ACTION:UPD 12-08-14 11:43 OP:ep   STATUS:               ID:20120709060104 L   I
 2012-07-09-0600-00M.COL___201                                                 6
 STAT SP IPHASW D HRMM SECON CODA AMPLIT PERI AZIMU VELO AIN AR TRES W  DIS CAZ7
 BAR2 SZ EP   1    6 1 23.90                             174    -0.4 7   15 189 
 BAR2 SZ ES   1    6 1 39.01                             174    -0.5 7   15 189 
 BRR  HN EP   1    6 1 26.22                             151     0.1 7   74 305 
 BRR  HE ES   1    6 1 43.27                             151     0.5 7   74 305 
 BRR  HN I         6 1 48.59         8.2 0.15                            74 305 
 RUS  HZ EP   1    6 1 28.27                             146     0.2 7   92 175 
 RUS  HN ES   1    6 1 46.37                             146     0.3 7   92 175 
 RUS  HZ I         6 1 47.73         2.1 0.36                            92 175 
 PTB  HN ES   1    6 1 52.04                             132    -0.3 7  145 262 
