 2016 11 9 0602 30.2 L   7.156 -72.987163.6  RSN  4 0.4 1.3LRSN                1
 GAP=279        1.00      13.1     8.4  9.2  0.5251E+02 -0.9792E+01 -0.5074E+02E
 Epicentro: TONA - SANTANDER                                                   3
 ACTION:UPD 17-10-26 21:06 OP:lp   STATUS:               ID:20161109060230 L   I
 OLDACT:REG 16-11-09 12:46 OP:lv   STATUS:               ID:20161109055744     3
 2016-11-09-0558-00M.COL___346                                                 6
 STAT SP IPHASW D HRMM SECON CODA AMPLIT PERI AZIMU VELO AIN AR TRES W  DIS CAZ7
 BAR2 EZ EP        6 2 54.09                             157    0.7010 65.9 199 
 BAR2 EZ ES        6 3 11.06                             157   -0.4110 65.9 199 
 BRR  HZ EP        6 2 53.77                             153   -0.0110 80.3 266 
 BRR  HN ES        6 3 12.17                             153   -0.0110 80.3 266 
 BRR  HZ I         6 3 16.86         3.4 0.38            154           80.3 266 
 PTB  HZ EP        6 3  1.07                             130   -0.13 9  176 247 
 PTB  HN ES        6 3 25.45                             130    0.07 9  176 247 
 PTB  HZ I         6 3 26.67         1.5 0.16            134            176 247 
 ZAR  HZ EP        6 3  3.76                             125   -0.69 8  210 280 
 ZAR  HN ES        6 3 31.55                             125    0.39 8  210 280 
                                                                                
