 2014 12 9 0958 26.3 L   6.775 -73.175149.5  RSN  7 0.5 1.6LRSN                1
 GAP=232        1.21       6.2     6.4  8.6  0.1035E+02  0.1604E+02  0.7148E+01E
 Epicentro: LOS SANTOS - SANTANDER                                             3
 ACTION:UPD 15-02-10 17:01 OP:nd   STATUS:               ID:20141209095826 L   I
 OLDACT:REG 14-12-09 13:08 OP:fm   STATUS:               ID:20141209094745     3
 2014-12-09-0947-45M.COL___297                                                 6
 STAT SP IPHASW D HRMM SECON CODA AMPLIT PERI AZIMU VELO AIN AR TRES W  DIS CAZ7
 BAR2 SZ EP        958 47.16                             172    0.8910 20.2 182 
 BAR2 SZ ES        959  1.40                             172   -0.4810 20.2 182 
 BAR2 SZ I         959  3.99         7.0 0.44            170           20.2 182 
 BRR  HZ EP        958 48.02                             154    0.3010 69.8 302 
 BRR  HN ES        959  4.38                             154   -0.0910 69.8 302 
 BRR  HZ I         959  9.03         5.2 0.42            151           69.8 302 
 RUS  HZ EP        958 49.99                             145   -0.2010 98.1 174 
 RUS  HN ES        959  8.94                             145    0.0710 98.1 174 
 RUS  HZ I         959 10.76         4.7 0.28            149           98.1 174 
 PTB  HZ EP        958 52.63                             134   -0.56 9  144 260 
 PTB  HN ES        959 14.91                             134    0.71 9  144 260 
 PTB  HZ I         959 22.64         5.1 0.32            133            144 260 
 SPBC HN ES        959 16.39                             131   -0.40 9  159 219 
 SPBC HZ I         959 20.68         7.3 0.22            132            159 219 
 ZAR  HN ES        959 23.66                             123   -0.43 9  202 293 
 ZAR  HZ I         959 31.92         3.9 0.42            124            202 293 
 GUY2CHZ EP        959  9.06                             113   -0.49 7  297 235 
 GUY2CHN ES        959 43.89                             113    0.56 7  297 235 
 GUY2CHZ I         959 53.87         3.1 0.82                           297 235 
                                                                                
