 2012  5 9 0502 49.4 L   6.790 -73.160144.9  RSN  6 0.4 1.7LRSN                1
 GAP=135        0.96       6.1     6.0  9.3  0.3455E+01  0.1592E+02  0.3249E+01E
 Epicentro: LOS SANTOS - SANTANDER                                             3
 ACTION:UP  12-07-05 12:03 OP:pat  STATUS:               ID:20120509050249 L   I
 2012-05-09-0500-00M.COL___192                                                 6
 STAT SP IPHASW D HRMM SECON CODA AMPLIT PERI AZIMU VELO SNR AR TRES W  DIS CAZ7
 BAR2 SZ EP        5 3  8.92                             171     0.010   22 187 
 BAR2 SZ I         5 3  9.15        14.0 0.38                            22 187 
 BRR  HZ EP        5 3 10.73                             153     0.310   70 300 
 BRR  HN ES   1    5 3 27.46                             153     0.6 7   70 300 
 BRR  HZ I         5 3 31.14        13.7 0.12                            70 300 
 PAM  SZ EP        5 3 11.79                             150     0.110   79  40 
 PAM  SN ES   1    5 3 28.37                             150    -0.6 7   79  40 
 RUS  HZ EP        5 3 13.14                             144     0.110  100 175 
 RUS  HZ I         5 3 14.20         4.1 0.16                           100 175 
 RUS  HN ES   1    5 3 31.40                             144     0.0 7  100 175 
 PTB  HZ EP        5 3 15.66                             132    -0.5 9  146 259 
 PTB  HN ES   2    5 3 36.64                             132    -0.4 5  146 259 
 PTB  HZ I         5 3 39.14         5.4 0.36                           146 259 
 ZAR  HZ EP        5 3 21.92                             122     0.2 9  203 293 
 ZAR  HN ES   2    5 3 46.17                             122    -0.7 4  203 293 
 ZAR  HZ I         5 3 52.47         8.1 0.20                           203 293 
                                                                                
