 2012  3 9 1702 46.0 L   6.746 -73.169139.7  RSN  7 0.4 1.8LRSN                1
 GAP=136        0.94       5.7     5.4  8.0  0.3551E+01  0.1016E+02  0.6886E+01E
 ACTION:UP  12-03-31 23:18 OP:EP   STATUS:               ID:20120309170246 L   I
 2012-03-09-1700-00M.COL___193                                                 6
 STAT SP IPHASW D HRMM SECON CODA AMPLIT PERI AZIMU VELO SNR AR TRES W  DIS CAZ7
 BAR2 SZ EP   1   17 3  5.05                             173     0.2 7   17 185 
 BAR2 SZ ES   1   17 3 19.17                             173    -0.3 7   17 185 
 BAR2 SZ I        17 3 20.94        14.0 0.29                            17 185 
 BRR  HZ EP       17 3  6.67                             151     0.110   72 304 
 BRR  HZ I        17 3  6.91        24.0 0.16                            72 304 
 BRR  HN ES   1   17 3 23.52                             151     0.9 7   72 304 
 PAM  SZ EP   1   17 3  7.81                             148    -0.2 7   84  38 
 PAM  SE ES   1   17 3 24.85                             148    -0.3 7   84  38 
 RUS  HZ EP   1   17 3  9.06                             144     0.3 7   95 174 
 RUS  HN ES   1   17 3 26.25                             144    -0.2 7   95 174 
 PTB  HZ EP       17 3 11.74                             131    -0.4 9  144 261 
 PTB  HN ES   1   17 3 32.32                             131    -0.2 7  144 261 
 ZAR  HN ES   1   17 3 42.78                             121    -0.3 6  204 294 
 ZAR  HZ I        17 3 50.11         3.7 0.17                           204 294 
 CHI  HZ EP   1   17 3 23.27                             116     0.6 6  242 195 
 CHI  HZ I        17 3 31.84         2.5 0.53                           242 195 
                                                                                
