 2015  3 9 1853 52.8 L   6.787 -73.153138.0  RSN 10 0.4 1.8LRSN                1
 GAP=136        0.77       3.0     3.6  5.8  0.1285E+00  0.7704E+01  0.3284E+01E
 Epicentro: LOS SANTOS - SANTANDER                                             3
 ACTION:UPD 15-04-30 16:24 OP:nd   STATUS:               ID:20150309185352 L   I
 OLDACT:REG 15-03-09 23:08 OP:spq  STATUS:               ID:20150309184748     3
 2015-03-09-1847-48M.COL___281                                                 6
 STAT SP IPHASW D HRMM SECON CODA AMPLIT PERI AZIMU VELO AIN AR TRES W  DIS CAZ7
 BAR2 EZ EP       1854 11.25                             171   -0.1810 21.8 188 
 BAR2 EZ ES   1   1854 26.14                             171    0.15 7 21.8 188 
 BAR2 EZ I        1854 27.41        10.9 0.38            168           21.8 188 
 BRR  HZ EP   1   1854 13.36                             151    0.28 7 71.1 300 
 PAM  SZ EP       1854 14.10                             149   -0.1610 79.0  39 
 PAM  SN ES       1854 31.16                             149    0.1310 79.0  39 
 PAM  SZ I        1854 33.38        14.3 0.54            153           79.0  39 
 RUS  HZ EP   1   1854 15.46                             143   -0.20 7 99.3 176 
 RUS  HN ES   1   1854 33.94                             143    0.42 7 99.3 176 
 RUS  HZ I        1854 34.83         7.4 0.30            143           99.3 176 
 PTB  HZ EP   1   1854 18.16                             130   -0.85 7  147 259 
 PTB  HN ES       1854 39.04                             130   -0.44 9  147 259 
 PTB  HZ I        1854 42.11         8.6 0.35            129            147 259 
 ZAR  HZ EP   1   1854 25.31                             121    0.62 6  204 293 
 ZAR  HE ES       1854 50.07                             121    0.48 9  204 293 
 ZAR  HZ I        1855  0.09         5.8 0.40            120            204 293 
 SML  HE ES   1   1854 57.02                             116   -0.37 6  245 336 
 SML  HZ I        1855  0.63        13.5 0.05            116            245 336 
 CHI  HZ EP   1   1854 29.71                             116   -0.17 6  247 195 
 CHI  HN ES   1   1854 58.66                             116   -0.16 6  247 195 
 CHI  HZ I        1855  7.00         2.5 0.34            116            247 195 
 GUY2CHZ EP   1   1854 36.41                             111    0.55 5  300 235 
 GUY2CHN ES   4   1855 13.27                             111    3.80 0  300 235 
 GUY2CHZ I        1855 19.02         3.0 0.60                           300 235 
 PRA  HZ EP       1854 45.93                             105    0.09 6  390 210 
 PRA  HN ES   1   1855 27.83                             105    0.59 4  390 210 
 PRA  HZ I        1855 34.64         3.3 0.58            106            390 210 
                                                                                
