 2013  1 9 1048 58.8 L   6.864 -73.269124.0  RSN 11 0.5 2.6LRSN 3.0WRSN        1
 SPEC AVERAGE  MO 13.6 ST  6.0 OM  2.4 f0 3.76 R0.4273 AL 1.97 WI 21.0 MW  3.0 3
 SPEC SD       MO  0.2 ST  7.8 OM  0.6 f0 1.17 R0.1192 AL      WI      MW  0.2 3
 GAP=110        1.10       3.0     4.9  6.0  0.1003E+01  0.5200E+01 -0.6520E+00E
 Epicentro: ZAPATOCA - SANTANDER                                               3
 SPEC HEL HH N MO 13.5 ST0.889 OM  1.7 f0 2.67 R0.5506 AL 1.38 WI 18.7 MW  3.0 3
 SPEC HEL HH N T1050 5 K 0.000 GD  288 VS 4.20 DE 3.00 Q0230.0 QA 0.60 VS 4.20 3
 SPEC CHI HH N MO 13.5 ST0.835 OM  1.7 f0 2.64 R0.5568 AL 1.74 WI 20.4 MW  3.0 3
 SPEC CHI HH N T1050 3 K 0.000 GD  280 VS 4.20 DE 3.00 Q0230.0 QA 0.60 VS 4.20 3
 SPEC ZAR HH N MO 13.9 ST 20.9 OM  2.2 f0 5.66 R0.2597 AL 1.93 WI 29.6 MW  3.2 3
 SPEC ZAR HH N T104951 K 0.000 GD  226 VS 4.20 DE 3.00 Q0230.0 QA 0.60 VS 4.20 3
 SPEC RUS HH N MO 13.2 ST0.762 OM  1.6 f0 3.30 R0.4455 AL 1.50 WI 14.7 MW  2.7 3
 SPEC RUS HH N T104937 K 0.000 GD  165 VS 4.20 DE 3.00 Q0230.0 QA 0.60 VS 4.20 3
 SPEC BRR HH E MO 13.7 ST  6.5 OM  2.2 f0 4.54 R0.3238 AL 3.32 WI 21.7 MW  3.1 3
 SPEC BRR HH E T104930 K 0.000 GD  136 VS 4.20 DE 3.00 Q0230.0 QA 0.60 VS 4.20 3
 ACTION:UPD 13-02-15 09:13 OP:ep   STATUS:               ID:20130109104859dL   I
 2013-01-09-1048-48M.COL___195                                                 6
 STAT SP IPHASW D HRMM SECON CODA AMPLIT PERI AZIMU VELO AIN AR TRES W  DIS CAZ7
 BAR2 SZ IP       1049 16.34                             165    0.2710 31.6 162 
 BAR2 SZ I        1049 16.51       224.0 0.34            154           31.6 162 
 BAR2 SZ ES       1049 29.81                             165    0.2810 31.6 162 
 BRR  HZ IP     D 1049 16.77                             154    0.0110 55.9 299 
 BRR  HZ I        1049 17.02        48.0 0.28            135           55.9 299 
 BRR  HN ES       1049 30.85                             154    0.1010 55.9 299 
 RUS  HZ EP       1049 21.10                             136   -0.1310  109 169 
 RUS  HN ES       1049 38.62                             136   -0.0910  109 169 
 PTB  HZ EP       1049 21.71                             129   -1.28 9  136 255 
 PTB  HN I        1049 43.94        79.2 0.18            113            136 255 
 OCA  HZ EP       1049 24.51                             126   -0.22 9  152 358 
 OCA  HN ES       1049 44.51                             126   -0.42 9  152 358 
 OCA  HN I        1049 45.22       248.4 0.18            115            152 358 
 ZAR  HZ EP       1049 28.19                             119   -0.12 9  189 292 
 ZAR  HE ES       1049 51.57                             119    0.26 9  189 292 
 ZAR  HN I        1049 54.60        56.1 0.34            107            189 292 
 CHI  HZ EP       1049 36.25                             112    0.41 8  252 192 
 CHI  HN ES       1050  4.57                             112   -0.14 8  252 192 
 CHI  HN I        1050 11.66        15.9 0.32            103            252 192 
 HEL  HZ EP       1049 37.24                             111    0.50 8  261 254 
 HEL  HN I        1050 10.46        14.6 0.24            102            261 254 
 RREF HN ES       1050 18.85                             107    0.52 7  316 227 
 RREF HZ I        1050 24.67         7.6 0.24            100            316 227 
 COD  HN ES       1050 22.90                             105    1.03 7  340 357 
 COD  HN I        1050 29.99         7.7 0.46            100            340 357 
 SDV  BZ EP       1049 48.85                             104    0.00 6  367  52 
                                                                                
