 2013  2 9 1824 10.6 L   6.127 -73.877 88.3  RSN  5 0.2 1.4LRSN                1
 GAP=134        0.53       3.5     2.7  7.6  0.1658E+01  0.3719E+01  0.8540E+01E
 Epicentro: EL PEON - SANTANDER                                                3
 ACTION:UPD 13-03-12 09:31 OP:ep   STATUS:               ID:20130209182410 L   I
 2013-02-09-1820-00M.COL___240                                                 6
 STAT SP IPHASW D HRMM SECON CODA AMPLIT PERI AZIMU VELO AIN AR TRES W  DIS CAZ7
 PTB  HN ES   1   1824 38.89                             135   -0.23 7 78.7 305 
 PTB  HZ I        1824 39.45        14.3 0.30             47           78.7 305 
 RUS  HZ EP   1   1824 28.12                             131   -0.32 7 91.6 106 
 RUS  HN ES   1   1824 42.28                             131   -0.06 7 91.6 106 
 RUS  HZ I        1824 44.10         3.1 0.20             47           91.6 106 
 BAR2 SZ EP   1   1824 28.23                             130    0.05 7 92.4  56 
 BAR2 SZ ES   1   1824 42.17                             130    0.29 7 92.4  56 
 BRR  HZ EP   1   1824 29.35                             124   -0.23 7  110  10 
 BRR  HN ES   1   1824 44.49                             124    0.12 7  110  10 
 BRR  HZ I        1824 45.88         4.9 0.13             47            110  10 
 NOR  HZ EP   1   1824 31.76                             120    0.40 7  126 241 
 NOR  HZ I        1824 50.80        11.5 0.14             47            126 241 
                                                                                
