 2014 10 9 2327 17.4 L   5.859 -73.710120.1  RSN  4 0.5 1.4LRSN                1
 GAP=162        1.29       6.7     5.9 13.5 -0.2460E+01  0.3255E+02  0.1494E+02E
 Epicentro: PUENTE NACIONAL - SANTANDER                                        3
 ACTION:UPD 14-11-29 23:48 OP:nd   STATUS:               ID:20141009232717 L   I
 OLDACT:UP  14-10-10 04:47 OP:cam  STATUS:               ID:20141009231818     3
 OLDACT:REG 14-10-10 04:01 OP:cam  STATUS:               ID:20141009231818     3
 2014-10-09-2318-18M.COL___295                                                 6
 STAT SP IPHASW D HRMM SECON CODA AMPLIT PERI AZIMU VELO AIN AR TRES W  DIS CAZ7
 RUS  HZ EP       2327 36.88                             148    0.4410 69.5  87 
 RUS  HE ES       2327 50.96                             148   -0.3210 69.5  87 
 RUS  HZ I        2327 55.97         2.5 0.70            151           69.5  87 
 PTB  HZ EP       2327 38.08                             134   -0.9410  112 312 
 PTB  HN ES       2327 55.64                             134   -0.2510  112 312 
 PTB  HZ I        2327 57.78         3.4 0.20            139            112 312 
 BRR  HZ EP       2327 41.34                             127   -0.10 9  138 360 
 BRR  HN ES       2328  0.94                             127    0.76 9  138 360 
 BRR  HN I        2328  3.46         9.8 0.18            132            138 360 
 GUY2CHZ EP       2327 48.15                             117    0.07 9  196 249 
 GUY2CHN ES       2328 12.52                             117    0.52 9  196 249 
                                                                                
