 2017 10 9 2145 55.6 L   6.810 -73.250114.8  RSN  4 0.3 1.5LRSN                1
 GAP=174        0.81       4.9     6.5  7.3 -0.2034E+02  0.2616E+02 -0.8422E+01E
 Epicentro: ZAPATOCA - SANTANDER                                               3
 ACTION:UPD 17-11-07 19:30 OP:rebc STATUS:               ID:20171009214555 L   I
 OLDACT:DUP 17-10-10 05:09 OP:dhb  STATUS:               ID:20171009212911d    3
 2017-10-09-2138-00M.COL___429                                                 6
 STAT SP IPHASW D HRMM SECON CODA AMPLIT PERI AZIMU VELO AIN AR TRES W  DIS CAZ7
 BAR2 EZ EP       2146 11.50                             167   -0.0410 25.2 163 
 BAR2 EZ ES       2146 24.42                             167    0.4210 25.2 163 
 BAR2 EZ I        2146 27.72        10.4 0.30            169           25.2 163 
 PAM  EZ EP       2146 15.22                             141    0.1010 84.4  46 
 PAM  EN ES       2146 30.04                             141   -0.3310 84.4  46 
 PAM  EZ I        2146 31.96         6.9 0.48            148           84.4  46 
 RUS  HZ EP       2146 17.10                             135    0.4610  103 170 
 RUS  HN ES       2146 32.64                             135   -0.4410  103 170 
 RUS  HZ I        2146 34.98         6.8 0.32            141            103 170 
 NOR  HZ EP       2146 28.60                             112   -0.13 8  226 233 
 NOR  HE ES       2146 54.48                             112   -0.12 8  226 233 
 NOR  HZ I        2146 59.12         3.8 0.26            115            226 233 
                                                                                
