 2012 1210 0137 35.8 L   6.819 -73.170148.0  RSN  4 0.3 2.0LRSN                1
 GAP=171        0.71       6.0    12.4  7.4 -0.5464E+01  0.1530E+02 -0.1078E+02E
 Epicentro: LOS SANTOS - SANTANDER                                             3
 ACTION:UPD 13-01-04 14:26 OP:ep   STATUS:               ID:20121210013735 L   I
 2012-12-10-0130-00M.COL___242                                                 6
 STAT SP IPHASW D HRMM SECON CODA AMPLIT PERI AZIMU VELO AIN AR TRES W  DIS CAZ7
 BAR2 SZ EP   1    137 55.57                             170   -0.12 7 25.1 183 
 BAR2 SZ ES   1    138 10.75                             170   -0.49 7 25.1 183 
 BAR2 SZ I         138 13.07        28.6 0.18                          25.1 183 
 GIR2 SZ EP   1    137 55.86                             168    0.23 7 28.8 355 
 GIR2 SZ ES   1    138 11.81                             168    0.68 7 28.8 355 
 GIR2 SZ I         138 12.92        14.4 0.36                          28.8 355 
 PAM  SZ EP   1    137 58.41                             151    0.19 7 77.6  42 
 PAM  SE ES   1    138 15.58                             151   -0.16 7 77.6  42 
 PAM  SZ I         138 17.85        27.6 0.56                          77.6  42 
 OCA  HZ EP   1    138  3.94                             131   -0.07 7  158 354 
 OCA  HN ES   1    138 25.72                             131   -0.34 7  158 354 
 OCA  HZ I         138 29.16        11.8 0.18                           158 354 
                                                                                
