 2017  510 0202  2.7 L   6.661 -73.197149.3  RSN  4 0.4 1.0LRSN                1
 GAP=135        1.12       6.1     5.9  9.9 -0.3674E+01  0.3993E+01  0.4062E+01E
 Epicentro: VILLANUEVA - SANTANDER                                             3
 ACTION:UPD 17-06-16 13:34 OP:jn   STATUS:               ID:20170510020202 L   I
 OLDACT:UP  17-05-10 16:20 OP:edw  STATUS:               ID:20170510015742d    3
 OLDACT:DUP 17-05-10 16:13 OP:edw  STATUS:               ID:20170510015742d    3
 OLDACT:UP  17-05-10 16:13 OP:edw  STATUS:               ID:20170510015741     3
 OLDACT:UP  17-05-10 16:12 OP:edw  STATUS:               ID:20170510015741     3
 OLDACT:UP  17-05-10 16:10 OP:edw  STATUS:               ID:20170510015741     3
 OLDACT:REG 17-05-10 13:00 OP:osc  STATUS:               ID:20170510015741     3
 2017-05-10-0158-00M.COL___353                                                 6
 STAT SP IPHASW D HRMM SECON CODA AMPLIT PERI AZIMU VELO AIN AR TRES W  DIS CAZ7
 BRR  HZ EP        2 2 24.72                             152    0.2210 75.3 311 
 BRR  HN ES        2 2 41.76                             152    0.2910 75.3 311 
 RUS  HZ EP        2 2 25.77                             149   -0.0710 85.9 172 
 RUS  HN ES        2 2 43.99                             149    0.1210 85.9 172 
 RUS  HZ I         2 2 45.82         1.8 0.34            153           85.9 172 
 PAM  EZ EP     C  2 2 25.71                             147   -0.6010 93.1  36 
 PAM  EN ES        2 2 44.79                             147    0.0910 93.1  36 
 PAM  EZ I         2 2 50.95         2.4 0.38            148           93.1  36 
 PTB  HZ EP        2 2 29.99                             134    0.70 9  140 265 
 PTB  HN ES        2 2 49.27                             134   -0.74 9  140 265 
 PTB  HZ I         2 2 52.62         1.0 0.52            139            140 265 
                                                                                
