 2012  510 0736 36.9 L   6.760 -73.259156.0  RSN  4 0.2 1.1LRSN                1
 GAP=221        0.44       4.6     4.9  5.4  0.1185E+02 -0.2392E+01 -0.3698E+01E
 Epicentro: ZAPATOCA - SANTANDER                                               3
 ACTION:UP  12-07-05 12:04 OP:pat  STATUS:               ID:20120510073636 L   I
 2012-05-10-0730-00M.COL___195                                                 6
 STAT SP IPHASW D HRMM SECON CODA AMPLIT PERI AZIMU VELO SNR AR TRES W  DIS CAZ7
 BRR  HZ EP        736 58.69                             157    -0.110   63 307 
 BRR  HZ I         736 59.17         3.0 0.15                            63 307 
 BRR  HN ES   1    737 15.94                             157     0.1 7   63 307 
 RUS  HZ EP   1    737  1.33                             147    -0.2 7   98 169 
 RUS  HE ES   1    737 20.85                             147     0.2 7   98 169 
 RUS  HZ I         737 23.54         1.0 0.32                            98 169 
 PTB  HZ EP   1    737  3.82                             137     0.2 7  135 260 
 PTB  HN ES   1    737 24.31                             137    -0.2 7  135 260 
 ZAR  HZ EP   2    737  9.34                             126     0.2 4  194 295 
 ZAR  HZ I         737 41.41         1.8 0.39                           194 295 
                                                                                
