 2015 1010 0038  1.0 L   6.806 -73.146144.1  RSN  6 0.2 1.3LRSN                1
 GAP=136        0.49       2.7     4.4  4.5 -0.5771E+01  0.4545E+01  0.7415E+00E
 Epicentro: LOS SANTOS - SANTANDER                                             3
 ACTION:UPD 15-12-22 20:38 OP:cam  STATUS:               ID:20151010003801 L   I
 OLDACT:DUP 15-10-10 13:24 OP:spq  STATUS:               ID:20151010002750d    3
 2015-10-10-0027-49M.COL___337                                                 6
 STAT SP IPHASW D HRMM SECON CODA AMPLIT PERI AZIMU VELO AIN AR TRES W  DIS CAZ7
 BAR2 EZ EP        038 20.30                             170   -0.1910 23.9 190 
 BAR2 EZ ES   1    038 35.50                             170   -0.15 7 23.9 190 
 BAR2 EZ I         038 36.35         5.6 0.42            167           23.9 190 
 PAM  EZ EP        038 23.21                             151    0.1510 77.0  40 
 PAM  EN ES        038 40.33                             151    0.1010 77.0  40 
 PAM  EZ I         038 42.37         2.9 0.40            153           77.0  40 
 RUS  HZ EP        038 24.45                             143   -0.2310  101 176 
 RUS  HE ES        038 43.15                             143    0.0410  101 176 
 RUS  HZ I         038 43.97         1.8 0.28            145            101 176 
 SPBC HE ES   1    038 52.10                             129    0.48 7  164 219 
 SPBC HZ I         038 55.43         3.6 0.22            127            164 219 
 ZAR  HN ES   2    038 58.33                             122   -0.22 4  204 292 
 ZAR  HZ I         039  5.94         2.6 0.26            119            204 292 
 CHI  HZ EP   1    038 38.94                             117    0.22 6  249 195 
 CHI  HN ES   1    039  7.99                             117   -0.11 6  249 195 
 CHI  HZ I         039 11.97         1.5 0.40            117            249 195 
                                                                                
