 2011 1110 0218 48.0 L   6.773 -73.112140.1  RSN  4 0.2 1.3LRSN                1
 GAP=142        0.41       2.7     4.9  5.7  0.2448E+01 -0.6820E+01 -0.2159E+01E
 Epicentro: LOS SANTOS - SANTANDER                                             3
 ACTION:UPD 12-07-13 16:09 OP:ep   STATUS:               ID:20111110021848 L   I
 2011-11-10-0216-21S.COL___178                                                 6
 STAT SP IPHASW D HRMM SECON CODA AMPLIT PERI AZIMU VELO AIN AR TRES W  DIS CAZ7
 BRR  HZ EP   1    219  8.84                             150   -0.01 7 75.9 299 
 BRR  HE ES   1    219 25.20                             150    0.11 7 75.9 299 
 PAM  SZ EP   1    219  9.96                             150    0.31 7 77.5  36 
 PAM  SN ES   2    219 26.47                             150   -0.05 5 77.5  36 
 RUS  HZ EP   1    219 10.90                             143   -0.09 7 97.4 178 
 RUS  HN ES   1    219 28.82                             143   -0.09 7 97.4 178 
 RUS  HZ I         219 30.27         3.7 0.24                          97.4 178 
 OCA  SZ EP   2    219 16.17                             128   -0.06 5  164 352 
 OCA  SZ ES   2    219 37.73                             128   -0.51 5  164 352 
                                                                                
