 2014 1110 0344 32.9 L   6.003 -73.716111.9  RSN  6 0.5 1.3LRSN                1
 GAP=126        1.27       5.3     5.3  9.4 -0.2118E+01  0.1543E+01 -0.1951E+02E
 Epicentro: VELEZ - SANTANDER                                                  3
 ACTION:UPD 14-12-19 15:41 OP:nd   STATUS:               ID:20141110034432 L   I
 OLDACT:ARG 14-11-10 12:59 OP:stll STATUS:               ID:20141110033741     3
 2014-11-10-0337-41M.COL___295                                                 6
 STAT SP IPHASW D HRMM SECON CODA AMPLIT PERI AZIMU VELO AIN AR TRES W  DIS CAZ7
 SPBC HZ EP        344 50.01                             152    0.3610 55.3 226 
 SPBC HE ES        345  3.09                             152    0.3910 55.3 226 
 SPBC HZ I         345  8.84         6.4 0.22            154           55.3 226 
 RUS  HZ EP        344 50.74                             146   -0.4810 71.1 100 
 RUS  HN ES        345  5.38                             146   -0.1210 71.1 100 
 RUS  HZ I         345  6.47         2.1 0.24            152           71.1 100 
 BAR2 SZ EP        344 51.79                             139   -0.3310 87.9  42 
 BAR2 SZ ES        345  7.46                             139    0.3610 87.9  42 
 BAR2 SZ I         345  8.46        14.9 0.28            145           87.9  42 
 PTB  HZ EP        344 52.20                             135   -0.7210  101 306 
 PTB  HN ES        345  8.48                             135   -0.0410  101 306 
 PTB  HZ I         345 10.88         3.8 0.14            138            101 306 
 BRR  HZ EP        344 54.67                             129   -0.1410  122   0 
 BRR  HN ES        345 11.61                             129   -0.2610  122   0 
 BRR  HZ I         345 15.08         4.2 0.18            133            122   0 
 OCA  HZ EP        345 10.41                             109    1.46 8  251  10 
 OCA  HN ES        345 37.13                             109    0.08 8  251  10 
                                                                                
