 2011  610 0324 51.8 L   6.782 -73.105146.6  RSN  8 0.4 1.9LRSN                1
 GAP=160        0.90       3.6     7.3  8.3 -0.1159E+02 -0.2139E+01  0.6657E+01E
 Epicentro: LOS SANTOS - SANTANDER                                             3
 ACTION:UP  11-07-14 19:04 OP:ep   STATUS:               ID:20110610032451 L   I
 2011-06-10-0322-28S.COL___120                                                 6
 STAT SP IPHASW D HRMM SECON CODA AMPLIT PERI AZIMU VELO SNR AR TRES W  DIS CAZ7
 BRR  HZ EP        325 13.52                             151     0.210   76 298 
 BRR  HN ES   1    325 30.51                             151     0.4 7   76 298 
 BRR  HZ I         325 33.33        21.6 0.14                            76 298 
 RUS  HZ EP   1    325 15.32                             145    -0.1 7   98 179 
 RUS  HN ES   1    325 33.92                             145     0.0 7   98 179 
 RUS  HZ I         325 34.97         9.2 0.27                            98 179 
 BRI  SZ EP   1    325 16.02                             141     0.2 7  109  18 
 BRI  SZ I         325 39.83        11.3 0.42                           109  18 
 GRA  SZ EP        325 17.33                             137     0.210  126  15 
 GRA  SZ ES   1    325 36.19                             137    -0.7 7  126  15 
 GRA  SZ I         325 38.96        12.5 0.32                           126  15 
 OCA  SZ EP   1    325 20.05                             129    -0.3 7  163 352 
 OCA  SZ ES   1    325 42.94                             129     0.2 7  163 352 
 OCA  SZ I         325 45.45        18.3 0.20                           163 352 
 NOR  SZ EP   1    325 27.52                             118    -0.3 6  237 235 
 NOR  SN ES   1    325 55.00                             118    -0.9 6  237 235 
 CHI  HZ EP   1    325 29.31                             117    -0.1 6  248 196 
 CHI  HE ES   1    325 58.87                             117     0.0 6  248 196 
 CHI  HZ I         326  4.02         3.1 0.24                           248 196 
 PRA  HZ EP   1    325 45.73                             107     0.3 4  393 210 
 PRA  HN ES   1    326 28.12                             107     0.9 4  393 210 
                                                                                
