 2012  210 0506 32.3 L   6.764 -73.159145.0  RSN  8 0.4 1.5LRSN                1
 GAP=136        0.54       4.2     4.7  6.8  0.7753E+00  0.7152E+01  0.4449E+01E
 ACTION:UP  12-03-07 16:29 OP:epov STATUS:               ID:20120210050632 L   I
 2012-02-10-0500-00M.COL___188                                                 6
 STAT SP IPHASW D HRMM SECON CODA AMPLIT PERI AZIMU VELO AIN AR TRES W  DIS CAZ7
 BAR2 SZ EP   2    5 6 51.60                             172   -0.12 5 19.2 188 
 BAR2 SZ ES   2    5 7  6.34                             172   -0.57 5 19.2 188 
 BAR2 SZ I         5 7  8.56         6.7 0.13                          19.2 188 
 GIR2 SZ EP   2    5 6 51.66                             166   -0.29 5 35.0 354 
 GIR2 SZ ES   2    5 7  7.00                             166   -0.31 5 35.0 354 
 BRR  HZ EP   1    5 6 53.59                             152    0.22 7 71.9 302 
 BRR  HN ES   2    5 7 10.85                             152    1.02 5 71.9 302 
 BRR  HZ I         5 7 14.54         7.2 0.42                          71.9 302 
 PAM  SZ EP   2    5 6 54.79                             149    0.15 5 81.4  39 
 PAM  SN ES   2    5 7 12.07                             149   -0.03 5 81.4  39 
 RUS  HZ EP   2    5 6 55.72                             145    0.06 5 96.7 175 
 RUS  HE ES   2    5 7 14.07                             145    0.15 5 96.7 175 
 RUS  HZ I         5 7 16.03         3.4 0.37                          96.7 175 
 PTB  HZ EP   2    5 6 58.75                             132   -0.22 5  146 260 
 PTB  HN ES   2    5 7 19.60                             132   -0.20 5  146 260 
 ZAR  HN ES   2    5 7 29.48                             122   -0.47 4  204 293 
 CHI  HN ES   2    5 7 38.71                             117    0.24 4  244 195 
                                                                                
