 2010 1110 1901 53.2 L   6.810 -73.019144.0  RSN  6 0.4 2.2LRSN                1
 GAP=251        0.69       5.7     9.0  6.6  0.1648E+02  0.1760E+02  0.6591E+01E
 Epicentro: CEPITA - SANTANDER                                                 3
 ACTION:UP  10-12-17 16:51 OP:REBC STATUS:               ID:20101110190153 L   I
 2010-11-10-1900-00S.COL___124                                                 6
 STAT SP IPHASW D HRMM SECON CODA AMPLIT PERI AZIMU VELO SNR AR TRES W  DIS CAZ7
 BAR2 SZ EP       19 2 12.73                             167     0.010   30 217 
 BAR2 SZ ES   1   19 2 27.84                             167    -0.2 7   30 217 
 BAR2 SZ I        19 2 29.36        42.9 0.24                            30 217 
 BRR  HZ EP       19 2 14.63                             148    -0.210   83 293 
 BRR  HN ES   1   19 2 31.99                             148     0.2 7   83 293 
 BRR  HZ I        19 2 36.56        35.1 0.12                            83 293 
 RUS  HZ EP   2   19 2 16.67                             143    -0.2 5  102 184 
 RUS  HN ES   1   19 2 35.59                             143     0.3 7  102 184 
 RUS  HZ I        19 2 37.16        16.7 0.33                           102 184 
 HEL  HZ EP   2   19 2 35.71                             113     0.9 4  286 256 
 HEL  HZ I        19 3 10.82         7.8 0.21                           286 256 
 RREF HZ EP   1   19 2 41.13                             110     0.6 5  333 231 
 RREF HN ES   2   19 3 16.95                             110    -0.5 3  333 231 
 RREF HZ I        19 3 24.72         8.5 0.49                           333 231 
 PRA  HZ EP   2   19 2 46.91                             106    -0.7 3  400 211 
 PRA  HE ES   2   19 3 29.24                             106    -0.8 3  400 211 
                                                                                
