 2012 1010 1252 12.7 L   6.776 -73.089147.1  RSN  7 0.2 1.8LRSN                1
 GAP=127        0.37       2.0     3.6  3.6 -0.1258E+01 -0.3197E+01  0.2849E+01E
 Epicentro: LOS SANTOS - SANTANDER                                             3
 ACTION:UPD 12-11-22 17:03 OP:ep   STATUS:               ID:20121010125212 L   I
 2012-10-10-1250-00M.COL___226                                                 6
 STAT SP IPHASW D HRMM SECON CODA AMPLIT PERI AZIMU VELO AIN AR TRES W  DIS CAZ7
 BAR2 SZ EP   2   1252 32.29                             171   -0.23 5 22.8 207 
 BAR2 SZ ES   2   1252 48.09                             171    0.14 5 22.8 207 
 BAR2 SZ I        1252 48.56        12.9 0.26                          22.8 207 
 GIR2 SZ EP   3   1252 32.52                             166   -0.17 2 35.5 341 
 PAM  SZ EP       1252 35.22                             151    0.2210 75.7  35 
 PAM  SZ I        1252 35.49         6.1 0.42                          75.7  35 
 PAM  SN ES   1   1252 52.17                             151   -0.19 7 75.7  35 
 BRR  HZ EP   1   1252 34.27                             150   -0.16 7 78.0 298 
 BRR  HN ES   1   1252 51.49                             150    0.14 7 78.0 298 
 BRR  HN I        1252 52.45        28.5 0.32                          78.0 298 
 RUS  HZ EP       1252 36.26                             145   -0.1610 97.6 180 
 RUS  HN ES   1   1252 54.87                             145   -0.01 7 97.6 180 
 RUS  HN I        1252 56.94         7.4 0.22                          97.6 180 
 AGZ  SZ EP       1252 46.51                             121    0.11 8  215 161 
 CHI  HZ EP   3   1252 50.57                             117    0.15 2  248 197 
 CHI  HN ES   1   1253 19.86                             117    0.05 6  248 197 
 CHI  HN I        1253 24.08         6.3 0.30                           248 197 
                                                                                
