 2014  410 1410 22.7 L   6.826 -73.186140.0  RSN 12 0.4 2.4LRSN                1
 GAP=130        0.96       3.1     4.2  9.0 -0.2785E+01  0.1588E+02 -0.5725E+00E
 Epicentro: ZAPATOCA - SANTANDER                                               3
 ACTION:UPD 14-05-13 23:07 OP:nd   STATUS:               ID:20140410141022 L   I
 OLDACT:UP  14-04-10 22:19 OP:cam  STATUS:               ID:20140410140814     3
 OLDACT:REG 14-04-10 20:28 OP:cam  STATUS:               ID:20140410140814     3
 2014-04-10-1408-14M.COL___261                                                 6
 STAT SP IPHASW D HRMM SECON CODA AMPLIT PERI AZIMU VELO AIN AR TRES W  DIS CAZ7
 BRR  HZ IP     C 1410 43.48                             153    0.5610 65.9 298 
 BRR  HN ES   4   1411  0.67                             153    1.96 0 65.9 298 
 BRR  HZ I        1411  4.20        39.0 0.10            150           65.9 298 
 PAM  SZ IP     D 1410 44.65                             149    0.3010 78.2  43 
 PAM  SN ES       1411  1.58                             149    0.3410 78.2  43 
 PAM  SZ I        1411  3.20        32.2 0.18            155           78.2  43 
 RUS  HZ EP   1   1410 46.45                             142    0.33 7  104 174 
 RUS  HN ES       1411  3.88                             142   -0.5210  104 174 
 RUS  HZ I        1411  5.79        34.6 0.24            147            104 174 
 PTB  HZ EP       1410 48.33                             131   -0.52 9  144 257 
 PTB  HN ES       1411  9.30                             131    0.05 9  144 257 
 PTB  HZ I        1411 14.47        24.6 0.36            132            144 257 
 OCA  HE ES   1   1411 10.99                             129   -0.75 7  157 355 
 OCA  HZ I        1411 15.42        37.3 0.18            132            157 355 
 SPBC HZ EP   1   1410 50.34                             128   -0.36 7  163 217 
 SPBC HE ES       1411 12.57                             128    0.01 9  163 217 
 SPBC HZ I        1411 14.62        32.7 0.22            131            163 217 
 ZAR  HZ EP   4   1410 55.81                             122    1.58 0  199 292 
 ZAR  HN ES       1411 19.06                             122    0.23 9  199 292 
 ZAR  HZ I        1411 26.47        34.1 0.30            123            199 292 
 NOR  HN ES   1   1411 24.90                             117   -0.44 6  233 233 
 NOR  HZ I        1411 31.56        17.6 0.16            120            233 233 
 SML  HZ EP   4   1410 57.94                             117   -0.57 0  239 336 
 SML  HN ES       1411 26.04                             117   -0.42 8  239 336 
 SML  HZ I        1411 31.45        34.3 0.22            119            239 336 
 GUY2CHZ EP   4   1411  7.74                             111    1.92 0  299 234 
 GUY2CHN ES   1   1411 39.85                             111    0.39 5  299 234 
 GUY2CHZ I        1411 48.05         9.6 0.62                           299 234 
 RREF HZ EP   4   1411 10.27                             110    1.85 0  320 228 
 RREF HE ES   1   1411 45.09                             110    1.00 5  320 228 
 RREF HZ I        1411 51.72        13.8 0.28            113            320 228 
 PRA  HZ EP   1   1411 15.73                             105   -0.32 4  392 209 
                                                                                
