 2012  211 0903 33.0 L   6.778 -73.148137.1  RSN  5 0.1 0.8LRSN                1
 GAP=184        0.29       5.1    10.0  8.4  0.3339E+02  0.2731E+02 -0.4377E+01E
 ACTION:UP  12-03-07 16:29 OP:epov STATUS:               ID:20120211090333 L   I
 2012-02-11-0900-00M.COL___188                                                 6
 STAT SP IPHASW D HRMM SECON CODA AMPLIT PERI AZIMU VELO AIN AR TRES W  DIS CAZ7
 BAR2 SZ EP        9 3 51.51                             171   -0.0110 20.9 190 
 GIR2 SZ EP   3    9 3 51.43                             165   -0.27 2 33.6 351 
 GIR2 SZ ES   3    9 4  6.35                             165    0.06 2 33.6 351 
 BRR  HZ EP        9 3 53.29                             151    0.0310 72.1 300 
 RUS  HZ EP   2    9 3 55.78                             143    0.07 5 98.2 176 
 RUS  HN ES   2    9 4 13.41                             143   -0.04 5 98.2 176 
 RUS  HZ I         9 4 14.97         1.2 0.30                          98.2 176 
 PTB  HZ EP   3    9 3 58.95                             130   -0.24 2  147 260 
                                                                                
