 2016  611 0425 37.3 L   6.815 -73.098152.0  RSN  6 0.3 1.5LRSN                1
 GAP=188        0.77       4.5     6.7  9.3 -0.8655E+01 -0.1266E+02  0.8596E+01E
 Epicentro: LOS SANTOS - SANTANDER                                             3
 ACTION:UPD 16-07-21 22:17 OP:rebc STATUS:               ID:20160611042537 L   I
 OLDACT:UP  16-06-11 17:09 OP:dani STATUS:               ID:20160611041746     3
 OLDACT:UP  16-06-11 17:08 OP:dani STATUS:               ID:20160611041746     3
 OLDACT:UP  16-06-11 17:06 OP:dani STATUS:               ID:20160611041746     3
 OLDACT:REG 16-06-11 12:48 OP:dani STATUS:               ID:20160611041746     3
 2016-06-11-0417-46M.COL___331                                                 6
 STAT SP IPHASW D HRMM SECON CODA AMPLIT PERI AZIMU VELO AIN AR TRES W  DIS CAZ7
 BAR2 EZ EP        425 57.93                             170    0.1710 26.4 201 
 BAR2 EZ I         426 36.01         7.3 0.10                          26.4 201 
 BRR  HZ EP        425 59.89                             153    0.5310 75.1 295 
 BRR  HN ES        426 16.64                             153    0.0910 75.1 295 
 BRR  HZ I         426 20.77         4.7 0.12                          75.1 295 
 RUS  HE ES   2    426 20.33                             144   -0.55 5  102 179 
 PTB  HZ EP        426  4.89                             132   -0.40 9  153 259 
 PTB  HN ES        426 27.01                             132   -0.09 9  153 259 
 PTB  HZ I         426 28.94         2.5 0.22                           153 259 
 OCA  HN ES        426 28.10                             131   -0.32 9  159 351 
 OCA  HZ I         426 34.04         4.2 0.12                           159 351 
 SPBC HN ES   2    426 29.81                             130    0.13 5  168 220 
                                                                                
