 2011  411 0521 17.4 L   6.819 -73.109153.5  RSN 13 0.5 2.3LRSN                1
 GAP=158        0.92       6.2     8.3  6.9 -0.3055E+02 -0.4714E+01  0.1414E+02E
 Epicentro: LOS SANTOS - SANTANDER                                             3
 ACTION:UP  11-06-22 15:30 OP:REBC STATUS:               ID:20110411052117 L   I
 2011-04-11-0520-28S.COL___138                                                 6
 STAT SP IPHASW D HRMM SECON CODA AMPLIT PERI AZIMU VELO SNR AR TRES W  DIS CAZ7
 BTL  SZ ES   1    521 53.83                             172    -0.1 7   21 302 
 BAR2 SZ IP        521 37.86                             170    -0.210   26 198 
 BAR2 SZ ES   2    521 53.73                             170    -0.4 5   26 198 
 BAR2 SZ I         521 54.56        41.4 0.29                            26 198 
 GIR2 SZ EP   1    521 38.03                             168     0.1 7   30 342 
 GIR2 SZ ES   2    521 53.20                             168    -0.8 5   30 342 
 PAM  SZ EP   2    521 40.65                             153     0.4 5   73  38 
 BRR  HZ EP   1    521 39.53                             153     0.0 7   74 296 
 BRR  HN ES   1    521 57.43                             153     0.6 7   74 296 
 BRR  HZ I         522  0.06        51.8 0.19                            74 296 
 GRA  SZ EP        521 43.67                             139     0.610  123  16 
 GRA  SZ ES   1    522  3.28                             139     0.1 7  123  16 
 GRA  SZ I         522  5.47        21.2 0.27                           123  16 
 OCA  SZ EP   1    521 45.17                             131    -1.0 7  159 352 
 OCA  SZ ES   2    522  8.32                             131    -0.3 5  159 352 
 NOR  SZ EP   1    521 53.86                             119    -0.2 6  239 235 
 NOR  SN ES   2    522 22.57                             119    -0.1 4  239 235 
 NOR  SZ I         522 26.00         2.8 0.19                           239 235 
 CHI  HZ EP   2    521 54.85                             118    -1.0 4  252 196 
 CHI  HZ I         522 30.51        10.8 0.24                           252 196 
 ROSC BZ EP   1    521 57.06                             118     0.7 6  257 212 
 HEL  HZ EP   2    521 58.54                             116     0.0 4  276 256 
 HEL  HN ES   2    522 30.26                             116    -0.3 4  276 256 
 HEL  HZ I         522 36.00        12.7 0.28                           276 256 
 GUY  SN ES   2    522 37.35                             113     0.3 4  308 235 
 GUY  SZ I         522 43.35        20.0 0.43                           308 235 
 PRA  HZ EP   1    522 11.41                             107    -0.2 4  396 210 
 PRA  HN ES   2    522 54.82                             107     0.9 3  396 210 
                                                                                
