 2010  111 0757 11.9 L   6.802 -73.084152.0  RSN 10 0.2 2.5LRSN                1
 GAP=130        0.43       1.9     3.0  2.9 -0.1861E+01  0.2144E+01 -0.4524E+00E
 Epicentro: LOS SANTOS - SANTANDER                                             3
 ACTION:UP  10-08-24 09:43 OP:vdl  STATUS:               ID:20100111075711 L   I
 2010-01-11-0755-33S.COL___097                                                 6
 STAT SP IPHASW D HRMM SECON CODA AMPLIT PERI AZIMU VELO SNR AR TRES W  DIS CAZ7
 BAR2 SZ IP        757 32.35                             170     0.010   26 205 
 BAR2 SZ ES        757 48.36                             170     0.110   26 205 
 RUS  BZ EP   1    757 36.26                             145    -0.1 7  101 180 
 RUS  BE ES   1    757 55.37                             145     0.0 7  101 180 
 RUS  BZ I         757 56.25        18.8 0.35                           101 180 
 OCA  SZ IP        757 40.81                             131     0.0 9  161 351 
 OCA  SZ ES   1    758  3.32                             131     0.0 7  161 351 
 OCA  SZ I         758  8.57        53.7 0.23                           161 351 
 CHI  HZ IP        757 50.41                             118     0.2 8  251 197 
 CHI  HE ES   1    758 19.62                             118    -0.5 6  251 197 
 CHI  HZ I         758 25.69        13.1 0.39                           251 197 
 HEL  HZ EP   1    757 53.67                             115     0.5 6  279 256 
 HEL  HE ES   1    758 25.21                             115    -0.2 6  279 256 
 HEL  HZ I         758 30.80        13.9 0.26                           279 256 
 RREF BN ES   1    758 35.69                             112     0.0 5  327 230 
 RREF BZ I         758 43.90        21.2 0.34                           327 230 
 DBB  SZ EP   1    758  0.21                             110    -0.2 5  346 274 
 TOL  SZ EP   1    758  0.84                             110    -0.2 5  348 225 
 SDV  BZ IP        758  1.57                             110     0.0 6  355  50 
 PRA  HZ IP        758  6.00                             107    -0.1 6  396 210 
 PRA  HE ES   1    758 48.81                             107     0.5 4  396 210 
 PRA  HZ I         758 54.14        15.8 0.39                           396 210 
                                                                                
