 2016  711 1640 40.6 L   6.811 -73.133142.2  RSN  9 0.3 2.0LRSN                1
 GAP=138        0.77       3.7     4.0  5.3 -0.1463E+01  0.5783E+01  0.1009E+01E
 Epicentro: LOS SANTOS - SANTANDER                                             3
 ACTION:UPD 17-03-29 16:49 OP:lp   STATUS:               ID:20160711164040 L   I
 OLDACT:UP  16-07-12 02:02 OP:dani STATUS:               ID:20160711162520     3
 OLDACT:UP  16-07-12 02:02 OP:dani STATUS:               ID:20160711162520     3
 OLDACT:UP  16-07-12 02:00 OP:dani STATUS:               ID:20160711162520     3
 OLDACT:REG 16-07-11 23:32 OP:dani STATUS:               ID:20160711162520     3
 2016-07-11-1637-00M.COL___487                                                 6
 STAT SP IPHASW D HRMM SECON CODA AMPLIT PERI AZIMU VELO AIN AR TRES W  DIS CAZ7
 BAR2 EZ EP       1640 59.91                             170    0.0510 24.8 193 
 BAR2 EZ ES       1641 14.61                             170   -0.2510 24.8 193 
 BAR2 EZ I        1641 17.67        28.9 0.30            179           24.8 193 
 PAM  EZ EP       1641  2.88                             151    0.5310 75.5  39 
 PAM  EZ I        1641 22.13        14.7 0.40            140           75.5  39 
 RUS  HZ EP       1641  3.91                             143   -0.2010  102 177 
 RUS  BE ES       1641 22.51                             143    0.0810  102 177 
 RUS  HZ I        1641 23.77         7.5 0.40            146            102 177 
 SPBC HZ EP       1641  8.91                             128   -0.12 9  165 219 
 SPBC BN ES       1641 31.10                             128   -0.09 9  165 219 
 SPBC HZ I        1641 35.53        15.8 0.40            128            165 219 
 ZAR  HZ EP   4   1641 15.14                             121    2.21 0  205 292 
 ZAR  BN ES       1641 37.89                             121   -0.24 9  205 292 
 ZAR  HZ I        1641 46.82        11.2 0.22            117            205 292 
 NOR  HZ EP       1641 16.05                             117   -0.30 8  237 234 
 NOR  BN ES       1641 44.94                             117    0.72 8  237 234 
 NOR  HZ I        1641 46.70         7.0 0.22            116            237 234 
 CHI  HZ EP       1641 18.18                             116   -0.12 8  250 195 
 CHI  BN ES   4   1641 47.41                             116   -0.27 0  250 195 
 CHI  HZ I        1641 50.94         7.0 0.50            115            250 195 
 GUY2CBN ES   4   1642  2.48                             111    4.15 0  303 235 
 PRA  HZ EP       1641 33.67                             106   -0.56 6  394 210 
 PRA  BN ES       1642 16.44                             106    0.40 6  394 210 
 PRA  HZ I        1642 22.11         5.8 0.46            104            394 210 
 SJC  HZ EP   4   1641 34.07                             105   -1.97 0  409 327 
 SJC  BN ES   4   1642 15.01                             105   -4.26 0  409 327 
 SJC  HZ I        1642 29.87         1.6 0.28            102            409 327 
                                                                                
