 2015  911 1901 33.4 L   6.732 -73.214110.7  RSN  5 0.5 1.4LRSN                1
 GAP=127        1.18      11.8     5.5 11.5 -0.2885E+02  0.4898E+01  0.4491E+02E
 Epicentro: VILLANUEVA - SANTANDER                                             3
 ACTION:UPD 15-10-28 16:25 OP:cam  STATUS:               ID:20150911190133 L   I
 OLDACT:REG 15-09-11 20:31 OP:stll STATUS:               ID:20150911185750     3
 2015-09-11-1857-50M.COL___335                                                 6
 STAT SP IPHASW D HRMM SECON CODA AMPLIT PERI AZIMU VELO AIN AR TRES W  DIS CAZ7
 BAR2 EZ EP   2   19 1 49.38                             171    0.76 5 15.8 167 
 BRR  HZ EP       19 1 49.92                             146   -0.7710 68.9 307 
 BRR  HZ I        19 1 50.30        14.8 0.20            144           68.9 307 
 BRR  HE ES       19 2  3.94                             146   -0.2710 68.9 307 
 PAM  EZ EP       19 1 52.46                             139   -0.3410 88.0  40 
 PAM  EZ I        19 1 52.73         3.8 0.20            144           88.0  40 
 PAM  EN ES       19 2  8.41                             139    0.4510 88.0  40 
 PTB  HZ EP       19 1 56.59                             124   -0.25 9  139 261 
 PTB  HN ES       19 2 15.52                             124    0.37 9  139 261 
 PTB  HZ I        19 2 22.38         1.6 0.18            124            139 261 
 ZAR  HZ EP       19 2  4.17                             114    0.81 9  200 295 
 ZAR  HE ES       19 2 26.81                             114    0.05 9  200 295 
 ZAR  HZ I        19 2 32.98         5.3 0.32            115            200 295 
                                                                                
