 2010 1212 0233 48.2 L   6.795 -73.116148.0  RSN 16 0.4 2.4LRSN                1
 GAP=104        0.68       2.9     5.1  5.4 -0.4631E+01  0.5222E+01  0.9189E+00E
 Epicentro: LOS SANTOS - SANTANDER                                             3
 ACTION:UP  11-01-14 15:24 OP:pat  STATUS:               ID:20101212023348 L   I
 2010-12-12-0232-14S.COL___137                                                 6
 STAT SP IPHASW D HRMM SECON CODA AMPLIT PERI AZIMU VELO SNR AR TRES W  DIS CAZ7
 BTL  SZ EP        234  8.36                             171     0.310   22 309 
 BAR2 SZ IP        234  8.16                             170     0.010   24 198 
 BAR2 SZ ES   2    234 23.01                             170    -0.6 5   24 198 
 BAR2 SZ I         234 24.93        48.7 0.28                            24 198 
 GIR2 SZ EP   2    234  8.23                             167     0.0 5   33 345 
 RUS  HZ EP        234 12.04                             144    -0.110  100 178 
 RUS  HE ES   1    234 30.69                             144    -0.1 7  100 178 
 RUS  HZ I         234 32.13        20.9 0.17                           100 178 
 GRA  SZ EP   1    234 14.02                             137     0.4 7  125  16 
 GRA  SZ ES   1    234 33.00                             137    -0.5 7  125  16 
 GRA  SZ I         234 36.86        27.5 0.45                           125  16 
 OCA  SZ EP   1    234 16.82                             130     0.0 7  161 352 
 OCA  SZ ES   2    234 39.79                             130     0.7 5  161 352 
 OCA  SZ I         234 44.53        55.1 0.36                           161 352 
 YOP  SZ EP        234 18.61                             127     0.4 9  177 154 
 YOP  SZ I         234 19.25        14.6 0.23                           177 154 
 NOR  SZ EP   1    234 24.22                             119    -0.1 6  237 235 
 NOR  SE ES   2    234 52.40                             119    -0.1 4  237 235 
 CHI  HZ EP   1    234 26.08                             117     0.0 6  249 196 
 CHI  HE ES   2    234 55.98                             117     0.4 4  249 196 
 CHI  HZ I         235  1.51        15.4 0.35                           249 196 
 ROSC BZ EP   2    234 26.41                             117    -0.2 4  254 212 
 ROSC BZ I         235  5.91        37.3 0.45                           254 212 
 HEL  HZ EP   2    234 29.48                             115     0.6 4  275 256 
 HEL  HZ I         235  8.80        16.6 0.15                           275 256 
 RREF HZ EP   2    234 33.88                             111    -0.8 3  324 230 
 RREF HZ I         235 16.67        22.9 0.21                           324 230 
 DBB  SZ EP   1    234 35.96                             110    -0.2 5  343 274 
 TOL  SZ EP   2    234 36.68                             109    -0.1 3  345 225 
 SDV  BZ EP        234 37.48                             109    -0.6 6  358  50 
 SDV  BZ I         234 38.39         6.9 0.10                           358  50 
 PRA  HZ EP   1    234 41.71                             107    -0.2 4  393 210 
 PRA  HE ES   2    235 23.58                             107    -0.3 3  393 210 
                                                                                
