 2010 1012 0834 33.8 L   6.817 -73.099144.9  RSN  9 0.4 2.3LRSN                1
 GAP=164        0.70       4.8     5.4  8.3 -0.1474E+01 -0.4926E+01  0.2040E+02E
 Epicentro: LOS SANTOS - SANTANDER                                             3
 ACTION:UP  11-02-18 11:09 OP:tino STATUS:               ID:20101012083433 L   I
 2010-10-12-0833-00S.COL___116                                                 6
 STAT SP IPHASW D HRMM SECON CODA AMPLIT PERI AZIMU VELO SNR AR TRES W  DIS CAZ7
 BAR2 SZ EP        834 53.21                             169    -0.210   27 201 
 BAR2 SZ I         834 53.52        50.5 0.11                            27 201 
 BRR  HZ EP        834 55.03                             151     0.010   75 295 
 BRR  HN ES   1    835 11.86                             151     0.2 7   75 295 
 BRR  HZ I         835 12.70        55.7 0.08                            75 295 
 OCA  SZ EP   1    835  1.67                             130    -0.2 7  159 351 
 OCA  SZ I         835 28.00        20.6 0.60                           159 351 
 YOP  SZ EP        835  4.06                             126     0.3 9  178 155 
 NOR  SZ EP   1    835  9.70                             118    -0.3 6  240 235 
 NOR  SE ES   2    835 37.60                             118    -0.7 4  240 235 
 CHI  HZ EP   1    835 11.66                             117    -0.1 6  252 196 
 CHI  HE ES   2    835 41.38                             117     0.0 4  252 196 
 CHI  HZ I         835 46.17         8.0 0.46                           252 196 
 HEL  HZ EP   1    835 14.63                             114     0.1 6  278 256 
 HEL  HN ES   2    835 46.87                             114     0.5 4  278 256 
 HEL  HZ I         835 51.60        12.2 0.36                           278 256 
 RREF HZ EP   1    835 21.40                             110     0.9 5  327 230 
 RREF HZ I         836  7.26         8.6 0.41                           327 230 
 PRA  HZ EP   1    835 27.36                             106    -0.4 4  396 210 
 PRA  HE ES   1    836  9.60                             106    -0.3 4  396 210 
                                                                                
