 2015 1212 0438  1.3 L   6.809 -73.129147.0  RSN  8 0.3 1.5LRSN                1
 GAP=138        0.73       2.6     3.2  5.0 -0.7078E+00  0.3134E+01  0.9574E+00E
 Epicentro: LOS SANTOS - SANTANDER                                             3
 ACTION:UPD 16-02-04 15:04 OP:cam  STATUS:               ID:20151212043801 L   I
 OLDACT:REG 15-12-12 11:19 OP:drio STATUS:               ID:20151212042749     3
 2015-12-12-0427-49M.COL___340                                                 6
 STAT SP IPHASW D HRMM SECON CODA AMPLIT PERI AZIMU VELO AIN AR TRES W  DIS CAZ7
 BAR2 EZ EP        438 21.23                             170    0.0910 24.7 194 
 BAR2 EZ ES        438 36.86                             170    0.2710 24.7 194 
 BAR2 EZ I         438 37.79         6.6 0.16            169           24.7 194 
 BRR  HZ IP     D  438 23.02                             152    0.3410 72.4 297 
 BRR  HN ES        438 39.61                             152    0.2810 72.4 297 
 BRR  HZ I         438 42.33         5.9 0.34            150           72.4 297 
 PAM  EZ EP        438 23.83                             152    0.2710 75.5  39 
 PAM  EE ES        438 40.40                             152   -0.5110 75.5  39 
 PAM  EZ I         438 43.35         3.8 0.50            155           75.5  39 
 RUS  HZ EP        438 25.26                             144   -0.0010  101 177 
 RUS  HN ES        438 43.75                             144   -0.1810  101 177 
 RUS  HZ I         438 44.92         3.2 0.22            146            101 177 
 PTB  HZ EP        438 28.03                             132   -0.55 9  150 259 
 PTB  HE ES        438 49.76                             132   -0.07 9  150 259 
 PTB  HZ I         438 50.66         3.4 0.12            131            150 259 
 OCA  HN ES        438 51.75                             130   -0.02 9  160 352 
 SPBC HZ EP        438 30.33                             129    0.23 9  165 219 
 SPBC HN ES        438 52.46                             129   -0.09 9  165 219 
 SPBC HZ I         438 59.22         6.3 0.20            129            165 219 
 ZAR  HN ES        438 59.31                             122   -0.16 8  205 292 
 ZAR  HZ I         439  9.40         3.9 0.48            122            205 292 
                                                                                
