 2012  812 0336  1.4 L   6.797 -73.160139.6  RSN  5 0.1 1.4LRSN                1
 GAP=135        0.35       2.3     2.4  3.6  0.8881E+00  0.3849E+00 -0.6221E+00E
 Epicentro: LOS SANTOS - SANTANDER                                             3
 ACTION:UPD 12-09-10 11:55 OP:ep   STATUS:               ID:20120812033601 L   I
 2012-08-12-0330-00M.COL___218                                                 6
 STAT SP IPHASW D HRMM SECON CODA AMPLIT PERI AZIMU VELO AIN AR TRES W  DIS CAZ7
 BAR2 SZ EP   1    336 20.24                             170    0.00 7 22.8 186 
 BAR2 SZ I         336 20.77         7.3 0.15                          22.8 186 
 BAR2 SZ ES   1    336 34.75                             170   -0.22 7 22.8 186 
 BRR  HZ EP   1    336 21.59                             152   -0.19 7 69.9 299 
 BRR  HE ES   1    336 37.76                             152    0.06 7 69.9 299 
 PAM  SZ EP        336 23.09                             149    0.0810 78.7  40 
 PAM  SZ I         336 23.65         5.5 0.40                          78.7  40 
 PAM  SN ES   1    336 39.92                             149    0.03 7 78.7  40 
 RUS  HZ EP   1    336 24.41                             142   -0.09 7  100 175 
 RUS  HN ES   1    336 42.74                             142    0.20 7  100 175 
 RUS  HZ I         336 44.75         2.9 0.28                           100 175 
 ZAR  HN ES   1    336 58.26                             121    0.10 6  203 292 
 ZAR  HZ I         337  5.78         3.1 0.19                           203 292 
                                                                                
