 2012  112 0346 49.9 L   6.739 -73.155148.0  RSN  7 0.3 1.5LRSN                1
 GAP=182        0.48       4.3     4.4  5.6  0.6833E+01  0.4388E+01  0.6952E+01E
 Epicentro: JORDAN - SANTANDER                                                 3
 ACTION:UP  12-02-03 08:16 OP:REBC STATUS:               ID:20120112034649 L   I
 2012-01-12-0340-00M.COL___187                                                 6
 STAT SP IPHASW D HRMM SECON CODA AMPLIT PERI AZIMU VELO SNR AR TRES W  DIS CAZ7
 BAR2 SZ EP   1    347  9.59                             173    -0.1 7   17 191 
 BAR2 SZ ES   2    347 24.78                             173    -0.4 5   17 191 
 GIR2 SZ ES   2    347 25.91                             165     0.2 5   38 353 
 BRR  HZ EP   1    347 11.62                             152     0.2 7   74 303 
 BRR  HN ES   2    347 28.56                             152     0.3 5   74 303 
 BRR  HZ I         347 30.65         7.0 0.17                            74 303 
 RUS  HZ EP   1    347 13.28                             146    -0.1 7   94 175 
 RUS  HN ES   2    347 31.93                             146     0.2 5   94 175 
 RUS  HZ I         347 33.22         2.5 0.39                            94 175 
 PTB  HZ EP   1    347 16.62                             133    -0.3 7  146 261 
 PTB  HN ES   1    347 37.85                             133    -0.1 7  146 261 
 ZAR  HN ES   2    347 48.31                             123     0.1 4  206 294 
 ZAR  HZ I         347 53.84         3.9 0.23                           206 294 
 CHI  HZ EP   2    347 27.81                             118     0.8 4  242 195 
 CHI  HN ES   2    347 55.97                             118     0.0 4  242 195 
 CHI  HZ I         348  2.66         1.8 0.33                           242 195 
                                                                                
