 2016 1112 0403 20.9 L   6.788 -73.104145.5  RSN  6 0.2 1.4LRSN                1
 GAP=166        0.65       4.4     3.3  4.6 -0.4610E+01  0.1463E+01  0.4170E+01E
 Epicentro: LOS SANTOS - SANTANDER                                             3
 ACTION:UPD 17-10-26 21:07 OP:lp   STATUS:               ID:20161112040320 L   I
 OLDACT:REG 16-11-12 12:39 OP:and  STATUS:               ID:20161112035743     3
 2016-11-12-0358-00M.COL___340                                                 6
 STAT SP IPHASW D HRMM SECON CODA AMPLIT PERI AZIMU VELO AIN AR TRES W  DIS CAZ7
 BAR2 EZ EP     D  4 3 40.21                             170   -0.2610 23.4 202 
 BAR2 EZ ES        4 3 55.57                             170   -0.1910 23.4 202 
 BAR2 EZ I         4 3 59.01         5.4 0.44            167           23.4 202 
 PAM  EZ EP        4 3 43.23                             152    0.2810 75.5  36 
 PAM  EN ES        4 4  0.17                             152   -0.0110 75.5  36 
 PAM  EZ I         4 4  2.09         3.5 0.30            157           75.5  36 
 BRR  HZ EP        4 3 42.16                             151   -0.1110 75.9 298 
 BRR  HN ES        4 3 59.28                             151    0.3210 75.9 298 
 BRR  HZ I         4 4  4.10         6.5 0.20            149           75.9 298 
 PTB  HZ EP   9    4 3 46.95                             131   -1.27 0  152 260 
 PTB  HE ES        4 4  8.66                                    0.38 9  152 260 
 PTB  HZ I         4 4 14.35         2.1 0.28            131            152 260 
 ZAR  HE ES        4 4 19.14                             122   -0.34 8  209 292 
 ZAR  HZ I         4 4 24.89         3.0 0.37            122            209 292 
 NOR  HZ EP        4 3 57.05                             118    0.13 8  238 235 
 NOR  HN ES        4 4 25.23                             118    0.20 8  238 235 
 NOR  HZ I         4 4 32.89         2.4 0.20            119            238 235 
                                                                                
