 2012  512 0403  6.2 L   6.756 -73.252146.0  RSN  4 0.4 1.3LRSN                1
 GAP=209        0.84      10.1     9.4 12.4  0.4613E+02  0.6288E+01  0.7236E+01E
 Epicentro: ZAPATOCA - SANTANDER                                               3
 ACTION:UP  12-07-05 12:04 OP:pat  STATUS:               ID:20120512040306 L   I
 2012-05-12-0400-00M.COL___195                                                 6
 STAT SP IPHASW D HRMM SECON CODA AMPLIT PERI AZIMU VELO SNR AR TRES W  DIS CAZ7
 BAR2 SZ EP        4 3 25.46                             172    -0.310   20 157 
 BAR2 SZ ES   3    4 3 39.42                             172    -1.6 2   20 157 
 BAR2 SZ I         4 3 41.51         5.1 0.70                            20 157 
 BRR  HZ EP        4 3 27.22                             155     0.310   64 307 
 BRR  HZ I         4 3 35.56         8.4 0.32                            64 307 
 BRR  HN ES   2    4 3 43.45                             155     0.3 5   64 307 
 RUS  HZ EP        4 3 29.88                             145     0.210   97 169 
 RUS  HN ES   2    4 3 48.39                             145     0.3 5   97 169 
 RUS  HZ I         4 3 48.74         1.5 0.54                            97 169 
 PTB  HZ EP        4 3 31.66                             135    -0.4 9  135 260 
 PTB  HN ES   2    4 3 52.59                             135     0.4 5  135 260 
                                                                                
