 2014 1012 0957 27.7 L   6.808 -73.160148.4  RSN 16 0.5 2.1LRSN                1
 GAP=111        1.95       5.2     7.3  9.6 -0.1455E+01  0.1188E+01  0.5488E+01E
 Epicentro: LOS SANTOS - SANTANDER                                             3
 ACTION:UPD 14-11-29 23:49 OP:nd   STATUS:               ID:20141012095727 L   I
 OLDACT:REG 14-10-12 13:56 OP:stll STATUS:               ID:20141012094745     3
 2014-10-12-0947-45M.COL___276                                                 6
 STAT SP IPHASW D HRMM SECON CODA AMPLIT PERI AZIMU VELO AIN AR TRES W  DIS CAZ7
 BAR2 SZ EP        957 47.64                             170   -0.0610 24.0 186 
 BAR2 SZ ES        958  3.06                             170   -0.2110 24.0 186 
 BAR2 SZ I         958  4.29        34.6 0.26            172           24.0 186 
 BRR  HZ EP        957 49.65                             154    0.5810 69.3 299 
 BRR  HN ES        958  7.01                             154    1.3010 69.3 299 
 BRR  HZ I         958  9.44        12.1 0.14            150           69.3 299 
 RUS  HZ EP        957 51.59                             144   -0.2310  102 175 
 RUS  HN ES        958 10.46                             144   -0.1510  102 175 
 RUS  HZ I         958 11.23        13.2 0.24            148            102 175 
 PTB  HZ EP        957 54.30                             133   -0.49 9  146 258 
 PTB  HN ES        958 15.65                             133   -0.25 9  146 258 
 PTB  HZ I         958 23.11        20.7 0.44            132            146 258 
 TAM  HZ EP        957 55.59                             130   -0.20 9  157 105 
 TAM  HZ I         957 56.06        21.0 0.34            135            157 105 
 OCA  HZ EP        957 56.40                             130    0.25 9  159 354 
 OCA  HN ES        958 18.24                             130   -0.08 9  159 354 
 OCA  HZ I         958 28.29         8.7 0.34            130            159 354 
 SPBC HZ EP        957 56.64                             130    0.23 9  163 218 
 SPBC HN ES        958 18.72                             130   -0.05 9  163 218 
 SPBC HZ I         958 23.55        19.0 0.20            131            163 218 
 ZAR  HZ EP        958  0.78                             123    0.62 9  202 292 
 ZAR  HE ES        958 24.15                             123   -1.31 9  202 292 
 ZAR  HZ I         958 31.11        16.5 0.46            123            202 292 
 SML  HZ EP        958  4.07                             118   -0.28 8  242 336 
 CHI  HZ EP        958  5.43                             118   -0.20 8  249 195 
 CHI  HN ES        958 34.67                             118   -0.52 8  249 195 
 CHI  HZ I         958 40.91         6.4 0.24            119            249 195 
 GUY2CHZ EP        958 12.28                             113    0.91 7  300 234 
 GUY2CHE ES        958 45.33                             113   -0.08 7  300 234 
 GUY2CHZ I         958 54.25         7.0 0.74                           300 234 
 RREF HZ EP   9    958 12.28                             111   -1.64 0  321 229 
 RREF HN ES        958 48.03                                   -0.27 7  321 229 
 MON  HZ EP   9    958 14.10                             109   -2.53 0  352 308 
 MON  HE ES        958 52.26                                    0.02 6  352 308 
 MON  HZ I         959  9.79         2.3 0.56            109            352 308 
 PRA  HZ EP        958 21.07                             107   -0.27 6  392 209 
 PRA  HN ES        959  3.38                             107    0.22 6  392 209 
 ORTC HZ EP        958 21.07                             107   -0.65 6  395 216 
 ORTC HN ES        959  4.50                             107    0.68 6  395 216 
 SJC  HZ EP   9    958 21.77                             106   -1.42 0  408 327 
 SJC  HZ I         958 21.89         1.9 0.22            107            408 327 
 SJC  HE ES        958 59.79                                   -5.24 6  408 327 
                                                                                
