 2017  512 0626 32.3 L   6.687 -73.247148.6  RSN  4 0.3 1.0LRSN                1
 GAP=216        0.83       6.7     6.7  8.3  0.2979E+02  0.1151E+01 -0.2194E+01E
 Epicentro: BARICHARA - SANTANDER                                              3
 ACTION:UPD 17-06-16 13:35 OP:jn   STATUS:               ID:20170512062632 L   I
 OLDACT:DUP 17-05-12 19:25 OP:osc  STATUS:               ID:20170512061738d    3
 OLDACT:REG 17-05-12 13:14 OP:osc  STATUS:               ID:20170512061737     3
 2017-05-12-0618-00M.COL___359                                                 6
 STAT SP IPHASW D HRMM SECON CODA AMPLIT PERI AZIMU VELO AIN AR TRES W  DIS CAZ7
 BRR  HZ EP        626 53.54                             154   -0.0910 69.3 312 
 BRR  HN ES        627 10.57                             154    0.2810 69.3 312 
 BRR  HZ I         627 16.53         2.6 0.46            156           69.3 312 
 RUS  HZ EP        626 55.43                             147   -0.1310 89.7 168 
 RUS  HN ES        627 13.56                             147   -0.1710 89.7 168 
 RUS  HZ I         627 16.19         1.2 0.32            154           89.7 168 
 PTB  HZ EP        626 58.88                             135    0.5510  135 263 
 PTB  HN ES        627 18.73                             135    0.0710  135 263 
 ZAR  HN ES        627 28.85                             124   -0.60 9  199 297 
                                                                                
