 2017  212 1358  8.9 L   6.762 -73.177140.8  RSN  6 0.5 1.4LRSN                1
 GAP=134        1.29       9.2     8.7  9.0  0.4760E+02  0.2543E+02  0.1783E+02E
 Epicentro: LOS SANTOS - SANTANDER                                             3
 ACTION:UPD 17-05-24 15:35 OP:jn   STATUS:               ID:20170212135808 L   I
 OLDACT:UP  17-02-13 00:24 OP:edw  STATUS:               ID:20170212135741     3
 OLDACT:REG 17-02-12 21:08 OP:edw  STATUS:               ID:20170212135741     3
 2017-02-12-1358-00M.COL___346                                                 6
 STAT SP IPHASW D HRMM SECON CODA AMPLIT PERI AZIMU VELO AIN AR TRES W  DIS CAZ7
 BAR2 EZ EP       1358 27.52                             172   -0.2810 18.8 182 
 BAR2 EZ ES       1358 41.81                             172   -0.7710 18.8 182 
 BAR2 EZ I        1358 43.92         3.3 0.56            173           18.8 182 
 BRR  HZ EP       1358 29.36                             152   -0.0610 70.4 303 
 BRR  HN ES       1358 46.40                             152    0.9410 70.4 303 
 BRR  HZ I        1358 47.80         6.4 0.48            153           70.4 303 
 PAM  EZ IP   9 D 1358 30.48                             148   -0.41 0 82.8  40 
 PAM  EN ES       1358 47.51                             149   -0.1510 82.8  40 
 PAM  EZ I        1358 49.71         4.5 0.46            148           82.8  40 
 RUS  HZ EP       1358 31.68                             144   -0.1610 96.7 174 
 RUS  HN ES       1358 50.35                             144    0.5910 96.7 174 
 RUS  HZ I        1358 51.40         5.1 0.34            146           96.7 174 
 PTB  HZ EP       1358 35.45                             132    0.41 9  144 260 
 PTB  HN ES       1358 55.00                             132   -0.46 9  144 260 
 ZAR  HN ES       1359  5.45                             121   -0.30 9  202 294 
                                                                                
