 2015  412 1117 43.1 L   6.809 -73.132154.6  RSN  4 0.5 2.1LRSN                1
 GAP=201        1.04       7.2    15.1 10.0  0.4135E+02 -0.2814E+02 -0.3563E+02E
 Epicentro: LOS SANTOS - SANTANDER                                             3
 ACTION:UPD 15-06-03 16:54 OP:cam  STATUS:               ID:20150412111743 L   I
 OLDACT:DUP 15-04-12 23:24 OP:mh   STATUS:               ID:20150412110749d    3
 OLDACT:UP  15-04-12 23:23 OP:mh   STATUS:               ID:20150412110748d    3
 OLDACT:UP  15-04-12 23:22 OP:mh   STATUS:               ID:20150412110748d    3
 OLDACT:DUP 15-04-12 23:14 OP:mh   STATUS:               ID:20150412110748d    3
 OLDACT:REG 15-04-12 20:49 OP:mh   STATUS:               ID:20150412110747     3
 2015-04-12-1107-47M.COL___263                                                 6
 STAT SP IPHASW D HRMM SECON CODA AMPLIT PERI AZIMU VELO AIN AR TRES W  DIS CAZ7
 BAR2 EZ EP   1   1118  4.01                             170    0.19 7 24.6 193 
 BAR2 EZ ES       1118 19.48                             170   -0.5010 24.6 193 
 BAR2 EZ I        1118 20.72        58.1 0.05            162           24.6 193 
 BRR  HZ EP       1118  5.83                             154    0.5710 72.1 297 
 BRR  HZ I        1118 11.44         9.5 0.52            145           72.1 297 
 BRR  HN ES       1118 22.66                             154    0.1110 72.1 297 
 OCA  HZ EP   1   1118 11.79                             132   -0.25 7  159 353 
 OCA  HN ES       1118 35.13                             132    0.52 9  159 353 
 SML  HZ EP   1   1118 19.72                             119   -0.49 6  243 335 
 SML  HE ES       1118 48.49                             119   -0.67 8  243 335 
 SML  HZ I        1118 54.23         6.1 0.10            115            243 335 
                                                                                
