 2012  912 1123 48.2 L   6.786 -73.144141.2  RSN  6 0.2 1.4LRSN                1
 GAP=186        0.40       3.2     3.1  4.0  0.4386E+01  0.2013E+01  0.1081E+01E
 Epicentro: LOS SANTOS - SANTANDER                                             3
 ACTION:UPD 12-10-22 14:18 OP:ep   STATUS:               ID:20120912112348 L   I
 2012-09-12-1120-00M.COL___227                                                 6
 STAT SP IPHASW D HRMM SECON CODA AMPLIT PERI AZIMU VELO AIN AR TRES W  DIS CAZ7
 BAR2 SZ EP   1   1124  7.02                             171   -0.23 7 21.9 191 
 BAR2 SZ ES   1   1124 22.05                             171   -0.06 7 21.9 191 
 BAR2 SZ I        1124 22.85         7.6 0.22                          21.9 191 
 GIR2 SZ EP   1   1124  7.22                             166   -0.16 7 32.8 350 
 GIR2 SZ ES   1   1124 22.36                             166    0.03 7 32.8 350 
 BRR  HZ EP   1   1124  8.99                             151    0.08 7 72.1 300 
 BRR  HZ I        1124  9.53        10.0 0.12                          72.1 300 
 BRR  HN ES   1   1124 25.18                             151    0.11 7 72.1 300 
 RUS  HZ EP   1   1124 11.56                             143    0.17 7 99.0 176 
 RUS  HE ES   1   1124 29.63                             143    0.15 7 99.0 176 
 RUS  HZ I        1124 29.79         2.1 0.30                          99.0 176 
 PTB  HN ES   1   1124 35.25                             131   -0.29 7  148 259 
 PTB  HN I        1124 36.86         3.9 0.14                           148 259 
 ZAR  HN ES   1   1124 45.82                             121    0.24 6  205 293 
 ZAR  HZ I        1124 48.36         2.3 0.13                           205 293 
                                                                                
