 2012 1112 2302  6.0 L   6.800 -73.150140.7  RSN 11 0.5 2.0LRSN                1
 GAP=136        0.90       3.5     4.5  6.1 -0.8265E+00  0.7123E+01  0.6348E+01E
 Epicentro: LOS SANTOS - SANTANDER                                             3
 ACTION:UPD 12-12-05 15:33 OP:}ep  STATUS:               ID:20121112230206 L   I
 2012-11-12-2300-00M.COL___230                                                 6
 STAT SP IPHASW D HRMM SECON CODA AMPLIT PERI AZIMU VELO AIN AR TRES W  DIS CAZ7
 BAR2 SZ IP     D 23 2 25.02                             170    0.0410 23.2 189 
 BAR2 SZ ES   1   23 2 39.68                             170   -0.14 7 23.2 189 
 BAR2 SZ I        23 2 40.95        33.4 0.28                          23.2 189 
 GIR2 SZ EP   1   23 2 25.22                             167    0.19 7 31.2 351 
 GIR2 SZ ES   1   23 2 39.73                             167   -0.18 7 31.2 351 
 BRR  HZ IP     C 23 2 26.82                             152    0.2810 70.8 299 
 BRR  HN ES   1   23 2 43.19                             152    0.59 7 70.8 299 
 BRR  HZ I        23 2 47.08        10.2 0.30                          70.8 299 
 PAM  SZ EP       23 2 27.99                             150    0.3310 77.7  40 
 PAM  SN ES   1   23 2 44.92                             150    0.33 7 77.7  40 
 PAM  SZ I        23 2 46.97        15.5 0.48                          77.7  40 
 RUS  HZ EP       23 2 29.03                             143   -0.1910  101 176 
 RUS  HN ES   1   23 2 47.12                             143   -0.24 7  101 176 
 RUS  HZ I        23 2 49.37        11.2 0.28                           101 176 
 PTB  HZ EP   1   23 2 31.82                             131   -0.66 7  147 259 
 PTB  HN ES   1   23 2 52.69                             131   -0.47 7  147 259 
 PTB  HZ I        23 2 56.11         8.7 0.40                           147 259 
 OCA  HN ES   1   23 2 54.55                             128   -1.11 7  160 353 
 OCA  HZ I        23 2 58.12        12.4 0.20                           160 353 
 ZAR  HZ EP   1   23 2 38.69                             121    0.65 6  204 292 
 ZAR  HN ES   1   23 3  2.99                             121   -0.07 6  204 292 
 ZAR  HZ I        23 3  9.00        10.2 0.36                           204 292 
 CHI  HZ EP   1   23 2 43.46                             116    0.09 6  248 195 
 CHI  HN ES   1   23 3 12.14                             116   -0.40 6  248 195 
 CHI  HZ I        23 3 16.50         4.8 0.66                           248 195 
 RREF HZ EP   1   23 2 51.25                             110   -0.60 5  321 229 
 RREF HN ES   1   23 3 28.86                             110    1.22 5  321 229 
 RREF HZ I        23 3 33.58         4.0 0.28                           321 229 
 PRA  HZ EP   1   23 2 59.03                             106   -0.25 4  392 210 
 PRA  HN ES   1   23 3 41.19                             106    0.32 4  392 210 
 PRA  HZ I        23 3 47.24         7.0 0.28                           392 210 
                                                                                
