 2016 1212 2038 15.6 L   6.895 -73.103154.4  RSN  4 0.3 1.5LRSN                1
 GAP=250        0.88       9.3     7.1  8.3  0.4407E+02 -0.3983E+01 -0.3046E+02E
 Epicentro: PIEDECUESTA - SANTANDER                                            3
 ACTION:UPD 17-01-11 20:14 OP:rebc STATUS:               ID:20161212203815 L   I
 OLDACT:REG 16-12-13 03:46 OP:y    STATUS:               ID:20161212202744     3
 2016-12-12-2028-00M.COL___390                                                 6
 STAT SP IPHASW D HRMM SECON CODA AMPLIT PERI AZIMU VELO AIN AR TRES W  DIS CAZ7
 BAR2 EZ EP       2038 36.82                             167    0.2610 34.6 195 
 BAR2 EZ ES       2038 52.88                             167   -0.0110 34.6 195 
 BAR2 EZ I        2038 55.16         9.0 0.78            170           34.6 195 
 RUS  HZ EP       2038 41.42                             143    0.4510  111 179 
 RUS  HN ES       2039  0.26                             143   -0.4710  111 179 
 RUS  HZ I        2039  2.25         1.9 0.39            148            111 179 
 PTB  HZ EP       2038 43.50                             132   -0.43 9  155 255 
 PTB  HE ES       2039  6.46                             132    0.45 9  155 255 
 PTB  HZ I        2039  7.28         3.4 0.14            135            155 255 
 ZAR  HZ EP       2038 48.50                             124   -0.23 9  205 289 
 ZAR  HN ES       2039 14.42                             124   -0.12 9  205 289 
 ZAR  HZ I        2039 20.58         4.6 0.42            126            205 289 
                                                                                
