 2016  712 2319  3.4 L   6.616 -73.639 97.4  RSN 16 0.5 2.1LRSN                1
 GAP= 61        1.22       3.4     2.7  6.8 -0.3545E+00  0.4535E+01  0.8634E+01E
 Epicentro: EL CARMEN - SANTANDER                                              3
 ACTION:UPD 17-03-29 16:50 OP:lp   STATUS:               ID:20160712231903 L   I
 OLDACT:UP  16-07-13 04:58 OP:drio STATUS:               ID:20160712231759     3
 OLDACT:UP  16-07-13 04:58 OP:drio STATUS:               ID:20160712231759     3
 OLDACT:UP  16-07-13 04:57 OP:drio STATUS:               ID:20160712231759     3
 OLDACT:REG 16-07-13 03:46 OP:drio STATUS:               ID:20160712231759     3
 2016-07-12-2317-59S.COL___331                                                 6
 STAT SP IPHASW D HRMM SECON CODA AMPLIT PERI AZIMU VELO AIN AR TRES W  DIS CAZ7
 BAR2 EZ EP       2319 18.64                             151    0.0810 50.6  93 
 BAR2 EZ ES       2319 31.20                             151    0.8610 50.6  93 
 BAR2 EZ I        2319 32.32       122.2 0.18            155           50.6  93 
 BRR  HZ EP       2319 18.04                             148   -0.4410 54.9 352 
 BRR  HN ES       2319 30.62                             148    0.4110 54.9 352 
 BRR  HZ I        2319 36.31        26.3 0.16            152           54.9 352 
 PTB  HZ EP   4   2319 19.68                             134   -1.62 0 90.7 265 
 PTB  HE ES       2319 34.34                             134   -0.8810 90.7 265 
 PTB  HZ I        2319 35.60        37.8 0.12            133           90.7 265 
 RUS  HZ EP       2319 22.41                             131   -0.4610  101 142 
 RUS  HE ES       2319 37.45                             131   -0.5710  101 142 
 RUS  HZ I        2319 39.53        32.6 0.22            133            101 142 
 SPBC HZ EP       2319 23.23                             126   -0.6410  117 204 
 SPBC HN ES   4   2319 38.96                             126   -0.85 0  117 204 
 SPBC HZ I        2319 42.95        24.9 0.32            126            117 204 
 PAM  EE ES       2319 43.34                             123    0.0310  131  52 
 ZAR  HZ EP       2319 28.38                             116   -0.58 9  166 306 
 ZAR  HE ES       2319 49.55                             116    0.69 9  166 306 
 ZAR  HZ I        2319 52.87        40.9 0.30            117            166 306 
 NOR  HZ EP   4   2319 29.23                             114   -1.27 0  179 230 
 NOR  HE ES       2319 51.33                             114   -0.26 9  179 230 
 NOR  HZ I        2319 53.96        37.2 0.26            114            179 230 
 TAM  HZ EP       2319 33.37                             111   -0.10 8  205  95 
 TAM  HE ES       2319 56.94                             111    0.04 8  205  95 
 HEL  HZ EP       2319 34.87                             110   -0.04 8  214 257 
 HEL  HN ES       2319 59.67                             110    0.22 8  214 257 
 HEL  HZ I        2320  3.27        20.0 0.54            110            214 257 
 CHI  HZ EP       2319 36.23                             110    0.61 8  220 183 
 CHI  HN ES       2320  1.18                             110    0.46 8  220 183 
 CHI  HZ I        2320  7.46         6.1 0.36            109            220 183 
 GUY2CHZ EP       2319 39.06                             108    0.38 8  245 231 
 GUY2CHE ES       2320  5.94                             108   -0.22 8  245 231 
 GUY2CHZ I        2320 14.07         7.0 0.62                           245 231 
 ELA  HZ EP   4   2319 43.61                             105    1.34 0  275 225 
 CBOC HZ EP       2319 42.40                             105    0.54 7  275 253 
 CBOC HN ES   4   2320 13.88                             105    2.05 0  275 253 
 ELA  HN ES       2320 13.04                             105    0.48 8  275 225 
 ELA  HZ I        2320 25.46         5.2 0.36            104            275 225 
 CBOC HZ I        2320 20.14         2.9 0.12            104            275 253 
 PRA  HZ EP       2319 50.24                             102   -0.35 6  349 203 
 PRA  HN ES       2320 28.20                             102    0.84 6  349 203 
 PRA  HZ I        2320 32.46         6.5 0.24            100            349 203 
 SJC  HZ EP   4   2319 54.76                             100   -2.05 0  401 335 
 SJC  HN ES   4   2320 34.49                             100   -3.94 0  401 335 
 SJC  HZ I        2320 39.50         2.6 0.44             98            401 335 
                                                                                
