 2015  813 0141 13.7 L   6.392 -73.637103.7  RSN  8 0.4 1.6LRSN                1
 GAP=142        0.89       2.9     3.8  8.7  0.1063E+01  0.1011E+02 -0.1166E+02E
 Epicentro: SANTA HELENA DEL OPON - SANTANDER                                  3
 ACTION:UPD 15-09-15 23:01 OP:cam  STATUS:               ID:20150813014113 L   I
 OLDACT:UP  15-08-13 13:47 OP:mh   STATUS:               ID:20150813013748     3
 OLDACT:UP  15-08-13 13:45 OP:mh   STATUS:               ID:20150813013748     3
 OLDACT:REG 15-08-13 11:56 OP:mh   STATUS:               ID:20150813013748     3
 2015-08-13-0137-48M.COL___337                                                 6
 STAT SP IPHASW D HRMM SECON CODA AMPLIT PERI AZIMU VELO AIN AR TRES W  DIS CAZ7
 RUS  HZ EP        141 32.01                             139   -0.0710 82.5 132 
 RUS  HN ES        141 46.52                             139    0.1210 82.5 132 
 RUS  HZ I         141 47.78         3.7 0.10            142           82.5 132 
 SPBC HZ IP     C  141 32.09                             134   -0.4910 94.9 211 
 SPBC HN ES        141 47.14                             134   -0.1410 94.9 211 
 SPBC HZ I         141 52.01        11.0 0.20            137           94.9 211 
 NOR  HZ EP        141 39.55                             117    0.09 9  164 236 
 NOR  HN ES        141 59.10                             117   -0.45 9  164 236 
 NOR  HZ I         142  1.98         5.5 0.48            120            164 236 
 ZAR  HZ EP        141 40.91                             114   -0.41 9  182 312 
 ZAR  HN ES        142  3.29                             114    0.45 9  182 312 
 ZAR  HZ I         142  6.76        11.2 0.34            116            182 312 
 CHI  HN ES        142  7.16                             113    0.73 9  195 183 
 CHI  HZ I         142 13.27         1.8 0.24            116            195 183 
 GUY2CHZ EP        141 47.79                             108    0.30 8  231 236 
 GUY2CHN ES   4    142 16.24                             108    2.41 0  231 236 
 GUY2CHZ I         142 18.64         2.6 0.58                           231 236 
 URE  HZ EP   4    141 47.84                             106   -2.22 0  258 306 
 URE  HN ES        142 18.87                             106    0.46 8  258 306 
 URE  HZ I         142 20.56         3.4 0.12            108            258 306 
 SML  HZ EP        141 51.18                             105   -0.37 8  271 350 
 SML  HN ES        142 21.12                             105    0.06 8  271 350 
 SML  HZ I         142 34.00         3.6 0.10            106            271 350 
                                                                                
