 2016  413 0020 19.7 L   6.505 -73.492 13.9  RSN  5 0.4 0.9LRSN                1
 GAP=126        1.05       3.1     2.5  7.8 -0.1059E+01  0.1095E+02 -0.6853E+01E
 Epicentro: SIMACOTA - SANTANDER                                               3
 ACTION:UPD 16-05-05 14:20 OP:rebc STATUS:               ID:20160413002019 L   I
 OLDACT:UP  16-04-13 15:16 OP:mh   STATUS:               ID:20160413001748d    3
 OLDACT:UP  16-04-13 15:02 OP:mh   STATUS:               ID:20160413001748d    3
 OLDACT:UP  16-04-13 15:02 OP:mh   STATUS:               ID:20160413001748d    3
 OLDACT:DUP 16-04-13 15:00 OP:mh   STATUS:               ID:20160413001748d    3
 OLDACT:REG 16-04-13 12:49 OP:mh   STATUS:               ID:20160413001747     3
 2016-04-13-0017-47M.COL___315                                                 6
 STAT SP IPHASW D HRMM SECON CODA AMPLIT PERI AZIMU VELO AIN AR TRES W  DIS CAZ7
 BAR2 EZ IP     D  020 26.53                             108    0.3410 35.6  74 
 BAR2 EZ ES        020 30.84                             108   -0.4110 35.6  74 
 BAR2 EZ I         020 31.77         5.8 0.08            106           35.6  74 
 RUS  HZ EP     C  020 33.70                              98    0.4410 81.4 146 
 RUS  HN ES        020 43.40                              98   -0.4210 81.4 146 
 RUS  HZ I         020 44.74         3.3 0.24             97           81.4 146 
 PTB  HZ IP     D  020 36.73                              95    0.1710  107 272 
 PTB  HN ES        020 49.44                              95   -0.2610  107 272 
 PTB  HZ I         020 50.82         4.7 0.56             95            107 272 
 PAM  EZ EP        020 40.88                              95    0.7210  127  43 
 PAM  EN ES        020 55.72                              95   -0.3910  127  43 
 PAM  EZ I         021  0.45         2.6 0.25             94            127  43 
 ZAR  HE ES        021  8.80                              56   -0.22 9  186 306 
 ZAR  HZ I         021 10.20         2.0 0.21             56            186 306 
                                                                                
