 2011 1213 0236 36.5 L   6.727 -73.222149.2  RSN  4 0.3 1.5LRSN                1
 GAP=166        0.65       5.4     5.8  7.2  0.7506E+01  0.5271E+01  0.8046E+01E
 Epicentro: VILLANUEVA - SANTANDER                                             3
 ACTION:UPD 12-07-13 16:15 OP:ep   STATUS:               ID:20111213023636 L   I
 2011-12-13-0230-00M.COL___186                                                 6
 STAT SP IPHASW D HRMM SECON CODA AMPLIT PERI AZIMU VELO AIN AR TRES W  DIS CAZ7
 GIR2 SZ EP   1    236 56.72                             165   -0.12 7 39.1   5 
 GIR2 SZ ES   1    237 12.26                             165   -0.43 7 39.1   5 
 BRR  HZ EP   1    236 58.02                             154    0.11 7 68.5 308 
 BRR  HZ I         237  5.24         9.6 0.42                          68.5 308 
 BRR  HN ES   1    237 15.15                             154    0.57 7 68.5 308 
 RUS  HZ EP   1    237  0.04                             146   -0.09 7 93.5 171 
 RUS  HE ES   1    237 18.74                             146    0.20 7 93.5 171 
 PTB  HZ EP   1    237  3.08                             135    0.16 7  138 261 
 PTB  HN ES   1    237 23.09                             135   -0.42 7  138 261 
 PTB  HZ I         237 30.09         2.6 0.22                           138 261 
                                                                                
