 2013  913 1313 15.3 L   6.881 -73.308124.0  RSN 20 0.6 2.9LRSN 3.2WRSN        1
 SPEC AVERAGE  MO 13.9 ST 14.6 OM  2.4 f0 4.45 R0.7971 AL 0.00 WI 30.0 MW  3.2 3
 SPEC SD       MO  0.2 ST 21.8 OM  0.3 f0 3.01 R0.9731 AL      WI      MW  0.1 3
 GAP= 53        1.25       3.1     3.8  6.0  0.4789E+00  0.5764E+01  0.1954E+01E
 Epicentro: BETULIA - SANTANDER                                                3
 SPEC CHI HH N MO 13.8 ST  3.2 OM  2.0 f0 3.39 R0.4584 AL 0.00 WI 38.2 MW  3.2 3
 SPEC CHI HH N T131421 K 0.000 GD  281 VS 4.20 DE 3.20 Q0300.0 QA 0.60 VS 4.20 3
 SPEC ZAR HH E MO 14.3 ST0.037 OM  2.6 f00.526 R2.9544 AL 0.00 WI 28.8 MW  3.5 3
 SPEC ZAR HH E T1314 7 K 0.000 GD  221 VS 4.20 DE 3.20 Q0300.0 QA 0.60 VS 4.20 3
 SPEC TAM HH E MO 13.7 ST 16.4 OM  2.0 f0 6.40 R0.2428 AL 0.00 WI 27.6 MW  3.1 3
 SPEC TAM HH E T1314 3 K 0.000 GD  214 VS 4.20 DE 3.20 Q0300.0 QA 0.60 VS 4.20 3
 SPEC RUS HH E MO 13.8 ST  2.7 OM  2.2 f0 3.28 R0.4738 AL 0.00 WI 17.0 MW  3.2 3
 SPEC RUS HH E T131355 K 0.000 GD  167 VS 4.20 DE 3.20 Q0300.0 QA 0.60 VS 4.20 3
 SPEC PAM SH N MO 14.0 ST  3.3 OM  2.4 f0 3.12 R0.4981 AL 0.00 WI 33.5 MW  3.3 3
 SPEC PAM SH N T131350 K 0.000 GD  149 VS 4.20 DE 3.20 Q0300.0 QA 0.60 VS 4.20 3
 SPEC BRR HH E MO 13.7 ST 61.9 OM  2.2 f0 10.0 R0.1554 AL 0.00 WI 34.6 MW  3.1 3
 SPEC BRR HH E T131343 K 0.000 GD  134 VS 4.20 DE 3.20 Q0300.0 QA 0.60 VS 4.20 3
 ACTION:UPD 13-10-22 09:22 OP:ep   STATUS:               ID:20130913131315 L   I
 OLDACT:UP  13-09-13 18:05 OP:cam  STATUS:               ID:20130913130959     3
 OLDACT:UP  13-09-13 18:05 OP:cam  STATUS:               ID:20130913130959     3
 OLDACT:REG 13-09-13 17:27 OP:cam  STATUS:               ID:20130913130959     3
 2013-09-13-1309-59M.COL___269                                                 6
 STAT SP IPHASW D HRMM SECON CODA AMPLIT PERI AZIMU VELO AIN AR TRES W  DIS CAZ7
 BAR2 SZ EP       1313 32.68                             163    0.0510 34.8 156 
 BAR2 SZ ES       1313 45.51                             163   -0.6510 34.8 156 
 BAR2 SZ I        1313 47.06       984.1 0.34            158           34.8 156 
 BRR  HZ EP     D 1313 32.97                             156    0.0110 51.2 299 
 BRR  HE ES       1313 47.23                             156    0.4610 51.2 299 
 BRR  HZ I        1313 48.93        93.5 0.14            146           51.2 299 
 PAM  SZ EP       1313 35.76                             144    0.0710 84.2  53 
 PAM  SN ES       1313 52.46                             144    0.8410 84.2  53 
 PAM  SZ I        1313 54.31       145.9 0.30            137           84.2  53 
 RUS  HZ EP       1313 37.37                             135   -0.5310  112 167 
 RUS  HE ES       1313 55.09                             135   -0.4710  112 167 
 RUS  HZ I        1313 57.95        48.0 0.30            126            112 167 
 PTB  HZ IP     D 1313 38.01                             130   -1.0810  132 254 
 PTB  HZ I        1313 59.76       197.4 0.46            119            132 254 
 OCA  HZ EP     C 1313 40.82                             126   -0.16 9  150 360 
 OCA  HN ES       1314  0.56                             126   -0.47 9  150 360 
 OCA  HZ I        1314  1.72       214.2 0.30            117            150 360 
 SPBC HZ EP   1   1313 41.27                             124   -0.61 7  160 212 
 SPBC HN ES       1314  2.84                             124    0.21 9  160 212 
 SPBC HZ I        1314  7.94        84.1 0.34            115            160 212 
 TAM  HZ IP     C 1313 43.55                             122    0.22 9  175 106 
 TAM  HZ I        1314  4.67        63.9 0.32            114            175 106 
 TAM  HE ES       1314  5.61                             122    0.40 9  175 106 
 ZAR  HZ EP       1313 44.28                             120    0.03 9  184 292 
 ZAR  HE ES       1314  7.86                             120    1.00 9  184 292 
 ZAR  HZ I        1314 12.74       122.3 0.24            111            184 292 
 NOR  HZ EP   1   1313 48.13                             114   -0.73 6  226 230 
 SML  HZ EP   1   1313 48.27                             114   -0.79 6  228 338 
 SML  HN ES   1   1314 14.79                             114   -0.62 6  228 338 
 SML  HZ I        1314 26.64       165.1 0.10            107            228 338 
 CHI  HZ EP       1313 52.61                             112    0.22 8  253 191 
 CHI  HN ES       1314 22.00                             112    0.65 8  253 191 
 CHI  HZ I        1314 29.79        17.5 0.60            105            253 191 
 HEL  HZ EP   4   1313 53.93                             111    1.16 0  257 253 
 HEL  HZ I        1314 26.86        51.3 0.58            105            257 253 
 GUY2CHZ EP   1   1313 57.50                             109    0.57 5  292 231 
 RREF HZ EP   1   1314  0.60                             107    0.89 5  315 226 
 CBOC HZ EP   1   1314  0.58                             106    0.85 5  320 250 
 COD  HZ EP   1   1314  1.68                             105    0.00 5  338 357 
 PRA  HZ EP       1314  8.05                             103   -0.01 6  391 207 
 PRA  HE ES   4   1314 51.35                             103    2.12 0  391 207 
 PRA  HZ I        1314 54.56        29.1 0.24             99            391 207 
 SJC  HZ EP   4   1314  6.80                             103   -1.35 0  392 328 
 SJC  HN ES   4   1314 46.67                             103   -2.73 0  392 328 
 SJC  HZ I        1314 53.08        15.7 0.32             99            392 328 
 ORTC HZ EP   1   1314  9.14                             103    0.95 4  393 213 
                                                                                
