 2010 1213 1159 25.2 L   6.775 -72.942144.0  RSN  7 0.5 1.8LRSN                1
 GAP=182        0.97       7.5    17.1  9.9 -0.7291E+02  0.1204E+02  0.1459E+02E
 Epicentro: CEPITA - SANTANDER                                                 3
 ACTION:UP  11-01-14 15:24 OP:pat  STATUS:               ID:20101213115925 L   I
 2010-12-13-1158-06S.COL___136                                                 6
 STAT SP IPHASW D HRMM SECON CODA AMPLIT PERI AZIMU VELO SNR AR TRES W  DIS CAZ7
 BAR2 SZ IP       1159 44.77                             166    -0.110   34 233 
 BAR2 SZ ES   2   12 0  0.29                             166     0.1 5   34 233 
 BTL  SZ EP   1   1159 44.09                             164    -1.0 7   39 294 
 BTL  SZ ES   2   12 0  0.14                             164    -0.4 5   39 294 
 RUS  HZ EP   1   1159 48.63                             144     0.0 7   99 189 
 RUS  HN ES   2   12 0  7.53                             144     0.6 5   99 189 
 RUS  HZ I        12 0  8.51         6.0 0.24                            99 189 
 GRA  SZ EP   1   1159 50.55                             137     0.4 7  124   7 
 GRA  SZ ES   2   12 0 10.30                             137     0.8 5  124   7 
 GRA  SZ I        12 0 11.31        11.5 0.37                           124   7 
 CHI  HZ EP   1   12 0  2.97                             116    -0.3 6  253 200 
 CHI  HZ I        12 0  4.14         2.5 0.54                           253 200 
 CHI  HN ES   2   12 0 33.64                             116     0.7 4  253 200 
 RREF HZ EP   1   12 0 13.95                             109     0.9 5  338 232 
 RREF HN ES   2   12 0 50.89                             109     0.5 3  338 232 
 RREF HZ I        12 0 56.26         3.9 0.33                           338 232 
 PRA  HZ EP   1   12 0 19.17                             106    -0.6 4  401 213 
                                                                                
