 2011  613 1519 48.8 L   6.819 -73.046140.3  RSN  5 0.1 1.6LRSN                1
 GAP=167        0.35       2.3     4.6  4.3  0.1033E+01 -0.8535E+01 -0.3168E+01E
 Epicentro: LOS SANTOS - SANTANDER                                             3
 ACTION:UP  11-07-14 19:05 OP:ep   STATUS:               ID:20110613151948 L   I
 2011-06-13-1516-38S.COL___131                                                 6
 STAT SP IPHASW D HRMM SECON CODA AMPLIT PERI AZIMU VELO SNR AR TRES W  DIS CAZ7
 BAR2 SZ ES   1   1520 22.95                             168     0.2 7   29 211 
 BAR2 SZ I        1520 23.87        13.1 0.17                            29 211 
 BRR  HZ EP   1   1520  9.79                             149    -0.1 7   80 293 
 BRR  HN ES   1   1520 26.32                             149     0.0 7   80 293 
 BRR  HZ I        1520 29.61        11.6 0.19                            80 293 
 BRI  SZ EP   1   1520 11.83                             142     0.1 7  103  15 
 RUS  HZ EP   1   1520 12.18                             142     0.0 7  103 182 
 RUS  HN ES   1   1520 30.20                             142    -0.1 7  103 182 
 RUS  HZ I        1520 31.87         3.9 0.02                           103 182 
 GRA  SZ EP   1   1520 13.12                             137     0.0 7  121  13 
 GRA  SZ ES   2   1520 31.94                             137    -0.2 5  121  13 
 GRA  SZ I        1520 33.66         7.2 0.20                           121  13 
                                                                                
