 2010  813 2238 32.2 L   6.781 -73.119146.4  RSN  5 0.4 1.5LRSN                1
 GAP=162        0.90       5.7    14.8 10.1 -0.3484E+02 -0.3001E+02 -0.5320E+00E
 Epicentro: LOS SANTOS - SANTANDER                                             3
 ACTION:UP  10-09-07 10:54 OP:vdl  STATUS:               ID:20100813223832 L   I
 2010-08-13-2236-31S.COL___111                                                 6
 STAT SP IPHASW D HRMM SECON CODA AMPLIT PERI AZIMU VELO SNR AR TRES W  DIS CAZ7
 BAR2 SZ EP   1   2238 51.80                             170     0.0 8   22 199 
 BAR2 SZ ES   1   2239  6.50                             170    -0.7 8   22 199 
 BAR2 SZ I        2239  9.77        11.9 0.36                            22 199 
 BRR  HZ EP   2   2238 52.92                             151    -0.7 5   75 299 
 BRR  HN ES   2   2239 11.11                             151     0.8 5   75 299 
 RUS  HZ EP   1   2238 56.14                             145     0.3 8   98 178 
 RUS  HN ES   2   2239 14.80                             145     0.6 5   98 178 
 RUS  HZ I        2239 15.40         2.6 0.24                            98 178 
 GUE  SZ EP   1   2238 56.75                             139    -0.3 8  118  10 
 GRA  SZ EP   1   2238 57.58                             137     0.0 7  127  16 
 GRA  SZ ES       2239 17.52                             137     0.210  127  16 
 GRA  SZ I        2239 18.45         4.0 0.52                           127  16 
                                                                                
