 2015 1114 0836 45.6 L   6.766 -73.110132.0  RSN  5 0.5 1.5LRSN                1
 GAP=239        1.29       7.2    11.4 10.4  0.3913E+02  0.5028E+02  0.5218E+01E
 Epicentro: LOS SANTOS - SANTANDER                                             3
 ACTION:UPD 15-12-28 16:10 OP:cam  STATUS:               ID:20151114083645 L   I
 OLDACT:UP  15-12-02 16:17 OP:cam  STATUS:               ID:20151114083645 L   3
 OLDACT:UP  15-12-02 16:17 OP:cam  STATUS:               ID:20151114083645 L   3
 OLDACT:UP  15-12-02 16:14 OP:cam  STATUS:               ID:20151114083645 L   3
 OLDACT:UP  15-11-19 06:51 OP:CARA STATUS:               ID:20151114083645 L   3
 OLDACT:REG 15-11-14 15:00 OP:dnl  STATUS:               ID:20151114082750     3
 2015-11-14-0827-50M.COL___316                                                 6
 STAT SP IPHASW D HRMM SECON CODA AMPLIT PERI AZIMU VELO AIN AR TRES W  DIS CAZ7
 BAR2 EZ EP   2    837  3.43                             171   -0.08 5 20.8 203 
 BAR2 EZ ES        837 16.63                             171   -0.8610 20.8 203 
 BAR2 EZ I         837 20.15         8.5 0.42            165           20.8 203 
 BRR  HZ EP        837  5.38                             148   -0.2110 76.5 300 
 BRR  HN ES        837 22.12                             148    0.9210 76.5 300 
 BRR  HZ I         837 23.22         7.4 0.16            146           76.5 300 
 RUS  HZ EP   4    837  6.33                             142   -1.38 0 96.6 178 
 RUS  HN ES        837 25.48                             142    0.5210 96.6 178 
 RUS  HZ I         837 28.00         4.1 0.32            142           96.6 178 
 SPBC HZ EP        837 13.02                             126   -0.01 9  163 221 
 SPBC HN ES        837 34.29                             126   -0.15 9  163 221 
 SPBC HZ I         837 38.93         4.1 0.14            125            163 221 
 ZAR  HZ EP        837 17.95                             118    0.23 8  209 293 
 ZAR  HN ES        837 42.24                             118   -0.54 8  209 293 
 ZAR  HZ I         837 48.38         3.1 0.26            119            209 293 
                                                                                
