 2016  114 1201 47.9 L   6.796 -73.085148.9  RSN  8 0.5 1.8LRSN                1
 GAP=145        1.13       4.5     7.7  6.7 -0.3224E+01  0.1602E+02  0.3144E+01E
 Epicentro: LOS SANTOS - SANTANDER                                             3
 ACTION:UPD 16-03-09 23:25 OP:cam  STATUS:               ID:20160114120147 L   I
 OLDACT:UP  16-01-14 22:45 OP:drio STATUS:               ID:20160114115744     3
 OLDACT:REG 16-01-14 21:15 OP:drio STATUS:               ID:20160114115744     3
 2016-01-14-1157-44M.COL___325                                                 6
 STAT SP IPHASW D HRMM SECON CODA AMPLIT PERI AZIMU VELO AIN AR TRES W  DIS CAZ7
 BAR2 EZ EP       12 2  7.94                             170   -0.0110 25.0 205 
 BAR2 EZ ES       12 2 22.98                             170   -0.6010 25.0 205 
 BAR2 EZ I        12 2 25.51        16.7 0.22            166           25.0 205 
 PAM  EZ EP       12 2 10.73                             153    0.4810 73.6  35 
 PAM  EN ES       12 2 27.78                             153    0.1210 73.6  35 
 PAM  EZ I        12 2 30.07        14.8 0.52            159           73.6  35 
 BRR  HZ EP       12 2  9.94                             151    0.1910 77.3 296 
 BRR  HN ES       12 2 27.36                             151    0.5810 77.3 296 
 BRR  HZ I        12 2 29.96        15.1 0.80            150           77.3 296 
 RUS  HZ EP       12 2 11.89                             145   -0.0410100.0 180 
 RUS  HE ES       12 2 30.43                             145   -0.2310100.0 180 
 RUS  HZ I        12 2 33.66         5.7 0.22            144          100.0 180 
 PTB  HZ EP       12 2 15.03                             131   -0.69 9  154 259 
 PTB  HN ES   4   12 2 35.89                             131   -1.52 0  154 259 
 PTB  HZ I        12 2 43.14        15.6 0.42            131            154 259 
 SML  HZ EP       12 2 24.21                             118   -0.85 8  247 334 
 SML  HE ES   4   12 2 51.53                             118   -2.51 0  247 334 
 CHI  HZ EP       12 2 25.98                             118    0.04 8  250 197 
 CHI  HE ES       12 2 56.00                             118    0.39 8  250 197 
 CHI  HZ I        12 3  5.17         2.1 0.52            119            250 197 
 GUY2CHZ EP       12 2 32.98                             112    0.72 7  306 236 
 GUY2CHE ES   4   12 3  8.62                             112    1.77 0  306 236 
 GUY2CHZ I        12 3 13.20         3.7 0.40                           306 236 
                                                                                
