 2017  514 1749 27.3 L   6.792 -73.148143.9  RSN 13 0.4 2.5LRSN                1
 GAP=112        0.85       2.9     2.8  5.5  0.6950E+00  0.2198E+01  0.6692E+01E
 Epicentro: LOS SANTOS - SANTANDER                                             3
 ACTION:UPD 17-06-16 13:36 OP:jn   STATUS:               ID:20170514174927 L   I
 OLDACT:REG 17-05-14 20:31 OP:osc  STATUS:               ID:20170514174727     3
 2017-05-14-1748-00M.COL___351                                                 6
 STAT SP IPHASW D HRMM SECON CODA AMPLIT PERI AZIMU VELO AIN AR TRES W  DIS CAZ7
 BRR  HZ IP       1749 48.39                             152    0.0810 71.4 299 
 BRR  HN ES       1750  5.10                             152    0.4410 71.4 299 
 BRR  HZ I        1750  9.54        63.1 0.28            152           71.4 299 
 PAM  EZ EP       1749 49.30                             150   -0.1110 78.2  39 
 PAM  EN ES       1750  6.62                             150   -0.0110 78.2  39 
 PAM  EZ I        1750  9.07        26.2 0.46            154           78.2  39 
 PTB  HZ EP       1749 53.31                             132   -0.82 9  147 259 
 PTB  HN ES       1750 14.32                             132   -0.70 9  147 259 
 PTB  HZ I        1750 17.43        22.4 0.24            133            147 259 
 SPBC HZ EP       1749 55.51                             129   -0.12 9  162 219 
 SPBC HN ES       1750 17.77                             129    0.09 9  162 219 
 SPBC HZ I        1750 21.81        56.1 0.40            130            162 219 
 YPLC HZ IP       1749 56.95                             126    0.01 9  176 151 
 YPLC HN ES       1750 19.84                             126   -0.19 9  176 151 
 YPLC HZ I        1750 23.71        27.9 0.30            129            176 151 
 ZAR  HZ EP       1750  0.35                             122    0.67 9  204 292 
 ZAR  HE ES       1750 24.86                             122   -0.05 9  204 292 
 ZAR  HZ I        1750 29.78        38.2 0.32            124            204 292 
 NOR  HZ EP       1750  2.88                             118   -0.02 8  234 235 
 NOR  HN ES       1750 30.65                             118    0.03 8  234 235 
 NOR  HZ I        1750 33.43        22.6 0.22            120            234 235 
 CHI  HZ EP       1750  4.90                             117    0.05 8  248 195 
 CHI  HE ES       1750 34.40                             117    0.31 8  248 195 
 CHI  HZ I        1750 40.21        14.9 0.32            119            248 195 
 ROSC BZ EP   4   1750  6.47                             116    1.20 0  252 211 
 ROSC BE ES   4   1750 36.69                             116    1.84 0  252 211 
 ROSC BZ I        1750 41.22        57.7 0.40            118            252 211 
 HEL  HZ EP       1750  7.95                             114    0.53 8  272 256 
 HEL  HE ES       1750 38.74                             114    0.07 8  272 256 
 HEL  HZ I        1750 44.99        14.4 0.42            116            272 256 
 VIL  EZ EP       1750 10.34                             112   -0.24 7  302 192 
 VIL  HE ES       1750 44.81                             112    0.51 7  302 192 
 ORTC HZ EP       1750 20.87                             106   -0.24 6  395 216 
 ORTC HN ES   4   1751  4.53                             106    1.49 0  395 216 
 ORTC HZ I        1751  7.95         7.3 0.24            108            395 216 
 SJC  HZ EP   4   1750 20.75                             105   -2.17 0  410 327 
 SJC  HN ES   4   1751  1.28                             105   -4.98 0  410 327 
 SJC  HZ I        1751 16.63         5.0 0.42            107            410 327 
                                                                                
