 2017  114 2108 58.3 L   6.800 -73.101148.7  RSN  6 0.2 1.7LRSN                1
 GAP=142        0.57       2.8     2.9  4.3 -0.2400E+00  0.3597E+01  0.2211E+01E
 Epicentro: LOS SANTOS - SANTANDER                                             3
 ACTION:UPD 17-05-22 15:59 OP:jn   STATUS:               ID:20170114210858 L   I
 OLDACT:REG 17-01-15 05:39 OP:dnl  STATUS:               ID:20170114210745     3
 2017-01-14-2108-00M.COL___338                                                 6
 STAT SP IPHASW D HRMM SECON CODA AMPLIT PERI AZIMU VELO AIN AR TRES W  DIS CAZ7
 BAR2 EZ EP   2   21 9 18.17                             170   -0.10 5 24.6 201 
 BAR2 EZ ES       21 9 33.72                             170   -0.1610 24.6 201 
 BAR2 EZ I        21 9 34.73        15.0 0.28            171           24.6 201 
 PAM  EZ EP       21 9 20.96                             152    0.3510 74.4  37 
 PAM  EN ES       21 9 38.00                             152   -0.0510 74.4  37 
 PAM  EZ I        21 9 40.40        10.6 0.48            154           74.4  37 
 BRR  HZ EP   3   21 9 20.25                             152    0.28 2 75.6 297 
 BRR  HN ES       21 9 37.05                             152    0.1310 75.6 297 
 BRR  HZ I        21 9 41.65        17.0 0.28            151           75.6 297 
 RUS  HZ EP       21 9 22.02                             144   -0.2610  100 179 
 RUS  HE ES       21 9 41.08                             144    0.0610  100 179 
 RUS  HZ I        21 9 41.66         4.2 0.28            147            100 179 
 ZAR  HZ EP   4   21 9 35.74                             122    4.37 0  209 292 
 ZAR  HN ES       21 9 56.91                             122   -0.28 8  209 292 
 ZAR  HZ I        21 9 58.78         5.1 0.28            123            209 292 
 NOR  HZ EP       21 9 34.39                             119   -0.20 8  239 235 
 NOR  HN ES       2110  3.35                             119    0.42 8  239 235 
 NOR  HZ I        2110  4.96         3.5 0.42            120            239 235 
                                                                                
