 2014  915 0534 26.7 L   6.829 -73.149144.4  RSN 18 0.5 2.3LRSN                1
 GAP=135        1.18       2.8     4.0  5.4 -0.2220E+01  0.6909E+01  0.1989E+01E
 Epicentro: LOS SANTOS - SANTANDER                                             3
 ACTION:UPD 14-10-03 23:05 OP:nd   STATUS:               ID:20140915053426 L   I
 OLDACT:REG 14-09-15 12:37 OP:carl STATUS:               ID:20140915052818     3
 2014-09-15-0528-18M.COL___293                                                 6
 STAT SP IPHASW D HRMM SECON CODA AMPLIT PERI AZIMU VELO AIN AR TRES W  DIS CAZ7
 BAR2 SZ IP     C  534 46.23                             169   -0.0010 26.5 188 
 BAR2 SZ ES        535  1.52                             169    0.0510 26.5 188 
 BAR2 SZ I         535  2.79        58.3 0.28            169           26.5 188 
 BRR  HZ IP     C  534 48.06                             153    0.4610 69.4 296 
 BRR  HN ES        535  4.31                             153    0.4110 69.4 296 
 BRR  HZ I         535  9.05        36.7 0.26            150           69.4 296 
 PAM  SZ IP     D  534 49.25                             151    0.6110 75.2  41 
 PAM  SN ES        535  6.29                             151    0.5410 75.2  41 
 PAM  SZ I         535  6.95        21.7 0.26            155           75.2  41 
 RUS  HZ EP        534 50.15                             143   -0.4110  104 176 
 RUS  HN ES        535  8.87                             143   -0.2910  104 176 
 RUS  HZ I         535 10.28        16.9 0.28            145            104 176 
 PTB  HZ EP        534 53.06                             132   -0.53 9  148 258 
 PTB  HN ES        535 13.65                             132   -0.91 9  148 258 
 PTB  HZ I         535 16.57        20.4 0.16            131            148 258 
 OCA  HZ EP        534 54.28                             130   -0.32 9  157 353 
 OCA  HN ES        535 16.26                             130   -0.10 9  157 353 
 OCA  HZ I         535 24.65        21.2 0.24            131            157 353 
 SPBC HZ EP        534 55.22                             128   -0.09 9  165 218 
 SPBC HN ES        535 17.22                             128   -0.41 9  165 218 
 SPBC HZ I         535 21.45        27.0 0.42            129            165 218 
 ZAR  HZ EP        534 59.08                             122    0.18 9  203 291 
 ZAR  HN ES        535 24.08                             122    0.06 9  203 291 
 ZAR  HZ I         535 29.42        23.0 0.26            123            203 291 
 NOR  HZ EP        535  2.42                             118   -0.10 8  236 234 
 NOR  HN ES        535 30.07                             118   -0.39 8  236 234 
 NOR  HZ I         535 37.02        13.0 0.22            119            236 234 
 SML  HZ EP        535  1.81                             117   -1.11 8  241 335 
 SML  HN ES        535 30.60                             117   -0.57 8  241 335 
 SML  HZ I         535 35.46        18.1 0.24            119            241 335 
 CHI  HZ EP        535  4.61                             116   -0.04 8  252 195 
 CHI  HN ES        535 34.05                             116   -0.20 8  252 195 
 CHI  HZ I         535 37.29        12.4 0.58            118            252 195 
 ROSC BZ EP   4    535  5.80                             116    0.77 0  255 211 
 ROSC BN ES   4    535 36.35                             116    1.43 0  255 211 
 ROSC BZ I         535 40.92        32.7 0.45            118            255 211 
 HEL  HZ EP        535  8.14                             114    1.24 8  273 255 
 HEL  HN ES        535 38.57                             114    0.32 8  273 255 
 HEL  HZ I         535 44.70        10.0 0.36            115            273 255 
 GUY2CHZ EP        535 11.18                             112    0.75 7  303 234 
 GUY2CHN ES        535 45.46                             112    0.93 7  303 234 
 GUY2CHZ I         535 52.65        12.9 0.62                           303 234 
 CBOC HZ EP        535 14.24                             110    0.60 7  334 252 
 CBOC HN ES        535 50.07                             110   -0.18 7  334 252 
 CBOC HZ I         535 56.07         2.9 0.38            111            334 252 
 TOL  SZ EP        535 14.57                             109   -0.57 6  346 224 
 TOL  SN ES        535 53.88                             109    0.96 6  346 224 
 TOL  SZ I         536  2.64        21.8 0.32            110            346 224 
 PRA  HZ EP        535 20.05                             106   -0.43 6  395 209 
 PRA  HN ES        536  2.12                             106   -0.31 6  395 209 
 ORTC HZ EP        535 21.38                             106    0.52 6  398 216 
 ORTC HN ES        536  3.09                             106   -0.00 6  398 216 
 ORTC HZ I         536  7.63         6.9 0.24            107            398 216 
                                                                                
