 2013 1015 0159 43.9 L   6.768 -73.175137.1  RSN  7 0.4 1.6LRSN                1
 GAP=134        0.94       4.0     4.6  6.7  0.3750E+00  0.5698E+01 -0.1035E+01E
 Epicentro: LOS SANTOS - SANTANDER                                             3
 ACTION:UPD 13-11-25 09:21 OP:ep   STATUS:               ID:20131015015943 L   I
 OLDACT:REG 13-10-15 08:59 OP:jn   STATUS:               ID:20131015015747     3
 2013-10-15-0157-47M.COL___226                                                 6
 STAT SP IPHASW D HRMM SECON CODA AMPLIT PERI AZIMU VELO AIN AR TRES W  DIS CAZ7
 BAR2 SZ EP        2 0  2.43                             171   -0.0210 19.4 182 
 BAR2 SZ ES        2 0 16.91                             171    0.0210 19.4 182 
 BAR2 SZ I         2 0 18.69        10.9 0.38            173           19.4 182 
 BRR  HZ EP        2 0  4.45                             151    0.3510 70.2 302 
 BRR  HN ES        2 0 20.48                             151    0.6610 70.2 302 
 BRR  HZ I         2 0 25.60         6.3 0.14            151           70.2 302 
 PAM  SZ EP        2 0  5.47                             148   -0.0810 82.2  40 
 PAM  SN ES        2 0 22.22                             148   -0.1810 82.2  40 
 PAM  SZ I         2 0 24.58        10.4 0.60            151           82.2  40 
 RUS  HZ EP        2 0  6.92                             143    0.3110 97.3 174 
 RUS  HN ES        2 0 24.06                             143   -0.2310 97.3 174 
 RUS  HZ I         2 0 25.93         2.7 0.38            147           97.3 174 
 PTB  HZ EP        2 0  9.45                             131   -0.41 9  144 260 
 PTB  HN ES   1    2 0 29.77                             131   -0.30 7  144 260 
 PTB  HZ I         2 0 33.27         5.3 0.16            133            144 260 
 OCA  HZ EP   2    2 0 12.91                             127    1.01 5  163 354 
 OCA  HN ES   1    2 0 32.80                             127   -0.91 7  163 354 
 OCA  HZ I         2 0 35.75         6.7 0.32            130            163 354 
 ZAR  HE ES   1    2 0 40.15                             121   -0.26 6  202 293 
                                                                                
