 2015  615 0120 42.0 L   6.448 -73.662103.9  RSN 10 0.4 1.5LRSN                1
 GAP= 78        0.89       2.3     3.1  5.9 -0.1387E+01  0.1026E+02 -0.1463E+01E
 Epicentro: SANTA HELENA DEL OPON - SANTANDER                                  3
 ACTION:UPD 15-09-10 22:12 OP:cam  STATUS:               ID:20150615012042 L   I
 OLDACT:REG 15-06-15 13:09 OP:drio STATUS:               ID:20150615011748     3
 2015-06-15-0117-48M.COL___312                                                 6
 STAT SP IPHASW D HRMM SECON CODA AMPLIT PERI AZIMU VELO AIN AR TRES W  DIS CAZ7
 BAR2 EZ EP        120 58.22                             150    0.1210 55.4  73 
 BAR2 EZ ES        121 11.17                             150    0.5210 55.4  73 
 BAR2 EZ I         121 12.28        18.6 0.14            155           55.4  73 
 BRR  HZ EP        120 58.53                             142   -0.4410 73.0 356 
 BRR  HN ES        121 11.92                             142   -0.2810 73.0 356 
 BRR  HZ I         121 12.77         9.8 0.12            145           73.0 356 
 RUS  HZ EP        121  0.87                             137   -0.0410 88.8 134 
 RUS  HE ES        121 15.59                             137   -0.0610 88.8 134 
 RUS  HZ I         121 16.42         3.4 0.32            142           88.8 134 
 SPBC HZ EP        121  0.93                             133   -0.3210 99.1 207 
 SPBC HE ES        121 16.14                             133   -0.1210 99.1 207 
 SPBC HZ I         121 22.41         7.7 0.10            135           99.1 207 
 NOR  HE ES        121 27.65                             117   -0.46 9  166 234 
 ZAR  HZ EP        121  8.77                             115   -0.16 9  175 311 
 ZAR  HE ES        121 30.24                             115    0.32 9  175 311 
 ZAR  HZ I         121 33.96         5.7 0.30            118            175 311 
 HEL  HZ EP        121 13.20                             111    0.11 8  209 262 
 HEL  HN ES        121 36.94                             111   -0.39 8  209 262 
 HEL  HZ I         121 39.93         3.4 0.42            113            209 262 
 GUY2CHZ EP        121 16.14                             108    0.20 8  232 234 
 GUY2CHE ES        121 43.02                             108    0.62 8  232 234 
 GUY2CHZ I         121 46.11         2.2 0.26                           232 234 
 RREF HZ EP        121 18.54                             106   -0.05 8  253 228 
 RREF HN ES        121 47.85                             106    0.72 8  253 228 
 RREF HZ I         121 51.49         0.9 0.36            109            253 228 
 SML  HZ EP        121 18.63                             105   -0.44 8  264 350 
 SML  HE ES        121 48.59                             105    0.62 8  264 350 
 SML  HZ I         121 52.74         4.2 0.10            108            264 350 
                                                                                
