 2012 1115 0909 55.5 L   7.551 -73.046156.6  RSN  6 0.3 1.8LRSN                1
 GAP=143        0.59       2.9     4.6  5.4  0.8531E+00  0.5703E+01 -0.2026E+01E
 Epicentro: EL PLAYON - SANTANDER                                              3
 ACTION:UPD 12-12-05 15:33 OP:}ep  STATUS:               ID:20121115090955 L   I
 2012-11-15-0910-00M.COL___230                                                 6
 STAT SP IPHASW D HRMM SECON CODA AMPLIT PERI AZIMU VELO AIN AR TRES W  DIS CAZ7
 PAM  SZ EP   1    910 17.65                             163    0.30 8 44.8 121 
 PAM  SN ES   1    910 34.26                             163   -0.16 8 44.8 121 
 PAM  SZ I         910 35.30        15.5 0.22                          44.8 121 
 OCA  HZ EP   1    910 18.80                             151    0.19 8 81.8 338 
 OCA  HN ES   1    910 36.77                             151    0.10 8 81.8 338 
 BRR  HZ EP   1    910 19.18                             149    0.39 8 88.4 236 
 BRR  HE ES   1    910 37.10                             149    0.11 8 88.4 236 
 BRR  HZ I         910 40.49         6.0 0.14                          88.4 236 
 BAR2 SZ EP   1    910 20.55                             144    0.16 7  107 188 
 BAR2 SZ ES        910 39.55                             144   -0.2810  107 188 
 BAR2 SZ I         910 44.01        14.2 0.30                           107 188 
 SML  HZ EP   1    910 25.48                             129   -0.64 7  179 321 
 SML  HN ES   1    910 50.05                             129    0.01 7  179 321 
 PTB  HZ EP   1    910 27.13                             126   -0.30 7  192 234 
 PTB  HN ES   1    910 52.53                             126    0.16 7  192 234 
 PTB  HZ I         910 55.58         3.8 0.14                           192 234 
                                                                                
