 2011  415 1449 32.6 L   6.790 -73.040139.8  RSN  6 0.4 2.0LRSN                1
 GAP=204        0.86       7.2     9.1  8.4 -0.4240E+02 -0.4841E+01  0.7454E+01E
 Epicentro: LOS SANTOS - SANTANDER                                             3
 ACTION:UP  11-06-22 15:31 OP:REBC STATUS:               ID:20110415144932 L   I
 2011-04-15-1446-29S.COL___138                                                 6
 STAT SP IPHASW D HRMM SECON CODA AMPLIT PERI AZIMU VELO SNR AR TRES W  DIS CAZ7
 BAR2 SZ EP       1449 51.69                             169     0.110   27 216 
 BAR2 SZ ES   1   1450  6.35                             169    -0.1 7   27 216 
 BAR2 SZ I        1450  9.29        30.1 0.15                            27 216 
 BTL  SZ EP       1449 51.76                             168     0.110   29 300 
 GIR2 SZ EP   2   1449 51.80                             165     0.1 5   36 332 
 BRR  HZ EP   1   1449 53.48                             148    -0.3 7   82 295 
 BRR  HN ES   1   1450 10.88                             148     0.6 7   82 295 
 BRR  HZ I        1450 12.97        23.7 0.17                            82 295 
 GRA  SZ EP       1449 57.43                             136     0.310  124  12 
 GRA  SZ ES   1   1450 15.62                             136    -0.7 7  124  12 
 GRA  SZ I        1450 26.28         7.4 0.41                           124  12 
 NOR  SZ EP   1   1450  9.20                             116     0.2 6  244 236 
 NOR  SE ES   1   1450 36.66                             116    -0.7 6  244 236 
                                                                                
