 2015  815 1840 33.1 L   6.334 -73.602110.7  RSN 10 0.2 2.3LRSN                1
 GAP= 72        0.59       1.7     2.4  4.9 -0.6211E+00  0.5824E+01  0.1401E+00E
 Epicentro: SANTA HELENA DEL OPON - SANTANDER                                  3
 ACTION:UPD 15-09-15 23:02 OP:cam  STATUS:               ID:20150815184033 L   I
 OLDACT:REG 15-08-15 22:44 OP:mher STATUS:               ID:20150815183749     3
 2015-08-15-1837-49M.COL___346                                                 6
 STAT SP IPHASW D HRMM SECON CODA AMPLIT PERI AZIMU VELO AIN AR TRES W  DIS CAZ7
 BAR2 EZ IP     D 1840 50.02                             152    0.1310 54.5  58 
 BAR2 EZ I        1841  4.16        68.4 0.42            148           54.5  58 
 RUS  HZ EP       1840 51.34                             144   -0.2710 75.4 130 
 RUS  HN ES       1841  6.07                             144    0.0410 75.4 130 
 RUS  HZ I        1841  6.73        25.3 0.18            140           75.4 130 
 BRR  HZ EP       1840 51.74                             139   -0.0110 86.3 352 
 BRR  HN ES       1841  6.35                             139    0.0710 86.3 352 
 BRR  HZ I        1841  6.90        41.5 0.12            137           86.3 352 
 NOR  HZ EP       1840 59.44                             119    0.19 9  164 239 
 NOR  HN ES       1841 19.85                             119    0.22 9  164 239 
 NOR  HZ I        1841 21.53        32.9 0.18            118            164 239 
 ROSC BZ EP       1841  1.74                             117   -0.02 9  183 206 
 ROSC BN ES   4   1841 25.83                             117    1.73 0  183 206 
 ROSC BZ I        1841 27.93        16.8 0.35            115            183 206 
 CHI  HN ES       1841 25.02                             116   -0.23 9  189 184 
 CHI  HZ I        1841 29.41        16.3 0.17            114            189 184 
 OCA  HZ EP   1   1841  4.71                             112   -0.03 6  213   8 
 OCA  HN ES       1841 29.36                             112   -0.04 8  213   8 
 OCA  HZ I        1841 34.94        60.8 0.44            110            213   8 
 HEL  HZ EP       1841  4.98                             112   -0.13 8  214 266 
 HEL  HN ES       1841 29.59                             112   -0.46 8  214 266 
 HEL  HZ I        1841 34.70        19.0 0.34            111            214 266 
 GUY2CHZ EP       1841  7.78                             111    0.63 8  231 238 
 GUY2CHN ES   4   1841 36.61                             111    2.92 0  231 238 
 GUY2CHZ I        1841 38.68        11.8 0.46                           231 238 
 DBB  SZ EP   1   1841 14.26                             105   -0.24 5  298 285 
                                                                                
