 2016  515 1901 51.4 L   6.797 -73.169144.5  RSN 15 0.4 2.2LRSN                1
 GAP=134        0.91       2.5     3.3  4.7 -0.7502E+00  0.4721E+01  0.2789E+01E
 Epicentro: LOS SANTOS - SANTANDER                                             3
 ACTION:UPD 16-08-18 17:46 OP:cam  STATUS:               ID:20160515190151 L   I
 OLDACT:REG 16-05-15 20:47 OP:ak   STATUS:               ID:20160515185747     3
 2016-05-15-1857-47M.COL___286                                                 6
 STAT SP IPHASW D HRMM SECON CODA AMPLIT PERI AZIMU VELO AIN AR TRES W  DIS CAZ7
 BAR2 EZ EP       19 2 10.78                             171   -0.0610 22.7 184 
 BAR2 EZ ES       19 2 25.89                             171   -0.1310 22.7 184 
 BAR2 EZ I        19 2 28.53        40.4 0.26            168           22.7 184 
 BRR  HZ IP     C 19 2 12.56                             153    0.2910 69.1 300 
 BRR  HN ES       19 2 29.51                             153    0.9410 69.1 300 
 BRR  HZ I        19 2 33.59        26.5 0.28            147           69.1 300 
 PAM  EZ EP       19 2 13.65                             150    0.0810 79.3  41 
 PAM  EN ES       19 2 30.98                             150    0.1010 79.3  41 
 PAM  EZ I        19 2 33.49        12.1 0.25            150           79.3  41 
 RUS  HZ EP       19 2 14.75                             144   -0.2410  100 175 
 RUS  HN ES       19 2 33.16                             144   -0.2610  100 175 
 RUS  HZ I        19 2 34.80        16.0 0.26            141            100 175 
 PTB  HZ EP       19 2 17.37                             132   -0.64 9  145 259 
 PTB  HN ES       19 2 38.40                             132   -0.38 9  145 259 
 PTB  HZ I        19 2 41.12        13.5 0.16            127            145 259 
 OCA  HZ EP   2   19 2 18.90                             129   -0.69 5  160 354 
 OCA  HN ES       19 2 41.10                             129   -0.50 9  160 354 
 OCA  HZ I        19 2 44.36        31.0 0.16            126            160 354 
 SPBC HZ EP       19 2 19.81                             129    0.21 9  161 218 
 SPBC HN ES       19 2 41.42                             129   -0.20 9  161 218 
 SPBC HZ I        19 2 46.62        24.5 0.18            125            161 218 
 ZAR  HZ EP       19 2 24.13                             122    0.62 9  202 292 
 ZAR  HN ES       19 2 48.52                             122   -0.05 9  202 292 
 ZAR  HZ I        19 2 53.95        13.9 0.32            118            202 292 
 NOR  HZ EP       19 2 26.79                             118    0.00 8  232 234 
 NOR  HE ES       19 2 54.61                             118    0.20 8  232 234 
 NOR  HZ I        19 3  0.39        10.4 0.18            115            232 234 
 CHI  HZ EP       19 2 28.99                             117    0.09 8  248 195 
 CHI  HN ES       19 2 58.05                             117   -0.12 8  248 195 
 CHI  HZ I        19 3  4.44         5.4 0.27            114            248 195 
 ROSC BZ EP   2   19 2 30.03                             117    0.78 4  251 211 
 ROSC BN ES   2   19 2 58.82                             117    0.02 4  251 211 
 ROSC BZ I        19 3  5.39        19.9 0.35            113            251 211 
 HEL  HZ EP   2   19 2 31.87                             115    0.63 4  270 256 
 HEL  HZ I        19 3 11.02         6.1 0.42            111            270 256 
 DBB  SZ EP   2   19 2 37.90                             109   -0.61 3  337 274 
 DBB  SZ ES       19 3 14.46                             109   -0.81 7  337 274 
 DBB  SZ I        19 3 18.38        16.2 0.46            106            337 274 
 PRA  HZ EP       19 2 44.45                             106   -0.22 6  390 209 
 PRA  HN ES       19 3 26.65                             106    0.41 6  390 209 
 PRA  HZ I        19 3 32.97         9.7 0.38            104            390 209 
 ORTC HZ EP       19 2 45.89                             106    0.85 6  394 216 
 ORTC HE ES       19 3 27.07                             106    0.16 6  394 216 
 ORTC HZ I        19 3 34.61         4.0 0.38            104            394 216 
                                                                                
