 2017  715 1408  5.1 L   6.828 -73.144144.6  RSN 21 0.7 2.4LRSN                1
 GAP= 65        1.39       3.4     3.4  5.9 -0.3297E-01  0.4759E+01  0.1747E+01E
 Epicentro: LOS SANTOS - SANTANDER                                             3
 ACTION:UPD 17-08-30 15:33 OP:rebc STATUS:               ID:20170715140805 L   I
 OLDACT:REG 17-07-15 20:37 OP:dhb  STATUS:               ID:20170715140746     3
 2017-07-15-1408-00M.COL___377                                                 6
 STAT SP IPHASW D HRMM SECON CODA AMPLIT PERI AZIMU VELO AIN AR TRES W  DIS CAZ7
 BAR2 EZ IP       14 8 24.59                             169   -0.1010 26.4 189 
 BAR2 EZ ES       14 8 39.32                             169   -0.6210 26.4 189 
 BAR2 EZ I        14 8 40.86        74.5 0.28            169           26.4 189 
 BRR  HZ IP     C 14 8 26.42                             153    0.3310 70.0 296 
 BRR  HN ES       14 8 43.37                             153    0.9410 70.0 296 
 BRR  HZ I        14 8 47.35        47.3 0.19            152           70.0 296 
 PAM  EZ EP       14 8 27.56                             151    0.4910 74.9  41 
 PAM  EN ES       14 8 44.44                             151    0.2510 74.9  41 
 PAM  EZ I        14 8 46.78        97.5 0.52            153           74.9  41 
 RUS  HZ IP     D 14 8 28.58                             143   -0.4110  104 176 
 RUS  HE ES       14 8 47.46                             143   -0.1410  104 176 
 RUS  HZ I        14 8 48.37        45.9 0.26            144            104 176 
 PTB  HZ EP       14 8 31.68                             131   -0.40 9  149 258 
 PTB  HN ES       14 8 52.66                             131   -0.44 9  149 258 
 PTB  HZ I        14 8 54.43        13.8 0.13            132            149 258 
 TAM  HZ IP     D 14 8 33.05                             130    0.28 9  156 106 
 TAM  HN ES       14 8 54.70                             130    0.37 9  156 106 
 TAM  HZ I        14 8 59.37        19.2 0.51            132            156 106 
 SPBC HZ EP       14 8 33.56                             128   -0.22 9  166 218 
 SPBC HN ES       14 8 55.76                             128   -0.37 9  166 218 
 SPBC HZ I        14 8 58.17        31.6 0.10            129            166 218 
 YPLC HZ IP       14 8 35.05                             126   -0.05 9  179 152 
 YPLC HN ES       14 8 58.19                             126   -0.28 9  179 152 
 YPLC HZ I        14 9  1.82        35.8 0.26            127            179 152 
 ZAR  HZ EP       14 8 37.39                             122   -0.02 9  203 291 
 ZAR  HE ES       14 9  2.32                             122   -0.26 9  203 291 
 ZAR  HZ I        14 9  8.71        35.7 0.25            123            203 291 
 TABC EZ EP   1   14 8 41.77                             119    0.66 6  233 210 
 TABC EZ ES   2   14 9  9.06                             119   -0.11 4  233 210 
 TABC EZ I        14 9 15.21        18.8 0.30            120            233 210 
 NOR  HZ IP       14 8 40.85                             118   -0.16 8  237 234 
 NOR  HN ES       14 9  8.49                             118   -0.50 8  237 234 
 NOR  HZ I        14 9 14.49        14.0 0.24            119            237 234 
 ROSC BZ EP       14 8 45.33                             116    1.84 8  256 211 
 ROSC BN ES       14 9 13.38                             116   -0.03 8  256 211 
 ROSC BZ I        14 9 18.53        29.6 0.40            117            256 211 
 HEL  HZ EP       14 8 47.02                             114    1.62 8  273 255 
 HEL  HN ES       14 9 16.99                             114    0.19 8  273 255 
 HEL  HZ I        14 9 22.16         7.2 0.32            115            273 255 
 GUY2CHZ EP       14 8 49.65                             112    0.74 7  303 234 
 GUY2CHN ES       14 9 22.83                             112   -0.23 7  303 234 
 GUY2CHZ I        14 9 30.57         8.7 0.34                           303 234 
 VIL  EZ EP       14 8 48.32                             111   -0.52 7  306 191 
 VIL  EE ES       14 9 22.26                             111   -0.68 7  306 191 
 VIL  EZ I        14 9 28.05        29.0 0.38            113            306 191 
 PTGC HZ EP   2   14 8 47.85                             111   -1.40 3  311 159 
 PTGC HN ES   2   14 9 21.66                             111   -2.01 3  311 159 
 PTGC HZ I        14 9 23.82        28.7 0.32            112            311 159 
 LL6C HZ IP       14 8 50.02                             110   -0.41 7  322 358 
 LL6C HN ES   1   14 9 24.65                             110   -1.11 5  322 358 
 LL6C HZ I        14 9 31.61         7.9 0.32            111            322 358 
 CBOC HZ EP       14 8 52.84                             109    0.71 7  335 252 
 CBOC HN ES   4   14 9 28.36                             109   -0.43 0  335 252 
 CBOC HZ I        14 9 36.45         3.8 0.09            110            335 252 
 ORTC HZ EP       14 8 59.44                             106    0.12 6  398 216 
 ORTC HN ES       14 9 42.36                             106    0.78 6  398 216 
 ORTC HZ I        14 9 43.96         7.1 0.28            107            398 216 
 SJC  HZ EP       14 8 58.79                             105   -1.58 6  407 327 
 SJC  HN ES       14 9 42.20                             105   -1.25 6  407 327 
 SJC  HZ I        14 9 44.55         4.5 0.20            106            407 327 
 CRJC HZ EP   3   14 9  5.06                             103   -2.17 1  465   4 
 CRJC HN ES   4   14 9 49.36                             103   -6.31 0  465   4 
 CRJC HZ I        14 9 55.82         8.1 0.14            104            465   4 
                                                                                
