 2010  715 2058 11.0 L   6.790 -73.157142.0  RSN  6 0.4 1.8LRSN                1
 GAP=154        0.72       5.6     9.1  9.4 -0.1142E+01 -0.2976E+02 -0.9441E+01E
 Epicentro: LOS SANTOS - SANTANDER                                             3
 ACTION:UPD 10-12-01 15:17 OP:pat  STATUS:               ID:20100715205811 L   I
 2010-07-15-2054-45S.COL___119                                                 6
 STAT SP IPHASW D HRMM SECON CODA AMPLIT PERI AZIMU VELO AIN AR TRES W  DIS CAZ7
 BAR2 SZ EP   1   2058 29.95                             171    -0.2 7   22 188 
 BAR2 SZ ES   2   2058 44.42                             171    -0.7 5   22 188 
 BAR2 SZ I        2058 49.59        13.0 0.61                            22 188 
 BRR  HZ EP       2058 31.70                             152     0.010   71 300 
 BRR  HZ I        2058 32.12        19.0 0.12                            71 300 
 BRR  HE ES   1   2058 48.06                             152     0.2 7   71 300 
 RUS  HZ EP   2   2058 34.48                             144     0.2 5  100 175 
 RUS  HE ES   2   2058 53.20                             144     0.7 5  100 175 
 RUS  HZ I        2058 54.11        12.1 0.27                           100 175 
 BRI  SZ EP   1   2058 34.43                             140    -0.2 7  110  21 
 BRI  SZ ES   3   2058 52.49                             140    -0.6 2  110  21 
 BRI  SZ I        2058 55.37         8.7 0.28                           110  21 
 GUE  SZ EP   2   2058 35.55                             138     0.0 5  118  13 
 GUE  SZ I        2058 52.27         4.4 0.19                           118  13 
 GRA  SZ EP   2   2058 36.15                             136     0.1 5  127  18 
 GRA  SZ ES   2   2058 56.35                             136     0.8 5  127  18 
 GRA  SZ I        2058 57.50        16.6 0.18                           127  18 
                                                                                
