 2017 1015 2133 57.0 L   6.597 -73.574111.6  RSN 11 0.4 1.6LRSN                1
 GAP= 65        1.01       3.2     2.8  6.3 -0.1063E+01  0.1954E+01  0.8765E+01E
 Epicentro: EL CARMEN - SANTANDER                                              3
 ACTION:UPD 17-11-07 19:32 OP:rebc STATUS:               ID:20171015213357 L   I
 OLDACT:UP  17-10-16 06:13 OP:psc  STATUS:               ID:20171015212738     3
 OLDACT:REG 17-10-16 04:49 OP:osc  STATUS:               ID:20171015212738     3
 2017-10-15-2128-00M.COL___438                                                 6
 STAT SP IPHASW D HRMM SECON CODA AMPLIT PERI AZIMU VELO AIN AR TRES W  DIS CAZ7
 BAR2 EZ EP       2134 13.41                             157    0.1610 43.4  91 
 BAR2 EZ ES       2134 26.18                             157    0.2410 43.4  91 
 BAR2 EZ I        2134 27.68        38.8 0.24            163           43.4  91 
 BRR  HZ EP       2134 14.26                             150    0.5510 58.4 345 
 BRR  HN ES       2134 27.02                             150    0.2510 58.4 345 
 BRR  HZ I        2134 35.22         7.8 0.26            151           58.4 345 
 RUS  HZ EP       2134 16.64                             137   -0.4310 95.0 145 
 RUS  HN ES       2134 32.37                             137   -0.3710 95.0 145 
 RUS  HZ I        2134 33.60         6.7 0.38            142           95.0 145 
 PTB  HZ EP       2134 16.24                             136   -0.4010 97.7 266 
 PTB  HE ES       2134 31.21                             136   -0.7810 97.7 266 
 PTB  HZ I        2134 35.97         6.2 0.11            137           97.7 266 
 PAM  EZ EP       2134 20.34                             128    0.4010  127  50 
 PAM  EN ES       2134 37.82                             128   -0.0310  127  50 
 PAM  EZ I        2134 42.04         5.3 0.52            132            127  50 
 ZAR  HZ EP   3   2134 23.12                             118   -0.91 2  173 305 
 ZAR  HE ES   4   2134 48.77                             118    3.63 0  173 305 
 ZAR  HZ I        2134 51.69         8.6 0.26            120            173 305 
 NOR  HZ EP       2134 25.00                             117   -0.21 9  183 232 
 NOR  HE ES       2134 47.84                             117    0.60 9  183 232 
 NOR  HZ I        2134 52.84         4.7 0.14            119            183 232 
 YPLC HZ EP       2134 25.36                             116   -0.32 9  187 135 
 YPLC HE ES       2134 48.14                             116    0.06 9  187 135 
 YPLC HZ I        2134 49.60        10.6 0.34            120            187 135 
 CHI  HZ EP       2134 29.11                             112   -0.45 8  218 185 
 CHI  HE ES       2134 55.45                             112    0.48 8  218 185 
 CHI  HZ I        2135  1.27         1.2 0.13            116            218 185 
 GUY2CHZ EP   4   2134 34.81                             109    1.58 0  250 233 
 GUY2CHE ES       2135  1.95                             109    0.44 8  250 233 
 GUY2CHZ I        2135 11.62         2.9 0.52                           250 233 
 PRA  HE ES       2135 21.86                             102    0.21 6  350 205 
                                                                                
