 2017  315 2235 57.8 L   6.785 -73.081143.2  RSN  6 0.3 1.5LRSN                1
 GAP=146        0.62       3.2     3.4  4.0 -0.3263E+01  0.8856E+00  0.1937E+01E
 Epicentro: LOS SANTOS - SANTANDER                                             3
 ACTION:UPD 17-05-25 18:40 OP:jn   STATUS:               ID:20170315223557 L   I
 OLDACT:UP  17-03-16 04:41 OP:and  STATUS:               ID:20170315222747d    3
 OLDACT:UP  17-03-16 04:40 OP:and  STATUS:               ID:20170315222747d    3
 OLDACT:UP  17-03-16 04:40 OP:and  STATUS:               ID:20170315222747d    3
 OLDACT:UP  17-03-16 04:40 OP:and  STATUS:               ID:20170315222747d    3
 OLDACT:UP  17-03-16 04:39 OP:and  STATUS:               ID:20170315222747d    3
 OLDACT:UP  17-03-16 04:39 OP:and  STATUS:               ID:20170315222747d    3
 OLDACT:UP  17-03-16 04:38 OP:and  STATUS:               ID:20170315222747d    3
 OLDACT:DUP 17-03-16 04:35 OP:and  STATUS:               ID:20170315222747d    3
 OLDACT:UP  17-03-16 04:18 OP:and  STATUS:               ID:20170315222746     3
 OLDACT:UP  17-03-16 04:18 OP:and  STATUS:               ID:20170315222746     3
 OLDACT:UP  17-03-16 04:17 OP:and  STATUS:               ID:20170315222746     3
 OLDACT:UP  17-03-16 04:17 OP:and  STATUS:               ID:20170315222746     3
 OLDACT:REG 17-03-16 03:08 OP:and  STATUS:               ID:20170315222746     3
 2017-03-15-2228-00M.COL___417                                                 6
 STAT SP IPHASW D HRMM SECON CODA AMPLIT PERI AZIMU VELO AIN AR TRES W  DIS CAZ7
 BAR2 EZ EP   2   2236 16.57                             170   -0.54 5 24.1 208 
 BAR2 EZ ES       2236 32.02                             170   -0.1810 24.1 208 
 BAR2 EZ I        2236 33.30        12.4 0.18            171           24.1 208 
 PAM  EZ EP       2236 19.75                             152    0.2110 74.4  35 
 PAM  EN ES       2236 36.53                             152    0.0110 74.4  35 
 PAM  EZ I        2236 41.65         3.4 0.48            152           74.4  35 
 BRR  HZ EP       2236 18.75                             150   -0.3110 78.2 297 
 BRR  HN ES       2236 35.87                             150    0.2010 78.2 297 
 RUS  HZ EP       2236 20.94                             144   -0.2010 98.7 180 
 RUS  HN ES       2236 39.63                             144    0.2610 98.7 180 
 RUS  HZ I        2236 40.73         5.8 0.30            146           98.7 180 
 PTB  HZ EP   9   2236 23.73                             130   -1.42 0  154 260 
 PTB  HN ES       2236 45.26                             132    0.17 9  154 260 
 PTB  HZ I        2236 49.00         3.3 0.18            131            154 260 
 NOR  HZ EP       2236 34.26                             117    0.38 8  240 236 
 NOR  HE ES       2237  1.91                             117   -0.14 8  240 236 
 NOR  HZ I        2237  6.28         2.7 0.16            118            240 236 
                                                                                
