 2016  916 0335 23.4 L   6.774 -73.119145.8  RSN 13 0.4 1.8LRSN                1
 GAP=122        1.07       3.1     3.9  6.9 -0.1748E+00  0.8033E+00  0.3762E+01E
 Epicentro: LOS SANTOS - SANTANDER                                             3
 ACTION:UPD 17-08-17 21:12 OP:lp   STATUS:               ID:20160916033523 L   I
 OLDACT:UP  16-09-17 03:08 OP:dani STATUS:               ID:20160916032736     3
 OLDACT:UP  16-09-17 03:05 OP:dani STATUS:               ID:20160916032736     3
 OLDACT:REG 16-09-16 12:59 OP:ar   STATUS:               ID:20160916032736     3
 2016-09-16-0328-00M.COL___354                                                 6
 STAT SP IPHASW D HRMM SECON CODA AMPLIT PERI AZIMU VELO AIN AR TRES W  DIS CAZ7
 BAR2 EZ EP        335 43.18                             171    0.2110 21.3 199 
 BAR2 EZ I         335 58.89         8.4 0.34            167           21.3 199 
 BRR  HZ EP        335 45.13                             151    0.3710 75.2 299 
 BRR  HN ES        336  1.84                             151    0.4110 75.2 299 
 BRR  HZ I         336  6.49        15.2 0.12            144           75.2 299 
 PAM  EZ EP        335 46.10                             151    0.4810 77.8  37 
 PAM  EN ES        336  2.95                             151   -0.0210 77.8  37 
 PAM  EZ I         336  5.15        20.2 0.46            149           77.8  37 
 RUS  HZ EP        335 47.24                             145    0.3310 97.5 178 
 RUS  HE ES        336  5.17                             145   -0.1010 97.5 178 
 RUS  HZ I         336  6.76         7.4 0.36            140           97.5 178 
 PTB  HZ EP        335 50.01                             131   -0.55 9  150 260 
 PTB  HN ES        336 11.28                             131   -0.49 9  150 260 
 PTB  HZ I         336 18.22         6.7 0.32            124            150 260 
 OCA  HZ EP        335 51.96                             129   -0.03 9  163 352 
 OCA  HE ES        336 13.13                             129   -1.18 9  163 352 
 OCA  HZ I         336 16.78        16.7 0.32            124            163 352 
 SPBC HZ EP        335 52.21                             129    0.37 9  163 220 
 SPBC HE ES        336 14.15                             129    0.10 9  163 220 
 SPBC HZ I         336 17.45         8.7 0.18            123            163 220 
 ZAR  HZ EP        335 56.62                             122    0.40 8  208 293 
 ZAR  HN ES        336 22.11                             122    0.27 8  208 293 
 ZAR  HZ I         336 27.50         7.0 0.25            116            208 293 
 NOR  HE ES        336 26.85                             118   -0.27 8  235 235 
 NOR  HZ I         336 35.29         3.2 0.20            113            235 235 
 CHI  HE ES   2    336 29.97                             117   -0.13 4  247 196 
 GUY2CHN ES   4    336 44.80                             112    3.64 0  302 236 
 PTGC HZ EP        336  6.57                             112   -0.23 7  305 159 
 PTGC HE ES        336 40.01                             112   -0.67 7  305 159 
 PTGC HZ I         336 42.25         5.8 0.38            108            305 159 
 CBOC HZ EP   4    336 13.37                             110    2.86 0  336 253 
 CBOC HZ I         336 53.43         0.9 0.70            105            336 253 
 SJC  HZ EP   4    336 18.20                             105   -1.21 0  413 327 
 SJC  HN ES   4    337  0.73                             105   -2.39 0  413 327 
 SJC  HZ I         337  3.44         2.3 0.35            102            413 327 
                                                                                
