 2016  816 0023 54.6 L   6.131 -73.885  9.2  RSN  5 0.5 1.3LRSN                1
 GAP=104        1.19       2.7     3.0  9.5  0.1267E+01 -0.1071E+02 -0.8767E+01E
 Epicentro: EL PENON - SANTANDER                                               3
 ACTION:UPD 16-10-29 15:35 OP:rebc STATUS:               ID:20160816002354 L   I
 OLDACT:REG 16-08-16 12:12 OP:ak   STATUS:               ID:20160816001759     3
 2016-08-16-0017-59S.COL___349                                                 6
 STAT SP IPHASW D HRMM SECON CODA AMPLIT PERI AZIMU VELO AIN AR TRES W  DIS CAZ7
 SPBC HZ EP        024  4.15                              96    0.1910 56.8 201 
 SPBC HN ES        024 11.78                              96    0.5410 56.8 201 
 SPBC HZ I         024 12.77        26.6 0.20                          56.8 201 
 PTB  HZ EP        024  6.39                              94   -0.6410 77.7 306 
 PTB  HN ES        024 16.36                              94   -0.3510 77.7 306 
 PTB  HZ I         024 16.91        20.6 0.16                          77.7 306 
 RUS  HZ EP        024  9.55                              94   -0.2410 92.6 106 
 RUS  HN ES        024 21.21                              94   -0.4010 92.6 106 
 RUS  HZ I         024 22.21         5.6 0.18                          92.6 106 
 BRR  HZ EP        024 11.87                              93    0.0210  110  10 
 BRR  HN ES        024 26.15                              93    0.8610  110  10 
 BRR  HZ I         024 27.58         3.0 0.08                           110  10 
 PAM  EN ES        024 45.94                              56    0.05 9  187  44 
                                                                                
