 2013  416 0507 58.7 L   6.765 -73.166147.4  RSN  5 0.4 1.4LRSN                1
 GAP=180        0.98       8.0     6.9  9.2  0.1513E+02 -0.1873E+01 -0.6887E+01E
 Epicentro: LOS SANTOS - SANTANDER                                             3
 ACTION:UPD 13-05-22 14:38 OP:EP   STATUS:               ID:20130416050758 L   I
 2013-04-16-0458-38M.COL___207                                                 6
 STAT SP IPHASW D HRMM SECON CODA AMPLIT PERI AZIMU VELO AIN AR TRES W  DIS CAZ7
 BAR2 SZ EP   1    5 8 18.66                             172    0.22 7 19.2 185 
 BAR2 SZ ES   1    5 8 33.56                             172   -0.29 7 19.2 185 
 BAR2 SZ I         5 8 34.77        10.5 0.28            175           19.2 185 
 GIR2 SZ EP        5 8 18.05                             166   -0.6110 34.8 355 
 GIR2 SZ I         5 8 35.04         4.7 0.24            158           34.8 355 
 BRR  HZ EP        5 8 20.20                             153    0.1810 71.2 302 
 BRR  HN ES   1    5 8 37.33                             153    0.68 7 71.2 302 
 BRR  HZ I         5 8 37.95         4.8 0.14            150           71.2 302 
 RUS  HZ EP        5 8 22.92                             145    0.5810 96.9 175 
 RUS  HN ES   1    5 8 40.53                             145   -0.26 7 96.9 175 
 RUS  HZ I         5 8 43.55         2.4 0.48            146           96.9 175 
 PTB  HZ EP        5 8 25.24                             133   -0.29 9  145 260 
 PTB  HN ES        5 8 46.34                             133   -0.12 9  145 260 
 PTB  HZ I         5 8 51.22         5.0 0.10            133            145 260 
                                                                                
