 2017  116 1718 37.7 L   6.816 -73.140144.0  RSN  8 0.4 1.9LRSN                1
 GAP=136        0.82       3.1     3.9  5.2 -0.4397E+00  0.6172E+01  0.5747E+01E
 Epicentro: LOS SANTOS - SANTANDER                                             3
 ACTION:UPD 17-05-22 16:00 OP:jn   STATUS:               ID:20170116171837 L   I
 OLDACT:REG 17-01-16 20:46 OP:cog  STATUS:               ID:20170116171744     3
 2017-01-16-1718-00M.COL___332                                                 6
 STAT SP IPHASW D HRMM SECON CODA AMPLIT PERI AZIMU VELO AIN AR TRES W  DIS CAZ7
 BAR2 EZ EP       1718 56.95                             170   -0.2510 25.2 191 
 BAR2 EZ ES       1719 12.45                             170    0.0810 25.2 191 
 BAR2 EZ I        1719 14.77        36.0 0.32            169           25.2 191 
 BRR  HZ EP       1718 58.74                             152    0.0510 71.0 297 
 BRR  HE ES       1719 15.39                             152    0.3710 71.0 297 
 PAM  EZ EP       1718 59.77                             151    0.1110 75.6  40 
 PAM  EE ES       1719 16.86                             151    0.1010 75.6  40 
 PAM  EZ I        1719 19.32        11.0 0.24            152           75.6  40 
 RUS  HZ EP       1719  1.18                             143   -0.2610  102 176 
 RUS  HN ES       1719 19.80                             143   -0.1310  102 176 
 RUS  HZ I        1719 21.02         8.2 0.22            144            102 176 
 ZAR  HZ EP   4   1719  8.12                             122   -1.95 0  204 292 
 ZAR  HN ES       1719 34.47                             122   -0.81 9  204 292 
 CHI  HZ EP       1719 15.37                             117   -0.18 8  251 195 
 CHI  HN ES       1719 44.82                             117   -0.21 8  251 195 
 CHI  HZ I        1719 48.00         6.0 0.58            118            251 195 
 ROSC BZ EP       1719 16.11                             116    0.14 8  255 211 
 ROSC BN ES       1719 45.81                             116    0.03 8  255 211 
 GUY2CHZ EP       1719 22.33                             112    0.88 7  303 235 
 GUY2CHE ES       1719 55.97                             112    0.44 7  303 235 
 GUY2CHZ  IAML    1720  3.37         5.4 0.60                           303 235 
                                                                                
