 2012  416 1946 14.3 L   6.678 -73.253152.3  RSN  4 0.2 1.6LRSN                1
 GAP=128        0.53       4.1     4.2  5.8  0.6440E+01 -0.2887E+01 -0.6732E+01E
 Epicentro: BARICHARA - SANTANDER                                              3
 ACTION:UPD 12-07-05 11:53 OP:tino STATUS:               ID:20120416194614 L   I
 2012-04-16-1940-00M.COL___190                                                 6
 STAT SP IPHASW D HRMM SECON CODA AMPLIT PERI AZIMU VELO AIN AR TRES W  DIS CAZ7
 BRR  HZ EP       1946 36.18                             154     0.110   69 313 
 BRR  HE ES   1   1946 53.09                             154     0.0 7   69 313 
 BRR  HZ I        1946 54.16        15.3 0.50                            69 313 
 RUS  HZ EP       1946 37.75                             148    -0.210   89 168 
 RUS  HZ I        1946 38.90         3.2 0.15                            89 168 
 RUS  HE ES       1946 56.46                             148     0.110   89 168 
 PAM  SZ EP   1   1946 38.18                             147    -0.2 7   95  40 
 PTB  HZ EP       1946 40.84                             136     0.210  134 263 
 PTB  HE ES   1   1947  0.81                             136    -0.3 7  134 263 
                                                                                
