 2015  216 1218 28.9 L   6.802 -73.187135.1  RSN 13 0.4 2.2LRSN                1
 GAP=131        0.86       2.6     3.4  4.9 -0.2106E+01  0.4807E+01  0.2881E+01E
 Epicentro: ZAPATOCA - SANTANDER                                               3
 ACTION:UPD 15-04-30 21:26 OP:nd   STATUS:               ID:20150216121828 L   I
 OLDACT:DUP 15-02-16 20:35 OP:fm   STATUS:               ID:20150216120748d    3
 2015-02-16-1207-46M.COL___301                                                 6
 STAT SP IPHASW D HRMM SECON CODA AMPLIT PERI AZIMU VELO AIN AR TRES W  DIS CAZ7
 BAR2 EZ EP       1218 47.53                             170    0.3010 23.3 179 
 BAR2 EZ ES       1219  1.56                             170    0.0210 23.3 179 
 BAR2 EZ I        1219  3.71        39.0 0.24            170           23.3 179 
 BRR  HZ EP       1218 49.26                             152    0.6110 67.1 300 
 BRR  HE ES       1219  4.44                             152    0.3810 67.1 300 
 BRR  HZ I        1219  9.45        36.0 0.38            150           67.1 300 
 PAM  SZ EP       1218 50.40                             148    0.2510 80.2  42 
 PAM  SE ES       1219  6.35                             148   -0.3910 80.2  42 
 PAM  SZ I        1219  9.59        25.9 0.50            151           80.2  42 
 RUS  HZ EP       1218 51.59                             141   -0.0710  101 173 
 RUS  HE ES       1219  9.09                             141   -0.3210  101 173 
 PTB  HZ EP       1218 54.04                             130   -0.55 9  143 258 
 PTB  HN ES       1219 14.64                             130    0.00 9  143 258 
 SPBC HE ES       1219 17.82                             127    0.08 9  161 218 
 SPBC HZ I        1219 20.15        27.9 0.24            127            161 218 
 NOR  HZ EP       1219  3.64                             116    0.01 8  231 234 
 NOR  HE ES       1219 29.93                             116   -0.80 8  231 234 
 NOR  HZ I        1219 35.58         7.6 0.16            117            231 234 
 SML  HN ES       1219 32.14                             115   -0.50 8  242 336 
 SML  HZ I        1219 37.59        15.3 0.44            116            242 336 
 CHI  HZ EP       1219  6.15                             115    0.23 8  248 194 
 CHI  HN ES       1219 34.77                             115   -0.03 8  248 194 
 CHI  HZ I        1219 38.65         7.8 0.66            116            248 194 
 ROSC BE ES       1219 35.58                             115    0.25 8  251 210 
 ROSC BZ I        1219 42.04        15.5 0.45            115            251 210 
 GUY2CHE ES       1219 45.09                             110    0.14 7  298 234 
 RREF HN ES       1219 50.13                             109    0.57 7  319 229 
 RREF HZ I        1219 57.45         8.2 0.30            110            319 229 
 TOL  SZ EP   4   1219 12.39                             107   -4.00 0  341 224 
 TOL  SN ES   4   1219 55.25                             107    1.81 0  341 224 
 PRA  HZ EP       1219 21.78                             105   -0.04 6  390 209 
 PRA  HE ES       1220  2.79                             105   -0.32 6  390 209 
 PRA  HZ I        1220  8.93         5.9 0.30            105            390 209 
                                                                                
