 2016 1016 2014 36.9 L   6.798 -73.148141.9  RSN 12 0.5 1.7LRSN                1
 GAP=136        1.26       4.6     5.4  8.4 -0.7434E+01  0.1260E+02  0.3146E+01E
 Epicentro: LOS SANTOS - SANTANDER                                             3
 ACTION:UPD 16-11-09 19:20 OP:rebc STATUS:               ID:20161016201436 L   I
 OLDACT:UP  16-10-17 06:12 OP:dani STATUS:               ID:20161016200741d    3
 OLDACT:UP  16-10-17 06:12 OP:dani STATUS:               ID:20161016200741d    3
 OLDACT:UP  16-10-17 06:11 OP:dani STATUS:               ID:20161016200741d    3
 OLDACT:UP  16-10-17 06:11 OP:dani STATUS:               ID:20161016200741d    3
 OLDACT:UP  16-10-17 06:09 OP:dani STATUS:               ID:20161016200741d    3
 OLDACT:DUP 16-10-17 06:06 OP:dani STATUS:               ID:20161016200741d    3
 2016-10-16-2008-00M.COL___368                                                 6
 STAT SP IPHASW D HRMM SECON CODA AMPLIT PERI AZIMU VELO AIN AR TRES W  DIS CAZ7
 BAR2 EZ ES       2015 10.63                             170   -0.3410 23.0 189 
 BRR  HZ EP     D 2014 57.88                             152    0.2910 71.1 299 
 BRR  HN ES       2015 14.62                             152    0.8610 71.1 299 
 BRR  HZ I        2015 18.73        12.0 0.14            148           71.1 299 
 PAM  EZ EP       2014 59.02                             150    0.3210 77.7  40 
 PAM  HN ES       2015 15.94                             150    0.2210 77.7  40 
 PAM  EZ I        2015 16.83         7.4 0.16            151           77.7  40 
 RUS  HZ EP       2014 59.97                             143   -0.2510  100 176 
 RUS  HE ES       2015 18.37                             143   -0.0710  100 176 
 RUS  HZ I        2015 19.44         6.1 0.34            143            100 176 
 PTB  HZ EP       2015  2.82                             131   -0.67 9  147 259 
 PTB  HN ES       2015 23.49                             131   -0.77 9  147 259 
 PTB  HZ I        2015 25.90         9.9 0.22            129            147 259 
 OCA  HE ES       2015 26.11                             129   -0.66 9  160 353 
 SPBC HE ES       2015 27.16                             128    0.15 9  163 219 
 NOR  HN ES       2015 39.89                             118   -0.11 8  234 234 
 CHI  HN ES   4   2015 44.76                             116    1.23 0  248 195 
 HEL  HZ EP   4   2015 18.28                             114    1.43 0  272 256 
 HEL  HN ES       2015 48.83                             114    0.79 8  272 256 
 HEL  HZ I        2015 55.45         5.1 0.35            113            272 256 
 GUY2CHZ EP   4   2015 21.90                             112    1.64 0  301 235 
 GUY2CHE ES   4   2015 58.04                             112    3.94 0  301 235 
 GUY2CHZ I        2016  3.35         2.4 0.49                           301 235 
 PRA  HZ EP       2015 31.04                             106    0.83 6  392 210 
 PRA  HE ES   4   2016 13.67                             106    1.85 0  392 210 
 PRA  HZ I        2016 21.36         1.8 0.34            105            392 210 
 SJC  HZ EP   4   2015 30.92                             105   -1.39 0  409 327 
 SJC  HE ES   4   2016 12.27                             105   -3.29 0  409 327 
 SJC  HZ I        2016 21.94         1.0 0.59            104            409 327 
                                                                                
