 2010  116 2340 22.0 L   6.801 -72.953145.2  RSN  5 0.3 1.7LRSN                1
 GAP=229        0.55       4.9     8.4  6.9 -0.5251E+01  0.1382E+02  0.1552E+02E
 Epicentro: CEPITA - SANTANDER                                                 3
 ACTION:UP  10-08-24 09:44 OP:vdl  STATUS:               ID:20100116234022 L   I
 2010-01-16-2338-07S.COL___096                                                 6
 STAT SP IPHASW D HRMM SECON CODA AMPLIT PERI AZIMU VELO SNR AR TRES W  DIS CAZ7
 BAR2 SZ EP   1   2340 41.89                             166     0.0 7   35 228 
 GIR2 SZ EP   3   2340 41.60                             164    -0.3 2   41 319 
 GIR2 SZ ES   1   2340 57.24                             164    -0.2 7   41 319 
 RUS  BZ EP   1   2340 46.05                             143     0.3 7  102 188 
 RUS  BE ES   1   2341  4.54                             143     0.2 7  102 188 
 RUS  BZ I        2341  6.87         5.9 0.41                           102 188 
 CHI  HZ EP   1   2341  0.34                             116    -0.1 6  255 200 
 CHI  HN ES   1   2341 29.75                             116    -0.6 6  255 200 
 CHI  HZ I        2341 32.67         3.0 0.31                           255 200 
 RREF BZ EP   2   2341  9.91                             110    -0.1 3  338 232 
 RREF BN ES   1   2341 47.84                             110     0.3 5  338 232 
 RREF BZ I        2341 53.77         2.2 0.29                           338 232 
                                                                                
