 2013 1017 0000  3.4 L   6.783 -73.172145.6  RSN  8 0.5 1.5LRSN                1
 GAP=134        1.09       4.8     5.4  8.5  0.5179E+01  0.1606E+01 -0.8804E+01E
 Epicentro: LOS SANTOS - SANTANDER                                             3
 ACTION:UPD 13-11-25 09:22 OP:ep   STATUS:               ID:20131017000003 L   I
 OLDACT:REG 13-10-17 09:07 OP:jn   STATUS:               ID:20131016235846     3
 2013-10-16-2358-46M.COL___226                                                 6
 STAT SP IPHASW D HRMM SECON CODA AMPLIT PERI AZIMU VELO AIN AR TRES W  DIS CAZ7
 BAR2 SZ ES        0 0 37.91                             171   -0.3310 21.1 183 
 BAR2 SZ I         0 0 40.65        13.6 0.42            169           21.1 183 
 BRR  HZ EP        0 0 24.78                             153    0.3310 69.6 301 
 BRR  HN ES        0 0 41.48                             153    0.6210 69.6 301 
 BRR  HZ I         0 0 45.82         6.3 0.28            154           69.6 301 
 PAM  SZ EP        0 0 25.98                             149    0.1710 80.7  40 
 RUS  HZ EP        0 0 27.25                             144    0.2210 98.9 174 
 RUS  HN ES        0 0 45.15                             144   -0.3010 98.9 174 
 RUS  HZ I         0 0 49.09         2.4 0.36            145           98.9 174 
 PTB  HZ EP        0 0 30.00                             133   -0.07 9  145 259 
 PTB  HN ES        0 0 50.30                             133   -0.57 9  145 259 
 PTB  HZ I         0 0 53.44         3.6 0.18            134            145 259 
 SPBC HE ES        0 0 53.68                             129    0.12 9  160 219 
 SPBC HZ I         0 1  0.32         4.1 0.16            131            160 219 
 ZAR  HN ES        0 1  1.11                             122    0.33 9  202 293 
 SML  HE ES   1    0 1  7.31                             117   -1.38 6  244 336 
                                                                                
