 2014  517 0953 52.5 L   6.773 -73.138140.1  RSN  5 0.4 1.5LRSN                1
 GAP=139        1.12       5.5     5.8  8.7 -0.3272E+01  0.6901E+01 -0.3430E+01E
 Epicentro: LOS SANTOS - SANTANDER                                             3
 ACTION:UPD 15-03-16 16:58 OP:nd   STATUS:               ID:20140517095352 L   I
 OLDACT:REG 14-05-17 12:43 OP:stll STATUS:               ID:20140517094814     3
 2014-05-17-0948-14M.COL___242                                                 6
 STAT SP IPHASW D HRMM SECON CODA AMPLIT PERI AZIMU VELO AIN AR TRES W  DIS CAZ7
 BRR  HZ EP        954 13.46                             151    0.2510 73.4 300 
 BRR  HN ES        954 29.94                             151    0.6210 73.4 300 
 BRR  HZ I         954 35.27         5.3 0.26            136           73.4 300 
 PAM  SZ EP        954 14.47                             149    0.2110 79.2  38 
 PAM  SZ I         954 14.71        11.1 0.22            137           79.2  38 
 PAM  SN ES        954 30.83                             149   -0.3810 79.2  38 
 RUS  HZ EP        954 15.61                             143    0.1010 97.5 176 
 RUS  HN ES        954 33.27                             143   -0.1610 97.5 176 
 RUS  HZ I         954 34.75         2.4 0.24            139           97.5 176 
 PTB  HZ EP        954 19.55                             131    0.48 9  148 260 
 PTB  HN ES        954 39.03                             131   -0.74 9  148 260 
 PTB  HZ I         954 42.47         3.0 0.26            119            148 260 
 SML  HZ EP        954 28.53                             116   -0.66 8  247 335 
 SML  HZ I         954 59.88         5.6 0.10            105            247 335 
                                                                                
