 2011 1017 0404 43.3 L   6.783 -73.156142.0  RSN 19 0.4 3.3LRSN                1
 GAP=113        0.72       2.7     3.8  5.0 -0.1596E+01  0.9465E+01  0.2417E+01E
 Epicentro: LOS SANTOS - SANTANDER                                             3
 ACTION:UPD 12-07-13 16:04 OP:ep   STATUS:               ID:20111017040443 L   I
 2011-10-17-0402-58S.COL___168                                                 6
 STAT SP IPHASW D HRMM SECON CODA AMPLIT PERI AZIMU VELO AIN AR TRES W  DIS CAZ7
 BAR2 SZ EP   1    4 5  2.67                             171    0.21 7 21.3 188 
 BAR2 SZ ES   1    4 5 16.94                             171   -0.44 7 21.3 188 
 BAR2 SZ I         4 5 20.71       781.4 0.33                          21.3 188 
 BRR  HZ IP        4 5  4.56                             152    0.5010 71.1 300 
 BRR  HZ I         4 5 24.40       376.7 0.09                          71.1 300 
 PAM  SZ EP        4 5  5.47                             149    0.2010 79.5  39 
 PAM  SN ES        4 5 22.33                             149   -0.0610 79.5  39 
 RUS  HZ IP     D  4 5  6.49                             143   -0.0810 98.8 175 
 RUS  HN ES   1    4 5 24.84                             143    0.13 7 98.8 175 
 RUS  HZ I         4 5 26.58       286.4 0.23                          98.8 175 
 OCA  SZ EP        4 5 11.09                             128   -0.41 9  162 354 
 OCA  SZ ES   1    4 5 33.63                             128    0.15 7  162 354 
 OCA  SZ I         4 5 38.05       242.5 0.22                           162 354 
 YOP  SZ EP   1    4 5 13.08                             125    0.10 7  178 153 
 YOP  SZ I         4 5 37.73       120.0 0.35                           178 153 
 ZAR  HZ EP   1    4 5 14.92                             121   -0.57 6  204 293 
 ZAR  HE ES   1    4 5 40.58                             121    0.01 6  204 293 
 ZAR  HZ I         4 5 48.47       199.7 0.20                           204 293 
 NOR  SZ EP   1    4 5 18.50                             118   -0.12 6  233 235 
 NOR  SN ES   1    4 5 45.91                             118   -0.24 6  233 235 
 HEL  HZ EP   1    4 5 22.36                             114   -0.81 6  271 256 
 HEL  HZ I         4 6  1.05       114.0 0.10                           271 256 
 VIL  SZ EP   1    4 5 25.76                             111   -0.58 5  301 191 
 VIL  SZ I         4 6  3.06        87.0 0.27                           301 191 
 GUY  SZ EP   1    4 5 27.35                             111    0.56 5  302 235 
 GUY  SZ I         4 6 13.52       276.0 0.40                           302 235 
 RREF HZ EP   1    4 5 28.78                             110   -0.28 5  320 229 
 RREF HN ES   1    4 6  4.85                             110    0.11 5  320 229 
 RREF HZ I         4 6 11.92       134.7 0.30                           320 229 
 DBB  SZ EP   1    4 5 31.27                             109    0.74 5  338 275 
 TOL  SZ EP   1    4 5 31.77                             109    0.59 5  341 225 
 ANIL HZ EP   1    4 5 33.80                             108    1.06 5  355 225 
 PRA  HZ EP   1    4 5 35.84                             106   -0.62 4  390 210 
 PRA  HN ES   1    4 6 18.12                             106    0.22 4  390 210 
 PAL  HZ EP   1    4 5 37.98                             105   -0.15 4  404 239 
 HORQ SZ EP   1    4 5 53.14                             101   -0.28 3  530 227 
 FLO2 HZ EP   1    4 6  4.92                              98   -1.19 2  638 206 
 FLO2 HZ I         4 7 16.20         8.0 0.37                           638 206 
                                                                                
