 2014  217 0840 18.3 L   6.819 -73.158150.2  RSN  6 0.4 1.4LRSN                1
 GAP=182        0.76       2.9     5.3  6.0  0.2755E+01  0.5100E+01 -0.4592E+01E
 Epicentro: LOS SANTOS - SANTANDER                                             3
 ACTION:UPD 14-03-10 08:10 OP:ep   STATUS:               ID:20140217084018 L   I
 OLDACT:UP  14-02-17 11:32 OP:cam  STATUS:               ID:20140217084000     3
 OLDACT:REG 14-02-17 10:19 OP:fm   STATUS:               ID:20140217084000     3
 2014-02-17-0840-00M.COL___212                                                 6
 STAT SP IPHASW D HRMM SECON CODA AMPLIT PERI AZIMU VELO AIN AR TRES W  DIS CAZ7
 BAR2 SZ EP        840 38.69                             170    0.1910 25.2 186 
 BAR2 SZ ES        840 54.29                             170    0.0410 25.2 186 
 BAR2 SZ I         840 55.84         6.2 0.74            169           25.2 186 
 RUS  HZ EP        840 43.02                             144    0.3810  103 175 
 RUS  HN ES        841  1.50                             144   -0.1310  103 175 
 RUS  HZ I         841  2.25         1.8 0.46            143            103 175 
 PTB  HZ EP        840 45.69                             133    0.14 9  147 258 
 PTB  HN ES        841  6.86                             133    0.06 9  147 258 
 PTB  HZ I         841  8.69         4.1 0.14            132            147 258 
 OCA  HZ EP   2    840 46.94                             131    0.19 5  158 354 
 OCA  HE ES   1    841  8.25                             131   -0.69 7  158 354 
 OCA  HZ I         841 14.48         3.3 0.26            130            158 354 
 SML  HZ EP        840 55.22                             118    0.31 8  241 335 
 SML  HN ES        841 23.26                             118   -0.21 8  241 335 
 SML  HZ I         841 26.17         3.6 0.10            118            241 335 
 CHI  HZ EP   2    840 55.42                             118   -1.01 4  250 195 
 CHI  HN ES   1    841 25.39                             118   -0.77 6  250 195 
 CHI  HZ I         841 35.87         1.2 0.44            117            250 195 
                                                                                
