 2015  617 0354 15.9 L   6.792 -72.978141.6  RSN  4 0.3 1.5LRSN                1
 GAP=239        0.82       5.5     6.5  6.8  0.3950E+01  0.1228E+01 -0.1257E+02E
 Epicentro: CEPITA - SANTANDER                                                 3
 ACTION:UPD 15-09-10 22:13 OP:cam  STATUS:               ID:20150617035415 L   I
 OLDACT:REG 15-06-17 12:37 OP:drio STATUS:               ID:20150617034748     3
 2015-06-17-0347-48M.COL___318                                                 6
 STAT SP IPHASW D HRMM SECON CODA AMPLIT PERI AZIMU VELO AIN AR TRES W  DIS CAZ7
 BAR2 EZ EP        354 35.00                             167   -0.1910 31.5 226 
 BAR2 EZ ES        354 50.59                             167    0.3210 31.5 226 
 BAR2 EZ I         354 52.94         4.7 0.24            168           31.5 226 
 BRR  HZ EP        354 37.06                             146   -0.5810 88.3 293 
 BRR  HZ I         354 38.37         3.0 0.12            146           88.3 293 
 BRR  HE ES        354 54.53                             146   -0.0910 88.3 293 
 OCA  HZ EP        354 44.49                             128    0.24 9  164 347 
 OCA  HN ES        355  6.38                             128   -0.01 9  164 347 
 OCA  HZ I         355 10.02         5.2 0.16            129            164 347 
 ZAR  HZ EP        354 50.43                             119    0.54 8  222 291 
 ZAR  HN ES        355 16.42                             119   -0.01 8  222 291 
 ZAR  HZ I         355 19.88         3.3 0.40            120            222 291 
                                                                                
