 2014  617 0538 25.6 L   7.383 -73.398100.5  RSN  4 0.3 1.4LRSN                1
 GAP=160        0.85       3.9     5.0 12.2  0.3017E+01  0.3064E+02  0.1595E+02E
 Epicentro: SABANA DE TORRES - SANTANDER                                       3
 ACTION:UPD 14-07-01 22:54 OP:nd   STATUS:               ID:20140617053825 L   I
 OLDACT:REG 14-06-17 14:53 OP:mh   STATUS:               ID:20140617052818     3
 2014-06-17-0528-18M.COL___256                                                 6
 STAT SP IPHASW D HRMM SECON CODA AMPLIT PERI AZIMU VELO AIN AR TRES W  DIS CAZ7
 BAR2 SZ EP        538 44.48                             134    0.4910 90.7 165 
 BAR2 SZ ES   1    538 58.18                             134   -0.17 7 90.7 165 
 BAR2 SZ I         539  1.04         7.8 0.29            140           90.7 165 
 OCA  HN ES        538 58.69                             133   -0.1410 95.0   5 
 OCA  HZ I         539  0.08         6.5 0.28            142           95.0   5 
 PTB  HZ EP        538 48.87                             119   -0.64 9  150 231 
 PTB  HN ES   1    539  8.11                             119   -0.06 7  150 231 
 PTB  HZ I         539 12.29         3.7 0.10            124            150 231 
 ZAR  HZ EP        538 50.93                             116    0.13 9  162 274 
 ZAR  HN ES        539 10.73                             116    0.27 9  162 274 
                                                                                
