 2016  817 0514  1.3 L   6.802 -73.111147.8  RSN  7 0.5 1.7LRSN                1
 GAP=241        1.20       5.9     6.9  8.1  0.5389E+01  0.8319E+01  0.1255E+02E
 Epicentro: LOS SANTOS - SANTANDER                                             3
 ACTION:UPD 16-10-29 15:36 OP:rebc STATUS:               ID:20160817051401 L   I
 OLDACT:DUP 16-08-17 18:33 OP:ak   STATUS:               ID:20160817050760d    3
 OLDACT:REG 16-08-17 12:40 OP:ak   STATUS:               ID:20160817050759     3
 2016-08-17-0507-59S.COL___343                                                 6
 STAT SP IPHASW D HRMM SECON CODA AMPLIT PERI AZIMU VELO AIN AR TRES W  DIS CAZ7
 BAR2 EZ EP        514 21.24                             170    0.0110 24.5 199 
 BAR2 EZ ES        514 36.84                             170    0.0910 24.5 199 
 BAR2 EZ I         514 37.49        13.2 0.34                          24.5 199 
 BRR  HZ IP     C  514 23.08                             152    0.2010 74.4 297 
 BRR  HE ES        514 40.42                             152    0.7310 74.4 297 
 BRR  HZ I         514 45.56         6.8 0.14                          74.4 297 
 RUS  HZ EP        514 25.26                             144   -0.0310  101 178 
 RUS  HN ES        514 43.47                             144   -0.5010  101 178 
 RUS  HZ I         514 45.79         4.5 0.56                           101 178 
 PTB  HZ EP        514 27.98                             132   -0.83 9  152 259 
 PTB  HN ES        514 49.56                             132   -0.68 9  152 259 
 PTB  HZ I         514 56.57         8.3 0.34                           152 259 
 SPBC HZ EP        514 30.30                             129    0.07 9  166 220 
 SPBC HN ES        514 52.45                             129   -0.33 9  166 220 
 SPBC HZ I         514 55.15        10.4 0.22                           166 220 
 CHI  HZ EP        514 39.56                             117    0.28 8  250 196 
 CHI  HN ES        515  9.51                             117    0.63 8  250 196 
 GUY2CHE ES        515 20.65                             112    0.88 7  304 235 
                                                                                
