 2013  317 0944 36.1 L   6.708 -73.149147.7  RSN  5 0.4 1.5LRSN                1
 GAP=230        0.74       7.6     7.0  7.9  0.3300E+02  0.8336E+01 -0.1630E+00E
 Epicentro: VILLANUEVA - SANTANDER                                             3
 ACTION:UPD 13-04-09 14:03 OP:ep   STATUS:               ID:20130317094436 L   I
 2013-03-17-0940-00M.COL___244                                                 6
 STAT SP IPHASW D HRMM SECON CODA AMPLIT PERI AZIMU VELO AIN AR TRES W  DIS CAZ7
 BAR2 SZ EP   1    944 55.81                             175    0.06 7 13.3 196 
 BAR2 SZ ES   1    945 10.54                             175   -0.58 7 13.3 196 
 BAR2 SZ I         945 11.57        11.7 0.30            172           13.3 196 
 BRR  HZ EP   1    944 57.67                             151   -0.03 7 76.2 305 
 BRR  HN ES   1    945 15.23                             151    0.65 7 76.2 305 
 BRR  HZ I         945 17.45         6.8 0.34            150           76.2 305 
 RUS  HZ EP   1    944 59.64                             147    0.34 7 90.5 175 
 RUS  HN ES   1    945 17.38                             147   -0.05 7 90.5 175 
 RUS  HZ I         945 20.24         3.7 0.40            148           90.5 175 
 PTB  HZ EP   1    945  2.68                             133   -0.31 7  146 263 
 PTB  HN ES   1    945 24.23                             133    0.22 7  146 263 
 PTB  HZ I         945 25.95         3.4 0.16            132            146 263 
 ZAR  HN ES   1    945 34.26                             122   -0.44 6  208 295 
 ZAR  HZ I         945 39.66         2.6 0.24            123            208 295 
                                                                                
