 2016  617 0920 55.0 L   6.688 -73.180140.0  RSN  4 0.4 1.4LRSN                1
 GAP=237        0.82       8.3     7.2  8.4  0.3294E+02  0.1965E+02 -0.1779E+02E
 Epicentro: VILLANUEVA - SANTANDER                                             3
 ACTION:UPD 16-07-21 22:19 OP:rebc STATUS:               ID:20160617092055 L   I
 OLDACT:REG 16-06-17 12:49 OP:dnl  STATUS:               ID:20160617091744     3
 2016-06-17-0917-44M.COL___336                                                 6
 STAT SP IPHASW D HRMM SECON CODA AMPLIT PERI AZIMU VELO AIN AR TRES W  DIS CAZ7
 BAR2 EZ EP   2    921 13.70                             176   -0.03 5 10.6 182 
 BAR2 EZ ES        921 28.44                             176    0.0910 10.6 182 
 BAR2 EZ I         921 29.67         7.1 0.26                          10.6 182 
 RUS  HZ EP   3    921 17.39                             146    0.06 2 88.6 173 
 RUS  HN ES        921 34.65                             146   -0.1010 88.6 173 
 RUS  HZ I         921 38.48         2.2 0.42                          88.6 173 
 PTB  HZ EP        921 20.54                             132   -0.44 9  142 263 
 PTB  HN ES        921 41.61                             132    0.36 9  142 263 
 PTB  HZ I         921 42.94         3.5 0.16                           142 263 
 ZAR  HZ EP        921 27.84                             121    0.60 8  206 296 
 ZAR  HE ES        921 51.90                             121   -0.48 8  206 296 
 ZAR  HZ I         921 58.51         3.9 0.38                           206 296 
                                                                                
