 2013  217 0430 10.4 L   6.717 -73.220158.7  RSN  3 0.3 1.5LRSN                1
 GAP=222        0.80       7.0     7.2  8.0  0.2740E+02 -0.3791E+01 -0.2526E+01E
 Epicentro: VILLANUEVA - SANTANDER                                             3
 *PRV                                                                          3
 ACTION:UPD 13-03-12 09:33 OP:ep   STATUS:               ID:20130217043010 L   I
 2013-02-17-0430-00M.COL___241                                                 6
 STAT SP IPHASW D HRMM SECON CODA AMPLIT PERI AZIMU VELO AIN AR TRES W  DIS CAZ7
 BRR  HZ EP        430 32.87                             155    0.0510 69.5 308 
 BRR  HN ES        430 50.32                             155   -0.0310 69.5 308 
 BRR  HN I         430 53.33         7.4 0.16            152           69.5 308 
 RUS  HZ EP        430 35.28                             149    0.4310 92.4 171 
 RUS  HN ES        430 53.72                             149   -0.2410 92.4 171 
 RUS  HN I         430 54.09         2.4 0.32            150           92.4 171 
 PTB  HZ EP        430 37.08                             137   -0.50 9  138 262 
 PTB  HN ES        430 59.10                             137    0.28 9  138 262 
 PTB  HN I         431  4.33         4.1 0.42            135            138 262 
                                                                                
