 2013  817 1950 26.7 L   6.748 -73.157139.9  RSN 10 0.4 1.9LRSN                1
 GAP=137        0.91       3.1     3.7  6.0 -0.1174E+01  0.6255E+01  0.1351E+01E
 Epicentro: LOS SANTOS - SANTANDER                                             3
 ACTION:UPD 14-01-14 09:04 OP:ep   STATUS:               ID:20130817195026 L   I
 OLDACT:REG 13-08-17 16:38 OP:jn   STATUS:               ID:20130817194959     3
 2013-08-17-1949-59M.COL___269                                                 6
 STAT SP IPHASW D HRMM SECON CODA AMPLIT PERI AZIMU VELO AIN AR TRES W  DIS CAZ7
 BAR2 SZ EP   1   1950 45.41                             173   -0.11 7 17.5 189 
 BAR2 SZ ES       1951  0.31                             173    0.1110 17.5 189 
 BAR2 SZ I        1951  1.20        30.4 0.28            169           17.5 189 
 BRR  HZ EP       1950 47.53                             151    0.2010 73.0 303 
 BRR  HN ES       1951  3.98                             151    0.5610 73.0 303 
 BRR  HZ I        1951  8.95        17.0 0.14            149           73.0 303 
 PAM  SZ EP       1950 48.68                             148    0.0510 82.6  38 
 PAM  SN ES       1951  5.34                             148   -0.3910 82.6  38 
 PAM  SZ I        1951  7.55        15.4 0.44            153           82.6  38 
 RUS  HZ EP       1950 49.63                             144    0.1510 95.0 175 
 RUS  HN ES       1951  7.15                             144   -0.0910 95.0 175 
 RUS  HZ I        1951  9.31         8.7 0.22            144           95.0 175 
 PTB  HZ EP       1950 52.66                             131   -0.34 9  146 261 
 PTB  HN ES       1951 12.71                             131   -0.79 9  146 261 
 PTB  HZ I        1951 18.96        15.6 0.38            130            146 261 
 SPBC HZ EP   1   1950 54.69                             129    0.43 7  158 220 
 SPBC HN ES       1951 16.28                             129    0.52 9  158 220 
 SPBC HZ I        1951 19.01        13.3 0.28            128            158 220 
 ZAR  HN ES       1951 24.12                             121    0.13 9  205 294 
 ZAR  HZ I        1951 29.71        13.6 0.30            121            205 294 
 NOR  HZ EP   1   1951  2.21                             118    0.57 6  230 235 
 NOR  HE ES       1951 28.63                             118   -0.25 8  230 235 
 NOR  HZ I        1951 36.97         5.1 0.22            118            230 235 
 CHI  HN ES   1   1951 31.42                             116   -0.69 6  243 195 
 CHI  HZ I        1951 42.19         3.2 0.70            117            243 195 
 SML  HE ES   1   1951 32.06                             116   -0.18 6  248 336 
                                                                                
