 2012  217 1816 16.5 L   6.652 -73.609119.4  RSN  5 0.3 1.6LRSN                1
 GAP=117        0.61       4.8     4.0  6.6  0.5662E+01  0.2192E+01  0.4281E+01E
 ACTION:UP  12-03-07 16:31 OP:epov STATUS:               ID:20120217181616 L   I
 2012-02-17-1810-00M.COL___188                                                 6
 STAT SP IPHASW D HRMM SECON CODA AMPLIT PERI AZIMU VELO AIN AR TRES W  DIS CAZ7
 BAR2 SZ EP   1   1816 33.61                             157   -0.26 7 47.7  98 
 BAR2 SZ ES   1   1816 47.02                             157   -0.39 7 47.7  98 
 BAR2 SZ I        1816 48.15        18.5 0.28                          47.7  98 
 BRR  HZ EP   1   1816 33.88                             155    0.17 7 51.5 347 
 BRR  HN ES   1   1816 47.60                             155    0.47 7 51.5 347 
 GIR2 SZ EP   1   1816 34.46                             149   -0.27 7 65.8  44 
 PTB  HZ EP   1   1816 36.65                             139    0.03 7 94.5 262 
 PTB  HN ES   1   1816 52.04                             139   -0.26 7 94.5 262 
 RUS  HZ EP   1   1816 38.15                             137    0.25 7  102 145 
 RUS  HN ES   1   1816 54.86                             137    0.27 7  102 145 
 RUS  HZ I        1816 57.28         4.3 0.36                           102 145 
                                                                                
