 2016  317 1634 30.3 L   6.774 -73.130142.2  RSN  8 0.3 2.0LRSN                1
 GAP=140        0.75       2.8     3.2  4.7 -0.1123E+01  0.5657E+01  0.1126E+01E
 Epicentro: LOS SANTOS - SANTANDER                                             3
 ACTION:UPD 16-05-13 21:25 OP:cam  STATUS:               ID:20160317163430 L   I
 OLDACT:DUP 16-03-18 01:01 OP:cara STATUS:               ID:20160317162747d    3
 OLDACT:REG 16-03-17 21:21 OP:cara STATUS:               ID:20160317162746     3
 2016-03-17-1627-46M.COL___303                                                 6
 STAT SP IPHASW D HRMM SECON CODA AMPLIT PERI AZIMU VELO AIN AR TRES W  DIS CAZ7
 BAR2 EZ IP       1634 49.43                             171   -0.0610 20.9 196 
 BAR2 EZ ES       1635  3.95                             171   -0.4810 20.9 196 
 BAR2 EZ I        1635  5.74        39.5 0.20            169           20.9 196 
 PAM  EZ EP       1634 52.44                             150    0.1910 78.5  37 
 PAM  EN ES       1635  9.66                             150    0.3310 78.5  37 
 PAM  EZ I        1635 11.68        14.7 0.42            155           78.5  37 
 RUS  HZ EP       1634 53.40                             144   -0.1310 97.6 177 
 RUS  HN ES       1635 11.76                             144    0.1510 97.6 177 
 RUS  HZ I        1635 13.91         7.4 0.48            147           97.6 177 
 PTB  HZ EP       1634 56.84                             131   -0.29 9  149 260 
 PTB  HN ES       1635 17.77                             131   -0.25 9  149 260 
 PTB  HZ I        1635 24.67        17.7 0.38            132            149 260 
 SPBC HZ EP       1634 58.43                             128   -0.03 9  162 220 
 SPBC HN ES       1635 21.02                             128    0.62 9  162 220 
 SPBC HZ I        1635 28.16        16.7 0.50            130            162 220 
 ZAR  HZ EP       1635  2.72                             121   -0.11 8  207 293 
 ZAR  HN ES       1635 28.20                             121    0.02 8  207 293 
 ZAR  HZ I        1635 33.64        11.3 0.36            123            207 293 
 CHI  HZ EP       1635  7.20                             117   -0.39 8  246 196 
 CHI  HN ES       1635 36.44                             117   -0.21 8  246 196 
 CHI  HZ I        1635 39.33         6.1 0.32            119            246 196 
 GUY2CHZ EP       1635 14.20                             112    0.44 7  301 235 
 GUY2CHN ES       1635 48.02                             112    0.39 7  301 235 
 GUY2CHZ I        1635 55.46         5.2 0.38                           301 235 
                                                                                
