 2016  917 1812 53.9 L   6.807 -73.144143.5  RSN 19 0.5 3.0LRSN 3.3WRSN        1
 SPEC AVERAGE  MO 14.1 ST  2.0 OM  2.2 f0 2.73 R0.9514 AL 0.00 WI 40.0 MW  3.3 3
 SPEC SD       MO  0.4 ST  2.6 OM  0.5 f0 1.59 R0.5679 AL      WI      MW  0.3 3
 GAP= 71        1.17       3.1     3.1  5.4 -0.1464E+01  0.4985E+01  0.2137E+01E
 Epicentro: LOS SANTOS - SANTANDER                                             3
 SPEC BRR HH Z MO 13.8 ST  1.4 OM  1.9 f0 3.29 R0.5848 AL-0.00 WI 40.0 MW  3.2 3
 SPEC BRR HH Z T181330 K 0.000 GD  160 VS 5.20 DE 3.50 Q0750.0 QA 1.50 VS 5.20 3
 SPEC RUS HH Z MO 14.1 ST0.530 OM  2.1 f0 1.96 R0.9816 AL-0.00 WI 40.0 MW  3.3 3
 SPEC RUS HH Z T181334 K 0.000 GD  175 VS 5.20 DE 3.50 Q0750.0 QA 1.50 VS 5.20 3
 SPEC PTB HH Z MO 13.8 ST  5.2 OM  1.8 f0 5.01 R0.3840 AL-0.00 WI 40.0 MW  3.2 3
 SPEC PTB HH Z T181339 K 0.000 GD  206 VS 5.20 DE 3.50 Q0750.0 QA 1.50 VS 5.20 3
 SPEC OCA HH Z MO 14.4 ST  1.8 OM  2.4 f0 2.19 R0.8785 AL-0.00 WI 40.0 MW  3.6 3
 SPEC OCA HH Z T181341 K 0.000 GD  214 VS 5.20 DE 3.50 Q0750.0 QA 1.50 VS 5.20 3
 SPEC SPBCHH Z MO 13.9 ST 10.1 OM  1.8 f0 6.14 R0.3134 AL-0.00 WI 40.0 MW  3.2 3
 SPEC SPBCHH Z T181342 K 0.000 GD  217 VS 5.20 DE 3.50 Q0750.0 QA 1.50 VS 5.20 3
 SPEC ZAR HH Z MO 14.1 ST  1.7 OM  2.0 f0 2.77 R0.6946 AL-0.00 WI 40.0 MW  3.4 3
 SPEC ZAR HH Z T181350 K 0.000 GD  249 VS 5.20 DE 3.50 Q0750.0 QA 1.50 VS 5.20 3
 SPEC NOR HH Z MO 14.1 ST  1.5 OM  1.9 f0 2.80 R0.6871 AL-0.00 WI 40.0 MW  3.3 3
 SPEC NOR HH Z T181355 K 0.000 GD  275 VS 5.20 DE 3.50 Q0750.0 QA 1.50 VS 5.20 3
 SPEC CHI HH Z MO 14.4 ST0.149 OM  2.2 f0 1.01 R1.9050 AL-0.00 WI 40.0 MW  3.5 3
 SPEC CHI HH Z T181359 K 0.000 GD  287 VS 5.20 DE 3.50 Q0750.0 QA 1.50 VS 5.20 3
 SPEC HEL HH Z MO 14.3 ST0.143 OM  2.1 f0 1.05 R1.8324 AL-0.00 WI 40.0 MW  3.5 3
 SPEC HEL HH Z T1814 4 K 0.000 GD  307 VS 5.20 DE 3.50 Q0750.0 QA 1.50 VS 5.20 3
 SPEC URE HH Z MO 13.6 ST  2.1 OM  1.4 f0 4.34 R0.4433 AL-0.00 WI 40.0 MW  3.0 3
 SPEC URE HH Z T1814 2 K 0.000 GD  318 VS 5.20 DE 3.50 Q0750.0 QA 1.50 VS 5.20 3
 SPECGUY2CHH Z MO 14.7 ST  0.1 OM  2.5 f00.696 R  2.76 AL-0.00 WI 40.0 MW  3.8 3
 SPECGUY2CHH Z T181410 K       GD334.4 VS 5.20 DE 3.50 Q0750.0 QA 1.50 VS 5.20 3
 SPEC CBOCHH Z MO 14.2 ST0.184 OM  1.9 f0 1.26 R1.5270 AL-0.00 WI 40.0 MW  3.4 3
 SPEC CBOCHH Z T181415 K 0.000 GD  363 VS 5.20 DE 3.50 Q0750.0 QA 1.50 VS 5.20 3
 SPEC ANILHH Z MO 14.5 ST  1.3 OM  2.2 f0 1.89 R1.0180 AL-0.00 WI 40.0 MW  3.6 3
 SPEC ANILHH Z T181422 K 0.000 GD  385 VS 5.20 DE 3.50 Q0750.0 QA 1.50 VS 5.20 3
 SPEC SJC HH Z MO 13.9 ST0.280 OM  1.6 f0 1.72 R1.1186 AL-0.00 WI 40.0 MW  3.2 3
 SPEC SJC HH Z T181427 K 0.000 GD  433 VS 5.20 DE 3.50 Q0750.0 QA 1.50 VS 5.20 3
 OLDACT:REG 16-09-17 21:22 OP:dnl  STATUS:               ID:20160917180739     3
 ACTION:UPD 17-08-17 21:13 OP:lp   STATUS:               ID:20160917181253 L   I
 2016-09-17-1808-00M.COL___360                                                 6
 STAT SP IPHASW D HRMM SECON CODA AMPLIT PERI AZIMU VELO AIN AR TRES W  DIS CAZ7
 BAR2 EZ EP       1813 13.25                             170    0.0110 24.2 190 
 BAR2 EZ ES       1813 27.96                             170   -0.4010 24.2 190 
 BAR2 EZ I        1813 29.62       438.5 0.18            167           24.2 190 
 BRR  HZ EP     D 1813 15.13                             152    0.3710 71.0 298 
 BRR  HN ES       1813 31.95                             152    0.8910 71.0 298 
 BRR  HZ I        1813 33.17       127.9 0.14            150           71.0 298 
 PAM  EZ EP     D 1813 16.03                             151    0.2410 76.6  40 
 PAM  EN ES       1813 33.02                             151    0.1210 76.6  40 
 PAM  EZ I        1813 35.58       130.1 0.60            155           76.6  40 
 RUS  HZ EP     C 1813 17.21                             143   -0.2410  101 176 
 RUS  HN ES       1813 35.61                             143   -0.2410  101 176 
 RUS  HZ I        1813 37.02       117.3 0.30            143            101 176 
 PTB  HZ EP       1813 19.85                             131   -0.83 9  148 259 
 PTB  HN ES       1813 41.01                             131   -0.59 9  148 259 
 PTB  HZ I        1813 43.20        71.7 0.16            130            148 259 
 TAM  HZ EP     D 1813 21.58                             130    0.22 9  155 105 
 TAM  HN ES       1813 43.20                             130    0.39 9  155 105 
 TAM  HZ I        1813 43.79        49.6 0.28            133            155 105 
 OCA  HZ EP       1813 21.50                             129   -0.43 9  159 353 
 OCA  HE ES       1813 43.29                             129   -0.52 9  159 353 
 OCA  HZ I        1813 46.58       239.2 0.18            131            159 353 
 SPBC HZ EP       1813 22.07                             128   -0.19 9  164 219 
 SPBC HN ES       1813 44.06                             128   -0.36 9  164 219 
 SPBC HZ I        1813 50.44       177.7 0.22            128            164 219 
 ZAR  HZ EP       1813 25.97                             122   -0.18 9  204 292 
 ZAR  HE ES       1813 51.96                             122    0.62 9  204 292 
 ZAR  HZ I        1813 57.31        72.5 0.12            122            204 292 
 NOR  HZ EP       1813 29.20                             118   -0.33 8  235 234 
 NOR  HE ES       1813 57.04                             118   -0.32 8  235 234 
 NOR  HZ I        1814  2.45       135.9 0.42            118            235 234 
 CHI  HZ EP       1813 31.43                             117   -0.10 8  249 195 
 CHI  HE ES       1814  0.70                             117   -0.21 8  249 195 
 CHI  HZ I        1814  7.83        52.7 0.48            117            249 195 
 ROSC BZ EP   4   1813 32.96                             116    1.01 0  254 211 
 ROSC BN ES       1814  2.45                             116    0.79 8  254 211 
 ROSC BZ I        1814  9.25        81.4 0.60            116            254 211 
 HEL  HZ EP       1813 34.40                             114    0.39 8  272 256 
 HEL  HN ES       1814  5.94                             114    0.62 8  272 256 
 HEL  HZ I        1814 11.91        50.4 0.24            114            272 256 
 URE  HZ EP       1813 33.86                             113   -0.95 7  284 292 
 URE  HE ES   4   1814  4.25                             113   -2.50 0  284 292 
 URE  HZ I        1814 16.86        48.3 0.18            113            284 292 
 GUY2CHZ EP       1813 37.58                             112    0.14 7  302 235 
 GUY2CHE ES       1814 12.09                             112    0.66 7  302 235 
 GUY2CHZ I        1814 19.88        80.8 0.34                           302 235 
 ELA  HZ EP   4   1813 42.12                             110    1.42 0  330 229 
 ELA  HE ES       1814 16.77                             110   -0.46 7  330 229 
 ELA  HZ I        1814 30.09        41.5 0.56            110            330 229 
 CBOC HZ EP       1813 41.82                             109    1.08 7  334 252 
 CBOC HN ES       1814 17.12                             109   -0.18 7  334 252 
 CBOC HZ I        1814 26.68        17.7 0.56            109            334 252 
 ANIL HZ EP       1813 44.62                             108    0.95 6  358 224 
 ANIL HN ES   4   1814 24.07                             108    1.56 0  358 224 
 ANIL HZ I        1814 31.81        86.3 0.34            108            358 224 
 SJC  HZ EP   4   1813 47.38                             105   -1.90 0  409 327 
 SJC  HN ES   4   1814 28.78                             105   -3.73 0  409 327 
 SJC  HZ I        1814 32.25        17.8 0.34            106            409 327 
                                                                                
