 2014  117 1008 59.9 L   6.833 -73.159141.6  RSN  9 0.4 1.9LRSN                1
 GAP=133        0.88       2.5     3.8  5.7 -0.1863E+00  0.8560E+01 -0.4721E-01E
 Epicentro: LOS SANTOS - SANTANDER                                             3
 ACTION:UPD 14-03-13 09:56 OP:ep   STATUS:               ID:20140117100859 L   I
 OLDACT:REG 14-01-17 16:47 OP:carl STATUS:               ID:20140117100738     3
 2014-01-17-1007-38M.COL___235                                                 6
 STAT SP IPHASW D HRMM SECON CODA AMPLIT PERI AZIMU VELO AIN AR TRES W  DIS CAZ7
 BAR2 SZ EP       10 9 19.22                             169    0.1610 26.7 186 
 BAR2 SZ ES       10 9 34.24                             169    0.2010 26.7 186 
 BAR2 SZ I        10 9 35.60        20.9 0.24            167           26.7 186 
 PAM  SZ EP       10 9 21.95                             150    0.4310 75.6  42 
 PAM  SN ES       10 9 38.63                             150    0.2210 75.6  42 
 PAM  SZ I        10 9 40.96         8.2 0.56            154           75.6  42 
 RUS  HZ EP       10 9 23.35                             142   -0.1310  104 175 
 RUS  HN ES       10 9 41.38                             142   -0.5210  104 175 
 RUS  HZ I        10 9 43.30         5.9 0.32            142            104 175 
 PTB  HZ EP       10 9 25.97                             131   -0.46 9  147 257 
 PTB  HN ES       10 9 46.82                             131   -0.33 9  147 257 
 PTB  HZ I        10 9 49.40        12.0 0.10            130            147 257 
 OCA  HE ES       10 9 49.06                             129    0.02 9  156 354 
 OCA  HZ I        10 9 52.02        12.8 0.22            131            156 354 
 ZAR  HZ EP       10 9 31.86                             122    0.11 9  201 291 
 ZAR  HN ES       10 9 56.89                             122    0.26 9  201 291 
 ZAR  HZ I        1010  2.63        10.4 0.26            122            201 291 
 SML  HZ EP       10 9 35.51                             117   -0.31 8  240 335 
 SML  HN ES       1010  3.47                             117   -0.41 8  240 335 
 SML  HZ I        1010  5.89        17.3 0.26            118            240 335 
 CHI  HZ EP       10 9 37.77                             116    0.10 8  252 195 
 CHI  HN ES       1010  7.07                             116   -0.10 8  252 195 
 CHI  HZ I        1010 14.11         2.8 0.50            116            252 195 
 RREF HN ES       1010 23.00                             110    1.06 7  323 229 
 RREF HZ I        1010 31.71         3.7 0.42            110            323 229 
                                                                                
