 2016 1217 1846 44.8 L   6.816 -73.138143.8  RSN 20 0.4 2.5LRSN                1
 GAP= 71        0.88       3.4     2.6  4.3 -0.1932E+00  0.3033E+01  0.4023E+01E
 Epicentro: LOS SANTOS - SANTANDER                                             3
 ACTION:UPD 17-01-11 20:16 OP:rebc STATUS:               ID:20161217184644 L   I
 OLDACT:UP  16-12-17 22:28 OP:edw  STATUS:               ID:20161217183746d    3
 OLDACT:UP  16-12-17 22:27 OP:edw  STATUS:               ID:20161217183746d    3
 OLDACT:UP  16-12-17 22:26 OP:edw  STATUS:               ID:20161217183746d    3
 OLDACT:DUP 16-12-17 22:12 OP:edw  STATUS:               ID:20161217183746d    3
 2016-12-17-1838-00M.COL___387                                                 6
 STAT SP IPHASW D HRMM SECON CODA AMPLIT PERI AZIMU VELO AIN AR TRES W  DIS CAZ7
 BAR2 EZ EP       1847  3.99                             170   -0.2110 25.2 191 
 BAR2 EZ ES       1847 19.14                             170   -0.2110 25.2 191 
 BAR2 EZ I        1847 20.39        54.6 0.22            165           25.2 191 
 BRR  HZ IP     C 1847  5.62                             152   -0.0710 71.1 297 
 BRR  HN ES       1847 22.60                             152    0.5810 71.1 297 
 BRR  HZ I        1847 23.19        42.0 0.10            151           71.1 297 
 PAM  EZ EP       1847  6.75                             151    0.1010 75.5  40 
 PAM  EN ES       1847 23.73                             151    0.0010 75.5  40 
 PAM  EZ I        1847 25.77        54.1 0.54            155           75.5  40 
 RUS  HZ EP       1847  8.06                             143   -0.3910  102 177 
 RUS  HN ES       1847 26.53                             143   -0.3910  102 177 
 RUS  HZ I        1847 28.65        32.2 0.22            141            102 177 
 PTB  HZ EP   9   1847 10.71                             131   -0.97 0  149 258 
 PTB  HN ES       1847 31.42                             131   -0.28 9  149 258 
 PTB  HZ I        1847 34.11        51.7 0.12            129            149 258 
 TAM  HZ EP       1847 12.43                             130    0.18 9  155 106 
 TAM  HN ES       1847 34.07                             130    0.38 9  155 106 
 TAM  HZ I        1847 35.24        13.9 0.28            132            155 106 
 ZAR  HZ EP       1847 16.55                             122   -0.54 9  204 292 
 ZAR  HN ES       1847 42.19                             122   -0.12 9  204 292 
 ZAR  HZ I        1847 47.78        39.2 0.18            121            204 292 
 NOR  HZ EP       1847 20.41                             118   -0.15 8  236 234 
 NOR  HN ES       1847 48.66                             118    0.17 8  236 234 
 NOR  HZ I        1847 49.87        17.8 0.16            117            236 234 
 CHI  HZ EP       1847 22.62                             116    0.06 8  251 195 
 CHI  HN ES   2   1847 51.85                             116   -0.20 4  251 195 
 CHI  HZ I        1848  0.57        12.4 0.40            116            251 195 
 ROSC BZ EP       1847 22.61                             116   -0.38 8  255 211 
 ROSC BN ES   4   1847 55.31                             116    2.50 0  255 211 
 ROSC BZ I        1847 59.41        26.8 0.35            115            255 211 
 URE  HZ EP   4   1847 24.11                             113   -1.64 0  284 292 
 URE  HN ES   4   1847 55.56                             113   -2.16 0  284 292 
 URE  HZ I        1848  5.14        24.3 0.22            113            284 292 
 GUY2CHZ EP       1847 28.92                             112    0.44 7  303 235 
 GUY2CHN ES   4   1848  6.44                             112    3.87 0  303 235 
 GUY2CHZ I        1848 11.96        14.3 0.36                           303 235 
 PTGC HZ EP   4   1847 27.45                             111   -1.24 0  310 159 
 ELA  HZ EP   4   1847 33.12                             110    1.38 0  331 229 
 ELA  HN ES       1848  9.32                             110    0.94 7  331 229 
 ELA  HZ I        1848 16.26        11.7 0.78            109            331 229 
 CBOC HZ EP       1847 32.47                             109    0.72 7  335 252 
 CBOC HE ES       1848  8.22                             109   -0.18 7  335 252 
 CBOC HZ I        1848 15.77         4.8 0.36            109            335 252 
 DBB  EZ EP   4   1847 37.33                             109    5.09 0  340 274 
 DBB  EN ES   2   1848  9.12                             109   -0.15 3  340 274 
 ANIL HZ EP   4   1847 37.29                             108    2.58 0  359 224 
 ANIL HN ES   4   1848 16.35                             108    2.68 0  359 224 
 ANIL HZ I        1848 21.76        34.4 0.30            107            359 224 
 ORTC HZ EP       1847 38.94                             106    0.10 6  397 216 
 ORTC HN ES   4   1848 23.35                             106    2.32 0  397 216 
 ORTC HZ I        1848 28.49        10.0 0.20            105            397 216 
 PAL  HZ EP       1847 39.71                             105   -0.34 6  407 239 
 PAL  HN ES   4   1848 22.03                             105   -1.14 0  407 239 
 PAL  HZ I        1848 26.96         5.5 0.20            105            407 239 
 SJC  HZ EP   4   1847 37.71                             105   -2.43 0  408 327 
 SJC  HN ES   4   1848 19.14                             105   -4.19 0  408 327 
 SJC  HZ I        1848 23.43         8.3 0.36            106            408 327 
 CRJC HZ EP   9   1847 44.21                             103   -2.78 0  466   3 
 CRJC HE ES       1848 31.19                             104   -1.56 5  466   3 
                                                                                
