 2016 1017 2114 13.3 L   6.848 -73.379125.8  RSN  6 0.3 1.7LRSN                1
 GAP= 91        0.75       2.7     3.3  5.1 -0.1141E+01  0.1660E+01 -0.1866E+01E
 Epicentro: SAN VICENTE DE CHUCURI - SANTANDER                                 3
 ACTION:UPD 16-11-09 19:20 OP:rebc STATUS:               ID:20161017211413 L   I
 OLDACT:REG 16-10-18 02:42 OP:y    STATUS:               ID:20161017210744     3
 2016-10-17-2108-00M.COL___359                                                 6
 STAT SP IPHASW D HRMM SECON CODA AMPLIT PERI AZIMU VELO AIN AR TRES W  DIS CAZ7
 BAR2 EZ ES       2114 44.24                             163   -0.3410 35.6 142 
 BRR  HZ EP       2114 31.47                             158    0.5210 46.7 308 
 BRR  HN ES       2114 45.16                             158    0.4210 46.7 308 
 BRR  HZ I        2114 46.45        18.8 0.12            155           46.7 308 
 PAM  EZ EP       2114 34.47                             142   -0.0210 92.7  54 
 PAM  EN ES       2114 51.09                             142    0.0510 92.7  54 
 PAM  EZ I        2114 54.48         7.7 0.52            143           92.7  54 
 RUS  HZ EP       2114 36.11                             136    0.1910  111 163 
 RUS  HN ES       2114 53.55                             136   -0.0510  111 163 
 PTB  HZ EP       2114 36.38                             132   -0.0610  124 254 
 PTB  HN ES       2114 54.20                             132   -0.3210  124 254 
 PTB  HZ I        2114 59.13         3.4 0.13            133            124 254 
 OCA  HZ EP       2114 39.25                             126   -0.22 9  154   2 
 OCA  HN ES       2114 59.66                             126   -0.26 9  154   2 
 OCA  HZ I        2115  6.70        18.1 0.16            126            154   2 
                                                                                
