 2013  417 2112 37.5 L   6.285 -73.671107.3  RSN  4 0.2 1.1LRSN                1
 GAP=164        0.46       3.4     2.8  5.6  0.4062E+01  0.5091E+01  0.3984E+01E
 Epicentro: SANTA HELENA DEL OPON - SANTANDER                                  3
 ACTION:UPD 13-05-22 14:39 OP:EP   STATUS:               ID:20130417211237 L   I
 2013-04-17-2110-00M.COL___250                                                 6
 STAT SP IPHASW D HRMM SECON CODA AMPLIT PERI AZIMU VELO AIN AR TRES W  DIS CAZ7
 BAR2 SZ EP   2   2112 53.75                             147   -0.76 5 63.9  58 
 BAR2 SZ ES   1   2113  7.81                             147    0.06 7 63.9  58 
 RUS  HZ EP       2112 55.99                             141    0.1010 78.2 124 
 RUS  HE ES   1   2113 10.19                             141   -0.02 7 78.2 124 
 RUS  HZ I        2113 13.73         1.6 0.16            145           78.2 124 
 BRR  HZ EP       2112 56.32                             136    0.0810 91.0 357 
 BRR  HN ES   1   2113 10.88                             136    0.05 7 91.0 357 
 BRR  HZ I        2113 13.48         5.7 0.37            141           91.0 357 
 PTB  HZ EP       2112 56.33                             136    0.0510 91.3 288 
 PTB  HE ES   1   2113 10.76                             136   -0.15 7 91.3 288 
                                                                                
