 2016  517 2350 14.3 L   6.794 -73.146148.6  RSN  8 0.3 1.8LRSN                1
 GAP=137        0.86       3.6     3.6  5.5 -0.1834E+01  0.4790E+01  0.2737E+01E
 Epicentro: LOS SANTOS - SANTANDER                                             3
 ACTION:UPD 16-08-18 17:46 OP:cam  STATUS:               ID:20160517235014 L   I
 OLDACT:UP  16-05-24 15:32 OP:dnl  STATUS:               ID:20160517235014 L   3
 OLDACT:UP  16-05-18 09:58 OP:dani STATUS:               ID:20160517234747     3
 OLDACT:UP  16-05-18 09:51 OP:dani STATUS:               ID:20160517234747     3
 OLDACT:UP  16-05-18 09:45 OP:dani STATUS:               ID:20160517234747     3
 OLDACT:UP  16-05-18 09:16 OP:dani STATUS:               ID:20160517234747     3
 OLDACT:REG 16-05-18 03:45 OP:dani STATUS:               ID:20160517234747     3
 2016-05-17-2347-47M.COL___304                                                 6
 STAT SP IPHASW D HRMM SECON CODA AMPLIT PERI AZIMU VELO AIN AR TRES W  DIS CAZ7
 BAR2 EZ EP       2350 34.33                             171    0.0310 22.6 190 
 BAR2 EZ ES       2350 49.50                             171   -0.3610 22.6 190 
 BAR2 EZ I        2350 50.69        18.5 0.26            168           22.6 190 
 BRR  HZ EP       2350 35.98                             153    0.1610 71.5 299 
 BRR  HN ES       2350 53.32                             153    0.7510 71.5 299 
 BRR  HZ I        2350 57.33        13.0 0.34            150           71.5 299 
 PAM  EZ EP       2350 37.07                             151    0.1810 77.9  39 
 PAM  EN ES       2350 54.20                             151   -0.2810 77.9  39 
 RUS  HZ EP       2350 38.14                             145   -0.1810 99.9 176 
 RUS  HN ES       2350 57.18                             145    0.1510 99.9 176 
 RUS  HZ I        2350 58.20         4.3 0.24            145           99.9 176 
 PTB  HZ EP       2350 41.27                             133   -0.26 9  148 259 
 PTB  HE ES       2351  2.05                             133   -0.69 9  148 259 
 PTB  HZ I        2351  4.51         5.0 0.11            131            148 259 
 SPBC HZ EP       2350 43.22                             130    0.21 9  163 219 
 SPBC HN ES       2351  5.62                             130    0.25 9  163 219 
 SPBC HZ I        2351  9.95        11.7 0.24            129            163 219 
 ZAR  HZ EP   4   2350 43.42                             123   -3.58 0  204 292 
 ZAR  HN ES       2351 12.37                             123   -0.10 9  204 292 
 ZAR  HZ I        2351 17.44         5.4 0.52            123            204 292 
 NOR  HZ EP       2350 50.13                             119   -0.06 8  234 235 
 NOR  HN ES       2351 18.31                             119    0.15 8  234 235 
 NOR  HZ I        2351 27.66         3.7 0.40            119            234 235 
                                                                                
