 2015 1017 2314  9.1 L   6.797 -73.096144.9  RSN 10 0.3 1.7LRSN                1
 GAP=143        0.77       3.0     4.0  5.5 -0.2135E+01  0.7825E+01 -0.2487E+01E
 Epicentro: LOS SANTOS - SANTANDER                                             3
 ACTION:UPD 15-12-22 20:41 OP:cam  STATUS:               ID:20151017231409 L   I
 OLDACT:REG 15-10-18 04:55 OP:spq  STATUS:               ID:20151017230750     3
 2015-10-17-2307-50M.COL___343                                                 6
 STAT SP IPHASW D HRMM SECON CODA AMPLIT PERI AZIMU VELO AIN AR TRES W  DIS CAZ7
 BAR2 EZ ES   1   2314 43.45                             170   -0.49 7 24.6 203 
 BAR2 EZ I        2314 44.43         9.5 0.18            170           24.6 203 
 PAM  EZ EP       2314 31.45                             152    0.3810 74.3  36 
 PAM  EN ES       2314 48.53                             152    0.3510 74.3  36 
 PAM  EZ I        2314 50.75        11.1 0.64            154           74.3  36 
 BRR  HZ EP   1   2314 30.51                             151    0.04 7 76.2 297 
 BRR  HE ES   1   2314 47.57                             151    0.45 7 76.2 297 
 BRR  HZ I        2314 49.81        18.4 0.42            150           76.2 297 
 RUS  HZ EP   1   2314 32.86                             144    0.10 7  100 179 
 RUS  HE ES   1   2314 50.97                             144   -0.22 7  100 179 
 RUS  HZ I        2314 52.04         2.5 0.26            147            100 179 
 OCA  HZ EP       2314 36.98                             129   -0.49 9  161 351 
 OCA  HE ES       2314 59.02                             129   -0.55 9  161 351 
 OCA  HZ I        2315  2.54        11.1 0.28            131            161 351 
 ZAR  HZ EP   1   2314 42.64                             121    0.59 6  209 292 
 ZAR  HE ES       2315  7.74                             121    0.01 8  209 292 
 ZAR  HZ I        2315 13.09         8.9 0.52            123            209 292 
 NOR  HZ EP   1   2314 45.10                             118   -0.17 6  239 235 
 NOR  HE ES       2315 13.37                             118   -0.09 8  239 235 
 NOR  HZ I        2315 16.66         2.9 0.24            119            239 235 
 SML  HZ EP       2314 46.03                             117    0.04 8  246 334 
 SML  HN ES   1   2315 14.91                             117    0.18 6  246 334 
 SML  HZ I        2315 17.41         4.8 0.20            119            246 334 
 MON  HZ EP   4   2315  3.00                             108    4.39 0  358 308 
 MON  HE ES   4   2315 35.24                             108   -1.97 0  358 308 
 MON  HZ I        2315 35.40         1.4 0.22            110            358 308 
 SJC  HZ EP   4   2315  3.13                             105   -1.91 0  412 326 
 SJC  HN ES   4   2315 46.42                             105   -2.23 0  412 326 
 SJC  HZ I        2315 48.46         1.1 0.39            107            412 326 
                                                                                
