 2016  118 0028 44.3 L   6.822 -73.179141.8  RSN 11 0.4 1.8LRSN                1
 GAP=131        0.94       2.8     3.8  5.8 -0.2207E+01  0.6925E+01  0.4094E+00E
 Epicentro: ZAPATOCA - SANTANDER                                               3
 ACTION:UPD 16-03-09 23:26 OP:cam  STATUS:               ID:20160118002844 L   I
 OLDACT:UP  16-01-18 13:34 OP:mh   STATUS:               ID:20160118002747     3
 OLDACT:REG 16-01-18 12:41 OP:mh   STATUS:               ID:20160118002747     3
 2016-01-18-0027-47M.COL___328                                                 6
 STAT SP IPHASW D HRMM SECON CODA AMPLIT PERI AZIMU VELO AIN AR TRES W  DIS CAZ7
 BAR2 EZ EP   1    029  3.66                             169    0.14 7 25.4 181 
 BAR2 EZ ES        029 18.48                             169   -0.0210 25.4 181 
 BAR2 EZ I         029 20.12        15.9 0.16            170           25.4 181 
 PAM  EZ EP        029  6.42                             150    0.2610 78.0  43 
 PAM  EN ES        029 23.57                             150    0.3810 78.0  43 
 PAM  EZ I         029 25.36        10.1 0.48            154           78.0  43 
 RUS  HZ EP        029  7.74                             142   -0.1510  103 174 
 RUS  HN ES        029 26.19                             142   -0.0810  103 174 
 RUS  HZ I         029 27.14         7.0 0.18            146            103 174 
 PTB  HZ EP        029  9.80                             132   -0.88 9  145 258 
 PTB  HN ES        029 30.91                             132   -0.33 9  145 258 
 PTB  HZ I         029 38.46         6.3 0.28            132            145 258 
 OCA  HZ EP        029 12.16                             129    0.09 9  157 354 
 OCA  HN ES        029 33.19                             129   -0.51 9  157 354 
 OCA  HZ I         029 36.52         9.0 0.20            131            157 354 
 SPBC HZ EP        029 12.44                             128   -0.04 9  163 217 
 SPBC HN ES        029 34.43                             128   -0.01 9  163 217 
 SPBC HZ I         029 37.13        17.3 0.18            130            163 217 
 ZAR  HZ EP   1    029 16.92                             122    0.86 6  200 292 
 ZAR  HN ES        029 41.01                             122    0.19 9  200 292 
 ZAR  HZ I         029 47.54         7.4 0.28            123            200 292 
 NOR  HZ EP        029 19.83                             118    0.18 8  233 233 
 NOR  HN ES        029 48.04                             118    0.83 8  233 233 
 NOR  HZ I         029 50.24         4.4 0.18            119            233 233 
 SML  HZ EP   4    029 19.06                             117   -1.27 0  240 336 
 SML  HN ES   4    029 50.23                             117    1.82 0  240 336 
 SML  HZ I         029 51.33         6.4 0.10            119            240 336 
 CHI  HZ EP        029 21.90                             116   -0.05 8  250 194 
 CHI  HN ES        029 51.09                             116   -0.22 8  250 194 
 CHI  HZ I         029 53.47         2.1 0.56            119            250 194 
 GUY2CHZ EP   4    029 28.97                             112    1.41 0  300 234 
 GUY2CHN ES   4    030  5.69                             112    4.40 0  300 234 
 GUY2CHZ I         030  9.64         3.0 0.60                           300 234 
                                                                                
