 2014  918 0218 44.0 L   6.827 -73.111144.0  RSN 17 0.5 2.4LRSN                1
 GAP=128        1.07       2.7     4.1  5.2 -0.1734E+01  0.7328E+01  0.1745E+01E
 Epicentro: LOS SANTOS - SANTANDER                                             3
 ACTION:UPD 14-10-03 23:06 OP:nd   STATUS:               ID:20140918021844 L   I
 OLDACT:REG 14-09-18 13:23 OP:carl STATUS:               ID:20140918021818     3
 2014-09-18-0218-18M.COL___287                                                 6
 STAT SP IPHASW D HRMM SECON CODA AMPLIT PERI AZIMU VELO AIN AR TRES W  DIS CAZ7
 BAR2 SZ IP     D  219  3.56                             169    0.0710 27.2 197 
 BAR2 SZ ES        219 17.81                             169   -0.8910 27.2 197 
 BAR2 SZ I         219 19.28        89.0 0.32            167           27.2 197 
 PAM  SZ EP        219  6.40                             152    0.6710 72.6  39 
 PAM  SN ES        219 23.25                             152    0.5510 72.6  39 
 PAM  SZ I         219 25.27        64.8 0.50            155           72.6  39 
 BRR  HZ IP     D  219  5.30                             152    0.2410 73.3 295 
 BRR  HN ES        219 22.19                             152    0.6810 73.3 295 
 BRR  HZ I         219 26.04        36.1 0.44            149           73.3 295 
 RUS  HZ EP        219  7.63                             143   -0.1410  103 178 
 RUS  HE ES        219 26.21                             143   -0.1210  103 178 
 RUS  HZ I         219 27.98        23.1 0.36            144            103 178 
 PTB  HZ EP   4    219 10.12                             131   -1.09 0  152 258 
 PTB  HN ES   4    219 31.06                             131   -1.39 0  152 258 
 PTB  HZ I         219 36.00        25.3 0.14            130            152 258 
 OCA  HZ EP        219 11.64                             130   -0.28 9  158 352 
 OCA  HE ES        219 33.52                             130   -0.20 9  158 352 
 OCA  HZ I         219 40.19        25.7 0.26            131            158 352 
 ZAR  HZ EP        219 16.09                             122   -0.48 8  207 291 
 ZAR  HN ES        219 41.82                             122   -0.17 8  207 291 
 ZAR  HZ I         219 48.78        22.7 0.16            121            207 291 
 NOR  HZ EP        219 20.51                             118    0.37 8  240 234 
 NOR  HN ES        219 48.00                             118   -0.34 8  240 234 
 NOR  HZ I         219 49.25        18.3 0.20            118            240 234 
 SML  HZ EP        219 19.72                             117   -0.67 8  243 334 
 SML  HN ES        219 48.57                             117   -0.22 8  243 334 
 SML  HZ I         219 50.48        35.3 0.24            118            243 334 
 CHI  HZ EP        219 21.99                             116   -0.03 8  253 196 
 CHI  HN ES        219 51.17                             116   -0.51 8  253 196 
 CHI  HZ I         219 57.90         7.8 0.28            117            253 196 
 HEL  HZ EP   4    219 25.70                             114    1.09 0  277 255 
 HEL  HN ES   4    219 54.40                             114   -1.89 0  277 255 
 HEL  HZ I         220  1.71        11.9 0.40            114            277 255 
 GUY2CHZ EP        219 28.82                             112    0.75 7  306 235 
 GUY2CHE ES        220  3.13                             112    0.68 7  306 235 
 GUY2CHZ I         220  7.90         9.5 0.46                           306 235 
 CBOC HZ EP        219 31.53                             109    0.17 7  338 252 
 CBOC HN ES        220  7.82                             109   -0.49 7  338 252 
 CBOC HZ I         220 17.12         3.8 0.42            110            338 252 
 TOL  SZ EP   4    219 34.30                             109    1.57 0  348 225 
 TOL  SN ES   4    220  9.54                             109   -1.21 0  348 225 
 TOL  SZ I         220 17.40        20.6 0.38            109            348 225 
 SDV  BZ EP   1    219 32.74                             108   -0.65 5  355  50 
 SDV  BN ES   4    220  9.91                             108   -2.01 0  355  50 
 SDV  BZ I         220 12.62         4.1 0.35            110            355  50 
 PRA  HZ EP        219 37.54                             106   -0.44 6  397 210 
 PRA  HN ES        220 20.11                             106    0.02 6  397 210 
 PRA  HZ I         220 25.93        12.6 0.28            107            397 210 
 ORTC HZ EP        219 39.14                             106    0.74 6  400 216 
 ORTC HN ES        220 21.32                             106    0.48 6  400 216 
 ORTC HZ I         220 26.00         4.1 0.58            107            400 216 
 SJC  HZ EP   4    219 37.90                             105   -1.54 0  409 326 
 SJC  HN ES   4    220 18.43                             105   -4.27 0  409 326 
                                                                                
