 2011  918 0755 14.7 L   6.744 -73.102144.7  RSN  7 0.2 1.9LRSN                1
 GAP=145        0.48       2.8     4.7  3.9  0.2940E+00 -0.7956E+00 -0.1721E+01E
 Epicentro: JORDAN - SANTANDER                                                 3
 ACTION:UPD 12-07-13 15:58 OP:ep   STATUS:               ID:20110918075514 L   I
 2011-09-18-0754-21S.COL___171                                                 6
 STAT SP IPHASW D HRMM SECON CODA AMPLIT PERI AZIMU VELO AIN AR TRES W  DIS CAZ7
 BAR2 SZ EP        755 33.94                             172   -0.1410 19.0 208 
 BAR2 SZ ES   1    755 49.06                             172   -0.18 7 19.0 208 
 BAR2 SZ I         755 50.04        11.6 0.28                          19.0 208 
 BTL  SZ EP        755 34.38                             169    0.1410 26.6 316 
 GIR2 SZ EP        755 34.17                             164   -0.2510 38.3 345 
 GIR2 SZ ES   2    755 49.57                             164   -0.26 5 38.3 345 
 BRR  HZ EP        755 35.99                             150   -0.1310 78.5 301 
 BRR  HZ I         755 36.18        18.8 0.14                          78.5 301 
 BRR  HE ES   1    755 53.15                             150    0.28 7 78.5 301 
 PAM  SZ EP        755 37.18                             150    0.3010 79.4  34 
 PAM  SN ES   1    755 54.21                             150   -0.01 7 79.4  34 
 RUS  HZ EP        755 37.81                             145   -0.0410 94.2 179 
 RUS  HN ES   1    755 56.18                             145    0.23 7 94.2 179 
 OCA  SZ EP        755 43.54                             128    0.01 9  167 352 
                                                                                
