 2012 1218 0655 53.5 L   6.633 -73.229139.6  RSN  4 0.2 1.4LRSN                1
 GAP=177        0.48       5.6     3.7  7.4  0.2150E+01 -0.6611E+01  0.2279E+02E
 Epicentro: BARICHARA - SANTANDER                                              3
 ACTION:UPD 13-01-04 14:28 OP:ep   STATUS:               ID:20121218065553 L   I
 2012-12-18-0650-00M.COL___242                                                 6
 STAT SP IPHASW D HRMM SECON CODA AMPLIT PERI AZIMU VELO AIN AR TRES W  DIS CAZ7
 BAR2 SZ EP        656 12.41                             177    0.2410 6.80 131 
 BAR2 SZ I         656 27.97         4.8 0.30                          6.80 131 
 BRR  HZ EP        656 14.02                             150   -0.2010 74.9 315 
 BRR  HN ES        656 30.37                             150    0.0010 74.9 315 
 BRR  HN I         656 31.45         8.6 0.34                          74.9 315 
 RUS  HZ EP        656 15.31                             148   -0.1510 83.4 169 
 PTB  HZ EP        656 19.08                             133    0.15 9  136 266 
 PTB  HN ES        656 38.72                             133   -0.03 9  136 266 
 PTB  HN I         656 42.91         2.1 0.22                           136 266 
                                                                                
