 2017  318 0354 10.7 L   6.798 -73.194146.2  RSN  5 0.4 1.3LRSN                1
 GAP=131        0.76       4.2     5.2  5.8 -0.1794E+01  0.3259E+01  0.2707E+01E
 Epicentro: ZAPATOCA - SANTANDER                                               3
 ACTION:UPD 17-05-25 18:41 OP:jn   STATUS:               ID:20170318035410 L   I
 OLDACT:UP  17-03-18 15:42 OP:cog  STATUS:               ID:20170318034741     3
 OLDACT:REG 17-03-18 14:02 OP:cog  STATUS:               ID:20170318034741     3
 2017-03-18-0348-00M.COL___367                                                 6
 STAT SP IPHASW D HRMM SECON CODA AMPLIT PERI AZIMU VELO AIN AR TRES W  DIS CAZ7
 BAR2 EZ EP        354 30.43                             171    0.0310 22.8 177 
 BAR2 EZ ES        354 45.43                             171   -0.3210 22.8 177 
 BAR2 EZ I         354 47.01         8.5 0.14            170           22.8 177 
 BRR  HN ES        354 48.51                             154    0.4910 66.7 301 
 PAM  EZ EP        354 33.29                             150    0.0810 81.0  42 
 PAM  EE ES        354 50.54                             150   -0.2110 81.0  42 
 PAM  EZ I         354 52.50         3.0 0.60            153           81.0  42 
 RUS  HZ EP        354 34.65                             144    0.1110  101 173 
 RUS  HN ES        354 53.31                             144    0.1910  101 173 
 RUS  HZ I         354 54.50         1.8 0.22            146            101 173 
 PTB  HZ EP        354 36.96                             133   -0.30 9  143 259 
 PTB  HN ES   3    354 56.21                             133   -1.75 2  143 259 
 PTB  HZ I         355  3.59         2.2 0.44            132            143 259 
                                                                                
