 2012  318 0148 47.5 L   6.784 -73.195133.5  RSN  6 0.4 1.3LRSN                1
 GAP=131        0.84       5.4     4.7 10.0  0.2179E+01  0.7928E+01  0.6653E+01E
 ACTION:UP  12-03-31 23:20 OP:EP   STATUS:               ID:20120318014847 L   I
 2012-03-18-0146-39M.COL___171                                                 6
 STAT SP IPHASW D HRMM SECON CODA AMPLIT PERI AZIMU VELO SNR AR TRES W  DIS CAZ7
 BAR2 SZ EP   1    149  5.73                             170     0.1 7   21 176 
 BAR2 SZ I         149 22.86         4.4 0.17                            21 176 
 BRR  HZ EP   1    149  7.69                             152     0.5 7   67 302 
 BRR  HN ES   1    149 23.02                             152     0.6 7   67 302 
 BRR  HZ I         149 25.26         7.6 0.22                            67 302 
 PAM  SZ EP   1    149  8.55                             147    -0.2 7   82  42 
 PAM  SE ES   1    149 25.00                             147    -0.4 7   82  42 
 RUS  HZ EP   1    149 10.19                             141     0.2 7   99 173 
 RUS  HN ES   1    149 27.54                             141     0.0 7   99 173 
 RUS  HZ I         149 30.54         2.9 0.27                            99 173 
 PTB  HZ EP   1    149 12.99                             130     0.0 7  142 259 
 PTB  HN ES   1    149 32.22                             130    -0.6 7  142 259 
 PTB  HZ I         149 36.63         2.2 0.15                           142 259 
 ZAR  HN ES   1    149 42.97                             120    -0.1 6  200 293 
                                                                                
