 2017  818 0445 14.7 L   6.800 -73.161147.0  RSN  5 0.2 1.3LRSN                1
 GAP=135        0.66       2.9     5.1  4.7 -0.2720E+01  0.5999E+00  0.4113E+01E
 Epicentro: LOS SANTOS - SANTANDER                                             3
 ACTION:UPD 17-09-04 20:21 OP:rebc STATUS:               ID:20170818044514 L   I
 OLDACT:DUP 17-08-18 16:50 OP:lv   STATUS:               ID:20170818043742d    3
 2017-08-18-0438-00M.COL___407                                                 6
 STAT SP IPHASW D HRMM SECON CODA AMPLIT PERI AZIMU VELO AIN AR TRES W  DIS CAZ7
 BAR2 EZ EP        445 34.26                             171   -0.2010 23.1 186 
 BAR2 EZ ES        445 49.47                             171   -0.4210 23.1 186 
 BAR2 EZ I         445 51.84         4.8 0.15            170           23.1 186 
 BRR  HZ IP     C  445 35.98                             153    0.0910 69.7 299 
 BRR  HN ES        445 52.53                             153    0.1010 69.7 299 
 BRR  HZ I         445 56.21         7.2 0.29            152           69.7 299 
 PAM  EZ EP        445 37.35                             151    0.2510 78.4  40 
 PAM  EN ES        445 54.63                             151    0.0510 78.4  40 
 PAM  EZ I         445 56.41         3.4 0.48            154           78.4  40 
 RUS  HZ EP        445 38.40                             144   -0.1710  101 175 
 RUS  HE ES        445 57.50                             144    0.3010  101 175 
 RUS  HZ I         445 57.95         2.2 0.22            146            101 175 
 CHI  HZ EP        445 52.07                             117   -0.34 8  248 195 
 CHI  HN ES        446 22.15                             117    0.32 8  248 195 
 CHI  HZ I         446 25.07         1.4 0.26            119            248 195 
                                                                                
