 2013  618 1812 29.5 L   6.808 -73.150149.8  RSN  7 0.4 2.1LRSN                1
 GAP=201        0.91       4.0     5.5  5.9  0.2786E+01  0.6053E+01  0.1457E+01E
 Epicentro: LOS SANTOS - SANTANDER                                             3
 ACTION:UPD 14-01-08 09:55 OP:ep   STATUS:               ID:20130618181229 L   I
 OLDACT:REG 13-06-18 15:35 OP:cam  STATUS:               ID:20130618180959     3
 2013-06-18-1809-59M.COL___261                                                 6
 STAT SP IPHASW D HRMM SECON CODA AMPLIT PERI AZIMU VELO AIN AR TRES W  DIS CAZ7
 BAR2 SZ EP       1812 49.69                             171    0.0210 24.2 189 
 BAR2 SZ ES       1813  4.96                             171   -0.4110 24.2 189 
 BAR2 SZ I        1813  6.39        32.1 0.34            170           24.2 189 
 BRR  HZ EP       1812 51.46                             154    0.3810 70.4 298 
 BRR  HN IS   1   1813  8.47                             154    0.59 7 70.4 298 
 BRR  HN ES       1813  8.47                             154    0.5910 70.4 298 
 BRR  HZ I        1813  9.09        22.3 0.12            151           70.4 298 
 RUS  HZ EP   1   1812 53.61                             144   -0.14 7  102 176 
 RUS  HN ES       1813 12.62                             144   -0.0210  102 176 
 RUS  HZ I        1813 13.35         8.2 0.68            146            102 176 
 PTB  HZ EP   1   1812 56.53                             133   -0.28 7  148 258 
 PTB  HN ES       1813 17.36                             133   -0.73 9  148 258 
 PTB  HZ I        1813 24.64        12.5 0.44            132            148 258 
 NOR  HZ EP   1   1813  5.92                             119    0.40 6  235 234 
 NOR  HE ES       1813 33.61                             119    0.02 8  235 234 
 SML  HZ EP   1   1813  5.91                             118   -0.37 6  243 335 
 SML  HE ES   1   1813 34.37                             118   -0.57 6  243 335 
 SML  HZ I        1813 38.17        18.0 0.10            119            243 335 
 PRA  HZ EP   1   1813 23.83                             107    0.57 4  393 209 
 PRA  HN ES   1   1814  5.34                             107    0.17 4  393 209 
                                                                                
