 2013  518 1449  0.8 L   6.219 -73.511  1.4  RSN  4 0.2 1.3LRSN                1
 GAP=161        0.50       1.9     1.7  4.2  0.1223E+01 -0.5237E+00 -0.1971E+01E
 Epicentro: EL GUACAMAYO - SANTANDER                                           3
 ACTION:UPD 13-06-20 09:51 OP:ep   STATUS:               ID:20130518144900 L   I
 2013-05-18-1440-00M.COL___256                                                 6
 STAT SP IPHASW D HRMM SECON CODA AMPLIT PERI AZIMU VELO AIN AR TRES W  DIS CAZ7
 BAR2 SZ EP   1   1449  9.98                              47   -0.35 7 54.9  41 
 BAR2 SZ ES   1   1449 17.78                              47    0.02 7 54.9  41 
 BAR2 SZ I        1449 18.26        10.0 0.10             47           54.9  41 
 RUS  HZ EP       1449 11.54                              47    0.2510 59.5 127 
 RUS  HN ES   1   1449 19.29                              47   -0.18 7 59.5 127 
 RUS  HZ I        1449 20.62        13.5 0.40             47           59.5 127 
 BRR  HZ EP   1   1449 16.86                              47   -0.15 7  101 347 
 BRR  HN ES   1   1449 29.95                              47    0.29 7  101 347 
 PTB  HZ EP   1   1449 18.58                              47    0.07 7  110 289 
 PTB  HN ES   1   1449 32.18                              47   -0.15 7  110 289 
 PTB  HZ I        1449 33.32        13.3 0.14             47            110 289 
                                                                                
