 2017  418 1308 24.8 L   6.801 -73.114147.5  RSN 25 0.6 2.8LRSN                1
 GAP=115        1.10       3.0     3.4  4.8 -0.8388E+00  0.3130E+01  0.3788E+01E
 Epicentro: LOS SANTOS - SANTANDER                                             3
 ACTION:UPD 17-05-30 21:13 OP:jn   STATUS:               ID:20170418130824 L   I
 OLDACT:UP  17-04-19 01:00 OP:dani STATUS:               ID:20170418130636     3
 OLDACT:UP  17-04-19 00:55 OP:dani STATUS:               ID:20170418130636     3
 OLDACT:UP  17-04-19 00:55 OP:dani STATUS:               ID:20170418130636     3
 OLDACT:UP  17-04-19 00:54 OP:dani STATUS:               ID:20170418130636     3
 OLDACT:REG 17-04-18 21:51 OP:dani STATUS:               ID:20170418130636     3
 2017-04-18-1308-00M.COL___374                                                 6
 STAT SP IPHASW D HRMM SECON CODA AMPLIT PERI AZIMU VELO AIN AR TRES W  DIS CAZ7
 BAR2 EZ IP     D 13 8 44.63                             170   -0.0610 24.3 198 
 BAR2 EZ ES       13 9  0.21                             170    0.0310 24.3 198 
 BAR2 EZ I        13 9  1.35       166.1 0.28            167           24.3 198 
 BRR  HZ EP       13 8 46.63                             152    0.2910 74.3 297 
 BRR  HN ES       13 9  3.75                             152    0.6310 74.3 297 
 BRR  HZ I        13 9  8.84        71.9 0.12            151           74.3 297 
 PAM  EZ EP       13 8 47.43                             152    0.3310 75.1  38 
 PAM  EE ES       13 9  4.67                             152    0.2110 75.1  38 
 PAM  EZ I        13 9  6.79       115.9 0.50            157           75.1  38 
 RUS  HZ EP     D 13 8 48.47                             144   -0.2810  101 178 
 RUS  HE ES       13 9  6.93                             144   -0.4710  101 178 
 RUS  HZ I        13 9  8.43        45.3 0.48            144            101 178 
 PTB  HZ EP       13 8 51.27                             132   -0.98 9  151 259 
 PTB  HN ES       13 9 12.82                             132   -0.82 9  151 259 
 PTB  HZ I        13 9 20.04       102.0 0.40            131            151 259 
 SPBC HZ EP       13 8 53.59                             129   -0.09 9  165 220 
 SPBC HE ES       13 9 16.70                             129    0.52 9  165 220 
 YPLC HZ IP     D 13 8 54.83                             127    0.23 9  175 152 
 YPLC HN ES   4   13 9 20.27                             127    2.45 0  175 152 
 YPLC HZ I        13 9 26.28        37.4 0.28            129            175 152 
 ZAR  HZ EP       13 8 57.24                             122   -0.48 8  207 292 
 ZAR  HE ES       13 9 22.82                             122   -0.55 8  207 292 
 ZAR  HZ I        13 9 29.07        78.2 0.26            123            207 292 
 NOR  HZ EP       13 9  0.55                             119   -0.42 8  238 235 
 NOR  HE ES       13 9 28.94                             119   -0.22 8  238 235 
 NOR  HZ I        13 9 35.82        48.7 0.28            119            238 235 
 CHI  HZ EP       13 9  2.69                             117   -0.05 8  250 196 
 CHI  HN ES       13 9 31.71                             117   -0.59 8  250 196 
 CHI  HZ I        13 9 38.04        22.2 0.28            118            250 196 
 ROSC BZ EP       13 9  4.32                             117    1.07 8  255 212 
 ROSC BN ES       13 9 33.53                             117    0.31 8  255 212 
 ROSC BZ I        13 9 39.16        67.3 0.35            117            255 212 
 HEL  HZ EP   3   13 9  6.81                             115    1.30 2  276 256 
 HEL  HN ES       13 9 37.64                             115    0.40 7  276 256 
 HEL  HZ I        13 9 43.37        39.7 0.34            115            276 256 
 URE  HZ EP   4   13 9  8.83                             114    2.49 0  287 292 
 URE  HE ES   4   13 9 36.39                             114   -2.33 0  287 292 
 URE  HZ I        13 9 45.45        38.6 0.26            115            287 292 
 VIL  EZ EP       13 9  8.22                             112   -0.20 7  304 192 
 VIL  EE ES   1   13 9 43.20                             112    0.78 5  304 192 
 VIL  EZ I        13 9 53.08        36.8 0.64            113            304 192 
 LL1C HZ EP       13 9  9.15                             112    0.60 7  307 351 
 LL1C HN ES   3   13 9 44.83                             112    2.18 2  307 351 
 PTGC HZ EP     D 13 9  7.51                             112   -1.12 7  308 159 
 PTGC HN ES   4   13 9 40.09                             112   -2.71 0  308 159 
 RECRCHZ EP   4   13 9 13.48                             111    2.66 0  321 231 
 RECRCHE ES   4   13 9 50.08                             111    3.38 0  321 231 
 LL6C HN EP   9   13 8 50.56                             111   -20.1 0  325 357 
 LL6C HN ES       13 9 25.87                                   -0.40 7  325 357 
 ELA  HZ EP   3   13 9 13.59                             110    1.52 2  332 230 
 ELA  HN ES   4   13 9 51.90                             110    2.99 0  332 230 
 ELA  HZ I        13 9 56.48        31.9 0.40            111            332 230 
 CBOC HZ EP       13 9 12.38                             110    0.18 7  337 252 
 CBOC HN ES       13 9 49.50                             110    0.35 7  337 252 
 CBOC HZ I        13 9 56.97        11.9 0.52            111            337 252 
 DBB  EZ EP       13 9 12.27                             110   -0.51 7  343 274 
 DBB  EN ES   3   13 9 48.83                             110   -1.35 2  343 274 
 DBB  EZ I        13 9 51.43        14.8 0.38            110            343 274 
 ANIL HZ EP       13 9 15.95                             109    0.96 6  360 225 
 ANIL HN ES       13 9 54.83                             109    0.71 6  360 225 
 ANIL HZ I        1310  2.98        70.6 0.36            109            360 225 
 PRA  HZ EP       13 9 18.15                             107   -0.47 6  394 210 
 PRA  HE ES       1310  0.90                             107    0.32 6  394 210 
 PRA  HZ I        1310  6.50        39.3 0.36            108            394 210 
 ORTC HZ EP       13 9 19.03                             107   -0.03 6  398 217 
 ORTC HN ES       1310  2.28                             107    0.92 6  398 217 
 ORTC HZ I        1310  9.39        23.7 0.54            107            398 217 
 PAL  HZ EP       13 9 20.19                             106   -0.22 6  409 239 
 PAL  HE ES       1310  3.85                             106    0.09 6  409 239 
 PAL  HZ I        1310  9.27        10.0 0.15            107            409 239 
 SJC  HZ EP   3   13 9 18.40                             106   -2.26 1  411 327 
 SJC  HN ES   4   1310  0.14                             106   -4.07 0  411 327 
 SJC  HZ I        1310 12.60         9.4 0.32            107            411 327 
                                                                                
