 2017  718 1335 30.7 L   6.810 -73.174143.9  RSN 16 0.4 2.4LRSN                1
 GAP=109        0.98       3.4     3.3  5.0 -0.4090E+00  0.5132E+01  0.3454E+01E
 Epicentro: LOS SANTOS - SANTANDER                                             3
 ACTION:UPD 17-08-30 15:34 OP:rebc STATUS:               ID:20170718133530 L   I
 OLDACT:REG 17-07-18 20:27 OP:lv   STATUS:               ID:20170718132738     3
 2017-07-18-1328-00M.COL___383                                                 6
 STAT SP IPHASW D HRMM SECON CODA AMPLIT PERI AZIMU VELO AIN AR TRES W  DIS CAZ7
 BAR2 EZ EP       1335 50.09                             170   -0.0510 24.1 182 
 BAR2 EZ ES       1336  5.05                             170   -0.2510 24.1 182 
 BAR2 EZ I        1336  7.91        68.7 0.23            169           24.1 182 
 BRR  HZ EP       1335 51.97                             153    0.4910 67.9 299 
 BRR  HE ES       1336  7.82                             153    0.1410 67.9 299 
 BRR  HZ I        1336  9.79        44.3 0.08            152           67.9 299 
 PAM  EZ EP       1335 53.05                             150    0.2410 78.6  42 
 PAM  EN ES       1336  9.84                             150   -0.2010 78.6  42 
 RUS  HZ EP       1335 54.30                             143   -0.0910  102 174 
 RUS  HN ES       1336 12.77                             143   -0.0910  102 174 
 RUS  HZ I        1336 13.81        15.0 0.09            143            102 174 
 PTB  HZ EP       1335 57.09                             132   -0.18 9  145 258 
 PTB  HN ES       1336 17.80                             132   -0.19 9  145 258 
 SPBC HZ EP       1335 59.09                             129    0.12 9  162 218 
 SPBC HN ES       1336 21.87                             129    0.86 9  162 218 
 SPBC HZ I        1336 25.95        36.9 0.35            128            162 218 
 YPLC HZ IP     D 1336  0.53                             126   -0.10 9  179 151 
 YPLC HN ES   3   1336 23.24                             126   -0.72 2  179 151 
 YPLC HZ I        1336 27.27        15.6 0.30            127            179 151 
 ZAR  HZ EP       1336  1.76                             122   -0.93 9  201 292 
 ZAR  HN ES       1336 28.22                             122    0.58 9  201 292 
 ZAR  HZ I        1336 33.49        34.8 0.14            122            201 292 
 NOR  HZ EP       1336  6.17                             118    0.03 8  233 234 
 NOR  HN ES       1336 33.12                             118   -0.64 8  233 234 
 NOR  HZ I        1336 41.37        10.4 0.32            118            233 234 
 HEL  HZ EP   4   1336 12.54                             115    2.01 0  269 255 
 HEL  HE ES   4   1336 39.70                             115   -1.88 0  269 255 
 URE  HN ES   4   1336 41.80                             113   -1.19 0  280 292 
 GUY2CHZ EP       1336 15.12                             112    1.10 7  299 234 
 GUY2CHN ES       1336 47.39                             112   -0.41 7  299 234 
 GUY2CHZ I        1336 56.48        14.7 0.25                           299 234 
 PTGC HZ EP   4   1336 13.21                             111   -1.54 0  311 158 
 PTGC HN ES   4   1336 47.21                             111   -1.88 0  311 158 
 CBOC HZ EP   4   1336 18.51                             110    1.26 0  331 252 
 CBOC HN ES   4   1336 50.49                             110   -3.05 0  331 252 
 CBOC HZ I        1336 59.85         4.2 0.35            110            331 252 
 DBB  EZ EP       1336 17.41                             109   -0.33 7  336 274 
 DBB  EN ES       1336 54.10                             109   -0.32 7  336 274 
 DBB  EZ I        1336 54.92         7.7 0.12            109            336 274 
 ORTC HZ EP       1336 24.73                             106    0.26 6  395 216 
 ORTC HN ES       1337  6.23                             106   -0.16 6  395 216 
 ORTC HZ I        1337 11.58        11.2 0.18            106            395 216 
 PAL  HZ EP   4   1336 25.78                             106    0.21 0  404 239 
 PAL  HN ES   4   1337  6.52                             106   -1.83 0  404 239 
 PAL  HZ I        1337 12.34         4.4 0.15            106            404 239 
 SJC  HZ EP   4   1336 24.28                             105   -1.62 0  407 327 
 SJC  HN ES   4   1337  5.38                             105   -3.56 0  407 327 
 SJC  HZ I        1337 14.13         7.7 0.36            106            407 327 
 CRJC HZ EP   9   1336 30.39                             103   -2.66 0  467   4 
 CRJC HN ES       1337 18.95                                   -0.06 5  467   4 
 CRJC HZ I        1337 25.68        10.3 0.43            104            467   4 
                                                                                
