 2013  118 2358 45.0 L   6.786 -73.149143.7  RSN  8 0.3 2.5LRSN                1
 GAP= 99        0.79       3.2     2.6  5.6  0.1023E+01  0.1459E+01  0.4483E+01E
 Epicentro: LOS SANTOS - SANTANDER                                             3
 ACTION:UPD 13-02-15 09:15 OP:ep   STATUS:               ID:20130118235845 L   I
 2013-01-18-2356-49M.COL___181                                                 6
 STAT SP IPHASW D HRMM SECON CODA AMPLIT PERI AZIMU VELO AIN AR TRES W  DIS CAZ7
 BAR2 SZ EP       2359  4.35                             171    0.0210 21.7 190 
 BAR2 SZ I        2359 21.58        61.6 0.26            170           21.7 190 
 BRR  HZ IP     C 2359  6.14                             152    0.2110 71.7 300 
 BRR  HN ES       2359 22.84                             152    0.5610 71.7 300 
 BRR  HN I        2359 23.43       119.5 0.28            151           71.7 300 
 PAM  SZ EP       2359  7.19                             150    0.1310 78.8  39 
 PAM  SN ES       2359 23.95                             150   -0.3410 78.8  39 
 PAM  SN I        2359 25.15        71.2 0.46            151           78.8  39 
 RUS  HZ EP       2359  8.36                             144   -0.0610 99.0 176 
 RUS  HN ES       2359 26.84                             144    0.1410 99.0 176 
 RUS  HN I        2359 28.53        36.9 0.36            143           99.0 176 
 PTB  HZ EP       2359 11.16                             132   -0.56 9  147 259 
 PTB  HN ES       2359 32.09                             132   -0.49 9  147 259 
 PTB  HN I        2359 37.26        47.0 0.28            130            147 259 
 TAM  HZ EP     D 2359 12.78                             130    0.29 9  155 104 
 TAM  HN ES       2359 33.62                             130   -0.32 9  155 104 
 TAM  HN I        2359 35.13        19.0 0.34            130            155 104 
 ZAR  HZ EP   1   2359 17.33                             122    0.01 6  204 293 
 ZAR  HN ES       2359 42.61                             122    0.06 9  204 293 
 ZAR  HN I        2359 48.38        24.5 0.14            121            204 293 
 CHI  HZ EP       2359 22.73                             117    0.34 8  247 195 
 CHI  HN ES       2359 51.59                             117    0.02 8  247 195 
 CHI  HN I        2359 54.63        19.2 0.30            116            247 195 
                                                                                
