 2016 1118 2303 19.2 L   6.109 -73.775101.6  RSN  5 0.4 1.4LRSN                1
 GAP=193        0.93       5.0     3.4  8.3 -0.7881E+01  0.1032E+00  0.5636E+00E
 Epicentro: EL PENON - SANTANDER                                               3
 ACTION:UPD 17-10-26 21:09 OP:lp   STATUS:               ID:20161118230319 L   I
 OLDACT:REG 16-11-19 04:31 OP:lv   STATUS:               ID:20161118225746     3
 2016-11-18-2258-00M.COL___343                                                 6
 STAT SP IPHASW D HRMM SECON CODA AMPLIT PERI AZIMU VELO AIN AR TRES W  DIS CAZ7
 BAR2 EZ EP       23 3 37.38                             137    0.2210 84.5  51 
 BAR2 EZ ES       23 3 51.65                             137    0.4510 84.5  51 
 BAR2 EZ I        23 3 53.25        19.7 0.31            137           84.5  51 
 PTB  HZ EP       23 3 36.73                             135   -0.5210 89.2 302 
 PTB  HN ES       23 3 51.03                             135   -0.3210 89.2 302 
 PTB  HZ I        23 3 53.84         3.6 0.16            134           89.2 302 
 NOR  HZ EP       23 3 41.86                             122    0.14 9  135 244 
 NOR  HN ES       23 3 59.29                             122   -0.02 9  135 244 
 NOR  HZ I        23 4  1.27         7.2 0.18            124            135 244 
 PAM  EZ EP       23 3 46.99                             114   -0.17 9  181  41 
 PAM  EN ES       23 4  8.43                             114   -0.56 9  181  41 
 PAM  EZ I        23 4 13.72         2.2 0.19            115            181  41 
 ZAR  HZ EP       23 3 48.58                             112    0.51 9  194 322 
 ZAR  HE ES       23 4 10.95                             112    0.33 9  194 322 
 ZAR  HZ I        23 4 16.18         2.6 0.11            112            194 322 
                                                                                
