 2016 1019 0523 54.0 L   6.777 -73.149151.9  RSN  8 0.4 1.4LRSN                1
 GAP=137        0.78       3.2     5.4  5.6 -0.2688E+01  0.3384E+01 -0.9292E+00E
 Epicentro: LOS SANTOS - SANTANDER                                             3
 ACTION:UPD 16-11-09 19:20 OP:rebc STATUS:               ID:20161019052354 L   I
 OLDACT:UP  16-10-19 17:55 OP:and  STATUS:               ID:20161019051734     3
 OLDACT:UP  16-10-19 17:53 OP:and  STATUS:               ID:20161019051734     3
 OLDACT:REG 16-10-19 12:52 OP:y    STATUS:               ID:20161019051734     3
 2016-10-19-0518-00M.COL___326                                                 6
 STAT SP IPHASW D HRMM SECON CODA AMPLIT PERI AZIMU VELO AIN AR TRES W  DIS CAZ7
 BAR2 EZ EP        524 13.96                             172   -0.3210 20.7 190 
 BAR2 EZ ES        524 29.93                             172   -0.2010 20.7 190 
 BAR2 EZ I         524 30.54         6.4 0.18            171           20.7 190 
 BRR  HZ EP        524 15.82                             153   -0.0010 72.1 300 
 BRR  HN ES        524 33.26                             153    0.3810 72.1 300 
 PAM  EZ EP        524 16.75                             151   -0.2110 79.6  39 
 RUS  HZ EP   2    524 18.63                             146    0.49 5 98.1 176 
 RUS  HN ES        524 37.09                             146    0.0810 98.1 176 
 RUS  HZ I         524 37.17         2.5 0.20            146           98.1 176 
 PTB  HZ EP        524 20.82                             134   -0.54 9  147 260 
 PTB  HN ES   2    524 42.00                             134   -0.73 5  147 260 
 PTB  HZ I         524 44.42         1.8 0.11            133            147 260 
 SPBC HZ EP        524 23.03                             131    0.30 9  161 219 
 SPBC HE ES        524 45.34                             131    0.17 9  161 219 
 SPBC HZ I         524 46.33         4.1 0.13            131            161 219 
 OCA  HN ES        524 45.93                             131    0.31 9  163 353 
 NOR  HZ EP   2    524 30.64                             120    0.78 4  233 235 
                                                                                
