 2010  519 0139 11.8 L   6.771 -73.169144.3  RSN 19 0.6 3.8LRSN                1
 GAP=163        1.13       4.2     7.1  8.3 -0.1376E+02  0.1259E+02  0.9891E+01E
 Epicentro: LOS SANTOS - SANTANDER                                             3
 ACTION:UP  10-08-24 10:05 OP:vdl  STATUS:               ID:20100519013911 L   I
 2010-05-19-0137-27S.COL___108                                                 6
 STAT SP IPHASW D HRMM SECON CODA AMPLIT PERI AZIMU VELO SNR AR TRES W  DIS CAZ7
 BAR2 SZ IP        139 31.06                             172    -0.110   20 185 
 BAR2 SZ ES   1    139 45.71                             172    -0.6 7   20 185 
 BRR  HZ IP     C  139 33.69                             153     0.910   71 302 
 BRR  HZ I         139 34.12      2330.1 0.10                            71 302 
 BRR  HE ES   2    139 50.09                             153     1.0 5   71 302 
 BRI  SZ IP        139 36.57                             140     0.710  112  21 
 BRI  SZ ES   2    139 54.60                             140     0.0 5  112  21 
 GUE  SZ EP        139 36.84                             138     0.110  120  13 
 GRA  SZ IP        139 36.84                             136    -0.410  130  18 
 GRA  SZ ES   1    139 56.37                             136    -0.7 7  130  18 
 OCA  SZ EP   1    139 39.35                             129    -0.9 7  163 354 
 OCA  SZ ES        140  2.35                             129    -0.1 9  163 354 
 OCA  SZ I         140  6.15       775.7 0.27                           163 354 
 CHI  HZ EP        139 48.64                             117    -0.4 8  245 195 
 CHI  HE ES   2    140 17.45                             117    -0.6 4  245 195 
 CHI  HZ I         140 26.43       298.5 0.45                           245 195 
 ROSC BZ IP        139 50.42                             117     1.0 8  249 211 
 ROSC BN ES   2    140 18.36                             117    -0.4 4  249 211 
 ROSC BZ I         140 28.94       523.5 0.33                           249 211 
 CVER SZ EP   1    139 52.21                             115     0.5 6  268 202 
 CVER SZ ES   2    140 23.31                             115     0.6 4  268 202 
 HEL  HZ EP   2    139 52.00                             115     0.4 4  269 256 
 HEL  HN ES   2    140 22.30                             115    -0.3 4  269 256 
 HEL  HZ I         140 30.22       296.5 0.31                           269 256 
 RREF BZ EP   1    139 56.77                             111    -0.7 5  318 230 
 RREF BN ES   2    140 32.20                             111    -0.8 3  318 230 
 RREF BZ I         140 43.02       499.6 0.72                           318 230 
 DBB  SZ EP        139 58.75                             109    -0.2 7  337 275 
 DBB  SZ ES   1    140 35.33                             109    -0.4 5  337 275 
 ANIL BZ EP   1    140  1.47                             108     0.4 5  353 225 
 ANIL BE ES   2    140 39.22                             108    -0.3 3  353 225 
 ANIL BZ I         140 51.16       740.4 0.54                           353 225 
 PRA  HZ EP   1    140  3.95                             106    -0.9 4  388 209 
 PRA  HN ES   1    140 46.32                             106     0.2 4  388 209 
 PRA  HZ I         140 52.99       244.4 0.28                           388 209 
 MARA HZ EP   1    140 21.64                             101    -0.7 3  533 216 
 MARA HN ES   2    141 16.91                             101    -0.4 2  533 216 
 MARA HZ I         141 41.08        29.8 0.31                           533 216 
 POP2 HZ EP   1    140 31.42                              99     0.1 2  608 220 
 POP2 HZ I         140 34.42        19.0 0.23                           608 220 
 PCON HZ EP   1    140 31.26                              99    -0.4 2  608 216 
 PCON HZ I         142  3.42        20.4 0.50                           608 216 
 SOTA HZ EP   2    140 35.60                              99     0.3 1  639 217 
 CRU  SZ EP   2    140 44.34                              97     0.3 1  712 216 
                                                                                
