 2015  319 0352 58.8 L   6.855 -73.155147.8  RSN  7 0.5 1.6LRSN                1
 GAP=133        1.24       5.1     5.5  9.6  0.1321E+01  0.1139E+02  0.4794E+01E
 Epicentro: LOS SANTOS - SANTANDER                                             3
 ACTION:UPD 15-04-30 16:27 OP:nd   STATUS:               ID:20150319035258 L   I
 OLDACT:DUP 15-03-19 15:54 OP:stll STATUS:               ID:20150319034742d    3
 OLDACT:REG 15-03-19 12:49 OP:stll STATUS:               ID:20150319034741     3
 2015-03-19-0347-41M.COL___278                                                 6
 STAT SP IPHASW D HRMM SECON CODA AMPLIT PERI AZIMU VELO AIN AR TRES W  DIS CAZ7
 BAR2 EZ EP        353 18.81                             168    0.0410 29.2 186 
 BAR2 EZ I         353 19.18         5.3 0.26            172           29.2 186 
 BRR  HZ EP        353 20.28                             154    0.3510 67.6 294 
 BRR  HN ES        353 37.16                             154    0.7110 67.6 294 
 BRR  HZ I         353 40.79         5.7 0.12            152           67.6 294 
 PAM  SZ EP        353 21.33                             152    0.3610 73.5  43 
 PAM  SN ES        353 38.31                             152    0.0210 73.5  43 
 PAM  SZ I         353 40.35        10.4 0.46            152           73.5  43 
 RUS  HZ EP        353 23.34                             143    0.1810  107 176 
 RUS  HZ I         353 23.81         2.1 0.10            148            107 176 
 RUS  HN ES        353 41.87                             143   -0.3210  107 176 
 PTB  HZ EP        353 25.45                             132   -0.47 9  148 256 
 PTB  HN ES        353 46.45                             132   -0.66 9  148 256 
 PTB  HZ I         353 49.23         4.8 0.30            133            148 256 
 OCA  HN ES        353 47.42                             131   -1.00 9  154 353 
 OCA  HZ I         353 55.96        11.0 0.50            131            154 353 
 ZAR  HZ EP        353 31.13                             123    0.12 9  201 291 
 ZAR  HN ES        353 56.71                             123    0.54 9  201 291 
 ZAR  HZ I         354  2.65         6.3 0.52            124            201 291 
                                                                                
