 2017  319 0636 34.5 L   7.063 -73.606138.9  RSN  7 0.4 1.4LRSN                1
 GAP=140        0.96       5.1     4.5  8.8  0.2475E+01  0.7792E+01  0.1647E+02E
 Epicentro: BARRANCABERMEJA - SANTANDER                                        3
 ACTION:UPD 17-05-25 18:42 OP:jn   STATUS:               ID:20170319063635 L   I
 OLDACT:UP  17-04-27 20:56 OP:nlst STATUS:               ID:20170319063635 L   3
 OLDACT:UP  17-03-19 16:35 OP:cog  STATUS:               ID:20170319062748d    3
 OLDACT:UP  17-03-19 16:34 OP:cog  STATUS:               ID:20170319062748d    3
 OLDACT:DUP 17-03-19 16:25 OP:cara STATUS:               ID:20170319062748d    3
 OLDACT:REG 17-03-19 13:16 OP:cara STATUS:               ID:20170319062747     3
 2017-03-19-0628-00M.COL___400                                                 6
 STAT SP IPHASW D HRMM SECON CODA AMPLIT PERI AZIMU VELO AIN AR TRES W  DIS CAZ7
 BRR  HZ EP        636 52.94                             174    0.1610 12.7 293 
 BRR  HZ I         637  7.59         6.6 0.35            170           12.7 293 
 BAR2 EZ EP        636 55.88                             152    0.6810 70.0 138 
 BAR2 EZ ES        637 11.41                             152    0.0810 70.0 138 
 BAR2 EZ I         637 11.99         7.2 0.20            155           70.0 138 
 PAM  EZ EP   1    636 58.08                             141    0.18 7  105  73 
 PAM  EE ES        637 15.90                             141   -0.2410  105  73 
 PAM  EZ I         637 17.88         7.3 0.54            142            105  73 
 RUS  HZ EP        637  0.21                             132   -0.81 9  142 156 
 RUS  HN ES   4    637 19.12                             132   -2.57 0  142 156 
 RUS  HZ I         637 23.90         1.2 0.21            134            142 156 
 ZAR  HN ES        637 21.06                             131   -0.20 9  146 289 
 CHI  HZ EP        637 14.40                             114    0.25 8  269 183 
 CHI  HE ES        637 44.99                             114   -0.07 8  269 183 
 CHI  HZ I         637 46.70         2.6 0.66            114            269 183 
 GUY2CHZ EP   9    637 18.78                             113    3.20 0  282 224 
 GUY2CHZ  IAML     637 47.22         1.7 0.24                           282 224 
 GUY2CHE ES        637 51.09                             113    0.28 7  282 224 
                                                                                
