 2011  919 0908 36.0 L   6.761 -73.138147.8  RSN  7 0.3 2.4LRSN                1
 GAP=139        0.51       3.1     3.2  4.9 -0.4045E-01  0.3545E+01  0.3712E+01E
 Epicentro: LOS SANTOS - SANTANDER                                             3
 ACTION:UPD 12-07-13 15:58 OP:ep   STATUS:               ID:20110919090836 L   I
 2011-09-19-0905-11S.COL___169                                                 6
 STAT SP IPHASW D HRMM SECON CODA AMPLIT PERI AZIMU VELO AIN AR TRES W  DIS CAZ7
 BTL  SZ EP        9 8 55.99                             171    0.1110 22.6 320 
 GIR2 SZ EP        9 8 55.92                             166   -0.1410 35.7 350 
 GIR2 SZ ES   2    9 9 11.42                             166   -0.27 5 35.7 350 
 BRR  HN EP        9 8 57.70                             152    0.1510 74.1 301 
 BRR  HE ES   1    9 9 14.86                             152    0.51 7 74.1 301 
 PAM  SZ EP        9 8 58.71                             150    0.0910 80.2  37 
 PAM  SN ES   1    9 9 15.91                             150   -0.34 7 80.2  37 
 RUS  HZ EP        9 8 59.75                             145    0.0910 96.2 176 
 RUS  HE ES   1    9 9 17.96                             145   -0.15 7 96.2 176 
 ZAR  HZ EP   3    9 9  8.19                             122   -0.66 2  207 293 
 ZAR  HE ES   1    9 9 34.05                             122   -0.41 6  207 293 
 ZAR  HZ I         9 9 39.97        23.6 0.34                           207 293 
 NOR  SZ EP        9 9 11.65                             119   -0.03 8  233 235 
 NOR  SN ES   2    9 9 39.30                             119   -0.19 4  233 235 
                                                                                
