 2012 1019 0635 58.1 L   6.778 -73.136138.7  RSN 10 0.4 2.3LRSN                1
 GAP= 72        0.74       4.0     3.0  5.3  0.2933E+00  0.3389E+01  0.2611E+01E
 Epicentro: LOS SANTOS - SANTANDER                                             3
 ACTION:UPD 12-11-22 17:04 OP:ep   STATUS:               ID:20121019063558 L   I
 2012-10-19-0630-00M.COL___231                                                 6
 STAT SP IPHASW D HRMM SECON CODA AMPLIT PERI AZIMU VELO AIN AR TRES W  DIS CAZ7
 BAR2 SZ EP   1    636 16.76                             171   -0.11 7 21.1 194 
 BAR2 SZ ES   1    636 31.36                             171   -0.13 7 21.1 194 
 BAR2 SZ I         636 32.59        62.4 0.16                          21.1 194 
 GIR2 SZ EP   1    636 16.93                             165   -0.12 7 33.9 349 
 GIR2 SZ ES   1    636 31.06                             165   -0.74 7 33.9 349 
 BRR  HZ EP   1    636 18.69                             150    0.04 7 73.3 300 
 BRR  HZ I         636 19.17        37.2 0.10                          73.3 300 
 BRR  HN ES   1    636 35.42                             150    0.77 7 73.3 300 
 PAM  SZ EP        636 19.80                             149    0.1210 78.7  38 
 PAM  SE ES   1    636 36.63                             149    0.14 7 78.7  38 
 PAM  SE I         636 38.76        72.4 0.40                          78.7  38 
 RUS  HZ EP   1    636 20.78                             143   -0.23 7 98.0 177 
 RUS  HN ES   1    636 38.96                             143    0.11 7 98.0 177 
 RUS  HN I         636 40.70        24.8 0.34                          98.0 177 
 TAM  HZ EP   1    636 25.11                             129    0.00 7  153 104 
 TAM  HZ I         636 25.27        35.3 0.20                           153 104 
 TAM  HN ES   1    636 46.32                             129    0.17 7  153 104 
 TAM  HN I         636 47.02        35.2 0.40                           153 104 
 ZAR  HZ EP   1    636 29.76                             120   -0.57 6  206 293 
 ZAR  HN ES   1    636 55.58                             120    0.14 6  206 293 
 NOR  HE ES   1    637  1.18                             117    0.28 6  234 235 
 NOR  HN I         637  6.10        30.2 0.16                           234 235 
 HEL  HZ EP   1    636 38.74                             113    0.70 6  272 256 
 HEL  HN ES   1    637  8.52                             113   -0.65 6  272 256 
 HEL  HZ I         637 11.13         5.1 0.23                           272 256 
 HEL  HN I         637 14.69        11.4 0.36                           272 256 
 MON  HZ EP   9    636 44.70                             107   -2.44 0  356 309 
 MON  HN ES   9    637 22.95                                    0.02 0  356 309 
 MON  HN I         637 26.35         7.9 0.26                           356 309 
                                                                                
