 2013  819 0209 48.9 L   6.779 -73.133150.2  RSN  4 0.3 1.3LRSN                1
 GAP=139        0.78       4.3     4.2  6.8 -0.2071E+01  0.2493E+01  0.3783E+01E
 Epicentro: LOS SANTOS - SANTANDER                                             3
 ACTION:UPD 14-01-14 09:04 OP:ep   STATUS:               ID:20130819020948 L   I
 OLDACT:UP  13-08-19 11:14 OP:cam  STATUS:               ID:20130819020844     3
 OLDACT:REG 13-08-19 11:09 OP:cam  STATUS:               ID:20130819020844     3
 2013-08-19-0208-44M.COL___210                                                 6
 STAT SP IPHASW D HRMM SECON CODA AMPLIT PERI AZIMU VELO AIN AR TRES W  DIS CAZ7
 BRR  HZ EP        210 10.84                             152    0.1410 73.5 300 
 BRR  HN ES        210 28.16                             152    0.4910 73.5 300 
 BRR  HZ I         210 32.34         4.6 0.26            151           73.5 300 
 PAM  SZ EP        210 11.80                             151    0.1210 78.3  38 
 PAM  SE ES        210 29.01                             151   -0.4110 78.3  38 
 RUS  HZ EP        210 13.12                             145    0.1510 98.2 177 
 RUS  HE ES        210 31.73                             145    0.0310 98.2 177 
 RUS  HZ I         210 32.51         1.4 0.38            148           98.2 177 
 PTB  HZ EP        210 16.16                             133   -0.20 9  149 260 
 PTB  HN ES        210 37.33                             133   -0.41 9  149 260 
 PTB  HZ I         210 42.50         3.5 0.18            133            149 260 
                                                                                
