 2015 1119 1535 14.5 L   6.799 -73.136143.9  RSN 11 0.4 2.1LRSN                1
 GAP=138        0.87       2.8     3.6  5.0 -0.7957E+00  0.7490E+01  0.6821E+00E
 Epicentro: LOS SANTOS - SANTANDER                                             3
 ACTION:UPD 15-12-28 16:12 OP:cam  STATUS:               ID:20151119153514 L   I
 OLDACT:REG 15-11-19 20:40 OP:dnl  STATUS:               ID:20151119152743     3
 2015-11-19-1527-43M.COL___316                                                 6
 STAT SP IPHASW D HRMM SECON CODA AMPLIT PERI AZIMU VELO AIN AR TRES W  DIS CAZ7
 BAR2 EZ EP       1535 33.75                             170   -0.1710 23.4 193 
 BAR2 EZ ES       1535 48.78                             170   -0.2810 23.4 193 
 BAR2 EZ I        1535 49.76        36.1 0.16            171           23.4 193 
 BRR  HZ EP     C 1535 35.56                             152    0.0510 72.2 298 
 BRR  HN ES       1535 52.57                             152    0.6710 72.2 298 
 BRR  HZ I        1535 53.74        24.5 0.14            150           72.2 298 
 PAM  EZ EP     D 1535 36.61                             151    0.1210 76.8  39 
 PAM  EN ES       1535 53.63                             151   -0.0110 76.8  39 
 PAM  EZ I        1535 56.30        15.9 0.60            152           76.8  39 
 RUS  HZ EP       1535 38.12                             144    0.0610  100 177 
 RUS  HE ES       1535 56.38                             144   -0.0610  100 177 
 RUS  HZ I        1535 57.27         9.3 0.20            146            100 177 
 SPBC HZ EP       1535 42.82                             129   -0.10 9  164 219 
 SPBC HN ES       1536  4.99                             129   -0.09 9  164 219 
 SPBC HZ I        1536  8.27        15.7 0.20            130            164 219 
 ZAR  HZ EP       1535 47.57                             122    0.63 9  205 292 
 ZAR  HE ES       1536 12.67                             122    0.44 9  205 292 
 ZAR  HZ I        1536 14.82        13.3 0.24            122            205 292 
 NOR  HZ EP   2   1535 50.15                             118   -0.06 4  235 235 
 NOR  HN ES       1536 17.82                             118   -0.24 8  235 235 
 NOR  HZ I        1536 22.86        10.9 0.15            119            235 235 
 SML  HZ EP   2   1535 50.46                             117   -0.63 4  244 335 
 SML  HE ES   1   1536 18.63                             117   -0.99 6  244 335 
 SML  HZ I        1536 26.60        13.3 0.22            117            244 335 
 URE  HZ EP       1535 55.09                             113   -0.51 7  285 292 
 URE  HN ES   1   1536 26.63                             113   -1.02 6  285 292 
 URE  HZ I        1536 29.19         7.5 0.14            114            285 292 
 GUY2CHZ EP   2   1535 59.44                             112    1.32 4  302 235 
 GUY2CHN ES       1536 32.13                             112   -0.00 7  302 235 
 GUY2CHZ I        1536 40.29         6.2 0.60                           302 235 
 PRA  HZ EP       1536  8.20                             106    0.19 6  392 210 
 PRA  HE ES       1536 49.65                             106   -0.09 6  392 210 
                                                                                
