 2017 1019 1923 35.8 L   6.821 -73.174146.4  RSN 10 0.4 1.7LRSN                1
 GAP=132        0.95       3.6     3.7  5.8 -0.9120E+00  0.5468E+01  0.7344E+01E
 Epicentro: ZAPATOCA - SANTANDER                                               3
 ACTION:UPD 17-11-07 19:33 OP:rebc STATUS:               ID:20171019192335 L   I
 OLDACT:DUP 17-10-20 00:36 OP:lv   STATUS:               ID:20171019190808d    3
 OLDACT:REG 17-10-19 20:32 OP:edw  STATUS:               ID:20171019190807     3
 2017-10-19-1918-00M.COL___459                                                 6
 STAT SP IPHASW D HRMM SECON CODA AMPLIT PERI AZIMU VELO AIN AR TRES W  DIS CAZ7
 BAR2 EZ EP       1923 55.35                             170   -0.1810 25.3 182 
 BAR2 EZ ES       1924 10.29                             170   -0.6410 25.3 182 
 BAR2 EZ I        1924 13.10        17.1 0.28            168           25.3 182 
 BRR  HZ EP       1923 56.80                             154    0.0210 67.3 298 
 BRR  HN ES       1924 13.81                             154    0.6510 67.3 298 
 PAM  EZ EP       1923 58.31                             151    0.2310 77.7  42 
 PAM  EN ES       1924 15.50                             151    0.0210 77.7  42 
 PAM  EZ I        1924 18.20         6.9 0.56            155           77.7  42 
 RUS  HZ EP       1923 59.50                             143   -0.2810  103 174 
 RUS  HN ES       1924 18.91                             143    0.4110  103 174 
 RUS  HZ I        1924 19.98         5.3 0.42            144            103 174 
 PTB  HZ EP       1924  2.03                             133   -0.53 9  145 258 
 PTB  HE ES       1924 23.43                             133   -0.02 9  145 258 
 PTB  HZ I        1924 30.29         5.6 0.34            134            145 258 
 ZAR  HN ES       1924 32.51                             123   -0.40 9  200 292 
 NOR  HZ EP       1924 12.05                             119    0.63 8  233 234 
 NOR  HN ES       1924 39.69                             119    0.48 8  233 234 
 NOR  HZ I        1924 41.70         3.9 0.30            120            233 234 
 CHI  HZ EP       1924 14.01                             117    0.34 8  250 194 
 CHI  HN ES       1924 42.86                             117   -0.36 8  250 194 
 CHI  HZ I        1924 49.11         2.2 0.32            118            250 194 
 GUY2CHZ EP   4   1924 20.59                             112    1.31 0  300 234 
 GUY2CHN ES       1924 52.85                             112   -0.36 7  300 234 
 GUY2CHZ I        1925  0.55         3.7 0.50                           300 234 
 PRA  HZ EP       1924 29.23                             107   -0.15 6  392 209 
 PRA  HN ES       1925 11.40                             107    0.22 6  392 209 
 PRA  HZ I        1925 17.85         2.2 0.62            108            392 209 
                                                                                
