 2012 1219 1012 38.0 L   6.807 -73.072150.7  RSN 11 0.4 2.0LRSN                1
 GAP=146        0.82       3.0     5.6  5.5  0.1258E+01  0.9639E+01  0.1933E+01E
 Epicentro: LOS SANTOS - SANTANDER                                             3
 ACTION:UPD 13-01-04 14:29 OP:ep   STATUS:               ID:20121219101238 L   I
 2012-12-19-1010-00M.COL___243                                                 6
 STAT SP IPHASW D HRMM SECON CODA AMPLIT PERI AZIMU VELO AIN AR TRES W  DIS CAZ7
 BAR2 SZ EP   1   1012 58.39                             169    0.13 7 26.7 207 
 BAR2 SZ ES   1   1013 13.56                             169   -0.53 7 26.7 207 
 BAR2 SZ I        1013 16.14        32.0 0.44                          26.7 207 
 GIR2 SZ EP   1   1012 58.02                             167   -0.25 7 32.9 336 
 GIR2 SZ ES   1   1013 13.88                             167   -0.22 7 32.9 336 
 GIR2 SZ I        1013 15.96        14.9 0.18                          32.9 336 
 PAM  SZ EP   1   1013  1.17                             153    0.78 7 71.8  35 
 PAM  SN ES   1   1013 17.96                             153    0.08 7 71.8  35 
 PAM  SZ I        1013 20.61        21.2 0.56                          71.8  35 
 BRR  HZ EP   1   1013  0.23                             151    0.19 7 78.2 295 
 BRR  HN ES   1   1013 17.66                             151    0.40 7 78.2 295 
 BRR  HZ I        1013 21.34        14.2 0.14                          78.2 295 
 RUS  HZ EP   1   1013  2.28                             145    0.04 7  101 181 
 RUS  HN ES   1   1013 21.49                             145    0.31 7  101 181 
 RUS  HZ I        1013 22.92         4.3 0.28                           101 181 
 PTB  HZ EP   1   1013  5.28                             131   -0.80 7  156 259 
 PTB  HZ I        1013 32.11        16.9 0.34                           156 259 
 OCA  HZ EP   1   1013  6.45                             131   -0.25 7  161 350 
 OCA  HN ES   1   1013 28.46                             131   -0.65 7  161 350 
 OCA  HZ I        1013 35.38         8.4 0.30                           161 350 
 ZAR  HZ EP   1   1013 11.04                             122   -0.45 6  211 291 
 ZAR  HN ES   1   1013 38.43                             122    0.80 6  211 291 
 ZAR  HZ I        1013 47.21         9.4 0.28                           211 291 
 SML  HZ EP   1   1013 14.99                             118   -0.19 6  247 333 
 SML  HN ES   1   1013 44.56                             118    0.36 6  247 333 
 CHI  HZ EP   1   1013 16.61                             118    0.34 6  252 197 
 CHI  HN ES   1   1013 46.09                             118   -0.05 6  252 197 
 CHI  HZ I        1013 55.40         4.2 0.34                           252 197 
 PRA  HZ EP   1   1013 32.82                             107    0.60 4  397 211 
 PRA  HN ES   1   1014 13.84                             107   -0.70 4  397 211 
 PRA  HZ I        1014 17.87         4.4 0.50                           397 211 
                                                                                
