 2014  119 1040 52.2 L   6.825 -73.145145.3  RSN  7 0.4 1.6LRSN                1
 GAP=183        1.05       4.0     5.5  8.5  0.3867E+01  0.1227E+02  0.5268E+01E
 Epicentro: LOS SANTOS - SANTANDER                                             3
 ACTION:UPD 14-03-13 09:56 OP:ep   STATUS:               ID:20140119104052 L   I
 OLDACT:UP  14-01-19 16:00 OP:carl STATUS:               ID:20140119104000     3
 OLDACT:REG 14-01-19 15:41 OP:carl STATUS:               ID:20140119104000     3
 2014-01-19-1040-00M.COL___285                                                 6
 STAT SP IPHASW D HRMM SECON CODA AMPLIT PERI AZIMU VELO AIN AR TRES W  DIS CAZ7
 BAR2 SZ EP       1041 12.14                             169    0.3110 26.0 189 
 BAR2 SZ ES       1041 27.38                             169    0.2410 26.0 189 
 BAR2 SZ I        1041 27.97        24.2 0.12            167           26.0 189 
 RUS  HZ EP       1041 15.95                             143   -0.1510  103 176 
 RUS  HN ES       1041 34.73                             143   -0.0210  103 176 
 RUS  HZ I        1041 35.57         3.7 0.22            143            103 176 
 PTB  HZ EP       1041 18.72                             132   -0.47 9  148 258 
 PTB  HN ES       1041 39.68                             132   -0.56 9  148 258 
 PTB  HZ I        1041 45.41         5.5 0.20            129            148 258 
 OCA  HN ES       1041 41.64                             130   -0.44 9  158 353 
 OCA  HZ I        1041 45.40         3.5 0.28            130            158 353 
 ZAR  HZ EP   4   1041 26.48                             122    1.96 0  203 291 
 ZAR  HN ES       1041 50.73                             122    1.00 9  203 291 
 ZAR  HZ I        1041 56.44         5.1 0.26            120            203 291 
 NOR  HN ES       1041 55.83                             118   -0.24 8  236 234 
 NOR  HZ I        1042  2.39         3.8 0.20            117            236 234 
 CHI  HZ EP       1041 30.60                             117    0.44 8  251 195 
 CHI  HN ES       1041 59.83                             117    0.06 8  251 195 
 CHI  HZ I        1042  6.72         1.4 0.50            116            251 195 
                                                                                
