 2015  419 2217 12.4 L   6.804 -73.150149.5  RSN 11 0.3 2.0LRSN                1
 GAP=136        0.80       2.3     3.3  5.0 -0.1523E+01  0.3307E+01 -0.6665E+00E
 Epicentro: LOS SANTOS - SANTANDER                                             3
 ACTION:UPD 15-06-03 16:56 OP:cam  STATUS:               ID:20150419221712 L   I
 OLDACT:UP  15-04-20 05:26 OP:mh   STATUS:               ID:20150419220748     3
 OLDACT:UP  15-04-20 05:25 OP:mh   STATUS:               ID:20150419220748     3
 OLDACT:UP  15-04-20 05:06 OP:mh   STATUS:               ID:20150419220748     3
 OLDACT:UP  15-04-20 05:06 OP:mh   STATUS:               ID:20150419220748     3
 OLDACT:REG 15-04-20 04:34 OP:mh   STATUS:               ID:20150419220748     3
 2015-04-19-2207-48M.COL___268                                                 6
 STAT SP IPHASW D HRMM SECON CODA AMPLIT PERI AZIMU VELO AIN AR TRES W  DIS CAZ7
 BRR  HZ EP       2217 34.33                             153    0.3710 70.6 298 
 BRR  HN ES       2217 51.00                             153    0.2610 70.6 298 
 BRR  HZ I        2217 56.61        12.9 0.46            150           70.6 298 
 PAM  SZ EP       2217 35.45                             151    0.4010 77.3  40 
 PAM  SN ES       2217 52.90                             151    0.2210 77.3  40 
 PAM  SZ I        2217 54.86         7.8 0.29            156           77.3  40 
 RUS  HZ EP       2217 36.51                             144   -0.0810  101 176 
 RUS  HN ES       2217 54.95                             144   -0.4810  101 176 
 RUS  HZ I        2217 56.12         8.8 0.40            148            101 176 
 PTB  HZ EP       2217 39.17                             133   -0.51 9  147 259 
 PTB  HN ES       2218  0.72                             133   -0.20 9  147 259 
 PTB  HZ I        2218  5.03        11.8 0.30            132            147 259 
 OCA  HZ EP       2217 40.90                             130   -0.09 9  160 353 
 OCA  HN ES       2218  2.83                             130   -0.44 9  160 353 
 SPBC HZ EP       2217 41.49                             130    0.26 9  163 219 
 SPBC HN ES       2218  3.67                             130   -0.01 9  163 219 
 SPBC HZ I        2218  8.19        15.5 0.22            131            163 219 
 ZAR  HZ EP       2217 45.44                             123    0.37 9  203 292 
 ZAR  HN ES       2218 10.83                             123    0.32 9  203 292 
 ZAR  HZ I        2218 17.60        17.7 0.26            124            203 292 
 NOR  HZ EP       2217 48.48                             119    0.11 8  235 234 
 NOR  HN ES       2218 16.47                             119    0.07 8  235 234 
 NOR  HZ I        2218 24.23         8.3 0.36            121            235 234 
 SML  HZ EP       2217 48.85                             118   -0.36 8  243 335 
 SML  HN ES       2218 17.52                             118   -0.37 8  243 335 
 SML  HZ I        2218 25.44        12.6 0.40            120            243 335 
 GUY2CHZ EP   4   2217 57.94                             113    1.73 0  301 235 
 GUY2CHN ES   4   2218 33.90                             113    3.56 0  301 235 
 GUY2CHZ I        2218 40.41         3.4 0.48                           301 235 
 TOL  SZ EP   4   2218  2.49                             110    1.65 0  343 225 
 TOL  SE ES   4   2218 40.77                             110    2.17 0  343 225 
 TOL  SZ I        2218 44.36         3.7 0.74            112            343 225 
 SJC  HZ EP   4   2218 10.59                             106    2.54 0  409 327 
 SJC  HN ES   4   2218 48.26                             106   -3.17 0  409 327 
                                                                                
