 2017  419 2201 22.9 L   7.381 -73.184132.7  RSN  6 0.2 1.6LRSN                1
 GAP=181        0.41       2.8     1.8  3.1 -0.3268E-01  0.1893E+01 -0.1402E+01E
 Epicentro: EL PLAYON - SANTANDER                                              3
 ACTION:UPD 17-05-30 21:14 OP:jn   STATUS:               ID:20170419220122 L   I
 OLDACT:REG 17-04-20 03:24 OP:edw  STATUS:               ID:20170419215745     3
 2017-04-19-2158-00M.COL___371                                                 6
 STAT SP IPHASW D HRMM SECON CODA AMPLIT PERI AZIMU VELO AIN AR TRES W  DIS CAZ7
 PAM  EZ EP       22 1 42.55                             157    0.1310 53.7  95 
 PAM  EN ES       22 1 57.54                             157   -0.0910 53.7  95 
 PAM  EZ I        22 1 58.74         6.0 0.44            160           53.7  95 
 BRR  HZ EP       22 1 42.31                             152   -0.0310 65.7 243 
 BRR  HN ES       22 1 57.54                             152    0.0510 65.7 243 
 BAR2 EZ EP       22 1 44.21                             145    0.1510 87.2 180 
 BAR2 EZ ES       22 2  0.45                             145   -0.1010 87.2 180 
 BAR2 EZ I        22 2  1.67        11.3 0.40            147           87.2 180 
 RUS  HZ EP   2   22 1 50.59                             126   -0.56 5  165 176 
 RUS  HN ES   2   22 2 13.59                             126    0.42 5  165 176 
 PTB  HZ EP       22 1 50.92                             125    0.04 9  169 237 
 PTB  HN ES       22 2 12.56                             125   -0.14 9  169 237 
 PTB  HZ I        22 2 14.18         3.3 0.22            126            169 237 
 ZAR  HZ EP       22 1 52.43                             122   -0.13 9  185 274 
 ZAR  HN ES       22 2 15.82                             122    0.13 9  185 274 
 ZAR  HZ I        22 2 19.14         5.6 0.28            123            185 274 
                                                                                
