 2011  619 2154 48.7 L   6.765 -73.118151.6  RSN  5 0.2 1.6LRSN                1
 GAP=159        0.52       3.8     5.8  6.0  0.6538E+00 -0.1359E+01 -0.1682E+00E
 Epicentro: LOS SANTOS - SANTANDER                                             3
 ACTION:UP  11-07-14 19:06 OP:ep   STATUS:               ID:20110619215448 L   I
 2011-06-19-2151-51S.COL___139                                                 6
 STAT SP IPHASW D HRMM SECON CODA AMPLIT PERI AZIMU VELO SNR AR TRES W  DIS CAZ7
 BAR2 SZ EP   1   2155  8.74                             172    -0.2 7   20 200 
 BAR2 SZ ES   1   2155 24.74                             172     0.0 7   20 200 
 BAR2 SZ I        2155 25.49        11.0 0.37                            20 200 
 BRR  HZ EP   1   2155 10.69                             152     0.0 7   76 300 
 BRR  HE ES   1   2155 28.02                             152     0.1 7   76 300 
 BRR  HZ I        2155 31.18         8.7 0.25                            76 300 
 RUS  HZ EP   1   2155 12.64                             146    -0.1 7   97 178 
 RUS  HN ES   1   2155 31.68                             146     0.2 7   97 178 
 RUS  HZ I        2155 33.09         5.6 0.43                            97 178 
 BRI  SZ EP   2   2155 14.02                             142     0.7 5  111  19 
 BRI  SZ ES   2   2155 32.25                             142    -0.3 5  111  19 
 BRI  SZ I        2155 34.89         4.4 0.29                           111  19 
 NOR  SE ES   2   2155 52.87                             120    -0.1 4  235 236 
                                                                                
