 2014 1120 0913 58.1 L   6.799 -73.108152.5  RSN 18 0.5 2.0LRSN                1
 GAP=122        1.13       3.0     3.9  5.2 -0.1771E+01  0.4982E+01  0.3313E+01E
 Epicentro: LOS SANTOS - SANTANDER                                             3
 ACTION:UPD 14-12-19 15:45 OP:nd   STATUS:               ID:20141120091358 L   I
 OLDACT:REG 14-11-20 13:22 OP:fm   STATUS:               ID:20141120090738     3
 2014-11-20-0907-38M.COL___295                                                 6
 STAT SP IPHASW D HRMM SECON CODA AMPLIT PERI AZIMU VELO AIN AR TRES W  DIS CAZ7
 BAR2 SZ EP        914 18.15                             171   -0.4410 24.3 200 
 BAR2 SZ ES        914 34.35                             171   -0.2010 24.3 200 
 BAR2 SZ I         914 35.59        14.8 0.28            167           24.3 200 
 PAM  SZ EP        914 21.55                             153    0.6210 74.9  37 
 PAM  SN ES        914 39.18                             153    0.4710 74.9  37 
 PAM  SZ I         914 41.05        13.4 0.22            157           74.9  37 
 BRR  HZ EP        914 19.76                             152   -0.4610 75.0 297 
 BRR  HN ES        914 38.04                             152    0.5910 75.0 297 
 BRR  HZ I         914 40.53        12.2 0.18            150           75.0 297 
 RUS  HZ EP        914 22.70                             145    0.1710  100 178 
 RUS  HE ES        914 41.12                             145   -0.4310  100 178 
 RUS  HZ I         914 42.71         6.9 0.40            146            100 178 
 PTB  HZ EP        914 25.71                             133   -0.31 9  152 259 
 PTB  HN ES        914 46.87                             133   -0.91 9  152 259 
 PTB  HZ I         914 52.90        16.4 0.38            132            152 259 
 OCA  HZ EP        914 26.58                             131   -0.46 9  161 352 
 OCA  HE ES        914 49.67                             131    0.08 9  161 352 
 OCA  HZ I         914 54.95        12.2 0.26            133            161 352 
 SPBC HZ EP        914 27.91                             130    0.52 9  166 220 
 SPBC HN ES        914 50.77                             130    0.55 9  166 220 
 SPBC HZ I         914 57.07        24.7 0.36            130            166 220 
 ZAR  HZ EP        914 31.56                             123    0.13 8  208 292 
 ZAR  HN ES        914 56.71                             123   -0.69 8  208 292 
 ZAR  HZ I         915  3.45        15.4 0.58            123            208 292 
 NOR  HZ EP     C  914 35.24                             119    0.62 8  238 235 
 NOR  HN ES        915  3.50                             119    0.43 8  238 235 
 NOR  HZ I         915  6.59        10.0 0.20            120            238 235 
 CHI  HZ EP        914 36.47                             118    0.15 8  250 196 
 CHI  HN ES        915  5.63                             118   -0.47 8  250 196 
 CHI  HZ I         915 12.23         3.8 0.26            120            250 196 
 HEL  HZ EP        914 38.79                             116   -0.35 7  276 256 
 HEL  HN ES        915 11.50                             116    0.37 7  276 256 
 HEL  HZ I         915 17.59         5.6 0.36            116            276 256 
 URE  HZ EP        914 39.65                             114   -0.33 7  288 292 
 URE  HN ES   4    915  8.86                             114   -3.76 0  288 292 
 URE  HZ I         915 19.76         7.2 0.30            115            288 292 
 PTGC HZ EP        914 41.30                             113   -0.81 7  307 159 
 CBOC HZ EP        914 45.82                             111    0.03 7  338 252 
 CBOC HN ES        915 23.40                             111    0.45 7  338 252 
 CBOC HZ I         915 34.46         2.0 0.54            111            338 252 
 TOL  SZ EP        914 46.96                             110   -0.03 6  346 225 
 TOL  SN ES        915 25.41                             110    0.30 6  346 225 
 TOL  SZ I         915 32.08        12.0 0.60            111            346 225 
 MON  HZ EP   4    914 46.10                             109   -1.69 0  357 308 
 MON  HN ES   4    915 24.48                             109   -2.05 0  357 308 
 MON  HZ I         915 27.10         2.6 0.44            110            357 308 
 PRA  HZ EP        914 53.23                             107    1.11 6  394 210 
 PRA  HN ES        915 33.32                             107   -0.91 6  394 210 
 PRA  HZ I         915 40.84         5.2 0.64            109            394 210 
 ORTC HZ EP        914 53.02                             107    0.45 6  398 217 
 ORTC HN ES        915 35.35                             107    0.33 6  398 217 
 ORTC HZ I         915 41.87         2.9 0.42            108            398 217 
 SJC  HZ EP   4    914 50.57                             107   -3.64 0  412 326 
 SJC  HN ES   4    915 32.38                             107   -5.57 0  412 326 
                                                                                
