 2012 1020 0452 29.5 L   6.757 -73.201153.2  RSN  4 0.3 1.4LRSN                1
 GAP=132        0.58       5.9     6.5  9.0  0.2383E+02 -0.2047E+02 -0.1859E+02E
 Epicentro: VILLANUEVA - SANTANDER                                             3
 ACTION:UPD 12-11-22 17:04 OP:ep   STATUS:               ID:20121020045229 L   I
 2012-10-20-0450-00M.COL___233                                                 6
 STAT SP IPHASW D HRMM SECON CODA AMPLIT PERI AZIMU VELO AIN AR TRES W  DIS CAZ7
 BRR  HZ EP   1    452 51.25                             155   -0.04 7 68.4 304 
 BRR  HN ES   1    453  8.61                             155    0.30 7 68.4 304 
 BRR  HN I         453 13.02         8.5 0.18                          68.4 304 
 PAM  SZ EP   1    452 52.74                             150   -0.20 7 85.0  41 
 PAM  SZ I         452 52.89         2.5 0.20                          85.0  41 
 RUS  HZ EP   1    452 54.09                             146    0.40 7 96.5 172 
 RUS  HN ES   1    453 12.26                             146   -0.31 7 96.5 172 
 RUS  HN I         453 13.42         2.8 0.18                          96.5 172 
 ZAR  HN ES   1    453 27.23                             124   -0.21 6  200 294 
                                                                                
