 2016  620 0951 32.3 L   6.886 -72.866153.6  RSN  5 0.3 1.3LRSN                1
 GAP=172        0.67       4.2     6.2  6.4 -0.1259E+01 -0.4279E+01  0.7372E+01E
 Epicentro: GUACA - SANTANDER                                                  3
 ACTION:UPD 16-07-21 22:20 OP:rebc STATUS:               ID:20160620095132 L   I
 OLDACT:REG 16-06-20 13:46 OP:ar   STATUS:               ID:20160620094742     3
 2016-06-20-0947-42M.COL___340                                                 6
 STAT SP IPHASW D HRMM SECON CODA AMPLIT PERI AZIMU VELO AIN AR TRES W  DIS CAZ7
 BAR2 EZ EP        951 53.08                             162   -0.5410 47.7 227 
 BAR2 EZ ES        952 10.06                             162   -0.1510 47.7 227 
 BAR2 EZ I         952 12.03         3.1 0.24                          47.7 227 
 PAM  EZ EP   2    951 54.55                             160    0.33 5 53.4  20 
 PAM  EN ES        952 11.34                             160    0.0710 53.4  20 
 PAM  EZ I         952 16.30         3.2 0.54                          53.4  20 
 BRR  HZ EP   2    951 55.96                             146    0.06 5 96.6 285 
 BRR  HN ES        952 14.41                             146    0.1310 96.6 285 
 BRR  HZ I         952 17.40         7.8 0.26                          96.6 285 
 RUS  HZ EP        951 58.02                             142    0.2910  112 192 
 RUS  HN ES        952 17.64                             142    0.1110  112 192 
 RUS  HZ I         952 18.27         1.2 0.18                           112 192 
 PTB  HZ EP   4    952  1.29                             128   -1.65 0  180 258 
 PTB  HN ES   4    952 22.14                             128   -4.66 0  180 258 
 PTB  HZ I         952 29.53         3.8 0.40                           180 258 
                                                                                
