 2014  920 0253 37.3 L   6.746 -73.143149.2  RSN  6 0.3 1.2LRSN                1
 GAP=139        0.83       4.4     4.5  6.4 -0.5165E+01 -0.4754E+00  0.4547E+01E
 Epicentro: LOS SANTOS - SANTANDER                                             3
 ACTION:UPD 14-10-03 23:06 OP:nd   STATUS:               ID:20140920025337 L   I
 OLDACT:REG 14-09-20 12:16 OP:spq  STATUS:               ID:20140920024818     3
 2014-09-20-0248-18M.COL___290                                                 6
 STAT SP IPHASW D HRMM SECON CODA AMPLIT PERI AZIMU VELO AIN AR TRES W  DIS CAZ7
 BAR2 SZ EP        253 57.11                             173   -0.0910 17.6 194 
 BAR2 SZ ES   1    254 12.63                             173   -0.13 7 17.6 194 
 BAR2 SZ I         254 14.50         2.5 0.28            174           17.6 194 
 BRR  HZ EP        253 59.31                             152    0.3510 74.5 302 
 BRR  HE ES        254 16.42                             152    0.5210 74.5 302 
 BRR  HZ I         254 19.44         8.8 0.24            154           74.5 302 
 PAM  SZ EP        254  0.17                             150    0.0610 81.9  37 
 PAM  SN ES   1    254 17.36                             150   -0.57 7 81.9  37 
 PAM  SZ I         254 21.67         2.7 0.27            152           81.9  37 
 RUS  HZ EP        254  1.06                             146    0.1210 94.6 176 
 RUS  HN ES   1    254 19.45                             146    0.04 7 94.6 176 
 RUS  HZ I         254 20.77         1.5 0.38            150           94.6 176 
 PTB  HZ EP        254  3.91                             133   -0.53 9  147 261 
 PTB  HE ES        254 25.20                             133   -0.45 9  147 261 
 PTB  HZ I         254 27.29         1.9 0.18            136            147 261 
 SPBC HZ EP        254  5.91                             131    0.29 9  159 220 
 SPBC HN ES        254 27.76                             131    0.02 9  159 220 
 SPBC HZ I         254 30.24         2.8 0.14            134            159 220 
                                                                                
