 2011  220 0904 53.1 L   6.778 -73.101143.2  RSN 12 0.4 2.0LRSN                1
 GAP=105        1.08       3.7     6.9  6.7 -0.3305E+01  0.5166E+01  0.2197E+01E
 Epicentro: LOS SANTOS - SANTANDER                                             3
 ACTION:UP  11-03-28 15:09 OP:jfem STATUS:               ID:20110220090453 L   I
 2011-02-20-0902-55S.COL___137                                                 6
 STAT SP IPHASW D HRMM SECON CODA AMPLIT PERI AZIMU VELO SNR AR TRES W  DIS CAZ7
 BAR2 SZ IP        9 5 12.29                             171    -0.110   23 204 
 BAR2 SZ ES   1    9 5 26.79                             171    -0.6 7   23 204 
 BAR2 SZ I         9 5 28.50        50.6 0.22                            23 204 
 BTL  SZ EP        9 5 11.95                             170    -0.510   24 310 
 GIR2 SZ EP        9 5 13.42                             166     0.910   35 343 
 GIR2 SZ ES   1    9 5 28.31                             166     0.6 7   35 343 
 RUS  HZ IP     C  9 5 16.23                             144    -0.110   98 179 
 RUS  HN ES   1    9 5 34.30                             144    -0.3 7   98 179 
 RUS  HZ I         9 5 36.07         9.6 0.44                            98 179 
 GRA  SZ IP        9 5 18.25                             136     0.110  127  15 
 GRA  SZ ES   1    9 5 37.90                             136     0.2 7  127  15 
 GRA  SZ I         9 5 41.99        11.1 0.24                           127  15 
 OCA  SZ EP        9 5 21.27                             128    -0.2 9  163 352 
 OCA  SZ ES   1    9 5 43.36                             128    -0.3 7  163 352 
 OCA  SZ I         9 5 47.79        18.9 0.29                           163 352 
 YOP  SZ EP        9 5 22.86                             126     0.4 9  175 154 
 YOP  SZ I         9 5 23.47         7.2 0.09                           175 154 
 YOP  SN ES   1    9 5 45.79                             126     0.3 7  175 154 
 NOR  SZ EP        9 5 28.75                             118    -0.2 8  238 236 
 NOR  SN ES   2    9 5 56.35                             118    -0.6 4  238 236 
 CHI  HZ EP        9 5 30.33                             117    -0.2 8  248 196 
 CHI  HZ I         9 6  5.44         4.9 0.25                           248 196 
 HEL  HZ EP   1    9 5 34.16                             114     0.5 6  276 257 
 HEL  HZ I         9 6 10.60         5.0 0.55                           276 257 
 RREF HZ EP   2    9 5 39.78                             110     0.4 3  324 230 
 RREF HN ES   2    9 6 16.14                             110     0.7 3  324 230 
 RREF HZ I         9 6 20.94         6.5 0.40                           324 230 
 SDV  BZ EP        9 5 41.99                             108    -0.8 6  358  49 
                                                                                
