 2016  220 0642  1.6 L   6.780 -73.129147.7  RSN  7 0.5 1.5LRSN                1
 GAP=140        1.16       4.4     5.1  8.6 -0.6803E+00  0.4840E+01  0.1098E+02E
 Epicentro: LOS SANTOS - SANTANDER                                             3
 ACTION:UPD 16-03-04 21:27 OP:rebc STATUS:               ID:20160220064201 L   I
 OLDACT:UP  16-02-20 19:59 OP:drio STATUS:               ID:20160220063746d    3
 OLDACT:UP  16-02-20 19:59 OP:drio STATUS:               ID:20160220063746d    3
 OLDACT:UP  16-02-20 19:58 OP:drio STATUS:               ID:20160220063746d    3
 OLDACT:DUP 16-02-20 19:54 OP:drio STATUS:               ID:20160220063746d    3
 OLDACT:UP  16-02-20 19:47 OP:drio STATUS:               ID:20160220063744     3
 OLDACT:UP  16-02-20 19:46 OP:drio STATUS:               ID:20160220063744     3
 OLDACT:UP  16-02-20 19:46 OP:drio STATUS:               ID:20160220063744     3
 OLDACT:REG 16-02-20 13:14 OP:drio STATUS:               ID:20160220063744     3
 2016-02-20-0637-44M.COL___324                                                 6
 STAT SP IPHASW D HRMM SECON CODA AMPLIT PERI AZIMU VELO AIN AR TRES W  DIS CAZ7
 BRR  HZ EP        642 23.22                             152    0.1610 73.9 299 
 BRR  HE ES        642 40.66                             152    0.8310 73.9 299 
 BRR  HZ I         642 44.40         6.3 0.14            149           73.9 299 
 PAM  EZ EP        642 24.21                             151    0.2010 78.0  37 
 PAM  EE ES        642 41.06                             151   -0.4610 78.0  37 
 PAM  EZ I         642 43.53         5.6 0.56            156           78.0  37 
 RUS  HZ EP        642 25.09                             145   -0.2310 98.2 177 
 RUS  HE ES        642 43.85                             145   -0.0210 98.2 177 
 RUS  HZ I         642 44.90         1.6 0.26            147           98.2 177 
 PTB  HZ EP        642 28.07                             132   -0.73 9  149 260 
 PTB  HN ES        642 49.24                             132   -0.81 9  149 260 
 PTB  HZ I         642 55.16         4.6 0.28            132            149 260 
 SPBC HZ EP        642 30.30                             130    0.16 9  163 220 
 SPBC HN ES        642 52.34                             130   -0.10 9  163 220 
 SPBC HZ I         642 58.65         4.7 0.22            130            163 220 
 ZAR  HZ EP   4    642 36.54                             122    2.16 0  207 293 
 ZAR  HN ES        643  0.32                             122    0.33 8  207 293 
 ZAR  HZ I         643 10.11         4.4 0.26            123            207 293 
 CHI  HZ EP        642 39.67                             118    0.50 8  247 196 
 CHI  HN ES        643  8.90                             118    0.38 8  247 196 
 CHI  HZ I         643 12.03         1.2 0.56            120            247 196 
                                                                                
