 2010 1120 0219 57.6 L   6.782 -73.062147.8  RSN 13 0.4 2.5LRSN                1
 GAP=168        0.75       2.8     5.6  5.4 -0.5676E+01  0.5204E+01  0.2453E+01E
 Epicentro: LOS SANTOS - SANTANDER                                             3
 ACTION:UP  10-12-17 16:53 OP:REBC STATUS:               ID:20101120021957 L   I
 2010-11-20-0215-27S.COL___132                                                 6
 STAT SP IPHASW D HRMM SECON CODA AMPLIT PERI AZIMU VELO SNR AR TRES W  DIS CAZ7
 BAR2 SZ IP        220 17.58                             170     0.010   25 213 
 BAR2 SZ ES   1    220 32.88                             170    -0.2 7   25 213 
 BAR2 SZ I         220 35.58        59.1 0.35                            25 213 
 BRR  HZ IP     C  220 19.45                             150    -0.110   80 297 
 BRR  HZ I         220 19.71        39.7 0.18                            80 297 
 BRR  HE ES   1    220 36.92                             150     0.3 7   80 297 
 RUS  HZ EP   1    220 21.22                             145    -0.2 7   98 181 
 RUS  HE ES   1    220 39.93                             145    -0.1 7   98 181 
 RUS  HZ I         220 41.44        21.7 0.39                            98 181 
 GRA  SZ IP        220 23.37                             137     0.410  125  13 
 GRA  SZ I         220 24.51        31.0 0.32                           125  13 
 GRA  SZ ES   1    220 42.60                             137    -0.2 7  125  13 
 OCA  SZ EP   1    220 26.06                             129    -0.4 7  164 350 
 OCA  SZ ES   1    220 48.97                             129     0.1 7  164 350 
 OCA  SZ I         220 54.09        32.8 0.49                           164 350 
 NOR  SZ EP   1    220 33.50                             118    -0.7 6  241 236 
 NOR  SE ES   2    221  1.64                             118    -1.1 4  241 236 
 CHI  HZ EP   1    220 35.54                             117     0.0 6  249 197 
 CHI  HE ES   1    221  4.87                             117    -0.2 6  249 197 
 CHI  HZ I         221 10.82        11.4 0.36                           249 197 
 ROSC BZ EP   1    220 36.80                             117     0.6 6  256 213 
 ROSC BE ES   2    221  7.15                             117     0.8 4  256 213 
 ROSC BZ I         221 13.59        20.0 0.54                           256 213 
 HEL  HZ EP   2    220 39.12                             114     0.2 4  281 257 
 HEL  HE ES   2    221 11.30                             114     0.2 4  281 257 
 HEL  HZ I         221 15.98        11.0 0.31                           281 257 
 VIL  SE ES   2    221 15.17                             112     0.5 4  301 192 
 VIL  SZ I         221 22.09         8.8 0.22                           301 192 
 GUY  SZ EP   2    220 42.54                             112     0.5 4  308 236 
 GUY  SZ I         221 24.96        22.4 0.38                           308 236 
 RREF HZ EP   2    220 44.19                             111    -0.3 3  328 231 
 RREF HN ES   2    221 21.03                             111    -0.1 3  328 231 
 RREF HZ I         221 27.14        15.3 0.28                           328 231 
 PRA  HZ EP   1    220 50.91                             107    -0.7 4  395 211 
 PRA  HN ES   1    221 34.38                             107     0.8 4  395 211 
 PRA  HZ I         221 38.36        38.8 0.23                           395 211 
                                                                                
