 2017  920 0048  5.4 L   6.814 -73.140145.4  RSN  6 0.4 1.8LRSN                1
 GAP=112        1.12       4.4     5.4  8.3  0.8804E+01  0.1013E+02  0.1141E+02E
 Epicentro: LOS SANTOS - SANTANDER                                             3
 ACTION:UPD 17-10-05 19:14 OP:rebc STATUS:               ID:20170920004805 L   I
 OLDACT:REG 17-09-20 13:05 OP:leo  STATUS:               ID:20170920003742     3
 2017-09-20-0038-00M.COL___444                                                 6
 STAT SP IPHASW D HRMM SECON CODA AMPLIT PERI AZIMU VELO AIN AR TRES W  DIS CAZ7
 BRR  HZ EP        048 26.77                             152    0.2410 71.0 297 
 BRR  HN ES        048 43.62                             152    0.6310 71.0 297 
 BRR  HZ I         048 47.94         9.3 0.30            155           71.0 297 
 PAM  EZ EP        048 27.55                             151    0.0310 75.8  40 
 PAM  EN ES        048 44.53                             151   -0.2110 75.8  40 
 PAM  EZ I         048 46.55         9.8 0.56            154           75.8  40 
 RUS  HZ EP        048 28.87                             143   -0.3910  102 176 
 RUS  HN ES        048 46.97                             143   -0.8710  102 176 
 RUS  HZ I         048 49.20        12.9 0.30            146            102 176 
 YPLC HZ EP        048 35.28                             126   -0.03 9  178 152 
 YPLC HN ES        048 59.44                             126    0.83 9  178 152 
 YPLC HZ I         049  1.89         7.6 0.30            129            178 152 
 ZAR  HZ EP        048 37.63                             122   -0.22 9  204 292 
 ZAR  HN ES        049  2.91                             122   -0.23 9  204 292 
 CHI  HZ EP        048 43.49                             117    0.20 8  250 195 
 CHI  HN ES        049 13.03                             117    0.21 8  250 195 
                                                                                
