 2012  720 0228 57.4 L   6.195 -73.639125.5  RSN  4 0.4 1.5LRSN                1
 GAP=194        1.00      11.0     7.4 12.5 -0.4959E+02 -0.1097E+01  0.3514E+02E
 Epicentro: LA PAZ - SANTANDER                                                 3
 ACTION:UPD 12-08-14 11:46 OP:ep   STATUS:               ID:20120720022857 L   I
 2012-07-20-0220-00M.COL___215                                                 6
 STAT SP IPHASW D HRMM SECON CODA AMPLIT PERI AZIMU VELO AIN AR TRES W  DIS CAZ7
 BAR2 SZ EP        229 16.27                             150    -0.210   67  49 
 BAR2 SZ ES   1    229 31.38                             150     0.0 7   67  49 
 BAR2 SZ I         229 33.81        10.1 0.42            149             67  49 
 PTB  HZ EP        229 17.99                             139    -0.410   98 293 
 PTB  HN ES   1    229 34.46                             139    -0.3 7   98 293 
 PTB  HZ I         229 37.29         5.1 0.16            139             98 293 
 BRR  HZ EP        229 19.19                             138     0.610  101 355 
 BRR  HZ I         229 21.52         6.5 0.15            136            101 355 
 NOR  SZ EP        229 23.29                             126    -0.1 9  153 243 
 NOR  SN ES   1    229 44.13                             126     0.5 7  153 243 
