 2015  920 1223 46.2 L   6.898 -73.138141.7  RSN 11 0.5 1.9LRSN                1
 GAP=214        1.18       3.8     5.9  6.7  0.7830E+00  0.5820E+01  0.4072E+01E
 Epicentro: PIEDECUESTA - SANTANDER                                            3
 ACTION:UPD 15-10-28 16:27 OP:cam  STATUS:               ID:20150920122346 L   I
 OLDACT:DUP 15-09-20 23:40 OP:ak   STATUS:               ID:20150920121551d    3
 2015-09-20-1215-50M.COL___358                                                 6
 STAT SP IPHASW D HRMM SECON CODA AMPLIT PERI AZIMU VELO AIN AR TRES W  DIS CAZ7
 BAR2 EZ EP       1224  5.88                             166    0.2210 34.1 188 
 BAR2 EZ ES       1224 20.82                             166    0.0210 34.1 188 
 BAR2 EZ I        1224 23.19        10.6 0.23            166           34.1 188 
 BRR  HZ EP       1224  7.00                             153    0.2510 67.5 290 
 BRR  HN ES       1224 23.38                             153    0.6410 67.5 290 
 BRR  HZ I        1224 26.67        12.5 0.12            150           67.5 290 
 PTB  HZ EP       1224 12.57                             130   -0.62 9  151 255 
 PTB  HN ES       1224 33.72                             130   -0.48 9  151 255 
 PTB  HZ I        1224 39.77         8.7 0.20            130            151 255 
 SPBC HZ EP       1224 15.69                             126    0.38 9  172 217 
 SPBC HN ES       1224 37.82                             126   -0.16 9  172 217 
 SPBC HZ I        1224 44.45        11.8 0.20            128            172 217 
 ZAR  HZ EP       1224 19.02                             122    0.90 9  201 289 
 ZAR  HN ES       1224 43.16                             122    0.19 9  201 289 
 SML  HZ EP   1   1224 21.17                             118   -0.46 6  234 334 
 SML  HN ES       1224 48.23                             118   -0.99 8  234 334 
 SML  HZ I        1225  1.18        10.1 0.08            118            234 334 
 NOR  HZ EP       1224 22.52                             117    0.01 8  242 232 
 NOR  HE ES       1224 50.08                             117   -0.72 8  242 232 
 NOR  HZ I        1224 55.74        10.4 0.25            118            242 232 
 CHI  HZ EP       1224 24.06                             115   -0.83 8  259 195 
 CHI  HN ES       1224 54.63                             115   -0.41 8  259 195 
 HEL  HZ EP       1224 27.39                             114    0.73 7  276 254 
 HEL  HE ES       1224 58.08                             114   -0.11 7  276 254 
 HEL  HZ I        1225  4.65         3.6 0.24            114            276 254 
 GUY2CHZ EP   4   1224 32.47                             111    2.00 0  308 233 
 GUY2CHE ES       1225  5.36                             111    0.40 7  308 233 
 GUY2CHZ I        1225 14.77         4.7 0.38                           308 233 
 PRA  HZ EP       1224 41.28                             105    0.49 6  402 209 
 PRA  HN ES       1225 23.80                             105    0.47 6  402 209 
 PRA  HZ I        1225 28.94         2.8 0.22            107            402 209 
                                                                                
