 2013  620 1849 39.8 L   6.821 -73.135147.4  RSN 10 0.4 2.5LRSN                1
 GAP=184        0.96       3.1     6.5  5.7  0.2250E+00  0.9106E+01  0.7795E+00E
 Epicentro: LOS SANTOS - SANTANDER                                             3
 ACTION:UPD 14-01-08 09:56 OP:ep   STATUS:               ID:20130620184939 L   I
 OLDACT:UP  13-06-20 18:24 OP:cam  STATUS:               ID:20130620184745     3
 OLDACT:UP  13-06-20 18:23 OP:cam  STATUS:               ID:20130620184745     3
 OLDACT:REG 13-06-20 17:59 OP:cam  STATUS:               ID:20130620184745     3
 2013-06-20-1847-45M.COL___226                                                 6
 STAT SP IPHASW D HRMM SECON CODA AMPLIT PERI AZIMU VELO AIN AR TRES W  DIS CAZ7
 BAR2 SZ IP       1849 59.76                             170    0.0510 25.9 192 
 BAR2 SZ ES       1850 14.88                             170   -0.3310 25.9 192 
 BAR2 SZ I        1850 16.25        80.4 0.19            160           25.9 192 
 GIR2 SZ EP       1849 59.83                             168    0.1910 29.2 347 
 GIR2 SZ ES   1   1850 14.94                             168   -0.15 7 29.2 347 
 BRR  HZ EP       1850  1.51                             153    0.3610 71.2 296 
 BRR  HE ES       1850 18.28                             153    0.5010 71.2 296 
 BRR  HZ I        1850 21.48        77.9 0.48            140           71.2 296 
 RUS  HZ EP     C 1850  3.83                             143   -0.0710  103 177 
 RUS  HZ I        1850  5.01        30.8 0.12            138            103 177 
 RUS  HN ES   1   1850 22.29                             143   -0.39 7  103 177 
 PTB  HZ EP       1850  6.32                             132   -0.76 9  149 258 
 PTB  HZ I        1850 34.73        48.3 0.42            122            149 258 
 OCA  HZ EP   1   1850  7.79                             130   -0.27 7  158 353 
 OCA  HN ES   1   1850 30.85                             130    0.77 7  158 353 
 OCA  HZ I        1850 32.72        35.4 0.20            124            158 353 
 NOR  HZ EP       1850 16.52                             119    0.62 8  237 234 
 NOR  HN ES       1850 43.85                             119   -0.19 8  237 234 
 NOR  HZ I        1850 47.49        18.5 0.30            112            237 234 
 SML  HZ EP       1850 16.14                             118   -0.23 8  242 335 
 SML  HN ES       1850 44.27                             118   -0.60 8  242 335 
 SML  HZ I        1850 52.79        35.5 0.10            112            242 335 
 CHI  HZ EP   1   1850 18.35                             117    0.45 6  251 195 
 CHI  HE ES       1850 47.79                             117    0.20 8  251 195 
 CHI  HZ I        1850 55.75        10.1 0.36            112            251 195 
 HEL  HZ EP   4   1850 21.99                             115    1.67 0  274 255 
 HEL  HN ES   4   1850 55.36                             115    3.46 0  274 255 
 HEL  HZ I        1850 58.44        19.5 0.48            108            274 255 
                                                                                
