 2017 1020 1204 25.9 L   6.764 -73.118142.3  RSN 10 0.4 1.6LRSN                1
 GAP=116        1.04       3.5     3.6  5.8  0.1529E+01  0.4243E+01  0.4964E+01E
 Epicentro: LOS SANTOS - SANTANDER                                             3
 ACTION:UPD 17-11-07 19:34 OP:rebc STATUS:               ID:20171020120425 L   I
 OLDACT:UP  17-10-20 23:16 OP:edw  STATUS:               ID:20171020115642     3
 OLDACT:UP  17-10-20 23:14 OP:edw  STATUS:               ID:20171020115642     3
 OLDACT:REG 17-10-20 19:55 OP:edw  STATUS:               ID:20171020115642     3
 2017-10-20-1158-00M.COL___453                                                 6
 STAT SP IPHASW D HRMM SECON CODA AMPLIT PERI AZIMU VELO AIN AR TRES W  DIS CAZ7
 BAR2 EZ EP     C 12 4 45.05                             172    0.0010 20.3 200 
 BAR2 EZ ES       12 5  0.34                             172    0.3510 20.3 200 
 BAR2 EZ I        12 5  1.27         7.3 0.22            167           20.3 200 
 BRR  HN ES       12 5  3.72                             150    0.3610 75.8 300 
 PAM  EZ EP       12 4 47.92                             150    0.1010 78.7  36 
 PAM  EN ES       12 5  4.98                             150    0.0610 78.7  36 
 PAM  EZ I        12 5  5.44         7.0 0.18            155           78.7  36 
 RUS  HZ EP       12 4 49.18                             144    0.1710 96.5 178 
 RUS  HN ES       12 5  6.35                             144   -0.6910 96.5 178 
 RUS  HZ I        12 5  9.58         6.4 0.24            144           96.5 178 
 PTB  HZ EP       12 4 51.98                             131   -0.81 9  150 261 
 PTB  HE ES       12 5 13.54                             131   -0.23 9  150 261 
 PTB  HZ I        12 5 18.29         4.4 0.46            130            150 261 
 SPBC HZ EP       12 4 54.40                             128    0.38 9  162 221 
 SPBC HN ES       12 5 16.28                             128    0.32 9  162 221 
 SPBC HZ I        12 5 20.38         7.1 0.32            128            162 221 
 YPLC HZ EP       12 4 54.62                             127   -0.33 9  172 152 
 YPLC HN ES       12 5 17.22                             127   -0.40 9  172 152 
 ZAR  HZ EP       12 4 58.70                             121    0.14 8  208 293 
 ZAR  HN ES       12 5 23.73                             121   -0.32 8  208 293 
 ZAR  HZ I        12 5 30.05         7.8 0.30            121            208 293 
 NOR  HZ EP       12 5  1.70                             118    0.25 8  235 236 
 NOR  HN ES       12 5 28.65                             118   -0.53 8  235 236 
 NOR  HZ I        12 5 37.84         3.3 0.20            118            235 236 
 CHI  HZ EP       12 5  3.57                             117    0.50 8  246 196 
 CHI  HN ES       12 5 32.94                             117    0.87 8  246 196 
 CHI  HZ I        12 5 37.90         2.0 0.30            117            246 196 
                                                                                
