 2015 1020 1648 45.3 L   6.566 -73.504113.0  RSN 12 0.5 2.1LRSN                1
 GAP= 63        1.23       3.0     4.0  6.8 -0.1148E+01  0.1294E+02 -0.2676E+00E
 Epicentro: EL CARMEN - SANTANDER                                              3
 ACTION:UPD 15-12-22 20:41 OP:cam  STATUS:               ID:20151020164845 L   I
 OLDACT:REG 15-10-20 21:28 OP:cara STATUS:               ID:20151020163748     3
 2015-10-20-1637-48M.COL___337                                                 6
 STAT SP IPHASW D HRMM SECON CODA AMPLIT PERI AZIMU VELO AIN AR TRES W  DIS CAZ7
 BAR2 EZ EP       1649  1.79                             161    0.3410 35.7  85 
 BAR2 EZ ES       1649 14.08                             161    0.0710 35.7  85 
 BAR2 EZ I        1649 15.77        72.3 0.40            166           35.7  85 
 BRR  HZ EP       1649  2.55                             148   -0.0410 64.2 339 
 BRR  HE ES       1649 16.51                             148    0.4710 64.2 339 
 BRR  HZ I        1649 23.23        18.8 0.12            149           64.2 339 
 RUS  HZ EP       1649  4.82                             140   -0.1710 87.8 148 
 RUS  HN ES       1649 20.51                             140    0.2110 87.8 148 
 RUS  HZ I        1649 21.67        13.4 0.36            147           87.8 148 
 SPBC HZ EP       1649  7.19                             130    0.0510  119 212 
 SPBC HN ES       1649 23.54                             130   -0.6010  119 212 
 SPBC HZ I        1649 26.86        37.4 0.20            135            119 212 
 PAM  EZ EP       1649  8.50                             129    0.4110  123  46 
 PAM  EN ES       1649 24.62                             129   -1.2110  123  46 
 PAM  EZ I        1649 29.48         5.9 0.46            134            123  46 
 ZAR  HZ EP       1649 13.61                             117    0.22 9  181 304 
 ZAR  HN ES       1649 35.59                             117    0.32 9  181 304 
 ZAR  HZ I        1649 38.00        22.7 0.56            120            181 304 
 NOR  HZ EP       1649 14.11                             116   -0.00 9  187 234 
 NOR  HN ES   4   1649 34.76                             116   -1.79 0  187 234 
 CHI  HZ EP       1649 18.13                             113    0.44 8  216 187 
 CHI  HE ES       1649 43.13                             113    0.20 8  216 187 
 HEL  HZ EP       1649 18.59                             111   -0.43 8  228 260 
 HEL  HN ES       1649 44.39                             111   -0.90 8  228 260 
 HEL  HZ I        1649 48.78         9.4 0.44            115            228 260 
 GUY2CHZ EP       1649 22.74                             109    0.60 8  254 234 
 GUY2CHE ES       1649 51.08                             109    0.24 8  254 234 
 GUY2CHZ I        1650  1.60         7.7 0.68                           254 234 
 SML  HZ EP       1649 21.29                             109   -0.38 8  255 346 
 SML  HE ES       1649 50.89                             109    0.89 8  255 346 
 SML  HZ I        1649 55.92        18.2 0.10            112            255 346 
 MON  HZ EP       1649 30.94                             103   -0.92 7  342 316 
 MON  HE ES   4   1650  4.00                             103   -4.13 0  342 316 
 MON  HZ I        1650  8.91         3.6 0.24            105            342 316 
                                                                                
