 2012  320 1614 15.8 L   6.770 -73.156143.3  RSN 10 0.5 2.4LRSN                1
 GAP=137        1.07       5.0     5.4  7.8 -0.7665E+00  0.1006E+02  0.8684E+01E
 ACTION:UP  12-03-31 23:21 OP:EP   STATUS:               ID:20120320161415 L   I
 2012-03-20-1610-00M.COL___202                                                 6
 STAT SP IPHASW D HRMM SECON CODA AMPLIT PERI AZIMU VELO SNR AR TRES W  DIS CAZ7
 BAR2 SZ EP       1614 35.11                             172     0.010   20 188 
 BAR2 SZ ES   1   1614 50.02                             172    -0.1 7   20 188 
 BAR2 SZ I        1614 51.13        81.9 0.20                            20 188 
 BRR  HZ EP       1614 37.01                             152     0.310   72 301 
 BRR  HN ES   1   1614 54.12                             152     1.0 7   72 301 
 BRR  HZ I        1614 56.73        67.0 0.17                            72 301 
 PAM  SZ EP       1614 37.92                             149    -0.110   81  39 
 PAM  SN ES   1   1614 55.04                             149    -0.2 7   81  39 
 RUS  HZ EP       1614 38.95                             144    -0.210   97 175 
 RUS  HN ES   1   1614 56.91                             144    -0.4 7   97 175 
 RUS  HZ I        1614 58.48        24.7 0.59                            97 175 
 PTB  HZ EP   1   1614 42.13                             132    -0.3 7  146 260 
 PTB  HN ES   1   1615  2.27                             132    -0.9 7  146 260 
 PTB  HZ I        1615  5.83        18.4 0.15                           146 260 
 ZAR  HZ EP   1   1614 47.60                             122    -0.5 6  204 293 
 ZAR  HN ES   1   1615 13.47                             122     0.1 6  204 293 
 ZAR  HZ I        1615 19.76        29.9 0.31                           204 293 
 NOR  SZ EP       1614 51.60                             118     0.5 8  232 235 
 NOR  SN ES   1   1615 18.24                             118    -0.4 6  232 235 
 CHI  HZ EP   1   1614 53.09                             117     0.1 6  245 195 
 CHI  HE ES   1   1615 22.94                             117     0.9 6  245 195 
 RREF HZ I        1615 47.52        15.6 0.18                           319 230 
 PRA  HZ EP   1   1615  9.07                             106     0.2 4  389 210 
                                                                                
