 2016  420 1456 29.8 L   6.374 -73.612 98.0  RSN  4 0.4 1.4LRSN                1
 GAP=174        0.68       7.8     3.4  8.0 -0.3641E+01  0.1039E+02  0.1247E+02E
 Epicentro: SANTA HELENA DEL OPON - SANTANDER                                  3
 ACTION:UPD 16-05-05 14:22 OP:rebc STATUS:               ID:20160420145629 L   I
 OLDACT:DUP 16-04-21 22:43 OP:dnl  STATUS:               ID:20160420144750d    3
 OLDACT:ARG 16-04-20 21:02 OP:ar   STATUS:               ID:20160420144749     3
 2016-04-20-1447-49M.COL___301                                                 6
 STAT SP IPHASW D HRMM SECON CODA AMPLIT PERI AZIMU VELO AIN AR TRES W  DIS CAZ7
 BAR2 EZ EP       1456 44.79                             150   -0.3210 53.3  63 
 BAR2 EZ ES       1456 57.34                             150    0.2710 53.3  63 
 BAR2 EZ I        1456 58.69        30.6 0.46            155           53.3  63 
 PTB  HZ EP       1456 47.88                             133   -0.1910 95.1 281 
 PTB  HN ES       1457  2.22                             133   -0.1210 95.1 281 
 PTB  HZ I        1457  4.28         5.5 0.06            132           95.1 281 
 NOR  HZ EP   2   1456 56.22                             117    0.89 5  166 237 
 NOR  HN ES   2   1457 15.47                             117    0.20 5  166 237 
 NOR  HZ I        1457 20.49         1.3 0.17            116            166 237 
 ZAR  HZ EP   2   1456 57.43                             114   -0.03 4  185 312 
 ZAR  HN ES   2   1457 19.76                             114    0.70 4  185 312 
 ZAR  HZ I        1457 22.07         2.6 0.20            114            185 312 
                                                                                
