 2010  820 2024 34.3 L   6.160 -73.854 96.8  RSN  9 0.4 2.1LRSN                1
 GAP= 97        0.68       5.0     4.9 12.4 -0.7386E+01  0.3335E+02  0.1879E+02E
 Epicentro: LANDAZURI - SANTANDER                                              3
 ACTION:UP  10-09-07 10:56 OP:vdl  STATUS:               ID:20100820202434 L   I
 2010-08-20-2021-56S.COL___120                                                 6
 STAT SP IPHASW D HRMM SECON CODA AMPLIT PERI AZIMU VELO SNR AR TRES W  DIS CAZ7
 BAR2 SZ EP       2024 52.35                             134     0.210   88  57 
 BAR2 SZ ES   1   2025  5.81                             134    -0.3 7   88  57 
 BAR2 SZ I        2025  8.88        61.9 0.38                            88  57 
 RUS  HZ EP   2   2024 52.56                             134    -0.1 5   90 109 
 RUS  HZ I        2024 53.20        14.9 0.09                            90 109 
 RUS  HE ES   3   2025  6.19                             134    -0.8 2   90 109 
 BRR  HZ I        2025  9.98        30.6 0.05                           106   8 
 BTL  SZ ES   3   2025  9.39                             128     0.4 2  106  38 
 BRR  HZ EP   3   2024 53.30                             128    -0.2 2  106   8 
 BRR  HN ES   1   2025  8.68                             128     0.3 7  106   8 
 BTL  SZ EP   2   2024 53.82                             128     0.0 5  106  38 
 CHI  HN ES   3   2025 21.43                             115     0.1 2  170 175 
 HEL  HZ EP       2025  1.91                             113    -0.5 9  185 271 
 HEL  HZ I        2025 26.90         8.2 0.34                           185 271 
 GUY  SZ EP       2025  4.34                             112     0.5 9  197 238 
 GUY  SE ES   2   2025 26.63                             112    -0.3 4  197 238 
 GUY  SZ I        2025 32.06        29.9 0.71                           197 238 
 GUE  SZ EP   3   2025  4.59                             110    -0.7 2  211  29 
 GRA  SZ ES   2   2025 31.41                             109    -0.2 4  223  31 
 GRA  SZ I        2025 32.10        12.3 0.25                           223  31 
                                                                                
