 2014  420 2105 22.1 L   6.762 -73.152151.3  RSN  6 0.3 1.5LRSN                1
 GAP=137        0.78       3.8     3.7  6.8 -0.1291E+01  0.2935E+01  0.1791E+01E
 Epicentro: LOS SANTOS - SANTANDER                                             3
 ACTION:UPD 14-05-13 23:10 OP:nd   STATUS:               ID:20140420210522 L   I
 OLDACT:UP  14-04-21 02:37 OP:cam  STATUS:               ID:20140420205813     3
 OLDACT:REG 14-04-21 02:26 OP:cam  STATUS:               ID:20140420205813     3
 2014-04-20-2058-13M.COL___239                                                 6
 STAT SP IPHASW D HRMM SECON CODA AMPLIT PERI AZIMU VELO AIN AR TRES W  DIS CAZ7
 BRR  HZ EP       21 5 44.09                             153    0.1810 72.7 302 
 BRR  HN ES       21 6  1.53                             153    0.5910 72.7 302 
 BRR  HZ I        21 6  3.97         8.7 0.16            150           72.7 302 
 PAM  SZ EP     D 21 5 45.14                             151    0.0310 81.1  38 
 PAM  SN ES       21 6  2.69                             151   -0.3810 81.1  38 
 PAM  SZ I        21 6  4.11         3.5 0.66            153           81.1  38 
 RUS  HZ EP       21 5 46.34                             146    0.2410 96.5 175 
 RUS  HN ES       21 6  4.72                             146   -0.1110 96.5 175 
 RUS  HZ I        21 6  6.24         2.6 0.44            149           96.5 175 
 PTB  HZ EP       21 5 49.19                             134   -0.19 9  146 260 
 PTB  HN ES       21 6 10.24                             134   -0.43 9  146 260 
 PTB  HZ I        21 6 15.84         7.3 0.42            133            146 260 
 SPBC HN ES   1   21 6 13.11                             131    0.14 7  160 220 
 ZAR  HE ES   1   21 6 20.43                             123   -0.23 6  205 293 
 ZAR  HZ I        21 6 27.09         3.1 0.34            124            205 293 
                                                                                
