 2012 1220 2058 37.9 L   6.837 -73.135147.6  RSN 24 0.6 2.9LRSN 3.5WRSN        1
 SPEC AVERAGE  MO 14.3 ST 15.2 OM  2.6 f0 3.20 R0.5056 AL 2.16 WI 27.5 MW  3.5 3
 SPEC SD       MO  0.3 ST 14.0 OM  0.6 f00.831 R0.1887 AL      WI      MW  0.2 3
 GAP= 70        1.41       2.8     3.6  5.4 -0.1437E+01  0.5025E+01  0.1093E+01E
 Epicentro: LOS SANTOS - SANTANDER                                             3
 SPEC ZAR HH N MO 14.6 ST 37.4 OM  2.8 f0 4.18 R0.3517 AL 2.51 WI 27.2 MW  3.7 3
 SPEC ZAR HH N T205935 K 0.000 GD  251 VS 4.20 DE 3.00 Q0230.0 QA 0.60 VS 4.20 3
 SPEC TAM HH N MO 14.0 ST0.446 OM  2.3 f0 1.48 R0.9932 AL 1.32 WI 19.8 MW  3.3 3
 SPEC TAM HH N T205926 K 0.000 GD  214 VS 4.20 DE 3.00 Q0230.0 QA 0.60 VS 4.20 3
 SPEC MON HH N MO 14.0 ST  5.5 OM  2.1 f0 3.28 R0.4482 AL 1.59 WI 32.6 MW  3.3 3
 SPEC MON HH N T21 0 1 K 0.000 GD  381 VS 4.20 DE 3.00 Q0230.0 QA 0.60 VS 4.20 3
 SPEC HEL HH Z MO 14.0 ST  3.1 OM  1.4 f0 2.76 R0.5326 AL 1.66 WI 30.8 MW  3.3 3
 SPEC HEL HH Z T205918 K 0.000 GD  311 VP 7.60 DE 3.00 Q0230.0 QA 0.60 VS 4.20 3
 SPEC NOR HH Z MO 14.3 ST 20.0 OM  1.7 f0 4.21 R0.3492 AL 2.37 WI 26.4 MW  3.5 3
 SPEC NOR HH Z T205913 K 0.000 GD  280 VP 7.60 DE 3.00 Q0230.0 QA 0.60 VS 4.20 3
 SPEC OCA HH N MO 14.7 ST 35.1 OM  3.0 f0 3.70 R0.3973 AL 2.81 WI 24.7 MW  3.7 3
 SPEC OCA HH N T205927 K 0.000 GD  214 VS 4.20 DE 3.00 Q0230.0 QA 0.60 VS 4.20 3
 SPEC COD HH N MO 13.9 ST  3.1 OM  2.0 f0 2.95 R0.4983 AL 1.52 WI 26.6 MW  3.2 3
 SPEC COD HH N T21 0 2 K 0.000 GD  374 VS 4.20 DE 3.00 Q0230.0 QA 0.60 VS 4.20 3
 SPEC CHI HH N MO 14.3 ST  4.7 OM  2.5 f0 2.51 R0.5857 AL 2.35 WI 28.8 MW  3.5 3
 SPEC CHI HH N T205944 K 0.000 GD  292 VS 4.20 DE 3.00 Q0230.0 QA 0.60 VS 4.20 3
 SPEC BRR HH N MO 14.6 ST 27.4 OM  3.0 f0 3.73 R0.3941 AL 3.31 WI 30.3 MW  3.7 3
 SPEC BRR HH N T205916 K 0.000 GD  163 VS 4.20 DE 3.00 Q0230.0 QA 0.60 VS 4.20 3
 ACTION:UPD 13-01-04 14:29 OP:ep   STATUS:               ID:20121220205837 L   I
 2012-12-20-2057-20M.COL___214                                                 6
 STAT SP IPHASW D HRMM SECON CODA AMPLIT PERI AZIMU VELO AIN AR TRES W  DIS CAZ7
 GIR2 SZ EP       2058 57.80                             169    0.1010 27.5 346 
 GIR2 SZ ES       2059 12.96                             169   -0.1910 27.5 346 
 GIR2 SZ I        2059 15.25        78.8 0.20                          27.5 346 
 BAR2 SZ IP       2058 57.76                             169   -0.0910 27.6 191 
 BAR2 SZ ES       2059 13.33                             169   -0.0810 27.6 191 
 BAR2 SZ I        2059 15.52       181.2 0.36                          27.6 191 
 BRR  HZ IP     C 2058 59.62                             153    0.4110 70.4 295 
 BRR  HN ES       2059 16.58                             153    0.7510 70.4 295 
 PAM  SZ IP       2059  0.67                             152    0.5810 73.5  41 
 PAM  SN ES       2059 17.68                             152    0.2810 73.5  41 
 RUS  HZ IP     D 2059  1.58                             143   -0.5510  105 177 
 RUS  HN ES       2059 20.34                             143   -0.6910  105 177 
 PTB  HZ EP       2059  4.45                             132   -0.75 9  150 257 
 PTB  HN ES       2059 25.48                             132   -1.02 9  150 257 
 TAM  HZ EP       2059  5.91                             131    0.18 9  155 107 
 TAM  HN ES       2059 27.02                             131   -0.41 9  155 107 
 OCA  HZ EP       2059  5.80                             131   -0.19 9  156 353 
 OCA  HN ES       2059 28.07                             131    0.17 9  156 353 
 ZAR  HZ EP       2059 10.24                             123   -0.19 9  204 291 
 ZAR  HN ES       2059 36.47                             123    0.67 9  204 291 
 CTAU SZ EP       2059 13.62                             123    2.20 8  207 209 
 CTAU SZ I        2059 14.49        81.3 0.14                           207 209 
 CTAB SZ EP       2059 14.91                             119    0.71 8  234 210 
 CTAB SZ I        2059 16.43        58.3 0.56                           234 210 
 CTAB SZ ES       2059 43.20                             119    0.69 8  234 210 
 NOR  HZ EP       2059 13.44                             118   -0.66 8  238 234 
 NOR  HN ES       2059 41.98                             118   -0.35 8  238 234 
 SML  HZ EP       2059 14.25                             118   -0.04 8  240 335 
 SML  HN ES       2059 43.14                             118    0.48 8  240 335 
 CHI  HZ EP       2059 15.70                             117   -0.47 8  253 195 
 CHI  HN ES       2059 45.50                             117   -0.51 8  253 195 
 ROSC BE ES       2059 46.79                             117    0.05 8  257 211 
 ROSC BZ I        2059 55.30        63.5 0.35                           257 211 
 HEL  HZ EP       2059 19.08                             115    0.63 8  274 255 
 HEL  HN ES       2059 50.32                             115    0.24 8  274 255 
 RREF HZ EP       2059 24.81                             111    0.28 7  325 229 
 RREF HN ES       21 0  0.69                             111   -0.21 7  325 229 
 RREF HZ I        21 0  8.46        36.7 0.24                           325 229 
 COD  HZ EP       2059 26.38                             109    0.49 7  344 354 
 COD  HN ES       21 0  2.88                             109   -0.45 7  344 354 
 TOL  SZ EP       2059 26.88                             109    0.22 6  347 224 
 TOL  SZ ES       21 0  4.67                             109   -0.03 6  347 224 
 MON  HN ES       21 0  3.57                             109   -1.35 6  352 308 
 SDV  BZ EP       2059 27.11                             109   -0.50 6  357  51 
 ANIL HZ EP       2059 28.89                             108    0.68 6  361 224 
 ANIL HE ES       21 0  7.55                             108    0.10 6  361 224 
 PRA  HZ EP       2059 31.00                             107   -0.97 6  396 209 
 PRA  HN ES       21 0 14.50                             107    0.35 6  396 209 
 SJC  HE EP       2059 32.07                             106   -1.13 6  406 326 
 SJC  HN ES       21 0 15.31                             106   -1.02 6  406 326 
                                                                                
