 2011  921 0449 20.3 L   6.300 -73.639106.0  RSN 12 0.3 1.9LRSN                1
 GAP= 69        0.49       1.7     2.1  4.2 -0.8351E+00  0.4651E+01  0.2771E+00E
 Epicentro: SANTA HELENA DEL OPON - SANTANDER                                  3
 ACTION:UPD 12-07-13 15:58 OP:ep   STATUS:               ID:20110921044920 L   I
 2011-09-21-0447-00S.COL___164                                                 6
 STAT SP IPHASW D HRMM SECON CODA AMPLIT PERI AZIMU VELO AIN AR TRES W  DIS CAZ7
 BAR2 SZ EP        449 37.00                             149    0.1410 60.0  57 
 BAR2 SZ I         449 37.38        27.6 0.30                          60.0  57 
 BAR2 SZ ES        449 49.99                             149    0.1910 60.0  57 
 RUS  HZ EP   1    449 38.10                             142   -0.26 7 76.3 126 
 RUS  HN ES   1    449 52.31                             142   -0.17 7 76.3 126 
 RUS  HZ I         449 55.27         9.5 0.33                          76.3 126 
 BTL  SZ EP        449 38.33                             140    0.0610 79.8  31 
 BRR  HZ EP        449 38.62                             137   -0.1110 89.6 355 
 BRR  HZ I         449 38.91        15.1 0.12                          89.6 355 
 NOR  SZ EP   1    449 45.65                             119    0.12 7  159 239 
 NOR  SE ES   1    450  5.33                             119    0.09 7  159 239 
 YOP  SZ EP   1    449 46.87                             117   -0.04 7  171 128 
 YOP  SZ I         449 47.50         8.3 0.18                           171 128 
 CHI  HZ EP   1    449 49.15                             115    0.29 7  185 183 
 CHI  HN ES   1    450 10.92                             115   -0.25 7  185 183 
 CHI  HZ I         450 16.69         4.4 0.32                           185 183 
 ZAR  HZ EP   2    449 48.23                             114   -0.49 4  188 314 
 ZAR  HN ES   2    450 10.44                             114   -0.48 4  188 314 
 ZAR  HZ I         450 15.56        17.3 0.34                           188 314 
 HEL  HZ EP   1    449 52.36                             112    0.82 6  209 267 
 HEL  HN ES   1    450 15.78                             112   -0.16 6  209 267 
 HEL  HZ I         450 20.75         5.0 0.16                           209 267 
 OCA  SZ EP   1    449 51.83                             111   -0.33 6  217   9 
 OCA  SZ ES   1    450 17.06                             111    0.02 6  217   9 
 OCA  SZ I         450 23.78         9.9 0.53                           217   9 
 RREF HZ EP   1    449 55.82                             108   -0.08 6  244 231 
 RREF HE ES   1    450 23.56                             108   -0.13 6  244 231 
 RREF HZ I         450 31.42         9.7 0.20                           244 231 
 PRA  HZ EP   1    450  3.71                             102   -0.08 5  318 206 
 PRA  HN ES   1    450 37.79                             102    0.05 5  318 206 
 PRA  HZ I         450 45.07        11.5 0.16                           318 206 
                                                                                
