 2012 1021 1215  0.1 L   6.763 -73.088146.1  RSN  4 0.2 1.6LRSN                1
 GAP=146        0.46       3.1     4.6  4.5  0.6648E+00 -0.1979E+00  0.1095E+01E
 Epicentro: LOS SANTOS - SANTANDER                                             3
 ACTION:UPD 12-11-22 17:05 OP:ep   STATUS:               ID:20121021121500 L   I
 2012-10-21-1210-00M.COL___231                                                 6
 STAT SP IPHASW D HRMM SECON CODA AMPLIT PERI AZIMU VELO AIN AR TRES W  DIS CAZ7
 BAR2 SZ EP       1215 19.70                             171   -0.0210 21.6 209 
 BAR2 SZ ES   1   1215 35.44                             171    0.41 7 21.6 209 
 BAR2 SZ I        1215 36.37        16.4 0.45                          21.6 209 
 PAM  SZ EP   1   1215 22.46                             151    0.16 7 76.9  34 
 PAM  SN ES   1   1215 39.44                             151   -0.19 7 76.9  34 
 PAM  SZ I        1215 42.10         4.6 0.51                          76.9  34 
 BRR  HZ EP       1215 21.77                             150    0.0610 78.8 299 
 BRR  HN ES   1   1215 38.39                             150   -0.19 7 78.8 299 
 BRR  HZ I        1215 44.04         9.1 0.14                          78.8 299 
 RUS  HZ EP       1215 23.52                             145   -0.0410 96.2 180 
 RUS  HN ES   1   1215 41.69                             145   -0.18 7 96.2 180 
 RUS  HN I        1215 44.80         3.0 0.24                          96.2 180 
                                                                                
