 2010  321 1715  5.0 L   6.790 -73.031147.3  RSN  8 0.3 2.1LRSN                1
 GAP=195        0.54       2.6     5.7  4.6  0.4332E+00  0.5300E+01  0.6604E+00E
 Epicentro: CEPITA - SANTANDER                                                 3
 ACTION:UP  10-08-24 09:55 OP:vdl  STATUS:               ID:20100321171505 L   I
 2010-03-21-1712-28S.COL___098                                                 6
 STAT SP IPHASW D HRMM SECON CODA AMPLIT PERI AZIMU VELO SNR AR TRES W  DIS CAZ7
 BAR2 SZ IP       1715 24.83                             169    -0.110   28 218 
 BAR2 SZ ES   1   1715 40.24                             169    -0.2 7   28 218 
 BRR  HZ IP       1715 26.76                             149    -0.310   83 295 
 BRR  HZ I        1715 28.49        22.5 0.13                            83 295 
 BRR  HE ES   1   1715 44.38                             149     0.2 7   83 295 
 RUS  HZ EP   2   1715 29.23                             145     0.4 5   99 183 
 RUS  HE ES   1   1715 47.61                             145     0.2 7   99 183 
 RUS  HZ I        1715 50.72        10.9 0.39                            99 183 
 OCA  SZ EP   1   1715 33.48                             129    -0.2 7  163 349 
 OCA  SZ ES   1   1715 56.58                             129     0.5 7  163 349 
 OCA  SZ I        1716  4.81        28.4 0.39                           163 349 
 CHI  HZ EP   2   1715 43.09                             117     0.0 4  251 198 
 CHI  HN ES   2   1716 12.57                             117    -0.2 4  251 198 
 CHI  HZ I        1716 18.33         6.8 0.62                           251 198 
 HEL  HZ EP   2   1715 47.22                             114     0.6 4  284 257 
 HEL  HE ES   2   1716 18.93                             114    -0.2 4  284 257 
 HEL  HZ I        1716 22.61         5.5 0.58                           284 257 
 DBB  SZ EP   2   1715 53.80                             109    -0.2 3  352 274 
 PRA  HZ EP   1   1715 59.18                             107     0.0 4  397 211 
 PRA  HE ES   1   1716 41.80                             107     0.3 4  397 211 
 PRA  HZ I        1716 45.42         7.2 0.34                           397 211 
                                                                                
