 2017  921 1306  4.8 L   6.777 -73.100144.2  RSN  5 0.3 1.6LRSN                1
 GAP=144        0.75       4.0     5.9  6.1 -0.5347E+00 -0.2471E+01  0.8904E+00E
 Epicentro: LOS SANTOS - SANTANDER                                             3
 ACTION:UPD 17-10-05 19:14 OP:rebc STATUS:               ID:20170921130604 L   I
 OLDACT:REG 17-09-21 19:56 OP:lv   STATUS:               ID:20170921125746     3
 2017-09-21-1258-00M.COL___440                                                 6
 STAT SP IPHASW D HRMM SECON CODA AMPLIT PERI AZIMU VELO AIN AR TRES W  DIS CAZ7
 BAR2 EZ EP       13 6 23.99                             171   -0.2210 22.3 204 
 BAR2 EZ ES       13 6 38.92                             171   -0.4410 22.3 204 
 BAR2 EZ I        13 6 40.36        10.0 0.31            170           22.3 204 
 PAM  EZ EP       13 6 26.92                             151    0.1510 76.4  35 
 PAM  EN ES       13 6 43.99                             151    0.0710 76.4  35 
 PAM  EZ I        13 6 46.18        10.4 0.50            152           76.4  35 
 BRR  HZ EP       13 6 25.76                             150   -0.3410 76.9 298 
 BRR  HE ES       13 6 43.10                             150    0.3810 76.9 298 
 RUS  HZ EP       13 6 28.37                             144    0.1910 97.8 179 
 RUS  HN ES       13 6 46.64                             144    0.2110 97.8 179 
 RUS  HZ I        13 6 47.72         2.7 0.28            146           97.8 179 
 ZAR  HZ EP   4   13 6 40.18                             121    2.46 0  210 292 
 ZAR  HE ES   4   13 7  1.72                             121   -1.68 0  210 292 
 ZAR  HZ I        13 7  8.76         3.6 0.09            120            210 292 
                                                                                
