 2013  121 1809 16.5 L   6.785 -73.149140.6  RSN 11 0.4 2.4LRSN                1
 GAP= 71        0.77       3.2     3.7  6.0 -0.1168E+01  0.5143E+01  0.2626E+01E
 Epicentro: LOS SANTOS - SANTANDER                                             3
 ACTION:UPD 13-02-15 09:15 OP:ep   STATUS:               ID:20130121180916 L   I
 2013-01-21-1807-45M.COL___190                                                 6
 STAT SP IPHASW D HRMM SECON CODA AMPLIT PERI AZIMU VELO AIN AR TRES W  DIS CAZ7
 BAR2 SZ EP       18 9 35.52                             171    0.1010 21.6 190 
 BAR2 SZ ES   1   18 9 50.21                             171   -0.01 7 21.6 190 
 BAR2 SZ I        18 9 53.27        77.6 0.44            164           21.6 190 
 BRR  HZ EP     C 18 9 37.39                             151    0.3210 71.7 300 
 BRR  HN ES   4   18 9 54.91                             151    1.76 0 71.7 300 
 BRR  HZ I        18 9 57.01        25.1 0.12            145           71.7 300 
 PAM  SZ EP       18 9 38.28                             149    0.0710 78.9  39 
 PAM  SE ES   1   18 9 55.13                             149   -0.04 7 78.9  39 
 PAM  SZ I        18 9 57.79        38.4 0.50            149           78.9  39 
 RUS  HZ EP   1   18 9 39.32                             143   -0.25 7 99.0 176 
 RUS  HN ES   1   18 9 57.70                             143    0.09 7 99.0 176 
 RUS  HZ I        18 9 59.27        28.1 0.22            135           99.0 176 
 PTB  HZ EP   1   18 9 42.28                             131   -0.66 7  147 259 
 PTB  HN ES   1   1810  3.56                             131   -0.04 7  147 259 
 PTB  HZ I        1810  9.44        33.5 0.42            123            147 259 
 TAM  HZ EP   1   18 9 43.66                             129   -0.05 7  155 104 
 OCA  HE ES   1   1810  5.97                             128   -0.43 7  162 353 
 ZAR  HZ EP   1   18 9 48.28                             121   -0.31 6  204 293 
 ZAR  HN ES   1   1810 14.32                             121    0.65 6  204 293 
 ZAR  HZ I        1810 19.83        30.1 0.34            115            204 293 
 NOR  HZ EP   1   18 9 51.49                             117   -0.26 6  233 235 
 NOR  HE ES   1   1810 18.80                             117   -0.48 6  233 235 
 NOR  HZ I        1810 23.71        20.9 0.22            111            233 235 
 CHI  HZ EP   1   18 9 53.48                             116   -0.20 6  247 195 
 CHI  HN ES   1   1810 22.57                             116   -0.15 6  247 195 
 CHI  HZ I        1810 28.42        10.0 0.32            110            247 195 
 ROSC BZ EP   1   18 9 55.41                             116    1.29 6  251 211 
 ROSC BZ I        1810 30.54        22.8 0.55            110            251 211 
                                                                                
