 2015  121 1054 39.7 L   6.787 -73.091148.0  RSN  4 0.1 1.5LRSN                1
 GAP=231        0.36       3.6     3.9  4.7 -0.2044E+01  0.4180E+01 -0.1000E+02E
 Epicentro: LOS SANTOS - SANTANDER                                             3
 ACTION:UPD 15-03-02 15:41 OP:nd   STATUS:               ID:20150121105439 L   I
 OLDACT:REG 15-01-21 20:15 OP:spq  STATUS:               ID:20150121104746     3
 2015-01-21-1047-46M.COL___268                                                 6
 STAT SP IPHASW D HRMM SECON CODA AMPLIT PERI AZIMU VELO AIN AR TRES W  DIS CAZ7
 BAR2 EZ ES   1   1055 15.19                             171    0.06 9 23.8 205 
 BAR2 EZ I        1055 16.11         6.2 0.34            171           23.8 205 
 PTB  HZ EP   1   1055  7.43                             131    0.07 9  153 260 
 PTB  HE ES   1   1055 28.77                             131   -0.17 9  153 260 
 PTB  HZ I        1055 30.95         3.0 0.16            133            153 260 
 ZAR  HZ EP   2   1055 13.21                             122    0.29 5  210 292 
 ZAR  HN ES   1   1055 38.95                             122    0.11 8  210 292 
 ZAR  HZ I        1055 43.98         3.2 0.48            123            210 292 
 SML  HZ EP       1055 16.69                             118   -0.1810  248 334 
 SML  HE ES   1   1055 45.95                             118    0.08 7  248 334 
 SML  HZ I        1055 52.61         2.1 0.02            118            248 334 
                                                                                
