 2014  721 2147 55.2 L   6.740 -73.199147.0  RSN  5 0.5 1.6LRSN                1
 GAP=227        1.24       7.2     7.7  9.1  0.1143E+02  0.9855E+01  0.6730E+01E
 Epicentro: VILLANUEVA - SANTANDER                                             3
 ACTION:UPD 15-03-16 20:45 OP:nd   STATUS:               ID:20140721214755 L   I
 OLDACT:DUP 14-07-22 05:43 OP:stll STATUS:               ID:20140721213821d    3
 2014-07-21-2138-20M.COL___269                                                 6
 STAT SP IPHASW D HRMM SECON CODA AMPLIT PERI AZIMU VELO AIN AR TRES W  DIS CAZ7
 BAR2 SZ EP       2148 14.57                             173   -0.3110 16.4 173 
 BAR2 SZ ES       2148 29.77                             173   -0.4410 16.4 173 
 BAR2 SZ I        2148 31.15        12.1 0.30            168           16.4 173 
 BRR  HZ EP       2148 16.51                             153    0.0910 69.7 306 
 BRR  HN ES       2148 33.78                             153    0.8310 69.7 306 
 RUS  HZ EP       2148 18.56                             146   -0.1110 94.6 172 
 RUS  HZ I        2148 19.41         4.1 0.48            145           94.6 172 
 RUS  HN ES       2148 37.03                             146    0.0710 94.6 172 
 PTB  HZ EP       2148 21.48                             134   -0.19 9  141 261 
 PTB  HN ES       2148 41.39                             134   -0.90 9  141 261 
 PTB  HZ I        2148 49.93         4.1 0.34            131            141 261 
 SPBC HZ EP       2148 23.47                             131    0.48 9  154 219 
 SPBC HN ES       2148 45.13                             131    0.49 9  154 219 
 SPBC HZ I        2148 49.17         5.2 0.32            129            154 219 
                                                                                
