 2014  221 2041 50.6 L   6.819 -73.165139.2  RSN  9 0.4 1.9LRSN                1
 GAP=133        0.99       3.3     4.9  7.0 -0.3548E+01  0.1030E+02  0.2309E-01E
 Epicentro: LOS SANTOS - SANTANDER                                             3
 ACTION:UPD 14-03-10 08:11 OP:ep   STATUS:               ID:20140221204150 L   I
 OLDACT:REG 14-02-22 00:19 OP:mh   STATUS:               ID:20140221204000     3
 2014-02-21-2040-00M.COL___215                                                 6
 STAT SP IPHASW D HRMM SECON CODA AMPLIT PERI AZIMU VELO AIN AR TRES W  DIS CAZ7
 BAR2 SZ ES   1   2042 23.85                             169   -0.34 7 25.2 184 
 BAR2 SZ I        2042 26.01        39.8 0.24            170           25.2 184 
 PAM  SZ EP       2042 12.69                             150    0.5910 77.2  42 
 PAM  SN ES   1   2042 29.27                             150    0.40 7 77.2  42 
 PAM  SZ I        2042 31.33         9.8 0.20            153           77.2  42 
 RUS  HZ EP       2042 13.85                             142   -0.0210  103 175 
 RUS  HN ES       2042 31.62                             142   -0.4110  103 175 
 RUS  HZ I        2042 34.27         6.2 0.33            145            103 175 
 PTB  HZ EP       2042 16.69                             131   -0.18 9  146 258 
 PTB  HN ES       2042 37.43                             131    0.06 9  146 258 
 PTB  HZ I        2042 39.77        10.6 0.14            131            146 258 
 OCA  HN ES   1   2042 39.47                             128   -0.22 7  158 354 
 SPBC HZ EP       2042 18.17                             127   -0.45 9  163 218 
 SPBC HN ES   1 C 2042 40.12                             127   -0.37 7  163 218 
 SPBC HZ I        2042 48.78        10.9 0.21            129            163 218 
 NOR  HZ EP       2042 26.15                             117    0.26 8  234 234 
 NOR  HN ES       2042 54.12                             117    0.70 8  234 234 
 SML  HZ EP   1   2042 26.33                             116   -0.22 6  241 336 
 SML  HN ES   1   2042 54.36                             116   -0.23 6  241 336 
 SML  HZ I        2043  3.87        18.2 0.05            118            241 336 
 CHI  HZ EP       2042 27.40                             115   -0.70 8  250 195 
 CHI  HN ES       2042 58.19                             115    0.84 8  250 195 
 CHI  HZ I        2043  1.98         3.4 0.39            118            250 195 
                                                                                
