 2010  821 2323 36.7 L   6.797 -73.055145.8  RSN  5 0.2 1.4LRSN                1
 GAP=175        0.43       3.8     7.3  4.8  0.1381E+02 -0.1602E+02 -0.6678E+01E
 Epicentro: LOS SANTOS - SANTANDER                                             3
 ACTION:UP  10-09-07 10:57 OP:vdl  STATUS:               ID:20100821232336 L   I
 2010-08-21-2322-45S.COL___120                                                 6
 STAT SP IPHASW D HRMM SECON CODA AMPLIT PERI AZIMU VELO SNR AR TRES W  DIS CAZ7
 BTL  SZ EP       2323 56.62                             169     0.210   27 300 
 BAR2 SZ EP   2   2323 56.41                             168     0.0 5   27 212 
 BAR2 SZ ES   2   2324 11.55                             168    -0.2 5   27 212 
 BAR2 SZ I        2324 13.75         5.9 0.35                            27 212 
 BTL  SZ ES   1   2324 11.96                             169     0.2 7   27 300 
 BRR  HZ EP       2323 58.29                             149    -0.110   80 295 
 BRR  HZ I        2324  0.95         8.0 0.15                            80 295 
 BRR  HE ES   1   2324 15.28                             149     0.0 7   80 295 
 RUS  HZ EP   1   2324  0.57                             144     0.1 7  100 182 
 RUS  HN ES   1   2324 18.75                             144    -0.2 7  100 182 
 RUS  HZ I        2324 20.08         2.1 0.31                           100 182 
 GUE  SZ EP   1   2324  1.14                             140    -0.2 7  115   7 
                                                                                
