 2012  622 0356 36.4 L   6.727 -73.129141.3  RSN  4 0.1 1.3LRSN                1
 GAP=166        0.33       6.8     3.5  4.1 -0.1029E+02 -0.1491E+01  0.4817E+01E
 Epicentro: JORDAN - SANTANDER                                                 3
 ACTION:UPD 12-08-06 17:51 OP:ep   STATUS:               ID:20120622035636 L   I
 2012-06-22-0340-00M.COL___193                                                 6
 STAT SP IPHASW D HRMM SECON CODA AMPLIT PERI AZIMU VELO AIN AR TRES W  DIS CAZ7
 BAR2 SZ ES   2    357 10.19                             173    0.01 5 16.0 201 
 BAR2 SZ I         357 12.01         4.1 0.26                          16.0 201 
 BRR  HZ EP        356 57.42                             150   -0.0210 76.9 303 
 BRR  HN ES   1    357 13.85                             150    0.03 7 76.9 303 
 BRR  HZ I         357 19.04         6.4 0.54                          76.9 303 
 PAM  SZ EP        356 58.59                             148    0.0810 82.7  35 
 PAM  SZ I         356 58.77         5.4 0.20                          82.7  35 
 PAM  SN ES   1    357 15.61                             148   -0.11 7 82.7  35 
 PTB  HZ EP   3    357  2.66                             131   -0.42 2  148 262 
 PTB  HZ I         357 25.88         1.8 0.24                           148 262 
                                                                                
