 2011 1222 0510 27.8 L   6.780 -73.382123.0  RSN  5 0.1 1.4LRSN                1
 GAP=101        0.37       3.3     4.0  3.5  0.5940E+01  0.3481E+01  0.4820E+01E
 Epicentro: ZAPATOCA - SANTANDER                                               3
 ACTION:UPD 12-07-13 16:17 OP:ep   STATUS:               ID:20111222051027 L   I
 2011-12-22-0510-00M.COL___191                                                 6
 STAT SP IPHASW D HRMM SECON CODA AMPLIT PERI AZIMU VELO AIN AR TRES W  DIS CAZ7
 BAR2 SZ EP        510 45.12                             165    0.1910 30.3 133 
 BAR2 SZ ES   1    510 58.21                             165   -0.05 7 30.3 133 
 BAR2 SZ I         510 59.61        10.8 0.33                          30.3 133 
 GIR2 SZ EP        510 45.03                             161   -0.0610 39.0  32 
 GIR2 SZ ES   2    510 58.24                             161   -0.31 5 39.0  32 
 BRR  HZ EP        510 45.36                             156   -0.0710 51.4 315 
 BRR  HN ES        510 59.26                             156    0.1010 51.4 315 
 BRR  HZ I         511  0.44         8.4 0.20                          51.4 315 
 RUS  HZ EP   1    510 49.76                             138    0.09 7  104 161 
 RUS  HZ I         510 50.54         2.6 0.10                           104 161 
 RUS  HN ES   2    511  6.53                             138   -0.17 5  104 161 
 NOR  SZ EP   1    510 59.75                             116   -0.15 6  213 231 
                                                                                
