 2016 1222 0701 51.0 L   6.776 -73.172145.2  RSN  5 0.1 1.3LRSN                1
 GAP=233        0.36       2.8     2.6  2.9  0.4478E+01  0.1004E+01  0.1211E-01E
 Epicentro: LOS SANTOS - SANTANDER                                             3
 ACTION:UPD 17-01-11 20:17 OP:rebc STATUS:               ID:20161222070151 L   I
 OLDACT:REG 16-12-22 13:08 OP:cog  STATUS:               ID:20161222065743     3
 2016-12-22-0658-00M.COL___362                                                 6
 STAT SP IPHASW D HRMM SECON CODA AMPLIT PERI AZIMU VELO AIN AR TRES W  DIS CAZ7
 BAR2 EZ EP        7 2 10.59                             172    0.0710 20.4 183 
 BAR2 EZ ES        7 2 25.67                             172   -0.0610 20.4 183 
 BAR2 EZ I         7 2 28.31         4.5 0.34            166           20.4 183 
 BRR  HZ EP        7 2 12.21                             153    0.1710 70.0 302 
 BRR  HN ES        7 2 28.34                             153   -0.0910 70.0 302 
 BRR  HZ I         7 2 34.07         4.1 0.36            153           70.0 302 
 RUS  HZ EP        7 2 14.45                             144   -0.0910 98.2 174 
 RUS  HN ES        7 2 32.98                             144    0.0910 98.2 174 
 RUS  HZ I         7 2 37.98         1.7 0.34            144           98.2 174 
 PTB  HZ EP        7 2 17.46                             133   -0.18 9  144 260 
 PTB  HN ES        7 2 38.46                             133    0.06 9  144 260 
 PTB  HZ I         7 2 45.77         3.9 0.40            133            144 260 
 ZAR  HN ES        7 2 48.45                             122    0.05 9  202 293 
                                                                                
