 2017  622 0138 56.1 L   6.832 -73.148161.8  RSN  6 0.3 1.8LRSN                1
 GAP=251        0.63       3.9     7.0  6.2  0.2239E+01 -0.1371E+02  0.1337E+00E
 Epicentro: LOS SANTOS - SANTANDER                                             3
 ACTION:UPD 17-09-14 16:54 OP:jn   STATUS:               ID:20170622013856 L   I
 OLDACT:UP  17-07-06 18:55 OP:nlst STATUS:               ID:20170622013856 L   3
 OLDACT:REG 17-06-22 12:32 OP:lv   STATUS:               ID:20170622013740     3
 2017-06-22-0138-00M.COL___346                                                 6
 STAT SP IPHASW D HRMM SECON CODA AMPLIT PERI AZIMU VELO AIN AR TRES W  DIS CAZ7
 BRR  HZ EP        139 19.08                             156    0.1710 69.4 296 
 BRR  HN ES        139 36.60                             156   -0.1110 69.4 296 
 PTB  HZ EP        139 24.20                             135   -0.26 9  148 257 
 PTB  HE ES   1    139 46.14                             135   -0.44 7  148 257 
 SPBC HZ EP        139 26.36                             132    0.25 9  166 218 
 SPBC HN ES        139 49.54                             132    0.02 9  166 218 
 SPBC HZ I         139 51.05         6.5 0.22            132            166 218 
 ZAR  HN ES        139 55.92                             126    0.39 9  203 291 
 GUY2CHZ EP   4    139 42.57                             115    1.87 0  303 234 
 GUY2CHN ES   4    140 18.87                             115    3.39 0  303 234 
 GUY2CHZ I         140 25.02         2.7 0.48                           303 234 
 SJC  HZ EP        139 51.50                             108   -0.38 6  406 327 
 SJC  HN ES   4    140 32.95                             108   -2.43 0  406 327 
                                                                                
