 2017 1022 0439 10.0 L   6.600 -73.080174.1  RSN  6 0.5 1.5LRSN                1
 GAP=201        1.32       8.4     8.3  9.2  0.1744E+02 -0.7757E+01  0.5875E+01E
 Epicentro: CURITI - SANTANDER                                                 3
 ACTION:UPD 17-11-07 19:35 OP:rebc STATUS:               ID:20171022043910 L   I
 OLDACT:REG 17-10-22 13:46 OP:dani STATUS:               ID:20171022043736     3
 2017-10-22-0438-00M.COL___414                                                 6
 STAT SP IPHASW D HRMM SECON CODA AMPLIT PERI AZIMU VELO AIN AR TRES W  DIS CAZ7
 BAR2 EZ EP        439 32.26                             176   -0.6610 11.3 266 
 BAR2 EZ ES        439 50.61                             176   -0.1710 11.3 266 
 BAR2 EZ I         439 51.17         8.5 0.44            174           11.3 266 
 RUS  HZ EP        439 35.39                             155    0.0210 78.2 180 
 RUS  HN ES        439 55.23                             155    0.0910 78.2 180 
 RUS  HZ I         439 56.23         9.6 0.22            155           78.2 180 
 BRR  HZ EP        439 35.68                             151    0.4110 89.5 309 
 BRR  HN ES        439 55.58                             151    0.6110 89.5 309 
 BRR  HZ I         439 58.37         2.8 0.16            151           89.5 309 
 SPBC HZ EP        439 40.81                             137    0.94 9  152 226 
 SPBC HN ES        440  3.39                             137    0.24 9  152 226 
 SPBC HZ I         440  7.65         2.5 0.12            137            152 226 
 PTB  HZ EP        439 39.43                             137   -0.38 9  152 268 
 PTB  HN ES        440  2.15                             137   -0.89 9  152 268 
 PTB  HZ I         440  3.92         1.9 0.11            137            152 268 
 YPLC HZ EP        439 39.75                             137   -0.28 9  154 150 
                                                                                
