 2016  522 1418 39.3 L   6.785 -73.154143.8  RSN  6 0.4 1.5LRSN                1
 GAP=235        0.90       5.0     5.0  6.2  0.1955E+01  0.6969E+01  0.4751E+01E
 Epicentro: LOS SANTOS - SANTANDER                                             3
 ACTION:UPD 16-08-18 17:48 OP:cam  STATUS:               ID:20160522141839 L   I
 OLDACT:DUP 16-05-22 22:49 OP:drio STATUS:               ID:20160522140750d    3
 2016-05-22-1407-47M.COL___302                                                 6
 STAT SP IPHASW D HRMM SECON CODA AMPLIT PERI AZIMU VELO AIN AR TRES W  DIS CAZ7
 BAR2 EZ EP       1418 58.70                             171    0.0610 21.5 188 
 BAR2 EZ ES       1419 13.99                             171    0.2610 21.5 188 
 BAR2 EZ I        1419 16.40         7.6 0.28            168           21.5 188 
 BRR  HZ EP       1419  0.55                             152    0.3310 71.2 300 
 BRR  HZ I        1419  5.07         5.2 0.32            151           71.2 300 
 BRR  HE ES       1419 16.53                             152   -0.0210 71.2 300 
 RUS  HZ EP       1419  3.01                             144    0.2910 99.0 175 
 RUS  HN ES       1419 20.56                             144   -0.4510 99.0 175 
 RUS  HZ I        1419 22.47         5.3 0.32            143           99.0 175 
 PTB  HZ EP       1419  5.47                             132   -0.51 9  147 259 
 PTB  HE ES       1419 26.41                             132   -0.39 9  147 259 
 PTB  HZ I        1419 29.47         2.9 0.38            131            147 259 
 SPBC HZ EP       1419  7.41                             129   -0.04 9  161 219 
 SPBC HN ES       1419 29.42                             129   -0.00 9  161 219 
 SPBC HZ I        1419 35.80         6.4 0.20            128            161 219 
 NOR  HZ EP       1419 14.42                             118   -0.29 8  233 235 
 NOR  HE ES       1419 43.17                             118    0.82 8  233 235 
 NOR  HZ I        1419 48.26         3.3 0.16            118            233 235 
                                                                                
