 2014 1022 1840 22.3 L   6.280 -73.654105.2  RSN 13 0.5 1.9LRSN                1
 GAP= 68        1.17       3.1     3.7  6.6 -0.1280E+00  0.6684E+01  0.3027E+01E
 Epicentro: SANTA HELENA DEL OPON - SANTANDER                                  3
 ACTION:UPD 14-11-29 23:54 OP:nd   STATUS:               ID:20141022184022 L   I
 OLDACT:REG 14-10-25 03:48 OP:fm   STATUS:               ID:20141022183747     3
 2014-10-22-1837-47M.COL___274                                                 6
 STAT SP IPHASW D HRMM SECON CODA AMPLIT PERI AZIMU VELO AIN AR TRES W  DIS CAZ7
 BAR2 SZ IP     C 1840 39.20                             147    0.2410 62.5  57 
 BAR2 SZ ES   1   1840 52.04                             147    0.07 7 62.5  57 
 RUS  HZ EP       1840 40.14                             142   -0.1610 76.3 124 
 RUS  HN ES       1840 54.52                             142    0.1610 76.3 124 
 RUS  HZ I        1840 56.26        15.8 0.28            146           76.3 124 
 SPBC HZ EP       1840 40.09                             138   -0.2110 83.5 214 
 SPBC HN ES       1840 54.96                             138    0.5910 83.5 214 
 SPBC HZ I        1841  3.33        19.3 0.12            140           83.5 214 
 BRR  HZ EP       1840 40.78                             135   -0.0810 91.6 356 
 BRR  HE ES       1840 55.89                             135    0.5410 91.6 356 
 BRR  HZ I        1840 59.55        14.2 0.33            140           91.6 356 
 PTB  HZ EP     C 1840 40.06                             135   -0.9610 93.3 288 
 PTB  HN ES       1840 54.72                             135   -0.9210 93.3 288 
 PTB  HZ I        1840 55.19        19.2 0.42            137           93.3 288 
 PAM  SZ EP       1840 47.83                             119   -0.12 9  158  42 
 PAM  SE ES   1   1841  7.78                             119   -0.19 7  158  42 
 PAM  SZ I        1841 13.08         8.4 0.32            124            158  42 
 CHI  HZ EP       1840 50.32                             115   -0.27 9  183 183 
 CHI  HN ES   1   1841 12.01                             115   -0.66 7  183 183 
 CHI  HZ I        1841 16.91         4.8 0.64            118            183 183 
 ZAR  HZ EP       1840 50.46                             114   -0.29 9  189 315 
 ZAR  HE ES       1841 13.54                             114    0.59 9  189 315 
 ZAR  HZ I        1841 17.73        11.0 0.40            117            189 315 
 HEL  HZ EP       1840 54.04                             111    0.71 8  208 267 
 HEL  HN ES   4   1841 18.77                             111    1.22 0  208 267 
 HEL  HZ I        1841 24.03        10.7 0.24            114            208 267 
 GUY2CHZ EP       1840 55.67                             110    0.51 8  223 238 
 GUY2CHN ES   4   1841 22.71                             110    1.90 0  223 238 
 GUY2CHZ I        1841 27.14         5.1 0.32                           223 238 
 RREF HZ EP   4   1840 54.51                             108   -3.07 0  242 231 
 RREF HE ES   4   1841 22.83                             108   -2.28 0  242 231 
 RREF HZ I        1841 26.23        10.7 0.22            110            242 231 
 TOL  SZ EP       1841  0.13                             106    0.44 8  263 225 
 TOL  SN ES   4   1841 30.92                             106    2.05 0  263 225 
 TOL  SZ I        1841 33.07        11.9 0.22            108            263 225 
 PRA  HZ EP       1841  5.64                             102    0.17 7  315 206 
 PRA  HE ES   1   1841 39.21                             102    0.06 5  315 206 
 PRA  HZ I        1841 46.61         5.6 0.42            105            315 206 
                                                                                
