 2013 1022 1542 24.4 L   6.761 -73.163142.0  RSN  5 0.4 1.5LRSN                1
 GAP=136        0.97       5.7     5.2  9.7 -0.5876E+01  0.5893E+01 -0.2085E+01E
 Epicentro: LOS SANTOS - SANTANDER                                             3
 ACTION:UPD 13-11-25 09:23 OP:ep   STATUS:               ID:20131022154224 L   I
 OLDACT:REG 13-10-22 14:56 OP:cam  STATUS:               ID:20131022153847     3
 2013-10-22-1538-47M.COL___227                                                 6
 STAT SP IPHASW D HRMM SECON CODA AMPLIT PERI AZIMU VELO AIN AR TRES W  DIS CAZ7
 BAR2 SZ EP   1   1542 43.33                             172   -0.12 7 18.8 187 
 BRR  HZ EP       1542 45.18                             152    0.0510 71.7 302 
 BRR  HN ES       1543  1.92                             152    0.5910 71.7 302 
 BRR  HZ I        1543  5.69         4.9 0.12            151           71.7 302 
 PAM  SZ EP       1542 46.30                             149   -0.1510 81.9  39 
 PAM  SN ES       1543  3.45                             149   -0.2410 81.9  39 
 PAM  SZ I        1543  5.07         9.8 0.58            151           81.9  39 
 RUS  HN ES       1543  5.60                             144    0.1510 96.5 175 
 PTB  HZ EP   1   1542 51.35                             132    0.57 7  145 260 
 PTB  HN ES       1543 10.67                             132   -0.71 9  145 260 
 PTB  HZ I        1543 13.19         4.4 0.18            134            145 260 
                                                                                
