 2014  422 1252 27.4 L   6.800 -73.147145.5  RSN  5 0.4 1.9LRSN                1
 GAP=136        0.96       4.1     4.6  8.7 -0.2164E-01  0.1418E+02 -0.9032E+01E
 Epicentro: LOS SANTOS - SANTANDER                                             3
 ACTION:UPD 14-05-13 23:10 OP:nd   STATUS:               ID:20140422125227 L   I
 OLDACT:REG 14-04-22 20:20 OP:nd   STATUS:               ID:20140422125044     3
 2014-04-22-1250-44M.COL___239                                                 6
 STAT SP IPHASW D HRMM SECON CODA AMPLIT PERI AZIMU VELO AIN AR TRES W  DIS CAZ7
 PAM  SZ EP       1252 50.06                             151    0.4810 77.5  40 
 PAM  SN ES       1253  6.84                             151   -0.0510 77.5  40 
 RUS  HZ EP       1252 51.41                             144    0.3010  101 176 
 RUS  HN ES       1253  9.34                             144   -0.2710  101 176 
 RUS  HZ I        1253 10.63         5.6 0.38            149            101 176 
 PTB  HZ EP       1252 53.93                             132   -0.39 9  148 259 
 PTB  HN ES       1253 15.12                             132   -0.20 9  148 259 
 PTB  HZ I        1253 22.56        11.0 0.40            132            148 259 
 ZAR  HZ EP       1252 59.80                             122   -0.00 9  204 292 
 ZAR  HN ES       1253 25.89                             122    0.81 9  204 292 
 ZAR  HZ I        1253 32.50         7.0 0.34            123            204 292 
 SML  HZ EP       1253  3.67                             117   -0.32 8  244 335 
 SML  HN ES       1253 32.03                             117   -0.51 8  244 335 
 SML  HZ I        1253 39.54        11.3 0.28            119            244 335 
                                                                                
