 2016  322 1204 54.4 L   6.767 -73.168135.3  RSN 12 0.4 1.9LRSN                1
 GAP=135        0.84       3.9     3.6  7.6 -0.2108E+01  0.4971E+01 -0.1124E+01E
 Epicentro: LOS SANTOS - SANTANDER                                             3
 ACTION:UPD 16-05-13 21:26 OP:cam  STATUS:               ID:20160322120454 L   I
 OLDACT:REG 16-03-22 21:22 OP:dnl  STATUS:               ID:20160322115743     3
 2016-03-22-1157-43M.COL___307                                                 6
 STAT SP IPHASW D HRMM SECON CODA AMPLIT PERI AZIMU VELO AIN AR TRES W  DIS CAZ7
 BAR2 EZ EP       12 5 12.75                             172    0.0310 19.4 185 
 BAR2 EZ ES   2   12 5 26.95                             172   -0.04 5 19.4 185 
 BAR2 EZ I        12 5 28.52        16.2 0.30            168           19.4 185 
 PAM  EZ EP       12 5 15.77                             147   -0.0510 81.8  39 
 PAM  EN ES   2   12 5 32.07                             147   -0.44 5 81.8  39 
 PAM  EZ I        12 5 33.15        14.4 0.34            153           81.8  39 
 RUS  HZ EP       12 5 17.17                             143    0.2710 97.1 174 
 RUS  HN ES   2   12 5 34.84                             143    0.40 5 97.1 174 
 RUS  HZ I        12 5 36.44         6.4 0.26            143           97.1 174 
 PTB  HZ EP       12 5 19.57                             130   -0.70 9  145 260 
 PTB  HN ES       12 5 39.99                             130   -0.44 9  145 260 
 PTB  HZ I        12 5 43.12        15.4 0.13            130            145 260 
 SPBC HZ EP       12 5 21.70                             127   -0.01 9  159 219 
 SPBC HN ES       12 5 43.12                             127    0.12 9  159 219 
 SPBC HZ I        12 5 47.32        11.4 0.16            127            159 219 
 ZAR  HZ EP       12 5 25.93                             120   -0.18 9  203 293 
 ZAR  HE ES       12 5 51.89                             120    1.05 9  203 293 
 ZAR  HZ I        12 5 57.65        12.3 0.26            121            203 293 
 NOR  HZ EP   2   12 5 28.90                             117   -0.21 4  231 235 
 NOR  HN ES       12 5 56.34                             117    0.16 8  231 235 
 NOR  HZ I        12 5 58.63         6.1 0.16            117            231 235 
 CHI  HZ EP   2   12 5 31.49                             115    0.39 4  244 195 
 CHI  HN ES   2   12 5 59.68                             115   -0.03 4  244 195 
 CHI  HZ I        12 6  8.49         2.2 0.25            116            244 195 
 HEL  HZ EP   2   12 5 33.55                             113   -0.20 4  269 256 
 HEL  HN ES   2   12 6  3.88                             113   -0.55 4  269 256 
 HEL  HZ I        12 6 11.89         4.5 0.28            114            269 256 
 URE  HZ EP   4   12 5 32.78                             112   -2.12 0  283 293 
 URE  HN ES   4   12 6  4.80                             112   -1.67 0  283 293 
 URE  HZ I        12 6  6.85         7.1 0.10            113            283 293 
 GUY2CHZ EP   2   12 5 37.91                             111    0.82 4  297 235 
 GUY2CHE ES   2   12 6  9.63                             111   -0.75 4  297 235 
 GUY2CHZ I        12 6 18.12         6.1 0.28                           297 235 
 MON  HZ EP   4   12 5 40.08                             107   -3.00 0  354 309 
 MON  HN ES   4   12 6 17.86                             107   -3.17 0  354 309 
 MON  HZ I        12 6 23.95         1.4 0.22            108            354 309 
                                                                                
