 2010  622 1758 24.1 L   6.823 -73.048148.7  RSN  5 0.2 1.2LRSN                1
 GAP=166        0.58       4.3     9.5 10.4 -0.8590E+01 -0.4158E+02 -0.5230E+01E
 Epicentro: LOS SANTOS - SANTANDER                                             3
 ACTION:UP  10-08-24 10:12 OP:vdl  STATUS:               ID:20100622175824 L   I
 2010-06-22-1753-39S.COL___118                                                 6
 STAT SP IPHASW D HRMM SECON CODA AMPLIT PERI AZIMU VELO SNR AR TRES W  DIS CAZ7
 BRR  HZ EP   1   1758 45.93                             150    -0.1 8   80 293 
 BRR  HN ES   2   1759  3.23                             150     0.1 5   80 293 
 BRI  SZ EP   1   1758 47.31                             143    -0.5 8  103  16 
 RUS  HZ EP   1   1758 48.31                             144     0.0 8  103 182 
 RUS  HN ES   2   1759  7.16                             144     0.0 5  103 182 
 RUS  HZ I        1759  8.20         2.7 0.38                           103 182 
 GUE  SZ EP       1758 48.68                             141     0.010  112   7 
 GRA  SZ EP       1758 49.53                             139     0.410  120  13 
 GRA  SZ ES   2   1759  8.68                             139     0.0 5  120  13 
                                                                                
