 2014 1122 1114 36.3 L   6.741 -73.118130.2  RSN  5 0.4 1.2LRSN                1
 GAP=143        1.00       5.0     4.9  9.1 -0.2174E+01  0.5234E+01  0.6397E+01E
 Epicentro: LOS SANTOS - SANTANDER                                             3
 ACTION:UPD 14-12-19 15:46 OP:nd   STATUS:               ID:20141122111436 L   I
 OLDACT:ARG 14-11-22 21:32 OP:stll STATUS:               ID:20141122110748     3
 2014-11-22-1107-48M.COL___306                                                 6
 STAT SP IPHASW D HRMM SECON CODA AMPLIT PERI AZIMU VELO AIN AR TRES W  DIS CAZ7
 BAR2 SZ EP       1114 54.45                             172    0.5010 18.0 203 
 BRR  HZ EP       1114 56.25                             147    0.0910 77.1 302 
 BRR  HE ES       1115 12.04                             147    0.3910 77.1 302 
 PAM  SZ EP       1114 56.98                             147   -0.1210 80.7  35 
 PAM  SE ES       1115 12.98                             147   -0.3410 80.7  35 
 PAM  SZ I        1115 16.22         4.8 0.50            147           80.7  35 
 RUS  HZ EP       1114 58.53                             142    0.4910 93.9 178 
 RUS  HZ I        1114 59.41         1.5 0.46            144           93.9 178 
 RUS  HE ES       1115 14.67                             142   -0.3310 93.9 178 
 PTB  HZ EP       1115  1.59                             128   -0.63 9  150 261 
 PTB  HN ES       1115 22.29                             128   -0.16 9  150 261 
 PTB  HZ I        1115 24.46         2.2 0.32            129            150 261 
                                                                                
