 2016  722 1116 41.1 L   6.853 -73.114145.4  RSN  8 0.6 1.8LRSN                1
 GAP=138        1.33       4.8     6.2  7.9 -0.1335E+01  0.1914E+02 -0.1940E+01E
 Epicentro: LOS SANTOS - SANTANDER                                             3
 ACTION:UPD 17-03-29 16:53 OP:lp   STATUS:               ID:20160722111641 L   I
 OLDACT:REG 16-07-22 20:43 OP:lv   STATUS:               ID:20160722110759     3
 2016-07-22-1107-59S.COL___334                                                 6
 STAT SP IPHASW D HRMM SECON CODA AMPLIT PERI AZIMU VELO AIN AR TRES W  DIS CAZ7
 BAR2 EZ IP     C 1117  0.87                             168    0.0610 29.7 195 
 BAR2 EZ ES       1117 16.50                             168    0.3010 29.7 195 
 PAM  EZ EP       1117  3.72                             152    0.8510 70.7  40 
 PAM  EN ES       1117 19.26                             152   -0.6010 70.7  40 
 PAM  EZ I        1117 23.39        13.5 0.19            154           70.7  40 
 BRR  HZ EP       1117  2.59                             152    0.3710 71.8 293 
 BRR  HE ES       1117 19.25                             152    0.5410 71.8 293 
 BRR  HZ I        1117 22.73        13.9 0.30            149           71.8 293 
 RUS  HZ EP       1117  5.05                             142   -0.1610  106 178 
 RUS  HE ES       1117 23.47                             142   -0.5510  106 178 
 RUS  HZ I        1117 24.95         6.8 0.26            146            106 178 
 SPBC HZ EP       1117  9.87                             128   -0.32 9  170 219 
 SPBC HN ES       1117 32.01                             128   -0.88 9  170 219 
 SPBC HZ I        1117 38.07         5.3 0.10            129            170 219 
 ZAR  HZ EP       1117 14.23                             122    0.62 9  205 290 
 ZAR  HN ES       1117 38.74                             122   -0.25 9  205 290 
 ZAR  HZ I        1117 45.40         9.8 0.29            122            205 290 
 GUY2CHZ EP       1117 25.94                             112    0.57 7  307 234 
 GUY2CHE ES       1118  0.23                             112    0.32 7  307 234 
 GUY2CHZ I        1118  9.23         2.7 0.62                           307 234 
 SJC  HZ EP       1117 35.94                             106   -0.34 6  406 326 
 SJC  HN ES       1118 17.94                             106   -1.40 6  406 326 
 SJC  HZ I        1118 31.94         1.1 0.28            106            406 326 
                                                                                
