 2012 1022 2317 11.6 L   6.808 -73.141141.1  RSN  8 0.4 2.2LRSN                1
 GAP=137        0.76       3.8     4.7  6.4  0.1004E+01  0.1061E+02  0.4777E+01E
 Epicentro: LOS SANTOS - SANTANDER                                             3
 ACTION:UPD 12-11-22 17:05 OP:ep   STATUS:               ID:20121022231711 L   I
 2012-10-22-2310-00M.COL___231                                                 6
 STAT SP IPHASW D HRMM SECON CODA AMPLIT PERI AZIMU VELO AIN AR TRES W  DIS CAZ7
 BAR2 SZ EP   1   2317 30.56                             170   -0.09 7 24.3 191 
 BAR2 SZ ES   1   2317 45.29                             170   -0.25 7 24.3 191 
 BAR2 SZ I        2317 46.37        36.1 0.32                          24.3 191 
 BRR  HZ EP   1   2317 32.22                             152    0.01 7 71.2 298 
 BRR  HZ I        2317 32.55        27.7 0.14                          71.2 298 
 BRR  HN ES   1   2317 48.92                             152    0.60 7 71.2 298 
 PAM  SZ EP   1   2317 33.37                             150    0.15 7 76.4  40 
 PAM  SN ES   1   2317 50.15                             150    0.04 7 76.4  40 
 PAM  SN I        2317 51.24        60.9 0.46                          76.4  40 
 RUS  HZ EP   1   2317 34.54                             143   -0.38 7  101 176 
 RUS  HN ES   1   2317 52.92                             143   -0.22 7  101 176 
 RUS  HN I        2317 54.86        19.7 0.34                           101 176 
 ZAR  HZ EP   1   2317 43.19                             121   -0.53 6  204 292 
 ZAR  HN ES   1   2318  8.59                             121   -0.21 6  204 292 
 NOR  HN ES   1   2318 14.27                             117   -0.59 6  236 234 
 CHI  HZ EP   1   2317 49.27                             116    0.16 6  250 195 
 CHI  HE ES   1   2318 19.25                             116    0.85 6  250 195 
 HEL  HZ EP   1   2317 52.35                             114    0.74 6  273 256 
                                                                                
