 2015  922 2154 11.0 L   6.446 -73.150170.9  RSN  7 0.5 2.1LRSN                1
 GAP=194        1.10       5.3     6.5  9.4  0.3726E+01 -0.1123E+01 -0.2280E+02E
 Epicentro: VALLE DE SAN JOSE - SANTANDER                                      3
 ACTION:UPD 15-10-28 16:27 OP:cam  STATUS:               ID:20150922215411 L   I
 OLDACT:REG 15-09-23 02:27 OP:drio STATUS:               ID:20150922214749     3
 2015-09-22-2147-49M.COL___358                                                 6
 STAT SP IPHASW D HRMM SECON CODA AMPLIT PERI AZIMU VELO AIN AR TRES W  DIS CAZ7
 RUS  HZ EP       2154 35.15                             159   -0.0810 61.7 173 
 RUS  HE ES       2154 53.85                             159   -0.2610 61.7 173 
 RUS  HZ I        2154 55.96        15.2 0.32            164           61.7 173 
 BRR  HZ EP       2154 37.15                             149    0.8210 95.9 320 
 SPBC HZ EP       2154 39.20                             140    0.0010  135 229 
 SPBC HN ES       2155  0.96                             140   -0.2110  135 229 
 SPBC HZ I        2155  5.38        12.7 0.44            144            135 229 
 PTB  HZ EP       2154 39.63                             138   -0.28 9  145 274 
 PTB  HE ES       2155  3.34                             138    0.90 9  145 274 
 PTB  HZ I        2155  6.02         9.4 0.14            140            145 274 
 NOR  HZ EP       2154 46.61                             126    0.36 8  214 243 
 NOR  HN ES       2155 13.19                             126   -0.53 8  214 243 
 NOR  HZ I        2155 14.68         7.8 0.18            129            214 243 
 ZAR  HZ EP       2154 46.89                             125   -0.04 8  221 302 
 ZAR  HE ES       2155 14.52                             125   -0.42 8  221 302 
 ZAR  HZ I        2155 18.17        12.8 0.28            127            221 302 
 SML  HZ EP       2154 52.75                             119   -0.21 7  280 339 
 SML  HE ES       2155 25.13                             119   -0.53 7  280 339 
 SML  HZ I        2155 33.08         9.2 0.10            121            280 339 
                                                                                
