 2016 1023 0944 33.1 L   6.778 -73.073144.6  RSN 11 0.5 1.5LRSN                1
 GAP=126        1.02       3.4     5.9  6.1 -0.5566E+01  0.6813E+00  0.3138E+01E
 Epicentro: LOS SANTOS - SANTANDER                                             3
 ACTION:UPD 16-11-09 19:22 OP:rebc STATUS:               ID:20161023094433 L   I
 OLDACT:UP  16-10-23 18:52 OP:e    STATUS:               ID:20161023093748     3
 OLDACT:UP  16-10-23 18:51 OP:e    STATUS:               ID:20161023093748     3
 OLDACT:REG 16-10-23 13:23 OP:and  STATUS:               ID:20161023093748     3
 2016-10-23-0938-00M.COL___353                                                 6
 STAT SP IPHASW D HRMM SECON CODA AMPLIT PERI AZIMU VELO AIN AR TRES W  DIS CAZ7
 BAR2 EZ EP        944 52.26                             170   -0.3610 23.8 210 
 BAR2 EZ ES        945  7.54                             170   -0.2910 23.8 210 
 BAR2 EZ I         945  8.99         9.4 0.25            167           23.8 210 
 PAM  EZ EP        944 54.99                             151   -0.0610 74.6  34 
 PAM  EN ES        945 12.29                             151    0.1410 74.6  34 
 PAM  EZ I         945 14.25         4.8 0.56            155           74.6  34 
 BRR  HZ EP        944 53.97                             150   -0.6610 79.4 297 
 BRR  HN ES        945 11.78                             150    0.3710 79.4 297 
 BRR  HZ I         945 18.37         9.1 0.53            147           79.4 297 
 RUS  HZ EP        944 56.30                             144   -0.2610 97.9 181 
 RUS  HN ES        945 15.25                             144    0.4010 97.9 181 
 RUS  HZ I         945 15.95         3.3 0.27            144           97.9 181 
 PTB  HZ EP   9    944 59.03                             130   -1.64 0  155 260 
 PTB  HN ES        945 20.20                             130   -0.32 9  155 260 
 PTB  HZ I         945 21.97         3.3 0.18            129            155 260 
 OCA  HZ EP   2    945  2.01                             129    0.33 5  164 350 
 OCA  HN ES        945 24.27                             129    0.31 9  164 350 
 SPBC HZ EP   2    945  1.20                             128   -0.64 5  166 222 
 SPBC HN ES        945 23.68                             128   -0.57 9  166 222 
 SPBC HZ I         945 30.44         8.6 0.14            127            166 222 
 CHI  HZ EP   2    945 10.81                             117    0.07 4  248 197 
 CHI  HN ES        945 40.92                             117    0.84 8  248 197 
 CHI  HZ I         945 48.00         0.8 0.24            117            248 197 
 HEL  HZ EP   2    945 14.36                             114    0.29 4  279 257 
 HEL  HN ES   4    945 49.52                             114    3.51 0  279 257 
 HEL  HZ I         945 51.55         2.5 0.26            114            279 257 
 PTGC HZ EP   3    945 15.06                             112   -1.28 2  304 160 
 GUY2CHZ EP     C  945 18.16                             112    0.90 7  306 236 
 GUY2CHN ES   4    945 53.66                             112    1.97 0  306 236 
 GUY2CHZ I         945 59.50         2.4 0.26                           306 236 
                                                                                
