 2017  423 0727 44.7 L   6.805 -73.525108.5  RSN  5 0.5 1.4LRSN                1
 GAP=132        1.18       7.7     4.1  9.5 -0.4635E+01  0.6596E+01 -0.6248E+01E
 Epicentro: EL CARMEN - SANTANDER                                              3
 ACTION:UPD 17-05-30 21:15 OP:jn   STATUS:               ID:20170423072744 L   I
 OLDACT:DUP 17-04-23 15:58 OP:lv   STATUS:               ID:20170423071740d    3
 2017-04-23-0718-00M.COL___365                                                 6
 STAT SP IPHASW D HRMM SECON CODA AMPLIT PERI AZIMU VELO AIN AR TRES W  DIS CAZ7
 BRR  HZ EP        728  0.17                             159    0.1210 39.3 328 
 BRR  HN ES        728 12.47                             159    0.4210 39.3 328 
 BAR2 EZ EP        728  1.09                             156    0.4410 44.6 122 
 BAR2 EZ ES        728 13.32                             156    0.2010 44.6 122 
 BAR2 EZ I         728 14.69         6.2 0.19            156           44.6 122 
 PTB  HZ EP        728  4.70                             132   -0.1910  107 254 
 PTB  HN ES        728 20.04                             132   -0.6410  107 254 
 PTB  HZ I         728 20.93         2.2 0.23            133            107 254 
 PAM  EZ EP        728  6.00                             132    0.3210  109  57 
 PAM  EN ES        728 21.19                             132   -0.8910  109  57 
 PAM  EZ I         728 22.64        17.3 0.04            133            109  57 
 ZAR  HE ES        728 31.35                             118    0.23 9  166 297 
                                                                                
