 2012 1223 0820 19.9 L   6.752 -73.164144.9  RSN  7 0.4 1.3LRSN                1
 GAP=136        0.77       4.1     4.5  7.5  0.5524E+00  0.6366E+01 -0.8533E+00E
 Epicentro: LOS SANTOS - SANTANDER                                             3
 ACTION:UPD 13-01-04 14:29 OP:ep   STATUS:               ID:20121223082019 L   I
 2012-12-23-0820-00M.COL___243                                                 6
 STAT SP IPHASW D HRMM SECON CODA AMPLIT PERI AZIMU VELO AIN AR TRES W  DIS CAZ7
 BAR2 SZ EP   1    820 39.34                             173    0.05 7 17.8 187 
 BAR2 SZ ES   1    820 54.17                             173   -0.27 7 17.8 187 
 BAR2 SZ I         820 55.14         8.5 0.28                          17.8 187 
 BRR  HZ EP   1    820 41.02                             152    0.05 7 72.2 303 
 BRR  HN ES   1    820 58.02                             152    0.59 7 72.2 303 
 BRR  HZ I         821  1.76         4.1 0.12                          72.2 303 
 PAM  SZ EP   1    820 42.19                             149   -0.12 7 82.7  38 
 PAM  SN ES   1    820 59.14                             149   -0.68 7 82.7  38 
 PAM  SZ I         821  1.11         4.1 0.46                          82.7  38 
 RUS  HZ EP   1    820 43.40                             145    0.23 7 95.5 175 
 RUS  HN ES   1    821  1.74                             145    0.40 7 95.5 175 
 RUS  HZ I         821  3.66         1.6 0.34                          95.5 175 
 PTB  HZ EP   1    820 46.21                             132   -0.29 7  145 261 
 PTB  HN ES   1    821  6.86                             132   -0.41 7  145 261 
 PTB  HZ I         821  9.18         3.0 0.14                           145 261 
 OCA  HN ES   1    821 11.58                             128    0.60 7  165 354 
 ZAR  HN ES   1    821 17.36                             122   -0.19 6  204 294 
                                                                                
