 2016 1123 0544 33.4 L   6.757 -73.137140.2  RSN  5 0.3 1.5LRSN                1
 GAP=159        0.91       7.4     4.3  7.2 -0.7314E+01  0.7388E+01  0.4894E+00E
 Epicentro: LOS SANTOS - SANTANDER                                             3
 ACTION:UPD 17-10-26 21:10 OP:lp   STATUS:               ID:20161123054433 L   I
 OLDACT:DUP 16-11-23 15:59 OP:dani STATUS:               ID:20161123053745d    3
 2016-11-23-0538-00M.COL___352                                                 6
 STAT SP IPHASW D HRMM SECON CODA AMPLIT PERI AZIMU VELO AIN AR TRES W  DIS CAZ7
 BAR2 EZ EP        544 52.19                             172   -0.1310 18.9 196 
 BAR2 EZ ES        545  7.38                             172    0.3410 18.9 196 
 BRR  HZ EP        544 54.27                             150    0.0910 74.4 301 
 BRR  HN ES        545 10.69                             150    0.3310 74.4 301 
 BRR  HZ I         545 15.66         9.4 0.25            149           74.4 301 
 PAM  EZ EP        544 55.27                             149    0.0110 80.5  37 
 PAM  EN ES        545 11.89                             149   -0.3810 80.5  37 
 PAM  EZ I         545 14.34         4.3 0.25            150           80.5  37 
 PTB  HZ EP        545  0.33                             131    0.35 9  148 261 
 PTB  HN ES        545 19.91                             131   -0.76 9  148 261 
 PTB  HZ I         545 22.35         3.6 0.21            133            148 261 
 ZAR  HN ES        545 31.19                             121    0.12 8  207 293 
                                                                                
