 2013  223 0943 10.9 L   7.304 -73.239113.5  RSN  4 0.3 1.1LRSN                1
 GAP=259        0.57      10.0     5.9  7.5  0.3173E+02  0.3604E+01 -0.9940E+01E
 Epicentro: RIONEGRO - SANTANDER                                               3
 ACTION:UPD 13-03-12 09:35 OP:ep   STATUS:               ID:20130223094310 L   I
 2013-02-23-0940-00M.COL___225                                                 6
 STAT SP IPHASW D HRMM SECON CODA AMPLIT PERI AZIMU VELO AIN AR TRES W  DIS CAZ7
 BRR  HE ES   1    943 40.98                             152    0.14 7 56.6 247 
 BAR2 SZ EP   1    943 29.88                             143    0.36 7 79.0 175 
 BAR2 SZ ES   1    943 43.72                             143   -0.36 7 79.0 175 
 BAR2 SZ I         943 45.49         7.1 0.14            154           79.0 175 
 PTB  HZ EP   1    943 36.33                             121   -0.24 7  159 238 
 PTB  HN ES   1    943 56.85                             121    0.23 7  159 238 
 PTB  HZ I         943 57.65         1.1 0.14            124            159 238 
 ZAR  HE ES   2    944  0.21                             118   -0.37 4  180 277 
 ZAR  HZ I         944  7.50         1.4 0.32            118            180 277 
                                                                                
