 2014  523 1815 23.6 L   6.804 -73.155145.2  RSN  4 0.3 1.5LRSN                1
 GAP=135        0.71       4.1     3.8  8.2 -0.2553E+01  0.1125E+02 -0.2914E+01E
 Epicentro: LOS SANTOS - SANTANDER                                             3
 ACTION:UPD 15-03-16 17:00 OP:nd   STATUS:               ID:20140523181523 L   I
 OLDACT:UP  14-05-24 00:16 OP:cam  STATUS:               ID:20140523181000     3
 OLDACT:REG 14-05-23 22:52 OP:cam  STATUS:               ID:20140523181000     3
 2014-05-23-1810-00M.COL___276                                                 6
 STAT SP IPHASW D HRMM SECON CODA AMPLIT PERI AZIMU VELO AIN AR TRES W  DIS CAZ7
 PAM  SZ EP     C 1815 45.99                             150    0.2310 77.7  40 
 PAM  SE ES       1816  2.85                             150   -0.2110 77.7  40 
 PAM  SZ I        1816  5.36         5.7 0.60            153           77.7  40 
 RUS  HZ EP   1   1815 47.47                             143    0.15 7  101 175 
 RUS  HN ES       1816  5.99                             143    0.1610  101 175 
 RUS  HZ I        1816  7.33         4.7 0.24            146            101 175 
 PTB  HZ EP       1815 50.04                             132   -0.39 9  147 259 
 PTB  HN ES       1816 11.14                             132   -0.21 9  147 259 
 PTB  HZ I        1816 13.85         4.7 0.40            134            147 259 
 ZAR  HN ES   1   1816 21.70                             122    0.64 6  203 292 
                                                                                
