 2015 1223 1128 32.0 L   6.806 -73.153143.5  RSN  8 0.3 1.9LRSN                1
 GAP=200        0.75       2.5     4.1  4.4  0.9629E+00  0.2259E+01 -0.2034E-01E
 Epicentro: LOS SANTOS - SANTANDER                                             3
 ACTION:UPD 16-02-04 15:07 OP:cam  STATUS:               ID:20151223112832 L   I
 OLDACT:REG 15-12-23 21:20 OP:cara STATUS:               ID:20151223111749     3
 2015-12-23-1117-49M.COL___330                                                 6
 STAT SP IPHASW D HRMM SECON CODA AMPLIT PERI AZIMU VELO AIN AR TRES W  DIS CAZ7
 BAR2 EZ IP       1128 51.37                             170    0.0110 23.8 188 
 BAR2 EZ ES       1129  6.26                             170   -0.2010 23.8 188 
 BAR2 EZ I        1129  9.72        14.2 0.22            167           23.8 188 
 BRR  HZ IP       1128 53.42                             152    0.5810 70.2 298 
 BRR  HN ES       1129  9.49                             152    0.3910 70.2 298 
 BRR  HZ I        1129 14.00         6.9 0.12            149           70.2 298 
 RUS  HZ EP       1128 55.47                             143   -0.1010  101 176 
 RUS  HN ES       1129 13.82                             143   -0.1410  101 176 
 RUS  HZ I        1129 15.61         6.9 0.44            145            101 176 
 PTB  HZ EP       1128 58.31                             132   -0.41 9  147 259 
 PTB  HN ES       1129 19.19                             132   -0.37 9  147 259 
 PTB  HZ I        1129 26.66        12.3 0.46            131            147 259 
 SPBC HZ IP       1129  0.42                             129    0.10 9  163 219 
 SPBC HN ES       1129 22.18                             129   -0.23 9  163 219 
 SPBC HZ I        1129 28.17        18.1 0.44            129            163 219 
 NOR  HZ EP       1129  7.44                             118   -0.12 8  234 234 
 NOR  HE ES       1129 35.61                             118    0.31 8  234 234 
 NOR  HZ I        1129 40.78         7.7 0.46            119            234 234 
 SML  HZ EP       1129  7.97                             117   -0.42 8  243 335 
 SML  HN ES       1129 36.85                             117    0.06 8  243 335 
 SML  HZ I        1129 42.58        11.0 0.10            119            243 335 
 CHI  HZ EP       1129  9.79                             117    0.18 8  249 195 
 CHI  HN ES       1129 39.32                             117    0.37 8  249 195 
 CHI  HZ I        1129 44.40         2.9 0.20            119            249 195 
                                                                                
