 2017  323 1247 39.3 L   6.787 -73.111144.2  RSN  8 0.5 2.0LRSN                1
 GAP=164        1.01       4.5     4.7  6.0 -0.5157E+01  0.6506E+01  0.3734E+01E
 Epicentro: LOS SANTOS - SANTANDER                                             3
 ACTION:UPD 17-05-25 18:44 OP:jn   STATUS:               ID:20170323124739 L   I
 OLDACT:UP  17-03-23 22:24 OP:dani STATUS:               ID:20170323123743     3
 OLDACT:UP  17-03-23 22:21 OP:dani STATUS:               ID:20170323123743     3
 OLDACT:REG 17-03-23 20:06 OP:dani STATUS:               ID:20170323123743     3
 2017-03-23-1238-00M.COL___382                                                 6
 STAT SP IPHASW D HRMM SECON CODA AMPLIT PERI AZIMU VELO AIN AR TRES W  DIS CAZ7
 BAR2 EZ EP       1247 58.96                             171    0.1810 22.9 200 
 BAR2 EZ ES       1248 13.49                             171   -0.4410 22.9 200 
 BAR2 EZ I        1248 15.73        13.5 0.28            169           22.9 200 
 BRR  HZ EP       1248  0.84                             151    0.2810 75.3 298 
 BRR  HN ES       1248 17.38                             151    0.2710 75.3 298 
 BRR  HZ I        1248 21.65        15.8 0.16            149           75.3 298 
 PAM  EZ EP       1248  1.77                             151    0.4510 76.1  37 
 PAM  EN ES       1248 18.31                             151   -0.1510 76.1  37 
 PAM  EZ I        1248 20.65        30.8 0.58            155           76.1  37 
 PTB  HZ EP       1248  5.75                             131   -0.76 9  151 260 
 PTB  HE ES       1248 27.53                             131   -0.17 9  151 260 
 PTB  HZ I        1248 33.86         8.1 0.48            131            151 260 
 SPBC HZ EP       1248  8.10                             128    0.25 9  165 220 
 SPBC HE ES       1248 29.75                             128   -0.34 9  165 220 
 SPBC HZ I        1248 32.70         8.5 0.22            130            165 220 
 ZAR  HZ EP       1248 12.26                             121    0.14 8  208 292 
 ZAR  HE ES       1248 38.02                             121    0.34 8  208 292 
 ZAR  HZ I        1248 43.76         8.4 0.30            122            208 292 
 PRA  HZ EP       1248 33.13                             106    0.24 6  393 210 
 PRA  HN ES       1249 15.38                             106    0.72 6  393 210 
 PRA  HZ I        1249 19.94         2.8 0.26            108            393 210 
 SJC  HZ EP       1248 33.99                             105   -1.26 6  413 327 
 SJC  HN ES   4   1249 15.23                             105   -3.62 0  413 327 
 SJC  HZ I        1249 18.76         2.9 0.43            107            413 327 
                                                                                
