 2015  823 1547 16.4 L   6.807 -73.145149.3  RSN  6 0.3 1.6LRSN                1
 GAP=136        0.65       3.4     3.7  5.1  0.3248E+01  0.2307E+01 -0.9890E+00E
 Epicentro: LOS SANTOS - SANTANDER                                             3
 ACTION:UPD 15-09-15 23:04 OP:cam  STATUS:               ID:20150823154716 L   I
 OLDACT:REG 15-08-23 20:29 OP:spq  STATUS:               ID:20150823153748     3
 2015-08-23-1537-48M.COL___346                                                 6
 STAT SP IPHASW D HRMM SECON CODA AMPLIT PERI AZIMU VELO AIN AR TRES W  DIS CAZ7
 BAR2 EZ EP       1547 36.27                             170   -0.1910 24.1 190 
 BAR2 EZ ES   1   1547 51.79                             170   -0.33 7 24.1 190 
 BAR2 EZ I        1547 52.63         8.0 0.43            170           24.1 190 
 BRR  HZ EP       1547 38.25                             153    0.3410 70.9 298 
 BRR  HN ES       1547 55.03                             153    0.3410 70.9 298 
 BRR  HZ I        1547 55.30         8.6 0.36            151           70.9 298 
 PAM  EZ EP     D 1547 39.23                             152    0.2810 76.7  40 
 PAM  EN ES       1547 56.45                             152   -0.0910 76.7  40 
 PAM  EZ I        1547 58.40         7.2 0.50            153           76.7  40 
 RUS  HZ EP       1547 40.59                             144    0.0410  101 176 
 RUS  HE ES   1   1547 59.19                             144   -0.20 7  101 176 
 RUS  HZ I        1548  0.47         2.0 0.48            145            101 176 
 ZAR  HN ES       1548 14.35                             123   -0.17 9  204 292 
 ZAR  HZ I        1548 20.99         3.8 0.36            123            204 292 
 SML  HZ EP   1   1547 52.74                             118   -0.41 6  243 335 
 SML  HE ES   1   1548 21.37                             118   -0.45 6  243 335 
 SML  HZ I        1548 23.32         5.4 0.26            118            243 335 
                                                                                
