 2011 1223 2143 23.4 L   6.768 -73.090148.1  RSN 13 0.3 2.2LRSN                1
 GAP=145        0.55       2.4     3.1  3.6 -0.1103E+01  0.4224E+01  0.9993E+00E
 Epicentro: LOS SANTOS - SANTANDER                                             3
 ACTION:UPD 12-07-13 16:18 OP:ep   STATUS:               ID:20111223214323 L   I
 2011-12-23-2140-00M.COL___189                                                 6
 STAT SP IPHASW D HRMM SECON CODA AMPLIT PERI AZIMU VELO AIN AR TRES W  DIS CAZ7
 BAR2 SZ IP       2143 43.24                             171   -0.0710 22.0 208 
 BAR2 SZ ES   1   2143 58.26                             171   -0.56 7 22.0 208 
 BAR2 SZ I        2144  1.15        37.7 0.18                          22.0 208 
 GIR2 SZ EP   1   2143 43.58                             165    0.06 7 36.2 342 
 GIR2 SZ ES   1   2143 59.52                             165    0.33 7 36.2 342 
 PAM  SE ES   1   2144  3.51                             151    0.19 7 76.5  34 
 BRR  HZ EP       2143 45.22                             151   -0.0210 78.3 299 
 BRR  HE ES   1   2144  2.68                             151    0.42 7 78.3 299 
 BRR  HZ I        2144  5.47        52.4 0.20                          78.3 299 
 RUS  HZ EP   1   2143 47.10                             145   -0.04 7 96.8 180 
 RUS  HE ES   1   2144  5.58                             145   -0.06 7 96.8 180 
 RUS  HZ I        2144  7.62        12.4 0.48                          96.8 180 
 OCA  SZ EP   1   2143 52.45                             129    0.12 7  165 351 
 OCA  SZ I        2144 22.92        13.2 0.21                           165 351 
 ZAR  HZ EP   1   2143 56.31                             122   -0.45 6  211 292 
 ZAR  HN ES   1   2144 22.19                             122   -0.56 6  211 292 
 ZAR  HZ I        2144 28.35        25.3 0.27                           211 292 
 NOR  SZ EP   1   2143 59.41                             119   -0.21 6  238 236 
 NOR  SN ES   1   2144 27.67                             119   -0.18 6  238 236 
 CHI  HZ EP   1   2144  1.32                             118    0.25 6  247 197 
 CHI  HN ES   1   2144 30.27                             118   -0.16 6  247 197 
 CHI  HZ I        2144 40.42         7.3 0.39                           247 197 
 HEL  HZ EP   1   2144  4.88                             115    0.55 6  277 257 
 HEL  HN ES   1   2144 36.22                             115   -0.02 6  277 257 
 HEL  HZ I        2144 41.42         8.3 0.25                           277 257 
 GUY  SN ES   2   2144 42.94                             112    0.60 4  307 236 
 RREF HZ EP   1   2144 10.14                             111    0.19 5  324 231 
 RREF HN ES   1   2144 46.62                             111    0.38 5  324 231 
 RREF HZ I        2144 55.66        11.5 0.43                           324 231 
 COD  HZ EP   1   2144 12.27                             109   -0.11 5  352 354 
                                                                                
