 2012  823 2223  0.7 L   6.839 -73.041152.6  RSN  5 0.3 1.6LRSN                1
 GAP=251        0.57       5.3     6.3  6.8  0.1218E+02  0.5566E+00  0.6591E+01E
 Epicentro: LOS SANTOS - SANTANDER                                             3
 ACTION:UPD 12-09-10 11:58 OP:ep   STATUS:               ID:20120823222300 L   I
 2012-08-23-2220-00M.COL___217                                                 6
 STAT SP IPHASW D HRMM SECON CODA AMPLIT PERI AZIMU VELO AIN AR TRES W  DIS CAZ7
 BRR  HZ EP   1   2223 22.70                             151   -0.34 8 79.8 292 
 BRR  HZ I        2223 33.05         6.2 0.09                          79.8 292 
 BRR  HN ES   1   2223 40.81                             151    0.32 8 79.8 292 
 RUS  HZ EP       2223 25.53                             144    0.1510  105 183 
 RUS  HN ES   1   2223 44.40                             144   -0.26 7  105 183 
 PTB  HZ EP   1   2223 29.02                             131   -0.27 7  160 258 
 PTB  HZ I        2223 55.84         3.4 0.23                           160 258 
 NOR  SN ES   1   2224  7.22                             119   -0.01 6  247 235 
 NOR  SZ I        2224  9.77         3.7 0.21                           247 235 
 CHI  HZ EP   1   2223 39.93                             118    0.40 6  256 197 
 CHI  HZ I        2223 42.08         3.3 0.05                           256 197 
                                                                                
