 2010  924 0319 23.6 L   6.819 -72.967138.5  RSN  6 0.3 1.9LRSN                1
 GAP=185        0.59       3.2     6.2  5.8 -0.2166E+01 -0.4333E+01 -0.1203E+01E
 Epicentro: CEPITA - SANTANDER                                                 3
 ACTION:UP  11-02-18 11:05 OP:tino STATUS:               ID:20100924031923 L   I
 2010-09-24-0317-49S.COL___119                                                 6
 STAT SP IPHASW D HRMM SECON CODA AMPLIT PERI AZIMU VELO SNR AR TRES W  DIS CAZ7
 BAR2 SZ EP        319 42.80                             165     0.210   35 224 
 BAR2 SZ ES   1    319 57.48                             165     0.0 7   35 224 
 BAR2 SZ I         319 58.84        21.6 0.40                            35 224 
 BRR  HZ EP   1    319 44.91                             146    -0.1 7   88 291 
 BRR  HE ES   1    320  1.44                             146    -0.3 7   88 291 
 BRR  HZ I         320  5.90        16.9 0.11                            88 291 
 RUS  HZ EP   1    319 46.73                             141    -0.1 7  103 187 
 RUS  HZ I         319 48.04         6.9 0.13                           103 187 
 RUS  HN ES   2    320  5.00                             141     0.1 5  103 187 
 GUE  SZ EP   1    319 46.87                             139    -0.4 7  112   2 
 OCA  SZ EP   1    319 51.64                             128     0.2 7  162 346 
 OCA  SZ ES   1    320 13.58                             128     0.4 7  162 346 
 OCA  SZ I         320 17.27         8.3 0.40                           162 346 
 RREF HZ EP   2    320 10.67                             108    -0.6 3  338 231 
 RREF HN ES   1    320 48.90                             108     0.4 5  338 231 
 RREF HZ I         320 51.11         3.3 0.39                           338 231 
                                                                                
