 2011 1124 0502 34.8 L   6.811 -73.151149.1  RSN  4 0.2 1.3LRSN                1
 GAP=135        0.50       3.6     3.7  6.4  0.2963E+01  0.3177E+01  0.2337E+01E
 Epicentro: LOS SANTOS - SANTANDER                                             3
 ACTION:UPD 12-07-13 16:12 OP:ep   STATUS:               ID:20111124050234 L   I
 2011-11-24-0459-48S.COL___177                                                 6
 STAT SP IPHASW D HRMM SECON CODA AMPLIT PERI AZIMU VELO AIN AR TRES W  DIS CAZ7
 BRR  HZ EP   1    5 2 56.42                             153    0.13 7 70.1 298 
 BRR  HN ES   1    5 3 13.32                             153    0.30 7 70.1 298 
 BRR  HZ I         5 3 15.83         4.3 0.18                          70.1 298 
 PAM  SZ EP   1    5 2 57.62                             152    0.24 7 76.8  40 
 PAM  SZ I         5 2 57.74         2.7 0.18                          76.8  40 
 PAM  SE ES   1    5 3 14.69                             152   -0.27 7 76.8  40 
 RUS  HZ EP   1    5 2 58.87                             144   -0.14 7  102 176 
 RUS  HE ES   1    5 3 17.84                             144   -0.03 7  102 176 
 RUS  HZ I         5 3 18.54         2.6 0.29                           102 176 
 ZAR  HE ES   1    5 3 32.48                             123   -0.32 6  203 292 
                                                                                
