 2010  624 0751 42.6 L   6.875 -73.119143.2  RSN  7 0.2 1.3LRSN                1
 GAP=157        0.59       3.4     6.9  7.9 -0.3170E+01 -0.2602E+02 -0.2064E+01E
 Epicentro: LOS SANTOS - SANTANDER                                             3
 ACTION:UP  10-08-24 10:12 OP:vdl  STATUS:               ID:20100624075142 L   I
 2010-06-24-0750-09S.COL___118                                                 6
 STAT SP IPHASW D HRMM SECON CODA AMPLIT PERI AZIMU VELO SNR AR TRES W  DIS CAZ7
 BAR2 SZ EP   2    752  1.78                             167    -0.3 5   32 193 
 BRR  HZ EP        752  3.26                             153    -0.110   70 291 
 BRR  HE ES   1    752 19.85                             153     0.2 7   70 291 
 BRR  HZ I         752 22.63         5.5 0.15                            70 291 
 BRI  SZ EP        752  5.87                             143     0.310  100  21 
 BRI  SZ ES   3    752 23.65                             143     0.2 2  100  21 
 GUE  SZ EP        752  6.13                             141    -0.210  108  11 
 RUS  HZ EP        752  6.82                             141     0.210  109 178 
 RUS  HZ I         752  7.12         2.1 0.24                           109 178 
 RUS  HN ES   2    752 25.07                             141    -0.4 5  109 178 
 GRA  SZ EP        752  7.00                             139     0.210  117  17 
 GRA  SZ ES   2    752 25.47                             139    -0.3 5  117  17 
 OCA  SZ EP        752  9.74                             131    -0.2 9  152 352 
 OCA  SZ I         752 39.19         2.9 0.22                           152 352 
                                                                                
