 2012  424 0736 17.3 L   6.524 -73.514112.2  RSN  8 0.4 1.9LRSN                1
 GAP= 67        0.97       4.5     4.2  9.1 -0.6691E+00  0.1830E+02  0.9751E+01E
 Epicentro: EL CARMEN DE CHUCURI - SANTANDER                                   3
 ACTION:UPD 12-07-05 11:55 OP:tino STATUS:               ID:20120424073618dL   I
 2012-04-24-0730-00M.COL___186                                                 6
 STAT SP IPHASW D HRMM SECON CODA AMPLIT PERI AZIMU VELO AIN AR TRES W  DIS CAZ7
 BAR2 SZ EP   1    736 33.87                             160     0.5 8   37  78 
 BAR2 SZ ES   1    736 46.02                             160     0.1 8   37  78 
 BRR  HZ EP   1    736 34.75                             146     0.1 8   68 341 
 BRR  HZ I         736 46.86        24.3 0.13                            68 341 
 BRR  HE ES   1    736 48.59                             146     0.3 8   68 341 
 RUS  HZ EP   1    736 36.78                             141     0.2 8   85 146 
 RUS  HN ES   1    736 51.39                             141    -0.3 8   85 146 
 RUS  HZ I         736 53.86        11.7 0.19                            85 146 
 PTB  HZ EP   1    736 36.66                             134    -0.9 8  104 271 
 PTB  HZ I         736 52.84        22.8 0.11                           104 271 
 PAM  SZ EP   1    736 40.00                             128    -0.3 7  127  45 
 PAM  SN ES        736 58.18                             128    -0.110  127  45 
 PAM  SZ I         737  0.09         7.3 0.17                           127  45 
 ZAR  HN ES   1    737  7.97                             117     0.5 7  183 306 
 HEL  HZ EP   1    736 51.01                             112     0.3 6  226 261 
 HEL  HN ES        737 16.28                             112    -0.5 9  226 261 
 HEL  HZ I         737 22.01         5.4 0.16                           226 261 
 PRA  HZ EP   1    737  4.97                             102     0.6 5  346 206 
 PRA  HN ES   1    737 41.32                             102     0.3 5  346 206 
 PRA  HZ I         737 46.24         6.9 0.21                           346 206 
                                                                                
