 2017  224 0745 15.1 L   6.747 -73.167141.0  RSN  4 0.2 0.8LRSN                1
 GAP=231        0.49       3.9     4.0  4.1  0.8664E+01  0.3309E+01  0.1585E+01E
 Epicentro: LOS SANTOS - SANTANDER                                             3
 ACTION:UPD 17-05-24 15:40 OP:jn   STATUS:               ID:20170224074515 L   I
 OLDACT:DUP 17-02-24 16:51 OP:edw  STATUS:               ID:20170224073742d    3
 2017-02-24-0738-00M.COL___379                                                 6
 STAT SP IPHASW D HRMM SECON CODA AMPLIT PERI AZIMU VELO AIN AR TRES W  DIS CAZ7
 BAR2 EZ ES        745 48.67                             173   -0.1610 17.2 186 
 BRR  HZ EP        745 35.69                             151   -0.1110 72.2 303 
 BRR  HE ES        745 52.13                             151    0.1910 72.2 303 
 RUS  HZ EP        745 38.25                             144    0.2610 95.0 174 
 RUS  HN ES        745 55.79                             144   -0.0410 95.0 174 
 RUS  HZ I         745 57.87         1.2 0.68            140           95.0 174 
 PTB  HZ EP        745 41.18                             132   -0.20 9  144 261 
 PTB  HN ES        746  1.93                             132    0.05 9  144 261 
 PTB  HZ I         746  7.83         0.7 0.19            128            144 261 
                                                                                
