 2016  424 0613  7.5 L   6.857 -73.155145.3  RSN 10 0.3 2.0LRSN                1
 GAP=132        0.70       2.3     2.9  4.5 -0.1955E+01  0.5686E+01 -0.1371E+01E
 Epicentro: LOS SANTOS - SANTANDER                                             3
 ACTION:UPD 16-05-05 14:23 OP:rebc STATUS:               ID:20160424061307 L   I
 OLDACT:ARG 16-04-24 12:22 OP:cara STATUS:               ID:20160424060745     3
 2016-04-24-0607-45M.COL___312                                                 6
 STAT SP IPHASW D HRMM SECON CODA AMPLIT PERI AZIMU VELO AIN AR TRES W  DIS CAZ7
 BAR2 EZ EP        613 27.19                             168   -0.0510 29.4 186 
 BAR2 EZ ES        613 42.77                             168    0.1510 29.4 186 
 BAR2 EZ I         613 43.95        19.8 0.16            167           29.4 186 
 PAM  EZ IP        613 29.89                             152    0.4410 73.3  43 
 PAM  EN ES        613 46.64                             152    0.0810 73.3  43 
 PAM  EZ I         613 48.71        17.5 0.46            157           73.3  43 
 RUS  HZ EP        613 31.33                             142   -0.3710  107 176 
 RUS  HN ES        613 50.49                             142   -0.0710  107 176 
 RUS  HZ I         613 51.50         6.4 0.40            145            107 176 
 PTB  HZ EP        613 34.18                             132   -0.31 9  148 256 
 PTB  HN ES        613 55.69                             132    0.17 9  148 256 
 PTB  HZ I         613 57.66        14.7 0.42            132            148 256 
 OCA  HZ EP        613 34.84                             131   -0.36 9  154 353 
 OCA  HN ES        613 56.45                             131   -0.35 9  154 353 
 OCA  HZ I         613 58.04        17.6 0.18            133            154 353 
 SPBC HZ EP        613 36.80                             128    0.40 9  168 217 
 SPBC HN ES        613 58.75                             128   -0.18 9  168 217 
 SPBC HZ I         614  6.78        13.4 0.24            129            168 217 
 ZAR  HZ EP        613 40.02                             123    0.41 9  201 291 
 ZAR  HE ES        614  4.77                             123    0.14 9  201 291 
 ZAR  HZ I         614 10.59        15.1 0.44            123            201 291 
 NOR  HZ EP        613 43.93                             118    0.39 8  238 233 
 NOR  HN ES        614 11.33                             118   -0.30 8  238 233 
 NOR  HZ I         614 17.49         8.1 0.16            119            238 233 
 URE  HZ EP        613 48.11                             114   -0.10 7  281 291 
 URE  HN ES   4    614 18.26                             114   -1.68 0  281 291 
 URE  HZ I         614 28.94         7.4 0.16            115            281 291 
 GUY2CHZ EP   4    613 52.81                             112    1.38 0  304 234 
 GUY2CHN ES        614 25.58                             112   -0.11 7  304 234 
 GUY2CHZ I         614 35.78         7.5 0.86                           304 234 
                                                                                
