 2011  124 0110  5.7 L   6.785 -73.156136.9  RSN 10 0.4 2.1LRSN                1
 GAP=135        0.68       3.3     7.0  6.2 -0.6373E+01  0.1082E+02 -0.5846E+00E
 Epicentro: LOS SANTOS - SANTANDER                                             3
 ACTION:UP  11-02-08 08:42 OP:pat  STATUS:               ID:20110124011005 L   I
 2011-01-24-0105-41S.COL___138                                                 6
 STAT SP IPHASW D HRMM SECON CODA AMPLIT PERI AZIMU VELO SNR AR TRES W  DIS CAZ7
 BTL  SZ EP        110 24.44                             171     0.310   19 320 
 BAR2 SZ EP        110 24.29                             170     0.110   22 188 
 BAR2 SZ ES   1    110 38.67                             170     0.0 7   22 188 
 RUS  HZ EP        110 28.29                             143    -0.210   99 175 
 RUS  HE ES   2    110 46.41                             143     0.2 5   99 175 
 RUS  HZ I         110 47.41        21.2 0.26                            99 175 
 GRA  SZ EP        110 30.30                             135     0.010  128  18 
 GRA  SZ ES   1    110 49.26                             135    -0.3 7  128  18 
 GRA  SZ I         110 51.95        15.5 0.43                           128  18 
 OCA  SZ EP   1    110 33.16                             127    -0.3 7  162 354 
 OCA  SZ ES   3    110 54.47                             127    -0.7 2  162 354 
 OCA  SZ I         110 56.83        23.0 0.54                           162 354 
 YOP  SZ EP   1    110 34.81                                    -0.2 7  178 153 
 YOP  SZ I         111  1.00        11.9 0.64                           178 153 
 NOR  SZ EP   2    110 40.31                             117    -0.4 4  233 235 
 CHI  HZ EP   2    110 42.67                             115     0.0 4  247 195 
 CHI  HE ES   2    111 10.93                             115    -0.6 4  247 195 
 CHI  HZ I         111 21.26         5.1 0.36                           247 195 
 HEL  HZ EP   1    110 46.28                             113     1.0 6  271 256 
 HEL  HE ES   3    111 15.50                             113    -0.7 2  271 256 
 HEL  HZ I         111 24.96         7.9 0.35                           271 256 
 DBB  SZ ES   3    111 28.64                             108    -0.7 2  338 275 
                                                                                
