 2012 1024 1544 30.9 L   6.806 -73.086144.0  RSN  6 0.4 2.5LRSN                1
 GAP=144        0.78       5.4     6.4  7.4  0.7656E+01 -0.4239E+01 -0.3436E+01E
 Epicentro: LOS SANTOS - SANTANDER                                             3
 ACTION:UPD 12-11-22 17:05 OP:ep   STATUS:               ID:20121024154430 L   I
 2012-10-24-1540-00M.COL___234                                                 6
 STAT SP IPHASW D HRMM SECON CODA AMPLIT PERI AZIMU VELO AIN AR TRES W  DIS CAZ7
 BAR2 SZ EP   1   1544 50.33                             169   -0.08 7 25.9 204 
 BAR2 SZ ES   2   1545  4.79                             169   -0.80 5 25.9 204 
 BAR2 SZ I        1545  6.39        63.7 0.31                          25.9 204 
 PAM  SZ EP   1   1544 53.20                             152    0.51 7 72.8  36 
 PAM  SN ES   2   1545 10.12                             152    0.45 5 72.8  36 
 PAM  SN I        1545 11.26        31.3 0.30                          72.8  36 
 BRR  HZ EP       1544 52.10                             150   -0.1210 76.7 296 
 BRR  HE ES       1545  9.22                             150    0.4010 76.7 296 
 BRR  HN I        1545 12.95        89.9 0.26                          76.7 296 
 RUS  HZ EP   1   1544 54.73                             143    0.19 7  101 180 
 RUS  HN ES   2   1545 12.44                             143   -0.52 5  101 180 
 RUS  HN I        1545 14.07        46.5 0.22                           101 180 
 OCA  HZ EP   1   1544 58.65                             129   -0.48 7  161 351 
 OCA  HE ES   2   1545 20.17                             129   -0.95 5  161 351 
 ZAR  HZ EP   1   1545  4.03                             121    0.16 6  210 291 
 ZAR  HN ES   2   1545 29.23                             121   -0.33 4  210 291 
 ZAR  HN I        1545 31.72        31.8 0.19                           210 291 
                                                                                
