 2016  224 2328 43.2 L   6.550 -73.517111.3  RSN  8 0.3 1.5LRSN                1
 GAP= 71        1.08       4.6     4.7  6.7 -0.2971E+01  0.3541E+01  0.7045E+01E
 Epicentro: EL CARMEN - SANTANDER                                              3
 ACTION:UPD 16-03-04 21:29 OP:rebc STATUS:               ID:20160224232843 L   I
 OLDACT:DUP 16-02-25 09:24 OP:cara STATUS:               ID:20160224231752d    3
 OLDACT:REG 16-02-25 05:27 OP:cara STATUS:               ID:20160224231751     3
 2016-02-24-2317-51M.COL___340                                                 6
 STAT SP IPHASW D HRMM SECON CODA AMPLIT PERI AZIMU VELO AIN AR TRES W  DIS CAZ7
 BAR2 EZ IP       2328 59.40                             160    0.2510 37.3  83 
 BAR2 EZ ES       2329 11.33                             160   -0.2910 37.3  83 
 BRR  HZ EP       2329  0.27                             147   -0.0510 65.3 341 
 BRR  HN ES       2329 14.06                             147    0.3610 65.3 341 
 BRR  HZ I        2329 17.60         9.1 0.40            150           65.3 341 
 RUS  HZ EP       2329  2.57                             139   -0.0410 87.1 147 
 RUS  HN ES       2329 17.85                             139    0.0910 87.1 147 
 RUS  HZ I        2329 20.31         4.4 0.72            140           87.1 147 
 PTB  HZ EP   9   2329  2.31                             133   -1.05 0  104 269 
 PTB  HN ES       2329 17.11                                   -0.9410  104 269 
 PTB  HZ I        2329 18.58        12.9 0.18            135            104 269 
 PAM  EZ EP       2329  5.52                             128   -0.4910  126  46 
 NOR  HZ EP       2329 11.82                             116    0.21 9  185 234 
 NOR  HE ES       2329 33.41                             116   -0.38 9  185 234 
 NOR  HZ I        2329 36.19         5.7 0.16            117            185 234 
 CHI  HZ EP       2329 15.61                             112    0.38 8  214 186 
 CHI  HN ES   4   2329 41.69                             112    1.45 0  214 186 
 CHI  HZ I        2329 45.00         1.5 0.30            113            214 186 
 GUY2CHZ EP   9   2329 20.73                             108    1.08 0  252 234 
 GUY2CHN ES       2329 49.86                                    0.68 8  252 234 
 GUY2CHZ I        2329 53.70         1.6 0.52                           252 234 
                                                                                
