 2016  125 0426 12.0 L   6.826 -73.132145.7  RSN  4 0.2 1.1LRSN                1
 GAP=279        0.46       3.5     3.5  3.7  0.3668E+01  0.2761E+01  0.2069E+01E
 Epicentro: LOS SANTOS - SANTANDER                                             3
 ACTION:UPD 16-03-09 23:28 OP:cam  STATUS:               ID:20160125042612 L   I
 OLDACT:DUP 16-01-25 16:40 OP:cara STATUS:               ID:20160125041747d    3
 2016-01-25-0417-46M.COL___330                                                 6
 STAT SP IPHASW D HRMM SECON CODA AMPLIT PERI AZIMU VELO AIN AR TRES W  DIS CAZ7
 BAR2 EZ IP        426 31.90                             169    0.2310 26.4 192 
 BAR2 EZ ES        426 47.07                             169    0.0410 26.4 192 
 BAR2 EZ I         426 48.22         5.0 0.22            160           26.4 192 
 RUS  HZ EP        426 35.78                             143   -0.1510  103 177 
 RUS  HE ES        426 54.48                             143   -0.1210  103 177 
 RUS  HZ I         426 55.52         1.5 0.36            139            103 177 
 PTB  HZ EP        426 38.88                             132   -0.25 9  150 258 
 PTB  HN ES        427  0.38                             132    0.07 9  150 258 
 PTB  HZ I         427  6.57         1.7 0.40            127            150 258 
 CHI  HZ EP        426 50.23                             117    0.21 8  252 195 
 CHI  HN ES        427 19.75                             117    0.06 8  252 195 
 CHI  HZ I         427 27.56         0.8 0.54            115            252 195 
                                                                                
