 2017 1025 0937 12.8 L   6.805 -73.141146.0  RSN  7 0.4 1.2LRSN                1
 GAP=137        1.06       4.6     4.6  7.2 -0.1038E+01  0.6610E+01  0.3002E+01E
 Epicentro: LOS SANTOS - SANTANDER                                             3
 ACTION:UPD 17-11-07 19:36 OP:rebc STATUS:               ID:20171025093712 L   I
 OLDACT:REG 17-10-25 14:00 OP:dani STATUS:               ID:20171025092316     3
 2017-10-25-0928-00M.COL___428                                                 6
 STAT SP IPHASW D HRMM SECON CODA AMPLIT PERI AZIMU VELO AIN AR TRES W  DIS CAZ7
 BAR2 EZ EP        937 32.27                             170   -0.1510 23.9 191 
 BAR2 EZ ES        937 47.33                             170   -0.4310 23.9 191 
 BAR2 EZ I         937 48.59         3.5 0.56            172           23.9 191 
 BRR  HZ EP        937 34.15                             152    0.2110 71.5 298 
 BRR  HN ES        937 51.07                             152    0.6110 71.5 298 
 BRR  HZ I         937 59.90         5.0 0.39            151           71.5 298 
 PAM  EZ EP        937 35.19                             151    0.2510 76.6  39 
 PAM  EN ES        937 51.90                             151   -0.3510 76.6  39 
 PAM  EZ I         937 52.84         2.6 0.19            153           76.6  39 
 RUS  HZ EP        937 36.78                             144    0.2210  101 176 
 RUS  HZ ES        937 55.45                             144    0.3310  101 176 
 PTB  HZ EP        937 39.08                             132   -0.71 9  148 259 
 PTB  HN ES        938  0.22                             132   -0.67 9  148 259 
 PTB  HZ I         938  1.74         1.4 0.36            134            148 259 
 SPBC HZ EP        937 41.31                             129   -0.03 9  164 219 
 SPBC HN ES        938  3.90                             129    0.27 9  164 219 
 ZAR  HN ES        938 11.01                             122    0.42 9  204 292 
                                                                                
