 2016  925 0740  2.2 L   6.778 -73.121150.4  RSN  5 0.6 1.5LRSN                1
 GAP=206        1.32       8.7    10.5 11.7 -0.2185E+02  0.1223E+02  0.6443E+01E
 Epicentro: LOS SANTOS - SANTANDER                                             3
 ACTION:UPD 17-08-17 21:16 OP:lp   STATUS:               ID:20160925074002 L   I
 OLDACT:DUP 16-09-25 16:36 OP:ar   STATUS:               ID:20160925073742d    3
 2016-09-25-0738-00M.COL___327                                                 6
 STAT SP IPHASW D HRMM SECON CODA AMPLIT PERI AZIMU VELO AIN AR TRES W  DIS CAZ7
 BAR2 EZ EP        740 22.47                             172    0.1210 21.6 198 
 BAR2 EZ ES        740 37.45                             172   -0.6210 21.6 198 
 BAR2 EZ I         740 39.34         3.5 0.40            162           21.6 198 
 BRR  HN ES        740 42.04                             152    0.9510 74.8 299 
 BRR  HZ I         740 44.01         3.0 0.14            132           74.8 299 
 PTB  HZ EP        740 29.54                             133   -0.20 9  150 260 
 PTB  HN ES        740 50.39                             133   -0.84 9  150 260 
 PTB  HZ I         740 52.86         5.7 0.36            119            150 260 
 SPBC HZ EP   2    740 31.53                             130    0.50 5  163 220 
 SPBC HN ES        740 54.03                             130    0.50 9  163 220 
 OCA  HZ EP   2    740 31.11                             130   -0.02 5  163 352 
 OCA  HN ES   2    740 53.30                             130   -0.40 5  163 352 
 OCA  HZ I         740 58.19         6.6 0.34            107            163 352 
                                                                                
