 2017  325 0811 17.3 L   7.206 -73.413121.0  RSN  5 0.3 1.1LRSN                1
 GAP=158        0.71       4.0     2.8  6.8  0.1408E+00  0.7594E+01 -0.4161E+01E
 Epicentro: SABANA DE TORRES - SANTANDER                                       3
 ACTION:UPD 17-05-25 18:44 OP:jn   STATUS:               ID:20170325081117 L   I
 OLDACT:REG 17-03-25 12:48 OP:dani STATUS:               ID:20170325080740     3
 2017-03-25-0808-00M.COL___352                                                 6
 STAT SP IPHASW D HRMM SECON CODA AMPLIT PERI AZIMU VELO AIN AR TRES W  DIS CAZ7
 BAR2 EZ EP        811 36.38                             147    0.1710 72.5 159 
 BAR2 EZ ES        811 50.96                             147   -0.0410 72.5 159 
 PAM  EZ EP        811 36.75                             145   -0.3410 80.1  79 
 PAM  EN ES        811 52.68                             145    0.1210 80.1  79 
 PAM  EZ I         811 54.52         2.4 0.15            147           80.1  79 
 PTB  HZ EP        811 40.73                             128   -0.53 9  137 237 
 PTB  HE ES        812  0.08                             128    0.09 9  137 237 
 PTB  HZ I         812  1.33         2.0 0.15            130            137 237 
 RUS  HZ EP   1    811 43.69                             126    0.54 7  150 166 
 RUS  HN ES   1    812  3.23                             126   -0.13 7  150 166 
 RUS  HZ I         812  4.62         1.7 0.24            128            150 166 
 ZAR  HZ EP        811 44.15                             123    0.33 9  163 281 
 ZAR  HN ES        812  4.57                             123    0.03 9  163 281 
 ZAR  HZ I         812  6.84         2.1 0.29            125            163 281 
                                                                                
