 2010  825 0319 15.4 L   6.799 -73.093145.8  RSN  7 0.3 2.0LRSN                1
 GAP=188        0.61       3.2    10.0  5.8 -0.1418E+01  0.8379E+01  0.1868E+01E
 Epicentro: LOS SANTOS - SANTANDER                                             3
 ACTION:UP  10-09-07 10:57 OP:vdl  STATUS:               ID:20100825031915 L   I
 2010-08-25-0315-53S.COL___121                                                 6
 STAT SP IPHASW D HRMM SECON CODA AMPLIT PERI AZIMU VELO SNR AR TRES W  DIS CAZ7
 BTL  SZ IP        319 35.39                             170     0.310   23 304 
 BAR2 SZ IP        319 35.20                             170     0.110   25 204 
 BAR2 SZ ES   1    319 49.92                             170    -0.5 7   25 204 
 BAR2 SZ I         319 53.02        19.1 0.25                            25 204 
 BRR  HZ IP     C  319 37.05                             151     0.210   76 296 
 BRR  HE ES   2    319 53.71                             151     0.1 5   76 296 
 BRR  HZ I         319 58.64        14.9 0.15                            76 296 
 RUS  HZ EP   2    319 39.12                             144     0.0 5  100 179 
 RUS  HE ES   2    319 57.93                             144     0.2 5  100 179 
 RUS  HZ I         319 59.55         6.8 0.30                           100 179 
 OCA  SZ EP   1    319 43.59                             129    -0.2 7  161 351 
 OCA  SZ ES   2    320  5.66                             129    -0.3 5  161 351 
 OCA  SZ I         320 13.80        13.0 0.38                           161 351 
 CHI  HZ EP   1    319 53.12                             117    -0.2 6  250 196 
 CHI  HN ES   1    320 22.85                             117     0.0 6  250 196 
 CHI  HZ I         320 26.42         6.7 0.58                           250 196 
 PRA  HZ EP   1    320  8.82                             106    -0.5 4  395 210 
 PRA  HE ES   2    320 51.32                             106     0.0 3  395 210 
 PRA  HZ I         320 55.92         5.7 0.64                           395 210 
                                                                                
