 2012 1125 0907 24.6 L   6.793 -73.219138.0  RSN  4 0.3 1.3LRSN                1
 GAP=236        0.59       8.3     6.0  8.6  0.3417E+02 -0.4950E+00 -0.2045E+02E
 Epicentro: ZAPATOCA - SANTANDER                                               3
 ACTION:UPD 12-12-05 15:36 OP:}ep  STATUS:               ID:20121125090724 L   I
 2012-11-25-0900-00M.COL___233                                                 6
 STAT SP IPHASW D HRMM SECON CODA AMPLIT PERI AZIMU VELO AIN AR TRES W  DIS CAZ7
 BAR2 SZ EP   1    9 7 43.34                             170    0.05 8 22.6 170 
 BAR2 SZ ES   2    9 7 57.35                             170   -0.51 5 22.6 170 
 BAR2 SZ I         9 7 59.17         8.6 0.22                          22.6 170 
 RUS  HZ EP   1    9 7 47.51                             142   -0.10 8  101 171 
 RUS  HN ES   1    9 8  5.95                             142    0.39 8  101 171 
 RUS  HZ I         9 8  7.89         1.9 0.31                           101 171 
 PTB  HZ EP        9 7 50.04                             132   -0.1710  140 258 
 PTB  HN ES   1    9 8  9.96                             132   -0.22 7  140 258 
 PTB  HZ I         9 8 13.80         2.8 0.09                           140 258 
 ZAR  HN ES   1    9 8 20.61                             122    0.47 7  197 293 
 ZAR  HZ I         9 8 27.16         1.7 0.29                           197 293 
                                                                                
