 2013  625 0528 31.1 L   6.741 -73.238150.3  RSN  4 0.2 1.0LRSN                1
 GAP=212        0.50       5.4     5.2  6.6  0.1381E+02 -0.3987E+01 -0.1811E+01E
 Epicentro: VILLANUEVA - SANTANDER                                             3
 ACTION:UPD 14-01-08 09:57 OP:ep   STATUS:               ID:20130625052831 L   I
 OLDACT:REG 13-06-25 06:40 OP:jn   STATUS:               ID:20130625051959     3
 2013-06-25-0519-59M.COL___267                                                 6
 STAT SP IPHASW D HRMM SECON CODA AMPLIT PERI AZIMU VELO AIN AR TRES W  DIS CAZ7
 BAR2 SZ EP   1    528 50.77                             173   -0.40 7 17.6 160 
 BAR2 SZ I         529  6.56         2.8 0.26            167           17.6 160 
 BRR  HZ EP   1    528 52.41                             155   -0.06 7 66.2 308 
 BRR  HN ES   1    529  9.34                             155    0.20 7 66.2 308 
 BRR  HZ I         529 12.59         1.9 0.40            154           66.2 308 
 RUS  HZ EP   1    528 55.26                             146    0.33 7 95.4 170 
 RUS  HN ES   1    529 13.48                             146   -0.04 7 95.4 170 
 RUS  HZ I         529 16.97         0.7 0.28            145           95.4 170 
 PTB  HZ EP   1    528 57.55                             135    0.09 7  137 261 
 PTB  HN ES   1    529 17.88                             135   -0.14 7  137 261 
 PTB  HZ I         529 20.85         1.5 0.22            139            137 261 
                                                                                
