 2012  625 0804 19.4 L   6.862 -73.403114.7  RSN  5 0.4 1.4LRSN                1
 GAP=137        0.85       4.5     5.8 10.0 -0.1939E-01  0.1741E+02 -0.1622E+02E
 Epicentro: SAN VICENTE DE CHUCURI - SANTANDER                                 3
 ACTION:UPD 12-08-06 17:52 OP:ep   STATUS:               ID:20120625080419 L   I
 2012-06-25-0800-00M.COL___198                                                 6
 STAT SP IPHASW D HRMM SECON CODA AMPLIT PERI AZIMU VELO AIN AR TRES W  DIS CAZ7
 BAR2 SZ EP   1    8 4 36.24                             160    0.44 7 38.5 141 
 BAR2 SZ ES   1    8 4 49.14                             160    0.54 7 38.5 141 
 RUS  HZ EP   1    8 4 41.29                             133   -0.01 7  113 162 
 RUS  HN ES   1    8 4 57.81                             133   -0.58 7  113 162 
 RUS  HZ I         8 4 59.87         2.3 0.15                           113 162 
 PTB  HZ EP   1    8 4 41.35                             130   -0.13 7  122 253 
 PTB  HN ES   1    8 4 58.38                             130   -0.33 7  122 253 
 PTB  HZ I         8 5  3.42         7.3 0.19                           122 253 
 OCA  HZ EP   1    8 4 44.41                             123   -0.28 7  153   3 
 OCA  HN ES   1    8 5  4.03                             123   -0.40 7  153   3 
 ZAR  HZ EP   1    8 4 47.63                             119    0.76 7  175 294 
 ZAR  HZ I         8 5 13.28         4.9 0.26                           175 294 
                                                                                
