 2015  125 0310  6.4 L   6.519 -73.596113.1  RSN  5 0.4 1.0LRSN                1
 GAP= 91        0.84       4.4     4.6  8.3  0.3655E+01  0.5869E+01  0.7481E+01E
 Epicentro: SANTA HELENA DEL OPON - SANTANDER                                  3
 ACTION:UPD 15-03-02 15:42 OP:nd   STATUS:               ID:20150125031006 L   I
 OLDACT:DUP 15-01-25 14:39 OP:spq  STATUS:               ID:20150125030745d    3
 OLDACT:REG 15-01-25 12:27 OP:spq  STATUS:               ID:20150125030744     3
 2015-01-25-0307-44M.COL___271                                                 6
 STAT SP IPHASW D HRMM SECON CODA AMPLIT PERI AZIMU VELO AIN AR TRES W  DIS CAZ7
 BAR2 EZ EP   1    310 23.04                             156    0.02 7 46.5  80 
 BAR2 EZ ES   1    310 35.79                             156   -0.17 7 46.5  80 
 BRR  HZ EP        310 23.82                             147    0.0010 66.2 349 
 BRR  HN ES        310 37.72                             147    0.3410 66.2 349 
 BRR  HZ I         310 40.30         3.2 0.36            151           66.2 349 
 RUS  HZ EP        310 26.38                             139    0.1610 89.6 141 
 RUS  HE ES   1    310 41.14                             139   -0.52 7 89.6 141 
 RUS  HZ I         310 42.46         0.8 0.52            145           89.6 141 
 PTB  HZ EP        310 25.83                             137   -0.1910 95.1 271 
 PTB  HN ES   1    310 40.69                             137   -0.60 7 95.1 271 
 PTB  HZ I         310 45.71         1.9 0.04            138           95.1 271 
 SPBC HN ES   1    310 44.43                             133    0.75 7  109 209 
 SPBC HZ I         310 46.33         4.8 0.18            135            109 209 
                                                                                
