 2013  525 1921 10.8 L   6.786 -73.168151.9  RSN  6 0.4 1.5LRSN                1
 GAP=179        1.02       6.1     7.3  7.7  0.1416E+02  0.1378E+02  0.8114E+01E
 Epicentro: LOS SANTOS - SANTANDER                                             3
 ACTION:UPD 13-06-20 09:53 OP:ep   STATUS:               ID:20130525192110 L   I
 2013-05-25-1920-00M.COL___261                                                 6
 STAT SP IPHASW D HRMM SECON CODA AMPLIT PERI AZIMU VELO AIN AR TRES W  DIS CAZ7
 BAR2 SZ EP   1   1921 30.89                             172   -0.21 7 21.4 184 
 BAR2 SZ ES       1921 46.36                             172   -0.6010 21.4 184 
 BAR2 SZ I        1921 47.63         7.5 0.38            168           21.4 184 
 GIR2 SZ ES       1921 47.58                             167    0.4410 32.5 355 
 BRR  HZ EP   1   1921 33.05                             154    0.54 7 69.8 301 
 BRR  HN ES       1921 49.88                             154    0.4110 69.8 301 
 BRR  HZ I        1921 53.19         8.9 0.43            152           69.8 301 
 RUS  HZ EP       1921 35.30                             145    0.2710 99.2 175 
 RUS  HN ES   1   1921 53.61                             145   -0.35 7 99.2 175 
 RUS  HZ I        1921 55.84         2.0 0.36            146           99.2 175 
 PTB  HZ EP       1921 38.07                             134    0.07 9  145 259 
 PTB  HN ES       1921 58.99                             134   -0.25 9  145 259 
 PTB  HZ I        1922  3.94         5.0 0.10            132            145 259 
 SML  HE ES   1   1922 15.71                             118   -0.96 6  244 336 
                                                                                
