 2014  725 1917  7.3 L   6.755 -73.133142.8  RSN  5 0.4 1.6LRSN                1
 GAP=140        0.72       5.7     6.1  8.8 -0.4246E+01  0.7376E+01 -0.1280E+02E
 Epicentro: LOS SANTOS - SANTANDER                                             3
 ACTION:UPD 15-03-16 20:47 OP:nd   STATUS:               ID:20140725191707 L   I
 OLDACT:DUP 14-07-26 00:00 OP:fm   STATUS:               ID:20140725190821d    3
 2014-07-25-1908-20M.COL___260                                                 6
 STAT SP IPHASW D HRMM SECON CODA AMPLIT PERI AZIMU VELO AIN AR TRES W  DIS CAZ7
 BAR2 SZ ES   1   1917 41.27                             172   -0.19 7 18.8 197 
 BAR2 SZ I        1917 42.62        11.1 0.36            170           18.8 197 
 BRR  HZ EP       1917 28.49                             151    0.1310 75.0 301 
 BRR  HN ES   1   1917 45.26                             151    0.49 7 75.0 301 
 PAM  SZ EP   1   1917 29.33                             149   -0.07 7 80.4  36 
 PAM  SN ES   1   1917 46.40                             149   -0.22 7 80.4  36 
 PAM  SZ I        1917 48.29         4.1 0.18            151           80.4  36 
 RUS  HN ES   1   1917 48.60                             145    0.18 7 95.5 177 
 RUS  HZ I        1917 51.22        13.3 0.88            144           95.5 177 
 PTB  HN ES   2   1917 53.87                             131   -1.10 5  148 261 
 PTB  HZ I    1   1917 57.31         5.6 0.12            132            148 261 
                                                                                
