 2012  225 1702 30.5 L   6.793 -73.114146.0  RSN 14 0.3 2.4LRSN                1
 GAP=141        0.55       2.7     3.3  3.9 -0.2658E+01  0.2034E+01  0.4435E+01E
 ACTION:UP  12-03-07 16:34 OP:epov STATUS:               ID:20120225170230 L   I
 2012-02-25-1700-00M.COL___193                                                 6
 STAT SP IPHASW D HRMM SECON CODA AMPLIT PERI AZIMU VELO AIN AR TRES W  DIS CAZ7
 BAR2 SZ EP       17 2 50.10                             170   -0.0810 23.4 199 
 BAR2 SZ ES   1   17 3  6.12                             170    0.61 7 23.4 199 
 BAR2 SZ I        17 3  6.47       107.3 0.17                          23.4 199 
 GIR2 SZ EP       17 2 50.21                             167   -0.0510 32.9 344 
 GIR2 SZ ES   1   17 3  5.04                             167   -0.62 7 32.9 344 
 BRR  HZ EP       17 2 51.97                             151    0.0710 74.7 298 
 BRR  HE ES   1   17 3  9.10                             151    0.53 7 74.7 298 
 BRR  HZ I        17 3 13.11        48.5 0.17                          74.7 298 
 PAM  SZ EP       17 2 52.91                             151    0.2410 75.8  37 
 PAM  SN ES   1   17 3  9.85                             151   -0.09 7 75.8  37 
 RUS  HZ EP       17 2 54.00                             144   -0.2210 99.6 178 
 RUS  HN ES   2   17 3 12.60                             144   -0.11 5 99.6 178 
 RUS  HZ I        17 3 13.59        21.2 0.40                          99.6 178 
 PTB  HZ EP   2   17 2 57.16                             131   -0.65 5  151 259 
 PTB  HE ES   2   17 3 18.74                             131   -0.35 5  151 259 
 OCA  SZ ES   2   17 3 20.78                             129   -0.38 5  162 352 
 NOR  SZ EP       17 3  6.60                             118    0.08 8  237 235 
 NOR  SN ES   2   17 3 34.40                             118   -0.20 4  237 235 
 CHI  HZ EP       17 3  8.27                             117    0.02 8  249 196 
 CHI  HN ES   1   17 3 37.54                             117   -0.14 6  249 196 
 CHI  HZ I        17 3 45.40        11.5 0.43                           249 196 
 ROSC BZ EP   2   17 3  9.44                             117    0.66 4  254 212 
 ROSC BE ES   2   17 3 38.78                             117    0.16 4  254 212 
 ROSC BZ I        17 3 48.26        28.5 0.43                           254 212 
 HEL  HZ EP   2   17 3 11.22                             115    0.12 4  275 256 
 HEL  HN ES   2   17 3 42.44                             115   -0.32 4  275 256 
 HEL  HZ I        17 3 50.64        11.8 0.43                           275 256 
 GUY  SZ EP   2   17 3 14.79                             112    0.11 4  306 236 
 GUY  SN ES   2   17 3 48.79                             112   -0.33 4  306 236 
 GUY  SZ I        17 3 57.81        19.2 0.38                           306 236 
 RREF HZ EP   2   17 3 17.52                             111    0.60 3  324 230 
 RREF HN ES   2   17 3 53.30                             111    0.19 3  324 230 
 RREF HZ I        17 4  2.55        13.4 0.25                           324 230 
 PRA  HZ EP   1   17 3 24.06                             106   -0.11 4  393 210 
 PRA  HE ES   2   17 4  6.04                             106    0.02 3  393 210 
                                                                                
