 2011  625 2038 44.3 L   6.750 -73.106151.2  RSN  6 0.2 2.0LRSN                1
 GAP=161        0.57       3.3     5.6  6.6 -0.4645E+01 -0.7545E+01 -0.4247E+01E
 Epicentro: LOS SANTOS - SANTANDER                                             3
 ACTION:UP  11-07-14 19:08 OP:ep   STATUS:               ID:20110625203844 L   I
 2011-06-25-2037-52S.COL___121                                                 6
 STAT SP IPHASW D HRMM SECON CODA AMPLIT PERI AZIMU VELO SNR AR TRES W  DIS CAZ7
 BRR  HZ EP       2039  6.39                             151     0.010   78 301 
 BRR  HZ I        2039  6.67        58.4 0.15                            78 301 
 BRR  HN ES   1   2039 23.95                             151     0.3 7   78 301 
 RUS  HZ EP   1   2039  8.28                             146     0.1 7   95 178 
 RUS  HN ES   1   2039 26.73                             146    -0.1 7   95 178 
 RUS  HZ I        2039 28.36        10.0 0.28                            95 178 
 BRI  SZ EP       2039  9.04                             142     0.110  112  18 
 BRI  SZ I        2039 32.53         8.1 0.39                           112  18 
 GRA  SZ EP       2039 10.32                             137     0.010  130  15 
 GRA  SZ ES   1   2039 30.23                             137    -0.4 7  130  15 
 GRA  SZ I        2039 30.94        10.6 0.24                           130  15 
 OCA  SZ EP   1   2039 13.58                             130     0.0 7  166 352 
 OCA  SZ I        2039 39.29        16.7 0.40                           166 352 
 NOR  SN ES   2   2039 47.96                             119    -0.5 4  235 236 
                                                                                
