 2016 1225 2030 54.8 L   6.793 -73.175144.0  RSN  4 0.3 1.2LRSN                1
 GAP=133        0.49       3.2     3.1  6.0 -0.4114E+01  0.8630E+01 -0.5822E+01E
 Epicentro: LOS SANTOS - SANTANDER                                             3
 ACTION:UPD 17-01-11 20:19 OP:rebc STATUS:               ID:20161225203054 L   I
 OLDACT:REG 16-12-26 03:17 OP:and  STATUS:               ID:20161225202744     3
 2016-12-25-2028-00M.COL___375                                                 6
 STAT SP IPHASW D HRMM SECON CODA AMPLIT PERI AZIMU VELO AIN AR TRES W  DIS CAZ7
 BRR  HZ EP       2031 15.80                             153    0.1610 68.7 300 
 BRR  HN ES   3   2031 33.04                             153    1.17 2 68.7 300 
 PAM  EZ IP     D 2031 17.06                             150    0.0510 80.1  41 
 PAM  EE ES       2031 34.15                             150   -0.1710 80.1  41 
 PAM  EZ I        2031 36.24         3.5 0.52            154           80.1  41 
 RUS  HN ES       2031 36.73                             144    0.0110  100 174 
 RUS  HZ I        2031 37.94         2.6 0.34            148            100 174 
 PTB  HZ EP       2031 21.38                             132    0.05 9  144 259 
 PTB  HN ES       2031 41.82                             132   -0.20 9  144 259 
 PTB  HZ I        2031 47.48         1.6 0.14            134            144 259 
                                                                                
