 2012  825 2138 31.9 L   6.777 -73.160145.6  RSN  7 0.4 1.7LRSN                1
 GAP=136        0.89       5.7     5.0  7.6 -0.1558E+00  0.4329E+01  0.2724E+01E
 Epicentro: LOS SANTOS - SANTANDER                                             3
 ACTION:UPD 12-09-10 11:58 OP:ep   STATUS:               ID:20120825213831 L   I
 2012-08-25-2130-00M.COL___218                                                 6
 STAT SP IPHASW D HRMM SECON CODA AMPLIT PERI AZIMU VELO AIN AR TRES W  DIS CAZ7
 BAR2 SZ EP   1   2138 51.62                             172    0.17 7 20.6 187 
 BAR2 SZ ES   1   2139  6.90                             172    0.19 7 20.6 187 
 BAR2 SZ I        2139  8.09        27.4 0.26                          20.6 187 
 GIR2 SZ EP   1   2138 51.45                             166   -0.16 7 33.6 354 
 GIR2 SZ ES   1   2139  6.35                             166   -0.65 7 33.6 354 
 BRR  HN ES   1   2139 10.30                             153    0.79 7 71.1 301 
 PAM  SZ EP       2138 54.44                             150    0.1710 80.3  39 
 PAM  SZ I        2138 54.81        14.2 0.24                          80.3  39 
 PAM  SN ES   1   2139 11.43                             150   -0.30 7 80.3  39 
 RUS  HZ EP   1   2138 55.42                             144   -0.04 7 98.1 175 
 RUS  HZ I        2138 56.42         4.2 0.27                          98.1 175 
 RUS  HE ES   1   2139 14.15                             144    0.32 7 98.1 175 
 PTB  HZ EP   1   2138 58.39                             132   -0.28 7  146 260 
 PTB  HN ES   1   2139 18.70                             132   -0.85 7  146 260 
 PTB  HZ I        2139 21.30         4.8 0.27                           146 260 
 ZAR  HN ES   1   2139 30.06                             122    0.51 6  204 293 
                                                                                
