 2017  725 2020 54.3 L   6.805 -73.179141.7  RSN 12 0.4 2.1LRSN                1
 GAP=109        1.09       3.8     3.7  6.4  0.1170E+01  0.4101E+01  0.1429E+01E
 Epicentro: ZAPATOCA - SANTANDER                                               3
 ACTION:UPD 17-08-30 15:36 OP:rebc STATUS:               ID:20170725202054 L   I
 OLDACT:UP  17-07-26 04:23 OP:lv   STATUS:               ID:20170725201630     3
 OLDACT:REG 17-07-26 04:01 OP:lv   STATUS:               ID:20170725201630     3
 2017-07-25-2018-00M.COL___398                                                 6
 STAT SP IPHASW D HRMM SECON CODA AMPLIT PERI AZIMU VELO AIN AR TRES W  DIS CAZ7
 BAR2 EZ EP       2021 13.21                             170   -0.2610 23.5 181 
 BAR2 EZ ES       2021 28.11                             170   -0.3010 23.5 181 
 BAR2 EZ I        2021 29.61        30.3 0.22            168           23.5 181 
 BRR  HZ EP       2021 15.06                             153    0.2210 67.7 300 
 BRR  HN ES       2021 31.69                             153    0.8510 67.7 300 
 PAM  EZ EP       2021 15.89                             150   -0.3510 79.4  42 
 PAM  EN ES       2021 33.36                             150    0.0310 79.4  42 
 PAM  EZ I        2021 35.68        31.1 0.42            143           79.4  42 
 RUS  HZ EP   3   2021 17.71                             143   -0.03 2  101 174 
 RUS  HN ES       2021 35.83                             143   -0.1810  101 174 
 PTB  HZ EP       2021 20.36                             132   -0.28 9  144 258 
 PTB  HN ES       2021 41.00                             132   -0.17 9  144 258 
 SPBC HZ EP       2021 22.52                             129    0.19 9  161 218 
 SPBC HN ES       2021 43.95                             129   -0.23 9  161 218 
 SPBC HZ I        2021 47.50        82.5 0.04            119            161 218 
 YPLC HZ EP       2021 23.62                             126   -0.43 9  179 150 
 YPLC HN ES       2021 47.97                             126    0.73 9  179 150 
 YPLC HZ I        2021 48.60        11.0 0.22            118            179 150 
 ZAR  HZ EP       2021 26.80                             122    0.67 9  200 292 
 ZAR  HN ES       2021 50.23                             122   -0.71 9  200 292 
 ZAR  HZ I        2021 56.35         7.9 0.09            113            200 292 
 NOR  HN ES       2021 57.24                             118    0.25 8  232 234 
 NOR  HZ I        2022  1.46         8.0 0.19            110            232 234 
 HEL  HZ EP   3   2021 35.27                             114    1.32 2  269 255 
 HEL  HZ I        2022 11.38         5.6 0.09            106            269 255 
 GUY2CHZ EP   9   2021 38.60                             112    1.16 0  298 234 
 GUY2CHN ES       2022 13.19                                    0.96 7  298 234 
 GUY2CHZ I        2022 19.69         3.2 0.25                           298 234 
 PTGC HZ EP   9   2021 36.39                             111   -1.82 0  311 158 
 PTGC HN ES       2022 10.31                                   -0.31 7  311 158 
                                                                                
