 2015 1126 0251 41.1 L   6.792 -73.168140.3  RSN 14 0.5 2.1LRSN                1
 GAP=199        1.11       4.0     4.8  5.9  0.1121E+01  0.8350E+01 -0.2393E+00E
 Epicentro: LOS SANTOS - SANTANDER                                             3
 ACTION:UPD 15-12-28 16:13 OP:cam  STATUS:               ID:20151126025141 L   I
 OLDACT:REG 15-11-26 13:00 OP:drio STATUS:               ID:20151126024747     3
 2015-11-26-0247-47M.COL___307                                                 6
 STAT SP IPHASW D HRMM SECON CODA AMPLIT PERI AZIMU VELO AIN AR TRES W  DIS CAZ7
 BAR2 EZ EP        252  0.16                             171    0.1310 22.1 184 
 BAR2 EZ ES        252 14.27                             171   -0.5310 22.1 184 
 BAR2 EZ I         252 15.94        23.6 0.36            169           22.1 184 
 BRR  HZ EP     C  252  2.05                             152    0.5110 69.5 300 
 BRR  HN ES        252 17.95                             152    0.4510 69.5 300 
 BRR  HZ I         252 23.14        34.1 0.10            148           69.5 300 
 RUS  HZ EP        252  4.64                             143    0.3910 99.9 175 
 RUS  HN ES        252 22.13                             143   -0.1810 99.9 175 
 RUS  HZ I         252 23.41        10.6 0.50            146           99.9 175 
 PTB  HZ EP        252  7.17                             131   -0.20 9  145 259 
 PTB  HN ES        252 27.53                             131   -0.34 9  145 259 
 PTB  HZ I         252 30.87        15.3 0.46            130            145 259 
 SPBC HZ EP        252  8.37                             128   -0.58 9  161 219 
 SPBC HN ES        252 31.24                             128    0.55 9  161 219 
 SPBC HZ I         252 34.81        22.0 0.24            129            161 219 
 ZAR  HZ EP        252 13.44                             121    0.47 9  202 293 
 ZAR  HN ES        252 38.26                             121    0.41 9  202 293 
 ZAR  HZ I         252 46.52        14.1 0.22            121            202 293 
 NOR  HZ EP        252 16.75                             118    0.52 8  232 234 
 NOR  HE ES        252 42.85                             118   -0.79 8  232 234 
 NOR  HZ I         252 51.43         9.8 0.12            118            232 234 
 SML  HZ EP        252 16.68                             116   -0.70 8  243 336 
 SML  HN ES   4    252 43.92                             116   -1.78 0  243 336 
 SML  HZ I         252 53.78        18.7 0.22            117            243 336 
 HEL  HZ EP   4    252 21.82                             114    1.09 0  269 256 
 HEL  HN ES        252 51.57                             114   -0.09 8  269 256 
 HEL  HZ I         252 59.48         6.4 0.24            114            269 256 
 URE  HZ EP        252 20.72                             113   -0.95 7  282 292 
 URE  HN ES   4    252 50.52                             113   -2.81 0  282 292 
 GUY2CHZ EP        252 24.14                             111   -0.02 7  299 235 
 GUY2CHN ES        252 57.79                             111    0.04 7  299 235 
 GUY2CHZ I         253  5.57         6.2 0.24                           299 235 
 MON  HZ EP   4    252 27.91                             108   -1.81 0  352 309 
 MON  HN ES   4    253  5.58                             108   -2.07 0  352 309 
 MON  HZ I         253  9.29         2.2 0.30            109            352 309 
 ORTC HZ EP        252 35.05                             105    0.49 6  393 216 
 ORTC HN ES        253 16.56                             105    0.28 6  393 216 
 ORTC HZ I         253 23.15         2.7 0.40            107            393 216 
 SJC  HZ EP   4    252 35.11                             105   -1.29 0  409 327 
 SJC  HN ES   4    253 15.88                             105   -3.67 0  409 327 
 SJC  HZ I         253 19.63         3.3 0.60            106            409 327 
                                                                                
