 2011  726 0308 46.8 L   7.411 -73.185126.5  RSN  5 0.2 1.6LRSN                1
 GAP=128        0.55       3.4     5.7  6.6 -0.5538E+01  0.2312E+01 -0.1614E+01E
 Epicentro: EL PLAYON - SANTANDER                                              3
 ACTION:UPD 12-07-25 14:03 OP:epov STATUS:               ID:20110726030846 L   I
 2011-07-26-0308-04S.COL___142                                                 6
 STAT SP IPHASW D HRMM SECON CODA AMPLIT PERI AZIMU VELO AIN AR TRES W  DIS CAZ7
 BRI  SZ EP   1    3 9  5.60                             155    0.42 7 54.5  52 
 BRI  SZ ES   1    3 9 19.17                             155   -0.36 7 54.5  52 
 BTL  SZ EP   1    3 9  5.19                             155   -0.12 7 55.3 189 
 BRR  HZ EP   1    3 9  5.38                             150   -0.25 7 67.2 240 
 BRR  HN ES   1    3 9 20.35                             150    0.02 7 67.2 240 
 BRR  HZ I         3 9 21.51        11.9 0.16                          67.2 240 
 BAR2 SZ ES   1    3 9 23.97                             142    0.20 7 90.6 180 
 BAR2 SZ I         3 9 25.47         5.4 0.23                          90.6 180 
 OCA  SZ EP   1    3 9  7.46                             141   -0.14 7 92.7 351 
 OCA  SZ ES   1    3 9 24.08                             141    0.24 7 92.7 351 
 OCA  SZ I         3 9 26.11         6.8 0.39                          92.7 351 
                                                                                
