 2010 1026 0811 59.2 L   6.824 -73.062141.5  RSN  4 0.3 1.5LRSN                1
 GAP=168        0.89       5.1    10.1  9.5 -0.3473E+01 -0.2363E+02 -0.9086E+01E
 Epicentro: LOS SANTOS - SANTANDER                                             3
 ACTION:UP  11-02-18 11:12 OP:tino STATUS:               ID:20101026081159 L   I
 2010-10-26-0808-55S.COL___125                                                 6
 STAT SP IPHASW D HRMM SECON CODA AMPLIT PERI AZIMU VELO SNR AR TRES W  DIS CAZ7
 BAR2 SZ EP   1    812 18.21                             168    -0.3 7   29 208 
 BAR2 SZ ES   1    812 33.72                             168     0.2 7   29 208 
 BAR2 SZ I         812 34.88        10.3 0.31                            29 208 
 BRR  HZ IP     C  812 19.98                             149    -0.410   78 294 
 BRR  HZ I         812 20.24        10.9 0.16                            78 294 
 BRR  HN ES   1    812 37.07                             149     0.2 7   78 294 
 RUS  HZ EP   1    812 23.27                             142     0.5 7  103 181 
 RUS  HE ES   1    812 40.72                             142    -0.4 7  103 181 
 RUS  HZ I         812 42.03         4.3 0.37                           103 181 
 GRA  SZ IP        812 23.98                             137     0.310  121  14 
 GRA  SZ I         812 25.10         3.2 0.31                           121  14 
 GRA  SZ ES   1    812 42.49                             137    -0.3 7  121  14 
                                                                                
