 2013  726 0452 22.1 L   6.817 -73.134149.7  RSN 17 0.4 2.6LRSN                1
 GAP= 66        0.94       2.7     2.8  4.5 -0.4733E-01  0.2216E+01  0.2125E+01E
 Epicentro: LOS SANTOS - SANTANDER                                             3
 ACTION:UPD 13-08-12 10:40 OP:ep   STATUS:               ID:20130726045222 L   I
 OLDACT:UP  13-07-26 09:34 OP:cam  STATUS:               ID:20130726044959     3
 OLDACT:UP  13-07-26 09:33 OP:cam  STATUS:               ID:20130726044959     3
 OLDACT:UP  13-07-26 09:33 OP:cam  STATUS:               ID:20130726044959     3
 OLDACT:UP  13-07-26 09:32 OP:cam  STATUS:               ID:20130726044959     3
 OLDACT:UP  13-07-26 09:32 OP:cam  STATUS:               ID:20130726044959     3
 OLDACT:REG 13-07-26 08:19 OP:cam  STATUS:               ID:20130726044959     3
 2013-07-26-0449-59M.COL___266                                                 6
 STAT SP IPHASW D HRMM SECON CODA AMPLIT PERI AZIMU VELO AIN AR TRES W  DIS CAZ7
 BAR2 SZ IP     C  452 42.15                             170   -0.1110 25.4 192 
 BAR2 SZ ES        452 57.46                             170   -0.5110 25.4 192 
 BAR2 SZ I         452 58.93        81.1 0.22            168           25.4 192 
 GIR2 SZ EP        452 42.23                             168    0.0210 29.7 347 
 GIR2 SZ ES        452 57.59                             168   -0.3010 29.7 347 
 BRR  HZ EP        452 44.05                             153    0.3410 71.5 297 
 BRR  HE ES        453  1.48                             153    0.9410 71.5 297 
 BRR  HZ I         453  6.16        51.7 0.12            151           71.5 297 
 PAM  SZ EP        452 45.01                             152    0.3910 75.1  40 
 PAM  SN ES        453  2.29                             152    0.1310 75.1  40 
 PAM  SZ I         453  4.25        96.0 0.54            156           75.1  40 
 RUS  HZ EP        452 46.04                             144   -0.3410  102 177 
 RUS  HN ES        453  5.06                             144   -0.2510  102 177 
 RUS  HZ I         453  5.75        28.6 0.30            145            102 177 
 PTB  HZ EP        452 49.14                             133   -0.42 9  149 258 
 PTB  HN ES   1    453 10.30                             133   -0.66 7  149 258 
 PTB  HZ I         453 17.64        54.2 0.42            132            149 258 
 TAM  HZ EP     D  452 50.31                             131    0.27 9  154 106 
 TAM  HN ES        453 12.30                             131    0.49 9  154 106 
 OCA  HZ EP        452 50.24                             131   -0.34 9  159 353 
 OCA  HN ES   1    453 12.33                             131   -0.44 7  159 353 
 OCA  HZ I         453 18.31        39.0 0.30            132            159 353 
 YOP  SZ EP   1    452 52.64                             127    0.09 7  180 154 
 ZAR  HE ES        453 20.46                             123    0.04 9  205 292 
 NOR  HZ EP        452 58.24                             119   -0.07 8  237 234 
 NOR  HN ES        453 26.55                             119    0.01 8  237 234 
 NOR  HZ I         453 33.20        29.7 0.32            119            237 234 
 SML  HZ EP   1    452 58.32                             118   -0.52 6  243 335 
 SML  HN ES   1    453 27.19                             118   -0.29 6  243 335 
 SML  HZ I         453 29.90        62.6 0.32            119            243 335 
 CHI  HZ EP   1    453  0.18                             118   -0.09 6  251 195 
 CHI  HN ES        453 29.87                             118   -0.16 8  251 195 
 CHI  HZ I         453 35.44        15.5 0.52            119            251 195 
 ROSC BZ EP   4    453  2.01                             117    1.31 0  255 211 
 HEL  HZ EP   4    453  4.45                             115    1.73 0  274 255 
 HEL  HN ES        453 35.18                             115    0.78 8  274 255 
 HEL  HZ I         453 40.67        19.1 0.36            116            274 255 
 RREF HZ EP   2    453  9.88                             111    1.19 3  324 229 
 RREF HN ES   4    453 47.71                             111    2.70 0  324 229 
 PRA  HZ EP   1    453 15.62                             107   -0.42 4  394 210 
 PRA  HE ES   1    453 58.76                             107    0.66 4  394 210 
 PRA  HZ I         454  3.55        20.1 0.62            108            394 210 
 SMAR HZ EP   2    453 27.24                             103   -0.67 2  495 346 
                                                                                
