 2010  726 0023 21.7 L   6.769 -73.057149.6  RSN  5 0.2 1.5LRSN                1
 GAP=169        0.53       4.9    10.5 11.2  0.2754E+02 -0.8516E+02 -0.3350E+02E
 Epicentro: LOS SANTOS - SANTANDER                                             3
 ACTION:UPD 10-12-01 15:20 OP:pat  STATUS:               ID:20100726002321 L   I
 2010-07-26-0020-02S.COL___123                                                 6
 STAT SP IPHASW D HRMM SECON CODA AMPLIT PERI AZIMU VELO AIN AR TRES W  DIS CAZ7
 BAR2 SZ EP   1    023 41.72                             170    -0.1 7   24 216 
 BAR2 SZ I         023 41.86         7.5 0.29                            24 216 
 BRR  HZ EP   1    023 43.84                             150     0.0 7   82 297 
 BRR  HZ I         023 44.25        17.7 0.14                            82 297 
 BRR  HE ES   1    024  1.10                             150     0.0 7   82 297 
 RUS  HZ EP   1    023 45.53                             146     0.0 7   97 182 
 RUS  HE ES   1    024  4.19                             146     0.0 7   97 182 
 RUS  HZ I         024  5.51         3.5 0.46                            97 182 
 GUE  SZ EP   1    023 47.25                             140     0.4 7  118   7 
 GUE  SZ I         023 47.87         2.4 0.07                           118   7 
 GRA  SZ EP   1    023 46.99                             138    -0.3 7  127  13 
 GRA  SZ I         024  8.07         3.0 0.28                           127  13 
                                                                                
