 2016  726 0759 34.1 L   6.770 -73.147148.7  RSN  5 0.3 1.7LRSN                1
 GAP=153        0.68       5.8     3.3  5.4 -0.4092E+01  0.3743E+01  0.7898E+00E
 Epicentro: LOS SANTOS - SANTANDER                                             3
 ACTION:UPD 17-03-29 16:55 OP:lp   STATUS:               ID:20160726075934 L   I
 OLDACT:REG 16-07-26 13:55 OP:ar   STATUS:               ID:20160726075759     3
 2016-07-26-0757-59S.COL___325                                                 6
 STAT SP IPHASW D HRMM SECON CODA AMPLIT PERI AZIMU VELO AIN AR TRES W  DIS CAZ7
 BAR2 EZ EP        759 54.09                             172    0.1210 20.0 191 
 BAR2 EZ ES        8 0  9.43                             172   -0.0710 20.0 191 
 BAR2 EZ I         8 0 10.10         9.2 0.22            172           20.0 191 
 BRR  HZ EP        759 55.84                             152    0.2410 72.8 301 
 BRR  HN ES        8 0 12.85                             152    0.4410 72.8 301 
 BRR  HZ I         8 0 14.62         6.1 0.12            151           72.8 301 
 PAM  EZ EP        759 56.87                             150    0.1410 80.0  38 
 PAM  EN ES        8 0 14.04                             150   -0.3810 80.0  38 
 PTB  HZ EP        8 0  0.98                             133   -0.21 9  147 260 
 PTB  HN ES        8 0 22.20                             133   -0.16 9  147 260 
 PTB  HZ I         8 0 24.65         8.3 0.14            133            147 260 
 ZAR  HZ EP   4    8 0  8.42                             123    1.61 0  205 293 
 ZAR  HN ES        8 0 32.13                             123   -0.23 8  205 293 
 ZAR  HZ I         8 0 34.29         4.4 0.15            123            205 293 
                                                                                
