 2010  626 0507 15.5 L   6.806 -73.063137.2  RSN  4 0.2 1.5LRSN                1
 GAP=174        0.53       4.3     9.0  8.4  0.1262E+02 -0.3382E+02 -0.1370E+02E
 Epicentro: LOS SANTOS - SANTANDER                                             3
 ACTION:UP  10-08-24 10:13 OP:vdl  STATUS:               ID:20100626050715 L   I
 2010-06-26-0503-54S.COL___118                                                 6
 STAT SP IPHASW D HRMM SECON CODA AMPLIT PERI AZIMU VELO SNR AR TRES W  DIS CAZ7
 BAR2 SZ EP        5 7 34.29                             168     0.110   27 209 
 BAR2 SZ ES   2    5 7 48.82                             168     0.1 5   27 209 
 BRR  HZ EP        5 7 36.01                             148    -0.210   79 295 
 BRR  HN ES   2    5 7 52.62                             148     0.3 5   79 295 
 BRR  HZ I         5 7 53.66         8.6 0.14                            79 295 
 RUS  HZ EP        5 7 38.56                             142     0.110  101 181 
 RUS  HZ I         5 7 39.46         3.4 0.16                           101 181 
 RUS  HN ES   2    5 7 55.75                             142    -0.6 5  101 181 
 GUE  SZ EP        5 7 39.16                             138     0.010  114   8 
                                                                                
