 2015  626 1050 55.3 L   7.281 -74.015 24.2  RSN  4 0.1 1.6LRSN                1
 GAP=155        0.43       1.9     1.4  1.8  0.1489E+01  0.3658E+00 -0.9512E+00E
 Epicentro: PUERTO WILCHES - SANTANDER                                         3
 ACTION:UPD 15-09-10 22:15 OP:cam  STATUS:               ID:20150626105055 L   I
 OLDACT:REG 15-06-26 22:14 OP:drio STATUS:               ID:20150626104748     3
 2015-06-26-1047-48M.COL___310                                                 6
 STAT SP IPHASW D HRMM SECON CODA AMPLIT PERI AZIMU VELO AIN AR TRES W  DIS CAZ7
 BRR  HZ EP       1051  2.32                             120   -0.2610 38.5 120 
 BRR  HE ES       1051  8.41                             120    0.1710 38.5 120 
 BRR  HZ I        1051  9.12        42.4 0.22            121           38.5 120 
 ZAR  HZ EP       1051 10.77                              71   -0.0010 96.0 284 
 ZAR  HN ES       1051 22.85                              71    0.0210 96.0 284 
 ZAR  HZ I        1051 24.33        11.3 0.10             71           96.0 284 
 BAR2 EZ EP       1051 14.26                              56    0.2010  119 130 
 BAR2 EZ ES       1051 28.57                              56   -0.1110  119 130 
 BAR2 EZ I        1051 28.93        10.6 0.20             56            119 130 
 SML  HZ EP       1051 19.83                              56   -0.05 9  168 358 
 SML  HE ES       1051 39.06                              56    0.03 9  168 358 
 SML  HZ I        1051 41.36        10.3 0.10             56            168 358 
                                                                                
