 2017  426 1606 45.8 L   6.073 -73.700115.2  RSN 17 0.4 2.2LRSN                1
 GAP= 72        0.91       2.3     2.1  5.0 -0.6231E+00  0.1403E+01  0.1466E+01E
 Epicentro: CHIPATA - SANTANDER                                                3
 ACTION:UPD 17-05-30 21:16 OP:jn   STATUS:               ID:20170426160645 L   I
 OLDACT:UP  17-04-26 23:00 OP:and  STATUS:               ID:20170426155740     3
 OLDACT:UP  17-04-26 23:00 OP:and  STATUS:               ID:20170426155740     3
 OLDACT:UP  17-04-26 22:59 OP:and  STATUS:               ID:20170426155740     3
 OLDACT:UP  17-04-26 22:59 OP:and  STATUS:               ID:20170426155740     3
 OLDACT:UP  17-04-26 22:57 OP:and  STATUS:               ID:20170426155740     3
 OLDACT:REG 17-04-26 20:30 OP:and  STATUS:               ID:20170426155740     3
 2017-04-26-1558-00M.COL___375                                                 6
 STAT SP IPHASW D HRMM SECON CODA AMPLIT PERI AZIMU VELO AIN AR TRES W  DIS CAZ7
 SPBC HZ IP     D 16 7  3.00                             150   -0.3110 62.1 222 
 SPBC HN ES       16 7 16.65                             150   -0.2910 62.1 222 
 SPBC HZ I        16 7 19.94        41.1 0.12            147           62.1 222 
 BAR2 EZ IP     C 16 7  4.97                             142    0.1510 81.2  45 
 BAR2 EZ ES       16 7 19.53                             142   -0.1010 81.2  45 
 PTB  HZ IP     D 16 7  4.79                             136   -1.0810 98.3 302 
 PTB  HN ES       16 7 21.66                             136    0.1610 98.3 302 
 PTB  HZ I        16 7 22.48        18.8 0.15            139           98.3 302 
 BRR  HZ EP       16 7  7.29                             132    0.0310  114 359 
 BRR  HE ES       16 7 24.27                             132    0.3010  114 359 
 TABC EZ EP   2   16 7 10.04                             128    0.71 5  130 205 
 TABC EZ ES   2   16 7 28.18                             128    0.51 5  130 205 
 TABC EZ I        16 7 33.76        18.4 0.24            128            130 205 
 NOR  HZ EP       16 7  9.63                             125   -0.25 9  141 247 
 NOR  HN ES       16 7 28.86                             125    0.21 9  141 247 
 NOR  HZ I        16 7 31.87        50.1 0.34            126            141 247 
 ROSC BZ EP   4   16 7 13.57                             123    2.09 0  153 207 
 ROSC BN ES   4   16 7 34.36                             123    2.86 0  153 207 
 ROSC BZ I        16 7 37.29        17.0 0.30            123            153 207 
 CHI  HZ EP       16 7 11.63                             122   -0.60 9  160 181 
 CHI  HN ES   3   16 7 32.18                             122   -0.64 2  160 181 
 CHI  HZ I        16 7 38.33        10.9 0.34            122            160 181 
 YPLC HZ EP       16 7 12.25                             121   -0.02 9  164 117 
 YPLC HN ES       16 7 33.18                             121    0.29 9  164 117 
 YPLC HZ I        16 7 37.21        43.4 0.32            122            164 117 
 PAM  EZ EP       16 7 14.55                             119    0.23 9  179  38 
 PAM  EE ES   2   16 7 37.21                             119    0.67 4  179  38 
 PAM  EZ I        16 7 38.49        16.0 0.16            122            179  38 
 HEL  HZ EP       16 7 17.52                             115    0.71 9  203 274 
 HEL  HN ES       16 7 41.20                             115    0.23 9  203 274 
 HEL  HZ I        16 7 45.23        18.5 0.27            117            203 274 
 ZAR  HZ EP       16 7 16.21                             115   -0.11 9  203 321 
 ZAR  HN ES       16 7 40.07                             115   -0.03 9  203 321 
 ZAR  HZ I        16 7 42.15        24.6 0.30            118            203 321 
 ELA  HN ES       16 7 47.02                             112    0.03 8  231 235 
 ELA  HZ I        16 7 58.47         9.2 0.44            113            231 235 
 ANIL HN ES       16 7 52.36                             109    0.59 8  257 227 
 ANIL HZ I        16 7 55.92        30.3 0.38            110            257 227 
 CBOC HZ EP       16 7 23.00                             109    0.31 8  257 265 
 CBOC HE ES       16 7 51.50                             109    0.06 8  257 265 
 ORTC HZ EP       16 7 26.71                             106   -0.15 7  294 216 
 ORTC HN ES   3   16 8  0.83                             106    1.96 2  294 216 
 ORTC HZ I        16 8  2.72         7.6 0.20            107            294 216 
 DBB  EZ EP   2   16 7 26.91                             106   -0.27 4  297 291 
 DBB  EN ES       16 7 58.98                             106   -0.45 7  297 291 
 DBB  EZ I        16 8  3.23         7.6 0.20            108            297 291 
                                                                                
