 2016 1026 2050 27.1 L   6.783 -73.162149.3  RSN  5 0.5 1.7LRSN                1
 GAP=135        1.19       6.5     6.3  8.9 -0.4219E+01  0.7932E+01  0.1632E+01E
 Epicentro: LOS SANTOS - SANTANDER                                             3
 ACTION:UPD 16-11-09 19:23 OP:rebc STATUS:               ID:20161026205027 L   I
 OLDACT:REG 16-10-27 03:46 OP:ar   STATUS:               ID:20161026204800     3
 2016-10-26-2047-59S.COL___310                                                 6
 STAT SP IPHASW D HRMM SECON CODA AMPLIT PERI AZIMU VELO AIN AR TRES W  DIS CAZ7
 BAR2 EZ ES       2051  2.22                             172   -0.5410 21.2 186 
 BAR2 EZ I        2051  3.09        16.4 0.26            172           21.2 186 
 BRR  HZ EP       2050 48.89                             153    0.2710 70.5 301 
 BRR  HN ES       2051  6.25                             153    0.8610 70.5 301 
 PAM  EZ EP       2050 50.01                             151    0.1310 80.0  40 
 PAM  EN ES       2051  7.18                             151   -0.4410 80.0  40 
 PAM  EZ I        2051  9.11         6.6 0.50            151           80.0  40 
 RUS  HZ EP       2050 51.29                             145    0.1810 98.9 175 
 RUS  HE ES       2051 10.16                             145    0.3410 98.9 175 
 RUS  HZ I        2051 10.74         6.3 0.30            146           98.9 175 
 PTB  HZ EP       2050 53.74                             133   -0.46 9  146 259 
 PTB  HN ES       2051 14.85                             133   -0.46 9  146 259 
 PTB  HZ I        2051 16.68         5.3 0.16            134            146 259 
                                                                                
