 2016  226 2306 58.1 L   6.862 -73.067148.5  RSN  7 0.3 1.7LRSN                1
 GAP=143        0.68       2.7     3.1  5.2 -0.7617E+00  0.5628E+01  0.1950E+01E
 Epicentro: LOS SANTOS - SANTANDER                                             3
 ACTION:UPD 16-03-04 21:29 OP:rebc STATUS:               ID:20160226230658 L   I
 OLDACT:DUP 16-02-27 09:34 OP:cara STATUS:               ID:20160226225748d    3
 2016-02-26-2257-47M.COL___319                                                 6
 STAT SP IPHASW D HRMM SECON CODA AMPLIT PERI AZIMU VELO AIN AR TRES W  DIS CAZ7
 PAM  EZ EP       23 7 19.64                             155   -0.4010 66.6  38 
 PAM  EE ES       23 7 37.37                             155    0.2410 66.6  38 
 PAM  EZ I        23 7 41.22         8.6 0.56            160           66.6  38 
 RUS  HZ EP       23 7 22.82                             143    0.1910  107 181 
 RUS  HE ES       23 7 41.69                             143   -0.0510  107 181 
 RUS  HZ I        23 7 42.63         2.9 0.26            145            107 181 
 PTB  HZ EP       23 7 26.03                             131   -0.19 9  158 257 
 PTB  HN ES       23 7 47.65                             131   -0.49 9  158 257 
 PTB  HZ I        23 7 52.89         7.5 0.36            133            158 257 
 SPBC HZ EP       23 7 27.97                             128    0.10 9  174 220 
 SPBC HE ES       23 7 51.27                             128    0.21 9  174 220 
 SPBC HZ I        23 7 56.09         6.1 0.24            130            174 220 
 ZAR  HZ EP       23 7 31.28                             122   -0.05 8  210 290 
 ZAR  HE ES       23 7 57.60                             122    0.36 8  210 290 
 ZAR  HZ I        23 8  2.78         8.6 0.74            125            210 290 
 CHI  HZ EP       23 7 37.30                             117    0.35 8  258 197 
 CHI  HN ES       23 8  6.89                             117   -0.35 8  258 197 
 CHI  HZ I        23 8 16.12         2.1 0.32            120            258 197 
 GUY2CHZ EP       23 7 43.02                             112   -0.09 7  312 235 
 GUY2CHE ES       23 8 18.54                             112    0.34 7  312 235 
 GUY2CHZ I        23 8 26.04         2.0 0.26                           312 235 
                                                                                
