 2015  726 2158 17.9 L   6.820 -73.077142.0  RSN 11 0.4 1.9LRSN                1
 GAP=144        0.95       3.2     4.5  6.9 -0.2614E+01  0.1509E+02  0.2602E+00E
 Epicentro: LOS SANTOS - SANTANDER                                             3
 ACTION:UPD 15-09-08 21:50 OP:cam  STATUS:               ID:20150726215817 L   I
 OLDACT:REG 15-07-27 06:16 OP:spq  STATUS:               ID:20150726214748     3
 2015-07-26-2147-48M.COL___334                                                 6
 STAT SP IPHASW D HRMM SECON CODA AMPLIT PERI AZIMU VELO AIN AR TRES W  DIS CAZ7
 BAR2 EZ EP       2158 37.06                             168   -0.0810 27.7 205 
 BAR2 EZ ES   1   2158 51.67                             168   -0.51 7 27.7 205 
 BAR2 EZ I        2158 54.11        33.1 0.32            167           27.7 205 
 PAM  EZ EP     D 2158 39.86                             152    0.5510 71.0  36 
 PAM  EN ES       2158 56.55                             152    0.5210 71.0  36 
 PAM  EZ I        2158 58.96        14.8 0.46            156           71.0  36 
 RUS  HZ EP       2158 41.16                             142   -0.2310  103 180 
 RUS  HE ES   1   2158 59.66                             142   -0.09 7  103 180 
 RUS  HZ I        2159  1.05        10.7 0.34            145            103 180 
 OCA  HZ EP       2158 45.45                             129   -0.33 9  159 350 
 OCA  HN ES       2159  7.09                             129   -0.47 9  159 350 
 OCA  HZ I        2159  8.96        30.3 0.25            131            159 350 
 ZAR  HZ EP       2158 51.26                             121    0.54 8  210 291 
 ZAR  HN ES       2159 16.65                             121    0.30 8  210 291 
 ZAR  HZ I        2159 21.57         8.0 0.30            122            210 291 
 NOR  HZ EP       2158 53.69                             117   -0.50 8  242 235 
 NOR  HE ES   4   2159 21.10                             117   -1.42 0  242 235 
 NOR  HZ I        2159 25.60         6.6 0.18            118            242 235 
 SML  HZ EP       2158 53.71                             116   -0.71 8  245 333 
 SML  HN ES   4   2159 21.72                             116   -1.22 0  245 333 
 SML  HZ I        2159 28.92         6.7 0.10            118            245 333 
 CHI  HZ EP   1   2158 56.06                             116    0.24 6  253 197 
 CHI  HE ES   1   2159 25.45                             116    0.03 6  253 197 
 CHI  HZ I        2159 32.55         3.4 0.36            118            253 197 
 HEL  HZ EP   1   2158 59.52                             113    0.75 6  280 256 
 HEL  HN ES       2159 31.08                             113    0.40 7  280 256 
 HEL  HZ I        2159 35.84         4.4 0.30            115            280 256 
 GUY2CHZ EP   4   2159  3.30                             111    1.15 0  309 235 
 GUY2CHN ES       2159 36.64                             111   -0.06 7  309 235 
 GUY2CHZ I        2159 43.70         2.7 0.38                           309 235 
 CBOC HN ES   1   2159 42.31                             109   -0.41 5  342 252 
 CBOC HZ I        2159 44.60         2.3 0.41            110            342 252 
                                                                                
