 2017  327 0801 20.3 L   6.765 -73.117159.4  RSN  6 0.4 0.8LRSN                1
 GAP=142        1.05       5.3     5.1  9.3 -0.4352E+01  0.1341E+02 -0.3731E+01E
 Epicentro: LOS SANTOS - SANTANDER                                             3
 ACTION:UPD 17-05-25 18:45 OP:jn   STATUS:               ID:20170327080121 L   I
 OLDACT:UP  17-05-02 14:46 OP:nlst STATUS:               ID:20170327080121 L   3
 OLDACT:DUP 17-03-27 17:46 OP:ar   STATUS:               ID:20170327075707d    3
 OLDACT:REG 17-03-27 13:23 OP:and  STATUS:               ID:20170327075706     3
 2017-03-27-0758-00M.COL___348                                                 6
 STAT SP IPHASW D HRMM SECON CODA AMPLIT PERI AZIMU VELO AIN AR TRES W  DIS CAZ7
 BAR2 EZ ES   1    8 1 58.15                             172    0.07 7 20.4 201 
 PAM  EZ EP        8 1 44.73                             153    0.6710 78.5  36 
 PAM  EN ES        8 2  2.38                             153   -0.2010 78.5  36 
 PAM  EZ I         8 2  5.97         0.9 0.60            153           78.5  36 
 RUS  HZ EP        8 1 44.61                             148   -0.5510 96.5 178 
 RUS  HN ES        8 2  4.47                             148   -0.0610 96.5 178 
 RUS  HZ I         8 2  5.32         0.8 0.26            150           96.5 178 
 PTB  HZ EP        8 1 48.15                             134   -0.48 9  150 261 
 PTB  HE ES        8 2 10.42                             134   -0.30 9  150 261 
 PTB  HZ I         8 2 11.48         0.9 0.17            137            150 261 
 SPBC HZ EP   2    8 1 50.51                             132    0.71 5  162 221 
 SPBC HE ES        8 2 13.44                             132    0.63 9  162 221 
 ZAR  HN ES        8 2 20.64                             125    0.14 8  208 293 
                                                                                
