 2011  427 0924 32.4 L   6.781 -73.106152.2  RSN  5 0.1 1.2LRSN                1
 GAP=187        0.40       4.0     6.3  7.7 -0.5465E-01 -0.2576E+02  0.3915E+01E
 Epicentro: LOS SANTOS - SANTANDER                                             3
 ACTION:UP  11-06-22 15:33 OP:REBC STATUS:               ID:20110427092432 L   I
 2011-04-27-0921-57S.COL___137                                                 6
 STAT SP IPHASW D HRMM SECON CODA AMPLIT PERI AZIMU VELO SNR AR TRES W  DIS CAZ7
 BAR2 SZ EP        924 52.62                             171    -0.210   23 202 
 BRR  HZ EP   1    924 54.63                             152     0.1 7   76 298 
 BRR  HN ES   1    925 11.80                             152     0.0 7   76 298 
 RUS  HZ EP   1    924 56.81                             146     0.2 7   98 179 
 RUS  HZ I         925 18.18         1.6 0.31                            98 179 
 OCA  SZ EP   1    925  1.45                             130     0.0 7  163 352 
 OCA  SZ I         925 31.37         3.1 0.41                           163 352 
 NOR  SN ES   2    925 37.01                             119    -0.1 4  237 235 
                                                                                
