 2014  427 0428 29.6 L   6.776 -73.138140.0  RSN 10 0.5 1.6LRSN                1
 GAP=139        0.85       3.8     5.0 10.0 -0.2889E+01  0.2023E+02 -0.2397E+01E
 Epicentro: LOS SANTOS - SANTANDER                                             3
 OLDACT:REG 14-04-27 13:18 OP:fm   STATUS:               ID:20140427041807     3
 ACTION:UPD 14-05-13 23:11 OP:nd   STATUS:               ID:20140427042829 L   I
 OLDACT:UP  14-04-27 17:07 OP:fm   STATUS:               ID:20140427041807     3
 2014-04-27-0418-07M.COL___239                                                 6
 STAT SP IPHASW D HRMM SECON CODA AMPLIT PERI AZIMU VELO AIN AR TRES W  DIS CAZ7
 PAM  SZ EP   1    428 51.21                             149   -0.09 7 79.0  38 
 PAM  SE ES   1    429  8.74                             149    0.51 7 79.0  38 
 PAM  SZ I         429 10.91         6.2 0.66            154           79.0  38 
 RUS  HZ EP   1    428 51.84                             144   -0.75 7 97.9 176 
 RUS  HN ES   1    429 10.70                             144    0.18 7 97.9 176 
 RUS  SZ I         429 12.45         5.1 0.32            140           97.9 176 
 PTB  HZ EP   1    428 56.00                             131   -0.13 7  148 260 
 PTB  HN ES   1    429 16.00                             131   -0.82 7  148 260 
 PTB  SZ I         429 31.79         6.5 0.04            126            148 260 
 SPBC HZ EP   1    428 57.74                             128    0.23 7  162 220 
 SPBC SZ I         429 18.82         5.7 1.56            124            162 220 
 SPBC HE ES   1    429 19.59                             128    0.31 7  162 220 
 OCA  HN ES   2    429 19.07                             128   -0.60 5  163 353 
 ZAR  HZ EP   2    429  2.95                             121    1.09 4  206 293 
 ZAR  HN ES   1    429 27.56                             121    0.54 6  206 293 
 ZAR  SZ I         429 32.54         4.3 0.44            118            206 293 
 NOR  HN ES   2    429 32.45                             117    0.01 4  234 235 
 SML  HN ES   1    429 34.43                             116   -0.33 6  246 335 
 GUY2CHZ EP   2    429 13.08                             111    0.23 4  300 235 
 GUY2CHE ES   4    429 48.51                             111    1.93 0  300 235 
 GUY2CSZ I         429 53.76         3.1 3.28                           300 235 
 RREF HN ES   4    429 49.98                             110   -1.09 0  321 230 
 CBOC HN ES   2    429 53.49                             109    0.81 3  334 253 
                                                                                
