 2011  927 0630 39.0 L   6.836 -73.289118.8  RSN 10 0.3 2.0LRSN                1
 GAP=135        0.61       2.6     3.4  4.3  0.4023E+00  0.6129E+01 -0.5679E+00E
 Epicentro: ZAPATOCA - SANTANDER                                               3
 ACTION:UPD 12-07-13 16:00 OP:ep   STATUS:               ID:20110927063039 L   I
 2011-09-27-0620-00M.COL___167                                                 6
 STAT SP IPHASW D HRMM SECON CODA AMPLIT PERI AZIMU VELO AIN AR TRES W  DIS CAZ7
 GIR2 SZ EP   1    630 55.41                             165    0.02 7 28.8  21 
 BAR2 SZ EP        630 55.69                             165    0.1410 29.5 156 
 BAR2 SZ ES        631  8.46                             165   -0.0210 29.5 156 
 BAR2 SZ I         631  9.86        41.0 0.34                          29.5 156 
 BRR  HZ EP   1    630 56.08                             153   -0.25 7 55.5 303 
 BRR  HN ES   1    631  9.91                             153    0.04 7 55.5 303 
 BRR  HZ I         631 10.93        34.7 0.12                          55.5 303 
 RUS  HZ EP   1    631  0.37                             135   -0.35 7  107 168 
 RUS  HN ES   1    631 17.92                             135    0.25 7  107 168 
 OCA  SZ EP   1    631  4.40                             124   -0.43 7  155 359 
 OCA  SZ I         631 25.99        15.8 0.39                           155 359 
 ZAR  HZ EP   1    631  7.86                             118   -0.21 7  188 293 
 ZAR  HN ES   1    631 30.60                             118   -0.15 7  188 293 
 ZAR  HZ I         631 35.46         4.7 0.10                           188 293 
 NOR  SZ EP   1    631 12.51                             113    0.35 6  224 231 
 NOR  SN ES   1    631 37.73                             113   -0.30 6  224 231 
 HEL  HZ EP   1    631 17.21                             110    0.88 6  258 254 
 HEL  HN ES   1    631 45.54                             110    0.07 6  258 254 
 HEL  HZ I         631 49.81         4.0 0.45                           258 254 
 COD  HN ES   1    632  3.06                             104    0.69 5  343 357 
 PRA  HZ EP   1    631 30.63                             102   -0.60 4  388 207 
 PRA  HN ES   1    632 12.04                             102    0.06 4  388 207 
 PRA  HZ I         632 20.48         7.7 0.21                           388 207 
                                                                                
