 2014  827 0654 54.2 L   6.355 -73.662 97.3  RSN  8 0.5 1.4LRSN                1
 GAP=147        1.13       4.1     4.5  9.7 -0.3944E+01  0.1436E+02  0.5069E+01E
 Epicentro: SANTA HELENA DEL OPON - SANTANDER                                  3
 ACTION:UPD 14-09-15 21:53 OP:nd   STATUS:               ID:20140827065454 L   I
 OLDACT:DUP 14-08-27 16:53 OP:fm   STATUS:               ID:20140827064808d    3
 2014-08-27-0648-07M.COL___257                                                 6
 STAT SP IPHASW D HRMM SECON CODA AMPLIT PERI AZIMU VELO AIN AR TRES W  DIS CAZ7
 BAR2 SZ EP        655  9.74                             147   -0.0810 59.2  64 
 BAR2 SZ ES   1    655 22.69                             147    0.66 7 59.2  64 
 BAR2 SZ I         655 23.96        21.1 0.48            149           59.2  64 
 BRR  HZ EP   1    655 10.91                             136   -0.44 7 83.3 356 
 BRR  HN ES        655 25.15                             136    0.4010 83.3 356 
 SPBC HZ EP        655 12.12                             134    0.0610 90.0 210 
 SPBC HE ES        655 25.84                             134   -0.1710 90.0 210 
 PTB  HZ EP        655 11.01                             134   -0.9610 90.2 283 
 PTB  HN ES        655 25.25                             134   -0.6010 90.2 283 
 PTB  HZ I         655 27.58         9.0 0.36            132           90.2 283 
 NOR  HN ES   1    655 38.83                             117    0.34 7  160 237 
 NOR  HZ I         655 40.93         3.0 0.16            116            160 237 
 ZAR  HN ES        655 43.13                             114    0.25 9  182 314 
 ZAR  HZ I         655 47.11         4.8 0.34            112            182 314 
 HEL  HZ EP   1    655 25.25                             111    0.41 6  207 265 
 HEL  HN ES        655 49.35                             111    0.59 8  207 265 
 HEL  HZ I         655 55.23         1.6 0.36            109            207 265 
 GUY2CHZ EP   1    655 27.28                             109    0.11 6  226 237 
 GUY2CHN ES   1    655 53.55                             109    0.64 6  226 237 
 GUY2CHZ I         655 59.31         1.5 0.32                           226 237 
                                                                                
