 2017  627 0514 48.7 L   6.729 -73.113137.4  RSN  6 0.3 1.5LRSN                1
 GAP=265        0.72       4.8     4.6  6.0  0.3299E+00  0.9345E+01  0.3126E+01E
 Epicentro: JORDAN - SANTANDER                                                 3
 ACTION:UPD 17-09-14 16:55 OP:jn   STATUS:               ID:20170627051448 L   I
 OLDACT:DUP 17-06-27 15:37 OP:and  STATUS:               ID:20170627050744d    3
 OLDACT:UP  17-06-27 15:32 OP:and  STATUS:               ID:20170627050743     3
 OLDACT:UP  17-06-27 15:28 OP:and  STATUS:               ID:20170627050743     3
 OLDACT:UP  17-06-27 15:27 OP:and  STATUS:               ID:20170627050743     3
 OLDACT:UP  17-06-27 15:24 OP:and  STATUS:               ID:20170627050743     3
 OLDACT:UP  17-06-27 15:22 OP:and  STATUS:               ID:20170627050743     3
 OLDACT:REG 17-06-27 12:35 OP:and  STATUS:               ID:20170627050743     3
 2017-06-27-0508-00M.COL___346                                                 6
 STAT SP IPHASW D HRMM SECON CODA AMPLIT PERI AZIMU VELO AIN AR TRES W  DIS CAZ7
 BAR2 EZ IP     C  515  7.31                             173    0.1610 17.0 207 
 BAR2 EZ ES        515 21.25                             173   -0.3310 17.0 207 
 BAR2 EZ I         515 22.96         7.5 0.32            171           17.0 207 
 BRR  HZ IP     C  515  9.22                             149   -0.1110 78.3 302 
 BRR  HN ES        515 25.95                             149    0.4910 78.3 302 
 BRR  HZ I         515 30.23         8.3 0.12            146           78.3 302 
 PTB  HZ EP        515 15.25                             130    0.09 9  150 262 
 PTB  HN ES        515 35.63                             130   -0.21 9  150 262 
 PTB  HZ I         515 38.68         2.5 0.10            130            150 262 
 SPBC HN ES   2    515 38.60                             128    0.97 5  160 222 
 SPBC HZ I         515 39.27         5.6 0.14            130            160 222 
 ZAR  HZ EP   2    515 20.91                             120   -0.33 4  210 294 
 ZAR  HN ES        515 46.44                             120   -0.21 8  210 294 
 ZAR  HZ I         515 52.00         3.5 0.32            120            210 294 
 NOR  HZ EP   2    515 24.15                             117    0.40 4  233 237 
 NOR  HN ES        515 50.90                             117   -0.23 8  233 237 
                                                                                
