 2011  227 0112 39.5 L   6.540 -73.546106.9  RSN  7 0.2 1.7LRSN                1
 GAP= 95        0.40       1.8     5.5  4.5 -0.3113E+01  0.1510E+02 -0.3046E+01E
 Epicentro: EL CARMEN DE CHUCURI - SANTANDER                                   3
 ACTION:UP  11-03-28 15:11 OP:jfem STATUS:               ID:20110227011239 L   I
 2011-02-27-0108-00S.COL___135                                                 6
 STAT SP IPHASW D HRMM SECON CODA AMPLIT PERI AZIMU VELO SNR AR TRES W  DIS CAZ7
 BAR2 SZ EP   1    112 55.19                             158     0.1 7   41  82 
 BAR2 SZ ES   1    113  7.34                             158     0.1 7   41  82 
 BAR2 SZ I         113  9.04        64.2 0.15                            41  82 
 RUS  HZ EP   1    112 58.48                             138    -0.1 7   88 144 
 RUS  HE ES        113 13.38                             138    -0.110   88 144 
 RUS  HZ I         113 16.15         4.7 0.32                            88 144 
 GRA  SZ EP   1    113  6.24                             117     0.1 7  170  29 
 GRA  SZ ES        113 26.94                             117     0.0 9  170  29 
 GRA  SZ I         113 30.66         4.0 0.31                           170  29 
 YOP  SZ EP   1    113  7.39                             116     0.1 7  181 136 
 YOP  SZ I         113 31.51         9.9 0.74                           181 136 
 OCA  SZ EP   1    113  7.88                             114    -0.4 7  190   8 
 OCA  SZ I         113 38.21         8.3 0.30                           190   8 
 CHI  HZ EP   2    113 11.30                             112     0.1 4  212 186 
 CHI  HE ES   2    113 35.92                             112     0.0 4  212 186 
 CHI  HZ I         113 41.61         1.5 0.57                           212 186 
 DBB  SZ EP   2    113 21.08                             104     0.2 4  299 280 
                                                                                
