 2014  927 0255  5.6 L   6.979 -73.054163.4  RSN 11 0.4 2.1LRSN                1
 GAP=137        1.01       2.9     4.6  5.4  0.2023E+00  0.4622E+01 -0.5865E-01E
 Epicentro: PIEDECUESTA - SANTANDER                                            3
 ACTION:UPD 14-10-03 23:08 OP:nd   STATUS:               ID:20140927025505 L   I
 OLDACT:UP  14-09-27 17:38 OP:mh   STATUS:               ID:20140927024806d    3
 OLDACT:UP  14-09-27 17:37 OP:mh   STATUS:               ID:20140927024806d    3
 OLDACT:DUP 14-09-27 16:46 OP:mh   STATUS:               ID:20140927024806d    3
 OLDACT:REG 14-09-27 13:48 OP:mh   STATUS:               ID:20140927024805     3
 2014-09-27-0248-05M.COL___295                                                 6
 STAT SP IPHASW D HRMM SECON CODA AMPLIT PERI AZIMU VELO AIN AR TRES W  DIS CAZ7
 BAR2 SZ EP        255 28.42                             164    0.4910 45.1 198 
 BAR2 SZ ES        255 45.19                             164   -0.1510 45.1 198 
 BAR2 SZ I         255 47.16        27.3 0.45            167           45.1 198 
 PAM  SZ EP        255 28.60                             160   -0.1010 55.8  44 
 PAM  SN ES        255 46.70                             160   -0.0210 55.8  44 
 PAM  SZ I         255 48.31        25.0 0.38            161           55.8  44 
 BRR  HZ IP     C  255 29.70                             154    0.8610 74.1 281 
 BRR  HN ES        255 47.39                             154    0.4210 74.1 281 
 BRR  HZ I         255 50.46        21.4 0.12            154           74.1 281 
 RUS  HZ EP        255 32.29                             142   -0.2310  120 182 
 RUS  HN ES        255 53.37                             142   -0.1410  120 182 
 OCA  HZ EP   1    255 33.90                             137    0.09 7  142 348 
 OCA  HN ES        255 55.31                             137   -0.49 9  142 348 
 OCA  HZ I         256  4.18         9.6 0.38            137            142 348 
 PTB  HZ EP        255 35.49                             133    0.13 9  163 253 
 PTB  HN ES        255 58.05                             133   -0.51 9  163 253 
 PTB  HZ I         255 59.53        10.9 0.30            135            163 253 
 SPBC HZ EP        255 38.35                             129    0.82 9  185 218 
 SPBC HN ES        256  2.24                             129   -0.19 9  185 218 
 SPBC HZ I         256  5.03         6.8 0.24            132            185 218 
 ZAR  HZ EP        255 39.42                             126   -0.16 8  207 286 
 ZAR  HN ES        256  6.34                             126    0.27 8  207 286 
 ZAR  HZ I         256  8.28        11.4 0.38            127            207 286 
 SML  HZ EP        255 41.95                             122    0.02 8  231 331 
 SML  HN ES        256  9.85                             122   -0.41 8  231 331 
 SML  HZ I         256 15.33        21.5 0.10            123            231 331 
 CHI  HZ EP        255 45.94                             118   -0.72 8  270 196 
 CHI  HN ES        256 18.33                             118   -0.35 8  270 196 
 URE  HN ES   4    256 17.88                             117   -3.03 0  287 287 
 GUY2CHZ EP   4    256 38.25                             114   45.96 0  321 233 
 SJC  HZ EP        256  0.17                             109   -0.41 6  399 324 
 SJC  HN ES   4    256 40.09                             109   -3.37 0  399 324 
 SJC  HZ I         256 43.58         3.3 0.34            110            399 324 
                                                                                
