 2015  427 1014 36.9 L   6.777 -73.170159.9  RSN  7 0.4 2.2LRSN                1
 GAP=208        0.81       4.7     5.9  7.1 -0.1572E+01  0.9191E+01 -0.6451E+01E
 Epicentro: LOS SANTOS - SANTANDER                                             3
 ACTION:UPD 15-06-03 16:57 OP:cam  STATUS:               ID:20150427101436 L   I
 OLDACT:DUP 15-04-28 03:25 OP:spq  STATUS:               ID:20150427100749d    3
 OLDACT:REG 15-04-27 20:22 OP:ak   STATUS:               ID:20150427100748     3
 2015-04-27-1007-48M.COL___268                                                 6
 STAT SP IPHASW D HRMM SECON CODA AMPLIT PERI AZIMU VELO AIN AR TRES W  DIS CAZ7
 BAR2 EZ EP   1   1014 58.33                             172    0.19 7 20.5 184 
 BAR2 EZ ES   1   1015 14.36                             172   -0.38 7 20.5 184 
 BAR2 EZ I        1015 14.94        54.9 0.26            171           20.5 184 
 BRR  HZ EP   1   1014 59.05                             155   -0.45 7 70.2 301 
 BRR  HN ES       1015 17.44                             155    0.2810 70.2 301 
 BRR  HZ I        1015 21.27        24.2 0.30            151           70.2 301 
 PTB  HZ EP   1   1015  5.17                             136    0.42 7  145 260 
 PTB  HE ES   1   1015 26.76                             136    0.26 7  145 260 
 PTB  HZ I        1015 31.56        15.6 0.23            135            145 260 
 ZAR  HZ EP   1   1015 10.36                             126    0.25 6  203 293 
 ZAR  HE ES       1015 36.27                             126    0.22 9  203 293 
 ZAR  HZ I        1015 42.65        19.3 0.34            126            203 293 
 NOR  HN ES       1015 40.87                             122   -0.45 8  231 235 
 SML  HZ EP   1   1015 15.01                             120    0.57 6  245 336 
 SML  HN ES   1   1015 43.06                             120   -0.69 6  245 336 
 SML  HZ I        1015 46.10        12.3 0.10            121            245 336 
 MON  HN ES   1   1016  4.22                             111   -0.79 5  353 309 
 MON  HZ I        1016  6.21         3.9 0.42            112            353 309 
                                                                                
