 2011  527 1052  2.9 L   6.380 -73.628103.7  RSN  7 0.2 1.6LRSN                1
 GAP=222        0.58       4.2     9.2  8.0  0.8973E+01  0.3879E+02 -0.7896E+01E
 Epicentro: SANTA HELENA DEL OPON - SANTANDER                                  3
 ACTION:UP  11-06-29 08:56 OP:tino STATUS:               ID:20110527105202 L   I
 2011-05-27-1049-20S.COL___115                                                 6
 STAT SP IPHASW D HRMM SECON CODA AMPLIT PERI AZIMU VELO SNR AR TRES W  DIS CAZ7
 BAR2 SZ EP       1052 19.09                             149     0.110   55  64 
 BAR2 SZ ES   1   1052 31.54                             149     0.1 7   55  64 
 BAR2 SZ I        1052 33.43        21.4 0.20                            55  64 
 BTL  SZ EP       1052 20.26                             142     0.110   72  34 
 RUS  HZ EP       1052 21.21                             139     0.010   81 132 
 RUS  HN ES   2   1052 34.90                             139    -0.5 5   81 132 
 RUS  HZ I        1052 37.00         5.3 0.29                            81 132 
 BRR  HZ EP       1052 20.21                             138    -0.310   81 353 
 GIR2 SZ EP       1052 21.63                             135     0.110   91  32 
 GRA  SZ EP   1   1052 31.20                             113    -0.4 7  190  29 
 GRA  SZ ES   2   1052 53.91                             113    -0.1 4  190  29 
 GRA  SZ I        1052 57.97         2.6 0.37                           190  29 
 OCA  SZ EP       1052 33.92                             111     0.2 8  208   9 
 OCA  SZ I        1052 51.15         7.4 0.77                           208   9 
                                                                                
