 2015  127 1902 38.0 L   6.799 -73.146146.9  RSN  9 0.3 1.7LRSN                1
 GAP=137        0.74       3.2     3.4  5.6 -0.1596E+01  0.6507E+01  0.2515E+01E
 Epicentro: LOS SANTOS - SANTANDER                                             3
 ACTION:UPD 15-03-02 15:43 OP:nd   STATUS:               ID:20150127190238 L   I
 OLDACT:REG 15-01-27 20:20 OP:spq  STATUS:               ID:20150127185747     3
 2015-01-27-1857-47M.COL___277                                                 6
 STAT SP IPHASW D HRMM SECON CODA AMPLIT PERI AZIMU VELO AIN AR TRES W  DIS CAZ7
 BAR2 EZ EP       19 2 57.58                             170   -0.1410 23.2 190 
 BAR2 EZ ES   1   19 3 13.49                             170    0.36 7 23.2 190 
 BAR2 EZ I        19 3 14.58         8.0 0.30            168           23.2 190 
 PAM  SZ EP       19 3  0.33                             151    0.0310 77.5  40 
 PAM  SN ES       19 3 17.64                             151   -0.0810 77.5  40 
 PAM  SZ I        19 3 18.25         4.3 0.18            156           77.5  40 
 RUS  HZ EP       19 3  2.06                             144    0.2510  100 176 
 RUS  HN ES       19 3 20.37                             144   -0.0510  100 176 
 RUS  HZ I        19 3 21.25         4.3 0.49            146            100 176 
 PTB  HZ EP       19 3  4.48                             132   -0.53 9  148 259 
 PTB  HE ES   1   19 3 25.90                             132   -0.21 7  148 259 
 PTB  HZ I        19 3 31.78         4.5 0.26            131            148 259 
 SPBC HE ES   1   19 3 28.35                             129   -0.47 7  163 219 
 SPBC HZ I        19 3 34.15        11.0 0.34            130            163 219 
 ZAR  HZ EP   4   19 3 11.85                             123    1.38 0  204 292 
 ZAR  HE ES       19 3 35.88                             123    0.04 9  204 292 
 ZAR  HZ I        19 3 41.67         7.2 0.34            123            204 292 
 NOR  HZ EP       19 3 13.99                             119    0.25 8  235 234 
 NOR  HN ES       19 3 42.33                             119    0.68 8  235 234 
 NOR  HZ I        19 3 47.10         4.1 0.12            119            235 234 
 CHI  HZ EP       19 3 15.90                             117    0.20 8  249 195 
 CHI  HN ES   1   19 3 44.58                             117   -0.57 6  249 195 
 CHI  HZ I        19 3 47.87         1.7 0.46            119            249 195 
 RREF HZ EP   4   19 3 21.20                             111   -2.93 0  322 229 
 RREF HN ES   4   19 4  1.42                             111    1.27 0  322 229 
 RREF HZ I        19 4  2.56         4.7 0.24            112            322 229 
                                                                                
