 2013  227 2110  0.4 L   6.797 -73.121150.1  RSN  8 0.4 2.3LRSN                1
 GAP=140        1.05       3.9     5.6  6.7  0.3339E+01  0.1221E+02  0.4999E+01E
 Epicentro: LOS SANTOS - SANTANDER                                             3
 ACTION:UPD 13-03-12 09:36 OP:ep   STATUS:               ID:20130227211000 L   I
 2013-02-27-2110-00M.COL___228                                                 6
 STAT SP IPHASW D HRMM SECON CODA AMPLIT PERI AZIMU VELO AIN AR TRES W  DIS CAZ7
 BAR2 SZ EP       2110 20.44                             171   -0.0810 23.6 197 
 BAR2 SZ ES       2110 36.12                             171   -0.1310 23.6 197 
 BAR2 SZ I        2110 38.08        28.9 0.34            164           23.6 197 
 BRR  HZ EP       2110 22.35                             152    0.2210 73.8 298 
 BRR  HN ES       2110 39.95                             152    0.8410 73.8 298 
 BRR  HN I        2110 40.30        69.5 0.22            144           73.8 298 
 PAM  SZ EP       2110 23.25                             152    0.2910 75.9  38 
 PAM  SN ES       2110 40.60                             152    0.0210 75.9  38 
 PAM  SN I        2110 41.91        38.1 0.42            152           75.9  38 
 RUS  HZ EP       2110 24.32                             145   -0.1910  100 178 
 RUS  HN ES       2110 42.85                             145   -0.4910  100 178 
 RUS  HN I        2110 44.56        36.6 0.40            139            100 178 
 PTB  HZ EP       2110 27.49                             132   -0.44 9  150 259 
 PTB  HN I        2110 54.38        22.3 0.26            125            150 259 
 OCA  HN ES   1   2110 50.78                             130   -0.70 7  161 352 
 ZAR  HZ EP       2110 33.71                             123    0.34 8  207 292 
 ZAR  HE ES       2110 58.48                             123   -0.64 8  207 292 
 CHI  HZ EP       2110 38.57                             118    0.22 8  249 196 
 CHI  HE ES       2111  8.47                             118    0.49 8  249 196 
 CHI  HE I        2111 15.79        12.3 0.42            113            249 196 
                                                                                
