 2014 1027 2009 15.8 L   6.735 -73.186147.2  RSN  4 0.2 1.5LRSN                1
 GAP=228        0.64       5.1     4.8  5.2  0.1190E+02  0.2663E+01  0.8262E+00E
 Epicentro: VILLANUEVA - SANTANDER                                             3
 ACTION:UPD 14-11-29 23:57 OP:nd   STATUS:               ID:20141027200915 L   I
 OLDACT:REG 14-10-30 14:29 OP:carl STATUS:               ID:20141027200745     3
 2014-10-27-2007-45M.COL___277                                                 6
 STAT SP IPHASW D HRMM SECON CODA AMPLIT PERI AZIMU VELO AIN AR TRES W  DIS CAZ7
 BAR2 SZ EP       20 9 35.17                             174   -0.3010 15.7 179 
 BAR2 SZ ES       20 9 50.50                             174   -0.3110 15.7 179 
 BAR2 SZ I        20 9 52.81         7.3 0.38            170           15.7 179 
 BRR  HZ EP       20 9 37.20                             153    0.1010 71.3 305 
 BRR  HN ES       20 9 54.04                             153    0.3210 71.3 305 
 RUS  HZ EP       20 9 39.45                             146    0.2410 93.8 173 
 RUS  HN ES       20 9 57.65                             146    0.1710 93.8 173 
 RUS  HZ I        20 9 58.82         3.1 0.32            145           93.8 173 
 PTB  HZ EP       20 9 42.23                             133   -0.15 9  142 261 
 PTB  HN ES       2010  3.00                             133   -0.11 9  142 261 
 PTB  HZ I        2010  7.43         6.0 0.44            133            142 261 
                                                                                
