 2014  128 0255 21.9 L   6.742 -73.178139.5  RSN  4 0.3 0.9LRSN                1
 GAP=229        0.70       5.6     5.6  5.8  0.1718E+02  0.7020E+01  0.3539E+01E
 Epicentro: VILLANUEVA - SANTANDER                                             3
 ACTION:UPD 14-03-13 09:59 OP:ep   STATUS:               ID:20140128025521 L   I
 OLDACT:DUP 14-01-28 10:04 OP:stll STATUS:               ID:20140128025001d    3
 2014-01-28-0250-00M.COL___285                                                 6
 STAT SP IPHASW D HRMM SECON CODA AMPLIT PERI AZIMU VELO AIN AR TRES W  DIS CAZ7
 BAR2 SZ ES        255 54.99                             173   -0.3310 16.6 182 
 BRR  HZ EP        255 42.34                             151   -0.1010 71.5 304 
 BRR  HN ES        255 58.74                             151    0.3210 71.5 304 
 RUS  HZ EP        255 44.47                             144   -0.1710 94.5 174 
 RUS  HN ES        256  2.66                             144    0.3210 94.5 174 
 RUS  HZ I         256  4.73         0.9 0.30            142           94.5 174 
 PTB  HZ EP        255 48.20                             131    0.22 9  143 261 
 PTB  HN ES        256  8.03                             131   -0.26 9  143 261 
 PTB  HZ I         256 10.84         1.4 0.18            130            143 261 
                                                                                
