 2013  728 0525 16.9 L   6.497 -73.089139.0  RSN  4 0.2 1.2LRSN                1
 GAP=282        0.43       7.1     5.1  4.6 -0.2424E+02 -0.9008E+01  0.1353E+02E
 Epicentro: VALLE DE SAN JOSE - SANTANDER                                      3
 ACTION:UPD 13-08-12 10:40 OP:ep   STATUS:               ID:20130728052516 L   I
 OLDACT:DUP 13-07-28 09:43 OP:cam  STATUS:               ID:20130728051960d    3
 OLDACT:UP  13-07-28 09:42 OP:cam  STATUS:               ID:20130728051959     3
 OLDACT:REG 13-07-28 08:15 OP:cam  STATUS:               ID:20130728051959     3
 2013-07-28-0519-59M.COL___267                                                 6
 STAT SP IPHASW D HRMM SECON CODA AMPLIT PERI AZIMU VELO AIN AR TRES W  DIS CAZ7
 GIR2 SZ EP   1    525 37.46                             153    0.27 7 65.4 350 
 GIR2 SZ ES   1    525 52.77                             153   -0.26 7 65.4 350 
 BRR  HZ EP        525 38.89                             143   -0.0910 96.4 314 
 BRR  HN ES        525 56.38                             143    0.1610 96.4 314 
 BRR  HZ I         526  2.53         3.6 0.38            135           96.4 314 
 PTB  HZ EP   1    525 43.68                             130    0.04 7  151 272 
 PTB  HN ES        526  4.45                             130   -0.06 9  151 272 
 PTB  HZ I         526  7.40         1.8 0.16            126            151 272 
 SML  HZ EP        525 56.76                             113   -0.08 7  277 337 
                                                                                
