 2011  128 0350 48.5 L   7.374 -73.309135.0  RSN  4 0.3 1.6LRSN                1
 GAP=130        0.51       3.0     4.6  8.1  0.4148E+01  0.2598E+02  0.6923E+01E
 Epicentro: EL PLAYON - SANTANDER                                              3
 ACTION:UP  11-02-08 08:43 OP:pat  STATUS:               ID:20110128035048 L   I
 2011-01-28-0348-52S.COL___138                                                 6
 STAT SP IPHASW D HRMM SECON CODA AMPLIT PERI AZIMU VELO SNR AR TRES W  DIS CAZ7
 GRA  SZ EP        351  9.43                             147     0.210   79  45 
 GRA  SZ ES        351 25.25                             147    -0.110   79  45 
 GRA  SZ I         351 26.47        16.8 0.48                            79  45 
 BAR2 SZ EP        351  9.95                             145     0.110   88 171 
 BAR2 SZ ES   2    351 26.51                             145    -0.1 5   88 171 
 BAR2 SZ I         351 27.96         3.5 0.26                            88 171 
 RUS  HZ EP   2    351 16.78                             126    -0.2 5  166 171 
 RUS  HE ES   2    351 39.20                             126     0.0 5  166 171 
 MON  HZ EP   2    351 30.22                             110    -0.9 4  302 301 
 MON  HN ES        352  4.53                             110     0.1 7  302 301 
                                                                                
