 2012  628 0438 55.8 L   6.813 -73.069136.3  RSN  6 0.4 1.6LRSN                1
 GAP=191        0.76       4.6     6.0  8.0  0.9424E+01  0.5319E+01 -0.5908E+01E
 Epicentro: LOS SANTOS - SANTANDER                                             3
 ACTION:UPD 12-08-06 17:53 OP:ep   STATUS:               ID:20120628043855 L   I
 2012-06-28-0437-59S.COL___210                                                 6
 STAT SP IPHASW D HRMM SECON CODA AMPLIT PERI AZIMU VELO AIN AR TRES W  DIS CAZ7
 BAR2 SZ EP   1    439 14.73                             168    0.36 7 27.4 207 
 BAR2 SZ ES   1    439 28.72                             168   -0.15 7 27.4 207 
 BAR2 SZ I         439 31.76        14.9 0.22                          27.4 207 
 BRR  HZ EP   1    439 16.57                             148    0.22 7 78.1 295 
 BRR  HE ES   1    439 33.13                             148    0.75 7 78.1 295 
 RUS  HZ EP   1    439 18.66                             141   -0.05 7  102 181 
 RUS  HN ES   1    439 36.26                             141   -0.32 7  102 181 
 RUS  HZ I         439 39.44         4.4 0.36                           102 181 
 PTB  HN ES   1    439 43.66                             128   -0.23 7  156 259 
 PTB  HZ I         439 45.14         5.3 0.10                           156 259 
 OCA  HN ES   1    439 44.34                             127   -0.53 7  160 350 
 ZAR  HZ EP   1    439 28.68                             119    0.27 6  211 291 
 ZAR  HN ES   1    439 53.36                             119   -0.50 6  211 291 
                                                                                
