 2012  228 0527  0.2 L   6.778 -73.177147.5  RSN  4 0.2 1.2LRSN                1
 GAP=232        0.41       6.3     7.1  6.6  0.2498E+02  0.1159E-01  0.1127E+02E
 ACTION:UP  12-03-07 16:35 OP:epov STATUS:               ID:20120228052700 L   I
 2012-02-28-0520-00M.COL___191                                                 6
 STAT SP IPHASW D HRMM SECON CODA AMPLIT PERI AZIMU VELO AIN AR TRES W  DIS CAZ7
 BRR  HZ EP   2    527 21.35                             153   -0.04 5 69.4 302 
 BRR  HZ I         527 32.09         4.1 0.58                          69.4 302 
 BRR  HE ES   2    527 38.18                             153    0.22 5 69.4 302 
 RUS  HZ EP   2    527 23.49                             145   -0.44 5 98.5 174 
 RUS  HE ES   2    527 42.53                             145    0.06 5 98.5 174 
 RUS  HZ I         527 44.00         1.7 0.45                          98.5 174 
 PTB  HZ EP   2    527 26.96                             133    0.04 5  144 260 
 PTB  HN ES   2    527 47.56                             133   -0.24 5  144 260 
 CHI  HZ EP   1    527 37.87                             118    0.27 6  245 195 
 CHI  HZ I         528 15.83         1.2 0.60                           245 195 
                                                                                
