 2017  228 1507 17.6 L   6.783 -73.165145.8  RSN  5 0.4 1.5LRSN                1
 GAP=135        1.12       5.8     5.1  9.8  0.2024E+01  0.8308E+01  0.5701E+01E
 Epicentro: LOS SANTOS - SANTANDER                                             3
 ACTION:UPD 17-05-24 15:41 OP:jn   STATUS:               ID:20170228150717 L   I
 OLDACT:REG 17-02-28 20:21 OP:lv   STATUS:               ID:20170228145743     3
 2017-02-28-1458-00M.COL___388                                                 6
 STAT SP IPHASW D HRMM SECON CODA AMPLIT PERI AZIMU VELO AIN AR TRES W  DIS CAZ7
 BRR  HZ EP       15 7 38.72                             153    0.0610 70.3 301 
 BRR  HN ES       15 7 55.69                             153    0.5710 70.3 301 
 PAM  EZ EP       15 7 39.80                             150   -0.1510 80.2  40 
 PAM  EN ES       15 7 57.06                             150   -0.3610 80.2  40 
 RUS  HZ EP       15 7 41.85                             144    0.6610 98.9 175 
 RUS  HN ES       15 7 59.56                             144   -0.0710 98.9 175 
 RUS  HZ I        15 8  0.96         5.4 0.20            144           98.9 175 
 PTB  HZ EP       15 7 43.84                             132   -0.47 9  145 259 
 PTB  HN ES       15 8  4.51                             132   -0.66 9  145 259 
 PTB  HZ I        15 8 10.26         4.5 0.21            132            145 259 
 ZAR  HN ES       15 8 15.48                             123    0.39 9  203 293 
                                                                                
