 2016  528 1937 31.6 L   6.813 -73.154147.2  RSN  8 0.4 2.0LRSN                1
 GAP=135        1.00       3.6     5.1  7.0 -0.5331E+01  0.2245E+01  0.3824E+01E
 Epicentro: LOS SANTOS - SANTANDER                                             3
 ACTION:UPD 16-08-18 17:50 OP:cam  STATUS:               ID:20160528193731 L   I
 OLDACT:UP  16-05-28 23:07 OP:dnl  STATUS:               ID:20160528192748     3
 OLDACT:REG 16-05-28 22:34 OP:mh   STATUS:               ID:20160528192748     3
 2016-05-28-1927-48M.COL___313                                                 6
 STAT SP IPHASW D HRMM SECON CODA AMPLIT PERI AZIMU VELO AIN AR TRES W  DIS CAZ7
 BAR2 EZ EP       1937 51.19                             170   -0.2710 24.7 187 
 BAR2 EZ ES       1938  6.12                             170   -0.8110 24.7 187 
 BAR2 EZ I        1938  8.18        19.1 0.18            169           24.7 187 
 BRR  HZ EP   2   1937 53.20                             153    0.35 5 69.6 298 
 BRR  HN ES       1938 10.29                             153    0.8910 69.6 298 
 BRR  HZ I        1938 11.02        16.4 0.11            151           69.6 298 
 PAM  EZ EP       1937 54.38                             151    0.4110 76.9  41 
 PAM  EN ES       1938 11.45                             151    0.0510 76.9  41 
 PAM  EZ I        1938 13.64        23.1 0.52            152           76.9  41 
 RUS  HZ EP       1937 55.64                             144    0.0010  102 176 
 RUS  HE ES       1938 14.71                             144    0.3510  102 176 
 RUS  HZ I        1938 15.22         8.4 0.26            143            102 176 
 PTB  HZ EP   2   1937 58.40                             132   -0.26 5  147 258 
 PTB  HE ES       1938 19.42                             132   -0.32 9  147 258 
 PTB  HZ I        1938 22.19         7.0 0.14            131            147 258 
 OCA  HZ EP   2   1937 59.64                             130   -0.26 5  159 353 
 OCA  HE ES       1938 21.54                             130   -0.42 9  159 353 
 OCA  HZ I        1938 24.90        16.5 0.16            130            159 353 
 SPBC HZ EP   2   1938  0.46                             129    0.17 5  164 218 
 SPBC HN ES       1938 22.72                             129    0.07 9  164 218 
 SPBC HZ I        1938 25.80        14.1 0.14            128            164 218 
 PRA  HZ EP   2   1938 25.45                             107    0.15 3  393 209 
 PRA  HN ES       1939  6.99                             107   -0.17 6  393 209 
 PRA  HZ I        1939 16.01         3.3 0.32            106            393 209 
                                                                                
