 2015 1228 2227  3.9 L   6.778 -73.153144.0  RSN  4 0.3 1.4LRSN                1
 GAP=200        0.66       4.2     5.2  8.4  0.1187E+02 -0.1765E+02 -0.2161E+02E
 Epicentro: LOS SANTOS - SANTANDER                                             3
 ACTION:UPD 16-02-04 15:08 OP:cam  STATUS:               ID:20151228222703 L   I
 OLDACT:REG 15-12-29 04:50 OP:cara STATUS:               ID:20151228221749     3
 2015-12-28-2217-49M.COL___334                                                 6
 STAT SP IPHASW D HRMM SECON CODA AMPLIT PERI AZIMU VELO AIN AR TRES W  DIS CAZ7
 RUS  HZ EP       2227 26.98                             144   -0.3410 98.2 175 
 RUS  HN ES       2227 45.83                             144    0.2510 98.2 175 
 RUS  HZ I        2227 46.70         3.4 0.32            146           98.2 175 
 PTB  HZ EP       2227 30.93                             132    0.31 9  147 260 
 PTB  HE ES       2227 51.19                             132   -0.27 9  147 260 
 PTB  HZ I        2227 54.64         2.6 0.28            130            147 260 
 ZAR  HZ EP   9   2227 37.54                             122    1.28 0  204 293 
 ZAR  HE ES       2228  3.02                                    0.25 9  204 293 
 ZAR  HZ I        2228  8.42         4.5 0.28            121            204 293 
 SML  HZ EP       2227 40.80                             117    0.16 8  246 336 
 SML  HN ES       2228  9.20                             117   -0.09 8  246 336 
                                                                                
