 2016 1128 2349 28.9 L   6.780 -73.181141.0  RSN  4 0.2 1.3LRSN                1
 GAP=239        0.62       6.6     4.4  4.9  0.1119E+02  0.4985E+01 -0.3093E+01E
 Epicentro: LOS SANTOS - SANTANDER                                             3
 ACTION:UPD 17-10-26 21:12 OP:lp   STATUS:               ID:20161128234928 L   I
 OLDACT:DUP 16-11-29 04:11 OP:cara STATUS:               ID:20161128234743d    3
 OLDACT:REG 16-11-29 03:33 OP:edw  STATUS:               ID:20161128234742     3
 2016-11-28-2348-00M.COL___346                                                 6
 STAT SP IPHASW D HRMM SECON CODA AMPLIT PERI AZIMU VELO AIN AR TRES W  DIS CAZ7
 BAR2 EZ EP       2349 48.06                             171    0.1310 20.8 181 
 BAR2 EZ ES       2350  2.68                             171   -0.0710 20.8 181 
 BAR2 EZ I        2350  3.96         5.0 0.34            171           20.8 181 
 BRR  HZ IP       2349 49.75                             152    0.3310 68.9 302 
 BRR  HN ES       2350  5.23                             152   -0.1910 68.9 302 
 BRR  HZ I        2350  9.88         3.8 0.32            149           68.9 302 
 PTB  HZ EP       2349 54.69                             132   -0.42 9  144 259 
 PTB  HN ES       2350 15.78                             132    0.23 9  144 259 
 PTB  HZ I        2350 20.60         2.4 0.44            132            144 259 
 ZAR  HZ EP       2350  0.69                             122   -0.08 9  201 293 
 ZAR  HN ES       2350 25.67                             122    0.05 9  201 293 
 ZAR  HZ I        2350 31.04         2.3 0.36            122            201 293 
                                                                                
