 2010  928 2315 48.4 L   6.546 -73.544112.9  RSN 10 0.4 1.9LRSN                1
 GAP=108        0.89       4.1     6.7  8.0 -0.5086E+01  0.3948E+01  0.3576E+01E
 Epicentro: EL CARMEN DE CHUCURI - SANTANDER                                   3
 ACTION:UP  11-02-18 11:06 OP:tino STATUS:               ID:20100928231548 L   I
 2010-09-28-2312-31S.COL___125                                                 6
 STAT SP IPHASW D HRMM SECON CODA AMPLIT PERI AZIMU VELO SNR AR TRES W  DIS CAZ7
 BTL  SZ EP       2316  5.83                             154     0.610   51  36 
 BRR  HZ EP       2316  6.04                             148     0.310   65 343 
 BRR  HE ES   1   2316 19.39                             148     0.2 7   65 343 
 BRR  HZ I        2316 21.10        16.7 0.21                            65 343 
 GIR2 SZ EP       2316  5.69                             146    -0.610   71  33 
 GIR2 SZ ES   1   2316 19.68                             146    -0.5 7   71  33 
 RUS  HZ EP       2316  8.31                             139     0.210   88 145 
 RUS  HE ES   2   2316 23.35                             139    -0.1 5   88 145 
 GUE  SZ EP       2316 14.10                             122    -0.2 9  158  26 
 GRA  SZ EP   2   2316 15.36                             119     0.0 5  169  29 
 GRA  SZ I        2316 17.04         8.3 0.13                           169  29 
 NOR  SZ EP   2   2316 15.90                             117    -0.8 4  183 234 
 NOR  SE ES   2   2316 38.15                             117    -0.5 4  183 234 
 OCA  SZ EP       2316 17.53                             116     0.1 9  189   8 
 OCA  SZ I        2316 46.20        14.6 0.04                           189   8 
 CHI  HZ EP   2   2316 20.68                             113     0.2 4  213 186 
 CHI  HE ES   2   2316 45.44                             113     0.0 4  213 186 
 CHI  HZ I        2316 50.35         4.0 0.12                           213 186 
 HEL  HZ EP   3   2316 21.71                             112     0.2 2  223 260 
 HEL  HE ES   3   2316 47.06                             112    -0.3 2  223 260 
 HEL  HZ I        2316 53.71         8.0 0.40                           223 260 
                                                                                
