 2011 1028 2228 15.3 L   6.181 -73.498121.1  RSN  8 0.3 2.0LRSN                1
 GAP=111        0.52       2.4     2.9  5.8 -0.2129E+01  0.7163E+01 -0.4282E+01E
 Epicentro: AGUADA - SANTANDER                                                 3
 ACTION:UPD 12-07-13 16:06 OP:ep   STATUS:               ID:20111028222815 L   I
 2011-10-28-2226-48S.COL___176                                                 6
 STAT SP IPHASW D HRMM SECON CODA AMPLIT PERI AZIMU VELO AIN AR TRES W  DIS CAZ7
 RUS  HZ IP     D 2228 33.61                             154   -0.0710 55.9 125 
 RUS  HN ES   1   2228 47.97                             154   -0.01 7 55.9 125 
 RUS  HZ I        2228 49.15         6.5 0.22                          55.9 125 
 BAR2 SZ EP   1   2228 33.41                             153    0.03 7 57.3  38 
 BAR2 SZ I        2228 50.72        56.7 0.32                          57.3  38 
 BRR  HZ EP   1   2228 36.51                             136    0.06 7  105 347 
 BRR  HN ES   2   2228 52.50                             136   -0.41 5  105 347 
 BRR  HZ I        2228 55.57        23.1 0.44                           105 347 
 PAM  SZ EP   1   2228 41.72                             124   -0.10 7  156  35 
 PAM  SN ES   1   2229  2.22                             124   -0.26 7  156  35 
 NOR  SZ EP   1   2228 42.74                             122    0.38 7  166 246 
 NOR  SE ES   1   2229  3.66                             122    0.22 7  166 246 
 ZAR  HZ EP   2   2228 46.66                             116   -0.17 4  209 314 
 ZAR  HN ES   1   2229 11.10                             116   -0.29 6  209 314 
 ZAR  HZ I        2229 13.26        11.7 0.45                           209 314 
 OCA  SZ EP   1   2228 49.11                             113   -0.08 6  228   5 
 OCA  SZ ES       2229 16.10                             113    0.51 8  228   5 
 OCA  SZ I        2229 22.84        10.2 0.21                           228   5 
 RREF HZ EP   1   2228 51.72                             111   -0.40 6  249 235 
 RREF HZ I        2229 27.42         7.1 0.29                           249 235 
                                                                                
