 2011 1129 0941  0.2 L   6.781 -73.095148.0  RSN  4 0.2 1.4LRSN                1
 GAP=144        0.60       5.4     8.8 11.2  0.1307E+02 -0.5638E+02 -0.5593E+01E
 Epicentro: LOS SANTOS - SANTANDER                                             3
 ACTION:UPD 12-07-13 16:13 OP:ep   STATUS:               ID:20111129094100 L   I
 2011-11-29-0937-30S.COL___159                                                 6
 STAT SP IPHASW D HRMM SECON CODA AMPLIT PERI AZIMU VELO AIN AR TRES W  DIS CAZ7
 BAR2 SZ EP        941 19.86                             171   -0.2810 23.0 205 
 BAR2 SZ I         941 36.50         7.8 0.22                          23.0 205 
 PAM  SZ EP        941 22.68                             152    0.0810 75.7  35 
 BRR  HZ EP        941 21.81                             151   -0.1710 77.2 298 
 BRR  HN ES   1    941 39.20                             151    0.27 7 77.2 298 
 BRR  HZ I         941 41.44         5.2 0.30                          77.2 298 
 RUS  HZ EP        941 24.35                             145    0.3010 98.2 179 
 RUS  HN ES   2    941 42.32                             145   -0.30 5 98.2 179 
 RUS  HZ I         941 43.57         2.6 0.26                          98.2 179 
                                                                                
