 2014 1229 0326 11.7 L   6.762 -73.175151.7  RSN  5 0.3 1.3LRSN                1
 GAP=231        0.84       5.2     5.4  6.8  0.5901E+01  0.2992E+01 -0.4273E-01E
 Epicentro: LOS SANTOS - SANTANDER                                             3
 ACTION:UPD 15-02-10 17:07 OP:nd   STATUS:               ID:20141229032611 L   I
 OLDACT:ARG 14-12-29 12:30 OP:stll STATUS:               ID:20141229031749     3
 2014-12-29-0317-49M.COL___259                                                 6
 STAT SP IPHASW D HRMM SECON CODA AMPLIT PERI AZIMU VELO AIN AR TRES W  DIS CAZ7
 BAR2 EZ EP        326 31.62                             173   -0.3910 18.7 182 
 BAR2 EZ ES        326 47.54                             173   -0.2710 18.7 182 
 BAR2 EZ I         326 49.64         3.5 0.48            165           18.7 182 
 BRR  HZ EP        326 33.54                             154    0.0410 70.5 303 
 BRR  HZ I         326 33.85         4.0 0.30            151           70.5 303 
 BRR  HN ES        326 50.98                             154    0.5110 70.5 303 
 RUS  HZ EP        326 36.17                             146    0.3610 96.6 174 
 RUS  HN ES        326 54.54                             146   -0.0410 96.6 174 
 RUS  HZ I         326 56.93         1.8 0.52            143           96.6 174 
 PTB  HZ EP        326 38.75                             134   -0.10 9  144 260 
 PTB  HN ES        326 59.55                             134   -0.44 9  144 260 
 PTB  HZ I         327  7.23         2.3 0.30            131            144 260 
 SPBC HN ES        327  2.71                             131    0.30 9  158 219 
 SPBC HZ I         327  9.50         3.5 0.10            128            158 219 
                                                                                
