 2012  629 0802 55.4 L   6.702 -73.170149.7  RSN  4 0.3 1.2LRSN                1
 GAP=227        0.66       7.0     6.7  7.1  0.2284E+02  0.5080E+01  0.1125E+01E
 Epicentro: VILLANUEVA - SANTANDER                                             3
 ACTION:UPD 12-08-06 17:53 OP:ep   STATUS:               ID:20120629080255 L   I
 2012-06-29-0800-00M.COL___201                                                 6
 STAT SP IPHASW D HRMM SECON CODA AMPLIT PERI AZIMU VELO AIN AR TRES W  DIS CAZ7
 BAR2 SZ EP   1    8 3 15.42                             175    0.04 7 12.3 186 
 BAR2 SZ I         8 3 15.83         2.6 0.08                          12.3 186 
 BAR2 SZ ES   1    8 3 30.38                             175   -0.55 7 12.3 186 
 BRR  HZ EP   1    8 3 17.35                             152    0.13 7 74.8 307 
 BRR  HZ I         8 3 17.76         7.1 0.11                          74.8 307 
 BRR  HN ES   1    8 3 34.56                             152    0.35 7 74.8 307 
 RUS  HZ EP   1    8 3 18.61                             148   -0.26 7 90.1 174 
 RUS  HN ES   1    8 3 37.63                             148    0.49 7 90.1 174 
 RUS  HZ I         8 3 39.23         1.9 0.35                          90.1 174 
 PTB  HZ EP   1    8 3 22.35                             134    0.00 7  143 263 
 PTB  HN ES   1    8 3 43.12                             134   -0.21 7  143 263 
 PTB  HZ I         8 3 45.54         1.8 0.14                           143 263 
                                                                                
