 2011  829 0549 53.0 L   6.801 -73.128142.2  RSN  6 0.3 1.7LRSN                1
 GAP=139        0.61       3.2     6.0  5.2  0.1241E+01  0.4645E+00 -0.1815E+01E
 Epicentro: LOS SANTOS - SANTANDER                                             3
 ACTION:UPD 12-07-13 15:54 OP:ep   STATUS:               ID:20110829054953 L   I
 2011-08-29-0546-06S.COL___160                                                 6
 STAT SP IPHASW D HRMM SECON CODA AMPLIT PERI AZIMU VELO AIN AR TRES W  DIS CAZ7
 BAR2 SZ EP   2    550 12.60                             170    0.37 5 23.8 195 
 BAR2 SZ ES   1    550 26.55                             170   -0.66 7 23.8 195 
 BAR2 SZ I         550 27.66        13.3 0.27                          23.8 195 
 GIR2 SZ EP   1    550 12.30                             167    0.02 7 31.6 347 
 GIR2 SZ ES   1    550 27.46                             167    0.16 7 31.6 347 
 BRR  HZ EP        550 13.89                             151    0.0110 72.9 298 
 BRR  HE ES   1    550 30.51                             151    0.36 7 72.9 298 
 BRR  HZ I         550 35.22        15.2 0.14                          72.9 298 
 PAM  SZ EP   1    550 15.02                             151    0.24 7 76.1  38 
 PAM  SE ES   1    550 31.92                             151    0.17 7 76.1  38 
 RUS  HZ EP   1    550 16.16                             143   -0.26 7  101 177 
 RUS  HN ES   1    550 34.86                             143    0.19 7  101 177 
 RUS  HZ I         550 35.38         3.0 0.37                           101 177 
 OCA  SZ EP   1    550 21.01                             129   -0.06 7  160 352 
 OCA  SZ ES   1    550 42.53                             129   -0.42 7  160 352 
 OCA  SZ I         550 45.80         9.2 0.37                           160 352 
                                                                                
