 2017  529 0029 29.2 L   6.795 -73.117153.8  RSN  7 0.4 1.6LRSN                1
 GAP=240        0.56       3.3     4.9  5.3  0.5186E+01 -0.3469E+01  0.8928E+00E
 Epicentro: LOS SANTOS - SANTANDER                                             3
 ACTION:UPD 17-06-16 13:39 OP:jn   STATUS:               ID:20170529002929 L   I
 OLDACT:UP  17-05-29 13:41 OP:and  STATUS:               ID:20170529002738     3
 OLDACT:UP  17-05-29 13:41 OP:and  STATUS:               ID:20170529002738     3
 OLDACT:UP  17-05-29 13:41 OP:and  STATUS:               ID:20170529002738     3
 OLDACT:UP  17-05-29 13:41 OP:and  STATUS:               ID:20170529002738     3
 OLDACT:UP  17-05-29 13:40 OP:and  STATUS:               ID:20170529002738     3
 OLDACT:UP  17-05-29 13:39 OP:and  STATUS:               ID:20170529002738     3
 OLDACT:REG 17-05-29 12:10 OP:and  STATUS:               ID:20170529002738     3
 2017-05-29-0028-00M.COL___341                                                 6
 STAT SP IPHASW D HRMM SECON CODA AMPLIT PERI AZIMU VELO AIN AR TRES W  DIS CAZ7
 BRR  HZ EP        029 51.63                             153    0.1910 74.3 298 
 BRR  HN ES        030  8.92                             153    0.1710 74.3 298 
 BRR  HZ I         030 12.65         7.2 0.30            149           74.3 298 
 RUS  HZ EP        029 53.62                             146   -0.1310 99.9 178 
 RUS  HN ES        030 12.67                             146   -0.1910 99.9 178 
 RUS  HZ I         030 13.97         3.7 0.34            145           99.9 178 
 PTB  HZ EP   2    029 56.60                             133   -0.55 5  151 259 
 PTB  HN ES   3    030 17.59                             133   -1.32 2  151 259 
 PTB  HZ I         030 23.70         5.0 0.46            131            151 259 
 SPBC HZ EP        029 58.69                             130    0.17 9  165 220 
 SPBC HN ES        030 21.26                             130   -0.10 9  165 220 
 SPBC HZ I         030 26.62         8.5 0.28            129            165 220 
 ZAR  HN ES   2    030 28.05                             123   -0.47 4  207 292 
 CHI  HZ EP   2    030  7.79                             119    0.35 4  249 196 
 CHI  HN ES   2    030 37.98                             119    0.75 4  249 196 
 CHI  HZ I         030 40.08         2.4 0.32            119            249 196 
 HEL  HZ EP   9    030 13.22                             116    3.02 0  275 256 
 HEL  HN ES   1    030 45.36                             116    0.19 6  275 256 
                                                                                
