 2012 1029 0514 43.9 L   6.788 -73.098142.2  RSN  9 0.4 2.0LRSN                1
 GAP=143        0.71       3.0     4.7  5.6  0.2686E+00  0.6557E+01  0.2406E+01E
 Epicentro: LOS SANTOS - SANTANDER                                             3
 ACTION:UPD 12-11-22 17:06 OP:ep   STATUS:               ID:20121029051443 L   I
 2012-10-29-0510-00M.COL___231                                                 6
 STAT SP IPHASW D HRMM SECON CODA AMPLIT PERI AZIMU VELO AIN AR TRES W  DIS CAZ7
 BAR2 SZ EP        515  3.05                             170   -0.0310 23.6 203 
 BAR2 SZ ES   1    515 17.77                             170   -0.30 7 23.6 203 
 BAR2 SZ I         515 19.11        18.5 0.16                          23.6 203 
 GIR2 SZ EP   1    515  3.12                             166   -0.08 7 33.8 342 
 GIR2 SZ ES   1    515 18.34                             166    0.07 7 33.8 342 
 PAM  SZ EP        515  5.92                             151    0.3410 75.2  36 
 PAM  SN ES   1    515 22.72                             151    0.20 7 75.2  36 
 PAM  SN I         515 23.53         7.8 0.62                          75.2  36 
 BRR  HZ EP        515  4.92                             150   -0.0310 76.4 298 
 BRR  HN ES   1    515 21.72                             150    0.33 7 76.4 298 
 BRR  HN I         515 26.02        49.5 0.16                          76.4 298 
 RUS  HZ EP   1    515  7.51                             143    0.34 7 99.0 179 
 RUS  HN ES   1    515 24.97                             143   -0.36 7 99.0 179 
 RUS  HN I         515 25.96         7.6 0.42                          99.0 179 
 OCA  HN ES   1    515 33.33                             128   -0.79 7  162 351 
 OCA  HN I         515 34.06        33.7 0.18                           162 351 
 ZAR  HZ EP   1    515 16.08                             121   -0.57 6  209 292 
 ZAR  HE ES   1    515 42.79                             121    0.58 6  209 292 
 ZAR  HE I         515 48.09        20.9 0.26                           209 292 
 CHI  HN ES   1    515 50.83                             116    0.17 6  249 196 
 CHI  HN I         515 53.96         3.4 0.36                           249 196 
 PRA  HN ES   1    516 18.84                             106   -0.39 4  393 210 
                                                                                
