 2016 1029 0643 51.9 L   6.802 -73.114138.1  RSN  9 0.5 1.5LRSN                1
 GAP=140        1.08       4.6     5.0  7.3 -0.5764E+01  0.5048E+01  0.7427E+01E
 Epicentro: LOS SANTOS - SANTANDER                                             3
 ACTION:UPD 16-11-09 19:24 OP:rebc STATUS:               ID:20161029064351 L   I
 OLDACT:UP  16-10-29 15:24 OP:dani STATUS:               ID:20161029063743     3
 OLDACT:UP  16-10-29 15:23 OP:dani STATUS:               ID:20161029063743     3
 OLDACT:UP  16-10-29 15:23 OP:dani STATUS:               ID:20161029063743     3
 OLDACT:UP  16-10-29 15:23 OP:dani STATUS:               ID:20161029063743     3
 OLDACT:UP  16-10-29 15:23 OP:dani STATUS:               ID:20161029063743     3
 OLDACT:UP  16-10-29 15:22 OP:dani STATUS:               ID:20161029063743     3
 OLDACT:UP  16-10-29 15:21 OP:dani STATUS:               ID:20161029063743     3
 OLDACT:UP  16-10-29 15:21 OP:dani STATUS:               ID:20161029063743     3
 OLDACT:REG 16-10-29 14:51 OP:dani STATUS:               ID:20161029063743     3
 2016-10-29-0638-00M.COL___325                                                 6
 STAT SP IPHASW D HRMM SECON CODA AMPLIT PERI AZIMU VELO AIN AR TRES W  DIS CAZ7
 BAR2 EZ EP        644 10.33                             169   -0.3310 24.4 198 
 BAR2 EZ ES        644 24.54                             169   -0.7310 24.4 198 
 BRR  HZ EP        644 12.20                             150   -0.2310 74.2 297 
 BRR  HN ES        644 28.90                             150    0.4710 74.2 297 
 BRR  HZ I         644 33.05         9.2 0.21            152           74.2 297 
 PAM  EZ EP        644 13.24                             150    0.0610 75.0  38 
 PAM  EN ES        644 30.07                             150    0.3010 75.0  38 
 PAM  EZ I         644 32.17         3.5 0.44            155           75.0  38 
 RUS  HZ EP        644 14.87                             142   -0.0710  101 178 
 RUS  HE ES        644 33.18                             142    0.2910  101 178 
 RUS  HZ I         644 34.84         2.3 0.20            142            101 178 
 PTB  HZ EP   2    644 17.67                             129   -0.94 5  151 259 
 PTB  HN ES        644 39.67                             129    0.25 9  151 259 
 PTB  HZ I         644 40.93         6.8 0.42            131            151 259 
 NOR  HZ EP        644 28.07                             116    0.52 8  238 235 
 NOR  HN ES        644 54.58                             116   -0.76 8  238 235 
 NOR  HZ I         645  0.13         5.4 0.16            118            238 235 
 CHI  HN ES        644 59.12                             115    0.60 8  250 196 
 CHI  HZ I         645  5.79         1.3 0.26            117            250 196 
 GUY2CHZ EP   9    644 37.81                             111    2.28 0  304 235 
 GUY2CHN ES        645 12.27                             111    0.44 7  304 235 
 GUY2CHZ I         645 15.79         1.9 0.26                           304 235 
 SJC  HZ EP   4    644 45.03                             104   -2.42 0  411 327 
 SJC  HN ES   4 C  645 26.33                             104   -4.42 0  411 327 
 SJC  HZ I         645 27.01         1.2 0.46            106            411 327 
                                                                                
