 2010  729 0558 34.0 L   6.826 -73.073145.3  RSN  4 0.4 1.3LRSN                1
 GAP=166        0.60       8.9    19.0 19.3  0.1025E+03 -0.2645E+03 -0.9917E+02E
 Epicentro: LOS SANTOS - SANTANDER                                             3
 ACTION:UPD 10-12-01 15:20 OP:pat  STATUS:               ID:20100729055834 L   I
 2010-07-29-0555-59S.COL___123                                                 6
 STAT SP IPHASW D HRMM SECON CODA AMPLIT PERI AZIMU VELO AIN AR TRES W  DIS CAZ7
 BAR2 SZ EP   2    558 53.14                             168    -0.6 5   29 205 
 BRR  HZ EP   2    558 55.94                             150     0.5 5   77 294 
 BRR  HN ES   2    559 11.99                             150    -0.2 5   77 294 
 BRR  HZ I         559 26.19         4.6 0.13                            77 294 
 RUS  HZ EP   2    558 57.66                             143    -0.2 5  103 181 
 RUS  HE ES   2    559 16.89                             143     0.3 5  103 181 
 GRA  SZ EP   2    558 58.95                             138     0.2 5  121  14 
 GRA  SZ I         559 19.21         1.9 0.19                           121  14 
                                                                                
