 2013  329 0405 20.0 L   6.782 -73.142150.3  RSN  8 0.5 1.5LRSN                1
 GAP=138        0.86       4.5     4.9  8.0  0.1703E+01  0.5243E+01 -0.4571E+01E
 Epicentro: LOS SANTOS - SANTANDER                                             3
 ACTION:UPD 13-04-09 14:05 OP:ep   STATUS:               ID:20130329040520 L   I
 2013-03-29-0400-00M.COL___245                                                 6
 STAT SP IPHASW D HRMM SECON CODA AMPLIT PERI AZIMU VELO AIN AR TRES W  DIS CAZ7
 BAR2 SZ EP   1    4 5 40.11                             171   -0.01 7 21.5 192 
 BAR2 SZ ES   1    4 5 55.45                             171   -0.37 7 21.5 192 
 BAR2 SZ I         4 5 56.50         9.9 0.32            171           21.5 192 
 BRR  HZ EP   1    4 5 41.93                             153    0.24 7 72.5 300 
 BRR  HN ES   1    4 5 59.50                             153    0.88 7 72.5 300 
 BRR  HZ I         4 6  5.27         3.2 0.64            150           72.5 300 
 PAM  SZ EP        4 5 42.80                             151    0.0510 78.6  38 
 PAM  SN ES   1    4 6  0.09                             151   -0.42 7 78.6  38 
 PAM  SZ I         4 6  2.25         3.4 0.52            155           78.6  38 
 RUS  HZ EP   1    4 5 44.24                             145    0.20 7 98.6 176 
 RUS  HN ES   1    4 6  2.83                             145    0.03 7 98.6 176 
 RUS  HZ I         4 6  5.44         3.5 0.36            150           98.6 176 
 PTB  HZ EP   1    4 5 47.26                             133   -0.06 7  148 260 
 PTB  HN ES   1    4 6  8.13                             133   -0.52 7  148 260 
 PTB  HZ I         4 6 13.66         4.5 0.40            133            148 260 
 OCA  HN ES   2    4 6 12.37                             130    1.04 5  162 353 
 OCA  HZ I         4 6 15.58         4.2 0.24            132            162 353 
 ZAR  HE ES   1    4 6 18.50                             123    0.03 6  205 293 
 ZAR  HZ I         4 6 25.17         3.6 0.50            124            205 293 
 SML  HN ES   1    4 6 25.16                             118   -0.84 6  246 335 
                                                                                
