 2013 1229 0214 33.7 L   6.779 -73.110150.6  RSN 15 0.4 2.0LRSN                1
 GAP= 68        0.85       2.4     3.1  4.4 -0.6604E-01  0.3187E+01  0.1310E+01E
 Epicentro: LOS SANTOS - SANTANDER                                             3
 ACTION:UPD 14-01-13 10:22 OP:ep   STATUS:               ID:20131229021433 L   I
 OLDACT:UP  13-12-29 08:56 OP:PTA  STATUS:               ID:20131229021000     3
 OLDACT:UP  13-12-29 08:55 OP:PTA  STATUS:               ID:20131229021000     3
 OLDACT:UP  13-12-29 08:52 OP:PTA  STATUS:               ID:20131229021000     3
 OLDACT:REG 13-12-29 08:19 OP:mh   STATUS:               ID:20131229021000     3
 2013-12-29-0210-00M.COL___285                                                 6
 STAT SP IPHASW D HRMM SECON CODA AMPLIT PERI AZIMU VELO AIN AR TRES W  DIS CAZ7
 BAR2 SZ EP        214 54.05                             171    0.1610 22.1 201 
 BAR2 SZ ES        215  9.31                             171   -0.3310 22.1 201 
 BAR2 SZ I         215 10.87        25.8 0.26            167           22.1 201 
 BRR  HZ EP     C  214 55.92                             152    0.2910 75.8 299 
 BRR  HN ES        215 13.21                             152    0.4710 75.8 299 
 BRR  HZ I         215 14.32        10.3 0.17            147           75.8 299 
 PAM  SZ EP   1    214 56.85                             152    0.45 7 76.8  36 
 PAM  SE ES        215 14.13                             152    0.0310 76.8  36 
 PAM  SZ I         215 16.36        10.4 0.28            154           76.8  36 
 RUS  HZ EP   1    214 57.94                             145    0.19 7 98.0 178 
 RUS  HN ES        215 16.33                             145   -0.1810 98.0 178 
 RUS  HZ I         215 17.69         5.9 0.31            142           98.0 178 
 PTB  HZ EP   1    215  0.83                             132   -0.55 7  151 260 
 PTB  HZ I         215 28.05        12.3 0.20            128            151 260 
 TAM  HZ EP        215  1.89                             132    0.53 9  151 105 
 TAM  HN ES   2    215 22.53                             132   -0.41 5  151 105 
 OCA  HN ES        215 24.72                             130   -0.52 9  163 352 
 SPBC HZ EP   1    215  3.00                             130    0.36 7  164 221 
 SPBC HN ES   2    215 24.93                             130   -0.29 5  164 221 
 SPBC HZ I         215 30.93        17.9 0.12            126            164 221 
 ZAR  HZ EP        215  6.69                             123   -0.24 8  209 292 
 ZAR  HN ES   2    215 32.36                             123   -0.49 4  209 292 
 ZAR  HZ I         215 34.17        10.7 0.13            119            209 292 
 NOR  HZ EP   1    215 10.21                             119    0.29 6  237 235 
 NOR  HN ES        215 38.38                             119    0.21 8  237 235 
 NOR  HZ I         215 45.19         7.9 0.24            116            237 235 
 CHI  HZ EP   1    215 12.14                             118    0.60 6  247 196 
 CHI  HN ES        215 40.95                             118   -0.11 8  247 196 
 CHI  HZ I         215 47.55         2.9 0.34            115            247 196 
 SML  HZ EP        215 10.59                             118   -0.42 8  248 335 
 SML  HN ES        215 40.27                             118    0.16 8  248 335 
 SML  HZ I         215 43.79        13.9 0.11            116            248 335 
 HEL  HZ EP   1    215 15.14                             115    0.61 6  275 256 
 HEL  HN ES        215 46.27                             115   -0.10 7  275 256 
 HEL  HZ I         215 50.51         4.6 0.52            112            275 256 
 GUY2CHZ EP   1    215 17.13                             113   -0.62 5  303 236 
 GUY2CHN ES   4    215 56.10                             113    3.99 0  303 236 
 PTGC HZ EP        215 16.38                             113   -0.99 7  305 159 
 RREF HZ EP   4    215 21.96                             112    1.73 0  323 230 
 RREF HE ES   4    215 57.66                             112    1.14 0  323 230 
 SJC  HZ EP   4    215 28.30                             106   -1.61 0  413 327 
 SJC  HN ES   4    216  8.66                             106   -5.09 0  413 327 
                                                                                
