 2014  829 0228  1.9 L   6.801 -73.059142.6  RSN 16 0.6 2.3LRSN                1
 GAP=192        1.24       3.4     6.3  6.9  0.6647E+00  0.8610E+01  0.3315E+01E
 Epicentro: LOS SANTOS - SANTANDER                                             3
 ACTION:UPD 14-09-15 21:54 OP:nd   STATUS:               ID:20140829022801 L   I
 OLDACT:REG 14-08-29 13:11 OP:fm   STATUS:               ID:20140829021809     3
 2014-08-29-0218-09M.COL___277                                                 6
 STAT SP IPHASW D HRMM SECON CODA AMPLIT PERI AZIMU VELO AIN AR TRES W  DIS CAZ7
 BAR2 SZ EP     D  228 21.71                             169    0.4710 26.8 210 
 BAR2 SZ ES   1    228 36.45                             169    0.14 7 26.8 210 
 BAR2 SZ I         228 37.56        39.5 0.18            165           26.8 210 
 BRR  HZ EP        228 23.67                             149    0.4510 79.7 295 
 BRR  HN ES        228 40.48                             149    0.6410 79.7 295 
 BRR  HZ I         228 42.45        31.8 0.20            146           79.7 295 
 RUS  HZ EP   1    228 24.92                             143   -0.43 7  101 182 
 RUS  HN ES        228 43.76                             143    0.1410  101 182 
 RUS  HZ I         228 44.95        13.0 0.20            143            101 182 
 PTB  HZ EP        228 28.29                             129   -1.21 9  157 259 
 PTB  HN ES        228 50.39                             129   -0.62 9  157 259 
 PTB  HZ I         228 51.39        22.1 0.34            127            157 259 
 OCA  HN ES        228 51.78                             129   -0.30 9  162 350 
 OCA  HZ I         228 55.40        17.2 0.28            129            162 350 
 SPBC HZ EP        228 30.64                             127   -0.14 9  169 221 
 SPBC HN ES        228 52.83                             127   -0.46 9  169 221 
 SPBC HZ I         228 58.75        22.4 0.18            126            169 221 
 ZAR  HZ EP        228 35.85                             121    0.78 8  213 291 
 ZAR  HN ES        229  1.23                             121    0.29 8  213 291 
 ZAR  HZ I         229  5.71        26.0 0.38            119            213 291 
 NOR  HZ EP        228 37.90                             117   -0.42 8  243 236 
 NOR  HN ES        229  6.12                             117   -0.59 8  243 236 
 NOR  HZ I         229 11.36        17.3 0.20            116            243 236 
 SML  HZ EP   1    228 37.99                             116   -0.81 6  248 333 
 SML  HN ES        229  7.06                             116   -0.51 8  248 333 
 SML  HZ I         229 15.88        18.6 0.28            116            248 333 
 CHI  HZ EP   1    228 39.43                             116   -0.31 6  251 197 
 CHI  HN ES        229  8.89                             116   -0.36 8  251 197 
 CHI  HZ I         229 13.54         4.5 0.42            116            251 197 
 ROSC BZ EP   1    228 40.96                             115    0.53 6  258 213 
 ROSC BN ES   4    229 12.80                             115    2.33 0  258 213 
 ROSC BZ I         229 17.54        19.9 0.45            115            258 213 
 HEL  HZ EP   1    228 43.80                             113    0.80 6  281 256 
 HEL  HN ES   4    229 13.39                             113   -1.67 0  281 256 
 HEL  HZ I         229 20.69        11.3 0.24            113            281 256 
 GUY2CHZ EP        228 46.99                             111    0.71 7  309 236 
 GUY2CHN ES   4    229 22.35                             111    1.47 0  309 236 
 GUY2CHZ I         229 26.84        11.9 0.40                           309 236 
 TOL  SZ EP        228 51.64                             108    0.80 6  350 226 
 TOL  SN ES        229 29.94                             108    0.94 6  350 226 
 TOL  SZ I         229 34.93        18.7 0.26            108            350 226 
 MON  HZ EP   4    228 49.25                             108   -2.41 0  361 307 
 MON  HN ES   4    229 27.19                             108   -3.27 0  361 307 
 PRA  HZ EP   1    228 55.52                             106   -0.38 4  397 211 
 PRA  HN ES   4    229 36.56                             106   -1.46 0  397 211 
 PRA  HZ I         229 42.04         6.5 0.20            106            397 211 
 ORTC HZ EP   4    228 53.81                             106   -2.60 0  401 217 
 ORTC HN ES        229 39.33                             106    0.41 6  401 217 
 ORTC HZ I         229 44.72         4.0 0.44            105            401 217 
                                                                                
