 2013 1129 1310 48.3 L   6.824 -73.152151.8  RSN 10 0.4 2.6LRSN                1
 GAP=146        1.00       4.4     4.3  6.1 -0.6138E+01  0.7876E+01 -0.1255E+01E
 Epicentro: LOS SANTOS - SANTANDER                                             3
 ACTION:UPD 14-01-09 16:31 OP:ep   STATUS:               ID:20131129131048 L   I
 OLDACT:UP  13-11-29 16:24 OP:cam  STATUS:               ID:20131129131000     3
 OLDACT:REG 13-11-29 15:29 OP:cam  STATUS:               ID:20131129131000     3
 2013-11-29-1310-00M.COL___282                                                 6
 STAT SP IPHASW D HRMM SECON CODA AMPLIT PERI AZIMU VELO AIN AR TRES W  DIS CAZ7
 BAR2 SZ EP     D 1311  8.55                             170   -0.1110 25.9 187 
 BAR2 SZ ES       1311 24.67                             170    0.1010 25.9 187 
 BAR2 SZ I        1311 24.89       101.2 0.18            168           25.9 187 
 BRR  HZ EP       1311 10.32                             154    0.3710 69.3 297 
 BRR  HN ES       1311 27.48                             154    0.6010 69.3 297 
 BRR  HZ I        1311 31.59        51.7 0.46            152           69.3 297 
 PAM  SZ EP       1311 11.12                             152    0.1010 75.8  41 
 PAM  SE ES       1311 28.40                             152   -0.3810 75.8  41 
 PAM  SZ I        1311 29.78        42.6 0.34            157           75.8  41 
 PTB  HZ EP       1311 15.10                             133   -0.60 9  148 258 
 PTB  HN ES       1311 36.51                             133   -0.60 9  148 258 
 PTB  HZ I        1311 38.17        38.7 0.38            133            148 258 
 SPBC HZ EP       1311 17.52                             130    0.15 9  165 218 
 SPBC HN ES   1   1311 39.59                             130   -0.49 7  165 218 
 SPBC HZ I        1311 46.86        55.6 0.26            130            165 218 
 ZAR  HZ EP       1311 21.31                             124    0.39 9  202 292 
 ZAR  HN ES       1311 46.74                             124    0.33 9  202 292 
 ZAR  HZ I        1311 52.26        35.9 0.22            124            202 292 
 NOR  HZ EP   1   1311 24.96                             120    0.52 6  236 234 
 NOR  HN ES       1311 53.18                             120    0.51 8  236 234 
 NOR  HZ I        1311 57.56        28.2 0.34            120            236 234 
 SML  HZ EP       1311 24.90                             119   -0.03 8  241 335 
 SML  HN ES   1   1311 52.81                             119   -0.73 6  241 335 
 SML  HZ I        1311 55.52        40.5 0.10            120            241 335 
 CHI  HZ EP   4   1311 26.93                             118    0.38 0  251 195 
 HEL  HZ EP   4   1311 29.84                             116    1.07 0  272 255 
 HEL  HN ES       1311 59.83                             116   -0.55 8  272 255 
 HEL  HZ I        1312  8.93        20.5 0.60            116            272 255 
 GUY2CHZ EP   4   1311 33.85                             113    1.60 0  302 234 
 CBOC HZ EP   4   1311 36.99                             111    1.55 0  334 252 
 PRA  HZ EP   4   1311 42.37                             107    0.16 0  394 209 
 ORTC HZ EP   4   1311 43.64                             107    1.06 0  397 216 
 SJC  HZ EP   4   1311 42.19                             107   -1.52 0  407 327 
 SJC  HN ES   4   1312 23.78                             107   -3.18 0  407 327 
 SJC  HZ I        1312 26.77         5.6 0.56            108            407 327 
                                                                                
