 2010  529 2259 12.4 L   6.832 -73.118136.7  RSN  6 0.5 2.1LRSN                1
 GAP=184        0.91       7.5    12.1 12.3 -0.5555E+02  0.8412E+02 -0.2616E+02E
 Epicentro: LOS SANTOS - SANTANDER                                             3
 ACTION:UP  10-08-24 10:07 OP:vdl  STATUS:               ID:20100529225912 L   I
 2010-05-29-2256-05S.COL___109                                                 6
 STAT SP IPHASW D HRMM SECON CODA AMPLIT PERI AZIMU VELO SNR AR TRES W  DIS CAZ7
 BAR2 SZ EP       2259 30.71                             168    -0.310   28 195 
 BAR2 SZ ES   2   2259 45.28                             168    -0.3 5   28 195 
 GIR2 SZ EP   1   2259 31.94                             168     1.0 7   28 343 
 GUE  SZ EP       2259 35.91                             138    -0.110  112  11 
 GUE  SZ ES   3   2259 55.07                             138     0.7 2  112  11 
 OCA  SZ EP       2259 39.35                             128    -0.4 9  157 352 
 OCA  SZ ES   2   23 0  1.28                             128     0.2 5  157 352 
 OCA  SZ I        23 0  7.33        13.7 0.35                           157 352 
 HEL  HZ EP       2259 52.74                             112     0.1 7  276 255 
 HEL  HN ES   2   23 0 23.46                             112    -0.5 4  276 255 
 HEL  HZ I        23 0 29.20         8.4 0.27                           276 255 
 RREF BZ EP       2259 58.99                             109     0.3 7  326 229 
 RREF BN ES   3   23 0 35.19                             109     0.4 2  326 229 
 RREF BZ I        23 0 42.92         5.5 0.54                           326 229 
                                                                                
