 2011  329 2009 19.9 L   6.748 -73.088140.0  RSN 11 0.5 2.1LRSN                1
 GAP=164        0.96       5.0     7.1  9.1 -0.1959E+02  0.2985E+01  0.1834E+02E
 Epicentro: LOS SANTOS - SANTANDER                                             3
 ACTION:UP  11-06-16 14:36 OP:jfem STATUS:               ID:20110329200919 L   I
 2011-03-29-2004-45S.COL___138                                                 6
 STAT SP IPHASW D HRMM SECON CODA AMPLIT PERI AZIMU VELO SNR AR TRES W  DIS CAZ7
 BAR2 SZ EP   1   20 9 38.99                             171     0.2 8   20 212 
 BAR2 SZ I        20 9 56.00        26.0 0.24                            20 212 
 BTL  SZ EP   1   20 9 39.34                             168     0.4 8   27 313 
 PAM  SZ EP   1   20 9 41.95                             150     0.4 8   78  33 
 PAM  SN ES   1   20 9 58.35                             150    -0.1 8   78  33 
 PAM  SZ I        2010  0.93         9.2 0.47                            78  33 
 BRR  HZ EP   1   20 9 40.85                             149    -0.1 8   80 300 
 BRR  HN ES   1   20 9 57.88                             149     0.5 8   80 300 
 BRR  HZ I        2010  1.79        48.4 0.13                            80 300 
 GRA  SZ EP       20 9 44.84                             135    -0.210  130  14 
 GRA  SZ ES   1   2010  3.73                             135    -0.8 7  130  14 
 GRA  SZ I        2010  5.38        14.3 0.37                           130  14 
 OCA  SZ EP   1   20 9 48.00                             127    -0.4 7  167 351 
 OCA  SZ ES   1   2010 11.36                             127     0.7 7  167 351 
 OCA  SZ I        2010 13.96        25.1 0.31                           167 351 
 NOR  SZ EP   1   20 9 55.02                             117    -0.6 6  237 237 
 NOR  SN ES   1   2010 23.05                             117    -0.3 6  237 237 
 CHI  HZ EP   1   20 9 57.48                             116     0.6 6  245 197 
 CHI  HE ES   1   2010 25.41                             116    -0.3 6  245 197 
 RREF HZ EP   1   2010  6.76                             110     0.8 5  323 231 
 RREF HN ES   1   2010 41.25                             110    -0.6 5  323 231 
 RREF HZ I        2010 51.80         7.9 0.28                           323 231 
 DBB  SZ EP   1   2010  7.66                             108    -0.3 5  346 275 
 PRA  HZ EP   1   2010 13.65                             106     0.6 5  390 211 
                                                                                
