 2011  130 0244 53.4 L   6.775 -73.112147.5  RSN 11 0.6 2.8LRSN                1
 GAP=129        1.68       5.6    15.5 10.4 -0.4168E+02  0.5036E+02 -0.4334E+01E
 Epicentro: LOS SANTOS - SANTANDER                                             3
 ACTION:UP  11-02-08 08:43 OP:pat  STATUS:               ID:20110130024453 L   I
 2011-01-30-0241-11S.COL___138                                                 6
 STAT SP IPHASW D HRMM SECON CODA AMPLIT PERI AZIMU VELO SNR AR TRES W  DIS CAZ7
 BAR2 SZ EP        245 13.06                             171    -0.110   22 201 
 BAR2 SZ ES        245 28.48                             171    -0.110   22 201 
 BAR2 SZ I         245 29.99       101.4 0.31                            22 201 
 BTL  SZ IP     C  245 12.19                             171    -1.010   23 313 
 GIR2 SZ EP        245 13.06                             166    -0.310   35 345 
 RUS  HZ IP     D  245 16.96                             145    -0.110   98 178 
 RUS  HE ES        245 35.67                             145     0.110   98 178 
 RUS  HZ I         245 37.20        71.8 0.51                            98 178 
 GRA  SZ EP        245 19.94                             137     1.010  127  16 
 GRA  SZ ES        245 39.64                             137     0.810  127  16 
 GRA  SZ I         245 44.65        64.6 0.37                           127  16 
 OCA  SZ EP        245 21.67                             129    -0.4 9  164 352 
 OCA  SZ ES        245 44.27                             129    -0.3 9  164 352 
 OCA  SZ I         245 48.49        98.7 0.32                           164 352 
 NOR  SZ EP        245 28.91                             119    -0.4 8  236 236 
 CHI  HZ EP        245 31.01                             117     0.0 8  247 196 
 CHI  HE ES        246  0.22                             117    -0.1 8  247 196 
 CHI  HZ I         246  8.77        34.0 0.40                           247 196 
 ROSC BZ EP        245 32.72                             117     1.2 8  252 212 
 ROSC BZ I         246  7.63        61.6 0.53                           252 212 
 RREF HZ EP        245 40.31                             111     0.6 7  323 230 
 SDV  BZ EP        245 42.47                             108    -0.9 6  359  49 
                                                                                
