 2010  830 0404 18.9 L   6.789 -73.085140.0  RSN  7 0.2 1.8LRSN                1
 GAP=165        0.43       2.6     4.7  4.1 -0.2211E+01 -0.2987E+01 -0.1547E+01E
 Epicentro: LOS SANTOS - SANTANDER                                             3
 ACTION:UP  10-09-07 10:59 OP:vdl  STATUS:               ID:20100830040419 L   I
 2010-08-30-0401-31S.COL___120                                                 6
 STAT SP IPHASW D HRMM SECON CODA AMPLIT PERI AZIMU VELO SNR AR TRES W  DIS CAZ7
 BAR2 SZ EP   1    4 4 37.79                             170    -0.1 8   24 206 
 BAR2 SZ ES   1    4 4 52.72                             170     0.1 8   24 206 
 BAR2 SZ I         4 4 53.79        17.9 0.28                            24 206 
 BRR  HZ EP   1    4 4 39.71                             150    -0.1 8   78 297 
 BRR  HN ES   1    4 4 56.18                             150     0.0 8   78 297 
 BRR  HZ I         4 4 57.89        24.5 0.22                            78 297 
 RUS  HZ EP   1    4 4 41.79                             143    -0.2 8   99 180 
 RUS  HN ES   2    4 5  0.11                             143     0.1 5   99 180 
 RUS  HZ I         4 5  1.56         5.2 0.45                            99 180 
 GRA  SZ EP        4 4 43.73                             136     0.210  125  14 
 GRA  SZ ES   1    4 5  2.85                             136     0.0 7  125  14 
 GRA  SZ I         4 5  4.83         6.2 0.37                           125  14 
 OCA  SZ EP   1    4 4 46.68                             128    -0.3 7  162 351 
 OCA  SZ I         4 5 11.81         7.6 0.52                           162 351 
 HEL  HZ EP   2    4 4 59.81                             113     0.3 4  278 256 
 HEL  HZ I         4 5 36.89         5.0 0.49                           278 256 
 PRA  HZ EP   3    4 5 13.45                             106     1.0 2  394 211 
 PRA  HZ I         4 5 58.81         1.8 0.18                           394 211 
                                                                                
