 2017  930 0933 34.3 L   6.824 -73.133142.2  RSN 16 0.5 2.1LRSN                1
 GAP=112        0.96       3.2     3.5  5.4  0.8329E+00  0.9624E+01  0.3450E+01E
 Epicentro: LOS SANTOS - SANTANDER                                             3
 ACTION:UPD 17-10-05 19:17 OP:rebc STATUS:               ID:20170930093334 L   I
 OLDACT:UP  17-09-30 15:54 OP:dhb  STATUS:               ID:20170930092741     3
 OLDACT:UP  17-09-30 15:54 OP:dhb  STATUS:               ID:20170930092741     3
 OLDACT:REG 17-09-30 13:14 OP:edw  STATUS:               ID:20170930092741     3
 2017-09-30-0928-00M.COL___404                                                 6
 STAT SP IPHASW D HRMM SECON CODA AMPLIT PERI AZIMU VELO AIN AR TRES W  DIS CAZ7
 BAR2 EZ IP     D  933 53.27                             169   -0.3310 26.2 192 
 BAR2 EZ ES        934  8.33                             169   -0.3010 26.2 192 
 BAR2 EZ I         934 11.07        28.3 0.19            167           26.2 192 
 PAM  EZ IP     D  933 56.29                             151    0.2910 74.4  40 
 PAM  EN ES        934 13.33                             151    0.4410 74.4  40 
 PAM  EZ I         934 15.46        16.1 0.43            157           74.4  40 
 RUS  HZ EP        933 57.35                             142   -0.5810  103 177 
 RUS  HN ES        934 16.47                             142    0.1410  103 177 
 RUS  HZ I         934 17.07        26.6 0.24            144            103 177 
 YPLC HZ EP        934  3.58                             125   -0.46 9  179 152 
 YPLC HE ES        934 27.51                             125    0.30 9  179 152 
 YPLC HZ I         934 28.68        22.1 0.26            129            179 152 
 ZAR  HZ EP        934  6.80                             121    0.22 9  204 291 
 ZAR  HN ES        934 31.19                             121   -0.54 9  204 291 
 ZAR  HZ I         934 36.78        12.5 0.38            123            204 291 
 NOR  HZ EP        934  9.83                             117   -0.32 8  237 234 
 NOR  HE ES        934 37.96                             117   -0.13 8  237 234 
 NOR  HZ I         934 41.99        10.3 0.22            119            237 234 
 CHI  HZ EP        934 11.56                             116   -0.60 8  252 195 
 CHI  HE ES        934 41.51                             116   -0.16 8  252 195 
 CHI  HZ I         934 43.17         6.7 0.38            118            252 195 
 ROSC BZ EP        934 13.36                             115    0.77 8  256 211 
 ROSC HN ES   4    934 45.04                             115    2.61 0  256 211 
 ROSC BZ I         934 49.44        11.6 0.30            117            256 211 
 HEL  HZ EP        934 15.50                             114    0.91 8  274 255 
 HEL  HE ES        934 45.60                             114   -0.39 8  274 255 
 HEL  HZ I         934 53.10         7.2 0.36            115            274 255 
 URE  HZ EP        934 15.24                             113   -0.03 7  284 291 
 URE  HE ES   4    934 44.42                             113   -2.77 0  284 291 
 URE  HZ I         934 48.90         7.3 0.16            114            284 291 
 GUY2CHZ EP        934 18.65                             111    0.57 7  304 235 
 GUY2CHN ES        934 53.11                             111    0.90 7  304 235 
 GUY2CHZ I         934 58.51         6.2 0.58                           304 235 
 PTGC HZ EP   3    934 16.50                             111   -1.76 2  311 159 
 PTGC HE ES   4    934 50.08                             111   -2.45 0  311 159 
 PTGC HZ I         934 52.36        12.1 0.40            113            311 159 
 ELA  HZ EP        934 21.13                             109   -0.23 7  332 229 
 ELA  HE ES   3    934 59.76                             109    1.72 2  332 229 
 ELA  HZ I         935  5.08         5.3 0.28            111            332 229 
 CBOC HZ EP        934 21.31                             109   -0.04 7  336 252 
 CBOC HE ES   3    934 56.83                             109   -1.19 2  336 252 
 CBOC HZ I         935  1.39         1.7 0.16            110            336 252 
 PRA  HZ EP   4    934 31.79                             106    3.70 0  395 210 
 PRA  HE ES        935 10.30                             106    0.28 6  395 210 
 PRA  HZ I         935 17.03         4.5 0.42            107            395 210 
 ORTC HZ EP        934 28.35                             105   -0.14 6  398 216 
 ORTC HN ES        935 10.94                             105    0.22 6  398 216 
 ORTC HZ I         935 14.60         2.7 0.27            107            398 216 
                                                                                
