 2014  630 0511  3.7 L   6.816 -73.165140.3  RSN 19 0.6 2.3LRSN                1
 GAP= 70        1.34       3.0     3.5  5.8 -0.1473E+01  0.4014E+01  0.2514E+01E
 Epicentro: LOS SANTOS - SANTANDER                                             3
 ACTION:UPD 14-07-01 22:58 OP:nd   STATUS:               ID:20140630051103 L   I
 OLDACT:REG 14-06-30 14:34 OP:stll STATUS:               ID:20140630050816     3
 2014-06-30-0508-16M.COL___247                                                 6
 STAT SP IPHASW D HRMM SECON CODA AMPLIT PERI AZIMU VELO AIN AR TRES W  DIS CAZ7
 BAR2 SZ EP        511 23.00                             169    0.3010 24.8 184 
 BAR2 SZ ES        511 38.04                             169    0.5210 24.8 184 
 BAR2 SZ I         511 40.01        27.5 0.30            168           24.8 184 
 BRR  HZ EP        511 24.75                             153    0.6510 68.5 298 
 BRR  HN ES        511 40.63                             153    0.6110 68.5 298 
 BRR  HZ I         511 45.81        24.7 0.16            148           68.5 298 
 PAM  SZ EP        511 25.87                             150    0.5410 77.4  42 
 PAM  SZ I         511 26.10        56.7 0.20            151           77.4  42 
 PAM  SN ES        511 42.34                             150    0.1310 77.4  42 
 RUS  HZ EP        511 26.89                             142   -0.1610  102 175 
 RUS  HN ES        511 45.12                             142   -0.1510  102 175 
 RUS  HZ I         511 47.01        20.6 0.28            141            102 175 
 PTB  HZ EP        511 29.66                             131   -0.40 9  146 258 
 PTB  HN ES        511 49.98                             131   -0.65 9  146 258 
 PTB  HZ I         511 53.20        16.5 0.12            128            146 258 
 TAM  HZ IP     C  511 31.39                             129    0.21 9  158 105 
 TAM  HZ I         511 31.58        38.1 0.36            130            158 105 
 TAM  HN ES        511 51.57                             129   -1.05 9  158 105 
 OCA  HZ EP        511 31.47                             129    0.08 9  158 354 
 OCA  HE ES        511 53.11                             129    0.11 9  158 354 
 OCA  HZ I         512  1.29        16.6 0.28            127            158 354 
 SPBC HZ EP        511 31.92                             128    0.14 9  163 218 
 SPBC HN ES        511 53.07                             128   -0.62 9  163 218 
 SPBC HZ I         512  0.16        27.8 0.22            125            163 218 
 ZAR  HZ EP        511 35.59                             122    0.08 9  201 292 
 ZAR  HN ES        511 59.82                             122   -0.51 9  201 292 
 ZAR  HZ I         512  6.63        17.9 0.28            119            201 292 
 SML  HZ EP        511 39.63                             117   -0.12 8  241 336 
 SML  HN ES        512  7.11                             117   -0.76 8  241 336 
 SML  HZ I         512 14.96        27.2 0.26            115            241 336 
 CHI  HZ EP        511 41.15                             116   -0.07 8  250 195 
 CHI  HN ES        512  9.74                             116   -0.75 8  250 195 
 CHI  HZ I         512 16.69         9.0 0.32            115            250 195 
 ROSC BZ EP        511 42.67                             116    1.11 8  253 210 
 ROSC BE ES        512 11.85                             116    0.75 8  253 210 
 ROSC BZ I         512 17.60        18.8 0.40            114            253 210 
 HEL  HZ EP        511 42.58                             114   -0.87 8  270 255 
 HEL  HN ES        512 13.86                             114   -0.60 8  270 255 
 HEL  HZ I         512 21.54         7.5 0.46            112            270 255 
 GUY2CHZ EP        511 47.88                             111    0.91 7  300 234 
 GUY2CHN ES        512 20.45                             111   -0.28 7  300 234 
 GUY2CHZ I         512 28.93         8.6 0.42                           300 234 
 SOCV BZ EP        511 45.54                             111   -1.05 7  302  57 
 RREF HZ EP        511 50.82                             110    1.27 7  321 229 
 RREF HZ I         512 30.11         8.9 0.26            108            321 229 
 TOL  SZ EP        511 52.75                             108    1.05 7  343 224 
 PRA  HZ EP        511 56.74                             106   -0.34 6  392 209 
 PRA  HE ES        512 38.43                             106   -0.30 6  392 209 
 PRA  HZ I         512 45.45         8.8 0.28            105            392 209 
 ORTC HZ EP        511 57.17                             105   -0.28 6  396 216 
 ORTC HE ES        512 39.38                             105    0.00 6  396 216 
 ORTC HZ I         512 46.00         4.6 0.26            104            396 216 
                                                                                
