 2016  130 0828 21.8 L   6.622 -72.877  4.1  RSN  4 0.3 0.7LRSN                1
 GAP=182        0.95       2.7     3.9  6.4 -0.3966E+01  0.7652E+01 -0.4209E+01E
 Epicentro: MOLAGAVITA - SANTANDER                                             3
 ACTION:UPD 16-03-09 23:29 OP:cam  STATUS:               ID:20160130082821 L   I
 OLDACT:UP  16-01-30 18:33 OP:cara STATUS:               ID:20160130080460d    3
 OLDACT:DUP 16-01-30 18:29 OP:cara STATUS:               ID:20160130080460d    3
 2016-01-30-0804-59S.COL___219                                                 6
 STAT SP IPHASW D HRMM SECON CODA AMPLIT PERI AZIMU VELO AIN AR TRES W  DIS CAZ7
 BAR2 EZ EP        828 28.13                              47    0.3710 34.0 264 
 BAR2 EZ ES        828 32.20                              47   -0.2310 34.0 264 
 BAR2 EZ I         828 32.90         5.1 0.26             47           34.0 264 
 PAM  EE ES        828 45.61                              47   -0.1610 81.7  14 
 RUS  HZ EP        828 35.94                              47    0.3610 83.8 196 
 RUS  HE ES        828 46.01                              47   -0.3410 83.8 196 
 RUS  HZ I         828 48.51         1.5 0.50             47           83.8 196 
 PTB  HZ EP   9    828 50.57                              47    1.68 0  175 267 
 PTB  HE ES        829 12.36                                    0.64 9  175 267 
 PTB  HZ I         829 13.73         2.1 0.30             47            175 267 
                                                                                
