 2012  830 0150  9.5 L   7.327 -74.039 25.4  RSN  5 0.3 1.5LRSN                1
 GAP=185        0.60       5.0     2.5  4.7  0.8879E+01  0.6552E+01  0.1466E+02E
 Epicentro: PUERTO WILCHES - SANTANDER                                         3
 ACTION:UPD 12-09-10 11:59 OP:ep   STATUS:               ID:20120830015009 L   I
 2012-08-30-0150-00M.COL___218                                                 6
 STAT SP IPHASW D HRMM SECON CODA AMPLIT PERI AZIMU VELO AIN AR TRES W  DIS CAZ7
 BRR  HZ EP        150 17.37                             112   -0.1010 43.6 124 
 BRR  HZ I         150 17.49        51.3 0.10                          43.6 124 
 BRR  HN ES   1    150 23.65                             112   -0.06 7 43.6 124 
 ZAR  HZ EP        150 24.51                              91    0.1810 92.2 281 
 ZAR  HE ES   1    150 35.56                              91   -0.37 7 92.2 281 
 ZAR  HZ I         150 38.99         9.2 0.10                          92.2 281 
 GIR2 SZ EP   2    150 25.37                              61    0.16 5 97.4 106 
 PTB  HZ EP        150 25.59                              61    0.3610 98.6 208 
 PTB  HN ES   1    150 37.42                              61   -0.11 7 98.6 208 
 PTB  HZ I         150 38.25         9.0 0.16                          98.6 208 
 BAR2 SZ EP   3    150 29.52                              61    0.74 2  125 131 
 BAR2 SZ ES   1    150 43.41                              61   -0.43 7  125 131 
 BAR2 SZ I         150 46.22        11.4 0.40                           125 131 
                                                                                
