 2017  830 0640  8.4 L   6.768 -73.132145.6  RSN  5 0.3 1.5LRSN                1
 GAP=236        0.77       4.5     5.6  6.1  0.1158E+02  0.6325E+01  0.2876E+01E
 Epicentro: LOS SANTOS - SANTANDER                                             3
 ACTION:UPD 17-09-04 20:26 OP:rebc STATUS:               ID:20170830064008 L   I
 OLDACT:UP  17-08-30 15:22 OP:dani STATUS:               ID:20170830063743     3
 OLDACT:UP  17-08-30 15:22 OP:dani STATUS:               ID:20170830063743     3
 OLDACT:REG 17-08-30 12:46 OP:dani STATUS:               ID:20170830063743     3
 2017-08-30-0638-00M.COL___399                                                 6
 STAT SP IPHASW D HRMM SECON CODA AMPLIT PERI AZIMU VELO AIN AR TRES W  DIS CAZ7
 BAR2 EZ EP     C  640 27.86                             172   -0.1110 20.2 196 
 BAR2 EZ ES        640 42.65                             172   -0.5710 20.2 196 
 BAR2 EZ I         640 43.55        10.3 0.30            172           20.2 196 
 BRR  HZ EP     C  640 29.93                             151    0.2110 74.2 300 
 BRR  HN ES        640 46.69                             151    0.3510 74.2 300 
 BRR  HZ I         640 49.83         5.5 0.28            151           74.2 300 
 RUS  HZ EP        640 31.97                             145    0.0710 97.0 177 
 RUS  HE ES        640 50.58                             145    0.3710 97.0 177 
 RUS  HZ I         640 51.41         4.4 0.28            147           97.0 177 
 SPBC HZ EP        640 36.48                             129   -0.26 9  161 220 
 SPBC HE ES        640 58.81                             129   -0.02 9  161 220 
 ZAR  HN ES        641  6.50                             122   -0.15 8  207 293 
 ZAR  HZ I         641  8.26         3.6 0.13            123            207 293 
                                                                                
