 2017  730 1518 41.1 L   6.148 -73.685110.6  RSN  5 0.4 1.3LRSN                1
 GAP=131        0.81       5.4     4.2  9.7  0.1778E+01  0.1687E+01 -0.2138E+01E
 Epicentro: CHIPATA - SANTANDER                                                3
 ACTION:UPD 17-08-30 15:38 OP:rebc STATUS:               ID:20170730151841 L   I
 OLDACT:DUP 17-08-16 19:58 OP:nlst STATUS:               ID:20170730151841 L   3
 OLDACT:UP  17-07-31 00:32 OP:and  STATUS:               ID:20170730151747     3
 OLDACT:UP  17-07-31 00:31 OP:and  STATUS:               ID:20170730151747     3
 OLDACT:UP  17-07-31 00:31 OP:and  STATUS:               ID:20170730151747     3
 OLDACT:UP  17-07-31 00:31 OP:and  STATUS:               ID:20170730151747     3
 OLDACT:UP  17-07-31 00:31 OP:and  STATUS:               ID:20170730151747     3
 OLDACT:UP  17-07-31 00:31 OP:and  STATUS:               ID:20170730151747     3
 OLDACT:UP  17-07-31 00:30 OP:and  STATUS:               ID:20170730151747     3
 OLDACT:UP  17-07-31 00:30 OP:and  STATUS:               ID:20170730151747     3
 OLDACT:REG 17-07-30 21:20 OP:and  STATUS:               ID:20170730151747     3
 2017-07-30-1518-00M.COL___392                                                 6
 STAT SP IPHASW D HRMM SECON CODA AMPLIT PERI AZIMU VELO AIN AR TRES W  DIS CAZ7
 RUS  HN ES   1   1519 13.28                             144   -0.29 7 72.3 113 
 BAR2 EZ EP       1518 59.28                             143    0.1810 74.2  48 
 BAR2 EZ ES   3   1519 13.74                             143    0.57 2 74.2  48 
 BAR2 EZ I        1519 14.40         7.8 0.24            148           74.2  48 
 PTB  HZ EP       1519  0.10                             136   -0.3910 95.7 297 
 PTB  HN ES       1519 15.42                             136   -0.2110 95.7 297 
 BRR  HZ EP       1519  1.48                             132    0.1010  106 358 
 BRR  HN ES       1519 17.38                             132    0.1710  106 358 
 BRR  HZ I        1519 18.64         6.6 0.32            136            106 358 
 NOR  HN ES   2   1519 25.54                             123    1.31 5  146 244 
 NOR  HZ I        1519 27.55         1.4 0.30            124            146 244 
                                                                                
