 2017  831 0921 29.1 L   6.851 -73.063134.8  RSN  4 0.3 1.5LRSN                1
 GAP=273        0.66       4.5     5.5  5.8  0.6493E+01  0.8508E+01 -0.3284E+01E
 Epicentro: LOS SANTOS - SANTANDER                                             3
 ACTION:UPD 17-09-04 20:26 OP:rebc STATUS:               ID:20170831092129 L   I
 OLDACT:REG 17-08-31 13:00 OP:dhb  STATUS:               ID:20170831091730     3
 2017-08-31-0918-00M.COL___386                                                 6
 STAT SP IPHASW D HRMM SECON CODA AMPLIT PERI AZIMU VELO AIN AR TRES W  DIS CAZ7
 BAR2 EZ EP        921 47.70                             166    0.1210 31.5 205 
 BAR2 EZ ES        922  2.02                             166   -0.0110 31.5 205 
 BRR  HZ EP        921 48.96                             148   -0.4410 77.1 292 
 BRR  HN ES        922  5.44                             148    0.1710 77.1 292 
 BRR  HZ I         922  7.07         9.5 0.24            144           77.1 292 
 SPBC HN ES        922 20.10                             125   -0.02 9  173 220 
 ZAR  HZ EP        922  1.93                             119    0.43 8  211 290 
 ZAR  HN ES        922 26.64                             119   -0.17 8  211 290 
 ZAR  HZ I         922 32.84         1.7 0.34            117            211 290 
                                                                                
