 2014  331 0355  2.8 L   6.821 -73.204141.7  RSN  7 0.5 1.5LRSN                1
 GAP=128        1.22       3.8     5.1  9.4 -0.5728E+00  0.1629E+02 -0.1333E+00E
 Epicentro: ZAPATOCA - SANTANDER                                               3
 ACTION:UPD 14-04-09 23:21 OP:nd   STATUS:               ID:20140331035502 L   I
 OLDACT:DUP 14-03-31 08:57 OP:carl STATUS:               ID:20140331035044d    3
 2014-03-31-0350-43M.COL___246                                                 6
 STAT SP IPHASW D HRMM SECON CODA AMPLIT PERI AZIMU VELO AIN AR TRES W  DIS CAZ7
 PAM  SZ EP        355 24.91                             149    0.1610 80.0  44 
 PAM  SN ES        355 41.98                             149    0.1210 80.0  44 
 PAM  SZ I         355 44.06         5.4 0.56            153           80.0  44 
 RUS  HZ EP        355 25.86                             142   -0.5210  103 173 
 RUS  HN ES        355 44.77                             142    0.0110  103 173 
 RUS  HZ I         355 45.83         6.0 0.30            147            103 173 
 PTB  HZ EP        355 29.36                             132    0.44 9  142 257 
 PTB  HN ES        355 49.83                             132    0.55 9  142 257 
 PTB  HZ I         355 55.69         4.2 0.32            133            142 257 
 ZAR  HZ EP        355 35.40                             122    1.11 9  197 292 
 ZAR  HN ES        355 57.78                             122   -1.06 9  197 292 
 ZAR  HZ I         356  6.21         3.4 0.40            123            197 292 
 NOR  HZ EP        355 37.94                             118    0.04 8  231 233 
 NOR  HN ES        356  5.13                             118   -0.13 8  231 233 
 NOR  HZ I         356  7.63         2.8 0.16            120            231 233 
 SML  HZ EP        355 38.78                             117    0.08 8  239 336 
 SML  HN ES        356  6.19                             117   -0.50 8  239 336 
 SML  HZ I         356 19.70         4.0 0.24            119            239 336 
 CHI  HZ EP        355 39.81                             116   -0.55 8  249 194 
 CHI  HN ES        356  9.61                             116   -0.03 8  249 194 
 CHI  HZ I         356 15.07         1.6 0.28            119            249 194 
                                                                                
