 2011 1231 0213 58.2 L   6.749 -73.203146.9  RSN  5 0.4 1.4LRSN                1
 GAP=227        0.86       8.8     7.9  9.1  0.4299E+02  0.1106E+02  0.1590E+01E
 Epicentro: VILLANUEVA - SANTANDER                                             3
 ACTION:UPD 12-07-13 16:19 OP:ep   STATUS:               ID:20111231021358 L   I
 2011-12-31-0210-00M.COL___186                                                 6
 STAT SP IPHASW D HRMM SECON CODA AMPLIT PERI AZIMU VELO AIN AR TRES W  DIS CAZ7
 BAR2 SZ EP   1    214 17.64                             173   -0.26 7 17.5 172 
 BAR2 SZ ES   1    214 32.58                             173   -0.65 7 17.5 172 
 BAR2 SZ I         214 34.06         8.8 0.34                          17.5 172 
 BRR  HZ EP   1    214 19.41                             153    0.04 7 68.7 305 
 BRR  HN ES   1    214 36.71                             153    0.86 7 68.7 305 
 RUS  HZ EP   1    214 22.06                             145    0.31 7 95.7 172 
 RUS  HN ES   1    214 40.17                             145    0.08 7 95.7 172 
 RUS  HZ I         214 41.32         2.9 0.25                          95.7 172 
 PTB  HZ EP   1    214 24.68                             134    0.04 7  140 261 
 PTB  HN ES   1    214 45.27                             134    0.03 7  140 261 
 ZAR  HN ES   1    214 54.85                             123   -0.60 6  200 294 
                                                                                
