 2015  531 1337 36.3 L   6.801 -73.117149.7  RSN  8 0.3 1.8LRSN                1
 GAP=186        0.80       2.9     5.1  6.0  0.5653E+00  0.4790E+01  0.7021E+00E
 Epicentro: LOS SANTOS - SANTANDER                                             3
 ACTION:UPD 15-09-10 22:08 OP:cam  STATUS:               ID:20150531133736 L   I
 OLDACT:REG 15-05-31 20:19 OP:spq  STATUS:               ID:20150531132747     3
 2015-05-31-1327-47M.COL___306                                                 6
 STAT SP IPHASW D HRMM SECON CODA AMPLIT PERI AZIMU VELO AIN AR TRES W  DIS CAZ7
 BAR2 EZ EP       1337 56.29                             170   -0.1010 24.2 197 
 BAR2 EZ ES   1   1338 11.58                             170   -0.50 7 24.2 197 
 BAR2 EZ I        1338 13.01         9.4 0.46            169           24.2 197 
 BRR  HZ EP       1337 58.12                             152    0.1310 73.9 297 
 BRR  HE ES       1338 15.67                             152    0.7310 73.9 297 
 BRR  HZ I        1338 23.18         6.6 0.38            150           73.9 297 
 RUS  HZ EP   1   1338  0.64                             145    0.24 7  101 178 
 RUS  HE ES   1   1338 18.99                             145   -0.24 7  101 178 
 RUS  HZ I        1338 21.50         4.3 0.38            149            101 178 
 OCA  HE ES       1338 27.20                             131   -0.06 9  161 352 
 OCA  HZ I        1338 30.55        11.2 0.21            133            161 352 
 SPBC HZ EP       1338  5.19                             130   -0.07 9  165 220 
 SPBC HE ES       1338 27.82                             130   -0.06 9  165 220 
 SPBC HZ I        1338 30.09         8.4 0.24            132            165 220 
 ZAR  HE ES       1338 34.40                             123   -0.60 8  207 292 
 ZAR  HZ I        1338 41.47         5.9 0.32            124            207 292 
 NOR  HZ EP       1338 12.93                             119    0.43 8  237 235 
 NOR  HE ES   1   1338 40.76                             119   -0.01 6  237 235 
 NOR  HZ I        1338 43.62         3.9 0.14            121            237 235 
 SML  HZ EP   1   1338 12.94                             118   -0.30 6  245 335 
 SML  HE ES   1   1338 41.95                             118   -0.14 6  245 335 
 SML  HZ I        1338 44.89         7.7 0.07            121            245 335 
                                                                                
