 2013 1031 2205 53.6 L   6.796 -73.113141.2  RSN  8 0.6 2.1LRSN                1
 GAP=141        1.22       4.9     6.4  8.0  0.2268E+00  0.1412E+02 -0.4505E+01E
 Epicentro: LOS SANTOS - SANTANDER                                             3
 ACTION:UPD 13-11-25 09:24 OP:ep   STATUS:               ID:20131031220553 L   I
 OLDACT:UP  13-10-31 22:36 OP:cam  STATUS:               ID:20131031215838     3
 OLDACT:UP  13-10-31 22:36 OP:cam  STATUS:               ID:20131031215838     3
 OLDACT:REG 13-10-31 22:08 OP:cam  STATUS:               ID:20131031215838     3
 2013-10-31-2158-38M.COL___219                                                 6
 STAT SP IPHASW D HRMM SECON CODA AMPLIT PERI AZIMU VELO AIN AR TRES W  DIS CAZ7
 BAR2 SZ EP       22 6 12.76                             170    0.0510 23.8 199 
 BAR2 SZ ES       22 6 26.92                             170   -0.6810 23.8 199 
 BAR2 SZ I        22 6 28.93        62.4 0.18            162           23.8 199 
 BRR  HZ EP       22 6 14.60                             151    0.1210 74.6 298 
 BRR  HE ES       22 6 31.29                             151    0.5510 74.6 298 
 PAM  SZ EP       22 6 15.70                             151    0.4610 75.5  37 
 PAM  SN ES   1   22 6 32.42                             151    0.32 7 75.5  37 
 RUS  HZ EP       22 6 16.88                             143    0.0010 99.9 178 
 RUS  HN ES   1   22 6 35.10                             143    0.08 7 99.9 178 
 RUS  HZ I        22 6 37.05         9.6 0.32            135           99.9 178 
 PTB  HZ EP   1   22 6 20.05                             130   -0.49 7  151 259 
 PTB  HZ I        22 6 43.29        10.2 0.26            121            151 259 
 ZAR  HZ EP   1   22 6 27.40                             121    1.26 6  208 292 
 ZAR  HN ES   1   22 6 52.15                             121    0.65 6  208 292 
 ZAR  HZ I        22 6 53.26        14.3 0.52            114            208 292 
 NOR  HZ EP   1   22 6 29.68                             117    0.30 6  237 235 
 NOR  HN ES       22 6 56.81                             117   -0.45 8  237 235 
 NOR  HZ I        22 7  5.40         7.2 0.20            110            237 235 
 SML  HZ EP       22 6 29.33                             116   -0.88 8  246 335 
 SML  HN ES       22 6 57.92                             116   -0.82 8  246 335 
 SML  HZ I        22 7  7.21        13.9 0.10            111            246 335 
                                                                                
