 2011  331 2222 26.8 L   6.864 -73.314122.0  RSN  5 0.2 1.8LRSN                1
 GAP=147        0.58       5.9     6.8  5.9 -0.1695E+02 -0.9566E+01  0.3422E+01E
 Epicentro: BETULIA - SANTANDER                                                3
 ACTION:UP  11-06-16 14:37 OP:jfem STATUS:               ID:20110331222227 L   I
 2011-03-31-2217-08S.COL___138                                                 6
 STAT SP IPHASW D HRMM SECON CODA AMPLIT PERI AZIMU VELO SNR AR TRES W  DIS CAZ7
 BTL  SZ IP       2222 43.64                             176     0.310    8  40 
 BTL  SZ ES   1   2222 56.35                             176     0.1 7    8  40 
 GIR2 SZ EP       2222 43.51                             167     0.010   27  29 
 GIR2 SZ ES   2   2222 56.57                             167     0.0 5   27  29 
 BAR2 SZ EP   1   2222 43.42                             164    -0.4 7   33 154 
 BAR2 SZ I        2222 58.21        36.1 0.28                            33 154 
 BRR  HZ EP       2222 44.18                             156    -0.110   52 301 
 BRR  HZ I        2222 44.62        18.7 0.09                            52 301 
 BRR  HE ES   1   2222 57.88                             156    -0.1 7   52 301 
 GRA  SZ EP   1   2222 50.24                             131     0.2 7  126  26 
 GRA  SZ ES   1   2223  7.99                             131    -0.2 7  126  26 
 GRA  SZ I        2223 11.18         6.3 0.19                           126  26 
                                                                                
