 2015  831 2044 12.4 L   6.796 -73.123149.8  RSN 15 0.4 2.0LRSN                1
 GAP=140        0.82       2.7     3.3  4.9 -0.1453E+01  0.5119E+01  0.2847E+01E
 Epicentro: LOS SANTOS - SANTANDER                                             3
 ACTION:UPD 15-09-15 23:06 OP:cam  STATUS:               ID:20150831204412 L   I
 OLDACT:DUP 15-09-01 08:39 OP:spq  STATUS:               ID:20150831203749d    3
 2015-08-31-2037-48M.COL___361                                                 6
 STAT SP IPHASW D HRMM SECON CODA AMPLIT PERI AZIMU VELO AIN AR TRES W  DIS CAZ7
 BAR2 EZ EP       2044 32.33                             171   -0.2110 23.4 196 
 BAR2 EZ ES   1   2044 47.84                             171   -0.39 7 23.4 196 
 BAR2 EZ I        2044 48.59        18.0 0.18            168           23.4 196 
 BRR  HZ EP       2044 34.30                             152    0.1510 73.7 298 
 BRR  HN ES       2044 51.75                             152    0.6610 73.7 298 
 BRR  HZ I        2044 54.16        22.8 0.16            150           73.7 298 
 PAM  EZ EP     D 2044 35.13                             152    0.1310 76.2  38 
 PAM  EN ES       2044 52.64                             152    0.0310 76.2  38 
 PAM  EZ I        2044 54.72        11.2 0.42            156           76.2  38 
 RUS  HZ EP       2044 36.39                             145   -0.1410 99.9 177 
 RUS  HN ES   1   2044 55.19                             145   -0.14 7 99.9 177 
 RUS  HZ I        2044 56.51         8.7 0.26            145           99.9 177 
 SPBC HZ EP       2044 41.28                             130   -0.07 9  164 220 
 SPBC HE ES       2045  3.83                             130   -0.08 9  164 220 
 SPBC HZ I        2045  9.62        18.8 0.24            129            164 220 
 ZAR  HZ EP   1   2044 44.63                             123   -0.76 6  207 292 
 ZAR  HE ES       2045 10.67                             123   -0.44 8  207 292 
 ZAR  HZ I        2045 17.29        14.8 0.46            123            207 292 
 NOR  HZ EP   1   2044 48.18                             119   -0.40 6  236 235 
 NOR  HN ES       2045 16.45                             119   -0.33 8  236 235 
 NOR  HZ I        2045 21.24         9.4 0.22            119            236 235 
 SML  HZ EP   1   2044 48.70                             118   -0.74 6  245 335 
 SML  HE ES   1   2045 18.52                             118    0.21 6  245 335 
 SML  HZ I        2045 23.10         9.1 0.11            119            245 335 
 CHI  HZ EP   1   2044 50.57                             118    0.20 6  249 196 
 CHI  HN ES   1   2045 19.94                             118   -0.03 6  249 196 
 CHI  HZ I        2045 27.66         5.0 0.26            118            249 196 
 HEL  HE ES   1   2045 25.28                             115    0.45 6  274 256 
 HEL  HZ I        2045 31.41         6.0 0.26            115            274 256 
 GUY2CHZ EP       2044 56.94                             113    0.52 7  303 235 
 GUY2CHE ES       2045 30.10                             113   -0.64 7  303 235 
 GUY2CHZ I        2045 38.88         6.7 0.38                           303 235 
 DBB  SZ ES   1   2045 38.08                             110    0.33 5  342 274 
 TOL  SZ EP       2045  1.70                             110    0.69 7  345 225 
 TOL  SE ES       2045 39.48                             110    0.58 7  345 225 
 TOL  SZ I        2045 46.41         4.4 0.70            110            345 225 
 PRA  HZ EP   1   2045  6.99                             107    0.81 4  393 210 
 PRA  HN ES   1   2045 48.36                             107    0.25 4  393 210 
 PRA  HZ I        2045 53.86         3.7 0.38            108            393 210 
 ORTC HN ES   4   2045 50.68                             107    1.80 0  397 217 
 ORTC HZ I        2045 56.63         3.2 0.30            107            397 217 
                                                                                
