 2016 1231 2222 40.5 L   6.800 -73.124145.6  RSN  6 0.5 1.6LRSN                1
 GAP=240        1.17       6.8     7.3  8.0  0.2069E+02  0.1794E+02  0.3995E+01E
 Epicentro: LOS SANTOS - SANTANDER                                             3
 ACTION:UPD 17-01-11 20:21 OP:rebc STATUS:               ID:20161231222240 L   I
 OLDACT:REG 17-01-01 02:50 OP:dani STATUS:               ID:20161231221747     3
 2016-12-31-2218-00M.COL___384                                                 6
 STAT SP IPHASW D HRMM SECON CODA AMPLIT PERI AZIMU VELO AIN AR TRES W  DIS CAZ7
 BAR2 EZ ES       2223 15.13                             170   -0.2910 23.8 196 
 BRR  HZ EP     C 2223  1.96                             152    0.2110 73.3 298 
 BRR  HN ES       2223 19.03                             152    0.7110 73.3 298 
 BRR  HZ I        2223 23.60         7.9 0.38            150           73.3 298 
 RUS  HZ IP       2223  4.19                             144   -0.0310  100 177 
 RUS  HN ES       2223 22.76                             144    0.0410  100 177 
 RUS  HZ I        2223 23.67         3.7 0.24            147            100 177 
 PTB  HZ EP       2223  7.02                             131   -0.65 9  150 259 
 PTB  HN ES       2223 28.02                             131   -0.83 9  150 259 
 PTB  HZ I        2223 33.32         4.5 0.14            132            150 259 
 ZAR  HZ EP       2223 13.35                             122    0.18 8  206 292 
 ZAR  HE ES       2223 38.51                             122   -0.13 8  206 292 
 ZAR  HZ I        2223 43.92         4.4 0.29            123            206 292 
 NOR  HZ EP       2223 16.51                             118    0.08 8  237 235 
 NOR  HE ES       2223 45.31                             118    0.86 8  237 235 
 NOR  HZ I        2223 46.99         2.9 0.09            120            237 235 
                                                                                
