 2010  731 2224 49.9 L   7.442 -73.272128.0  RSN  5 0.5 1.6LRSN                1
 GAP=124        1.09      10.5    12.3 11.6 -0.8309E+02 -0.7838E+01  0.2202E+02E
 Epicentro: EL PLAYON - SANTANDER                                              3
 ACTION:UPD 10-12-01 15:21 OP:pat  STATUS:               ID:20100731222449 L   I
 2010-07-31-2224-44S.COL___123                                                 6
 STAT SP IPHASW D HRMM SECON CODA AMPLIT PERI AZIMU VELO AIN AR TRES W  DIS CAZ7
 GIR2 SZ EP   2   2225  6.74                             161    -1.1 5   41 168 
 GUE  SZ EP   1   2225  8.40                             154    -0.4 7   58  42 
 GUE  SZ ES   1   2225 23.48                             154    -0.1 7   58  42 
 GUE  SZ I        2225 23.92         6.0 0.14                            58  42 
 BRR  HZ IP     C 2225  8.35                             153    -0.210   61 233 
 BRR  HE ES   1   2225 23.55                             153     0.4 7   61 233 
 BRR  HZ I        2225 24.77        11.8 0.10                            61 233 
 GRA  SZ IP       2225  9.99                             149     0.610   71  46 
 GRA  SZ ES   1   2225 24.62                             149     0.0 7   71  46 
 GRA  SZ I        2225 28.98        12.5 0.27                            71  46 
 OCA  SZ EP   1   2225 10.80                             143     0.3 7   88 357 
 OCA  SZ ES   1   2225 26.26                             143    -0.4 7   88 357 
 OCA  SZ I        2225 28.97         6.9 0.44                            88 357 
                                                                                
