 2016  331 2127 30.5 L   6.800 -73.116143.5  RSN  7 0.3 1.9LRSN                1
 GAP=140        0.75       3.5     3.6  4.8 -0.1967E+01  0.6497E+01 -0.5182E+00E
 Epicentro: LOS SANTOS - SANTANDER                                             3
 ACTION:UPD 16-05-13 21:29 OP:cam  STATUS:               ID:20160331212730 L   I
 OLDACT:UP  16-04-01 11:33 OP:AR   STATUS:               ID:20160331212730 L   3
 OLDACT:REG 16-04-01 03:57 OP:ar   STATUS:               ID:20160331211741     3
 2016-03-31-2117-41M.COL___314                                                 6
 STAT SP IPHASW D HRMM SECON CODA AMPLIT PERI AZIMU VELO AIN AR TRES W  DIS CAZ7
 BAR2 EZ EP       2127 49.68                             170   -0.1610 24.1 198 
 BAR2 EZ ES       2128  4.95                             170    0.0010 24.1 198 
 BAR2 EZ I        2128  7.41        11.7 0.36            168           24.1 198 
 PAM  EZ EP       2127 52.51                             151    0.2010 75.3  38 
 PAM  EN ES       2128  9.52                             151    0.1610 75.3  38 
 PAM  EZ I        2128 11.49        12.9 0.60            155           75.3  38 
 RUS  HZ EP       2127 53.60                             143   -0.3810  100 178 
 RUS  HN ES       2128 12.32                             143   -0.0010  100 178 
 RUS  HZ I        2128 13.31         5.5 0.24            147            100 178 
 PTB  HZ EP   9   2127 56.32                             131   -1.22 0  151 259 
 PTB  HN ES       2128 17.42                             131   -0.02 9  151 259 
 PTB  HZ I        2128 24.85        15.9 0.40            131            151 259 
 ZAR  HZ EP       2128  2.49                             121   -0.58 8  207 292 
 ZAR  HN ES       2128 28.55                             121    0.04 8  207 292 
 ZAR  HZ I        2128 33.74        15.6 0.36            122            207 292 
 NOR  HZ EP       2128  6.45                             118    0.10 8  237 235 
 NOR  HE ES       2128 34.43                             118    0.09 8  237 235 
 NOR  HZ I        2128 39.59         7.1 0.42            119            237 235 
 GUY2CHZ EP       2128 15.14                             112    0.87 7  304 235 
 GUY2CHN ES   4   2128 50.90                             112    2.46 0  304 235 
 GUY2CHZ I        2128 58.27         5.3 0.48                           304 235 
                                                                                
