 2011  131 2248 22.5 L   6.781 -72.912132.9  RSN  4 0.3 1.3LRSN                1
 GAP=185        0.38       8.7    38.0 16.0  0.1051E+03 -0.5090E+03 -0.4244E+02E
 Epicentro: CEPITA - SANTANDER                                                 3
 ACTION:UP  11-02-08 08:44 OP:pat  STATUS:               ID:20110131224822 L   I
 2011-01-31-2246-29S.COL___138                                                 6
 STAT SP IPHASW D HRMM SECON CODA AMPLIT PERI AZIMU VELO SNR AR TRES W  DIS CAZ7
 BTL  SZ EP       2248 41.14                             161     0.010   42 291 
 BTL  SZ ES   2   2248 55.76                             161     0.1 5   42 291 
 GIR2 SZ EP   3   2248 40.36                             160    -0.8 2   45 317 
 RUS  HZ EP   3   2248 45.36                             141     0.4 2  100 191 
 RUS  HN ES   3   2249  2.22                             141    -0.2 2  100 191 
 GRA  SZ EP   3   2248 46.49                             135     0.2 2  123   6 
 GRA  SZ I        2248 48.13         2.9 0.44                           123   6 
                                                                                
