 2015  2 1 1756 11.6 L   6.774 -73.136143.7  RSN 21 0.5 2.7LRSN                1
 GAP= 73        1.03       2.4     2.8  4.8 -0.7452E+00  0.5187E+01  0.1126E+01E
 Epicentro: LOS SANTOS - SANTANDER                                             3
 ACTION:UPD 15-04-30 21:20 OP:nd   STATUS:               ID:20150201175611 L   I
 OLDACT:UP  15-02-01 21:45 OP:cam  STATUS:               ID:20150201174821d    3
 OLDACT:UP  15-02-01 21:45 OP:cam  STATUS:               ID:20150201174821d    3
 OLDACT:DUP 15-02-01 21:30 OP:cam  STATUS:               ID:20150201174821d    3
 2015-02-01-1748-20M.COL___262                                                 6
 2015  2 1 1758 17.9 L                                                         1
 2015-02-01-1758-17M.COL___262                                                 6
 STAT SP IPHASW D HRMM SECON CODA AMPLIT PERI AZIMU VELO AIN AR TRES W  DIS CAZ7
 BAR2 EZ IP     D 1756 30.99                             171    0.0410 20.7 194 
 BAR2 EZ ES       1756 45.71                             171   -0.3210 20.7 194 
 BAR2 EZ I        1756 46.93       119.3 0.18            171           20.7 194 
 BRR  HZ IP     D 1756 33.00                             151    0.3210 73.5 300 
 BRR  HN ES       1756 50.08                             151    0.9710 73.5 300 
 BRR  HZ I        1756 54.76        81.8 0.12            150           73.5 300 
 PAM  SZ EP     D 1756 33.98                             150    0.2710 79.0  38 
 PAM  SN ES       1756 51.23                             150    0.2810 79.0  38 
 PAM  SZ I        1756 53.56        79.3 0.68            149           79.0  38 
 RUS  HZ EP     C 1756 34.86                             144   -0.0910 97.6 177 
 RUS  HE ES       1756 52.79                             144   -0.3710 97.6 177 
 RUS  HZ I        1756 54.36        78.1 0.30            143           97.6 177 
 TAM  HZ IP     D 1756 39.25                             130    0.28 9  153 104 
 TAM  HZ I        1756 59.96        34.5 0.30            129            153 104 
 TAM  HE ES       1757  0.15                             130   -0.16 9  153 104 
 SPBC HZ EP     D 1756 39.98                             129    0.17 9  162 220 
 SPBC HN ES       1757  1.75                             129   -0.05 9  162 220 
 SPBC HZ I        1757  7.90       103.5 0.24            127            162 220 
 OCA  HZ EP       1756 39.83                             129   -0.23 9  163 353 
 OCA  HN ES       1757  1.61                             129   -0.63 9  163 353 
 OCA  HZ I        1757  6.37        57.9 0.26            127            163 353 
 ZAR  HZ EP       1756 44.82                             122    0.68 8  206 293 
 ZAR  HN ES       1757  9.52                             122    0.00 8  206 293 
 ZAR  HZ I        1757 16.55        61.8 0.48            120            206 293 
 NOR  HZ EP       1756 46.98                             118   -0.16 8  234 235 
 NOR  HN ES   4   1757 13.61                             118   -1.24 0  234 235 
 NOR  HZ I        1757 17.04        53.4 0.16            117            234 235 
 CHI  HZ EP       1756 48.94                             117    0.01 8  246 196 
 CHI  HN ES       1757 16.99                             117   -1.04 8  246 196 
 CHI  HZ I        1757 24.01        15.0 0.30            116            246 196 
 SML  HZ EP       1756 47.98                             117   -0.48 8  247 335 
 SML  HE ES       1757 17.06                             117   -0.15 8  247 335 
 SML  HZ I        1757 24.59        63.0 0.30            115            247 335 
 HEL  HZ EP   4   1756 52.86                             114    1.10 0  272 256 
 HEL  HN ES       1757 23.12                             114    0.05 8  272 256 
 HEL  HZ I        1757 30.72        23.3 0.22            113            272 256 
 URE  HZ EP       1756 51.68                             113   -1.14 7  286 292 
 URE  HN ES   4   1757 22.71                             113   -2.25 0  286 292 
 URE  HZ I        1757 36.39        34.4 0.36            112            286 292 
 GUY2CHZ EP   2   1756 55.90                             112    0.86 4  300 235 
 GUY2CHN ES       1757 28.63                             112   -0.28 7  300 235 
 GUY2CHZ I        1757 37.27        24.9 0.28                           300 235 
 PTGC HZ EP   4   1756 53.93                             111   -1.10 0  306 159 
 RREF HZ EP   4   1756 59.10                             111    1.56 0  321 230 
 RREF HN ES       1757 33.42                             111    0.05 7  321 230 
 RREF HZ I        1757 44.00        23.3 0.50            109            321 230 
 CBOC HZ EP       1756 58.89                             109    0.43 7  334 253 
 CBOC HN ES       1757 35.12                             109    0.12 7  334 253 
 CBOC HZ I        1757 41.72        10.1 0.58            108            334 253 
 DBB  SZ EP     D 1756 59.01                             109   -0.15 7  341 275 
 DBB  SZ ES       1757 35.20                             109   -1.04 7  341 275 
 TOL  SZ EP       1757  0.46                             109    0.82 7  342 225 
 TOL  SN ES       1757 37.44                             109    0.35 7  342 225 
 TOL  SZ I        1757 45.34        19.2 0.26            108            342 225 
 MON  HZ EP   4   1756 58.74                             108   -2.10 0  356 309 
 MON  HN ES   4   1757 37.65                             108   -1.59 0  356 309 
 MON  HZ I        1757 40.00        16.3 0.64            107            356 309 
 ANIL HZ EP   4   1757  3.10                             108    1.91 0  356 225 
 ANIL HN ES   4   1757 41.34                             108    1.49 0  356 225 
 ORTC HZ EP       1757  5.49                             106    0.23 6  394 217 
 ORTC HN ES       1757 47.63                             106    0.52 6  394 217 
 ORTC HZ I        1757 55.91         8.7 0.44            105            394 217 
 PAL  HZ EP       1757  7.13                             106    0.49 6  405 240 
 PAL  HN ES       1757 49.57                             106    0.01 6  405 240 
 PAL  HZ I        1757 54.53        13.9 0.26            104            405 240 
                                                                                
