 2012  3 8 2359 37.9 L   6.793 -73.189136.0  RSN 10 0.4                        1
 GAP=131        0.81       3.8     4.5  6.8 -0.8278E+00  0.1195E+02  0.4403E+01E
 ACTION:UP  12-03-31 23:18 OP:EP   STATUS:               ID:20120308235937 L   I
 2012-03-08-2357-41M.COL___180                                                 6
 STAT SP IPHASW D HRMM SECON CODA AMPLIT PERI AZIMU VELO SNR AR TRES W  DIS CAZ7
 BAR2 SZ EP   1   2359 56.43                             170     0.1 7   22 178 
 BAR2 SZ ES   1   24 0 11.28                             170     0.5 7   22 178 
 BAR2 SZ  AML     24 0 13.30        52.0 0.21                            22 178 
 BRR  HZ EP   1   2359 58.38                             152     0.6 7   67 301 
 BRR  HZ  AML     2359 58.68        55.8 0.15                            67 301 
 PAM  SZ EP   1   2359 59.32                             148     0.0 7   81  42 
 PAM  SN ES   1   24 0 15.79                             148    -0.3 7   81  42 
 PAM  SZ  AML     24 0 18.72        11.3 0.26                            81  42 
 RUS  HZ EP   1   24 0  0.33                             142    -0.4 7  100 173 
 RUS  HN ES   1   24 0 18.34                             142    -0.1 7  100 173 
 PTB  HZ EP   1   24 0  3.45                             131    -0.2 7  143 259 
 PTB  HN ES   1   24 0 23.61                             131    -0.1 7  143 259 
 ZAR  HZ EP   1   24 0  8.95                             121    -0.4 6  200 293 
 ZAR  HN ES   1   24 0 33.76                             121     0.0 6  200 293 
 ZAR  HZ  AML     24 0 40.93        12.5 0.25                           200 293 
 NOR  SN ES   1   24 0 39.23                             117    -0.5 6  230 234 
 CHI  HZ EP   1   24 0 14.40                             115    -0.5 6  247 194 
 CHI  HN ES   1   24 0 43.71                             115     0.0 6  247 194 
 CHI  HZ  AML     24 0 52.11         5.3 0.47                           247 194 
 GUY  SZ EP   1   24 0 21.63                             111     0.8 5  299 235 
 GUY  SZ  AML     24 1  3.88        11.0 0.38                           299 235 
 PRA  HZ EP   1   24 0 31.43                             105     0.7 4  389 209 
 PRA  HN ES   1   24 1 12.44                             105     0.5 4  389 209 
 PRA  HZ  AML     24 1 15.86        12.0 0.23                           389 209 
                                                                                
