 2012  328 2102 46.2 L   6.781 -73.143148.9  RSN 12 0.3                        1
 GAP=115        0.82       3.4     3.9  5.3 -0.5078E+00  0.3854E+01  0.2202E+01E
 ACTION:UP  12-03-31 23:23 OP:EP   STATUS:               ID:20120328210246 L   I
 2012-03-28-2100-00M.COL___196                                                 6
 STAT SP IPHASW D HRMM SECON CODA AMPLIT PERI AZIMU VELO SNR AR TRES W  DIS CAZ7
 BAR2 SZ EP       21 3  6.19                             172     0.010   21 192 
 BAR2 SZ ES   1   21 3 21.75                             172     0.0 7   21 192 
 BAR2 SZ  AML     21 3 22.99        51.3 0.48                            21 192 
 BRR  HZ EP       21 3  8.12                             153     0.310   73 300 
 BRR  HN ES   1   21 3 25.45                             153     0.8 7   73 300 
 BRR  HZ  AML     21 3 27.86        77.1 0.09                            73 300 
 PAM  SZ EP       21 3  8.99                             151     0.110   79  38 
 PAM  SN ES   1   21 3 26.32                             151    -0.2 7   79  38 
 RUS  HZ EP       21 3 10.03                             145    -0.110   98 176 
 RUS  HN ES   1   21 3 28.45                             145    -0.3 7   98 176 
 RUS  HZ  AML     21 3 30.16        19.5 0.07                            98 176 
 PTB  HZ EP       21 3 13.12                             133    -0.3 9  148 260 
 PTB  HN ES   1   21 3 33.93                             133    -0.8 7  148 260 
 PTB  HZ  AML     21 3 40.18        38.5 0.28                           148 260 
 OCA  SZ EP       21 3 14.93                             130    -0.1 9  162 353 
 YOP  SZ EP   1   21 3 16.35                             127     0.0 7  177 153 
 YOP  SZ  AML     21 3 16.88        19.2 0.36                           177 153 
 ZAR  HZ EP       21 3 18.76                             123    -0.2 9  205 293 
 ZAR  HN ES   1   21 3 44.43                             123    -0.1 6  205 293 
 ZAR  HZ  AML     21 3 50.64        57.6 0.34                           205 293 
 NOR  SZ EP       21 3 22.33                             119     0.3 8  234 235 
 NOR  SN ES   1   21 3 50.19                             119     0.2 6  234 235 
 CHI  HZ EP   1   21 3 23.58                             118    -0.3 6  247 195 
 CHI  HE ES   1   21 3 53.79                             118     0.5 6  247 195 
 CHI  HZ  AML     21 3 59.57        13.5 0.41                           247 195 
 TOL  SZ EP   1   21 3 34.90                             110     0.4 5  342 225 
 PRA  HZ EP   1   21 3 39.92                             107     0.3 4  390 210 
                                                                                
