 2013  2 1 0355 36.6 L   6.788 -73.155144.8  RSN  7 0.4 1.6LRSN                1
 GAP=136        1.08       3.8     5.8  9.1  0.2426E+01  0.8499E+01  0.1116E+02E
 Epicentro: LOS SANTOS - SANTANDER                                             3
 ACTION:UPD 13-03-12 09:29 OP:ep   STATUS:               ID:20130201035536 L   I
 2013-02-01-0350-00M.COL___241                                                 6
 STAT SP IPHASW D HRMM SECON CODA AMPLIT PERI AZIMU VELO AIN AR TRES W  DIS CAZ7
 BAR2 SZ EP        355 56.16                             171    0.1110 21.8 188 
 BRR  HZ EP     D  355 58.04                             152    0.4410 70.9 300 
 BRR  HN ES        356 14.70                             152    0.7010 70.9 300 
 BRR  HN I         356 17.38         7.7 0.22            150           70.9 300 
 PAM  SZ EP        355 59.03                             150    0.2510 79.1  40 
 PAM  SN ES        356 15.71                             150   -0.4010 79.1  40 
 PAM  SN I         356 17.43         4.8 0.48            154           79.1  40 
 RUS  HZ EP        356  0.05                             144   -0.0810 99.3 175 
 RUS  HN ES        356 18.47                             144   -0.0410 99.3 175 
 RUS  HN I         356 20.51         3.2 0.22            145           99.3 175 
 OCA  HE ES        356 26.63                             129   -0.40 9  161 354 
 OCA  HE I         356 29.22        14.0 0.20            131            161 354 
 ZAR  HN ES        356 33.47                             122   -0.65 9  204 293 
 ZAR  HN I         356 40.42         4.1 0.30            122            204 293 
 CHI  HZ EP        356 14.44                             117    0.40 8  247 195 
 CHI  HN ES        356 42.59                             117   -0.68 8  247 195 
 CHI  HN I         356 48.72         1.3 0.42            118            247 195 
                                                                                
