 2013  4 2 0035 55.2 L   6.826 -73.143144.0  RSN 10 0.5 1.8LRSN                1
 GAP=136        1.12       4.2     5.3  7.9 -0.8810E+00  0.1227E+02  0.5794E+01E
 Epicentro: LOS SANTOS - SANTANDER                                             3
 ACTION:UPD 13-05-22 14:35 OP:EP   STATUS:               ID:20130402003555 L   I
 2013-04-02-0030-00M.COL___245                                                 6
 STAT SP IPHASW D HRMM SECON CODA AMPLIT PERI AZIMU VELO AIN AR TRES W  DIS CAZ7
 BAR2 SZ EP        036 14.59                             169   -0.0510 26.2 190 
 BAR2 SZ ES   1    036 29.57                             169   -0.27 7 26.2 190 
 BAR2 SZ I         036 35.61        19.6 0.22            168           26.2 190 
 BRR  HZ IP     C  036 16.38                             153    0.3210 70.1 296 
 BRR  HN ES        036 33.22                             153    0.8610 70.1 296 
 BRR  HZ I         036 38.93        13.4 0.18            154           70.1 296 
 PAM  SZ EP        036 17.48                             152    0.4310 75.0  41 
 PAM  SN ES        036 34.11                             152   -0.0110 75.0  41 
 PAM  SZ I         036 36.53        12.5 0.42            158           75.0  41 
 RUS  HZ EP        036 18.72                             143   -0.2310  103 176 
 RUS  HN ES   1    036 37.38                             143   -0.12 7  103 176 
 RUS  HZ I         036 38.62         5.6 0.36            146            103 176 
 PTB  HZ EP        036 21.44                             132   -0.62 9  149 258 
 PTB  HN ES   1    036 42.31                             132   -0.74 7  149 258 
 PTB  HZ I         036 43.79         7.3 0.20            134            149 258 
 OCA  HN ES   1    036 43.91                             130   -0.93 7  157 353 
 ZAR  HZ EP   1    036 28.44                             122    1.03 6  203 291 
 ZAR  HN ES   1    036 52.71                             122    0.15 6  203 291 
 ZAR  HZ I         036 58.20         9.5 0.24            126            203 291 
 NOR  HZ EP        036 30.94                             118   -0.05 8  237 234 
 NOR  HN ES   1    036 59.18                             118    0.24 6  237 234 
 NOR  HZ I         037  2.31         4.5 0.36            121            237 234 
 SML  HN ES   1    036 58.83                             118   -0.88 6  241 335 
 CHI  HN ES   1    037  2.69                             117    0.05 6  251 195 
 CHI  HZ I         037  7.67         2.0 0.24            120            251 195 
                                                                                
