 2014  7 4 0201 39.8 L   6.829 -73.152147.0  RSN 17 0.5 2.3LRSN                1
 GAP= 70        1.04       2.7     3.2  5.4 -0.4143E+00  0.6136E+01 -0.4269E+00E
 Epicentro: LOS SANTOS - SANTANDER                                             3
 ACTION:UPD 15-03-16 20:40 OP:nd   STATUS:               ID:20140704020139 L   I
 OLDACT:UP  14-07-04 14:41 OP:cam  STATUS:               ID:20140704020000     3
 OLDACT:UP  14-07-04 14:40 OP:cam  STATUS:               ID:20140704020000     3
 OLDACT:REG 14-07-04 12:29 OP:cam  STATUS:               ID:20140704020000     3
 2014-07-04-0200-00M.COL___279                                                 6
 STAT SP IPHASW D HRMM SECON CODA AMPLIT PERI AZIMU VELO AIN AR TRES W  DIS CAZ7
 BAR2 SZ EP     C  2 1 59.58                             169   -0.0910 26.3 187 
 BAR2 SZ ES        2 2 14.94                             169   -0.2110 26.3 187 
 BAR2 SZ I         2 2 16.35        35.0 0.46            169           26.3 187 
 BRR  HZ EP     C  2 2  1.35                             153    0.3610 69.1 297 
 BRR  HE ES   4    2 2 18.81                             153    1.30 0 69.1 297 
 BRR  HZ I         2 2 21.14        29.0 0.16            152           69.1 297 
 PAM  SZ EP        2 2  2.46                             152    0.4010 75.5  41 
 PAM  SN ES        2 2 19.81                             152    0.4010 75.5  41 
 PAM  SZ I         2 2 21.75        19.1 0.50            156           75.5  41 
 RUS  HZ EP        2 2  3.41                             143   -0.5210  104 176 
 RUS  HN ES        2 2 22.47                             143   -0.2710  104 176 
 RUS  HZ I         2 2 23.16        16.1 0.24            145            104 176 
 PTB  HZ EP        2 2  6.44                             132   -0.45 9  148 258 
 PTB  HN ES        2 2 27.89                             132   -0.11 9  148 258 
 PTB  HZ I         2 2 33.53        30.8 0.58            132            148 258 
 TAM  HZ EP     D  2 2  7.70                             130   -0.04 9  157 106 
 TAM  HN ES        2 2 29.64                             130    0.12 9  157 106 
 TAM  HZ I         2 2 32.44         8.6 0.58            135            157 106 
 SPBC HZ EP        2 2  8.50                             129   -0.11 9  165 218 
 SPBC HE ES        2 2 31.01                             129   -0.05 9  165 218 
 SPBC HZ I         2 2 37.69        43.7 0.32            130            165 218 
 ZAR  HZ EP        2 2 12.06                             123   -0.10 9  202 291 
 ZAR  HE ES        2 2 37.97                             123    0.58 9  202 291 
 ZAR  HZ I         2 2 44.00        29.3 0.20            124            202 291 
 SML  HZ EP        2 2 16.56                             118    0.38 8  241 335 
 SML  HN ES        2 2 44.45                             118   -0.09 8  241 335 
 SML  HZ I         2 2 49.31        40.2 0.10            120            241 335 
 CHI  HZ EP   1    2 2 17.45                             117   -0.45 6  251 195 
 CHI  HN ES        2 2 47.23                             117   -0.37 8  251 195 
 CHI  HZ I         2 2 50.94         8.4 0.40            119            251 195 
 HEL  HZ EP   1    2 2 20.36                             115    0.25 6  272 255 
 HEL  HE ES   4    2 2 50.26                             115   -1.27 0  272 255 
 HEL  HZ I         2 3  0.19         9.1 0.26            116            272 255 
 GUY2CHZ EP        2 2 24.51                             112    0.88 7  302 234 
 GUY2CHN ES        2 2 57.98                             112    0.18 7  302 234 
 GUY2CHZ I         2 3  6.80        11.9 0.24                           302 234 
 PTGC HZ EP   4    2 2 22.43                             112   -1.67 0  312 159 
 RREF HZ EP   4    2 2 27.38                             111    1.19 0  323 229 
 RREF HN ES   4    2 3  5.18                             111    2.82 0  323 229 
 RREF HZ I         2 3  8.09        14.3 0.26            112            323 229 
 CBOC HZ EP   1    2 2 27.58                             110    0.76 5  334 252 
 PRA  HZ EP   1    2 2 33.16                             107   -0.51 4  394 209 
 PRA  HN ES        2 3 15.67                             107    0.00 6  394 209 
 PRA  HZ I         2 3 21.18         9.2 0.46            108            394 209 
 ORTC HZ EP        2 2 34.58                             106    0.54 6  398 216 
 ORTC HN ES        2 3 17.24                             106    0.92 6  398 216 
 ORTC HZ I         2 3 20.84         5.8 0.20            108            398 216 
 SJC  HZ EP     C  2 2 34.50                             106   -0.57 6  406 327 
 SJC  HN ES  4     2 3 16.02                             106   -2.14 6  406 327 
 SJC  HZ I         2 3 21.65         3.4 0.58            107            406 327 
                                                                                
