 2015  6 5 1903 38.9 L   6.778 -73.121143.2  RSN 11 0.4 2.2LRSN                1
 GAP=141        1.00       3.0     4.0  5.4 -0.2093E+01  0.8564E+01  0.1070E+01E
 Epicentro: LOS SANTOS - SANTANDER                                             3
 ACTION:UPD 15-09-10 22:10 OP:cam  STATUS:               ID:20150605190338 L   I
 OLDACT:UP  15-06-06 00:51 OP:ar   STATUS:               ID:20150605185750     3
 OLDACT:REG 15-06-05 21:30 OP:ar   STATUS:               ID:20150605185750     3
 2015-06-05-1857-50M.COL___315                                                 6
 STAT SP IPHASW D HRMM SECON CODA AMPLIT PERI AZIMU VELO AIN AR TRES W  DIS CAZ7
 BAR2 EZ EP       19 3 58.19                             171   -0.0110 21.6 198 
 BAR2 EZ ES       19 4 13.07                             171   -0.1810 21.6 198 
 BAR2 EZ I        19 4 15.86        19.8 0.28            170           21.6 198 
 BRR  HZ EP       19 4  0.16                             151    0.1710 74.7 299 
 BRR  HN ES       19 4 16.77                             151    0.3410 74.7 299 
 BRR  HZ I        19 4 18.80        23.7 0.42            150           74.7 299 
 PAM  SZ EP       19 4  1.23                             150    0.3610 77.6  37 
 PAM  SN ES       19 4 17.84                             150   -0.1610 77.6  37 
 PAM  SZ I        19 4 20.29        18.1 0.18            154           77.6  37 
 RUS  HZ EP       19 4  2.13                             144   -0.0910 98.0 178 
 RUS  HN ES       19 4 20.16                             144   -0.2510 98.0 178 
 RUS  HZ I        19 4 25.34         5.6 0.28            146           98.0 178 
 SPBC HZ EP       19 4  7.15                             128   -0.05 9  163 220 
 SPBC HE ES       19 4 30.10                             128    0.83 9  163 220 
 SPBC HZ I        19 4 35.00        30.3 0.14            130            163 220 
 ZAR  HN ES       19 4 36.63                             121   -0.37 8  207 292 
 ZAR  HZ I        19 4 42.73        16.2 0.52            122            207 292 
 NOR  HZ EP       19 4 13.76                             118   -0.82 8  236 235 
 NOR  HN ES       19 4 41.74                             118   -0.66 8  236 235 
 NOR  HZ I        19 4 45.76        10.6 0.30            119            236 235 
 SML  HZ EP       19 4 15.66                             116   -0.10 8  247 335 
 SML  HE ES       19 4 44.20                             116   -0.30 8  247 335 
 SML  HZ I        19 4 51.74        13.6 0.22            118            247 335 
 HEL  HZ EP       19 4 20.11                             114    0.89 8  274 256 
 HEL  HN ES       19 4 50.47                             114   -0.19 8  274 256 
 HEL  HZ I        19 4 56.77         9.2 0.36            115            274 256 
 GUY2CHZ EP       19 4 23.04                             112    0.55 7  302 235 
 GUY2CHE ES       19 4 56.98                             112    0.49 7  302 235 
 GUY2CHZ I        19 5  5.05        11.8 0.74                           302 235 
 PRA  HZ EP       19 4 32.12                             106   -0.13 6  391 210 
 PRA  HE ES       19 5 13.21                             106   -0.65 6  391 210 
 PRA  HZ I        19 5 19.67         7.3 0.58            108            391 210 
                                                                                
