 2011  112 0951 25.5 L   6.800 -73.113143.6  RSN  4 0.2 1.4LRSN                1
 GAP=162        0.40       4.0    17.2  6.3 -0.4304E+02 -0.1284E+02 -0.4106E+01E
 Epicentro: LOS SANTOS - SANTANDER                                             3
 ACTION:UP  11-02-08 08:40 OP:pat  STATUS:               ID:20110112095125 L   I
 2011-01-12-0949-47S.COL___136                                                 6
 STAT SP IPHASW D HRMM SECON CODA AMPLIT PERI AZIMU VELO SNR AR TRES W  DIS CAZ7
 BTL  SZ EP   1    951 45.02                             171     0.1 8   22 307 
 BAR2 SZ EP   1    951 44.82                             170    -0.1 8   24 199 
 BAR2 SZ ES   2    951 59.89                             170    -0.2 5   24 199 
 BAR2 SZ I         952  2.71         5.1 0.28                            24 199 
 RUS  HZ EP   1    951 48.90                             143    -0.2 8  100 178 
 RUS  HN ES   2    952  7.72                             143     0.3 5  100 178 
 GRA  SZ EP        951 50.57                             137     0.110  125  16 
 GRA  SZ ES   2    952  9.85                             137    -0.1 5  125  16 
 GRA  SZ I         952 11.24         3.4 0.28                           125  16 
                                                                                
