 2011  513 0814 37.4 L   6.780 -73.100136.0  RSN  6 0.2 1.6LRSN                1
 GAP=143        0.48       3.9     6.4  5.2  0.4543E+01 -0.1102E+02 -0.1210E+01E
 Epicentro: LOS SANTOS - SANTANDER                                             3
 ACTION:UP  11-06-29 08:52 OP:tino STATUS:               ID:20110513081437 L   I
 2011-05-13-0800-00M.COL___142                                                 6
 STAT SP IPHASW D HRMM SECON CODA AMPLIT PERI AZIMU VELO SNR AR TRES W  DIS CAZ7
 BAR2 SZ EP        814 55.85                             170     0.010   23 204 
 BAR2 SZ ES   2    815  9.92                             170    -0.3 5   23 204 
 BAR2 SZ I         815 11.55        12.5 0.23                            23 204 
 BTL  SZ EP        814 56.20                             170     0.310   24 309 
 BTL  SZ ES   1    815 10.31                             170     0.0 7   24 309 
 GIR2 SZ EP        814 55.93                             165    -0.110   35 343 
 PAM  SZ EP        814 58.48                             149     0.010   76  36 
 BRR  HZ EP        814 57.64                             149    -0.210   77 298 
 BRR  HN ES   2    815 14.06                             149     0.3 5   77 298 
 BRR  HZ I         815 18.73        13.9 0.23                            77 298 
 RUS  HZ EP        815  0.01                             142     0.010   98 179 
 RUS  HN ES   2    815 17.75                             142     0.1 5   98 179 
 RUS  HZ I         815 19.97         4.1 0.48                            98 179 
                                                                                
