 2012 1115 0434  5.8 L   6.829 -73.180147.7  RSN  7 0.4 1.9LRSN                1
 GAP=131        0.79       4.4     5.9  7.4 -0.4663E+01  0.1160E+02 -0.3907E+00E
 Epicentro: ZAPATOCA - SANTANDER                                               3
 ACTION:UPD 12-12-05 15:33 OP:}ep  STATUS:               ID:20121115043405 L   I
 2012-11-15-0430-00M.COL___230                                                 6
 STAT SP IPHASW D HRMM SECON CODA AMPLIT PERI AZIMU VELO AIN AR TRES W  DIS CAZ7
 BAR2 SZ EP   1    434 25.79                             169    0.07 7 26.2 181 
 BAR2 SZ ES   1    434 41.92                             169    0.67 7 26.2 181 
 BAR2 SZ I         434 42.15        31.2 0.20                          26.2 181 
 GIR2 SZ EP   1    434 25.76                             169    0.15 7 27.7 357 
 GIR2 SZ ES   1    434 41.03                             169   -0.03 7 27.7 357 
 BRR  HZ EP   1    434 27.52                             154    0.63 7 66.4 298 
 BRR  HE ES   4    434 44.47                             154    1.13 0 66.4 298 
 BRR  HZ I         434 47.03        12.7 0.26                          66.4 298 
 PAM  SZ EP   1    434 28.57                             151    0.35 7 77.5  43 
 PAM  SE ES   1    434 45.43                             151   -0.28 7 77.5  43 
 PAM  SZ I         434 47.13        11.9 0.38                          77.5  43 
 RUS  HZ EP   1    434 29.78                             143   -0.21 7  104 174 
 RUS  HN ES   1    434 48.30                             143   -0.56 7  104 174 
 RUS  HZ I         434 50.20        10.9 0.38                           104 174 
 PTB  HZ EP   1    434 32.39                             133   -0.26 7  145 257 
 PTB  HN ES   1    434 53.47                             133   -0.12 7  145 257 
 PTB  HZ I         434 56.97        11.7 0.12                           145 257 
 OCA  HN ES   1    434 55.31                             131   -0.55 7  157 354 
                                                                                
