 2010  816 1602 11.3 L   6.736 -73.085143.3  RSN  4 0.3 1.5LRSN                1
 GAP=287        0.82      12.2    13.3  9.6 -0.1077E+03 -0.6397E+02  0.3095E+02E
 Epicentro: JORDAN - SANTANDER                                                 3
 ACTION:UP  10-09-07 10:55 OP:vdl  STATUS:               ID:20100816160211 L   I
 2010-08-16-1559-59S.COL___111                                                 6
 STAT SP IPHASW D HRMM SECON CODA AMPLIT PERI AZIMU VELO SNR AR TRES W  DIS CAZ7
 BTL  SZ EP       16 2 30.74                             170     0.010   29 315 
 BTL  SZ ES   1   16 2 45.92                             170     0.0 7   29 315 
 BRR  HZ EP       16 2 32.42                             150    -0.310   81 301 
 BRR  HZ I        16 2 34.48        10.7 0.15                            81 301 
 BRR  HE ES   1   16 2 49.65                             150     0.2 7   81 301 
 GUE  SZ EP       16 2 36.75                             138     0.510  122   8 
 GUE  SZ I        16 2 59.25         2.2 0.17                           122   8 
 GRA  SZ EP       16 2 36.52                             136    -0.210  131  14 
 GRA  SZ ES   1   16 2 56.27                             136    -0.3 7  131  14 
 GRA  SZ I        16 2 57.37         7.0 0.39                           131  14 
                                                                                
