 2017  417 1943 55.7 L   6.365 -73.544114.0  RSN  7 0.4 1.5LRSN                1
 GAP=103        1.05       4.0     3.5  7.6 -0.1406E+01  0.7938E+01  0.9304E+00E
 Epicentro: SANTA HELENA DEL OPON - SANTANDER                                  3
 ACTION:UPD 17-05-30 21:13 OP:jn   STATUS:               ID:20170417194355 L   I
 OLDACT:REG 17-04-17 21:35 OP:cog  STATUS:               ID:20170417193255     3
 2017-04-17-1938-00M.COL___371                                                 6
 STAT SP IPHASW D HRMM SECON CODA AMPLIT PERI AZIMU VELO AIN AR TRES W  DIS CAZ7
 BAR2 EZ ES       1944 25.47                             156   -0.0310 47.2  58 
 BAR2 EZ I        1944 26.52        37.5 0.22            160           47.2  58 
 RUS  HZ EP       1944 14.23                             145   -0.1310 72.9 136 
 RUS  HN ES       1944 29.06                             145    0.1710 72.9 136 
 RUS  HZ I        1944 31.24         2.6 0.35            146           72.9 136 
 BRR  HZ EP       1944 14.47                             141   -0.0210 84.2 347 
 BRR  HN ES       1944 29.68                             141    0.5610 84.2 347 
 PTB  HZ EP       1944 15.42                             135   -0.6210  103 281 
 PTB  HN ES       1944 31.20                             135   -0.6810  103 281 
 PTB  HZ I        1944 34.21         6.4 0.18            136            103 281 
 PAM  EZ EP       1944 20.20                             125   -0.21 9  143  41 
 PAM  EN ES       1944 39.57                             125   -0.09 9  143  41 
 PAM  EZ I        1944 41.07         3.2 0.24            128            143  41 
 NOR  HZ EP       1944 23.58                             119    0.76 9  171 239 
 NOR  HE ES       1944 44.08                             119    0.13 9  171 239 
 NOR  HZ I        1944 49.96         3.6 0.14            120            171 239 
 ZAR  HN ES       1944 48.08                             116    0.38 9  191 311 
                                                                                
