 2010  119 1041 38.3 L   6.819 -73.090141.1  RSN  9 0.3 2.1LRSN                1
 GAP=189        0.66       2.6     6.5  4.5 -0.3658E+01  0.1093E+02  0.3572E+00E
 Epicentro: LOS SANTOS - SANTANDER                                             3
 ACTION:UP  10-08-24 09:44 OP:vdl  STATUS:               ID:20100119104138 L   I
 2010-01-19-1037-48S.COL___096                                                 6
 STAT SP IPHASW D HRMM SECON CODA AMPLIT PERI AZIMU VELO SNR AR TRES W  DIS CAZ7
 BAR2 SZ IP       1041 57.78                             169     0.310   27 203 
 BAR2 SZ ES       1042 12.60                             169     0.210   27 203 
 GIR2 SZ EP       1041 56.94                             167    -0.510   31 338 
 GIR2 SZ ES   1   1042 11.94                             167    -0.4 7   31 338 
 RUS  BZ IP       1042  1.76                             142     0.010  102 180 
 RUS  BZ I        1042  2.65         8.6 0.10                           102 180 
 RUS  BE ES       1042 20.17                             142     0.110  102 180 
 OCA  SZ IP       1042  6.39                             129     0.2 9  159 351 
 OCA  SZ I        1042  6.89        37.8 0.06                           159 351 
 OCA  SZ ES   1   1042 27.94                             129     0.1 7  159 351 
 CHI  HZ IP       1042 16.17                             116     0.0 8  252 196 
 CHI  HE ES   1   1042 45.60                             116    -0.1 6  252 196 
 CHI  HZ I        1042 48.53         4.9 0.68                           252 196 
 HEL  HE ES   2   1042 51.46                             113     0.7 4  279 256 
 HEL  HZ I        1042 56.85         5.0 0.48                           279 256 
 RREF BE ES   2   1043  1.32                             109     0.0 3  328 230 
 RREF BZ I        1043  5.95         5.7 0.74                           328 230 
 TOL  SZ EP   1   1042 26.95                             108    -0.1 5  349 225 
 TOL  SZ ES   1   1043  4.59                             108    -0.5 5  349 225 
 PRA  HZ EP   1   1042 32.43                             105     0.2 4  397 210 
 PRA  HE ES   2   1043 14.30                             105     0.0 3  397 210 
 PRA  HZ I        1043 19.76         5.9 0.42                           397 210 
                                                                                
