 2014 1026 1617 35.0 L   6.898 -73.179139.3  RSN 16 0.5 2.3LRSN                1
 GAP=100        1.73       6.5     5.8  8.4 -0.8601E+01  0.6160E+01  0.1713E+02E
 Epicentro: BETULIA - SANTANDER                                                3
 ACTION:UPD 14-11-29 23:57 OP:nd   STATUS:               ID:20141026161735 L   I
 OLDACT:REG 14-10-29 15:36 OP:fm   STATUS:               ID:20141026160745     3
 2014-10-26-1607-45M.COL___280                                                 6
 STAT SP IPHASW D HRMM SECON CODA AMPLIT PERI AZIMU VELO AIN AR TRES W  DIS CAZ7
 BAR2 SZ EP       1617 54.07                             165   -0.0210 33.8 181 
 BAR2 SZ I        1617 54.35        17.7 0.22            166           33.8 181 
 BAR2 SZ ES       1618  9.00                             165   -0.0010 33.8 181 
 BRR  HZ IP     C 1617 55.46                             154    0.4710 63.3 291 
 BRR  HE ES       1618 11.33                             154    0.7410 63.3 291 
 BRR  HE I        1618 16.05        47.5 0.16            151           63.3 291 
 PAM  SZ EP     C 1617 56.31                             151    0.1310 72.0  47 
 PAM  SE ES       1618 12.76                             151    0.0410 72.0  47 
 PAM  SE I        1618 14.36        39.7 0.22            153           72.0  47 
 RUS  HZ EP       1617 58.55                             139   -0.4010  112 175 
 RUS  HE ES       1618 17.35                             139   -0.2910  112 175 
 RUS  HE I        1618 18.60        25.5 0.38            140            112 175 
 PTB  HZ EP       1618  0.69                             131   -0.64 9  147 254 
 PTB  HN ES       1618 21.52                             131   -0.36 9  147 254 
 PTB  HN I        1618 22.90        46.6 0.20            130            147 254 
 TAM  HZ EP       1618  2.64                             128   -0.14 9  162 108 
 SPBC HZ EP       1618  3.69                             126    0.08 9  170 216 
 SPBC HN ES       1618 25.98                             126    0.04 9  170 216 
 CHI  HZ EP       1618 12.68                             115   -0.70 8  258 194 
 CHI  HN ES       1618 42.70                             115   -0.63 8  258 194 
 CHI  HN I        1618 48.40        10.5 0.42            115            258 194 
 HEL  HZ EP       1618 14.74                             113   -0.06 8  271 253 
 HEL  HN ES       1618 45.92                             113    0.07 8  271 253 
 HEL  HN I        1618 53.42         8.2 0.48            113            271 253 
 URE  HZ EP   9   1618 15.67                             113    0.75 0  277 290 
 URE  HN ES       1618 44.06                                   -2.76 7  277 290 
 URE  HN I        1618 47.40        14.5 0.22            113            277 290 
 GUY2CHZ EP       1618 19.19                             111    0.50 7  305 233 
 GUY2CHN ES       1618 54.15                             111    1.37 7  305 233 
 GUY2CHN I        1619  0.86         9.7 0.50                           305 233 
 RREF HZ EP   9   1618 17.43                             109   -3.93 0  326 228 
 RREF HN ES       1618 54.40                                    0.80 7  326 228 
 CBOC HZ EP       1618 20.71                             109   -0.93 7  334 250 
 MON  HZ EP   9   1618 21.74                             108   -0.89 0  344 307 
 MON  HN ES       1618 56.81                                   -2.10 7  344 307 
 MON  HN I        1619  7.83         4.3 0.40            108            344 307 
 PRA  HZ EP       1618 28.97                             105   -0.22 6  400 208 
 PRA  HN ES       1619 11.23                             105   -0.24 6  400 208 
 PRA  HN I        1619 17.61         4.3 0.46            105            400 208 
 ORTC HZ EP       1618 29.79                             105    0.32 6  402 215 
 ORTC HN ES       1619 13.47                             105    1.50 6  402 215 
 ORTC HN I        1619 19.85        12.8 0.30            105            402 215 
                                                                                
