 2012 1028 0736 24.5 L   6.883 -73.020140.5  RSN  4 0.4 1.9LRSN                1
 GAP=222        0.67       9.1     9.6  9.4  0.2288E+02 -0.1776E+02  0.7628E+01E
 Epicentro: PIEDECUESTA - SANTANDER                                            3
 ACTION:UPD 12-11-22 17:06 OP:ep   STATUS:               ID:20121028073624 L   I
 2012-10-28-0730-00M.COL___231                                                 6
 STAT SP IPHASW D HRMM SECON CODA AMPLIT PERI AZIMU VELO AIN AR TRES W  DIS CAZ7
 BAR2 SZ EP   1    736 43.61                             164   -0.27 7 36.9 209 
 BRR  HZ EP   1    736 45.72                             148    0.05 7 80.4 288 
 BRR  HN ES        737  2.27                             148    0.1210 80.4 288 
 BRR  HN I         737  3.13        16.0 0.37                          80.4 288 
 OCA  HN ES   2    737 12.87                             129   -0.18 5  153 348 
 ZAR  HZ EP   1    736 58.22                             120    0.55 6  214 288 
 ZAR  HE ES   2    737 22.54                             120   -0.98 4  214 288 
 ZAR  HN I         737 29.79         5.1 0.16                           214 288 
                                                                                
