 2012  730 0200 44.1 L   7.410 -73.163130.6  RSN  5 0.3 1.3LRSN                1
 GAP=138        0.61       4.6     4.7  6.8 -0.7684E+01  0.1461E+02 -0.2195E+01E
 Epicentro: EL PLAYON - SANTANDER                                              3
 ACTION:UPD 12-08-14 11:46 OP:ep   STATUS:               ID:20120730020044 L   I
 2012-07-30-0200-00M.COL___215                                                 6
 STAT SP IPHASW D HRMM SECON CODA AMPLIT PERI AZIMU VELO AIN AR TRES W  DIS CAZ7
 PAM  SN ES   1    2 1 17.91                             157    -0.4 7   52  99 
 BRR  HZ EP   1    2 1  3.82                             150     0.3 7   69 241 
 BRR  HN ES   1    2 1 19.08                             150     0.4 7   69 241 
 BRR  HZ I         2 1 19.91         6.9 0.14            149             69 241 
 OCA  HZ EP   1    2 1  5.68                             142     0.3 7   93 349 
 OCA  HE ES   1    2 1 21.90                             142    -0.1 7   93 349 
 PTB  HZ EP   1    2 1 12.13                             124    -0.2 7  172 236 
 PTB  HN ES   1    2 1 34.26                             124    -0.1 7  172 236 
 PTB  HZ I         2 1 36.21         1.5 0.19            124            172 236 
 ZAR  HZ EP   1    2 1 13.77                             121    -0.1 7  187 273 
 ZAR  HN ES   1    2 1 36.68                             121    -0.4 7  187 273 
